openbareruimtenaam,huisnummer,huisletter,huisnummertoevoeging,postcode,woonplaatsnaam,gemeentenaam,provincienaam,typeadresseerbaarobject,longitude,latitude
Kerkbergweg,2,,,6063AA,Vlodrop,Roerdalen,Limburg,VBO,6.077707,51.126029
Kerkbergweg,3,,,6063AA,Vlodrop,Roerdalen,Limburg,VBO,6.079292,51.125007
Kasteelweg,1,,,6063AB,Vlodrop,Roerdalen,Limburg,VBO,6.078432,51.130819
Kasteelweg,2,,,6063AB,Vlodrop,Roerdalen,Limburg,VBO,6.076430,51.131065
Kasteelweg,3,,,6063AB,Vlodrop,Roerdalen,Limburg,VBO,6.078320,51.130486
Kasteelweg,4,,,6063AB,Vlodrop,Roerdalen,Limburg,VBO,6.076481,51.131008
Kasteelweg,6,,,6063AB,Vlodrop,Roerdalen,Limburg,VBO,6.076537,51.130940
Kasteelweg,8,,,6063AB,Vlodrop,Roerdalen,Limburg,VBO,6.076727,51.130989
Kasteelweg,10,,,6063AB,Vlodrop,Roerdalen,Limburg,VBO,6.076834,51.131023
Kasteelweg,12,,,6063AB,Vlodrop,Roerdalen,Limburg,VBO,6.076938,51.131057
Kasteelweg,14,,,6063AB,Vlodrop,Roerdalen,Limburg,VBO,6.077056,51.131093
Kasteelweg,16,,,6063AB,Vlodrop,Roerdalen,Limburg,VBO,6.077151,51.131126
Kasteelweg,18,,,6063AB,Vlodrop,Roerdalen,Limburg,VBO,6.077398,51.131000
Markt,1,,,6063AC,Vlodrop,Roerdalen,Limburg,VBO,6.077007,51.131693
Markt,2,,,6063AC,Vlodrop,Roerdalen,Limburg,VBO,6.076222,51.131358
Markt,3,,,6063AC,Vlodrop,Roerdalen,Limburg,VBO,6.076207,51.131422
Markt,4,a,,6063AC,Vlodrop,Roerdalen,Limburg,VBO,6.076282,51.131446
Markt,4,,,6063AC,Vlodrop,Roerdalen,Limburg,VBO,6.076269,51.131431
Markt,5,a,,6063AC,Vlodrop,Roerdalen,Limburg,VBO,6.076372,51.131435
Markt,5,,,6063AC,Vlodrop,Roerdalen,Limburg,VBO,6.076360,51.131457
Markt,6,a,,6063AC,Vlodrop,Roerdalen,Limburg,VBO,6.076436,51.131460
Markt,6,b,,6063AC,Vlodrop,Roerdalen,Limburg,VBO,6.076522,51.131477
Markt,6,,,6063AC,Vlodrop,Roerdalen,Limburg,VBO,6.076493,51.131473
Markt,7,a,,6063AC,Vlodrop,Roerdalen,Limburg,VBO,6.076650,51.131450
Markt,7,,,6063AC,Vlodrop,Roerdalen,Limburg,VBO,6.076652,51.131493
Markt,8,,,6063AC,Vlodrop,Roerdalen,Limburg,VBO,6.076830,51.131511
Markt,9,a,,6063AC,Vlodrop,Roerdalen,Limburg,VBO,6.077080,51.131483
Markt,9,,,6063AC,Vlodrop,Roerdalen,Limburg,VBO,6.077072,51.131542
Markt,10,,,6063AC,Vlodrop,Roerdalen,Limburg,VBO,6.077276,51.131564
Markt,11,a,,6063AC,Vlodrop,Roerdalen,Limburg,VBO,6.077386,51.131492
Markt,11,,,6063AC,Vlodrop,Roerdalen,Limburg,VBO,6.077452,51.131585
Markt,12,a,,6063AD,Vlodrop,Roerdalen,Limburg,VBO,6.077738,51.131528
Markt,12,b,,6063AD,Vlodrop,Roerdalen,Limburg,VBO,6.077754,51.131507
Markt,12,c,,6063AD,Vlodrop,Roerdalen,Limburg,VBO,6.077756,51.131491
Markt,12,,BY,6063AD,Vlodrop,Roerdalen,Limburg,VBO,6.077736,51.131613
Markt,12,,,6063AD,Vlodrop,Roerdalen,Limburg,VBO,6.077701,51.131600
Markt,13,,,6063AD,Vlodrop,Roerdalen,Limburg,VBO,6.077955,51.131612
Markt,14,,,6063AD,Vlodrop,Roerdalen,Limburg,VBO,6.078043,51.131617
Markt,15,a,,6063AD,Vlodrop,Roerdalen,Limburg,VBO,6.078339,51.131965
Markt,15,b,,6063AD,Vlodrop,Roerdalen,Limburg,VBO,6.078329,51.131956
Markt,15,,,6063AD,Vlodrop,Roerdalen,Limburg,VBO,6.078145,51.131616
Markt,16,,,6063AD,Vlodrop,Roerdalen,Limburg,VBO,6.078359,51.132006
Markt,17,a,,6063AD,Vlodrop,Roerdalen,Limburg,VBO,6.078315,51.132051
Markt,17,b,,6063AD,Vlodrop,Roerdalen,Limburg,VBO,6.078355,51.132032
Markt,18,,,6063AD,Vlodrop,Roerdalen,Limburg,VBO,6.078361,51.132168
Markt,19,,,6063AD,Vlodrop,Roerdalen,Limburg,VBO,6.077483,51.131942
Markt,20,a,,6063AD,Vlodrop,Roerdalen,Limburg,VBO,6.077143,51.131905
Markt,20,,CAFE,6063AD,Vlodrop,Roerdalen,Limburg,VBO,6.077260,51.131947
Markt,20,,LOOD,6063AD,Vlodrop,Roerdalen,Limburg,VBO,6.077237,51.131914
Markt,20,,,6063AD,Vlodrop,Roerdalen,Limburg,VBO,6.077252,51.131928
Markt,21,a,,6063AD,Vlodrop,Roerdalen,Limburg,VBO,6.076586,51.131839
Markt,21,b,,6063AD,Vlodrop,Roerdalen,Limburg,VBO,6.076411,51.131814
Markt,21,,,6063AD,Vlodrop,Roerdalen,Limburg,VBO,6.077008,51.131905
Markt,22,a,,6063AD,Vlodrop,Roerdalen,Limburg,VBO,6.076133,51.131968
Markt,22,,,6063AD,Vlodrop,Roerdalen,Limburg,VBO,6.076270,51.131795
Boomgaardstraat,1,a,,6063AE,Vlodrop,Roerdalen,Limburg,VBO,6.078562,51.131752
Boomgaardstraat,1,,,6063AE,Vlodrop,Roerdalen,Limburg,VBO,6.078435,51.131765
Boomgaardstraat,3,,,6063AE,Vlodrop,Roerdalen,Limburg,VBO,6.078713,51.131734
Boomgaardstraat,5,,,6063AE,Vlodrop,Roerdalen,Limburg,VBO,6.078883,51.131706
Boomgaardstraat,7,a,,6063AE,Vlodrop,Roerdalen,Limburg,VBO,6.079914,51.131607
Boomgaardstraat,7,,,6063AE,Vlodrop,Roerdalen,Limburg,VBO,6.079824,51.131562
Boomgaardstraat,9,a,,6063AE,Vlodrop,Roerdalen,Limburg,VBO,6.080225,51.131468
Boomgaardstraat,9,,,6063AE,Vlodrop,Roerdalen,Limburg,VBO,6.080029,51.131508
Boomgaardstraat,11,,,6063AE,Vlodrop,Roerdalen,Limburg,VBO,6.080455,51.131395
Boomgaardstraat,13,a,,6063AE,Vlodrop,Roerdalen,Limburg,VBO,6.080793,51.131588
Boomgaardstraat,13,,,6063AE,Vlodrop,Roerdalen,Limburg,VBO,6.080701,51.131357
Boomgaardstraat,15,a,,6063AE,Vlodrop,Roerdalen,Limburg,VBO,6.080886,51.131805
Boomgaardstraat,15,,,6063AE,Vlodrop,Roerdalen,Limburg,VBO,6.081089,51.131755
Boomgaardstraat,17,a,,6063AG,Vlodrop,Roerdalen,Limburg,VBO,6.081524,51.131865
Boomgaardstraat,17,,,6063AG,Vlodrop,Roerdalen,Limburg,VBO,6.081179,51.131762
Boomgaardstraat,19,a,,6063AG,Vlodrop,Roerdalen,Limburg,VBO,6.081382,51.132308
Boomgaardstraat,19,,,6063AG,Vlodrop,Roerdalen,Limburg,VBO,6.081477,51.132105
Boomgaardstraat,21,,,6063AG,Vlodrop,Roerdalen,Limburg,VBO,6.081345,51.132480
Boomgaardstraat,23,,,6063AG,Vlodrop,Roerdalen,Limburg,VBO,6.081379,51.132603
Boomgaardstraat,25,,,6063AG,Vlodrop,Roerdalen,Limburg,VBO,6.081354,51.132678
Boomgaardstraat,27,,,6063AG,Vlodrop,Roerdalen,Limburg,VBO,6.081278,51.132893
Boomgaardstraat,2,,,6063AH,Vlodrop,Roerdalen,Limburg,VBO,6.078221,51.131620
Boomgaardstraat,4,,,6063AH,Vlodrop,Roerdalen,Limburg,VBO,6.078479,51.131562
Boomgaardstraat,6,,,6063AH,Vlodrop,Roerdalen,Limburg,VBO,6.078601,51.131572
Boomgaardstraat,8,,,6063AH,Vlodrop,Roerdalen,Limburg,VBO,6.078844,51.131572
Boomgaardstraat,10,,,6063AH,Vlodrop,Roerdalen,Limburg,VBO,6.079065,51.131534
Boomgaardstraat,12,,,6063AH,Vlodrop,Roerdalen,Limburg,VBO,6.079459,51.131455
Boomgaardstraat,14,a,,6063AH,Vlodrop,Roerdalen,Limburg,VBO,6.079685,51.131396
Boomgaardstraat,14,,,6063AH,Vlodrop,Roerdalen,Limburg,VBO,6.079470,51.131394
Boomgaardstraat,16,,,6063AH,Vlodrop,Roerdalen,Limburg,VBO,6.079903,51.131413
Boomgaardstraat,20,,,6063AH,Vlodrop,Roerdalen,Limburg,VBO,6.080025,51.131379
Boomgaardstraat,22,,,6063AH,Vlodrop,Roerdalen,Limburg,VBO,6.080214,51.131288
Boomgaardstraat,24,,,6063AH,Vlodrop,Roerdalen,Limburg,VBO,6.080503,51.131205
Boomgaardstraat,26,a,,6063AH,Vlodrop,Roerdalen,Limburg,VBO,6.080900,51.130903
Boomgaardstraat,26,b,,6063AH,Vlodrop,Roerdalen,Limburg,VBO,6.081145,51.131072
Boomgaardstraat,26,c,,6063AH,Vlodrop,Roerdalen,Limburg,VBO,6.081418,51.131108
Boomgaardstraat,26,,,6063AH,Vlodrop,Roerdalen,Limburg,VBO,6.080659,51.131109
Boomgaardstraat,28,,,6063AH,Vlodrop,Roerdalen,Limburg,VBO,6.080908,51.131218
Boomgaardstraat,30,,,6063AH,Vlodrop,Roerdalen,Limburg,VBO,6.081002,51.131398
Smidstraat,1,,,6063AJ,Vlodrop,Roerdalen,Limburg,VBO,6.078838,51.131953
Smidstraat,2,,,6063AJ,Vlodrop,Roerdalen,Limburg,VBO,6.079196,51.131690
Smidstraat,3,,,6063AJ,Vlodrop,Roerdalen,Limburg,VBO,6.078839,51.132013
Smidstraat,5,,,6063AJ,Vlodrop,Roerdalen,Limburg,VBO,6.078850,51.132137
Smidstraat,6,,,6063AJ,Vlodrop,Roerdalen,Limburg,VBO,6.079133,51.131822
Smidstraat,7,,,6063AJ,Vlodrop,Roerdalen,Limburg,VBO,6.078808,51.132224
Smidstraat,8,,,6063AJ,Vlodrop,Roerdalen,Limburg,VBO,6.079226,51.132008
Grootestraat,1,,,6063AK,Vlodrop,Roerdalen,Limburg,VBO,6.078135,51.132311
Grootestraat,3,a,,6063AK,Vlodrop,Roerdalen,Limburg,VBO,6.078321,51.132312
Grootestraat,3,,,6063AK,Vlodrop,Roerdalen,Limburg,VBO,6.078336,51.132317
Grootestraat,5,a,,6063AK,Vlodrop,Roerdalen,Limburg,VBO,6.078420,51.132356
Grootestraat,5,,CAFE,6063AK,Vlodrop,Roerdalen,Limburg,VBO,6.078441,51.132324
Grootestraat,5,,,6063AK,Vlodrop,Roerdalen,Limburg,VBO,6.078449,51.132311
Grootestraat,7,,,6063AK,Vlodrop,Roerdalen,Limburg,VBO,6.078507,51.132350
Grootestraat,9,a,,6063AK,Vlodrop,Roerdalen,Limburg,VBO,6.078604,51.132391
Grootestraat,9,,,6063AK,Vlodrop,Roerdalen,Limburg,VBO,6.078602,51.132380
Grootestraat,11,,,6063AK,Vlodrop,Roerdalen,Limburg,VBO,6.078686,51.132663
Grootestraat,13,,,6063AK,Vlodrop,Roerdalen,Limburg,VBO,6.079078,51.132646
Grootestraat,15,,,6063AK,Vlodrop,Roerdalen,Limburg,VBO,6.078780,51.132355
Grootestraat,17,,,6063AK,Vlodrop,Roerdalen,Limburg,VBO,6.078938,51.132395
Grootestraat,19,,,6063AK,Vlodrop,Roerdalen,Limburg,VBO,6.079097,51.132432
Grootestraat,21,,,6063AK,Vlodrop,Roerdalen,Limburg,VBO,6.079332,51.132505
Grootestraat,23,,,6063AK,Vlodrop,Roerdalen,Limburg,VBO,6.079475,51.132604
Grootestraat,25,,,6063AK,Vlodrop,Roerdalen,Limburg,VBO,6.079677,51.132715
Grootestraat,27,,,6063AK,Vlodrop,Roerdalen,Limburg,VBO,6.079761,51.132775
Grootestraat,29,,,6063AK,Vlodrop,Roerdalen,Limburg,VBO,6.079868,51.132888
Grootestraat,31,,,6063AK,Vlodrop,Roerdalen,Limburg,VBO,6.080046,51.133002
Grootestraat,33,,,6063AK,Vlodrop,Roerdalen,Limburg,VBO,6.080016,51.133036
Grootestraat,35,,,6063AK,Vlodrop,Roerdalen,Limburg,VBO,6.080245,51.133183
Grootestraat,37,,,6063AK,Vlodrop,Roerdalen,Limburg,VBO,6.080308,51.133218
Grootestraat,39,,,6063AK,Vlodrop,Roerdalen,Limburg,VBO,6.080367,51.133252
Grootestraat,41,,,6063AK,Vlodrop,Roerdalen,Limburg,VBO,6.080458,51.133302
Grootestraat,43,,,6063AK,Vlodrop,Roerdalen,Limburg,VBO,6.080591,51.133348
Grootestraat,45,,,6063AK,Vlodrop,Roerdalen,Limburg,VBO,6.080730,51.133406
Grootestraat,47,a,GAS,6063AK,Vlodrop,Roerdalen,Limburg,VBO,6.081223,51.133637
Grootestraat,47,,,6063AK,Vlodrop,Roerdalen,Limburg,VBO,6.080998,51.133517
Grootestraat,49,,,6063AK,Vlodrop,Roerdalen,Limburg,VBO,6.080951,51.134136
Grootestraat,2,a,,6063AL,Vlodrop,Roerdalen,Limburg,VBO,6.078559,51.132190
Grootestraat,2,b,,6063AL,Vlodrop,Roerdalen,Limburg,VBO,6.078575,51.132139
Grootestraat,2,C,,6063AL,Vlodrop,Roerdalen,Limburg,VBO,6.078480,51.132202
Grootestraat,2,D,,6063AL,Vlodrop,Roerdalen,Limburg,VBO,6.078487,51.132165
Grootestraat,4,a,,6063AL,Vlodrop,Roerdalen,Limburg,VBO,6.078633,51.132157
Grootestraat,4,b,,6063AL,Vlodrop,Roerdalen,Limburg,VBO,6.078690,51.132193
Grootestraat,8,,,6063AL,Vlodrop,Roerdalen,Limburg,VBO,6.079062,51.132249
Grootestraat,10,,,6063AL,Vlodrop,Roerdalen,Limburg,VBO,6.079345,51.132262
Grootestraat,14,,,6063AL,Vlodrop,Roerdalen,Limburg,VBO,6.079519,51.132390
Grootestraat,16,,,6063AL,Vlodrop,Roerdalen,Limburg,VBO,6.079660,51.132468
Grootestraat,18,,,6063AL,Vlodrop,Roerdalen,Limburg,VBO,6.079747,51.132539
Grootestraat,20,,,6063AL,Vlodrop,Roerdalen,Limburg,VBO,6.079820,51.132582
Grootestraat,22,a,,6063AL,Vlodrop,Roerdalen,Limburg,VBO,6.080042,51.132536
Grootestraat,22,,,6063AL,Vlodrop,Roerdalen,Limburg,VBO,6.080067,51.132569
Grootestraat,24,,,6063AL,Vlodrop,Roerdalen,Limburg,VBO,6.080189,51.132858
Grootestraat,26,,,6063AL,Vlodrop,Roerdalen,Limburg,VBO,6.080319,51.132949
Grootestraat,28,,,6063AL,Vlodrop,Roerdalen,Limburg,VBO,6.080472,51.133046
Grootestraat,30,,,6063AL,Vlodrop,Roerdalen,Limburg,VBO,6.080599,51.133111
Grootestraat,32,a,,6063AL,Vlodrop,Roerdalen,Limburg,VBO,6.080753,51.133173
Grootestraat,32,,,6063AL,Vlodrop,Roerdalen,Limburg,VBO,6.080671,51.133140
Grootestraat,34,,,6063AL,Vlodrop,Roerdalen,Limburg,VBO,6.080915,51.133235
Grootestraat,36,,,6063AL,Vlodrop,Roerdalen,Limburg,VBO,6.081089,51.133292
Steinwinkelweg,1,,,6063AM,Vlodrop,Roerdalen,Limburg,VBO,6.080078,51.133130
Steinwinkelweg,2,,,6063AM,Vlodrop,Roerdalen,Limburg,VBO,6.079935,51.133414
Steinwinkelweg,3,,,6063AM,Vlodrop,Roerdalen,Limburg,VBO,6.080030,51.133149
Steinwinkelweg,4,,,6063AM,Vlodrop,Roerdalen,Limburg,VBO,6.079528,51.133537
Steinwinkelweg,5,,,6063AM,Vlodrop,Roerdalen,Limburg,VBO,6.079997,51.133160
Steinwinkelweg,7,,,6063AM,Vlodrop,Roerdalen,Limburg,VBO,6.079959,51.133186
Steinwinkelweg,13,,,6063AM,Vlodrop,Roerdalen,Limburg,VBO,6.079096,51.133578
Steinwinkelweg,15,,,6063AM,Vlodrop,Roerdalen,Limburg,VBO,6.079016,51.133605
Steinwinkelweg,20,,,6063AM,Vlodrop,Roerdalen,Limburg,VBO,6.079819,51.134509
Steinwinkelweg,25,,,6063AM,Vlodrop,Roerdalen,Limburg,VBO,6.079632,51.134598
Steinwinkelweg,27,,,6063AM,Vlodrop,Roerdalen,Limburg,VBO,6.079766,51.134641
Walstraat,1,,,6063AN,Vlodrop,Roerdalen,Limburg,VBO,6.077028,51.132805
Walstraat,2,,,6063AN,Vlodrop,Roerdalen,Limburg,VBO,6.077474,51.132625
Walstraat,3,a,,6063AN,Vlodrop,Roerdalen,Limburg,VBO,6.077255,51.132644
Walstraat,3,,,6063AN,Vlodrop,Roerdalen,Limburg,VBO,6.077246,51.132654
Walstraat,4,,,6063AN,Vlodrop,Roerdalen,Limburg,VBO,6.077652,51.132705
Walstraat,5,,,6063AN,Vlodrop,Roerdalen,Limburg,VBO,6.077464,51.132777
Walstraat,7,,,6063AN,Vlodrop,Roerdalen,Limburg,VBO,6.077569,51.132890
Walstraat,9,,,6063AN,Vlodrop,Roerdalen,Limburg,VBO,6.077881,51.132996
Walstraat,10,,,6063AN,Vlodrop,Roerdalen,Limburg,VBO,6.077998,51.132828
Walstraat,11,,,6063AN,Vlodrop,Roerdalen,Limburg,VBO,6.078028,51.133043
Walstraat,13,,,6063AN,Vlodrop,Roerdalen,Limburg,VBO,6.078448,51.133183
Walstraat,14,,,6063AN,Vlodrop,Roerdalen,Limburg,VBO,6.078370,51.132931
Walstraat,16,,,6063AN,Vlodrop,Roerdalen,Limburg,VBO,6.078542,51.132999
Walstraat,18,,,6063AN,Vlodrop,Roerdalen,Limburg,VBO,6.078761,51.133056
Walstraat,19,,,6063AN,Vlodrop,Roerdalen,Limburg,VBO,6.078854,51.133314
Walstraat,21,,,6063AN,Vlodrop,Roerdalen,Limburg,VBO,6.078952,51.133348
Walstraat,22,,,6063AN,Vlodrop,Roerdalen,Limburg,VBO,6.079204,51.133141
Walstraat,23,,,6063AN,Vlodrop,Roerdalen,Limburg,VBO,6.079140,51.133381
Walstraat,25,,,6063AN,Vlodrop,Roerdalen,Limburg,VBO,6.079235,51.133414
Kleine Wal,1,,,6063AP,Vlodrop,Roerdalen,Limburg,VBO,6.075865,51.132088
Kleine Wal,3,,,6063AP,Vlodrop,Roerdalen,Limburg,VBO,6.076069,51.132174
Kleine Wal,4,a,,6063AP,Vlodrop,Roerdalen,Limburg,VBO,6.076017,51.131805
Kleine Wal,4,,,6063AP,Vlodrop,Roerdalen,Limburg,VBO,6.075996,51.131823
Kleine Wal,6,,,6063AP,Vlodrop,Roerdalen,Limburg,VBO,6.076008,51.131883
Kleine Wal,10,,,6063AP,Vlodrop,Roerdalen,Limburg,VBO,6.076375,51.132135
Kleine Wal,12,,,6063AP,Vlodrop,Roerdalen,Limburg,VBO,6.076555,51.132200
Kleine Wal,14,,,6063AP,Vlodrop,Roerdalen,Limburg,VBO,6.076766,51.132279
Kerkstraat,1,,,6063AR,Vlodrop,Roerdalen,Limburg,VBO,6.075821,51.131370
Kerkstraat,2,,,6063AR,Vlodrop,Roerdalen,Limburg,VBO,6.075632,51.131764
Kerkstraat,3,a,,6063AR,Vlodrop,Roerdalen,Limburg,VBO,6.075452,51.131423
Kerkstraat,3,,,6063AR,Vlodrop,Roerdalen,Limburg,VBO,6.075446,51.131441
Kerkstraat,4,,PRAK,6063AR,Vlodrop,Roerdalen,Limburg,VBO,6.075344,51.131621
Kerkstraat,4,,,6063AR,Vlodrop,Roerdalen,Limburg,VBO,6.075373,51.131606
Kerkstraat,5,a,,6063AR,Vlodrop,Roerdalen,Limburg,VBO,6.075208,51.131353
Kerkstraat,5,,,6063AR,Vlodrop,Roerdalen,Limburg,VBO,6.075357,51.131412
Kerkstraat,6,,,6063AR,Vlodrop,Roerdalen,Limburg,VBO,6.075194,51.131556
Kerkstraat,7,,,6063AR,Vlodrop,Roerdalen,Limburg,VBO,6.075116,51.131107
Kerkstraat,8,,,6063AR,Vlodrop,Roerdalen,Limburg,VBO,6.075020,51.131521
Kerkstraat,9,,,6063AR,Vlodrop,Roerdalen,Limburg,VBO,6.074329,51.131141
Kerkstraat,10,,CAFE,6063AR,Vlodrop,Roerdalen,Limburg,VBO,6.074894,51.131499
Kerkstraat,10,,,6063AR,Vlodrop,Roerdalen,Limburg,VBO,6.074894,51.131496
Kerkstraat,12,,,6063AR,Vlodrop,Roerdalen,Limburg,VBO,6.074719,51.131471
Kerkstraat,14,a,,6063AR,Vlodrop,Roerdalen,Limburg,VBO,6.074468,51.131651
Kerkstraat,14,,,6063AR,Vlodrop,Roerdalen,Limburg,VBO,6.074524,51.131453
Kerkstraat,16,,,6063AR,Vlodrop,Roerdalen,Limburg,VBO,6.074293,51.131493
Koebroekweg,1,,,6063AS,Vlodrop,Roerdalen,Limburg,VBO,6.075681,51.130779
Koebroekweg,2,a,,6063AS,Vlodrop,Roerdalen,Limburg,VBO,6.075047,51.130574
Koebroekweg,2,,,6063AS,Vlodrop,Roerdalen,Limburg,VBO,6.075486,51.130688
Koebroekweg,3,,,6063AS,Vlodrop,Roerdalen,Limburg,VBO,6.074702,51.130332
Angsterweg,1,a,,6063AT,Vlodrop,Roerdalen,Limburg,VBO,6.074072,51.131015
Angsterweg,1,,,6063AT,Vlodrop,Roerdalen,Limburg,VBO,6.074053,51.131042
Angsterweg,3,,,6063AT,Vlodrop,Roerdalen,Limburg,VBO,6.074258,51.130902
Angsterweg,5,,,6063AT,Vlodrop,Roerdalen,Limburg,VBO,6.073818,51.130840
Angsterweg,7,,,6063AT,Vlodrop,Roerdalen,Limburg,VBO,6.073620,51.130707
Angsterweg,9,,,6063AT,Vlodrop,Roerdalen,Limburg,VBO,6.072986,51.130408
Angsterweg,11,,,6063AT,Vlodrop,Roerdalen,Limburg,VBO,6.073015,51.130385
Angsterweg,13,,,6063AT,Vlodrop,Roerdalen,Limburg,VBO,6.073048,51.130372
Angsterweg,15,,,6063AT,Vlodrop,Roerdalen,Limburg,VBO,6.073065,51.130357
Angsterweg,17,,,6063AT,Vlodrop,Roerdalen,Limburg,VBO,6.073098,51.130335
Angsterweg,19,,,6063AT,Vlodrop,Roerdalen,Limburg,VBO,6.073124,51.130318
Angsterweg,21,,,6063AT,Vlodrop,Roerdalen,Limburg,VBO,6.073158,51.130308
Angsterweg,23,,,6063AT,Vlodrop,Roerdalen,Limburg,VBO,6.073167,51.130289
Angsterweg,25,,,6063AT,Vlodrop,Roerdalen,Limburg,VBO,6.073153,51.130269
Angsterweg,27,,,6063AT,Vlodrop,Roerdalen,Limburg,VBO,6.073139,51.130252
Angsterweg,29,,,6063AT,Vlodrop,Roerdalen,Limburg,VBO,6.073036,51.130435
Angsterweg,31,,,6063AT,Vlodrop,Roerdalen,Limburg,VBO,6.073085,51.130466
Angsterweg,33,,,6063AT,Vlodrop,Roerdalen,Limburg,VBO,6.073111,51.130502
Angsterweg,35,,,6063AT,Vlodrop,Roerdalen,Limburg,VBO,6.072680,51.130268
Angsterweg,37,,,6063AT,Vlodrop,Roerdalen,Limburg,VBO,6.072762,51.130229
Angsterweg,39,,,6063AT,Vlodrop,Roerdalen,Limburg,VBO,6.072884,51.130177
Angsterweg,41,,,6063AT,Vlodrop,Roerdalen,Limburg,VBO,6.073046,51.130115
Angsterweg,43,,,6063AT,Vlodrop,Roerdalen,Limburg,VBO,6.072982,51.130041
Angsterweg,45,,,6063AT,Vlodrop,Roerdalen,Limburg,VBO,6.072862,51.129884
Angsterweg,47,,,6063AT,Vlodrop,Roerdalen,Limburg,VBO,6.072756,51.129907
Angsterweg,49,,,6063AT,Vlodrop,Roerdalen,Limburg,VBO,6.072639,51.129954
Angsterweg,51,,,6063AT,Vlodrop,Roerdalen,Limburg,VBO,6.072507,51.130029
Angsterweg,53,,,6063AT,Vlodrop,Roerdalen,Limburg,VBO,6.072447,51.130092
Angsterweg,65,,,6063AT,Vlodrop,Roerdalen,Limburg,VBO,6.071438,51.129502
Angsterweg,4,,,6063AV,Vlodrop,Roerdalen,Limburg,VBO,6.072313,51.130524
Angsterweg,6,a,,6063AV,Vlodrop,Roerdalen,Limburg,VBO,6.071648,51.130033
Angsterweg,6,,,6063AV,Vlodrop,Roerdalen,Limburg,VBO,6.072052,51.130338
Angsterweg,8,,REST,6063AV,Vlodrop,Roerdalen,Limburg,VBO,6.071309,51.129871
Angsterweg,8,,,6063AV,Vlodrop,Roerdalen,Limburg,VBO,6.071285,51.129851
Angsterweg,12,,,6063AV,Vlodrop,Roerdalen,Limburg,VBO,6.069885,51.128995
Angsterweg,16,a,,6063AV,Vlodrop,Roerdalen,Limburg,VBO,6.069134,51.129018
Angsterweg,16,b,,6063AV,Vlodrop,Roerdalen,Limburg,VBO,6.068427,51.128908
Angsterweg,16,,,6063AV,Vlodrop,Roerdalen,Limburg,VBO,6.068599,51.128876
Sportlaan,2,,,6063AX,Vlodrop,Roerdalen,Limburg,VBO,6.071683,51.130497
Sportlaan,4,,,6063AX,Vlodrop,Roerdalen,Limburg,VBO,6.071474,51.130623
Sportlaan,6,,,6063AX,Vlodrop,Roerdalen,Limburg,VBO,6.071308,51.130723
Sportlaan,8,,,6063AX,Vlodrop,Roerdalen,Limburg,VBO,6.071104,51.130892
Sportlaan,10,,,6063AX,Vlodrop,Roerdalen,Limburg,VBO,6.071093,51.131048
Kerkhofweg,1,,BGPL,6063AZ,Vlodrop,Roerdalen,Limburg,VBO,6.074085,51.129964
Kerkhofweg,2,,,6063AZ,Vlodrop,Roerdalen,Limburg,VBO,6.073351,51.130451
Schaapweg,1,,,6063BA,Vlodrop,Roerdalen,Limburg,VBO,6.072585,51.130862
Schaapweg,2,,,6063BA,Vlodrop,Roerdalen,Limburg,VBO,6.073766,51.131234
Schaapweg,3,a,,6063BA,Vlodrop,Roerdalen,Limburg,VBO,6.071927,51.130950
Schaapweg,3,,,6063BA,Vlodrop,Roerdalen,Limburg,VBO,6.072189,51.130918
Schaapweg,4,,,6063BA,Vlodrop,Roerdalen,Limburg,VBO,6.073560,51.131194
Schaapweg,5,a,,6063BA,Vlodrop,Roerdalen,Limburg,VBO,6.071555,51.130996
Schaapweg,5,,,6063BA,Vlodrop,Roerdalen,Limburg,VBO,6.071717,51.130976
Schaapweg,6,a,,6063BA,Vlodrop,Roerdalen,Limburg,VBO,6.073374,51.131154
Schaapweg,6,,,6063BA,Vlodrop,Roerdalen,Limburg,VBO,6.073371,51.131172
Schaapweg,7,,,6063BA,Vlodrop,Roerdalen,Limburg,VBO,6.070174,51.131023
Schaapweg,8,,,6063BA,Vlodrop,Roerdalen,Limburg,VBO,6.073276,51.131170
Schaapweg,9,,,6063BA,Vlodrop,Roerdalen,Limburg,VBO,6.069029,51.130761
Schaapweg,10,,,6063BA,Vlodrop,Roerdalen,Limburg,VBO,6.073069,51.131165
Schaapweg,11,a,,6063BA,Vlodrop,Roerdalen,Limburg,VBO,6.066415,51.130027
Schaapweg,11,b,,6063BA,Vlodrop,Roerdalen,Limburg,VBO,6.066030,51.130083
Schaapweg,11,c,,6063BA,Vlodrop,Roerdalen,Limburg,VBO,6.065829,51.130057
Schaapweg,11,,,6063BA,Vlodrop,Roerdalen,Limburg,VBO,6.066373,51.130152
Schaapweg,12,,,6063BA,Vlodrop,Roerdalen,Limburg,VBO,6.072791,51.131087
Schaapweg,13,,,6063BA,Vlodrop,Roerdalen,Limburg,VBO,6.065539,51.129922
Schaapweg,14,,,6063BA,Vlodrop,Roerdalen,Limburg,VBO,6.072534,51.131075
Schaapweg,16,a,,6063BA,Vlodrop,Roerdalen,Limburg,VBO,6.071828,51.131201
Schaapweg,16,,,6063BA,Vlodrop,Roerdalen,Limburg,VBO,6.072047,51.131136
Schaapweg,18,,TRAF,6063BA,Vlodrop,Roerdalen,Limburg,VBO,6.071711,51.131249
Schaapweg,18,,,6063BA,Vlodrop,Roerdalen,Limburg,VBO,6.071388,51.131226
Schaapweg,20,,,6063BA,Vlodrop,Roerdalen,Limburg,VBO,6.066995,51.130608
Schaapweg,22,,,6063BA,Vlodrop,Roerdalen,Limburg,VBO,6.066888,51.131023
Schaapweg,24,,,6063BA,Vlodrop,Roerdalen,Limburg,VBO,6.066857,51.131376
Schaapweg,26,,,6063BA,Vlodrop,Roerdalen,Limburg,VBO,6.066826,51.131528
Schaapweg,28,,,6063BA,Vlodrop,Roerdalen,Limburg,VBO,6.066745,51.131761
Schaapweg,30,a,,6063BA,Vlodrop,Roerdalen,Limburg,VBO,6.066666,51.132120
Schaapweg,30,b,,6063BA,Vlodrop,Roerdalen,Limburg,VBO,6.066702,51.131982
Beatrixsingel,1,a,,6063BB,Vlodrop,Roerdalen,Limburg,VBO,6.073971,51.133515
Beatrixsingel,1,b,,6063BB,Vlodrop,Roerdalen,Limburg,VBO,6.073843,51.133430
Beatrixsingel,1,,,6063BB,Vlodrop,Roerdalen,Limburg,VBO,6.074033,51.133557
Beatrixsingel,2,,TRAF,6063BB,Vlodrop,Roerdalen,Limburg,VBO,6.073757,51.133683
Beatrixsingel,2,,,6063BB,Vlodrop,Roerdalen,Limburg,VBO,6.073700,51.133588
Beatrixsingel,3,,,6063BB,Vlodrop,Roerdalen,Limburg,VBO,6.073782,51.133386
Beatrixsingel,4,,,6063BB,Vlodrop,Roerdalen,Limburg,VBO,6.073638,51.133551
Beatrixsingel,5,,,6063BB,Vlodrop,Roerdalen,Limburg,VBO,6.073678,51.133307
Beatrixsingel,6,,,6063BB,Vlodrop,Roerdalen,Limburg,VBO,6.073530,51.133473
Beatrixsingel,7,,,6063BB,Vlodrop,Roerdalen,Limburg,VBO,6.073621,51.133263
Beatrixsingel,8,,,6063BB,Vlodrop,Roerdalen,Limburg,VBO,6.073472,51.133430
Beatrixsingel,10,,,6063BB,Vlodrop,Roerdalen,Limburg,VBO,6.073366,51.133347
Beatrixsingel,11,,,6063BB,Vlodrop,Roerdalen,Limburg,VBO,6.073680,51.132388
Beatrixsingel,12,,,6063BB,Vlodrop,Roerdalen,Limburg,VBO,6.073311,51.133302
Beatrixsingel,13,,,6063BB,Vlodrop,Roerdalen,Limburg,VBO,6.073774,51.132145
Beatrixsingel,14,,,6063BB,Vlodrop,Roerdalen,Limburg,VBO,6.073680,51.131600
Beatrixsingel,15,,,6063BB,Vlodrop,Roerdalen,Limburg,VBO,6.073818,51.132025
Beatrixsingel,16,,,6063BB,Vlodrop,Roerdalen,Limburg,VBO,6.073714,51.131513
Beatrixsingel,17,,,6063BB,Vlodrop,Roerdalen,Limburg,VBO,6.073834,51.131984
Beatrixsingel,18,,,6063BB,Vlodrop,Roerdalen,Limburg,VBO,6.073745,51.131433
Beatrixsingel,19,,,6063BB,Vlodrop,Roerdalen,Limburg,VBO,6.073868,51.131894
Beatrixsingel,21,,,6063BB,Vlodrop,Roerdalen,Limburg,VBO,6.073883,51.131853
Beatrixsingel,23,,,6063BB,Vlodrop,Roerdalen,Limburg,VBO,6.073916,51.131765
Beatrixsingel,25,,,6063BB,Vlodrop,Roerdalen,Limburg,VBO,6.073931,51.131724
Beatrixsingel,27,,,6063BB,Vlodrop,Roerdalen,Limburg,VBO,6.073966,51.131634
Beatrixsingel,29,,,6063BB,Vlodrop,Roerdalen,Limburg,VBO,6.073981,51.131593
Beatrixsingel,31,,,6063BB,Vlodrop,Roerdalen,Limburg,VBO,6.074169,51.131412
Beatrixsingel,33,,,6063BB,Vlodrop,Roerdalen,Limburg,VBO,6.074112,51.131378
Beatrixsingel,35,,,6063BB,Vlodrop,Roerdalen,Limburg,VBO,6.074166,51.131446
Beatrixsingel,37,,,6063BB,Vlodrop,Roerdalen,Limburg,VBO,6.074196,51.131432
Beatrixsingel,39,,,6063BB,Vlodrop,Roerdalen,Limburg,VBO,6.074140,51.131395
Beatrixsingel,41,,,6063BB,Vlodrop,Roerdalen,Limburg,VBO,6.074088,51.131363
Beatrixsingel,43,,,6063BB,Vlodrop,Roerdalen,Limburg,VBO,6.074034,51.131487
Beatrixsingel,45,,,6063BB,Vlodrop,Roerdalen,Limburg,VBO,6.074002,51.131466
Randweg,2,a,,6063BC,Vlodrop,Roerdalen,Limburg,VBO,6.075968,51.133949
Randweg,2,,,6063BC,Vlodrop,Roerdalen,Limburg,VBO,6.075272,51.133899
Randweg,4,,,6063BC,Vlodrop,Roerdalen,Limburg,VBO,6.076040,51.133965
Randweg,6,,,6063BC,Vlodrop,Roerdalen,Limburg,VBO,6.076280,51.134016
Randweg,8,,,6063BC,Vlodrop,Roerdalen,Limburg,VBO,6.076358,51.134033
Randweg,10,,,6063BC,Vlodrop,Roerdalen,Limburg,VBO,6.076657,51.134129
Randweg,12,,,6063BC,Vlodrop,Roerdalen,Limburg,VBO,6.076729,51.134154
Randweg,14,,,6063BC,Vlodrop,Roerdalen,Limburg,VBO,6.076950,51.134234
Randweg,16,,,6063BC,Vlodrop,Roerdalen,Limburg,VBO,6.077022,51.134260
Randweg,18,,,6063BC,Vlodrop,Roerdalen,Limburg,VBO,6.077243,51.134339
Randweg,20,,,6063BC,Vlodrop,Roerdalen,Limburg,VBO,6.077319,51.134366
Randweg,22,,,6063BC,Vlodrop,Roerdalen,Limburg,VBO,6.077508,51.134454
Randweg,24,,,6063BC,Vlodrop,Roerdalen,Limburg,VBO,6.077656,51.134507
Randweg,26,,,6063BC,Vlodrop,Roerdalen,Limburg,VBO,6.077784,51.134542
Randweg,28,g,,6063BC,Vlodrop,Roerdalen,Limburg,VBO,6.077955,51.135689
Randweg,28,,,6063BC,Vlodrop,Roerdalen,Limburg,VBO,6.077898,51.134583
Lindenlaan,2,,,6063BD,Vlodrop,Roerdalen,Limburg,VBO,6.076624,51.134440
Lindenlaan,4,,,6063BD,Vlodrop,Roerdalen,Limburg,VBO,6.076525,51.134611
Lindenlaan,6,,,6063BD,Vlodrop,Roerdalen,Limburg,VBO,6.076418,51.134791
Lindenlaan,8,,,6063BD,Vlodrop,Roerdalen,Limburg,VBO,6.076334,51.134959
Lindenlaan,10,,,6063BD,Vlodrop,Roerdalen,Limburg,VBO,6.076328,51.135152
Lindenlaan,12,,,6063BD,Vlodrop,Roerdalen,Limburg,VBO,6.076174,51.135298
Esdoornlaan,1,,,6063BE,Vlodrop,Roerdalen,Limburg,VBO,6.074949,51.134718
Esdoornlaan,2,,,6063BE,Vlodrop,Roerdalen,Limburg,VBO,6.075611,51.134197
Esdoornlaan,3,,,6063BE,Vlodrop,Roerdalen,Limburg,VBO,6.074922,51.134774
Esdoornlaan,4,,,6063BE,Vlodrop,Roerdalen,Limburg,VBO,6.075589,51.134283
Esdoornlaan,5,,,6063BE,Vlodrop,Roerdalen,Limburg,VBO,6.074870,51.134882
Esdoornlaan,6,,,6063BE,Vlodrop,Roerdalen,Limburg,VBO,6.075564,51.134336
Esdoornlaan,7,,,6063BE,Vlodrop,Roerdalen,Limburg,VBO,6.074842,51.134941
Esdoornlaan,8,,,6063BE,Vlodrop,Roerdalen,Limburg,VBO,6.075539,51.134388
Esdoornlaan,9,,,6063BE,Vlodrop,Roerdalen,Limburg,VBO,6.074790,51.135048
Esdoornlaan,10,,,6063BE,Vlodrop,Roerdalen,Limburg,VBO,6.075512,51.134445
Esdoornlaan,11,,,6063BE,Vlodrop,Roerdalen,Limburg,VBO,6.074763,51.135105
Esdoornlaan,12,,,6063BE,Vlodrop,Roerdalen,Limburg,VBO,6.075470,51.134502
Esdoornlaan,14,,,6063BE,Vlodrop,Roerdalen,Limburg,VBO,6.075420,51.134565
Esdoornlaan,16,,,6063BE,Vlodrop,Roerdalen,Limburg,VBO,6.075406,51.134612
Esdoornlaan,18,,,6063BE,Vlodrop,Roerdalen,Limburg,VBO,6.075385,51.134665
Esdoornlaan,20,,,6063BE,Vlodrop,Roerdalen,Limburg,VBO,6.075364,51.134719
Esdoornlaan,22,,,6063BE,Vlodrop,Roerdalen,Limburg,VBO,6.075344,51.134764
Esdoornlaan,24,,,6063BE,Vlodrop,Roerdalen,Limburg,VBO,6.075278,51.134897
Esdoornlaan,26,,,6063BE,Vlodrop,Roerdalen,Limburg,VBO,6.075250,51.134960
Acacialaan,1,,,6063BH,Vlodrop,Roerdalen,Limburg,VBO,6.074182,51.134867
Acacialaan,2,,,6063BH,Vlodrop,Roerdalen,Limburg,VBO,6.074605,51.134661
Acacialaan,3,,,6063BH,Vlodrop,Roerdalen,Limburg,VBO,6.074031,51.134925
Acacialaan,4,,,6063BH,Vlodrop,Roerdalen,Limburg,VBO,6.074594,51.134732
Acacialaan,5,,,6063BH,Vlodrop,Roerdalen,Limburg,VBO,6.073834,51.134974
Acacialaan,6,,,6063BH,Vlodrop,Roerdalen,Limburg,VBO,6.074526,51.134830
Acacialaan,7,,,6063BH,Vlodrop,Roerdalen,Limburg,VBO,6.073721,51.135067
Acacialaan,8,,,6063BH,Vlodrop,Roerdalen,Limburg,VBO,6.074517,51.134895
Acacialaan,9,,,6063BH,Vlodrop,Roerdalen,Limburg,VBO,6.073660,51.135178
Acacialaan,10,,,6063BH,Vlodrop,Roerdalen,Limburg,VBO,6.074446,51.134995
Acacialaan,11,,,6063BH,Vlodrop,Roerdalen,Limburg,VBO,6.073630,51.135309
Acacialaan,12,,,6063BH,Vlodrop,Roerdalen,Limburg,VBO,6.074363,51.135167
Acacialaan,13,,,6063BH,Vlodrop,Roerdalen,Limburg,VBO,6.073705,51.135413
Kerkepad,1,a,,6063BJ,Vlodrop,Roerdalen,Limburg,VBO,6.075195,51.132528
Kerkepad,1,,,6063BJ,Vlodrop,Roerdalen,Limburg,VBO,6.075260,51.132434
Kerkepad,2,,,6063BJ,Vlodrop,Roerdalen,Limburg,VBO,6.074844,51.132593
Kerkepad,3,,,6063BJ,Vlodrop,Roerdalen,Limburg,VBO,6.075282,51.132383
Kerkepad,4,,,6063BJ,Vlodrop,Roerdalen,Limburg,VBO,6.074866,51.132540
Kerkepad,5,,,6063BJ,Vlodrop,Roerdalen,Limburg,VBO,6.075268,51.132277
Kerkepad,6,,,6063BJ,Vlodrop,Roerdalen,Limburg,VBO,6.074880,51.132435
Kerkepad,7,,,6063BJ,Vlodrop,Roerdalen,Limburg,VBO,6.075291,51.132224
Kerkepad,8,,,6063BJ,Vlodrop,Roerdalen,Limburg,VBO,6.074902,51.132384
Kerkepad,9,,,6063BJ,Vlodrop,Roerdalen,Limburg,VBO,6.074886,51.132254
Kerkepad,10,,,6063BJ,Vlodrop,Roerdalen,Limburg,VBO,6.074438,51.132378
Kerkepad,11,,,6063BJ,Vlodrop,Roerdalen,Limburg,VBO,6.074761,51.132233
Kerkepad,12,,,6063BJ,Vlodrop,Roerdalen,Limburg,VBO,6.074418,51.132419
Kerkepad,13,,,6063BJ,Vlodrop,Roerdalen,Limburg,VBO,6.074647,51.132217
Kerkepad,15,,,6063BJ,Vlodrop,Roerdalen,Limburg,VBO,6.074525,51.132195
Kerkepad,17,,,6063BJ,Vlodrop,Roerdalen,Limburg,VBO,6.074399,51.132177
Lindenlaan,1,,,6063BK,Vlodrop,Roerdalen,Limburg,VBO,6.076192,51.134266
Lindenlaan,3,,,6063BK,Vlodrop,Roerdalen,Limburg,VBO,6.076168,51.134316
Lindenlaan,5,,,6063BK,Vlodrop,Roerdalen,Limburg,VBO,6.076143,51.134369
Lindenlaan,7,,,6063BK,Vlodrop,Roerdalen,Limburg,VBO,6.076117,51.134421
Lindenlaan,9,,,6063BK,Vlodrop,Roerdalen,Limburg,VBO,6.076098,51.134462
Lindenlaan,11,,,6063BK,Vlodrop,Roerdalen,Limburg,VBO,6.076003,51.134655
Lindenlaan,13,,,6063BK,Vlodrop,Roerdalen,Limburg,VBO,6.075948,51.134727
Lindenlaan,15,,,6063BK,Vlodrop,Roerdalen,Limburg,VBO,6.075923,51.134780
Lindenlaan,17,,,6063BK,Vlodrop,Roerdalen,Limburg,VBO,6.075877,51.134922
Lindenlaan,19,,,6063BK,Vlodrop,Roerdalen,Limburg,VBO,6.075852,51.134974
Lindenlaan,21,,,6063BK,Vlodrop,Roerdalen,Limburg,VBO,6.075831,51.135017
Eikenlaan,2,,,6063BL,Vlodrop,Roerdalen,Limburg,VBO,6.075059,51.134555
Eikenlaan,4,,,6063BL,Vlodrop,Roerdalen,Limburg,VBO,6.074963,51.134536
Eikenlaan,6,,,6063BL,Vlodrop,Roerdalen,Limburg,VBO,6.074792,51.134504
Eikenlaan,8,,,6063BL,Vlodrop,Roerdalen,Limburg,VBO,6.074696,51.134485
Eikenlaan,10,,,6063BL,Vlodrop,Roerdalen,Limburg,VBO,6.074004,51.134636
Eikenlaan,12,,,6063BL,Vlodrop,Roerdalen,Limburg,VBO,6.073840,51.134682
Eikenlaan,14,,,6063BL,Vlodrop,Roerdalen,Limburg,VBO,6.073673,51.134758
Eikenlaan,16,,,6063BL,Vlodrop,Roerdalen,Limburg,VBO,6.073508,51.134805
Eikenlaan,18,,,6063BL,Vlodrop,Roerdalen,Limburg,VBO,6.073393,51.134926
Eikenlaan,20,,,6063BL,Vlodrop,Roerdalen,Limburg,VBO,6.073293,51.135036
Eikenlaan,22,,,6063BL,Vlodrop,Roerdalen,Limburg,VBO,6.073237,51.135154
Eikenlaan,24,,,6063BL,Vlodrop,Roerdalen,Limburg,VBO,6.073179,51.135267
Eikenlaan,1,,,6063BM,Vlodrop,Roerdalen,Limburg,VBO,6.075161,51.134332
Eikenlaan,3,,,6063BM,Vlodrop,Roerdalen,Limburg,VBO,6.075075,51.134316
Eikenlaan,5,,,6063BM,Vlodrop,Roerdalen,Limburg,VBO,6.074888,51.134280
Eikenlaan,7,,,6063BM,Vlodrop,Roerdalen,Limburg,VBO,6.074796,51.134263
Eikenlaan,9,,,6063BM,Vlodrop,Roerdalen,Limburg,VBO,6.074605,51.134226
Eikenlaan,11,,,6063BM,Vlodrop,Roerdalen,Limburg,VBO,6.074520,51.134210
Eikenlaan,13,,,6063BM,Vlodrop,Roerdalen,Limburg,VBO,6.074296,51.134249
Eikenlaan,15,,,6063BM,Vlodrop,Roerdalen,Limburg,VBO,6.074109,51.134368
Eikenlaan,17,,,6063BM,Vlodrop,Roerdalen,Limburg,VBO,6.073937,51.134417
Eikenlaan,19,,,6063BM,Vlodrop,Roerdalen,Limburg,VBO,6.073833,51.134422
Eikenlaan,21,,,6063BM,Vlodrop,Roerdalen,Limburg,VBO,6.073682,51.134489
Eikenlaan,23,,,6063BM,Vlodrop,Roerdalen,Limburg,VBO,6.073581,51.134494
Eikenlaan,25,,,6063BM,Vlodrop,Roerdalen,Limburg,VBO,6.073430,51.134561
Eikenlaan,27,,,6063BM,Vlodrop,Roerdalen,Limburg,VBO,6.073326,51.134567
Eikenlaan,31,,,6063BM,Vlodrop,Roerdalen,Limburg,VBO,6.073047,51.134788
Eikenlaan,33,,,6063BM,Vlodrop,Roerdalen,Limburg,VBO,6.073007,51.134893
Bergerweg,1,,,6063BN,Vlodrop,Roerdalen,Limburg,VBO,6.077534,51.132287
Bergerweg,3,,,6063BN,Vlodrop,Roerdalen,Limburg,VBO,6.077368,51.132322
Bergerweg,5,a,,6063BN,Vlodrop,Roerdalen,Limburg,VBO,6.077050,51.132201
Bergerweg,5,,,6063BN,Vlodrop,Roerdalen,Limburg,VBO,6.076918,51.132374
Bergerweg,7,,,6063BN,Vlodrop,Roerdalen,Limburg,VBO,6.076477,51.132351
Bergerweg,9,,,6063BN,Vlodrop,Roerdalen,Limburg,VBO,6.076418,51.132421
Bergerweg,11,,,6063BN,Vlodrop,Roerdalen,Limburg,VBO,6.076283,51.132653
Bergerweg,13,a,,6063BN,Vlodrop,Roerdalen,Limburg,VBO,6.076115,51.132821
Bergerweg,13,,,6063BN,Vlodrop,Roerdalen,Limburg,VBO,6.076169,51.132767
Bergerweg,15,,,6063BN,Vlodrop,Roerdalen,Limburg,VBO,6.075926,51.132954
Bergerweg,17,,,6063BN,Vlodrop,Roerdalen,Limburg,VBO,6.075830,51.133105
Bergerweg,19,,,6063BN,Vlodrop,Roerdalen,Limburg,VBO,6.075326,51.133330
Bergerweg,21,a,,6063BN,Vlodrop,Roerdalen,Limburg,VBO,6.074789,51.133236
Bergerweg,21,,WINK,6063BN,Vlodrop,Roerdalen,Limburg,VBO,6.075162,51.133400
Bergerweg,21,,,6063BN,Vlodrop,Roerdalen,Limburg,VBO,6.075180,51.133409
Bergerweg,23,,,6063BN,Vlodrop,Roerdalen,Limburg,VBO,6.074850,51.133354
Bergerweg,25,a,,6063BN,Vlodrop,Roerdalen,Limburg,VBO,6.074615,51.133605
Bergerweg,25,b,,6063BN,Vlodrop,Roerdalen,Limburg,VBO,6.074457,51.133669
Bergerweg,25,c,,6063BN,Vlodrop,Roerdalen,Limburg,VBO,6.074371,51.133704
Bergerweg,25,,,6063BN,Vlodrop,Roerdalen,Limburg,VBO,6.074692,51.133574
Bergerweg,27,,,6063BN,Vlodrop,Roerdalen,Limburg,VBO,6.074045,51.133869
Bergerweg,29,,,6063BN,Vlodrop,Roerdalen,Limburg,VBO,6.073309,51.133992
Bergerweg,31,,,6063BN,Vlodrop,Roerdalen,Limburg,VBO,6.073281,51.134049
Bergerweg,33,,,6063BN,Vlodrop,Roerdalen,Limburg,VBO,6.072913,51.134146
Bergerweg,35,,,6063BN,Vlodrop,Roerdalen,Limburg,VBO,6.072704,51.134206
Bergerweg,37,,,6063BN,Vlodrop,Roerdalen,Limburg,VBO,6.072495,51.134266
Bergerweg,39,,,6063BP,Vlodrop,Roerdalen,Limburg,VBO,6.072092,51.134439
Bergerweg,41,,WINK,6063BP,Vlodrop,Roerdalen,Limburg,VBO,6.071824,51.134459
Bergerweg,41,,,6063BP,Vlodrop,Roerdalen,Limburg,VBO,6.071809,51.134463
Bergerweg,43,,,6063BP,Vlodrop,Roerdalen,Limburg,VBO,6.071373,51.134626
Bergerweg,45,,,6063BP,Vlodrop,Roerdalen,Limburg,VBO,6.071258,51.134664
Bergerweg,47,,,6063BP,Vlodrop,Roerdalen,Limburg,VBO,6.071039,51.134676
Bergerweg,49,,,6063BP,Vlodrop,Roerdalen,Limburg,VBO,6.070818,51.134742
Bergerweg,51,,,6063BP,Vlodrop,Roerdalen,Limburg,VBO,6.070418,51.134878
Bergerweg,53,,,6063BP,Vlodrop,Roerdalen,Limburg,VBO,6.069556,51.135115
Bergerweg,55,,,6063BP,Vlodrop,Roerdalen,Limburg,VBO,6.069257,51.135175
Bergerweg,57,,KANT,6063BP,Vlodrop,Roerdalen,Limburg,VBO,6.069008,51.135244
Bergerweg,57,,,6063BP,Vlodrop,Roerdalen,Limburg,VBO,6.069021,51.135252
Bergerweg,59,,,6063BP,Vlodrop,Roerdalen,Limburg,VBO,6.068767,51.135316
Bergerweg,61,,,6063BP,Vlodrop,Roerdalen,Limburg,VBO,6.068227,51.135493
Bergerweg,63,a,,6063BP,Vlodrop,Roerdalen,Limburg,VBO,6.067231,51.135703
Bergerweg,63,b,,6063BP,Vlodrop,Roerdalen,Limburg,VBO,6.067019,51.135765
Bergerweg,63,c,,6063BP,Vlodrop,Roerdalen,Limburg,VBO,6.066798,51.135829
Bergerweg,63,,,6063BP,Vlodrop,Roerdalen,Limburg,VBO,6.067412,51.135588
Bergerweg,65,,,6063BP,Vlodrop,Roerdalen,Limburg,VBO,6.049616,51.138352
Bergerweg,2,,WINK,6063BR,Vlodrop,Roerdalen,Limburg,VBO,6.077983,51.132344
Bergerweg,2,,,6063BR,Vlodrop,Roerdalen,Limburg,VBO,6.077978,51.132332
Bergerweg,4,,TRAF,6063BR,Vlodrop,Roerdalen,Limburg,VBO,6.077465,51.132452
Bergerweg,4,,,6063BR,Vlodrop,Roerdalen,Limburg,VBO,6.077727,51.132431
Bergerweg,6,a,,6063BR,Vlodrop,Roerdalen,Limburg,VBO,6.076897,51.132591
Bergerweg,6,b,,6063BR,Vlodrop,Roerdalen,Limburg,VBO,6.076811,51.132608
Bergerweg,8,a,,6063BR,Vlodrop,Roerdalen,Limburg,VBO,6.076644,51.132689
Bergerweg,8,b,,6063BR,Vlodrop,Roerdalen,Limburg,VBO,6.076566,51.132719
Bergerweg,8,,,6063BR,Vlodrop,Roerdalen,Limburg,VBO,6.076731,51.132655
Bergerweg,10,,,6063BR,Vlodrop,Roerdalen,Limburg,VBO,6.076347,51.132903
Bergerweg,12,,,6063BR,Vlodrop,Roerdalen,Limburg,VBO,6.076273,51.133056
Bergerweg,14,,,6063BR,Vlodrop,Roerdalen,Limburg,VBO,6.076281,51.133268
Bergerweg,16,,,6063BR,Vlodrop,Roerdalen,Limburg,VBO,6.075963,51.133242
Bergerweg,18,,,6063BR,Vlodrop,Roerdalen,Limburg,VBO,6.075915,51.133319
Bergerweg,20,,,6063BR,Vlodrop,Roerdalen,Limburg,VBO,6.075671,51.133396
Bergerweg,22,,,6063BR,Vlodrop,Roerdalen,Limburg,VBO,6.075396,51.133494
Bergerweg,24,,,6063BR,Vlodrop,Roerdalen,Limburg,VBO,6.075320,51.133525
Bergerweg,26,,,6063BR,Vlodrop,Roerdalen,Limburg,VBO,6.075046,51.133659
Bergerweg,28,,,6063BR,Vlodrop,Roerdalen,Limburg,VBO,6.074714,51.133821
Bergerweg,30,,,6063BS,Vlodrop,Roerdalen,Limburg,VBO,6.073894,51.134125
Bergerweg,32,a,,6063BS,Vlodrop,Roerdalen,Limburg,VBO,6.073392,51.134266
Bergerweg,32,,,6063BS,Vlodrop,Roerdalen,Limburg,VBO,6.073499,51.134236
Bergerweg,34,a,,6063BS,Vlodrop,Roerdalen,Limburg,VBO,6.073118,51.134344
Bergerweg,34,,,6063BS,Vlodrop,Roerdalen,Limburg,VBO,6.073224,51.134314
Bergerweg,36,a,,6063BS,Vlodrop,Roerdalen,Limburg,VBO,6.072027,51.134710
Bergerweg,36,,,6063BS,Vlodrop,Roerdalen,Limburg,VBO,6.072309,51.134548
Bergerweg,38,,,6063BS,Vlodrop,Roerdalen,Limburg,VBO,6.071600,51.134927
Bergerweg,40,a,,6063BS,Vlodrop,Roerdalen,Limburg,VBO,6.070137,51.135313
Bergerweg,40,b,,6063BS,Vlodrop,Roerdalen,Limburg,VBO,6.069769,51.135354
Bergerweg,40,c,,6063BS,Vlodrop,Roerdalen,Limburg,VBO,6.069563,51.135403
Bergerweg,40,d,,6063BS,Vlodrop,Roerdalen,Limburg,VBO,6.069195,51.135488
Bergerweg,40,e,,6063BS,Vlodrop,Roerdalen,Limburg,VBO,6.068961,51.135558
Bergerweg,40,f,,6063BS,Vlodrop,Roerdalen,Limburg,VBO,6.068753,51.135646
Bergerweg,40,,,6063BS,Vlodrop,Roerdalen,Limburg,VBO,6.070869,51.135107
Bergerweg,42,,,6063BS,Vlodrop,Roerdalen,Limburg,VBO,6.068121,51.135876
Bergerweg,44,,,6063BS,Vlodrop,Roerdalen,Limburg,VBO,6.062691,51.137202
Bergerweg,46,,,6063BS,Vlodrop,Roerdalen,Limburg,VBO,6.060403,51.141505
Bergerweg,48,,,6063BS,Vlodrop,Roerdalen,Limburg,VBO,6.047831,51.141119
St.Martinusweg,1,,,6063BT,Vlodrop,Roerdalen,Limburg,VBO,6.075181,51.133045
St.Martinusweg,3,,,6063BT,Vlodrop,Roerdalen,Limburg,VBO,6.075447,51.132918
St.Martinusweg,5,,,6063BT,Vlodrop,Roerdalen,Limburg,VBO,6.075284,51.132829
St.Martinusweg,7,,,6063BT,Vlodrop,Roerdalen,Limburg,VBO,6.075053,51.132841
St.Martinusweg,9,,,6063BT,Vlodrop,Roerdalen,Limburg,VBO,6.074748,51.132817
St.Martinusweg,11,,,6063BT,Vlodrop,Roerdalen,Limburg,VBO,6.074670,51.132807
St.Martinusweg,13,,,6063BT,Vlodrop,Roerdalen,Limburg,VBO,6.074450,51.132780
St.Martinusweg,15,,,6063BT,Vlodrop,Roerdalen,Limburg,VBO,6.074243,51.132753
St.Martinusweg,17,,,6063BT,Vlodrop,Roerdalen,Limburg,VBO,6.074035,51.132728
St.Martinusweg,19,,,6063BT,Vlodrop,Roerdalen,Limburg,VBO,6.073950,51.132717
St.Martinusweg,21,,,6063BT,Vlodrop,Roerdalen,Limburg,VBO,6.073763,51.132693
St.Martinusweg,23,,,6063BT,Vlodrop,Roerdalen,Limburg,VBO,6.073603,51.132674
St.Martinusweg,25,,,6063BT,Vlodrop,Roerdalen,Limburg,VBO,6.073281,51.132633
St.Martinusweg,27,,,6063BT,Vlodrop,Roerdalen,Limburg,VBO,6.073114,51.132611
St.Martinusweg,29,,,6063BT,Vlodrop,Roerdalen,Limburg,VBO,6.072955,51.132591
St.Martinusweg,31,,,6063BT,Vlodrop,Roerdalen,Limburg,VBO,6.072791,51.132571
St.Martinusweg,33,,,6063BT,Vlodrop,Roerdalen,Limburg,VBO,6.072610,51.132548
St.Martinusweg,35,,,6063BT,Vlodrop,Roerdalen,Limburg,VBO,6.072521,51.132537
St.Martinusweg,37,,,6063BT,Vlodrop,Roerdalen,Limburg,VBO,6.072340,51.132514
St.Martinusweg,39,,,6063BT,Vlodrop,Roerdalen,Limburg,VBO,6.072061,51.132480
St.Martinusweg,41,,,6063BT,Vlodrop,Roerdalen,Limburg,VBO,6.071973,51.132468
St.Martinusweg,43,,,6063BT,Vlodrop,Roerdalen,Limburg,VBO,6.071808,51.132445
St.Martinusweg,45,,,6063BT,Vlodrop,Roerdalen,Limburg,VBO,6.071722,51.132435
St.Martinusweg,2,a,,6063BV,Vlodrop,Roerdalen,Limburg,VBO,6.074643,51.133025
St.Martinusweg,2,b,,6063BV,Vlodrop,Roerdalen,Limburg,VBO,6.074469,51.133003
St.Martinusweg,2,c,,6063BV,Vlodrop,Roerdalen,Limburg,VBO,6.074276,51.132978
St.Martinusweg,2,,,6063BV,Vlodrop,Roerdalen,Limburg,VBO,6.074826,51.133049
St.Martinusweg,4,,,6063BV,Vlodrop,Roerdalen,Limburg,VBO,6.074116,51.132962
St.Martinusweg,6,,,6063BV,Vlodrop,Roerdalen,Limburg,VBO,6.074022,51.132948
St.Martinusweg,8,,,6063BV,Vlodrop,Roerdalen,Limburg,VBO,6.073858,51.132927
St.Martinusweg,10,,,6063BV,Vlodrop,Roerdalen,Limburg,VBO,6.073756,51.132915
St.Martinusweg,12,,,6063BV,Vlodrop,Roerdalen,Limburg,VBO,6.073593,51.132895
St.Martinusweg,14,,,6063BV,Vlodrop,Roerdalen,Limburg,VBO,6.073495,51.132888
St.Martinusweg,16,,,6063BV,Vlodrop,Roerdalen,Limburg,VBO,6.073171,51.132836
St.Martinusweg,18,,,6063BV,Vlodrop,Roerdalen,Limburg,VBO,6.072973,51.132817
St.Martinusweg,22,a,,6063BV,Vlodrop,Roerdalen,Limburg,VBO,6.072601,51.132772
St.Martinusweg,22,,,6063BV,Vlodrop,Roerdalen,Limburg,VBO,6.072766,51.132792
St.Martinusweg,24,,,6063BV,Vlodrop,Roerdalen,Limburg,VBO,6.072429,51.132752
St.Martinusweg,26,,,6063BV,Vlodrop,Roerdalen,Limburg,VBO,6.072272,51.132733
St.Martinusweg,28,,,6063BV,Vlodrop,Roerdalen,Limburg,VBO,6.072070,51.132708
St.Martinusweg,30,,,6063BV,Vlodrop,Roerdalen,Limburg,VBO,6.071717,51.132665
St.Martinusweg,32,,,6063BV,Vlodrop,Roerdalen,Limburg,VBO,6.071520,51.132642
St.Martinusweg,34,,,6063BV,Vlodrop,Roerdalen,Limburg,VBO,6.071349,51.132618
St.Martinusweg,36,,,6063BV,Vlodrop,Roerdalen,Limburg,VBO,6.070169,51.132527
St.Martinusweg,38,,,6063BV,Vlodrop,Roerdalen,Limburg,VBO,6.070094,51.132540
St.Martinusweg,40,,,6063BV,Vlodrop,Roerdalen,Limburg,VBO,6.070018,51.132522
St.Martinusweg,42,,,6063BV,Vlodrop,Roerdalen,Limburg,VBO,6.069088,51.132473
St.Martinusweg,44,,,6063BV,Vlodrop,Roerdalen,Limburg,VBO,6.069020,51.132469
St.Martinusweg,46,,,6063BV,Vlodrop,Roerdalen,Limburg,VBO,6.068951,51.132466
Schoolstraat,1,a,,6063BW,Vlodrop,Roerdalen,Limburg,VBO,6.072483,51.131744
Schoolstraat,1,,,6063BW,Vlodrop,Roerdalen,Limburg,VBO,6.073137,51.131943
Schoolstraat,2,,,6063BW,Vlodrop,Roerdalen,Limburg,VBO,6.073387,51.132280
Schoolstraat,3,,,6063BW,Vlodrop,Roerdalen,Limburg,VBO,6.072012,51.131894
Schoolstraat,4,,,6063BW,Vlodrop,Roerdalen,Limburg,VBO,6.073305,51.132270
Schoolstraat,5,,,6063BW,Vlodrop,Roerdalen,Limburg,VBO,6.071885,51.132048
Schoolstraat,6,,,6063BW,Vlodrop,Roerdalen,Limburg,VBO,6.073225,51.132259
Schoolstraat,7,,,6063BW,Vlodrop,Roerdalen,Limburg,VBO,6.072116,51.132220
Schoolstraat,8,,,6063BW,Vlodrop,Roerdalen,Limburg,VBO,6.073145,51.132249
Schoolstraat,9,,,6063BW,Vlodrop,Roerdalen,Limburg,VBO,6.071840,51.132158
Schoolstraat,10,,,6063BW,Vlodrop,Roerdalen,Limburg,VBO,6.072941,51.132224
Schoolstraat,12,,,6063BW,Vlodrop,Roerdalen,Limburg,VBO,6.072848,51.132212
Schoolstraat,16,,,6063BW,Vlodrop,Roerdalen,Limburg,VBO,6.072652,51.132186
Schoolstraat,18,,,6063BW,Vlodrop,Roerdalen,Limburg,VBO,6.072570,51.132176
Schoolstraat,20,,,6063BW,Vlodrop,Roerdalen,Limburg,VBO,6.072485,51.132165
Schoolstraat,22,,,6063BW,Vlodrop,Roerdalen,Limburg,VBO,6.072404,51.132154
Lemmekampsweg,1,,,6063BX,Vlodrop,Roerdalen,Limburg,VBO,6.071690,51.132875
Lemmekampsweg,2,a,,6063BX,Vlodrop,Roerdalen,Limburg,VBO,6.072049,51.132919
Lemmekampsweg,2,,,6063BX,Vlodrop,Roerdalen,Limburg,VBO,6.071985,51.132998
Lemmekampsweg,3,,,6063BX,Vlodrop,Roerdalen,Limburg,VBO,6.071672,51.132930
Lemmekampsweg,4,,,6063BX,Vlodrop,Roerdalen,Limburg,VBO,6.071953,51.133094
Lemmekampsweg,5,,,6063BX,Vlodrop,Roerdalen,Limburg,VBO,6.071653,51.132987
Lemmekampsweg,6,,,6063BX,Vlodrop,Roerdalen,Limburg,VBO,6.071934,51.133149
Lemmekampsweg,7,,,6063BX,Vlodrop,Roerdalen,Limburg,VBO,6.071633,51.133045
Lemmekampsweg,9,,,6063BX,Vlodrop,Roerdalen,Limburg,VBO,6.071600,51.133147
Lemmekampsweg,11,,,6063BX,Vlodrop,Roerdalen,Limburg,VBO,6.071582,51.133203
St.Antoniusstraat,1,,,6063BZ,Vlodrop,Roerdalen,Limburg,VBO,6.073105,51.133160
St.Antoniusstraat,2,,,6063BZ,Vlodrop,Roerdalen,Limburg,VBO,6.072957,51.133354
St.Antoniusstraat,3,,,6063BZ,Vlodrop,Roerdalen,Limburg,VBO,6.073026,51.133179
St.Antoniusstraat,4,,,6063BZ,Vlodrop,Roerdalen,Limburg,VBO,6.072871,51.133375
St.Antoniusstraat,5,,,6063BZ,Vlodrop,Roerdalen,Limburg,VBO,6.072869,51.133216
St.Antoniusstraat,6,,,6063BZ,Vlodrop,Roerdalen,Limburg,VBO,6.072721,51.133411
St.Antoniusstraat,7,,,6063BZ,Vlodrop,Roerdalen,Limburg,VBO,6.072789,51.133235
St.Antoniusstraat,8,a,GAR,6063BZ,Vlodrop,Roerdalen,Limburg,VBO,6.072550,51.133452
St.Antoniusstraat,8,b,GAR,6063BZ,Vlodrop,Roerdalen,Limburg,VBO,6.072509,51.133468
St.Antoniusstraat,8,c,GAR,6063BZ,Vlodrop,Roerdalen,Limburg,VBO,6.072467,51.133482
St.Antoniusstraat,8,d,GAR,6063BZ,Vlodrop,Roerdalen,Limburg,VBO,6.072417,51.133494
St.Antoniusstraat,8,,,6063BZ,Vlodrop,Roerdalen,Limburg,VBO,6.072637,51.133431
St.Antoniusstraat,9,,,6063BZ,Vlodrop,Roerdalen,Limburg,VBO,6.072639,51.133270
St.Antoniusstraat,11,,,6063BZ,Vlodrop,Roerdalen,Limburg,VBO,6.072558,51.133289
St.Antoniusstraat,13,,,6063BZ,Vlodrop,Roerdalen,Limburg,VBO,6.072409,51.133326
St.Antoniusstraat,15,,,6063BZ,Vlodrop,Roerdalen,Limburg,VBO,6.072325,51.133345
St.Maartensplein,1,,,6063CA,Vlodrop,Roerdalen,Limburg,VBO,6.072278,51.133533
St.Maartensplein,2,,,6063CA,Vlodrop,Roerdalen,Limburg,VBO,6.072249,51.133590
St.Maartensplein,3,,,6063CA,Vlodrop,Roerdalen,Limburg,VBO,6.072222,51.133645
St.Maartensplein,4,,,6063CA,Vlodrop,Roerdalen,Limburg,VBO,6.072195,51.133699
St.Maartensplein,5,,,6063CA,Vlodrop,Roerdalen,Limburg,VBO,6.072168,51.133754
St.Maartensplein,7,,,6063CA,Vlodrop,Roerdalen,Limburg,VBO,6.071818,51.133907
St.Maartensplein,8,,,6063CA,Vlodrop,Roerdalen,Limburg,VBO,6.071729,51.133889
St.Maartensplein,9,,,6063CA,Vlodrop,Roerdalen,Limburg,VBO,6.071640,51.133872
St.Maartensplein,10,,,6063CA,Vlodrop,Roerdalen,Limburg,VBO,6.071544,51.133852
St.Maartensplein,11,,,6063CA,Vlodrop,Roerdalen,Limburg,VBO,6.071413,51.133586
St.Maartensplein,12,,,6063CA,Vlodrop,Roerdalen,Limburg,VBO,6.071438,51.133531
St.Maartensplein,13,,,6063CA,Vlodrop,Roerdalen,Limburg,VBO,6.071462,51.133478
St.Maartensplein,14,,,6063CA,Vlodrop,Roerdalen,Limburg,VBO,6.071485,51.133425
St.Maartensplein,15,,,6063CA,Vlodrop,Roerdalen,Limburg,VBO,6.071508,51.133373
St.Maartensplein,16,,,6063CA,Vlodrop,Roerdalen,Limburg,VBO,6.071532,51.133321
St.Maartensplein,17,,,6063CA,Vlodrop,Roerdalen,Limburg,VBO,6.071912,51.133321
St.Maartensplein,18,,,6063CA,Vlodrop,Roerdalen,Limburg,VBO,6.072009,51.133339
St.Maartensplein,19,,,6063CA,Vlodrop,Roerdalen,Limburg,VBO,6.072106,51.133357
Pastoor de Eerensstraat,1,,,6063CB,Vlodrop,Roerdalen,Limburg,VBO,6.072057,51.134166
Pastoor de Eerensstraat,2,,,6063CB,Vlodrop,Roerdalen,Limburg,VBO,6.072257,51.134101
Pastoor de Eerensstraat,3,,,6063CB,Vlodrop,Roerdalen,Limburg,VBO,6.072024,51.134108
Pastoor de Eerensstraat,4,,,6063CB,Vlodrop,Roerdalen,Limburg,VBO,6.072226,51.134046
Pastoor de Eerensstraat,5,,,6063CB,Vlodrop,Roerdalen,Limburg,VBO,6.071992,51.134053
Pastoor de Eerensstraat,6,,,6063CB,Vlodrop,Roerdalen,Limburg,VBO,6.072194,51.133991
Pastoor de Eerensstraat,8,,,6063CB,Vlodrop,Roerdalen,Limburg,VBO,6.072163,51.133936
Linssenkampweg,2,,,6063CC,Vlodrop,Roerdalen,Limburg,VBO,6.071462,51.133836
Linssenkampweg,4,,,6063CC,Vlodrop,Roerdalen,Limburg,VBO,6.071373,51.133818
Linssenkampweg,6,,,6063CC,Vlodrop,Roerdalen,Limburg,VBO,6.071284,51.133800
Linssenkampweg,8,,,6063CC,Vlodrop,Roerdalen,Limburg,VBO,6.071196,51.133782
Linssenkampweg,10,,,6063CC,Vlodrop,Roerdalen,Limburg,VBO,6.070988,51.133740
Linssenkampweg,12,,,6063CC,Vlodrop,Roerdalen,Limburg,VBO,6.070899,51.133722
Kruisweg,1,,,6063CD,Vlodrop,Roerdalen,Limburg,VBO,6.070004,51.134967
Kruisweg,3,,,6063CD,Vlodrop,Roerdalen,Limburg,VBO,6.070008,51.134775
Kruisweg,5,,,6063CD,Vlodrop,Roerdalen,Limburg,VBO,6.070020,51.134718
Kruisweg,7,,,6063CD,Vlodrop,Roerdalen,Limburg,VBO,6.070048,51.134611
Kruisweg,9,,,6063CD,Vlodrop,Roerdalen,Limburg,VBO,6.070077,51.134555
Kruisweg,11,,,6063CD,Vlodrop,Roerdalen,Limburg,VBO,6.070104,51.134501
Kruisweg,13,,,6063CD,Vlodrop,Roerdalen,Limburg,VBO,6.070131,51.134448
Kruisweg,15,,,6063CD,Vlodrop,Roerdalen,Limburg,VBO,6.070185,51.134337
Kruisweg,17,,,6063CD,Vlodrop,Roerdalen,Limburg,VBO,6.070214,51.134280
Kruisweg,19,,,6063CD,Vlodrop,Roerdalen,Limburg,VBO,6.070264,51.134181
Kruisweg,21,,,6063CD,Vlodrop,Roerdalen,Limburg,VBO,6.070291,51.134126
Kruisweg,23,,,6063CD,Vlodrop,Roerdalen,Limburg,VBO,6.070348,51.134013
Kruisweg,25,,,6063CD,Vlodrop,Roerdalen,Limburg,VBO,6.070377,51.133958
Kruisweg,27,,,6063CD,Vlodrop,Roerdalen,Limburg,VBO,6.070405,51.133902
Kruisweg,29,,,6063CD,Vlodrop,Roerdalen,Limburg,VBO,6.070433,51.133846
Kruisweg,31,,,6063CD,Vlodrop,Roerdalen,Limburg,VBO,6.070483,51.133744
Kruisweg,33,,,6063CD,Vlodrop,Roerdalen,Limburg,VBO,6.070511,51.133690
Kruisweg,35,,,6063CE,Vlodrop,Roerdalen,Limburg,VBO,6.070627,51.133455
Kruisweg,37,,,6063CE,Vlodrop,Roerdalen,Limburg,VBO,6.070652,51.133405
Kruisweg,39,,,6063CE,Vlodrop,Roerdalen,Limburg,VBO,6.070678,51.133356
Kruisweg,41,,,6063CE,Vlodrop,Roerdalen,Limburg,VBO,6.070705,51.133304
Kruisweg,43,,,6063CE,Vlodrop,Roerdalen,Limburg,VBO,6.070752,51.133211
Kruisweg,45,,,6063CE,Vlodrop,Roerdalen,Limburg,VBO,6.070779,51.133157
Kruisweg,47,,,6063CE,Vlodrop,Roerdalen,Limburg,VBO,6.070829,51.133053
Kruisweg,49,,,6063CE,Vlodrop,Roerdalen,Limburg,VBO,6.070852,51.133000
Kruisweg,51,,,6063CE,Vlodrop,Roerdalen,Limburg,VBO,6.070893,51.132899
Kruisweg,53,,,6063CE,Vlodrop,Roerdalen,Limburg,VBO,6.070913,51.132846
Kruisweg,55,,,6063CE,Vlodrop,Roerdalen,Limburg,VBO,6.070949,51.132747
Kruisweg,57,,,6063CE,Vlodrop,Roerdalen,Limburg,VBO,6.070962,51.132697
Kruisweg,59,,,6063CE,Vlodrop,Roerdalen,Limburg,VBO,6.070976,51.132646
Kruisweg,61,,,6063CE,Vlodrop,Roerdalen,Limburg,VBO,6.070990,51.132593
Kruisweg,2,,,6063CG,Vlodrop,Roerdalen,Limburg,VBO,6.069706,51.134507
Kruisweg,4,,,6063CG,Vlodrop,Roerdalen,Limburg,VBO,6.069733,51.134454
Kruisweg,6,,,6063CG,Vlodrop,Roerdalen,Limburg,VBO,6.069783,51.134355
Kruisweg,8,,,6063CG,Vlodrop,Roerdalen,Limburg,VBO,6.069809,51.134303
Kruisweg,10,,,6063CG,Vlodrop,Roerdalen,Limburg,VBO,6.069837,51.134246
Kruisweg,12,,,6063CG,Vlodrop,Roerdalen,Limburg,VBO,6.069864,51.134194
Kruisweg,14,,,6063CG,Vlodrop,Roerdalen,Limburg,VBO,6.069914,51.134093
Kruisweg,16,,,6063CG,Vlodrop,Roerdalen,Limburg,VBO,6.069941,51.134040
Kruisweg,18,,,6063CG,Vlodrop,Roerdalen,Limburg,VBO,6.070379,51.133153
Kruisweg,20,,,6063CG,Vlodrop,Roerdalen,Limburg,VBO,6.070411,51.133090
Kruisweg,22,,,6063CG,Vlodrop,Roerdalen,Limburg,VBO,6.070464,51.132978
Kruisweg,24,,,6063CG,Vlodrop,Roerdalen,Limburg,VBO,6.070492,51.132916
Kruisweg,26,,,6063CG,Vlodrop,Roerdalen,Limburg,VBO,6.070537,51.132802
Kruisweg,28,,,6063CG,Vlodrop,Roerdalen,Limburg,VBO,6.070559,51.132739
Kruisweg,30,,,6063CG,Vlodrop,Roerdalen,Limburg,VBO,6.070594,51.132624
Kruisweg,32,,,6063CG,Vlodrop,Roerdalen,Limburg,VBO,6.070611,51.132560
de Eerensplein,1,,,6063CH,Vlodrop,Roerdalen,Limburg,VBO,6.070264,51.133366
de Eerensplein,2,,,6063CH,Vlodrop,Roerdalen,Limburg,VBO,6.070172,51.133348
de Eerensplein,3,,,6063CH,Vlodrop,Roerdalen,Limburg,VBO,6.070010,51.133328
de Eerensplein,4,,,6063CH,Vlodrop,Roerdalen,Limburg,VBO,6.069918,51.133321
de Eerensplein,5,,,6063CH,Vlodrop,Roerdalen,Limburg,VBO,6.069750,51.133312
de Eerensplein,6,,,6063CH,Vlodrop,Roerdalen,Limburg,VBO,6.069656,51.133309
de Eerensplein,7,,,6063CH,Vlodrop,Roerdalen,Limburg,VBO,6.069299,51.133293
de Eerensplein,8,,,6063CH,Vlodrop,Roerdalen,Limburg,VBO,6.069205,51.133289
de Eerensplein,9,,,6063CH,Vlodrop,Roerdalen,Limburg,VBO,6.069035,51.133282
de Eerensplein,10,,,6063CH,Vlodrop,Roerdalen,Limburg,VBO,6.068949,51.133277
de Eerensplein,11,,,6063CH,Vlodrop,Roerdalen,Limburg,VBO,6.068774,51.133270
de Eerensplein,12,,,6063CH,Vlodrop,Roerdalen,Limburg,VBO,6.068682,51.133267
de Eerensplein,13,,,6063CH,Vlodrop,Roerdalen,Limburg,VBO,6.068532,51.133564
de Eerensplein,14,,,6063CH,Vlodrop,Roerdalen,Limburg,VBO,6.068621,51.133582
de Eerensplein,15,,,6063CH,Vlodrop,Roerdalen,Limburg,VBO,6.068779,51.133613
de Eerensplein,16,,,6063CH,Vlodrop,Roerdalen,Limburg,VBO,6.068868,51.133631
de Eerensplein,17,,,6063CH,Vlodrop,Roerdalen,Limburg,VBO,6.069027,51.133663
de Eerensplein,18,,,6063CH,Vlodrop,Roerdalen,Limburg,VBO,6.069115,51.133680
de Eerensplein,19,,,6063CH,Vlodrop,Roerdalen,Limburg,VBO,6.069466,51.133750
de Eerensplein,20,,,6063CH,Vlodrop,Roerdalen,Limburg,VBO,6.069692,51.133795
de Eerensplein,21,,,6063CH,Vlodrop,Roerdalen,Limburg,VBO,6.069780,51.133813
de Eerensplein,22,,,6063CH,Vlodrop,Roerdalen,Limburg,VBO,6.069978,51.133852
Gerard Krekelbergstraat,1,,,6063CJ,Vlodrop,Roerdalen,Limburg,VBO,6.069661,51.133104
Gerard Krekelbergstraat,2,,,6063CJ,Vlodrop,Roerdalen,Limburg,VBO,6.069327,51.133077
Gerard Krekelbergstraat,3,,,6063CJ,Vlodrop,Roerdalen,Limburg,VBO,6.069666,51.133058
Gerard Krekelbergstraat,4,,,6063CJ,Vlodrop,Roerdalen,Limburg,VBO,6.069332,51.133034
Gerard Krekelbergstraat,5,,,6063CJ,Vlodrop,Roerdalen,Limburg,VBO,6.069671,51.133011
Gerard Krekelbergstraat,6,,,6063CJ,Vlodrop,Roerdalen,Limburg,VBO,6.069337,51.132990
Gerard Krekelbergstraat,7,,,6063CJ,Vlodrop,Roerdalen,Limburg,VBO,6.069676,51.132963
Gerard Krekelbergstraat,8,,,6063CJ,Vlodrop,Roerdalen,Limburg,VBO,6.069342,51.132948
Gerard Krekelbergstraat,9,,,6063CJ,Vlodrop,Roerdalen,Limburg,VBO,6.069685,51.132878
Gerard Krekelbergstraat,10,,,6063CJ,Vlodrop,Roerdalen,Limburg,VBO,6.069355,51.132829
Gerard Krekelbergstraat,11,,,6063CJ,Vlodrop,Roerdalen,Limburg,VBO,6.069691,51.132832
Gerard Krekelbergstraat,12,,,6063CJ,Vlodrop,Roerdalen,Limburg,VBO,6.069360,51.132786
Gerard Krekelbergstraat,13,,,6063CJ,Vlodrop,Roerdalen,Limburg,VBO,6.069696,51.132787
Gerard Krekelbergstraat,14,,,6063CJ,Vlodrop,Roerdalen,Limburg,VBO,6.069365,51.132743
Gerard Krekelbergstraat,15,,,6063CJ,Vlodrop,Roerdalen,Limburg,VBO,6.069701,51.132739
Gerard Krekelbergstraat,16,,,6063CJ,Vlodrop,Roerdalen,Limburg,VBO,6.069370,51.132700
Gerard Krekelbergstraat,17,,,6063CJ,Vlodrop,Roerdalen,Limburg,VBO,6.069709,51.132653
Gerard Krekelbergstraat,18,,,6063CJ,Vlodrop,Roerdalen,Limburg,VBO,6.069381,51.132604
Gerard Krekelbergstraat,19,,,6063CJ,Vlodrop,Roerdalen,Limburg,VBO,6.069715,51.132606
Gerard Krekelbergstraat,20,,,6063CJ,Vlodrop,Roerdalen,Limburg,VBO,6.069386,51.132559
Gerard Krekelbergstraat,21,,,6063CJ,Vlodrop,Roerdalen,Limburg,VBO,6.069721,51.132559
Gerard Krekelbergstraat,22,,,6063CJ,Vlodrop,Roerdalen,Limburg,VBO,6.069391,51.132515
Gerard Krekelbergstraat,23,,,6063CJ,Vlodrop,Roerdalen,Limburg,VBO,6.069726,51.132515
Gerard Krekelbergstraat,24,,,6063CJ,Vlodrop,Roerdalen,Limburg,VBO,6.069395,51.132472
Pastoor Martensstraat,1,,,6063CK,Vlodrop,Roerdalen,Limburg,VBO,6.069127,51.134411
Pastoor Martensstraat,2,,,6063CK,Vlodrop,Roerdalen,Limburg,VBO,6.068797,51.134374
Pastoor Martensstraat,3,,,6063CK,Vlodrop,Roerdalen,Limburg,VBO,6.069153,51.134359
Pastoor Martensstraat,4,,,6063CK,Vlodrop,Roerdalen,Limburg,VBO,6.068823,51.134321
Pastoor Martensstraat,5,,,6063CK,Vlodrop,Roerdalen,Limburg,VBO,6.069226,51.134261
Pastoor Martensstraat,6,,,6063CK,Vlodrop,Roerdalen,Limburg,VBO,6.068852,51.134215
Pastoor Martensstraat,7,,,6063CK,Vlodrop,Roerdalen,Limburg,VBO,6.069252,51.134209
Pastoor Martensstraat,8,,,6063CK,Vlodrop,Roerdalen,Limburg,VBO,6.068878,51.134163
Pastoor Martensstraat,9,,,6063CK,Vlodrop,Roerdalen,Limburg,VBO,6.069279,51.134156
Pastoor Martensstraat,10,,,6063CK,Vlodrop,Roerdalen,Limburg,VBO,6.068905,51.134106
Pastoor Martensstraat,11,,,6063CK,Vlodrop,Roerdalen,Limburg,VBO,6.069305,51.134106
Pastoor Martensstraat,12,,,6063CK,Vlodrop,Roerdalen,Limburg,VBO,6.068932,51.134053
Pastoor Martensstraat,13,,,6063CK,Vlodrop,Roerdalen,Limburg,VBO,6.069336,51.134001
Pastoor Martensstraat,14,,,6063CK,Vlodrop,Roerdalen,Limburg,VBO,6.069016,51.133930
Pastoor Martensstraat,15,,,6063CK,Vlodrop,Roerdalen,Limburg,VBO,6.069363,51.133948
Pastoor Martensstraat,16,,,6063CK,Vlodrop,Roerdalen,Limburg,VBO,6.069045,51.133873
van den Broecksingel,1,a,,6063CL,Vlodrop,Roerdalen,Limburg,VBO,6.067827,51.135318
van den Broecksingel,1,,,6063CL,Vlodrop,Roerdalen,Limburg,VBO,6.067960,51.135538
van den Broecksingel,2,,,6063CL,Vlodrop,Roerdalen,Limburg,VBO,6.067368,51.135195
van den Broecksingel,3,,,6063CL,Vlodrop,Roerdalen,Limburg,VBO,6.067833,51.135070
van den Broecksingel,4,,,6063CL,Vlodrop,Roerdalen,Limburg,VBO,6.067398,51.135100
van den Broecksingel,5,,,6063CL,Vlodrop,Roerdalen,Limburg,VBO,6.068159,51.134319
van den Broecksingel,6,,,6063CL,Vlodrop,Roerdalen,Limburg,VBO,6.067422,51.134990
van den Broecksingel,7,,,6063CL,Vlodrop,Roerdalen,Limburg,VBO,6.068189,51.134257
van den Broecksingel,9,,,6063CL,Vlodrop,Roerdalen,Limburg,VBO,6.068241,51.134154
van den Broecksingel,11,,,6063CL,Vlodrop,Roerdalen,Limburg,VBO,6.068270,51.134094
van den Broecksingel,13,,,6063CL,Vlodrop,Roerdalen,Limburg,VBO,6.068322,51.133992
van den Broecksingel,15,,,6063CL,Vlodrop,Roerdalen,Limburg,VBO,6.068352,51.133931
van den Broecksingel,17,,,6063CL,Vlodrop,Roerdalen,Limburg,VBO,6.068404,51.133828
van den Broecksingel,19,,,6063CL,Vlodrop,Roerdalen,Limburg,VBO,6.068435,51.133766
van den Broecksingel,21,,,6063CL,Vlodrop,Roerdalen,Limburg,VBO,6.068709,51.133048
van den Broecksingel,23,,,6063CL,Vlodrop,Roerdalen,Limburg,VBO,6.068716,51.132992
van den Broecksingel,25,,,6063CL,Vlodrop,Roerdalen,Limburg,VBO,6.068729,51.132879
van den Broecksingel,27,,,6063CL,Vlodrop,Roerdalen,Limburg,VBO,6.068736,51.132821
van den Broecksingel,29,,,6063CL,Vlodrop,Roerdalen,Limburg,VBO,6.068750,51.132708
van den Broecksingel,31,,,6063CL,Vlodrop,Roerdalen,Limburg,VBO,6.068757,51.132647
van den Broecksingel,33,,,6063CL,Vlodrop,Roerdalen,Limburg,VBO,6.068777,51.132482
Holsterweg,1,,,6063CM,Vlodrop,Roerdalen,Limburg,VBO,6.069592,51.134727
Holsterweg,2,,,6063CM,Vlodrop,Roerdalen,Limburg,VBO,6.069479,51.134970
Holsterweg,3,,,6063CM,Vlodrop,Roerdalen,Limburg,VBO,6.069511,51.134711
Holsterweg,4,,,6063CM,Vlodrop,Roerdalen,Limburg,VBO,6.069144,51.134942
Holsterweg,5,,,6063CM,Vlodrop,Roerdalen,Limburg,VBO,6.069359,51.134681
Holsterweg,6,,,6063CM,Vlodrop,Roerdalen,Limburg,VBO,6.068896,51.134912
Holsterweg,7,,,6063CM,Vlodrop,Roerdalen,Limburg,VBO,6.069275,51.134663
Holsterweg,8,,,6063CM,Vlodrop,Roerdalen,Limburg,VBO,6.068638,51.134882
Holsterweg,9,,,6063CM,Vlodrop,Roerdalen,Limburg,VBO,6.069041,51.134617
Holsterweg,10,,,6063CM,Vlodrop,Roerdalen,Limburg,VBO,6.067980,51.134809
Holsterweg,11,,,6063CM,Vlodrop,Roerdalen,Limburg,VBO,6.069127,51.134634
Holsterweg,12,,,6063CM,Vlodrop,Roerdalen,Limburg,VBO,6.067505,51.134740
Holsterweg,13,,,6063CM,Vlodrop,Roerdalen,Limburg,VBO,6.068686,51.134616
Holsterweg,14,,,6063CM,Vlodrop,Roerdalen,Limburg,VBO,6.067214,51.134721
Holsterweg,15,,,6063CM,Vlodrop,Roerdalen,Limburg,VBO,6.068602,51.134599
Holsterweg,16,,,6063CM,Vlodrop,Roerdalen,Limburg,VBO,6.066984,51.134719
Holsterweg,17,,,6063CM,Vlodrop,Roerdalen,Limburg,VBO,6.068440,51.134580
Holsterweg,19,,,6063CM,Vlodrop,Roerdalen,Limburg,VBO,6.068349,51.134562
Holsterweg,21,,,6063CM,Vlodrop,Roerdalen,Limburg,VBO,6.068174,51.134541
Holsterweg,23,,,6063CM,Vlodrop,Roerdalen,Limburg,VBO,6.068086,51.134523
Holsterweg,45,,,6063CM,Vlodrop,Roerdalen,Limburg,VBO,6.062255,51.134557
Vronhovenstraat,1,,,6063CN,Vlodrop,Roerdalen,Limburg,VBO,6.068614,51.135148
Vronhovenstraat,2,,,6063CN,Vlodrop,Roerdalen,Limburg,VBO,6.068440,51.135388
Vronhovenstraat,3,,,6063CN,Vlodrop,Roerdalen,Limburg,VBO,6.068596,51.135054
Vronhovenstraat,4,,,6063CN,Vlodrop,Roerdalen,Limburg,VBO,6.068307,51.135220
Vronhovenstraat,6,,,6063CN,Vlodrop,Roerdalen,Limburg,VBO,6.068241,51.135024
Vronhovenstraat,8,,,6063CN,Vlodrop,Roerdalen,Limburg,VBO,6.068327,51.134853
Bennebroekweg,2,,,6063CP,Vlodrop,Roerdalen,Limburg,VBO,6.072714,51.134530
Bennebroekweg,4,,,6063CP,Vlodrop,Roerdalen,Limburg,VBO,6.072653,51.134726
Bennebroekweg,6,,,6063CP,Vlodrop,Roerdalen,Limburg,VBO,6.072629,51.134781
Bennebroekweg,8,,,6063CP,Vlodrop,Roerdalen,Limburg,VBO,6.072601,51.134844
Bennebroekweg,10,,,6063CP,Vlodrop,Roerdalen,Limburg,VBO,6.072504,51.135004
Bennebroekweg,11,,,6063CP,Vlodrop,Roerdalen,Limburg,VBO,6.071681,51.135836
Bennebroekweg,13,,,6063CP,Vlodrop,Roerdalen,Limburg,VBO,6.071627,51.135968
Bennebroekweg,14,,,6063CP,Vlodrop,Roerdalen,Limburg,VBO,6.072186,51.135690
Bennebroekweg,15,,,6063CP,Vlodrop,Roerdalen,Limburg,VBO,6.071522,51.136123
Bennebroekweg,16,,,6063CP,Vlodrop,Roerdalen,Limburg,VBO,6.072092,51.135810
Bennebroekweg,17,,,6063CP,Vlodrop,Roerdalen,Limburg,VBO,6.071430,51.136283
Bennebroekweg,18,,,6063CP,Vlodrop,Roerdalen,Limburg,VBO,6.072038,51.135970
Bennebroekweg,25,,,6063CP,Vlodrop,Roerdalen,Limburg,VBO,6.070701,51.136788
Bennebroekweg,40,,LOOD,6063CP,Vlodrop,Roerdalen,Limburg,VBO,6.070979,51.138162
Lange Paalweg,1,,,6063CR,Vlodrop,Roerdalen,Limburg,VBO,6.074740,51.135663
Lange Paalweg,2,,,6063CR,Vlodrop,Roerdalen,Limburg,VBO,6.075153,51.135572
Lange Paalweg,3,,,6063CR,Vlodrop,Roerdalen,Limburg,VBO,6.074721,51.135706
Lange Paalweg,4,,,6063CR,Vlodrop,Roerdalen,Limburg,VBO,6.075116,51.135648
Lange Paalweg,5,,,6063CR,Vlodrop,Roerdalen,Limburg,VBO,6.074678,51.135805
Lange Paalweg,6,,,6063CR,Vlodrop,Roerdalen,Limburg,VBO,6.075066,51.135756
Lange Paalweg,7,,,6063CR,Vlodrop,Roerdalen,Limburg,VBO,6.074657,51.135851
Lange Paalweg,8,,,6063CR,Vlodrop,Roerdalen,Limburg,VBO,6.075045,51.135802
Lange Paalweg,10,,,6063CR,Vlodrop,Roerdalen,Limburg,VBO,6.074995,51.135915
Lange Paalweg,12,,,6063CR,Vlodrop,Roerdalen,Limburg,VBO,6.074974,51.135963
Lange Paalweg,14,,,6063CR,Vlodrop,Roerdalen,Limburg,VBO,6.074926,51.136071
Lange Paalweg,16,,,6063CR,Vlodrop,Roerdalen,Limburg,VBO,6.074905,51.136119
Berkenlaan,8,,,6063CS,Vlodrop,Roerdalen,Limburg,VBO,6.072397,51.135417
Berkenlaan,10,,,6063CS,Vlodrop,Roerdalen,Limburg,VBO,6.072688,51.135486
Berkenlaan,12,,,6063CS,Vlodrop,Roerdalen,Limburg,VBO,6.073062,51.135548
Berkenlaan,14,,,6063CS,Vlodrop,Roerdalen,Limburg,VBO,6.073157,51.135567
Berkenlaan,16,,,6063CS,Vlodrop,Roerdalen,Limburg,VBO,6.073464,51.135489
Berkenlaan,20,,,6063CS,Vlodrop,Roerdalen,Limburg,VBO,6.074505,51.135176
Berkenlaan,22,,,6063CS,Vlodrop,Roerdalen,Limburg,VBO,6.075329,51.135197
Berkenlaan,24,,,6063CS,Vlodrop,Roerdalen,Limburg,VBO,6.075469,51.135211
Berkenlaan,26,,,6063CS,Vlodrop,Roerdalen,Limburg,VBO,6.075601,51.135249
Berkenlaan,28,,,6063CS,Vlodrop,Roerdalen,Limburg,VBO,6.075718,51.135257
Berkenlaan,1,,,6063CT,Vlodrop,Roerdalen,Limburg,VBO,6.072572,51.135689
Berkenlaan,3,,,6063CT,Vlodrop,Roerdalen,Limburg,VBO,6.072642,51.135702
Berkenlaan,5,,,6063CT,Vlodrop,Roerdalen,Limburg,VBO,6.072791,51.135740
Berkenlaan,7,,,6063CT,Vlodrop,Roerdalen,Limburg,VBO,6.072865,51.135754
Berkenlaan,9,a,,6063CT,Vlodrop,Roerdalen,Limburg,VBO,6.073076,51.135804
Berkenlaan,9,,,6063CT,Vlodrop,Roerdalen,Limburg,VBO,6.073013,51.135792
Berkenlaan,11,,,6063CT,Vlodrop,Roerdalen,Limburg,VBO,6.073268,51.135769
Berkenlaan,13,,,6063CT,Vlodrop,Roerdalen,Limburg,VBO,6.073336,51.135742
Berkenlaan,15,a,TRAF,6063CT,Vlodrop,Roerdalen,Limburg,VBO,6.073788,51.135649
Berkenlaan,15,a,,6063CT,Vlodrop,Roerdalen,Limburg,VBO,6.073667,51.135702
Berkenlaan,15,,,6063CT,Vlodrop,Roerdalen,Limburg,VBO,6.073542,51.135692
Berkenlaan,17,,,6063CT,Vlodrop,Roerdalen,Limburg,VBO,6.073991,51.135575
Berkenlaan,19,,,6063CT,Vlodrop,Roerdalen,Limburg,VBO,6.074072,51.135552
Berkenlaan,21,,,6063CT,Vlodrop,Roerdalen,Limburg,VBO,6.074213,51.135512
Berkenlaan,23,,,6063CT,Vlodrop,Roerdalen,Limburg,VBO,6.074284,51.135492
Berkenlaan,25,,,6063CT,Vlodrop,Roerdalen,Limburg,VBO,6.074426,51.135451
Berkenlaan,27,,,6063CT,Vlodrop,Roerdalen,Limburg,VBO,6.074493,51.135433
Berkenlaan,29,,,6063CT,Vlodrop,Roerdalen,Limburg,VBO,6.074750,51.135359
Berkenlaan,31,,,6063CT,Vlodrop,Roerdalen,Limburg,VBO,6.074862,51.135375
Berkenlaan,33,,,6063CT,Vlodrop,Roerdalen,Limburg,VBO,6.075216,51.135402
Berkenlaan,35,,,6063CT,Vlodrop,Roerdalen,Limburg,VBO,6.075285,51.135414
Berkenlaan,37,,,6063CT,Vlodrop,Roerdalen,Limburg,VBO,6.075450,51.135446
Berkenlaan,39,,,6063CT,Vlodrop,Roerdalen,Limburg,VBO,6.075522,51.135459
Berkenlaan,41,,,6063CT,Vlodrop,Roerdalen,Limburg,VBO,6.075690,51.135492
Berkenlaan,43,,,6063CT,Vlodrop,Roerdalen,Limburg,VBO,6.075758,51.135505
Wassemweg,2,,,6063CV,Vlodrop,Roerdalen,Limburg,VBO,6.074859,51.136327
Wassemweg,4,,,6063CV,Vlodrop,Roerdalen,Limburg,VBO,6.074932,51.136339
Wassemweg,6,,,6063CV,Vlodrop,Roerdalen,Limburg,VBO,6.075008,51.136353
Wilgenpad,1,,,6063CW,Vlodrop,Roerdalen,Limburg,VBO,6.073868,51.136251
Wilgenpad,3,,,6063CW,Vlodrop,Roerdalen,Limburg,VBO,6.073927,51.136323
Wilgenpad,5,,,6063CW,Vlodrop,Roerdalen,Limburg,VBO,6.073960,51.136370
Wilgenpad,7,,,6063CW,Vlodrop,Roerdalen,Limburg,VBO,6.074016,51.136448
Wilgenpad,9,,,6063CW,Vlodrop,Roerdalen,Limburg,VBO,6.074128,51.136569
Populierenlaan,1,,,6063CX,Vlodrop,Roerdalen,Limburg,VBO,6.074331,51.135882
Populierenlaan,2,,,6063CX,Vlodrop,Roerdalen,Limburg,VBO,6.073600,51.136348
Populierenlaan,3,,,6063CX,Vlodrop,Roerdalen,Limburg,VBO,6.074183,51.135924
Populierenlaan,4,,,6063CX,Vlodrop,Roerdalen,Limburg,VBO,6.073481,51.136382
Populierenlaan,5,,,6063CX,Vlodrop,Roerdalen,Limburg,VBO,6.074034,51.135966
Populierenlaan,6,,,6063CX,Vlodrop,Roerdalen,Limburg,VBO,6.073296,51.136413
Populierenlaan,7,,,6063CX,Vlodrop,Roerdalen,Limburg,VBO,6.073873,51.135996
Populierenlaan,8,,,6063CX,Vlodrop,Roerdalen,Limburg,VBO,6.073113,51.136424
Populierenlaan,9,,,6063CX,Vlodrop,Roerdalen,Limburg,VBO,6.073804,51.136015
Populierenlaan,10,,,6063CX,Vlodrop,Roerdalen,Limburg,VBO,6.072926,51.136388
Populierenlaan,11,,,6063CX,Vlodrop,Roerdalen,Limburg,VBO,6.073641,51.136060
Populierenlaan,12,,,6063CX,Vlodrop,Roerdalen,Limburg,VBO,6.072706,51.136346
Populierenlaan,13,,,6063CX,Vlodrop,Roerdalen,Limburg,VBO,6.073576,51.136080
Populierenlaan,14,,,6063CX,Vlodrop,Roerdalen,Limburg,VBO,6.072510,51.136308
Populierenlaan,15,,,6063CX,Vlodrop,Roerdalen,Limburg,VBO,6.073409,51.136132
Populierenlaan,16,,,6063CX,Vlodrop,Roerdalen,Limburg,VBO,6.072304,51.136269
Populierenlaan,17,,,6063CX,Vlodrop,Roerdalen,Limburg,VBO,6.073327,51.136156
Populierenlaan,18,,,6063CX,Vlodrop,Roerdalen,Limburg,VBO,6.072137,51.136236
Populierenlaan,19,,,6063CX,Vlodrop,Roerdalen,Limburg,VBO,6.073082,51.136179
Populierenlaan,20,,,6063CX,Vlodrop,Roerdalen,Limburg,VBO,6.071886,51.136189
Populierenlaan,21,,,6063CX,Vlodrop,Roerdalen,Limburg,VBO,6.072861,51.136148
Populierenlaan,23,,,6063CX,Vlodrop,Roerdalen,Limburg,VBO,6.072652,51.136108
Populierenlaan,25,,,6063CX,Vlodrop,Roerdalen,Limburg,VBO,6.072430,51.136067
Beukenlaan,1,,,6063DA,Vlodrop,Roerdalen,Limburg,VBO,6.069458,51.135751
Beukenlaan,2,,,6063DA,Vlodrop,Roerdalen,Limburg,VBO,6.069801,51.135598
Beukenlaan,3,,,6063DA,Vlodrop,Roerdalen,Limburg,VBO,6.069724,51.135853
Beukenlaan,4,,,6063DA,Vlodrop,Roerdalen,Limburg,VBO,6.070375,51.135696
Beukenlaan,5,,,6063DA,Vlodrop,Roerdalen,Limburg,VBO,6.069917,51.135930
Beukenlaan,6,,,6063DA,Vlodrop,Roerdalen,Limburg,VBO,6.070612,51.135651
Beukenlaan,7,,,6063DA,Vlodrop,Roerdalen,Limburg,VBO,6.070201,51.135995
Beukenlaan,8,,,6063DA,Vlodrop,Roerdalen,Limburg,VBO,6.070810,51.135561
Beukenlaan,9,,,6063DA,Vlodrop,Roerdalen,Limburg,VBO,6.070423,51.136011
Beukenlaan,10,,,6063DA,Vlodrop,Roerdalen,Limburg,VBO,6.071067,51.135528
Beukenlaan,11,,,6063DA,Vlodrop,Roerdalen,Limburg,VBO,6.070680,51.136033
Beukenlaan,12,,,6063DA,Vlodrop,Roerdalen,Limburg,VBO,6.071365,51.135508
Beukenlaan,13,,,6063DA,Vlodrop,Roerdalen,Limburg,VBO,6.071014,51.135969
Beukenlaan,14,,,6063DA,Vlodrop,Roerdalen,Limburg,VBO,6.071536,51.135527
Beukenlaan,15,,,6063DA,Vlodrop,Roerdalen,Limburg,VBO,6.071074,51.135777
Beukenlaan,16,,,6063DA,Vlodrop,Roerdalen,Limburg,VBO,6.071660,51.135547
Beukenlaan,18,,,6063DA,Vlodrop,Roerdalen,Limburg,VBO,6.071785,51.135567
Beukenlaan,20,,,6063DA,Vlodrop,Roerdalen,Limburg,VBO,6.071914,51.135587
Ambachtssingel,33,,,6063DB,Vlodrop,Roerdalen,Limburg,VBO,6.065636,51.133708
Ambachtssingel,35,,,6063DB,Vlodrop,Roerdalen,Limburg,VBO,6.065562,51.133689
Ambachtssingel,37,,,6063DB,Vlodrop,Roerdalen,Limburg,VBO,6.065441,51.133655
Ambachtssingel,39,,,6063DB,Vlodrop,Roerdalen,Limburg,VBO,6.065366,51.133628
Ambachtssingel,41,,,6063DB,Vlodrop,Roerdalen,Limburg,VBO,6.065289,51.133600
Gildenlaan,13,,,6063DC,Vlodrop,Roerdalen,Limburg,VBO,6.066015,51.134634
Gildenlaan,14,,,6063DC,Vlodrop,Roerdalen,Limburg,VBO,6.066515,51.134724
Gildenlaan,15,,,6063DC,Vlodrop,Roerdalen,Limburg,VBO,6.066138,51.134745
Gildenlaan,16,,,6063DC,Vlodrop,Roerdalen,Limburg,VBO,6.066614,51.134836
Gildenlaan,17,,,6063DC,Vlodrop,Roerdalen,Limburg,VBO,6.066182,51.134787
Gildenlaan,18,,,6063DC,Vlodrop,Roerdalen,Limburg,VBO,6.066647,51.134882
Gildenlaan,19,,,6063DC,Vlodrop,Roerdalen,Limburg,VBO,6.066288,51.134898
Gildenlaan,20,,,6063DC,Vlodrop,Roerdalen,Limburg,VBO,6.066698,51.134995
Gildenlaan,21,,,6063DC,Vlodrop,Roerdalen,Limburg,VBO,6.066321,51.134943
Gildenlaan,22,,,6063DC,Vlodrop,Roerdalen,Limburg,VBO,6.066711,51.135045
Gildenlaan,23,,,6063DC,Vlodrop,Roerdalen,Limburg,VBO,6.066385,51.135080
Gildenlaan,24,,,6063DC,Vlodrop,Roerdalen,Limburg,VBO,6.066702,51.135185
Gildenlaan,26,,,6063DC,Vlodrop,Roerdalen,Limburg,VBO,6.066647,51.135341
Gildenlaan,28,,,6063DC,Vlodrop,Roerdalen,Limburg,VBO,6.066536,51.135500
Oerraede,2,,,6063EA,Vlodrop,Roerdalen,Limburg,VBO,6.075548,51.133917
Oerraede,4,,,6063EA,Vlodrop,Roerdalen,Limburg,VBO,6.075633,51.133826
Oerraede,6,,,6063EA,Vlodrop,Roerdalen,Limburg,VBO,6.075670,51.133788
Oerraede,8,,,6063EA,Vlodrop,Roerdalen,Limburg,VBO,6.075742,51.133678
Oerraede,10,,,6063EA,Vlodrop,Roerdalen,Limburg,VBO,6.075784,51.133636
Oerraede,12,,,6063EA,Vlodrop,Roerdalen,Limburg,VBO,6.076257,51.133516
Oerraede,14,,,6063EA,Vlodrop,Roerdalen,Limburg,VBO,6.076340,51.133533
Oerraede,16,,,6063EA,Vlodrop,Roerdalen,Limburg,VBO,6.076430,51.133538
Oerraede,18,,,6063EA,Vlodrop,Roerdalen,Limburg,VBO,6.076511,51.133555
Oerraede,20,,,6063EA,Vlodrop,Roerdalen,Limburg,VBO,6.076905,51.133567
Oerraede,22,,,6063EA,Vlodrop,Roerdalen,Limburg,VBO,6.076970,51.133492
Oerraede,24,,,6063EA,Vlodrop,Roerdalen,Limburg,VBO,6.076962,51.133385
Oerraede,28,,,6063EA,Vlodrop,Roerdalen,Limburg,VBO,6.077149,51.133318
Oerraede,30,,,6063EA,Vlodrop,Roerdalen,Limburg,VBO,6.077238,51.133402
Oerraede,32,,,6063EA,Vlodrop,Roerdalen,Limburg,VBO,6.077300,51.133423
Oerraede,34,,,6063EA,Vlodrop,Roerdalen,Limburg,VBO,6.077463,51.133481
Oerraede,36,,,6063EA,Vlodrop,Roerdalen,Limburg,VBO,6.077524,51.133502
Oerraede,40,,,6063EA,Vlodrop,Roerdalen,Limburg,VBO,6.077629,51.133622
Oerraede,42,,,6063EA,Vlodrop,Roerdalen,Limburg,VBO,6.077525,51.133684
Oerraede,44,,,6063EA,Vlodrop,Roerdalen,Limburg,VBO,6.077458,51.133760
Oerraede,46,,,6063EA,Vlodrop,Roerdalen,Limburg,VBO,6.077957,51.133885
Oerraede,48,,,6063EA,Vlodrop,Roerdalen,Limburg,VBO,6.077990,51.133848
Oerraede,50,,,6063EA,Vlodrop,Roerdalen,Limburg,VBO,6.078024,51.133810
Oerraede,52,,,6063EA,Vlodrop,Roerdalen,Limburg,VBO,6.078087,51.133782
Oerraede,54,,,6063EA,Vlodrop,Roerdalen,Limburg,VBO,6.078122,51.133744
Oerraede,56,,,6063EA,Vlodrop,Roerdalen,Limburg,VBO,6.078158,51.133706
Oerraede,60,,,6063EA,Vlodrop,Roerdalen,Limburg,VBO,6.078559,51.133663
Oerraede,62,,,6063EA,Vlodrop,Roerdalen,Limburg,VBO,6.078636,51.133690
Oerraede,64,,,6063EA,Vlodrop,Roerdalen,Limburg,VBO,6.078712,51.133717
Oerraede,66,,,6063EA,Vlodrop,Roerdalen,Limburg,VBO,6.078788,51.133744
Oerraede,68,,,6063EA,Vlodrop,Roerdalen,Limburg,VBO,6.078878,51.133755
Oerraede,70,,,6063EA,Vlodrop,Roerdalen,Limburg,VBO,6.078953,51.133782
Oerraede,1,a,,6063EB,Vlodrop,Roerdalen,Limburg,VBO,6.076172,51.133657
Oerraede,1,b,,6063EB,Vlodrop,Roerdalen,Limburg,VBO,6.076211,51.133661
Oerraede,1,c,,6063EB,Vlodrop,Roerdalen,Limburg,VBO,6.076268,51.133656
Oerraede,1,,,6063EB,Vlodrop,Roerdalen,Limburg,VBO,6.076113,51.133661
Oerraede,3,,,6063EB,Vlodrop,Roerdalen,Limburg,VBO,6.076387,51.133691
Oerraede,5,,,6063EB,Vlodrop,Roerdalen,Limburg,VBO,6.076469,51.133709
Oerraede,7,,,6063EB,Vlodrop,Roerdalen,Limburg,VBO,6.076558,51.133714
Oerraede,9,,,6063EB,Vlodrop,Roerdalen,Limburg,VBO,6.076642,51.133732
Oerraede,11,,,6063EB,Vlodrop,Roerdalen,Limburg,VBO,6.076851,51.133764
Oerraede,13,,,6063EB,Vlodrop,Roerdalen,Limburg,VBO,6.076912,51.133786
Oerraede,15,,,6063EB,Vlodrop,Roerdalen,Limburg,VBO,6.076977,51.133809
Oerraede,17,,,6063EB,Vlodrop,Roerdalen,Limburg,VBO,6.077026,51.133846
Oerraede,19,,,6063EB,Vlodrop,Roerdalen,Limburg,VBO,6.077085,51.133867
Oerraede,21,,,6063EB,Vlodrop,Roerdalen,Limburg,VBO,6.077275,51.133908
Oerraede,23,,,6063EB,Vlodrop,Roerdalen,Limburg,VBO,6.077341,51.133932
Oerraede,25,,,6063EB,Vlodrop,Roerdalen,Limburg,VBO,6.077483,51.133982
Oerraede,27,,,6063EB,Vlodrop,Roerdalen,Limburg,VBO,6.077553,51.134007
Oerraede,29,,,6063EB,Vlodrop,Roerdalen,Limburg,VBO,6.077695,51.134057
Oerraede,31,,,6063EB,Vlodrop,Roerdalen,Limburg,VBO,6.077769,51.134083
Oerraede,33,,,6063EB,Vlodrop,Roerdalen,Limburg,VBO,6.077907,51.134132
Oerraede,35,,,6063EB,Vlodrop,Roerdalen,Limburg,VBO,6.077977,51.134156
Oerraede,37,,,6063EB,Vlodrop,Roerdalen,Limburg,VBO,6.078149,51.134100
Oerraede,39,,,6063EB,Vlodrop,Roerdalen,Limburg,VBO,6.078189,51.134056
Oerraede,41,,,6063EB,Vlodrop,Roerdalen,Limburg,VBO,6.078271,51.133964
Oerraede,43,,,6063EB,Vlodrop,Roerdalen,Limburg,VBO,6.078309,51.133922
Oerraede,45,,,6063EB,Vlodrop,Roerdalen,Limburg,VBO,6.078380,51.133862
Oerraede,47,,,6063EB,Vlodrop,Roerdalen,Limburg,VBO,6.078614,51.133927
Oerraede,49,,,6063EB,Vlodrop,Roerdalen,Limburg,VBO,6.078725,51.133966
Oerraede,51,,,6063EB,Vlodrop,Roerdalen,Limburg,VBO,6.078825,51.134002
Prinsenweg,1,,,6063EC,Vlodrop,Roerdalen,Limburg,VBO,6.078709,51.134182
Prinsenweg,3,,,6063EC,Vlodrop,Roerdalen,Limburg,VBO,6.078595,51.134277
Prinsenweg,5,,,6063EC,Vlodrop,Roerdalen,Limburg,VBO,6.078485,51.134380
Prinsenweg,7,,,6063EC,Vlodrop,Roerdalen,Limburg,VBO,6.078332,51.134486
Prinsenweg,9,,,6063EC,Vlodrop,Roerdalen,Limburg,VBO,6.078200,51.134587
Tussen de Bruggen,2,,,6063NA,Vlodrop,Roerdalen,Limburg,VBO,6.083230,51.133630
Tussen de Bruggen,4,,,6063NA,Vlodrop,Roerdalen,Limburg,VBO,6.083628,51.134260
Tussen de Bruggen,6,a,,6063NA,Vlodrop,Roerdalen,Limburg,VBO,6.084034,51.134482
Tussen de Bruggen,6,b,,6063NA,Vlodrop,Roerdalen,Limburg,VBO,6.084031,51.134399
Tussen de Bruggen,6,,LOOD,6063NA,Vlodrop,Roerdalen,Limburg,VBO,6.084035,51.134428
Tussen de Bruggen,6,,,6063NA,Vlodrop,Roerdalen,Limburg,VBO,6.084061,51.134451
Tussen de Bruggen,8,,GAR,6063NA,Vlodrop,Roerdalen,Limburg,VBO,6.084425,51.134621
Tussen de Bruggen,8,,,6063NA,Vlodrop,Roerdalen,Limburg,VBO,6.084399,51.134630
Tussen de Bruggen,10,,,6063NA,Vlodrop,Roerdalen,Limburg,VBO,6.085799,51.135185
Tussen de Bruggen,12,,,6063NA,Vlodrop,Roerdalen,Limburg,VBO,6.085869,51.135325
Tussen de Bruggen,14,a,,6063NA,Vlodrop,Roerdalen,Limburg,VBO,6.086580,51.135002
Tussen de Bruggen,14,,,6063NA,Vlodrop,Roerdalen,Limburg,VBO,6.086026,51.135442
Tussen de Bruggen,16,,TRAF,6063NA,Vlodrop,Roerdalen,Limburg,VBO,6.086139,51.135528
Tussen de Bruggen,16,,,6063NA,Vlodrop,Roerdalen,Limburg,VBO,6.086302,51.135607
Tussen de Bruggen,18,a,,6063NA,Vlodrop,Roerdalen,Limburg,VBO,6.086802,51.135952
Tussen de Bruggen,18,,GAR,6063NA,Vlodrop,Roerdalen,Limburg,VBO,6.086386,51.135721
Tussen de Bruggen,18,,,6063NA,Vlodrop,Roerdalen,Limburg,VBO,6.086514,51.135886
Tussen de Bruggen,20,,,6063NA,Vlodrop,Roerdalen,Limburg,VBO,6.086947,51.136138
Tussen de Bruggen,22,a,OPSL,6063NA,Vlodrop,Roerdalen,Limburg,VBO,6.087466,51.136068
Tussen de Bruggen,22,a,,6063NA,Vlodrop,Roerdalen,Limburg,VBO,6.087215,51.136236
Tussen de Bruggen,22,b,,6063NA,Vlodrop,Roerdalen,Limburg,VBO,6.087373,51.136330
Tussen de Bruggen,22,,,6063NA,Vlodrop,Roerdalen,Limburg,VBO,6.087521,51.136417
Tussen de Bruggen,24,,,6063NA,Vlodrop,Roerdalen,Limburg,VBO,6.087611,51.136546
Effelderweg,1,,,6063NB,Vlodrop,Roerdalen,Limburg,VBO,6.088172,51.133445
Effelderweg,2,,BY,6063NB,Vlodrop,Roerdalen,Limburg,VBO,6.089196,51.133071
Effelderweg,2,,,6063NB,Vlodrop,Roerdalen,Limburg,VBO,6.088730,51.132864
Effelderweg,3,,,6063NB,Vlodrop,Roerdalen,Limburg,VBO,6.089601,51.131286
Bondersweg,2,,RIOO,6063NC,Vlodrop,Roerdalen,Limburg,VBO,6.086480,51.137629
Bondersweg,2,,,6063NC,Vlodrop,Roerdalen,Limburg,VBO,6.087022,51.137994
Broekweg,1,,,6063ND,Vlodrop,Roerdalen,Limburg,VBO,6.089288,51.138728
Broekweg,3,,,6063ND,Vlodrop,Roerdalen,Limburg,VBO,6.089147,51.139462
Broekweg,5,,,6063ND,Vlodrop,Roerdalen,Limburg,VBO,6.089080,51.140251
Klifsbergweg,1,,,6063NE,Vlodrop,Roerdalen,Limburg,VBO,6.087760,51.137405
Klifsbergweg,2,,,6063NE,Vlodrop,Roerdalen,Limburg,VBO,6.093468,51.138389
Klifsbergweg,3,,,6063NE,Vlodrop,Roerdalen,Limburg,VBO,6.088013,51.137730
Klifsbergweg,4,,,6063NE,Vlodrop,Roerdalen,Limburg,VBO,6.094502,51.138520
Klifsbergweg,6,,,6063NE,Vlodrop,Roerdalen,Limburg,VBO,6.094766,51.138617
Klifsbergweg,8,,,6063NE,Vlodrop,Roerdalen,Limburg,VBO,6.095028,51.138752
Klifsbergweg,9,,,6063NE,Vlodrop,Roerdalen,Limburg,VBO,6.095849,51.140030
Klifsbergweg,10,,,6063NE,Vlodrop,Roerdalen,Limburg,VBO,6.095263,51.138827
Klifsbergweg,11,,,6063NE,Vlodrop,Roerdalen,Limburg,VBO,6.096033,51.140411
Klifsbergweg,12,,,6063NE,Vlodrop,Roerdalen,Limburg,VBO,6.095517,51.139087
Klifsbergweg,13,,,6063NE,Vlodrop,Roerdalen,Limburg,VBO,6.096308,51.140653
Klifsbergweg,14,,,6063NE,Vlodrop,Roerdalen,Limburg,VBO,6.095647,51.139128
Klifsbergweg,15,,,6063NE,Vlodrop,Roerdalen,Limburg,VBO,6.096351,51.140689
Klifsbergweg,16,a,,6063NE,Vlodrop,Roerdalen,Limburg,VBO,6.096047,51.139351
Klifsbergweg,16,,,6063NE,Vlodrop,Roerdalen,Limburg,VBO,6.095818,51.139236
Klifsbergweg,18,,,6063NE,Vlodrop,Roerdalen,Limburg,VBO,6.098607,51.141113
Klifsbergweg,20,a,,6063NE,Vlodrop,Roerdalen,Limburg,VBO,6.098851,51.141627
Klifsbergweg,20,,,6063NE,Vlodrop,Roerdalen,Limburg,VBO,6.098175,51.141352
Klifsbergweg,22,,GAR,6063NE,Vlodrop,Roerdalen,Limburg,VBO,6.103558,51.143199
Klifsbergweg,22,,,6063NE,Vlodrop,Roerdalen,Limburg,VBO,6.103264,51.143330
Etsberg,1,,,6063NG,Vlodrop,Roerdalen,Limburg,VBO,6.093822,51.138214
Etsberg,3,a,,6063NG,Vlodrop,Roerdalen,Limburg,VBO,6.094227,51.138066
Etsberg,3,b,,6063NG,Vlodrop,Roerdalen,Limburg,VBO,6.094326,51.138045
Etsberg,3,c,,6063NG,Vlodrop,Roerdalen,Limburg,VBO,6.094298,51.138034
Etsberg,3,d,,6063NG,Vlodrop,Roerdalen,Limburg,VBO,6.094315,51.138083
Etsberg,3,,,6063NG,Vlodrop,Roerdalen,Limburg,VBO,6.094227,51.138016
Etsberg,5,a,,6063NG,Vlodrop,Roerdalen,Limburg,VBO,6.094618,51.137891
Etsberg,5,,,6063NG,Vlodrop,Roerdalen,Limburg,VBO,6.094499,51.137930
Etsberg,7,,CAFE,6063NG,Vlodrop,Roerdalen,Limburg,VBO,6.094966,51.137773
Etsberg,7,,,6063NG,Vlodrop,Roerdalen,Limburg,VBO,6.094977,51.137767
Etsberg,9,a,,6063NG,Vlodrop,Roerdalen,Limburg,VBO,6.095445,51.137792
Etsberg,9,,,6063NG,Vlodrop,Roerdalen,Limburg,VBO,6.095177,51.137775
Etsberg,11,,,6063NG,Vlodrop,Roerdalen,Limburg,VBO,6.095748,51.137754
Etsberg,13,,,6063NG,Vlodrop,Roerdalen,Limburg,VBO,6.095899,51.137739
Etsberg,15,,,6063NG,Vlodrop,Roerdalen,Limburg,VBO,6.096069,51.137736
Etsberg,17,,,6063NG,Vlodrop,Roerdalen,Limburg,VBO,6.096342,51.137701
Etsberg,19,,,6063NG,Vlodrop,Roerdalen,Limburg,VBO,6.096563,51.137748
Etsberg,2,,,6063NH,Vlodrop,Roerdalen,Limburg,VBO,6.092315,51.138058
Etsberg,4,a,,6063NH,Vlodrop,Roerdalen,Limburg,VBO,6.092349,51.137787
Etsberg,4,b,,6063NH,Vlodrop,Roerdalen,Limburg,VBO,6.092575,51.137858
Etsberg,4,,,6063NH,Vlodrop,Roerdalen,Limburg,VBO,6.092162,51.137950
Etsberg,6,a,,6063NH,Vlodrop,Roerdalen,Limburg,VBO,6.092766,51.138067
Etsberg,6,,,6063NH,Vlodrop,Roerdalen,Limburg,VBO,6.092581,51.137995
Etsberg,8,,,6063NH,Vlodrop,Roerdalen,Limburg,VBO,6.093002,51.138148
Etsberg,10,a,,6063NH,Vlodrop,Roerdalen,Limburg,VBO,6.093458,51.138098
Etsberg,10,,,6063NH,Vlodrop,Roerdalen,Limburg,VBO,6.093169,51.138148
Etsberg,12,,,6063NH,Vlodrop,Roerdalen,Limburg,VBO,6.093834,51.137993
Etsberg,14,,,6063NH,Vlodrop,Roerdalen,Limburg,VBO,6.094139,51.137840
Etsberg,16,a,,6063NH,Vlodrop,Roerdalen,Limburg,VBO,6.094242,51.137673
Etsberg,16,,,6063NH,Vlodrop,Roerdalen,Limburg,VBO,6.094209,51.137724
Etsberg,18,a,,6063NH,Vlodrop,Roerdalen,Limburg,VBO,6.094652,51.137405
Etsberg,18,,,6063NH,Vlodrop,Roerdalen,Limburg,VBO,6.094069,51.137320
Etsberg,20,,,6063NH,Vlodrop,Roerdalen,Limburg,VBO,6.094977,51.137446
Etsberg,24,a,,6063NH,Vlodrop,Roerdalen,Limburg,VBO,6.095316,51.137470
Etsberg,24,b,,6063NH,Vlodrop,Roerdalen,Limburg,VBO,6.095490,51.137482
Etsberg,24,,,6063NH,Vlodrop,Roerdalen,Limburg,VBO,6.095192,51.137460
Etsberg,26,,,6063NH,Vlodrop,Roerdalen,Limburg,VBO,6.095711,51.137489
Etsberg,28,,,6063NH,Vlodrop,Roerdalen,Limburg,VBO,6.096176,51.137485
Etsberg,30,,,6063NH,Vlodrop,Roerdalen,Limburg,VBO,6.096269,51.137481
Etsberg,32,,,6063NH,Vlodrop,Roerdalen,Limburg,VBO,6.096362,51.137477
Etsberg,34,,,6063NH,Vlodrop,Roerdalen,Limburg,VBO,6.096632,51.137465
Etsberg,36,,TRAF,6063NH,Vlodrop,Roerdalen,Limburg,VBO,6.096957,51.137336
Etsberg,36,,,6063NH,Vlodrop,Roerdalen,Limburg,VBO,6.096716,51.137450
Etsberg,38,,,6063NH,Vlodrop,Roerdalen,Limburg,VBO,6.098383,51.135760
Rothenbacherweg,1,a,,6063NJ,Vlodrop,Roerdalen,Limburg,VBO,6.097093,51.137673
Rothenbacherweg,1,,,6063NJ,Vlodrop,Roerdalen,Limburg,VBO,6.096986,51.137640
Rothenbacherweg,2,,,6063NJ,Vlodrop,Roerdalen,Limburg,VBO,6.097753,51.137551
Rothenbacherweg,3,a,,6063NJ,Vlodrop,Roerdalen,Limburg,VBO,6.099130,51.137995
Rothenbacherweg,3,,,6063NJ,Vlodrop,Roerdalen,Limburg,VBO,6.099310,51.138025
Rothenbacherweg,4,,,6063NJ,Vlodrop,Roerdalen,Limburg,VBO,6.098729,51.137731
Rothenbacherweg,6,,,6063NJ,Vlodrop,Roerdalen,Limburg,VBO,6.104665,51.138676
Rothenbacherweg,7,,,6063NJ,Vlodrop,Roerdalen,Limburg,VBO,6.117108,51.140919
Rothenbacherweg,10,a,,6063NJ,Vlodrop,Roerdalen,Limburg,VBO,6.116969,51.140639
Rothenbacherweg,10,,TRAF,6063NJ,Vlodrop,Roerdalen,Limburg,VBO,6.109978,51.139537
Rothenbacherweg,10,,,6063NJ,Vlodrop,Roerdalen,Limburg,VBO,6.112125,51.139449
Rothenbacherweg,12,,,6063NJ,Vlodrop,Roerdalen,Limburg,VBO,6.117319,51.140702
Rothenbacherweg,14,,,6063NJ,Vlodrop,Roerdalen,Limburg,VBO,6.117751,51.140617
Rothenbacherweg,16,,,6063NJ,Vlodrop,Roerdalen,Limburg,VBO,6.117831,51.140547
Rothenbacherweg,18,,,6063NJ,Vlodrop,Roerdalen,Limburg,VBO,6.117935,51.140464
Rothenbacherweg,20,,,6063NJ,Vlodrop,Roerdalen,Limburg,VBO,6.118079,51.140360
Ortjensveldweg,2,,,6063NK,Vlodrop,Roerdalen,Limburg,VBO,6.096263,51.139446
Ortjensveldweg,4,,,6063NK,Vlodrop,Roerdalen,Limburg,VBO,6.096563,51.139484
Ortjensveldweg,6,,,6063NK,Vlodrop,Roerdalen,Limburg,VBO,6.096647,51.139150
Ortjensveldweg,8,,,6063NK,Vlodrop,Roerdalen,Limburg,VBO,6.096657,51.138988
Ortjensveldweg,10,,,6063NK,Vlodrop,Roerdalen,Limburg,VBO,6.096646,51.138839
Ortjensveldweg,12,,,6063NK,Vlodrop,Roerdalen,Limburg,VBO,6.096590,51.138663
Ortjensveldweg,14,,,6063NK,Vlodrop,Roerdalen,Limburg,VBO,6.096602,51.138481
Ortjensveldweg,16,,,6063NK,Vlodrop,Roerdalen,Limburg,VBO,6.096536,51.138352
Ortjensveldweg,18,,,6063NK,Vlodrop,Roerdalen,Limburg,VBO,6.096579,51.138199
Ortjensveldweg,20,,,6063NK,Vlodrop,Roerdalen,Limburg,VBO,6.096577,51.138045
Herkenbosserweg,1,a,,6063NL,Vlodrop,Roerdalen,Limburg,VBO,6.094634,51.150740
Herkenbosserweg,1,,,6063NL,Vlodrop,Roerdalen,Limburg,VBO,6.093715,51.151414
Herkenbosserweg,2,a,,6063NL,Vlodrop,Roerdalen,Limburg,VBO,6.095905,51.148103
Herkenbosserweg,2,,,6063NL,Vlodrop,Roerdalen,Limburg,VBO,6.096584,51.147305
Herkenbosserweg,3,a,,6063NL,Vlodrop,Roerdalen,Limburg,VBO,6.097066,51.149155
Herkenbosserweg,3,,,6063NL,Vlodrop,Roerdalen,Limburg,VBO,6.095181,51.149694
Herkenbosserweg,4,a,,6063NL,Vlodrop,Roerdalen,Limburg,VBO,6.099310,51.145281
Herkenbosserweg,4,,,6063NL,Vlodrop,Roerdalen,Limburg,VBO,6.098977,51.146037
Herkenbosserweg,5,a,,6063NL,Vlodrop,Roerdalen,Limburg,VBO,6.101477,51.145191
Herkenbosserweg,5,,,6063NL,Vlodrop,Roerdalen,Limburg,VBO,6.099262,51.146399
Herkenbosserweg,7,,,6063NL,Vlodrop,Roerdalen,Limburg,VBO,6.118198,51.141069
Herkenbosserweg,9,,,6063NL,Vlodrop,Roerdalen,Limburg,VBO,6.118276,51.141003
Herkenbosserweg,11,a,,6063NL,Vlodrop,Roerdalen,Limburg,VBO,6.118573,51.140959
Herkenbosserweg,11,,,6063NL,Vlodrop,Roerdalen,Limburg,VBO,6.118453,51.140878
Herkenbosserweg,13,,,6063NL,Vlodrop,Roerdalen,Limburg,VBO,6.118971,51.140656
Herkenbosserweg,15,,REST,6063NL,Vlodrop,Roerdalen,Limburg,VBO,6.119272,51.140546
Herkenbosserweg,15,,,6063NL,Vlodrop,Roerdalen,Limburg,VBO,6.118883,51.140700
Bungalowpark Rothenbach,1,,,6063NM,Vlodrop,Roerdalen,Limburg,VBO,6.114165,51.140572
Bungalowpark Rothenbach,2,,,6063NM,Vlodrop,Roerdalen,Limburg,VBO,6.113897,51.140577
Bungalowpark Rothenbach,3,,,6063NM,Vlodrop,Roerdalen,Limburg,VBO,6.113621,51.140481
Bungalowpark Rothenbach,4,,,6063NM,Vlodrop,Roerdalen,Limburg,VBO,6.113317,51.140461
Bungalowpark Rothenbach,5,,,6063NM,Vlodrop,Roerdalen,Limburg,VBO,6.113076,51.140428
Bungalowpark Rothenbach,6,,,6063NM,Vlodrop,Roerdalen,Limburg,VBO,6.112856,51.140397
Bungalowpark Rothenbach,7,,,6063NM,Vlodrop,Roerdalen,Limburg,VBO,6.112616,51.140367
Bungalowpark Rothenbach,8,,,6063NM,Vlodrop,Roerdalen,Limburg,VBO,6.112382,51.140323
Bungalowpark Rothenbach,9,,,6063NM,Vlodrop,Roerdalen,Limburg,VBO,6.112509,51.140619
Bungalowpark Rothenbach,10,,,6063NM,Vlodrop,Roerdalen,Limburg,VBO,6.112775,51.140616
Bungalowpark Rothenbach,11,,,6063NM,Vlodrop,Roerdalen,Limburg,VBO,6.112889,51.140788
Bungalowpark Rothenbach,12,,,6063NM,Vlodrop,Roerdalen,Limburg,VBO,6.112922,51.140986
Bungalowpark Rothenbach,13,,,6063NM,Vlodrop,Roerdalen,Limburg,VBO,6.113030,51.141142
Bungalowpark Rothenbach,14,,,6063NM,Vlodrop,Roerdalen,Limburg,VBO,6.113067,51.141301
Bungalowpark Rothenbach,15,,,6063NM,Vlodrop,Roerdalen,Limburg,VBO,6.112851,51.141564
Bungalowpark Rothenbach,16,,,6063NM,Vlodrop,Roerdalen,Limburg,VBO,6.113114,51.141522
Bungalowpark Rothenbach,17,,,6063NM,Vlodrop,Roerdalen,Limburg,VBO,6.113384,51.141468
Bungalowpark Rothenbach,18,,,6063NM,Vlodrop,Roerdalen,Limburg,VBO,6.113634,51.141418
Bungalowpark Rothenbach,19,,,6063NM,Vlodrop,Roerdalen,Limburg,VBO,6.113897,51.141390
Bungalowpark Rothenbach,20,,,6063NM,Vlodrop,Roerdalen,Limburg,VBO,6.114134,51.141345
Bungalowpark Rothenbach,22,,,6063NM,Vlodrop,Roerdalen,Limburg,VBO,6.114422,51.141303
Bungalowpark Rothenbach,23,,,6063NM,Vlodrop,Roerdalen,Limburg,VBO,6.114341,51.141079
Bungalowpark Rothenbach,24,,,6063NM,Vlodrop,Roerdalen,Limburg,VBO,6.114220,51.140964
Bungalowpark Rothenbach,25,,,6063NM,Vlodrop,Roerdalen,Limburg,VBO,6.114152,51.140802
Bungalowpark Rothenbach,26,,,6063NM,Vlodrop,Roerdalen,Limburg,VBO,6.113422,51.140717
Bungalowpark Rothenbach,27,,,6063NM,Vlodrop,Roerdalen,Limburg,VBO,6.113197,51.140759
Bungalowpark Rothenbach,28,,,6063NM,Vlodrop,Roerdalen,Limburg,VBO,6.113343,51.140974
Bungalowpark Rothenbach,29,,,6063NM,Vlodrop,Roerdalen,Limburg,VBO,6.113439,51.141187
Bungalowpark Rothenbach,30,,,6063NM,Vlodrop,Roerdalen,Limburg,VBO,6.113798,51.141071
Bungalowpark Rothenbach,31,,,6063NM,Vlodrop,Roerdalen,Limburg,VBO,6.113786,51.140937
Bungalowpark Rothenbach,32,,,6063NM,Vlodrop,Roerdalen,Limburg,VBO,6.113728,51.140781
Bungalowpark Rothenbach,33,,,6063NM,Vlodrop,Roerdalen,Limburg,VBO,6.115731,51.140874
Bungalowpark Rothenbach,34,,,6063NM,Vlodrop,Roerdalen,Limburg,VBO,6.116002,51.140891
Bungalowpark Rothenbach,35,,,6063NM,Vlodrop,Roerdalen,Limburg,VBO,6.115427,51.140844
Bungalowpark Rothenbach,36,,,6063NM,Vlodrop,Roerdalen,Limburg,VBO,6.115140,51.140833
Bungalowpark Rothenbach,37,,,6063NM,Vlodrop,Roerdalen,Limburg,VBO,6.114951,51.140683
Bungalowpark Rothenbach,38,,,6063NM,Vlodrop,Roerdalen,Limburg,VBO,6.114573,51.140655
Bungalowpark Rothenbach,39,,,6063NM,Vlodrop,Roerdalen,Limburg,VBO,6.114697,51.140843
Bungalowpark Rothenbach,40,,,6063NM,Vlodrop,Roerdalen,Limburg,VBO,6.114782,51.141027
Bungalowpark Rothenbach,41,,,6063NM,Vlodrop,Roerdalen,Limburg,VBO,6.114787,51.141246
Bungalowpark Rothenbach,42,,,6063NM,Vlodrop,Roerdalen,Limburg,VBO,6.115111,51.141248
Bungalowpark Rothenbach,43,,,6063NM,Vlodrop,Roerdalen,Limburg,VBO,6.115373,51.141159
Bungalowpark Rothenbach,44,,,6063NM,Vlodrop,Roerdalen,Limburg,VBO,6.115690,51.141125
Bungalowpark Rothenbach,45,,,6063NM,Vlodrop,Roerdalen,Limburg,VBO,6.115974,51.141060
Bungalowpark Rothenbach,46,,,6063NM,Vlodrop,Roerdalen,Limburg,VBO,6.116262,51.141063
Boslaan,1,a,,6063NN,Vlodrop,Roerdalen,Limburg,VBO,6.119109,51.141166
Boslaan,1,b,,6063NN,Vlodrop,Roerdalen,Limburg,VBO,6.119527,51.140777
Boslaan,1,,,6063NN,Vlodrop,Roerdalen,Limburg,VBO,6.128438,51.145634
Boslaan,5,,,6063NN,Vlodrop,Roerdalen,Limburg,VBO,6.131376,51.145500
Boslaan,5,,,6063NN,Vlodrop,Roerdalen,Limburg,VBO,6.131421,51.145510
Boslaan,9,,,6063NN,Vlodrop,Roerdalen,Limburg,VBO,6.132539,51.145900
Boslaan,15,,,6063NN,Vlodrop,Roerdalen,Limburg,VBO,6.134853,51.145500
Boslaan,17,,,6063NN,Vlodrop,Roerdalen,Limburg,VBO,6.135335,51.146190
Boslaan,19,,,6063NN,Vlodrop,Roerdalen,Limburg,VBO,6.135801,51.146211
Boslaan,21,,,6063NN,Vlodrop,Roerdalen,Limburg,VBO,6.138400,51.146862
Boslaan,23,a,,6063NN,Vlodrop,Roerdalen,Limburg,VBO,6.138306,51.147226
Boslaan,23,,,6063NN,Vlodrop,Roerdalen,Limburg,VBO,6.138837,51.147345
Station,2,,,6063NP,Vlodrop,Roerdalen,Limburg,VBO,6.149062,51.151299
Station,4,,,6063NP,Vlodrop,Roerdalen,Limburg,VBO,6.149403,51.151348
Station,6,,,6063NP,Vlodrop,Roerdalen,Limburg,VBO,6.150076,51.151453
Station,8,,,6063NP,Vlodrop,Roerdalen,Limburg,VBO,6.150307,51.151487
Station,10,,,6063NP,Vlodrop,Roerdalen,Limburg,VBO,6.150545,51.151521
Station,12,,,6063NP,Vlodrop,Roerdalen,Limburg,VBO,6.150723,51.151547
Station,14,,,6063NP,Vlodrop,Roerdalen,Limburg,VBO,6.150939,51.151572
Station,16,,TRAF,6063NP,Vlodrop,Roerdalen,Limburg,VBO,6.151289,51.151600
Station,16,,,6063NP,Vlodrop,Roerdalen,Limburg,VBO,6.151089,51.151596
Station,20,,CAFE,6063NP,Vlodrop,Roerdalen,Limburg,VBO,6.154905,51.151863
Station,20,,,6063NP,Vlodrop,Roerdalen,Limburg,VBO,6.154867,51.151850
Station,22,,,6063NP,Vlodrop,Roerdalen,Limburg,VBO,6.155664,51.151747
Station,24,M,1,6063NP,Vlodrop,Roerdalen,Limburg,VBO,6.151926,51.156956
Station,24,M,10,6063NP,Vlodrop,Roerdalen,Limburg,VBO,6.152535,51.157320
Station,24,M,101,6063NP,Vlodrop,Roerdalen,Limburg,VBO,6.155618,51.157132
Station,24,M,105,6063NP,Vlodrop,Roerdalen,Limburg,VBO,6.154012,51.158120
Station,24,M,106,6063NP,Vlodrop,Roerdalen,Limburg,VBO,6.154038,51.157854
Station,24,M,108,6063NP,Vlodrop,Roerdalen,Limburg,VBO,6.153120,51.157873
Station,24,M,11,6063NP,Vlodrop,Roerdalen,Limburg,VBO,6.151487,51.156452
Station,24,M,110,6063NP,Vlodrop,Roerdalen,Limburg,VBO,6.154445,51.157451
Station,24,M,111,6063NP,Vlodrop,Roerdalen,Limburg,VBO,6.154458,51.157240
Station,24,M,112,6063NP,Vlodrop,Roerdalen,Limburg,VBO,6.154441,51.157029
Station,24,M,113,6063NP,Vlodrop,Roerdalen,Limburg,VBO,6.153967,51.157477
Station,24,M,114,6063NP,Vlodrop,Roerdalen,Limburg,VBO,6.153977,51.157249
Station,24,M,115,6063NP,Vlodrop,Roerdalen,Limburg,VBO,6.153953,51.157032
Station,24,M,116,6063NP,Vlodrop,Roerdalen,Limburg,VBO,6.153453,51.157474
Station,24,M,117,6063NP,Vlodrop,Roerdalen,Limburg,VBO,6.153456,51.157253
Station,24,M,118,6063NP,Vlodrop,Roerdalen,Limburg,VBO,6.153421,51.157031
Station,24,M,119,6063NP,Vlodrop,Roerdalen,Limburg,VBO,6.152958,51.157467
Station,24,M,12,6063NP,Vlodrop,Roerdalen,Limburg,VBO,6.151487,51.156217
Station,24,M,120,6063NP,Vlodrop,Roerdalen,Limburg,VBO,6.152971,51.157245
Station,24,M,121,6063NP,Vlodrop,Roerdalen,Limburg,VBO,6.152967,51.157009
Station,24,M,13,6063NP,Vlodrop,Roerdalen,Limburg,VBO,6.151475,51.155936
Station,24,M,14,6063NP,Vlodrop,Roerdalen,Limburg,VBO,6.151491,51.155697
Station,24,M,15,6063NP,Vlodrop,Roerdalen,Limburg,VBO,6.151052,51.155945
Station,24,M,151,6063NP,Vlodrop,Roerdalen,Limburg,VBO,6.153098,51.155122
Station,24,M,152,6063NP,Vlodrop,Roerdalen,Limburg,VBO,6.154047,51.154976
Station,24,M,16,6063NP,Vlodrop,Roerdalen,Limburg,VBO,6.153103,51.155461
Station,24,M,17,6063NP,Vlodrop,Roerdalen,Limburg,VBO,6.153116,51.155804
Station,24,M,18,6063NP,Vlodrop,Roerdalen,Limburg,VBO,6.153357,51.155881
Station,24,M,2,6063NP,Vlodrop,Roerdalen,Limburg,VBO,6.151929,51.156728
Station,24,M,3,6063NP,Vlodrop,Roerdalen,Limburg,VBO,6.151914,51.156464
Station,24,M,4,6063NP,Vlodrop,Roerdalen,Limburg,VBO,6.151907,51.156217
Station,24,M,5,6063NP,Vlodrop,Roerdalen,Limburg,VBO,6.151939,51.155941
Station,24,M,6,6063NP,Vlodrop,Roerdalen,Limburg,VBO,6.151932,51.155709
Station,24,M,7,6063NP,Vlodrop,Roerdalen,Limburg,VBO,6.151928,51.155477
Station,24,M,8,6063NP,Vlodrop,Roerdalen,Limburg,VBO,6.152571,51.155822
Station,24,M,9,6063NP,Vlodrop,Roerdalen,Limburg,VBO,6.152523,51.156234
Station,24,T,9,6063NP,Vlodrop,Roerdalen,Limburg,VBO,6.153569,51.155984
Station,24,,,6063NP,Vlodrop,Roerdalen,Limburg,VBO,6.155445,51.155584
Hooibaan,1,,,6063NS,Vlodrop,Roerdalen,Limburg,VBO,6.104848,51.143855
Gitstappermolenweg,1,a,,6063NT,Vlodrop,Roerdalen,Limburg,VBO,6.107997,51.138024
Gitstappermolenweg,1,,CAFE,6063NT,Vlodrop,Roerdalen,Limburg,VBO,6.108624,51.137852
Gitstappermolenweg,1,,,6063NT,Vlodrop,Roerdalen,Limburg,VBO,6.108593,51.137826
Gitstappermolenweg,3,,,6063NT,Vlodrop,Roerdalen,Limburg,VBO,6.108679,51.137624
Station,157,K,01,6063NV,Vlodrop,Roerdalen,Limburg,VBO,6.154746,51.154547
Station,157,K,02,6063NV,Vlodrop,Roerdalen,Limburg,VBO,6.154737,51.154592
Station,157,K,03,6063NV,Vlodrop,Roerdalen,Limburg,VBO,6.154737,51.154634
Station,157,K,04,6063NV,Vlodrop,Roerdalen,Limburg,VBO,6.154735,51.154681
Station,157,K,05,6063NV,Vlodrop,Roerdalen,Limburg,VBO,6.154732,51.154729
Station,157,K,06,6063NV,Vlodrop,Roerdalen,Limburg,VBO,6.154727,51.154777
Station,157,K,07,6063NV,Vlodrop,Roerdalen,Limburg,VBO,6.154724,51.154833
Station,157,K,08,6063NV,Vlodrop,Roerdalen,Limburg,VBO,6.155003,51.154568
Station,157,K,09,6063NV,Vlodrop,Roerdalen,Limburg,VBO,6.154997,51.154796
Station,157,K,10,6063NV,Vlodrop,Roerdalen,Limburg,VBO,6.154988,51.154866
Station,157,K,11,6063NV,Vlodrop,Roerdalen,Limburg,VBO,6.154792,51.154551
Station,157,K,12,6063NV,Vlodrop,Roerdalen,Limburg,VBO,6.154783,51.154598
Station,157,K,13,6063NV,Vlodrop,Roerdalen,Limburg,VBO,6.154774,51.154638
Station,157,K,14,6063NV,Vlodrop,Roerdalen,Limburg,VBO,6.154768,51.154687
Station,157,K,15,6063NV,Vlodrop,Roerdalen,Limburg,VBO,6.154762,51.154733
Station,157,K,16,6063NV,Vlodrop,Roerdalen,Limburg,VBO,6.154760,51.154822
Station,157,K,17,6063NV,Vlodrop,Roerdalen,Limburg,VBO,6.154957,51.154572
Station,157,K,18,6063NV,Vlodrop,Roerdalen,Limburg,VBO,6.154949,51.154690
Station,157,K,19,6063NV,Vlodrop,Roerdalen,Limburg,VBO,6.154941,51.154800
Station,157,K,20,6063NV,Vlodrop,Roerdalen,Limburg,VBO,6.154935,51.154868
Station,157,K,21,6063NV,Vlodrop,Roerdalen,Limburg,VBO,6.154845,51.154552
Station,157,K,22,6063NV,Vlodrop,Roerdalen,Limburg,VBO,6.154823,51.154617
Station,157,K,23,6063NV,Vlodrop,Roerdalen,Limburg,VBO,6.154814,51.154683
Station,157,K,24,6063NV,Vlodrop,Roerdalen,Limburg,VBO,6.154793,51.154787
Station,157,K,25,6063NV,Vlodrop,Roerdalen,Limburg,VBO,6.154797,51.154873
Station,157,K,26,6063NV,Vlodrop,Roerdalen,Limburg,VBO,6.154904,51.154577
Station,157,K,27,6063NV,Vlodrop,Roerdalen,Limburg,VBO,6.154909,51.154693
Station,157,K,28,6063NV,Vlodrop,Roerdalen,Limburg,VBO,6.154892,51.154807
Station,157,,,6063NV,Vlodrop,Roerdalen,Limburg,VBO,6.154861,51.154718
