openbareruimtenaam,huisnummer,huisletter,huisnummertoevoeging,postcode,woonplaatsnaam,gemeentenaam,provincienaam,typeadresseerbaarobject,longitude,latitude
Exgaard,2,,,6074AA,Melick,Roerdalen,Limburg,VBO,6.006765,51.154429
Exgaard,4,,,6074AA,Melick,Roerdalen,Limburg,VBO,6.006828,51.154368
Exgaard,8,,,6074AA,Melick,Roerdalen,Limburg,VBO,6.007005,51.154160
Exgaard,12,,,6074AA,Melick,Roerdalen,Limburg,VBO,6.007043,51.153871
Exgaard,14,,,6074AA,Melick,Roerdalen,Limburg,VBO,6.007348,51.153564
Kerkberg,4,,,6074AB,Melick,Roerdalen,Limburg,VBO,6.006858,51.156421
Kerkberg,8,,,6074AB,Melick,Roerdalen,Limburg,VBO,6.006661,51.156260
Kerkberg,10,,,6074AB,Melick,Roerdalen,Limburg,VBO,6.006117,51.156250
Heinsbergerweg,1,,RIOO,6074AC,Melick,Roerdalen,Limburg,VBO,6.004938,51.152688
Heinsbergerweg,1,,,6074AC,Melick,Roerdalen,Limburg,VBO,6.004932,51.152672
Heinsbergerweg,3,a,,6074AC,Melick,Roerdalen,Limburg,VBO,6.006111,51.155428
Heinsbergerweg,3,,,6074AC,Melick,Roerdalen,Limburg,VBO,6.005228,51.155520
Heinsbergerweg,5,a,,6074AC,Melick,Roerdalen,Limburg,VBO,6.006588,51.155710
Heinsbergerweg,5,b,,6074AC,Melick,Roerdalen,Limburg,VBO,6.006617,51.155737
Heinsbergerweg,5,c,,6074AC,Melick,Roerdalen,Limburg,VBO,6.006574,51.155711
Heinsbergerweg,5,d,,6074AC,Melick,Roerdalen,Limburg,VBO,6.006588,51.155728
Heinsbergerweg,5,e,,6074AC,Melick,Roerdalen,Limburg,VBO,6.006559,51.155693
Heinsbergerweg,5,f,,6074AC,Melick,Roerdalen,Limburg,VBO,6.006545,51.155711
Heinsbergerweg,5,,,6074AC,Melick,Roerdalen,Limburg,VBO,6.006602,51.155731
Heinsbergerweg,7,a,,6074AC,Melick,Roerdalen,Limburg,VBO,6.007262,51.157023
Heinsbergerweg,7,,,6074AC,Melick,Roerdalen,Limburg,VBO,6.007154,51.156848
Heinsbergerweg,9,,,6074AC,Melick,Roerdalen,Limburg,VBO,6.007481,51.157244
Heinsbergerweg,11,,,6074AC,Melick,Roerdalen,Limburg,VBO,6.007517,51.157426
Heinsbergerweg,13,,,6074AC,Melick,Roerdalen,Limburg,VBO,6.007724,51.157806
Heinsbergerweg,15,,,6074AC,Melick,Roerdalen,Limburg,VBO,6.007720,51.157929
Heinsbergerweg,17,,,6074AC,Melick,Roerdalen,Limburg,VBO,6.007782,51.159408
Heinsbergerweg,19,,,6074AC,Melick,Roerdalen,Limburg,VBO,6.006789,51.162343
Heinsbergerweg,21,,,6074AC,Melick,Roerdalen,Limburg,VBO,6.006773,51.162465
Heinsbergerweg,2,,,6074AD,Melick,Roerdalen,Limburg,VBO,6.005425,51.152866
Heinsbergerweg,4,,,6074AD,Melick,Roerdalen,Limburg,VBO,6.005359,51.153010
Heinsbergerweg,6,,,6074AD,Melick,Roerdalen,Limburg,VBO,6.005461,51.153155
Heinsbergerweg,8,,LOOD,6074AD,Melick,Roerdalen,Limburg,VBO,6.005908,51.153239
Heinsbergerweg,8,,,6074AD,Melick,Roerdalen,Limburg,VBO,6.005529,51.153451
Heinsbergerweg,10,,,6074AD,Melick,Roerdalen,Limburg,VBO,6.005624,51.153547
Heinsbergerweg,12,a,,6074AD,Melick,Roerdalen,Limburg,VBO,6.005940,51.153550
Heinsbergerweg,12,b,,6074AD,Melick,Roerdalen,Limburg,VBO,6.006180,51.153429
Heinsbergerweg,12,,,6074AD,Melick,Roerdalen,Limburg,VBO,6.005782,51.153735
Heinsbergerweg,14,a,,6074AD,Melick,Roerdalen,Limburg,VBO,6.005996,51.154006
Heinsbergerweg,14,,,6074AD,Melick,Roerdalen,Limburg,VBO,6.005901,51.153899
Heinsbergerweg,16,,,6074AD,Melick,Roerdalen,Limburg,VBO,6.006043,51.154062
Heinsbergerweg,18,,,6074AD,Melick,Roerdalen,Limburg,VBO,6.006181,51.154190
Heinsbergerweg,20,,,6074AD,Melick,Roerdalen,Limburg,VBO,6.006237,51.154338
Heinsbergerweg,22,,,6074AD,Melick,Roerdalen,Limburg,VBO,6.006543,51.154506
Heinsbergerweg,24,,,6074AD,Melick,Roerdalen,Limburg,VBO,6.006614,51.154920
Heinsbergerweg,26,a,,6074AD,Melick,Roerdalen,Limburg,VBO,6.006750,51.154999
Heinsbergerweg,26,,,6074AD,Melick,Roerdalen,Limburg,VBO,6.006615,51.154986
Heinsbergerweg,28,a,,6074AD,Melick,Roerdalen,Limburg,VBO,6.006733,51.155352
Heinsbergerweg,28,,,6074AD,Melick,Roerdalen,Limburg,VBO,6.006615,51.155182
Heinsbergerweg,30,,,6074AD,Melick,Roerdalen,Limburg,VBO,6.006848,51.155507
Heinsbergerweg,32,,,6074AD,Melick,Roerdalen,Limburg,VBO,6.006979,51.155671
Heinsbergerweg,34,,TRAF,6074AD,Melick,Roerdalen,Limburg,VBO,6.007724,51.156199
Heinsbergerweg,34,,,6074AD,Melick,Roerdalen,Limburg,VBO,6.007591,51.155980
Heinsbergerweg,36,,,6074AE,Melick,Roerdalen,Limburg,VBO,6.007566,51.156349
Heinsbergerweg,38,,,6074AE,Melick,Roerdalen,Limburg,VBO,6.007543,51.156420
Heinsbergerweg,40,,,6074AE,Melick,Roerdalen,Limburg,VBO,6.007571,51.156487
Heinsbergerweg,42,,,6074AE,Melick,Roerdalen,Limburg,VBO,6.008004,51.157243
Heinsbergerweg,46,,,6074AE,Melick,Roerdalen,Limburg,VBO,6.008126,51.157464
Heinsbergerweg,48,a,,6074AE,Melick,Roerdalen,Limburg,VBO,6.008162,51.157534
Heinsbergerweg,48,,,6074AE,Melick,Roerdalen,Limburg,VBO,6.008157,51.157545
Heinsbergerweg,58,,,6074AE,Melick,Roerdalen,Limburg,VBO,6.007383,51.161371
Heinsbergerweg,60,,,6074AE,Melick,Roerdalen,Limburg,VBO,6.007349,51.161500
Heinsbergerweg,62,,,6074AE,Melick,Roerdalen,Limburg,VBO,6.007314,51.161651
Heinsbergerweg,64,a,,6074AE,Melick,Roerdalen,Limburg,VBO,6.007249,51.161946
Heinsbergerweg,64,,,6074AE,Melick,Roerdalen,Limburg,VBO,6.007266,51.161869
Heinsbergerweg,66,,,6074AE,Melick,Roerdalen,Limburg,VBO,6.007302,51.162158
Heinsbergerweg,68,,TRAF,6074AE,Melick,Roerdalen,Limburg,VBO,6.007381,51.162597
Heinsbergerweg,68,,,6074AE,Melick,Roerdalen,Limburg,VBO,6.007194,51.162494
John F. Kennedysingel,1,,,6074AG,Melick,Roerdalen,Limburg,VBO,6.008147,51.160976
John F. Kennedysingel,3,,,6074AG,Melick,Roerdalen,Limburg,VBO,6.008596,51.161008
John F. Kennedysingel,5,,,6074AG,Melick,Roerdalen,Limburg,VBO,6.009112,51.161059
John F. Kennedysingel,7,,,6074AG,Melick,Roerdalen,Limburg,VBO,6.009571,51.161136
John F. Kennedysingel,9,,,6074AG,Melick,Roerdalen,Limburg,VBO,6.010321,51.161285
John F. Kennedysingel,11,,,6074AG,Melick,Roerdalen,Limburg,VBO,6.010778,51.161391
John F. Kennedysingel,13,,,6074AG,Melick,Roerdalen,Limburg,VBO,6.011268,51.161526
John F. Kennedysingel,15,,,6074AG,Melick,Roerdalen,Limburg,VBO,6.011725,51.161634
John F. Kennedysingel,17,,,6074AG,Melick,Roerdalen,Limburg,VBO,6.012088,51.161725
John F. Kennedysingel,19,,,6074AG,Melick,Roerdalen,Limburg,VBO,6.012577,51.161827
John F. Kennedysingel,21,,,6074AG,Melick,Roerdalen,Limburg,VBO,6.012910,51.161882
John F. Kennedysingel,23,,,6074AG,Melick,Roerdalen,Limburg,VBO,6.013852,51.161947
John F. Kennedysingel,25,,,6074AG,Melick,Roerdalen,Limburg,VBO,6.018110,51.161986
John F. Kennedysingel,27,,,6074AG,Melick,Roerdalen,Limburg,VBO,6.018083,51.161930
Linderweg,1,,,6074AH,Melick,Roerdalen,Limburg,VBO,6.012913,51.162101
Linderweg,2,,,6074AH,Melick,Roerdalen,Limburg,VBO,6.013430,51.161997
Linderweg,3,,,6074AH,Melick,Roerdalen,Limburg,VBO,6.012528,51.162116
Linderweg,4,,,6074AH,Melick,Roerdalen,Limburg,VBO,6.013397,51.162151
Linderweg,5,,,6074AH,Melick,Roerdalen,Limburg,VBO,6.012206,51.162174
Linderweg,6,,,6074AH,Melick,Roerdalen,Limburg,VBO,6.012074,51.162665
Linderweg,7,,,6074AH,Melick,Roerdalen,Limburg,VBO,6.012023,51.162275
Linderweg,8,,,6074AH,Melick,Roerdalen,Limburg,VBO,6.011993,51.162629
Linderweg,10,a,,6074AH,Melick,Roerdalen,Limburg,VBO,6.011836,51.162571
Linderweg,10,b,,6074AH,Melick,Roerdalen,Limburg,VBO,6.011827,51.162553
Linderweg,10,c,,6074AH,Melick,Roerdalen,Limburg,VBO,6.011808,51.162533
Linderweg,10,,,6074AH,Melick,Roerdalen,Limburg,VBO,6.011824,51.162586
Linderweg,12,a,,6074AH,Melick,Roerdalen,Limburg,VBO,6.011760,51.162544
Linderweg,12,b,,6074AH,Melick,Roerdalen,Limburg,VBO,6.011744,51.162579
Linderweg,12,,,6074AH,Melick,Roerdalen,Limburg,VBO,6.011762,51.162521
Linderweg,14,,,6074AH,Melick,Roerdalen,Limburg,VBO,6.011671,51.162486
Linderweg,16,,,6074AH,Melick,Roerdalen,Limburg,VBO,6.011602,51.162427
Linderweg,28,,,6074AH,Melick,Roerdalen,Limburg,STA,6.011243,51.162866
Linderweg,30,,,6074AH,Melick,Roerdalen,Limburg,STA,6.011166,51.162975
Linderweg,32,,,6074AH,Melick,Roerdalen,Limburg,STA,6.011100,51.163057
Linderweg,34,,,6074AH,Melick,Roerdalen,Limburg,STA,6.011010,51.163136
John F. Kennedysingel,4,,,6074AJ,Melick,Roerdalen,Limburg,VBO,6.008693,51.160667
John F. Kennedysingel,8,,,6074AJ,Melick,Roerdalen,Limburg,VBO,6.009333,51.160763
John F. Kennedysingel,12,,,6074AJ,Melick,Roerdalen,Limburg,VBO,6.009826,51.160844
John F. Kennedysingel,14,,,6074AJ,Melick,Roerdalen,Limburg,VBO,6.010480,51.160965
John F. Kennedysingel,16,,,6074AJ,Melick,Roerdalen,Limburg,VBO,6.010849,51.161065
John F. Kennedysingel,18,,,6074AJ,Melick,Roerdalen,Limburg,VBO,6.011413,51.161208
John F. Kennedysingel,20,,,6074AJ,Melick,Roerdalen,Limburg,VBO,6.011510,51.161243
John F. Kennedysingel,22,,,6074AJ,Melick,Roerdalen,Limburg,VBO,6.011833,51.161317
John F. Kennedysingel,24,,,6074AJ,Melick,Roerdalen,Limburg,VBO,6.011927,51.161350
John F. Kennedysingel,26,,,6074AJ,Melick,Roerdalen,Limburg,VBO,6.019151,51.161425
John F. Kennedysingel,28,,,6074AJ,Melick,Roerdalen,Limburg,VBO,6.019392,51.161400
John F. Kennedysingel,30,,,6074AJ,Melick,Roerdalen,Limburg,VBO,6.019645,51.161519
John F. Kennedysingel,32,,,6074AJ,Melick,Roerdalen,Limburg,VBO,6.019831,51.161499
John F. Kennedysingel,34,,,6074AK,Melick,Roerdalen,Limburg,VBO,6.020307,51.161629
John F. Kennedysingel,36,,,6074AK,Melick,Roerdalen,Limburg,VBO,6.020400,51.161617
John F. Kennedysingel,38,,,6074AK,Melick,Roerdalen,Limburg,VBO,6.020582,51.161598
John F. Kennedysingel,40,,,6074AK,Melick,Roerdalen,Limburg,VBO,6.020675,51.161587
John F. Kennedysingel,42,,,6074AK,Melick,Roerdalen,Limburg,VBO,6.021206,51.161748
John F. Kennedysingel,44,,,6074AK,Melick,Roerdalen,Limburg,VBO,6.021387,51.161727
John F. Kennedysingel,46,,,6074AK,Melick,Roerdalen,Limburg,VBO,6.021481,51.161719
John F. Kennedysingel,48,,,6074AK,Melick,Roerdalen,Limburg,VBO,6.021663,51.161703
John F. Kennedysingel,50,,,6074AK,Melick,Roerdalen,Limburg,VBO,6.021755,51.161693
John F. Kennedysingel,52,,,6074AK,Melick,Roerdalen,Limburg,VBO,6.022308,51.161850
John F. Kennedysingel,54,,,6074AK,Melick,Roerdalen,Limburg,VBO,6.022548,51.161824
John F. Kennedysingel,56,,,6074AK,Melick,Roerdalen,Limburg,VBO,6.022761,51.161800
Beatrixlaan,2,,,6074AL,Melick,Roerdalen,Limburg,VBO,6.008574,51.157975
Beatrixlaan,4,,,6074AL,Melick,Roerdalen,Limburg,VBO,6.008621,51.158309
Beatrixlaan,6,,,6074AL,Melick,Roerdalen,Limburg,VBO,6.008621,51.158586
Beatrixlaan,8,,,6074AL,Melick,Roerdalen,Limburg,VBO,6.008380,51.160036
Beatrixlaan,10,,,6074AL,Melick,Roerdalen,Limburg,VBO,6.008239,51.160247
Beatrixlaan,12,,,6074AL,Melick,Roerdalen,Limburg,VBO,6.008185,51.160571
Willem Alexanderlaan,1,,,6074AM,Melick,Roerdalen,Limburg,VBO,6.009039,51.160117
Willem Alexanderlaan,2,,,6074AM,Melick,Roerdalen,Limburg,VBO,6.008669,51.159712
Willem Alexanderlaan,4,,,6074AM,Melick,Roerdalen,Limburg,VBO,6.009117,51.159820
Willem Alexanderlaan,6,,,6074AM,Melick,Roerdalen,Limburg,VBO,6.009620,51.159886
Willem Alexanderlaan,7,,,6074AM,Melick,Roerdalen,Limburg,VBO,6.009907,51.160318
Willem Alexanderlaan,8,,,6074AM,Melick,Roerdalen,Limburg,VBO,6.010084,51.159993
Willem Alexanderlaan,10,,,6074AM,Melick,Roerdalen,Limburg,VBO,6.010440,51.160122
Johan Frisolaan,2,,,6074AN,Melick,Roerdalen,Limburg,VBO,6.009466,51.160226
Johan Frisolaan,3,,,6074AN,Melick,Roerdalen,Limburg,VBO,6.008918,51.160392
Johan Frisolaan,4,,,6074AN,Melick,Roerdalen,Limburg,VBO,6.009363,51.160497
Marijkelaan,2,,,6074AP,Melick,Roerdalen,Limburg,VBO,6.011717,51.159442
Marijkelaan,3,,,6074AP,Melick,Roerdalen,Limburg,VBO,6.011943,51.158450
Marijkelaan,4,,TRAF,6074AP,Melick,Roerdalen,Limburg,VBO,6.011232,51.160102
Marijkelaan,4,,,6074AP,Melick,Roerdalen,Limburg,VBO,6.011152,51.160181
Marijkelaan,5,,,6074AP,Melick,Roerdalen,Limburg,VBO,6.011915,51.158468
Marijkelaan,6,,,6074AP,Melick,Roerdalen,Limburg,VBO,6.010999,51.160318
Marijkelaan,7,,,6074AP,Melick,Roerdalen,Limburg,VBO,6.011943,51.158495
Marijkelaan,8,,,6074AP,Melick,Roerdalen,Limburg,VBO,6.010951,51.160372
Marijkelaan,9,,,6074AP,Melick,Roerdalen,Limburg,VBO,6.011943,51.158441
Marijkelaan,10,,,6074AP,Melick,Roerdalen,Limburg,VBO,6.010847,51.160489
Marijkelaan,11,a,,6074AP,Melick,Roerdalen,Limburg,VBO,6.011900,51.158469
Marijkelaan,11,,,6074AP,Melick,Roerdalen,Limburg,VBO,6.011914,51.158451
Marijkelaan,12,,,6074AP,Melick,Roerdalen,Limburg,VBO,6.010737,51.160610
Marijkelaan,13,,,6074AP,Melick,Roerdalen,Limburg,VBO,6.011915,51.158486
Marijkelaan,14,,,6074AP,Melick,Roerdalen,Limburg,VBO,6.010689,51.160665
Marijkelaan,15,,,6074AP,Melick,Roerdalen,Limburg,VBO,6.011944,51.158513
Marijkelaan,17,,,6074AP,Melick,Roerdalen,Limburg,VBO,6.011942,51.158423
Marijkelaan,19,,,6074AP,Melick,Roerdalen,Limburg,VBO,6.011914,51.158433
Marijkelaan,21,,,6074AP,Melick,Roerdalen,Limburg,VBO,6.011886,51.158451
Marijkelaan,23,,,6074AP,Melick,Roerdalen,Limburg,VBO,6.011818,51.158703
Marijkelaan,25,,,6074AP,Melick,Roerdalen,Limburg,VBO,6.011703,51.158685
Marijkelaan,27,,,6074AP,Melick,Roerdalen,Limburg,VBO,6.011716,51.158954
Marijkelaan,29,,,6074AP,Melick,Roerdalen,Limburg,VBO,6.011452,51.159223
Marijkelaan,33,,,6074AP,Melick,Roerdalen,Limburg,VBO,6.010268,51.160442
Marijkelaan,35,,,6074AP,Melick,Roerdalen,Limburg,VBO,6.010114,51.160614
Emmalaan,1,,,6074AR,Melick,Roerdalen,Limburg,VBO,6.011690,51.160321
Emmalaan,2,,,6074AR,Melick,Roerdalen,Limburg,VBO,6.012016,51.160452
Emmalaan,3,,,6074AR,Melick,Roerdalen,Limburg,VBO,6.011580,51.160444
Emmalaan,4,,,6074AR,Melick,Roerdalen,Limburg,VBO,6.011909,51.160571
Emmalaan,5,,,6074AR,Melick,Roerdalen,Limburg,VBO,6.011448,51.160592
Emmalaan,6,,,6074AR,Melick,Roerdalen,Limburg,VBO,6.011787,51.160710
Emmalaan,7,,,6074AR,Melick,Roerdalen,Limburg,VBO,6.011363,51.160645
Emmalaan,8,,,6074AR,Melick,Roerdalen,Limburg,VBO,6.011672,51.160838
Emmalaan,10,,,6074AR,Melick,Roerdalen,Limburg,VBO,6.011551,51.160973
Emmalaan,11,,,6074AR,Melick,Roerdalen,Limburg,VBO,6.011228,51.160838
Mauritslaan,1,,,6074AS,Melick,Roerdalen,Limburg,VBO,6.012579,51.160640
Mauritslaan,2,a,,6074AS,Melick,Roerdalen,Limburg,VBO,6.013060,51.160579
Mauritslaan,2,,,6074AS,Melick,Roerdalen,Limburg,VBO,6.013005,51.160671
Mauritslaan,3,,,6074AS,Melick,Roerdalen,Limburg,VBO,6.012535,51.160689
Mauritslaan,4,,,6074AS,Melick,Roerdalen,Limburg,VBO,6.012955,51.160727
Mauritslaan,5,,,6074AS,Melick,Roerdalen,Limburg,VBO,6.012446,51.160787
Mauritslaan,6,,,6074AS,Melick,Roerdalen,Limburg,VBO,6.012981,51.160951
Mauritslaan,7,,,6074AS,Melick,Roerdalen,Limburg,VBO,6.012400,51.160838
Mauritslaan,8,,,6074AS,Melick,Roerdalen,Limburg,VBO,6.013070,51.160983
Mauritslaan,9,,,6074AS,Melick,Roerdalen,Limburg,VBO,6.012311,51.160936
Mauritslaan,11,,,6074AS,Melick,Roerdalen,Limburg,VBO,6.012267,51.160985
Mauritslaan,13,,,6074AS,Melick,Roerdalen,Limburg,VBO,6.012180,51.161081
Mauritslaan,15,,,6074AS,Melick,Roerdalen,Limburg,VBO,6.012135,51.161132
Oranjelaan,1,,,6074AT,Melick,Roerdalen,Limburg,VBO,6.008851,51.159427
Oranjelaan,3,,,6074AT,Melick,Roerdalen,Limburg,VBO,6.009314,51.159415
Oranjelaan,5,,,6074AT,Melick,Roerdalen,Limburg,VBO,6.009829,51.159502
Oranjelaan,7,,,6074AT,Melick,Roerdalen,Limburg,VBO,6.010274,51.159680
Oranjelaan,9,,,6074AT,Melick,Roerdalen,Limburg,VBO,6.010819,51.159730
Oranjelaan,11,,,6074AT,Melick,Roerdalen,Limburg,VBO,6.011330,51.159895
Oranjelaan,13,,,6074AT,Melick,Roerdalen,Limburg,VBO,6.011558,51.159975
Oranjelaan,15,,,6074AT,Melick,Roerdalen,Limburg,VBO,6.011657,51.160010
Oranjelaan,17,,,6074AT,Melick,Roerdalen,Limburg,VBO,6.011888,51.160092
Oranjelaan,19,,,6074AT,Melick,Roerdalen,Limburg,VBO,6.012218,51.160208
Oranjelaan,21,,,6074AT,Melick,Roerdalen,Limburg,VBO,6.012452,51.160291
Oranjelaan,23,,,6074AT,Melick,Roerdalen,Limburg,VBO,6.012547,51.160325
Oranjelaan,25,,,6074AT,Melick,Roerdalen,Limburg,VBO,6.012781,51.160408
Oranjelaan,2,,,6074AV,Melick,Roerdalen,Limburg,VBO,6.008721,51.158922
Oranjelaan,4,,,6074AV,Melick,Roerdalen,Limburg,VBO,6.009161,51.158927
Oranjelaan,6,,,6074AV,Melick,Roerdalen,Limburg,VBO,6.009818,51.159043
Oranjelaan,8,,,6074AV,Melick,Roerdalen,Limburg,VBO,6.010172,51.159135
Oranjelaan,10,,,6074AV,Melick,Roerdalen,Limburg,VBO,6.010694,51.159352
Oranjelaan,12,,,6074AV,Melick,Roerdalen,Limburg,VBO,6.011181,51.159510
Oranjelaan,14,,,6074AV,Melick,Roerdalen,Limburg,VBO,6.011568,51.159658
Oranjelaan,16,,,6074AV,Melick,Roerdalen,Limburg,VBO,6.011797,51.159738
Oranjelaan,18,,,6074AV,Melick,Roerdalen,Limburg,VBO,6.011915,51.159780
Oranjelaan,20,,,6074AV,Melick,Roerdalen,Limburg,VBO,6.012139,51.159859
Oranjelaan,22,,,6074AV,Melick,Roerdalen,Limburg,VBO,6.012365,51.159939
Oranjelaan,24,,,6074AV,Melick,Roerdalen,Limburg,VBO,6.012484,51.159981
Oranjelaan,26,,,6074AV,Melick,Roerdalen,Limburg,VBO,6.012688,51.160053
Oranjelaan,28,,,6074AV,Melick,Roerdalen,Limburg,VBO,6.013168,51.160221
Oranjelaan,30,,,6074AV,Melick,Roerdalen,Limburg,VBO,6.013225,51.160158
Oranjelaan,32,,,6074AV,Melick,Roerdalen,Limburg,VBO,6.013478,51.160331
Oranjelaan,34,,,6074AV,Melick,Roerdalen,Limburg,VBO,6.013534,51.160268
Irenelaan,1,,,6074AW,Melick,Roerdalen,Limburg,VBO,6.009186,51.158015
Irenelaan,2,,,6074AW,Melick,Roerdalen,Limburg,VBO,6.009679,51.158108
Irenelaan,3,,,6074AW,Melick,Roerdalen,Limburg,VBO,6.009215,51.158290
Irenelaan,4,,,6074AW,Melick,Roerdalen,Limburg,VBO,6.009765,51.158339
Irenelaan,5,,,6074AW,Melick,Roerdalen,Limburg,VBO,6.009230,51.158599
Irenelaan,6,,,6074AW,Melick,Roerdalen,Limburg,VBO,6.009772,51.158619
Margrietlaan,1,,,6074AX,Melick,Roerdalen,Limburg,VBO,6.010604,51.158445
Margrietlaan,2,,,6074AX,Melick,Roerdalen,Limburg,VBO,6.010920,51.158483
Margrietlaan,3,,,6074AX,Melick,Roerdalen,Limburg,VBO,6.010526,51.158665
Margrietlaan,4,,,6074AX,Melick,Roerdalen,Limburg,VBO,6.010825,51.158751
Margrietlaan,5,,,6074AX,Melick,Roerdalen,Limburg,VBO,6.010414,51.158898
Margrietlaan,6,,,6074AX,Melick,Roerdalen,Limburg,VBO,6.010733,51.159014
Julianalaan,1,,,6074AZ,Melick,Roerdalen,Limburg,VBO,6.011953,51.158022
Julianalaan,2,,,6074AZ,Melick,Roerdalen,Limburg,VBO,6.011309,51.158236
Julianalaan,3,,,6074AZ,Melick,Roerdalen,Limburg,VBO,6.011484,51.157986
Julianalaan,4,,,6074AZ,Melick,Roerdalen,Limburg,VBO,6.010627,51.158132
Julianalaan,5,,,6074AZ,Melick,Roerdalen,Limburg,VBO,6.011193,51.157951
Julianalaan,6,,,6074AZ,Melick,Roerdalen,Limburg,VBO,6.010184,51.158085
Julianalaan,7,,,6074AZ,Melick,Roerdalen,Limburg,VBO,6.010908,51.157920
Julianalaan,9,,,6074AZ,Melick,Roerdalen,Limburg,VBO,6.010524,51.157866
Julianalaan,11,,,6074AZ,Melick,Roerdalen,Limburg,VBO,6.010193,51.157819
Julianalaan,13,,,6074AZ,Melick,Roerdalen,Limburg,VBO,6.009888,51.157776
Julianalaan,15,,,6074AZ,Melick,Roerdalen,Limburg,VBO,6.009473,51.157718
Julianalaan,17,,,6074AZ,Melick,Roerdalen,Limburg,VBO,6.009203,51.157680
Julianalaan,19,,,6074AZ,Melick,Roerdalen,Limburg,VBO,6.008830,51.157646
Kerkstraat,1,,,6074BA,Melick,Roerdalen,Limburg,VBO,6.012234,51.157051
Kerkstraat,4,a,,6074BA,Melick,Roerdalen,Limburg,VBO,6.013114,51.158399
Kerkstraat,4,,,6074BA,Melick,Roerdalen,Limburg,VBO,6.012836,51.157359
Kerkstraat,5,,,6074BA,Melick,Roerdalen,Limburg,VBO,6.012221,51.157197
Kerkstraat,7,,,6074BA,Melick,Roerdalen,Limburg,VBO,6.012238,51.157362
Kerkstraat,9,,,6074BA,Melick,Roerdalen,Limburg,VBO,6.012219,51.157502
Kerkstraat,11,,,6074BA,Melick,Roerdalen,Limburg,VBO,6.012203,51.157628
Kerkstraat,15,,,6074BA,Melick,Roerdalen,Limburg,VBO,6.012179,51.157813
Markt,1,,,6074BB,Melick,Roerdalen,Limburg,VBO,6.013762,51.157703
Markt,2,,,6074BB,Melick,Roerdalen,Limburg,VBO,6.013396,51.157548
Markt,3,,,6074BB,Melick,Roerdalen,Limburg,VBO,6.013658,51.157726
Markt,4,,,6074BB,Melick,Roerdalen,Limburg,VBO,6.012729,51.157402
Markt,6,,,6074BB,Melick,Roerdalen,Limburg,VBO,6.013031,51.157537
Markt,7,,,6074BB,Melick,Roerdalen,Limburg,VBO,6.013559,51.157873
Markt,8,,,6074BB,Melick,Roerdalen,Limburg,VBO,6.013375,51.157390
Markt,10,,,6074BB,Melick,Roerdalen,Limburg,VBO,6.013375,51.157377
Markt,11,,,6074BB,Melick,Roerdalen,Limburg,VBO,6.013496,51.158036
Markt,12,,,6074BB,Melick,Roerdalen,Limburg,VBO,6.013059,51.157509
Markt,13,,,6074BB,Melick,Roerdalen,Limburg,VBO,6.013467,51.158085
Markt,15,,,6074BB,Melick,Roerdalen,Limburg,VBO,6.013627,51.158115
Markt,17,,,6074BB,Melick,Roerdalen,Limburg,VBO,6.013663,51.158058
Markt,18,,,6074BB,Melick,Roerdalen,Limburg,VBO,6.013519,51.157407
Markt,19,,,6074BB,Melick,Roerdalen,Limburg,VBO,6.013704,51.157996
Markt,20,,,6074BB,Melick,Roerdalen,Limburg,VBO,6.013059,51.157492
Markt,21,,,6074BB,Melick,Roerdalen,Limburg,VBO,6.013746,51.157938
Markt,22,,,6074BB,Melick,Roerdalen,Limburg,VBO,6.012879,51.157389
Markt,23,,,6074BB,Melick,Roerdalen,Limburg,VBO,6.013778,51.157884
Markt,24,,,6074BB,Melick,Roerdalen,Limburg,VBO,6.013404,51.157506
Markt,25,,,6074BB,Melick,Roerdalen,Limburg,VBO,6.013807,51.157826
Markt,26,,,6074BB,Melick,Roerdalen,Limburg,VBO,6.013525,51.157421
Markt,27,,,6074BB,Melick,Roerdalen,Limburg,VBO,6.013805,51.157766
Markt,29,,,6074BB,Melick,Roerdalen,Limburg,VBO,6.013712,51.157790
Markt,30,,,6074BB,Melick,Roerdalen,Limburg,VBO,6.013141,51.157470
Markt,31,,,6074BB,Melick,Roerdalen,Limburg,VBO,6.013682,51.157845
Markt,32,,,6074BB,Melick,Roerdalen,Limburg,VBO,6.013172,51.157398
Markt,33,,,6074BB,Melick,Roerdalen,Limburg,VBO,6.013648,51.157906
Markt,34,,,6074BB,Melick,Roerdalen,Limburg,VBO,6.012694,51.157469
Markt,35,,,6074BB,Melick,Roerdalen,Limburg,VBO,6.013621,51.157958
Markt,36,,,6074BB,Melick,Roerdalen,Limburg,VBO,6.013058,51.157426
Markt,37,,,6074BB,Melick,Roerdalen,Limburg,VBO,6.013596,51.158008
Markt,38,,,6074BB,Melick,Roerdalen,Limburg,VBO,6.013028,51.157395
Markt,39,,,6074BB,Melick,Roerdalen,Limburg,VBO,6.013566,51.158064
Markt,40,,,6074BB,Melick,Roerdalen,Limburg,VBO,6.013134,51.157454
Markt,41,,,6074BB,Melick,Roerdalen,Limburg,VBO,6.013538,51.158106
Markt,43,,,6074BB,Melick,Roerdalen,Limburg,VBO,6.013653,51.157772
Markt,44,,,6074BB,Melick,Roerdalen,Limburg,VBO,6.012867,51.157472
Markt,45,,,6074BB,Melick,Roerdalen,Limburg,VBO,6.013635,51.157819
Markt,46,,,6074BB,Melick,Roerdalen,Limburg,VBO,6.012740,51.157486
Markt,48,,,6074BB,Melick,Roerdalen,Limburg,VBO,6.012682,51.157450
Markt,50,,,6074BB,Melick,Roerdalen,Limburg,VBO,6.013393,51.157569
Markt,52,,,6074BB,Melick,Roerdalen,Limburg,VBO,6.013189,51.157554
Markt,54,,,6074BB,Melick,Roerdalen,Limburg,VBO,6.013188,51.157536
Markt,56,,,6074BB,Melick,Roerdalen,Limburg,VBO,6.013246,51.157509
Markt,58,,,6074BB,Melick,Roerdalen,Limburg,VBO,6.013341,51.157460
Markt,60,,,6074BB,Melick,Roerdalen,Limburg,VBO,6.013387,51.157481
Markt,62,,,6074BB,Melick,Roerdalen,Limburg,VBO,6.013329,51.157442
Markt,64,,,6074BB,Melick,Roerdalen,Limburg,VBO,6.013372,51.157424
Markt,66,,,6074BB,Melick,Roerdalen,Limburg,VBO,6.013712,51.157264
Markt,68,,,6074BB,Melick,Roerdalen,Limburg,VBO,6.013805,51.157536
Markt,70,,,6074BB,Melick,Roerdalen,Limburg,VBO,6.014076,51.157516
Bernhardstraat,1,,,6074BC,Melick,Roerdalen,Limburg,VBO,6.013082,51.158952
Bernhardstraat,2,,,6074BC,Melick,Roerdalen,Limburg,VBO,6.012864,51.158933
Bernhardstraat,3,,,6074BC,Melick,Roerdalen,Limburg,VBO,6.012652,51.158914
Bernhardstraat,4,,,6074BC,Melick,Roerdalen,Limburg,VBO,6.012415,51.158893
Wilhelminastraat,1,,,6074BD,Melick,Roerdalen,Limburg,VBO,6.012693,51.159293
Wilhelminastraat,2,,,6074BD,Melick,Roerdalen,Limburg,VBO,6.012446,51.159456
Wilhelminastraat,3,,,6074BD,Melick,Roerdalen,Limburg,VBO,6.012477,51.159253
Wilhelminastraat,4,,,6074BD,Melick,Roerdalen,Limburg,VBO,6.012177,51.159394
Wilhelminastraat,5,,,6074BD,Melick,Roerdalen,Limburg,VBO,6.012256,51.159199
Wilhelminastraat,6,,,6074BD,Melick,Roerdalen,Limburg,VBO,6.011908,51.159296
Wilhelminastraat,7,,,6074BD,Melick,Roerdalen,Limburg,VBO,6.012037,51.159131
Hendrikstraat,1,,,6074BE,Melick,Roerdalen,Limburg,VBO,6.012967,51.159530
Hendrikstraat,3,,,6074BE,Melick,Roerdalen,Limburg,VBO,6.012896,51.159689
Hendrikstraat,5,,,6074BE,Melick,Roerdalen,Limburg,VBO,6.012836,51.159823
Brouwestraat,3,,,6074BG,Melick,Roerdalen,Limburg,VBO,6.013044,51.159192
Brouwestraat,5,,,6074BG,Melick,Roerdalen,Limburg,VBO,6.013020,51.159312
Brouwestraat,15,,,6074BG,Melick,Roerdalen,Limburg,VBO,6.013388,51.159745
Brouwestraat,17,,,6074BG,Melick,Roerdalen,Limburg,VBO,6.013331,51.159809
Brouwestraat,19,,,6074BG,Melick,Roerdalen,Limburg,VBO,6.013306,51.159947
Brouwestraat,21,,,6074BG,Melick,Roerdalen,Limburg,VBO,6.013249,51.160011
Brouwestraat,23,,,6074BG,Melick,Roerdalen,Limburg,VBO,6.013732,51.159944
Brouwestraat,25,,,6074BG,Melick,Roerdalen,Limburg,VBO,6.013675,51.160008
Brouwestraat,27,,,6074BG,Melick,Roerdalen,Limburg,VBO,6.013996,51.160067
Brouwestraat,29,,,6074BG,Melick,Roerdalen,Limburg,VBO,6.013940,51.160132
Brouwestraat,31,,,6074BG,Melick,Roerdalen,Limburg,VBO,6.014260,51.160195
Brouwestraat,33,,,6074BG,Melick,Roerdalen,Limburg,VBO,6.014205,51.160257
Brouwestraat,12,,,6074BH,Melick,Roerdalen,Limburg,VBO,6.014086,51.158058
Brouwestraat,14,,,6074BH,Melick,Roerdalen,Limburg,VBO,6.013994,51.158184
Brouwestraat,16,,,6074BH,Melick,Roerdalen,Limburg,VBO,6.013869,51.158311
Brouwestraat,18,,,6074BH,Melick,Roerdalen,Limburg,VBO,6.013726,51.158551
Brouwestraat,20,,,6074BH,Melick,Roerdalen,Limburg,VBO,6.013593,51.158710
Brouwestraat,22,,,6074BH,Melick,Roerdalen,Limburg,VBO,6.013513,51.158827
Brouwestraat,24,,,6074BH,Melick,Roerdalen,Limburg,VBO,6.013447,51.158947
Brouwestraat,26,,,6074BH,Melick,Roerdalen,Limburg,VBO,6.013408,51.159076
Brouwestraat,30,,,6074BH,Melick,Roerdalen,Limburg,VBO,6.013630,51.159612
Brouwestraat,32,,,6074BH,Melick,Roerdalen,Limburg,VBO,6.013707,51.159648
Brouwestraat,34,,,6074BH,Melick,Roerdalen,Limburg,VBO,6.013834,51.159717
Brouwestraat,36,,,6074BH,Melick,Roerdalen,Limburg,VBO,6.013912,51.159752
Brouwestraat,38,,,6074BH,Melick,Roerdalen,Limburg,VBO,6.014037,51.159819
Brouwestraat,40,,,6074BH,Melick,Roerdalen,Limburg,VBO,6.014110,51.159852
Brouwestraat,42,,,6074BH,Melick,Roerdalen,Limburg,VBO,6.014233,51.159918
Brouwestraat,44,,,6074BH,Melick,Roerdalen,Limburg,VBO,6.014306,51.159951
Brouwestraat,46,,,6074BH,Melick,Roerdalen,Limburg,VBO,6.014647,51.160001
Brouwestraat,48,,WINK,6074BH,Melick,Roerdalen,Limburg,VBO,6.014749,51.159832
Brouwestraat,48,,,6074BH,Melick,Roerdalen,Limburg,VBO,6.014777,51.160008
St.Andreasstraat,1,,,6074BJ,Melick,Roerdalen,Limburg,VBO,6.013407,51.159311
St.Andreasstraat,2,,,6074BJ,Melick,Roerdalen,Limburg,VBO,6.013862,51.159224
St.Andreasstraat,3,,,6074BJ,Melick,Roerdalen,Limburg,VBO,6.013797,51.159375
St.Andreasstraat,4,,,6074BJ,Melick,Roerdalen,Limburg,VBO,6.014043,51.159270
St.Andreasstraat,5,,,6074BJ,Melick,Roerdalen,Limburg,VBO,6.013881,51.159396
St.Andreasstraat,6,,,6074BJ,Melick,Roerdalen,Limburg,VBO,6.014126,51.159291
St.Andreasstraat,7,,,6074BJ,Melick,Roerdalen,Limburg,VBO,6.014057,51.159440
St.Andreasstraat,8,,,6074BJ,Melick,Roerdalen,Limburg,VBO,6.014276,51.159329
St.Andreasstraat,9,,,6074BJ,Melick,Roerdalen,Limburg,VBO,6.014141,51.159461
St.Andreasstraat,10,,,6074BJ,Melick,Roerdalen,Limburg,VBO,6.014367,51.159351
St.Andreasstraat,11,,,6074BJ,Melick,Roerdalen,Limburg,VBO,6.014287,51.159498
St.Andreasstraat,13,,,6074BJ,Melick,Roerdalen,Limburg,VBO,6.014366,51.159518
St.Jozefstraat,1,,,6074BK,Melick,Roerdalen,Limburg,VBO,6.014026,51.158817
St.Jozefstraat,2,,,6074BK,Melick,Roerdalen,Limburg,VBO,6.014141,51.158672
St.Jozefstraat,3,,,6074BK,Melick,Roerdalen,Limburg,VBO,6.014106,51.158837
St.Jozefstraat,4,,,6074BK,Melick,Roerdalen,Limburg,VBO,6.014326,51.158718
St.Jozefstraat,5,,,6074BK,Melick,Roerdalen,Limburg,VBO,6.014256,51.158875
St.Jozefstraat,6,,,6074BK,Melick,Roerdalen,Limburg,VBO,6.014469,51.158754
St.Jozefstraat,7,,,6074BK,Melick,Roerdalen,Limburg,VBO,6.014339,51.158896
St.Jozefstraat,8,,,6074BK,Melick,Roerdalen,Limburg,VBO,6.014665,51.158802
St.Jozefstraat,9,,,6074BK,Melick,Roerdalen,Limburg,VBO,6.014488,51.158934
St.Jozefstraat,11,,,6074BK,Melick,Roerdalen,Limburg,VBO,6.014568,51.158955
St.Servaaslaan,1,,,6074BL,Melick,Roerdalen,Limburg,VBO,6.014620,51.158169
St.Servaaslaan,3,,,6074BL,Melick,Roerdalen,Limburg,VBO,6.014698,51.158197
St.Servaaslaan,5,,,6074BL,Melick,Roerdalen,Limburg,VBO,6.014778,51.158226
St.Servaaslaan,7,,,6074BL,Melick,Roerdalen,Limburg,VBO,6.014858,51.158256
St.Servaaslaan,9,,,6074BL,Melick,Roerdalen,Limburg,VBO,6.014990,51.158305
St.Servaaslaan,11,,,6074BL,Melick,Roerdalen,Limburg,VBO,6.015068,51.158334
St.Servaaslaan,13,,,6074BL,Melick,Roerdalen,Limburg,VBO,6.015194,51.158381
St.Servaaslaan,15,,,6074BL,Melick,Roerdalen,Limburg,VBO,6.015278,51.158412
St.Servaaslaan,17,,,6074BL,Melick,Roerdalen,Limburg,VBO,6.015610,51.158535
St.Servaaslaan,19,,,6074BL,Melick,Roerdalen,Limburg,VBO,6.015686,51.158563
St.Servaaslaan,21,,,6074BL,Melick,Roerdalen,Limburg,VBO,6.015761,51.158591
St.Servaaslaan,23,,,6074BL,Melick,Roerdalen,Limburg,VBO,6.015932,51.158655
St.Servaaslaan,25,a,,6074BL,Melick,Roerdalen,Limburg,VBO,6.016072,51.158707
St.Servaaslaan,25,,,6074BL,Melick,Roerdalen,Limburg,VBO,6.016007,51.158683
St.Servaaslaan,27,,,6074BM,Melick,Roerdalen,Limburg,VBO,6.016439,51.158842
St.Servaaslaan,29,,,6074BM,Melick,Roerdalen,Limburg,VBO,6.016512,51.158869
St.Servaaslaan,31,,,6074BM,Melick,Roerdalen,Limburg,VBO,6.016673,51.158929
St.Servaaslaan,33,,,6074BM,Melick,Roerdalen,Limburg,VBO,6.016758,51.158960
St.Servaaslaan,35,,,6074BM,Melick,Roerdalen,Limburg,VBO,6.016923,51.159021
St.Servaaslaan,37,,,6074BM,Melick,Roerdalen,Limburg,VBO,6.017011,51.159053
St.Servaaslaan,39,,,6074BM,Melick,Roerdalen,Limburg,VBO,6.017367,51.159197
St.Servaaslaan,41,,,6074BM,Melick,Roerdalen,Limburg,VBO,6.017451,51.159228
St.Servaaslaan,43,,,6074BM,Melick,Roerdalen,Limburg,VBO,6.017604,51.159285
St.Servaaslaan,45,,,6074BM,Melick,Roerdalen,Limburg,VBO,6.017685,51.159315
St.Servaaslaan,2,a,,6074BN,Melick,Roerdalen,Limburg,VBO,6.014432,51.157853
St.Servaaslaan,2,b,,6074BN,Melick,Roerdalen,Limburg,VBO,6.014503,51.157870
St.Servaaslaan,2,,TRAF,6074BN,Melick,Roerdalen,Limburg,VBO,6.014575,51.157857
St.Servaaslaan,2,,,6074BN,Melick,Roerdalen,Limburg,VBO,6.014690,51.157932
St.Servaaslaan,4,,,6074BN,Melick,Roerdalen,Limburg,VBO,6.014763,51.157985
St.Servaaslaan,6,,,6074BN,Melick,Roerdalen,Limburg,VBO,6.014906,51.158038
St.Servaaslaan,8,,,6074BN,Melick,Roerdalen,Limburg,VBO,6.014987,51.158068
St.Servaaslaan,10,,,6074BN,Melick,Roerdalen,Limburg,VBO,6.015135,51.158123
St.Servaaslaan,12,,,6074BN,Melick,Roerdalen,Limburg,VBO,6.015215,51.158153
St.Servaaslaan,14,,,6074BN,Melick,Roerdalen,Limburg,VBO,6.015295,51.158182
St.Servaaslaan,16,,,6074BN,Melick,Roerdalen,Limburg,VBO,6.015376,51.158213
St.Servaaslaan,18,,,6074BN,Melick,Roerdalen,Limburg,VBO,6.015694,51.158329
St.Servaaslaan,20,,,6074BN,Melick,Roerdalen,Limburg,VBO,6.015775,51.158360
St.Servaaslaan,22,,,6074BN,Melick,Roerdalen,Limburg,VBO,6.015853,51.158388
St.Servaaslaan,24,,,6074BN,Melick,Roerdalen,Limburg,VBO,6.016002,51.158443
St.Servaaslaan,26,,,6074BN,Melick,Roerdalen,Limburg,VBO,6.016074,51.158470
St.Servaaslaan,28,,,6074BN,Melick,Roerdalen,Limburg,VBO,6.016229,51.158528
St.Servaaslaan,30,,,6074BN,Melick,Roerdalen,Limburg,VBO,6.016296,51.158552
St.Servaaslaan,32,,,6074BN,Melick,Roerdalen,Limburg,VBO,6.016439,51.158605
St.Servaaslaan,34,,,6074BN,Melick,Roerdalen,Limburg,VBO,6.016510,51.158631
St.Servaaslaan,36,,,6074BN,Melick,Roerdalen,Limburg,VBO,6.016581,51.158658
St.Servaaslaan,38,,,6074BN,Melick,Roerdalen,Limburg,VBO,6.016652,51.158684
St.Servaaslaan,40,,,6074BP,Melick,Roerdalen,Limburg,VBO,6.016983,51.158807
St.Servaaslaan,42,,,6074BP,Melick,Roerdalen,Limburg,VBO,6.017076,51.158841
St.Servaaslaan,44,,,6074BP,Melick,Roerdalen,Limburg,VBO,6.017242,51.158903
St.Servaaslaan,46,,,6074BP,Melick,Roerdalen,Limburg,VBO,6.017420,51.158969
St.Servaaslaan,48,,,6074BP,Melick,Roerdalen,Limburg,VBO,6.017582,51.159028
St.Servaaslaan,50,,,6074BP,Melick,Roerdalen,Limburg,VBO,6.017730,51.159084
St.Servaaslaan,52,,,6074BP,Melick,Roerdalen,Limburg,VBO,6.017902,51.159147
Marktstraat,1,,,6074BR,Melick,Roerdalen,Limburg,VBO,6.015542,51.157910
Marktstraat,3,,,6074BR,Melick,Roerdalen,Limburg,VBO,6.015242,51.158609
Marktstraat,5,,,6074BR,Melick,Roerdalen,Limburg,VBO,6.015212,51.158669
Marktstraat,7,a,,6074BR,Melick,Roerdalen,Limburg,VBO,6.015088,51.158863
Marktstraat,7,,,6074BR,Melick,Roerdalen,Limburg,VBO,6.015131,51.158773
Marktstraat,9,,,6074BR,Melick,Roerdalen,Limburg,VBO,6.014948,51.159055
Marktstraat,11,,,6074BR,Melick,Roerdalen,Limburg,VBO,6.014921,51.159110
Marktstraat,13,,,6074BR,Melick,Roerdalen,Limburg,VBO,6.014872,51.159211
Marktstraat,15,,,6074BR,Melick,Roerdalen,Limburg,VBO,6.014844,51.159268
Marktstraat,17,,,6074BR,Melick,Roerdalen,Limburg,VBO,6.014793,51.159371
Marktstraat,19,,,6074BR,Melick,Roerdalen,Limburg,VBO,6.014766,51.159428
Marktstraat,21,,,6074BR,Melick,Roerdalen,Limburg,VBO,6.014706,51.159610
Marktstraat,23,,,6074BR,Melick,Roerdalen,Limburg,VBO,6.014715,51.159666
Marktstraat,25,,,6074BR,Melick,Roerdalen,Limburg,VBO,6.014725,51.159724
Marktstraat,2,a,,6074BS,Melick,Roerdalen,Limburg,VBO,6.015891,51.157893
Marktstraat,2,,,6074BS,Melick,Roerdalen,Limburg,VBO,6.015924,51.157830
Marktstraat,4,a,,6074BS,Melick,Roerdalen,Limburg,VBO,6.015833,51.158004
Marktstraat,4,,,6074BS,Melick,Roerdalen,Limburg,VBO,6.015866,51.157941
Marktstraat,6,a,,6074BS,Melick,Roerdalen,Limburg,VBO,6.015756,51.158151
Marktstraat,6,,,6074BS,Melick,Roerdalen,Limburg,VBO,6.015789,51.158088
Marktstraat,8,,,6074BS,Melick,Roerdalen,Limburg,VBO,6.015423,51.158788
Marktstraat,10,,,6074BS,Melick,Roerdalen,Limburg,VBO,6.015385,51.158896
Marktstraat,12,,,6074BS,Melick,Roerdalen,Limburg,VBO,6.015357,51.158953
Marktstraat,14,,,6074BS,Melick,Roerdalen,Limburg,VBO,6.015308,51.159052
Marktstraat,16,,,6074BS,Melick,Roerdalen,Limburg,VBO,6.015280,51.159109
Marktstraat,18,,,6074BS,Melick,Roerdalen,Limburg,VBO,6.015231,51.159209
Marktstraat,20,,,6074BS,Melick,Roerdalen,Limburg,VBO,6.015201,51.159268
Marktstraat,22,,,6074BS,Melick,Roerdalen,Limburg,VBO,6.015152,51.159367
Marktstraat,24,,,6074BS,Melick,Roerdalen,Limburg,VBO,6.015124,51.159424
Marktstraat,26,,,6074BS,Melick,Roerdalen,Limburg,VBO,6.015135,51.159535
Marktstraat,28,,,6074BS,Melick,Roerdalen,Limburg,VBO,6.015128,51.159593
Marktstraat,30,,,6074BS,Melick,Roerdalen,Limburg,VBO,6.015122,51.159651
Marktstraat,32,,,6074BS,Melick,Roerdalen,Limburg,VBO,6.015115,51.159710
Marktstraat,34,,,6074BS,Melick,Roerdalen,Limburg,VBO,6.015097,51.159818
Marktstraat,36,,,6074BS,Melick,Roerdalen,Limburg,VBO,6.015105,51.159877
Marktstraat,38,,,6074BS,Melick,Roerdalen,Limburg,VBO,6.015113,51.159998
Marktstraat,40,,,6074BS,Melick,Roerdalen,Limburg,VBO,6.015127,51.160107
Marktstraat,42,,,6074BS,Melick,Roerdalen,Limburg,VBO,6.015135,51.160165
Graaf van Gelrestraat,1,,,6074BT,Melick,Roerdalen,Limburg,VBO,6.016481,51.157922
Graaf van Gelrestraat,3,,,6074BT,Melick,Roerdalen,Limburg,VBO,6.016986,51.157941
Graaf van Gelrestraat,4,,,6074BT,Melick,Roerdalen,Limburg,VBO,6.017379,51.157898
Graaf van Gelrestraat,5,,,6074BT,Melick,Roerdalen,Limburg,VBO,6.016969,51.158023
Graaf van Gelrestraat,6,,,6074BT,Melick,Roerdalen,Limburg,VBO,6.017294,51.158023
Graaf van Gelrestraat,7,,,6074BT,Melick,Roerdalen,Limburg,VBO,6.016946,51.158076
Graaf van Gelrestraat,8,,,6074BT,Melick,Roerdalen,Limburg,VBO,6.017271,51.158077
Graaf van Gelrestraat,9,,,6074BT,Melick,Roerdalen,Limburg,VBO,6.016923,51.158129
Graaf van Gelrestraat,10,,,6074BT,Melick,Roerdalen,Limburg,VBO,6.017224,51.158183
Graaf van Gelrestraat,11,,,6074BT,Melick,Roerdalen,Limburg,VBO,6.016900,51.158179
Graaf van Gelrestraat,12,,,6074BT,Melick,Roerdalen,Limburg,VBO,6.017201,51.158236
Graaf van Gelrestraat,13,,,6074BT,Melick,Roerdalen,Limburg,VBO,6.016862,51.158264
Graaf van Gelrestraat,14,,,6074BT,Melick,Roerdalen,Limburg,VBO,6.017100,51.158465
Graaf van Gelrestraat,15,,,6074BT,Melick,Roerdalen,Limburg,VBO,6.016839,51.158317
Graaf van Gelrestraat,16,,,6074BT,Melick,Roerdalen,Limburg,VBO,6.017077,51.158517
Graaf van Gelrestraat,17,,,6074BT,Melick,Roerdalen,Limburg,VBO,6.016816,51.158370
Graaf van Gelrestraat,18,,,6074BT,Melick,Roerdalen,Limburg,VBO,6.017054,51.158570
Graaf van Gelrestraat,19,,,6074BT,Melick,Roerdalen,Limburg,VBO,6.016792,51.158422
Graaf van Gelrestraat,20,,,6074BT,Melick,Roerdalen,Limburg,VBO,6.017030,51.158625
Parallelweg,1,,,6074BV,Melick,Roerdalen,Limburg,VBO,6.017426,51.158556
Parallelweg,2,,,6074BV,Melick,Roerdalen,Limburg,VBO,6.017542,51.158362
Parallelweg,3,,,6074BV,Melick,Roerdalen,Limburg,VBO,6.017498,51.158582
Parallelweg,4,,,6074BV,Melick,Roerdalen,Limburg,VBO,6.017618,51.158390
Parallelweg,5,,,6074BV,Melick,Roerdalen,Limburg,VBO,6.017573,51.158610
Parallelweg,6,,,6074BV,Melick,Roerdalen,Limburg,VBO,6.017756,51.158441
Parallelweg,7,,,6074BV,Melick,Roerdalen,Limburg,VBO,6.017648,51.158638
Parallelweg,8,,,6074BV,Melick,Roerdalen,Limburg,VBO,6.017832,51.158469
Parallelweg,9,,,6074BV,Melick,Roerdalen,Limburg,VBO,6.017791,51.158690
Parallelweg,10,,,6074BV,Melick,Roerdalen,Limburg,VBO,6.017977,51.158522
Parallelweg,11,,,6074BV,Melick,Roerdalen,Limburg,VBO,6.017863,51.158717
Parallelweg,12,,,6074BV,Melick,Roerdalen,Limburg,VBO,6.018053,51.158550
Parallelweg,13,,,6074BV,Melick,Roerdalen,Limburg,VBO,6.017934,51.158743
Parallelweg,15,,,6074BV,Melick,Roerdalen,Limburg,VBO,6.018009,51.158771
Dr.Meuwissenstraat,1,a,,6074BW,Melick,Roerdalen,Limburg,VBO,6.015989,51.158986
Dr.Meuwissenstraat,1,,,6074BW,Melick,Roerdalen,Limburg,VBO,6.016035,51.158891
Dr.Meuwissenstraat,3,,,6074BW,Melick,Roerdalen,Limburg,VBO,6.015961,51.159044
Dr.Meuwissenstraat,5,,,6074BW,Melick,Roerdalen,Limburg,VBO,6.015913,51.159140
Dr.Meuwissenstraat,7,,,6074BW,Melick,Roerdalen,Limburg,VBO,6.015888,51.159194
Dr.Meuwissenstraat,9,,,6074BW,Melick,Roerdalen,Limburg,VBO,6.015842,51.159289
Dr.Meuwissenstraat,11,,,6074BW,Melick,Roerdalen,Limburg,VBO,6.015817,51.159340
Dr.Meuwissenstraat,13,,,6074BW,Melick,Roerdalen,Limburg,VBO,6.015766,51.159459
Dr.Meuwissenstraat,15,,,6074BW,Melick,Roerdalen,Limburg,VBO,6.015752,51.159507
Dr.Meuwissenstraat,17,,,6074BW,Melick,Roerdalen,Limburg,VBO,6.015740,51.159640
Dr.Meuwissenstraat,19,,,6074BW,Melick,Roerdalen,Limburg,VBO,6.015743,51.159697
Dr.Meuwissenstraat,21,,,6074BW,Melick,Roerdalen,Limburg,VBO,6.015778,51.159823
Dr.Meuwissenstraat,23,,,6074BW,Melick,Roerdalen,Limburg,VBO,6.015774,51.159965
Dr.Meuwissenstraat,25,,,6074BW,Melick,Roerdalen,Limburg,VBO,6.015791,51.160089
Dr.Meuwissenstraat,2,,,6074BX,Melick,Roerdalen,Limburg,VBO,6.016330,51.159035
Dr.Meuwissenstraat,4,,,6074BX,Melick,Roerdalen,Limburg,VBO,6.016305,51.159085
Dr.Meuwissenstraat,6,,,6074BX,Melick,Roerdalen,Limburg,VBO,6.016281,51.159135
Dr.Meuwissenstraat,8,,,6074BX,Melick,Roerdalen,Limburg,VBO,6.016227,51.159244
Dr.Meuwissenstraat,10,,,6074BX,Melick,Roerdalen,Limburg,VBO,6.016201,51.159300
Dr.Meuwissenstraat,12,,,6074BX,Melick,Roerdalen,Limburg,VBO,6.016153,51.159397
Dr.Meuwissenstraat,14,,,6074BX,Melick,Roerdalen,Limburg,VBO,6.016129,51.159447
Dr.Meuwissenstraat,16,,,6074BX,Melick,Roerdalen,Limburg,VBO,6.016099,51.159557
Dr.Meuwissenstraat,18,,,6074BX,Melick,Roerdalen,Limburg,VBO,6.016090,51.159609
Dr.Meuwissenstraat,20,,,6074BX,Melick,Roerdalen,Limburg,VBO,6.016101,51.159718
Dr.Meuwissenstraat,22,,,6074BX,Melick,Roerdalen,Limburg,VBO,6.016116,51.159845
Dr.Meuwissenstraat,24,,,6074BX,Melick,Roerdalen,Limburg,VBO,6.016131,51.159973
Dr.Meuwissenstraat,26,,,6074BX,Melick,Roerdalen,Limburg,VBO,6.016145,51.160101
Burgemeester Claessenstraat,1,,,6074BZ,Melick,Roerdalen,Limburg,VBO,6.016935,51.159297
Burgemeester Claessenstraat,2,,,6074BZ,Melick,Roerdalen,Limburg,VBO,6.017236,51.159449
Burgemeester Claessenstraat,3,,,6074BZ,Melick,Roerdalen,Limburg,VBO,6.016908,51.159356
Burgemeester Claessenstraat,4,,,6074BZ,Melick,Roerdalen,Limburg,VBO,6.017210,51.159506
Burgemeester Claessenstraat,5,,,6074BZ,Melick,Roerdalen,Limburg,VBO,6.016831,51.159522
Burgemeester Claessenstraat,6,,,6074BZ,Melick,Roerdalen,Limburg,VBO,6.017158,51.159617
Burgemeester Claessenstraat,7,,,6074BZ,Melick,Roerdalen,Limburg,VBO,6.016803,51.159583
Burgemeester Claessenstraat,8,,,6074BZ,Melick,Roerdalen,Limburg,VBO,6.017132,51.159674
Burgemeester Claessenstraat,9,,,6074BZ,Melick,Roerdalen,Limburg,VBO,6.016727,51.159748
Burgemeester Claessenstraat,10,,,6074BZ,Melick,Roerdalen,Limburg,VBO,6.017078,51.159789
Burgemeester Claessenstraat,11,,,6074BZ,Melick,Roerdalen,Limburg,VBO,6.016700,51.159807
Burgemeester Claessenstraat,12,,,6074BZ,Melick,Roerdalen,Limburg,VBO,6.017052,51.159846
Burgemeester Claessenstraat,13,,,6074BZ,Melick,Roerdalen,Limburg,VBO,6.016672,51.159982
Burgemeester Claessenstraat,14,,,6074BZ,Melick,Roerdalen,Limburg,VBO,6.017033,51.159974
Burgemeester Claessenstraat,15,,,6074BZ,Melick,Roerdalen,Limburg,VBO,6.016680,51.160046
Burgemeester Claessenstraat,16,,,6074BZ,Melick,Roerdalen,Limburg,VBO,6.017031,51.160033
Dr.Nolenslaan,2,,,6074CA,Melick,Roerdalen,Limburg,VBO,6.013895,51.160494
Dr.Nolenslaan,4,,,6074CA,Melick,Roerdalen,Limburg,VBO,6.015194,51.160391
Dr.Nolenslaan,6,,,6074CA,Melick,Roerdalen,Limburg,VBO,6.015375,51.160383
Dr.Nolenslaan,8,,,6074CA,Melick,Roerdalen,Limburg,VBO,6.015524,51.160375
Dr.Nolenslaan,10,,,6074CA,Melick,Roerdalen,Limburg,VBO,6.015735,51.160364
Dr.Nolenslaan,12,,,6074CA,Melick,Roerdalen,Limburg,VBO,6.016203,51.160338
Dr.Nolenslaan,14,,,6074CA,Melick,Roerdalen,Limburg,VBO,6.016408,51.160328
Dr.Nolenslaan,16,,,6074CA,Melick,Roerdalen,Limburg,VBO,6.016508,51.160323
Dr.Nolenslaan,18,,,6074CA,Melick,Roerdalen,Limburg,VBO,6.016711,51.160312
Dr.Nolenslaan,20,,,6074CA,Melick,Roerdalen,Limburg,VBO,6.017123,51.160293
Dr.Nolenslaan,22,,,6074CA,Melick,Roerdalen,Limburg,VBO,6.017244,51.160284
Dr.Nolenslaan,24,,,6074CA,Melick,Roerdalen,Limburg,VBO,6.017428,51.160278
Dr.Nolenslaan,26,,BY,6074CA,Melick,Roerdalen,Limburg,VBO,6.018007,51.160465
Dr.Nolenslaan,26,,,6074CA,Melick,Roerdalen,Limburg,VBO,6.017557,51.160254
Dr.Nolenslaan,28,,,6074CA,Melick,Roerdalen,Limburg,VBO,6.018081,51.160241
Dr.Nolenslaan,30,,,6074CA,Melick,Roerdalen,Limburg,VBO,6.018266,51.160221
Edmond Jasparstraat,1,,,6074CB,Melick,Roerdalen,Limburg,VBO,6.019249,51.158648
Edmond Jasparstraat,3,,,6074CB,Melick,Roerdalen,Limburg,VBO,6.019335,51.158665
Edmond Jasparstraat,5,,,6074CB,Melick,Roerdalen,Limburg,VBO,6.019515,51.158700
Edmond Jasparstraat,7,,,6074CB,Melick,Roerdalen,Limburg,VBO,6.019605,51.158718
Edmond Jasparstraat,9,,,6074CB,Melick,Roerdalen,Limburg,VBO,6.019781,51.158752
Edmond Jasparstraat,11,,,6074CB,Melick,Roerdalen,Limburg,VBO,6.019864,51.158780
Edmond Jasparstraat,13,,,6074CB,Melick,Roerdalen,Limburg,VBO,6.020035,51.158802
Edmond Jasparstraat,15,,,6074CB,Melick,Roerdalen,Limburg,VBO,6.020120,51.158830
Edmond Jasparstraat,17,,,6074CB,Melick,Roerdalen,Limburg,VBO,6.020238,51.158855
Edmond Jasparstraat,19,,,6074CB,Melick,Roerdalen,Limburg,VBO,6.020401,51.158873
Edmond Jasparstraat,21,,,6074CB,Melick,Roerdalen,Limburg,VBO,6.020443,51.159022
Edmond Jasparstraat,23,,,6074CB,Melick,Roerdalen,Limburg,VBO,6.020486,51.159104
Edmond Jasparstraat,25,,,6074CB,Melick,Roerdalen,Limburg,VBO,6.020525,51.159245
Edmond Jasparstraat,2,,,6074CC,Melick,Roerdalen,Limburg,VBO,6.019357,51.158475
Edmond Jasparstraat,4,,,6074CC,Melick,Roerdalen,Limburg,VBO,6.019447,51.158492
Edmond Jasparstraat,6,,,6074CC,Melick,Roerdalen,Limburg,VBO,6.019628,51.158527
Edmond Jasparstraat,8,,,6074CC,Melick,Roerdalen,Limburg,VBO,6.019718,51.158545
Edmond Jasparstraat,10,,,6074CC,Melick,Roerdalen,Limburg,VBO,6.019897,51.158580
Edmond Jasparstraat,12,,,6074CC,Melick,Roerdalen,Limburg,VBO,6.019992,51.158599
Edmond Jasparstraat,14,,,6074CC,Melick,Roerdalen,Limburg,VBO,6.020155,51.158631
Edmond Jasparstraat,16,,,6074CC,Melick,Roerdalen,Limburg,VBO,6.020251,51.158649
Edmond Jasparstraat,18,,,6074CC,Melick,Roerdalen,Limburg,VBO,6.020420,51.158683
Edmond Jasparstraat,20,,,6074CC,Melick,Roerdalen,Limburg,VBO,6.020521,51.158702
de Kuyperlaan,2,,,6074CD,Melick,Roerdalen,Limburg,VBO,6.014164,51.160716
de Kuyperlaan,4,,,6074CD,Melick,Roerdalen,Limburg,VBO,6.014178,51.160845
de Kuyperlaan,6,,,6074CD,Melick,Roerdalen,Limburg,VBO,6.014185,51.160904
de Kuyperlaan,8,,,6074CD,Melick,Roerdalen,Limburg,VBO,6.014103,51.161048
de Kuyperlaan,10,,,6074CD,Melick,Roerdalen,Limburg,VBO,6.014111,51.161112
de Kuyperlaan,12,,,6074CD,Melick,Roerdalen,Limburg,VBO,6.014128,51.161245
de Kuyperlaan,14,,,6074CD,Melick,Roerdalen,Limburg,VBO,6.014135,51.161305
de Kuyperlaan,16,,,6074CD,Melick,Roerdalen,Limburg,VBO,6.014151,51.161438
de Kuyperlaan,18,,,6074CD,Melick,Roerdalen,Limburg,VBO,6.014159,51.161497
de Kuyperlaan,20,,,6074CD,Melick,Roerdalen,Limburg,VBO,6.014175,51.161635
de Kuyperlaan,22,,,6074CD,Melick,Roerdalen,Limburg,VBO,6.014183,51.161693
Ruys de Beerenbroucklaan,1,,,6074CE,Melick,Roerdalen,Limburg,VBO,6.014693,51.160636
Ruys de Beerenbroucklaan,2,,,6074CE,Melick,Roerdalen,Limburg,VBO,6.015014,51.160628
Ruys de Beerenbroucklaan,3,,,6074CE,Melick,Roerdalen,Limburg,VBO,6.014700,51.160697
Ruys de Beerenbroucklaan,4,,,6074CE,Melick,Roerdalen,Limburg,VBO,6.015022,51.160691
Ruys de Beerenbroucklaan,5,,,6074CE,Melick,Roerdalen,Limburg,VBO,6.014716,51.160821
Ruys de Beerenbroucklaan,6,,,6074CE,Melick,Roerdalen,Limburg,VBO,6.015038,51.160815
Ruys de Beerenbroucklaan,7,,,6074CE,Melick,Roerdalen,Limburg,VBO,6.014724,51.160885
Ruys de Beerenbroucklaan,8,,,6074CE,Melick,Roerdalen,Limburg,VBO,6.015047,51.160878
Ruys de Beerenbroucklaan,9,,,6074CE,Melick,Roerdalen,Limburg,VBO,6.014610,51.161015
Ruys de Beerenbroucklaan,10,,,6074CE,Melick,Roerdalen,Limburg,VBO,6.014991,51.161011
Ruys de Beerenbroucklaan,11,,,6074CE,Melick,Roerdalen,Limburg,VBO,6.014617,51.161077
Ruys de Beerenbroucklaan,12,,,6074CE,Melick,Roerdalen,Limburg,VBO,6.014999,51.161075
Ruys de Beerenbroucklaan,13,,,6074CE,Melick,Roerdalen,Limburg,VBO,6.014632,51.161200
Ruys de Beerenbroucklaan,14,,,6074CE,Melick,Roerdalen,Limburg,VBO,6.015014,51.161200
Ruys de Beerenbroucklaan,15,,,6074CE,Melick,Roerdalen,Limburg,VBO,6.014641,51.161264
Ruys de Beerenbroucklaan,16,,,6074CE,Melick,Roerdalen,Limburg,VBO,6.015022,51.161265
Ruys de Beerenbroucklaan,17,,,6074CE,Melick,Roerdalen,Limburg,VBO,6.014656,51.161389
Ruys de Beerenbroucklaan,18,,,6074CE,Melick,Roerdalen,Limburg,VBO,6.015037,51.161390
Ruys de Beerenbroucklaan,19,,,6074CE,Melick,Roerdalen,Limburg,VBO,6.014664,51.161453
Ruys de Beerenbroucklaan,20,,,6074CE,Melick,Roerdalen,Limburg,VBO,6.015046,51.161456
Ruys de Beerenbroucklaan,21,,,6074CE,Melick,Roerdalen,Limburg,VBO,6.014679,51.161578
Ruys de Beerenbroucklaan,22,,,6074CE,Melick,Roerdalen,Limburg,VBO,6.015044,51.161584
Ruys de Beerenbroucklaan,23,,,6074CE,Melick,Roerdalen,Limburg,VBO,6.014687,51.161640
Ruys de Beerenbroucklaan,24,,,6074CE,Melick,Roerdalen,Limburg,VBO,6.015052,51.161647
Baron van Hövelllaan,1,,,6074CG,Melick,Roerdalen,Limburg,VBO,6.015574,51.160593
Baron van Hövelllaan,2,,,6074CG,Melick,Roerdalen,Limburg,VBO,6.015900,51.160585
Baron van Hövelllaan,3,,,6074CG,Melick,Roerdalen,Limburg,VBO,6.015581,51.160653
Baron van Hövelllaan,4,,,6074CG,Melick,Roerdalen,Limburg,VBO,6.015908,51.160647
Baron van Hövelllaan,5,,,6074CG,Melick,Roerdalen,Limburg,VBO,6.015597,51.160778
Baron van Hövelllaan,6,,,6074CG,Melick,Roerdalen,Limburg,VBO,6.015924,51.160772
Baron van Hövelllaan,7,,,6074CG,Melick,Roerdalen,Limburg,VBO,6.015605,51.160841
Baron van Hövelllaan,8,,,6074CG,Melick,Roerdalen,Limburg,VBO,6.015932,51.160833
Baron van Hövelllaan,9,,,6074CG,Melick,Roerdalen,Limburg,VBO,6.015499,51.160971
Baron van Hövelllaan,10,,,6074CG,Melick,Roerdalen,Limburg,VBO,6.015866,51.160971
Baron van Hövelllaan,11,,,6074CG,Melick,Roerdalen,Limburg,VBO,6.015506,51.161033
Baron van Hövelllaan,12,,,6074CG,Melick,Roerdalen,Limburg,VBO,6.015874,51.161033
Baron van Hövelllaan,13,,,6074CG,Melick,Roerdalen,Limburg,VBO,6.015522,51.161156
Baron van Hövelllaan,14,,,6074CG,Melick,Roerdalen,Limburg,VBO,6.015890,51.161160
Baron van Hövelllaan,15,,,6074CG,Melick,Roerdalen,Limburg,VBO,6.015530,51.161220
Baron van Hövelllaan,16,,,6074CG,Melick,Roerdalen,Limburg,VBO,6.015898,51.161221
Baron van Hövelllaan,17,,,6074CG,Melick,Roerdalen,Limburg,VBO,6.015546,51.161345
Baron van Hövelllaan,18,,,6074CG,Melick,Roerdalen,Limburg,VBO,6.015914,51.161348
Baron van Hövelllaan,19,,,6074CG,Melick,Roerdalen,Limburg,VBO,6.015554,51.161409
Baron van Hövelllaan,20,,,6074CG,Melick,Roerdalen,Limburg,VBO,6.015922,51.161412
Baron van Hövelllaan,21,,,6074CG,Melick,Roerdalen,Limburg,VBO,6.015587,51.161535
Baron van Hövelllaan,22,,,6074CG,Melick,Roerdalen,Limburg,VBO,6.015938,51.161539
Baron van Hövelllaan,23,,,6074CG,Melick,Roerdalen,Limburg,VBO,6.015572,51.161608
Baron van Hövelllaan,24,,,6074CG,Melick,Roerdalen,Limburg,VBO,6.015946,51.161601
van Sonsbeecklaan,1,,,6074CJ,Melick,Roerdalen,Limburg,VBO,6.016460,51.160547
van Sonsbeecklaan,2,,,6074CJ,Melick,Roerdalen,Limburg,VBO,6.016839,51.161000
van Sonsbeecklaan,3,,,6074CJ,Melick,Roerdalen,Limburg,VBO,6.016466,51.160602
van Sonsbeecklaan,5,,,6074CJ,Melick,Roerdalen,Limburg,VBO,6.016483,51.160741
van Sonsbeecklaan,7,,,6074CJ,Melick,Roerdalen,Limburg,VBO,6.016490,51.160799
van Sonsbeecklaan,9,,,6074CJ,Melick,Roerdalen,Limburg,VBO,6.016394,51.160931
van Sonsbeecklaan,11,,,6074CJ,Melick,Roerdalen,Limburg,VBO,6.016401,51.160987
van Sonsbeecklaan,13,,,6074CJ,Melick,Roerdalen,Limburg,VBO,6.016417,51.161116
van Sonsbeecklaan,15,,,6074CJ,Melick,Roerdalen,Limburg,VBO,6.016424,51.161175
van Sonsbeecklaan,17,,,6074CJ,Melick,Roerdalen,Limburg,VBO,6.016440,51.161308
van Sonsbeecklaan,19,,,6074CJ,Melick,Roerdalen,Limburg,VBO,6.016447,51.161366
van Sonsbeecklaan,21,,,6074CJ,Melick,Roerdalen,Limburg,VBO,6.016463,51.161499
van Sonsbeecklaan,23,,,6074CJ,Melick,Roerdalen,Limburg,VBO,6.016470,51.161555
Parklaan,1,,,6074CK,Melick,Roerdalen,Limburg,VBO,6.018575,51.158303
Parklaan,3,,,6074CK,Melick,Roerdalen,Limburg,VBO,6.018519,51.158415
Parklaan,5,,,6074CK,Melick,Roerdalen,Limburg,VBO,6.018462,51.158531
Parklaan,7,,,6074CK,Melick,Roerdalen,Limburg,VBO,6.018404,51.158647
Parklaan,9,,,6074CK,Melick,Roerdalen,Limburg,VBO,6.018293,51.158871
Parklaan,11,,,6074CK,Melick,Roerdalen,Limburg,VBO,6.018231,51.158995
Parklaan,13,,,6074CK,Melick,Roerdalen,Limburg,VBO,6.018201,51.159056
Parklaan,15,,,6074CK,Melick,Roerdalen,Limburg,VBO,6.018135,51.159187
Parklaan,17,,,6074CK,Melick,Roerdalen,Limburg,VBO,6.017995,51.159444
Parklaan,19,,,6074CK,Melick,Roerdalen,Limburg,VBO,6.017963,51.159505
Parklaan,21,,,6074CK,Melick,Roerdalen,Limburg,VBO,6.017902,51.159626
Parklaan,23,,,6074CK,Melick,Roerdalen,Limburg,VBO,6.017873,51.159685
Parklaan,25,,,6074CK,Melick,Roerdalen,Limburg,VBO,6.017812,51.159807
Parklaan,27,,,6074CK,Melick,Roerdalen,Limburg,VBO,6.017782,51.159868
Parklaan,29,,,6074CK,Melick,Roerdalen,Limburg,VBO,6.017722,51.159992
Parklaan,31,,,6074CK,Melick,Roerdalen,Limburg,VBO,6.017693,51.160051
Parklaan,33,,,6074CK,Melick,Roerdalen,Limburg,VBO,6.018184,51.159954
Parklaan,35,,,6074CK,Melick,Roerdalen,Limburg,VBO,6.018216,51.160069
Parklaan,2,,,6074CL,Melick,Roerdalen,Limburg,VBO,6.019232,51.158050
Parklaan,4,,,6074CL,Melick,Roerdalen,Limburg,VBO,6.019175,51.158164
Parklaan,6,,,6074CL,Melick,Roerdalen,Limburg,VBO,6.019135,51.158244
Parklaan,8,,,6074CL,Melick,Roerdalen,Limburg,VBO,6.019095,51.158325
Parklaan,10,,,6074CL,Melick,Roerdalen,Limburg,VBO,6.019052,51.158410
Parklaan,14,,,6074CL,Melick,Roerdalen,Limburg,VBO,6.018954,51.158608
Parklaan,16,,,6074CL,Melick,Roerdalen,Limburg,VBO,6.018926,51.158662
Parklaan,18,,,6074CL,Melick,Roerdalen,Limburg,VBO,6.018870,51.158776
Parklaan,20,,,6074CL,Melick,Roerdalen,Limburg,VBO,6.018844,51.158836
Parklaan,22,,,6074CL,Melick,Roerdalen,Limburg,VBO,6.018786,51.158944
Parklaan,24,,,6074CL,Melick,Roerdalen,Limburg,VBO,6.018760,51.159002
Parklaan,26,a,,6074CL,Melick,Roerdalen,Limburg,VBO,6.018744,51.159259
Parklaan,26,,,6074CL,Melick,Roerdalen,Limburg,VBO,6.018744,51.159241
Parklaan,28,a,,6074CL,Melick,Roerdalen,Limburg,VBO,6.018664,51.159411
Parklaan,28,,,6074CL,Melick,Roerdalen,Limburg,VBO,6.018726,51.159298
Parklaan,30,a,,6074CL,Melick,Roerdalen,Limburg,VBO,6.018680,51.159620
Parklaan,30,,,6074CL,Melick,Roerdalen,Limburg,VBO,6.018641,51.159490
Parklaan,32,a,,6074CL,Melick,Roerdalen,Limburg,VBO,6.018710,51.159752
Parklaan,32,,,6074CL,Melick,Roerdalen,Limburg,VBO,6.018699,51.159693
Parklaan,34,,WINK,6074CL,Melick,Roerdalen,Limburg,VBO,6.018713,51.159883
Parklaan,34,,,6074CL,Melick,Roerdalen,Limburg,VBO,6.018722,51.159838
Parklaan,36,,,6074CL,Melick,Roerdalen,Limburg,VBO,6.018750,51.160228
Parklaan,38,,,6074CL,Melick,Roerdalen,Limburg,VBO,6.018798,51.160399
Parklaan,40,,,6074CL,Melick,Roerdalen,Limburg,VBO,6.018811,51.160447
Parklaan,42,,,6074CL,Melick,Roerdalen,Limburg,VBO,6.018861,51.160626
Parklaan,44,,,6074CL,Melick,Roerdalen,Limburg,VBO,6.018875,51.160674
Parklaan,48,,,6074CL,Melick,Roerdalen,Limburg,VBO,6.018930,51.160779
Parklaan,50,,,6074CL,Melick,Roerdalen,Limburg,VBO,6.018946,51.160839
Parklaan,52,,,6074CL,Melick,Roerdalen,Limburg,VBO,6.018978,51.160955
Parklaan,54,,,6074CL,Melick,Roerdalen,Limburg,VBO,6.018995,51.161015
Parklaan,56,,,6074CL,Melick,Roerdalen,Limburg,VBO,6.019028,51.161131
Parklaan,58,,,6074CL,Melick,Roerdalen,Limburg,VBO,6.019044,51.161191
Parklaan,900,,GAS,6074CL,Melick,Roerdalen,Limburg,VBO,6.018598,51.161457
Pierre Kempstraat,1,,,6074CN,Melick,Roerdalen,Limburg,VBO,6.019201,51.159282
Pierre Kempstraat,3,,,6074CN,Melick,Roerdalen,Limburg,VBO,6.019296,51.159315
Pierre Kempstraat,5,,,6074CN,Melick,Roerdalen,Limburg,VBO,6.019452,51.159331
Pierre Kempstraat,7,,,6074CN,Melick,Roerdalen,Limburg,VBO,6.019551,51.159365
Pierre Kempstraat,9,,,6074CN,Melick,Roerdalen,Limburg,VBO,6.019715,51.159383
Pierre Kempstraat,11,,,6074CN,Melick,Roerdalen,Limburg,VBO,6.019814,51.159417
Pierre Kempstraat,13,,,6074CN,Melick,Roerdalen,Limburg,VBO,6.019981,51.159435
Pierre Kempstraat,15,,,6074CN,Melick,Roerdalen,Limburg,VBO,6.020155,51.159470
Pierre Kempstraat,17,,,6074CN,Melick,Roerdalen,Limburg,VBO,6.020345,51.159525
Pierre Kempstraat,21,,,6074CN,Melick,Roerdalen,Limburg,VBO,6.020912,51.159455
Pierre Kempstraat,23,,,6074CN,Melick,Roerdalen,Limburg,VBO,6.020999,51.159445
Pierre Kempstraat,25,,,6074CN,Melick,Roerdalen,Limburg,VBO,6.021195,51.159424
Pierre Kempstraat,27,,,6074CN,Melick,Roerdalen,Limburg,VBO,6.021286,51.159415
Pierre Kempstraat,29,,,6074CN,Melick,Roerdalen,Limburg,VBO,6.021476,51.159394
Pierre Kempstraat,31,,,6074CN,Melick,Roerdalen,Limburg,VBO,6.021572,51.159384
Pierre Kempstraat,33,,,6074CN,Melick,Roerdalen,Limburg,VBO,6.021758,51.159364
Pierre Kempstraat,35,,,6074CN,Melick,Roerdalen,Limburg,VBO,6.021850,51.159354
Pierre Kempstraat,37,,,6074CN,Melick,Roerdalen,Limburg,VBO,6.022022,51.159345
Pierre Kempstraat,39,,,6074CN,Melick,Roerdalen,Limburg,VBO,6.022089,51.159337
Pierre Kempstraat,41,,,6074CN,Melick,Roerdalen,Limburg,VBO,6.022160,51.159330
Pierre Kempstraat,43,,,6074CN,Melick,Roerdalen,Limburg,VBO,6.022223,51.159323
Pierre Kempstraat,45,,,6074CN,Melick,Roerdalen,Limburg,VBO,6.022389,51.159285
Pierre Kempstraat,47,,,6074CN,Melick,Roerdalen,Limburg,VBO,6.022411,51.159244
Pierre Kempstraat,49,,,6074CN,Melick,Roerdalen,Limburg,VBO,6.022432,51.159203
Pierre Kempstraat,51,,,6074CN,Melick,Roerdalen,Limburg,VBO,6.022455,51.159160
Pierre Kempstraat,53,,,6074CN,Melick,Roerdalen,Limburg,VBO,6.022496,51.159082
Pierre Kempstraat,55,,,6074CN,Melick,Roerdalen,Limburg,VBO,6.022518,51.159041
Pierre Kempstraat,57,,,6074CN,Melick,Roerdalen,Limburg,VBO,6.022539,51.159000
Pierre Kempstraat,59,,,6074CN,Melick,Roerdalen,Limburg,VBO,6.022561,51.158959
Pierre Kempstraat,61,,,6074CN,Melick,Roerdalen,Limburg,VBO,6.022566,51.158868
Pierre Kempstraat,63,,,6074CN,Melick,Roerdalen,Limburg,VBO,6.022586,51.158830
Pierre Kempstraat,65,,,6074CN,Melick,Roerdalen,Limburg,VBO,6.022607,51.158789
Pierre Kempstraat,67,,,6074CN,Melick,Roerdalen,Limburg,VBO,6.022629,51.158748
Pierre Kempstraat,2,,,6074CP,Melick,Roerdalen,Limburg,VBO,6.019065,51.159058
Pierre Kempstraat,4,,,6074CP,Melick,Roerdalen,Limburg,VBO,6.019270,51.159098
Pierre Kempstraat,6,,,6074CP,Melick,Roerdalen,Limburg,VBO,6.019364,51.159117
Pierre Kempstraat,8,,,6074CP,Melick,Roerdalen,Limburg,VBO,6.019543,51.159152
Pierre Kempstraat,10,,,6074CP,Melick,Roerdalen,Limburg,VBO,6.019644,51.159172
Pierre Kempstraat,12,,,6074CP,Melick,Roerdalen,Limburg,VBO,6.019807,51.159190
Pierre Kempstraat,14,,,6074CP,Melick,Roerdalen,Limburg,VBO,6.019910,51.159224
Pierre Kempstraat,16,,,6074CP,Melick,Roerdalen,Limburg,VBO,6.020077,51.159243
Pierre Kempstraat,18,,,6074CP,Melick,Roerdalen,Limburg,VBO,6.020180,51.159277
Pierre Kempstraat,26,,,6074CP,Melick,Roerdalen,Limburg,VBO,6.020900,51.159273
Pierre Kempstraat,28,,,6074CP,Melick,Roerdalen,Limburg,VBO,6.020994,51.159263
Pierre Kempstraat,30,,,6074CP,Melick,Roerdalen,Limburg,VBO,6.021180,51.159244
Pierre Kempstraat,32,,,6074CP,Melick,Roerdalen,Limburg,VBO,6.021274,51.159234
Pierre Kempstraat,34,,,6074CP,Melick,Roerdalen,Limburg,VBO,6.021461,51.159214
Pierre Kempstraat,36,,,6074CP,Melick,Roerdalen,Limburg,VBO,6.021555,51.159204
Pierre Kempstraat,38,,,6074CP,Melick,Roerdalen,Limburg,VBO,6.021741,51.159184
Pierre Kempstraat,40,,,6074CP,Melick,Roerdalen,Limburg,VBO,6.021836,51.159174
Pierre Kempstraat,42,,,6074CP,Melick,Roerdalen,Limburg,VBO,6.022262,51.159007
Pierre Kempstraat,44,,,6074CP,Melick,Roerdalen,Limburg,VBO,6.022284,51.158966
Pierre Kempstraat,46,,,6074CP,Melick,Roerdalen,Limburg,VBO,6.022305,51.158926
Pierre Kempstraat,48,,,6074CP,Melick,Roerdalen,Limburg,VBO,6.022326,51.158885
Pierre Kempstraat,50,,,6074CP,Melick,Roerdalen,Limburg,VBO,6.022331,51.158796
Pierre Kempstraat,52,,,6074CP,Melick,Roerdalen,Limburg,VBO,6.022352,51.158755
Pierre Kempstraat,54,,,6074CP,Melick,Roerdalen,Limburg,VBO,6.022373,51.158714
Pierre Kempstraat,56,,,6074CP,Melick,Roerdalen,Limburg,VBO,6.022395,51.158673
Jacques Schreursstraat,19,,,6074CR,Melick,Roerdalen,Limburg,VBO,6.022871,51.159785
Jacques Schreursstraat,21,,,6074CR,Melick,Roerdalen,Limburg,VBO,6.023107,51.159750
Jacques Schreursstraat,23,,,6074CR,Melick,Roerdalen,Limburg,VBO,6.023405,51.159773
Jacques Schreursstraat,25,,,6074CR,Melick,Roerdalen,Limburg,VBO,6.023665,51.159765
Jacques Schreursstraat,2,,,6074CS,Melick,Roerdalen,Limburg,VBO,6.019207,51.159878
Jacques Schreursstraat,4,,,6074CS,Melick,Roerdalen,Limburg,VBO,6.019308,51.159867
Jacques Schreursstraat,6,,,6074CS,Melick,Roerdalen,Limburg,VBO,6.019479,51.159849
Jacques Schreursstraat,8,,,6074CS,Melick,Roerdalen,Limburg,VBO,6.019580,51.159838
Jacques Schreursstraat,10,,,6074CS,Melick,Roerdalen,Limburg,VBO,6.019759,51.159818
Jacques Schreursstraat,12,,,6074CS,Melick,Roerdalen,Limburg,VBO,6.019860,51.159807
Jacques Schreursstraat,14,,,6074CS,Melick,Roerdalen,Limburg,VBO,6.020049,51.159772
Jacques Schreursstraat,16,,,6074CS,Melick,Roerdalen,Limburg,VBO,6.020143,51.159762
Jacques Schreursstraat,18,,,6074CS,Melick,Roerdalen,Limburg,VBO,6.020371,51.159769
Jacques Schreursstraat,20,,,6074CS,Melick,Roerdalen,Limburg,VBO,6.020469,51.159758
Jacques Schreursstraat,22,,,6074CS,Melick,Roerdalen,Limburg,VBO,6.021019,51.159689
Jacques Schreursstraat,24,,,6074CS,Melick,Roerdalen,Limburg,VBO,6.021102,51.159675
Jacques Schreursstraat,26,,,6074CS,Melick,Roerdalen,Limburg,VBO,6.021297,51.159654
Jacques Schreursstraat,28,,,6074CS,Melick,Roerdalen,Limburg,VBO,6.021388,51.159644
Jacques Schreursstraat,30,,,6074CS,Melick,Roerdalen,Limburg,VBO,6.021578,51.159623
Jacques Schreursstraat,32,,,6074CT,Melick,Roerdalen,Limburg,VBO,6.021670,51.159614
Jacques Schreursstraat,34,,,6074CT,Melick,Roerdalen,Limburg,VBO,6.021860,51.159593
Jacques Schreursstraat,36,,,6074CT,Melick,Roerdalen,Limburg,VBO,6.021952,51.159583
Jacques Schreursstraat,38,,,6074CT,Melick,Roerdalen,Limburg,VBO,6.022126,51.159583
Jacques Schreursstraat,40,,,6074CT,Melick,Roerdalen,Limburg,VBO,6.022194,51.159575
Jacques Schreursstraat,42,,,6074CT,Melick,Roerdalen,Limburg,VBO,6.022261,51.159568
Jacques Schreursstraat,44,,,6074CT,Melick,Roerdalen,Limburg,VBO,6.022328,51.159561
Jacques Schreursstraat,46,,,6074CT,Melick,Roerdalen,Limburg,VBO,6.022485,51.159525
Jacques Schreursstraat,48,,,6074CT,Melick,Roerdalen,Limburg,VBO,6.022553,51.159518
Jacques Schreursstraat,50,,,6074CT,Melick,Roerdalen,Limburg,VBO,6.022620,51.159511
Jacques Schreursstraat,52,,,6074CT,Melick,Roerdalen,Limburg,VBO,6.022687,51.159504
Jacques Schreursstraat,54,,,6074CT,Melick,Roerdalen,Limburg,VBO,6.022891,51.159501
Jacques Schreursstraat,56,,,6074CT,Melick,Roerdalen,Limburg,VBO,6.023102,51.159478
Jacques Schreursstraat,58,,,6074CT,Melick,Roerdalen,Limburg,VBO,6.023315,51.159464
Jacques Schreursstraat,60,,,6074CT,Melick,Roerdalen,Limburg,VBO,6.023575,51.159499
Jan Dautzenbergstraat,1,,,6074CV,Melick,Roerdalen,Limburg,VBO,6.019019,51.160171
Jan Dautzenbergstraat,3,,,6074CV,Melick,Roerdalen,Limburg,VBO,6.019034,51.160225
Jan Dautzenbergstraat,5,,,6074CV,Melick,Roerdalen,Limburg,VBO,6.019049,51.160282
Jan Dautzenbergstraat,7,,,6074CV,Melick,Roerdalen,Limburg,VBO,6.019100,51.160466
Jan Dautzenbergstraat,9,,,6074CV,Melick,Roerdalen,Limburg,VBO,6.019113,51.160514
Jan Dautzenbergstraat,11,,,6074CV,Melick,Roerdalen,Limburg,VBO,6.019359,51.160650
Jan Dautzenbergstraat,13,,,6074CV,Melick,Roerdalen,Limburg,VBO,6.019456,51.160640
Jan Dautzenbergstraat,15,,,6074CV,Melick,Roerdalen,Limburg,VBO,6.019635,51.160621
Jan Dautzenbergstraat,17,,,6074CV,Melick,Roerdalen,Limburg,VBO,6.019736,51.160610
Jan Dautzenbergstraat,19,,,6074CV,Melick,Roerdalen,Limburg,VBO,6.019915,51.160591
Jan Dautzenbergstraat,21,,,6074CV,Melick,Roerdalen,Limburg,VBO,6.020016,51.160581
Jan Dautzenbergstraat,23,,,6074CV,Melick,Roerdalen,Limburg,VBO,6.020191,51.160562
Jan Dautzenbergstraat,25,,,6074CV,Melick,Roerdalen,Limburg,VBO,6.020292,51.160551
Jan Dautzenbergstraat,27,,,6074CV,Melick,Roerdalen,Limburg,VBO,6.020472,51.160532
Jan Dautzenbergstraat,29,,,6074CV,Melick,Roerdalen,Limburg,VBO,6.020573,51.160521
Marie Koenenstraat,1,,,6074CZ,Melick,Roerdalen,Limburg,VBO,6.020668,51.161125
Marie Koenenstraat,2,,,6074CZ,Melick,Roerdalen,Limburg,VBO,6.021420,51.160089
Marie Koenenstraat,3,,,6074CZ,Melick,Roerdalen,Limburg,VBO,6.020685,51.161188
Marie Koenenstraat,5,,,6074CZ,Melick,Roerdalen,Limburg,VBO,6.020645,51.161310
Marie Koenenstraat,6,,,6074CZ,Melick,Roerdalen,Limburg,VBO,6.020995,51.161106
Marie Koenenstraat,7,,,6074CZ,Melick,Roerdalen,Limburg,VBO,6.020664,51.161375
Marie Koenenstraat,8,,,6074CZ,Melick,Roerdalen,Limburg,VBO,6.021013,51.161171
Marie Koenenstraat,10,,,6074CZ,Melick,Roerdalen,Limburg,VBO,6.021047,51.161294
Marie Koenenstraat,12,,,6074CZ,Melick,Roerdalen,Limburg,VBO,6.021065,51.161359
Marie Koenenstraat,14,,,6074CZ,Melick,Roerdalen,Limburg,VBO,6.021097,51.161476
Marie Koenenstraat,16,,,6074CZ,Melick,Roerdalen,Limburg,VBO,6.021115,51.161542
Zandkuil,2,,,6074DC,Melick,Roerdalen,Limburg,VBO,6.018971,51.163489
Zandkuil,4,,,6074DC,Melick,Roerdalen,Limburg,VBO,6.018926,51.163286
Zandkuil,6,,GAR,6074DC,Melick,Roerdalen,Limburg,VBO,6.019119,51.162645
Zandkuil,6,,,6074DC,Melick,Roerdalen,Limburg,VBO,6.018984,51.163024
Zandkuil,8,,GAR,6074DC,Melick,Roerdalen,Limburg,VBO,6.019076,51.162637
Zandkuil,8,,,6074DC,Melick,Roerdalen,Limburg,VBO,6.019001,51.162973
Zandkuil,10,,GAR,6074DC,Melick,Roerdalen,Limburg,VBO,6.019033,51.162628
Zandkuil,10,,,6074DC,Melick,Roerdalen,Limburg,VBO,6.019031,51.162880
Zandkuil,12,,GAR,6074DC,Melick,Roerdalen,Limburg,VBO,6.018862,51.162611
Zandkuil,12,,,6074DC,Melick,Roerdalen,Limburg,VBO,6.019048,51.162828
Zandkuil,14,a,,6074DC,Melick,Roerdalen,Limburg,VBO,6.019080,51.162679
Zandkuil,14,,GAR,6074DC,Melick,Roerdalen,Limburg,VBO,6.018973,51.162430
Zandkuil,14,,,6074DC,Melick,Roerdalen,Limburg,VBO,6.019061,51.162738
Zandkuil,16,,,6074DC,Melick,Roerdalen,Limburg,VBO,6.019278,51.162261
Zandkuil,18,,GAR,6074DC,Melick,Roerdalen,Limburg,VBO,6.018987,51.162403
Zandkuil,18,,,6074DC,Melick,Roerdalen,Limburg,VBO,6.019294,51.162209
Zandkuil,20,,GAR,6074DC,Melick,Roerdalen,Limburg,VBO,6.019001,51.162385
Zandkuil,20,,,6074DC,Melick,Roerdalen,Limburg,VBO,6.019390,51.162121
Zandkuil,22,,GAR,6074DC,Melick,Roerdalen,Limburg,VBO,6.019001,51.162358
Zandkuil,22,,,6074DC,Melick,Roerdalen,Limburg,VBO,6.019407,51.162069
Zandkuil,24,,GAR,6074DC,Melick,Roerdalen,Limburg,VBO,6.019015,51.162322
Zandkuil,24,,,6074DC,Melick,Roerdalen,Limburg,VBO,6.019369,51.161966
Zandkuil,26,,GAR,6074DC,Melick,Roerdalen,Limburg,VBO,6.019086,51.162295
Zandkuil,26,,,6074DC,Melick,Roerdalen,Limburg,VBO,6.019353,51.161934
Zandkuil,28,a,GAR,6074DC,Melick,Roerdalen,Limburg,VBO,6.019215,51.162312
Zandkuil,28,a,,6074DC,Melick,Roerdalen,Limburg,VBO,6.019388,51.161754
Zandkuil,28,,GAR,6074DC,Melick,Roerdalen,Limburg,VBO,6.019129,51.162304
Zandkuil,28,,,6074DC,Melick,Roerdalen,Limburg,VBO,6.019369,51.161814
Zandkuil,30,,GAR,6074DD,Melick,Roerdalen,Limburg,VBO,6.018960,51.162484
Zandkuil,30,,,6074DD,Melick,Roerdalen,Limburg,VBO,6.019779,51.161827
Zandkuil,32,a,GAR,6074DD,Melick,Roerdalen,Limburg,VBO,6.020565,51.161908
Zandkuil,32,a,,6074DD,Melick,Roerdalen,Limburg,VBO,6.019806,51.162041
Zandkuil,32,,GAR,6074DD,Melick,Roerdalen,Limburg,VBO,6.018974,51.162457
Zandkuil,32,,,6074DD,Melick,Roerdalen,Limburg,VBO,6.019762,51.161879
Zandkuil,34,,GAR,6074DD,Melick,Roerdalen,Limburg,VBO,6.020616,51.161919
Zandkuil,34,,,6074DD,Melick,Roerdalen,Limburg,VBO,6.019875,51.162050
Zandkuil,36,,GAR,6074DD,Melick,Roerdalen,Limburg,VBO,6.020653,51.161927
Zandkuil,36,,,6074DD,Melick,Roerdalen,Limburg,VBO,6.019946,51.162092
Zandkuil,38,,GAR,6074DD,Melick,Roerdalen,Limburg,VBO,6.020689,51.161941
Zandkuil,38,,,6074DD,Melick,Roerdalen,Limburg,VBO,6.020029,51.162103
Zandkuil,40,,GAR,6074DD,Melick,Roerdalen,Limburg,VBO,6.020925,51.161934
Zandkuil,40,,,6074DD,Melick,Roerdalen,Limburg,VBO,6.020153,51.162070
Zandkuil,42,a,,6074DD,Melick,Roerdalen,Limburg,VBO,6.020328,51.162092
Zandkuil,42,,GAR,6074DD,Melick,Roerdalen,Limburg,VBO,6.020572,51.162242
Zandkuil,42,,,6074DD,Melick,Roerdalen,Limburg,VBO,6.020234,51.162080
Zandkuil,44,,,6074DD,Melick,Roerdalen,Limburg,VBO,6.020957,51.162154
Zandkuil,46,,GAR,6074DD,Melick,Roerdalen,Limburg,VBO,6.020701,51.162268
Zandkuil,46,,,6074DD,Melick,Roerdalen,Limburg,VBO,6.021114,51.162166
Zandkuil,48,,GAR,6074DD,Melick,Roerdalen,Limburg,VBO,6.020924,51.161963
Zandkuil,48,,,6074DD,Melick,Roerdalen,Limburg,VBO,6.021220,51.162189
Zandkuil,50,,GAR,6074DD,Melick,Roerdalen,Limburg,VBO,6.021743,51.162119
Zandkuil,50,,,6074DD,Melick,Roerdalen,Limburg,VBO,6.021366,51.162189
Zandkuil,52,,GAR,6074DD,Melick,Roerdalen,Limburg,VBO,6.021729,51.162146
Zandkuil,52,,,6074DD,Melick,Roerdalen,Limburg,VBO,6.021478,51.162213
Zandkuil,54,,,6074DD,Melick,Roerdalen,Limburg,VBO,6.021659,51.162214
Zandkuil,56,,,6074DD,Melick,Roerdalen,Limburg,VBO,6.022471,51.162287
Zandkuil,1,,,6074DE,Melick,Roerdalen,Limburg,VBO,6.019469,51.162385
Zandkuil,3,,GAR,6074DE,Melick,Roerdalen,Limburg,VBO,6.018947,51.162619
Zandkuil,3,,,6074DE,Melick,Roerdalen,Limburg,VBO,6.019566,51.162350
Zandkuil,5,,GAR,6074DE,Melick,Roerdalen,Limburg,VBO,6.019359,51.162410
Zandkuil,5,,,6074DE,Melick,Roerdalen,Limburg,VBO,6.019646,51.162360
Zandkuil,7,,GAR,6074DE,Melick,Roerdalen,Limburg,VBO,6.020500,51.162233
Zandkuil,7,,,6074DE,Melick,Roerdalen,Limburg,VBO,6.019742,51.162324
Zandkuil,9,,GAR,6074DE,Melick,Roerdalen,Limburg,VBO,6.019373,51.162383
Zandkuil,9,,,6074DE,Melick,Roerdalen,Limburg,VBO,6.019823,51.162335
Zandkuil,11,,,6074DE,Melick,Roerdalen,Limburg,VBO,6.019900,51.162344
Zandkuil,13,,,6074DE,Melick,Roerdalen,Limburg,VBO,6.019979,51.162365
Breidberg,1,,GAR,6074DG,Melick,Roerdalen,Limburg,VBO,6.020443,51.162225
Breidberg,1,,,6074DG,Melick,Roerdalen,Limburg,VBO,6.019987,51.162546
Breidberg,2,,,6074DG,Melick,Roerdalen,Limburg,VBO,6.020406,51.162310
Breidberg,3,,GAR,6074DG,Melick,Roerdalen,Limburg,VBO,6.019291,51.162617
Breidberg,3,,,6074DG,Melick,Roerdalen,Limburg,VBO,6.019971,51.162595
Breidberg,4,,,6074DG,Melick,Roerdalen,Limburg,VBO,6.020388,51.162360
Breidberg,5,,,6074DG,Melick,Roerdalen,Limburg,VBO,6.019951,51.162780
Breidberg,6,,GAR,6074DG,Melick,Roerdalen,Limburg,VBO,6.020525,51.161910
Breidberg,6,,,6074DG,Melick,Roerdalen,Limburg,VBO,6.020347,51.162408
Breidberg,7,,GAR,6074DG,Melick,Roerdalen,Limburg,VBO,6.020041,51.163162
Breidberg,7,,,6074DG,Melick,Roerdalen,Limburg,VBO,6.019870,51.162770
Breidberg,8,,GAR,6074DG,Melick,Roerdalen,Limburg,VBO,6.020440,51.161973
Breidberg,8,,,6074DG,Melick,Roerdalen,Limburg,VBO,6.020328,51.162460
Breidberg,9,,GAR,6074DG,Melick,Roerdalen,Limburg,VBO,6.019304,51.162590
Breidberg,9,,,6074DG,Melick,Roerdalen,Limburg,VBO,6.019786,51.162770
Breidberg,10,,GAR,6074DG,Melick,Roerdalen,Limburg,VBO,6.020447,51.161997
Breidberg,10,,,6074DG,Melick,Roerdalen,Limburg,VBO,6.020347,51.162504
Breidberg,11,,GAR,6074DG,Melick,Roerdalen,Limburg,VBO,6.019318,51.162563
Breidberg,11,,,6074DG,Melick,Roerdalen,Limburg,VBO,6.019708,51.162760
Breidberg,12,,GAR,6074DG,Melick,Roerdalen,Limburg,VBO,6.020426,51.162018
Breidberg,12,,,6074DG,Melick,Roerdalen,Limburg,VBO,6.020316,51.162569
Breidberg,13,,GAR,6074DG,Melick,Roerdalen,Limburg,VBO,6.019331,51.162464
Breidberg,13,,,6074DG,Melick,Roerdalen,Limburg,VBO,6.019630,51.162750
Breidberg,14,,GAR,6074DG,Melick,Roerdalen,Limburg,VBO,6.020439,51.161937
Breidberg,14,,,6074DG,Melick,Roerdalen,Limburg,VBO,6.020322,51.162623
Breidberg,15,,GAR,6074DG,Melick,Roerdalen,Limburg,VBO,6.019345,51.162437
Breidberg,15,,,6074DG,Melick,Roerdalen,Limburg,VBO,6.019552,51.162729
Breidberg,16,,GAR,6074DG,Melick,Roerdalen,Limburg,VBO,6.020398,51.162072
Breidberg,16,,,6074DG,Melick,Roerdalen,Limburg,VBO,6.020305,51.162674
Breidberg,17,,GAR,6074DG,Melick,Roerdalen,Limburg,VBO,6.018905,51.162620
Breidberg,17,,,6074DG,Melick,Roerdalen,Limburg,VBO,6.019471,51.162719
Breidberg,18,,GAR,6074DG,Melick,Roerdalen,Limburg,VBO,6.020398,51.162099
Breidberg,18,,,6074DG,Melick,Roerdalen,Limburg,VBO,6.020309,51.162730
Breidberg,19,,,6074DG,Melick,Roerdalen,Limburg,VBO,6.019399,51.162667
Breidberg,20,,GAR,6074DG,Melick,Roerdalen,Limburg,VBO,6.020199,51.163179
Breidberg,20,,,6074DG,Melick,Roerdalen,Limburg,VBO,6.020233,51.162860
Breidberg,22,,GAR,6074DG,Melick,Roerdalen,Limburg,VBO,6.020170,51.163179
Breidberg,22,,,6074DG,Melick,Roerdalen,Limburg,VBO,6.020173,51.162905
Breidberg,24,,GAR,6074DG,Melick,Roerdalen,Limburg,VBO,6.020256,51.163187
Breidberg,24,,,6074DG,Melick,Roerdalen,Limburg,VBO,6.020114,51.162952
Breidberg,26,,GAR,6074DG,Melick,Roerdalen,Limburg,VBO,6.020084,51.163161
Breidberg,26,,,6074DG,Melick,Roerdalen,Limburg,VBO,6.020067,51.163000
Breidberg,28,,GAR,6074DG,Melick,Roerdalen,Limburg,VBO,6.020074,51.163467
Breidberg,28,,,6074DG,Melick,Roerdalen,Limburg,VBO,6.020052,51.163051
Breidberg,30,,GAR,6074DG,Melick,Roerdalen,Limburg,VBO,6.020113,51.163170
Breidberg,30,,,6074DG,Melick,Roerdalen,Limburg,VBO,6.020045,51.163108
Breidberg,32,,,6074DG,Melick,Roerdalen,Limburg,VBO,6.019786,51.163253
Breidberg,34,,GAR,6074DG,Melick,Roerdalen,Limburg,VBO,6.020102,51.163440
Breidberg,34,,,6074DG,Melick,Roerdalen,Limburg,VBO,6.019654,51.163227
Breidberg,36,,GAR,6074DG,Melick,Roerdalen,Limburg,VBO,6.020102,51.163413
Breidberg,36,,,6074DG,Melick,Roerdalen,Limburg,VBO,6.019571,51.163217
Breidberg,38,,GAR,6074DG,Melick,Roerdalen,Limburg,VBO,6.020116,51.163386
Breidberg,38,,,6074DG,Melick,Roerdalen,Limburg,VBO,6.019387,51.163206
Breidberg,40,,,6074DG,Melick,Roerdalen,Limburg,VBO,6.019303,51.163196
Peereboom,2,,,6074DH,Melick,Roerdalen,Limburg,VBO,6.021658,51.162442
Peereboom,4,,GAR,6074DH,Melick,Roerdalen,Limburg,VBO,6.021860,51.162370
Peereboom,4,,,6074DH,Melick,Roerdalen,Limburg,VBO,6.021661,51.162495
Peereboom,6,,,6074DH,Melick,Roerdalen,Limburg,VBO,6.021597,51.162576
Peereboom,8,,GAR,6074DH,Melick,Roerdalen,Limburg,VBO,6.021789,51.162361
Peereboom,8,,,6074DH,Melick,Roerdalen,Limburg,VBO,6.021607,51.162642
Peereboom,10,,GAR,6074DH,Melick,Roerdalen,Limburg,VBO,6.021732,51.162352
Peereboom,10,,,6074DH,Melick,Roerdalen,Limburg,VBO,6.021527,51.162737
Peereboom,12,,,6074DH,Melick,Roerdalen,Limburg,VBO,6.021538,51.162802
Peereboom,14,,,6074DH,Melick,Roerdalen,Limburg,VBO,6.021505,51.162900
Peereboom,16,,TRAF,6074DH,Melick,Roerdalen,Limburg,VBO,6.021575,51.163211
Peereboom,16,,,6074DH,Melick,Roerdalen,Limburg,VBO,6.021511,51.162974
Peereboom,18,,GAR,6074DH,Melick,Roerdalen,Limburg,VBO,6.021368,51.163158
Peereboom,18,,,6074DH,Melick,Roerdalen,Limburg,VBO,6.021313,51.163128
Peereboom,20,,,6074DH,Melick,Roerdalen,Limburg,VBO,6.021138,51.163047
Peereboom,22,,,6074DH,Melick,Roerdalen,Limburg,VBO,6.021045,51.163051
Peereboom,24,,,6074DH,Melick,Roerdalen,Limburg,VBO,6.020899,51.163301
Peereboom,26,,,6074DH,Melick,Roerdalen,Limburg,VBO,6.020631,51.163362
Peereboom,28,,,6074DH,Melick,Roerdalen,Limburg,VBO,6.020430,51.163400
Peereboom,30,,,6074DH,Melick,Roerdalen,Limburg,VBO,6.020256,51.163367
Peereboom,1,,,6074DJ,Melick,Roerdalen,Limburg,VBO,6.020881,51.162385
Peereboom,3,,GAR,6074DJ,Melick,Roerdalen,Limburg,VBO,6.020911,51.161979
Peereboom,3,,,6074DJ,Melick,Roerdalen,Limburg,VBO,6.020892,51.162447
Peereboom,5,,GAR,6074DJ,Melick,Roerdalen,Limburg,VBO,6.020898,51.162015
Peereboom,5,,,6074DJ,Melick,Roerdalen,Limburg,VBO,6.020862,51.162533
Peereboom,7,,GAR,6074DJ,Melick,Roerdalen,Limburg,VBO,6.020898,51.162042
Peereboom,7,,,6074DJ,Melick,Roerdalen,Limburg,VBO,6.020868,51.162610
Peereboom,9,,GAR,6074DJ,Melick,Roerdalen,Limburg,VBO,6.020884,51.162060
Peereboom,9,,,6074DJ,Melick,Roerdalen,Limburg,VBO,6.020848,51.162709
Peereboom,11,,GAR,6074DJ,Melick,Roerdalen,Limburg,VBO,6.020744,51.162277
Peereboom,11,,,6074DJ,Melick,Roerdalen,Limburg,VBO,6.020785,51.162755
Peereboom,13,,,6074DJ,Melick,Roerdalen,Limburg,VBO,6.020787,51.162943
Peereboom,15,,GAR,6074DJ,Melick,Roerdalen,Limburg,VBO,6.021344,51.163271
Peereboom,15,,,6074DJ,Melick,Roerdalen,Limburg,VBO,6.020744,51.163003
Peereboom,17,,,6074DJ,Melick,Roerdalen,Limburg,VBO,6.020663,51.163097
Peereboom,19,,,6074DJ,Melick,Roerdalen,Limburg,VBO,6.020623,51.163149
Schuttehei,2,,,6074DK,Melick,Roerdalen,Limburg,VBO,6.021403,51.163470
Schuttehei,3,,,6074DK,Melick,Roerdalen,Limburg,VBO,6.021901,51.163350
Schuttehei,4,,,6074DK,Melick,Roerdalen,Limburg,VBO,6.022512,51.162977
Schuttehei,5,,,6074DK,Melick,Roerdalen,Limburg,VBO,6.022353,51.163219
Schuttehei,7,,,6074DK,Melick,Roerdalen,Limburg,VBO,6.022792,51.163256
Vinkenberg,1,,,6074DL,Melick,Roerdalen,Limburg,VBO,6.022159,51.162472
Vinkenberg,2,,,6074DL,Melick,Roerdalen,Limburg,VBO,6.022558,51.162541
Vinkenberg,3,,GAR,6074DL,Melick,Roerdalen,Limburg,VBO,6.021757,51.162066
Vinkenberg,3,,,6074DL,Melick,Roerdalen,Limburg,VBO,6.022159,51.162579
Vinkenberg,4,,,6074DL,Melick,Roerdalen,Limburg,VBO,6.022510,51.162642
Vinkenberg,5,,GAR,6074DL,Melick,Roerdalen,Limburg,VBO,6.021737,51.162093
Vinkenberg,5,,,6074DL,Melick,Roerdalen,Limburg,VBO,6.022178,51.162631
Vinkenberg,6,,,6074DL,Melick,Roerdalen,Limburg,VBO,6.022522,51.162697
Vinkenberg,7,,GAR,6074DL,Melick,Roerdalen,Limburg,VBO,6.021946,51.162378
Vinkenberg,7,,,6074DL,Melick,Roerdalen,Limburg,VBO,6.022141,51.162741
Vinkenberg,8,,,6074DL,Melick,Roerdalen,Limburg,VBO,6.022488,51.162797
Vinkenberg,9,,GAR,6074DL,Melick,Roerdalen,Limburg,VBO,6.021989,51.162387
Vinkenberg,9,,,6074DL,Melick,Roerdalen,Limburg,VBO,6.022159,51.162793
Vinkenberg,10,,,6074DL,Melick,Roerdalen,Limburg,VBO,6.022496,51.162865
Vinkenberg,11,,,6074DL,Melick,Roerdalen,Limburg,VBO,6.022097,51.162962
Wintergaats,2,,,6074DM,Melick,Roerdalen,Limburg,VBO,6.019462,51.164187
Wintergaats,4,,,6074DM,Melick,Roerdalen,Limburg,VBO,6.020095,51.164219
Wintergaats,6,,,6074DM,Melick,Roerdalen,Limburg,VBO,6.020635,51.164247
Wintergaats,8,,,6074DM,Melick,Roerdalen,Limburg,VBO,6.021146,51.164273
Wintergaats,10,,,6074DM,Melick,Roerdalen,Limburg,VBO,6.021859,51.164203
Wintergaats,12,,,6074DM,Melick,Roerdalen,Limburg,VBO,6.022162,51.164112
Wintergaats,14,,,6074DM,Melick,Roerdalen,Limburg,VBO,6.022740,51.163912
Krekelberg,2,,,6074DN,Melick,Roerdalen,Limburg,VBO,6.019422,51.163534
Krekelberg,4,,,6074DN,Melick,Roerdalen,Limburg,VBO,6.019712,51.163573
Krekelberg,6,,,6074DN,Melick,Roerdalen,Limburg,VBO,6.020190,51.163614
Krekelberg,8,,,6074DN,Melick,Roerdalen,Limburg,VBO,6.020548,51.163657
Krekelberg,10,,,6074DN,Melick,Roerdalen,Limburg,VBO,6.020867,51.163664
Krekelberg,12,,GAR,6074DN,Melick,Roerdalen,Limburg,VBO,6.021371,51.163190
Krekelberg,12,,,6074DN,Melick,Roerdalen,Limburg,VBO,6.021237,51.163687
Krekelberg,14,,,6074DN,Melick,Roerdalen,Limburg,VBO,6.021858,51.163617
Krekelberg,16,,,6074DN,Melick,Roerdalen,Limburg,VBO,6.022225,51.163519
Krekelberg,18,,,6074DN,Melick,Roerdalen,Limburg,VBO,6.022485,51.163453
Krekelberg,22,,,6074DN,Melick,Roerdalen,Limburg,VBO,6.023008,51.162955
Krekelberg,24,,,6074DN,Melick,Roerdalen,Limburg,VBO,6.023068,51.162725
Krekelberg,26,,,6074DN,Melick,Roerdalen,Limburg,VBO,6.023220,51.162444
Krekelberg,1,,,6074DP,Melick,Roerdalen,Limburg,VBO,6.019080,51.163815
Krekelberg,3,,,6074DP,Melick,Roerdalen,Limburg,VBO,6.019545,51.163834
Krekelberg,5,,,6074DP,Melick,Roerdalen,Limburg,VBO,6.020087,51.163864
Krekelberg,7,,,6074DP,Melick,Roerdalen,Limburg,VBO,6.020422,51.163906
Krekelberg,9,,,6074DP,Melick,Roerdalen,Limburg,VBO,6.020850,51.163929
Krekelberg,11,,,6074DP,Melick,Roerdalen,Limburg,VBO,6.021095,51.163943
Krekelberg,13,,,6074DP,Melick,Roerdalen,Limburg,VBO,6.021659,51.163907
Krekelberg,15,,,6074DP,Melick,Roerdalen,Limburg,VBO,6.021974,51.163863
Krekelberg,17,,,6074DP,Melick,Roerdalen,Limburg,VBO,6.022252,51.163771
Krekelberg,19,,,6074DP,Melick,Roerdalen,Limburg,VBO,6.022599,51.163699
Smeelenbergweg,2,a,,6074DR,Melick,Roerdalen,Limburg,VBO,6.024370,51.162291
Smeelenbergweg,2,,,6074DR,Melick,Roerdalen,Limburg,VBO,6.023711,51.162202
Smeelenbergweg,4,,,6074DR,Melick,Roerdalen,Limburg,VBO,6.024956,51.162946
Felix Ruttenstraat,1,,,6074EA,Melick,Roerdalen,Limburg,VBO,6.021684,51.161024
Felix Ruttenstraat,2,,,6074EA,Melick,Roerdalen,Limburg,VBO,6.021803,51.159920
Felix Ruttenstraat,3,,,6074EA,Melick,Roerdalen,Limburg,VBO,6.021700,51.161085
Felix Ruttenstraat,4,,,6074EA,Melick,Roerdalen,Limburg,VBO,6.021819,51.159980
Felix Ruttenstraat,5,,,6074EA,Melick,Roerdalen,Limburg,VBO,6.021732,51.161203
Felix Ruttenstraat,6,,,6074EA,Melick,Roerdalen,Limburg,VBO,6.021851,51.160099
Felix Ruttenstraat,7,,,6074EA,Melick,Roerdalen,Limburg,VBO,6.021750,51.161268
Felix Ruttenstraat,8,,,6074EA,Melick,Roerdalen,Limburg,VBO,6.021867,51.160158
Felix Ruttenstraat,9,,,6074EA,Melick,Roerdalen,Limburg,VBO,6.021722,51.161393
Felix Ruttenstraat,10,,,6074EA,Melick,Roerdalen,Limburg,VBO,6.021902,51.160283
Felix Ruttenstraat,11,,,6074EA,Melick,Roerdalen,Limburg,VBO,6.021739,51.161454
Felix Ruttenstraat,12,,,6074EA,Melick,Roerdalen,Limburg,VBO,6.021918,51.160343
Felix Ruttenstraat,14,,,6074EA,Melick,Roerdalen,Limburg,VBO,6.021950,51.160463
Felix Ruttenstraat,16,,,6074EA,Melick,Roerdalen,Limburg,VBO,6.021966,51.160522
Felix Ruttenstraat,18,,,6074EA,Melick,Roerdalen,Limburg,VBO,6.021999,51.160641
Felix Ruttenstraat,20,,,6074EA,Melick,Roerdalen,Limburg,VBO,6.022015,51.160703
Felix Ruttenstraat,22,,,6074EA,Melick,Roerdalen,Limburg,VBO,6.022040,51.161002
Felix Ruttenstraat,24,,,6074EA,Melick,Roerdalen,Limburg,VBO,6.022056,51.161060
Felix Ruttenstraat,26,,,6074EA,Melick,Roerdalen,Limburg,VBO,6.022091,51.161183
Felix Ruttenstraat,28,,,6074EA,Melick,Roerdalen,Limburg,VBO,6.022107,51.161242
Felix Ruttenstraat,30,,,6074EA,Melick,Roerdalen,Limburg,VBO,6.022141,51.161364
Felix Ruttenstraat,32,,,6074EA,Melick,Roerdalen,Limburg,VBO,6.022157,51.161423
Felix Ruttenstraat,34,,,6074EA,Melick,Roerdalen,Limburg,VBO,6.022191,51.161545
Felix Ruttenstraat,36,,,6074EA,Melick,Roerdalen,Limburg,VBO,6.022207,51.161604
Frans Erensstraat,1,,,6074EB,Melick,Roerdalen,Limburg,VBO,6.022321,51.159857
Frans Erensstraat,3,,,6074EB,Melick,Roerdalen,Limburg,VBO,6.022337,51.159912
Frans Erensstraat,5,,,6074EB,Melick,Roerdalen,Limburg,VBO,6.022370,51.160035
Frans Erensstraat,7,,,6074EB,Melick,Roerdalen,Limburg,VBO,6.022386,51.160092
Frans Erensstraat,9,,,6074EB,Melick,Roerdalen,Limburg,VBO,6.022419,51.160214
Frans Erensstraat,11,,,6074EB,Melick,Roerdalen,Limburg,VBO,6.022435,51.160269
Frans Erensstraat,13,,,6074EB,Melick,Roerdalen,Limburg,VBO,6.022467,51.160388
Frans Erensstraat,15,,,6074EB,Melick,Roerdalen,Limburg,VBO,6.022483,51.160446
Frans Erensstraat,17,,,6074EB,Melick,Roerdalen,Limburg,VBO,6.022517,51.160567
Frans Erensstraat,19,,,6074EB,Melick,Roerdalen,Limburg,VBO,6.022533,51.160625
Frans Erensstraat,21,,,6074EB,Melick,Roerdalen,Limburg,VBO,6.022597,51.160918
Frans Erensstraat,23,,,6074EB,Melick,Roerdalen,Limburg,VBO,6.022612,51.160974
Frans Erensstraat,25,,,6074EB,Melick,Roerdalen,Limburg,VBO,6.022646,51.161097
Frans Erensstraat,27,,,6074EB,Melick,Roerdalen,Limburg,VBO,6.022662,51.161156
Frans Erensstraat,29,,,6074EB,Melick,Roerdalen,Limburg,VBO,6.022630,51.161287
Frans Erensstraat,31,,,6074EB,Melick,Roerdalen,Limburg,VBO,6.022645,51.161347
Frans Erensstraat,33,,,6074EB,Melick,Roerdalen,Limburg,VBO,6.022699,51.161449
Frans Erensstraat,35,,,6074EB,Melick,Roerdalen,Limburg,VBO,6.022693,51.161527
Frans Erensstraat,2,,,6074EC,Melick,Roerdalen,Limburg,VBO,6.022640,51.159848
Frans Erensstraat,4,,,6074EC,Melick,Roerdalen,Limburg,VBO,6.022691,51.160068
Frans Erensstraat,6,,,6074EC,Melick,Roerdalen,Limburg,VBO,6.022777,51.160430
Frans Erensstraat,10,,,6074EC,Melick,Roerdalen,Limburg,VBO,6.022939,51.160897
Frans Erensstraat,12,,,6074EC,Melick,Roerdalen,Limburg,VBO,6.022965,51.161060
Frans Erensstraat,14,,,6074EC,Melick,Roerdalen,Limburg,VBO,6.023026,51.161229
Fons Olterdissenstraat,2,,,6074ED,Melick,Roerdalen,Limburg,VBO,6.022978,51.160067
Fons Olterdissenstraat,3,,,6074ED,Melick,Roerdalen,Limburg,VBO,6.023052,51.160374
Fons Olterdissenstraat,4,,,6074ED,Melick,Roerdalen,Limburg,VBO,6.023238,51.160049
Fons Olterdissenstraat,5,,,6074ED,Melick,Roerdalen,Limburg,VBO,6.023284,51.160340
Fons Olterdissenstraat,6,,,6074ED,Melick,Roerdalen,Limburg,VBO,6.023496,51.160021
Fons Olterdissenstraat,7,,,6074ED,Melick,Roerdalen,Limburg,VBO,6.023484,51.160318
Emile Seipgensstraat,1,,,6074EE,Melick,Roerdalen,Limburg,VBO,6.020174,51.161436
Emile Seipgensstraat,3,,,6074EE,Melick,Roerdalen,Limburg,VBO,6.020156,51.161374
Emile Seipgensstraat,5,,,6074EE,Melick,Roerdalen,Limburg,VBO,6.020125,51.161260
Emile Seipgensstraat,7,,,6074EE,Melick,Roerdalen,Limburg,VBO,6.020106,51.161195
Emile Seipgensstraat,11,,,6074EE,Melick,Roerdalen,Limburg,VBO,6.023305,51.160833
Emile Seipgensstraat,2,,,6074EG,Melick,Roerdalen,Limburg,VBO,6.019773,51.161293
Emile Seipgensstraat,4,,,6074EG,Melick,Roerdalen,Limburg,VBO,6.019755,51.161229
Emile Seipgensstraat,6,,,6074EG,Melick,Roerdalen,Limburg,VBO,6.019723,51.161118
Emile Seipgensstraat,8,,,6074EG,Melick,Roerdalen,Limburg,VBO,6.019705,51.161054
Emile Seipgensstraat,10,,TRAF,6074EG,Melick,Roerdalen,Limburg,VBO,6.019742,51.160883
Emile Seipgensstraat,10,,,6074EG,Melick,Roerdalen,Limburg,VBO,6.019853,51.160906
Emile Seipgensstraat,12,,,6074EG,Melick,Roerdalen,Limburg,VBO,6.019968,51.160902
Emile Seipgensstraat,14,,,6074EG,Melick,Roerdalen,Limburg,VBO,6.020125,51.160885
Emile Seipgensstraat,16,,,6074EG,Melick,Roerdalen,Limburg,VBO,6.020212,51.160876
Emile Seipgensstraat,18,,,6074EG,Melick,Roerdalen,Limburg,VBO,6.020369,51.160858
Emile Seipgensstraat,20,,,6074EG,Melick,Roerdalen,Limburg,VBO,6.020460,51.160848
Emile Seipgensstraat,22,,,6074EG,Melick,Roerdalen,Limburg,VBO,6.020617,51.160831
Emile Seipgensstraat,24,,,6074EG,Melick,Roerdalen,Limburg,VBO,6.020704,51.160821
Emile Seipgensstraat,26,,,6074EG,Melick,Roerdalen,Limburg,VBO,6.022892,51.160631
Emile Seipgensstraat,28,,,6074EG,Melick,Roerdalen,Limburg,VBO,6.023125,51.160605
Emile Seipgensstraat,30,,,6074EG,Melick,Roerdalen,Limburg,VBO,6.023377,51.160576
Emile Seipgensstraat,32,,,6074EG,Melick,Roerdalen,Limburg,VBO,6.023635,51.160533
Apollolaan,1,b,,6074EH,Melick,Roerdalen,Limburg,VBO,6.024095,51.159120
Apollolaan,1,,,6074EH,Melick,Roerdalen,Limburg,VBO,6.024124,51.159056
Apollolaan,2,a,,6074EH,Melick,Roerdalen,Limburg,VBO,6.024791,51.161475
Apollolaan,2,,REST,6074EH,Melick,Roerdalen,Limburg,VBO,6.024347,51.161755
Apollolaan,2,,,6074EH,Melick,Roerdalen,Limburg,VBO,6.024391,51.161721
Apollolaan,3,,,6074EH,Melick,Roerdalen,Limburg,VBO,6.024167,51.159323
Apollolaan,4,,TRAF,6074EH,Melick,Roerdalen,Limburg,VBO,6.024597,51.159229
Apollolaan,4,,,6074EH,Melick,Roerdalen,Limburg,VBO,6.024607,51.159370
Apollolaan,5,,,6074EH,Melick,Roerdalen,Limburg,VBO,6.024120,51.159433
Apollolaan,7,,,6074EH,Melick,Roerdalen,Limburg,VBO,6.024072,51.159543
Apollolaan,9,,,6074EH,Melick,Roerdalen,Limburg,VBO,6.023752,51.159982
Apollolaan,13,,,6074EH,Melick,Roerdalen,Limburg,VBO,6.023353,51.161004
Apollolaan,15,,,6074EH,Melick,Roerdalen,Limburg,VBO,6.023370,51.161193
Apollolaan,17,,,6074EH,Melick,Roerdalen,Limburg,VBO,6.023169,51.161394
Apollolaan,19,,,6074EH,Melick,Roerdalen,Limburg,VBO,6.023126,51.161594
Apollolaan,21,,GAR,6074EH,Melick,Roerdalen,Limburg,VBO,6.021357,51.163217
Apollolaan,21,,,6074EH,Melick,Roerdalen,Limburg,VBO,6.023121,51.161723
Groenstraat,1,,,6074EJ,Melick,Roerdalen,Limburg,VBO,6.019534,51.158102
Groenstraat,3,,,6074EJ,Melick,Roerdalen,Limburg,VBO,6.019714,51.158139
Groenstraat,5,a,,6074EJ,Melick,Roerdalen,Limburg,VBO,6.020051,51.158210
Groenstraat,5,,,6074EJ,Melick,Roerdalen,Limburg,VBO,6.019887,51.158175
Groenstraat,7,,,6074EJ,Melick,Roerdalen,Limburg,VBO,6.020260,51.158254
Groenstraat,9,,,6074EJ,Melick,Roerdalen,Limburg,VBO,6.020495,51.158303
Groenstraat,11,a,,6074EJ,Melick,Roerdalen,Limburg,VBO,6.020924,51.158391
Groenstraat,11,,,6074EJ,Melick,Roerdalen,Limburg,VBO,6.020676,51.158340
Groenstraat,13,,,6074EJ,Melick,Roerdalen,Limburg,VBO,6.021158,51.158438
Groenstraat,15,,,6074EJ,Melick,Roerdalen,Limburg,VBO,6.021399,51.158435
Groenstraat,17,,,6074EJ,Melick,Roerdalen,Limburg,VBO,6.021560,51.158496
Groenstraat,19,,,6074EJ,Melick,Roerdalen,Limburg,VBO,6.021630,51.158511
Groenstraat,21,,,6074EJ,Melick,Roerdalen,Limburg,VBO,6.021791,51.158545
Groenstraat,23,,,6074EJ,Melick,Roerdalen,Limburg,VBO,6.021858,51.158559
Groenstraat,25,,,6074EJ,Melick,Roerdalen,Limburg,VBO,6.022064,51.158618
Groenstraat,27,,WKL,6074EJ,Melick,Roerdalen,Limburg,VBO,6.022928,51.159136
Groenstraat,27,,,6074EJ,Melick,Roerdalen,Limburg,VBO,6.022954,51.158786
Groenstraat,29,,,6074EJ,Melick,Roerdalen,Limburg,VBO,6.023084,51.158802
Groenstraat,31,a,,6074EJ,Melick,Roerdalen,Limburg,VBO,6.023572,51.159025
Groenstraat,31,b,,6074EJ,Melick,Roerdalen,Limburg,VBO,6.023615,51.159034
Groenstraat,31,,,6074EJ,Melick,Roerdalen,Limburg,VBO,6.023515,51.159026
Groenstraat,33,a,,6074EJ,Melick,Roerdalen,Limburg,VBO,6.023717,51.159078
Groenstraat,33,c,,6074EJ,Melick,Roerdalen,Limburg,VBO,6.023360,51.159071
Groenstraat,33,,,6074EJ,Melick,Roerdalen,Limburg,VBO,6.023688,51.159061
Groenstraat,35,a,,6074EJ,Melick,Roerdalen,Limburg,VBO,6.023364,51.159053
Groenstraat,35,b,,6074EJ,Melick,Roerdalen,Limburg,VBO,6.023361,51.159035
Groenstraat,35,c,,6074EJ,Melick,Roerdalen,Limburg,VBO,6.023376,51.159016
Groenstraat,35,,,6074EJ,Melick,Roerdalen,Limburg,VBO,6.023410,51.158995
Groenstraat,39,a,,6074EJ,Melick,Roerdalen,Limburg,VBO,6.025209,51.159396
Groenstraat,39,b,,6074EJ,Melick,Roerdalen,Limburg,VBO,6.025559,51.159500
Groenstraat,39,,,6074EJ,Melick,Roerdalen,Limburg,VBO,6.024905,51.159305
Groenstraat,41,a,,6074EJ,Melick,Roerdalen,Limburg,VBO,6.026340,51.159923
Groenstraat,41,b,,6074EJ,Melick,Roerdalen,Limburg,VBO,6.026550,51.159990
Groenstraat,41,c,,6074EJ,Melick,Roerdalen,Limburg,VBO,6.026842,51.160119
Groenstraat,41,d,,6074EJ,Melick,Roerdalen,Limburg,VBO,6.027094,51.160190
Groenstraat,41,e,,6074EJ,Melick,Roerdalen,Limburg,VBO,6.027365,51.160247
Groenstraat,41,,,6074EJ,Melick,Roerdalen,Limburg,VBO,6.026093,51.159800
Groenstraat,43,,,6074EJ,Melick,Roerdalen,Limburg,VBO,6.027893,51.160230
Groenstraat,45,a,,6074EJ,Melick,Roerdalen,Limburg,VBO,6.029813,51.160754
Groenstraat,45,,LOOD,6074EJ,Melick,Roerdalen,Limburg,VBO,6.029595,51.160361
Groenstraat,45,,,6074EJ,Melick,Roerdalen,Limburg,VBO,6.029601,51.160386
Groenstraat,47,,TRAF,6074EJ,Melick,Roerdalen,Limburg,VBO,6.030660,51.160276
Groenstraat,47,,,6074EJ,Melick,Roerdalen,Limburg,VBO,6.030330,51.160328
Groenstraat,49,,,6074EJ,Melick,Roerdalen,Limburg,VBO,6.031148,51.160160
Groenstraat,53,,,6074EJ,Melick,Roerdalen,Limburg,VBO,6.035349,51.160154
Groenstraat,2,,,6074EK,Melick,Roerdalen,Limburg,VBO,6.019355,51.157798
Groenstraat,4,,,6074EK,Melick,Roerdalen,Limburg,VBO,6.019598,51.157847
Groenstraat,6,,,6074EK,Melick,Roerdalen,Limburg,VBO,6.019805,51.157890
Groenstraat,8,,,6074EK,Melick,Roerdalen,Limburg,VBO,6.020050,51.157940
Groenstraat,10,,,6074EK,Melick,Roerdalen,Limburg,VBO,6.020276,51.157987
Groenstraat,12,,,6074EK,Melick,Roerdalen,Limburg,VBO,6.020830,51.158158
Groenstraat,14,a,,6074EK,Melick,Roerdalen,Limburg,VBO,6.021407,51.158232
Groenstraat,14,,,6074EK,Melick,Roerdalen,Limburg,VBO,6.021164,51.158167
Groenstraat,16,a,,6074EK,Melick,Roerdalen,Limburg,VBO,6.021801,51.158301
Groenstraat,16,,,6074EK,Melick,Roerdalen,Limburg,VBO,6.021604,51.158251
Groenstraat,18,,,6074EK,Melick,Roerdalen,Limburg,VBO,6.021971,51.158376
Groenstraat,20,,,6074EK,Melick,Roerdalen,Limburg,VBO,6.022124,51.158399
Groenstraat,22,,,6074EK,Melick,Roerdalen,Limburg,VBO,6.022359,51.158420
Groenstraat,24,,,6074EK,Melick,Roerdalen,Limburg,VBO,6.022529,51.158486
Groenstraat,26,,,6074EK,Melick,Roerdalen,Limburg,VBO,6.022775,51.158553
Groenstraat,28,a,,6074EK,Melick,Roerdalen,Limburg,VBO,6.023122,51.158587
Groenstraat,28,,,6074EK,Melick,Roerdalen,Limburg,VBO,6.022943,51.158550
Groenstraat,30,,,6074EK,Melick,Roerdalen,Limburg,VBO,6.023284,51.158627
Groenstraat,32,,,6074EK,Melick,Roerdalen,Limburg,VBO,6.023409,51.158709
Groenstraat,34,,,6074EK,Melick,Roerdalen,Limburg,VBO,6.023835,51.158789
Groenstraat,36,,,6074EK,Melick,Roerdalen,Limburg,VBO,6.024065,51.158779
Groenstraat,38,a,,6074EK,Melick,Roerdalen,Limburg,VBO,6.024562,51.158836
Groenstraat,38,,,6074EK,Melick,Roerdalen,Limburg,VBO,6.024268,51.158822
Groenstraat,40,a,,6074EK,Melick,Roerdalen,Limburg,VBO,6.024875,51.158943
Groenstraat,40,,,6074EK,Melick,Roerdalen,Limburg,VBO,6.024656,51.158863
Groenstraat,42,a,,6074EL,Melick,Roerdalen,Limburg,VBO,6.025314,51.159099
Groenstraat,42,,,6074EL,Melick,Roerdalen,Limburg,VBO,6.025053,51.159040
Groenstraat,44,,,6074EL,Melick,Roerdalen,Limburg,VBO,6.025461,51.159149
Groenstraat,46,a,,6074EL,Melick,Roerdalen,Limburg,VBO,6.025616,51.159229
Groenstraat,46,b,,6074EL,Melick,Roerdalen,Limburg,VBO,6.025648,51.159210
Groenstraat,46,,,6074EL,Melick,Roerdalen,Limburg,VBO,6.025574,51.159243
Groenstraat,48,,,6074EL,Melick,Roerdalen,Limburg,VBO,6.025971,51.159343
Groenstraat,54,,,6074EL,Melick,Roerdalen,Limburg,VBO,6.026504,51.159616
Groenstraat,58,,,6074EL,Melick,Roerdalen,Limburg,VBO,6.026740,51.159710
Groenstraat,60,,,6074EL,Melick,Roerdalen,Limburg,VBO,6.026981,51.159762
Groenstraat,64,,,6074EL,Melick,Roerdalen,Limburg,VBO,6.027273,51.159865
Groenstraat,68,,,6074EL,Melick,Roerdalen,Limburg,VBO,6.027542,51.159966
Groenstraat,70,,,6074EL,Melick,Roerdalen,Limburg,VBO,6.027756,51.160011
Groenstraat,72,,,6074EL,Melick,Roerdalen,Limburg,VBO,6.028068,51.160005
Groenstraat,74,,,6074EL,Melick,Roerdalen,Limburg,VBO,6.028249,51.160021
Groenstraat,78,,,6074EL,Melick,Roerdalen,Limburg,VBO,6.028637,51.159984
Groenstraat,80,,,6074EL,Melick,Roerdalen,Limburg,VBO,6.028953,51.160016
Groenstraat,82,,,6074EL,Melick,Roerdalen,Limburg,VBO,6.029339,51.160125
Groenstraat,84,,,6074EL,Melick,Roerdalen,Limburg,VBO,6.029675,51.160065
Groenstraat,86,,,6074EL,Melick,Roerdalen,Limburg,VBO,6.029950,51.160089
Groenstraat,88,,,6074EL,Melick,Roerdalen,Limburg,VBO,6.030198,51.160066
Groenstraat,90,,,6074EL,Melick,Roerdalen,Limburg,VBO,6.030553,51.160072
Groenstraat,92,,,6074EL,Melick,Roerdalen,Limburg,VBO,6.030921,51.159918
Groenstraat,96,a,,6074EL,Melick,Roerdalen,Limburg,VBO,6.032032,51.159725
Groenstraat,96,,,6074EL,Melick,Roerdalen,Limburg,VBO,6.031358,51.159691
Groenstraat,98,,,6074EL,Melick,Roerdalen,Limburg,VBO,6.032165,51.159747
Groenstraat,100,,,6074EL,Melick,Roerdalen,Limburg,VBO,6.032628,51.159734
Groenstraat,102,,,6074EL,Melick,Roerdalen,Limburg,VBO,6.032883,51.159776
Groenstraat,104,,,6074EL,Melick,Roerdalen,Limburg,VBO,6.033058,51.159804
Groenstraat,106,,,6074EL,Melick,Roerdalen,Limburg,VBO,6.033239,51.159865
Ad Weltersstraat,1,,,6074EM,Melick,Roerdalen,Limburg,VBO,6.020802,51.159006
Ad Weltersstraat,2,,,6074EM,Melick,Roerdalen,Limburg,VBO,6.020789,51.158755
Ad Weltersstraat,3,,,6074EM,Melick,Roerdalen,Limburg,VBO,6.020888,51.158997
Ad Weltersstraat,4,,,6074EM,Melick,Roerdalen,Limburg,VBO,6.020871,51.158771
Ad Weltersstraat,5,,,6074EM,Melick,Roerdalen,Limburg,VBO,6.021081,51.158976
Ad Weltersstraat,6,,,6074EM,Melick,Roerdalen,Limburg,VBO,6.021095,51.158767
Ad Weltersstraat,7,,,6074EM,Melick,Roerdalen,Limburg,VBO,6.021171,51.158966
Ad Weltersstraat,8,,,6074EM,Melick,Roerdalen,Limburg,VBO,6.021220,51.158757
Ad Weltersstraat,9,,,6074EM,Melick,Roerdalen,Limburg,VBO,6.021365,51.158944
Ad Weltersstraat,11,,,6074EM,Melick,Roerdalen,Limburg,VBO,6.021451,51.158935
Ad Weltersstraat,12,,,6074EM,Melick,Roerdalen,Limburg,VBO,6.021547,51.158715
Ad Weltersstraat,13,,,6074EM,Melick,Roerdalen,Limburg,VBO,6.021648,51.158940
Ad Weltersstraat,14,,TRAF,6074EM,Melick,Roerdalen,Limburg,VBO,6.022063,51.158818
Ad Weltersstraat,14,,,6074EM,Melick,Roerdalen,Limburg,VBO,6.021825,51.158765
Ad Weltersstraat,15,,,6074EM,Melick,Roerdalen,Limburg,VBO,6.021737,51.158930
Kempkensweg,1,,,6074EN,Melick,Roerdalen,Limburg,VBO,6.037791,51.160628
Armstrongerf,1,,,6074EP,Melick,Roerdalen,Limburg,VBO,6.024428,51.159878
Armstrongerf,2,,,6074EP,Melick,Roerdalen,Limburg,VBO,6.024532,51.159682
Armstrongerf,3,,,6074EP,Melick,Roerdalen,Limburg,VBO,6.024598,51.159907
Armstrongerf,4,,,6074EP,Melick,Roerdalen,Limburg,VBO,6.024697,51.159711
Armstrongerf,5,,,6074EP,Melick,Roerdalen,Limburg,VBO,6.024678,51.159921
Armstrongerf,6,,,6074EP,Melick,Roerdalen,Limburg,VBO,6.024778,51.159725
Armstrongerf,7,,,6074EP,Melick,Roerdalen,Limburg,VBO,6.024847,51.159950
Armstrongerf,8,,,6074EP,Melick,Roerdalen,Limburg,VBO,6.024951,51.159754
Armstrongerf,9,,,6074EP,Melick,Roerdalen,Limburg,VBO,6.024928,51.159964
Armstrongerf,10,,,6074EP,Melick,Roerdalen,Limburg,VBO,6.025035,51.159769
Armstrongerf,11,,,6074EP,Melick,Roerdalen,Limburg,VBO,6.025066,51.160060
Armstrongerf,12,,,6074EP,Melick,Roerdalen,Limburg,VBO,6.025209,51.159780
Armstrongerf,13,,,6074EP,Melick,Roerdalen,Limburg,VBO,6.025185,51.160081
Armstrongerf,14,,,6074EP,Melick,Roerdalen,Limburg,VBO,6.025338,51.159802
Armstrongerf,15,,,6074EP,Melick,Roerdalen,Limburg,VBO,6.025313,51.160102
Armstrongerf,16,,,6074EP,Melick,Roerdalen,Limburg,VBO,6.025464,51.159824
Armstrongerf,17,,,6074EP,Melick,Roerdalen,Limburg,VBO,6.025444,51.160125
Armstrongerf,18,,,6074EP,Melick,Roerdalen,Limburg,VBO,6.025594,51.159846
Armstrongerf,19,,,6074EP,Melick,Roerdalen,Limburg,VBO,6.025588,51.160077
Armstrongerf,20,,,6074EP,Melick,Roerdalen,Limburg,VBO,6.025695,51.159910
Aldrinerf,1,,,6074ER,Melick,Roerdalen,Limburg,VBO,6.024119,51.160542
Aldrinerf,2,,,6074ER,Melick,Roerdalen,Limburg,VBO,6.024215,51.160367
Aldrinerf,3,,,6074ER,Melick,Roerdalen,Limburg,VBO,6.024282,51.160570
Aldrinerf,4,,,6074ER,Melick,Roerdalen,Limburg,VBO,6.024379,51.160394
Aldrinerf,5,,,6074ER,Melick,Roerdalen,Limburg,VBO,6.024460,51.160591
Aldrinerf,6,,,6074ER,Melick,Roerdalen,Limburg,VBO,6.024563,51.160416
Aldrinerf,7,,,6074ER,Melick,Roerdalen,Limburg,VBO,6.024633,51.160612
Aldrinerf,8,,,6074ER,Melick,Roerdalen,Limburg,VBO,6.024738,51.160437
Aldrinerf,9,,,6074ER,Melick,Roerdalen,Limburg,VBO,6.024795,51.160663
Aldrinerf,10,,,6074ER,Melick,Roerdalen,Limburg,VBO,6.024922,51.160431
Aldrinerf,11,,,6074ER,Melick,Roerdalen,Limburg,VBO,6.024872,51.160676
Aldrinerf,12,,,6074ER,Melick,Roerdalen,Limburg,VBO,6.025003,51.160445
Aldrinerf,13,,,6074ER,Melick,Roerdalen,Limburg,VBO,6.025025,51.160721
Aldrinerf,14,,,6074ER,Melick,Roerdalen,Limburg,VBO,6.025179,51.160457
Aldrinerf,15,,,6074ER,Melick,Roerdalen,Limburg,VBO,6.025111,51.160736
Aldrinerf,16,,,6074ER,Melick,Roerdalen,Limburg,VBO,6.025260,51.160471
Aldrinerf,17,,,6074ER,Melick,Roerdalen,Limburg,VBO,6.025297,51.160726
Aldrinerf,18,,,6074ER,Melick,Roerdalen,Limburg,VBO,6.025408,51.160552
Waterschei,1,,,6074ES,Melick,Roerdalen,Limburg,VBO,6.031964,51.159666
Waterschei,3,,,6074ES,Melick,Roerdalen,Limburg,VBO,6.032036,51.159478
Waterschei,5,,,6074ES,Melick,Roerdalen,Limburg,VBO,6.032070,51.159395
Waterschei,7,,,6074ES,Melick,Roerdalen,Limburg,VBO,6.032178,51.159294
Waterschei,9,,,6074ES,Melick,Roerdalen,Limburg,VBO,6.032233,51.159125
Waterschei,13,,,6074ES,Melick,Roerdalen,Limburg,VBO,6.032351,51.158804
Waterschei,15,,,6074ES,Melick,Roerdalen,Limburg,VBO,6.032400,51.158630
Waterschei,17,,,6074ES,Melick,Roerdalen,Limburg,VBO,6.032494,51.158532
Waterschei,19,,,6074ES,Melick,Roerdalen,Limburg,VBO,6.032769,51.158386
Waterschei,23,,,6074ES,Melick,Roerdalen,Limburg,VBO,6.032788,51.157993
Waterschei,27,,,6074ES,Melick,Roerdalen,Limburg,VBO,6.032834,51.157683
Waterschei,29,,,6074ES,Melick,Roerdalen,Limburg,VBO,6.032933,51.157452
Waterschei,31,,,6074ES,Melick,Roerdalen,Limburg,VBO,6.032896,51.157294
Waterschei,41,,,6074ES,Melick,Roerdalen,Limburg,VBO,6.033089,51.156645
Waterschei,43,a,,6074ES,Melick,Roerdalen,Limburg,VBO,6.033344,51.156558
Waterschei,43,,,6074ES,Melick,Roerdalen,Limburg,VBO,6.033532,51.156544
Waterschei,45,,,6074ES,Melick,Roerdalen,Limburg,VBO,6.034061,51.156667
Waterschei,47,,,6074ES,Melick,Roerdalen,Limburg,VBO,6.034363,51.156745
Waterschei,61,,,6074ES,Melick,Roerdalen,Limburg,VBO,6.035826,51.156132
Waterschei,63,,,6074ES,Melick,Roerdalen,Limburg,VBO,6.035885,51.156019
Waterschei,65,,,6074ES,Melick,Roerdalen,Limburg,VBO,6.036272,51.155780
Waterschei,67,,,6074ES,Melick,Roerdalen,Limburg,VBO,6.036400,51.155684
Waterschei,71,,,6074ES,Melick,Roerdalen,Limburg,VBO,6.037518,51.155238
Waterschei,73,,,6074ES,Melick,Roerdalen,Limburg,VBO,6.037529,51.155329
Waterschei,2,,,6074ET,Melick,Roerdalen,Limburg,VBO,6.031657,51.159567
Waterschei,4,,,6074ET,Melick,Roerdalen,Limburg,VBO,6.031780,51.159489
Waterschei,6,,,6074ET,Melick,Roerdalen,Limburg,VBO,6.031814,51.159437
Waterschei,8,,,6074ET,Melick,Roerdalen,Limburg,VBO,6.031850,51.159381
Waterschei,10,,,6074ET,Melick,Roerdalen,Limburg,VBO,6.031840,51.159214
Waterschei,12,,,6074ET,Melick,Roerdalen,Limburg,VBO,6.031861,51.159149
Waterschei,14,,,6074ET,Melick,Roerdalen,Limburg,VBO,6.031783,51.158978
Waterschei,16,,BY,6074ET,Melick,Roerdalen,Limburg,VBO,6.030658,51.158654
Waterschei,16,,,6074ET,Melick,Roerdalen,Limburg,VBO,6.031175,51.158552
Waterschei,18,,,6074ET,Melick,Roerdalen,Limburg,VBO,6.031962,51.158681
Waterschei,20,,,6074ET,Melick,Roerdalen,Limburg,VBO,6.031945,51.158515
Waterschei,22,,,6074ET,Melick,Roerdalen,Limburg,VBO,6.032239,51.158525
Waterschei,26,,,6074ET,Melick,Roerdalen,Limburg,VBO,6.032384,51.158303
Waterschei,28,,BEDR,6074ET,Melick,Roerdalen,Limburg,VBO,6.032019,51.158153
Waterschei,28,,,6074ET,Melick,Roerdalen,Limburg,VBO,6.032401,51.158125
Waterschei,30,,,6074ET,Melick,Roerdalen,Limburg,VBO,6.032476,51.157928
Waterschei,32,,,6074ET,Melick,Roerdalen,Limburg,VBO,6.032511,51.157772
Waterschei,34,,,6074ET,Melick,Roerdalen,Limburg,VBO,6.032551,51.157574
Waterschei,36,a,,6074ET,Melick,Roerdalen,Limburg,VBO,6.032536,51.157330
Waterschei,36,,,6074ET,Melick,Roerdalen,Limburg,VBO,6.032537,51.157441
Waterschei,38,,,6074ET,Melick,Roerdalen,Limburg,VBO,6.032559,51.157160
Waterschei,40,,,6074ET,Melick,Roerdalen,Limburg,VBO,6.032587,51.156994
Waterschei,42,,,6074ET,Melick,Roerdalen,Limburg,VBO,6.032589,51.156863
Waterschei,44,,,6074ET,Melick,Roerdalen,Limburg,VBO,6.032596,51.156731
Waterschei,52,,,6074ET,Melick,Roerdalen,Limburg,VBO,6.034516,51.156545
Waterschei,64,,,6074ET,Melick,Roerdalen,Limburg,VBO,6.035829,51.155785
Waterschei,66,,,6074ET,Melick,Roerdalen,Limburg,VBO,6.035875,51.155673
Waterschei,68,a,,6074ET,Melick,Roerdalen,Limburg,VBO,6.036255,51.155341
Waterschei,68,,,6074ET,Melick,Roerdalen,Limburg,VBO,6.036201,51.155479
Waterschei,70,,,6074ET,Melick,Roerdalen,Limburg,VBO,6.036908,51.154853
De Steeg,1,a,,6074EV,Melick,Roerdalen,Limburg,VBO,6.016965,51.156978
De Steeg,1,,,6074EV,Melick,Roerdalen,Limburg,VBO,6.017124,51.156723
De Steeg,2,a,,6074EV,Melick,Roerdalen,Limburg,VBO,6.016767,51.156797
De Steeg,2,b,,6074EV,Melick,Roerdalen,Limburg,VBO,6.016656,51.157044
De Steeg,2,,,6074EV,Melick,Roerdalen,Limburg,VBO,6.016936,51.156642
De Steeg,3,,,6074EV,Melick,Roerdalen,Limburg,VBO,6.017292,51.156628
De Steeg,4,,,6074EV,Melick,Roerdalen,Limburg,VBO,6.017331,51.156226
De Steeg,5,,,6074EV,Melick,Roerdalen,Limburg,VBO,6.017445,51.156513
De Steeg,7,,,6074EV,Melick,Roerdalen,Limburg,VBO,6.017842,51.156478
De Steeg,9,,,6074EV,Melick,Roerdalen,Limburg,VBO,6.018845,51.156271
De Steeg,11,a,,6074EV,Melick,Roerdalen,Limburg,VBO,6.018122,51.157066
De Steeg,11,,,6074EV,Melick,Roerdalen,Limburg,VBO,6.018470,51.157058
De Steeg,13,,,6074EV,Melick,Roerdalen,Limburg,VBO,6.018224,51.157228
Collinserf,2,,,6074EW,Melick,Roerdalen,Limburg,VBO,6.023963,51.160947
Collinserf,4,,,6074EW,Melick,Roerdalen,Limburg,VBO,6.024088,51.160968
Collinserf,6,,,6074EW,Melick,Roerdalen,Limburg,VBO,6.024211,51.160989
Collinserf,8,,,6074EW,Melick,Roerdalen,Limburg,VBO,6.024337,51.161011
Collinserf,10,,,6074EW,Melick,Roerdalen,Limburg,VBO,6.024463,51.161033
Collinserf,12,,,6074EW,Melick,Roerdalen,Limburg,VBO,6.024589,51.161055
Collinserf,14,,,6074EW,Melick,Roerdalen,Limburg,VBO,6.024727,51.161046
Collinserf,16,,,6074EW,Melick,Roerdalen,Limburg,VBO,6.024897,51.161075
Collinserf,18,,,6074EW,Melick,Roerdalen,Limburg,VBO,6.025009,51.161118
Collinserf,20,,,6074EW,Melick,Roerdalen,Limburg,VBO,6.025131,51.161162
Dorpsstraat,1,,,6074GA,Melick,Roerdalen,Limburg,VBO,6.008245,51.156579
Dorpsstraat,3,,,6074GA,Melick,Roerdalen,Limburg,VBO,6.008425,51.156664
Dorpsstraat,5,,,6074GA,Melick,Roerdalen,Limburg,VBO,6.008616,51.156662
Dorpsstraat,7,,,6074GA,Melick,Roerdalen,Limburg,VBO,6.008895,51.156749
Dorpsstraat,9,,,6074GA,Melick,Roerdalen,Limburg,VBO,6.009152,51.156769
Dorpsstraat,11,,,6074GA,Melick,Roerdalen,Limburg,VBO,6.009390,51.156761
Dorpsstraat,13,,,6074GA,Melick,Roerdalen,Limburg,VBO,6.009745,51.156826
Dorpsstraat,15,,,6074GA,Melick,Roerdalen,Limburg,VBO,6.009931,51.156833
Dorpsstraat,17,,,6074GA,Melick,Roerdalen,Limburg,VBO,6.010178,51.156849
Dorpsstraat,19,,,6074GA,Melick,Roerdalen,Limburg,VBO,6.010430,51.156848
Dorpsstraat,21,,,6074GA,Melick,Roerdalen,Limburg,VBO,6.010659,51.156776
Dorpsstraat,23,,,6074GA,Melick,Roerdalen,Limburg,VBO,6.010966,51.156753
Dorpsstraat,25,,,6074GA,Melick,Roerdalen,Limburg,VBO,6.011215,51.156728
Dorpsstraat,27,,,6074GA,Melick,Roerdalen,Limburg,VBO,6.011455,51.156799
Dorpsstraat,29,,,6074GA,Melick,Roerdalen,Limburg,VBO,6.011568,51.156796
Dorpsstraat,31,,,6074GA,Melick,Roerdalen,Limburg,VBO,6.011832,51.156803
Dorpsstraat,35,,,6074GA,Melick,Roerdalen,Limburg,VBO,6.012331,51.156825
Dorpsstraat,43,a,CAFE,6074GA,Melick,Roerdalen,Limburg,VBO,6.014698,51.157132
Dorpsstraat,43,a,REST,6074GA,Melick,Roerdalen,Limburg,VBO,6.014698,51.157150
Dorpsstraat,43,a,,6074GA,Melick,Roerdalen,Limburg,VBO,6.014698,51.157114
Dorpsstraat,43,,,6074GA,Melick,Roerdalen,Limburg,VBO,6.014340,51.157049
Dorpsstraat,45,,,6074GB,Melick,Roerdalen,Limburg,VBO,6.014964,51.157181
Dorpsstraat,47,,PRAK,6074GB,Melick,Roerdalen,Limburg,VBO,6.015157,51.157273
Dorpsstraat,47,,,6074GB,Melick,Roerdalen,Limburg,VBO,6.015152,51.157263
Dorpsstraat,49,,,6074GB,Melick,Roerdalen,Limburg,VBO,6.015313,51.157238
Dorpsstraat,51,,,6074GB,Melick,Roerdalen,Limburg,VBO,6.015516,51.157287
Dorpsstraat,53,,,6074GB,Melick,Roerdalen,Limburg,VBO,6.015704,51.157330
Dorpsstraat,55,,,6074GB,Melick,Roerdalen,Limburg,VBO,6.015876,51.157370
Dorpsstraat,59,,,6074GB,Melick,Roerdalen,Limburg,VBO,6.016199,51.157446
Dorpsstraat,61,a,,6074GB,Melick,Roerdalen,Limburg,VBO,6.016527,51.157509
Dorpsstraat,61,,,6074GB,Melick,Roerdalen,Limburg,VBO,6.016343,51.157471
Dorpsstraat,63,,,6074GB,Melick,Roerdalen,Limburg,VBO,6.016697,51.157540
Dorpsstraat,65,,CAFE,6074GB,Melick,Roerdalen,Limburg,VBO,6.016989,51.157591
Dorpsstraat,65,,,6074GB,Melick,Roerdalen,Limburg,VBO,6.016988,51.157630
Dorpsstraat,69,,,6074GB,Melick,Roerdalen,Limburg,VBO,6.017503,51.157676
Dorpsstraat,71,a,,6074GB,Melick,Roerdalen,Limburg,VBO,6.017889,51.157731
Dorpsstraat,71,,,6074GB,Melick,Roerdalen,Limburg,VBO,6.017748,51.157711
Dorpsstraat,73,a,,6074GB,Melick,Roerdalen,Limburg,VBO,6.018024,51.157778
Dorpsstraat,73,,,6074GB,Melick,Roerdalen,Limburg,VBO,6.018052,51.157754
Dorpsstraat,75,,,6074GB,Melick,Roerdalen,Limburg,VBO,6.018263,51.157785
Dorpsstraat,77,,,6074GB,Melick,Roerdalen,Limburg,VBO,6.018430,51.157858
Dorpsstraat,79,,,6074GB,Melick,Roerdalen,Limburg,VBO,6.018621,51.157898
Dorpsstraat,81,a,,6074GB,Melick,Roerdalen,Limburg,VBO,6.018757,51.158000
Dorpsstraat,81,b,,6074GB,Melick,Roerdalen,Limburg,VBO,6.018742,51.158044
Dorpsstraat,81,c,,6074GB,Melick,Roerdalen,Limburg,VBO,6.018723,51.158064
Dorpsstraat,81,,,6074GB,Melick,Roerdalen,Limburg,VBO,6.018773,51.157930
Dorpsstraat,8,,,6074GC,Melick,Roerdalen,Limburg,VBO,6.008537,51.156420
Dorpsstraat,10,,,6074GC,Melick,Roerdalen,Limburg,VBO,6.008621,51.156445
Dorpsstraat,12,,,6074GC,Melick,Roerdalen,Limburg,VBO,6.008758,51.156487
Dorpsstraat,14,,,6074GC,Melick,Roerdalen,Limburg,VBO,6.009088,51.156541
Dorpsstraat,16,,,6074GC,Melick,Roerdalen,Limburg,VBO,6.009249,51.156513
Dorpsstraat,18,,,6074GC,Melick,Roerdalen,Limburg,VBO,6.009762,51.156541
Dorpsstraat,20,,,6074GC,Melick,Roerdalen,Limburg,VBO,6.010228,51.156586
Dorpsstraat,22,,,6074GC,Melick,Roerdalen,Limburg,VBO,6.010463,51.156605
Dorpsstraat,24,a,,6074GC,Melick,Roerdalen,Limburg,VBO,6.010779,51.156596
Dorpsstraat,24,,,6074GC,Melick,Roerdalen,Limburg,VBO,6.010584,51.156597
Dorpsstraat,26,,,6074GC,Melick,Roerdalen,Limburg,VBO,6.010978,51.156596
Dorpsstraat,28,,,6074GC,Melick,Roerdalen,Limburg,VBO,6.011181,51.156567
Dorpsstraat,30,,,6074GC,Melick,Roerdalen,Limburg,VBO,6.011295,51.156561
Dorpsstraat,32,,,6074GC,Melick,Roerdalen,Limburg,VBO,6.011462,51.156515
Dorpsstraat,34,,,6074GC,Melick,Roerdalen,Limburg,VBO,6.011627,51.156509
Dorpsstraat,36,,,6074GC,Melick,Roerdalen,Limburg,VBO,6.011795,51.156504
Dorpsstraat,38,,,6074GC,Melick,Roerdalen,Limburg,VBO,6.012003,51.156545
Dorpsstraat,40,a,,6074GC,Melick,Roerdalen,Limburg,VBO,6.012215,51.156393
Dorpsstraat,40,b,,6074GC,Melick,Roerdalen,Limburg,VBO,6.012283,51.156414
Dorpsstraat,40,c,,6074GC,Melick,Roerdalen,Limburg,VBO,6.012331,51.156423
Dorpsstraat,40,d,,6074GC,Melick,Roerdalen,Limburg,VBO,6.012399,51.156456
Dorpsstraat,40,,,6074GC,Melick,Roerdalen,Limburg,VBO,6.012167,51.156372
Dorpsstraat,42,a,,6074GC,Melick,Roerdalen,Limburg,VBO,6.012573,51.155937
Dorpsstraat,42,,,6074GC,Melick,Roerdalen,Limburg,VBO,6.012542,51.156577
Dorpsstraat,44,,,6074GC,Melick,Roerdalen,Limburg,VBO,6.012308,51.155997
Dorpsstraat,46,b,BGPL,6074GC,Melick,Roerdalen,Limburg,VBO,6.013339,51.155618
Dorpsstraat,46,b,,6074GC,Melick,Roerdalen,Limburg,VBO,6.012129,51.155896
Dorpsstraat,46,,,6074GC,Melick,Roerdalen,Limburg,VBO,6.012160,51.155949
Dorpsstraat,48,,,6074GC,Melick,Roerdalen,Limburg,VBO,6.012746,51.156652
Dorpsstraat,50,,,6074GC,Melick,Roerdalen,Limburg,VBO,6.012891,51.156692
Dorpsstraat,52,,,6074GC,Melick,Roerdalen,Limburg,VBO,6.013009,51.156702
Dorpsstraat,54,,,6074GC,Melick,Roerdalen,Limburg,VBO,6.013206,51.156703
Dorpsstraat,56,a,,6074GC,Melick,Roerdalen,Limburg,VBO,6.013387,51.156719
Dorpsstraat,56,,,6074GC,Melick,Roerdalen,Limburg,VBO,6.013378,51.156744
Dorpsstraat,58,,,6074GC,Melick,Roerdalen,Limburg,VBO,6.013571,51.156760
Dorpsstraat,60,,,6074GD,Melick,Roerdalen,Limburg,VBO,6.013702,51.156784
Dorpsstraat,62,,,6074GD,Melick,Roerdalen,Limburg,VBO,6.013936,51.156813
Dorpsstraat,64,a,,6074GD,Melick,Roerdalen,Limburg,VBO,6.014414,51.156854
Dorpsstraat,64,c,,6074GD,Melick,Roerdalen,Limburg,VBO,6.014694,51.156913
Dorpsstraat,64,,,6074GD,Melick,Roerdalen,Limburg,VBO,6.014143,51.156821
Dorpsstraat,66,,,6074GD,Melick,Roerdalen,Limburg,VBO,6.014817,51.156934
Dorpsstraat,68,a,,6074GD,Melick,Roerdalen,Limburg,VBO,6.015575,51.156393
Dorpsstraat,68,,,6074GD,Melick,Roerdalen,Limburg,VBO,6.015025,51.156978
Dorpsstraat,70,a,,6074GD,Melick,Roerdalen,Limburg,VBO,6.016152,51.156304
Dorpsstraat,70,b,,6074GD,Melick,Roerdalen,Limburg,VBO,6.016408,51.156030
Dorpsstraat,70,,,6074GD,Melick,Roerdalen,Limburg,VBO,6.015173,51.157004
Dorpsstraat,72,,,6074GD,Melick,Roerdalen,Limburg,VBO,6.015434,51.157069
Dorpsstraat,74,,,6074GD,Melick,Roerdalen,Limburg,VBO,6.015611,51.157112
Dorpsstraat,76,a,,6074GD,Melick,Roerdalen,Limburg,VBO,6.016019,51.157206
Dorpsstraat,76,,,6074GD,Melick,Roerdalen,Limburg,VBO,6.015779,51.157151
Dorpsstraat,78,,,6074GD,Melick,Roerdalen,Limburg,VBO,6.016135,51.157273
Dorpsstraat,80,,,6074GD,Melick,Roerdalen,Limburg,VBO,6.016353,51.157313
Dorpsstraat,82,,,6074GD,Melick,Roerdalen,Limburg,VBO,6.016767,51.157398
Dorpsstraat,84,a,,6074GD,Melick,Roerdalen,Limburg,VBO,6.017022,51.157243
Dorpsstraat,84,b,,6074GD,Melick,Roerdalen,Limburg,VBO,6.017042,51.157318
Dorpsstraat,84,c,,6074GD,Melick,Roerdalen,Limburg,VBO,6.017053,51.157280
Dorpsstraat,84,,,6074GD,Melick,Roerdalen,Limburg,VBO,6.017034,51.157348
Dorpsstraat,86,,,6074GD,Melick,Roerdalen,Limburg,VBO,6.017213,51.157450
Dorpsstraat,90,a,,6074GD,Melick,Roerdalen,Limburg,VBO,6.017753,51.157504
Dorpsstraat,90,,,6074GD,Melick,Roerdalen,Limburg,VBO,6.017626,51.157484
Dorpsstraat,92,,TRAF,6074GD,Melick,Roerdalen,Limburg,VBO,6.018378,51.157618
Dorpsstraat,92,,,6074GD,Melick,Roerdalen,Limburg,VBO,6.018035,51.157608
Dorpsstraat,96,,,6074GD,Melick,Roerdalen,Limburg,VBO,6.019210,51.157273
Aan het Raodhoes,8,,,6074GE,Melick,Roerdalen,Limburg,VBO,6.014548,51.157392
Aan het Raodhoes,10,,,6074GE,Melick,Roerdalen,Limburg,VBO,6.014540,51.157407
Aan het Raodhoes,12,,,6074GE,Melick,Roerdalen,Limburg,VBO,6.014532,51.157419
Aan het Raodhoes,14,,,6074GE,Melick,Roerdalen,Limburg,VBO,6.014543,51.157431
Aan het Raodhoes,16,,,6074GE,Melick,Roerdalen,Limburg,VBO,6.014539,51.157441
Aan het Raodhoes,18,,,6074GE,Melick,Roerdalen,Limburg,VBO,6.014535,51.157451
Aan het Raodhoes,20,,,6074GE,Melick,Roerdalen,Limburg,VBO,6.014522,51.157459
Aan het Raodhoes,22,,,6074GE,Melick,Roerdalen,Limburg,VBO,6.014518,51.157470
Aan het Raodhoes,24,,,6074GE,Melick,Roerdalen,Limburg,VBO,6.014510,51.157488
Aan het Raodhoes,26,,,6074GE,Melick,Roerdalen,Limburg,VBO,6.014512,51.157498
Aan het Raodhoes,28,,,6074GE,Melick,Roerdalen,Limburg,VBO,6.014444,51.157696
Aan het Raodhoes,30,,,6074GE,Melick,Roerdalen,Limburg,VBO,6.014431,51.157685
Aan het Raodhoes,32,,,6074GE,Melick,Roerdalen,Limburg,VBO,6.014422,51.157672
Aan het Raodhoes,34,,,6074GE,Melick,Roerdalen,Limburg,VBO,6.014432,51.157657
Aan het Raodhoes,36,,,6074GE,Melick,Roerdalen,Limburg,VBO,6.014434,51.157646
Aan het Raodhoes,38,,,6074GE,Melick,Roerdalen,Limburg,VBO,6.014475,51.157609
Aan het Raodhoes,40,,,6074GE,Melick,Roerdalen,Limburg,VBO,6.014479,51.157595
Aan het Raodhoes,42,,,6074GE,Melick,Roerdalen,Limburg,VBO,6.014470,51.157585
Aan het Raodhoes,44,,,6074GE,Melick,Roerdalen,Limburg,VBO,6.014363,51.157780
Aan het Raodhoes,46,,,6074GE,Melick,Roerdalen,Limburg,VBO,6.014375,51.157769
Aan het Raodhoes,48,,,6074GE,Melick,Roerdalen,Limburg,VBO,6.014377,51.157756
Aan het Raodhoes,50,,,6074GE,Melick,Roerdalen,Limburg,VBO,6.014387,51.157736
Aan het Raodhoes,52,,,6074GE,Melick,Roerdalen,Limburg,VBO,6.014386,51.157723
Aan het Raodhoes,54,,,6074GE,Melick,Roerdalen,Limburg,VBO,6.014389,51.157709
Andreashof,1,,,6074GG,Melick,Roerdalen,Limburg,VBO,6.013239,51.157059
Andreashof,2,,,6074GG,Melick,Roerdalen,Limburg,VBO,6.013239,51.157059
Andreashof,3,,,6074GG,Melick,Roerdalen,Limburg,VBO,6.013239,51.157059
Andreashof,4,,,6074GG,Melick,Roerdalen,Limburg,VBO,6.013239,51.157059
Andreashof,5,,,6074GG,Melick,Roerdalen,Limburg,VBO,6.013239,51.157059
Andreashof,6,,,6074GG,Melick,Roerdalen,Limburg,VBO,6.013239,51.157059
Andreashof,7,,,6074GG,Melick,Roerdalen,Limburg,VBO,6.013239,51.157059
Andreashof,8,,,6074GG,Melick,Roerdalen,Limburg,VBO,6.013239,51.157059
Andreashof,9,,,6074GG,Melick,Roerdalen,Limburg,VBO,6.013239,51.157059
Andreashof,10,,,6074GG,Melick,Roerdalen,Limburg,VBO,6.013239,51.157059
Andreashof,11,,,6074GG,Melick,Roerdalen,Limburg,VBO,6.013239,51.157059
Andreashof,12,,,6074GG,Melick,Roerdalen,Limburg,VBO,6.013239,51.157059
Andreashof,13,,,6074GG,Melick,Roerdalen,Limburg,VBO,6.013239,51.157059
Andreashof,14,,,6074GG,Melick,Roerdalen,Limburg,VBO,6.013239,51.157059
Andreashof,15,,,6074GG,Melick,Roerdalen,Limburg,VBO,6.013239,51.157059
Andreashof,16,,,6074GG,Melick,Roerdalen,Limburg,VBO,6.013239,51.157059
Andreashof,17,,,6074GG,Melick,Roerdalen,Limburg,VBO,6.013239,51.157059
Andreashof,18,,,6074GG,Melick,Roerdalen,Limburg,VBO,6.013239,51.157059
Andreashof,19,,,6074GG,Melick,Roerdalen,Limburg,VBO,6.013239,51.157059
Andreashof,20,,,6074GG,Melick,Roerdalen,Limburg,VBO,6.013239,51.157059
Andreashof,21,,,6074GG,Melick,Roerdalen,Limburg,VBO,6.013239,51.157059
Andreashof,22,,,6074GG,Melick,Roerdalen,Limburg,VBO,6.013239,51.157059
Andreashof,23,,,6074GG,Melick,Roerdalen,Limburg,VBO,6.013239,51.157059
Andreashof,24,,,6074GG,Melick,Roerdalen,Limburg,VBO,6.013239,51.157059
Andreashof,25,,,6074GG,Melick,Roerdalen,Limburg,VBO,6.013239,51.157059
Andreashof,26,,,6074GG,Melick,Roerdalen,Limburg,VBO,6.013239,51.157059
Andreashof,27,,,6074GG,Melick,Roerdalen,Limburg,VBO,6.013239,51.157059
Andreashof,28,,,6074GG,Melick,Roerdalen,Limburg,VBO,6.013239,51.157059
Andreashof,29,,,6074GG,Melick,Roerdalen,Limburg,VBO,6.013239,51.157059
Andreashof,30,,,6074GG,Melick,Roerdalen,Limburg,VBO,6.013239,51.157059
Andreashof,31,,,6074GG,Melick,Roerdalen,Limburg,VBO,6.013239,51.157059
Andreashof,32,,,6074GG,Melick,Roerdalen,Limburg,VBO,6.013239,51.157059
Andreashof,33,,,6074GG,Melick,Roerdalen,Limburg,VBO,6.013239,51.157059
Andreashof,34,,,6074GG,Melick,Roerdalen,Limburg,VBO,6.013239,51.157059
Andreashof,35,,,6074GG,Melick,Roerdalen,Limburg,VBO,6.013239,51.157059
Andreashof,36,,,6074GG,Melick,Roerdalen,Limburg,VBO,6.013239,51.157059
Andreashof,37,,,6074GG,Melick,Roerdalen,Limburg,VBO,6.013239,51.157059
Andreashof,38,,,6074GG,Melick,Roerdalen,Limburg,VBO,6.013239,51.157059
Clauslaan,1,,,6074HB,Melick,Roerdalen,Limburg,VBO,6.013585,51.160692
Clauslaan,3,,,6074HB,Melick,Roerdalen,Limburg,VBO,6.013522,51.160739
Clauslaan,5,,,6074HB,Melick,Roerdalen,Limburg,VBO,6.013460,51.160850
Clauslaan,7,,,6074HB,Melick,Roerdalen,Limburg,VBO,6.013395,51.160899
Roodakker,2,,,6074HD,Melick,Roerdalen,Limburg,VBO,6.009991,51.161614
Roodakker,4,,,6074HD,Melick,Roerdalen,Limburg,VBO,6.009982,51.161870
Roodakker,6,,,6074HD,Melick,Roerdalen,Limburg,VBO,6.010234,51.161886
Roodakker,8,,,6074HD,Melick,Roerdalen,Limburg,VBO,6.010479,51.161898
Roodakker,10,,,6074HD,Melick,Roerdalen,Limburg,VBO,6.010713,51.161912
Roodakker,12,,,6074HD,Melick,Roerdalen,Limburg,VBO,6.010952,51.161958
Roodakker,14,,,6074HD,Melick,Roerdalen,Limburg,VBO,6.011203,51.161986
Roodakker,16,,,6074HD,Melick,Roerdalen,Limburg,VBO,6.011391,51.162047
Roodakker,18,,,6074HD,Melick,Roerdalen,Limburg,VBO,6.011630,51.162127
Roodakker,1,a,,6074HE,Melick,Roerdalen,Limburg,VBO,6.009626,51.161468
Roodakker,1,,,6074HE,Melick,Roerdalen,Limburg,VBO,6.009641,51.161551
Roodakker,3,,,6074HE,Melick,Roerdalen,Limburg,VBO,6.009586,51.161814
Roodakker,5,,,6074HE,Melick,Roerdalen,Limburg,VBO,6.009582,51.161866
Roodakker,7,,,6074HE,Melick,Roerdalen,Limburg,VBO,6.009560,51.161945
Roodakker,15,,,6074HE,Melick,Roerdalen,Limburg,VBO,6.010387,51.162115
Roodakker,17,,,6074HE,Melick,Roerdalen,Limburg,VBO,6.010472,51.162118
Roodakker,19,,,6074HE,Melick,Roerdalen,Limburg,VBO,6.010669,51.162149
Roodakker,21,,,6074HE,Melick,Roerdalen,Limburg,VBO,6.011028,51.162212
Roodakker,23,,,6074HE,Melick,Roerdalen,Limburg,VBO,6.011190,51.162242
Roodakker,25,,,6074HE,Melick,Roerdalen,Limburg,VBO,6.011356,51.162272
Wienkeskoel,6,,,6074HG,Melick,Roerdalen,Limburg,VBO,6.010861,51.162394
Wienkeskoel,8,,,6074HG,Melick,Roerdalen,Limburg,VBO,6.010833,51.162437
Wienkeskoel,10,,,6074HG,Melick,Roerdalen,Limburg,VBO,6.010803,51.162485
Wienkeskoel,12,,,6074HG,Melick,Roerdalen,Limburg,VBO,6.010775,51.162528
Wienkeskoel,14,,,6074HG,Melick,Roerdalen,Limburg,VBO,6.010695,51.162627
Wienkeskoel,16,,,6074HG,Melick,Roerdalen,Limburg,VBO,6.010667,51.162670
Wienkeskoel,18,,,6074HG,Melick,Roerdalen,Limburg,VBO,6.010639,51.162713
Wienkeskoel,20,a,,6074HG,Melick,Roerdalen,Limburg,VBO,6.010424,51.162927
Wienkeskoel,20,,,6074HG,Melick,Roerdalen,Limburg,VBO,6.010609,51.162758
Wienkeskoel,22,,,6074HG,Melick,Roerdalen,Limburg,VBO,6.010388,51.162963
Wienkeskoel,24,,,6074HG,Melick,Roerdalen,Limburg,VBO,6.010290,51.163051
Wienkeskoel,26,,,6074HG,Melick,Roerdalen,Limburg,VBO,6.010245,51.163094
Wienkeskoel,28,,,6074HG,Melick,Roerdalen,Limburg,VBO,6.010162,51.163186
Wienkeskoel,30,,,6074HG,Melick,Roerdalen,Limburg,VBO,6.010117,51.163229
Wienkeskoel,32,a,,6074HG,Melick,Roerdalen,Limburg,VBO,6.009970,51.163365
Wienkeskoel,32,b,,6074HG,Melick,Roerdalen,Limburg,VBO,6.009695,51.163268
Wienkeskoel,32,c,,6074HG,Melick,Roerdalen,Limburg,VBO,6.009729,51.163222
Wienkeskoel,32,d,,6074HG,Melick,Roerdalen,Limburg,VBO,6.009783,51.163149
Wienkeskoel,32,,,6074HG,Melick,Roerdalen,Limburg,VBO,6.010022,51.163317
Wienkeskoel,34,,,6074HG,Melick,Roerdalen,Limburg,VBO,6.009775,51.163034
Wienkeskoel,36,a,,6074HG,Melick,Roerdalen,Limburg,VBO,6.009374,51.162964
Wienkeskoel,36,,,6074HG,Melick,Roerdalen,Limburg,VBO,6.009462,51.162989
Wienkeskoel,38,,,6074HG,Melick,Roerdalen,Limburg,VBO,6.009235,51.162909
Wienkeskoel,40,,,6074HG,Melick,Roerdalen,Limburg,VBO,6.009158,51.162887
Wienkeskoel,42,,,6074HG,Melick,Roerdalen,Limburg,VBO,6.008942,51.162874
Wienkeskoel,44,,,6074HG,Melick,Roerdalen,Limburg,VBO,6.008858,51.162872
Wienkeskoel,46,,,6074HG,Melick,Roerdalen,Limburg,VBO,6.008687,51.162867
Wienkeskoel,48,,,6074HG,Melick,Roerdalen,Limburg,VBO,6.008603,51.162864
Wienkeskoel,50,,,6074HG,Melick,Roerdalen,Limburg,VBO,6.008432,51.162859
Wienkeskoel,52,,,6074HG,Melick,Roerdalen,Limburg,VBO,6.008348,51.162857
Wienkeskoel,58,,,6074HH,Melick,Roerdalen,Limburg,VBO,6.008217,51.162619
Wienkeskoel,60,,,6074HH,Melick,Roerdalen,Limburg,VBO,6.008222,51.162560
Wienkeskoel,62,,,6074HH,Melick,Roerdalen,Limburg,VBO,6.008229,51.162454
Wienkeskoel,64,,,6074HH,Melick,Roerdalen,Limburg,VBO,6.008233,51.162404
Wienkeskoel,66,,,6074HH,Melick,Roerdalen,Limburg,VBO,6.007959,51.162102
Wienkeskoel,68,,,6074HH,Melick,Roerdalen,Limburg,VBO,6.008123,51.162190
Wienkeskoel,70,,,6074HH,Melick,Roerdalen,Limburg,VBO,6.008204,51.162210
Wienkeskoel,72,,,6074HH,Melick,Roerdalen,Limburg,VBO,6.008285,51.162230
Wienkeskoel,74,,,6074HH,Melick,Roerdalen,Limburg,VBO,6.008366,51.162250
Wienkeskoel,94,,,6074HH,Melick,Roerdalen,Limburg,VBO,6.008503,51.162024
Wienkeskoel,96,,,6074HH,Melick,Roerdalen,Limburg,VBO,6.008577,51.161906
Wienkeskoel,98,,,6074HH,Melick,Roerdalen,Limburg,VBO,6.008641,51.161788
Wienkeskoel,100,,,6074HH,Melick,Roerdalen,Limburg,VBO,6.008689,51.161636
Wienkeskoel,102,,,6074HH,Melick,Roerdalen,Limburg,VBO,6.008773,51.161501
Wienkeskoel,104,,,6074HH,Melick,Roerdalen,Limburg,VBO,6.009076,51.161496
Wienkeskoel,106,,,6074HH,Melick,Roerdalen,Limburg,VBO,6.009311,51.161549
Wienkeskoel,3,,,6074HJ,Melick,Roerdalen,Limburg,VBO,6.010534,51.162302
Wienkeskoel,5,,,6074HJ,Melick,Roerdalen,Limburg,VBO,6.010504,51.162348
Wienkeskoel,7,,,6074HJ,Melick,Roerdalen,Limburg,VBO,6.010448,51.162387
Wienkeskoel,9,,,6074HJ,Melick,Roerdalen,Limburg,VBO,6.010419,51.162432
Wienkeskoel,11,,,6074HJ,Melick,Roerdalen,Limburg,VBO,6.010364,51.162468
Wienkeskoel,13,,TRAF,6074HJ,Melick,Roerdalen,Limburg,VBO,6.010315,51.162578
Wienkeskoel,13,,,6074HJ,Melick,Roerdalen,Limburg,VBO,6.010311,51.162513
Wienkeskoel,21,,,6074HJ,Melick,Roerdalen,Limburg,VBO,6.010168,51.162695
Wienkeskoel,23,,,6074HJ,Melick,Roerdalen,Limburg,VBO,6.010088,51.162692
Wienkeskoel,25,,,6074HJ,Melick,Roerdalen,Limburg,VBO,6.009917,51.162678
Wienkeskoel,27,,,6074HJ,Melick,Roerdalen,Limburg,VBO,6.009834,51.162676
Wienkeskoel,29,,,6074HJ,Melick,Roerdalen,Limburg,VBO,6.009662,51.162671
Wienkeskoel,31,,,6074HJ,Melick,Roerdalen,Limburg,VBO,6.009574,51.162668
Wienkeskoel,33,,,6074HJ,Melick,Roerdalen,Limburg,VBO,6.009184,51.162648
Wienkeskoel,35,,,6074HJ,Melick,Roerdalen,Limburg,VBO,6.009100,51.162645
Wienkeskoel,37,,,6074HJ,Melick,Roerdalen,Limburg,VBO,6.008930,51.162622
Wienkeskoel,39,,,6074HJ,Melick,Roerdalen,Limburg,VBO,6.008846,51.162620
Wienkeskoel,41,,,6074HJ,Melick,Roerdalen,Limburg,VBO,6.008672,51.162615
Wienkeskoel,43,,,6074HJ,Melick,Roerdalen,Limburg,VBO,6.008592,51.162612
Wienkeskoel,45,,,6074HK,Melick,Roerdalen,Limburg,VBO,6.008639,51.162380
Wienkeskoel,47,,,6074HK,Melick,Roerdalen,Limburg,VBO,6.008668,51.162334
Wienkeskoel,49,,,6074HK,Melick,Roerdalen,Limburg,VBO,6.008728,51.162237
Wienkeskoel,51,,,6074HK,Melick,Roerdalen,Limburg,VBO,6.008758,51.162188
Wienkeskoel,53,,,6074HK,Melick,Roerdalen,Limburg,VBO,6.008859,51.162103
Wienkeskoel,55,,,6074HK,Melick,Roerdalen,Limburg,VBO,6.008887,51.162057
Wienkeskoel,57,,,6074HK,Melick,Roerdalen,Limburg,VBO,6.008948,51.161959
Wienkeskoel,59,,,6074HK,Melick,Roerdalen,Limburg,VBO,6.008976,51.161914
Wienkeskoel,71,,,6074HK,Melick,Roerdalen,Limburg,VBO,6.009087,51.161703
Wienkeskoel,73,,,6074HK,Melick,Roerdalen,Limburg,VBO,6.009160,51.161721
Wienkeskoel,75,,,6074HK,Melick,Roerdalen,Limburg,VBO,6.009237,51.161740
Wienkeskoel,77,,,6074HK,Melick,Roerdalen,Limburg,VBO,6.009314,51.161759
Melicker Sand Veld,1,,,6074HL,Melick,Roerdalen,Limburg,VBO,6.009683,51.162402
Melicker Sand Veld,2,,,6074HL,Melick,Roerdalen,Limburg,VBO,6.009263,51.162448
Melicker Sand Veld,3,,,6074HL,Melick,Roerdalen,Limburg,VBO,6.009761,51.162387
Melicker Sand Veld,4,,,6074HL,Melick,Roerdalen,Limburg,VBO,6.009267,51.162399
Melicker Sand Veld,5,,,6074HL,Melick,Roerdalen,Limburg,VBO,6.009839,51.162390
Melicker Sand Veld,6,,,6074HL,Melick,Roerdalen,Limburg,VBO,6.009357,51.162353
Melicker Sand Veld,7,,,6074HL,Melick,Roerdalen,Limburg,VBO,6.009918,51.162393
Melicker Sand Veld,8,,,6074HL,Melick,Roerdalen,Limburg,VBO,6.009360,51.162304
Melicker Sand Veld,9,,,6074HL,Melick,Roerdalen,Limburg,VBO,6.009996,51.162395
Melicker Sand Veld,10,,,6074HL,Melick,Roerdalen,Limburg,VBO,6.009364,51.162254
Melicker Sand Veld,11,,,6074HL,Melick,Roerdalen,Limburg,VBO,6.010046,51.162271
Melicker Sand Veld,12,,,6074HL,Melick,Roerdalen,Limburg,VBO,6.009454,51.162205
Melicker Sand Veld,13,,,6074HL,Melick,Roerdalen,Limburg,VBO,6.010050,51.162222
Melicker Sand Veld,14,,,6074HL,Melick,Roerdalen,Limburg,VBO,6.009458,51.162156
Melicker Sand Veld,15,,,6074HL,Melick,Roerdalen,Limburg,VBO,6.010054,51.162170
Melicker Sand Veld,16,,,6074HL,Melick,Roerdalen,Limburg,VBO,6.009462,51.162106
Melicker Sand Veld,17,,,6074HL,Melick,Roerdalen,Limburg,VBO,6.010058,51.162118
Melicker Sand Veld,18,,,6074HL,Melick,Roerdalen,Limburg,VBO,6.009466,51.162057
Peysstraat,1,,,6074HM,Melick,Roerdalen,Limburg,VBO,6.013358,51.162259
Peysstraat,2,,,6074HM,Melick,Roerdalen,Limburg,VBO,6.013022,51.162343
Peysstraat,3,,,6074HM,Melick,Roerdalen,Limburg,VBO,6.013368,51.162345
Peysstraat,4,,,6074HM,Melick,Roerdalen,Limburg,VBO,6.013028,51.162390
Peysstraat,5,,,6074HM,Melick,Roerdalen,Limburg,VBO,6.013395,51.162447
Peysstraat,6,,,6074HM,Melick,Roerdalen,Limburg,VBO,6.013033,51.162436
Peysstraat,7,,,6074HM,Melick,Roerdalen,Limburg,VBO,6.013403,51.162514
Peysstraat,8,,,6074HM,Melick,Roerdalen,Limburg,VBO,6.013039,51.162482
Peysstraat,10,,,6074HM,Melick,Roerdalen,Limburg,VBO,6.013044,51.162523
Peysstraat,12,,,6074HM,Melick,Roerdalen,Limburg,VBO,6.013050,51.162569
Peysstraat,13,,,6074HM,Melick,Roerdalen,Limburg,VBO,6.013187,51.163197
Peysstraat,14,,,6074HM,Melick,Roerdalen,Limburg,VBO,6.013007,51.162711
Peysstraat,15,,,6074HM,Melick,Roerdalen,Limburg,VBO,6.013024,51.163372
Peysstraat,16,,,6074HM,Melick,Roerdalen,Limburg,VBO,6.012979,51.162762
Peysstraat,17,,,6074HM,Melick,Roerdalen,Limburg,VBO,6.012899,51.163455
Peysstraat,18,,,6074HM,Melick,Roerdalen,Limburg,VBO,6.012951,51.162811
Peysstraat,19,,,6074HM,Melick,Roerdalen,Limburg,VBO,6.012808,51.163545
Peysstraat,20,,,6074HM,Melick,Roerdalen,Limburg,VBO,6.012924,51.162860
Peysstraat,21,,,6074HM,Melick,Roerdalen,Limburg,VBO,6.012702,51.163625
Peysstraat,22,,,6074HM,Melick,Roerdalen,Limburg,VBO,6.012855,51.162982
Peysstraat,23,,,6074HM,Melick,Roerdalen,Limburg,VBO,6.012616,51.163690
Peysstraat,24,,,6074HM,Melick,Roerdalen,Limburg,VBO,6.012828,51.163032
Peysstraat,26,,,6074HM,Melick,Roerdalen,Limburg,VBO,6.012797,51.163088
Peysstraat,86,,,6074HM,Melick,Roerdalen,Limburg,VBO,6.015402,51.163972
Peysstraat,87,,,6074HM,Melick,Roerdalen,Limburg,VBO,6.015000,51.163849
Peysstraat,88,,,6074HM,Melick,Roerdalen,Limburg,VBO,6.015393,51.163713
Peysstraat,89,,,6074HM,Melick,Roerdalen,Limburg,VBO,6.015026,51.163641
Peysstraat,90,,,6074HM,Melick,Roerdalen,Limburg,VBO,6.015462,51.163512
Peysstraat,91,,,6074HM,Melick,Roerdalen,Limburg,VBO,6.015086,51.163482
Peysstraat,92,,,6074HM,Melick,Roerdalen,Limburg,VBO,6.015496,51.163340
Peysstraat,93,,,6074HM,Melick,Roerdalen,Limburg,VBO,6.015134,51.163305
Bartelsstraat,1,,,6074HN,Melick,Roerdalen,Limburg,VBO,6.013368,51.162844
Bartelsstraat,2,,,6074HN,Melick,Roerdalen,Limburg,VBO,6.013549,51.162635
Bartelsstraat,3,,,6074HN,Melick,Roerdalen,Limburg,VBO,6.013549,51.162860
Bartelsstraat,4,,,6074HN,Melick,Roerdalen,Limburg,VBO,6.013642,51.162671
Bartelsstraat,5,,,6074HN,Melick,Roerdalen,Limburg,VBO,6.013641,51.162881
Bartelsstraat,6,,,6074HN,Melick,Roerdalen,Limburg,VBO,6.013799,51.162706
Bartelsstraat,7,,,6074HN,Melick,Roerdalen,Limburg,VBO,6.013820,51.162920
Bartelsstraat,8,,,6074HN,Melick,Roerdalen,Limburg,VBO,6.013974,51.162745
Bartelsstraat,9,,,6074HN,Melick,Roerdalen,Limburg,VBO,6.013910,51.162940
Bartelsstraat,10,,,6074HN,Melick,Roerdalen,Limburg,VBO,6.014599,51.162841
Bartelsstraat,11,,,6074HN,Melick,Roerdalen,Limburg,VBO,6.014071,51.162985
Bartelsstraat,12,,,6074HN,Melick,Roerdalen,Limburg,VBO,6.014669,51.162856
Bartelsstraat,14,,,6074HN,Melick,Roerdalen,Limburg,VBO,6.014739,51.162872
Bartelsstraat,15,,,6074HN,Melick,Roerdalen,Limburg,VBO,6.014955,51.163195
Bartelsstraat,16,,,6074HN,Melick,Roerdalen,Limburg,VBO,6.014809,51.162887
Bartelsstraat,18,,,6074HN,Melick,Roerdalen,Limburg,VBO,6.014940,51.162958
Bartelsstraat,20,,,6074HN,Melick,Roerdalen,Limburg,VBO,6.015016,51.162975
Bartelsstraat,22,,,6074HN,Melick,Roerdalen,Limburg,VBO,6.015174,51.163009
Bartelsstraat,24,,,6074HN,Melick,Roerdalen,Limburg,VBO,6.015247,51.163025
Bartelsstraat,26,,,6074HN,Melick,Roerdalen,Limburg,VBO,6.015404,51.163059
Bartelsstraat,28,,,6074HN,Melick,Roerdalen,Limburg,VBO,6.015477,51.163075
Bartelsstraat,30,,,6074HN,Melick,Roerdalen,Limburg,VBO,6.015664,51.163062
Bartelsstraat,32,,,6074HN,Melick,Roerdalen,Limburg,VBO,6.015823,51.163096
Bartelsstraat,34,,,6074HN,Melick,Roerdalen,Limburg,VBO,6.015901,51.163113
Bartelsstraat,36,,,6074HN,Melick,Roerdalen,Limburg,VBO,6.016059,51.163148
Bartelsstraat,38,,,6074HN,Melick,Roerdalen,Limburg,VBO,6.016136,51.163164
Bartelsstraat,40,,,6074HN,Melick,Roerdalen,Limburg,VBO,6.016278,51.163206
Bartelsstraat,42,,,6074HN,Melick,Roerdalen,Limburg,VBO,6.016338,51.163240
Bartelsstraat,44,,,6074HN,Melick,Roerdalen,Limburg,VBO,6.016429,51.163357
Bartelsstraat,46,,,6074HN,Melick,Roerdalen,Limburg,VBO,6.016419,51.163407
Bartelsstraat,48,,,6074HN,Melick,Roerdalen,Limburg,VBO,6.016397,51.163518
Bartelsstraat,50,,,6074HN,Melick,Roerdalen,Limburg,VBO,6.016387,51.163567
Bartelsstraat,52,,,6074HN,Melick,Roerdalen,Limburg,VBO,6.016897,51.163583
Bartelsstraat,54,,,6074HN,Melick,Roerdalen,Limburg,VBO,6.016908,51.163530
Bartelsstraat,56,,,6074HN,Melick,Roerdalen,Limburg,VBO,6.016929,51.163422
Bartelsstraat,58,,,6074HN,Melick,Roerdalen,Limburg,VBO,6.016940,51.163370
Bartelsstraat,60,,,6074HN,Melick,Roerdalen,Limburg,VBO,6.017272,51.163138
Bartelsstraat,62,,,6074HN,Melick,Roerdalen,Limburg,VBO,6.017499,51.163059
Rollstraat,1,,,6074HP,Melick,Roerdalen,Limburg,VBO,6.013878,51.163358
Rollstraat,2,,,6074HP,Melick,Roerdalen,Limburg,VBO,6.014566,51.163140
Rollstraat,4,,,6074HP,Melick,Roerdalen,Limburg,VBO,6.014526,51.163273
Schnorrenbergstraat,1,,,6074HR,Melick,Roerdalen,Limburg,VBO,6.014673,51.162642
Schnorrenbergstraat,3,,,6074HR,Melick,Roerdalen,Limburg,VBO,6.014708,51.162603
Manderscheidtstraat,1,,,6074HS,Melick,Roerdalen,Limburg,VBO,6.015950,51.162401
Manderscheidtstraat,3,,,6074HS,Melick,Roerdalen,Limburg,VBO,6.015927,51.162210
Secklenstraat,2,,,6074HT,Melick,Roerdalen,Limburg,VBO,6.014785,51.162512
Secklenstraat,3,,,6074HT,Melick,Roerdalen,Limburg,VBO,6.014640,51.162287
Secklenstraat,4,,,6074HT,Melick,Roerdalen,Limburg,VBO,6.015073,51.162598
Secklenstraat,5,,,6074HT,Melick,Roerdalen,Limburg,VBO,6.014717,51.162304
Secklenstraat,6,,,6074HT,Melick,Roerdalen,Limburg,VBO,6.015145,51.162614
Secklenstraat,7,,,6074HT,Melick,Roerdalen,Limburg,VBO,6.014968,51.162323
Secklenstraat,8,,,6074HT,Melick,Roerdalen,Limburg,VBO,6.015316,51.162651
Secklenstraat,9,,,6074HT,Melick,Roerdalen,Limburg,VBO,6.015050,51.162319
Secklenstraat,10,,,6074HT,Melick,Roerdalen,Limburg,VBO,6.015381,51.162666
Secklenstraat,11,,,6074HT,Melick,Roerdalen,Limburg,VBO,6.015219,51.162311
Secklenstraat,12,,,6074HT,Melick,Roerdalen,Limburg,VBO,6.015551,51.162703
Secklenstraat,13,,,6074HT,Melick,Roerdalen,Limburg,VBO,6.015304,51.162307
Secklenstraat,14,,,6074HT,Melick,Roerdalen,Limburg,VBO,6.015624,51.162719
Secklenstraat,15,,,6074HT,Melick,Roerdalen,Limburg,VBO,6.015466,51.162301
Secklenstraat,16,,,6074HT,Melick,Roerdalen,Limburg,VBO,6.015867,51.162770
Secklenstraat,17,,,6074HT,Melick,Roerdalen,Limburg,VBO,6.015645,51.162306
Secklenstraat,18,,,6074HT,Melick,Roerdalen,Limburg,VBO,6.016042,51.162770
Secklenstraat,19,,,6074HT,Melick,Roerdalen,Limburg,VBO,6.015991,51.162564
Secklenstraat,20,,,6074HT,Melick,Roerdalen,Limburg,VBO,6.016123,51.162766
Secklenstraat,21,,,6074HT,Melick,Roerdalen,Limburg,VBO,6.016897,51.162712
Secklenstraat,22,,,6074HT,Melick,Roerdalen,Limburg,VBO,6.016346,51.162779
Secklenstraat,23,,,6074HT,Melick,Roerdalen,Limburg,VBO,6.017003,51.162922
Secklenstraat,24,,,6074HT,Melick,Roerdalen,Limburg,VBO,6.016426,51.162796
Secklenstraat,26,,,6074HT,Melick,Roerdalen,Limburg,VBO,6.016601,51.162894
Secklenstraat,28,,,6074HT,Melick,Roerdalen,Limburg,VBO,6.016698,51.163002
Secklenstraat,30,,,6074HT,Melick,Roerdalen,Limburg,VBO,6.016796,51.163111
Secklenstraat,32,,,6074HT,Melick,Roerdalen,Limburg,VBO,6.016893,51.163220
Theissenstraat,1,,,6074HV,Melick,Roerdalen,Limburg,VBO,6.014382,51.162285
Theissenstraat,2,,,6074HV,Melick,Roerdalen,Limburg,VBO,6.013996,51.162461
Theissenstraat,3,,,6074HV,Melick,Roerdalen,Limburg,VBO,6.014354,51.161995
Theissenstraat,4,,,6074HV,Melick,Roerdalen,Limburg,VBO,6.013989,51.162407
Theissenstraat,5,,,6074HV,Melick,Roerdalen,Limburg,VBO,6.014607,51.161993
Theissenstraat,6,,,6074HV,Melick,Roerdalen,Limburg,VBO,6.013974,51.162281
Theissenstraat,7,,,6074HV,Melick,Roerdalen,Limburg,VBO,6.014848,51.161988
Theissenstraat,8,,,6074HV,Melick,Roerdalen,Limburg,VBO,6.013968,51.162228
Theissenstraat,9,,,6074HV,Melick,Roerdalen,Limburg,VBO,6.015080,51.161985
Theissenstraat,11,,,6074HV,Melick,Roerdalen,Limburg,VBO,6.015295,51.161961
Theissenstraat,13,,,6074HV,Melick,Roerdalen,Limburg,VBO,6.015551,51.161926
Theissenstraat,15,,,6074HV,Melick,Roerdalen,Limburg,VBO,6.015949,51.161918
Theissenstraat,17,,,6074HV,Melick,Roerdalen,Limburg,VBO,6.016215,51.161907
Theissenstraat,19,,,6074HV,Melick,Roerdalen,Limburg,VBO,6.016467,51.161886
von Hasseltstraat,1,,,6074HW,Melick,Roerdalen,Limburg,VBO,6.016905,51.162545
von Hasseltstraat,2,,,6074HW,Melick,Roerdalen,Limburg,VBO,6.016548,51.162555
von Hasseltstraat,3,,,6074HW,Melick,Roerdalen,Limburg,VBO,6.016871,51.162390
von Hasseltstraat,4,,,6074HW,Melick,Roerdalen,Limburg,VBO,6.016530,51.162412
von Hasseltstraat,6,,,6074HW,Melick,Roerdalen,Limburg,VBO,6.016515,51.162284
von Hasseltstraat,8,,,6074HW,Melick,Roerdalen,Limburg,VBO,6.016560,51.162138
Conrardusstraat,2,,,6074HX,Melick,Roerdalen,Limburg,VBO,6.012472,51.162568
Conrardusstraat,4,,,6074HX,Melick,Roerdalen,Limburg,VBO,6.012446,51.162398
Conrardusstraat,6,,,6074HX,Melick,Roerdalen,Limburg,VBO,6.012471,51.162456
Conrardusstraat,8,,,6074HX,Melick,Roerdalen,Limburg,VBO,6.012482,51.162500
Conrardusstraat,10,,,6074HX,Melick,Roerdalen,Limburg,VBO,6.012440,51.162421
Conrardusstraat,12,,,6074HX,Melick,Roerdalen,Limburg,VBO,6.012499,51.162514
Conrardusstraat,14,,,6074HX,Melick,Roerdalen,Limburg,VBO,6.012495,51.162441
Conrardusstraat,16,,,6074HX,Melick,Roerdalen,Limburg,VBO,6.012483,51.162473
Conrardusstraat,18,,,6074HX,Melick,Roerdalen,Limburg,VBO,6.012493,51.162531
Conrardusstraat,20,,,6074HX,Melick,Roerdalen,Limburg,VBO,6.012476,51.162547
Conrardusstraat,22,,,6074HX,Melick,Roerdalen,Limburg,VBO,6.012459,51.162560
Conrardusstraat,24,,,6074HX,Melick,Roerdalen,Limburg,VBO,6.012468,51.162433
Conrardusstraat,26,,,6074HX,Melick,Roerdalen,Limburg,VBO,6.012484,51.162484
Conrardusstraat,28,,,6074HX,Melick,Roerdalen,Limburg,VBO,6.012379,51.162759
Conrardusstraat,30,,,6074HX,Melick,Roerdalen,Limburg,VBO,6.012350,51.162812
Conrardusstraat,32,,,6074HX,Melick,Roerdalen,Limburg,VBO,6.012322,51.162863
Conrardusstraat,34,,,6074HX,Melick,Roerdalen,Limburg,VBO,6.012293,51.162916
Conrardusstraat,36,,,6074HX,Melick,Roerdalen,Limburg,VBO,6.012267,51.162964
Conrardusstraat,38,,,6074HX,Melick,Roerdalen,Limburg,VBO,6.012018,51.163231
Conrardusstraat,40,,,6074HX,Melick,Roerdalen,Limburg,VBO,6.012181,51.163327
Conrardusstraat,42,,,6074HX,Melick,Roerdalen,Limburg,VBO,6.012399,51.163422
Kastanjelaan,10,,,6074NC,Melick,Roerdalen,Limburg,VBO,6.039693,51.159760
Kastanjelaan,12,,,6074NC,Melick,Roerdalen,Limburg,VBO,6.040257,51.159808
