openbareruimtenaam,huisnummer,huisletter,huisnummertoevoeging,postcode,woonplaatsnaam,gemeentenaam,provincienaam,typeadresseerbaarobject,longitude,latitude
Brugstraat,1,a,,6096AA,Grathem,Leudal,Limburg,VBO,5.860291,51.188604
Brugstraat,1,,,6096AA,Grathem,Leudal,Limburg,VBO,5.859892,51.188919
Brugstraat,3,,,6096AA,Grathem,Leudal,Limburg,VBO,5.859514,51.189120
Brugstraat,5,,,6096AA,Grathem,Leudal,Limburg,VBO,5.859322,51.189206
Brugstraat,9,,,6096AA,Grathem,Leudal,Limburg,VBO,5.859013,51.189434
Brugstraat,11,,,6096AA,Grathem,Leudal,Limburg,VBO,5.858895,51.189562
Brugstraat,13,a,,6096AA,Grathem,Leudal,Limburg,VBO,5.858570,51.190173
Brugstraat,13,,,6096AA,Grathem,Leudal,Limburg,VBO,5.858408,51.190250
Brugstraat,15,,,6096AA,Grathem,Leudal,Limburg,VBO,5.858182,51.190531
Brugstraat,17,a,,6096AA,Grathem,Leudal,Limburg,VBO,5.857687,51.190877
Brugstraat,17,,,6096AA,Grathem,Leudal,Limburg,VBO,5.857730,51.190811
Brugstraat,19,,,6096AA,Grathem,Leudal,Limburg,VBO,5.857633,51.190955
Brugstraat,21,,,6096AA,Grathem,Leudal,Limburg,VBO,5.857565,51.191294
Brugstraat,2,a,,6096AB,Grathem,Leudal,Limburg,VBO,5.861267,51.186628
Brugstraat,2,b,,6096AB,Grathem,Leudal,Limburg,VBO,5.861158,51.186737
Brugstraat,2,,,6096AB,Grathem,Leudal,Limburg,VBO,5.861392,51.186472
Brugstraat,4,,,6096AB,Grathem,Leudal,Limburg,VBO,5.861021,51.186868
Brugstraat,6,a,,6096AB,Grathem,Leudal,Limburg,VBO,5.860896,51.187207
Brugstraat,6,,,6096AB,Grathem,Leudal,Limburg,VBO,5.860992,51.187096
Brugstraat,8,,,6096AB,Grathem,Leudal,Limburg,VBO,5.860749,51.187302
Brugstraat,10,,,6096AB,Grathem,Leudal,Limburg,VBO,5.860697,51.187336
Brugstraat,12,,,6096AB,Grathem,Leudal,Limburg,VBO,5.860563,51.187435
Brugstraat,14,,,6096AB,Grathem,Leudal,Limburg,VBO,5.860515,51.187480
Brugstraat,16,a,,6096AB,Grathem,Leudal,Limburg,VBO,5.860238,51.187941
Brugstraat,16,,,6096AB,Grathem,Leudal,Limburg,VBO,5.860377,51.187672
Brugstraat,18,,,6096AB,Grathem,Leudal,Limburg,VBO,5.860119,51.188119
Brugstraat,20,,,6096AB,Grathem,Leudal,Limburg,VBO,5.859844,51.188316
Brugstraat,22,,,6096AB,Grathem,Leudal,Limburg,VBO,5.859769,51.188367
Brugstraat,24,,,6096AB,Grathem,Leudal,Limburg,VBO,5.859721,51.188416
Brugstraat,26,a,,6096AB,Grathem,Leudal,Limburg,VBO,5.859405,51.188675
Brugstraat,26,,,6096AB,Grathem,Leudal,Limburg,VBO,5.859676,51.188463
Brugstraat,28,,,6096AB,Grathem,Leudal,Limburg,VBO,5.859174,51.188896
Brugstraat,32,,,6096AB,Grathem,Leudal,Limburg,VBO,5.858643,51.188886
Brugstraat,36,,,6096AC,Grathem,Leudal,Limburg,VBO,5.857952,51.190111
Brugstraat,40,,,6096AC,Grathem,Leudal,Limburg,VBO,5.857513,51.190677
Brugstraat,42,,,6096AC,Grathem,Leudal,Limburg,VBO,5.857379,51.190898
Brugstraat,44,,,6096AC,Grathem,Leudal,Limburg,VBO,5.857336,51.191004
Brugstraat,46,,,6096AC,Grathem,Leudal,Limburg,VBO,5.857288,51.191108
Brugstraat,48,,,6096AC,Grathem,Leudal,Limburg,VBO,5.857264,51.191251
Brugstraat,50,,,6096AC,Grathem,Leudal,Limburg,VBO,5.857092,51.191204
Brugstraat,52,,,6096AC,Grathem,Leudal,Limburg,VBO,5.857167,51.191519
Brugstraat,54,,,6096AC,Grathem,Leudal,Limburg,VBO,5.857044,51.191556
Beeklaan,1,,,6096AD,Grathem,Leudal,Limburg,VBO,5.858914,51.189939
Beeklaan,3,,,6096AD,Grathem,Leudal,Limburg,VBO,5.859292,51.190051
Beeklaan,5,,,6096AD,Grathem,Leudal,Limburg,VBO,5.859555,51.190160
Beeklaan,7,a,,6096AD,Grathem,Leudal,Limburg,VBO,5.860291,51.190055
Beeklaan,7,,,6096AD,Grathem,Leudal,Limburg,VBO,5.860153,51.190370
Beeklaan,9,,,6096AD,Grathem,Leudal,Limburg,VBO,5.860577,51.190504
Beeklaan,11,,,6096AD,Grathem,Leudal,Limburg,VBO,5.861072,51.190673
Beeklaan,13,,,6096AD,Grathem,Leudal,Limburg,VBO,5.861393,51.190788
Beekstraat,1,,,6096AE,Grathem,Leudal,Limburg,VBO,5.859148,51.191571
Beekstraat,2,,,6096AE,Grathem,Leudal,Limburg,VBO,5.859206,51.191695
Beekstraat,3,,,6096AE,Grathem,Leudal,Limburg,VBO,5.859763,51.191543
Beekstraat,4,,,6096AE,Grathem,Leudal,Limburg,VBO,5.859539,51.191722
Beekstraat,5,,,6096AE,Grathem,Leudal,Limburg,VBO,5.860024,51.191455
Beekstraat,6,a,,6096AE,Grathem,Leudal,Limburg,VBO,5.859823,51.191651
Beekstraat,6,,,6096AE,Grathem,Leudal,Limburg,VBO,5.859729,51.191656
Beekstraat,7,,,6096AE,Grathem,Leudal,Limburg,VBO,5.860387,51.191511
Beekstraat,8,,,6096AE,Grathem,Leudal,Limburg,VBO,5.859982,51.191644
Beekstraat,9,,,6096AE,Grathem,Leudal,Limburg,VBO,5.860620,51.191503
Beekstraat,10,,,6096AE,Grathem,Leudal,Limburg,VBO,5.860540,51.191718
Beekstraat,11,,,6096AE,Grathem,Leudal,Limburg,VBO,5.860833,51.191512
Beekstraat,12,,,6096AE,Grathem,Leudal,Limburg,VBO,5.860981,51.191692
Gulden Eind,1,,,6096AG,Grathem,Leudal,Limburg,VBO,5.860427,51.193093
Gulden Eind,2,,,6096AG,Grathem,Leudal,Limburg,VBO,5.860712,51.193144
Gulden Eind,3,,,6096AG,Grathem,Leudal,Limburg,VBO,5.860542,51.192972
Gulden Eind,4,,,6096AG,Grathem,Leudal,Limburg,VBO,5.860863,51.192996
Gulden Eind,5,,,6096AG,Grathem,Leudal,Limburg,VBO,5.860632,51.192876
Gulden Eind,6,,,6096AG,Grathem,Leudal,Limburg,VBO,5.860974,51.192880
Gulden Eind,7,,,6096AG,Grathem,Leudal,Limburg,VBO,5.860704,51.192640
Gulden Eind,8,,,6096AG,Grathem,Leudal,Limburg,VBO,5.861024,51.192829
Gulden Eind,9,,,6096AG,Grathem,Leudal,Limburg,VBO,5.860915,51.192402
Gulden Eind,10,,,6096AG,Grathem,Leudal,Limburg,VBO,5.861124,51.192725
Gulden Eind,11,,,6096AG,Grathem,Leudal,Limburg,VBO,5.861108,51.192381
Gulden Eind,12,,,6096AG,Grathem,Leudal,Limburg,VBO,5.861156,51.192612
Gulden Eind,13,,,6096AG,Grathem,Leudal,Limburg,VBO,5.861218,51.192211
Gulden Eind,14,,,6096AG,Grathem,Leudal,Limburg,VBO,5.861313,51.192458
Gulden Eind,15,,,6096AG,Grathem,Leudal,Limburg,VBO,5.861291,51.192077
Gulden Eind,17,,,6096AG,Grathem,Leudal,Limburg,VBO,5.861320,51.191944
Gulden Eind,18,,,6096AG,Grathem,Leudal,Limburg,VBO,5.861675,51.192189
Gulden Eind,19,,,6096AG,Grathem,Leudal,Limburg,VBO,5.861356,51.191752
Gulden Eind,20,,,6096AG,Grathem,Leudal,Limburg,VBO,5.861742,51.191952
Gulden Eind,22,,,6096AG,Grathem,Leudal,Limburg,VBO,5.861782,51.191727
Dorpstraat,1,a,,6096AH,Grathem,Leudal,Limburg,VBO,5.857499,51.191433
Dorpstraat,1,b,,6096AH,Grathem,Leudal,Limburg,VBO,5.857649,51.191441
Dorpstraat,1,c,,6096AH,Grathem,Leudal,Limburg,VBO,5.857487,51.191381
Dorpstraat,1,d,,6096AH,Grathem,Leudal,Limburg,VBO,5.857767,51.191451
Dorpstraat,1,,,6096AH,Grathem,Leudal,Limburg,VBO,5.857947,51.191539
Dorpstraat,5,,,6096AH,Grathem,Leudal,Limburg,VBO,5.858207,51.191521
Dorpstraat,7,,,6096AH,Grathem,Leudal,Limburg,VBO,5.858569,51.191528
Dorpstraat,9,,,6096AH,Grathem,Leudal,Limburg,VBO,5.858848,51.191566
Dorpstraat,11,,,6096AH,Grathem,Leudal,Limburg,VBO,5.859207,51.192077
Dorpstraat,13,,,6096AH,Grathem,Leudal,Limburg,VBO,5.859262,51.192178
Dorpstraat,15,,,6096AH,Grathem,Leudal,Limburg,VBO,5.859372,51.192305
Dorpstraat,17,a,,6096AH,Grathem,Leudal,Limburg,VBO,5.859656,51.192548
Dorpstraat,17,,,6096AH,Grathem,Leudal,Limburg,VBO,5.859590,51.192450
Dorpstraat,19,,,6096AH,Grathem,Leudal,Limburg,VBO,5.859691,51.192762
Dorpstraat,21,,,6096AH,Grathem,Leudal,Limburg,VBO,5.859875,51.192904
Dorpstraat,23,,,6096AH,Grathem,Leudal,Limburg,VBO,5.859896,51.193137
Dorpstraat,25,,,6096AH,Grathem,Leudal,Limburg,VBO,5.859968,51.193168
Dorpstraat,29,,,6096AH,Grathem,Leudal,Limburg,VBO,5.860153,51.193304
Dorpstraat,2,,,6096AJ,Grathem,Leudal,Limburg,VBO,5.857434,51.191688
Dorpstraat,4,,,6096AJ,Grathem,Leudal,Limburg,VBO,5.857573,51.191685
Dorpstraat,6,,,6096AJ,Grathem,Leudal,Limburg,VBO,5.857711,51.191682
Dorpstraat,8,,,6096AJ,Grathem,Leudal,Limburg,VBO,5.857984,51.191688
Dorpstraat,10,,,6096AJ,Grathem,Leudal,Limburg,VBO,5.858157,51.191664
Dorpstraat,12,,,6096AJ,Grathem,Leudal,Limburg,VBO,5.858322,51.191642
Dorpstraat,14,,,6096AJ,Grathem,Leudal,Limburg,VBO,5.858537,51.191650
Dorpstraat,16,,,6096AJ,Grathem,Leudal,Limburg,VBO,5.858819,51.191766
Dorpstraat,18,,,6096AJ,Grathem,Leudal,Limburg,VBO,5.858807,51.192003
Dorpstraat,20,a,,6096AJ,Grathem,Leudal,Limburg,VBO,5.859047,51.192288
Dorpstraat,20,,,6096AJ,Grathem,Leudal,Limburg,VBO,5.859006,51.192226
Dorpstraat,22,a,,6096AJ,Grathem,Leudal,Limburg,VBO,5.859035,51.192403
Dorpstraat,22,,,6096AJ,Grathem,Leudal,Limburg,VBO,5.859035,51.192405
Dorpstraat,26,,,6096AJ,Grathem,Leudal,Limburg,VBO,5.859761,51.193272
Kerkplein,1,a,,6096AK,Grathem,Leudal,Limburg,VBO,5.858825,51.190764
Kerkplein,1,,,6096AK,Grathem,Leudal,Limburg,VBO,5.858608,51.190751
Kerkplein,2,,,6096AK,Grathem,Leudal,Limburg,VBO,5.858843,51.191174
Kerkplein,3,,,6096AK,Grathem,Leudal,Limburg,VBO,5.858253,51.191194
Kerkplein,4,a,,6096AK,Grathem,Leudal,Limburg,VBO,5.857997,51.191317
Kerkplein,4,,,6096AK,Grathem,Leudal,Limburg,VBO,5.857956,51.191176
Kerkplein,5,,,6096AK,Grathem,Leudal,Limburg,VBO,5.857982,51.191116
Kerkplein,6,,,6096AK,Grathem,Leudal,Limburg,VBO,5.858012,51.191059
Kerkplein,7,,,6096AK,Grathem,Leudal,Limburg,VBO,5.858106,51.191013
Kerkplein,8,,,6096AK,Grathem,Leudal,Limburg,VBO,5.858131,51.190954
Markt,1,,,6096AL,Grathem,Leudal,Limburg,VBO,5.860506,51.193468
Markt,2,a,,6096AL,Grathem,Leudal,Limburg,VBO,5.859994,51.193524
Markt,2,,,6096AL,Grathem,Leudal,Limburg,VBO,5.859881,51.193438
Markt,3,a,,6096AL,Grathem,Leudal,Limburg,VBO,5.860571,51.193957
Markt,3,,,6096AL,Grathem,Leudal,Limburg,VBO,5.860465,51.193781
Markt,4,,,6096AL,Grathem,Leudal,Limburg,VBO,5.860027,51.193662
Markt,5,,,6096AL,Grathem,Leudal,Limburg,VBO,5.860830,51.194284
Markt,6,,,6096AL,Grathem,Leudal,Limburg,VBO,5.860044,51.193778
Markt,8,a,,6096AL,Grathem,Leudal,Limburg,VBO,5.859144,51.193905
Markt,8,,,6096AL,Grathem,Leudal,Limburg,VBO,5.859900,51.194003
Bosstraat,1,a,,6096AM,Grathem,Leudal,Limburg,VBO,5.860674,51.194014
Bosstraat,1,b,,6096AM,Grathem,Leudal,Limburg,VBO,5.860907,51.194005
Bosstraat,1,,,6096AM,Grathem,Leudal,Limburg,VBO,5.861357,51.194327
Bosstraat,2,a,,6096AM,Grathem,Leudal,Limburg,VBO,5.862531,51.195684
Bosstraat,2,b,,6096AM,Grathem,Leudal,Limburg,VBO,5.861656,51.195074
Bosstraat,2,c,,6096AM,Grathem,Leudal,Limburg,VBO,5.862337,51.195846
Bosstraat,2,d,,6096AM,Grathem,Leudal,Limburg,VBO,5.861374,51.194738
Bosstraat,2,e,,6096AM,Grathem,Leudal,Limburg,VBO,5.861968,51.195230
Bosstraat,2,f,,6096AM,Grathem,Leudal,Limburg,VBO,5.862348,51.195740
Bosstraat,2,,,6096AM,Grathem,Leudal,Limburg,VBO,5.862562,51.195312
Bosstraat,3,a,,6096AM,Grathem,Leudal,Limburg,VBO,5.867990,51.197091
Bosstraat,3,,,6096AM,Grathem,Leudal,Limburg,VBO,5.868017,51.196560
Bosstraat,4,,,6096AM,Grathem,Leudal,Limburg,VBO,5.866171,51.196407
Kapittelsbosch,1,,,6096AN,Grathem,Leudal,Limburg,VBO,5.866604,51.198015
Baexemerweg,1,,,6096AP,Grathem,Leudal,Limburg,VBO,5.860886,51.194601
Baexemerweg,3,,,6096AP,Grathem,Leudal,Limburg,VBO,5.860863,51.194794
Baexemerweg,5,,,6096AP,Grathem,Leudal,Limburg,VBO,5.860972,51.194982
Baexemerweg,7,a,,6096AP,Grathem,Leudal,Limburg,VBO,5.861117,51.195233
Baexemerweg,7,,,6096AP,Grathem,Leudal,Limburg,VBO,5.861038,51.195120
Baexemerweg,9,a,,6096AP,Grathem,Leudal,Limburg,VBO,5.861384,51.195544
Baexemerweg,9,,,6096AP,Grathem,Leudal,Limburg,VBO,5.861195,51.195383
Baexemerweg,11,,,6096AP,Grathem,Leudal,Limburg,VBO,5.861429,51.195763
Baexemerweg,13,,,6096AP,Grathem,Leudal,Limburg,VBO,5.861529,51.195920
Baexemerweg,15,,,6096AP,Grathem,Leudal,Limburg,VBO,5.861569,51.195981
Baexemerweg,17,a,,6096AP,Grathem,Leudal,Limburg,VBO,5.861834,51.196317
Baexemerweg,17,,,6096AP,Grathem,Leudal,Limburg,VBO,5.861683,51.196140
Baexemerweg,19,,,6096AP,Grathem,Leudal,Limburg,VBO,5.861916,51.196527
Baexemerweg,21,,,6096AP,Grathem,Leudal,Limburg,VBO,5.864554,51.200494
Baexemerweg,23,,,6096AP,Grathem,Leudal,Limburg,VBO,5.864958,51.200416
Baexemerweg,25,a,,6096AP,Grathem,Leudal,Limburg,VBO,5.865589,51.201495
Baexemerweg,25,b,,6096AP,Grathem,Leudal,Limburg,VBO,5.868205,51.203337
Baexemerweg,25,,,6096AP,Grathem,Leudal,Limburg,VBO,5.865556,51.201253
Baexemerweg,27,a,,6096AP,Grathem,Leudal,Limburg,VBO,5.874089,51.208462
Baexemerweg,27,b,,6096AP,Grathem,Leudal,Limburg,VBO,5.872275,51.207078
Baexemerweg,27,,,6096AP,Grathem,Leudal,Limburg,VBO,5.873448,51.208369
Baexemerweg,29,a,,6096AP,Grathem,Leudal,Limburg,VBO,5.875810,51.209778
Baexemerweg,29,,,6096AP,Grathem,Leudal,Limburg,VBO,5.875757,51.210138
Baexemerweg,2,,,6096AR,Grathem,Leudal,Limburg,VBO,5.860499,51.194523
Baexemerweg,4,a,,6096AR,Grathem,Leudal,Limburg,VBO,5.860649,51.194903
Baexemerweg,4,,,6096AR,Grathem,Leudal,Limburg,VBO,5.860605,51.194806
Baexemerweg,6,a,,6096AR,Grathem,Leudal,Limburg,VBO,5.860736,51.195137
Baexemerweg,6,,,6096AR,Grathem,Leudal,Limburg,VBO,5.860693,51.195000
Baexemerweg,8,,,6096AR,Grathem,Leudal,Limburg,VBO,5.860776,51.195289
Baexemerweg,10,,,6096AR,Grathem,Leudal,Limburg,VBO,5.860952,51.195447
Baexemerweg,12,a,,6096AR,Grathem,Leudal,Limburg,VBO,5.861051,51.195710
Baexemerweg,12,,,6096AR,Grathem,Leudal,Limburg,VBO,5.860974,51.195592
Baexemerweg,14,a,,6096AR,Grathem,Leudal,Limburg,VBO,5.861216,51.196057
Baexemerweg,14,,,6096AR,Grathem,Leudal,Limburg,VBO,5.861094,51.195904
Baexemerweg,16,,,6096AR,Grathem,Leudal,Limburg,VBO,5.861440,51.196253
Baexemerweg,18,,,6096AR,Grathem,Leudal,Limburg,VBO,5.861497,51.196516
Baexemerweg,20,,,6096AR,Grathem,Leudal,Limburg,VBO,5.861682,51.196696
Baexemerweg,22,,,6096AR,Grathem,Leudal,Limburg,VBO,5.861814,51.197006
Baexemerweg,24,,,6096AR,Grathem,Leudal,Limburg,VBO,5.861940,51.197196
Baexemerweg,26,,,6096AR,Grathem,Leudal,Limburg,VBO,5.862074,51.197364
Baexemerweg,28,,,6096AR,Grathem,Leudal,Limburg,VBO,5.862136,51.197544
Baexemerweg,30,,,6096AR,Grathem,Leudal,Limburg,VBO,5.862322,51.197746
Baexemerweg,32,,,6096AR,Grathem,Leudal,Limburg,VBO,5.862462,51.197962
Baexemerweg,34,,,6096AR,Grathem,Leudal,Limburg,VBO,5.862540,51.198087
Baexemerweg,36,a,,6096AR,Grathem,Leudal,Limburg,VBO,5.862469,51.198412
Baexemerweg,36,,,6096AR,Grathem,Leudal,Limburg,VBO,5.862633,51.198291
Baexemerweg,38,,,6096AR,Grathem,Leudal,Limburg,VBO,5.864370,51.200828
Baexemerweg,40,a,,6096AR,Grathem,Leudal,Limburg,VBO,5.861353,51.206529
Baexemerweg,40,,,6096AR,Grathem,Leudal,Limburg,VBO,5.861194,51.205371
Baexemerweg,42,,,6096AR,Grathem,Leudal,Limburg,VBO,5.867788,51.204174
Baexemerweg,44,,,6096AR,Grathem,Leudal,Limburg,VBO,5.867183,51.205988
Baexemerweg,46,,,6096AR,Grathem,Leudal,Limburg,VBO,5.872600,51.209493
Baexemerweg,48,,,6096AR,Grathem,Leudal,Limburg,VBO,5.874509,51.211578
Schoolstraat,1,a,,6096AS,Grathem,Leudal,Limburg,VBO,5.859122,51.192959
Schoolstraat,1,,,6096AS,Grathem,Leudal,Limburg,VBO,5.859366,51.192946
Schoolstraat,2,a,,6096AS,Grathem,Leudal,Limburg,VBO,5.859011,51.192650
Schoolstraat,2,b,,6096AS,Grathem,Leudal,Limburg,VBO,5.859074,51.192634
Schoolstraat,2,c,,6096AS,Grathem,Leudal,Limburg,VBO,5.859127,51.192667
Schoolstraat,2,d,,6096AS,Grathem,Leudal,Limburg,VBO,5.858855,51.192656
Schoolstraat,2,e,,6096AS,Grathem,Leudal,Limburg,VBO,5.859106,51.192632
Schoolstraat,2,f,,6096AS,Grathem,Leudal,Limburg,VBO,5.859044,51.192640
Schoolstraat,2,g,,6096AS,Grathem,Leudal,Limburg,VBO,5.858954,51.192659
Schoolstraat,2,h,,6096AS,Grathem,Leudal,Limburg,VBO,5.858662,51.192669
Schoolstraat,2,,,6096AS,Grathem,Leudal,Limburg,VBO,5.859060,51.192628
Schoolstraat,3,,,6096AS,Grathem,Leudal,Limburg,VBO,5.858898,51.192921
Schoolstraat,4,,,6096AS,Grathem,Leudal,Limburg,VBO,5.858449,51.192708
Schoolstraat,5,,,6096AS,Grathem,Leudal,Limburg,VBO,5.858666,51.192924
Schoolstraat,6,,,6096AS,Grathem,Leudal,Limburg,VBO,5.858359,51.192705
Schoolstraat,7,a,,6096AS,Grathem,Leudal,Limburg,VBO,5.858317,51.193111
Schoolstraat,7,,,6096AS,Grathem,Leudal,Limburg,VBO,5.858440,51.192919
Schoolstraat,8,,,6096AS,Grathem,Leudal,Limburg,VBO,5.858133,51.192694
Schoolstraat,9,,,6096AS,Grathem,Leudal,Limburg,VBO,5.858174,51.192910
Schoolstraat,10,,,6096AS,Grathem,Leudal,Limburg,VBO,5.857974,51.192668
Schoolstraat,11,,,6096AS,Grathem,Leudal,Limburg,VBO,5.857929,51.192876
Schoolstraat,12,,,6096AS,Grathem,Leudal,Limburg,VBO,5.857812,51.192638
Schoolstraat,13,,,6096AS,Grathem,Leudal,Limburg,VBO,5.857722,51.192844
Schoolstraat,14,,,6096AS,Grathem,Leudal,Limburg,VBO,5.857641,51.192607
Schoolstraat,15,,,6096AS,Grathem,Leudal,Limburg,VBO,5.857528,51.192809
Schoolstraat,18,a,,6096AS,Grathem,Leudal,Limburg,VBO,5.856976,51.192476
Schoolstraat,18,,,6096AS,Grathem,Leudal,Limburg,VBO,5.856932,51.192458
Prinses Beatrixstraat,1,,,6096AT,Grathem,Leudal,Limburg,VBO,5.856812,51.193070
Prinses Beatrixstraat,2,a,,6096AT,Grathem,Leudal,Limburg,VBO,5.856498,51.192984
Prinses Beatrixstraat,2,b,,6096AT,Grathem,Leudal,Limburg,VBO,5.856515,51.193091
Prinses Beatrixstraat,2,c,,6096AT,Grathem,Leudal,Limburg,VBO,5.856520,51.193159
Prinses Beatrixstraat,2,,,6096AT,Grathem,Leudal,Limburg,VBO,5.856490,51.192922
Prinses Beatrixstraat,3,,,6096AT,Grathem,Leudal,Limburg,VBO,5.856820,51.193125
Prinses Beatrixstraat,4,,,6096AT,Grathem,Leudal,Limburg,VBO,5.856559,51.193346
Prinses Beatrixstraat,5,,,6096AT,Grathem,Leudal,Limburg,VBO,5.856835,51.193251
Prinses Beatrixstraat,6,,,6096AT,Grathem,Leudal,Limburg,VBO,5.856567,51.193410
Prinses Beatrixstraat,7,,,6096AT,Grathem,Leudal,Limburg,VBO,5.856843,51.193305
Prinses Beatrixstraat,8,,,6096AT,Grathem,Leudal,Limburg,VBO,5.856582,51.193545
Prinses Beatrixstraat,9,,,6096AT,Grathem,Leudal,Limburg,VBO,5.856860,51.193437
Prinses Beatrixstraat,10,,,6096AT,Grathem,Leudal,Limburg,VBO,5.856589,51.193604
Prinses Beatrixstraat,11,,,6096AT,Grathem,Leudal,Limburg,VBO,5.856868,51.193496
Prinses Beatrixstraat,12,,,6096AT,Grathem,Leudal,Limburg,VBO,5.856597,51.193746
Prinses Beatrixstraat,13,,,6096AT,Grathem,Leudal,Limburg,VBO,5.856885,51.193633
Prinses Beatrixstraat,14,,,6096AT,Grathem,Leudal,Limburg,VBO,5.856598,51.193812
Prinses Beatrixstraat,15,,,6096AT,Grathem,Leudal,Limburg,VBO,5.856893,51.193697
Prinses Beatrixstraat,17,,,6096AT,Grathem,Leudal,Limburg,VBO,5.856913,51.193815
Prinses Beatrixstraat,19,,,6096AT,Grathem,Leudal,Limburg,VBO,5.856919,51.193873
Prinses Beatrixstraat,21,,,6096AT,Grathem,Leudal,Limburg,VBO,5.856938,51.194058
Koningin Julianastraat,1,,,6096AV,Grathem,Leudal,Limburg,VBO,5.855012,51.193580
Koningin Julianastraat,3,,,6096AV,Grathem,Leudal,Limburg,VBO,5.855162,51.193661
Koningin Julianastraat,5,,,6096AV,Grathem,Leudal,Limburg,VBO,5.855235,51.193692
Koningin Julianastraat,7,,,6096AV,Grathem,Leudal,Limburg,VBO,5.855310,51.193723
Koningin Julianastraat,9,,,6096AV,Grathem,Leudal,Limburg,VBO,5.855383,51.193753
Koningin Julianastraat,11,,,6096AV,Grathem,Leudal,Limburg,VBO,5.855542,51.193813
Koningin Julianastraat,13,,,6096AV,Grathem,Leudal,Limburg,VBO,5.855620,51.193840
Koningin Julianastraat,15,,,6096AV,Grathem,Leudal,Limburg,VBO,5.855697,51.193868
Koningin Julianastraat,17,,,6096AV,Grathem,Leudal,Limburg,VBO,5.855775,51.193894
Koningin Julianastraat,19,,,6096AV,Grathem,Leudal,Limburg,VBO,5.855933,51.193943
Koningin Julianastraat,21,,,6096AV,Grathem,Leudal,Limburg,VBO,5.856014,51.193965
Koningin Julianastraat,23,,,6096AV,Grathem,Leudal,Limburg,VBO,5.856095,51.193988
Koningin Julianastraat,25,,,6096AV,Grathem,Leudal,Limburg,VBO,5.856177,51.194011
Koningin Julianastraat,27,,,6096AV,Grathem,Leudal,Limburg,VBO,5.856478,51.194069
Koningin Julianastraat,29,,,6096AV,Grathem,Leudal,Limburg,VBO,5.856535,51.194067
Koningin Julianastraat,2,,,6096AW,Grathem,Leudal,Limburg,VBO,5.854733,51.193740
Koningin Julianastraat,4,,,6096AW,Grathem,Leudal,Limburg,VBO,5.854811,51.193775
Koningin Julianastraat,6,,,6096AW,Grathem,Leudal,Limburg,VBO,5.854952,51.193836
Koningin Julianastraat,8,,,6096AW,Grathem,Leudal,Limburg,VBO,5.855107,51.193901
Koningin Julianastraat,10,a,,6096AW,Grathem,Leudal,Limburg,VBO,5.855365,51.194082
Koningin Julianastraat,10,,,6096AW,Grathem,Leudal,Limburg,VBO,5.855267,51.193958
Koningin Julianastraat,12,,,6096AW,Grathem,Leudal,Limburg,VBO,5.855543,51.194064
Koningin Julianastraat,14,,,6096AW,Grathem,Leudal,Limburg,VBO,5.855707,51.194117
Koningin Julianastraat,16,,,6096AW,Grathem,Leudal,Limburg,VBO,5.855789,51.194141
Koningin Julianastraat,18,,,6096AW,Grathem,Leudal,Limburg,VBO,5.855957,51.194188
Koningin Julianastraat,20,,,6096AW,Grathem,Leudal,Limburg,VBO,5.856038,51.194210
Koningin Julianastraat,22,,,6096AW,Grathem,Leudal,Limburg,VBO,5.856122,51.194231
Koningin Julianastraat,24,,,6096AW,Grathem,Leudal,Limburg,VBO,5.856203,51.194251
Koningin Julianastraat,26,,,6096AW,Grathem,Leudal,Limburg,VBO,5.856419,51.194357
Prinses Margrietstraat,1,,,6096AX,Grathem,Leudal,Limburg,VBO,5.857391,51.194137
Prinses Margrietstraat,2,,,6096AX,Grathem,Leudal,Limburg,VBO,5.856829,51.194399
Prinses Margrietstraat,3,,,6096AX,Grathem,Leudal,Limburg,VBO,5.857607,51.194143
Prinses Margrietstraat,4,,,6096AX,Grathem,Leudal,Limburg,VBO,5.857037,51.194394
Prinses Margrietstraat,5,,,6096AX,Grathem,Leudal,Limburg,VBO,5.858672,51.194209
Prinses Margrietstraat,6,,,6096AX,Grathem,Leudal,Limburg,VBO,5.857139,51.194402
Prinses Margrietstraat,7,,,6096AX,Grathem,Leudal,Limburg,VBO,5.858931,51.194202
Prinses Margrietstraat,8,,,6096AX,Grathem,Leudal,Limburg,VBO,5.857331,51.194416
Prinses Margrietstraat,9,,,6096AX,Grathem,Leudal,Limburg,VBO,5.859055,51.194215
Prinses Margrietstraat,10,,,6096AX,Grathem,Leudal,Limburg,VBO,5.857424,51.194421
Prinses Margrietstraat,11,,,6096AX,Grathem,Leudal,Limburg,VBO,5.859290,51.194195
Prinses Margrietstraat,12,,,6096AX,Grathem,Leudal,Limburg,VBO,5.857619,51.194429
Prinses Margrietstraat,13,,,6096AX,Grathem,Leudal,Limburg,VBO,5.859466,51.194207
Prinses Margrietstraat,14,,,6096AX,Grathem,Leudal,Limburg,VBO,5.857722,51.194430
Prinses Margrietstraat,15,,,6096AX,Grathem,Leudal,Limburg,VBO,5.859836,51.194200
Prinses Margrietstraat,16,,,6096AX,Grathem,Leudal,Limburg,VBO,5.857918,51.194432
Prinses Margrietstraat,18,,,6096AX,Grathem,Leudal,Limburg,VBO,5.858018,51.194434
Prinses Margrietstraat,20,,,6096AX,Grathem,Leudal,Limburg,VBO,5.858211,51.194435
Prinses Margrietstraat,22,,,6096AX,Grathem,Leudal,Limburg,VBO,5.858312,51.194435
Prinses Margrietstraat,24,,,6096AX,Grathem,Leudal,Limburg,VBO,5.859084,51.194476
Prinses Margrietstraat,26,,,6096AX,Grathem,Leudal,Limburg,VBO,5.859366,51.194478
Prinses Margrietstraat,28,,,6096AX,Grathem,Leudal,Limburg,VBO,5.859490,51.194479
Prinses Margrietstraat,30,,,6096AX,Grathem,Leudal,Limburg,VBO,5.859706,51.194462
Prinses Margrietstraat,32,,,6096AX,Grathem,Leudal,Limburg,VBO,5.859831,51.194462
Nassauplein,2,,,6096AZ,Grathem,Leudal,Limburg,VBO,5.857634,51.193585
Nassauplein,3,,,6096AZ,Grathem,Leudal,Limburg,VBO,5.857659,51.193922
Nassauplein,4,,,6096AZ,Grathem,Leudal,Limburg,VBO,5.857860,51.193594
Nassauplein,6,,,6096AZ,Grathem,Leudal,Limburg,VBO,5.858142,51.193606
Nassauplein,8,,,6096AZ,Grathem,Leudal,Limburg,VBO,5.858474,51.193686
Nassauplein,10,,,6096AZ,Grathem,Leudal,Limburg,VBO,5.858706,51.193802
Nassauplein,12,,,6096AZ,Grathem,Leudal,Limburg,VBO,5.858756,51.193906
Pr Willem Alexanderstr,1,,,6096BA,Grathem,Leudal,Limburg,VBO,5.859082,51.194578
Pr Willem Alexanderstr,3,,,6096BA,Grathem,Leudal,Limburg,VBO,5.859045,51.194713
Pr Willem Alexanderstr,5,,,6096BA,Grathem,Leudal,Limburg,VBO,5.859044,51.194791
Pr Willem Alexanderstr,7,,,6096BA,Grathem,Leudal,Limburg,VBO,5.859006,51.194925
Pr Willem Alexanderstr,9,,,6096BA,Grathem,Leudal,Limburg,VBO,5.859004,51.195003
Pr Willem Alexanderstr,11,,,6096BA,Grathem,Leudal,Limburg,VBO,5.858798,51.195077
Pr Willem Alexanderstr,13,,,6096BA,Grathem,Leudal,Limburg,VBO,5.858675,51.195076
Pr Willem Alexanderstr,15,,,6096BA,Grathem,Leudal,Limburg,VBO,5.858459,51.195075
Pr Willem Alexanderstr,17,,,6096BA,Grathem,Leudal,Limburg,VBO,5.857841,51.195099
Pr Willem Alexanderstr,19,,,6096BA,Grathem,Leudal,Limburg,VBO,5.857750,51.195101
Pr Willem Alexanderstr,21,,,6096BA,Grathem,Leudal,Limburg,VBO,5.857568,51.195105
Pr Willem Alexanderstr,23,,,6096BA,Grathem,Leudal,Limburg,VBO,5.857477,51.195107
Pr Willem Alexanderstr,25,,,6096BA,Grathem,Leudal,Limburg,VBO,5.857314,51.195118
Pr Willem Alexanderstr,27,,,6096BA,Grathem,Leudal,Limburg,VBO,5.857201,51.195105
Pr Willem Alexanderstr,29,,,6096BA,Grathem,Leudal,Limburg,VBO,5.857016,51.195093
Pr Willem Alexanderstr,31,,,6096BA,Grathem,Leudal,Limburg,VBO,5.856740,51.195144
Pr Willem Alexanderstr,33,,,6096BA,Grathem,Leudal,Limburg,VBO,5.856672,51.195180
Pr Willem Alexanderstr,35,,,6096BB,Grathem,Leudal,Limburg,VBO,5.856180,51.194935
Pr Willem Alexanderstr,37,,,6096BB,Grathem,Leudal,Limburg,VBO,5.856094,51.194917
Pr Willem Alexanderstr,39,,,6096BB,Grathem,Leudal,Limburg,VBO,5.855921,51.194881
Pr Willem Alexanderstr,41,,,6096BB,Grathem,Leudal,Limburg,VBO,5.855835,51.194862
Pr Willem Alexanderstr,43,,,6096BB,Grathem,Leudal,Limburg,VBO,5.855070,51.194687
Pr Willem Alexanderstr,45,,,6096BB,Grathem,Leudal,Limburg,VBO,5.854940,51.194637
Pr Willem Alexanderstr,47,,,6096BB,Grathem,Leudal,Limburg,VBO,5.854709,51.194548
Pr Willem Alexanderstr,49,,,6096BB,Grathem,Leudal,Limburg,VBO,5.854576,51.194499
Pr Willem Alexanderstr,51,,,6096BB,Grathem,Leudal,Limburg,VBO,5.854342,51.194410
Pr Willem Alexanderstr,53,,,6096BB,Grathem,Leudal,Limburg,VBO,5.853939,51.194165
Pr Willem Alexanderstr,55,,,6096BB,Grathem,Leudal,Limburg,VBO,5.853663,51.194021
Pr Willem Alexanderstr,2,,,6096BC,Grathem,Leudal,Limburg,VBO,5.858683,51.194440
Pr Willem Alexanderstr,4,,,6096BC,Grathem,Leudal,Limburg,VBO,5.858684,51.194498
Pr Willem Alexanderstr,6,,,6096BC,Grathem,Leudal,Limburg,VBO,5.858640,51.194609
Pr Willem Alexanderstr,8,,,6096BC,Grathem,Leudal,Limburg,VBO,5.858641,51.194667
Pr Willem Alexanderstr,10,,,6096BC,Grathem,Leudal,Limburg,VBO,5.858342,51.194815
Pr Willem Alexanderstr,12,,,6096BC,Grathem,Leudal,Limburg,VBO,5.858242,51.194819
Pr Willem Alexanderstr,14,,,6096BC,Grathem,Leudal,Limburg,VBO,5.858045,51.194826
Pr Willem Alexanderstr,16,,,6096BC,Grathem,Leudal,Limburg,VBO,5.857943,51.194829
Pr Willem Alexanderstr,18,,,6096BC,Grathem,Leudal,Limburg,VBO,5.857740,51.194803
Pr Willem Alexanderstr,20,,,6096BC,Grathem,Leudal,Limburg,VBO,5.857638,51.194803
Pr Willem Alexanderstr,22,,,6096BC,Grathem,Leudal,Limburg,VBO,5.857406,51.194800
Pr Willem Alexanderstr,24,,,6096BC,Grathem,Leudal,Limburg,VBO,5.857306,51.194799
Pr Willem Alexanderstr,26,,,6096BC,Grathem,Leudal,Limburg,VBO,5.857070,51.194829
Pr Willem Alexanderstr,28,,,6096BC,Grathem,Leudal,Limburg,VBO,5.856970,51.194821
Pr Willem Alexanderstr,30,,,6096BC,Grathem,Leudal,Limburg,VBO,5.856752,51.194789
Pr Willem Alexanderstr,32,,,6096BC,Grathem,Leudal,Limburg,VBO,5.856666,51.194774
Pr Willem Alexanderstr,34,,,6096BC,Grathem,Leudal,Limburg,VBO,5.856438,51.194702
Pr Willem Alexanderstr,36,,,6096BC,Grathem,Leudal,Limburg,VBO,5.856233,51.194658
Pr Willem Alexanderstr,38,,,6096BC,Grathem,Leudal,Limburg,VBO,5.856149,51.194639
Pr Willem Alexanderstr,40,,,6096BD,Grathem,Leudal,Limburg,VBO,5.855981,51.194601
Pr Willem Alexanderstr,42,,,6096BD,Grathem,Leudal,Limburg,VBO,5.855898,51.194582
Pr Willem Alexanderstr,44,,,6096BD,Grathem,Leudal,Limburg,VBO,5.855697,51.194559
Pr Willem Alexanderstr,46,,,6096BD,Grathem,Leudal,Limburg,VBO,5.855618,51.194533
Pr Willem Alexanderstr,48,,,6096BD,Grathem,Leudal,Limburg,VBO,5.855460,51.194481
Pr Willem Alexanderstr,50,,,6096BD,Grathem,Leudal,Limburg,VBO,5.855381,51.194455
Pr Willem Alexanderstr,52,,,6096BD,Grathem,Leudal,Limburg,VBO,5.855223,51.194403
Pr Willem Alexanderstr,54,,,6096BD,Grathem,Leudal,Limburg,VBO,5.855143,51.194376
Pr Willem Alexanderstr,56,,,6096BD,Grathem,Leudal,Limburg,VBO,5.854987,51.194324
Pr Willem Alexanderstr,58,,,6096BD,Grathem,Leudal,Limburg,VBO,5.854908,51.194298
Pr Willem Alexanderstr,60,,,6096BD,Grathem,Leudal,Limburg,VBO,5.854758,51.194209
Pr Willem Alexanderstr,62,,,6096BD,Grathem,Leudal,Limburg,VBO,5.854685,51.194176
Pr Willem Alexanderstr,64,,,6096BD,Grathem,Leudal,Limburg,VBO,5.854540,51.194112
Pr Willem Alexanderstr,66,,,6096BD,Grathem,Leudal,Limburg,VBO,5.854466,51.194080
Irenestraat,1,,,6096BE,Grathem,Leudal,Limburg,VBO,5.858349,51.195113
Irenestraat,2,,,6096BE,Grathem,Leudal,Limburg,VBO,5.857888,51.195354
Irenestraat,3,,,6096BE,Grathem,Leudal,Limburg,VBO,5.858298,51.195304
Irenestraat,4,,,6096BE,Grathem,Leudal,Limburg,VBO,5.857892,51.195411
Irenestraat,5,,,6096BE,Grathem,Leudal,Limburg,VBO,5.858305,51.195382
Frisostraat,2,,,6096BG,Grathem,Leudal,Limburg,VBO,5.859951,51.195358
Frisostraat,4,,,6096BG,Grathem,Leudal,Limburg,VBO,5.859747,51.195366
Frisostraat,6,,,6096BG,Grathem,Leudal,Limburg,VBO,5.859641,51.195370
Frisostraat,8,,,6096BG,Grathem,Leudal,Limburg,VBO,5.859434,51.195360
Frisostraat,10,,,6096BG,Grathem,Leudal,Limburg,VBO,5.859338,51.195364
Frisostraat,12,,,6096BG,Grathem,Leudal,Limburg,VBO,5.859132,51.195372
Frisostraat,14,,,6096BG,Grathem,Leudal,Limburg,VBO,5.859026,51.195377
Frisostraat,16,,,6096BG,Grathem,Leudal,Limburg,VBO,5.858823,51.195403
Frisostraat,18,,,6096BG,Grathem,Leudal,Limburg,VBO,5.858717,51.195407
Frisostraat,20,,,6096BG,Grathem,Leudal,Limburg,VBO,5.857496,51.195422
Frisostraat,22,,,6096BG,Grathem,Leudal,Limburg,VBO,5.857371,51.195426
Frisostraat,24,,,6096BG,Grathem,Leudal,Limburg,VBO,5.857185,51.195430
Frisostraat,26,,,6096BG,Grathem,Leudal,Limburg,VBO,5.857081,51.195434
Frisostraat,30,a,,6096BG,Grathem,Leudal,Limburg,VBO,5.856734,51.195555
Frisostraat,30,,,6096BG,Grathem,Leudal,Limburg,VBO,5.856966,51.195621
Frisostraat,32,,,6096BG,Grathem,Leudal,Limburg,VBO,5.856955,51.195755
Frisostraat,34,,,6096BG,Grathem,Leudal,Limburg,VBO,5.856899,51.195875
Frisostraat,36,,,6096BG,Grathem,Leudal,Limburg,VBO,5.856836,51.196012
Frisostraat,38,,,6096BG,Grathem,Leudal,Limburg,VBO,5.856793,51.196106
Frisostraat,40,,,6096BG,Grathem,Leudal,Limburg,VBO,5.856723,51.196257
Frisostraat,42,,,6096BG,Grathem,Leudal,Limburg,VBO,5.856673,51.196366
Frisostraat,44,,,6096BG,Grathem,Leudal,Limburg,VBO,5.856577,51.196484
Frisostraat,1,,,6096BH,Grathem,Leudal,Limburg,VBO,5.859852,51.195603
Frisostraat,3,a,,6096BH,Grathem,Leudal,Limburg,VBO,5.859656,51.195632
Frisostraat,3,,,6096BH,Grathem,Leudal,Limburg,VBO,5.859758,51.195606
Frisostraat,5,,,6096BH,Grathem,Leudal,Limburg,VBO,5.859528,51.195616
Frisostraat,7,,,6096BH,Grathem,Leudal,Limburg,VBO,5.859418,51.195620
Frisostraat,9,,,6096BH,Grathem,Leudal,Limburg,VBO,5.858850,51.195643
Frisostraat,11,,,6096BH,Grathem,Leudal,Limburg,VBO,5.858760,51.195646
Frisostraat,13,,,6096BH,Grathem,Leudal,Limburg,VBO,5.858551,51.195655
Frisostraat,15,,,6096BH,Grathem,Leudal,Limburg,VBO,5.858448,51.195659
Frisostraat,17,,,6096BH,Grathem,Leudal,Limburg,VBO,5.858255,51.195667
Frisostraat,19,,,6096BH,Grathem,Leudal,Limburg,VBO,5.858159,51.195671
Frisostraat,21,,,6096BH,Grathem,Leudal,Limburg,VBO,5.857809,51.195736
Frisostraat,23,,,6096BH,Grathem,Leudal,Limburg,VBO,5.857814,51.195795
Frisostraat,25,,,6096BH,Grathem,Leudal,Limburg,VBO,5.857824,51.195919
Frisostraat,27,,,6096BH,Grathem,Leudal,Limburg,VBO,5.857829,51.195984
Frisostraat,29,,,6096BH,Grathem,Leudal,Limburg,VBO,5.857859,51.195978
Frisostraat,31,,,6096BH,Grathem,Leudal,Limburg,VBO,5.857161,51.196295
Frisostraat,33,,,6096BH,Grathem,Leudal,Limburg,VBO,5.857064,51.196459
Veldstraat,1,a,,6096BJ,Grathem,Leudal,Limburg,VBO,5.857938,51.204783
Veldstraat,1,,,6096BJ,Grathem,Leudal,Limburg,VBO,5.855352,51.208668
Veldstraat,2,a,,6096BJ,Grathem,Leudal,Limburg,VBO,5.859436,51.197535
Veldstraat,2,d,,6096BJ,Grathem,Leudal,Limburg,VBO,5.859725,51.196926
Veldstraat,2,e,,6096BJ,Grathem,Leudal,Limburg,VBO,5.859701,51.196824
Veldstraat,2,,,6096BJ,Grathem,Leudal,Limburg,VBO,5.857903,51.203906
Veldstraat,3,,,6096BJ,Grathem,Leudal,Limburg,VBO,5.855259,51.208716
Veldstraat,4,a,,6096BJ,Grathem,Leudal,Limburg,VBO,5.856647,51.205055
Veldstraat,4,,,6096BJ,Grathem,Leudal,Limburg,VBO,5.856185,51.205653
Veldstraat,5,,,6096BJ,Grathem,Leudal,Limburg,VBO,5.855167,51.208764
Veldstraat,6,a,,6096BJ,Grathem,Leudal,Limburg,VBO,5.854065,51.206977
Veldstraat,6,b,,6096BJ,Grathem,Leudal,Limburg,VBO,5.854308,51.206931
Veldstraat,6,,,6096BJ,Grathem,Leudal,Limburg,VBO,5.854175,51.207093
Veldstraat,7,,,6096BJ,Grathem,Leudal,Limburg,VBO,5.854286,51.209329
Veldstraat,8,,,6096BJ,Grathem,Leudal,Limburg,VBO,5.853072,51.206370
Veldstraat,9,a,,6096BJ,Grathem,Leudal,Limburg,VBO,5.852633,51.210306
Veldstraat,9,,,6096BJ,Grathem,Leudal,Limburg,VBO,5.851529,51.210594
Veldstraat,10,,,6096BJ,Grathem,Leudal,Limburg,VBO,5.854399,51.208865
Veldstraat,12,,,6096BJ,Grathem,Leudal,Limburg,VBO,5.853482,51.209240
Meidoornstraat,2,,,6096BK,Grathem,Leudal,Limburg,VBO,5.859903,51.194706
Meidoornstraat,4,,,6096BK,Grathem,Leudal,Limburg,VBO,5.859799,51.194710
Meidoornstraat,5,,,6096BK,Grathem,Leudal,Limburg,VBO,5.860280,51.195073
Meidoornstraat,6,,,6096BK,Grathem,Leudal,Limburg,VBO,5.859516,51.194771
Meidoornstraat,7,,,6096BK,Grathem,Leudal,Limburg,VBO,5.860298,51.195256
Meidoornstraat,8,,,6096BK,Grathem,Leudal,Limburg,VBO,5.859523,51.194845
Meidoornstraat,10,,,6096BK,Grathem,Leudal,Limburg,VBO,5.859532,51.194960
Meidoornstraat,12,,,6096BK,Grathem,Leudal,Limburg,VBO,5.859537,51.195025
Meidoornstraat,14,,,6096BK,Grathem,Leudal,Limburg,VBO,5.859800,51.195091
Meidoornstraat,15,,,6096BK,Grathem,Leudal,Limburg,VBO,5.860345,51.195809
Meidoornstraat,16,,,6096BK,Grathem,Leudal,Limburg,VBO,5.859906,51.195088
Meidoornstraat,17,,,6096BK,Grathem,Leudal,Limburg,VBO,5.860357,51.196012
Meidoornstraat,18,,,6096BK,Grathem,Leudal,Limburg,VBO,5.859983,51.195812
Meidoornstraat,19,,,6096BK,Grathem,Leudal,Limburg,VBO,5.860365,51.196160
Meidoornstraat,20,a,,6096BK,Grathem,Leudal,Limburg,VBO,5.859964,51.196007
Meidoornstraat,20,,,6096BK,Grathem,Leudal,Limburg,VBO,5.859961,51.195966
Meidoornstraat,21,,,6096BK,Grathem,Leudal,Limburg,VBO,5.860410,51.196239
Meidoornstraat,22,a,,6096BK,Grathem,Leudal,Limburg,VBO,5.859975,51.196159
Meidoornstraat,22,,,6096BK,Grathem,Leudal,Limburg,VBO,5.859972,51.196116
Meidoornstraat,24,,,6096BK,Grathem,Leudal,Limburg,VBO,5.859984,51.196275
Meidoornstraat,26,,,6096BK,Grathem,Leudal,Limburg,VBO,5.859989,51.196331
Meidoornstraat,28,,,6096BK,Grathem,Leudal,Limburg,VBO,5.860036,51.196513
Lindehof,1,,,6096BL,Grathem,Leudal,Limburg,VBO,5.856267,51.191975
Lindehof,2,,,6096BL,Grathem,Leudal,Limburg,VBO,5.856174,51.191955
Lindehof,3,,,6096BL,Grathem,Leudal,Limburg,VBO,5.856266,51.191859
Lindehof,4,,,6096BL,Grathem,Leudal,Limburg,VBO,5.856294,51.191807
Lindehof,5,,,6096BL,Grathem,Leudal,Limburg,VBO,5.856324,51.191755
Lindehof,6,,,6096BL,Grathem,Leudal,Limburg,VBO,5.856483,51.191827
Lindehof,7,,,6096BL,Grathem,Leudal,Limburg,VBO,5.856543,51.191845
Lindehof,8,,,6096BL,Grathem,Leudal,Limburg,VBO,5.856604,51.191860
Lindehof,9,,,6096BL,Grathem,Leudal,Limburg,VBO,5.856769,51.191835
Lindehof,12,,,6096BL,Grathem,Leudal,Limburg,VBO,5.856529,51.192147
Lindehof,13,,,6096BL,Grathem,Leudal,Limburg,VBO,5.856469,51.192129
Lindehof,14,,,6096BL,Grathem,Leudal,Limburg,VBO,5.856414,51.192085
Pollaertshof,1,a,,6096BM,Grathem,Leudal,Limburg,VBO,5.854174,51.192165
Pollaertshof,1,b,,6096BM,Grathem,Leudal,Limburg,VBO,5.854115,51.192162
Pollaertshof,1,c,,6096BM,Grathem,Leudal,Limburg,VBO,5.854070,51.192167
Pollaertshof,1,,,6096BM,Grathem,Leudal,Limburg,VBO,5.854233,51.192159
Pollaertshof,3,,,6096BM,Grathem,Leudal,Limburg,VBO,5.853658,51.192215
Pollaertshof,5,,,6096BM,Grathem,Leudal,Limburg,VBO,5.853606,51.192328
Pollaertshof,7,,,6096BM,Grathem,Leudal,Limburg,VBO,5.853630,51.192406
Pollaertshof,9,,,6096BM,Grathem,Leudal,Limburg,VBO,5.853551,51.192421
Pollaertshof,11,,,6096BM,Grathem,Leudal,Limburg,VBO,5.853462,51.192432
Pollaertshof,13,,,6096BM,Grathem,Leudal,Limburg,VBO,5.853315,51.192435
Pollaertshof,15,,,6096BM,Grathem,Leudal,Limburg,VBO,5.853206,51.192441
Pollaertshof,17,,,6096BM,Grathem,Leudal,Limburg,VBO,5.853089,51.192397
Pollaertshof,19,,,6096BM,Grathem,Leudal,Limburg,VBO,5.853065,51.192321
Pollaertshof,21,,,6096BM,Grathem,Leudal,Limburg,VBO,5.853165,51.192165
Kuiperweg,1,a,,6096BN,Grathem,Leudal,Limburg,VBO,5.855807,51.197018
Kuiperweg,1,b,,6096BN,Grathem,Leudal,Limburg,VBO,5.855598,51.197867
Kuiperweg,1,,,6096BN,Grathem,Leudal,Limburg,VBO,5.854831,51.203888
Kuiperweg,2,,,6096BN,Grathem,Leudal,Limburg,VBO,5.853587,51.197963
Kuiperweg,4,,,6096BN,Grathem,Leudal,Limburg,VBO,5.853647,51.202102
Kuiperweg,6,,,6096BN,Grathem,Leudal,Limburg,VBO,5.852217,51.204318
Kuiperweg,8,,,6096BN,Grathem,Leudal,Limburg,VBO,5.850912,51.205114
Christinestraat,1,,,6096BP,Grathem,Leudal,Limburg,VBO,5.855488,51.194796
Christinestraat,3,,,6096BP,Grathem,Leudal,Limburg,VBO,5.855447,51.194850
Christinestraat,5,,,6096BP,Grathem,Leudal,Limburg,VBO,5.855372,51.194947
Christinestraat,7,,,6096BP,Grathem,Leudal,Limburg,VBO,5.855331,51.195000
Kalebosstraat,1,a,,6096BR,Grathem,Leudal,Limburg,VBO,5.854071,51.194546
Kalebosstraat,1,,,6096BR,Grathem,Leudal,Limburg,VBO,5.853973,51.194709
Kalebosstraat,2,,,6096BR,Grathem,Leudal,Limburg,VBO,5.853484,51.194870
Kalebosstraat,3,,,6096BR,Grathem,Leudal,Limburg,VBO,5.854104,51.194759
Kalebosstraat,4,,,6096BR,Grathem,Leudal,Limburg,VBO,5.853777,51.194976
Kalebosstraat,5,,,6096BR,Grathem,Leudal,Limburg,VBO,5.854312,51.194839
Kalebosstraat,6,,,6096BR,Grathem,Leudal,Limburg,VBO,5.854102,51.195130
Kalebosstraat,7,,,6096BR,Grathem,Leudal,Limburg,VBO,5.854443,51.194888
Kalebosstraat,8,,,6096BR,Grathem,Leudal,Limburg,VBO,5.854379,51.195228
Kalebosstraat,9,,,6096BR,Grathem,Leudal,Limburg,VBO,5.854651,51.194968
Kalebosstraat,10,,,6096BR,Grathem,Leudal,Limburg,VBO,5.854636,51.195306
Kalebosstraat,11,,,6096BR,Grathem,Leudal,Limburg,VBO,5.854791,51.195020
Kalebosstraat,12,,,6096BR,Grathem,Leudal,Limburg,VBO,5.854943,51.195422
Kalebosstraat,13,,,6096BR,Grathem,Leudal,Limburg,VBO,5.855190,51.195226
Kalebosstraat,14,,,6096BR,Grathem,Leudal,Limburg,VBO,5.854692,51.195765
Kalebosstraat,15,,,6096BR,Grathem,Leudal,Limburg,VBO,5.855354,51.195276
Kalebosstraat,17,,,6096BR,Grathem,Leudal,Limburg,VBO,5.855420,51.195481
Kalebosstraat,19,,,6096BR,Grathem,Leudal,Limburg,VBO,5.855343,51.195591
Kalebosstraat,21,,,6096BR,Grathem,Leudal,Limburg,VBO,5.855240,51.195700
Kalebosstraat,23,,,6096BR,Grathem,Leudal,Limburg,VBO,5.855138,51.195807
Kalebosstraat,25,,,6096BR,Grathem,Leudal,Limburg,VBO,5.855020,51.195903
Severinusstraat,1,,,6096BS,Grathem,Leudal,Limburg,VBO,5.856516,51.195318
Severinusstraat,2,,,6096BS,Grathem,Leudal,Limburg,VBO,5.856070,51.195162
Severinusstraat,3,,,6096BS,Grathem,Leudal,Limburg,VBO,5.856501,51.195353
Severinusstraat,4,,,6096BS,Grathem,Leudal,Limburg,VBO,5.856015,51.195279
Severinusstraat,5,,,6096BS,Grathem,Leudal,Limburg,VBO,5.856425,51.195512
Severinusstraat,6,,,6096BS,Grathem,Leudal,Limburg,VBO,5.855990,51.195334
Severinusstraat,7,,,6096BS,Grathem,Leudal,Limburg,VBO,5.856410,51.195548
Severinusstraat,8,,,6096BS,Grathem,Leudal,Limburg,VBO,5.855935,51.195451
Severinusstraat,9,,,6096BS,Grathem,Leudal,Limburg,VBO,5.856344,51.195690
Severinusstraat,10,,,6096BS,Grathem,Leudal,Limburg,VBO,5.855914,51.195496
Severinusstraat,11,,,6096BS,Grathem,Leudal,Limburg,VBO,5.856326,51.195730
Severinusstraat,12,,,6096BS,Grathem,Leudal,Limburg,VBO,5.855860,51.195614
Severinusstraat,13,,,6096BS,Grathem,Leudal,Limburg,VBO,5.856260,51.195872
Severinusstraat,14,,,6096BS,Grathem,Leudal,Limburg,VBO,5.855830,51.195677
Severinusstraat,15,,,6096BS,Grathem,Leudal,Limburg,VBO,5.856243,51.195907
Severinusstraat,16,,,6096BS,Grathem,Leudal,Limburg,VBO,5.855780,51.195786
Severinusstraat,17,,,6096BS,Grathem,Leudal,Limburg,VBO,5.856159,51.196046
Severinusstraat,18,,,6096BS,Grathem,Leudal,Limburg,VBO,5.855755,51.195841
Severinusstraat,19,,,6096BS,Grathem,Leudal,Limburg,VBO,5.856142,51.196080
Severinusstraat,21,,,6096BS,Grathem,Leudal,Limburg,VBO,5.856082,51.196208
Severinusstraat,23,,,6096BS,Grathem,Leudal,Limburg,VBO,5.856020,51.196339
Sportlaan,1,,,6096BT,Grathem,Leudal,Limburg,VBO,5.854340,51.195992
Sportlaan,2,,,6096BT,Grathem,Leudal,Limburg,VBO,5.855600,51.196091
Sportlaan,3,a,,6096BT,Grathem,Leudal,Limburg,VBO,5.852483,51.195470
Sportlaan,3,,,6096BT,Grathem,Leudal,Limburg,VBO,5.852258,51.195673
Sportlaan,4,,,6096BT,Grathem,Leudal,Limburg,VBO,5.855329,51.196042
Sportlaan,5,,,6096BT,Grathem,Leudal,Limburg,VBO,5.851356,51.195223
Sportlaan,8,,,6096BT,Grathem,Leudal,Limburg,VBO,5.854357,51.195727
Sportlaan,10,,,6096BT,Grathem,Leudal,Limburg,VBO,5.854081,51.195624
Sportlaan,12,,,6096BT,Grathem,Leudal,Limburg,VBO,5.853760,51.195502
Sportlaan,14,,,6096BT,Grathem,Leudal,Limburg,VBO,5.853475,51.195397
Sportlaan,16,,,6096BT,Grathem,Leudal,Limburg,VBO,5.853197,51.195292
Sportlaan,18,,,6096BT,Grathem,Leudal,Limburg,VBO,5.852968,51.195173
Sportlaan,20,,,6096BT,Grathem,Leudal,Limburg,VBO,5.852438,51.194963
Sportlaan,22,,,6096BT,Grathem,Leudal,Limburg,VBO,5.852036,51.194695
Brenkertstraat,1,,,6096BV,Grathem,Leudal,Limburg,VBO,5.853170,51.194930
Brenkertstraat,2,,,6096BV,Grathem,Leudal,Limburg,VBO,5.853777,51.194347
Brenkertstraat,4,,,6096BV,Grathem,Leudal,Limburg,VBO,5.853567,51.194457
Brenkertstraat,6,,,6096BV,Grathem,Leudal,Limburg,VBO,5.853271,51.194556
Brenkertstraat,8,,,6096BV,Grathem,Leudal,Limburg,VBO,5.852975,51.194682
Brenkertstraat,10,,,6096BV,Grathem,Leudal,Limburg,VBO,5.852716,51.194837
Lindestraat,3,,,6096BW,Grathem,Leudal,Limburg,VBO,5.857247,51.192092
Lindestraat,5,a,,6096BW,Grathem,Leudal,Limburg,VBO,5.857350,51.192199
Lindestraat,5,,,6096BW,Grathem,Leudal,Limburg,VBO,5.857081,51.192221
Lindestraat,7,a,,6096BW,Grathem,Leudal,Limburg,VBO,5.856723,51.192581
Lindestraat,7,,,6096BW,Grathem,Leudal,Limburg,VBO,5.856992,51.192360
Lindestraat,9,,,6096BW,Grathem,Leudal,Limburg,VBO,5.856405,51.192583
Lindestraat,11,,,6096BW,Grathem,Leudal,Limburg,VBO,5.856252,51.192591
Lindestraat,13,,,6096BW,Grathem,Leudal,Limburg,VBO,5.856020,51.192659
Lindestraat,15,,,6096BW,Grathem,Leudal,Limburg,VBO,5.855808,51.192699
Lindestraat,17,,,6096BW,Grathem,Leudal,Limburg,VBO,5.855597,51.192742
Lindestraat,19,,,6096BW,Grathem,Leudal,Limburg,VBO,5.855380,51.192808
Lindestraat,21,,,6096BW,Grathem,Leudal,Limburg,VBO,5.855201,51.192882
Lindestraat,23,a,,6096BW,Grathem,Leudal,Limburg,VBO,5.854883,51.193040
Lindestraat,23,,,6096BW,Grathem,Leudal,Limburg,VBO,5.854989,51.192977
Lindestraat,25,,,6096BW,Grathem,Leudal,Limburg,VBO,5.854661,51.193268
Lindestraat,27,,,6096BW,Grathem,Leudal,Limburg,VBO,5.854302,51.193571
Lindestraat,29,a,,6096BW,Grathem,Leudal,Limburg,VBO,5.853973,51.193832
Lindestraat,29,b,,6096BW,Grathem,Leudal,Limburg,VBO,5.853267,51.194144
Lindestraat,29,c,,6096BW,Grathem,Leudal,Limburg,VBO,5.852888,51.194230
Lindestraat,29,,,6096BW,Grathem,Leudal,Limburg,VBO,5.854092,51.193734
Lindestraat,31,a,,6096BW,Grathem,Leudal,Limburg,VBO,5.850989,51.194685
Lindestraat,31,b,,6096BW,Grathem,Leudal,Limburg,VBO,5.850704,51.194819
Lindestraat,31,,,6096BW,Grathem,Leudal,Limburg,VBO,5.850683,51.194749
Lindestraat,33,,,6096BW,Grathem,Leudal,Limburg,VBO,5.850228,51.195251
Lindestraat,2,,,6096BX,Grathem,Leudal,Limburg,VBO,5.857140,51.191714
Lindestraat,4,a,,6096BX,Grathem,Leudal,Limburg,VBO,5.856973,51.192052
Lindestraat,4,b,,6096BX,Grathem,Leudal,Limburg,VBO,5.856948,51.192095
Lindestraat,4,c,,6096BX,Grathem,Leudal,Limburg,VBO,5.856819,51.192199
Lindestraat,4,d,,6096BX,Grathem,Leudal,Limburg,VBO,5.856732,51.192205
Lindestraat,4,,,6096BX,Grathem,Leudal,Limburg,VBO,5.857089,51.191887
Lindestraat,8,a,,6096BX,Grathem,Leudal,Limburg,VBO,5.853964,51.193098
Lindestraat,10,,,6096BX,Grathem,Leudal,Limburg,VBO,5.853567,51.193428
Koelenterhofstraat,1,,,6096BZ,Grathem,Leudal,Limburg,VBO,5.852510,51.194389
Koelenterhofstraat,3,,,6096BZ,Grathem,Leudal,Limburg,VBO,5.852242,51.194527
Mauritsstraat,1,,,6096CA,Grathem,Leudal,Limburg,VBO,5.859410,51.195849
Mauritsstraat,3,,,6096CA,Grathem,Leudal,Limburg,VBO,5.859426,51.195993
Mauritsstraat,5,,,6096CA,Grathem,Leudal,Limburg,VBO,5.859429,51.196039
Mauritsstraat,7,a,,6096CA,Grathem,Leudal,Limburg,VBO,5.859443,51.196180
Mauritsstraat,7,,,6096CA,Grathem,Leudal,Limburg,VBO,5.859439,51.196129
Mauritsstraat,9,a,,6096CA,Grathem,Leudal,Limburg,VBO,5.859460,51.196313
Mauritsstraat,9,,,6096CA,Grathem,Leudal,Limburg,VBO,5.859456,51.196264
Mauritsstraat,11,,,6096CA,Grathem,Leudal,Limburg,VBO,5.859470,51.196408
Mauritsstraat,13,,,6096CA,Grathem,Leudal,Limburg,VBO,5.859529,51.196545
Constantijnstraat,2,,,6096CC,Grathem,Leudal,Limburg,VBO,5.858976,51.195964
Constantijnstraat,4,,,6096CC,Grathem,Leudal,Limburg,VBO,5.858906,51.195967
Constantijnstraat,6,,,6096CC,Grathem,Leudal,Limburg,VBO,5.858728,51.195992
Constantijnstraat,8,,,6096CC,Grathem,Leudal,Limburg,VBO,5.858676,51.195994
Constantijnstraat,10,,,6096CC,Grathem,Leudal,Limburg,VBO,5.858506,51.196001
Constantijnstraat,12,,,6096CC,Grathem,Leudal,Limburg,VBO,5.858450,51.196003
Constantijnstraat,14,,,6096CC,Grathem,Leudal,Limburg,VBO,5.858276,51.196010
Constantijnstraat,16,,,6096CC,Grathem,Leudal,Limburg,VBO,5.858227,51.196012
Constantijnstraat,1,,,6096CD,Grathem,Leudal,Limburg,VBO,5.858973,51.196236
Constantijnstraat,3,,,6096CD,Grathem,Leudal,Limburg,VBO,5.858786,51.196244
Constantijnstraat,5,,,6096CD,Grathem,Leudal,Limburg,VBO,5.858703,51.196247
Constantijnstraat,7,,,6096CD,Grathem,Leudal,Limburg,VBO,5.858540,51.196254
Constantijnstraat,9,,,6096CD,Grathem,Leudal,Limburg,VBO,5.858463,51.196257
Constantijnstraat,11,,,6096CD,Grathem,Leudal,Limburg,VBO,5.858304,51.196263
Constantijnstraat,13,,,6096CD,Grathem,Leudal,Limburg,VBO,5.858224,51.196267
Constantijnstraat,15,,,6096CD,Grathem,Leudal,Limburg,VBO,5.858055,51.196273
Constantijnstraat,17,,,6096CD,Grathem,Leudal,Limburg,VBO,5.857978,51.196276
Constantijnstraat,19,,,6096CD,Grathem,Leudal,Limburg,VBO,5.857803,51.196266
Constantijnstraat,21,,,6096CD,Grathem,Leudal,Limburg,VBO,5.857604,51.196266
Constantijnstraat,23,,,6096CD,Grathem,Leudal,Limburg,VBO,5.857378,51.196265
Constantijnstraat,25,,,6096CD,Grathem,Leudal,Limburg,VBO,5.857135,51.196259
Clausstraat,2,,,6096CG,Grathem,Leudal,Limburg,VBO,5.858014,51.197036
Clausstraat,5,,,6096CG,Grathem,Leudal,Limburg,VBO,5.859015,51.196564
Clausstraat,7,a,,6096CG,Grathem,Leudal,Limburg,VBO,5.858764,51.196574
Clausstraat,7,,,6096CG,Grathem,Leudal,Limburg,VBO,5.858834,51.196571
Clausstraat,9,,,6096CG,Grathem,Leudal,Limburg,VBO,5.858629,51.196579
Clausstraat,11,,,6096CG,Grathem,Leudal,Limburg,VBO,5.858483,51.196585
Clausstraat,13,,,6096CG,Grathem,Leudal,Limburg,VBO,5.858408,51.196588
Clausstraat,15,,,6096CG,Grathem,Leudal,Limburg,VBO,5.858330,51.196591
Clausstraat,17,,,6096CG,Grathem,Leudal,Limburg,VBO,5.858253,51.196594
Clausstraat,19,,,6096CG,Grathem,Leudal,Limburg,VBO,5.858176,51.196580
Clausstraat,21,,,6096CG,Grathem,Leudal,Limburg,VBO,5.858098,51.196583
Clausstraat,23,,,6096CG,Grathem,Leudal,Limburg,VBO,5.857981,51.196605
Clausstraat,25,,,6096CG,Grathem,Leudal,Limburg,VBO,5.857888,51.196609
Clausstraat,27,,,6096CG,Grathem,Leudal,Limburg,VBO,5.857794,51.196613
Clausstraat,29,,,6096CG,Grathem,Leudal,Limburg,VBO,5.857699,51.196599
Clausstraat,31,,,6096CG,Grathem,Leudal,Limburg,VBO,5.857606,51.196602
Clausstraat,33,,,6096CG,Grathem,Leudal,Limburg,VBO,5.857579,51.196590
Clausstraat,35,,,6096CG,Grathem,Leudal,Limburg,VBO,5.857419,51.196603
Clausstraat,37,,,6096CG,Grathem,Leudal,Limburg,VBO,5.857154,51.196588
Burgemeester Smeetsstr,1,,,6096CH,Grathem,Leudal,Limburg,VBO,5.860453,51.196513
Burgemeester Smeetsstr,3,,,6096CH,Grathem,Leudal,Limburg,VBO,5.860545,51.196506
Burgemeester Smeetsstr,5,,,6096CH,Grathem,Leudal,Limburg,VBO,5.860637,51.196499
Burgemeester Smeetsstr,7,,,6096CH,Grathem,Leudal,Limburg,VBO,5.860811,51.196487
Burgemeester Smeetsstr,9,,,6096CH,Grathem,Leudal,Limburg,VBO,5.860889,51.196481
Burgemeester Smeetsstr,13,,,6096CH,Grathem,Leudal,Limburg,VBO,5.861216,51.196768
Burgemeester Smeetsstr,15,,,6096CH,Grathem,Leudal,Limburg,VBO,5.861319,51.196879
Burgemeester Smeetsstr,17,,,6096CH,Grathem,Leudal,Limburg,VBO,5.861462,51.197173
Burgemeester Smeetsstr,19,,,6096CH,Grathem,Leudal,Limburg,VBO,5.861512,51.197370
Burgemeester Smeetsstr,21,,,6096CH,Grathem,Leudal,Limburg,VBO,5.861533,51.197501
Burgemeester Smeetsstr,25,,,6096CH,Grathem,Leudal,Limburg,VBO,5.861626,51.197928
Burgemeester Smeetsstr,27,,,6096CH,Grathem,Leudal,Limburg,VBO,5.861706,51.198039
Burgemeester Smeetsstr,29,,,6096CH,Grathem,Leudal,Limburg,VBO,5.861969,51.198209
Burgemeester Smeetsstr,31,,,6096CH,Grathem,Leudal,Limburg,VBO,5.862082,51.198349
Burgemeester Smeetsstr,33,,,6096CH,Grathem,Leudal,Limburg,VBO,5.861969,51.198485
Burgemeester Smeetsstr,35,,,6096CH,Grathem,Leudal,Limburg,VBO,5.861600,51.198467
Burgemeester Smeetsstr,37,,,6096CH,Grathem,Leudal,Limburg,VBO,5.861367,51.198334
Burgemeester Smeetsstr,39,,,6096CH,Grathem,Leudal,Limburg,VBO,5.861274,51.198190
Burgemeester Smeetsstr,41,,,6096CH,Grathem,Leudal,Limburg,VBO,5.860797,51.198255
Burgemeester Smeetsstr,43,,,6096CH,Grathem,Leudal,Limburg,VBO,5.860550,51.198204
Burgemeester Smeetsstr,45,,,6096CH,Grathem,Leudal,Limburg,VBO,5.860352,51.198164
Burgemeester Smeetsstr,47,,,6096CH,Grathem,Leudal,Limburg,VBO,5.860110,51.198141
Notaris Philip Houbenstr,1,,,6096CJ,Grathem,Leudal,Limburg,VBO,5.860448,51.196915
Notaris Philip Houbenstr,2,,,6096CJ,Grathem,Leudal,Limburg,VBO,5.860611,51.197569
Notaris Philip Houbenstr,3,,,6096CJ,Grathem,Leudal,Limburg,VBO,5.860509,51.197019
Notaris Philip Houbenstr,4,,,6096CJ,Grathem,Leudal,Limburg,VBO,5.860768,51.197727
Notaris Philip Houbenstr,5,,,6096CJ,Grathem,Leudal,Limburg,VBO,5.860535,51.197061
Notaris Philip Houbenstr,8,,,6096CJ,Grathem,Leudal,Limburg,VBO,5.861146,51.197427
Notaris Philip Houbenstr,13,,,6096CJ,Grathem,Leudal,Limburg,VBO,5.860758,51.197257
Notaris Philip Houbenstr,15,,,6096CJ,Grathem,Leudal,Limburg,VBO,5.861051,51.197250
Notaris Philip Houbenstr,17,,,6096CJ,Grathem,Leudal,Limburg,VBO,5.861131,51.197241
Burgemeester Smeetsstr,2,,,6096CK,Grathem,Leudal,Limburg,VBO,5.860404,51.196706
Burgemeester Smeetsstr,4,,,6096CK,Grathem,Leudal,Limburg,VBO,5.860483,51.196703
Burgemeester Smeetsstr,6,,,6096CK,Grathem,Leudal,Limburg,VBO,5.860640,51.196697
Burgemeester Smeetsstr,8,,,6096CK,Grathem,Leudal,Limburg,VBO,5.860716,51.196694
Burgemeester Smeetsstr,10,,,6096CK,Grathem,Leudal,Limburg,VBO,5.860909,51.196797
Burgemeester Smeetsstr,12,,,6096CK,Grathem,Leudal,Limburg,VBO,5.860944,51.196840
Burgemeester Smeetsstr,14,,,6096CK,Grathem,Leudal,Limburg,VBO,5.861012,51.196924
Burgemeester Smeetsstr,16,,,6096CK,Grathem,Leudal,Limburg,VBO,5.861051,51.196972
Burgemeester Smeetsstr,20,,,6096CK,Grathem,Leudal,Limburg,VBO,5.861237,51.197676
Burgemeester Smeetsstr,22,,,6096CK,Grathem,Leudal,Limburg,VBO,5.861279,51.197831
Burgemeester Smeetsstr,24,,,6096CK,Grathem,Leudal,Limburg,VBO,5.861076,51.198002
Burgemeester Smeetsstr,26,,,6096CK,Grathem,Leudal,Limburg,VBO,5.860826,51.198038
Burgemeester Smeetsstr,28,,,6096CK,Grathem,Leudal,Limburg,VBO,5.860601,51.197995
Burgemeester Smeetsstr,30,,,6096CK,Grathem,Leudal,Limburg,VBO,5.860333,51.197932
Laerveld,1,,,6096DA,Grathem,Leudal,Limburg,VBO,5.858314,51.189448
Laerveld,2,,,6096DA,Grathem,Leudal,Limburg,VBO,5.857977,51.189341
Laerveld,3,,,6096DA,Grathem,Leudal,Limburg,VBO,5.858069,51.189222
Laerveld,4,,,6096DA,Grathem,Leudal,Limburg,VBO,5.858208,51.189131
Laerveld,5,,,6096DA,Grathem,Leudal,Limburg,VBO,5.858397,51.189032
Laerveld,6,,,6096DA,Grathem,Leudal,Limburg,VBO,5.858556,51.189230
Thoorderstraat,1,,,6096DB,Grathem,Leudal,Limburg,VBO,5.858216,51.188656
Thoorderstraat,3,,,6096DB,Grathem,Leudal,Limburg,VBO,5.857997,51.188787
Thoorderstraat,5,,,6096DB,Grathem,Leudal,Limburg,VBO,5.857802,51.188708
Thoorderstraat,7,,,6096DB,Grathem,Leudal,Limburg,VBO,5.857694,51.188651
Thoorderstraat,8,,,6096DB,Grathem,Leudal,Limburg,VBO,5.858408,51.188125
Thoorderstraat,9,,,6096DB,Grathem,Leudal,Limburg,VBO,5.857695,51.188361
Thoorderstraat,13,,,6096DB,Grathem,Leudal,Limburg,VBO,5.858024,51.187985
Thoorderstraat,17,,,6096DB,Grathem,Leudal,Limburg,VBO,5.858068,51.188310
Thoorderstraat,19,,,6096DB,Grathem,Leudal,Limburg,VBO,5.858212,51.188459
Kloostertuin,2,,,6096DC,Grathem,Leudal,Limburg,VBO,5.860634,51.191960
Kloostertuin,4,,,6096DC,Grathem,Leudal,Limburg,VBO,5.860642,51.192021
Kloostertuin,6,,,6096DC,Grathem,Leudal,Limburg,VBO,5.860650,51.192083
Kloostertuin,8,,,6096DC,Grathem,Leudal,Limburg,VBO,5.860574,51.192222
Kloostertuin,10,,,6096DC,Grathem,Leudal,Limburg,VBO,5.860503,51.192244
Kloostertuin,12,,,6096DC,Grathem,Leudal,Limburg,VBO,5.860414,51.192268
Kloostertuin,14,,,6096DC,Grathem,Leudal,Limburg,VBO,5.860320,51.192306
Kloostertuin,16,,,6096DC,Grathem,Leudal,Limburg,VBO,5.860312,51.192366
Kloostertuin,18,,,6096DC,Grathem,Leudal,Limburg,VBO,5.860336,51.192435
Kloostertuin,20,,,6096DC,Grathem,Leudal,Limburg,VBO,5.860385,51.192489
Wienertehof,1,,,6096DD,Grathem,Leudal,Limburg,VBO,5.857682,51.192279
Wienertehof,2,,,6096DD,Grathem,Leudal,Limburg,VBO,5.858065,51.191949
Wienertehof,3,,,6096DD,Grathem,Leudal,Limburg,VBO,5.857844,51.192299
Wienertehof,4,,,6096DD,Grathem,Leudal,Limburg,VBO,5.858101,51.192049
Wienertehof,5,,,6096DD,Grathem,Leudal,Limburg,VBO,5.858005,51.192319
Wienertehof,6,,,6096DD,Grathem,Leudal,Limburg,VBO,5.858136,51.192151
Wienertehof,7,,,6096DD,Grathem,Leudal,Limburg,VBO,5.858178,51.192345
Wienertehof,9,,,6096DD,Grathem,Leudal,Limburg,VBO,5.858339,51.192322
Breestraat,1,,,6096NB,Grathem,Leudal,Limburg,VBO,5.861666,51.190459
Napoleonsweg Noord,2,,,6096NC,Grathem,Leudal,Limburg,VBO,5.867982,51.189501
Napoleonsweg Noord,4,,,6096NC,Grathem,Leudal,Limburg,VBO,5.870381,51.191694
Napoleonsweg Noord,6,,,6096NC,Grathem,Leudal,Limburg,VBO,5.870640,51.191560
Napoleonsweg Noord,8,,,6096NC,Grathem,Leudal,Limburg,VBO,5.871986,51.191218
Napoleonsweg Zuid,1,,,6096ND,Grathem,Leudal,Limburg,VBO,5.854536,51.183227
Loorderstraat,1,,,6096NE,Grathem,Leudal,Limburg,VBO,5.853729,51.187801
Loorderstraat,2,,,6096NE,Grathem,Leudal,Limburg,VBO,5.857868,51.189622
Loorderstraat,3,a,,6096NE,Grathem,Leudal,Limburg,VBO,5.852608,51.188153
Loorderstraat,3,b,,6096NE,Grathem,Leudal,Limburg,VBO,5.852614,51.188197
Loorderstraat,3,,,6096NE,Grathem,Leudal,Limburg,VBO,5.852660,51.188111
Loorderstraat,4,a,,6096NE,Grathem,Leudal,Limburg,VBO,5.857135,51.188873
Loorderstraat,4,,,6096NE,Grathem,Leudal,Limburg,VBO,5.857456,51.189212
Loorderstraat,5,,,6096NE,Grathem,Leudal,Limburg,VBO,5.848862,51.188330
Loorderstraat,6,,,6096NE,Grathem,Leudal,Limburg,VBO,5.856902,51.188436
Loorderstraat,7,,,6096NE,Grathem,Leudal,Limburg,VBO,5.846000,51.189795
Loorderstraat,8,,,6096NE,Grathem,Leudal,Limburg,VBO,5.856314,51.188126
Loorderstraat,9,,,6096NE,Grathem,Leudal,Limburg,VBO,5.844466,51.186844
Loorderstraat,10,,,6096NE,Grathem,Leudal,Limburg,VBO,5.854357,51.187682
Nachtegaal,1,a,,6096NG,Grathem,Leudal,Limburg,VBO,5.849461,51.194291
Nachtegaal,1,,,6096NG,Grathem,Leudal,Limburg,VBO,5.844921,51.192500
Nachtegaal,2,,,6096NG,Grathem,Leudal,Limburg,VBO,5.844777,51.191377
Nachtegaal,3,,,6096NG,Grathem,Leudal,Limburg,VBO,5.842114,51.192732
Geneijgen,1,,,6096NH,Grathem,Leudal,Limburg,VBO,5.847176,51.197935
Geneijgen,2,,,6096NH,Grathem,Leudal,Limburg,VBO,5.846064,51.197699
Geneijgen,3,,,6096NH,Grathem,Leudal,Limburg,VBO,5.844872,51.199266
Geneijgen,4,,,6096NH,Grathem,Leudal,Limburg,VBO,5.841773,51.196722
Geneijgen,5,,,6096NH,Grathem,Leudal,Limburg,VBO,5.846705,51.198936
Geneijgen,7,,,6096NH,Grathem,Leudal,Limburg,VBO,5.847125,51.198673
Geneijgen,9,,,6096NH,Grathem,Leudal,Limburg,VBO,5.843897,51.200287
Gemeentebos,1,,,6096NJ,Grathem,Leudal,Limburg,VBO,5.848151,51.203575
Gemeentebos,3,,,6096NJ,Grathem,Leudal,Limburg,VBO,5.847946,51.205319
Gemeentebos,5,,,6096NJ,Grathem,Leudal,Limburg,VBO,5.842808,51.201489
Gemeentebos,7,,,6096NJ,Grathem,Leudal,Limburg,VBO,5.842767,51.201536
Gemeentebos,9,,,6096NJ,Grathem,Leudal,Limburg,VBO,5.842617,51.201705
Hunselerdijk,2,a,,6096NK,Grathem,Leudal,Limburg,VBO,5.843872,51.203923
Hunselerdijk,2,,,6096NK,Grathem,Leudal,Limburg,VBO,5.859541,51.211782
Hunselerdijk,4,,,6096NK,Grathem,Leudal,Limburg,VBO,5.860357,51.214268
Hunselerdijk,6,,,6096NK,Grathem,Leudal,Limburg,VBO,5.862762,51.216661
Hunselerdijk,8,a,,6096NK,Grathem,Leudal,Limburg,VBO,5.865201,51.220290
Hunselerdijk,8,,,6096NK,Grathem,Leudal,Limburg,VBO,5.865209,51.220744
Heiakker,1,a,,6096NL,Grathem,Leudal,Limburg,VBO,5.859388,51.205681
Heiakker,1,,,6096NL,Grathem,Leudal,Limburg,VBO,5.860013,51.205673
Heiakker,2,,,6096NL,Grathem,Leudal,Limburg,VBO,5.863494,51.211553
Heiakker,3,,,6096NL,Grathem,Leudal,Limburg,VBO,5.859407,51.207527
Heiakker,4,,,6096NL,Grathem,Leudal,Limburg,VBO,5.866860,51.212101
Reijvenhofweg,4,,,6096PA,Grathem,Leudal,Limburg,VBO,5.837993,51.194371
Reijvenhofweg,6,,,6096PA,Grathem,Leudal,Limburg,VBO,5.838216,51.193760
