openbareruimtenaam,huisnummer,huisletter,huisnummertoevoeging,postcode,woonplaatsnaam,gemeentenaam,provincienaam,typeadresseerbaarobject,longitude,latitude
Rijksweg Zuid,1,A,,6102AA,Echt,Echt-Susteren,Limburg,VBO,5.885194,51.097807
Rijksweg Zuid,1,B,,6102AA,Echt,Echt-Susteren,Limburg,VBO,5.885170,51.097578
Rijksweg Zuid,1,,,6102AA,Echt,Echt-Susteren,Limburg,VBO,5.885245,51.097909
Rijksweg Zuid,3,A,,6102AA,Echt,Echt-Susteren,Limburg,VBO,5.884994,51.097127
Rijksweg Zuid,3,,,6102AA,Echt,Echt-Susteren,Limburg,VBO,5.884941,51.097129
Rijksweg Zuid,7,A,,6102AA,Echt,Echt-Susteren,Limburg,VBO,5.884333,51.095851
Rijksweg Zuid,7,,,6102AA,Echt,Echt-Susteren,Limburg,VBO,5.884248,51.095866
Rijksweg Zuid,11,,,6102AA,Echt,Echt-Susteren,Limburg,VBO,5.883934,51.095059
Rijksweg Zuid,13,,,6102AA,Echt,Echt-Susteren,Limburg,VBO,5.883704,51.094926
Rijksweg Zuid,15,A,,6102AA,Echt,Echt-Susteren,Limburg,VBO,5.883669,51.094760
Rijksweg Zuid,15,,,6102AA,Echt,Echt-Susteren,Limburg,VBO,5.883705,51.094819
Rijksweg Zuid,17,,,6102AA,Echt,Echt-Susteren,Limburg,VBO,5.883313,51.094476
Rijksweg Zuid,19,,,6102AA,Echt,Echt-Susteren,Limburg,VBO,5.883280,51.093894
Rijksweg Zuid,21,,,6102AA,Echt,Echt-Susteren,Limburg,VBO,5.883055,51.093724
Rijksweg Zuid,23,A,,6102AA,Echt,Echt-Susteren,Limburg,VBO,5.882644,51.091792
Rijksweg Zuid,23,,,6102AA,Echt,Echt-Susteren,Limburg,VBO,5.882260,51.092240
Rijksweg Zuid,2,,,6102AB,Echt,Echt-Susteren,Limburg,VBO,5.884459,51.097482
Rijksweg Zuid,4,,,6102AB,Echt,Echt-Susteren,Limburg,VBO,5.884499,51.097341
Rijksweg Zuid,8,,,6102AB,Echt,Echt-Susteren,Limburg,VBO,5.884430,51.097204
Rijksweg Zuid,10,,,6102AB,Echt,Echt-Susteren,Limburg,VBO,5.884404,51.097153
Rijksweg Zuid,12,,,6102AB,Echt,Echt-Susteren,Limburg,VBO,5.884311,51.096966
Rijksweg Zuid,16,,,6102AB,Echt,Echt-Susteren,Limburg,VBO,5.883828,51.096426
Rijksweg Zuid,20,,,6102AB,Echt,Echt-Susteren,Limburg,VBO,5.883830,51.096220
Rijksweg Zuid,22,,,6102AB,Echt,Echt-Susteren,Limburg,VBO,5.883744,51.095920
Rijksweg Zuid,24,,,6102AB,Echt,Echt-Susteren,Limburg,VBO,5.883542,51.095830
Rijksweg Zuid,26,,,6102AB,Echt,Echt-Susteren,Limburg,VBO,5.883473,51.095780
Rijksweg Zuid,28,A,,6102AB,Echt,Echt-Susteren,Limburg,VBO,5.883331,51.095677
Rijksweg Zuid,28,,,6102AB,Echt,Echt-Susteren,Limburg,VBO,5.883402,51.095728
Rijksweg Zuid,30,,,6102AB,Echt,Echt-Susteren,Limburg,VBO,5.882949,51.094690
Rijksweg Zuid,34,,,6102AB,Echt,Echt-Susteren,Limburg,VBO,5.882521,51.094077
Rijksweg Zuid,40,,,6102AB,Echt,Echt-Susteren,Limburg,VBO,5.881833,51.092967
Pastoor Cramerstraat,1,,,6102AC,Echt,Echt-Susteren,Limburg,VBO,5.884302,51.095569
Pastoor Cramerstraat,2,A,,6102AC,Echt,Echt-Susteren,Limburg,VBO,5.884194,51.094994
Pastoor Cramerstraat,2,B,,6102AC,Echt,Echt-Susteren,Limburg,VBO,5.884194,51.094994
Pastoor Cramerstraat,2,C,,6102AC,Echt,Echt-Susteren,Limburg,VBO,5.884071,51.094755
Pastoor Cramerstraat,2,D,,6102AC,Echt,Echt-Susteren,Limburg,VBO,5.884271,51.094788
Pastoor Cramerstraat,2,E,,6102AC,Echt,Echt-Susteren,Limburg,VBO,5.884481,51.094969
Pastoor Cramerstraat,2,F,,6102AC,Echt,Echt-Susteren,Limburg,VBO,5.884730,51.094910
Pastoor Cramerstraat,2,G,,6102AC,Echt,Echt-Susteren,Limburg,VBO,5.884793,51.094579
Pastoor Cramerstraat,2,H,,6102AC,Echt,Echt-Susteren,Limburg,VBO,5.884706,51.094467
Pastoor Cramerstraat,2,I,,6102AC,Echt,Echt-Susteren,Limburg,VBO,5.884218,51.094599
Pastoor Cramerstraat,2,J,,6102AC,Echt,Echt-Susteren,Limburg,VBO,5.884504,51.094508
Pastoor Cramerstraat,2,K,,6102AC,Echt,Echt-Susteren,Limburg,VBO,5.884440,51.094836
Pastoor Cramerstraat,2,,,6102AC,Echt,Echt-Susteren,Limburg,VBO,5.884946,51.094877
Pastoor Cramerstraat,14,A,,6102AC,Echt,Echt-Susteren,Limburg,VBO,5.885327,51.094582
Pastoor Cramerstraat,14,B,,6102AC,Echt,Echt-Susteren,Limburg,VBO,5.885288,51.094531
Pastoor Cramerstraat,14,C,,6102AC,Echt,Echt-Susteren,Limburg,VBO,5.885250,51.094477
Pastoor Cramerstraat,14,D,,6102AC,Echt,Echt-Susteren,Limburg,VBO,5.885211,51.094419
Pastoor Cramerstraat,16,A,,6102AC,Echt,Echt-Susteren,Limburg,VBO,5.885532,51.094653
Pastoor Cramerstraat,16,B,,6102AC,Echt,Echt-Susteren,Limburg,VBO,5.885494,51.094602
Pastoor Cramerstraat,16,C,,6102AC,Echt,Echt-Susteren,Limburg,VBO,5.885455,51.094548
Pastoor Cramerstraat,16,D,,6102AC,Echt,Echt-Susteren,Limburg,VBO,5.885416,51.094490
Pastoor Cramerstraat,18,A,,6102AC,Echt,Echt-Susteren,Limburg,VBO,5.885669,51.094508
Pastoor Cramerstraat,18,B,,6102AC,Echt,Echt-Susteren,Limburg,VBO,5.885630,51.094457
Pastoor Cramerstraat,18,C,,6102AC,Echt,Echt-Susteren,Limburg,VBO,5.885592,51.094403
Pastoor Cramerstraat,18,D,,6102AC,Echt,Echt-Susteren,Limburg,VBO,5.885553,51.094345
Pastoor Cramerstraat,19,,,6102AC,Echt,Echt-Susteren,Limburg,VBO,5.884875,51.095143
Pastoor Cramerstraat,20,,,6102AC,Echt,Echt-Susteren,Limburg,VBO,5.886167,51.094429
Pastoor Cramerstraat,21,,,6102AC,Echt,Echt-Susteren,Limburg,VBO,5.885434,51.095008
Pastoor Cramerstraat,22,,,6102AC,Echt,Echt-Susteren,Limburg,VBO,5.886334,51.094327
Pastoor Cramerstraat,23,,,6102AC,Echt,Echt-Susteren,Limburg,VBO,5.885527,51.094986
Pastoor Cramerstraat,25,,,6102AC,Echt,Echt-Susteren,Limburg,VBO,5.885673,51.094951
Pastoor Cramerstraat,27,,,6102AC,Echt,Echt-Susteren,Limburg,VBO,5.885763,51.094929
Pastoor Cramerstraat,29,,,6102AC,Echt,Echt-Susteren,Limburg,VBO,5.885913,51.094892
Pastoor Cramerstraat,31,,,6102AC,Echt,Echt-Susteren,Limburg,VBO,5.885999,51.094872
Pastoor Cramerstraat,33,,,6102AC,Echt,Echt-Susteren,Limburg,VBO,5.886592,51.094552
Pastoor Cramerstraat,35,,,6102AC,Echt,Echt-Susteren,Limburg,VBO,5.886793,51.094424
Schoolstraat,1,,,6102AD,Echt,Echt-Susteren,Limburg,VBO,5.885816,51.097925
Schoolstraat,3,,,6102AD,Echt,Echt-Susteren,Limburg,VBO,5.885864,51.097896
Schoolstraat,5,,,6102AD,Echt,Echt-Susteren,Limburg,VBO,5.885828,51.097856
Schoolstraat,7,,,6102AD,Echt,Echt-Susteren,Limburg,VBO,5.885874,51.097835
Schoolstraat,9,,,6102AD,Echt,Echt-Susteren,Limburg,VBO,5.885864,51.097801
Schoolstraat,11,,,6102AD,Echt,Echt-Susteren,Limburg,VBO,5.885822,51.097693
Schoolstraat,13,,,6102AD,Echt,Echt-Susteren,Limburg,VBO,5.885862,51.097669
Schoolstraat,15,,,6102AD,Echt,Echt-Susteren,Limburg,VBO,5.885881,51.097702
Schoolstraat,17,,,6102AD,Echt,Echt-Susteren,Limburg,VBO,5.885831,51.097517
Schoolstraat,19,,,6102AD,Echt,Echt-Susteren,Limburg,VBO,5.885944,51.097525
Schoolstraat,21,,,6102AD,Echt,Echt-Susteren,Limburg,VBO,5.886041,51.097535
Schoolstraat,23,,,6102AD,Echt,Echt-Susteren,Limburg,VBO,5.885833,51.097557
Schoolstraat,25,,,6102AD,Echt,Echt-Susteren,Limburg,VBO,5.885945,51.097563
Schoolstraat,27,,,6102AD,Echt,Echt-Susteren,Limburg,VBO,5.886043,51.097565
Schoolstraat,29,,,6102AD,Echt,Echt-Susteren,Limburg,VBO,5.885831,51.097603
Schoolstraat,31,,,6102AD,Echt,Echt-Susteren,Limburg,VBO,5.885947,51.097600
Schoolstraat,33,,,6102AD,Echt,Echt-Susteren,Limburg,VBO,5.886044,51.097606
Schoolstraat,41,,,6102AD,Echt,Echt-Susteren,Limburg,VBO,5.885834,51.097216
Schoolstraat,43,,,6102AD,Echt,Echt-Susteren,Limburg,VBO,5.885819,51.097119
Schoolstraat,45,,,6102AD,Echt,Echt-Susteren,Limburg,VBO,5.885809,51.097050
Schoolstraat,47,,,6102AD,Echt,Echt-Susteren,Limburg,VBO,5.885863,51.096944
Schoolstraat,49,,,6102AD,Echt,Echt-Susteren,Limburg,VBO,5.885855,51.096866
Schoolstraat,51,A,,6102AD,Echt,Echt-Susteren,Limburg,VBO,5.885757,51.096810
Schoolstraat,51,,,6102AD,Echt,Echt-Susteren,Limburg,VBO,5.885763,51.096751
Schoolstraat,53,,,6102AD,Echt,Echt-Susteren,Limburg,VBO,5.885749,51.096582
Schoolstraat,57,,,6102AD,Echt,Echt-Susteren,Limburg,VBO,5.885665,51.096076
Schoolstraat,59,,,6102AD,Echt,Echt-Susteren,Limburg,VBO,5.885645,51.095990
Schoolstraat,61,,,6102AD,Echt,Echt-Susteren,Limburg,VBO,5.885632,51.095932
Schoolstraat,63,,,6102AD,Echt,Echt-Susteren,Limburg,VBO,5.885606,51.095815
Schoolstraat,65,,,6102AD,Echt,Echt-Susteren,Limburg,VBO,5.885594,51.095758
Schoolstraat,67,,,6102AD,Echt,Echt-Susteren,Limburg,VBO,5.885567,51.095634
Schoolstraat,69,,,6102AD,Echt,Echt-Susteren,Limburg,VBO,5.885555,51.095579
Schoolstraat,71,,,6102AD,Echt,Echt-Susteren,Limburg,VBO,5.885528,51.095460
Schoolstraat,73,,,6102AD,Echt,Echt-Susteren,Limburg,VBO,5.885514,51.095402
Schoolstraat,75,,,6102AD,Echt,Echt-Susteren,Limburg,VBO,5.885491,51.095292
Schoolstraat,77,,,6102AD,Echt,Echt-Susteren,Limburg,VBO,5.885477,51.095227
Schoolstraat,2,A,,6102AE,Echt,Echt-Susteren,Limburg,VBO,5.885585,51.097646
Schoolstraat,2,B,,6102AE,Echt,Echt-Susteren,Limburg,VBO,5.885567,51.097553
Schoolstraat,2,C,,6102AE,Echt,Echt-Susteren,Limburg,VBO,5.885534,51.097652
Schoolstraat,2,D,,6102AE,Echt,Echt-Susteren,Limburg,VBO,5.885512,51.097559
Schoolstraat,2,,,6102AE,Echt,Echt-Susteren,Limburg,VBO,5.885599,51.097816
Schoolstraat,4,,,6102AE,Echt,Echt-Susteren,Limburg,VBO,5.885170,51.097578
Schoolstraat,6,A,,6102AE,Echt,Echt-Susteren,Limburg,VBO,5.885532,51.097155
Schoolstraat,6,,,6102AE,Echt,Echt-Susteren,Limburg,VBO,5.885551,51.097286
Schoolstraat,8,A,,6102AE,Echt,Echt-Susteren,Limburg,VBO,5.885490,51.096873
Schoolstraat,8,,,6102AE,Echt,Echt-Susteren,Limburg,VBO,5.885512,51.096979
Schoolstraat,10,,,6102AE,Echt,Echt-Susteren,Limburg,VBO,5.885478,51.096819
Schoolstraat,12,A,,6102AE,Echt,Echt-Susteren,Limburg,VBO,5.885333,51.096422
Schoolstraat,12,B,,6102AE,Echt,Echt-Susteren,Limburg,VBO,5.885332,51.096374
Schoolstraat,12,C,,6102AE,Echt,Echt-Susteren,Limburg,VBO,5.885311,51.096304
Schoolstraat,12,,,6102AE,Echt,Echt-Susteren,Limburg,VBO,5.885464,51.096755
Schoolstraat,14,,,6102AE,Echt,Echt-Susteren,Limburg,VBO,5.885289,51.096219
Schoolstraat,16,,,6102AE,Echt,Echt-Susteren,Limburg,VBO,5.885275,51.096157
Schoolstraat,18,,,6102AE,Echt,Echt-Susteren,Limburg,VBO,5.885286,51.096073
Schoolstraat,20,,,6102AE,Echt,Echt-Susteren,Limburg,VBO,5.885177,51.095965
Schoolstraat,22,,,6102AE,Echt,Echt-Susteren,Limburg,VBO,5.885138,51.095787
Schoolstraat,24,,,6102AE,Echt,Echt-Susteren,Limburg,VBO,5.885173,51.095631
Schoolstraat,34,,,6102AE,Echt,Echt-Susteren,Limburg,VBO,5.885050,51.095439
Schoolstraat,36,,,6102AE,Echt,Echt-Susteren,Limburg,VBO,5.885037,51.095140
Kerkstraat,1,,,6102AG,Echt,Echt-Susteren,Limburg,VBO,5.886970,51.097719
Kerkstraat,2,,,6102AG,Echt,Echt-Susteren,Limburg,VBO,5.886686,51.097870
Kerkstraat,3,,,6102AG,Echt,Echt-Susteren,Limburg,VBO,5.886559,51.097547
Kerkstraat,4,,,6102AG,Echt,Echt-Susteren,Limburg,VBO,5.886628,51.097768
Kerkstraat,5,,,6102AG,Echt,Echt-Susteren,Limburg,VBO,5.886508,51.097442
Kerkstraat,6,,,6102AG,Echt,Echt-Susteren,Limburg,VBO,5.886312,51.097660
Kerkstraat,7,,,6102AG,Echt,Echt-Susteren,Limburg,VBO,5.886262,51.097420
Kerkstraat,8,,,6102AG,Echt,Echt-Susteren,Limburg,VBO,5.886188,51.097589
Kerkstraat,9,A,,6102AG,Echt,Echt-Susteren,Limburg,VBO,5.886633,51.097207
Kerkstraat,9,,,6102AG,Echt,Echt-Susteren,Limburg,VBO,5.886209,51.097348
Schilbergerstraat,11,,,6102AH,Echt,Echt-Susteren,Limburg,VBO,5.885939,51.096510
Schilbergerstraat,13,,,6102AH,Echt,Echt-Susteren,Limburg,VBO,5.886107,51.096512
Schilbergerstraat,15,,,6102AH,Echt,Echt-Susteren,Limburg,VBO,5.886246,51.096432
Schilbergerstraat,17,,,6102AH,Echt,Echt-Susteren,Limburg,VBO,5.886432,51.096352
Schilbergerstraat,19,,,6102AH,Echt,Echt-Susteren,Limburg,VBO,5.886485,51.096312
Schilbergerstraat,21,,,6102AH,Echt,Echt-Susteren,Limburg,VBO,5.886862,51.096257
Schilbergerstraat,29,A,,6102AH,Echt,Echt-Susteren,Limburg,VBO,5.887544,51.095870
Schilbergerstraat,29,,,6102AH,Echt,Echt-Susteren,Limburg,VBO,5.887379,51.095743
Schilbergerstraat,39,,,6102AH,Echt,Echt-Susteren,Limburg,VBO,5.887697,51.095547
Schilbergerstraat,41,,,6102AH,Echt,Echt-Susteren,Limburg,VBO,5.887834,51.095465
Schilbergerstraat,43,,,6102AH,Echt,Echt-Susteren,Limburg,VBO,5.887919,51.095428
Schilbergerstraat,45,,,6102AH,Echt,Echt-Susteren,Limburg,VBO,5.888073,51.095359
Schilbergerstraat,47,A,,6102AH,Echt,Echt-Susteren,Limburg,VBO,5.888340,51.095243
Schilbergerstraat,47,,,6102AH,Echt,Echt-Susteren,Limburg,VBO,5.888268,51.095274
Schilbergerstraat,49,,,6102AH,Echt,Echt-Susteren,Limburg,VBO,5.888538,51.095163
Schilbergerstraat,51,,,6102AH,Echt,Echt-Susteren,Limburg,VBO,5.888702,51.095037
Schilbergerstraat,2,,,6102AJ,Echt,Echt-Susteren,Limburg,VBO,5.884689,51.096592
Schilbergerstraat,4,,,6102AJ,Echt,Echt-Susteren,Limburg,VBO,5.884823,51.096559
Schilbergerstraat,6,,,6102AJ,Echt,Echt-Susteren,Limburg,VBO,5.884914,51.096536
Schilbergerstraat,8,,,6102AJ,Echt,Echt-Susteren,Limburg,VBO,5.885043,51.096505
Schilbergerstraat,10,,,6102AJ,Echt,Echt-Susteren,Limburg,VBO,5.885237,51.096457
Schilbergerstraat,12,,,6102AJ,Echt,Echt-Susteren,Limburg,VBO,5.885674,51.096356
Schilbergerstraat,14,,,6102AJ,Echt,Echt-Susteren,Limburg,VBO,5.885841,51.096288
Schilbergerstraat,16,,,6102AJ,Echt,Echt-Susteren,Limburg,VBO,5.885945,51.096251
Schilbergerstraat,18,,,6102AJ,Echt,Echt-Susteren,Limburg,VBO,5.886052,51.096211
Schilbergerstraat,20,,,6102AJ,Echt,Echt-Susteren,Limburg,VBO,5.886183,51.096152
Schilbergerstraat,22,,,6102AJ,Echt,Echt-Susteren,Limburg,VBO,5.886271,51.096107
Schilbergerstraat,26,,,6102AJ,Echt,Echt-Susteren,Limburg,VBO,5.886440,51.096002
Schilbergerstraat,30,,,6102AJ,Echt,Echt-Susteren,Limburg,VBO,5.886703,51.095822
Schilbergerstraat,32,,,6102AJ,Echt,Echt-Susteren,Limburg,VBO,5.886819,51.095729
Schilbergerstraat,34,,,6102AJ,Echt,Echt-Susteren,Limburg,VBO,5.886975,51.095612
Schilbergerstraat,36,,,6102AJ,Echt,Echt-Susteren,Limburg,VBO,5.887084,51.095534
Schilbergerstraat,38,,,6102AJ,Echt,Echt-Susteren,Limburg,VBO,5.887226,51.095449
Schilbergerstraat,40,,,6102AJ,Echt,Echt-Susteren,Limburg,VBO,5.887381,51.095320
Schilbergerstraat,42,,,6102AJ,Echt,Echt-Susteren,Limburg,VBO,5.887567,51.095234
Schilbergerstraat,46,A,,6102AJ,Echt,Echt-Susteren,Limburg,VBO,5.888045,51.095041
Schilbergerstraat,46,,,6102AJ,Echt,Echt-Susteren,Limburg,VBO,5.887884,51.095102
Schilbergerstraat,48,A,,6102AJ,Echt,Echt-Susteren,Limburg,VBO,5.888292,51.094923
Schilbergerstraat,48,,,6102AJ,Echt,Echt-Susteren,Limburg,VBO,5.888213,51.094958
Schilbergerstraat,50,,,6102AJ,Echt,Echt-Susteren,Limburg,VBO,5.888411,51.094750
Pastoor Drummenstraat,2,,,6102AK,Echt,Echt-Susteren,Limburg,VBO,5.886346,51.095728
Pastoor Drummenstraat,4,,,6102AK,Echt,Echt-Susteren,Limburg,VBO,5.886308,51.095669
Pastoor Drummenstraat,6,,,6102AK,Echt,Echt-Susteren,Limburg,VBO,5.886246,51.095555
Pastoor Drummenstraat,8,,,6102AK,Echt,Echt-Susteren,Limburg,VBO,5.886223,51.095489
Pastoor Drummenstraat,10,,,6102AK,Echt,Echt-Susteren,Limburg,VBO,5.886185,51.095382
Pastoor Drummenstraat,11,,,6102AK,Echt,Echt-Susteren,Limburg,VBO,5.886444,51.095179
Pastoor Drummenstraat,12,,,6102AK,Echt,Echt-Susteren,Limburg,VBO,5.886163,51.095318
Pastoor Drummenstraat,13,,,6102AK,Echt,Echt-Susteren,Limburg,VBO,5.886420,51.095112
Pastoor Drummenstraat,14,,,6102AK,Echt,Echt-Susteren,Limburg,VBO,5.886125,51.095210
Pastoor Drummenstraat,15,,,6102AK,Echt,Echt-Susteren,Limburg,VBO,5.886382,51.095002
Pastoor Drummenstraat,16,,,6102AK,Echt,Echt-Susteren,Limburg,VBO,5.886104,51.095148
Pastoor Drummenstraat,17,,,6102AK,Echt,Echt-Susteren,Limburg,VBO,5.886358,51.094933
Pastoor Drummenstraat,18,,,6102AK,Echt,Echt-Susteren,Limburg,VBO,5.886070,51.095050
Pastoor Drummenstraat,19,,,6102AK,Echt,Echt-Susteren,Limburg,VBO,5.886331,51.094766
Op den Drees,1,A,,6102AL,Echt,Echt-Susteren,Limburg,VBO,5.888203,51.094489
Op den Drees,1,,,6102AL,Echt,Echt-Susteren,Limburg,VBO,5.888392,51.094559
Op den Drees,2,,,6102AL,Echt,Echt-Susteren,Limburg,VBO,5.888744,51.094464
Op den Drees,3,,,6102AL,Echt,Echt-Susteren,Limburg,VBO,5.888566,51.094679
Op den Drees,4,,,6102AL,Echt,Echt-Susteren,Limburg,VBO,5.888808,51.094514
Op den Drees,6,,,6102AL,Echt,Echt-Susteren,Limburg,VBO,5.888904,51.094589
Op den Drees,7,,,6102AL,Echt,Echt-Susteren,Limburg,VBO,5.888813,51.094958
Op den Drees,8,,,6102AL,Echt,Echt-Susteren,Limburg,VBO,5.889128,51.094700
Op den Drees,9,,,6102AL,Echt,Echt-Susteren,Limburg,VBO,5.889108,51.094913
Op den Drees,10,,,6102AL,Echt,Echt-Susteren,Limburg,VBO,5.889274,51.094678
Op den Drees,11,,,6102AL,Echt,Echt-Susteren,Limburg,VBO,5.889336,51.094883
Op den Drees,12,,,6102AL,Echt,Echt-Susteren,Limburg,VBO,5.889476,51.094669
Op den Drees,15,,,6102AL,Echt,Echt-Susteren,Limburg,VBO,5.889611,51.094930
Op den Drees,16,,,6102AL,Echt,Echt-Susteren,Limburg,VBO,5.889832,51.094653
Op den Drees,17,,,6102AL,Echt,Echt-Susteren,Limburg,VBO,5.889812,51.094901
Op den Drees,18,,,6102AL,Echt,Echt-Susteren,Limburg,VBO,5.889941,51.094650
Op den Drees,19,,,6102AL,Echt,Echt-Susteren,Limburg,VBO,5.889887,51.094885
Op den Drees,20,,,6102AL,Echt,Echt-Susteren,Limburg,VBO,5.890027,51.094611
Lelfert,1,A,,6102AM,Echt,Echt-Susteren,Limburg,VBO,5.890567,51.094622
Lelfert,1,,,6102AM,Echt,Echt-Susteren,Limburg,VBO,5.890624,51.094715
Lelfert,2,,,6102AM,Echt,Echt-Susteren,Limburg,VBO,5.890218,51.094903
Lelfert,3,,,6102AM,Echt,Echt-Susteren,Limburg,VBO,5.890530,51.094491
Lelfert,4,,,6102AM,Echt,Echt-Susteren,Limburg,VBO,5.890200,51.094851
Lelfert,5,,,6102AM,Echt,Echt-Susteren,Limburg,VBO,5.890452,51.094350
Lelfert,8,,,6102AM,Echt,Echt-Susteren,Limburg,VBO,5.890148,51.094510
Lelfert,12,,,6102AM,Echt,Echt-Susteren,Limburg,VBO,5.890085,51.094385
Lelfert,14,,,6102AM,Echt,Echt-Susteren,Limburg,VBO,5.890069,51.094274
Lelfert,16,,,6102AM,Echt,Echt-Susteren,Limburg,VBO,5.889977,51.094135
Willibrordusstraat,5,,,6102AN,Echt,Echt-Susteren,Limburg,VBO,5.891090,51.094930
Willibrordusstraat,7,,,6102AN,Echt,Echt-Susteren,Limburg,VBO,5.891173,51.094901
Willibrordusstraat,9,,,6102AN,Echt,Echt-Susteren,Limburg,VBO,5.891258,51.094870
Willibrordusstraat,11,,,6102AN,Echt,Echt-Susteren,Limburg,VBO,5.891345,51.094839
Willibrordusstraat,13,,,6102AN,Echt,Echt-Susteren,Limburg,VBO,5.891429,51.094809
Willibrordusstraat,15,,,6102AN,Echt,Echt-Susteren,Limburg,VBO,5.891514,51.094779
Willibrordusstraat,17,,,6102AN,Echt,Echt-Susteren,Limburg,VBO,5.891655,51.094730
Willibrordusstraat,19,,,6102AN,Echt,Echt-Susteren,Limburg,VBO,5.891743,51.094701
Willibrordusstraat,21,,,6102AN,Echt,Echt-Susteren,Limburg,VBO,5.891830,51.094673
Willibrordusstraat,23,,,6102AN,Echt,Echt-Susteren,Limburg,VBO,5.891917,51.094645
Willibrordusstraat,25,,,6102AN,Echt,Echt-Susteren,Limburg,VBO,5.892001,51.094617
Willibrordusstraat,27,,,6102AN,Echt,Echt-Susteren,Limburg,VBO,5.892088,51.094589
Willibrordusstraat,29,,,6102AN,Echt,Echt-Susteren,Limburg,VBO,5.892237,51.094545
Willibrordusstraat,31,,,6102AN,Echt,Echt-Susteren,Limburg,VBO,5.892329,51.094521
Willibrordusstraat,33,,,6102AN,Echt,Echt-Susteren,Limburg,VBO,5.892426,51.094496
Willibrordusstraat,35,,,6102AN,Echt,Echt-Susteren,Limburg,VBO,5.892519,51.094471
Willibrordusstraat,37,,,6102AN,Echt,Echt-Susteren,Limburg,VBO,5.892617,51.094446
Willibrordusstraat,39,,,6102AN,Echt,Echt-Susteren,Limburg,VBO,5.892712,51.094421
Willibrordusstraat,41,,,6102AN,Echt,Echt-Susteren,Limburg,VBO,5.892869,51.094384
Willibrordusstraat,43,,,6102AN,Echt,Echt-Susteren,Limburg,VBO,5.892950,51.094366
Willibrordusstraat,45,,,6102AN,Echt,Echt-Susteren,Limburg,VBO,5.893029,51.094348
Willibrordusstraat,47,,,6102AN,Echt,Echt-Susteren,Limburg,VBO,5.893110,51.094330
Willibrordusstraat,49,,,6102AN,Echt,Echt-Susteren,Limburg,VBO,5.893463,51.094258
Willibrordusstraat,6,,,6102AP,Echt,Echt-Susteren,Limburg,VBO,5.890971,51.094688
Willibrordusstraat,8,,,6102AP,Echt,Echt-Susteren,Limburg,VBO,5.891060,51.094657
Willibrordusstraat,10,,,6102AP,Echt,Echt-Susteren,Limburg,VBO,5.891143,51.094627
Willibrordusstraat,12,,,6102AP,Echt,Echt-Susteren,Limburg,VBO,5.891229,51.094597
Willibrordusstraat,14,,,6102AP,Echt,Echt-Susteren,Limburg,VBO,5.891311,51.094567
Willibrordusstraat,16,,,6102AP,Echt,Echt-Susteren,Limburg,VBO,5.891398,51.094536
Willibrordusstraat,18,,,6102AP,Echt,Echt-Susteren,Limburg,VBO,5.891543,51.094486
Willibrordusstraat,20,,,6102AP,Echt,Echt-Susteren,Limburg,VBO,5.891636,51.094456
Willibrordusstraat,22,,,6102AP,Echt,Echt-Susteren,Limburg,VBO,5.891723,51.094429
Willibrordusstraat,24,,,6102AP,Echt,Echt-Susteren,Limburg,VBO,5.891804,51.094403
Willibrordusstraat,26,,,6102AP,Echt,Echt-Susteren,Limburg,VBO,5.891895,51.094374
Willibrordusstraat,28,,,6102AP,Echt,Echt-Susteren,Limburg,VBO,5.891981,51.094347
Willibrordusstraat,30,,,6102AP,Echt,Echt-Susteren,Limburg,VBO,5.892135,51.094303
Willibrordusstraat,32,,,6102AP,Echt,Echt-Susteren,Limburg,VBO,5.892228,51.094279
Willibrordusstraat,34,,,6102AP,Echt,Echt-Susteren,Limburg,VBO,5.892317,51.094256
Willibrordusstraat,36,,,6102AP,Echt,Echt-Susteren,Limburg,VBO,5.892408,51.094233
Willibrordusstraat,38,,,6102AP,Echt,Echt-Susteren,Limburg,VBO,5.892498,51.094209
Willibrordusstraat,40,,,6102AP,Echt,Echt-Susteren,Limburg,VBO,5.892587,51.094186
Willibrordusstraat,42,,,6102AP,Echt,Echt-Susteren,Limburg,VBO,5.892676,51.094163
Willibrordusstraat,44,,,6102AP,Echt,Echt-Susteren,Limburg,VBO,5.892841,51.094125
Willibrordusstraat,46,,,6102AP,Echt,Echt-Susteren,Limburg,VBO,5.892923,51.094108
Willibrordusstraat,48,,,6102AP,Echt,Echt-Susteren,Limburg,VBO,5.892999,51.094091
Willibrordusstraat,50,,,6102AP,Echt,Echt-Susteren,Limburg,VBO,5.893079,51.094074
Willibrordusstraat,52,,,6102AP,Echt,Echt-Susteren,Limburg,VBO,5.893160,51.094057
Willibrordusstraat,54,,,6102AP,Echt,Echt-Susteren,Limburg,VBO,5.893246,51.094038
Willibrordusstraat,56,,,6102AP,Echt,Echt-Susteren,Limburg,VBO,5.893399,51.093989
Servatiusstraat,1,,,6102AR,Echt,Echt-Susteren,Limburg,VBO,5.894017,51.094279
Servatiusstraat,2,,,6102AR,Echt,Echt-Susteren,Limburg,VBO,5.893609,51.094444
Servatiusstraat,3,,,6102AR,Echt,Echt-Susteren,Limburg,VBO,5.893980,51.094225
Servatiusstraat,4,,,6102AR,Echt,Echt-Susteren,Limburg,VBO,5.893574,51.094396
Servatiusstraat,5,,,6102AR,Echt,Echt-Susteren,Limburg,VBO,5.893942,51.094169
Servatiusstraat,6,,,6102AR,Echt,Echt-Susteren,Limburg,VBO,5.893539,51.094348
Servatiusstraat,7,,,6102AR,Echt,Echt-Susteren,Limburg,VBO,5.893903,51.094111
Servatiusstraat,8,,,6102AR,Echt,Echt-Susteren,Limburg,VBO,5.893504,51.094299
Servatiusstraat,9,,,6102AR,Echt,Echt-Susteren,Limburg,VBO,5.893866,51.094056
Servatiusstraat,11,,,6102AR,Echt,Echt-Susteren,Limburg,VBO,5.893827,51.093999
Servatiusstraat,13,,,6102AR,Echt,Echt-Susteren,Limburg,VBO,5.894061,51.094266
Servatiusstraat,15,,,6102AR,Echt,Echt-Susteren,Limburg,VBO,5.894025,51.094212
Servatiusstraat,17,,,6102AR,Echt,Echt-Susteren,Limburg,VBO,5.893986,51.094155
Servatiusstraat,19,,,6102AR,Echt,Echt-Susteren,Limburg,VBO,5.893949,51.094099
Servatiusstraat,21,,,6102AR,Echt,Echt-Susteren,Limburg,VBO,5.893908,51.094043
Servatiusstraat,23,,,6102AR,Echt,Echt-Susteren,Limburg,VBO,5.893870,51.093987
Hubertusstraat,1,A,,6102AS,Echt,Echt-Susteren,Limburg,VBO,5.886967,51.096492
Hubertusstraat,1,,,6102AS,Echt,Echt-Susteren,Limburg,VBO,5.887458,51.096392
Hubertusstraat,3,,,6102AS,Echt,Echt-Susteren,Limburg,VBO,5.887877,51.096139
Hubertusstraat,5,,,6102AS,Echt,Echt-Susteren,Limburg,VBO,5.888056,51.096122
Hubertusstraat,7,,,6102AS,Echt,Echt-Susteren,Limburg,VBO,5.888238,51.096104
Hubertusstraat,9,,,6102AS,Echt,Echt-Susteren,Limburg,VBO,5.888403,51.096087
Hubertusstraat,11,,,6102AS,Echt,Echt-Susteren,Limburg,VBO,5.888886,51.096040
Hubertusstraat,13,,,6102AS,Echt,Echt-Susteren,Limburg,VBO,5.889071,51.096023
Hubertusstraat,15,,,6102AS,Echt,Echt-Susteren,Limburg,VBO,5.889259,51.096004
Hubertusstraat,17,,,6102AS,Echt,Echt-Susteren,Limburg,VBO,5.890017,51.095921
Hubertusstraat,19,,,6102AS,Echt,Echt-Susteren,Limburg,VBO,5.890117,51.095911
Hubertusstraat,21,,,6102AS,Echt,Echt-Susteren,Limburg,VBO,5.890215,51.095901
Hubertusstraat,23,,,6102AS,Echt,Echt-Susteren,Limburg,VBO,5.890313,51.095892
Hubertusstraat,61,,,6102AS,Echt,Echt-Susteren,Limburg,VBO,5.892431,51.095234
Hubertusstraat,63,,,6102AS,Echt,Echt-Susteren,Limburg,VBO,5.892508,51.095207
Hubertusstraat,65,,,6102AS,Echt,Echt-Susteren,Limburg,VBO,5.892591,51.095177
Hubertusstraat,67,,,6102AS,Echt,Echt-Susteren,Limburg,VBO,5.892669,51.095149
Hubertusstraat,69,,,6102AS,Echt,Echt-Susteren,Limburg,VBO,5.892828,51.095124
Hubertusstraat,71,,,6102AS,Echt,Echt-Susteren,Limburg,VBO,5.892908,51.095095
Hubertusstraat,73,,,6102AS,Echt,Echt-Susteren,Limburg,VBO,5.892987,51.095067
Hubertusstraat,75,,,6102AS,Echt,Echt-Susteren,Limburg,VBO,5.893065,51.095038
Hubertusstraat,77,,,6102AS,Echt,Echt-Susteren,Limburg,VBO,5.893143,51.095010
Hubertusstraat,79,,,6102AS,Echt,Echt-Susteren,Limburg,VBO,5.893222,51.094982
Hubertusstraat,81,,,6102AT,Echt,Echt-Susteren,Limburg,VBO,5.893343,51.094909
Hubertusstraat,83,,,6102AT,Echt,Echt-Susteren,Limburg,VBO,5.893421,51.094881
Hubertusstraat,85,,,6102AT,Echt,Echt-Susteren,Limburg,VBO,5.893499,51.094853
Hubertusstraat,87,,,6102AT,Echt,Echt-Susteren,Limburg,VBO,5.893578,51.094825
Hubertusstraat,89,,,6102AT,Echt,Echt-Susteren,Limburg,VBO,5.893658,51.094796
Hubertusstraat,91,,,6102AT,Echt,Echt-Susteren,Limburg,VBO,5.893737,51.094768
Hubertusstraat,93,,,6102AT,Echt,Echt-Susteren,Limburg,VBO,5.893903,51.094739
Hubertusstraat,95,,,6102AT,Echt,Echt-Susteren,Limburg,VBO,5.893984,51.094713
Hubertusstraat,97,,,6102AT,Echt,Echt-Susteren,Limburg,VBO,5.894064,51.094687
Hubertusstraat,99,,,6102AT,Echt,Echt-Susteren,Limburg,VBO,5.894142,51.094661
Hubertusstraat,101,,,6102AT,Echt,Echt-Susteren,Limburg,VBO,5.894221,51.094636
Hubertusstraat,103,,,6102AT,Echt,Echt-Susteren,Limburg,VBO,5.894305,51.094608
Hubertusstraat,105,,,6102AT,Echt,Echt-Susteren,Limburg,VBO,5.894443,51.094543
Hubertusstraat,107,,,6102AT,Echt,Echt-Susteren,Limburg,VBO,5.894528,51.094522
Hubertusstraat,109,,,6102AT,Echt,Echt-Susteren,Limburg,VBO,5.894613,51.094502
Hubertusstraat,111,,,6102AT,Echt,Echt-Susteren,Limburg,VBO,5.894697,51.094481
Hubertusstraat,113,,,6102AT,Echt,Echt-Susteren,Limburg,VBO,5.894871,51.094453
Hubertusstraat,115,,,6102AT,Echt,Echt-Susteren,Limburg,VBO,5.895053,51.094421
Hubertusstraat,2,,,6102AV,Echt,Echt-Susteren,Limburg,VBO,5.887934,51.095873
Hubertusstraat,4,,,6102AV,Echt,Echt-Susteren,Limburg,VBO,5.888036,51.095862
Hubertusstraat,6,,,6102AV,Echt,Echt-Susteren,Limburg,VBO,5.888217,51.095845
Hubertusstraat,8,,,6102AV,Echt,Echt-Susteren,Limburg,VBO,5.888315,51.095835
Hubertusstraat,10,,,6102AV,Echt,Echt-Susteren,Limburg,VBO,5.888492,51.095819
Hubertusstraat,12,,,6102AV,Echt,Echt-Susteren,Limburg,VBO,5.888600,51.095807
Hubertusstraat,14,,,6102AV,Echt,Echt-Susteren,Limburg,VBO,5.888782,51.095789
Hubertusstraat,16,,,6102AV,Echt,Echt-Susteren,Limburg,VBO,5.888968,51.095771
Hubertusstraat,18,,,6102AV,Echt,Echt-Susteren,Limburg,VBO,5.889257,51.095677
Hubertusstraat,24,,,6102AV,Echt,Echt-Susteren,Limburg,VBO,5.889633,51.095706
Hubertusstraat,26,,,6102AV,Echt,Echt-Susteren,Limburg,VBO,5.889729,51.095696
Hubertusstraat,28,,,6102AV,Echt,Echt-Susteren,Limburg,VBO,5.889830,51.095687
Hubertusstraat,30,,,6102AV,Echt,Echt-Susteren,Limburg,VBO,5.889928,51.095677
Hubertusstraat,32,,,6102AV,Echt,Echt-Susteren,Limburg,VBO,5.890091,51.095652
Hubertusstraat,34,,,6102AV,Echt,Echt-Susteren,Limburg,VBO,5.890188,51.095643
Hubertusstraat,36,,,6102AV,Echt,Echt-Susteren,Limburg,VBO,5.890288,51.095633
Hubertusstraat,38,,,6102AV,Echt,Echt-Susteren,Limburg,VBO,5.890386,51.095623
Hubertusstraat,40,,,6102AV,Echt,Echt-Susteren,Limburg,VBO,5.890576,51.095604
Hubertusstraat,42,,,6102AV,Echt,Echt-Susteren,Limburg,VBO,5.890669,51.095572
Hubertusstraat,44,,,6102AW,Echt,Echt-Susteren,Limburg,VBO,5.891228,51.095353
Hubertusstraat,46,,,6102AW,Echt,Echt-Susteren,Limburg,VBO,5.891420,51.095285
Hubertusstraat,48,,,6102AW,Echt,Echt-Susteren,Limburg,VBO,5.891508,51.095254
Hubertusstraat,50,,,6102AW,Echt,Echt-Susteren,Limburg,VBO,5.891597,51.095222
Hubertusstraat,52,,,6102AW,Echt,Echt-Susteren,Limburg,VBO,5.891686,51.095190
Hubertusstraat,54,,,6102AW,Echt,Echt-Susteren,Limburg,VBO,5.891774,51.095159
Hubertusstraat,56,,,6102AW,Echt,Echt-Susteren,Limburg,VBO,5.891864,51.095127
Hubertusstraat,58,,,6102AW,Echt,Echt-Susteren,Limburg,VBO,5.892012,51.095074
Hubertusstraat,60,,,6102AW,Echt,Echt-Susteren,Limburg,VBO,5.892098,51.095044
Hubertusstraat,62,,,6102AW,Echt,Echt-Susteren,Limburg,VBO,5.892182,51.095014
Hubertusstraat,64,,,6102AW,Echt,Echt-Susteren,Limburg,VBO,5.892266,51.094984
Hubertusstraat,66,,,6102AW,Echt,Echt-Susteren,Limburg,VBO,5.892349,51.094954
Hubertusstraat,68,,,6102AW,Echt,Echt-Susteren,Limburg,VBO,5.892435,51.094924
Hubertusstraat,70,,,6102AW,Echt,Echt-Susteren,Limburg,VBO,5.892580,51.094872
Hubertusstraat,72,,,6102AW,Echt,Echt-Susteren,Limburg,VBO,5.892666,51.094842
Hubertusstraat,74,,,6102AW,Echt,Echt-Susteren,Limburg,VBO,5.892750,51.094812
Hubertusstraat,76,,,6102AW,Echt,Echt-Susteren,Limburg,VBO,5.892834,51.094782
Hubertusstraat,78,,,6102AW,Echt,Echt-Susteren,Limburg,VBO,5.892921,51.094751
Hubertusstraat,80,,,6102AW,Echt,Echt-Susteren,Limburg,VBO,5.893004,51.094721
Hubertusstraat,82,,,6102AW,Echt,Echt-Susteren,Limburg,VBO,5.893145,51.094671
Hubertusstraat,84,,,6102AW,Echt,Echt-Susteren,Limburg,VBO,5.893221,51.094644
Hubertusstraat,86,,,6102AW,Echt,Echt-Susteren,Limburg,VBO,5.893295,51.094617
Hubertusstraat,88,,,6102AW,Echt,Echt-Susteren,Limburg,VBO,5.893374,51.094589
Hubertusstraat,90,,,6102AW,Echt,Echt-Susteren,Limburg,VBO,5.893635,51.094493
Hubertusstraat,92,,,6102AX,Echt,Echt-Susteren,Limburg,VBO,5.894345,51.094278
Hubertusstraat,94,,,6102AX,Echt,Echt-Susteren,Limburg,VBO,5.894424,51.094260
Hubertusstraat,96,,,6102AX,Echt,Echt-Susteren,Limburg,VBO,5.894505,51.094241
Hubertusstraat,98,,,6102AX,Echt,Echt-Susteren,Limburg,VBO,5.894589,51.094221
Hubertusstraat,100,,,6102AX,Echt,Echt-Susteren,Limburg,VBO,5.894735,51.094188
Hubertusstraat,102,,,6102AX,Echt,Echt-Susteren,Limburg,VBO,5.894818,51.094169
Hubertusstraat,104,,,6102AX,Echt,Echt-Susteren,Limburg,VBO,5.894901,51.094150
Hubertusstraat,106,,,6102AX,Echt,Echt-Susteren,Limburg,VBO,5.894982,51.094132
Hubertusstraat,108,,,6102AX,Echt,Echt-Susteren,Limburg,VBO,5.895065,51.094113
Hubertusstraat,110,,,6102AX,Echt,Echt-Susteren,Limburg,VBO,5.895144,51.094093
Martinusstraat,2,,,6102AZ,Echt,Echt-Susteren,Limburg,VBO,5.890115,51.097017
Martinusstraat,3,,,6102AZ,Echt,Echt-Susteren,Limburg,VBO,5.890253,51.096540
Martinusstraat,4,,,6102AZ,Echt,Echt-Susteren,Limburg,VBO,5.889990,51.096800
Martinusstraat,6,,,6102AZ,Echt,Echt-Susteren,Limburg,VBO,5.889894,51.096701
Martinusstraat,8,,,6102AZ,Echt,Echt-Susteren,Limburg,VBO,5.889797,51.096582
Martinusstraat,9,,,6102AZ,Echt,Echt-Susteren,Limburg,VBO,5.890152,51.096412
Martinusstraat,10,,,6102AZ,Echt,Echt-Susteren,Limburg,VBO,5.889695,51.096493
Martinusstraat,11,,,6102AZ,Echt,Echt-Susteren,Limburg,VBO,5.890000,51.096271
Martinusstraat,12,,,6102AZ,Echt,Echt-Susteren,Limburg,VBO,5.889597,51.096391
Martinusstraat,13,,,6102AZ,Echt,Echt-Susteren,Limburg,VBO,5.889774,51.096068
Martinusstraat,14,,,6102AZ,Echt,Echt-Susteren,Limburg,VBO,5.889503,51.096281
Martinusstraat,15,,,6102AZ,Echt,Echt-Susteren,Limburg,VBO,5.889755,51.095998
Martinusstraat,16,,,6102AZ,Echt,Echt-Susteren,Limburg,VBO,5.889408,51.096192
Wiejerdstraat,4,,,6102BA,Echt,Echt-Susteren,Limburg,VBO,5.891284,51.096216
Wiejerdstraat,5,,,6102BA,Echt,Echt-Susteren,Limburg,VBO,5.891123,51.095387
Wiejerdstraat,6,,,6102BA,Echt,Echt-Susteren,Limburg,VBO,5.891241,51.096168
Wiejerdstraat,7,,,6102BA,Echt,Echt-Susteren,Limburg,VBO,5.891000,51.095228
Wiejerdstraat,9,,,6102BA,Echt,Echt-Susteren,Limburg,VBO,5.890922,51.095123
Wiejerdstraat,10,,,6102BA,Echt,Echt-Susteren,Limburg,VBO,5.891132,51.096048
Wiejerdstraat,11,,,6102BA,Echt,Echt-Susteren,Limburg,VBO,5.890826,51.095019
Wiejerdstraat,12,,,6102BA,Echt,Echt-Susteren,Limburg,VBO,5.891088,51.095999
Wiejerdstraat,16,,,6102BA,Echt,Echt-Susteren,Limburg,VBO,5.890941,51.095837
Wiejerdstraat,36,,,6102BA,Echt,Echt-Susteren,Limburg,VBO,5.890580,51.095443
Wiejerdstraat,38,,,6102BA,Echt,Echt-Susteren,Limburg,VBO,5.890461,51.095308
Wiejerdstraat,40,,,6102BA,Echt,Echt-Susteren,Limburg,VBO,5.890367,51.095192
Wiejerdstraat,48,,,6102BA,Echt,Echt-Susteren,Limburg,VBO,5.890228,51.095071
Chatelainplein,1,,,6102BB,Echt,Echt-Susteren,Limburg,VBO,5.892566,51.095927
Chatelainplein,3,A,,6102BB,Echt,Echt-Susteren,Limburg,VBO,5.892527,51.095815
Chatelainplein,3,,,6102BB,Echt,Echt-Susteren,Limburg,VBO,5.892480,51.095832
Chatelainplein,5,,,6102BB,Echt,Echt-Susteren,Limburg,VBO,5.892409,51.095759
Chatelainplein,7,,,6102BB,Echt,Echt-Susteren,Limburg,VBO,5.892341,51.095676
Chatelainplein,9,,,6102BB,Echt,Echt-Susteren,Limburg,VBO,5.892385,51.095660
Chatelainplein,11,,,6102BB,Echt,Echt-Susteren,Limburg,VBO,5.892429,51.095643
Chatelainplein,13,,,6102BB,Echt,Echt-Susteren,Limburg,VBO,5.892005,51.095338
Chatelainplein,15,A,,6102BB,Echt,Echt-Susteren,Limburg,VBO,5.892215,51.095519
Chatelainplein,15,B,,6102BB,Echt,Echt-Susteren,Limburg,VBO,5.892152,51.095458
Chatelainplein,15,C,,6102BB,Echt,Echt-Susteren,Limburg,VBO,5.892083,51.095371
Chatelainplein,15,,,6102BB,Echt,Echt-Susteren,Limburg,VBO,5.892276,51.095587
Chatelainplein,17,,,6102BB,Echt,Echt-Susteren,Limburg,VBO,5.892321,51.095529
Chatelainplein,19,,,6102BB,Echt,Echt-Susteren,Limburg,VBO,5.892371,51.095508
Chatelainplein,21,,,6102BB,Echt,Echt-Susteren,Limburg,VBO,5.892417,51.095488
Chatelainplein,23,,,6102BB,Echt,Echt-Susteren,Limburg,VBO,5.892182,51.095376
Chatelainplein,25,,,6102BB,Echt,Echt-Susteren,Limburg,VBO,5.892232,51.095356
Chatelainplein,27,,,6102BB,Echt,Echt-Susteren,Limburg,VBO,5.892280,51.095338
Chatelainplein,31,,,6102BB,Echt,Echt-Susteren,Limburg,VBO,5.892123,51.095881
Chatelainplein,33,,,6102BB,Echt,Echt-Susteren,Limburg,VBO,5.891655,51.096049
Wirostraat,2,,,6102BC,Echt,Echt-Susteren,Limburg,VBO,5.895640,51.094944
Wirostraat,3,,,6102BC,Echt,Echt-Susteren,Limburg,VBO,5.895906,51.094691
Wirostraat,4,,,6102BC,Echt,Echt-Susteren,Limburg,VBO,5.895547,51.094802
Wirostraat,5,,,6102BC,Echt,Echt-Susteren,Limburg,VBO,5.895836,51.094592
Wirostraat,6,,,6102BC,Echt,Echt-Susteren,Limburg,VBO,5.895465,51.094686
Wirostraat,7,,,6102BC,Echt,Echt-Susteren,Limburg,VBO,5.895792,51.094531
Wirostraat,8,,,6102BC,Echt,Echt-Susteren,Limburg,VBO,5.895392,51.094583
Wirostraat,9,,,6102BC,Echt,Echt-Susteren,Limburg,VBO,5.895722,51.094431
Wirostraat,10,,,6102BC,Echt,Echt-Susteren,Limburg,VBO,5.895300,51.094453
Wirostraat,11,,,6102BC,Echt,Echt-Susteren,Limburg,VBO,5.895679,51.094371
Wirostraat,13,,,6102BC,Echt,Echt-Susteren,Limburg,VBO,5.895617,51.094263
Wirostraat,15,,,6102BC,Echt,Echt-Susteren,Limburg,VBO,5.895590,51.094199
Wirostraat,17,,,6102BC,Echt,Echt-Susteren,Limburg,VBO,5.895571,51.094072
Houtstraat,5,,,6102BD,Echt,Echt-Susteren,Limburg,VBO,5.886017,51.098164
Houtstraat,7,A,,6102BD,Echt,Echt-Susteren,Limburg,VBO,5.886297,51.098205
Houtstraat,7,,,6102BD,Echt,Echt-Susteren,Limburg,VBO,5.886304,51.098170
Houtstraat,9,,,6102BD,Echt,Echt-Susteren,Limburg,VBO,5.886518,51.098179
Houtstraat,11,,,6102BD,Echt,Echt-Susteren,Limburg,VBO,5.886691,51.098189
Houtstraat,13,A,,6102BD,Echt,Echt-Susteren,Limburg,VBO,5.886783,51.098223
Houtstraat,13,,,6102BD,Echt,Echt-Susteren,Limburg,VBO,5.886811,51.098195
Houtstraat,15,,,6102BD,Echt,Echt-Susteren,Limburg,VBO,5.886942,51.098199
Houtstraat,17,,,6102BD,Echt,Echt-Susteren,Limburg,VBO,5.887081,51.098201
Houtstraat,19,,,6102BD,Echt,Echt-Susteren,Limburg,VBO,5.887181,51.098200
Houtstraat,21,,,6102BD,Echt,Echt-Susteren,Limburg,VBO,5.887258,51.098203
Houtstraat,23,,,6102BD,Echt,Echt-Susteren,Limburg,VBO,5.887323,51.098232
Houtstraat,25,,,6102BD,Echt,Echt-Susteren,Limburg,VBO,5.887390,51.098204
Houtstraat,31,A,,6102BD,Echt,Echt-Susteren,Limburg,VBO,5.887774,51.098206
Houtstraat,31,B,,6102BD,Echt,Echt-Susteren,Limburg,VBO,5.887774,51.098237
Houtstraat,31,C,,6102BD,Echt,Echt-Susteren,Limburg,VBO,5.887772,51.098269
Houtstraat,31,D,,6102BD,Echt,Echt-Susteren,Limburg,VBO,5.887772,51.098300
Houtstraat,31,E,,6102BD,Echt,Echt-Susteren,Limburg,VBO,5.887771,51.098332
Houtstraat,31,F,,6102BD,Echt,Echt-Susteren,Limburg,VBO,5.887877,51.098207
Houtstraat,31,G,,6102BD,Echt,Echt-Susteren,Limburg,VBO,5.887874,51.098239
Houtstraat,31,H,,6102BD,Echt,Echt-Susteren,Limburg,VBO,5.887874,51.098270
Houtstraat,31,J,,6102BD,Echt,Echt-Susteren,Limburg,VBO,5.887870,51.098302
Houtstraat,33,A,,6102BD,Echt,Echt-Susteren,Limburg,VBO,5.887997,51.098188
Houtstraat,33,B,,6102BD,Echt,Echt-Susteren,Limburg,VBO,5.887997,51.098219
Houtstraat,33,C,,6102BD,Echt,Echt-Susteren,Limburg,VBO,5.887995,51.098251
Houtstraat,33,D,,6102BD,Echt,Echt-Susteren,Limburg,VBO,5.887995,51.098282
Houtstraat,33,E,,6102BD,Echt,Echt-Susteren,Limburg,VBO,5.887994,51.098313
Houtstraat,33,F,,6102BD,Echt,Echt-Susteren,Limburg,VBO,5.888100,51.098189
Houtstraat,33,G,,6102BD,Echt,Echt-Susteren,Limburg,VBO,5.888097,51.098220
Houtstraat,33,H,,6102BD,Echt,Echt-Susteren,Limburg,VBO,5.888097,51.098252
Houtstraat,33,J,,6102BD,Echt,Echt-Susteren,Limburg,VBO,5.888093,51.098283
Houtstraat,33,K,,6102BD,Echt,Echt-Susteren,Limburg,VBO,5.888094,51.098315
Houtstraat,33,L,,6102BD,Echt,Echt-Susteren,Limburg,VBO,5.888091,51.098346
Houtstraat,35,,,6102BD,Echt,Echt-Susteren,Limburg,VBO,5.888234,51.098185
Houtstraat,37,,,6102BD,Echt,Echt-Susteren,Limburg,VBO,5.888335,51.098185
Houtstraat,39,,,6102BD,Echt,Echt-Susteren,Limburg,VBO,5.888525,51.098179
Houtstraat,41,,,6102BD,Echt,Echt-Susteren,Limburg,VBO,5.888784,51.098182
Houtstraat,43,,,6102BD,Echt,Echt-Susteren,Limburg,VBO,5.888923,51.098030
Houtstraat,45,,,6102BD,Echt,Echt-Susteren,Limburg,VBO,5.889065,51.097982
Houtstraat,47,,,6102BD,Echt,Echt-Susteren,Limburg,VBO,5.889151,51.097943
Houtstraat,49,,,6102BD,Echt,Echt-Susteren,Limburg,VBO,5.889259,51.097903
Houtstraat,55,,,6102BE,Echt,Echt-Susteren,Limburg,VBO,5.889451,51.097814
Houtstraat,59,A,,6102BE,Echt,Echt-Susteren,Limburg,VBO,5.889765,51.097667
Houtstraat,59,,,6102BE,Echt,Echt-Susteren,Limburg,VBO,5.889633,51.097729
Houtstraat,61,,,6102BE,Echt,Echt-Susteren,Limburg,VBO,5.889989,51.097518
Houtstraat,63,A,,6102BE,Echt,Echt-Susteren,Limburg,VBO,5.890227,51.097403
Houtstraat,63,,,6102BE,Echt,Echt-Susteren,Limburg,VBO,5.890123,51.097449
Houtstraat,65,A,,6102BE,Echt,Echt-Susteren,Limburg,VBO,5.890374,51.097402
Houtstraat,65,,,6102BE,Echt,Echt-Susteren,Limburg,VBO,5.890358,51.097373
Houtstraat,67,,,6102BE,Echt,Echt-Susteren,Limburg,VBO,5.890477,51.097372
Houtstraat,69,,,6102BE,Echt,Echt-Susteren,Limburg,VBO,5.890600,51.097290
Houtstraat,71,A,,6102BE,Echt,Echt-Susteren,Limburg,VBO,5.890764,51.097234
Houtstraat,71,,,6102BE,Echt,Echt-Susteren,Limburg,VBO,5.890728,51.097207
Houtstraat,73,,,6102BE,Echt,Echt-Susteren,Limburg,VBO,5.890950,51.097150
Houtstraat,75,,,6102BE,Echt,Echt-Susteren,Limburg,VBO,5.891255,51.096938
Houtstraat,77,,,6102BE,Echt,Echt-Susteren,Limburg,VBO,5.891464,51.096850
Houtstraat,79,A,,6102BE,Echt,Echt-Susteren,Limburg,VBO,5.891698,51.096725
Houtstraat,79,B,,6102BE,Echt,Echt-Susteren,Limburg,VBO,5.891717,51.096787
Houtstraat,79,,,6102BE,Echt,Echt-Susteren,Limburg,VBO,5.891596,51.096787
Houtstraat,83,,,6102BG,Echt,Echt-Susteren,Limburg,VBO,5.892038,51.096613
Houtstraat,85,,,6102BG,Echt,Echt-Susteren,Limburg,VBO,5.892217,51.096532
Houtstraat,87,A,,6102BG,Echt,Echt-Susteren,Limburg,VBO,5.892471,51.096465
Houtstraat,87,,,6102BG,Echt,Echt-Susteren,Limburg,VBO,5.892435,51.096431
Houtstraat,91,,,6102BG,Echt,Echt-Susteren,Limburg,VBO,5.892889,51.096228
Houtstraat,93,,,6102BG,Echt,Echt-Susteren,Limburg,VBO,5.893185,51.096661
Houtstraat,101,,,6102BG,Echt,Echt-Susteren,Limburg,VBO,5.893294,51.096048
Houtstraat,103,,,6102BG,Echt,Echt-Susteren,Limburg,VBO,5.893464,51.095928
Houtstraat,105,A,,6102BG,Echt,Echt-Susteren,Limburg,VBO,5.894348,51.095981
Houtstraat,105,B,,6102BG,Echt,Echt-Susteren,Limburg,VBO,5.894061,51.095977
Houtstraat,105,,,6102BG,Echt,Echt-Susteren,Limburg,VBO,5.894476,51.095752
Houtstraat,109,A,,6102BG,Echt,Echt-Susteren,Limburg,VBO,5.894913,51.095613
Houtstraat,109,,,6102BG,Echt,Echt-Susteren,Limburg,VBO,5.894914,51.095536
Houtstraat,111,,,6102BH,Echt,Echt-Susteren,Limburg,VBO,5.895153,51.095446
Houtstraat,113,A,,6102BH,Echt,Echt-Susteren,Limburg,VBO,5.895405,51.095398
Houtstraat,113,B,,6102BH,Echt,Echt-Susteren,Limburg,VBO,5.895564,51.095352
Houtstraat,113,C,,6102BH,Echt,Echt-Susteren,Limburg,VBO,5.895709,51.095311
Houtstraat,113,,,6102BH,Echt,Echt-Susteren,Limburg,VBO,5.895322,51.095421
Houtstraat,115,,,6102BH,Echt,Echt-Susteren,Limburg,VBO,5.895922,51.095240
Houtstraat,117,,,6102BH,Echt,Echt-Susteren,Limburg,VBO,5.896335,51.095177
Houtstraat,127,,,6102BH,Echt,Echt-Susteren,Limburg,VBO,5.896380,51.095069
Houtstraat,129,A,,6102BH,Echt,Echt-Susteren,Limburg,VBO,5.897094,51.094833
Houtstraat,129,,,6102BH,Echt,Echt-Susteren,Limburg,VBO,5.896931,51.094902
Houtstraat,131,,,6102BH,Echt,Echt-Susteren,Limburg,VBO,5.897304,51.094743
Houtstraat,133,,,6102BH,Echt,Echt-Susteren,Limburg,VBO,5.897390,51.094707
Houtstraat,135,,,6102BH,Echt,Echt-Susteren,Limburg,VBO,5.897542,51.094642
Houtstraat,137,A,,6102BH,Echt,Echt-Susteren,Limburg,VBO,5.898031,51.094513
Houtstraat,137,C,,6102BH,Echt,Echt-Susteren,Limburg,VBO,5.898199,51.094393
Houtstraat,137,,,6102BH,Echt,Echt-Susteren,Limburg,VBO,5.897616,51.094531
Houtstraat,139,,,6102BH,Echt,Echt-Susteren,Limburg,VBO,5.898306,51.094283
Houtstraat,141,,,6102BH,Echt,Echt-Susteren,Limburg,VBO,5.898422,51.094222
Houtstraat,145,,,6102BH,Echt,Echt-Susteren,Limburg,VBO,5.898639,51.094146
Houtstraat,147,,,6102BH,Echt,Echt-Susteren,Limburg,VBO,5.898785,51.094084
Houtstraat,149,A,,6102BH,Echt,Echt-Susteren,Limburg,VBO,5.899206,51.093904
Houtstraat,149,B,,6102BH,Echt,Echt-Susteren,Limburg,VBO,5.899288,51.093870
Houtstraat,149,,,6102BH,Echt,Echt-Susteren,Limburg,VBO,5.899059,51.093991
Houtstraat,151,,,6102BH,Echt,Echt-Susteren,Limburg,VBO,5.899448,51.093803
Houtstraat,2,,,6102BJ,Echt,Echt-Susteren,Limburg,VBO,5.885408,51.097895
Houtstraat,4,,,6102BJ,Echt,Echt-Susteren,Limburg,VBO,5.885553,51.097942
Houtstraat,6,A,,6102BJ,Echt,Echt-Susteren,Limburg,VBO,5.885963,51.097950
Houtstraat,6,B,,6102BJ,Echt,Echt-Susteren,Limburg,VBO,5.885968,51.097920
Houtstraat,12,,,6102BJ,Echt,Echt-Susteren,Limburg,VBO,5.886161,51.097950
Houtstraat,14,,,6102BJ,Echt,Echt-Susteren,Limburg,VBO,5.886404,51.097961
Houtstraat,16,A,,6102BJ,Echt,Echt-Susteren,Limburg,VBO,5.886543,51.097936
Houtstraat,16,B,,6102BJ,Echt,Echt-Susteren,Limburg,VBO,5.886545,51.097907
Houtstraat,16,,,6102BJ,Echt,Echt-Susteren,Limburg,VBO,5.886539,51.097967
Houtstraat,20,,,6102BJ,Echt,Echt-Susteren,Limburg,VBO,5.886695,51.097973
Houtstraat,26,,,6102BJ,Echt,Echt-Susteren,Limburg,VBO,5.888083,51.097878
Houtstraat,28,,,6102BJ,Echt,Echt-Susteren,Limburg,VBO,5.888402,51.097791
Houtstraat,32,A,,6102BJ,Echt,Echt-Susteren,Limburg,VBO,5.888817,51.097477
Houtstraat,32,B,,6102BJ,Echt,Echt-Susteren,Limburg,VBO,5.888799,51.097445
Houtstraat,32,C,,6102BJ,Echt,Echt-Susteren,Limburg,VBO,5.888698,51.097509
Houtstraat,32,D,,6102BJ,Echt,Echt-Susteren,Limburg,VBO,5.888681,51.097476
Houtstraat,32,E,,6102BJ,Echt,Echt-Susteren,Limburg,VBO,5.888573,51.097541
Houtstraat,32,F,,6102BJ,Echt,Echt-Susteren,Limburg,VBO,5.888554,51.097509
Houtstraat,32,H,,6102BJ,Echt,Echt-Susteren,Limburg,VBO,5.888718,51.097538
Houtstraat,34,A,,6102BJ,Echt,Echt-Susteren,Limburg,VBO,5.889296,51.097352
Houtstraat,34,B,,6102BJ,Echt,Echt-Susteren,Limburg,VBO,5.889277,51.097320
Houtstraat,34,C,,6102BJ,Echt,Echt-Susteren,Limburg,VBO,5.889176,51.097384
Houtstraat,34,D,,6102BJ,Echt,Echt-Susteren,Limburg,VBO,5.889160,51.097351
Houtstraat,34,E,,6102BJ,Echt,Echt-Susteren,Limburg,VBO,5.889051,51.097417
Houtstraat,34,F,,6102BJ,Echt,Echt-Susteren,Limburg,VBO,5.889032,51.097384
Houtstraat,34,G,,6102BJ,Echt,Echt-Susteren,Limburg,VBO,5.889071,51.097446
Houtstraat,34,H,,6102BJ,Echt,Echt-Susteren,Limburg,VBO,5.889313,51.097383
Houtstraat,36,,,6102BJ,Echt,Echt-Susteren,Limburg,VBO,5.889672,51.097290
Houtstraat,38,,,6102BJ,Echt,Echt-Susteren,Limburg,VBO,5.889800,51.097238
Houtstraat,46,,,6102BK,Echt,Echt-Susteren,Limburg,VBO,5.890521,51.096797
Houtstraat,48,,,6102BK,Echt,Echt-Susteren,Limburg,VBO,5.890724,51.096802
Houtstraat,50,,,6102BK,Echt,Echt-Susteren,Limburg,VBO,5.890875,51.096730
Houtstraat,52,,,6102BK,Echt,Echt-Susteren,Limburg,VBO,5.890999,51.096671
Houtstraat,56,,,6102BK,Echt,Echt-Susteren,Limburg,VBO,5.891324,51.096520
Houtstraat,58,A,,6102BK,Echt,Echt-Susteren,Limburg,VBO,5.892153,51.096029
Houtstraat,58,B,,6102BK,Echt,Echt-Susteren,Limburg,VBO,5.892043,51.096069
Houtstraat,58,C,,6102BK,Echt,Echt-Susteren,Limburg,VBO,5.891907,51.096110
Houtstraat,58,D,,6102BK,Echt,Echt-Susteren,Limburg,VBO,5.891799,51.096155
Houtstraat,58,,,6102BK,Echt,Echt-Susteren,Limburg,VBO,5.892262,51.095992
Houtstraat,60,A,,6102BK,Echt,Echt-Susteren,Limburg,VBO,5.892187,51.095978
Houtstraat,60,B,,6102BK,Echt,Echt-Susteren,Limburg,VBO,5.892086,51.096012
Houtstraat,60,C,,6102BK,Echt,Echt-Susteren,Limburg,VBO,5.891978,51.096051
Houtstraat,60,D,,6102BK,Echt,Echt-Susteren,Limburg,VBO,5.891840,51.096093
Houtstraat,60,,,6102BK,Echt,Echt-Susteren,Limburg,VBO,5.891980,51.096024
Houtstraat,62,A,,6102BK,Echt,Echt-Susteren,Limburg,VBO,5.892012,51.096006
Houtstraat,62,B,,6102BK,Echt,Echt-Susteren,Limburg,VBO,5.891980,51.096024
Houtstraat,62,,,6102BK,Echt,Echt-Susteren,Limburg,VBO,5.891980,51.096024
Houtstraat,68,,,6102BK,Echt,Echt-Susteren,Limburg,VBO,5.892931,51.095834
Houtstraat,70,,,6102BK,Echt,Echt-Susteren,Limburg,VBO,5.893043,51.095793
Houtstraat,72,,,6102BK,Echt,Echt-Susteren,Limburg,VBO,5.893286,51.095644
Houtstraat,74,,,6102BK,Echt,Echt-Susteren,Limburg,VBO,5.893592,51.095547
Houtstraat,76,A,,6102BK,Echt,Echt-Susteren,Limburg,VBO,5.893920,51.095443
Houtstraat,76,B,,6102BK,Echt,Echt-Susteren,Limburg,VBO,5.894095,51.095385
Houtstraat,76,,,6102BK,Echt,Echt-Susteren,Limburg,VBO,5.893760,51.095493
Houtstraat,78,,,6102BK,Echt,Echt-Susteren,Limburg,VBO,5.894420,51.095366
Houtstraat,80,,,6102BK,Echt,Echt-Susteren,Limburg,VBO,5.894390,51.095192
Houtstraat,82,A,,6102BK,Echt,Echt-Susteren,Limburg,VBO,5.894475,51.095057
Houtstraat,82,,,6102BK,Echt,Echt-Susteren,Limburg,VBO,5.894666,51.095225
Houtstraat,84,,,6102BK,Echt,Echt-Susteren,Limburg,VBO,5.894854,51.095172
Houtstraat,88,,,6102BK,Echt,Echt-Susteren,Limburg,VBO,5.895172,51.095161
Houtstraat,90,,,6102BK,Echt,Echt-Susteren,Limburg,VBO,5.895318,51.095120
Houtstraat,92,,,6102BK,Echt,Echt-Susteren,Limburg,VBO,5.895502,51.095020
Houtstraat,102,,,6102BL,Echt,Echt-Susteren,Limburg,VBO,5.896034,51.094869
Houtstraat,104,,,6102BL,Echt,Echt-Susteren,Limburg,VBO,5.896198,51.094868
Houtstraat,106,A,,6102BL,Echt,Echt-Susteren,Limburg,VBO,5.896505,51.094750
Houtstraat,106,,,6102BL,Echt,Echt-Susteren,Limburg,VBO,5.896379,51.094801
Houtstraat,108,,,6102BL,Echt,Echt-Susteren,Limburg,VBO,5.896673,51.094681
Houtstraat,110,,,6102BL,Echt,Echt-Susteren,Limburg,VBO,5.896850,51.094550
Houtstraat,112,,,6102BL,Echt,Echt-Susteren,Limburg,VBO,5.896933,51.094414
Houtstraat,114,A,,6102BL,Echt,Echt-Susteren,Limburg,VBO,5.897280,51.094376
Houtstraat,114,,,6102BL,Echt,Echt-Susteren,Limburg,VBO,5.897198,51.094410
Houtstraat,116,,,6102BL,Echt,Echt-Susteren,Limburg,VBO,5.897450,51.094284
Houtstraat,118,,,6102BL,Echt,Echt-Susteren,Limburg,VBO,5.897652,51.094209
Houtstraat,120,,,6102BL,Echt,Echt-Susteren,Limburg,VBO,5.897918,51.094126
Houtstraat,122,,,6102BL,Echt,Echt-Susteren,Limburg,VBO,5.898274,51.094003
Rijksweg Noord,1,,,6102BM,Echt,Echt-Susteren,Limburg,VBO,5.884699,51.098153
Rijksweg Noord,3,A,,6102BM,Echt,Echt-Susteren,Limburg,VBO,5.885265,51.099080
Rijksweg Noord,3,,,6102BM,Echt,Echt-Susteren,Limburg,VBO,5.885084,51.098710
Rijksweg Noord,5,,,6102BM,Echt,Echt-Susteren,Limburg,VBO,5.885505,51.099509
Rijksweg Noord,7,,,6102BM,Echt,Echt-Susteren,Limburg,VBO,5.885540,51.099576
Rijksweg Noord,9,A,,6102BM,Echt,Echt-Susteren,Limburg,VBO,5.885744,51.100155
Rijksweg Noord,9,,,6102BM,Echt,Echt-Susteren,Limburg,VBO,5.885811,51.100148
Rijksweg Noord,11,A,,6102BM,Echt,Echt-Susteren,Limburg,VBO,5.885802,51.100254
Rijksweg Noord,11,,,6102BM,Echt,Echt-Susteren,Limburg,VBO,5.885863,51.100384
Rijksweg Noord,15,,,6102BM,Echt,Echt-Susteren,Limburg,VBO,5.886259,51.101177
Rijksweg Noord,19,A,,6102BM,Echt,Echt-Susteren,Limburg,VBO,5.886599,51.101900
Rijksweg Noord,19,,,6102BM,Echt,Echt-Susteren,Limburg,VBO,5.886765,51.102225
Rijksweg Noord,21,,,6102BM,Echt,Echt-Susteren,Limburg,VBO,5.886875,51.102400
Rijksweg Noord,23,,,6102BM,Echt,Echt-Susteren,Limburg,VBO,5.886911,51.102587
Rijksweg Noord,25,A,,6102BM,Echt,Echt-Susteren,Limburg,VBO,5.886767,51.102846
Rijksweg Noord,25,,,6102BM,Echt,Echt-Susteren,Limburg,VBO,5.886940,51.102650
Rijksweg Noord,2,,,6102BN,Echt,Echt-Susteren,Limburg,VBO,5.885787,51.099066
Rijksweg Noord,4,A,,6102BN,Echt,Echt-Susteren,Limburg,VBO,5.886311,51.100155
Rijksweg Noord,4,,,6102BN,Echt,Echt-Susteren,Limburg,VBO,5.886275,51.100078
Rijksweg Noord,6,,,6102BN,Echt,Echt-Susteren,Limburg,VBO,5.886450,51.100482
Rijksweg Noord,8,,,6102BN,Echt,Echt-Susteren,Limburg,VBO,5.887429,51.102379
Rijksweg Noord,10,,,6102BN,Echt,Echt-Susteren,Limburg,VBO,5.887545,51.102626
Rijksweg Noord,12,,,6102BN,Echt,Echt-Susteren,Limburg,VBO,5.887728,51.103003
Patriciushof,1,,,6102BP,Echt,Echt-Susteren,Limburg,VBO,5.888803,51.096336
Patriciushof,2,,,6102BP,Echt,Echt-Susteren,Limburg,VBO,5.888862,51.096427
Patriciushof,3,,,6102BP,Echt,Echt-Susteren,Limburg,VBO,5.888885,51.096461
Patriciushof,4,,,6102BP,Echt,Echt-Susteren,Limburg,VBO,5.888946,51.096554
Patriciushof,5,,,6102BP,Echt,Echt-Susteren,Limburg,VBO,5.888953,51.096698
Patriciushof,6,,,6102BP,Echt,Echt-Susteren,Limburg,VBO,5.888936,51.096774
Patriciushof,7,,,6102BP,Echt,Echt-Susteren,Limburg,VBO,5.888921,51.096853
Patriciushof,8,,,6102BP,Echt,Echt-Susteren,Limburg,VBO,5.888965,51.096959
Patriciushof,9,,,6102BP,Echt,Echt-Susteren,Limburg,VBO,5.889023,51.097047
Patriciushof,10,,,6102BP,Echt,Echt-Susteren,Limburg,VBO,5.889047,51.097084
Patriciushof,11,,,6102BP,Echt,Echt-Susteren,Limburg,VBO,5.889106,51.097173
Patriciushof,12,,,6102BP,Echt,Echt-Susteren,Limburg,VBO,5.888546,51.097323
Patriciushof,13,,,6102BP,Echt,Echt-Susteren,Limburg,VBO,5.888488,51.097233
Patriciushof,14,,,6102BP,Echt,Echt-Susteren,Limburg,VBO,5.888465,51.097198
Patriciushof,15,,,6102BP,Echt,Echt-Susteren,Limburg,VBO,5.888406,51.097108
Patriciushof,16,,,6102BP,Echt,Echt-Susteren,Limburg,VBO,5.888337,51.096978
Patriciushof,17,,,6102BP,Echt,Echt-Susteren,Limburg,VBO,5.888355,51.096904
Patriciushof,18,,,6102BP,Echt,Echt-Susteren,Limburg,VBO,5.888370,51.096824
Patriciushof,19,,,6102BP,Echt,Echt-Susteren,Limburg,VBO,5.888385,51.096745
Patriciushof,20,,,6102BP,Echt,Echt-Susteren,Limburg,VBO,5.888365,51.096502
Patriciushof,21,,,6102BP,Echt,Echt-Susteren,Limburg,VBO,5.888382,51.096426
Patriciushof,22,,,6102BP,Echt,Echt-Susteren,Limburg,VBO,5.888396,51.096345
Hoogveldsweg,7,A,,6102CA,Echt,Echt-Susteren,Limburg,VBO,5.888885,51.099507
Hoogveldsweg,7,,,6102CA,Echt,Echt-Susteren,Limburg,VBO,5.888853,51.099465
Hoogveldsweg,9,A,,6102CA,Echt,Echt-Susteren,Limburg,VBO,5.889275,51.099812
Hoogveldsweg,9,,,6102CA,Echt,Echt-Susteren,Limburg,VBO,5.889035,51.099594
Hoogveldsweg,11,,,6102CA,Echt,Echt-Susteren,Limburg,VBO,5.889654,51.100023
Hoogveldsweg,13,,,6102CA,Echt,Echt-Susteren,Limburg,VBO,5.889876,51.100132
Hoogveldsweg,15,A,,6102CA,Echt,Echt-Susteren,Limburg,VBO,5.891732,51.101097
Hoogveldsweg,15,B,,6102CA,Echt,Echt-Susteren,Limburg,VBO,5.892072,51.101304
Hoogveldsweg,15,,,6102CA,Echt,Echt-Susteren,Limburg,VBO,5.891370,51.100884
Hoogveldsweg,17,,,6102CA,Echt,Echt-Susteren,Limburg,VBO,5.892461,51.101660
Hoogveldsweg,21,,,6102CA,Echt,Echt-Susteren,Limburg,VBO,5.892951,51.102178
Hoogveldsweg,23,,,6102CA,Echt,Echt-Susteren,Limburg,VBO,5.893003,51.102232
Hoogveldsweg,39,,,6102CA,Echt,Echt-Susteren,Limburg,VBO,5.893705,51.102981
Hoogveldsweg,41,,,6102CA,Echt,Echt-Susteren,Limburg,VBO,5.893835,51.103119
Hoogveldsweg,43,,,6102CA,Echt,Echt-Susteren,Limburg,VBO,5.893933,51.103223
Hoogveldsweg,45,,,6102CA,Echt,Echt-Susteren,Limburg,VBO,5.894024,51.103322
Hoogveldsweg,6,,,6102CB,Echt,Echt-Susteren,Limburg,VBO,5.889277,51.099420
Hoogveldsweg,8,,,6102CB,Echt,Echt-Susteren,Limburg,VBO,5.889350,51.099474
Hoogveldsweg,10,A,,6102CB,Echt,Echt-Susteren,Limburg,VBO,5.889446,51.099487
Hoogveldsweg,10,,,6102CB,Echt,Echt-Susteren,Limburg,VBO,5.889503,51.099603
Hoogveldsweg,12,,,6102CB,Echt,Echt-Susteren,Limburg,VBO,5.889684,51.099671
Hoogveldsweg,14,B,,6102CB,Echt,Echt-Susteren,Limburg,VBO,5.890186,51.099994
Hoogveldsweg,14,,,6102CB,Echt,Echt-Susteren,Limburg,VBO,5.889853,51.099830
Hoogveldsweg,16,A,,6102CB,Echt,Echt-Susteren,Limburg,VBO,5.890419,51.100109
Hoogveldsweg,16,,,6102CB,Echt,Echt-Susteren,Limburg,VBO,5.890357,51.100078
Hoogveldsweg,18,A,,6102CB,Echt,Echt-Susteren,Limburg,VBO,5.890646,51.100219
Hoogveldsweg,18,,,6102CB,Echt,Echt-Susteren,Limburg,VBO,5.890582,51.100189
Hoogveldsweg,20,A,,6102CB,Echt,Echt-Susteren,Limburg,VBO,5.890873,51.100330
Hoogveldsweg,20,,,6102CB,Echt,Echt-Susteren,Limburg,VBO,5.890809,51.100299
Hoogveldsweg,22,,,6102CB,Echt,Echt-Susteren,Limburg,VBO,5.891299,51.100492
Hoogveldsweg,24,,,6102CB,Echt,Echt-Susteren,Limburg,VBO,5.891354,51.100550
Hoogveldsweg,28,,,6102CB,Echt,Echt-Susteren,Limburg,VBO,5.891657,51.100667
Hoogveldsweg,30,,,6102CB,Echt,Echt-Susteren,Limburg,VBO,5.891749,51.100757
Hoogveldsweg,32,A,,6102CB,Echt,Echt-Susteren,Limburg,VBO,5.892154,51.100922
Hoogveldsweg,32,,,6102CB,Echt,Echt-Susteren,Limburg,VBO,5.891952,51.100838
Hoogveldsweg,34,A,,6102CB,Echt,Echt-Susteren,Limburg,VBO,5.894792,51.100009
Hoogveldsweg,34,,,6102CB,Echt,Echt-Susteren,Limburg,VBO,5.892299,51.101076
Hoogveldsweg,36,A,,6102CB,Echt,Echt-Susteren,Limburg,VBO,5.892548,51.101233
Hoogveldsweg,36,,,6102CB,Echt,Echt-Susteren,Limburg,VBO,5.892496,51.101179
Hoogveldsweg,38,A,,6102CB,Echt,Echt-Susteren,Limburg,VBO,5.893044,51.101200
Hoogveldsweg,38,,,6102CB,Echt,Echt-Susteren,Limburg,VBO,5.892713,51.101406
Hoogveldsweg,40,A,,6102CC,Echt,Echt-Susteren,Limburg,VBO,5.893024,51.101730
Hoogveldsweg,40,,,6102CC,Echt,Echt-Susteren,Limburg,VBO,5.892792,51.101564
Hoogveldsweg,42,A,,6102CC,Echt,Echt-Susteren,Limburg,VBO,5.893286,51.102008
Hoogveldsweg,42,,,6102CC,Echt,Echt-Susteren,Limburg,VBO,5.893129,51.101839
Hoogveldsweg,44,,,6102CC,Echt,Echt-Susteren,Limburg,VBO,5.893440,51.102262
Hoogveldsweg,46,,,6102CC,Echt,Echt-Susteren,Limburg,VBO,5.893490,51.102315
Hoogveldsweg,48,,,6102CC,Echt,Echt-Susteren,Limburg,VBO,5.893556,51.102385
Hoogveldsweg,52,,,6102CC,Echt,Echt-Susteren,Limburg,VBO,5.894273,51.102799
Hoogveldsweg,52,,,6102CC,Echt,Echt-Susteren,Limburg,VBO,5.894315,51.102802
Hoogveldsweg,54,A,,6102CC,Echt,Echt-Susteren,Limburg,VBO,5.894650,51.103572
Hoogveldsweg,54,B,,6102CC,Echt,Echt-Susteren,Limburg,VBO,5.894759,51.103675
Hoogveldsweg,54,C,,6102CC,Echt,Echt-Susteren,Limburg,VBO,5.894805,51.103727
Hoogveldsweg,54,D,,6102CC,Echt,Echt-Susteren,Limburg,VBO,5.894622,51.103442
Hoogveldsweg,54,,,6102CC,Echt,Echt-Susteren,Limburg,VBO,5.894520,51.103361
Hoogveldsweg,56,,,6102CC,Echt,Echt-Susteren,Limburg,VBO,5.894928,51.103836
Hoogveldsweg,58,,,6102CC,Echt,Echt-Susteren,Limburg,VBO,5.895047,51.103926
Clarastraat,2,,,6102CD,Echt,Echt-Susteren,Limburg,VBO,5.888043,51.098587
Clarastraat,4,,,6102CD,Echt,Echt-Susteren,Limburg,VBO,5.887761,51.098865
Clarastraat,6,,,6102CD,Echt,Echt-Susteren,Limburg,VBO,5.887749,51.098981
Clarastraat,10,,,6102CD,Echt,Echt-Susteren,Limburg,VBO,5.888030,51.099555
Clarastraat,12,,,6102CD,Echt,Echt-Susteren,Limburg,VBO,5.888054,51.099608
Clarastraat,14,,,6102CD,Echt,Echt-Susteren,Limburg,VBO,5.888079,51.099665
Clarastraat,16,,,6102CD,Echt,Echt-Susteren,Limburg,VBO,5.888103,51.099717
Clarastraat,18,,,6102CD,Echt,Echt-Susteren,Limburg,VBO,5.888124,51.099828
Clarastraat,20,,,6102CD,Echt,Echt-Susteren,Limburg,VBO,5.888147,51.099880
Clarastraat,22,,,6102CD,Echt,Echt-Susteren,Limburg,VBO,5.888171,51.099934
Clarastraat,24,,,6102CD,Echt,Echt-Susteren,Limburg,VBO,5.888244,51.100036
Clarastraat,26,,,6102CD,Echt,Echt-Susteren,Limburg,VBO,5.888268,51.100089
Clarastraat,28,,,6102CD,Echt,Echt-Susteren,Limburg,VBO,5.888294,51.100146
Clarastraat,30,,,6102CD,Echt,Echt-Susteren,Limburg,VBO,5.888318,51.100199
Clarastraat,32,,,6102CD,Echt,Echt-Susteren,Limburg,VBO,5.888416,51.100418
Clarastraat,34,,,6102CD,Echt,Echt-Susteren,Limburg,VBO,5.888487,51.100583
Clarastraat,40,,,6102CD,Echt,Echt-Susteren,Limburg,VBO,5.888587,51.100853
Clarastraat,42,,,6102CD,Echt,Echt-Susteren,Limburg,VBO,5.888638,51.100967
Clarastraat,44,,,6102CD,Echt,Echt-Susteren,Limburg,VBO,5.888659,51.101015
Clarastraat,46,,,6102CD,Echt,Echt-Susteren,Limburg,VBO,5.888710,51.101129
Clarastraat,48,,,6102CD,Echt,Echt-Susteren,Limburg,VBO,5.888731,51.101177
Clarastraat,74,,,6102CD,Echt,Echt-Susteren,Limburg,VBO,5.891096,51.102409
Clarastraat,76,,,6102CD,Echt,Echt-Susteren,Limburg,VBO,5.891142,51.102444
Clarastraat,78,,,6102CD,Echt,Echt-Susteren,Limburg,VBO,5.891270,51.102552
Clarastraat,80,,,6102CD,Echt,Echt-Susteren,Limburg,VBO,5.891261,51.102602
Clarastraat,82,,,6102CD,Echt,Echt-Susteren,Limburg,VBO,5.891262,51.102705
Clarastraat,84,,,6102CD,Echt,Echt-Susteren,Limburg,VBO,5.891253,51.102751
Clarastraat,86,,,6102CD,Echt,Echt-Susteren,Limburg,VBO,5.891245,51.102862
Clarastraat,88,,,6102CD,Echt,Echt-Susteren,Limburg,VBO,5.891243,51.102906
Clarastraat,90,,,6102CD,Echt,Echt-Susteren,Limburg,VBO,5.891202,51.103433
Clarastraat,92,,,6102CD,Echt,Echt-Susteren,Limburg,VBO,5.891200,51.103482
Clarastraat,1,,,6102CE,Echt,Echt-Susteren,Limburg,VBO,5.887431,51.098425
Clarastraat,3,,,6102CE,Echt,Echt-Susteren,Limburg,VBO,5.887353,51.098614
Clarastraat,5,,,6102CE,Echt,Echt-Susteren,Limburg,VBO,5.887346,51.098683
Clarastraat,7,,,6102CE,Echt,Echt-Susteren,Limburg,VBO,5.887335,51.098775
Clarastraat,9,,,6102CE,Echt,Echt-Susteren,Limburg,VBO,5.887328,51.098835
Clarastraat,15,,,6102CE,Echt,Echt-Susteren,Limburg,VBO,5.887336,51.099091
Clarastraat,17,,,6102CE,Echt,Echt-Susteren,Limburg,VBO,5.887345,51.099223
Clarastraat,21,,,6102CE,Echt,Echt-Susteren,Limburg,VBO,5.887577,51.099875
Clarastraat,23,,,6102CE,Echt,Echt-Susteren,Limburg,VBO,5.887600,51.099927
Clarastraat,25,,,6102CE,Echt,Echt-Susteren,Limburg,VBO,5.887642,51.100022
Clarastraat,27,,,6102CE,Echt,Echt-Susteren,Limburg,VBO,5.887667,51.100077
Clarastraat,29,,,6102CE,Echt,Echt-Susteren,Limburg,VBO,5.887710,51.100273
Clarastraat,31,,,6102CE,Echt,Echt-Susteren,Limburg,VBO,5.887734,51.100328
Clarastraat,33,,,6102CE,Echt,Echt-Susteren,Limburg,VBO,5.887775,51.100420
Clarastraat,35,,,6102CE,Echt,Echt-Susteren,Limburg,VBO,5.887799,51.100473
Clarastraat,37,,,6102CE,Echt,Echt-Susteren,Limburg,VBO,5.887841,51.100569
Clarastraat,39,,,6102CE,Echt,Echt-Susteren,Limburg,VBO,5.887864,51.100619
Clarastraat,41,,,6102CE,Echt,Echt-Susteren,Limburg,VBO,5.888119,51.101031
Clarastraat,53,,,6102CE,Echt,Echt-Susteren,Limburg,VBO,5.890665,51.103181
Clarastraat,55,,,6102CE,Echt,Echt-Susteren,Limburg,VBO,5.890660,51.103285
Clarastraat,57,,,6102CE,Echt,Echt-Susteren,Limburg,VBO,5.890658,51.103331
Clarastraat,59,,,6102CE,Echt,Echt-Susteren,Limburg,VBO,5.890654,51.103436
Littersven,1,,,6102CG,Echt,Echt-Susteren,Limburg,VBO,5.886790,51.100014
Littersven,2,,,6102CG,Echt,Echt-Susteren,Limburg,VBO,5.887469,51.099675
Littersven,3,,,6102CG,Echt,Echt-Susteren,Limburg,VBO,5.886811,51.100063
Littersven,4,,,6102CG,Echt,Echt-Susteren,Limburg,VBO,5.887341,51.099698
Littersven,5,,,6102CG,Echt,Echt-Susteren,Limburg,VBO,5.886854,51.100158
Littersven,6,,,6102CG,Echt,Echt-Susteren,Limburg,VBO,5.887207,51.099707
Littersven,7,,,6102CG,Echt,Echt-Susteren,Limburg,VBO,5.886876,51.100209
Littersven,8,,,6102CG,Echt,Echt-Susteren,Limburg,VBO,5.887082,51.099729
Littersven,9,,,6102CG,Echt,Echt-Susteren,Limburg,VBO,5.886916,51.100301
Littersven,10,,,6102CG,Echt,Echt-Susteren,Limburg,VBO,5.886963,51.099764
Littersven,11,,,6102CG,Echt,Echt-Susteren,Limburg,VBO,5.886939,51.100352
Littersven,12,,,6102CG,Echt,Echt-Susteren,Limburg,VBO,5.887098,51.099956
Littersven,13,,,6102CG,Echt,Echt-Susteren,Limburg,VBO,5.886980,51.100445
Littersven,15,,,6102CG,Echt,Echt-Susteren,Limburg,VBO,5.887000,51.100491
Littersven,16,,,6102CG,Echt,Echt-Susteren,Limburg,VBO,5.887137,51.100131
Littersven,17,,,6102CG,Echt,Echt-Susteren,Limburg,VBO,5.887043,51.100588
Littersven,18,,,6102CG,Echt,Echt-Susteren,Limburg,VBO,5.887224,51.100116
Littersven,19,,,6102CG,Echt,Echt-Susteren,Limburg,VBO,5.887063,51.100633
Littersven,20,,,6102CG,Echt,Echt-Susteren,Limburg,VBO,5.887313,51.100100
Littersven,21,,,6102CG,Echt,Echt-Susteren,Limburg,VBO,5.886973,51.100749
Littersven,22,,,6102CG,Echt,Echt-Susteren,Limburg,VBO,5.887395,51.100086
Littersven,23,,,6102CG,Echt,Echt-Susteren,Limburg,VBO,5.887010,51.100832
Littersven,24,,,6102CG,Echt,Echt-Susteren,Limburg,VBO,5.887463,51.100319
Littersven,25,,,6102CG,Echt,Echt-Susteren,Limburg,VBO,5.887044,51.100910
Littersven,26,,,6102CG,Echt,Echt-Susteren,Limburg,VBO,5.887379,51.100334
Littersven,27,,,6102CG,Echt,Echt-Susteren,Limburg,VBO,5.887081,51.100995
Littersven,28,,,6102CG,Echt,Echt-Susteren,Limburg,VBO,5.887292,51.100349
Littersven,29,,,6102CG,Echt,Echt-Susteren,Limburg,VBO,5.887116,51.101074
Littersven,30,,,6102CG,Echt,Echt-Susteren,Limburg,VBO,5.887207,51.100364
Littersven,31,,,6102CG,Echt,Echt-Susteren,Limburg,VBO,5.887154,51.101161
Littersven,32,,,6102CG,Echt,Echt-Susteren,Limburg,VBO,5.887338,51.100658
Littersven,34,,,6102CG,Echt,Echt-Susteren,Limburg,VBO,5.887424,51.100642
Littersven,36,,,6102CG,Echt,Echt-Susteren,Limburg,VBO,5.887509,51.100627
Littersven,38,,,6102CG,Echt,Echt-Susteren,Limburg,VBO,5.887598,51.100612
Littersven,40,,,6102CG,Echt,Echt-Susteren,Limburg,VBO,5.887967,51.100811
Littersven,42,,,6102CG,Echt,Echt-Susteren,Limburg,VBO,5.887875,51.100808
Littersven,44,,,6102CG,Echt,Echt-Susteren,Limburg,VBO,5.887712,51.100836
Littersven,46,,,6102CG,Echt,Echt-Susteren,Limburg,VBO,5.887631,51.100850
Littersven,48,,,6102CG,Echt,Echt-Susteren,Limburg,VBO,5.887462,51.100878
Littersven,50,,,6102CG,Echt,Echt-Susteren,Limburg,VBO,5.887391,51.100909
Rietweg,1,,,6102CH,Echt,Echt-Susteren,Limburg,VBO,5.886884,51.099231
Rietweg,3,,,6102CH,Echt,Echt-Susteren,Limburg,VBO,5.886590,51.099118
Isabellastraat,1,,,6102CJ,Echt,Echt-Susteren,Limburg,VBO,5.890829,51.097896
Isabellastraat,3,,,6102CJ,Echt,Echt-Susteren,Limburg,VBO,5.890886,51.097944
Isabellastraat,5,,,6102CJ,Echt,Echt-Susteren,Limburg,VBO,5.890941,51.097989
Isabellastraat,7,,,6102CJ,Echt,Echt-Susteren,Limburg,VBO,5.890987,51.098088
Isabellastraat,9,,,6102CJ,Echt,Echt-Susteren,Limburg,VBO,5.891040,51.098132
Isabellastraat,15,,,6102CJ,Echt,Echt-Susteren,Limburg,VBO,5.891717,51.098624
Isabellastraat,17,,,6102CJ,Echt,Echt-Susteren,Limburg,VBO,5.891490,51.099031
Isabellastraat,19,,,6102CJ,Echt,Echt-Susteren,Limburg,VBO,5.891545,51.099078
Isabellastraat,21,,,6102CJ,Echt,Echt-Susteren,Limburg,VBO,5.891599,51.099122
Isabellastraat,23,,,6102CJ,Echt,Echt-Susteren,Limburg,VBO,5.891653,51.099168
Isabellastraat,25,,,6102CJ,Echt,Echt-Susteren,Limburg,VBO,5.891708,51.099213
Isabellastraat,27,,,6102CJ,Echt,Echt-Susteren,Limburg,VBO,5.891763,51.099259
Isabellastraat,29,,,6102CJ,Echt,Echt-Susteren,Limburg,VBO,5.891816,51.099303
Isabellastraat,31,,,6102CJ,Echt,Echt-Susteren,Limburg,VBO,5.891946,51.099381
Isabellastraat,33,,,6102CJ,Echt,Echt-Susteren,Limburg,VBO,5.892001,51.099427
Isabellastraat,35,,,6102CJ,Echt,Echt-Susteren,Limburg,VBO,5.892055,51.099472
Isabellastraat,37,,,6102CJ,Echt,Echt-Susteren,Limburg,VBO,5.892109,51.099517
Isabellastraat,39,,,6102CJ,Echt,Echt-Susteren,Limburg,VBO,5.892166,51.099564
Isabellastraat,41,,,6102CJ,Echt,Echt-Susteren,Limburg,VBO,5.892219,51.099609
Isabellastraat,6,,,6102CK,Echt,Echt-Susteren,Limburg,VBO,5.891527,51.097809
Isabellastraat,8,,,6102CK,Echt,Echt-Susteren,Limburg,VBO,5.891584,51.097856
Isabellastraat,10,,,6102CK,Echt,Echt-Susteren,Limburg,VBO,5.891639,51.097902
Isabellastraat,12,,,6102CK,Echt,Echt-Susteren,Limburg,VBO,5.891747,51.098171
Isabellastraat,14,,,6102CK,Echt,Echt-Susteren,Limburg,VBO,5.891801,51.098216
Isabellastraat,16,,,6102CK,Echt,Echt-Susteren,Limburg,VBO,5.891855,51.098261
Isabellastraat,18,,,6102CK,Echt,Echt-Susteren,Limburg,VBO,5.891909,51.098306
Isabellastraat,20,,,6102CK,Echt,Echt-Susteren,Limburg,VBO,5.891981,51.098396
Isabellastraat,22,,,6102CK,Echt,Echt-Susteren,Limburg,VBO,5.892035,51.098441
Isabellastraat,24,,,6102CK,Echt,Echt-Susteren,Limburg,VBO,5.892089,51.098486
Isabellastraat,26,,,6102CK,Echt,Echt-Susteren,Limburg,VBO,5.892142,51.098530
Isabellastraat,28,,,6102CK,Echt,Echt-Susteren,Limburg,VBO,5.892239,51.098610
Isabellastraat,30,,,6102CK,Echt,Echt-Susteren,Limburg,VBO,5.892291,51.098655
Isabellastraat,32,,,6102CK,Echt,Echt-Susteren,Limburg,VBO,5.892346,51.098700
Isabellastraat,34,,,6102CK,Echt,Echt-Susteren,Limburg,VBO,5.892398,51.098743
Isabellastraat,36,,,6102CK,Echt,Echt-Susteren,Limburg,VBO,5.892548,51.098799
Isabellastraat,38,,,6102CK,Echt,Echt-Susteren,Limburg,VBO,5.892600,51.098843
Isabellastraat,40,,,6102CL,Echt,Echt-Susteren,Limburg,VBO,5.892379,51.098952
Isabellastraat,42,,,6102CL,Echt,Echt-Susteren,Limburg,VBO,5.892305,51.098987
Isabellastraat,44,,,6102CL,Echt,Echt-Susteren,Limburg,VBO,5.892231,51.099022
Isabellastraat,46,,,6102CL,Echt,Echt-Susteren,Limburg,VBO,5.892158,51.099056
Isabellastraat,48,,,6102CL,Echt,Echt-Susteren,Limburg,VBO,5.892330,51.099249
Isabellastraat,50,,,6102CL,Echt,Echt-Susteren,Limburg,VBO,5.892384,51.099295
Isabellastraat,52,,,6102CL,Echt,Echt-Susteren,Limburg,VBO,5.892436,51.099338
Isabellastraat,54,,,6102CL,Echt,Echt-Susteren,Limburg,VBO,5.892495,51.099388
Isabellastraat,56,,,6102CL,Echt,Echt-Susteren,Limburg,VBO,5.892551,51.099435
Isabellastraat,58,,,6102CL,Echt,Echt-Susteren,Limburg,VBO,5.892606,51.099481
Isabellastraat,60,,,6102CL,Echt,Echt-Susteren,Limburg,VBO,5.892770,51.099587
Ridderlaan,3,,,6102CM,Echt,Echt-Susteren,Limburg,VBO,5.889959,51.098247
Ridderlaan,5,,,6102CM,Echt,Echt-Susteren,Limburg,VBO,5.890767,51.097864
Ridderlaan,7,,,6102CM,Echt,Echt-Susteren,Limburg,VBO,5.891494,51.097576
Ridderlaan,13,,,6102CM,Echt,Echt-Susteren,Limburg,VBO,5.891788,51.097495
Ridderlaan,15,,,6102CM,Echt,Echt-Susteren,Limburg,VBO,5.891957,51.097412
Ridderlaan,17,,,6102CM,Echt,Echt-Susteren,Limburg,VBO,5.892170,51.097366
Ridderlaan,19,,,6102CM,Echt,Echt-Susteren,Limburg,VBO,5.892039,51.097179
Ridderlaan,20,,,6102CM,Echt,Echt-Susteren,Limburg,VBO,5.890301,51.097627
Ridderlaan,21,,,6102CM,Echt,Echt-Susteren,Limburg,VBO,5.891871,51.097250
Ridderlaan,23,,,6102CM,Echt,Echt-Susteren,Limburg,VBO,5.891698,51.097333
Magdalenastraat,1,,,6102CN,Echt,Echt-Susteren,Limburg,VBO,5.890031,51.098273
Magdalenastraat,2,,,6102CN,Echt,Echt-Susteren,Limburg,VBO,5.890291,51.098081
Magdalenastraat,3,,,6102CN,Echt,Echt-Susteren,Limburg,VBO,5.890085,51.098318
Magdalenastraat,4,,,6102CN,Echt,Echt-Susteren,Limburg,VBO,5.890346,51.098126
Magdalenastraat,5,,,6102CN,Echt,Echt-Susteren,Limburg,VBO,5.890138,51.098362
Magdalenastraat,6,,,6102CN,Echt,Echt-Susteren,Limburg,VBO,5.890489,51.098184
Magdalenastraat,7,,,6102CN,Echt,Echt-Susteren,Limburg,VBO,5.890190,51.098466
Magdalenastraat,8,,,6102CN,Echt,Echt-Susteren,Limburg,VBO,5.890542,51.098229
Magdalenastraat,9,,,6102CN,Echt,Echt-Susteren,Limburg,VBO,5.890243,51.098509
Magdalenastraat,10,,,6102CN,Echt,Echt-Susteren,Limburg,VBO,5.890595,51.098273
Jacobastraat,1,,,6102CP,Echt,Echt-Susteren,Limburg,VBO,5.887941,51.099376
Jacobastraat,2,,,6102CP,Echt,Echt-Susteren,Limburg,VBO,5.887779,51.099090
Jacobastraat,3,,,6102CP,Echt,Echt-Susteren,Limburg,VBO,5.888030,51.099377
Jacobastraat,4,,,6102CP,Echt,Echt-Susteren,Limburg,VBO,5.888136,51.099088
Jacobastraat,5,,,6102CP,Echt,Echt-Susteren,Limburg,VBO,5.888114,51.099379
Jacobastraat,6,,,6102CP,Echt,Echt-Susteren,Limburg,VBO,5.888268,51.099091
Jacobastraat,7,,,6102CP,Echt,Echt-Susteren,Limburg,VBO,5.888207,51.099358
Jacobastraat,8,,,6102CP,Echt,Echt-Susteren,Limburg,VBO,5.888355,51.099108
Jacobastraat,9,,,6102CP,Echt,Echt-Susteren,Limburg,VBO,5.888289,51.099360
Jacobastraat,10,,,6102CP,Echt,Echt-Susteren,Limburg,VBO,5.888413,51.099110
Jacobastraat,11,,,6102CP,Echt,Echt-Susteren,Limburg,VBO,5.888377,51.099361
Jacobastraat,12,,,6102CP,Echt,Echt-Susteren,Limburg,VBO,5.888535,51.099113
Jacobastraat,13,,,6102CP,Echt,Echt-Susteren,Limburg,VBO,5.888556,51.099368
Jacobastraat,14,,,6102CP,Echt,Echt-Susteren,Limburg,VBO,5.888592,51.099114
Jacobastraat,16,,,6102CP,Echt,Echt-Susteren,Limburg,VBO,5.888821,51.099088
Jacobastraat,18,,,6102CP,Echt,Echt-Susteren,Limburg,VBO,5.888891,51.099054
Jacobastraat,20,,,6102CP,Echt,Echt-Susteren,Limburg,VBO,5.888981,51.099039
Jacobastraat,22,,,6102CP,Echt,Echt-Susteren,Limburg,VBO,5.889049,51.099007
Jacobastraat,24,,,6102CP,Echt,Echt-Susteren,Limburg,VBO,5.889139,51.098992
Jacobastraat,26,,,6102CP,Echt,Echt-Susteren,Limburg,VBO,5.889225,51.098951
Jacobastraat,28,,,6102CP,Echt,Echt-Susteren,Limburg,VBO,5.890651,51.098309
Jacobastraat,30,,,6102CP,Echt,Echt-Susteren,Limburg,VBO,5.889826,51.098704
Jacobastraat,31,,,6102CP,Echt,Echt-Susteren,Limburg,VBO,5.890097,51.098977
Jacobastraat,33,,,6102CP,Echt,Echt-Susteren,Limburg,VBO,5.890130,51.099000
Jacobastraat,35,,,6102CP,Echt,Echt-Susteren,Limburg,VBO,5.890159,51.098947
Jacobastraat,36,,,6102CP,Echt,Echt-Susteren,Limburg,VBO,5.891958,51.097800
Jacobastraat,37,,,6102CP,Echt,Echt-Susteren,Limburg,VBO,5.890193,51.098970
Jacobastraat,38,,,6102CP,Echt,Echt-Susteren,Limburg,VBO,5.892035,51.097764
Jacobastraat,39,,,6102CP,Echt,Echt-Susteren,Limburg,VBO,5.890222,51.098918
Jacobastraat,40,,,6102CP,Echt,Echt-Susteren,Limburg,VBO,5.892205,51.097720
Jacobastraat,41,,,6102CP,Echt,Echt-Susteren,Limburg,VBO,5.890252,51.098943
Jacobastraat,42,,,6102CP,Echt,Echt-Susteren,Limburg,VBO,5.892280,51.097684
Jacobastraat,43,,,6102CP,Echt,Echt-Susteren,Limburg,VBO,5.890285,51.098888
Jacobastraat,44,,,6102CP,Echt,Echt-Susteren,Limburg,VBO,5.892476,51.097594
Jacobastraat,45,,,6102CP,Echt,Echt-Susteren,Limburg,VBO,5.890315,51.098913
Jacobastraat,47,,,6102CP,Echt,Echt-Susteren,Limburg,VBO,5.890346,51.098860
Jacobastraat,49,,,6102CP,Echt,Echt-Susteren,Limburg,VBO,5.890374,51.098886
Jacobastraat,51,,,6102CP,Echt,Echt-Susteren,Limburg,VBO,5.890408,51.098830
Jacobastraat,53,,,6102CP,Echt,Echt-Susteren,Limburg,VBO,5.890439,51.098855
Jacobastraat,55,,,6102CP,Echt,Echt-Susteren,Limburg,VBO,5.890508,51.098742
Jacobastraat,57,,,6102CP,Echt,Echt-Susteren,Limburg,VBO,5.890541,51.098765
Jacobastraat,59,,,6102CP,Echt,Echt-Susteren,Limburg,VBO,5.890568,51.098713
Jacobastraat,61,,,6102CP,Echt,Echt-Susteren,Limburg,VBO,5.890599,51.098738
Jacobastraat,63,,,6102CP,Echt,Echt-Susteren,Limburg,VBO,5.890631,51.098684
Jacobastraat,65,,,6102CP,Echt,Echt-Susteren,Limburg,VBO,5.890661,51.098708
Jacobastraat,67,,,6102CP,Echt,Echt-Susteren,Limburg,VBO,5.890692,51.098655
Jacobastraat,69,,,6102CP,Echt,Echt-Susteren,Limburg,VBO,5.890723,51.098678
Jacobastraat,71,,,6102CR,Echt,Echt-Susteren,Limburg,VBO,5.890802,51.098668
Jacobastraat,73,,,6102CR,Echt,Echt-Susteren,Limburg,VBO,5.890834,51.098692
Jacobastraat,75,,,6102CR,Echt,Echt-Susteren,Limburg,VBO,5.890867,51.098637
Jacobastraat,77,,,6102CR,Echt,Echt-Susteren,Limburg,VBO,5.890902,51.098661
Jacobastraat,79,,,6102CR,Echt,Echt-Susteren,Limburg,VBO,5.890927,51.098608
Jacobastraat,81,,,6102CR,Echt,Echt-Susteren,Limburg,VBO,5.890959,51.098633
Jacobastraat,83,,,6102CR,Echt,Echt-Susteren,Limburg,VBO,5.890990,51.098578
Jacobastraat,85,,,6102CR,Echt,Echt-Susteren,Limburg,VBO,5.891022,51.098603
Jacobastraat,87,,,6102CR,Echt,Echt-Susteren,Limburg,VBO,5.891088,51.098487
Jacobastraat,89,,,6102CR,Echt,Echt-Susteren,Limburg,VBO,5.891118,51.098512
Jacobastraat,91,,,6102CR,Echt,Echt-Susteren,Limburg,VBO,5.891146,51.098460
Jacobastraat,93,,,6102CR,Echt,Echt-Susteren,Limburg,VBO,5.891178,51.098484
Jacobastraat,95,,,6102CR,Echt,Echt-Susteren,Limburg,VBO,5.891208,51.098430
Jacobastraat,97,,,6102CR,Echt,Echt-Susteren,Limburg,VBO,5.891242,51.098454
Jacobastraat,99,,,6102CR,Echt,Echt-Susteren,Limburg,VBO,5.891270,51.098401
Jacobastraat,101,,,6102CR,Echt,Echt-Susteren,Limburg,VBO,5.891300,51.098425
Jacobastraat,103,,,6102CR,Echt,Echt-Susteren,Limburg,VBO,5.891331,51.098372
Jacobastraat,105,,,6102CR,Echt,Echt-Susteren,Limburg,VBO,5.891363,51.098397
Jacobastraat,107,,,6102CR,Echt,Echt-Susteren,Limburg,VBO,5.891393,51.098343
Jacobastraat,109,,,6102CR,Echt,Echt-Susteren,Limburg,VBO,5.891425,51.098369
Theresiastraat,9,,,6102CS,Echt,Echt-Susteren,Limburg,VBO,5.889168,51.098615
Theresiastraat,11,,,6102CS,Echt,Echt-Susteren,Limburg,VBO,5.889212,51.098681
Theresiastraat,13,,,6102CS,Echt,Echt-Susteren,Limburg,VBO,5.889264,51.098723
Theresiastraat,15,,,6102CS,Echt,Echt-Susteren,Limburg,VBO,5.889372,51.098813
Theresiastraat,17,,,6102CS,Echt,Echt-Susteren,Limburg,VBO,5.889430,51.098860
Theresiastraat,19,,,6102CS,Echt,Echt-Susteren,Limburg,VBO,5.889732,51.099085
Theresiastraat,21,,,6102CS,Echt,Echt-Susteren,Limburg,VBO,5.889780,51.099124
Theresiastraat,23,,,6102CS,Echt,Echt-Susteren,Limburg,VBO,5.889827,51.099164
Theresiastraat,25,,,6102CS,Echt,Echt-Susteren,Limburg,VBO,5.889873,51.099202
Theresiastraat,27,,,6102CS,Echt,Echt-Susteren,Limburg,VBO,5.889920,51.099242
Theresiastraat,29,,,6102CS,Echt,Echt-Susteren,Limburg,VBO,5.889966,51.099280
Theresiastraat,31,,,6102CS,Echt,Echt-Susteren,Limburg,VBO,5.890014,51.099320
Theresiastraat,33,,,6102CS,Echt,Echt-Susteren,Limburg,VBO,5.890061,51.099359
Theresiastraat,35,,,6102CS,Echt,Echt-Susteren,Limburg,VBO,5.890167,51.099454
Theresiastraat,37,,,6102CS,Echt,Echt-Susteren,Limburg,VBO,5.890223,51.099500
Theresiastraat,39,,,6102CS,Echt,Echt-Susteren,Limburg,VBO,5.890276,51.099543
Theresiastraat,41,,,6102CS,Echt,Echt-Susteren,Limburg,VBO,5.890331,51.099589
Theresiastraat,43,,,6102CS,Echt,Echt-Susteren,Limburg,VBO,5.890388,51.099636
Theresiastraat,45,,,6102CS,Echt,Echt-Susteren,Limburg,VBO,5.890444,51.099681
Theresiastraat,47,,,6102CS,Echt,Echt-Susteren,Limburg,VBO,5.890737,51.099739
Theresiastraat,49,,,6102CS,Echt,Echt-Susteren,Limburg,VBO,5.890807,51.099706
Theresiastraat,51,,,6102CS,Echt,Echt-Susteren,Limburg,VBO,5.890882,51.099669
Theresiastraat,53,,,6102CS,Echt,Echt-Susteren,Limburg,VBO,5.890960,51.099632
Theresiastraat,55,,,6102CS,Echt,Echt-Susteren,Limburg,VBO,5.891185,51.099772
Theresiastraat,57,,,6102CS,Echt,Echt-Susteren,Limburg,VBO,5.891242,51.099820
Theresiastraat,59,,,6102CS,Echt,Echt-Susteren,Limburg,VBO,5.891297,51.099866
Theresiastraat,61,,,6102CS,Echt,Echt-Susteren,Limburg,VBO,5.891353,51.099913
Theresiastraat,2,,,6102CT,Echt,Echt-Susteren,Limburg,VBO,5.889465,51.098474
Theresiastraat,4,,,6102CT,Echt,Echt-Susteren,Limburg,VBO,5.889519,51.098519
Theresiastraat,6,,,6102CT,Echt,Echt-Susteren,Limburg,VBO,5.889662,51.098579
Theresiastraat,8,,,6102CT,Echt,Echt-Susteren,Limburg,VBO,5.889715,51.098623
Theresiastraat,10,,,6102CT,Echt,Echt-Susteren,Limburg,VBO,5.889769,51.098668
Theresiastraat,16,,,6102CT,Echt,Echt-Susteren,Limburg,VBO,5.890338,51.099232
Theresiastraat,18,,,6102CT,Echt,Echt-Susteren,Limburg,VBO,5.891098,51.099220
Theresiastraat,20,,,6102CT,Echt,Echt-Susteren,Limburg,VBO,5.891151,51.099264
Theresiastraat,22,,,6102CT,Echt,Echt-Susteren,Limburg,VBO,5.891206,51.099309
Theresiastraat,24,,,6102CT,Echt,Echt-Susteren,Limburg,VBO,5.891258,51.099353
Theresiastraat,26,,,6102CT,Echt,Echt-Susteren,Limburg,VBO,5.891312,51.099398
Theresiastraat,28,,,6102CT,Echt,Echt-Susteren,Limburg,VBO,5.891396,51.099498
Theresiastraat,30,,,6102CT,Echt,Echt-Susteren,Limburg,VBO,5.891453,51.099546
Theresiastraat,32,,,6102CT,Echt,Echt-Susteren,Limburg,VBO,5.891508,51.099592
Theresiastraat,34,,,6102CT,Echt,Echt-Susteren,Limburg,VBO,5.891560,51.099635
Theresiastraat,36,,,6102CT,Echt,Echt-Susteren,Limburg,VBO,5.891616,51.099682
Theresiastraat,38,,,6102CT,Echt,Echt-Susteren,Limburg,VBO,5.891669,51.099726
Theresiastraat,40,,,6102CT,Echt,Echt-Susteren,Limburg,VBO,5.891725,51.099773
Theresiastraat,42,,,6102CT,Echt,Echt-Susteren,Limburg,VBO,5.891781,51.099820
Johannastraat,1,,,6102CV,Echt,Echt-Susteren,Limburg,VBO,5.891059,51.099173
Johannastraat,2,,,6102CV,Echt,Echt-Susteren,Limburg,VBO,5.890492,51.099215
Johannastraat,3,,,6102CV,Echt,Echt-Susteren,Limburg,VBO,5.891435,51.098995
Johannastraat,4,,,6102CV,Echt,Echt-Susteren,Limburg,VBO,5.890564,51.099181
Johannastraat,6,,,6102CV,Echt,Echt-Susteren,Limburg,VBO,5.890635,51.099147
Johannastraat,8,,,6102CV,Echt,Echt-Susteren,Limburg,VBO,5.890708,51.099113
Johannastraat,10,,,6102CV,Echt,Echt-Susteren,Limburg,VBO,5.890781,51.099078
Johannastraat,12,,,6102CV,Echt,Echt-Susteren,Limburg,VBO,5.891368,51.098800
Johannastraat,14,,,6102CV,Echt,Echt-Susteren,Limburg,VBO,5.891440,51.098766
Johannastraat,16,,,6102CV,Echt,Echt-Susteren,Limburg,VBO,5.891515,51.098731
Johannastraat,18,,,6102CV,Echt,Echt-Susteren,Limburg,VBO,5.891587,51.098696
Johannastraat,20,,,6102CV,Echt,Echt-Susteren,Limburg,VBO,5.891661,51.098661
Lisweg,5,,,6102CW,Echt,Echt-Susteren,Limburg,VBO,5.886263,51.098859
Lisweg,8,,,6102CW,Echt,Echt-Susteren,Limburg,VBO,5.886118,51.098404
Lisweg,12,,,6102CW,Echt,Echt-Susteren,Limburg,VBO,5.886325,51.098678
Lisweg,14,,,6102CW,Echt,Echt-Susteren,Limburg,VBO,5.886231,51.098673
Lisweg,16,,,6102CW,Echt,Echt-Susteren,Limburg,VBO,5.886139,51.098670
Lisweg,18,,,6102CW,Echt,Echt-Susteren,Limburg,VBO,5.886016,51.098667
Lisweg,20,,,6102CW,Echt,Echt-Susteren,Limburg,VBO,5.885919,51.098656
Lisweg,22,,,6102CW,Echt,Echt-Susteren,Limburg,VBO,5.886332,51.098611
Lisweg,24,,,6102CW,Echt,Echt-Susteren,Limburg,VBO,5.886232,51.098607
Lisweg,26,,,6102CW,Echt,Echt-Susteren,Limburg,VBO,5.886138,51.098602
Lisweg,28,,,6102CW,Echt,Echt-Susteren,Limburg,VBO,5.886019,51.098594
Lisweg,30,,,6102CW,Echt,Echt-Susteren,Limburg,VBO,5.885924,51.098589
Lisweg,32,,,6102CW,Echt,Echt-Susteren,Limburg,VBO,5.885950,51.098508
Catharinastraat,21,,,6102CX,Echt,Echt-Susteren,Limburg,VBO,5.892300,51.097987
Catharinastraat,23,,,6102CX,Echt,Echt-Susteren,Limburg,VBO,5.892374,51.098049
Catharinastraat,25,,,6102CX,Echt,Echt-Susteren,Limburg,VBO,5.892472,51.098131
Catharinastraat,27,,,6102CX,Echt,Echt-Susteren,Limburg,VBO,5.892528,51.098178
Catharinastraat,29,,,6102CX,Echt,Echt-Susteren,Limburg,VBO,5.892627,51.098262
Catharinastraat,31,,,6102CX,Echt,Echt-Susteren,Limburg,VBO,5.892700,51.098323
Catharinastraat,33,,,6102CX,Echt,Echt-Susteren,Limburg,VBO,5.892741,51.098433
Catharinastraat,35,,,6102CX,Echt,Echt-Susteren,Limburg,VBO,5.892795,51.098479
Catharinastraat,37,,,6102CX,Echt,Echt-Susteren,Limburg,VBO,5.892897,51.098564
Catharinastraat,39,,,6102CX,Echt,Echt-Susteren,Limburg,VBO,5.892968,51.098624
Catharinastraat,41,,,6102CX,Echt,Echt-Susteren,Limburg,VBO,5.892935,51.098748
Catharinastraat,43,,,6102CX,Echt,Echt-Susteren,Limburg,VBO,5.893010,51.098821
Catharinastraat,45,,,6102CX,Echt,Echt-Susteren,Limburg,VBO,5.893073,51.098915
Catharinastraat,47,,,6102CX,Echt,Echt-Susteren,Limburg,VBO,5.893130,51.098962
Catharinastraat,49,,,6102CX,Echt,Echt-Susteren,Limburg,VBO,5.893237,51.099053
Catharinastraat,51,,,6102CX,Echt,Echt-Susteren,Limburg,VBO,5.893293,51.099100
Thaalweg West,1,,,6102EA,Echt,Echt-Susteren,Limburg,VBO,5.888237,51.101257
Thaalweg West,2,K,01,6102EA,Echt,Echt-Susteren,Limburg,VBO,5.888223,51.101578
Thaalweg West,2,K,02,6102EA,Echt,Echt-Susteren,Limburg,VBO,5.888155,51.101589
Thaalweg West,2,K,03,6102EA,Echt,Echt-Susteren,Limburg,VBO,5.888081,51.101600
Thaalweg West,2,K,04,6102EA,Echt,Echt-Susteren,Limburg,VBO,5.887990,51.101618
Thaalweg West,2,K,05,6102EA,Echt,Echt-Susteren,Limburg,VBO,5.887802,51.101650
Thaalweg West,2,K,06,6102EA,Echt,Echt-Susteren,Limburg,VBO,5.887826,51.101713
Thaalweg West,2,K,07,6102EA,Echt,Echt-Susteren,Limburg,VBO,5.887892,51.101868
Thaalweg West,2,K,08,6102EA,Echt,Echt-Susteren,Limburg,VBO,5.887909,51.101925
Thaalweg West,2,K,09,6102EA,Echt,Echt-Susteren,Limburg,VBO,5.888072,51.101895
Thaalweg West,2,K,10,6102EA,Echt,Echt-Susteren,Limburg,VBO,5.888152,51.101882
Thaalweg West,2,K,11,6102EA,Echt,Echt-Susteren,Limburg,VBO,5.888233,51.101867
Thaalweg West,2,K,12,6102EA,Echt,Echt-Susteren,Limburg,VBO,5.888319,51.101853
Thaalweg West,2,,,6102EA,Echt,Echt-Susteren,Limburg,VBO,5.887864,51.101789
Thaalweg West,3,,,6102EA,Echt,Echt-Susteren,Limburg,VBO,5.888049,51.101290
Thaalweg West,4,,,6102EA,Echt,Echt-Susteren,Limburg,VBO,5.888616,51.101984
Thaalweg West,5,,,6102EA,Echt,Echt-Susteren,Limburg,VBO,5.887983,51.101301
Thaalweg West,6,,,6102EA,Echt,Echt-Susteren,Limburg,VBO,5.888557,51.102049
Thaalweg West,7,,,6102EA,Echt,Echt-Susteren,Limburg,VBO,5.887796,51.101306
Thaalweg West,8,,,6102EA,Echt,Echt-Susteren,Limburg,VBO,5.888498,51.102117
Thaalweg West,9,,,6102EA,Echt,Echt-Susteren,Limburg,VBO,5.887704,51.101327
Thaalweg West,10,,,6102EA,Echt,Echt-Susteren,Limburg,VBO,5.888437,51.102185
Thaalweg West,11,,,6102EA,Echt,Echt-Susteren,Limburg,VBO,5.887556,51.101350
Thaalweg West,12,,,6102EA,Echt,Echt-Susteren,Limburg,VBO,5.888363,51.102377
Thaalweg West,13,,,6102EA,Echt,Echt-Susteren,Limburg,VBO,5.887460,51.101144
Thaalweg West,14,,,6102EA,Echt,Echt-Susteren,Limburg,VBO,5.888523,51.102402
Thaalweg West,15,,,6102EA,Echt,Echt-Susteren,Limburg,VBO,5.887167,51.101275
Thaalweg West,16,,,6102EA,Echt,Echt-Susteren,Limburg,VBO,5.888616,51.102448
Thaalweg West,17,,,6102EA,Echt,Echt-Susteren,Limburg,VBO,5.887189,51.101325
Thaalweg West,18,,,6102EA,Echt,Echt-Susteren,Limburg,VBO,5.889136,51.102617
Thaalweg West,19,,,6102EA,Echt,Echt-Susteren,Limburg,VBO,5.887210,51.101370
Thaalweg West,20,,,6102EA,Echt,Echt-Susteren,Limburg,VBO,5.889278,51.102666
Thaalweg West,21,,,6102EA,Echt,Echt-Susteren,Limburg,VBO,5.887255,51.101472
Thaalweg West,22,,,6102EA,Echt,Echt-Susteren,Limburg,VBO,5.889464,51.102732
Thaalweg West,23,,,6102EA,Echt,Echt-Susteren,Limburg,VBO,5.887276,51.101519
Thaalweg West,24,,,6102EA,Echt,Echt-Susteren,Limburg,VBO,5.889619,51.102600
Thaalweg West,25,,,6102EA,Echt,Echt-Susteren,Limburg,VBO,5.887297,51.101568
Thaalweg West,26,,,6102EA,Echt,Echt-Susteren,Limburg,VBO,5.889678,51.102532
Thaalweg West,27,,,6102EA,Echt,Echt-Susteren,Limburg,VBO,5.887316,51.101676
Thaalweg West,28,,,6102EA,Echt,Echt-Susteren,Limburg,VBO,5.889739,51.102464
Thaalweg West,29,,,6102EA,Echt,Echt-Susteren,Limburg,VBO,5.887336,51.101721
Thaalweg West,30,,,6102EA,Echt,Echt-Susteren,Limburg,VBO,5.889800,51.102395
Thaalweg West,31,,,6102EA,Echt,Echt-Susteren,Limburg,VBO,5.887357,51.101769
Thaalweg West,33,,,6102EA,Echt,Echt-Susteren,Limburg,VBO,5.887403,51.101871
Thaalweg West,35,,,6102EA,Echt,Echt-Susteren,Limburg,VBO,5.887423,51.101918
Thaalweg West,37,,,6102EA,Echt,Echt-Susteren,Limburg,VBO,5.887445,51.101966
Thaalweg West,39,,,6102EA,Echt,Echt-Susteren,Limburg,VBO,5.887490,51.102068
Thaalweg West,41,,,6102EA,Echt,Echt-Susteren,Limburg,VBO,5.887511,51.102115
Thaalweg West,43,,,6102EA,Echt,Echt-Susteren,Limburg,VBO,5.887532,51.102162
Thaalweg West,49,,,6102EA,Echt,Echt-Susteren,Limburg,VBO,5.888879,51.102845
Thaalweg West,51,,,6102EA,Echt,Echt-Susteren,Limburg,VBO,5.889092,51.102918
Thaalweg West,53,,,6102EA,Echt,Echt-Susteren,Limburg,VBO,5.889291,51.102988
Thaalweg West,55,,,6102EA,Echt,Echt-Susteren,Limburg,VBO,5.889493,51.103060
Thaalweg West,57,,,6102EA,Echt,Echt-Susteren,Limburg,VBO,5.889754,51.103110
Thaalweg West,70,,,6102EA,Echt,Echt-Susteren,Limburg,VBO,5.890563,51.102866
Thaalweg West,72,,,6102EA,Echt,Echt-Susteren,Limburg,VBO,5.890477,51.102864
Thaalweg West,74,,,6102EA,Echt,Echt-Susteren,Limburg,VBO,5.890392,51.102862
Thaalweg West,76,,,6102EA,Echt,Echt-Susteren,Limburg,VBO,5.890304,51.102860
Thaalweg West,78,,,6102EA,Echt,Echt-Susteren,Limburg,VBO,5.890221,51.102858
Thaalweg West,80,,,6102EA,Echt,Echt-Susteren,Limburg,VBO,5.890134,51.102856
Thaalweg West,82,,,6102EA,Echt,Echt-Susteren,Limburg,VBO,5.890564,51.102819
Thaalweg West,84,,,6102EA,Echt,Echt-Susteren,Limburg,VBO,5.890479,51.102817
Thaalweg West,86,,,6102EA,Echt,Echt-Susteren,Limburg,VBO,5.890394,51.102815
Thaalweg West,88,,,6102EA,Echt,Echt-Susteren,Limburg,VBO,5.890305,51.102813
Thaalweg West,90,,,6102EA,Echt,Echt-Susteren,Limburg,VBO,5.890223,51.102811
Thaalweg West,92,,,6102EA,Echt,Echt-Susteren,Limburg,VBO,5.890136,51.102810
Thaalweg West,94,,,6102EA,Echt,Echt-Susteren,Limburg,VBO,5.890568,51.102773
Thaalweg Oost,4,,,6102EB,Echt,Echt-Susteren,Limburg,VBO,5.889117,51.101151
Thaalweg Oost,6,,,6102EB,Echt,Echt-Susteren,Limburg,VBO,5.889197,51.101149
Thaalweg Oost,8,,,6102EB,Echt,Echt-Susteren,Limburg,VBO,5.889365,51.101145
Thaalweg Oost,10,,,6102EB,Echt,Echt-Susteren,Limburg,VBO,5.889444,51.101142
Thaalweg Oost,12,,,6102EB,Echt,Echt-Susteren,Limburg,VBO,5.889611,51.101137
Thaalweg Oost,14,,,6102EB,Echt,Echt-Susteren,Limburg,VBO,5.889690,51.101135
Thaalweg Oost,16,,,6102EB,Echt,Echt-Susteren,Limburg,VBO,5.889857,51.101129
Thaalweg Oost,18,,,6102EB,Echt,Echt-Susteren,Limburg,VBO,5.889936,51.101127
Thaalweg Oost,20,,,6102EB,Echt,Echt-Susteren,Limburg,VBO,5.890103,51.101123
Thaalweg Oost,22,,,6102EB,Echt,Echt-Susteren,Limburg,VBO,5.890184,51.101120
Thaalweg Oost,24,,,6102EB,Echt,Echt-Susteren,Limburg,VBO,5.890358,51.101122
Thaalweg Oost,26,,,6102EB,Echt,Echt-Susteren,Limburg,VBO,5.890438,51.101127
Thaalweg Oost,28,,,6102EB,Echt,Echt-Susteren,Limburg,VBO,5.890609,51.101145
Thaalweg Oost,30,,,6102EB,Echt,Echt-Susteren,Limburg,VBO,5.890687,51.101159
Thaalweg Oost,32,,,6102EB,Echt,Echt-Susteren,Limburg,VBO,5.890857,51.101199
Thaalweg Oost,34,,,6102EB,Echt,Echt-Susteren,Limburg,VBO,5.891125,51.101295
Thaalweg Oost,36,,,6102EB,Echt,Echt-Susteren,Limburg,VBO,5.891270,51.101366
Thaalweg Oost,38,,,6102EB,Echt,Echt-Susteren,Limburg,VBO,5.891325,51.101402
Thaalweg Oost,40,,,6102EB,Echt,Echt-Susteren,Limburg,VBO,5.891442,51.101479
Thaalweg Oost,42,,,6102EB,Echt,Echt-Susteren,Limburg,VBO,5.891499,51.101516
Thaalweg Oost,44,,,6102EB,Echt,Echt-Susteren,Limburg,VBO,5.891614,51.101591
Thaalweg Oost,46,,,6102EB,Echt,Echt-Susteren,Limburg,VBO,5.891670,51.101628
Thaalweg Oost,48,,,6102EB,Echt,Echt-Susteren,Limburg,VBO,5.891788,51.101703
Thaalweg Oost,50,,,6102EB,Echt,Echt-Susteren,Limburg,VBO,5.891844,51.101739
Thaalweg Oost,52,,,6102EB,Echt,Echt-Susteren,Limburg,VBO,5.891976,51.101822
Thaalweg Oost,54,,,6102EB,Echt,Echt-Susteren,Limburg,VBO,5.892018,51.101865
Thaalweg Oost,56,,,6102EB,Echt,Echt-Susteren,Limburg,VBO,5.892105,51.101962
Thaalweg Oost,58,,,6102EB,Echt,Echt-Susteren,Limburg,VBO,5.892204,51.102086
Thaalweg Oost,60,,,6102EB,Echt,Echt-Susteren,Limburg,VBO,5.892241,51.102180
Thaalweg Oost,62,,,6102EB,Echt,Echt-Susteren,Limburg,VBO,5.892260,51.102225
Thaalweg Oost,64,,,6102EB,Echt,Echt-Susteren,Limburg,VBO,5.892301,51.102334
Thaalweg Oost,66,,,6102EB,Echt,Echt-Susteren,Limburg,VBO,5.892312,51.102380
Thaalweg Oost,68,,,6102EB,Echt,Echt-Susteren,Limburg,VBO,5.892333,51.102928
Thaalweg Oost,70,,,6102EB,Echt,Echt-Susteren,Limburg,VBO,5.892327,51.102980
Thaalweg Oost,88,,,6102EB,Echt,Echt-Susteren,Limburg,VBO,5.891905,51.103208
Thaalweg Oost,90,,,6102EB,Echt,Echt-Susteren,Limburg,VBO,5.891719,51.103196
Thaalweg Oost,92,,,6102EB,Echt,Echt-Susteren,Limburg,VBO,5.891469,51.103202
Thaalweg Oost,94,,,6102EB,Echt,Echt-Susteren,Limburg,VBO,5.891389,51.103200
Thaalweg Oost,96,,,6102EB,Echt,Echt-Susteren,Limburg,VBO,5.891203,51.103197
Thaalweg Oost,1,,,6102EC,Echt,Echt-Susteren,Limburg,VBO,5.889037,51.101440
Thaalweg Oost,3,,,6102EC,Echt,Echt-Susteren,Limburg,VBO,5.889104,51.101440
Thaalweg Oost,5,,,6102EC,Echt,Echt-Susteren,Limburg,VBO,5.889066,51.101493
Thaalweg Oost,7,,,6102EC,Echt,Echt-Susteren,Limburg,VBO,5.889136,51.101488
Thaalweg Oost,9,,,6102EC,Echt,Echt-Susteren,Limburg,VBO,5.889091,51.101546
Thaalweg Oost,11,,,6102EC,Echt,Echt-Susteren,Limburg,VBO,5.889157,51.101541
Thaalweg Oost,13,,,6102EC,Echt,Echt-Susteren,Limburg,VBO,5.889109,51.101599
Thaalweg Oost,15,,,6102EC,Echt,Echt-Susteren,Limburg,VBO,5.889176,51.101596
Thaalweg Oost,17,,,6102EC,Echt,Echt-Susteren,Limburg,VBO,5.889297,51.101432
Thaalweg Oost,19,,,6102EC,Echt,Echt-Susteren,Limburg,VBO,5.889363,51.101434
Thaalweg Oost,21,,,6102EC,Echt,Echt-Susteren,Limburg,VBO,5.889430,51.101429
Thaalweg Oost,23,,,6102EC,Echt,Echt-Susteren,Limburg,VBO,5.889500,51.101431
Thaalweg Oost,25,,,6102EC,Echt,Echt-Susteren,Limburg,VBO,5.889563,51.101429
Thaalweg Oost,27,,,6102EC,Echt,Echt-Susteren,Limburg,VBO,5.889626,51.101429
Thaalweg Oost,29,,,6102EC,Echt,Echt-Susteren,Limburg,VBO,5.889686,51.101428
Thaalweg Oost,31,,,6102EC,Echt,Echt-Susteren,Limburg,VBO,5.889760,51.101426
Thaalweg Oost,33,,,6102EC,Echt,Echt-Susteren,Limburg,VBO,5.889187,51.101647
Thaalweg Oost,35,,,6102EC,Echt,Echt-Susteren,Limburg,VBO,5.889260,51.101649
Thaalweg Oost,37,,,6102EC,Echt,Echt-Susteren,Limburg,VBO,5.889331,51.101648
Thaalweg Oost,39,,,6102EC,Echt,Echt-Susteren,Limburg,VBO,5.889296,51.101697
Thaalweg Oost,41,,,6102EC,Echt,Echt-Susteren,Limburg,VBO,5.889377,51.101695
Thaalweg Oost,43,,,6102EC,Echt,Echt-Susteren,Limburg,VBO,5.889447,51.101694
Thaalweg Oost,45,,,6102EC,Echt,Echt-Susteren,Limburg,VBO,5.889440,51.101741
Thaalweg Oost,47,,,6102EC,Echt,Echt-Susteren,Limburg,VBO,5.889510,51.101743
Thaalweg Oost,49,,,6102EC,Echt,Echt-Susteren,Limburg,VBO,5.889297,51.101468
Thaalweg Oost,51,,,6102EC,Echt,Echt-Susteren,Limburg,VBO,5.889360,51.101476
Thaalweg Oost,53,,,6102EC,Echt,Echt-Susteren,Limburg,VBO,5.889427,51.101469
Thaalweg Oost,55,,,6102EC,Echt,Echt-Susteren,Limburg,VBO,5.889493,51.101469
Thaalweg Oost,57,,,6102EC,Echt,Echt-Susteren,Limburg,VBO,5.889564,51.101466
Thaalweg Oost,59,,,6102EC,Echt,Echt-Susteren,Limburg,VBO,5.889623,51.101466
Thaalweg Oost,61,,,6102EC,Echt,Echt-Susteren,Limburg,VBO,5.889683,51.101464
Thaalweg Oost,63,,,6102EC,Echt,Echt-Susteren,Limburg,VBO,5.889746,51.101466
Thaalweg Oost,65,,,6102EC,Echt,Echt-Susteren,Limburg,VBO,5.891450,51.102198
Thaalweg Oost,67,,,6102EC,Echt,Echt-Susteren,Limburg,VBO,5.891490,51.102235
Thaalweg Oost,69,,,6102EC,Echt,Echt-Susteren,Limburg,VBO,5.891610,51.102309
Thaalweg Oost,71,,,6102EC,Echt,Echt-Susteren,Limburg,VBO,5.891665,51.102347
Thaalweg Oost,73,,,6102EC,Echt,Echt-Susteren,Limburg,VBO,5.891770,51.102445
Thaalweg Oost,75,,,6102EC,Echt,Echt-Susteren,Limburg,VBO,5.891762,51.102562
Thaalweg Oost,77,,,6102EC,Echt,Echt-Susteren,Limburg,VBO,5.891756,51.102610
Thaalweg Oost,79,,,6102EC,Echt,Echt-Susteren,Limburg,VBO,5.891758,51.102715
Thaalweg Oost,81,,,6102EC,Echt,Echt-Susteren,Limburg,VBO,5.891749,51.102765
Thaalweg Oost,83,,,6102EC,Echt,Echt-Susteren,Limburg,VBO,5.891738,51.102869
Thaalweg Oost,85,,,6102EC,Echt,Echt-Susteren,Limburg,VBO,5.891729,51.102911
Kasteelweg,24,,,6102ED,Echt,Echt-Susteren,Limburg,VBO,5.888774,51.100536
Kasteelweg,26,,,6102ED,Echt,Echt-Susteren,Limburg,VBO,5.888957,51.100528
Kasteelweg,28,,,6102ED,Echt,Echt-Susteren,Limburg,VBO,5.889127,51.100517
Kasteelweg,30,,,6102ED,Echt,Echt-Susteren,Limburg,VBO,5.889312,51.100506
Kasteelweg,32,,,6102ED,Echt,Echt-Susteren,Limburg,VBO,5.889496,51.100495
Kasteelweg,34,,,6102ED,Echt,Echt-Susteren,Limburg,VBO,5.889689,51.100498
Kasteelweg,36,,,6102ED,Echt,Echt-Susteren,Limburg,VBO,5.889885,51.100452
Kasteelweg,38,,,6102ED,Echt,Echt-Susteren,Limburg,VBO,5.889995,51.100363
Kasteelweg,40,,,6102ED,Echt,Echt-Susteren,Limburg,VBO,5.890118,51.100263
Kasteelweg,42,A,,6102ED,Echt,Echt-Susteren,Limburg,VBO,5.891231,51.100172
Kasteelweg,42,,,6102ED,Echt,Echt-Susteren,Limburg,VBO,5.891201,51.100234
Kasteelweg,44,,,6102ED,Echt,Echt-Susteren,Limburg,VBO,5.891366,51.100156
Kasteelweg,46,,,6102ED,Echt,Echt-Susteren,Limburg,VBO,5.891521,51.100083
Kasteelweg,48,,,6102ED,Echt,Echt-Susteren,Limburg,VBO,5.891957,51.099959
Kasteelweg,50,,,6102ED,Echt,Echt-Susteren,Limburg,VBO,5.892154,51.099881
Kasteelweg,52,,,6102ED,Echt,Echt-Susteren,Limburg,VBO,5.892308,51.099780
Kasteelweg,54,,,6102ED,Echt,Echt-Susteren,Limburg,VBO,5.893013,51.099558
Kasteelweg,56,,,6102ED,Echt,Echt-Susteren,Limburg,VBO,5.893161,51.099488
Kasteelweg,58,,,6102ED,Echt,Echt-Susteren,Limburg,VBO,5.893315,51.099415
Kasteelweg,60,,,6102ED,Echt,Echt-Susteren,Limburg,VBO,5.893468,51.099342
Kasteelweg,29,A,,6102EE,Echt,Echt-Susteren,Limburg,VBO,5.889103,51.100824
Kasteelweg,29,,,6102EE,Echt,Echt-Susteren,Limburg,VBO,5.889003,51.100828
Kasteelweg,31,,,6102EE,Echt,Echt-Susteren,Limburg,VBO,5.889361,51.100790
Kasteelweg,33,,,6102EE,Echt,Echt-Susteren,Limburg,VBO,5.889777,51.100779
Kasteelweg,35,,,6102EE,Echt,Echt-Susteren,Limburg,VBO,5.890263,51.100785
Kasteelweg,37,,,6102EE,Echt,Echt-Susteren,Limburg,VBO,5.890797,51.100697
Kasteelweg,41,,,6102EE,Echt,Echt-Susteren,Limburg,VBO,5.891492,51.100410
Kasteelweg,43,,,6102EE,Echt,Echt-Susteren,Limburg,VBO,5.891580,51.100377
Kasteelweg,45,,,6102EE,Echt,Echt-Susteren,Limburg,VBO,5.891680,51.100340
Kasteelweg,47,,,6102EE,Echt,Echt-Susteren,Limburg,VBO,5.891766,51.100307
Kasteelweg,49,,,6102EE,Echt,Echt-Susteren,Limburg,VBO,5.891959,51.100267
Kasteelweg,51,,,6102EE,Echt,Echt-Susteren,Limburg,VBO,5.892189,51.100234
Kasteelweg,53,,,6102EE,Echt,Echt-Susteren,Limburg,VBO,5.892372,51.100135
Kasteelweg,55,,,6102EE,Echt,Echt-Susteren,Limburg,VBO,5.892608,51.100045
Kasteelweg,57,,,6102EE,Echt,Echt-Susteren,Limburg,VBO,5.893015,51.099907
Kasteelweg,59,,,6102EE,Echt,Echt-Susteren,Limburg,VBO,5.893350,51.099805
Kasteelweg,61,,,6102EE,Echt,Echt-Susteren,Limburg,VBO,5.893692,51.099692
Thaalpad,2,,,6102EG,Echt,Echt-Susteren,Limburg,VBO,5.888091,51.103218
Thaalpad,4,,,6102EG,Echt,Echt-Susteren,Limburg,VBO,5.888180,51.103105
Thaalpad,12,,,6102EG,Echt,Echt-Susteren,Limburg,VBO,5.888821,51.102320
Thaalpad,14,,,6102EG,Echt,Echt-Susteren,Limburg,VBO,5.888889,51.102271
Thaalpad,16,,,6102EG,Echt,Echt-Susteren,Limburg,VBO,5.888949,51.102199
Thaalpad,18,,,6102EG,Echt,Echt-Susteren,Limburg,VBO,5.888999,51.102117
Thaalpad,20,,,6102EG,Echt,Echt-Susteren,Limburg,VBO,5.889951,51.101569
Thaalpad,3,,,6102EH,Echt,Echt-Susteren,Limburg,VBO,5.888653,51.103051
Thaalpad,13,,,6102EH,Echt,Echt-Susteren,Limburg,VBO,5.889235,51.102465
Thaalpad,15,,,6102EH,Echt,Echt-Susteren,Limburg,VBO,5.889295,51.102397
Thaalpad,17,,,6102EH,Echt,Echt-Susteren,Limburg,VBO,5.889356,51.102329
Thaalpad,19,,,6102EH,Echt,Echt-Susteren,Limburg,VBO,5.889415,51.102262
Thaalpad,21,,,6102EH,Echt,Echt-Susteren,Limburg,VBO,5.890004,51.101912
Thaalpad,23,,,6102EH,Echt,Echt-Susteren,Limburg,VBO,5.890098,51.101959
Thaalpad,25,,,6102EH,Echt,Echt-Susteren,Limburg,VBO,5.890774,51.102186
Thaalpad,27,,,6102EH,Echt,Echt-Susteren,Limburg,VBO,5.891018,51.102147
Thaalpad,29,,,6102EH,Echt,Echt-Susteren,Limburg,VBO,5.891138,51.101973
Thaalpad,31,A,,6102EH,Echt,Echt-Susteren,Limburg,VBO,5.890902,51.101830
Thaalpad,31,,,6102EH,Echt,Echt-Susteren,Limburg,VBO,5.890842,51.101789
Thaalpad,33,,,6102EH,Echt,Echt-Susteren,Limburg,VBO,5.890265,51.101806
Thaalpad,35,,,6102EH,Echt,Echt-Susteren,Limburg,VBO,5.890454,51.101735
Thaalpad,37,,,6102EH,Echt,Echt-Susteren,Limburg,VBO,5.890605,51.101675
Thaalpad,39,,,6102EH,Echt,Echt-Susteren,Limburg,VBO,5.890155,51.101905
Thaalpad,41,,,6102EH,Echt,Echt-Susteren,Limburg,VBO,5.890194,51.101888
Thaalpad,43,,,6102EH,Echt,Echt-Susteren,Limburg,VBO,5.890240,51.101866
Thaalpad,45,,,6102EH,Echt,Echt-Susteren,Limburg,VBO,5.890279,51.101848
Thaalpad,47,,,6102EH,Echt,Echt-Susteren,Limburg,VBO,5.890335,51.101826
Thaalpad,49,,,6102EH,Echt,Echt-Susteren,Limburg,VBO,5.890391,51.101806
Thaalpad,51,,,6102EH,Echt,Echt-Susteren,Limburg,VBO,5.890445,51.101785
Thaalpad,53,,,6102EH,Echt,Echt-Susteren,Limburg,VBO,5.890490,51.101766
Thaalpad,55,,,6102EH,Echt,Echt-Susteren,Limburg,VBO,5.890537,51.101746
Thaalpad,57,,,6102EH,Echt,Echt-Susteren,Limburg,VBO,5.890584,51.101722
Thaalpad,59,,,6102EH,Echt,Echt-Susteren,Limburg,VBO,5.890639,51.101709
Thaalpad,61,,,6102EH,Echt,Echt-Susteren,Limburg,VBO,5.890691,51.101690
Thaalpad,63,,,6102EH,Echt,Echt-Susteren,Limburg,VBO,5.890217,51.101933
Thaalpad,65,,,6102EH,Echt,Echt-Susteren,Limburg,VBO,5.890278,51.101907
Thaalpad,67,,,6102EH,Echt,Echt-Susteren,Limburg,VBO,5.890326,51.101886
Thaalpad,69,,,6102EH,Echt,Echt-Susteren,Limburg,VBO,5.890378,51.101863
Thaalpad,71,,,6102EH,Echt,Echt-Susteren,Limburg,VBO,5.890438,51.101843
Thaalpad,73,,,6102EH,Echt,Echt-Susteren,Limburg,VBO,5.890487,51.101825
Thaalpad,75,,,6102EH,Echt,Echt-Susteren,Limburg,VBO,5.890189,51.102002
Thaalpad,77,,,6102EH,Echt,Echt-Susteren,Limburg,VBO,5.890245,51.101975
Thaalpad,79,,,6102EH,Echt,Echt-Susteren,Limburg,VBO,5.890302,51.101946
Thaalpad,81,,,6102EH,Echt,Echt-Susteren,Limburg,VBO,5.890365,51.101926
Thaalpad,83,,,6102EH,Echt,Echt-Susteren,Limburg,VBO,5.890425,51.101901
Thaalpad,85,,,6102EH,Echt,Echt-Susteren,Limburg,VBO,5.890481,51.101883
Thaalpad,87,,,6102EH,Echt,Echt-Susteren,Limburg,VBO,5.890534,51.101865
Thaalpad,89,,,6102EH,Echt,Echt-Susteren,Limburg,VBO,5.890278,51.102031
Thaalpad,91,,,6102EH,Echt,Echt-Susteren,Limburg,VBO,5.890341,51.102004
Thaalpad,93,,,6102EH,Echt,Echt-Susteren,Limburg,VBO,5.890394,51.101977
Thaalpad,95,,,6102EH,Echt,Echt-Susteren,Limburg,VBO,5.890453,51.101952
Thaalpad,97,,,6102EH,Echt,Echt-Susteren,Limburg,VBO,5.890510,51.101932
Thaalpad,99,,,6102EH,Echt,Echt-Susteren,Limburg,VBO,5.890563,51.101912
Thaalpad,101,,,6102EH,Echt,Echt-Susteren,Limburg,VBO,5.890363,51.102059
Thaalpad,103,,,6102EH,Echt,Echt-Susteren,Limburg,VBO,5.890486,51.102003
Thaalpad,105,,,6102EH,Echt,Echt-Susteren,Limburg,VBO,5.890423,51.102035
Thaalpad,107,,,6102EH,Echt,Echt-Susteren,Limburg,VBO,5.890542,51.101976
Thaalpad,109,,,6102EH,Echt,Echt-Susteren,Limburg,VBO,5.890595,51.101954
Thaalpad,111,,,6102EH,Echt,Echt-Susteren,Limburg,VBO,5.890455,51.102088
Thaalpad,113,,,6102EH,Echt,Echt-Susteren,Limburg,VBO,5.890519,51.102063
Thaalpad,115,,,6102EH,Echt,Echt-Susteren,Limburg,VBO,5.890575,51.102034
Thaalpad,117,,,6102EH,Echt,Echt-Susteren,Limburg,VBO,5.890634,51.102007
Thaalpad,119,,,6102EH,Echt,Echt-Susteren,Limburg,VBO,5.890693,51.101978
Thaalpad,121,,,6102EH,Echt,Echt-Susteren,Limburg,VBO,5.890548,51.102120
Thaalpad,123,,,6102EH,Echt,Echt-Susteren,Limburg,VBO,5.890607,51.102094
Thaalpad,125,,,6102EH,Echt,Echt-Susteren,Limburg,VBO,5.890659,51.102067
Thaalpad,127,,,6102EH,Echt,Echt-Susteren,Limburg,VBO,5.890719,51.102040
Thaalpad,129,,,6102EH,Echt,Echt-Susteren,Limburg,VBO,5.890767,51.102016
Thaalpad,131,,,6102EH,Echt,Echt-Susteren,Limburg,VBO,5.890639,51.102153
Thaalpad,133,,,6102EH,Echt,Echt-Susteren,Limburg,VBO,5.890699,51.102126
Thaalpad,135,,,6102EH,Echt,Echt-Susteren,Limburg,VBO,5.890751,51.102097
Thaalpad,137,,,6102EH,Echt,Echt-Susteren,Limburg,VBO,5.890810,51.102066
van Baexenstraat,1,,,6102EJ,Echt,Echt-Susteren,Limburg,VBO,5.892331,51.102733
van Baexenstraat,2,,,6102EJ,Echt,Echt-Susteren,Limburg,VBO,5.892309,51.102537
van Baexenstraat,3,,,6102EJ,Echt,Echt-Susteren,Limburg,VBO,5.892412,51.102733
van Baexenstraat,4,,,6102EJ,Echt,Echt-Susteren,Limburg,VBO,5.892541,51.102541
van Baexenstraat,5,,,6102EJ,Echt,Echt-Susteren,Limburg,VBO,5.892658,51.102738
van Baexenstraat,6,,,6102EJ,Echt,Echt-Susteren,Limburg,VBO,5.892764,51.102550
van Baexenstraat,7,,,6102EJ,Echt,Echt-Susteren,Limburg,VBO,5.892733,51.102739
van Baexenstraat,8,,,6102EJ,Echt,Echt-Susteren,Limburg,VBO,5.892850,51.102552
van Baexenstraat,9,,,6102EJ,Echt,Echt-Susteren,Limburg,VBO,5.892720,51.102932
van Baexenstraat,10,,,6102EJ,Echt,Echt-Susteren,Limburg,VBO,5.893011,51.102555
van Baexenstraat,11,,,6102EJ,Echt,Echt-Susteren,Limburg,VBO,5.892717,51.102978
van Baexenstraat,12,,,6102EJ,Echt,Echt-Susteren,Limburg,VBO,5.893098,51.102554
van Baexenstraat,13,,,6102EJ,Echt,Echt-Susteren,Limburg,VBO,5.892717,51.103181
van Baexenstraat,15,,,6102EJ,Echt,Echt-Susteren,Limburg,VBO,5.892644,51.103180
van Baexenstraat,17,,,6102EJ,Echt,Echt-Susteren,Limburg,VBO,5.892394,51.103181
van Baexenstraat,19,,,6102EJ,Echt,Echt-Susteren,Limburg,VBO,5.892310,51.103179
van Baexenstraat,22,,,6102EJ,Echt,Echt-Susteren,Limburg,VBO,5.892630,51.103398
In de Planten,15,,,6102EP,Echt,Echt-Susteren,Limburg,VBO,5.894917,51.102935
In de Planten,17,,,6102EP,Echt,Echt-Susteren,Limburg,VBO,5.895089,51.102973
In de Planten,19,,,6102EP,Echt,Echt-Susteren,Limburg,VBO,5.895322,51.102986
In de Planten,21,,,6102EP,Echt,Echt-Susteren,Limburg,VBO,5.895503,51.102994
In de Planten,23,,,6102EP,Echt,Echt-Susteren,Limburg,VBO,5.895865,51.103135
In de Planten,25,,,6102EP,Echt,Echt-Susteren,Limburg,VBO,5.896032,51.103177
In de Planten,27,,,6102EP,Echt,Echt-Susteren,Limburg,VBO,5.896231,51.103227
In de Planten,29,,,6102EP,Echt,Echt-Susteren,Limburg,VBO,5.896440,51.103307
In de Planten,31,,,6102EP,Echt,Echt-Susteren,Limburg,VBO,5.896698,51.103355
In de Planten,33,,,6102EP,Echt,Echt-Susteren,Limburg,VBO,5.897021,51.103417
In de Planten,35,,,6102EP,Echt,Echt-Susteren,Limburg,VBO,5.897190,51.103472
In de Planten,37,,,6102EP,Echt,Echt-Susteren,Limburg,VBO,5.897359,51.103529
In de Planten,39,,,6102EP,Echt,Echt-Susteren,Limburg,VBO,5.897566,51.103616
In de Planten,41,,,6102EP,Echt,Echt-Susteren,Limburg,VBO,5.897884,51.103720
In de Planten,4,,,6102ER,Echt,Echt-Susteren,Limburg,VBO,5.893901,51.102535
In de Planten,6,,,6102ER,Echt,Echt-Susteren,Limburg,VBO,5.894197,51.102592
In de Planten,8,A,,6102ER,Echt,Echt-Susteren,Limburg,VBO,5.894357,51.102293
In de Planten,8,,,6102ER,Echt,Echt-Susteren,Limburg,VBO,5.894432,51.102611
In de Planten,12,,,6102ER,Echt,Echt-Susteren,Limburg,VBO,5.894683,51.102613
In de Planten,14,,,6102ER,Echt,Echt-Susteren,Limburg,VBO,5.894899,51.102653
In de Planten,16,,,6102ER,Echt,Echt-Susteren,Limburg,VBO,5.895010,51.102675
In de Planten,24,,,6102ER,Echt,Echt-Susteren,Limburg,VBO,5.895327,51.102705
In de Planten,26,,,6102ER,Echt,Echt-Susteren,Limburg,VBO,5.895420,51.102727
In de Planten,28,,,6102ER,Echt,Echt-Susteren,Limburg,VBO,5.895585,51.102765
In de Planten,30,,,6102ER,Echt,Echt-Susteren,Limburg,VBO,5.895677,51.102787
In de Planten,32,,,6102ER,Echt,Echt-Susteren,Limburg,VBO,5.895828,51.102822
In de Planten,34,,,6102ER,Echt,Echt-Susteren,Limburg,VBO,5.895920,51.102844
In de Planten,36,,,6102ER,Echt,Echt-Susteren,Limburg,VBO,5.896117,51.102884
In de Planten,38,,,6102ER,Echt,Echt-Susteren,Limburg,VBO,5.896298,51.102933
In de Planten,40,,,6102ER,Echt,Echt-Susteren,Limburg,VBO,5.896451,51.102968
In de Planten,42,,,6102ER,Echt,Echt-Susteren,Limburg,VBO,5.896620,51.103008
In de Planten,44,,,6102ER,Echt,Echt-Susteren,Limburg,VBO,5.896794,51.103049
In de Planten,46,,,6102ER,Echt,Echt-Susteren,Limburg,VBO,5.896898,51.103073
In de Planten,52,,,6102ER,Echt,Echt-Susteren,Limburg,VBO,5.897164,51.103179
In de Planten,54,,,6102ER,Echt,Echt-Susteren,Limburg,VBO,5.897314,51.103177
In de Planten,56,,,6102ER,Echt,Echt-Susteren,Limburg,VBO,5.897401,51.103206
In de Planten,58,,,6102ER,Echt,Echt-Susteren,Limburg,VBO,5.897575,51.103263
In de Planten,60,,,6102ER,Echt,Echt-Susteren,Limburg,VBO,5.897754,51.103322
In de Planten,62,,,6102ER,Echt,Echt-Susteren,Limburg,VBO,5.897843,51.103352
In de Planten,64,,,6102ER,Echt,Echt-Susteren,Limburg,VBO,5.898007,51.103395
In de Planten,66,,,6102ER,Echt,Echt-Susteren,Limburg,VBO,5.898391,51.103512
Echterstraat,1,,,6102ES,Echt,Echt-Susteren,Limburg,VBO,5.888286,51.103978
Echterstraat,5,,,6102ES,Echt,Echt-Susteren,Limburg,VBO,5.888545,51.103929
Echterstraat,11,,,6102ES,Echt,Echt-Susteren,Limburg,VBO,5.888970,51.103984
Echterstraat,13,,,6102ES,Echt,Echt-Susteren,Limburg,VBO,5.889283,51.104032
Echterstraat,15,A,,6102ES,Echt,Echt-Susteren,Limburg,VBO,5.889797,51.104079
Echterstraat,15,,,6102ES,Echt,Echt-Susteren,Limburg,VBO,5.889553,51.104045
Echterstraat,17,,,6102ES,Echt,Echt-Susteren,Limburg,VBO,5.890277,51.104064
Echterstraat,23,,,6102ES,Echt,Echt-Susteren,Limburg,VBO,5.890553,51.104085
Echterstraat,27,,,6102ES,Echt,Echt-Susteren,Limburg,VBO,5.890817,51.104113
Echterstraat,29,,,6102ES,Echt,Echt-Susteren,Limburg,VBO,5.890990,51.104118
Echterstraat,31,,,6102ES,Echt,Echt-Susteren,Limburg,VBO,5.891253,51.104102
Echterstraat,33,,,6102ES,Echt,Echt-Susteren,Limburg,VBO,5.891404,51.104078
Echterstraat,35,,,6102ES,Echt,Echt-Susteren,Limburg,VBO,5.891524,51.104098
Echterstraat,37,,,6102ES,Echt,Echt-Susteren,Limburg,VBO,5.891756,51.104096
Echterstraat,41,,,6102ES,Echt,Echt-Susteren,Limburg,VBO,5.892108,51.104091
Echterstraat,43,,,6102ES,Echt,Echt-Susteren,Limburg,VBO,5.892256,51.104086
Echterstraat,45,,,6102ES,Echt,Echt-Susteren,Limburg,VBO,5.892434,51.104118
Echterstraat,47,,,6102ES,Echt,Echt-Susteren,Limburg,VBO,5.892621,51.104095
Echterstraat,49,,,6102ES,Echt,Echt-Susteren,Limburg,VBO,5.892746,51.104105
Echterstraat,51,,,6102ES,Echt,Echt-Susteren,Limburg,VBO,5.892978,51.104068
Echterstraat,53,,,6102ES,Echt,Echt-Susteren,Limburg,VBO,5.893088,51.104074
Echterstraat,55,A,,6102ES,Echt,Echt-Susteren,Limburg,VBO,5.893205,51.104261
Echterstraat,55,,,6102ES,Echt,Echt-Susteren,Limburg,VBO,5.893227,51.104070
Echterstraat,57,,,6102ES,Echt,Echt-Susteren,Limburg,VBO,5.893422,51.104211
Echterstraat,59,A,,6102ES,Echt,Echt-Susteren,Limburg,VBO,5.893727,51.104142
Echterstraat,61,,,6102ES,Echt,Echt-Susteren,Limburg,VBO,5.893803,51.104009
Echterstraat,63,,,6102ES,Echt,Echt-Susteren,Limburg,VBO,5.893905,51.104022
Echterstraat,65,A,,6102ES,Echt,Echt-Susteren,Limburg,VBO,5.894155,51.104208
Echterstraat,65,,,6102ES,Echt,Echt-Susteren,Limburg,VBO,5.894136,51.104062
Echterstraat,6,,,6102ET,Echt,Echt-Susteren,Limburg,VBO,5.888473,51.103646
Echterstraat,8,,,6102ET,Echt,Echt-Susteren,Limburg,VBO,5.888719,51.103663
Echterstraat,10,A,,6102ET,Echt,Echt-Susteren,Limburg,VBO,5.889149,51.103709
Echterstraat,10,,,6102ET,Echt,Echt-Susteren,Limburg,VBO,5.888912,51.103676
Echterstraat,12,,,6102ET,Echt,Echt-Susteren,Limburg,VBO,5.889457,51.103783
Echterstraat,14,A,,6102ET,Echt,Echt-Susteren,Limburg,VBO,5.889733,51.103805
Echterstraat,14,,,6102ET,Echt,Echt-Susteren,Limburg,VBO,5.889636,51.103801
Echterstraat,16,A,,6102ET,Echt,Echt-Susteren,Limburg,VBO,5.890040,51.103777
Echterstraat,16,,,6102ET,Echt,Echt-Susteren,Limburg,VBO,5.889860,51.103811
Echterstraat,18,A,,6102ET,Echt,Echt-Susteren,Limburg,VBO,5.890334,51.103784
Echterstraat,18,,,6102ET,Echt,Echt-Susteren,Limburg,VBO,5.890231,51.103782
Echterstraat,20,,,6102ET,Echt,Echt-Susteren,Limburg,VBO,5.890549,51.103789
Echterstraat,28,,,6102ET,Echt,Echt-Susteren,Limburg,VBO,5.891338,51.103798
Echterstraat,30,,,6102ET,Echt,Echt-Susteren,Limburg,VBO,5.891477,51.103810
Echterstraat,32,,,6102ET,Echt,Echt-Susteren,Limburg,VBO,5.891677,51.103814
Echterstraat,34,,,6102ET,Echt,Echt-Susteren,Limburg,VBO,5.891977,51.103785
Echterstraat,36,,,6102ET,Echt,Echt-Susteren,Limburg,VBO,5.892186,51.103853
Echterstraat,38,,,6102ET,Echt,Echt-Susteren,Limburg,VBO,5.892483,51.103824
Echterstraat,40,,,6102ET,Echt,Echt-Susteren,Limburg,VBO,5.892676,51.103826
Echterstraat,42,,,6102ET,Echt,Echt-Susteren,Limburg,VBO,5.892785,51.103828
Echterstraat,44,,,6102ET,Echt,Echt-Susteren,Limburg,VBO,5.892938,51.103829
Echterstraat,46,,,6102ET,Echt,Echt-Susteren,Limburg,VBO,5.893146,51.103826
Echterstraat,48,,,6102ET,Echt,Echt-Susteren,Limburg,VBO,5.893383,51.103822
Echterstraat,50,,,6102ET,Echt,Echt-Susteren,Limburg,VBO,5.893610,51.103813
Echterstraat,52,,,6102ET,Echt,Echt-Susteren,Limburg,VBO,5.893857,51.103766
Echterstraat,54,,,6102ET,Echt,Echt-Susteren,Limburg,VBO,5.894143,51.103702
Echterstraat,56,,,6102ET,Echt,Echt-Susteren,Limburg,VBO,5.894314,51.103666
Op den Dijk,1,A,,6102EV,Echt,Echt-Susteren,Limburg,VBO,5.895205,51.104015
Op den Dijk,1,,,6102EV,Echt,Echt-Susteren,Limburg,VBO,5.895290,51.104039
Op den Dijk,3,A,,6102EV,Echt,Echt-Susteren,Limburg,VBO,5.895786,51.103881
Op den Dijk,3,,,6102EV,Echt,Echt-Susteren,Limburg,VBO,5.895500,51.104077
Op den Dijk,5,,,6102EV,Echt,Echt-Susteren,Limburg,VBO,5.895811,51.104194
Op den Dijk,7,A,,6102EV,Echt,Echt-Susteren,Limburg,VBO,5.896254,51.104168
Op den Dijk,7,,,6102EV,Echt,Echt-Susteren,Limburg,VBO,5.896012,51.104208
Op den Dijk,9,,,6102EV,Echt,Echt-Susteren,Limburg,VBO,5.896395,51.104133
Op den Dijk,11,,,6102EV,Echt,Echt-Susteren,Limburg,VBO,5.896494,51.104108
Op den Dijk,13,,,6102EV,Echt,Echt-Susteren,Limburg,VBO,5.896725,51.104050
Op den Dijk,15,,,6102EV,Echt,Echt-Susteren,Limburg,VBO,5.896813,51.104028
Op den Dijk,17,,,6102EV,Echt,Echt-Susteren,Limburg,VBO,5.897027,51.103976
Op den Dijk,19,,,6102EV,Echt,Echt-Susteren,Limburg,VBO,5.897133,51.103951
Op den Dijk,21,,,6102EV,Echt,Echt-Susteren,Limburg,VBO,5.897334,51.103897
Op den Dijk,25,,,6102EV,Echt,Echt-Susteren,Limburg,VBO,5.897575,51.103811
Op den Dijk,29,,,6102EV,Echt,Echt-Susteren,Limburg,VBO,5.898749,51.103524
Op den Dijk,31,,,6102EV,Echt,Echt-Susteren,Limburg,VBO,5.899083,51.103033
Op den Dijk,2,A,,6102EW,Echt,Echt-Susteren,Limburg,VBO,5.895347,51.104454
Op den Dijk,2,,,6102EW,Echt,Echt-Susteren,Limburg,VBO,5.896077,51.104512
Op den Dijk,4,,,6102EW,Echt,Echt-Susteren,Limburg,VBO,5.896244,51.104471
Op den Dijk,6,,,6102EW,Echt,Echt-Susteren,Limburg,VBO,5.896343,51.104446
Op den Dijk,8,,,6102EW,Echt,Echt-Susteren,Limburg,VBO,5.896516,51.104402
Op den Dijk,10,,,6102EW,Echt,Echt-Susteren,Limburg,VBO,5.896606,51.104379
Op den Dijk,12,,,6102EW,Echt,Echt-Susteren,Limburg,VBO,5.896778,51.104336
Op den Dijk,14,,,6102EW,Echt,Echt-Susteren,Limburg,VBO,5.896869,51.104313
Op den Dijk,16,,,6102EW,Echt,Echt-Susteren,Limburg,VBO,5.897038,51.104270
Op den Dijk,18,,,6102EW,Echt,Echt-Susteren,Limburg,VBO,5.897239,51.104219
Op den Dijk,20,A,,6102EW,Echt,Echt-Susteren,Limburg,VBO,5.897435,51.104258
Op den Dijk,20,,,6102EW,Echt,Echt-Susteren,Limburg,VBO,5.897492,51.104182
Op den Dijk,22,,,6102EW,Echt,Echt-Susteren,Limburg,VBO,5.897807,51.104104
Op den Dijk,24,,,6102EW,Echt,Echt-Susteren,Limburg,VBO,5.898148,51.104019
Op den Dijk,28,,,6102EW,Echt,Echt-Susteren,Limburg,VBO,5.899713,51.103625
Op den Dijk,30,,,6102EX,Echt,Echt-Susteren,Limburg,VBO,5.900065,51.103561
Op den Dijk,32,,,6102EX,Echt,Echt-Susteren,Limburg,VBO,5.900365,51.103471
Op den Dijk,46,,,6102EX,Echt,Echt-Susteren,Limburg,VBO,5.900792,51.103409
Sint Joosterweg,1,,,6102GA,Echt,Echt-Susteren,Limburg,VBO,5.894573,51.104253
Sint Joosterweg,5,,,6102GA,Echt,Echt-Susteren,Limburg,VBO,5.894854,51.104335
Sint Joosterweg,7,,,6102GA,Echt,Echt-Susteren,Limburg,VBO,5.894984,51.104375
Sint Joosterweg,9,,,6102GA,Echt,Echt-Susteren,Limburg,VBO,5.894989,51.104493
Sint Joosterweg,11,A,,6102GA,Echt,Echt-Susteren,Limburg,VBO,5.895016,51.104655
Sint Joosterweg,11,,,6102GA,Echt,Echt-Susteren,Limburg,VBO,5.895006,51.104619
Sint Joosterweg,13,A,,6102GA,Echt,Echt-Susteren,Limburg,VBO,5.895111,51.104799
Sint Joosterweg,13,,,6102GA,Echt,Echt-Susteren,Limburg,VBO,5.895076,51.104751
Sint Joosterweg,15,,,6102GA,Echt,Echt-Susteren,Limburg,VBO,5.895192,51.104912
Sint Joosterweg,19,,,6102GA,Echt,Echt-Susteren,Limburg,VBO,5.895029,51.105220
Sint Joosterweg,21,,,6102GA,Echt,Echt-Susteren,Limburg,VBO,5.895214,51.105253
Sint Joosterweg,23,,,6102GA,Echt,Echt-Susteren,Limburg,VBO,5.895377,51.105299
Sint Joosterweg,25,A,,6102GA,Echt,Echt-Susteren,Limburg,VBO,5.896019,51.105495
Sint Joosterweg,25,,,6102GA,Echt,Echt-Susteren,Limburg,VBO,5.895758,51.105456
Sint Joosterweg,27,,,6102GA,Echt,Echt-Susteren,Limburg,VBO,5.896103,51.105535
Sint Joosterweg,29,,,6102GA,Echt,Echt-Susteren,Limburg,VBO,5.896263,51.105597
Sint Joosterweg,31,A,,6102GA,Echt,Echt-Susteren,Limburg,VBO,5.896189,51.105844
Sint Joosterweg,31,B,,6102GA,Echt,Echt-Susteren,Limburg,VBO,5.896150,51.105948
Sint Joosterweg,31,C,,6102GA,Echt,Echt-Susteren,Limburg,VBO,5.896070,51.106077
Sint Joosterweg,31,D,,6102GA,Echt,Echt-Susteren,Limburg,VBO,5.895981,51.106178
Sint Joosterweg,31,,,6102GA,Echt,Echt-Susteren,Limburg,VBO,5.896344,51.105647
Sint Joosterweg,33,,,6102GA,Echt,Echt-Susteren,Limburg,VBO,5.895850,51.106685
Sint Joosterweg,37,,,6102GA,Echt,Echt-Susteren,Limburg,VBO,5.895769,51.107154
Sint Joosterweg,39,,,6102GA,Echt,Echt-Susteren,Limburg,VBO,5.896043,51.107856
Sint Joosterweg,41,,,6102GA,Echt,Echt-Susteren,Limburg,VBO,5.896032,51.108105
Sint Joosterweg,43,,,6102GA,Echt,Echt-Susteren,Limburg,VBO,5.896216,51.108310
Sint Joosterweg,45,,,6102GA,Echt,Echt-Susteren,Limburg,VBO,5.896475,51.108426
Sint Joosterweg,47,,,6102GA,Echt,Echt-Susteren,Limburg,VBO,5.896648,51.108548
Sint Joosterweg,4,,,6102GB,Echt,Echt-Susteren,Limburg,VBO,5.895478,51.104613
Sint Joosterweg,6,,,6102GB,Echt,Echt-Susteren,Limburg,VBO,5.895769,51.104763
Sint Joosterweg,8,A,,6102GB,Echt,Echt-Susteren,Limburg,VBO,5.895950,51.104998
Sint Joosterweg,8,,,6102GB,Echt,Echt-Susteren,Limburg,VBO,5.895887,51.104913
Sint Joosterweg,10,,,6102GB,Echt,Echt-Susteren,Limburg,VBO,5.896195,51.105110
Sint Joosterweg,12,,,6102GB,Echt,Echt-Susteren,Limburg,VBO,5.896348,51.105162
Sint Joosterweg,14,,,6102GB,Echt,Echt-Susteren,Limburg,VBO,5.896421,51.105186
Sint Joosterweg,16,A,,6102GB,Echt,Echt-Susteren,Limburg,VBO,5.896651,51.105264
Sint Joosterweg,16,,,6102GB,Echt,Echt-Susteren,Limburg,VBO,5.896575,51.105238
Sint Joosterweg,18,,,6102GB,Echt,Echt-Susteren,Limburg,VBO,5.896164,51.106965
Sint Joosterweg,24,A,,6102GB,Echt,Echt-Susteren,Limburg,VBO,5.896515,51.107626
Sint Joosterweg,24,,,6102GB,Echt,Echt-Susteren,Limburg,VBO,5.896302,51.107518
Sint Joosterweg,34,,,6102GB,Echt,Echt-Susteren,Limburg,VBO,5.897760,51.109015
Bergstraat,1,A,,6102GC,Echt,Echt-Susteren,Limburg,VBO,5.897096,51.105731
Bergstraat,1,,,6102GC,Echt,Echt-Susteren,Limburg,VBO,5.896882,51.105680
Bergstraat,2,A,,6102GC,Echt,Echt-Susteren,Limburg,VBO,5.896979,51.105369
Bergstraat,2,B,,6102GC,Echt,Echt-Susteren,Limburg,VBO,5.897056,51.105393
Bergstraat,2,,,6102GC,Echt,Echt-Susteren,Limburg,VBO,5.896821,51.105319
Bergstraat,3,,,6102GC,Echt,Echt-Susteren,Limburg,VBO,5.897320,51.105730
Bergstraat,4,,,6102GC,Echt,Echt-Susteren,Limburg,VBO,5.897424,51.105486
Bergstraat,5,,,6102GC,Echt,Echt-Susteren,Limburg,VBO,5.897540,51.105776
Bergstraat,6,,,6102GC,Echt,Echt-Susteren,Limburg,VBO,5.897626,51.105509
Bergstraat,7,A,,6102GC,Echt,Echt-Susteren,Limburg,VBO,5.897992,51.105812
Bergstraat,7,,,6102GC,Echt,Echt-Susteren,Limburg,VBO,5.897839,51.105789
Bergstraat,8,,,6102GC,Echt,Echt-Susteren,Limburg,VBO,5.897919,51.105511
Bergstraat,9,,,6102GC,Echt,Echt-Susteren,Limburg,VBO,5.898261,51.105814
Bergstraat,11,A,,6102GC,Echt,Echt-Susteren,Limburg,VBO,5.898496,51.105793
Bergstraat,11,B,,6102GC,Echt,Echt-Susteren,Limburg,VBO,5.898478,51.105818
Bergstraat,11,C,,6102GC,Echt,Echt-Susteren,Limburg,VBO,5.898460,51.105842
Bergstraat,11,,,6102GC,Echt,Echt-Susteren,Limburg,VBO,5.898514,51.105768
Bergstraat,13,A,,6102GC,Echt,Echt-Susteren,Limburg,VBO,5.898803,51.105802
Bergstraat,13,,,6102GC,Echt,Echt-Susteren,Limburg,VBO,5.898703,51.105785
Bergstraat,15,,,6102GC,Echt,Echt-Susteren,Limburg,VBO,5.899100,51.105931
Bergstraat,16,,,6102GC,Echt,Echt-Susteren,Limburg,VBO,5.898912,51.105531
Kranenbroekerweg,1,,,6102GE,Echt,Echt-Susteren,Limburg,VBO,5.899797,51.106249
Kranenbroekerweg,3,,,6102GE,Echt,Echt-Susteren,Limburg,VBO,5.899883,51.106060
Kranenbroekerweg,4,A,,6102GE,Echt,Echt-Susteren,Limburg,VBO,5.899929,51.105431
Kranenbroekerweg,4,,,6102GE,Echt,Echt-Susteren,Limburg,VBO,5.899815,51.105523
Kranenbroekerweg,6,,,6102GE,Echt,Echt-Susteren,Limburg,VBO,5.900071,51.105321
Kranenbroekerweg,8,,,6102GE,Echt,Echt-Susteren,Limburg,VBO,5.900206,51.105230
Kranenbroekerweg,10,,,6102GE,Echt,Echt-Susteren,Limburg,VBO,5.900314,51.105137
Kranenbroekerweg,12,,,6102GE,Echt,Echt-Susteren,Limburg,VBO,5.900395,51.105036
Kranenbroekerweg,22,A,,6102GE,Echt,Echt-Susteren,Limburg,VBO,5.900499,51.104520
Kranenbroekerweg,22,,,6102GE,Echt,Echt-Susteren,Limburg,VBO,5.900671,51.104469
Kranenbroekerweg,24,,,6102GE,Echt,Echt-Susteren,Limburg,VBO,5.900779,51.104259
Kranenbroekerweg,26,,,6102GE,Echt,Echt-Susteren,Limburg,VBO,5.900919,51.104051
Kranenbroekerweg,28,,,6102GE,Echt,Echt-Susteren,Limburg,VBO,5.901038,51.103825
Kranenbroekerweg,30,,,6102GE,Echt,Echt-Susteren,Limburg,VBO,5.900979,51.103590
Weijenpasweg,2,,,6102GG,Echt,Echt-Susteren,Limburg,VBO,5.899086,51.106086
Weijenpasweg,4,,,6102GG,Echt,Echt-Susteren,Limburg,VBO,5.899056,51.106249
Weijenpasweg,33,,,6102GG,Echt,Echt-Susteren,Limburg,VBO,5.898942,51.108317
Weijenpasweg,41,,,6102GG,Echt,Echt-Susteren,Limburg,VBO,5.898633,51.109127
Venstraat,4,,,6102GH,Echt,Echt-Susteren,Limburg,VBO,5.899820,51.103862
Venstraat,5,,,6102GH,Echt,Echt-Susteren,Limburg,VBO,5.899519,51.104771
Venstraat,6,,,6102GH,Echt,Echt-Susteren,Limburg,VBO,5.899932,51.104066
Venstraat,7,,,6102GH,Echt,Echt-Susteren,Limburg,VBO,5.899865,51.104854
Venstraat,8,,,6102GH,Echt,Echt-Susteren,Limburg,VBO,5.899950,51.104285
Venstraat,10,,,6102GH,Echt,Echt-Susteren,Limburg,VBO,5.899817,51.104529
Venstraat,12,,,6102GH,Echt,Echt-Susteren,Limburg,VBO,5.900191,51.104666
Venstraat,14,,,6102GH,Echt,Echt-Susteren,Limburg,VBO,5.900544,51.104750
Vulenstraat,1,,,6102GJ,Echt,Echt-Susteren,Limburg,VBO,5.898601,51.103951
Vulenstraat,3,,,6102GJ,Echt,Echt-Susteren,Limburg,VBO,5.898718,51.104157
Vulenstraat,4,,,6102GJ,Echt,Echt-Susteren,Limburg,VBO,5.898867,51.104791
Vulenstraat,5,,,6102GJ,Echt,Echt-Susteren,Limburg,VBO,5.898693,51.104481
Vulenstraat,6,,,6102GJ,Echt,Echt-Susteren,Limburg,VBO,5.898388,51.104926
Vulenstraat,7,,,6102GJ,Echt,Echt-Susteren,Limburg,VBO,5.898301,51.104515
Vulenstraat,8,,,6102GJ,Echt,Echt-Susteren,Limburg,VBO,5.898286,51.105192
Vulenstraat,9,,,6102GJ,Echt,Echt-Susteren,Limburg,VBO,5.897905,51.104488
Vulenstraat,10,,,6102GJ,Echt,Echt-Susteren,Limburg,VBO,5.898515,51.105355
Vulenstraat,11,,,6102GJ,Echt,Echt-Susteren,Limburg,VBO,5.897565,51.104504
Vulenstraat,12,,,6102GJ,Echt,Echt-Susteren,Limburg,VBO,5.898599,51.105388
Vulenstraat,13,,,6102GJ,Echt,Echt-Susteren,Limburg,VBO,5.897275,51.104688
Vulenstraat,14,,,6102GJ,Echt,Echt-Susteren,Limburg,VBO,5.898761,51.105471
Vulenstraat,15,,,6102GJ,Echt,Echt-Susteren,Limburg,VBO,5.897326,51.104906
Vulenstraat,17,,,6102GJ,Echt,Echt-Susteren,Limburg,VBO,5.897621,51.105033
Vulenstraat,19,,,6102GJ,Echt,Echt-Susteren,Limburg,VBO,5.897908,51.105184
Wolfsberg,1,A,,6102RA,Echt,Echt-Susteren,Limburg,VBO,5.901198,51.093713
Wolfsberg,1,,,6102RA,Echt,Echt-Susteren,Limburg,VBO,5.900891,51.093505
Wolfsberg,3,,,6102RA,Echt,Echt-Susteren,Limburg,VBO,5.901453,51.093678
Wolfsberg,7,A,,6102RA,Echt,Echt-Susteren,Limburg,VBO,5.901768,51.093551
Wolfsberg,9,A,,6102RA,Echt,Echt-Susteren,Limburg,VBO,5.902075,51.093632
Wolfsberg,9,,,6102RA,Echt,Echt-Susteren,Limburg,VBO,5.902369,51.093464
Wolfsberg,11,,,6102RA,Echt,Echt-Susteren,Limburg,VBO,5.902231,51.093764
Wolfsberg,15,,,6102RA,Echt,Echt-Susteren,Limburg,VBO,5.902509,51.093864
Wolfsberg,17,,,6102RA,Echt,Echt-Susteren,Limburg,VBO,5.902585,51.093899
Wolfsberg,21,A,,6102RA,Echt,Echt-Susteren,Limburg,VBO,5.903132,51.094071
Wolfsberg,21,,,6102RA,Echt,Echt-Susteren,Limburg,VBO,5.902802,51.094015
Wolfsberg,23,,,6102RA,Echt,Echt-Susteren,Limburg,VBO,5.903571,51.094347
Wolfsberg,25,,,6102RA,Echt,Echt-Susteren,Limburg,VBO,5.903696,51.094376
Wolfsberg,2,B,,6102RB,Echt,Echt-Susteren,Limburg,VBO,5.901691,51.094229
Wolfsberg,2,C,,6102RB,Echt,Echt-Susteren,Limburg,VBO,5.900536,51.093754
Wolfsberg,2,,,6102RB,Echt,Echt-Susteren,Limburg,VBO,5.901409,51.094586
Wolfsberg,4,,,6102RB,Echt,Echt-Susteren,Limburg,VBO,5.901505,51.093969
Wolfsberg,6,,,6102RB,Echt,Echt-Susteren,Limburg,VBO,5.901600,51.093937
Wolfsberg,8,,,6102RB,Echt,Echt-Susteren,Limburg,VBO,5.901868,51.093868
Wolfsberg,10,A,,6102RB,Echt,Echt-Susteren,Limburg,VBO,5.902226,51.094031
Wolfsberg,10,,,6102RB,Echt,Echt-Susteren,Limburg,VBO,5.902169,51.093957
Wolfsberg,14,A,,6102RB,Echt,Echt-Susteren,Limburg,VBO,5.903314,51.094499
Wolfsberg,14,,,6102RB,Echt,Echt-Susteren,Limburg,VBO,5.902955,51.094397
Wolfsberg,16,,,6102RB,Echt,Echt-Susteren,Limburg,VBO,5.904299,51.094604
Lozekampsteeg,3,,,6102RC,Echt,Echt-Susteren,Limburg,VBO,5.907470,51.094199
Brugweg,89,A,,6102RD,Echt,Echt-Susteren,Limburg,VBO,5.911478,51.092699
Brugweg,89,P,16,6102RD,Echt,Echt-Susteren,Limburg,VBO,5.908751,51.094422
Brugweg,89,Z,1,6102RD,Echt,Echt-Susteren,Limburg,VBO,5.909030,51.093870
Brugweg,89,Z,10,6102RD,Echt,Echt-Susteren,Limburg,VBO,5.908872,51.094221
Brugweg,89,Z,11,6102RD,Echt,Echt-Susteren,Limburg,VBO,5.908666,51.094222
Brugweg,89,Z,12,6102RD,Echt,Echt-Susteren,Limburg,VBO,5.908515,51.094239
Brugweg,89,Z,13,6102RD,Echt,Echt-Susteren,Limburg,VBO,5.908302,51.094232
Brugweg,89,Z,14,6102RD,Echt,Echt-Susteren,Limburg,VBO,5.908095,51.094238
Brugweg,89,Z,16,6102RD,Echt,Echt-Susteren,Limburg,VBO,5.908085,51.093992
Brugweg,89,Z,17,6102RD,Echt,Echt-Susteren,Limburg,VBO,5.908206,51.093872
Brugweg,89,Z,18,6102RD,Echt,Echt-Susteren,Limburg,VBO,5.908455,51.094423
Brugweg,89,Z,19,6102RD,Echt,Echt-Susteren,Limburg,VBO,5.908251,51.094433
Brugweg,89,Z,2,6102RD,Echt,Echt-Susteren,Limburg,VBO,5.909039,51.093988
Brugweg,89,Z,20,6102RD,Echt,Echt-Susteren,Limburg,VBO,5.907768,51.094051
Brugweg,89,Z,21,6102RD,Echt,Echt-Susteren,Limburg,VBO,5.907624,51.094024
Brugweg,89,Z,22,6102RD,Echt,Echt-Susteren,Limburg,VBO,5.907307,51.093991
Brugweg,89,Z,23,6102RD,Echt,Echt-Susteren,Limburg,VBO,5.907341,51.093871
Brugweg,89,Z,25,6102RD,Echt,Echt-Susteren,Limburg,VBO,5.907478,51.093667
Brugweg,89,Z,26,6102RD,Echt,Echt-Susteren,Limburg,VBO,5.907515,51.093578
Brugweg,89,Z,27,6102RD,Echt,Echt-Susteren,Limburg,VBO,5.907673,51.093829
Brugweg,89,Z,29,6102RD,Echt,Echt-Susteren,Limburg,VBO,5.907764,51.093754
Brugweg,89,Z,30,6102RD,Echt,Echt-Susteren,Limburg,VBO,5.908035,51.093795
Brugweg,89,Z,31,6102RD,Echt,Echt-Susteren,Limburg,VBO,5.908192,51.093632
Brugweg,89,Z,32,6102RD,Echt,Echt-Susteren,Limburg,VBO,5.907892,51.093623
Brugweg,89,Z,38,6102RD,Echt,Echt-Susteren,Limburg,VBO,5.907765,51.093281
Brugweg,89,Z,4,6102RD,Echt,Echt-Susteren,Limburg,VBO,5.908898,51.093915
Brugweg,89,Z,41,6102RD,Echt,Echt-Susteren,Limburg,VBO,5.908006,51.092855
Brugweg,89,Z,45,6102RD,Echt,Echt-Susteren,Limburg,VBO,5.908442,51.093066
Brugweg,89,Z,48,6102RD,Echt,Echt-Susteren,Limburg,VBO,5.908296,51.093360
Brugweg,89,Z,49,6102RD,Echt,Echt-Susteren,Limburg,VBO,5.908459,51.093390
Brugweg,89,Z,5,6102RD,Echt,Echt-Susteren,Limburg,VBO,5.908571,51.093931
Brugweg,89,Z,6,6102RD,Echt,Echt-Susteren,Limburg,VBO,5.908577,51.094048
Brugweg,89,Z,7,6102RD,Echt,Echt-Susteren,Limburg,VBO,5.908432,51.094030
Brugweg,89,Z,8,6102RD,Echt,Echt-Susteren,Limburg,VBO,5.909347,51.093947
Brugweg,89,Z,9,6102RD,Echt,Echt-Susteren,Limburg,VBO,5.909429,51.094046
Brugweg,89,Z,91,6102RD,Echt,Echt-Susteren,Limburg,VBO,5.908666,51.093667
Brugweg,89,,,6102RD,Echt,Echt-Susteren,Limburg,VBO,5.911221,51.092322
Pepinusbrug,1,,,6102RH,Echt,Echt-Susteren,Limburg,VBO,5.913014,51.090277
Pepinusbrug,3,,,6102RH,Echt,Echt-Susteren,Limburg,VBO,5.924694,51.087653
Pepinusbrug,5,,,6102RH,Echt,Echt-Susteren,Limburg,VBO,5.925473,51.086956
Pepinusbrug,7,,,6102RH,Echt,Echt-Susteren,Limburg,VBO,5.925777,51.086881
Pepinusbrug,13,,,6102RH,Echt,Echt-Susteren,Limburg,VBO,5.926536,51.087080
Pepinusbrug,15,,,6102RH,Echt,Echt-Susteren,Limburg,VBO,5.926979,51.086816
Pepinusbrug,2,A,,6102RJ,Echt,Echt-Susteren,Limburg,VBO,5.911962,51.089750
Pepinusbrug,2,B,,6102RJ,Echt,Echt-Susteren,Limburg,VBO,5.911898,51.089276
Pepinusbrug,2,C,,6102RJ,Echt,Echt-Susteren,Limburg,VBO,5.911508,51.088730
Pepinusbrug,2,D,,6102RJ,Echt,Echt-Susteren,Limburg,VBO,5.910459,51.089975
Pepinusbrug,2,,,6102RJ,Echt,Echt-Susteren,Limburg,VBO,5.911205,51.089611
Pepinusbrug,4,A,,6102RJ,Echt,Echt-Susteren,Limburg,VBO,5.915220,51.086466
Pepinusbrug,4,B,,6102RJ,Echt,Echt-Susteren,Limburg,VBO,5.915053,51.085705
Pepinusbrug,4,C,,6102RJ,Echt,Echt-Susteren,Limburg,VBO,5.914000,51.086080
Pepinusbrug,4,D,,6102RJ,Echt,Echt-Susteren,Limburg,VBO,5.912096,51.085586
Pepinusbrug,4,H,,6102RJ,Echt,Echt-Susteren,Limburg,VBO,5.911396,51.087214
Pepinusbrug,4,J,,6102RJ,Echt,Echt-Susteren,Limburg,VBO,5.912965,51.087832
Pepinusbrug,4,K,,6102RJ,Echt,Echt-Susteren,Limburg,VBO,5.912299,51.088151
Pepinusbrug,4,L,,6102RJ,Echt,Echt-Susteren,Limburg,VBO,5.912562,51.088157
Pepinusbrug,4,M,,6102RJ,Echt,Echt-Susteren,Limburg,VBO,5.912543,51.088305
Pepinusbrug,4,N,,6102RJ,Echt,Echt-Susteren,Limburg,VBO,5.912238,51.088626
Pepinusbrug,4,O,,6102RJ,Echt,Echt-Susteren,Limburg,VBO,5.912867,51.089374
Pepinusbrug,4,R,,6102RJ,Echt,Echt-Susteren,Limburg,VBO,5.913761,51.088730
Pepinusbrug,4,S,,6102RJ,Echt,Echt-Susteren,Limburg,VBO,5.913956,51.088945
Pepinusbrug,4,T,,6102RJ,Echt,Echt-Susteren,Limburg,VBO,5.914382,51.088226
Pepinusbrug,4,U,1,6102RJ,Echt,Echt-Susteren,Limburg,VBO,5.915415,51.088636
Pepinusbrug,4,U,,6102RJ,Echt,Echt-Susteren,Limburg,VBO,5.915355,51.088113
Pepinusbrug,4,V,,6102RJ,Echt,Echt-Susteren,Limburg,VBO,5.916519,51.088130
Pepinusbrug,4,W,,6102RJ,Echt,Echt-Susteren,Limburg,VBO,5.914994,51.087249
Pepinusbrug,4,X,,6102RJ,Echt,Echt-Susteren,Limburg,VBO,5.914606,51.087335
Pepinusbrug,4,Y,,6102RJ,Echt,Echt-Susteren,Limburg,VBO,5.914060,51.087428
Pepinusbrug,4,Z,1,6102RJ,Echt,Echt-Susteren,Limburg,VBO,5.913781,51.087588
Pepinusbrug,4,Z,,6102RJ,Echt,Echt-Susteren,Limburg,VBO,5.913673,51.087829
Pepinusbrug,4,,,6102RJ,Echt,Echt-Susteren,Limburg,VBO,5.916982,51.087357
Pepinusbrug,6,A,,6102RJ,Echt,Echt-Susteren,Limburg,VBO,5.913736,51.082948
Pepinusbrug,6,B,,6102RJ,Echt,Echt-Susteren,Limburg,VBO,5.915265,51.082862
Pepinusbrug,6,C,,6102RJ,Echt,Echt-Susteren,Limburg,VBO,5.915416,51.083037
Pepinusbrug,6,D,,6102RJ,Echt,Echt-Susteren,Limburg,VBO,5.915635,51.083277
Pepinusbrug,6,K,,6102RJ,Echt,Echt-Susteren,Limburg,VBO,5.914552,51.084366
Pepinusbrug,6,M,,6102RJ,Echt,Echt-Susteren,Limburg,VBO,5.914979,51.084966
Pepinusbrug,6,,,6102RJ,Echt,Echt-Susteren,Limburg,VBO,5.914783,51.083911
Pepinusbrug,8,,,6102RJ,Echt,Echt-Susteren,Limburg,VBO,5.918745,51.088185
Pepinusbrug,10,,,6102RJ,Echt,Echt-Susteren,Limburg,VBO,5.918876,51.088146
Pepinusbrug,12,,,6102RJ,Echt,Echt-Susteren,Limburg,VBO,5.920229,51.087815
Pepinusbrug,18,,,6102RJ,Echt,Echt-Susteren,Limburg,VBO,5.923396,51.087216
Pepinusbrug,20,A,,6102RJ,Echt,Echt-Susteren,Limburg,VBO,5.923830,51.087115
Pepinusbrug,20,,,6102RJ,Echt,Echt-Susteren,Limburg,VBO,5.923705,51.087146
Pepinusbrug,22,,,6102RJ,Echt,Echt-Susteren,Limburg,VBO,5.924064,51.087035
Pepinusbrug,24,A,,6102RJ,Echt,Echt-Susteren,Limburg,VBO,5.924489,51.086863
Pepinusbrug,24,B,,6102RJ,Echt,Echt-Susteren,Limburg,VBO,5.924637,51.086828
Pepinusbrug,24,,,6102RJ,Echt,Echt-Susteren,Limburg,VBO,5.924283,51.086912
Pepinusbrug,26,,,6102RJ,Echt,Echt-Susteren,Limburg,VBO,5.925058,51.086799
Scheidingsweg,1,A,,6102RK,Echt,Echt-Susteren,Limburg,VBO,5.914861,51.079290
Scheidingsweg,1,,,6102RK,Echt,Echt-Susteren,Limburg,VBO,5.914827,51.079220
Patersweg,1,,,6102RL,Echt,Echt-Susteren,Limburg,VBO,5.898532,51.080619
Patersweg,2,,,6102RL,Echt,Echt-Susteren,Limburg,VBO,5.907027,51.081373
Patersweg,4,,,6102RL,Echt,Echt-Susteren,Limburg,VBO,5.908214,51.081493
Patersweg,10,,,6102RL,Echt,Echt-Susteren,Limburg,VBO,5.908829,51.081218
Derde Bolvennerweg,1,,,6102RM,Echt,Echt-Susteren,Limburg,VBO,5.902788,51.078719
Eerste Bolvennerweg,1,,,6102RN,Echt,Echt-Susteren,Limburg,VBO,5.894654,51.080135
Eerste Bolvennerweg,3,,,6102RN,Echt,Echt-Susteren,Limburg,VBO,5.894522,51.079859
Eerste Bolvennerweg,7,,,6102RN,Echt,Echt-Susteren,Limburg,VBO,5.894212,51.079482
Haeselaarsweg,1,,,6102RP,Echt,Echt-Susteren,Limburg,VBO,5.893118,51.076759
Haeselaarsweg,3,,,6102RP,Echt,Echt-Susteren,Limburg,VBO,5.894612,51.075594
Haeselaarsweg,4,,,6102RP,Echt,Echt-Susteren,Limburg,VBO,5.891496,51.076102
Haeselaarsweg,7,,,6102RP,Echt,Echt-Susteren,Limburg,VBO,5.895517,51.074751
Haeselaarsweg,8,,,6102RP,Echt,Echt-Susteren,Limburg,VBO,5.894029,51.075350
Hekbergerweg,1,A,,6102RR,Echt,Echt-Susteren,Limburg,VBO,5.905688,51.074460
Hekbergerweg,1,,,6102RR,Echt,Echt-Susteren,Limburg,VBO,5.905725,51.074435
Hekbergerweg,2,,,6102RR,Echt,Echt-Susteren,Limburg,VBO,5.904959,51.073397
Hekbergerweg,3,,,6102RR,Echt,Echt-Susteren,Limburg,VBO,5.905808,51.074627
Hekbergerweg,7,,,6102RR,Echt,Echt-Susteren,Limburg,VBO,5.910710,51.077403
Zandweg,2,,,6102RS,Echt,Echt-Susteren,Limburg,VBO,5.912612,51.098203
Susterderweg,10,,,6102RT,Echt,Echt-Susteren,Limburg,VBO,5.885406,51.078293
Leenderdwarsstraat,1,,,6102RV,Echt,Echt-Susteren,Limburg,VBO,5.904308,51.096194
Leenderdwarsstraat,3,,,6102RV,Echt,Echt-Susteren,Limburg,VBO,5.904461,51.096476
Leenderdwarsstraat,5,,,6102RV,Echt,Echt-Susteren,Limburg,VBO,5.904681,51.096901
Eekhoornweg,1,,,6102SB,Echt,Echt-Susteren,Limburg,VBO,5.912001,51.086575
Eekhoornweg,2,K,1,6102SB,Echt,Echt-Susteren,Limburg,VBO,5.911123,51.086482
Eekhoornweg,2,K,2,6102SB,Echt,Echt-Susteren,Limburg,VBO,5.911275,51.086445
Eekhoornweg,2,K,3,6102SB,Echt,Echt-Susteren,Limburg,VBO,5.911100,51.086445
Eekhoornweg,2,K,4,6102SB,Echt,Echt-Susteren,Limburg,VBO,5.911251,51.086409
Eekhoornweg,2,K,5,6102SB,Echt,Echt-Susteren,Limburg,VBO,5.911480,51.086395
Eekhoornweg,2,K,6,6102SB,Echt,Echt-Susteren,Limburg,VBO,5.911609,51.086364
Eekhoornweg,2,K,7,6102SB,Echt,Echt-Susteren,Limburg,VBO,5.911457,51.086359
Eekhoornweg,2,K,8,6102SB,Echt,Echt-Susteren,Limburg,VBO,5.911588,51.086328
Eekhoornweg,3,,,6102SB,Echt,Echt-Susteren,Limburg,VBO,5.912594,51.086428
Zwaanweg,1,,,6102SE,Echt,Echt-Susteren,Limburg,VBO,5.912315,51.087080
Zwaanweg,2,,,6102SE,Echt,Echt-Susteren,Limburg,VBO,5.912362,51.086799
Zwaanweg,3,,,6102SE,Echt,Echt-Susteren,Limburg,VBO,5.912887,51.086937
Zwaanweg,4,,,6102SE,Echt,Echt-Susteren,Limburg,VBO,5.912905,51.086657
Zwaanweg,5,,,6102SE,Echt,Echt-Susteren,Limburg,VBO,5.913868,51.086838
Zwaanweg,7,,,6102SE,Echt,Echt-Susteren,Limburg,VBO,5.914398,51.086709
Dasweg,2,,,6102SG,Echt,Echt-Susteren,Limburg,VBO,5.913786,51.087159
Dasweg,4,,,6102SG,Echt,Echt-Susteren,Limburg,VBO,5.914337,51.087025
Reeweg,1,,,6102SJ,Echt,Echt-Susteren,Limburg,VBO,5.912394,51.088963
Reeweg,3,,,6102SJ,Echt,Echt-Susteren,Limburg,VBO,5.913005,51.088803
Vosweg,2,,,6102SK,Echt,Echt-Susteren,Limburg,VBO,5.912669,51.089231
Vosweg,4,,,6102SK,Echt,Echt-Susteren,Limburg,VBO,5.913327,51.089076
Daalweg,5,,,6102TD,Echt,Echt-Susteren,Limburg,VBO,5.900338,51.092183
Daalweg,13,,,6102TD,Echt,Echt-Susteren,Limburg,VBO,5.900313,51.090073
Daalweg,15,,,6102TD,Echt,Echt-Susteren,Limburg,VBO,5.900506,51.089454
Daalweg,20,,,6102TD,Echt,Echt-Susteren,Limburg,VBO,5.899646,51.090439
Daalweg,22,,,6102TD,Echt,Echt-Susteren,Limburg,VBO,5.898143,51.086290
Daalweg,24,,,6102TD,Echt,Echt-Susteren,Limburg,VBO,5.897427,51.085857
Daalweg,26,,,6102TD,Echt,Echt-Susteren,Limburg,VBO,5.897414,51.085362
Daalweg,38,A,,6102TD,Echt,Echt-Susteren,Limburg,VBO,5.894908,51.082548
Daalweg,38,,,6102TD,Echt,Echt-Susteren,Limburg,VBO,5.894877,51.082149
Daalweg,45,,,6102TD,Echt,Echt-Susteren,Limburg,VBO,5.899478,51.087511
Brugweg,1,A,,6102TE,Echt,Echt-Susteren,Limburg,VBO,5.899882,51.093729
Brugweg,1,,,6102TE,Echt,Echt-Susteren,Limburg,VBO,5.899919,51.093609
Brugweg,3,A,,6102TE,Echt,Echt-Susteren,Limburg,VBO,5.900138,51.093664
Brugweg,3,,,6102TE,Echt,Echt-Susteren,Limburg,VBO,5.900170,51.093526
Brugweg,5,,,6102TE,Echt,Echt-Susteren,Limburg,VBO,5.900538,51.093363
Brugweg,7,,,6102TE,Echt,Echt-Susteren,Limburg,VBO,5.900952,51.093217
Brugweg,9,,,6102TE,Echt,Echt-Susteren,Limburg,VBO,5.901098,51.093163
Brugweg,11,,,6102TE,Echt,Echt-Susteren,Limburg,VBO,5.901200,51.093062
Brugweg,13,,,6102TE,Echt,Echt-Susteren,Limburg,VBO,5.901431,51.093004
Brugweg,15,A,,6102TE,Echt,Echt-Susteren,Limburg,VBO,5.901843,51.092875
Brugweg,15,,,6102TE,Echt,Echt-Susteren,Limburg,VBO,5.901689,51.092933
Brugweg,17,,,6102TE,Echt,Echt-Susteren,Limburg,VBO,5.902060,51.092851
Brugweg,19,,,6102TE,Echt,Echt-Susteren,Limburg,VBO,5.902238,51.092768
Brugweg,23,,,6102TE,Echt,Echt-Susteren,Limburg,VBO,5.902557,51.092566
Brugweg,25,,,6102TE,Echt,Echt-Susteren,Limburg,VBO,5.902795,51.092590
Brugweg,27,,,6102TE,Echt,Echt-Susteren,Limburg,VBO,5.902876,51.092561
Brugweg,29,A,,6102TE,Echt,Echt-Susteren,Limburg,VBO,5.902930,51.092448
Brugweg,29,,,6102TE,Echt,Echt-Susteren,Limburg,VBO,5.903287,51.092739
Brugweg,31,,,6102TG,Echt,Echt-Susteren,Limburg,VBO,5.903164,51.092471
Brugweg,33,,,6102TG,Echt,Echt-Susteren,Limburg,VBO,5.903253,51.092377
Brugweg,35,A,,6102TG,Echt,Echt-Susteren,Limburg,VBO,5.903545,51.092349
Brugweg,35,,,6102TG,Echt,Echt-Susteren,Limburg,VBO,5.903501,51.092302
Brugweg,41,,,6102TG,Echt,Echt-Susteren,Limburg,VBO,5.903814,51.092304
Brugweg,43,,,6102TG,Echt,Echt-Susteren,Limburg,VBO,5.904103,51.092233
Brugweg,45,A,,6102TG,Echt,Echt-Susteren,Limburg,VBO,5.904386,51.092164
Brugweg,45,,,6102TG,Echt,Echt-Susteren,Limburg,VBO,5.904188,51.092212
Brugweg,47,,,6102TG,Echt,Echt-Susteren,Limburg,VBO,5.904685,51.092090
Brugweg,49,A,,6102TG,Echt,Echt-Susteren,Limburg,VBO,5.905118,51.092021
Brugweg,49,,,6102TG,Echt,Echt-Susteren,Limburg,VBO,5.904921,51.092033
Brugweg,51,,,6102TG,Echt,Echt-Susteren,Limburg,VBO,5.905328,51.091932
Brugweg,53,,,6102TG,Echt,Echt-Susteren,Limburg,VBO,5.905573,51.091870
Brugweg,55,A,,6102TG,Echt,Echt-Susteren,Limburg,VBO,5.905896,51.091790
Brugweg,55,,,6102TG,Echt,Echt-Susteren,Limburg,VBO,5.905651,51.091851
Brugweg,59,,,6102TH,Echt,Echt-Susteren,Limburg,VBO,5.906901,51.092060
Brugweg,61,,,6102TH,Echt,Echt-Susteren,Limburg,VBO,5.907082,51.092163
Brugweg,63,A,,6102TH,Echt,Echt-Susteren,Limburg,VBO,5.906389,51.091668
Brugweg,63,,,6102TH,Echt,Echt-Susteren,Limburg,VBO,5.906297,51.091691
Brugweg,65,,,6102TH,Echt,Echt-Susteren,Limburg,VBO,5.906568,51.091623
Brugweg,67,A,,6102TH,Echt,Echt-Susteren,Limburg,VBO,5.906702,51.091715
Brugweg,67,,,6102TH,Echt,Echt-Susteren,Limburg,VBO,5.906647,51.091603
Brugweg,69,,,6102TH,Echt,Echt-Susteren,Limburg,VBO,5.906848,51.091553
Brugweg,71,,,6102TH,Echt,Echt-Susteren,Limburg,VBO,5.906999,51.091516
Brugweg,73,,,6102TH,Echt,Echt-Susteren,Limburg,VBO,5.907191,51.091468
Brugweg,75,,,6102TH,Echt,Echt-Susteren,Limburg,VBO,5.907273,51.091448
Brugweg,77,,,6102TH,Echt,Echt-Susteren,Limburg,VBO,5.907479,51.091396
Brugweg,79,,,6102TH,Echt,Echt-Susteren,Limburg,VBO,5.907643,51.091355
Brugweg,81,,,6102TH,Echt,Echt-Susteren,Limburg,VBO,5.907844,51.091305
Brugweg,83,A,,6102TH,Echt,Echt-Susteren,Limburg,VBO,5.908133,51.091264
Brugweg,83,,,6102TH,Echt,Echt-Susteren,Limburg,VBO,5.907922,51.091286
Brugweg,85,,,6102TH,Echt,Echt-Susteren,Limburg,VBO,5.908300,51.091233
Brugweg,87,,,6102TH,Echt,Echt-Susteren,Limburg,VBO,5.908478,51.091191
Brugweg,91,,,6102TJ,Echt,Echt-Susteren,Limburg,VBO,5.908981,51.091060
Brugweg,93,,,6102TJ,Echt,Echt-Susteren,Limburg,VBO,5.909148,51.091018
Brugweg,95,,,6102TJ,Echt,Echt-Susteren,Limburg,VBO,5.909239,51.090996
Brugweg,97,,,6102TJ,Echt,Echt-Susteren,Limburg,VBO,5.909403,51.090954
Brugweg,99,,,6102TJ,Echt,Echt-Susteren,Limburg,VBO,5.909577,51.090911
Brugweg,4,,,6102TK,Echt,Echt-Susteren,Limburg,VBO,5.899503,51.093433
Brugweg,6,A,,6102TK,Echt,Echt-Susteren,Limburg,VBO,5.900895,51.092920
Brugweg,6,,,6102TK,Echt,Echt-Susteren,Limburg,VBO,5.900800,51.092944
Brugweg,8,A,,6102TK,Echt,Echt-Susteren,Limburg,VBO,5.901009,51.092726
Brugweg,8,,,6102TK,Echt,Echt-Susteren,Limburg,VBO,5.901200,51.092653
Brugweg,12,,,6102TK,Echt,Echt-Susteren,Limburg,VBO,5.901435,51.092658
Brugweg,14,,,6102TK,Echt,Echt-Susteren,Limburg,VBO,5.901533,51.092624
Brugweg,16,,,6102TK,Echt,Echt-Susteren,Limburg,VBO,5.901662,51.092567
Brugweg,18,,,6102TK,Echt,Echt-Susteren,Limburg,VBO,5.901802,51.092543
Brugweg,20,A,,6102TK,Echt,Echt-Susteren,Limburg,VBO,5.902053,51.092390
Brugweg,20,B,,6102TK,Echt,Echt-Susteren,Limburg,VBO,5.902262,51.092350
Brugweg,20,,,6102TK,Echt,Echt-Susteren,Limburg,VBO,5.901947,51.092494
Brugweg,22,A,,6102TK,Echt,Echt-Susteren,Limburg,VBO,5.902510,51.092265
Brugweg,22,,,6102TK,Echt,Echt-Susteren,Limburg,VBO,5.902345,51.092297
Brugweg,24,A,,6102TK,Echt,Echt-Susteren,Limburg,VBO,5.903109,51.092077
Brugweg,24,B,,6102TK,Echt,Echt-Susteren,Limburg,VBO,5.903328,51.092036
Brugweg,24,,,6102TK,Echt,Echt-Susteren,Limburg,VBO,5.902822,51.092229
Brugweg,26,,,6102TK,Echt,Echt-Susteren,Limburg,VBO,5.903540,51.092036
Brugweg,28,,,6102TK,Echt,Echt-Susteren,Limburg,VBO,5.903683,51.092000
Brugweg,30,,,6102TL,Echt,Echt-Susteren,Limburg,VBO,5.904359,51.091757
Brugweg,32,A,,6102TL,Echt,Echt-Susteren,Limburg,VBO,5.904701,51.091667
Brugweg,32,,,6102TL,Echt,Echt-Susteren,Limburg,VBO,5.904527,51.091713
Brugweg,34,,,6102TL,Echt,Echt-Susteren,Limburg,VBO,5.904934,51.091608
Brugweg,36,,,6102TL,Echt,Echt-Susteren,Limburg,VBO,5.905103,51.091565
Brugweg,38,A,,6102TL,Echt,Echt-Susteren,Limburg,VBO,5.905702,51.091418
Brugweg,38,,,6102TL,Echt,Echt-Susteren,Limburg,VBO,5.905560,51.091452
Brugweg,40,,,6102TL,Echt,Echt-Susteren,Limburg,VBO,5.905839,51.091384
Brugweg,42,,,6102TL,Echt,Echt-Susteren,Limburg,VBO,5.906104,51.091394
Brugweg,44,,,6102TL,Echt,Echt-Susteren,Limburg,VBO,5.906298,51.091270
Brugweg,46,,,6102TL,Echt,Echt-Susteren,Limburg,VBO,5.906513,51.091216
Brugweg,48,,,6102TL,Echt,Echt-Susteren,Limburg,VBO,5.906719,51.091166
Brugweg,50,A,,6102TL,Echt,Echt-Susteren,Limburg,VBO,5.907652,51.090880
Brugweg,50,C,,6102TL,Echt,Echt-Susteren,Limburg,VBO,5.907940,51.090817
Brugweg,50,D,,6102TL,Echt,Echt-Susteren,Limburg,VBO,5.908283,51.090722
Brugweg,50,,,6102TL,Echt,Echt-Susteren,Limburg,VBO,5.908941,51.090611
Roterweg,1,,,6102TM,Echt,Echt-Susteren,Limburg,VBO,5.890504,51.093551
Roterweg,3,,,6102TM,Echt,Echt-Susteren,Limburg,VBO,5.890376,51.093362
Roterweg,7,,,6102TM,Echt,Echt-Susteren,Limburg,VBO,5.889830,51.092558
Roterweg,13,,,6102TM,Echt,Echt-Susteren,Limburg,VBO,5.890151,51.091943
Dorpstraat,1,A,,6102TP,Echt,Echt-Susteren,Limburg,VBO,5.882953,51.093120
Dorpstraat,1,,,6102TP,Echt,Echt-Susteren,Limburg,VBO,5.882936,51.092969
Dorpstraat,3,,,6102TP,Echt,Echt-Susteren,Limburg,VBO,5.883157,51.093003
Dorpstraat,5,,,6102TP,Echt,Echt-Susteren,Limburg,VBO,5.883362,51.093021
Dorpstraat,7,,,6102TP,Echt,Echt-Susteren,Limburg,VBO,5.883586,51.093029
Dorpstraat,9,A,,6102TP,Echt,Echt-Susteren,Limburg,VBO,5.883764,51.093120
Dorpstraat,9,B,,6102TP,Echt,Echt-Susteren,Limburg,VBO,5.884260,51.093210
Dorpstraat,9,,,6102TP,Echt,Echt-Susteren,Limburg,VBO,5.883906,51.093009
Dorpstraat,11,,,6102TP,Echt,Echt-Susteren,Limburg,VBO,5.884607,51.093330
Dorpstraat,13,,,6102TP,Echt,Echt-Susteren,Limburg,VBO,5.884834,51.093335
Dorpstraat,15,,,6102TP,Echt,Echt-Susteren,Limburg,VBO,5.884914,51.093454
Dorpstraat,17,,,6102TP,Echt,Echt-Susteren,Limburg,VBO,5.885152,51.093685
Dorpstraat,21,,,6102TP,Echt,Echt-Susteren,Limburg,VBO,5.885518,51.093707
Dorpstraat,23,A,,6102TP,Echt,Echt-Susteren,Limburg,VBO,5.885707,51.093803
Dorpstraat,23,B,,6102TP,Echt,Echt-Susteren,Limburg,VBO,5.885928,51.093858
Dorpstraat,23,,,6102TP,Echt,Echt-Susteren,Limburg,VBO,5.885592,51.093741
Dorpstraat,25,A,,6102TP,Echt,Echt-Susteren,Limburg,VBO,5.886305,51.094039
Dorpstraat,25,,,6102TP,Echt,Echt-Susteren,Limburg,VBO,5.886241,51.093849
Dorpstraat,27,,,6102TP,Echt,Echt-Susteren,Limburg,VBO,5.886680,51.093990
Dorpstraat,29,,,6102TP,Echt,Echt-Susteren,Limburg,VBO,5.886772,51.094031
Dorpstraat,31,,,6102TR,Echt,Echt-Susteren,Limburg,VBO,5.887037,51.094185
Dorpstraat,33,,,6102TR,Echt,Echt-Susteren,Limburg,VBO,5.887256,51.094267
Dorpstraat,35,,,6102TR,Echt,Echt-Susteren,Limburg,VBO,5.887346,51.094293
Dorpstraat,37,,,6102TR,Echt,Echt-Susteren,Limburg,VBO,5.887375,51.094679
Dorpstraat,41,,,6102TR,Echt,Echt-Susteren,Limburg,VBO,5.887842,51.094395
Dorpstraat,43,,,6102TR,Echt,Echt-Susteren,Limburg,VBO,5.888532,51.094281
Dorpstraat,45,A,,6102TR,Echt,Echt-Susteren,Limburg,VBO,5.888638,51.094066
Dorpstraat,45,,,6102TR,Echt,Echt-Susteren,Limburg,VBO,5.888570,51.094216
Dorpstraat,47,,,6102TR,Echt,Echt-Susteren,Limburg,VBO,5.888962,51.094038
Dorpstraat,49,A,,6102TR,Echt,Echt-Susteren,Limburg,VBO,5.889337,51.094019
Dorpstraat,49,,,6102TR,Echt,Echt-Susteren,Limburg,VBO,5.889240,51.094021
Dorpstraat,51,A,,6102TR,Echt,Echt-Susteren,Limburg,VBO,5.889635,51.094014
Dorpstraat,51,,,6102TR,Echt,Echt-Susteren,Limburg,VBO,5.889525,51.094016
Dorpstraat,53,,,6102TR,Echt,Echt-Susteren,Limburg,VBO,5.889815,51.093986
Dorpstraat,57,,,6102TS,Echt,Echt-Susteren,Limburg,VBO,5.890407,51.094104
Dorpstraat,59,A,,6102TS,Echt,Echt-Susteren,Limburg,VBO,5.891132,51.094273
Dorpstraat,59,B,,6102TS,Echt,Echt-Susteren,Limburg,STA,5.890971,51.094436
Dorpstraat,59,C,,6102TS,Echt,Echt-Susteren,Limburg,STA,5.891082,51.094345
Dorpstraat,59,,,6102TS,Echt,Echt-Susteren,Limburg,VBO,5.890565,51.094094
Dorpstraat,61,A,,6102TS,Echt,Echt-Susteren,Limburg,VBO,5.890998,51.093964
Dorpstraat,61,,,6102TS,Echt,Echt-Susteren,Limburg,VBO,5.890875,51.094035
Dorpstraat,63,,,6102TS,Echt,Echt-Susteren,Limburg,VBO,5.891164,51.093923
Dorpstraat,67,,,6102TS,Echt,Echt-Susteren,Limburg,VBO,5.891476,51.093816
Dorpstraat,69,,,6102TS,Echt,Echt-Susteren,Limburg,VBO,5.891779,51.093767
Dorpstraat,71,A,,6102TS,Echt,Echt-Susteren,Limburg,VBO,5.892159,51.093724
Dorpstraat,71,B,,6102TS,Echt,Echt-Susteren,Limburg,VBO,5.892251,51.093707
Dorpstraat,71,,,6102TS,Echt,Echt-Susteren,Limburg,VBO,5.892003,51.093728
Dorpstraat,73,,,6102TS,Echt,Echt-Susteren,Limburg,VBO,5.892441,51.093673
Dorpstraat,75,,,6102TS,Echt,Echt-Susteren,Limburg,VBO,5.892641,51.093599
Dorpstraat,77,A,,6102TS,Echt,Echt-Susteren,Limburg,VBO,5.893003,51.093576
Dorpstraat,77,,,6102TS,Echt,Echt-Susteren,Limburg,VBO,5.892805,51.093595
Dorpstraat,79,,,6102TS,Echt,Echt-Susteren,Limburg,VBO,5.893156,51.093571
Dorpstraat,81,A,,6102TS,Echt,Echt-Susteren,Limburg,VBO,5.893699,51.093582
Dorpstraat,81,,,6102TS,Echt,Echt-Susteren,Limburg,VBO,5.893324,51.093575
Dorpstraat,83,,,6102TS,Echt,Echt-Susteren,Limburg,VBO,5.893878,51.093582
Dorpstraat,85,,,6102TS,Echt,Echt-Susteren,Limburg,VBO,5.893960,51.093587
Dorpstraat,87,,,6102TS,Echt,Echt-Susteren,Limburg,VBO,5.894103,51.093628
Dorpstraat,89,,,6102TS,Echt,Echt-Susteren,Limburg,VBO,5.894564,51.093617
Dorpstraat,91,,,6102TS,Echt,Echt-Susteren,Limburg,VBO,5.894749,51.093676
Dorpstraat,93,,,6102TS,Echt,Echt-Susteren,Limburg,VBO,5.895033,51.093712
Dorpstraat,97,,,6102TT,Echt,Echt-Susteren,Limburg,VBO,5.895643,51.093859
Dorpstraat,99,,,6102TT,Echt,Echt-Susteren,Limburg,VBO,5.895937,51.093868
Dorpstraat,101,,,6102TT,Echt,Echt-Susteren,Limburg,VBO,5.896216,51.093929
Dorpstraat,103,A,,6102TT,Echt,Echt-Susteren,Limburg,VBO,5.896615,51.093925
Dorpstraat,103,,,6102TT,Echt,Echt-Susteren,Limburg,VBO,5.896423,51.093926
Dorpstraat,105,A,,6102TT,Echt,Echt-Susteren,Limburg,VBO,5.897265,51.093902
Dorpstraat,105,,,6102TT,Echt,Echt-Susteren,Limburg,VBO,5.896998,51.093905
Dorpstraat,107,A,,6102TT,Echt,Echt-Susteren,Limburg,VBO,5.897693,51.093963
Dorpstraat,107,,,6102TT,Echt,Echt-Susteren,Limburg,VBO,5.897495,51.093870
Dorpstraat,109,A,,6102TT,Echt,Echt-Susteren,Limburg,VBO,5.897822,51.093833
Dorpstraat,109,,,6102TT,Echt,Echt-Susteren,Limburg,VBO,5.897787,51.094071
Dorpstraat,111,A,,6102TT,Echt,Echt-Susteren,Limburg,VBO,5.897967,51.093896
Dorpstraat,111,,,6102TT,Echt,Echt-Susteren,Limburg,VBO,5.898022,51.093985
Dorpstraat,113,,,6102TT,Echt,Echt-Susteren,Limburg,VBO,5.898256,51.093870
Dorpstraat,2,A,,6102TV,Echt,Echt-Susteren,Limburg,VBO,5.884693,51.093012
Dorpstraat,2,B,,6102TV,Echt,Echt-Susteren,Limburg,VBO,5.884762,51.093049
Dorpstraat,2,,,6102TV,Echt,Echt-Susteren,Limburg,VBO,5.882958,51.092565
Dorpstraat,4,A,,6102TV,Echt,Echt-Susteren,Limburg,VBO,5.885161,51.093170
Dorpstraat,4,,,6102TV,Echt,Echt-Susteren,Limburg,VBO,5.884930,51.093129
Dorpstraat,6,,,6102TV,Echt,Echt-Susteren,Limburg,VBO,5.885325,51.093307
Dorpstraat,8,,,6102TV,Echt,Echt-Susteren,Limburg,VBO,5.885399,51.093422
Dorpstraat,10,A,,6102TV,Echt,Echt-Susteren,Limburg,VBO,5.885772,51.093491
Dorpstraat,10,,,6102TV,Echt,Echt-Susteren,Limburg,VBO,5.885609,51.093442
Dorpstraat,12,,,6102TV,Echt,Echt-Susteren,Limburg,VBO,5.885941,51.093542
Dorpstraat,14,A,,6102TV,Echt,Echt-Susteren,Limburg,VBO,5.886291,51.093640
Dorpstraat,14,,,6102TV,Echt,Echt-Susteren,Limburg,VBO,5.886120,51.093592
Dorpstraat,16,,,6102TV,Echt,Echt-Susteren,Limburg,VBO,5.886807,51.093670
Dorpstraat,18,A,,6102TV,Echt,Echt-Susteren,Limburg,VBO,5.887071,51.093768
Dorpstraat,20,A,,6102TV,Echt,Echt-Susteren,Limburg,VBO,5.887559,51.093757
Dorpstraat,20,,,6102TV,Echt,Echt-Susteren,Limburg,VBO,5.887358,51.093764
Dorpstraat,22,A,,6102TV,Echt,Echt-Susteren,Limburg,VBO,5.888379,51.093743
Dorpstraat,22,,,6102TV,Echt,Echt-Susteren,Limburg,VBO,5.887932,51.093746
Dorpstraat,24,,,6102TV,Echt,Echt-Susteren,Limburg,VBO,5.888572,51.093740
Dorpstraat,28,,,6102TV,Echt,Echt-Susteren,Limburg,VBO,5.888793,51.093787
Dorpstraat,30,,,6102TW,Echt,Echt-Susteren,Limburg,VBO,5.888969,51.093754
Dorpstraat,32,,,6102TW,Echt,Echt-Susteren,Limburg,VBO,5.889076,51.093752
Dorpstraat,34,,,6102TW,Echt,Echt-Susteren,Limburg,VBO,5.889281,51.093749
Dorpstraat,36,,,6102TW,Echt,Echt-Susteren,Limburg,VBO,5.889375,51.093747
Dorpstraat,38,,,6102TW,Echt,Echt-Susteren,Limburg,VBO,5.889557,51.093782
Dorpstraat,42,,,6102TW,Echt,Echt-Susteren,Limburg,VBO,5.889796,51.093724
Dorpstraat,52,,,6102TW,Echt,Echt-Susteren,Limburg,VBO,5.890206,51.093697
Dorpstraat,54,,,6102TW,Echt,Echt-Susteren,Limburg,VBO,5.890309,51.093684
Dorpstraat,58,,,6102TX,Echt,Echt-Susteren,Limburg,VBO,5.890755,51.093745
Dorpstraat,60,,,6102TX,Echt,Echt-Susteren,Limburg,VBO,5.890830,51.093728
Dorpstraat,62,,,6102TX,Echt,Echt-Susteren,Limburg,VBO,5.891087,51.093617
Dorpstraat,64,,,6102TX,Echt,Echt-Susteren,Limburg,VBO,5.891363,51.093576
Dorpstraat,66,,,6102TX,Echt,Echt-Susteren,Limburg,VBO,5.891564,51.093531
Dorpstraat,68,,,6102TX,Echt,Echt-Susteren,Limburg,VBO,5.891744,51.093481
Dorpstraat,70,,,6102TX,Echt,Echt-Susteren,Limburg,VBO,5.891871,51.093431
Dorpstraat,72,,,6102TX,Echt,Echt-Susteren,Limburg,VBO,5.892075,51.093415
Dorpstraat,74,,,6102TX,Echt,Echt-Susteren,Limburg,VBO,5.892227,51.093421
Dorpstraat,76,,,6102TX,Echt,Echt-Susteren,Limburg,VBO,5.892467,51.093367
Dorpstraat,78,A,,6102TX,Echt,Echt-Susteren,Limburg,VBO,5.892712,51.093313
Dorpstraat,78,,,6102TX,Echt,Echt-Susteren,Limburg,VBO,5.892630,51.093331
Dorpstraat,80,,,6102TX,Echt,Echt-Susteren,Limburg,VBO,5.893390,51.093252
Dorpstraat,82,A,,6102TX,Echt,Echt-Susteren,Limburg,VBO,5.893796,51.093250
Dorpstraat,82,,,6102TX,Echt,Echt-Susteren,Limburg,VBO,5.893511,51.093255
Dorpstraat,84,,,6102TX,Echt,Echt-Susteren,Limburg,VBO,5.894039,51.093268
Dorpstraat,86,,,6102TX,Echt,Echt-Susteren,Limburg,VBO,5.894241,51.093276
Dorpstraat,88,A,,6102TX,Echt,Echt-Susteren,Limburg,VBO,5.894474,51.093254
Dorpstraat,88,,,6102TX,Echt,Echt-Susteren,Limburg,VBO,5.894618,51.093368
Dorpstraat,90,,,6102TX,Echt,Echt-Susteren,Limburg,VBO,5.894939,51.093434
Dorpstraat,92,,,6102TX,Echt,Echt-Susteren,Limburg,VBO,5.895142,51.093449
Dorpstraat,96,,,6102TX,Echt,Echt-Susteren,Limburg,VBO,5.895441,51.093539
Dorpstraat,98,,,6102TX,Echt,Echt-Susteren,Limburg,VBO,5.895661,51.093584
Dorpstraat,100,,,6102TZ,Echt,Echt-Susteren,Limburg,VBO,5.895911,51.093647
Dorpstraat,104,,,6102TZ,Echt,Echt-Susteren,Limburg,VBO,5.896235,51.093629
Dorpstraat,106,,,6102TZ,Echt,Echt-Susteren,Limburg,VBO,5.896422,51.093659
Dorpstraat,110,A,,6102TZ,Echt,Echt-Susteren,Limburg,VBO,5.896978,51.093670
Dorpstraat,110,,,6102TZ,Echt,Echt-Susteren,Limburg,VBO,5.896826,51.093643
Dorpstraat,112,,,6102TZ,Echt,Echt-Susteren,Limburg,VBO,5.897126,51.093666
Dorpstraat,114,,,6102TZ,Echt,Echt-Susteren,Limburg,VBO,5.897373,51.093682
Dorpstraat,116,,,6102TZ,Echt,Echt-Susteren,Limburg,VBO,5.897601,51.093690
Dorpstraat,118,,,6102TZ,Echt,Echt-Susteren,Limburg,VBO,5.897762,51.093673
Dorpstraat,120,,,6102TZ,Echt,Echt-Susteren,Limburg,VBO,5.897948,51.093618
Dorpstraat,122,,,6102TZ,Echt,Echt-Susteren,Limburg,VBO,5.898122,51.093587
Dorpstraat,124,,,6102TZ,Echt,Echt-Susteren,Limburg,VBO,5.898224,51.093513
Dorpstraat,126,A,,6102TZ,Echt,Echt-Susteren,Limburg,VBO,5.897891,51.092954
Dorpstraat,126,,,6102TZ,Echt,Echt-Susteren,Limburg,VBO,5.898440,51.093444
Dorpstraat,128,,,6102TZ,Echt,Echt-Susteren,Limburg,VBO,5.898724,51.093292
Holthuysenweg,1,,,6102VG,Echt,Echt-Susteren,Limburg,VBO,5.885235,51.087802
Holthuysenweg,2,,,6102VG,Echt,Echt-Susteren,Limburg,VBO,5.885330,51.087201
Holthuysenweg,3,,,6102VG,Echt,Echt-Susteren,Limburg,VBO,5.885393,51.087878
Holthuysenweg,4,,,6102VG,Echt,Echt-Susteren,Limburg,VBO,5.885389,51.087235
Holthuysenweg,5,,,6102VG,Echt,Echt-Susteren,Limburg,VBO,5.885569,51.087937
Holthuysenweg,6,,,6102VG,Echt,Echt-Susteren,Limburg,VBO,5.885517,51.087304
Holthuysenweg,7,,,6102VG,Echt,Echt-Susteren,Limburg,VBO,5.885739,51.088011
Holthuysenweg,8,,,6102VG,Echt,Echt-Susteren,Limburg,VBO,5.885581,51.087340
Holthuysenweg,10,,,6102VG,Echt,Echt-Susteren,Limburg,VBO,5.885706,51.087413
Holthuysenweg,12,,,6102VG,Echt,Echt-Susteren,Limburg,VBO,5.885771,51.087449
Holthuysenweg,14,,,6102VG,Echt,Echt-Susteren,Limburg,VBO,5.885897,51.087522
Holthuysenweg,16,,,6102VG,Echt,Echt-Susteren,Limburg,VBO,5.885960,51.087556
Holthuysenweg,18,,,6102VG,Echt,Echt-Susteren,Limburg,VBO,5.886086,51.087640
Holthuysenweg,20,,,6102VG,Echt,Echt-Susteren,Limburg,VBO,5.886118,51.087615
Holthuysenweg,22,,,6102VG,Echt,Echt-Susteren,Limburg,VBO,5.886150,51.087592
Holthuysenweg,24,,,6102VG,Echt,Echt-Susteren,Limburg,VBO,5.886159,51.087683
Holthuysenweg,26,,,6102VG,Echt,Echt-Susteren,Limburg,VBO,5.886195,51.087660
Holthuysenweg,28,,,6102VG,Echt,Echt-Susteren,Limburg,VBO,5.886228,51.087638
Holthuysenweg,30,,,6102VG,Echt,Echt-Susteren,Limburg,VBO,5.886248,51.087691
Slekkerstraat,1,A,,6102VH,Echt,Echt-Susteren,Limburg,VBO,5.884338,51.092301
Slekkerstraat,1,,,6102VH,Echt,Echt-Susteren,Limburg,VBO,5.884254,51.092462
Slekkerstraat,3,,,6102VH,Echt,Echt-Susteren,Limburg,VBO,5.884590,51.091801
Slekkerstraat,5,,,6102VH,Echt,Echt-Susteren,Limburg,VBO,5.884822,51.091368
Slekkerstraat,7,,,6102VH,Echt,Echt-Susteren,Limburg,VBO,5.885222,51.090622
Slekkerstraat,11,,,6102VH,Echt,Echt-Susteren,Limburg,VBO,5.885544,51.090233
Slekkerstraat,13,,,6102VH,Echt,Echt-Susteren,Limburg,VBO,5.885680,51.090078
Slekkerstraat,15,,,6102VH,Echt,Echt-Susteren,Limburg,VBO,5.885744,51.089843
Slekkerstraat,17,A,,6102VH,Echt,Echt-Susteren,Limburg,VBO,5.886027,51.089542
Slekkerstraat,17,,,6102VH,Echt,Echt-Susteren,Limburg,VBO,5.885900,51.089680
Slekkerstraat,19,,,6102VH,Echt,Echt-Susteren,Limburg,VBO,5.886081,51.089432
Slekkerstraat,21,A,,6102VH,Echt,Echt-Susteren,Limburg,VBO,5.886222,51.089218
Slekkerstraat,21,B,,6102VH,Echt,Echt-Susteren,Limburg,VBO,5.886296,51.089107
Slekkerstraat,21,,,6102VH,Echt,Echt-Susteren,Limburg,VBO,5.886102,51.089304
Slekkerstraat,23,A,,6102VH,Echt,Echt-Susteren,Limburg,VBO,5.886420,51.088831
Slekkerstraat,23,,,6102VH,Echt,Echt-Susteren,Limburg,VBO,5.886346,51.088942
Slekkerstraat,25,A,,6102VH,Echt,Echt-Susteren,Limburg,VBO,5.886700,51.088513
Slekkerstraat,25,,,6102VH,Echt,Echt-Susteren,Limburg,VBO,5.886631,51.088709
Slekkerstraat,27,,,6102VH,Echt,Echt-Susteren,Limburg,VBO,5.886717,51.088390
Slekkerstraat,29,,,6102VH,Echt,Echt-Susteren,Limburg,VBO,5.886735,51.088296
Slekkerstraat,31,,,6102VH,Echt,Echt-Susteren,Limburg,VBO,5.887014,51.088151
Slekkerstraat,33,,,6102VJ,Echt,Echt-Susteren,Limburg,VBO,5.886968,51.088012
Slekkerstraat,35,,,6102VJ,Echt,Echt-Susteren,Limburg,VBO,5.887100,51.087846
Slekkerstraat,37,,,6102VJ,Echt,Echt-Susteren,Limburg,VBO,5.887141,51.087785
Slekkerstraat,39,,,6102VJ,Echt,Echt-Susteren,Limburg,VBO,5.887237,51.087689
Slekkerstraat,41,,,6102VJ,Echt,Echt-Susteren,Limburg,VBO,5.887621,51.087068
Slekkerstraat,43,,,6102VJ,Echt,Echt-Susteren,Limburg,VBO,5.887339,51.086784
Slekkerstraat,45,,,6102VJ,Echt,Echt-Susteren,Limburg,VBO,5.887197,51.086671
Slekkerstraat,47,,,6102VJ,Echt,Echt-Susteren,Limburg,VBO,5.886881,51.086505
Slekkerstraat,49,,,6102VJ,Echt,Echt-Susteren,Limburg,VBO,5.886633,51.086428
Slekkerstraat,51,,,6102VJ,Echt,Echt-Susteren,Limburg,VBO,5.886476,51.086347
Slekkerstraat,53,,,6102VJ,Echt,Echt-Susteren,Limburg,VBO,5.886151,51.086207
Slekkerstraat,55,,,6102VJ,Echt,Echt-Susteren,Limburg,VBO,5.886198,51.086014
Slekkerstraat,2,,,6102VK,Echt,Echt-Susteren,Limburg,VBO,5.883753,51.092413
Slekkerstraat,4,,,6102VK,Echt,Echt-Susteren,Limburg,VBO,5.883836,51.092287
Slekkerstraat,6,,,6102VK,Echt,Echt-Susteren,Limburg,VBO,5.883776,51.092133
Slekkerstraat,8,A,,6102VK,Echt,Echt-Susteren,Limburg,VBO,5.884929,51.090385
Slekkerstraat,8,B,,6102VK,Echt,Echt-Susteren,Limburg,VBO,5.885003,51.090278
Slekkerstraat,8,C,,6102VK,Echt,Echt-Susteren,Limburg,VBO,5.885032,51.090173
Slekkerstraat,8,,,6102VK,Echt,Echt-Susteren,Limburg,VBO,5.884486,51.091071
Slekkerstraat,10,,,6102VK,Echt,Echt-Susteren,Limburg,VBO,5.885184,51.090090
Slekkerstraat,12,,,6102VK,Echt,Echt-Susteren,Limburg,VBO,5.885330,51.089889
Slekkerstraat,16,A,,6102VK,Echt,Echt-Susteren,Limburg,VBO,5.886044,51.088804
Slekkerstraat,16,B,,6102VK,Echt,Echt-Susteren,Limburg,VBO,5.886082,51.088747
Slekkerstraat,16,C,,6102VK,Echt,Echt-Susteren,Limburg,VBO,5.886120,51.088691
Slekkerstraat,18,A,,6102VK,Echt,Echt-Susteren,Limburg,VBO,5.886194,51.088582
Slekkerstraat,18,B,,6102VK,Echt,Echt-Susteren,Limburg,VBO,5.886233,51.088524
Slekkerstraat,18,,,6102VK,Echt,Echt-Susteren,Limburg,VBO,5.886157,51.088637
Slekkerstraat,20,A,,6102VK,Echt,Echt-Susteren,Limburg,VBO,5.886354,51.088343
Slekkerstraat,20,,,6102VK,Echt,Echt-Susteren,Limburg,VBO,5.886315,51.088401
Slekkerstraat,22,,,6102VK,Echt,Echt-Susteren,Limburg,VBO,5.886463,51.088181
Slekkerstraat,24,A,,6102VK,Echt,Echt-Susteren,Limburg,VBO,5.886625,51.087890
Slekkerstraat,24,B,,6102VK,Echt,Echt-Susteren,Limburg,VBO,5.886668,51.087821
Slekkerstraat,24,,,6102VK,Echt,Echt-Susteren,Limburg,VBO,5.886546,51.088058
Slekkerstraat,26,A,,6102VK,Echt,Echt-Susteren,Limburg,VBO,5.886756,51.087717
Slekkerstraat,26,,,6102VK,Echt,Echt-Susteren,Limburg,VBO,5.886790,51.087671
Slekkerstraat,30,,,6102VL,Echt,Echt-Susteren,Limburg,VBO,5.886978,51.087452
Slekkerstraat,32,A,,6102VL,Echt,Echt-Susteren,Limburg,VBO,5.887138,51.087137
Slekkerstraat,32,,,6102VL,Echt,Echt-Susteren,Limburg,VBO,5.887044,51.087292
Slekkerstraat,34,,,6102VL,Echt,Echt-Susteren,Limburg,VBO,5.886984,51.086971
Slekkerstraat,36,,,6102VL,Echt,Echt-Susteren,Limburg,VBO,5.886884,51.086907
Slekkerstraat,38,,,6102VL,Echt,Echt-Susteren,Limburg,VBO,5.886698,51.086827
Slekkerstraat,40,,,6102VL,Echt,Echt-Susteren,Limburg,VBO,5.886440,51.086719
Slekkerstraat,42,,,6102VL,Echt,Echt-Susteren,Limburg,VBO,5.886352,51.086635
Slekkerstraat,44,,,6102VL,Echt,Echt-Susteren,Limburg,VBO,5.886128,51.086510
Slekkerstraat,46,,,6102VL,Echt,Echt-Susteren,Limburg,VBO,5.886002,51.086445
Slekkerstraat,48,,,6102VL,Echt,Echt-Susteren,Limburg,VBO,5.885928,51.086415
Rutsekovenstraat,3,,,6102VM,Echt,Echt-Susteren,Limburg,VBO,5.883791,51.088599
Rutsekovenstraat,4,,,6102VM,Echt,Echt-Susteren,Limburg,VBO,5.883487,51.088400
Rutsekovenstraat,5,,,6102VM,Echt,Echt-Susteren,Limburg,VBO,5.883850,51.088538
Rutsekovenstraat,6,,,6102VM,Echt,Echt-Susteren,Limburg,VBO,5.883526,51.088364
Rutsekovenstraat,7,,,6102VM,Echt,Echt-Susteren,Limburg,VBO,5.883950,51.088437
Rutsekovenstraat,8,,,6102VM,Echt,Echt-Susteren,Limburg,VBO,5.883694,51.088143
Rutsekovenstraat,9,,,6102VM,Echt,Echt-Susteren,Limburg,VBO,5.884007,51.088378
Rutsekovenstraat,12,,,6102VM,Echt,Echt-Susteren,Limburg,VBO,5.884288,51.087661
Rutsekovenstraat,14,,,6102VM,Echt,Echt-Susteren,Limburg,VBO,5.884379,51.087620
Rutsekovenstraat,15,,,6102VM,Echt,Echt-Susteren,Limburg,VBO,5.884646,51.087836
Rutsekovenstraat,16,,,6102VM,Echt,Echt-Susteren,Limburg,VBO,5.884481,51.087546
Rutsekovenstraat,17,,,6102VM,Echt,Echt-Susteren,Limburg,VBO,5.884696,51.087790
Rutsekovenstraat,19,,,6102VM,Echt,Echt-Susteren,Limburg,VBO,5.884793,51.087702
Rutsekovenstraat,21,,,6102VM,Echt,Echt-Susteren,Limburg,VBO,5.884841,51.087658
Rutsekovenstraat,23,,,6102VM,Echt,Echt-Susteren,Limburg,VBO,5.884939,51.087570
Rutsekovenstraat,25,,,6102VM,Echt,Echt-Susteren,Limburg,VBO,5.885049,51.087469
Rutsekovenstraat,27,,,6102VM,Echt,Echt-Susteren,Limburg,VBO,5.885370,51.087005
Rutsekovenstraat,29,,,6102VM,Echt,Echt-Susteren,Limburg,VBO,5.885394,51.086955
Rutsekovenstraat,30,,,6102VM,Echt,Echt-Susteren,Limburg,VBO,5.885206,51.086538
Rutsekovenstraat,31,,,6102VM,Echt,Echt-Susteren,Limburg,VBO,5.885442,51.086858
Rutsekovenstraat,32,,,6102VM,Echt,Echt-Susteren,Limburg,VBO,5.885311,51.086351
Rutsekovenstraat,33,,,6102VM,Echt,Echt-Susteren,Limburg,VBO,5.885465,51.086809
Dijkveldstraat,3,,,6102VN,Echt,Echt-Susteren,Limburg,VBO,5.885041,51.089492
Dijkveldstraat,5,,,6102VN,Echt,Echt-Susteren,Limburg,VBO,5.884977,51.089464
Dijkveldstraat,7,,,6102VN,Echt,Echt-Susteren,Limburg,VBO,5.884804,51.089389
Dijkveldstraat,9,,,6102VN,Echt,Echt-Susteren,Limburg,VBO,5.884743,51.089362
Dijkveldstraat,11,,,6102VN,Echt,Echt-Susteren,Limburg,VBO,5.884575,51.089289
Dijkveldstraat,13,,,6102VN,Echt,Echt-Susteren,Limburg,VBO,5.884510,51.089261
Dijkveldstraat,15,,,6102VN,Echt,Echt-Susteren,Limburg,VBO,5.884397,51.089179
Dijkveldstraat,17,A,,6102VN,Echt,Echt-Susteren,Limburg,VBO,5.884187,51.089090
Dijkveldstraat,17,B,,6102VN,Echt,Echt-Susteren,Limburg,VBO,5.884110,51.089058
Dijkveldstraat,17,,,6102VN,Echt,Echt-Susteren,Limburg,VBO,5.884323,51.089148
Dijkveldstraat,19,,,6102VN,Echt,Echt-Susteren,Limburg,VBO,5.883890,51.088991
Dijkveldstraat,21,,,6102VN,Echt,Echt-Susteren,Limburg,VBO,5.883675,51.088897
Dijkveldstraat,23,,,6102VN,Echt,Echt-Susteren,Limburg,VBO,5.883560,51.088814
Dijkveldstraat,27,,,6102VP,Echt,Echt-Susteren,Limburg,VBO,5.883209,51.088663
Dijkveldstraat,29,,,6102VP,Echt,Echt-Susteren,Limburg,VBO,5.883135,51.088631
Dijkveldstraat,31,,,6102VP,Echt,Echt-Susteren,Limburg,VBO,5.883000,51.088573
Dijkveldstraat,33,,,6102VP,Echt,Echt-Susteren,Limburg,VBO,5.882921,51.088539
Dijkveldstraat,35,,,6102VP,Echt,Echt-Susteren,Limburg,VBO,5.882787,51.088480
Dijkveldstraat,37,,,6102VP,Echt,Echt-Susteren,Limburg,VBO,5.882709,51.088446
Dijkveldstraat,39,,,6102VP,Echt,Echt-Susteren,Limburg,VBO,5.882569,51.088401
Dijkveldstraat,41,,,6102VP,Echt,Echt-Susteren,Limburg,VBO,5.882497,51.088374
Dijkveldstraat,43,,,6102VP,Echt,Echt-Susteren,Limburg,VBO,5.882370,51.088326
Dijkveldstraat,45,,,6102VP,Echt,Echt-Susteren,Limburg,VBO,5.882295,51.088297
Dijkveldstraat,47,A,,6102VP,Echt,Echt-Susteren,Limburg,VBO,5.881885,51.088144
Dijkveldstraat,47,,,6102VP,Echt,Echt-Susteren,Limburg,VBO,5.882057,51.088208
Dijkveldstraat,49,,,6102VP,Echt,Echt-Susteren,Limburg,VBO,5.881668,51.088063
Dijkveldstraat,51,,,6102VP,Echt,Echt-Susteren,Limburg,VBO,5.881429,51.087974
Dijkveldstraat,53,,,6102VP,Echt,Echt-Susteren,Limburg,VBO,5.881262,51.087913
Dijkveldstraat,55,,,6102VP,Echt,Echt-Susteren,Limburg,VBO,5.881096,51.087850
Dijkveldstraat,57,,,6102VP,Echt,Echt-Susteren,Limburg,VBO,5.880938,51.087791
Dijkveldstraat,59,,,6102VP,Echt,Echt-Susteren,Limburg,VBO,5.880773,51.087730
Dijkveldstraat,61,,,6102VP,Echt,Echt-Susteren,Limburg,VBO,5.880627,51.087675
Dijkveldstraat,63,,,6102VP,Echt,Echt-Susteren,Limburg,VBO,5.880460,51.087613
Dijkveldstraat,65,,,6102VP,Echt,Echt-Susteren,Limburg,VBO,5.880301,51.087540
Dijkveldstraat,2,,,6102VR,Echt,Echt-Susteren,Limburg,VBO,5.884945,51.089774
Dijkveldstraat,4,,,6102VR,Echt,Echt-Susteren,Limburg,VBO,5.884739,51.089698
Dijkveldstraat,10,,,6102VR,Echt,Echt-Susteren,Limburg,VBO,5.884370,51.089529
Dijkveldstraat,12,,,6102VR,Echt,Echt-Susteren,Limburg,VBO,5.884275,51.089488
Dijkveldstraat,14,A,,6102VR,Echt,Echt-Susteren,Limburg,VBO,5.883920,51.089333
Dijkveldstraat,14,,,6102VR,Echt,Echt-Susteren,Limburg,VBO,5.884089,51.089407
Dijkveldstraat,16,,,6102VR,Echt,Echt-Susteren,Limburg,VBO,5.883764,51.089266
Dijkveldstraat,18,,,6102VR,Echt,Echt-Susteren,Limburg,VBO,5.883613,51.089200
Dijkveldstraat,20,,,6102VR,Echt,Echt-Susteren,Limburg,VBO,5.883456,51.089132
Dijkveldstraat,22,,,6102VR,Echt,Echt-Susteren,Limburg,VBO,5.883258,51.089046
Dijkveldstraat,24,,,6102VR,Echt,Echt-Susteren,Limburg,VBO,5.883185,51.089014
Dijkveldstraat,26,,,6102VR,Echt,Echt-Susteren,Limburg,VBO,5.882980,51.088926
Dijkveldstraat,28,,,6102VR,Echt,Echt-Susteren,Limburg,VBO,5.882803,51.088849
Dijkveldstraat,30,,,6102VR,Echt,Echt-Susteren,Limburg,VBO,5.882642,51.088782
Dijkveldstraat,32,,,6102VR,Echt,Echt-Susteren,Limburg,VBO,5.882446,51.088696
Dijkveldstraat,34,,,6102VR,Echt,Echt-Susteren,Limburg,VBO,5.882317,51.088639
Dijkveldstraat,40,,,6102VR,Echt,Echt-Susteren,Limburg,VBO,5.881663,51.088387
Dijkveldstraat,42,,,6102VR,Echt,Echt-Susteren,Limburg,VBO,5.881579,51.088355
Dijkveldstraat,48,,,6102VR,Echt,Echt-Susteren,Limburg,VBO,5.881240,51.088229
Dijkveldstraat,50,,,6102VR,Echt,Echt-Susteren,Limburg,VBO,5.881052,51.088159
Dijkveldstraat,52,,,6102VR,Echt,Echt-Susteren,Limburg,VBO,5.880872,51.088092
Dijkveldstraat,56,,,6102VR,Echt,Echt-Susteren,Limburg,VBO,5.880682,51.088021
Dijkveldstraat,58,,,6102VR,Echt,Echt-Susteren,Limburg,VBO,5.880469,51.087942
Roodtstraat,5,,,6102VS,Echt,Echt-Susteren,Limburg,VBO,5.885685,51.088692
Roodtstraat,7,,,6102VS,Echt,Echt-Susteren,Limburg,VBO,5.885607,51.088657
Roodtstraat,9,,,6102VS,Echt,Echt-Susteren,Limburg,VBO,5.885477,51.088599
Roodtstraat,11,,,6102VS,Echt,Echt-Susteren,Limburg,VBO,5.885401,51.088565
Roodtstraat,13,,,6102VS,Echt,Echt-Susteren,Limburg,VBO,5.885295,51.088477
Roodtstraat,15,,,6102VS,Echt,Echt-Susteren,Limburg,VBO,5.885226,51.088441
Roodtstraat,17,,,6102VS,Echt,Echt-Susteren,Limburg,VBO,5.885096,51.088372
Roodtstraat,19,,,6102VS,Echt,Echt-Susteren,Limburg,VBO,5.885027,51.088336
Roodtstraat,21,,,6102VS,Echt,Echt-Susteren,Limburg,VBO,5.884875,51.088284
Roodtstraat,23,,,6102VS,Echt,Echt-Susteren,Limburg,VBO,5.884804,51.088246
Roodtstraat,25,,,6102VS,Echt,Echt-Susteren,Limburg,VBO,5.884678,51.088180
Roodtstraat,27,,,6102VS,Echt,Echt-Susteren,Limburg,VBO,5.884604,51.088141
Roodtstraat,29,,,6102VS,Echt,Echt-Susteren,Limburg,VBO,5.884499,51.088061
Roodtstraat,31,,,6102VS,Echt,Echt-Susteren,Limburg,VBO,5.884426,51.088023
Roodtstraat,33,,,6102VS,Echt,Echt-Susteren,Limburg,VBO,5.884084,51.087868
Roodtstraat,35,,,6102VS,Echt,Echt-Susteren,Limburg,VBO,5.884014,51.087838
Roodtstraat,37,,,6102VS,Echt,Echt-Susteren,Limburg,VBO,5.883940,51.087805
Roodtstraat,39,,,6102VS,Echt,Echt-Susteren,Limburg,VBO,5.883870,51.087775
Roodtstraat,41,,,6102VS,Echt,Echt-Susteren,Limburg,VBO,5.883801,51.087745
Roodtstraat,43,,,6102VS,Echt,Echt-Susteren,Limburg,VBO,5.883672,51.087688
Roodtstraat,45,,,6102VS,Echt,Echt-Susteren,Limburg,VBO,5.883600,51.087656
Roodtstraat,47,,,6102VS,Echt,Echt-Susteren,Limburg,VBO,5.883527,51.087624
Roodtstraat,49,,,6102VS,Echt,Echt-Susteren,Limburg,VBO,5.883456,51.087593
Roodtstraat,51,,,6102VS,Echt,Echt-Susteren,Limburg,VBO,5.883384,51.087562
Roodtstraat,53,,,6102VS,Echt,Echt-Susteren,Limburg,VBO,5.883266,51.087458
Roodtstraat,55,,,6102VS,Echt,Echt-Susteren,Limburg,VBO,5.883187,51.087426
Roodtstraat,2,,,6102VT,Echt,Echt-Susteren,Limburg,VBO,5.885480,51.088951
Roodtstraat,4,,,6102VT,Echt,Echt-Susteren,Limburg,VBO,5.885445,51.088997
Roodtstraat,6,,,6102VT,Echt,Echt-Susteren,Limburg,VBO,5.885405,51.089050
Roodtstraat,8,,,6102VT,Echt,Echt-Susteren,Limburg,VBO,5.885367,51.089099
Roodtstraat,10,,,6102VT,Echt,Echt-Susteren,Limburg,VBO,5.885331,51.089147
Roodtstraat,12,,,6102VT,Echt,Echt-Susteren,Limburg,VBO,5.885256,51.088826
Roodtstraat,14,,,6102VT,Echt,Echt-Susteren,Limburg,VBO,5.885178,51.088803
Roodtstraat,16,,,6102VT,Echt,Echt-Susteren,Limburg,VBO,5.885098,51.088778
Roodtstraat,18,,,6102VT,Echt,Echt-Susteren,Limburg,VBO,5.884958,51.088694
Roodtstraat,20,,,6102VT,Echt,Echt-Susteren,Limburg,VBO,5.884886,51.088656
Roodtstraat,22,,,6102VT,Echt,Echt-Susteren,Limburg,VBO,5.884739,51.088579
Roodtstraat,24,,,6102VT,Echt,Echt-Susteren,Limburg,VBO,5.884668,51.088542
Roodtstraat,26,,,6102VT,Echt,Echt-Susteren,Limburg,VBO,5.884521,51.088465
Roodtstraat,28,,,6102VT,Echt,Echt-Susteren,Limburg,VBO,5.884446,51.088426
Roodtstraat,30,,,6102VT,Echt,Echt-Susteren,Limburg,VBO,5.884316,51.088334
Roodtstraat,32,,,6102VT,Echt,Echt-Susteren,Limburg,VBO,5.884245,51.088297
Roodtstraat,46,,,6102VT,Echt,Echt-Susteren,Limburg,VBO,5.883045,51.088153
Roodtstraat,48,,,6102VT,Echt,Echt-Susteren,Limburg,VBO,5.883006,51.088188
Roodtstraat,50,,,6102VT,Echt,Echt-Susteren,Limburg,VBO,5.883002,51.087772
Roodtstraat,52,,,6102VT,Echt,Echt-Susteren,Limburg,VBO,5.882946,51.087821
Roodtstraat,54,,,6102VT,Echt,Echt-Susteren,Limburg,VBO,5.882891,51.087870
Roodtstraat,56,,,6102VT,Echt,Echt-Susteren,Limburg,VBO,5.882838,51.087917
Roodtstraat,58,,,6102VT,Echt,Echt-Susteren,Limburg,VBO,5.882767,51.087957
Roodtstraat,60,,,6102VT,Echt,Echt-Susteren,Limburg,VBO,5.882712,51.088005
Roodtstraat,62,,,6102VT,Echt,Echt-Susteren,Limburg,VBO,5.882660,51.088052
Marktsingel,1,A,,6102VV,Echt,Echt-Susteren,Limburg,VBO,5.882947,51.085336
Marktsingel,1,,,6102VV,Echt,Echt-Susteren,Limburg,VBO,5.883297,51.085418
Marktsingel,3,,,6102VV,Echt,Echt-Susteren,Limburg,VBO,5.883452,51.085434
Marktsingel,5,,,6102VV,Echt,Echt-Susteren,Limburg,VBO,5.883713,51.085555
Marktsingel,7,,,6102VV,Echt,Echt-Susteren,Limburg,VBO,5.883981,51.085634
Marktsingel,9,,,6102VV,Echt,Echt-Susteren,Limburg,VBO,5.884071,51.085660
Marktsingel,11,,,6102VV,Echt,Echt-Susteren,Limburg,VBO,5.884285,51.085703
Marktsingel,15,,,6102VV,Echt,Echt-Susteren,Limburg,VBO,5.884611,51.085841
Marktsingel,17,,,6102VV,Echt,Echt-Susteren,Limburg,VBO,5.884863,51.085854
Marktsingel,19,A,,6102VV,Echt,Echt-Susteren,Limburg,VBO,5.885133,51.085938
Marktsingel,19,,,6102VV,Echt,Echt-Susteren,Limburg,VBO,5.884988,51.085909
Marktsingel,21,,,6102VV,Echt,Echt-Susteren,Limburg,VBO,5.885364,51.086010
Marktsingel,25,,,6102VV,Echt,Echt-Susteren,Limburg,VBO,5.885503,51.086063
Marktsingel,27,,,6102VW,Echt,Echt-Susteren,Limburg,VBO,5.886384,51.085763
Marktsingel,29,,,6102VW,Echt,Echt-Susteren,Limburg,VBO,5.886481,51.085637
Marktsingel,31,,,6102VW,Echt,Echt-Susteren,Limburg,VBO,5.886594,51.085490
Marktsingel,33,,,6102VW,Echt,Echt-Susteren,Limburg,VBO,5.886656,51.085352
Marktsingel,35,,,6102VW,Echt,Echt-Susteren,Limburg,VBO,5.886765,51.085231
Marktsingel,37,,,6102VW,Echt,Echt-Susteren,Limburg,VBO,5.886712,51.085034
Marktsingel,39,,,6102VW,Echt,Echt-Susteren,Limburg,VBO,5.886494,51.084958
Marktsingel,41,,,6102VW,Echt,Echt-Susteren,Limburg,VBO,5.886330,51.084879
Marktsingel,43,,,6102VW,Echt,Echt-Susteren,Limburg,VBO,5.886192,51.084812
Marktsingel,45,,,6102VW,Echt,Echt-Susteren,Limburg,VBO,5.885983,51.084754
Marktsingel,49,,,6102VW,Echt,Echt-Susteren,Limburg,VBO,5.885715,51.084562
Marktsingel,51,,,6102VW,Echt,Echt-Susteren,Limburg,VBO,5.885558,51.084522
Marktsingel,53,,,6102VW,Echt,Echt-Susteren,Limburg,VBO,5.885402,51.084452
Marktsingel,55,,,6102VW,Echt,Echt-Susteren,Limburg,VBO,5.885316,51.084299
Marktsingel,57,,,6102VW,Echt,Echt-Susteren,Limburg,VBO,5.885122,51.084327
Marktsingel,59,,,6102VW,Echt,Echt-Susteren,Limburg,VBO,5.885047,51.084293
Marktsingel,61,,,6102VW,Echt,Echt-Susteren,Limburg,VBO,5.884873,51.084157
Marktsingel,63,,,6102VW,Echt,Echt-Susteren,Limburg,VBO,5.884681,51.084130
Marktsingel,67,,,6102VW,Echt,Echt-Susteren,Limburg,VBO,5.884329,51.083982
Marktsingel,4,,,6102VX,Echt,Echt-Susteren,Limburg,VBO,5.883498,51.085173
Marktsingel,6,,,6102VX,Echt,Echt-Susteren,Limburg,VBO,5.883661,51.085219
Marktsingel,8,,,6102VX,Echt,Echt-Susteren,Limburg,VBO,5.883823,51.085267
Marktsingel,16,,,6102VX,Echt,Echt-Susteren,Limburg,VBO,5.884556,51.085480
Marktsingel,18,,,6102VX,Echt,Echt-Susteren,Limburg,VBO,5.884709,51.085524
Marktsingel,20,,,6102VX,Echt,Echt-Susteren,Limburg,VBO,5.884874,51.085571
Marktsingel,28,,,6102VX,Echt,Echt-Susteren,Limburg,VBO,5.885375,51.085718
Marktsingel,30,,,6102VX,Echt,Echt-Susteren,Limburg,VBO,5.885804,51.085833
Marktsingel,32,,,6102VX,Echt,Echt-Susteren,Limburg,VBO,5.885893,51.085651
Marktsingel,34,,,6102VX,Echt,Echt-Susteren,Limburg,VBO,5.886088,51.085435
Marktsingel,36,,,6102VX,Echt,Echt-Susteren,Limburg,VBO,5.886203,51.085305
Marktsingel,38,,,6102VX,Echt,Echt-Susteren,Limburg,VBO,5.886221,51.085214
Marktsingel,46,,,6102VX,Echt,Echt-Susteren,Limburg,VBO,5.886054,51.085121
Marktsingel,48,,,6102VX,Echt,Echt-Susteren,Limburg,VBO,5.885903,51.085052
Marktsingel,50,,,6102VX,Echt,Echt-Susteren,Limburg,VBO,5.885752,51.084984
Marktsingel,52,,,6102VX,Echt,Echt-Susteren,Limburg,VBO,5.885535,51.084886
Marktsingel,54,,,6102VX,Echt,Echt-Susteren,Limburg,VBO,5.885322,51.084790
Marktsingel,56,,,6102VX,Echt,Echt-Susteren,Limburg,VBO,5.885086,51.084682
Marktsingel,58,,,6102VX,Echt,Echt-Susteren,Limburg,VBO,5.884874,51.084588
Marktsingel,60,,,6102VX,Echt,Echt-Susteren,Limburg,VBO,5.884712,51.084516
Marktsingel,62,,,6102VX,Echt,Echt-Susteren,Limburg,VBO,5.884570,51.084452
Marktsingel,64,,,6102VX,Echt,Echt-Susteren,Limburg,VBO,5.884487,51.084415
Marktsingel,66,,,6102VX,Echt,Echt-Susteren,Limburg,VBO,5.884269,51.084306
Marktsingel,68,,,6102VX,Echt,Echt-Susteren,Limburg,VBO,5.884150,51.084252
Haverbeekstraat,1,,,6102VZ,Echt,Echt-Susteren,Limburg,VBO,5.885036,51.086775
Haverbeekstraat,2,,,6102VZ,Echt,Echt-Susteren,Limburg,VBO,5.884417,51.087478
Haverbeekstraat,3,,,6102VZ,Echt,Echt-Susteren,Limburg,VBO,5.884875,51.086704
Haverbeekstraat,4,,,6102VZ,Echt,Echt-Susteren,Limburg,VBO,5.884302,51.087441
Haverbeekstraat,5,,,6102VZ,Echt,Echt-Susteren,Limburg,VBO,5.884719,51.086647
Haverbeekstraat,6,,,6102VZ,Echt,Echt-Susteren,Limburg,VBO,5.884219,51.087428
Haverbeekstraat,7,,,6102VZ,Echt,Echt-Susteren,Limburg,VBO,5.884569,51.086583
Haverbeekstraat,8,,,6102VZ,Echt,Echt-Susteren,Limburg,VBO,5.884080,51.087354
Haverbeekstraat,9,,,6102VZ,Echt,Echt-Susteren,Limburg,VBO,5.884413,51.086525
Haverbeekstraat,10,,,6102VZ,Echt,Echt-Susteren,Limburg,VBO,5.884005,51.087321
Haverbeekstraat,11,A,,6102VZ,Echt,Echt-Susteren,Limburg,VBO,5.884036,51.086657
Haverbeekstraat,11,,,6102VZ,Echt,Echt-Susteren,Limburg,VBO,5.884138,51.086553
Haverbeekstraat,12,,,6102VZ,Echt,Echt-Susteren,Limburg,VBO,5.883872,51.087249
Haverbeekstraat,14,,,6102VZ,Echt,Echt-Susteren,Limburg,VBO,5.883801,51.087231
Haverbeekstraat,15,,,6102VZ,Echt,Echt-Susteren,Limburg,VBO,5.883960,51.086736
Haverbeekstraat,16,,,6102VZ,Echt,Echt-Susteren,Limburg,VBO,5.883695,51.087171
Haverbeekstraat,17,,,6102VZ,Echt,Echt-Susteren,Limburg,VBO,5.883885,51.086813
Haverbeekstraat,18,,,6102VZ,Echt,Echt-Susteren,Limburg,VBO,5.883495,51.087076
Haverbeekstraat,19,,,6102VZ,Echt,Echt-Susteren,Limburg,VBO,5.883812,51.086890
Haverbeekstraat,21,,,6102VZ,Echt,Echt-Susteren,Limburg,VBO,5.883742,51.086961
Hoogstraat,5,,,6102XR,Echt,Echt-Susteren,Limburg,VBO,5.879664,51.088096
Hoogstraat,7,,,6102XR,Echt,Echt-Susteren,Limburg,VBO,5.879771,51.088015
Hoogstraat,9,,,6102XR,Echt,Echt-Susteren,Limburg,VBO,5.879920,51.087909
Hoogstraat,11,,,6102XR,Echt,Echt-Susteren,Limburg,VBO,5.880062,51.087790
Hoogstraat,13,A,,6102XR,Echt,Echt-Susteren,Limburg,VBO,5.880432,51.087395
Hoogstraat,15,A,,6102XR,Echt,Echt-Susteren,Limburg,VBO,5.880625,51.087271
Hoogstraat,17,,,6102XR,Echt,Echt-Susteren,Limburg,VBO,5.880676,51.087169
Hoogstraat,19,,,6102XR,Echt,Echt-Susteren,Limburg,VBO,5.880848,51.087071
Hoogstraat,21,D,,6102XR,Echt,Echt-Susteren,Limburg,VBO,5.881420,51.087049
Hoogstraat,21,,,6102XR,Echt,Echt-Susteren,Limburg,VBO,5.880946,51.086964
Hoogstraat,23,A,,6102XR,Echt,Echt-Susteren,Limburg,VBO,5.881175,51.086800
Hoogstraat,23,B,,6102XR,Echt,Echt-Susteren,Limburg,VBO,5.881282,51.086709
Hoogstraat,23,C,,6102XR,Echt,Echt-Susteren,Limburg,VBO,5.881336,51.086664
Hoogstraat,23,,,6102XR,Echt,Echt-Susteren,Limburg,VBO,5.881124,51.086843
Hoogstraat,25,,,6102XR,Echt,Echt-Susteren,Limburg,VBO,5.881865,51.086405
Hoogstraat,27,,,6102XR,Echt,Echt-Susteren,Limburg,VBO,5.882015,51.086016
Hoogstraat,29,,,6102XR,Echt,Echt-Susteren,Limburg,VBO,5.882085,51.085918
Hoogstraat,31,,,6102XR,Echt,Echt-Susteren,Limburg,VBO,5.882344,51.085742
Hoogstraat,33,,,6102XR,Echt,Echt-Susteren,Limburg,VBO,5.882405,51.085682
Hoogstraat,35,,,6102XR,Echt,Echt-Susteren,Limburg,VBO,5.882459,51.085567
Hoogstraat,37,,,6102XR,Echt,Echt-Susteren,Limburg,VBO,5.882658,51.085413
Hoogstraat,39,,,6102XR,Echt,Echt-Susteren,Limburg,VBO,5.882870,51.085318
Hoogstraat,41,A,,6102XS,Echt,Echt-Susteren,Limburg,VBO,5.883011,51.084940
Hoogstraat,41,B,,6102XS,Echt,Echt-Susteren,Limburg,VBO,5.883185,51.084822
Hoogstraat,41,C,,6102XS,Echt,Echt-Susteren,Limburg,VBO,5.882906,51.085067
Hoogstraat,41,,,6102XS,Echt,Echt-Susteren,Limburg,VBO,5.882923,51.085022
Hoogstraat,43,,,6102XS,Echt,Echt-Susteren,Limburg,VBO,5.883279,51.084718
Hoogstraat,45,,,6102XS,Echt,Echt-Susteren,Limburg,VBO,5.883388,51.084597
Hoogstraat,47,A,,6102XS,Echt,Echt-Susteren,Limburg,VBO,5.883582,51.084414
Hoogstraat,47,B,,6102XS,Echt,Echt-Susteren,Limburg,VBO,5.883681,51.084343
Hoogstraat,47,C,,6102XS,Echt,Echt-Susteren,Limburg,VBO,5.883777,51.084273
Hoogstraat,47,D,,6102XS,Echt,Echt-Susteren,Limburg,VBO,5.883884,51.084195
Hoogstraat,47,F,,6102XS,Echt,Echt-Susteren,Limburg,VBO,5.884356,51.083694
Hoogstraat,47,,,6102XS,Echt,Echt-Susteren,Limburg,VBO,5.883436,51.084544
Hoogstraat,49,A,,6102XS,Echt,Echt-Susteren,Limburg,VBO,5.884840,51.083202
Hoogstraat,49,B,,6102XS,Echt,Echt-Susteren,Limburg,VBO,5.884940,51.083104
Hoogstraat,49,,,6102XS,Echt,Echt-Susteren,Limburg,VBO,5.884779,51.083262
Hoogstraat,51,A,,6102XS,Echt,Echt-Susteren,Limburg,VBO,5.885390,51.082693
Hoogstraat,53,,,6102XS,Echt,Echt-Susteren,Limburg,VBO,5.885531,51.082568
Hoogstraat,55,A,,6102XS,Echt,Echt-Susteren,Limburg,VBO,5.885727,51.082418
Hoogstraat,55,,,6102XS,Echt,Echt-Susteren,Limburg,VBO,5.885595,51.082519
Hoogstraat,57,A,,6102XS,Echt,Echt-Susteren,Limburg,VBO,5.886115,51.082167
Hoogstraat,57,,,6102XS,Echt,Echt-Susteren,Limburg,VBO,5.885880,51.082300
Hoogstraat,59,,,6102XS,Echt,Echt-Susteren,Limburg,VBO,5.886273,51.081901
Hoogstraat,61,,,6102XS,Echt,Echt-Susteren,Limburg,VBO,5.886371,51.081788
Hoogstraat,63,A,,6102XS,Echt,Echt-Susteren,Limburg,VBO,5.886770,51.081636
Hoogstraat,63,B,,6102XS,Echt,Echt-Susteren,Limburg,VBO,5.886760,51.081835
Hoogstraat,63,,,6102XS,Echt,Echt-Susteren,Limburg,VBO,5.886549,51.081718
Hoogstraat,65,A,,6102XS,Echt,Echt-Susteren,Limburg,VBO,5.887027,51.081470
Hoogstraat,65,,,6102XS,Echt,Echt-Susteren,Limburg,VBO,5.886906,51.081549
Hoogstraat,67,A,,6102XS,Echt,Echt-Susteren,Limburg,VBO,5.887221,51.081342
Hoogstraat,67,,,6102XS,Echt,Echt-Susteren,Limburg,VBO,5.887155,51.081386
Hoogstraat,69,,,6102XS,Echt,Echt-Susteren,Limburg,VBO,5.887552,51.081133
Hoogstraat,71,,,6102XS,Echt,Echt-Susteren,Limburg,VBO,5.887841,51.081106
Hoogstraat,2,A,,6102XT,Echt,Echt-Susteren,Limburg,VBO,5.879514,51.087782
Hoogstraat,2,,,6102XT,Echt,Echt-Susteren,Limburg,VBO,5.879670,51.087628
Hoogstraat,6,A,,6102XT,Echt,Echt-Susteren,Limburg,VBO,5.880283,51.087106
Hoogstraat,6,B,,6102XT,Echt,Echt-Susteren,Limburg,VBO,5.880219,51.087164
Hoogstraat,6,,,6102XT,Echt,Echt-Susteren,Limburg,VBO,5.879992,51.087379
Hoogstraat,8,,,6102XT,Echt,Echt-Susteren,Limburg,VBO,5.880391,51.087008
Hoogstraat,10,,,6102XT,Echt,Echt-Susteren,Limburg,VBO,5.880492,51.086898
Hoogstraat,12,A,,6102XT,Echt,Echt-Susteren,Limburg,VBO,5.880753,51.086622
Hoogstraat,12,,,6102XT,Echt,Echt-Susteren,Limburg,VBO,5.880603,51.086739
Hoogstraat,14,,,6102XT,Echt,Echt-Susteren,Limburg,VBO,5.880922,51.086492
Hoogstraat,16,,,6102XT,Echt,Echt-Susteren,Limburg,VBO,5.881082,51.086394
Hoogstraat,18,,,6102XT,Echt,Echt-Susteren,Limburg,VBO,5.881206,51.086328
Hoogstraat,20,A,,6102XT,Echt,Echt-Susteren,Limburg,VBO,5.881405,51.086122
Hoogstraat,20,,,6102XT,Echt,Echt-Susteren,Limburg,VBO,5.881333,51.086182
Hoogstraat,22,A,,6102XT,Echt,Echt-Susteren,Limburg,VBO,5.881613,51.085969
Hoogstraat,22,,,6102XT,Echt,Echt-Susteren,Limburg,VBO,5.881513,51.086005
Hoogstraat,24,,,6102XT,Echt,Echt-Susteren,Limburg,VBO,5.881701,51.085898
Hoogstraat,26,,,6102XT,Echt,Echt-Susteren,Limburg,VBO,5.881854,51.085695
Hoogstraat,28,A,,6102XT,Echt,Echt-Susteren,Limburg,VBO,5.882144,51.085499
Hoogstraat,28,,,6102XT,Echt,Echt-Susteren,Limburg,VBO,5.881947,51.085520
Hoogstraat,30,,,6102XV,Echt,Echt-Susteren,Limburg,VBO,5.882007,51.085278
Hoogstraat,34,,,6102XV,Echt,Echt-Susteren,Limburg,VBO,5.882372,51.085245
Hoogstraat,36,A,,6102XV,Echt,Echt-Susteren,Limburg,VBO,5.882549,51.085063
Hoogstraat,36,,,6102XV,Echt,Echt-Susteren,Limburg,VBO,5.882450,51.085186
Hoogstraat,40,,,6102XV,Echt,Echt-Susteren,Limburg,VBO,5.882690,51.084768
Hoogstraat,42,,,6102XV,Echt,Echt-Susteren,Limburg,VBO,5.882852,51.084661
Hoogstraat,46,,,6102XV,Echt,Echt-Susteren,Limburg,VBO,5.882933,51.084495
Hoogstraat,48,,,6102XV,Echt,Echt-Susteren,Limburg,VBO,5.883032,51.084429
Hoogstraat,50,,,6102XV,Echt,Echt-Susteren,Limburg,VBO,5.883090,51.084347
Hoogstraat,52,,,6102XV,Echt,Echt-Susteren,Limburg,VBO,5.883266,51.084154
Hoogstraat,54,,,6102XV,Echt,Echt-Susteren,Limburg,VBO,5.883354,51.084051
Hoogstraat,56,,,6102XV,Echt,Echt-Susteren,Limburg,VBO,5.883552,51.083794
Hoogstraat,58,,,6102XV,Echt,Echt-Susteren,Limburg,VBO,5.883891,51.083369
Hoogstraat,60,,,6102XV,Echt,Echt-Susteren,Limburg,VBO,5.883942,51.083085
Hoogstraat,62,,,6102XV,Echt,Echt-Susteren,Limburg,VBO,5.884203,51.083058
Hoogstraat,64,,,6102XV,Echt,Echt-Susteren,Limburg,VBO,5.884309,51.082947
Hoogstraat,66,,,6102XV,Echt,Echt-Susteren,Limburg,VBO,5.884453,51.082778
Hoogstraat,68,,,6102XV,Echt,Echt-Susteren,Limburg,VBO,5.884414,51.082756
Hoogstraat,70,A,,6102XV,Echt,Echt-Susteren,Limburg,VBO,5.884737,51.082654
Hoogstraat,70,,,6102XV,Echt,Echt-Susteren,Limburg,VBO,5.884669,51.082707
Hoogstraat,72,,,6102XV,Echt,Echt-Susteren,Limburg,VBO,5.884938,51.082498
Hoogstraat,74,,,6102XV,Echt,Echt-Susteren,Limburg,VBO,5.885033,51.082383
Hoogstraat,76,,,6102XV,Echt,Echt-Susteren,Limburg,VBO,5.885302,51.082245
Hoogstraat,78,A,,6102XV,Echt,Echt-Susteren,Limburg,VBO,5.885307,51.082077
Hoogstraat,78,,,6102XV,Echt,Echt-Susteren,Limburg,VBO,5.885362,51.082155
Hoogstraat,80,,,6102XW,Echt,Echt-Susteren,Limburg,VBO,5.885497,51.081955
Hoogstraat,84,,,6102XW,Echt,Echt-Susteren,Limburg,VBO,5.885787,51.081836
Hoogstraat,86,,,6102XW,Echt,Echt-Susteren,Limburg,VBO,5.885922,51.081753
Hoogstraat,88,,,6102XW,Echt,Echt-Susteren,Limburg,VBO,5.886002,51.081631
Hoogstraat,92,,,6102XW,Echt,Echt-Susteren,Limburg,VBO,5.886676,51.081182
Hoogstraat,94,A,,6102XW,Echt,Echt-Susteren,Limburg,VBO,5.886947,51.081029
Hoogstraat,94,,,6102XW,Echt,Echt-Susteren,Limburg,VBO,5.886865,51.081110
Hoogstraat,96,,,6102XW,Echt,Echt-Susteren,Limburg,VBO,5.887085,51.080953
Hoogstraat,98,,,6102XW,Echt,Echt-Susteren,Limburg,VBO,5.887220,51.080898
Hoogstraat,100,,,6102XW,Echt,Echt-Susteren,Limburg,VBO,5.887316,51.080864
Rijksweg Zuid,35,,,6102XX,Echt,Echt-Susteren,Limburg,VBO,5.878876,51.088170
Rijksweg Zuid,39,,,6102XX,Echt,Echt-Susteren,Limburg,VBO,5.878454,51.087676
Rijksweg Zuid,43,,,6102XX,Echt,Echt-Susteren,Limburg,VBO,5.877646,51.086767
Rijksweg Zuid,46,,,6102XZ,Echt,Echt-Susteren,Limburg,VBO,5.881138,51.091940
Rijksweg Zuid,48,,,6102XZ,Echt,Echt-Susteren,Limburg,VBO,5.880856,51.091634
Rijksweg Zuid,56,,,6102XZ,Echt,Echt-Susteren,Limburg,VBO,5.880160,51.090601
Rijksweg Zuid,58,,,6102XZ,Echt,Echt-Susteren,Limburg,VBO,5.880065,51.090480
Rijksweg Zuid,60,,,6102XZ,Echt,Echt-Susteren,Limburg,VBO,5.879948,51.090384
Rijksweg Zuid,62,,,6102XZ,Echt,Echt-Susteren,Limburg,VBO,5.879827,51.090182
Rijksweg Zuid,70,,,6102XZ,Echt,Echt-Susteren,Limburg,VBO,5.879250,51.089444
Rijksweg Zuid,76,,,6102XZ,Echt,Echt-Susteren,Limburg,VBO,5.878756,51.088799
Rijksweg Zuid,78,,,6102XZ,Echt,Echt-Susteren,Limburg,VBO,5.878700,51.088735
Rijksweg Zuid,80,,,6102XZ,Echt,Echt-Susteren,Limburg,VBO,5.878206,51.088438
Rijksweg Zuid,82,,,6102XZ,Echt,Echt-Susteren,Limburg,VBO,5.878079,51.088310
Rijksweg Zuid,90,,,6102XZ,Echt,Echt-Susteren,Limburg,VBO,5.877945,51.087738
Rijksweg Zuid,92,A,,6102XZ,Echt,Echt-Susteren,Limburg,VBO,5.877298,51.087596
Rijksweg Zuid,92,,,6102XZ,Echt,Echt-Susteren,Limburg,VBO,5.877734,51.087648
