openbareruimtenaam,huisnummer,huisletter,huisnummertoevoeging,postcode,woonplaatsnaam,gemeentenaam,provincienaam,typeadresseerbaarobject,longitude,latitude
Brugstraat,1,,,6116AA,Roosteren,Echt-Susteren,Limburg,VBO,5.830392,51.079475
Brugstraat,2,,,6116AA,Roosteren,Echt-Susteren,Limburg,VBO,5.829820,51.079421
Brugstraat,3,,,6116AA,Roosteren,Echt-Susteren,Limburg,VBO,5.830472,51.079436
Brugstraat,5,,,6116AA,Roosteren,Echt-Susteren,Limburg,VBO,5.830626,51.079376
Brugstraat,7,,,6116AA,Roosteren,Echt-Susteren,Limburg,VBO,5.830709,51.079339
Brugstraat,9,,,6116AA,Roosteren,Echt-Susteren,Limburg,VBO,5.830985,51.079204
Brugstraat,11,,,6116AA,Roosteren,Echt-Susteren,Limburg,VBO,5.831335,51.079060
Brugstraat,13,,,6116AA,Roosteren,Echt-Susteren,Limburg,VBO,5.831416,51.079023
Oud Roosteren,7,,,6116AB,Roosteren,Echt-Susteren,Limburg,VBO,5.829488,51.079563
Oud Roosteren,9,,,6116AB,Roosteren,Echt-Susteren,Limburg,VBO,5.829649,51.079678
Oud Roosteren,15,,,6116AB,Roosteren,Echt-Susteren,Limburg,VBO,5.830041,51.079969
Oud Roosteren,21,,,6116AB,Roosteren,Echt-Susteren,Limburg,VBO,5.830324,51.080309
Oud Roosteren,25,,,6116AB,Roosteren,Echt-Susteren,Limburg,VBO,5.830869,51.080541
Oud Roosteren,31,,,6116AB,Roosteren,Echt-Susteren,Limburg,VBO,5.831412,51.080860
Oud Roosteren,33,,,6116AB,Roosteren,Echt-Susteren,Limburg,VBO,5.831626,51.080818
Oud Roosteren,37,,,6116AB,Roosteren,Echt-Susteren,Limburg,VBO,5.832100,51.081013
Oud Roosteren,39,,,6116AB,Roosteren,Echt-Susteren,Limburg,VBO,5.832128,51.081138
Oud Roosteren,41,,,6116AB,Roosteren,Echt-Susteren,Limburg,VBO,5.832132,51.081281
Oud Roosteren,47,,,6116AB,Roosteren,Echt-Susteren,Limburg,VBO,5.832244,51.081738
Oud Roosteren,55,,,6116AB,Roosteren,Echt-Susteren,Limburg,VBO,5.832174,51.082030
Oud Roosteren,61,,,6116AB,Roosteren,Echt-Susteren,Limburg,VBO,5.832249,51.082323
Oud Roosteren,6,,,6116AC,Roosteren,Echt-Susteren,Limburg,VBO,5.828770,51.078995
Oud Roosteren,8,,,6116AC,Roosteren,Echt-Susteren,Limburg,VBO,5.828962,51.079035
Oud Roosteren,12,,,6116AC,Roosteren,Echt-Susteren,Limburg,VBO,5.829320,51.079086
Oud Roosteren,24,,,6116AC,Roosteren,Echt-Susteren,Limburg,VBO,5.830104,51.079707
Oud Roosteren,26,,,6116AC,Roosteren,Echt-Susteren,Limburg,VBO,5.830827,51.079632
Oud Roosteren,34,,,6116AC,Roosteren,Echt-Susteren,Limburg,VBO,5.831153,51.080465
Oud Roosteren,36,,,6116AC,Roosteren,Echt-Susteren,Limburg,VBO,5.831570,51.080513
Oud Roosteren,38,,,6116AC,Roosteren,Echt-Susteren,Limburg,VBO,5.831621,51.080684
Oud Roosteren,40,,,6116AC,Roosteren,Echt-Susteren,Limburg,VBO,5.832039,51.080746
Kanaalstraat,2,,,6116AD,Roosteren,Echt-Susteren,Limburg,VBO,5.830498,51.080511
Kanaalstraat,5,,,6116AD,Roosteren,Echt-Susteren,Limburg,VBO,5.829934,51.080458
Kanaalstraat,9,,,6116AD,Roosteren,Echt-Susteren,Limburg,VBO,5.829807,51.080474
Kanaalstraat,10,,,6116AD,Roosteren,Echt-Susteren,Limburg,VBO,5.830234,51.080575
Kanaalstraat,12,,,6116AD,Roosteren,Echt-Susteren,Limburg,VBO,5.829911,51.080651
Kanaalstraat,13,,,6116AD,Roosteren,Echt-Susteren,Limburg,VBO,5.829437,51.080650
Kanaalstraat,14,,,6116AD,Roosteren,Echt-Susteren,Limburg,VBO,5.829778,51.080681
Kanaalstraat,16,,,6116AD,Roosteren,Echt-Susteren,Limburg,VBO,5.829807,51.080741
Maaseikerweg,19,A,1,6116AG,Roosteren,Echt-Susteren,Limburg,VBO,5.811481,51.081715
Maaseikerweg,19,A,,6116AG,Roosteren,Echt-Susteren,Limburg,VBO,5.811381,51.081795
Maaseikerweg,19,B,,6116AG,Roosteren,Echt-Susteren,Limburg,VBO,5.811285,51.081805
Maaseikerweg,19,,,6116AG,Roosteren,Echt-Susteren,Limburg,VBO,5.811743,51.081612
Maaseikerweg,21,,,6116AG,Roosteren,Echt-Susteren,Limburg,VBO,5.810540,51.082064
Maaseikerweg,23,A,,6116AG,Roosteren,Echt-Susteren,Limburg,VBO,5.806839,51.084342
Maaseikerweg,32,,,6116AG,Roosteren,Echt-Susteren,Limburg,VBO,5.809898,51.082960
Maaseikerweg,34,,,6116AG,Roosteren,Echt-Susteren,Limburg,VBO,5.808245,51.084008
Maaseikerweg,36,,,6116AG,Roosteren,Echt-Susteren,Limburg,VBO,5.808149,51.083975
Maaseikerweg,38,,,6116AG,Roosteren,Echt-Susteren,Limburg,VBO,5.807861,51.084187
Maaseikerweg,42,,,6116AG,Roosteren,Echt-Susteren,Limburg,VBO,5.805126,51.087550
Lanterdijk,3,,,6116AH,Roosteren,Echt-Susteren,Limburg,VBO,5.818200,51.080474
Lanterdijk,5,,,6116AH,Roosteren,Echt-Susteren,Limburg,VBO,5.817897,51.080450
Lanterdijk,6,,,6116AH,Roosteren,Echt-Susteren,Limburg,VBO,5.816622,51.079844
Lanterdijk,8,,,6116AH,Roosteren,Echt-Susteren,Limburg,VBO,5.817285,51.079463
Lanterdijk,9,,,6116AH,Roosteren,Echt-Susteren,Limburg,VBO,5.817824,51.080274
Lanterdijk,11,,,6116AH,Roosteren,Echt-Susteren,Limburg,VBO,5.817664,51.080058
Lanterdijk,24,,,6116AH,Roosteren,Echt-Susteren,Limburg,VBO,5.817617,51.078639
Lanterdijk,25,,,6116AH,Roosteren,Echt-Susteren,Limburg,VBO,5.817860,51.079155
Lanterdijk,27,,,6116AH,Roosteren,Echt-Susteren,Limburg,VBO,5.817777,51.079059
Lanterdijk,29,,,6116AH,Roosteren,Echt-Susteren,Limburg,VBO,5.817829,51.078934
Lanterdijk,31,A,,6116AH,Roosteren,Echt-Susteren,Limburg,VBO,5.817968,51.078605
Lanterdijk,31,,,6116AH,Roosteren,Echt-Susteren,Limburg,VBO,5.817899,51.078769
Lanterdijk,32,,,6116AH,Roosteren,Echt-Susteren,Limburg,VBO,5.817773,51.078161
Lanterdijk,33,,,6116AH,Roosteren,Echt-Susteren,Limburg,VBO,5.818235,51.078177
Lanterdijk,34,,,6116AH,Roosteren,Echt-Susteren,Limburg,VBO,5.817834,51.078011
Lanterdijk,40,,,6116AH,Roosteren,Echt-Susteren,Limburg,VBO,5.818033,51.076382
Lanterdijk,43,,,6116AH,Roosteren,Echt-Susteren,Limburg,VBO,5.819059,51.076442
Lanterdijk,49,,,6116AH,Roosteren,Echt-Susteren,Limburg,VBO,5.820236,51.075458
Ruitersbaan,10,,,6116AJ,Roosteren,Echt-Susteren,Limburg,VBO,5.811330,51.079039
Ruitersbaan,15,,,6116AJ,Roosteren,Echt-Susteren,Limburg,VBO,5.812299,51.079645
Ruitersbaan,21,,,6116AJ,Roosteren,Echt-Susteren,Limburg,VBO,5.812191,51.079060
Ruitersbaan,41,,,6116AJ,Roosteren,Echt-Susteren,Limburg,VBO,5.810121,51.075679
Ruitersbaan,44,,,6116AJ,Roosteren,Echt-Susteren,Limburg,VBO,5.808143,51.075271
Ruitersbaan,46,,,6116AJ,Roosteren,Echt-Susteren,Limburg,VBO,5.808183,51.075130
Ruitersbaan,57,,,6116AJ,Roosteren,Echt-Susteren,Limburg,VBO,5.808263,51.073336
Ruitersbaan,59,,,6116AJ,Roosteren,Echt-Susteren,Limburg,VBO,5.808257,51.073278
Ruitersbaan,61,,,6116AJ,Roosteren,Echt-Susteren,Limburg,VBO,5.809311,51.070198
Illikhoven,1,,,6116AK,Roosteren,Echt-Susteren,Limburg,VBO,5.805284,51.059447
Illikhoven,3,,,6116AK,Roosteren,Echt-Susteren,Limburg,VBO,5.805230,51.059652
Illikhoven,5,,,6116AK,Roosteren,Echt-Susteren,Limburg,VBO,5.805087,51.059906
Illikhoven,7,A,,6116AK,Roosteren,Echt-Susteren,Limburg,VBO,5.804880,51.060415
Illikhoven,7,,,6116AK,Roosteren,Echt-Susteren,Limburg,VBO,5.804922,51.060228
Illikhoven,9,A,,6116AK,Roosteren,Echt-Susteren,Limburg,VBO,5.804740,51.061036
Illikhoven,9,B,,6116AK,Roosteren,Echt-Susteren,Limburg,VBO,5.804756,51.061402
Illikhoven,9,C,,6116AK,Roosteren,Echt-Susteren,Limburg,VBO,5.804264,51.061249
Illikhoven,9,,,6116AK,Roosteren,Echt-Susteren,Limburg,VBO,5.804797,51.060830
Illikhoven,11,,,6116AK,Roosteren,Echt-Susteren,Limburg,VBO,5.804594,51.061757
Illikhoven,13,,,6116AK,Roosteren,Echt-Susteren,Limburg,VBO,5.804344,51.062196
Illikhoven,15,,,6116AK,Roosteren,Echt-Susteren,Limburg,VBO,5.803969,51.063199
Illikhoven,27,,,6116AK,Roosteren,Echt-Susteren,Limburg,VBO,5.807841,51.064567
Illikhoven,29,,,6116AK,Roosteren,Echt-Susteren,Limburg,VBO,5.807811,51.064440
Illikhoven,57,,,6116AK,Roosteren,Echt-Susteren,Limburg,VBO,5.804703,51.062956
Illikhoven,61,,,6116AK,Roosteren,Echt-Susteren,Limburg,VBO,5.804410,51.062710
Illikhoven,65,,,6116AK,Roosteren,Echt-Susteren,Limburg,VBO,5.804571,51.062434
Illikhoven,67,,,6116AK,Roosteren,Echt-Susteren,Limburg,VBO,5.804623,51.062257
Illikhoven,69,,,6116AK,Roosteren,Echt-Susteren,Limburg,VBO,5.804720,51.062169
Illikhoven,71,,,6116AK,Roosteren,Echt-Susteren,Limburg,VBO,5.804748,51.062115
Illikhoven,73,,,6116AK,Roosteren,Echt-Susteren,Limburg,VBO,5.804745,51.062012
Illikhoven,75,,,6116AK,Roosteren,Echt-Susteren,Limburg,VBO,5.804797,51.061919
Illikhoven,77,,,6116AK,Roosteren,Echt-Susteren,Limburg,VBO,5.804923,51.061778
Illikhoven,79,,,6116AK,Roosteren,Echt-Susteren,Limburg,VBO,5.804961,51.061606
Illikhoven,81,,,6116AK,Roosteren,Echt-Susteren,Limburg,VBO,5.805001,51.061477
Illikhoven,83,,,6116AK,Roosteren,Echt-Susteren,Limburg,VBO,5.805036,51.061338
Illikhoven,85,,,6116AK,Roosteren,Echt-Susteren,Limburg,VBO,5.805101,51.061173
Illikhoven,89,,,6116AK,Roosteren,Echt-Susteren,Limburg,VBO,5.805190,51.061064
Illikhoven,91,,,6116AK,Roosteren,Echt-Susteren,Limburg,VBO,5.805110,51.060898
Illikhoven,93,,,6116AK,Roosteren,Echt-Susteren,Limburg,VBO,5.805117,51.060785
Illikhoven,99,,,6116AK,Roosteren,Echt-Susteren,Limburg,VBO,5.805253,51.060303
Illikhoven,2,,,6116AL,Roosteren,Echt-Susteren,Limburg,VBO,5.805257,51.059501
Illikhoven,4,A,,6116AL,Roosteren,Echt-Susteren,Limburg,VBO,5.805155,51.059785
Illikhoven,4,,,6116AL,Roosteren,Echt-Susteren,Limburg,VBO,5.805183,51.059734
Illikhoven,6,,,6116AL,Roosteren,Echt-Susteren,Limburg,VBO,5.805022,51.060030
Illikhoven,8,,,6116AL,Roosteren,Echt-Susteren,Limburg,VBO,5.804849,51.060639
Illikhoven,10,,,6116AL,Roosteren,Echt-Susteren,Limburg,VBO,5.804691,51.061596
Illikhoven,12,,,6116AL,Roosteren,Echt-Susteren,Limburg,VBO,5.804495,51.061912
Illikhoven,14,A,,6116AL,Roosteren,Echt-Susteren,Limburg,VBO,5.804156,51.062508
Illikhoven,14,B,,6116AL,Roosteren,Echt-Susteren,Limburg,VBO,5.803991,51.062972
Illikhoven,14,,,6116AL,Roosteren,Echt-Susteren,Limburg,VBO,5.804232,51.062296
Illikhoven,16,,,6116AL,Roosteren,Echt-Susteren,Limburg,VBO,5.803935,51.063337
Illikhoven,54,,,6116AL,Roosteren,Echt-Susteren,Limburg,VBO,5.804919,51.063565
Visserweert,1,,,6116AM,Roosteren,Echt-Susteren,Limburg,VBO,5.801541,51.065339
Visserweert,3,,,6116AM,Roosteren,Echt-Susteren,Limburg,VBO,5.801222,51.065313
Visserweert,17,,,6116AM,Roosteren,Echt-Susteren,Limburg,VBO,5.800828,51.066559
Visserweert,25,,,6116AM,Roosteren,Echt-Susteren,Limburg,VBO,5.799985,51.067257
Visserweert,29,,,6116AM,Roosteren,Echt-Susteren,Limburg,VBO,5.800072,51.067569
Visserweert,31,,,6116AM,Roosteren,Echt-Susteren,Limburg,VBO,5.800074,51.067623
Visserweert,33,,,6116AM,Roosteren,Echt-Susteren,Limburg,VBO,5.799888,51.067762
Visserweert,35,,,6116AM,Roosteren,Echt-Susteren,Limburg,VBO,5.799696,51.067768
Visserweert,36,,,6116AM,Roosteren,Echt-Susteren,Limburg,VBO,5.800045,51.067850
Visserweert,37,,,6116AM,Roosteren,Echt-Susteren,Limburg,VBO,5.799472,51.067765
Visserweert,38,,,6116AM,Roosteren,Echt-Susteren,Limburg,VBO,5.799833,51.067883
Visserweert,39,A,,6116AM,Roosteren,Echt-Susteren,Limburg,VBO,5.799811,51.067316
Visserweert,39,,,6116AM,Roosteren,Echt-Susteren,Limburg,VBO,5.799797,51.067397
Visserweert,40,,,6116AM,Roosteren,Echt-Susteren,Limburg,VBO,5.799622,51.067886
Visserweert,41,,,6116AM,Roosteren,Echt-Susteren,Limburg,VBO,5.799929,51.068759
Visserweert,42,,,6116AM,Roosteren,Echt-Susteren,Limburg,VBO,5.799468,51.067880
Visserweert,46,,,6116AM,Roosteren,Echt-Susteren,Limburg,VBO,5.799552,51.067937
Visserweert,50,,,6116AM,Roosteren,Echt-Susteren,Limburg,VBO,5.799509,51.068100
Visserweert,51,,,6116AM,Roosteren,Echt-Susteren,Limburg,VBO,5.801168,51.068793
Visserweert,52,,,6116AM,Roosteren,Echt-Susteren,Limburg,VBO,5.799537,51.068147
Visserweert,54,,,6116AM,Roosteren,Echt-Susteren,Limburg,VBO,5.799873,51.068233
Visserweert,58,,,6116AM,Roosteren,Echt-Susteren,Limburg,VBO,5.800229,51.068712
Ruitersdijk,3,,,6116AN,Roosteren,Echt-Susteren,Limburg,VBO,5.803846,51.060676
Ruitersdijk,17,,,6116AN,Roosteren,Echt-Susteren,Limburg,VBO,5.803733,51.059354
Kokkelertstraat,17,,,6116AP,Roosteren,Echt-Susteren,Limburg,VBO,5.806417,51.083371
Kokkelertstraat,21,,,6116AP,Roosteren,Echt-Susteren,Limburg,VBO,5.805924,51.083227
Kokkelertstraat,25,,,6116AP,Roosteren,Echt-Susteren,Limburg,VBO,5.805552,51.083058
Kokkelertstraat,27,,,6116AP,Roosteren,Echt-Susteren,Limburg,VBO,5.805638,51.083030
Kokkelertstraat,29,,,6116AP,Roosteren,Echt-Susteren,Limburg,VBO,5.805450,51.082996
Kokkelertstraat,31,,,6116AP,Roosteren,Echt-Susteren,Limburg,VBO,5.805261,51.082910
Kokkelertstraat,35,,,6116AP,Roosteren,Echt-Susteren,Limburg,VBO,5.804997,51.082694
Kokkelertstraat,39,,,6116AP,Roosteren,Echt-Susteren,Limburg,VBO,5.804775,51.082740
Kokkelertstraat,41,,,6116AP,Roosteren,Echt-Susteren,Limburg,VBO,5.804689,51.082715
Kokkelertstraat,43,,,6116AP,Roosteren,Echt-Susteren,Limburg,VBO,5.804549,51.082687
Kokkelertstraat,45,,,6116AP,Roosteren,Echt-Susteren,Limburg,VBO,5.804350,51.082755
Kokkelertstraat,47,,,6116AP,Roosteren,Echt-Susteren,Limburg,VBO,5.804215,51.082707
Kokkelertstraat,49,,,6116AP,Roosteren,Echt-Susteren,Limburg,VBO,5.804069,51.082645
Kokkelertstraat,53,,,6116AP,Roosteren,Echt-Susteren,Limburg,VBO,5.804071,51.082505
Kokkelertstraat,2,,,6116AR,Roosteren,Echt-Susteren,Limburg,VBO,5.807111,51.084097
Kokkelertstraat,6,,,6116AR,Roosteren,Echt-Susteren,Limburg,VBO,5.806652,51.084104
Kokkelertstraat,8,,,6116AR,Roosteren,Echt-Susteren,Limburg,VBO,5.806437,51.083982
Kokkelertstraat,12,,,6116AR,Roosteren,Echt-Susteren,Limburg,VBO,5.806201,51.083833
Kokkelertstraat,14,,,6116AR,Roosteren,Echt-Susteren,Limburg,VBO,5.806066,51.083734
Kokkelertstraat,20,,,6116AR,Roosteren,Echt-Susteren,Limburg,VBO,5.805757,51.083590
Kokkelertstraat,24,,,6116AR,Roosteren,Echt-Susteren,Limburg,VBO,5.805498,51.083524
Kokkelertstraat,34,,,6116AR,Roosteren,Echt-Susteren,Limburg,VBO,5.803735,51.083382
Kokkelertstraat,38,,,6116AR,Roosteren,Echt-Susteren,Limburg,VBO,5.803136,51.083478
Schansberg,3,,,6116AS,Roosteren,Echt-Susteren,Limburg,VBO,5.799509,51.090673
Schansberg,5,,,6116AS,Roosteren,Echt-Susteren,Limburg,VBO,5.799487,51.091805
Schansberg,7,,,6116AS,Roosteren,Echt-Susteren,Limburg,VBO,5.799737,51.091878
Kempstraat,6,,,6116AT,Roosteren,Echt-Susteren,Limburg,VBO,5.808125,51.084478
Kempstraat,8,,,6116AT,Roosteren,Echt-Susteren,Limburg,VBO,5.808229,51.084431
Kempstraat,12,,,6116AT,Roosteren,Echt-Susteren,Limburg,VBO,5.808390,51.084664
Kempstraat,16,,,6116AT,Roosteren,Echt-Susteren,Limburg,VBO,5.808516,51.084779
Kempstraat,18,,,6116AT,Roosteren,Echt-Susteren,Limburg,VBO,5.808574,51.084915
Kempstraat,20,,,6116AT,Roosteren,Echt-Susteren,Limburg,VBO,5.808782,51.085046
Kempstraat,22,,,6116AT,Roosteren,Echt-Susteren,Limburg,STA,5.810018,51.086293
Kempstraat,24,,,6116AT,Roosteren,Echt-Susteren,Limburg,STA,5.810176,51.086437
Kempstraat,26,,,6116AT,Roosteren,Echt-Susteren,Limburg,STA,5.810287,51.086529
Kempstraat,28,,,6116AT,Roosteren,Echt-Susteren,Limburg,STA,5.810425,51.086673
Op de Kampes,6,,,6116AV,Roosteren,Echt-Susteren,Limburg,VBO,5.810913,51.083605
Op de Kampes,8,,,6116AV,Roosteren,Echt-Susteren,Limburg,VBO,5.810891,51.083507
Op de Kampes,10,,,6116AV,Roosteren,Echt-Susteren,Limburg,VBO,5.810861,51.083390
Op de Kampes,12,,,6116AV,Roosteren,Echt-Susteren,Limburg,VBO,5.810799,51.083258
Op de Kampes,14,A,,6116AV,Roosteren,Echt-Susteren,Limburg,VBO,5.810554,51.083025
Op de Kampes,14,,,6116AV,Roosteren,Echt-Susteren,Limburg,VBO,5.810699,51.083158
Op de Kampes,16,,,6116AV,Roosteren,Echt-Susteren,Limburg,VBO,5.810213,51.082749
Hoekstraat,7,,,6116AW,Roosteren,Echt-Susteren,Limburg,VBO,5.812409,51.084258
Hoekstraat,15,,,6116AW,Roosteren,Echt-Susteren,Limburg,VBO,5.812687,51.084525
Hoekstraat,17,,,6116AW,Roosteren,Echt-Susteren,Limburg,VBO,5.812893,51.084704
Hoekstraat,19,,,6116AW,Roosteren,Echt-Susteren,Limburg,VBO,5.813114,51.084818
Hoekstraat,21,,,6116AW,Roosteren,Echt-Susteren,Limburg,VBO,5.813417,51.085008
Hoekstraat,23,,,6116AW,Roosteren,Echt-Susteren,Limburg,VBO,5.814040,51.085270
Hoekstraat,25,,,6116AW,Roosteren,Echt-Susteren,Limburg,VBO,5.814298,51.085483
Hoekstraat,27,,,6116AW,Roosteren,Echt-Susteren,Limburg,VBO,5.814699,51.085747
Hoekstraat,29,,,6116AW,Roosteren,Echt-Susteren,Limburg,VBO,5.815252,51.085671
Passtraat,55,,,6116AX,Roosteren,Echt-Susteren,Limburg,VBO,5.815769,51.085774
Passtraat,57,,,6116AX,Roosteren,Echt-Susteren,Limburg,VBO,5.816009,51.085863
Passtraat,2,A,,6116AZ,Roosteren,Echt-Susteren,Limburg,VBO,5.812364,51.083659
Passtraat,2,B,,6116AZ,Roosteren,Echt-Susteren,Limburg,VBO,5.812484,51.083728
Passtraat,2,C,,6116AZ,Roosteren,Echt-Susteren,Limburg,VBO,5.812558,51.083743
Passtraat,2,D,,6116AZ,Roosteren,Echt-Susteren,Limburg,VBO,5.812629,51.083759
Passtraat,2,,,6116AZ,Roosteren,Echt-Susteren,Limburg,VBO,5.812326,51.083672
Passtraat,4,,,6116AZ,Roosteren,Echt-Susteren,Limburg,VBO,5.812747,51.083823
Passtraat,6,,,6116AZ,Roosteren,Echt-Susteren,Limburg,VBO,5.812880,51.083868
Passtraat,8,,,6116AZ,Roosteren,Echt-Susteren,Limburg,VBO,5.813030,51.083918
Passtraat,12,,,6116AZ,Roosteren,Echt-Susteren,Limburg,VBO,5.813225,51.083982
Passtraat,14,,,6116AZ,Roosteren,Echt-Susteren,Limburg,VBO,5.813352,51.084023
Passtraat,16,,,6116AZ,Roosteren,Echt-Susteren,Limburg,VBO,5.813537,51.084070
Passtraat,18,,,6116AZ,Roosteren,Echt-Susteren,Limburg,VBO,5.813699,51.084141
Passtraat,20,,,6116AZ,Roosteren,Echt-Susteren,Limburg,VBO,5.813839,51.084204
Passtraat,22,,,6116AZ,Roosteren,Echt-Susteren,Limburg,VBO,5.814072,51.084328
Passtraat,26,,,6116AZ,Roosteren,Echt-Susteren,Limburg,VBO,5.814397,51.084495
Passtraat,32,,,6116AZ,Roosteren,Echt-Susteren,Limburg,VBO,5.814843,51.084694
Passtraat,34,,,6116AZ,Roosteren,Echt-Susteren,Limburg,VBO,5.814989,51.084758
Passtraat,36,,,6116AZ,Roosteren,Echt-Susteren,Limburg,VBO,5.815225,51.084789
Passtraat,52,,,6116AZ,Roosteren,Echt-Susteren,Limburg,VBO,5.816249,51.085175
Passtraat,56,,,6116AZ,Roosteren,Echt-Susteren,Limburg,VBO,5.816919,51.085454
Passtraat,58,,,6116AZ,Roosteren,Echt-Susteren,Limburg,VBO,5.817077,51.085515
Passtraat,60,,,6116AZ,Roosteren,Echt-Susteren,Limburg,VBO,5.817196,51.085613
Passtraat,68,,,6116AZ,Roosteren,Echt-Susteren,Limburg,VBO,5.817566,51.085732
Passtraat,70,,,6116AZ,Roosteren,Echt-Susteren,Limburg,VBO,5.817710,51.085702
Passtraat,72,,,6116AZ,Roosteren,Echt-Susteren,Limburg,VBO,5.817754,51.085783
Passtraat,76,,,6116AZ,Roosteren,Echt-Susteren,Limburg,VBO,5.818019,51.085823
Oevereind,40,,,6116BA,Roosteren,Echt-Susteren,Limburg,VBO,5.821004,51.086943
Oevereind,42,,,6116BA,Roosteren,Echt-Susteren,Limburg,VBO,5.821168,51.086836
Oevereind,46,,,6116BA,Roosteren,Echt-Susteren,Limburg,VBO,5.821322,51.087049
Oevereind,48,A,,6116BA,Roosteren,Echt-Susteren,Limburg,VBO,5.821915,51.086548
Oevereind,48,,,6116BA,Roosteren,Echt-Susteren,Limburg,VBO,5.821412,51.087084
Oevereind,50,A,,6116BA,Roosteren,Echt-Susteren,Limburg,VBO,5.822082,51.086697
Oevereind,50,,,6116BA,Roosteren,Echt-Susteren,Limburg,VBO,5.821549,51.087140
Oevereind,54,,,6116BA,Roosteren,Echt-Susteren,Limburg,VBO,5.821792,51.087206
Oevereind,60,,,6116BA,Roosteren,Echt-Susteren,Limburg,VBO,5.822260,51.087409
Oevereind,62,,,6116BA,Roosteren,Echt-Susteren,Limburg,VBO,5.822541,51.087361
Oevereind,64,,,6116BA,Roosteren,Echt-Susteren,Limburg,VBO,5.822650,51.087538
Oevereind,66,,,6116BA,Roosteren,Echt-Susteren,Limburg,VBO,5.822807,51.087413
Oevereind,68,,,6116BA,Roosteren,Echt-Susteren,Limburg,VBO,5.823025,51.087376
Oevereind,70,,,6116BA,Roosteren,Echt-Susteren,Limburg,VBO,5.823235,51.087626
Oevereind,72,,,6116BA,Roosteren,Echt-Susteren,Limburg,VBO,5.823630,51.087212
Oevereind,74,,,6116BA,Roosteren,Echt-Susteren,Limburg,VBO,5.823773,51.087083
Oevereind,80,,,6116BB,Roosteren,Echt-Susteren,Limburg,VBO,5.823648,51.087791
Oevereind,90,,,6116BB,Roosteren,Echt-Susteren,Limburg,VBO,5.825876,51.088385
Oevereind,94,,,6116BB,Roosteren,Echt-Susteren,Limburg,VBO,5.825797,51.088474
Oevereind,96,,,6116BB,Roosteren,Echt-Susteren,Limburg,VBO,5.825923,51.088523
Oevereind,98,,,6116BB,Roosteren,Echt-Susteren,Limburg,VBO,5.826018,51.088556
Jan Petersstraat,1,,,6116BC,Roosteren,Echt-Susteren,Limburg,VBO,5.817881,51.083441
Jan Petersstraat,3,,,6116BC,Roosteren,Echt-Susteren,Limburg,VBO,5.818108,51.083505
Jan Petersstraat,5,,,6116BC,Roosteren,Echt-Susteren,Limburg,VBO,5.818380,51.083640
Jan Petersstraat,13,,,6116BC,Roosteren,Echt-Susteren,Limburg,VBO,5.819009,51.084003
Jan Petersstraat,15,,,6116BC,Roosteren,Echt-Susteren,Limburg,VBO,5.819113,51.084086
Jan Petersstraat,19,,,6116BC,Roosteren,Echt-Susteren,Limburg,VBO,5.819283,51.084188
Jan Petersstraat,21,,,6116BC,Roosteren,Echt-Susteren,Limburg,VBO,5.819372,51.084285
Jan Petersstraat,23,,,6116BC,Roosteren,Echt-Susteren,Limburg,VBO,5.819485,51.084395
Jan Petersstraat,25,,,6116BC,Roosteren,Echt-Susteren,Limburg,VBO,5.819577,51.084470
Jan Petersstraat,29,,,6116BC,Roosteren,Echt-Susteren,Limburg,VBO,5.819744,51.084627
Jan Petersstraat,53,,,6116BC,Roosteren,Echt-Susteren,Limburg,VBO,5.821502,51.086111
Jan Petersstraat,57,A,,6116BC,Roosteren,Echt-Susteren,Limburg,VBO,5.822288,51.086516
Jan Petersstraat,57,,,6116BC,Roosteren,Echt-Susteren,Limburg,VBO,5.822257,51.086372
Jan Petersstraat,2,,,6116BD,Roosteren,Echt-Susteren,Limburg,VBO,5.818381,51.083205
Jan Petersstraat,4,,,6116BD,Roosteren,Echt-Susteren,Limburg,VBO,5.818510,51.083351
Jan Petersstraat,6,,,6116BD,Roosteren,Echt-Susteren,Limburg,VBO,5.818732,51.083392
Jan Petersstraat,8,,,6116BD,Roosteren,Echt-Susteren,Limburg,VBO,5.818867,51.083479
Jan Petersstraat,10,,,6116BD,Roosteren,Echt-Susteren,Limburg,VBO,5.819001,51.083554
Jan Petersstraat,12,,,6116BD,Roosteren,Echt-Susteren,Limburg,VBO,5.819408,51.083544
Jan Petersstraat,14,,,6116BD,Roosteren,Echt-Susteren,Limburg,VBO,5.819271,51.083760
Jan Petersstraat,16,,,6116BD,Roosteren,Echt-Susteren,Limburg,VBO,5.819579,51.084067
Jan Petersstraat,18,,,6116BD,Roosteren,Echt-Susteren,Limburg,VBO,5.819680,51.084158
Jan Petersstraat,20,,,6116BD,Roosteren,Echt-Susteren,Limburg,VBO,5.819806,51.084280
Jan Petersstraat,42,,,6116BD,Roosteren,Echt-Susteren,Limburg,VBO,5.820789,51.085221
Hoogveld,1,,,6116BE,Roosteren,Echt-Susteren,Limburg,VBO,5.818341,51.084703
Hoogveld,2,,,6116BE,Roosteren,Echt-Susteren,Limburg,VBO,5.817938,51.084613
Hoogveld,3,,,6116BE,Roosteren,Echt-Susteren,Limburg,VBO,5.818381,51.084661
Hoogveld,4,,,6116BE,Roosteren,Echt-Susteren,Limburg,VBO,5.817977,51.084572
Hoogveld,5,,,6116BE,Roosteren,Echt-Susteren,Limburg,VBO,5.818419,51.084620
Hoogveld,6,,,6116BE,Roosteren,Echt-Susteren,Limburg,VBO,5.817998,51.084526
Hoogveld,7,,,6116BE,Roosteren,Echt-Susteren,Limburg,VBO,5.818454,51.084583
Hoogveld,8,,,6116BE,Roosteren,Echt-Susteren,Limburg,VBO,5.818036,51.084486
Hoogveld,9,,,6116BE,Roosteren,Echt-Susteren,Limburg,VBO,5.818475,51.084538
Hoogveld,10,,,6116BE,Roosteren,Echt-Susteren,Limburg,VBO,5.818072,51.084447
Hoogveld,11,,,6116BE,Roosteren,Echt-Susteren,Limburg,VBO,5.818513,51.084498
Hoogveld,12,,,6116BE,Roosteren,Echt-Susteren,Limburg,VBO,5.818111,51.084406
Hoogveld,13,,,6116BE,Roosteren,Echt-Susteren,Limburg,VBO,5.818551,51.084368
't Root,2,,,6116BG,Roosteren,Echt-Susteren,Limburg,VBO,5.817276,51.083813
't Root,3,,,6116BG,Roosteren,Echt-Susteren,Limburg,VBO,5.817305,51.084099
't Root,4,,,6116BG,Roosteren,Echt-Susteren,Limburg,VBO,5.817347,51.083839
't Root,5,,,6116BG,Roosteren,Echt-Susteren,Limburg,VBO,5.817560,51.084191
't Root,6,,,6116BG,Roosteren,Echt-Susteren,Limburg,VBO,5.817493,51.083892
't Root,7,,,6116BG,Roosteren,Echt-Susteren,Limburg,VBO,5.817768,51.084276
't Root,8,,,6116BG,Roosteren,Echt-Susteren,Limburg,VBO,5.817652,51.083949
't Root,10,,,6116BG,Roosteren,Echt-Susteren,Limburg,VBO,5.817812,51.084007
't Root,12,,,6116BG,Roosteren,Echt-Susteren,Limburg,VBO,5.817880,51.084032
't Root,14,,,6116BG,Roosteren,Echt-Susteren,Limburg,VBO,5.818025,51.084085
't Root,16,,,6116BG,Roosteren,Echt-Susteren,Limburg,VBO,5.818094,51.084110
't Root,18,,,6116BG,Roosteren,Echt-Susteren,Limburg,VBO,5.818238,51.084162
't Root,20,,,6116BG,Roosteren,Echt-Susteren,Limburg,VBO,5.818306,51.084187
Hoeffaert,5,,,6116BH,Roosteren,Echt-Susteren,Limburg,VBO,5.819165,51.084921
Hoeffaert,7,,,6116BH,Roosteren,Echt-Susteren,Limburg,VBO,5.818988,51.085004
Op de Kloes,2,,,6116BJ,Roosteren,Echt-Susteren,Limburg,VBO,5.816678,51.085329
Op de Kloes,3,,,6116BJ,Roosteren,Echt-Susteren,Limburg,VBO,5.816649,51.084831
Op de Kloes,4,,,6116BJ,Roosteren,Echt-Susteren,Limburg,VBO,5.816839,51.085144
Op de Kloes,6,,,6116BJ,Roosteren,Echt-Susteren,Limburg,VBO,5.817016,51.084995
Borghofje,2,,,6116BK,Roosteren,Echt-Susteren,Limburg,VBO,5.815690,51.083865
Borghofje,4,,,6116BK,Roosteren,Echt-Susteren,Limburg,VBO,5.815786,51.083805
Borghofje,6,,,6116BK,Roosteren,Echt-Susteren,Limburg,VBO,5.815928,51.083626
Drs J. Lebensstraat,2,,,6116BL,Roosteren,Echt-Susteren,Limburg,VBO,5.815866,51.085018
Drs J. Lebensstraat,4,,,6116BL,Roosteren,Echt-Susteren,Limburg,VBO,5.816009,51.084857
Drs J. Lebensstraat,6,,,6116BL,Roosteren,Echt-Susteren,Limburg,VBO,5.816236,51.084670
Drs J. Lebensstraat,8,,,6116BL,Roosteren,Echt-Susteren,Limburg,VBO,5.816349,51.084495
Drs J. Lebensstraat,10,,,6116BL,Roosteren,Echt-Susteren,Limburg,VBO,5.816630,51.084234
Drs J. Lebensstraat,12,,,6116BL,Roosteren,Echt-Susteren,Limburg,VBO,5.816706,51.084100
Drs J. Lebensstraat,14,,,6116BL,Roosteren,Echt-Susteren,Limburg,VBO,5.816783,51.083964
Drs J. Lebensstraat,16,,,6116BL,Roosteren,Echt-Susteren,Limburg,VBO,5.816979,51.083675
Drs J. Lebensstraat,18,,,6116BL,Roosteren,Echt-Susteren,Limburg,VBO,5.817094,51.083551
Drs J. Lebensstraat,20,,,6116BL,Roosteren,Echt-Susteren,Limburg,VBO,5.817152,51.083411
Drs J. Lebensstraat,22,,,6116BL,Roosteren,Echt-Susteren,Limburg,VBO,5.817222,51.083252
Drs J. Lebensstraat,1,,,6116BM,Roosteren,Echt-Susteren,Limburg,VBO,5.815499,51.084896
Drs J. Lebensstraat,3,,,6116BM,Roosteren,Echt-Susteren,Limburg,VBO,5.815610,51.084779
Drs J. Lebensstraat,5,,,6116BM,Roosteren,Echt-Susteren,Limburg,VBO,5.815735,51.084651
Drs J. Lebensstraat,7,,,6116BM,Roosteren,Echt-Susteren,Limburg,VBO,5.815845,51.084537
Lage Bongerd,1,A,,6116BN,Roosteren,Echt-Susteren,Limburg,VBO,5.813995,51.083098
Lage Bongerd,1,,,6116BN,Roosteren,Echt-Susteren,Limburg,VBO,5.813917,51.083029
Lage Bongerd,3,,,6116BN,Roosteren,Echt-Susteren,Limburg,VBO,5.814045,51.083143
Lage Bongerd,5,,,6116BN,Roosteren,Echt-Susteren,Limburg,VBO,5.814148,51.083228
Lage Bongerd,7,,,6116BN,Roosteren,Echt-Susteren,Limburg,VBO,5.814202,51.083273
Lage Bongerd,9,,,6116BN,Roosteren,Echt-Susteren,Limburg,VBO,5.814392,51.083320
Lage Bongerd,11,,,6116BN,Roosteren,Echt-Susteren,Limburg,VBO,5.814496,51.083364
Lage Bongerd,13,,,6116BN,Roosteren,Echt-Susteren,Limburg,VBO,5.814637,51.083422
Lage Bongerd,15,,,6116BN,Roosteren,Echt-Susteren,Limburg,VBO,5.814712,51.083454
Lage Bongerd,17,,,6116BN,Roosteren,Echt-Susteren,Limburg,VBO,5.814847,51.083510
Lage Bongerd,19,,,6116BN,Roosteren,Echt-Susteren,Limburg,VBO,5.814932,51.083535
Lage Bongerd,21,,,6116BN,Roosteren,Echt-Susteren,Limburg,VBO,5.815045,51.083614
Lage Bongerd,23,,,6116BN,Roosteren,Echt-Susteren,Limburg,VBO,5.815119,51.083644
Lage Bongerd,25,,,6116BN,Roosteren,Echt-Susteren,Limburg,VBO,5.815258,51.083703
Lage Bongerd,27,,,6116BN,Roosteren,Echt-Susteren,Limburg,VBO,5.815330,51.083733
Lage Bongerd,29,,,6116BN,Roosteren,Echt-Susteren,Limburg,VBO,5.815518,51.083830
Lage Bongerd,31,,,6116BN,Roosteren,Echt-Susteren,Limburg,VBO,5.816861,51.084364
Lage Bongerd,33,,,6116BN,Roosteren,Echt-Susteren,Limburg,VBO,5.817022,51.084430
Lage Bongerd,35,,,6116BN,Roosteren,Echt-Susteren,Limburg,VBO,5.817186,51.084497
Lage Bongerd,37,,,6116BN,Roosteren,Echt-Susteren,Limburg,VBO,5.817353,51.084565
Lage Bongerd,39,,,6116BN,Roosteren,Echt-Susteren,Limburg,VBO,5.817522,51.084638
Lage Bongerd,41,,,6116BN,Roosteren,Echt-Susteren,Limburg,VBO,5.817730,51.084729
Lage Bongerd,43,,,6116BN,Roosteren,Echt-Susteren,Limburg,VBO,5.818117,51.084915
Lage Bongerd,45,,,6116BN,Roosteren,Echt-Susteren,Limburg,VBO,5.818308,51.085001
Lage Bongerd,47,,,6116BN,Roosteren,Echt-Susteren,Limburg,VBO,5.818467,51.085072
Lage Bongerd,49,,,6116BN,Roosteren,Echt-Susteren,Limburg,VBO,5.818694,51.085178
Lage Bongerd,2,B,,6116BP,Roosteren,Echt-Susteren,Limburg,VBO,5.813963,51.083474
Lage Bongerd,4,,,6116BP,Roosteren,Echt-Susteren,Limburg,VBO,5.814477,51.083703
Lage Bongerd,6,,,6116BP,Roosteren,Echt-Susteren,Limburg,VBO,5.814624,51.083765
Lage Bongerd,8,,,6116BP,Roosteren,Echt-Susteren,Limburg,VBO,5.814700,51.083797
Lage Bongerd,10,,,6116BP,Roosteren,Echt-Susteren,Limburg,VBO,5.814840,51.083856
Lage Bongerd,12,,,6116BP,Roosteren,Echt-Susteren,Limburg,VBO,5.814919,51.083888
Lage Bongerd,14,,,6116BP,Roosteren,Echt-Susteren,Limburg,VBO,5.815063,51.083945
Lage Bongerd,16,,,6116BP,Roosteren,Echt-Susteren,Limburg,VBO,5.815142,51.083978
Lage Bongerd,18,,,6116BP,Roosteren,Echt-Susteren,Limburg,VBO,5.815280,51.084035
Lage Bongerd,20,,,6116BP,Roosteren,Echt-Susteren,Limburg,VBO,5.815359,51.084068
Lage Bongerd,22,,,6116BP,Roosteren,Echt-Susteren,Limburg,VBO,5.815499,51.084126
Lage Bongerd,24,,,6116BP,Roosteren,Echt-Susteren,Limburg,VBO,5.815576,51.084157
Lage Bongerd,26,,,6116BP,Roosteren,Echt-Susteren,Limburg,VBO,5.815734,51.084201
Lage Bongerd,28,,,6116BP,Roosteren,Echt-Susteren,Limburg,VBO,5.815811,51.084233
Lage Bongerd,30,,,6116BP,Roosteren,Echt-Susteren,Limburg,VBO,5.815952,51.084294
Lage Bongerd,32,,,6116BP,Roosteren,Echt-Susteren,Limburg,VBO,5.816030,51.084327
Lage Bongerd,34,,,6116BP,Roosteren,Echt-Susteren,Limburg,VBO,5.816736,51.084657
Lage Bongerd,36,,,6116BP,Roosteren,Echt-Susteren,Limburg,VBO,5.817185,51.084816
Lage Bongerd,38,,,6116BP,Roosteren,Echt-Susteren,Limburg,VBO,5.817437,51.084959
Lage Bongerd,40,,,6116BP,Roosteren,Echt-Susteren,Limburg,VBO,5.817804,51.085085
Lage Bongerd,42,,,6116BP,Roosteren,Echt-Susteren,Limburg,VBO,5.818030,51.085214
Lage Bongerd,44,,,6116BP,Roosteren,Echt-Susteren,Limburg,VBO,5.818245,51.085276
Lage Bongerd,46,,,6116BP,Roosteren,Echt-Susteren,Limburg,VBO,5.818426,51.085357
Eyckholtstraat,1,,,6116BR,Roosteren,Echt-Susteren,Limburg,VBO,5.813535,51.082662
Eyckholtstraat,2,,,6116BR,Roosteren,Echt-Susteren,Limburg,VBO,5.814023,51.082720
Eyckholtstraat,4,,,6116BR,Roosteren,Echt-Susteren,Limburg,VBO,5.813900,51.082763
Eyckholtstraat,6,,,6116BR,Roosteren,Echt-Susteren,Limburg,VBO,5.813745,51.082829
Eyckholtstraat,7,A,,6116BR,Roosteren,Echt-Susteren,Limburg,VBO,5.813042,51.082858
Eyckholtstraat,7,B,,6116BR,Roosteren,Echt-Susteren,Limburg,VBO,5.813011,51.082828
Eyckholtstraat,7,,,6116BR,Roosteren,Echt-Susteren,Limburg,VBO,5.813074,51.082881
Eyckholtstraat,9,A,,6116BR,Roosteren,Echt-Susteren,Limburg,VBO,5.812983,51.082887
Eyckholtstraat,9,,,6116BR,Roosteren,Echt-Susteren,Limburg,VBO,5.813014,51.082912
Eyckholtstraat,11,,,6116BR,Roosteren,Echt-Susteren,Limburg,VBO,5.812943,51.082948
Eyckholtstraat,12,,,6116BR,Roosteren,Echt-Susteren,Limburg,VBO,5.812858,51.083273
Eyckholtstraat,13,,,6116BR,Roosteren,Echt-Susteren,Limburg,VBO,5.812391,51.082960
Eyckholtstraat,14,,,6116BR,Roosteren,Echt-Susteren,Limburg,VBO,5.812761,51.083374
Eyckholtstraat,16,,,6116BR,Roosteren,Echt-Susteren,Limburg,VBO,5.812706,51.083407
Eyckholtstraat,18,,,6116BR,Roosteren,Echt-Susteren,Limburg,VBO,5.812654,51.083438
Eyckholtstraat,20,,,6116BR,Roosteren,Echt-Susteren,Limburg,VBO,5.812577,51.083503
Eyckholtstraat,21,,,6116BR,Roosteren,Echt-Susteren,Limburg,VBO,5.812016,51.083518
Eyckholtstraat,22,,,6116BR,Roosteren,Echt-Susteren,Limburg,VBO,5.812526,51.083533
Eyckholtstraat,23,,,6116BR,Roosteren,Echt-Susteren,Limburg,VBO,5.810843,51.084050
Eyckholtstraat,24,,,6116BR,Roosteren,Echt-Susteren,Limburg,VBO,5.812456,51.083558
Eyckholtstraat,26,,,6116BR,Roosteren,Echt-Susteren,Limburg,VBO,5.812402,51.083592
Eyckholtstraat,27,,,6116BR,Roosteren,Echt-Susteren,Limburg,VBO,5.810661,51.084485
Maasheuvel,1,A,,6116BS,Roosteren,Echt-Susteren,Limburg,VBO,5.818072,51.082804
Maasheuvel,1,,,6116BS,Roosteren,Echt-Susteren,Limburg,VBO,5.818083,51.082839
Maasheuvel,3,,,6116BS,Roosteren,Echt-Susteren,Limburg,VBO,5.817891,51.082864
Maasheuvel,5,,,6116BS,Roosteren,Echt-Susteren,Limburg,VBO,5.817733,51.082876
Maasheuvel,7,,,6116BS,Roosteren,Echt-Susteren,Limburg,VBO,5.817486,51.082879
Maasheuvel,13,,,6116BS,Roosteren,Echt-Susteren,Limburg,VBO,5.817023,51.082917
Maasheuvel,21,,,6116BS,Roosteren,Echt-Susteren,Limburg,VBO,5.815832,51.082726
Maasheuvel,25,,,6116BS,Roosteren,Echt-Susteren,Limburg,VBO,5.815357,51.082700
Maasheuvel,27,,,6116BS,Roosteren,Echt-Susteren,Limburg,VBO,5.815105,51.082652
Maasheuvel,31,,,6116BS,Roosteren,Echt-Susteren,Limburg,VBO,5.814892,51.082617
Maasheuvel,33,A,,6116BS,Roosteren,Echt-Susteren,Limburg,VBO,5.814752,51.082551
Maasheuvel,33,,,6116BS,Roosteren,Echt-Susteren,Limburg,VBO,5.814735,51.082589
Maasheuvel,35,,,6116BS,Roosteren,Echt-Susteren,Limburg,VBO,5.814654,51.082574
Maasheuvel,37,,,6116BS,Roosteren,Echt-Susteren,Limburg,VBO,5.814459,51.082530
Maasheuvel,39,,,6116BS,Roosteren,Echt-Susteren,Limburg,VBO,5.814335,51.082468
Maasheuvel,43,,,6116BS,Roosteren,Echt-Susteren,Limburg,VBO,5.814187,51.082293
Maasheuvel,47,,,6116BS,Roosteren,Echt-Susteren,Limburg,VBO,5.813803,51.082279
Maasheuvel,49,,,6116BS,Roosteren,Echt-Susteren,Limburg,VBO,5.813716,51.082208
Maasheuvel,51,,,6116BS,Roosteren,Echt-Susteren,Limburg,VBO,5.813587,51.082132
Maasheuvel,2,A,,6116BT,Roosteren,Echt-Susteren,Limburg,VBO,5.817904,51.083101
Maasheuvel,4,,,6116BT,Roosteren,Echt-Susteren,Limburg,VBO,5.817545,51.083327
Maasheuvel,6,,,6116BT,Roosteren,Echt-Susteren,Limburg,VBO,5.816590,51.083245
Maasheuvel,8,,,6116BT,Roosteren,Echt-Susteren,Limburg,VBO,5.816353,51.083058
Maasheuvel,10,,,6116BT,Roosteren,Echt-Susteren,Limburg,VBO,5.816316,51.083050
Maasheuvel,12,,,6116BT,Roosteren,Echt-Susteren,Limburg,VBO,5.816276,51.083041
Maasheuvel,14,,,6116BT,Roosteren,Echt-Susteren,Limburg,VBO,5.816235,51.083032
Maasheuvel,16,,,6116BT,Roosteren,Echt-Susteren,Limburg,VBO,5.816125,51.083039
Maasheuvel,18,,,6116BT,Roosteren,Echt-Susteren,Limburg,VBO,5.815989,51.082963
Maasheuvel,20,,,6116BT,Roosteren,Echt-Susteren,Limburg,VBO,5.815825,51.082939
Maasheuvel,22,,,6116BT,Roosteren,Echt-Susteren,Limburg,VBO,5.815614,51.082924
Maasheuvel,24,,,6116BT,Roosteren,Echt-Susteren,Limburg,VBO,5.815451,51.082907
Maasheuvel,26,,,6116BT,Roosteren,Echt-Susteren,Limburg,VBO,5.815286,51.082869
Maasheuvel,28,,,6116BT,Roosteren,Echt-Susteren,Limburg,VBO,5.815184,51.082845
Maasheuvel,30,,,6116BT,Roosteren,Echt-Susteren,Limburg,VBO,5.815076,51.082826
Maasheuvel,32,,,6116BT,Roosteren,Echt-Susteren,Limburg,VBO,5.814990,51.082811
Maasheuvel,34,,,6116BT,Roosteren,Echt-Susteren,Limburg,VBO,5.814909,51.082797
Maasheuvel,36,,,6116BT,Roosteren,Echt-Susteren,Limburg,VBO,5.814741,51.082774
Maasheuvel,40,,,6116BT,Roosteren,Echt-Susteren,Limburg,VBO,5.814566,51.082809
Maasheuvel,42,,,6116BT,Roosteren,Echt-Susteren,Limburg,VBO,5.814294,51.082706
Maasheuvel,44,,,6116BT,Roosteren,Echt-Susteren,Limburg,VBO,5.814286,51.082740
Maasheuvel,46,,,6116BT,Roosteren,Echt-Susteren,Limburg,VBO,5.814163,51.082701
Maasheuvel,48,,,6116BT,Roosteren,Echt-Susteren,Limburg,VBO,5.813360,51.082503
Maasheuvel,50,,,6116BT,Roosteren,Echt-Susteren,Limburg,VBO,5.813103,51.082350
Maasheuvel,52,,,6116BT,Roosteren,Echt-Susteren,Limburg,VBO,5.812810,51.082179
Kasteel ter Borchstraat,1,,,6116BV,Roosteren,Echt-Susteren,Limburg,VBO,5.817876,51.081099
Kasteel ter Borchstraat,3,A,,6116BV,Roosteren,Echt-Susteren,Limburg,VBO,5.817544,51.081288
Kasteel ter Borchstraat,3,,,6116BV,Roosteren,Echt-Susteren,Limburg,VBO,5.817694,51.081260
Kasteel ter Borchstraat,5,,,6116BV,Roosteren,Echt-Susteren,Limburg,VBO,5.817316,51.081145
Kasteel ter Borchstraat,7,,,6116BV,Roosteren,Echt-Susteren,Limburg,VBO,5.817023,51.081189
Kasteel ter Borchstraat,9,,,6116BV,Roosteren,Echt-Susteren,Limburg,VBO,5.816867,51.081180
Kasteel ter Borchstraat,11,,,6116BV,Roosteren,Echt-Susteren,Limburg,VBO,5.816555,51.081219
Kasteel ter Borchstraat,29,,,6116BV,Roosteren,Echt-Susteren,Limburg,VBO,5.814873,51.081705
Kasteel ter Borchstraat,31,,,6116BV,Roosteren,Echt-Susteren,Limburg,VBO,5.814168,51.081707
Kasteel ter Borchstraat,35,,,6116BV,Roosteren,Echt-Susteren,Limburg,VBO,5.813795,51.081769
Kasteel ter Borchstraat,37,,,6116BV,Roosteren,Echt-Susteren,Limburg,VBO,5.813693,51.081793
Kasteel ter Borchstraat,39,,,6116BV,Roosteren,Echt-Susteren,Limburg,VBO,5.813520,51.081883
Kasteel ter Borchstraat,41,,,6116BV,Roosteren,Echt-Susteren,Limburg,VBO,5.813444,51.081930
Schettereind,2,,,6116BW,Roosteren,Echt-Susteren,Limburg,VBO,5.815940,51.082574
Schettereind,6,,,6116BW,Roosteren,Echt-Susteren,Limburg,VBO,5.815877,51.082386
Schettereind,8,,,6116BW,Roosteren,Echt-Susteren,Limburg,VBO,5.816052,51.082229
Schettereind,10,A,,6116BW,Roosteren,Echt-Susteren,Limburg,VBO,5.816087,51.082093
Schettereind,10,,,6116BW,Roosteren,Echt-Susteren,Limburg,VBO,5.816076,51.082131
Schettereind,11,,,6116BW,Roosteren,Echt-Susteren,Limburg,VBO,5.816376,51.082071
Schettereind,12,,,6116BW,Roosteren,Echt-Susteren,Limburg,VBO,5.816129,51.081963
Schettereind,15,,,6116BW,Roosteren,Echt-Susteren,Limburg,VBO,5.816499,51.081787
Schettereind,16,,,6116BW,Roosteren,Echt-Susteren,Limburg,VBO,5.816169,51.081760
Schettereind,19,,,6116BW,Roosteren,Echt-Susteren,Limburg,VBO,5.816428,51.081560
Schettereind,21,,,6116BW,Roosteren,Echt-Susteren,Limburg,VBO,5.816492,51.081413
Schettereind,22,,,6116BW,Roosteren,Echt-Susteren,Limburg,VBO,5.816177,51.081510
Schettereind,23,,,6116BW,Roosteren,Echt-Susteren,Limburg,VBO,5.816634,51.081319
Burg Schoolmeestersstraat,3,,,6116BX,Roosteren,Echt-Susteren,Limburg,VBO,5.818116,51.082518
Burg Schoolmeestersstraat,5,,,6116BX,Roosteren,Echt-Susteren,Limburg,VBO,5.818114,51.082393
Burg Schoolmeestersstraat,7,,,6116BX,Roosteren,Echt-Susteren,Limburg,VBO,5.818108,51.082333
Burg Schoolmeestersstraat,9,,,6116BX,Roosteren,Echt-Susteren,Limburg,VBO,5.818095,51.082229
Burg Schoolmeestersstraat,11,,,6116BX,Roosteren,Echt-Susteren,Limburg,VBO,5.818089,51.082170
Burg Schoolmeestersstraat,13,,,6116BX,Roosteren,Echt-Susteren,Limburg,VBO,5.818080,51.082062
Burg Schoolmeestersstraat,15,,,6116BX,Roosteren,Echt-Susteren,Limburg,VBO,5.818074,51.082003
Burg Schoolmeestersstraat,17,,,6116BX,Roosteren,Echt-Susteren,Limburg,VBO,5.818072,51.081897
Burg Schoolmeestersstraat,19,,,6116BX,Roosteren,Echt-Susteren,Limburg,VBO,5.818068,51.081837
Burg Schoolmeestersstraat,21,,,6116BX,Roosteren,Echt-Susteren,Limburg,VBO,5.818067,51.081714
Burg Schoolmeestersstraat,23,,,6116BX,Roosteren,Echt-Susteren,Limburg,VBO,5.818061,51.081652
Burg Schoolmeestersstraat,25,,,6116BX,Roosteren,Echt-Susteren,Limburg,VBO,5.818049,51.081504
Burg Schoolmeestersstraat,27,,,6116BX,Roosteren,Echt-Susteren,Limburg,VBO,5.818043,51.081445
Burg Schoolmeestersstraat,2,,,6116BZ,Roosteren,Echt-Susteren,Limburg,VBO,5.818499,51.082646
Burg Schoolmeestersstraat,4,A,,6116BZ,Roosteren,Echt-Susteren,Limburg,VBO,5.818486,51.082472
Burg Schoolmeestersstraat,4,,,6116BZ,Roosteren,Echt-Susteren,Limburg,VBO,5.818491,51.082525
Burg Schoolmeestersstraat,6,,,6116BZ,Roosteren,Echt-Susteren,Limburg,VBO,5.818466,51.082340
Burg Schoolmeestersstraat,8,,,6116BZ,Roosteren,Echt-Susteren,Limburg,VBO,5.818454,51.082182
Burg Schoolmeestersstraat,10,,,6116BZ,Roosteren,Echt-Susteren,Limburg,VBO,5.818449,51.082123
Burg Schoolmeestersstraat,12,,,6116BZ,Roosteren,Echt-Susteren,Limburg,VBO,5.818447,51.082018
Burg Schoolmeestersstraat,14,,,6116BZ,Roosteren,Echt-Susteren,Limburg,VBO,5.818442,51.081959
Burg Schoolmeestersstraat,16,,,6116BZ,Roosteren,Echt-Susteren,Limburg,VBO,5.818433,51.081851
Burg Schoolmeestersstraat,18,,,6116BZ,Roosteren,Echt-Susteren,Limburg,VBO,5.818428,51.081793
Burg Schoolmeestersstraat,20,,,6116BZ,Roosteren,Echt-Susteren,Limburg,VBO,5.818412,51.081689
Burg Schoolmeestersstraat,22,,,6116BZ,Roosteren,Echt-Susteren,Limburg,VBO,5.818406,51.081626
Burg Schoolmeestersstraat,24,,,6116BZ,Roosteren,Echt-Susteren,Limburg,VBO,5.818406,51.081510
Burg Schoolmeestersstraat,26,,,6116BZ,Roosteren,Echt-Susteren,Limburg,VBO,5.818406,51.081444
Burg Schoolmeestersstraat,28,,,6116BZ,Roosteren,Echt-Susteren,Limburg,VBO,5.818378,51.081317
Burg Schoolmeestersstraat,30,,,6116BZ,Roosteren,Echt-Susteren,Limburg,VBO,5.818373,51.081254
Burg Schoolmeestersstraat,32,,,6116BZ,Roosteren,Echt-Susteren,Limburg,VBO,5.818304,51.081115
Bongerdhof,1,,,6116CA,Roosteren,Echt-Susteren,Limburg,VBO,5.813283,51.083301
Bongerdhof,2,,,6116CA,Roosteren,Echt-Susteren,Limburg,VBO,5.813346,51.083273
Bongerdhof,3,,,6116CA,Roosteren,Echt-Susteren,Limburg,VBO,5.813409,51.083244
Bongerdhof,4,,,6116CA,Roosteren,Echt-Susteren,Limburg,VBO,5.813473,51.083215
Bongerdhof,5,,,6116CA,Roosteren,Echt-Susteren,Limburg,VBO,5.813533,51.083188
Bongerdhof,6,,,6116CA,Roosteren,Echt-Susteren,Limburg,VBO,5.813321,51.083329
Bongerdhof,7,,,6116CA,Roosteren,Echt-Susteren,Limburg,VBO,5.813378,51.083303
Bongerdhof,8,,,6116CA,Roosteren,Echt-Susteren,Limburg,VBO,5.813442,51.083273
Bongerdhof,9,,,6116CA,Roosteren,Echt-Susteren,Limburg,VBO,5.813507,51.083244
Bongerdhof,10,,,6116CA,Roosteren,Echt-Susteren,Limburg,VBO,5.813570,51.083215
Bongerdhof,11,,,6116CA,Roosteren,Echt-Susteren,Limburg,VBO,5.813614,51.083195
Bongerdhof,12,,,6116CA,Roosteren,Echt-Susteren,Limburg,VBO,5.813667,51.083171
Bongerdhof,13,,,6116CA,Roosteren,Echt-Susteren,Limburg,VBO,5.813359,51.083355
Bongerdhof,14,,,6116CA,Roosteren,Echt-Susteren,Limburg,VBO,5.813416,51.083330
Bongerdhof,15,,,6116CA,Roosteren,Echt-Susteren,Limburg,VBO,5.813480,51.083300
Bongerdhof,16,,,6116CA,Roosteren,Echt-Susteren,Limburg,VBO,5.813544,51.083271
Molenstraat,13,,,6116CC,Roosteren,Echt-Susteren,Limburg,VBO,5.819277,51.082891
Molenstraat,15,,,6116CC,Roosteren,Echt-Susteren,Limburg,VBO,5.819703,51.082703
Molenstraat,19,,,6116CC,Roosteren,Echt-Susteren,Limburg,VBO,5.820014,51.082570
Molenstraat,21,,,6116CC,Roosteren,Echt-Susteren,Limburg,VBO,5.820253,51.082556
Molenstraat,23,,,6116CC,Roosteren,Echt-Susteren,Limburg,VBO,5.820378,51.082438
Molenstraat,25,,,6116CC,Roosteren,Echt-Susteren,Limburg,VBO,5.820677,51.082422
Molenstraat,27,,,6116CC,Roosteren,Echt-Susteren,Limburg,VBO,5.820774,51.082371
Molenstraat,29,,,6116CC,Roosteren,Echt-Susteren,Limburg,VBO,5.821131,51.082256
Molenstraat,31,,,6116CC,Roosteren,Echt-Susteren,Limburg,VBO,5.821203,51.082216
Molenstraat,33,,,6116CC,Roosteren,Echt-Susteren,Limburg,VBO,5.821373,51.082153
Molenstraat,35,,,6116CC,Roosteren,Echt-Susteren,Limburg,VBO,5.821441,51.082114
Molenstraat,37,,,6116CC,Roosteren,Echt-Susteren,Limburg,VBO,5.821609,51.082051
Molenstraat,39,,,6116CC,Roosteren,Echt-Susteren,Limburg,VBO,5.821681,51.082012
Molenstraat,41,,,6116CC,Roosteren,Echt-Susteren,Limburg,VBO,5.821853,51.081877
Molenstraat,43,,,6116CC,Roosteren,Echt-Susteren,Limburg,VBO,5.821998,51.081822
Molenstraat,45,,,6116CC,Roosteren,Echt-Susteren,Limburg,VBO,5.822227,51.081741
Molenstraat,49,,,6116CC,Roosteren,Echt-Susteren,Limburg,VBO,5.822499,51.081695
Molenstraat,53,,,6116CC,Roosteren,Echt-Susteren,Limburg,VBO,5.822848,51.081621
Molenstraat,55,,,6116CC,Roosteren,Echt-Susteren,Limburg,VBO,5.822918,51.081583
Molenstraat,57,A,,6116CC,Roosteren,Echt-Susteren,Limburg,VBO,5.823497,51.081404
Molenstraat,57,,,6116CC,Roosteren,Echt-Susteren,Limburg,VBO,5.823047,51.081516
Molenstraat,59,,,6116CC,Roosteren,Echt-Susteren,Limburg,VBO,5.823346,51.081293
Molenstraat,61,,,6116CC,Roosteren,Echt-Susteren,Limburg,VBO,5.823498,51.081202
Molenstraat,63,,,6116CC,Roosteren,Echt-Susteren,Limburg,VBO,5.823641,51.081113
Molenstraat,65,,,6116CC,Roosteren,Echt-Susteren,Limburg,VBO,5.823714,51.081066
Molenstraat,67,,,6116CC,Roosteren,Echt-Susteren,Limburg,VBO,5.823856,51.080972
Molenstraat,69,,,6116CC,Roosteren,Echt-Susteren,Limburg,VBO,5.824071,51.080841
Molenstraat,71,,,6116CC,Roosteren,Echt-Susteren,Limburg,VBO,5.824223,51.080752
Molenstraat,73,,,6116CC,Roosteren,Echt-Susteren,Limburg,VBO,5.824369,51.080657
Molenstraat,75,,,6116CC,Roosteren,Echt-Susteren,Limburg,VBO,5.824494,51.080574
Molenstraat,77,,,6116CC,Roosteren,Echt-Susteren,Limburg,VBO,5.824673,51.080476
Molenstraat,2,,,6116CD,Roosteren,Echt-Susteren,Limburg,VBO,5.818523,51.082812
Molenstraat,4,,,6116CD,Roosteren,Echt-Susteren,Limburg,VBO,5.818611,51.082796
Molenstraat,6,,,6116CD,Roosteren,Echt-Susteren,Limburg,VBO,5.818781,51.082760
Molenstraat,8,,,6116CD,Roosteren,Echt-Susteren,Limburg,VBO,5.818870,51.082737
Molenstraat,10,,,6116CD,Roosteren,Echt-Susteren,Limburg,VBO,5.819045,51.082688
Molenstraat,12,,,6116CD,Roosteren,Echt-Susteren,Limburg,VBO,5.819124,51.082661
Molenstraat,14,A,,6116CD,Roosteren,Echt-Susteren,Limburg,VBO,5.819385,51.082559
Molenstraat,14,B,,6116CD,Roosteren,Echt-Susteren,Limburg,VBO,5.819485,51.082512
Molenstraat,14,,,6116CD,Roosteren,Echt-Susteren,Limburg,VBO,5.819262,51.082599
Molenstraat,16,,,6116CD,Roosteren,Echt-Susteren,Limburg,VBO,5.819837,51.082408
Molenstraat,18,,,6116CD,Roosteren,Echt-Susteren,Limburg,VBO,5.820052,51.082306
Molenstraat,20,,,6116CD,Roosteren,Echt-Susteren,Limburg,VBO,5.820116,51.082271
Molenstraat,22,,,6116CD,Roosteren,Echt-Susteren,Limburg,VBO,5.820284,51.082185
Molenstraat,24,,,6116CD,Roosteren,Echt-Susteren,Limburg,VBO,5.820372,51.082148
Molenstraat,26,,,6116CD,Roosteren,Echt-Susteren,Limburg,VBO,5.820515,51.082076
Molenstraat,28,,,6116CD,Roosteren,Echt-Susteren,Limburg,VBO,5.820595,51.082036
Molenstraat,30,,,6116CD,Roosteren,Echt-Susteren,Limburg,VBO,5.820774,51.081968
Molenstraat,32,,,6116CD,Roosteren,Echt-Susteren,Limburg,VBO,5.820863,51.081928
Molenstraat,34,,,6116CD,Roosteren,Echt-Susteren,Limburg,VBO,5.820949,51.081887
Molenstraat,36,,,6116CD,Roosteren,Echt-Susteren,Limburg,VBO,5.821077,51.081825
Molenstraat,38,,,6116CD,Roosteren,Echt-Susteren,Limburg,VBO,5.821143,51.081793
Steenakker,1,,,6116CE,Roosteren,Echt-Susteren,Limburg,VBO,5.821800,51.081401
Steenakker,2,,,6116CE,Roosteren,Echt-Susteren,Limburg,VBO,5.821792,51.081346
Steenakker,3,,,6116CE,Roosteren,Echt-Susteren,Limburg,VBO,5.821833,51.081290
Steenakker,4,,,6116CE,Roosteren,Echt-Susteren,Limburg,VBO,5.821829,51.081234
Steenakker,5,,,6116CE,Roosteren,Echt-Susteren,Limburg,VBO,5.821778,51.081146
Steenakker,6,,,6116CE,Roosteren,Echt-Susteren,Limburg,VBO,5.821773,51.081091
Steenakker,7,,,6116CE,Roosteren,Echt-Susteren,Limburg,VBO,5.821769,51.081038
Steenakker,8,,,6116CE,Roosteren,Echt-Susteren,Limburg,VBO,5.821765,51.080981
Steenakker,9,,,6116CE,Roosteren,Echt-Susteren,Limburg,VBO,5.820924,51.081428
Steenakker,10,,,6116CE,Roosteren,Echt-Susteren,Limburg,VBO,5.820921,51.081375
Steenakker,11,,,6116CE,Roosteren,Echt-Susteren,Limburg,VBO,5.820979,51.081318
Steenakker,12,,,6116CE,Roosteren,Echt-Susteren,Limburg,VBO,5.820975,51.081262
Steenakker,13,,,6116CE,Roosteren,Echt-Susteren,Limburg,VBO,5.820996,51.081173
Steenakker,14,,,6116CE,Roosteren,Echt-Susteren,Limburg,VBO,5.820991,51.081118
Steenakker,15,,,6116CE,Roosteren,Echt-Susteren,Limburg,VBO,5.820986,51.081063
Steenakker,16,,,6116CE,Roosteren,Echt-Susteren,Limburg,VBO,5.820981,51.081008
Steenakker,17,,,6116CE,Roosteren,Echt-Susteren,Limburg,VBO,5.820561,51.081535
Steenakker,18,,,6116CE,Roosteren,Echt-Susteren,Limburg,VBO,5.820557,51.081479
Steenakker,19,,,6116CE,Roosteren,Echt-Susteren,Limburg,VBO,5.820522,51.081424
Steenakker,20,,,6116CE,Roosteren,Echt-Susteren,Limburg,VBO,5.820519,51.081373
Steenakker,21,,,6116CE,Roosteren,Echt-Susteren,Limburg,VBO,5.820515,51.081317
Steenakker,22,,,6116CE,Roosteren,Echt-Susteren,Limburg,VBO,5.820511,51.081262
Steenakker,23,,,6116CE,Roosteren,Echt-Susteren,Limburg,VBO,5.820567,51.081210
Steenakker,24,,,6116CE,Roosteren,Echt-Susteren,Limburg,VBO,5.820563,51.081152
Steenakker,25,,,6116CE,Roosteren,Echt-Susteren,Limburg,VBO,5.820559,51.081098
Steenakker,26,,,6116CG,Roosteren,Echt-Susteren,Limburg,VBO,5.819782,51.081820
Steenakker,27,,,6116CG,Roosteren,Echt-Susteren,Limburg,VBO,5.819778,51.081766
Steenakker,28,,,6116CG,Roosteren,Echt-Susteren,Limburg,VBO,5.819726,51.081717
Steenakker,29,,,6116CG,Roosteren,Echt-Susteren,Limburg,VBO,5.819707,51.081665
Steenakker,30,,,6116CG,Roosteren,Echt-Susteren,Limburg,VBO,5.819703,51.081614
Steenakker,31,,,6116CG,Roosteren,Echt-Susteren,Limburg,VBO,5.819699,51.081564
Steenakker,32,,,6116CG,Roosteren,Echt-Susteren,Limburg,VBO,5.819827,51.081452
Steenakker,33,,,6116CG,Roosteren,Echt-Susteren,Limburg,VBO,5.819823,51.081400
Steenakker,34,,,6116CG,Roosteren,Echt-Susteren,Limburg,VBO,5.819819,51.081349
Steenakker,35,,,6116CG,Roosteren,Echt-Susteren,Limburg,VBO,5.819764,51.081298
Steenakker,36,,,6116CG,Roosteren,Echt-Susteren,Limburg,VBO,5.819761,51.081248
Steenakker,37,,,6116CG,Roosteren,Echt-Susteren,Limburg,VBO,5.819756,51.081196
Steenakker,38,,,6116CG,Roosteren,Echt-Susteren,Limburg,VBO,5.819751,51.081145
Kagedaal,1,,,6116CH,Roosteren,Echt-Susteren,Limburg,VBO,5.820971,51.082515
Kagedaal,2,,,6116CH,Roosteren,Echt-Susteren,Limburg,VBO,5.821407,51.082419
Kagedaal,3,,,6116CH,Roosteren,Echt-Susteren,Limburg,VBO,5.821057,51.082579
Kagedaal,4,,,6116CH,Roosteren,Echt-Susteren,Limburg,VBO,5.821463,51.082464
Kagedaal,5,,,6116CH,Roosteren,Echt-Susteren,Limburg,VBO,5.821175,51.082670
Kagedaal,6,,,6116CH,Roosteren,Echt-Susteren,Limburg,VBO,5.821614,51.082527
Kagedaal,7,,,6116CH,Roosteren,Echt-Susteren,Limburg,VBO,5.821260,51.082734
Kagedaal,8,,,6116CH,Roosteren,Echt-Susteren,Limburg,VBO,5.821670,51.082572
Kagedaal,9,,,6116CH,Roosteren,Echt-Susteren,Limburg,VBO,5.821386,51.082825
Kagedaal,10,,,6116CH,Roosteren,Echt-Susteren,Limburg,VBO,5.821783,51.082659
Kagedaal,11,,,6116CH,Roosteren,Echt-Susteren,Limburg,VBO,5.821466,51.082885
Kagedaal,12,,,6116CH,Roosteren,Echt-Susteren,Limburg,VBO,5.821839,51.082704
Kagedaal,13,,,6116CH,Roosteren,Echt-Susteren,Limburg,VBO,5.821692,51.083060
Kagedaal,14,,,6116CH,Roosteren,Echt-Susteren,Limburg,VBO,5.821952,51.082789
Kagedaal,15,,,6116CH,Roosteren,Echt-Susteren,Limburg,VBO,5.821745,51.083103
Kagedaal,16,,,6116CH,Roosteren,Echt-Susteren,Limburg,VBO,5.822013,51.082838
Kagedaal,17,,,6116CH,Roosteren,Echt-Susteren,Limburg,VBO,5.821880,51.083209
Kagedaal,18,,,6116CH,Roosteren,Echt-Susteren,Limburg,VBO,5.822078,51.082945
Kagedaal,19,,,6116CH,Roosteren,Echt-Susteren,Limburg,VBO,5.821930,51.083247
Kagedaal,20,,,6116CH,Roosteren,Echt-Susteren,Limburg,VBO,5.822138,51.082994
Kagedaal,21,,,6116CH,Roosteren,Echt-Susteren,Limburg,VBO,5.821987,51.083292
Kagedaal,22,,,6116CH,Roosteren,Echt-Susteren,Limburg,VBO,5.822249,51.083081
Kagedaal,24,,,6116CH,Roosteren,Echt-Susteren,Limburg,VBO,5.822310,51.083129
Hoogstraat,1,,,6116CJ,Roosteren,Echt-Susteren,Limburg,VBO,5.820660,51.083933
Hoogstraat,2,,,6116CJ,Roosteren,Echt-Susteren,Limburg,VBO,5.820469,51.083362
Hoogstraat,3,,,6116CJ,Roosteren,Echt-Susteren,Limburg,VBO,5.820611,51.083888
Hoogstraat,4,,,6116CJ,Roosteren,Echt-Susteren,Limburg,VBO,5.820417,51.083319
Hoogstraat,5,,,6116CJ,Roosteren,Echt-Susteren,Limburg,VBO,5.820521,51.083807
Hoogstraat,6,,,6116CJ,Roosteren,Echt-Susteren,Limburg,VBO,5.820317,51.083233
Hoogstraat,7,,,6116CJ,Roosteren,Echt-Susteren,Limburg,VBO,5.820472,51.083763
Hoogstraat,8,,,6116CJ,Roosteren,Echt-Susteren,Limburg,VBO,5.820271,51.083192
Hoogstraat,9,A,,6116CJ,Roosteren,Echt-Susteren,Limburg,VBO,5.820044,51.083354
Hoogstraat,9,B,,6116CJ,Roosteren,Echt-Susteren,Limburg,VBO,5.819950,51.083270
Hoogstraat,9,,,6116CJ,Roosteren,Echt-Susteren,Limburg,VBO,5.820380,51.083679
Hoogstraat,10,,,6116CJ,Roosteren,Echt-Susteren,Limburg,VBO,5.820221,51.083148
Hoogstraat,11,,,6116CJ,Roosteren,Echt-Susteren,Limburg,VBO,5.819859,51.083190
Hoogstraat,12,,,6116CJ,Roosteren,Echt-Susteren,Limburg,VBO,5.820120,51.083059
Hoogstraat,13,,,6116CJ,Roosteren,Echt-Susteren,Limburg,VBO,5.819803,51.083141
Hoogstraat,14,,,6116CJ,Roosteren,Echt-Susteren,Limburg,VBO,5.820066,51.083012
Hoogstraat,15,,,6116CJ,Roosteren,Echt-Susteren,Limburg,VBO,5.819707,51.083056
Hoogstraat,17,,,6116CJ,Roosteren,Echt-Susteren,Limburg,VBO,5.819656,51.083011
Belhofstraat,1,,,6116CK,Roosteren,Echt-Susteren,Limburg,VBO,5.819380,51.083878
Belhofstraat,3,,,6116CK,Roosteren,Echt-Susteren,Limburg,VBO,5.819584,51.083800
Belhofstraat,5,,,6116CK,Roosteren,Echt-Susteren,Limburg,VBO,5.819652,51.083768
Belhofstraat,7,,,6116CK,Roosteren,Echt-Susteren,Limburg,VBO,5.819778,51.083709
Belhofstraat,9,,,6116CK,Roosteren,Echt-Susteren,Limburg,VBO,5.819857,51.083671
Belhofstraat,11,,,6116CK,Roosteren,Echt-Susteren,Limburg,VBO,5.819991,51.083606
Belhofstraat,13,,,6116CK,Roosteren,Echt-Susteren,Limburg,VBO,5.820065,51.083572
Belhofstraat,15,,,6116CK,Roosteren,Echt-Susteren,Limburg,VBO,5.820205,51.083507
Belhofstraat,17,,,6116CK,Roosteren,Echt-Susteren,Limburg,VBO,5.820736,51.083246
Belhofstraat,19,,,6116CK,Roosteren,Echt-Susteren,Limburg,VBO,5.820810,51.083212
Belhofstraat,21,,,6116CK,Roosteren,Echt-Susteren,Limburg,VBO,5.820948,51.083147
Belhofstraat,23,,,6116CK,Roosteren,Echt-Susteren,Limburg,VBO,5.821020,51.083113
Belhofstraat,25,,,6116CK,Roosteren,Echt-Susteren,Limburg,VBO,5.821162,51.083045
Belhofstraat,27,,,6116CK,Roosteren,Echt-Susteren,Limburg,VBO,5.821232,51.083012
Belhofstraat,2,,,6116CL,Roosteren,Echt-Susteren,Limburg,VBO,5.819835,51.083942
Belhofstraat,4,,,6116CL,Roosteren,Echt-Susteren,Limburg,VBO,5.819912,51.083905
Belhofstraat,6,,,6116CL,Roosteren,Echt-Susteren,Limburg,VBO,5.820054,51.083841
Belhofstraat,8,,,6116CL,Roosteren,Echt-Susteren,Limburg,VBO,5.820129,51.083806
Belhofstraat,10,,,6116CL,Roosteren,Echt-Susteren,Limburg,VBO,5.820668,51.083551
Belhofstraat,12,,,6116CL,Roosteren,Echt-Susteren,Limburg,VBO,5.820742,51.083516
Belhofstraat,14,,,6116CL,Roosteren,Echt-Susteren,Limburg,VBO,5.820814,51.083483
Belhofstraat,16,,,6116CL,Roosteren,Echt-Susteren,Limburg,VBO,5.820881,51.083452
Belhofstraat,18,,,6116CL,Roosteren,Echt-Susteren,Limburg,VBO,5.820999,51.083396
Belhofstraat,20,,,6116CL,Roosteren,Echt-Susteren,Limburg,VBO,5.821075,51.083360
Belhofstraat,22,,,6116CL,Roosteren,Echt-Susteren,Limburg,VBO,5.821141,51.083330
Belhofstraat,24,,,6116CL,Roosteren,Echt-Susteren,Limburg,VBO,5.821212,51.083296
Belhofstraat,26,,,6116CL,Roosteren,Echt-Susteren,Limburg,VBO,5.821327,51.083241
Belhofstraat,28,,,6116CL,Roosteren,Echt-Susteren,Limburg,VBO,5.821399,51.083208
Belhofstraat,30,,,6116CL,Roosteren,Echt-Susteren,Limburg,VBO,5.821471,51.083174
Ingelstraat,1,,,6116CM,Roosteren,Echt-Susteren,Limburg,VBO,5.820068,51.084167
Ingelstraat,3,,,6116CM,Roosteren,Echt-Susteren,Limburg,VBO,5.820151,51.084133
Ingelstraat,5,,,6116CM,Roosteren,Echt-Susteren,Limburg,VBO,5.820290,51.084076
Ingelstraat,7,,,6116CM,Roosteren,Echt-Susteren,Limburg,VBO,5.820369,51.084044
Ingelstraat,13,,,6116CM,Roosteren,Echt-Susteren,Limburg,VBO,5.820953,51.083801
Ingelstraat,15,,,6116CM,Roosteren,Echt-Susteren,Limburg,VBO,5.821025,51.083769
Ingelstraat,17,,,6116CM,Roosteren,Echt-Susteren,Limburg,VBO,5.821089,51.083740
Ingelstraat,19,,,6116CM,Roosteren,Echt-Susteren,Limburg,VBO,5.821165,51.083706
Ingelstraat,21,,,6116CM,Roosteren,Echt-Susteren,Limburg,VBO,5.821282,51.083649
Ingelstraat,23,,,6116CM,Roosteren,Echt-Susteren,Limburg,VBO,5.821351,51.083613
Ingelstraat,25,,,6116CM,Roosteren,Echt-Susteren,Limburg,VBO,5.821419,51.083578
Ingelstraat,27,,,6116CM,Roosteren,Echt-Susteren,Limburg,VBO,5.821482,51.083545
Ingelstraat,29,,,6116CM,Roosteren,Echt-Susteren,Limburg,VBO,5.821600,51.083485
Ingelstraat,31,,,6116CM,Roosteren,Echt-Susteren,Limburg,VBO,5.821670,51.083449
Ingelstraat,33,,,6116CM,Roosteren,Echt-Susteren,Limburg,VBO,5.821737,51.083414
Steenakker,39,,,6116CN,Roosteren,Echt-Susteren,Limburg,VBO,5.819419,51.082334
Steenakker,40,,,6116CN,Roosteren,Echt-Susteren,Limburg,VBO,5.819395,51.082279
Steenakker,41,,,6116CN,Roosteren,Echt-Susteren,Limburg,VBO,5.819372,51.082003
Steenakker,42,,,6116CN,Roosteren,Echt-Susteren,Limburg,VBO,5.819352,51.081906
Steenakker,43,,,6116CN,Roosteren,Echt-Susteren,Limburg,VBO,5.819325,51.081855
Steenakker,44,,,6116CN,Roosteren,Echt-Susteren,Limburg,VBO,5.819318,51.081757
Steenakker,45,,,6116CN,Roosteren,Echt-Susteren,Limburg,VBO,5.819330,51.081703
Steenakker,46,,,6116CN,Roosteren,Echt-Susteren,Limburg,VBO,5.819307,51.081605
Steenakker,47,,,6116CN,Roosteren,Echt-Susteren,Limburg,VBO,5.819302,51.081549
Steenakker,48,,,6116CN,Roosteren,Echt-Susteren,Limburg,VBO,5.819307,51.081453
Steenakker,49,,,6116CN,Roosteren,Echt-Susteren,Limburg,VBO,5.819347,51.081396
Steenakker,50,,,6116CN,Roosteren,Echt-Susteren,Limburg,VBO,5.819346,51.081299
Steenakker,51,,,6116CN,Roosteren,Echt-Susteren,Limburg,VBO,5.819319,51.081243
Achter de Borgh,1,A,,6116CP,Roosteren,Echt-Susteren,Limburg,VBO,5.816982,51.082230
Achter de Borgh,1,,,6116CP,Roosteren,Echt-Susteren,Limburg,VBO,5.817084,51.082229
Achter de Borgh,2,,,6116CP,Roosteren,Echt-Susteren,Limburg,VBO,5.817029,51.082004
Achter de Borgh,3,,,6116CP,Roosteren,Echt-Susteren,Limburg,VBO,5.817174,51.082227
Achter de Borgh,4,,,6116CP,Roosteren,Echt-Susteren,Limburg,VBO,5.817121,51.082002
Achter de Borgh,5,,,6116CP,Roosteren,Echt-Susteren,Limburg,VBO,5.817266,51.082189
Achter de Borgh,6,,,6116CP,Roosteren,Echt-Susteren,Limburg,VBO,5.817208,51.081965
Achter de Borgh,7,,,6116CP,Roosteren,Echt-Susteren,Limburg,VBO,5.817355,51.082186
Achter de Borgh,8,,,6116CP,Roosteren,Echt-Susteren,Limburg,VBO,5.817296,51.081962
Achter de Borgh,9,,,6116CP,Roosteren,Echt-Susteren,Limburg,VBO,5.817444,51.082148
Achter de Borgh,10,,,6116CP,Roosteren,Echt-Susteren,Limburg,VBO,5.817386,51.081926
Achter de Borgh,11,,,6116CP,Roosteren,Echt-Susteren,Limburg,VBO,5.817533,51.082146
Achter de Borgh,12,,,6116CP,Roosteren,Echt-Susteren,Limburg,VBO,5.817477,51.081922
Oude Sluispad,26,,,6116CR,Roosteren,Echt-Susteren,Limburg,VBO,5.824966,51.079829
Oude Sluispad,28,,,6116CR,Roosteren,Echt-Susteren,Limburg,VBO,5.825011,51.079880
Oude Sluispad,30,,,6116CR,Roosteren,Echt-Susteren,Limburg,VBO,5.825052,51.079927
