openbareruimtenaam,huisnummer,huisletter,huisnummertoevoeging,postcode,woonplaatsnaam,gemeentenaam,provincienaam,typeadresseerbaarobject,longitude,latitude
Leienbergstraat,1,,,6122AE,Buchten,Sittard-Geleen,Limburg,VBO,5.808877,51.038986
Leienbergstraat,2,,,6122AE,Buchten,Sittard-Geleen,Limburg,VBO,5.808544,51.038439
Leienbergstraat,3,,,6122AE,Buchten,Sittard-Geleen,Limburg,VBO,5.808860,51.038752
Leienbergstraat,5,,,6122AE,Buchten,Sittard-Geleen,Limburg,VBO,5.808958,51.038518
Kapittelstraat,1,,,6122AG,Buchten,Sittard-Geleen,Limburg,VBO,5.809807,51.039405
Kapittelstraat,2,,,6122AG,Buchten,Sittard-Geleen,Limburg,VBO,5.809723,51.039594
Kapittelstraat,3,,,6122AG,Buchten,Sittard-Geleen,Limburg,VBO,5.809722,51.039396
Kapittelstraat,4,,,6122AG,Buchten,Sittard-Geleen,Limburg,VBO,5.809638,51.039577
Kapittelstraat,5,,,6122AG,Buchten,Sittard-Geleen,Limburg,VBO,5.809565,51.039370
Kapittelstraat,6,,,6122AG,Buchten,Sittard-Geleen,Limburg,VBO,5.809481,51.039559
Kapittelstraat,7,,,6122AG,Buchten,Sittard-Geleen,Limburg,VBO,5.809479,51.039352
Kapittelstraat,8,,,6122AG,Buchten,Sittard-Geleen,Limburg,VBO,5.809395,51.039541
Kapittelstraat,9,,,6122AG,Buchten,Sittard-Geleen,Limburg,VBO,5.809308,51.039326
Kapittelstraat,10,,,6122AG,Buchten,Sittard-Geleen,Limburg,VBO,5.809238,51.039524
Kapittelstraat,11,,,6122AG,Buchten,Sittard-Geleen,Limburg,VBO,5.809222,51.039308
Kapittelstraat,12,,,6122AG,Buchten,Sittard-Geleen,Limburg,VBO,5.809152,51.039506
Kapittelstraat,13,,,6122AG,Buchten,Sittard-Geleen,Limburg,VBO,5.809150,51.039300
Kapittelstraat,14,,,6122AG,Buchten,Sittard-Geleen,Limburg,VBO,5.809010,51.039489
Kapittelstraat,15,,,6122AG,Buchten,Sittard-Geleen,Limburg,VBO,5.809065,51.039282
Kapittelstraat,16,,,6122AG,Buchten,Sittard-Geleen,Limburg,VBO,5.808924,51.039471
Kapittelstraat,17,,,6122AG,Buchten,Sittard-Geleen,Limburg,VBO,5.808908,51.039256
Kapittelstraat,18,,,6122AG,Buchten,Sittard-Geleen,Limburg,VBO,5.808838,51.039454
Kapittelstraat,19,,,6122AG,Buchten,Sittard-Geleen,Limburg,VBO,5.808822,51.039247
Kapittelstraat,20,,,6122AG,Buchten,Sittard-Geleen,Limburg,VBO,5.808753,51.039445
Munstersgoedstraat,1,,,6122AH,Buchten,Sittard-Geleen,Limburg,VBO,5.810074,51.038964
Munstersgoedstraat,2,,,6122AH,Buchten,Sittard-Geleen,Limburg,VBO,5.810048,51.039171
Munstersgoedstraat,3,,,6122AH,Buchten,Sittard-Geleen,Limburg,VBO,5.809917,51.038937
Munstersgoedstraat,4,,,6122AH,Buchten,Sittard-Geleen,Limburg,VBO,5.809962,51.039153
Munstersgoedstraat,5,,,6122AH,Buchten,Sittard-Geleen,Limburg,VBO,5.809831,51.038920
Munstersgoedstraat,6,,,6122AH,Buchten,Sittard-Geleen,Limburg,VBO,5.809876,51.039144
Munstersgoedstraat,7,,,6122AH,Buchten,Sittard-Geleen,Limburg,VBO,5.809674,51.038893
Munstersgoedstraat,8,,,6122AH,Buchten,Sittard-Geleen,Limburg,VBO,5.809705,51.039118
Munstersgoedstraat,9,,,6122AH,Buchten,Sittard-Geleen,Limburg,VBO,5.809589,51.038885
Munstersgoedstraat,10,,,6122AH,Buchten,Sittard-Geleen,Limburg,VBO,5.809619,51.039100
Munstersgoedstraat,11,,,6122AH,Buchten,Sittard-Geleen,Limburg,VBO,5.809432,51.038858
Munstersgoedstraat,12,,,6122AH,Buchten,Sittard-Geleen,Limburg,VBO,5.809533,51.039083
Munstersgoedstraat,13,,,6122AH,Buchten,Sittard-Geleen,Limburg,VBO,5.809346,51.038840
Munstersgoedstraat,14,,,6122AH,Buchten,Sittard-Geleen,Limburg,VBO,5.809391,51.039065
Munstersgoedstraat,15,,,6122AH,Buchten,Sittard-Geleen,Limburg,VBO,5.809189,51.038814
Munstersgoedstraat,16,,,6122AH,Buchten,Sittard-Geleen,Limburg,VBO,5.809291,51.039047
Munstersgoedstraat,17,,,6122AH,Buchten,Sittard-Geleen,Limburg,VBO,5.809103,51.038805
Munstersgoedstraat,18,,,6122AH,Buchten,Sittard-Geleen,Limburg,VBO,5.809219,51.039039
Munstersgoedstraat,19,,,6122AH,Buchten,Sittard-Geleen,Limburg,VBO,5.808946,51.038779
Munstersgoedstraat,20,,,6122AH,Buchten,Sittard-Geleen,Limburg,VBO,5.809034,51.039003
Munstersgoedstraat,22,,,6122AH,Buchten,Sittard-Geleen,Limburg,VBO,5.808948,51.038995
Kampstraat,2,,,6122AJ,Buchten,Sittard-Geleen,Limburg,VBO,5.810186,51.038712
Kampstraat,4,,,6122AJ,Buchten,Sittard-Geleen,Limburg,VBO,5.810029,51.038685
Kampstraat,6,,,6122AJ,Buchten,Sittard-Geleen,Limburg,VBO,5.809943,51.038668
Kampstraat,8,,,6122AJ,Buchten,Sittard-Geleen,Limburg,VBO,5.809786,51.038641
Kampstraat,10,,,6122AJ,Buchten,Sittard-Geleen,Limburg,VBO,5.809700,51.038623
Kampstraat,12,,,6122AJ,Buchten,Sittard-Geleen,Limburg,VBO,5.809529,51.038597
Kampstraat,14,,,6122AJ,Buchten,Sittard-Geleen,Limburg,VBO,5.809458,51.038588
Kampstraat,16,,,6122AJ,Buchten,Sittard-Geleen,Limburg,VBO,5.809286,51.038562
Kampstraat,18,,,6122AJ,Buchten,Sittard-Geleen,Limburg,VBO,5.809201,51.038544
Kampstraat,20,,,6122AJ,Buchten,Sittard-Geleen,Limburg,VBO,5.809044,51.038518
Kampstraat,5,,,6122AK,Buchten,Sittard-Geleen,Limburg,VBO,5.811026,51.038637
Kampstraat,7,,,6122AK,Buchten,Sittard-Geleen,Limburg,VBO,5.810955,51.038619
Kampstraat,9,,,6122AK,Buchten,Sittard-Geleen,Limburg,VBO,5.810784,51.038593
Kampstraat,11,,,6122AK,Buchten,Sittard-Geleen,Limburg,VBO,5.810712,51.038584
Kampstraat,13,,,6122AK,Buchten,Sittard-Geleen,Limburg,VBO,5.810555,51.038512
Kampstraat,15,,,6122AK,Buchten,Sittard-Geleen,Limburg,VBO,5.810469,51.038504
Kampstraat,17,,,6122AK,Buchten,Sittard-Geleen,Limburg,VBO,5.810312,51.038477
Kampstraat,19,,,6122AK,Buchten,Sittard-Geleen,Limburg,VBO,5.810241,51.038460
Kampstraat,21,,,6122AK,Buchten,Sittard-Geleen,Limburg,VBO,5.810055,51.038433
Kampstraat,23,,,6122AK,Buchten,Sittard-Geleen,Limburg,VBO,5.809984,51.038425
Kampstraat,25,,,6122AK,Buchten,Sittard-Geleen,Limburg,VBO,5.809812,51.038389
Kampstraat,27,,,6122AK,Buchten,Sittard-Geleen,Limburg,VBO,5.809712,51.038390
Kampstraat,29,,,6122AK,Buchten,Sittard-Geleen,Limburg,VBO,5.809541,51.038390
Kampstraat,31,,,6122AK,Buchten,Sittard-Geleen,Limburg,VBO,5.809470,51.038382
Kampstraat,33,,,6122AK,Buchten,Sittard-Geleen,Limburg,VBO,5.809299,51.038355
Kampstraat,35,,,6122AK,Buchten,Sittard-Geleen,Limburg,VBO,5.809227,51.038338
Kampstraat,37,,,6122AK,Buchten,Sittard-Geleen,Limburg,VBO,5.809070,51.038311
Kampstraat,39,,,6122AK,Buchten,Sittard-Geleen,Limburg,VBO,5.808985,51.038302
Oude Baan,2,A,,6122AL,Buchten,Sittard-Geleen,Limburg,VBO,5.813088,51.041155
Oude Baan,2,,,6122AL,Buchten,Sittard-Geleen,Limburg,VBO,5.813174,51.041191
Oude Baan,4,,,6122AL,Buchten,Sittard-Geleen,Limburg,VBO,5.812988,51.041110
Oude Baan,6,,,6122AL,Buchten,Sittard-Geleen,Limburg,VBO,5.812845,51.041039
Oude Baan,8,,,6122AL,Buchten,Sittard-Geleen,Limburg,VBO,5.811672,51.040603
Oude Baan,10,A,,6122AL,Buchten,Sittard-Geleen,Limburg,VBO,5.811158,51.040506
Oude Baan,10,B,,6122AL,Buchten,Sittard-Geleen,Limburg,VBO,5.811015,51.040488
Oude Baan,10,C,,6122AL,Buchten,Sittard-Geleen,Limburg,VBO,5.810844,51.040462
Oude Baan,12,,,6122AL,Buchten,Sittard-Geleen,Limburg,VBO,5.810430,51.040410
Oude Baan,14,,,6122AL,Buchten,Sittard-Geleen,Limburg,VBO,5.809858,51.040259
Oude Baan,16,,,6122AL,Buchten,Sittard-Geleen,Limburg,VBO,5.809530,51.040224
Oude Baan,18,,,6122AL,Buchten,Sittard-Geleen,Limburg,VBO,5.809358,51.040180
Oude Baan,20,,,6122AL,Buchten,Sittard-Geleen,Limburg,VBO,5.809187,51.040144
Oude Baan,22,,,6122AL,Buchten,Sittard-Geleen,Limburg,VBO,5.809015,51.040109
Oude Baan,24,,,6122AL,Buchten,Sittard-Geleen,Limburg,VBO,5.808915,51.040092
Oude Baan,26,,,6122AL,Buchten,Sittard-Geleen,Limburg,VBO,5.808401,51.039968
Oude Baan,28,,,6122AL,Buchten,Sittard-Geleen,Limburg,VBO,5.808315,51.039941
Oude Baan,30,,,6122AL,Buchten,Sittard-Geleen,Limburg,VBO,5.808101,51.039933
Oude Baan,1,,,6122AM,Buchten,Sittard-Geleen,Limburg,VBO,5.813229,51.040894
Oude Baan,3,,,6122AM,Buchten,Sittard-Geleen,Limburg,VBO,5.813014,51.040823
Oude Baan,5,,,6122AM,Buchten,Sittard-Geleen,Limburg,VBO,5.812799,51.040743
Oude Baan,7,,,6122AM,Buchten,Sittard-Geleen,Limburg,VBO,5.812599,51.040671
Oude Baan,9,,,6122AM,Buchten,Sittard-Geleen,Limburg,VBO,5.812413,51.040627
Oude Baan,11,,,6122AM,Buchten,Sittard-Geleen,Limburg,VBO,5.812313,51.040582
Oude Baan,13,,,6122AM,Buchten,Sittard-Geleen,Limburg,VBO,5.812213,51.040547
Oude Baan,15,,,6122AM,Buchten,Sittard-Geleen,Limburg,VBO,5.812013,51.040449
Oude Baan,17,,,6122AM,Buchten,Sittard-Geleen,Limburg,VBO,5.811927,51.040422
Oude Baan,19,,,6122AM,Buchten,Sittard-Geleen,Limburg,VBO,5.811769,51.040369
Oude Baan,21,,,6122AM,Buchten,Sittard-Geleen,Limburg,VBO,5.811312,51.040263
Oude Baan,23,,,6122AM,Buchten,Sittard-Geleen,Limburg,VBO,5.811127,51.040227
Oude Baan,27,,,6122AM,Buchten,Sittard-Geleen,Limburg,VBO,5.810912,51.040192
Oude Baan,29,,,6122AM,Buchten,Sittard-Geleen,Limburg,VBO,5.810655,51.040157
Oude Baan,33,,,6122AM,Buchten,Sittard-Geleen,Limburg,VBO,5.809885,51.040061
Oude Baan,35,,,6122AM,Buchten,Sittard-Geleen,Limburg,VBO,5.809813,51.040034
Oude Baan,39,,,6122AM,Buchten,Sittard-Geleen,Limburg,VBO,5.809199,51.039884
Oude Baan,41,,,6122AM,Buchten,Sittard-Geleen,Limburg,VBO,5.808971,51.039903
Oude Baan,43,,,6122AM,Buchten,Sittard-Geleen,Limburg,VBO,5.808813,51.039840
Oude Baan,45,,,6122AM,Buchten,Sittard-Geleen,Limburg,VBO,5.808728,51.039823
Oude Baan,47,,,6122AM,Buchten,Sittard-Geleen,Limburg,VBO,5.808656,51.039787
Oude Baan,49,,,6122AM,Buchten,Sittard-Geleen,Limburg,VBO,5.808570,51.039769
Boomgaardstraat,2,,,6122AN,Buchten,Sittard-Geleen,Limburg,VBO,5.809485,51.039982
Boomgaardstraat,3,,,6122AN,Buchten,Sittard-Geleen,Limburg,VBO,5.809926,51.039881
Boomgaardstraat,4,,,6122AN,Buchten,Sittard-Geleen,Limburg,VBO,5.809526,51.039865
Boomgaardstraat,5,,,6122AN,Buchten,Sittard-Geleen,Limburg,VBO,5.809968,51.039827
Boomgaardstraat,6,,,6122AN,Buchten,Sittard-Geleen,Limburg,VBO,5.809597,51.039765
Boomgaardstraat,7,,,6122AN,Buchten,Sittard-Geleen,Limburg,VBO,5.810053,51.039728
Boomgaardstraat,8,,,6122AN,Buchten,Sittard-Geleen,Limburg,VBO,5.809893,51.039405
Boomgaardstraat,9,,,6122AN,Buchten,Sittard-Geleen,Limburg,VBO,5.810095,51.039683
Boomgaardstraat,10,,,6122AN,Buchten,Sittard-Geleen,Limburg,VBO,5.810174,51.038963
Boomgaardstraat,11,,,6122AN,Buchten,Sittard-Geleen,Limburg,VBO,5.810180,51.039584
Boomgaardstraat,12,,,6122AN,Buchten,Sittard-Geleen,Limburg,VBO,5.810257,51.038729
Boomgaardstraat,13,,,6122AN,Buchten,Sittard-Geleen,Limburg,VBO,5.810222,51.039529
Boomgaardstraat,15,,,6122AN,Buchten,Sittard-Geleen,Limburg,VBO,5.810306,51.039421
Boomgaardstraat,17,,,6122AN,Buchten,Sittard-Geleen,Limburg,VBO,5.810334,51.039340
Boomgaardstraat,19,,,6122AN,Buchten,Sittard-Geleen,Limburg,VBO,5.810362,51.039286
Boomgaardstraat,21,,,6122AN,Buchten,Sittard-Geleen,Limburg,VBO,5.810404,51.039178
Boomgaardstraat,23,,,6122AN,Buchten,Sittard-Geleen,Limburg,VBO,5.810432,51.039124
Boomgaardstraat,25,,,6122AN,Buchten,Sittard-Geleen,Limburg,VBO,5.810474,51.039016
Boomgaardstraat,27,,,6122AN,Buchten,Sittard-Geleen,Limburg,VBO,5.810502,51.038962
Boomgaardstraat,29,,,6122AN,Buchten,Sittard-Geleen,Limburg,VBO,5.810544,51.038854
Boomgaardstraat,31,,,6122AN,Buchten,Sittard-Geleen,Limburg,VBO,5.810572,51.038800
Wieënbroek,2,,,6122AP,Buchten,Sittard-Geleen,Limburg,VBO,5.811426,51.040271
Wieënbroek,3,,,6122AP,Buchten,Sittard-Geleen,Limburg,VBO,5.812858,51.039340
Wieënbroek,4,A,,6122AP,Buchten,Sittard-Geleen,Limburg,VBO,5.811538,51.040028
Wieënbroek,4,,,6122AP,Buchten,Sittard-Geleen,Limburg,VBO,5.811496,51.040082
Wieënbroek,5,,,6122AP,Buchten,Sittard-Geleen,Limburg,VBO,5.812971,51.039268
Wieënbroek,6,A,,6122AP,Buchten,Sittard-Geleen,Limburg,VBO,5.811651,51.039857
Wieënbroek,6,,,6122AP,Buchten,Sittard-Geleen,Limburg,VBO,5.811608,51.039920
Wieënbroek,7,,,6122AP,Buchten,Sittard-Geleen,Limburg,VBO,5.813328,51.039266
Wieënbroek,8,,,6122AP,Buchten,Sittard-Geleen,Limburg,VBO,5.811764,51.039776
Wieënbroek,9,,,6122AP,Buchten,Sittard-Geleen,Limburg,VBO,5.813413,51.039293
Wieënbroek,10,,,6122AP,Buchten,Sittard-Geleen,Limburg,VBO,5.811806,51.039712
Wieënbroek,12,,,6122AP,Buchten,Sittard-Geleen,Limburg,VBO,5.811920,51.039631
Wieënbroek,14,,,6122AP,Buchten,Sittard-Geleen,Limburg,VBO,5.811962,51.039568
Wieënbroek,16,,,6122AP,Buchten,Sittard-Geleen,Limburg,VBO,5.812188,51.039387
Wieënbroek,18,,,6122AP,Buchten,Sittard-Geleen,Limburg,VBO,5.812557,51.039152
Wieënbroek,20,,,6122AP,Buchten,Sittard-Geleen,Limburg,VBO,5.812769,51.039026
Wieënbroek,22,,,6122AP,Buchten,Sittard-Geleen,Limburg,VBO,5.813111,51.038971
Wieënbroek,24,,,6122AP,Buchten,Sittard-Geleen,Limburg,VBO,5.813454,51.039014
Wieënbroek,26,,,6122AP,Buchten,Sittard-Geleen,Limburg,VBO,5.813697,51.039085
Wieënbroek,28,,,6122AP,Buchten,Sittard-Geleen,Limburg,VBO,5.813982,51.039156
Wieënbroek,30,,,6122AP,Buchten,Sittard-Geleen,Limburg,VBO,5.814254,51.039227
Wieënbroek,32,,,6122AP,Buchten,Sittard-Geleen,Limburg,VBO,5.814512,51.039325
Schout Boutenstraat,2,,,6122AR,Buchten,Sittard-Geleen,Limburg,VBO,5.812107,51.039846
Schout Boutenstraat,4,,,6122AR,Buchten,Sittard-Geleen,Limburg,VBO,5.812178,51.039873
Schout Boutenstraat,6,,,6122AR,Buchten,Sittard-Geleen,Limburg,VBO,5.812336,51.039944
Schout Boutenstraat,8,,,6122AR,Buchten,Sittard-Geleen,Limburg,VBO,5.812422,51.039971
Schout Boutenstraat,10,,,6122AR,Buchten,Sittard-Geleen,Limburg,VBO,5.812579,51.040024
Schout Boutenstraat,12,,,6122AR,Buchten,Sittard-Geleen,Limburg,VBO,5.812665,51.040051
Schout Boutenstraat,14,,,6122AR,Buchten,Sittard-Geleen,Limburg,VBO,5.812836,51.040104
Schout Boutenstraat,16,,,6122AR,Buchten,Sittard-Geleen,Limburg,VBO,5.812908,51.040131
Schout Boutenstraat,18,,,6122AR,Buchten,Sittard-Geleen,Limburg,VBO,5.813346,51.039698
Schout Boutenstraat,20,,,6122AR,Buchten,Sittard-Geleen,Limburg,VBO,5.813431,51.039617
Schout Boutenstraat,22,,,6122AR,Buchten,Sittard-Geleen,Limburg,VBO,5.813515,51.039535
Schout Boutenstraat,24,,,6122AR,Buchten,Sittard-Geleen,Limburg,VBO,5.813600,51.039454
Schout Boutenstraat,26,,,6122AR,Buchten,Sittard-Geleen,Limburg,VBO,5.813671,51.039373
Schout Boutenstraat,1,,,6122AS,Buchten,Sittard-Geleen,Limburg,VBO,5.811966,51.040071
Schout Boutenstraat,3,,,6122AS,Buchten,Sittard-Geleen,Limburg,VBO,5.812081,51.040107
Schout Boutenstraat,5,,,6122AS,Buchten,Sittard-Geleen,Limburg,VBO,5.812181,51.040143
Schout Boutenstraat,7,,,6122AS,Buchten,Sittard-Geleen,Limburg,VBO,5.812295,51.040178
Schout Boutenstraat,9,,,6122AS,Buchten,Sittard-Geleen,Limburg,VBO,5.812395,51.040223
Schout Boutenstraat,11,,,6122AS,Buchten,Sittard-Geleen,Limburg,VBO,5.812510,51.040258
Schout Boutenstraat,13,,,6122AS,Buchten,Sittard-Geleen,Limburg,VBO,5.812610,51.040294
Schout Boutenstraat,15,,,6122AS,Buchten,Sittard-Geleen,Limburg,VBO,5.812724,51.040329
Schout Boutenstraat,17,,,6122AS,Buchten,Sittard-Geleen,Limburg,VBO,5.812825,51.040365
Schout Boutenstraat,19,,,6122AS,Buchten,Sittard-Geleen,Limburg,VBO,5.812925,51.040400
Schout Boutenstraat,21,,,6122AS,Buchten,Sittard-Geleen,Limburg,VBO,5.813166,51.040337
Schout Boutenstraat,23,,,6122AS,Buchten,Sittard-Geleen,Limburg,VBO,5.813209,51.040283
Schout Boutenstraat,25,,,6122AS,Buchten,Sittard-Geleen,Limburg,VBO,5.813378,51.040075
Schout Boutenstraat,27,,,6122AS,Buchten,Sittard-Geleen,Limburg,VBO,5.813435,51.040030
Schout Boutenstraat,29,,,6122AS,Buchten,Sittard-Geleen,Limburg,VBO,5.813519,51.039931
Schout Boutenstraat,31,,,6122AS,Buchten,Sittard-Geleen,Limburg,VBO,5.813576,51.039886
Schout Boutenstraat,33,,,6122AS,Buchten,Sittard-Geleen,Limburg,VBO,5.813689,51.039795
Schout Boutenstraat,35,,,6122AS,Buchten,Sittard-Geleen,Limburg,VBO,5.813731,51.039750
Schout Boutenstraat,37,,,6122AS,Buchten,Sittard-Geleen,Limburg,VBO,5.813830,51.039660
Schout Boutenstraat,39,,,6122AS,Buchten,Sittard-Geleen,Limburg,VBO,5.813873,51.039606
Schout Boutenstraat,41,,,6122AS,Buchten,Sittard-Geleen,Limburg,VBO,5.813957,51.039507
Schout Boutenstraat,43,,,6122AS,Buchten,Sittard-Geleen,Limburg,VBO,5.814000,51.039462
Engelbertusstraat,1,,,6122AT,Buchten,Sittard-Geleen,Limburg,VBO,5.812319,51.039639
Engelbertusstraat,2,,,6122AT,Buchten,Sittard-Geleen,Limburg,VBO,5.812617,51.039458
Engelbertusstraat,3,,,6122AT,Buchten,Sittard-Geleen,Limburg,VBO,5.812405,51.039665
Engelbertusstraat,4,,,6122AT,Buchten,Sittard-Geleen,Limburg,VBO,5.812745,51.039502
Engelbertusstraat,5,,,6122AT,Buchten,Sittard-Geleen,Limburg,VBO,5.812576,51.039710
Engelbertusstraat,6,,,6122AT,Buchten,Sittard-Geleen,Limburg,VBO,5.812874,51.039547
Engelbertusstraat,7,,,6122AT,Buchten,Sittard-Geleen,Limburg,VBO,5.812662,51.039736
Engelbertusstraat,8,,,6122AT,Buchten,Sittard-Geleen,Limburg,VBO,5.813017,51.039591
Engelbertusstraat,9,,,6122AT,Buchten,Sittard-Geleen,Limburg,VBO,5.812819,51.039799
Engelbertusstraat,10,,,6122AT,Buchten,Sittard-Geleen,Limburg,VBO,5.813146,51.039645
Engelbertusstraat,11,,,6122AT,Buchten,Sittard-Geleen,Limburg,VBO,5.812905,51.039825
Engelbertusstraat,13,,,6122AT,Buchten,Sittard-Geleen,Limburg,VBO,5.813048,51.039888
Engelbertusstraat,15,,,6122AT,Buchten,Sittard-Geleen,Limburg,VBO,5.813134,51.039923
Achter de Hoven,2,,,6122BA,Buchten,Sittard-Geleen,Limburg,VBO,5.806096,51.043598
Achter de Hoven,4,,,6122BA,Buchten,Sittard-Geleen,Limburg,VBO,5.806124,51.043535
Achter de Hoven,6,,,6122BA,Buchten,Sittard-Geleen,Limburg,VBO,5.806180,51.043445
Achter de Hoven,8,,,6122BA,Buchten,Sittard-Geleen,Limburg,VBO,5.806208,51.043391
Achter de Hoven,10,,,6122BA,Buchten,Sittard-Geleen,Limburg,VBO,5.806264,51.043292
Achter de Hoven,12,,,6122BA,Buchten,Sittard-Geleen,Limburg,VBO,5.806306,51.043238
Achter de Hoven,14,,,6122BA,Buchten,Sittard-Geleen,Limburg,VBO,5.806334,51.043130
Achter de Hoven,16,,,6122BA,Buchten,Sittard-Geleen,Limburg,VBO,5.806362,51.043076
Achter de Hoven,18,,,6122BA,Buchten,Sittard-Geleen,Limburg,VBO,5.806418,51.042977
Achter de Hoven,20,,,6122BA,Buchten,Sittard-Geleen,Limburg,VBO,5.806460,51.042923
Achter de Hoven,22,,,6122BA,Buchten,Sittard-Geleen,Limburg,VBO,5.806516,51.042815
Achter de Hoven,24,,,6122BA,Buchten,Sittard-Geleen,Limburg,VBO,5.806544,51.042770
Achter de Hoven,26,,,6122BA,Buchten,Sittard-Geleen,Limburg,VBO,5.806601,51.042671
Achter de Hoven,28,,,6122BA,Buchten,Sittard-Geleen,Limburg,VBO,5.806629,51.042617
Achter de Hoven,30,,,6122BA,Buchten,Sittard-Geleen,Limburg,VBO,5.806685,51.042518
Achter de Hoven,32,,,6122BA,Buchten,Sittard-Geleen,Limburg,VBO,5.806713,51.042473
Achter de Hoven,34,,,6122BA,Buchten,Sittard-Geleen,Limburg,VBO,5.806755,51.042356
Achter de Hoven,36,,,6122BA,Buchten,Sittard-Geleen,Limburg,VBO,5.806782,51.042293
Achter de Hoven,38,,,6122BA,Buchten,Sittard-Geleen,Limburg,VBO,5.806853,51.042184
Achter de Hoven,40,,,6122BA,Buchten,Sittard-Geleen,Limburg,VBO,5.806881,51.042130
Achter de Hoven,42,,,6122BA,Buchten,Sittard-Geleen,Limburg,VBO,5.806937,51.042022
Achter de Hoven,44,,,6122BA,Buchten,Sittard-Geleen,Limburg,VBO,5.806965,51.041977
Achter de Hoven,46,,,6122BA,Buchten,Sittard-Geleen,Limburg,VBO,5.807021,51.041878
Achter de Hoven,48,,,6122BA,Buchten,Sittard-Geleen,Limburg,VBO,5.807049,51.041833
Achter de Hoven,50,,,6122BB,Buchten,Sittard-Geleen,Limburg,VBO,5.807105,51.041734
Achter de Hoven,52,,,6122BB,Buchten,Sittard-Geleen,Limburg,VBO,5.807148,51.041680
Achter de Hoven,54,,,6122BB,Buchten,Sittard-Geleen,Limburg,VBO,5.807204,51.041590
Achter de Hoven,56,,,6122BB,Buchten,Sittard-Geleen,Limburg,VBO,5.807232,51.041536
Achter de Hoven,58,,,6122BB,Buchten,Sittard-Geleen,Limburg,VBO,5.807288,51.041437
Achter de Hoven,60,,,6122BB,Buchten,Sittard-Geleen,Limburg,VBO,5.807316,51.041392
Achter de Hoven,62,,,6122BB,Buchten,Sittard-Geleen,Limburg,VBO,5.807457,51.041247
Achter de Hoven,64,,,6122BB,Buchten,Sittard-Geleen,Limburg,VBO,5.807500,51.041193
Achter de Hoven,66,,,6122BB,Buchten,Sittard-Geleen,Limburg,VBO,5.807570,51.041103
Achter de Hoven,68,,,6122BB,Buchten,Sittard-Geleen,Limburg,VBO,5.807612,51.041049
Achter de Hoven,70,,,6122BB,Buchten,Sittard-Geleen,Limburg,VBO,5.807683,51.040950
Achter de Hoven,72,,,6122BB,Buchten,Sittard-Geleen,Limburg,VBO,5.807711,51.040896
Achter de Hoven,74,,,6122BB,Buchten,Sittard-Geleen,Limburg,VBO,5.807781,51.040797
Achter de Hoven,76,,,6122BB,Buchten,Sittard-Geleen,Limburg,VBO,5.807823,51.040743
Achter de Hoven,78,,,6122BB,Buchten,Sittard-Geleen,Limburg,VBO,5.807894,51.040644
Achter de Hoven,80,,,6122BB,Buchten,Sittard-Geleen,Limburg,VBO,5.807936,51.040589
Achter de Hoven,82,,,6122BB,Buchten,Sittard-Geleen,Limburg,VBO,5.807992,51.040499
Achter de Hoven,84,,,6122BB,Buchten,Sittard-Geleen,Limburg,VBO,5.808035,51.040445
Achter de Hoven,1,,,6122BC,Buchten,Sittard-Geleen,Limburg,VBO,5.806381,51.043624
Achter de Hoven,3,A,,6122BC,Buchten,Sittard-Geleen,Limburg,VBO,5.807008,51.043622
Achter de Hoven,3,,,6122BC,Buchten,Sittard-Geleen,Limburg,VBO,5.806409,51.043570
Achter de Hoven,5,,,6122BC,Buchten,Sittard-Geleen,Limburg,VBO,5.806536,51.043435
Achter de Hoven,7,,,6122BC,Buchten,Sittard-Geleen,Limburg,VBO,5.806564,51.043372
Achter de Hoven,9,,,6122BC,Buchten,Sittard-Geleen,Limburg,VBO,5.806634,51.043264
Achter de Hoven,11,,,6122BC,Buchten,Sittard-Geleen,Limburg,VBO,5.806662,51.043210
Achter de Hoven,21,,,6122BC,Buchten,Sittard-Geleen,Limburg,VBO,5.806845,51.042931
Achter de Hoven,23,,,6122BC,Buchten,Sittard-Geleen,Limburg,VBO,5.806916,51.042831
Achter de Hoven,27,,,6122BC,Buchten,Sittard-Geleen,Limburg,VBO,5.807042,51.042615
Achter de Hoven,29,,,6122BC,Buchten,Sittard-Geleen,Limburg,VBO,5.807098,51.042516
Achter de Hoven,31,,,6122BC,Buchten,Sittard-Geleen,Limburg,VBO,5.807168,51.042399
Achter de Hoven,33,,,6122BC,Buchten,Sittard-Geleen,Limburg,VBO,5.807225,51.042300
Achter de Hoven,35,,,6122BC,Buchten,Sittard-Geleen,Limburg,VBO,5.807491,51.041805
Achter de Hoven,37,,,6122BC,Buchten,Sittard-Geleen,Limburg,VBO,5.807561,51.041678
Achter de Hoven,41,,,6122BD,Buchten,Sittard-Geleen,Limburg,VBO,5.807786,51.041318
Achter de Hoven,43,,,6122BD,Buchten,Sittard-Geleen,Limburg,VBO,5.807842,51.041192
Achter de Hoven,45,,,6122BD,Buchten,Sittard-Geleen,Limburg,VBO,5.807884,51.041147
Achter de Hoven,47,,,6122BD,Buchten,Sittard-Geleen,Limburg,VBO,5.807969,51.041039
Achter de Hoven,49,,,6122BD,Buchten,Sittard-Geleen,Limburg,VBO,5.808039,51.040949
Achter de Hoven,51,,,6122BD,Buchten,Sittard-Geleen,Limburg,VBO,5.808138,51.040849
Achter de Hoven,55,,,6122BD,Buchten,Sittard-Geleen,Limburg,VBO,5.808222,51.040723
Achter de Hoven,57,,,6122BD,Buchten,Sittard-Geleen,Limburg,VBO,5.808265,51.040669
Achter de Hoven,59,,,6122BD,Buchten,Sittard-Geleen,Limburg,VBO,5.808321,51.040579
Achter de Hoven,61,,,6122BD,Buchten,Sittard-Geleen,Limburg,VBO,5.808363,51.040525
Achter de Hoven,63,,,6122BD,Buchten,Sittard-Geleen,Limburg,VBO,5.808405,51.040426
Achter de Hoven,65,,,6122BD,Buchten,Sittard-Geleen,Limburg,VBO,5.808433,51.040372
Achter de Hoven,67,A,,6122BD,Buchten,Sittard-Geleen,Limburg,VBO,5.808531,51.040210
Achter de Hoven,67,,,6122BD,Buchten,Sittard-Geleen,Limburg,VBO,5.808461,51.040309
Achter de Hoven,69,,,6122BD,Buchten,Sittard-Geleen,Limburg,VBO,5.808602,51.040120
Buchter Markt,2,A,,6122BE,Buchten,Sittard-Geleen,Limburg,VBO,5.808182,51.042526
Buchter Markt,2,B,,6122BE,Buchten,Sittard-Geleen,Limburg,VBO,5.808121,51.042515
Buchter Markt,2,C,,6122BE,Buchten,Sittard-Geleen,Limburg,VBO,5.808075,51.042506
Buchter Markt,2,D,,6122BE,Buchten,Sittard-Geleen,Limburg,VBO,5.808014,51.042497
Buchter Markt,2,E,,6122BE,Buchten,Sittard-Geleen,Limburg,VBO,5.808200,51.042556
Buchter Markt,2,F,,6122BE,Buchten,Sittard-Geleen,Limburg,VBO,5.808146,51.042548
Buchter Markt,2,G,,6122BE,Buchten,Sittard-Geleen,Limburg,VBO,5.808088,51.042542
Buchter Markt,2,H,,6122BE,Buchten,Sittard-Geleen,Limburg,VBO,5.808036,51.042531
Buchter Markt,2,J,,6122BE,Buchten,Sittard-Geleen,Limburg,VBO,5.807973,51.042520
Buchter Markt,2,,,6122BE,Buchten,Sittard-Geleen,Limburg,VBO,5.807767,51.042361
Buchter Markt,4,,,6122BE,Buchten,Sittard-Geleen,Limburg,VBO,5.807553,51.042308
Oude Steegweg,1,,,6122BG,Buchten,Sittard-Geleen,Limburg,VBO,5.808458,51.041540
Oude Steegweg,2,,,6122BG,Buchten,Sittard-Geleen,Limburg,VBO,5.808074,51.041605
Oude Steegweg,4,,,6122BG,Buchten,Sittard-Geleen,Limburg,VBO,5.807859,51.041552
Oude Steegweg,6,,,6122BG,Buchten,Sittard-Geleen,Limburg,VBO,5.807673,51.041498
Pastoor Jacobsstraat,1,,,6122BH,Buchten,Sittard-Geleen,Limburg,VBO,5.810384,51.041677
Pastoor Jacobsstraat,2,,,6122BH,Buchten,Sittard-Geleen,Limburg,VBO,5.810043,51.041822
Pastoor Jacobsstraat,3,,,6122BH,Buchten,Sittard-Geleen,Limburg,VBO,5.810313,51.041659
Pastoor Jacobsstraat,4,,,6122BH,Buchten,Sittard-Geleen,Limburg,VBO,5.809886,51.041778
Pastoor Jacobsstraat,5,,,6122BH,Buchten,Sittard-Geleen,Limburg,VBO,5.810170,51.041624
Pastoor Jacobsstraat,6,,,6122BH,Buchten,Sittard-Geleen,Limburg,VBO,5.809700,51.041743
Pastoor Jacobsstraat,7,,,6122BH,Buchten,Sittard-Geleen,Limburg,VBO,5.810113,51.041606
Pastoor Jacobsstraat,8,,,6122BH,Buchten,Sittard-Geleen,Limburg,VBO,5.809515,51.041689
Pastoor Jacobsstraat,9,,,6122BH,Buchten,Sittard-Geleen,Limburg,VBO,5.809955,51.041562
Pastoor Jacobsstraat,10,,,6122BH,Buchten,Sittard-Geleen,Limburg,VBO,5.809415,51.041663
Pastoor Jacobsstraat,11,,,6122BH,Buchten,Sittard-Geleen,Limburg,VBO,5.809898,51.041544
Pastoor Jacobsstraat,13,,,6122BH,Buchten,Sittard-Geleen,Limburg,VBO,5.809755,51.041509
Pastoor Jacobsstraat,15,,,6122BH,Buchten,Sittard-Geleen,Limburg,VBO,5.809684,51.041491
Bettinumstraat,48,,,6122BJ,Buchten,Sittard-Geleen,Limburg,VBO,5.809602,51.043424
Bettinumstraat,50,,,6122BJ,Buchten,Sittard-Geleen,Limburg,VBO,5.809644,51.043370
Bettinumstraat,52,,,6122BJ,Buchten,Sittard-Geleen,Limburg,VBO,5.809772,51.043288
Bettinumstraat,54,,,6122BJ,Buchten,Sittard-Geleen,Limburg,VBO,5.809814,51.043234
Bettinumstraat,56,,,6122BJ,Buchten,Sittard-Geleen,Limburg,VBO,5.809884,51.043144
Bettinumstraat,58,,,6122BJ,Buchten,Sittard-Geleen,Limburg,VBO,5.809912,51.043090
Bettinumstraat,60,,,6122BJ,Buchten,Sittard-Geleen,Limburg,VBO,5.809997,51.042973
Bettinumstraat,62,,,6122BJ,Buchten,Sittard-Geleen,Limburg,VBO,5.809823,51.042695
Bettinumstraat,64,,,6122BJ,Buchten,Sittard-Geleen,Limburg,VBO,5.809865,51.042641
Bettinumstraat,66,,,6122BJ,Buchten,Sittard-Geleen,Limburg,VBO,5.809936,51.042542
Bettinumstraat,68,,,6122BJ,Buchten,Sittard-Geleen,Limburg,VBO,5.809964,51.042497
Bettinumstraat,70,,,6122BJ,Buchten,Sittard-Geleen,Limburg,VBO,5.810006,51.042398
Bettinumstraat,72,,,6122BJ,Buchten,Sittard-Geleen,Limburg,VBO,5.810034,51.042344
Bettinumstraat,74,,,6122BJ,Buchten,Sittard-Geleen,Limburg,VBO,5.810119,51.042253
Bettinumstraat,76,,,6122BJ,Buchten,Sittard-Geleen,Limburg,VBO,5.810147,51.042199
Bettinumstraat,78,,,6122BJ,Buchten,Sittard-Geleen,Limburg,VBO,5.810188,51.042100
Bettinumstraat,80,,,6122BJ,Buchten,Sittard-Geleen,Limburg,VBO,5.810231,51.042046
Bettinumstraat,82,,,6122BJ,Buchten,Sittard-Geleen,Limburg,VBO,5.810315,51.041947
Bettinumstraat,84,,,6122BJ,Buchten,Sittard-Geleen,Limburg,VBO,5.810343,51.041893
Bettinumstraat,86,,,6122BK,Buchten,Sittard-Geleen,Limburg,VBO,5.810611,51.041542
Bettinumstraat,88,,,6122BK,Buchten,Sittard-Geleen,Limburg,VBO,5.810639,51.041505
Bettinumstraat,90,,,6122BK,Buchten,Sittard-Geleen,Limburg,VBO,5.810766,51.041343
Bettinumstraat,92,,,6122BK,Buchten,Sittard-Geleen,Limburg,VBO,5.810808,51.041289
Bettinumstraat,94,,,6122BK,Buchten,Sittard-Geleen,Limburg,VBO,5.810850,51.041145
Bettinumstraat,96,,,6122BK,Buchten,Sittard-Geleen,Limburg,VBO,5.810906,51.041019
Bettinumstraat,106,,,6122BK,Buchten,Sittard-Geleen,Limburg,VBO,5.811131,51.040713
Bettinumstraat,108,,,6122BK,Buchten,Sittard-Geleen,Limburg,VBO,5.811272,51.040523
Bettinumstraat,19,,,6122BL,Buchten,Sittard-Geleen,Limburg,VBO,5.810227,51.043179
Bettinumstraat,21,,,6122BL,Buchten,Sittard-Geleen,Limburg,VBO,5.810311,51.043062
Bettinumstraat,23,,,6122BL,Buchten,Sittard-Geleen,Limburg,VBO,5.810339,51.043008
Bettinumstraat,25,,,6122BL,Buchten,Sittard-Geleen,Limburg,VBO,5.810424,51.042891
Bettinumstraat,27,A,,6122BL,Buchten,Sittard-Geleen,Limburg,VBO,5.810935,51.042610
Bettinumstraat,27,,,6122BL,Buchten,Sittard-Geleen,Limburg,VBO,5.810452,51.042837
Bettinumstraat,29,A,,6122BL,Buchten,Sittard-Geleen,Limburg,VBO,5.810838,51.042952
Bettinumstraat,29,B,,6122BL,Buchten,Sittard-Geleen,Limburg,VBO,5.811057,51.041998
Bettinumstraat,29,C,,6122BL,Buchten,Sittard-Geleen,Limburg,VBO,5.811156,51.041899
Bettinumstraat,29,D,,6122BL,Buchten,Sittard-Geleen,Limburg,VBO,5.811198,51.041845
Bettinumstraat,29,E,,6122BL,Buchten,Sittard-Geleen,Limburg,VBO,5.811255,51.041737
Bettinumstraat,29,,,6122BL,Buchten,Sittard-Geleen,Limburg,VBO,5.810739,51.043078
Bettinumstraat,31,,,6122BL,Buchten,Sittard-Geleen,Limburg,VBO,5.811348,51.041062
Bettinumstraat,33,,,6122BL,Buchten,Sittard-Geleen,Limburg,VBO,5.811404,51.040972
Bettinumstraat,35,,,6122BL,Buchten,Sittard-Geleen,Limburg,VBO,5.811447,51.040918
Bettinumstraat,37,,,6122BL,Buchten,Sittard-Geleen,Limburg,VBO,5.811503,51.040810
Bettinumstraat,39,,,6122BL,Buchten,Sittard-Geleen,Limburg,VBO,5.811573,51.040711
Sint Catharinahof,2,,,6122BM,Buchten,Sittard-Geleen,Limburg,VBO,5.809809,51.044259
Sint Catharinahof,4,,,6122BM,Buchten,Sittard-Geleen,Limburg,VBO,5.809879,51.044160
Sint Catharinahof,6,,,6122BM,Buchten,Sittard-Geleen,Limburg,VBO,5.809950,51.044061
Sint Catharinahof,8,,,6122BM,Buchten,Sittard-Geleen,Limburg,VBO,5.810006,51.043962
Sint Catharinahof,1,,,6122BN,Buchten,Sittard-Geleen,Limburg,VBO,5.810109,51.044330
Sint Catharinahof,3,,,6122BN,Buchten,Sittard-Geleen,Limburg,VBO,5.810236,51.044150
Sint Catharinahof,5,,,6122BN,Buchten,Sittard-Geleen,Limburg,VBO,5.810279,51.044159
Sint Catharinahof,7,,,6122BN,Buchten,Sittard-Geleen,Limburg,VBO,5.810278,51.044096
Sint Catharinahof,9,,,6122BN,Buchten,Sittard-Geleen,Limburg,VBO,5.810307,51.044104
Sint Catharinahof,11,,,6122BN,Buchten,Sittard-Geleen,Limburg,VBO,5.810320,51.044033
Sint Catharinahof,13,,,6122BN,Buchten,Sittard-Geleen,Limburg,VBO,5.810349,51.044041
Sint Catharinahof,15,,,6122BN,Buchten,Sittard-Geleen,Limburg,VBO,5.810363,51.043978
Sint Catharinahof,17,,,6122BN,Buchten,Sittard-Geleen,Limburg,VBO,5.810391,51.043987
Sint Catharinahof,19,,,6122BN,Buchten,Sittard-Geleen,Limburg,VBO,5.810391,51.043924
Sint Catharinahof,21,,,6122BN,Buchten,Sittard-Geleen,Limburg,VBO,5.810433,51.043933
Sint Catharinahof,23,,,6122BN,Buchten,Sittard-Geleen,Limburg,VBO,5.810504,51.043897
Sint Catharinahof,25,,,6122BN,Buchten,Sittard-Geleen,Limburg,VBO,5.810547,51.043906
Sint Catharinahof,27,,,6122BN,Buchten,Sittard-Geleen,Limburg,VBO,5.810547,51.043843
Sint Catharinahof,29,,,6122BN,Buchten,Sittard-Geleen,Limburg,VBO,5.810575,51.043852
Sint Catharinahof,31,,,6122BN,Buchten,Sittard-Geleen,Limburg,VBO,5.810575,51.043789
Sint Catharinahof,33,,,6122BN,Buchten,Sittard-Geleen,Limburg,VBO,5.810618,51.043798
Sint Catharinahof,35,,,6122BN,Buchten,Sittard-Geleen,Limburg,VBO,5.810617,51.043735
Sint Catharinahof,37,,,6122BN,Buchten,Sittard-Geleen,Limburg,VBO,5.810646,51.043744
Sint Catharinahof,39,,,6122BN,Buchten,Sittard-Geleen,Limburg,VBO,5.810645,51.043690
Sint Catharinahof,41,,,6122BN,Buchten,Sittard-Geleen,Limburg,VBO,5.810688,51.043699
Sint Catharinahof,43,,,6122BP,Buchten,Sittard-Geleen,Limburg,VBO,5.810119,51.043800
Sint Catharinahof,45,,,6122BP,Buchten,Sittard-Geleen,Limburg,VBO,5.809976,51.043764
Sint Catharinahof,47,,,6122BP,Buchten,Sittard-Geleen,Limburg,VBO,5.810133,51.043782
Sint Catharinahof,49,,,6122BP,Buchten,Sittard-Geleen,Limburg,VBO,5.809990,51.043746
Sint Catharinahof,51,,,6122BP,Buchten,Sittard-Geleen,Limburg,VBO,5.810147,51.043763
Sint Catharinahof,53,,,6122BP,Buchten,Sittard-Geleen,Limburg,VBO,5.810004,51.043728
Sint Catharinahof,55,,,6122BP,Buchten,Sittard-Geleen,Limburg,VBO,5.809876,51.043738
Sint Catharinahof,57,,,6122BP,Buchten,Sittard-Geleen,Limburg,VBO,5.809733,51.043702
Sint Catharinahof,59,,,6122BP,Buchten,Sittard-Geleen,Limburg,VBO,5.809890,51.043711
Sint Catharinahof,61,,,6122BP,Buchten,Sittard-Geleen,Limburg,VBO,5.809761,51.043675
Sint Catharinahof,63,,,6122BP,Buchten,Sittard-Geleen,Limburg,VBO,5.809904,51.043692
Sint Catharinahof,65,,,6122BP,Buchten,Sittard-Geleen,Limburg,VBO,5.809775,51.043657
Sint Catharinahof,67,,,6122BP,Buchten,Sittard-Geleen,Limburg,VBO,5.809632,51.043666
Sint Catharinahof,69,,,6122BP,Buchten,Sittard-Geleen,Limburg,VBO,5.809504,51.043631
Sint Catharinahof,71,,,6122BP,Buchten,Sittard-Geleen,Limburg,VBO,5.809647,51.043648
Sint Catharinahof,73,,,6122BP,Buchten,Sittard-Geleen,Limburg,VBO,5.809518,51.043613
Sint Catharinahof,75,,,6122BP,Buchten,Sittard-Geleen,Limburg,VBO,5.809661,51.043630
Sint Catharinahof,77,,,6122BP,Buchten,Sittard-Geleen,Limburg,VBO,5.809532,51.043586
Pastoor Reijnenstraat,2,,,6122BR,Buchten,Sittard-Geleen,Limburg,VBO,5.810213,51.043242
Pastoor Reijnenstraat,4,,,6122BR,Buchten,Sittard-Geleen,Limburg,VBO,5.810556,51.043340
Pastoor Reijnenstraat,6,,,6122BR,Buchten,Sittard-Geleen,Limburg,VBO,5.810642,51.043366
Pastoor Reijnenstraat,8,,,6122BR,Buchten,Sittard-Geleen,Limburg,VBO,5.810799,51.043411
Pastoor Reijnenstraat,10,,,6122BR,Buchten,Sittard-Geleen,Limburg,VBO,5.810885,51.043437
Pastoor Foragiënstraat,2,,,6122BS,Buchten,Sittard-Geleen,Limburg,VBO,5.812249,51.041356
Pastoor Foragiënstraat,4,,,6122BS,Buchten,Sittard-Geleen,Limburg,VBO,5.812305,51.041266
Pastoor Foragiënstraat,6,,,6122BS,Buchten,Sittard-Geleen,Limburg,VBO,5.812277,51.041257
Pastoor Foragiënstraat,8,,,6122BS,Buchten,Sittard-Geleen,Limburg,VBO,5.812206,51.041347
Pastoor Foragiënstraat,10,,,6122BS,Buchten,Sittard-Geleen,Limburg,VBO,5.812248,51.041248
Pastoor Foragiënstraat,12,,,6122BS,Buchten,Sittard-Geleen,Limburg,VBO,5.812178,51.041338
Pastoor Foragiënstraat,14,,,6122BS,Buchten,Sittard-Geleen,Limburg,VBO,5.812376,51.041202
Pastoor Foragiënstraat,16,,,6122BS,Buchten,Sittard-Geleen,Limburg,VBO,5.812432,51.041112
Pastoor Foragiënstraat,18,,,6122BS,Buchten,Sittard-Geleen,Limburg,VBO,5.812333,51.041185
Pastoor Foragiënstraat,20,,,6122BS,Buchten,Sittard-Geleen,Limburg,VBO,5.812404,51.041104
Pastoor Foragiënstraat,22,,,6122BS,Buchten,Sittard-Geleen,Limburg,VBO,5.812304,51.041176
Pastoor Foragiënstraat,24,,,6122BS,Buchten,Sittard-Geleen,Limburg,VBO,5.812375,51.041095
Pastoor Foragiënstraat,26,,,6122BS,Buchten,Sittard-Geleen,Limburg,VBO,5.812489,51.041049
Pastoor Foragiënstraat,28,,,6122BS,Buchten,Sittard-Geleen,Limburg,VBO,5.812545,51.040968
Pastoor Foragiënstraat,30,,,6122BS,Buchten,Sittard-Geleen,Limburg,VBO,5.812460,51.041040
Pastoor Foragiënstraat,32,,,6122BS,Buchten,Sittard-Geleen,Limburg,VBO,5.812516,51.040959
Pastoor Foragiënstraat,34,,,6122BS,Buchten,Sittard-Geleen,Limburg,VBO,5.812417,51.041032
Pastoor Foragiënstraat,36,,,6122BS,Buchten,Sittard-Geleen,Limburg,VBO,5.812488,51.040950
Kroedwienstraat,1,,,6122BT,Buchten,Sittard-Geleen,Limburg,VBO,5.811459,51.042302
Kroedwienstraat,3,A,,6122BT,Buchten,Sittard-Geleen,Limburg,VBO,5.811273,51.042222
Kroedwienstraat,3,,,6122BT,Buchten,Sittard-Geleen,Limburg,VBO,5.811359,51.042249
Kroedwienstraat,5,,,6122BT,Buchten,Sittard-Geleen,Limburg,VBO,5.811001,51.042115
Burg. Lebensstraat,1,,,6122BV,Buchten,Sittard-Geleen,Limburg,VBO,5.811535,51.041242
Burg. Lebensstraat,2,,,6122BV,Buchten,Sittard-Geleen,Limburg,VBO,5.812081,51.041671
Burg. Lebensstraat,3,,,6122BV,Buchten,Sittard-Geleen,Limburg,VBO,5.811363,51.041170
Burg. Lebensstraat,4,,,6122BV,Buchten,Sittard-Geleen,Limburg,VBO,5.811995,51.041644
Burg. Lebensstraat,6,,,6122BV,Buchten,Sittard-Geleen,Limburg,VBO,5.811852,51.041582
Burg. Lebensstraat,8,,,6122BV,Buchten,Sittard-Geleen,Limburg,VBO,5.811780,51.041564
Burg. Lebensstraat,10,,,6122BV,Buchten,Sittard-Geleen,Limburg,VBO,5.811623,51.041520
Burg. Lebensstraat,12,,,6122BV,Buchten,Sittard-Geleen,Limburg,VBO,5.811537,51.041493
Burg. Lebensstraat,14,,,6122BV,Buchten,Sittard-Geleen,Limburg,VBO,5.811152,51.041414
Burg. Lebensstraat,16,,,6122BV,Buchten,Sittard-Geleen,Limburg,VBO,5.811081,51.041504
Burg. Lebensstraat,18,,,6122BV,Buchten,Sittard-Geleen,Limburg,VBO,5.811123,51.041405
Burg. Lebensstraat,20,,,6122BV,Buchten,Sittard-Geleen,Limburg,VBO,5.811053,51.041495
Burg. Lebensstraat,22,,,6122BV,Buchten,Sittard-Geleen,Limburg,VBO,5.811080,51.041396
Burg. Lebensstraat,24,,,6122BV,Buchten,Sittard-Geleen,Limburg,VBO,5.811024,51.041486
Burg. Lebensstraat,26,,,6122BV,Buchten,Sittard-Geleen,Limburg,VBO,5.811039,51.041558
Burg. Lebensstraat,28,,,6122BV,Buchten,Sittard-Geleen,Limburg,VBO,5.810969,51.041648
Burg. Lebensstraat,30,,,6122BV,Buchten,Sittard-Geleen,Limburg,VBO,5.811010,51.041549
Burg. Lebensstraat,32,,,6122BV,Buchten,Sittard-Geleen,Limburg,VBO,5.810940,51.041639
Burg. Lebensstraat,34,,,6122BV,Buchten,Sittard-Geleen,Limburg,VBO,5.810982,51.041540
Burg. Lebensstraat,36,,,6122BV,Buchten,Sittard-Geleen,Limburg,VBO,5.810911,51.041630
Pastoor Petersstraat,1,,,6122BW,Buchten,Sittard-Geleen,Limburg,VBO,5.811721,51.041277
Pastoor Petersstraat,3,,,6122BW,Buchten,Sittard-Geleen,Limburg,VBO,5.811833,51.041106
Pastoor Petersstraat,5,,,6122BW,Buchten,Sittard-Geleen,Limburg,VBO,5.811876,51.041052
Pastoor Petersstraat,7,,,6122BW,Buchten,Sittard-Geleen,Limburg,VBO,5.811946,51.040952
Pastoor Petersstraat,9,,,6122BW,Buchten,Sittard-Geleen,Limburg,VBO,5.811988,51.040898
Pastoor Petersstraat,11,,,6122BW,Buchten,Sittard-Geleen,Limburg,VBO,5.812101,51.040799
Wethouder Gijsenstraat,6,,,6122BX,Buchten,Sittard-Geleen,Limburg,VBO,5.809037,51.042509
Wethouder Gijsenstraat,8,,,6122BX,Buchten,Sittard-Geleen,Limburg,VBO,5.809237,51.042553
Wethouder Gijsenstraat,10,,,6122BX,Buchten,Sittard-Geleen,Limburg,VBO,5.809337,51.042571
Wethouder Gijsenstraat,11,,,6122BX,Buchten,Sittard-Geleen,Limburg,VBO,5.809354,51.042823
Wethouder Gijsenstraat,12,,,6122BX,Buchten,Sittard-Geleen,Limburg,VBO,5.809480,51.042606
Wethouder Gijsenstraat,13,,,6122BX,Buchten,Sittard-Geleen,Limburg,VBO,5.809440,51.042840
Wethouder Gijsenstraat,14,,,6122BX,Buchten,Sittard-Geleen,Limburg,VBO,5.809566,51.042624
Wethouder Gijsenstraat,15,,,6122BX,Buchten,Sittard-Geleen,Limburg,VBO,5.809597,51.042876
Wethouder Gijsenstraat,17,,,6122BX,Buchten,Sittard-Geleen,Limburg,VBO,5.809683,51.042902
Dorpstraat,2,A,,6122CA,Buchten,Sittard-Geleen,Limburg,VBO,5.809330,51.046454
Dorpstraat,2,,,6122CA,Buchten,Sittard-Geleen,Limburg,VBO,5.809402,51.046472
Dorpstraat,4,,,6122CA,Buchten,Sittard-Geleen,Limburg,VBO,5.809144,51.046383
Dorpstraat,6,,,6122CA,Buchten,Sittard-Geleen,Limburg,VBO,5.809015,51.046338
Dorpstraat,8,A,,6122CA,Buchten,Sittard-Geleen,Limburg,VBO,5.808858,51.046321
Dorpstraat,8,B,,6122CA,Buchten,Sittard-Geleen,Limburg,VBO,5.808844,51.046339
Dorpstraat,8,,,6122CA,Buchten,Sittard-Geleen,Limburg,VBO,5.808872,51.046303
Dorpstraat,10,A,,6122CA,Buchten,Sittard-Geleen,Limburg,VBO,5.808772,51.046294
Dorpstraat,10,B,,6122CA,Buchten,Sittard-Geleen,Limburg,VBO,5.808758,51.046321
Dorpstraat,10,,,6122CA,Buchten,Sittard-Geleen,Limburg,VBO,5.808801,51.046276
Dorpstraat,12,A,,6122CA,Buchten,Sittard-Geleen,Limburg,VBO,5.808715,51.046232
Dorpstraat,12,B,,6122CA,Buchten,Sittard-Geleen,Limburg,VBO,5.808687,51.046250
Dorpstraat,12,,,6122CA,Buchten,Sittard-Geleen,Limburg,VBO,5.808729,51.046214
Dorpstraat,18,,,6122CA,Buchten,Sittard-Geleen,Limburg,VBO,5.808586,51.046151
Dorpstraat,20,,,6122CA,Buchten,Sittard-Geleen,Limburg,VBO,5.808500,51.046107
Dorpstraat,22,,,6122CB,Buchten,Sittard-Geleen,Limburg,VBO,5.808328,51.046044
Dorpstraat,24,,,6122CB,Buchten,Sittard-Geleen,Limburg,VBO,5.808197,51.045784
Dorpstraat,26,,,6122CB,Buchten,Sittard-Geleen,Limburg,VBO,5.807982,51.045587
Dorpstraat,28,,,6122CB,Buchten,Sittard-Geleen,Limburg,VBO,5.807782,51.045552
Dorpstraat,30,,,6122CB,Buchten,Sittard-Geleen,Limburg,VBO,5.807481,51.045418
Dorpstraat,32,,,6122CB,Buchten,Sittard-Geleen,Limburg,VBO,5.807379,51.045194
Dorpstraat,34,A,,6122CB,Buchten,Sittard-Geleen,Limburg,VBO,5.807250,51.045077
Dorpstraat,34,,,6122CB,Buchten,Sittard-Geleen,Limburg,VBO,5.807250,51.045131
Dorpstraat,40,,,6122CB,Buchten,Sittard-Geleen,Limburg,VBO,5.807247,51.044745
Dorpstraat,42,,,6122CB,Buchten,Sittard-Geleen,Limburg,VBO,5.807317,51.044592
Dorpstraat,44,,,6122CB,Buchten,Sittard-Geleen,Limburg,VBO,5.807344,51.044466
Dorpstraat,46,,,6122CB,Buchten,Sittard-Geleen,Limburg,VBO,5.807399,51.044259
Dorpstraat,48,A,,6122CB,Buchten,Sittard-Geleen,Limburg,VBO,5.807412,51.044163
Dorpstraat,48,,,6122CB,Buchten,Sittard-Geleen,Limburg,VBO,5.807470,51.044160
Dorpstraat,50,A,,6122CB,Buchten,Sittard-Geleen,Limburg,VBO,5.807437,51.044113
Dorpstraat,50,B,,6122CB,Buchten,Sittard-Geleen,Limburg,VBO,5.807377,51.044110
Dorpstraat,50,,,6122CB,Buchten,Sittard-Geleen,Limburg,VBO,5.807481,51.044117
Dorpstraat,52,,,6122CB,Buchten,Sittard-Geleen,Limburg,VBO,5.807582,51.043953
Dorpstraat,56,,,6122CB,Buchten,Sittard-Geleen,Limburg,VBO,5.807723,51.043763
Dorpstraat,58,,,6122CB,Buchten,Sittard-Geleen,Limburg,VBO,5.807764,51.043655
Dorpstraat,60,A,,6122CC,Buchten,Sittard-Geleen,Limburg,VBO,5.807778,51.043538
Dorpstraat,60,,,6122CC,Buchten,Sittard-Geleen,Limburg,VBO,5.807820,51.043538
Dorpstraat,62,,,6122CC,Buchten,Sittard-Geleen,Limburg,VBO,5.807791,51.043404
Dorpstraat,64,A,,6122CC,Buchten,Sittard-Geleen,Limburg,VBO,5.807875,51.043286
Dorpstraat,64,B,,6122CC,Buchten,Sittard-Geleen,Limburg,VBO,5.807847,51.043340
Dorpstraat,64,,,6122CC,Buchten,Sittard-Geleen,Limburg,VBO,5.807890,51.043340
Dorpstraat,66,,,6122CC,Buchten,Sittard-Geleen,Limburg,VBO,5.807932,51.043250
Dorpstraat,68,,,6122CC,Buchten,Sittard-Geleen,Limburg,VBO,5.807960,51.043178
Dorpstraat,70,,,6122CC,Buchten,Sittard-Geleen,Limburg,VBO,5.808002,51.043088
Dorpstraat,72,,,6122CC,Buchten,Sittard-Geleen,Limburg,VBO,5.808043,51.042935
Dorpstraat,74,,,6122CC,Buchten,Sittard-Geleen,Limburg,VBO,5.808099,51.042836
Dorpstraat,76,,,6122CC,Buchten,Sittard-Geleen,Limburg,VBO,5.808113,51.042773
Dorpstraat,78,,,6122CC,Buchten,Sittard-Geleen,Limburg,VBO,5.808169,51.042620
Dorpstraat,82,,,6122CC,Buchten,Sittard-Geleen,Limburg,VBO,5.808206,51.041991
Dorpstraat,86,A,,6122CC,Buchten,Sittard-Geleen,Limburg,VBO,5.808361,51.041882
Dorpstraat,86,,,6122CC,Buchten,Sittard-Geleen,Limburg,VBO,5.808390,51.041891
Dorpstraat,88,,,6122CC,Buchten,Sittard-Geleen,Limburg,VBO,5.808446,51.041801
Dorpstraat,90,,,6122CC,Buchten,Sittard-Geleen,Limburg,VBO,5.808545,51.041729
Dorpstraat,92,A,,6122CC,Buchten,Sittard-Geleen,Limburg,VBO,5.808629,51.041558
Dorpstraat,92,,,6122CC,Buchten,Sittard-Geleen,Limburg,VBO,5.808658,51.041567
Dorpstraat,94,,,6122CC,Buchten,Sittard-Geleen,Limburg,VBO,5.808729,51.041494
Dorpstraat,98,,,6122CC,Buchten,Sittard-Geleen,Limburg,VBO,5.808898,51.041341
Dorpstraat,100,,,6122CC,Buchten,Sittard-Geleen,Limburg,VBO,5.809182,51.041214
Dorpstraat,102,,,6122CC,Buchten,Sittard-Geleen,Limburg,VBO,5.809281,51.041088
Dorpstraat,104,,,6122CC,Buchten,Sittard-Geleen,Limburg,VBO,5.809323,51.041034
Dorpstraat,106,,,6122CC,Buchten,Sittard-Geleen,Limburg,VBO,5.809480,51.040988
Dorpstraat,108,,,6122CC,Buchten,Sittard-Geleen,Limburg,VBO,5.809521,51.040871
Dorpstraat,110,,,6122CC,Buchten,Sittard-Geleen,Limburg,VBO,5.809649,51.040772
Dorpstraat,112,,,6122CC,Buchten,Sittard-Geleen,Limburg,VBO,5.809705,51.040691
Dorpstraat,114,,,6122CC,Buchten,Sittard-Geleen,Limburg,VBO,5.809747,51.040637
Dorpstraat,116,,,6122CC,Buchten,Sittard-Geleen,Limburg,VBO,5.809775,51.040592
Dorpstraat,118,,,6122CC,Buchten,Sittard-Geleen,Limburg,VBO,5.809860,51.040475
Dorpstraat,120,A,,6122CC,Buchten,Sittard-Geleen,Limburg,VBO,5.809973,51.040339
Dorpstraat,120,,,6122CC,Buchten,Sittard-Geleen,Limburg,VBO,5.810001,51.040294
Dorpstraat,122,,,6122CC,Buchten,Sittard-Geleen,Limburg,VBO,5.810198,51.040078
Dorpstraat,124,,,6122CC,Buchten,Sittard-Geleen,Limburg,VBO,5.810283,51.039988
Dorpstraat,126,,,6122CC,Buchten,Sittard-Geleen,Limburg,VBO,5.810382,51.039879
Dorpstraat,128,,,6122CC,Buchten,Sittard-Geleen,Limburg,VBO,5.810467,51.039780
Dorpstraat,130,,,6122CC,Buchten,Sittard-Geleen,Limburg,VBO,5.810580,51.039672
Dorpstraat,132,,,6122CC,Buchten,Sittard-Geleen,Limburg,VBO,5.810650,51.039582
Dorpstraat,134,,,6122CC,Buchten,Sittard-Geleen,Limburg,VBO,5.810749,51.039492
Dorpstraat,136,,,6122CC,Buchten,Sittard-Geleen,Limburg,VBO,5.810848,51.039383
Dorpstraat,138,,,6122CC,Buchten,Sittard-Geleen,Limburg,VBO,5.810932,51.039257
Dorpstraat,140,,,6122CC,Buchten,Sittard-Geleen,Limburg,VBO,5.810974,51.039140
Dorpstraat,142,,,6122CC,Buchten,Sittard-Geleen,Limburg,VBO,5.810987,51.039005
Dorpstraat,144,,,6122CC,Buchten,Sittard-Geleen,Limburg,VBO,5.811029,51.038888
Dorpstraat,1,,,6122CD,Buchten,Sittard-Geleen,Limburg,VBO,5.809513,51.046175
Dorpstraat,3,,,6122CD,Buchten,Sittard-Geleen,Limburg,VBO,5.809413,51.046157
Dorpstraat,5,,,6122CD,Buchten,Sittard-Geleen,Limburg,VBO,5.809241,51.046113
Dorpstraat,7,,,6122CD,Buchten,Sittard-Geleen,Limburg,VBO,5.809170,51.046086
Dorpstraat,9,,,6122CD,Buchten,Sittard-Geleen,Limburg,VBO,5.809084,51.046069
Dorpstraat,11,,,6122CD,Buchten,Sittard-Geleen,Limburg,VBO,5.808998,51.046042
Dorpstraat,13,,,6122CD,Buchten,Sittard-Geleen,Limburg,VBO,5.808883,51.045934
Dorpstraat,15,,,6122CD,Buchten,Sittard-Geleen,Limburg,VBO,5.808796,51.045791
Dorpstraat,17,,,6122CD,Buchten,Sittard-Geleen,Limburg,VBO,5.808682,51.045737
Dorpstraat,19,,,6122CD,Buchten,Sittard-Geleen,Limburg,VBO,5.808581,51.045675
Dorpstraat,21,,,6122CD,Buchten,Sittard-Geleen,Limburg,VBO,5.808467,51.045621
Dorpstraat,23,,,6122CE,Buchten,Sittard-Geleen,Limburg,VBO,5.808295,51.045550
Dorpstraat,25,,,6122CE,Buchten,Sittard-Geleen,Limburg,VBO,5.808023,51.045425
Dorpstraat,27,,,6122CE,Buchten,Sittard-Geleen,Limburg,VBO,5.807837,51.045354
Dorpstraat,29,,,6122CE,Buchten,Sittard-Geleen,Limburg,VBO,5.807676,51.044914
Dorpstraat,31,,,6122CE,Buchten,Sittard-Geleen,Limburg,VBO,5.807689,51.044707
Dorpstraat,33,,,6122CE,Buchten,Sittard-Geleen,Limburg,VBO,5.807674,51.044644
Dorpstraat,35,,,6122CE,Buchten,Sittard-Geleen,Limburg,VBO,5.807544,51.044546
Dorpstraat,37,,,6122CE,Buchten,Sittard-Geleen,Limburg,VBO,5.807658,51.044456
Dorpstraat,39,A,,6122CE,Buchten,Sittard-Geleen,Limburg,VBO,5.807755,51.044222
Dorpstraat,39,B,,6122CE,Buchten,Sittard-Geleen,Limburg,VBO,5.807699,51.044303
Dorpstraat,39,C,,6122CE,Buchten,Sittard-Geleen,Limburg,VBO,5.807826,51.044158
Dorpstraat,39,D,,6122CE,Buchten,Sittard-Geleen,Limburg,VBO,5.807784,51.044222
Dorpstraat,39,E,,6122CE,Buchten,Sittard-Geleen,Limburg,VBO,5.807728,51.044312
Dorpstraat,39,F,,6122CE,Buchten,Sittard-Geleen,Limburg,VBO,5.807855,51.044167
Dorpstraat,39,G,,6122CE,Buchten,Sittard-Geleen,Limburg,VBO,5.807771,51.044320
Dorpstraat,39,,,6122CE,Buchten,Sittard-Geleen,Limburg,VBO,5.807783,51.044159
Dorpstraat,41,,,6122CE,Buchten,Sittard-Geleen,Limburg,VBO,5.807966,51.043843
Dorpstraat,43,,,6122CE,Buchten,Sittard-Geleen,Limburg,VBO,5.807994,51.043789
Dorpstraat,45,A,,6122CE,Buchten,Sittard-Geleen,Limburg,VBO,5.808050,51.043690
Dorpstraat,45,,,6122CE,Buchten,Sittard-Geleen,Limburg,VBO,5.808022,51.043735
Dorpstraat,47,,,6122CE,Buchten,Sittard-Geleen,Limburg,VBO,5.808035,51.043600
Dorpstraat,49,,,6122CE,Buchten,Sittard-Geleen,Limburg,VBO,5.808091,51.043519
Dorpstraat,51,,,6122CE,Buchten,Sittard-Geleen,Limburg,VBO,5.808461,51.043473
Dorpstraat,53,A,,6122CE,Buchten,Sittard-Geleen,Limburg,VBO,5.808289,51.043330
Dorpstraat,53,,,6122CE,Buchten,Sittard-Geleen,Limburg,VBO,5.808246,51.043330
Dorpstraat,55,,,6122CE,Buchten,Sittard-Geleen,Limburg,VBO,5.808231,51.043204
Dorpstraat,57,A,,6122CE,Buchten,Sittard-Geleen,Limburg,VBO,5.808273,51.043141
Dorpstraat,57,,,6122CE,Buchten,Sittard-Geleen,Limburg,VBO,5.808230,51.043141
Dorpstraat,59,,,6122CE,Buchten,Sittard-Geleen,Limburg,VBO,5.808300,51.043015
Dorpstraat,61,A,,6122CE,Buchten,Sittard-Geleen,Limburg,VBO,5.808334,51.042908
Dorpstraat,61,B,,6122CE,Buchten,Sittard-Geleen,Limburg,VBO,5.808352,51.042921
Dorpstraat,61,,,6122CE,Buchten,Sittard-Geleen,Limburg,VBO,5.808321,51.042903
Dorpstraat,63,,,6122CG,Buchten,Sittard-Geleen,Limburg,VBO,5.808384,51.042817
Dorpstraat,65,,,6122CG,Buchten,Sittard-Geleen,Limburg,VBO,5.808511,51.042691
Dorpstraat,67,,,6122CG,Buchten,Sittard-Geleen,Limburg,VBO,5.808553,51.042619
Dorpstraat,69,A,,6122CG,Buchten,Sittard-Geleen,Limburg,VBO,5.808609,51.042412
Dorpstraat,69,,,6122CG,Buchten,Sittard-Geleen,Limburg,VBO,5.808566,51.042412
Dorpstraat,71,,,6122CG,Buchten,Sittard-Geleen,Limburg,VBO,5.808636,51.042286
Dorpstraat,73,,,6122CG,Buchten,Sittard-Geleen,Limburg,VBO,5.808663,51.042160
Dorpstraat,75,,,6122CG,Buchten,Sittard-Geleen,Limburg,VBO,5.808690,51.041962
Dorpstraat,77,,,6122CG,Buchten,Sittard-Geleen,Limburg,VBO,5.808704,51.041908
Dorpstraat,79,,,6122CG,Buchten,Sittard-Geleen,Limburg,VBO,5.808774,51.041818
Dorpstraat,81,,,6122CG,Buchten,Sittard-Geleen,Limburg,VBO,5.808987,51.041709
Dorpstraat,83,,,6122CG,Buchten,Sittard-Geleen,Limburg,VBO,5.809044,51.041646
Dorpstraat,85,,,6122CG,Buchten,Sittard-Geleen,Limburg,VBO,5.809100,51.041592
Dorpstraat,87,,,6122CG,Buchten,Sittard-Geleen,Limburg,VBO,5.809369,51.041384
Dorpstraat,89,,,6122CG,Buchten,Sittard-Geleen,Limburg,VBO,5.809412,51.041348
Dorpstraat,91,,,6122CG,Buchten,Sittard-Geleen,Limburg,VBO,5.809525,51.041258
Dorpstraat,93,,,6122CG,Buchten,Sittard-Geleen,Limburg,VBO,5.809567,51.041231
Dorpstraat,95,,,6122CG,Buchten,Sittard-Geleen,Limburg,VBO,5.809809,51.041158
Dorpstraat,97,,,6122CG,Buchten,Sittard-Geleen,Limburg,VBO,5.809979,51.041040
Dorpstraat,99,,,6122CG,Buchten,Sittard-Geleen,Limburg,VBO,5.810106,51.040878
Dorpstraat,101,,,6122CG,Buchten,Sittard-Geleen,Limburg,VBO,5.810219,51.040743
Dorpstraat,105,,,6122CG,Buchten,Sittard-Geleen,Limburg,VBO,5.810839,51.039959
Dorpstraat,107,,,6122CG,Buchten,Sittard-Geleen,Limburg,VBO,5.810952,51.039841
Dorpstraat,109,,,6122CG,Buchten,Sittard-Geleen,Limburg,VBO,5.811051,51.039733
Dorpstraat,111,,,6122CG,Buchten,Sittard-Geleen,Limburg,VBO,5.811150,51.039625
Dorpstraat,113,,,6122CG,Buchten,Sittard-Geleen,Limburg,VBO,5.811234,51.039526
Dorpstraat,115,,,6122CG,Buchten,Sittard-Geleen,Limburg,VBO,5.811333,51.039418
Dorpstraat,117,A,,6122CG,Buchten,Sittard-Geleen,Limburg,VBO,5.811730,51.039128
Dorpstraat,117,,,6122CG,Buchten,Sittard-Geleen,Limburg,VBO,5.811701,51.039129
Kirkesjteeg,1,,,6122CH,Buchten,Sittard-Geleen,Limburg,VBO,5.808593,51.045369
Spoorstraat,1,,,6122CJ,Buchten,Sittard-Geleen,Limburg,VBO,5.807111,51.043936
Spoorstraat,2,,,6122CJ,Buchten,Sittard-Geleen,Limburg,VBO,5.806884,51.044090
Spoorstraat,3,,,6122CJ,Buchten,Sittard-Geleen,Limburg,VBO,5.806968,51.043865
Spoorstraat,4,,,6122CJ,Buchten,Sittard-Geleen,Limburg,VBO,5.806727,51.044073
Spoorstraat,5,,,6122CJ,Buchten,Sittard-Geleen,Limburg,VBO,5.806782,51.043848
Spoorstraat,6,,,6122CJ,Buchten,Sittard-Geleen,Limburg,VBO,5.806513,51.044055
Spoorstraat,7,,,6122CJ,Buchten,Sittard-Geleen,Limburg,VBO,5.806697,51.043839
Spoorstraat,8,,,6122CJ,Buchten,Sittard-Geleen,Limburg,VBO,5.806313,51.044029
Spoorstraat,9,,,6122CJ,Buchten,Sittard-Geleen,Limburg,VBO,5.806483,51.043822
Spoorstraat,10,,,6122CJ,Buchten,Sittard-Geleen,Limburg,VBO,5.806088,51.044318
Spoorstraat,11,,,6122CJ,Buchten,Sittard-Geleen,Limburg,VBO,5.806383,51.043813
Spoorstraat,13,,,6122CJ,Buchten,Sittard-Geleen,Limburg,VBO,5.806011,51.043734
Spoorstraat,15,,,6122CJ,Buchten,Sittard-Geleen,Limburg,VBO,5.805928,51.044022
Spoorstraat,17,A,,6122CJ,Buchten,Sittard-Geleen,Limburg,VBO,5.805844,51.044202
Spoorstraat,17,,,6122CJ,Buchten,Sittard-Geleen,Limburg,VBO,5.805788,51.044310
Spoorstraat,23,,,6122CJ,Buchten,Sittard-Geleen,Limburg,VBO,5.805690,51.044409
Kerkvonderen,1,,,6122CK,Buchten,Sittard-Geleen,Limburg,VBO,5.808026,51.044176
Kerkvonderen,2,,,6122CK,Buchten,Sittard-Geleen,Limburg,VBO,5.808009,51.043897
Kerkvonderen,3,,,6122CK,Buchten,Sittard-Geleen,Limburg,VBO,5.808099,51.044328
Kerkvonderen,4,,,6122CK,Buchten,Sittard-Geleen,Limburg,VBO,5.808095,51.043942
Kerkvonderen,5,,,6122CK,Buchten,Sittard-Geleen,Limburg,VBO,5.808273,51.044669
Kerkvonderen,6,,,6122CK,Buchten,Sittard-Geleen,Limburg,VBO,5.808181,51.043950
Kerkvonderen,7,,,6122CK,Buchten,Sittard-Geleen,Limburg,VBO,5.808660,51.044893
Kerkvonderen,8,,,6122CK,Buchten,Sittard-Geleen,Limburg,VBO,5.808252,51.043968
Kerkvonderen,9,,,6122CK,Buchten,Sittard-Geleen,Limburg,VBO,5.808872,51.044721
Kerkvonderen,10,,,6122CK,Buchten,Sittard-Geleen,Limburg,VBO,5.808423,51.043923
Kerkvonderen,11,,,6122CK,Buchten,Sittard-Geleen,Limburg,VBO,5.808741,51.044434
Kerkvonderen,12,,,6122CK,Buchten,Sittard-Geleen,Limburg,VBO,5.808509,51.043940
Kerkvonderen,14,,,6122CK,Buchten,Sittard-Geleen,Limburg,VBO,5.808580,51.043958
Kerkvonderen,15,,,6122CK,Buchten,Sittard-Geleen,Limburg,VBO,5.809171,51.044657
Kerkvonderen,16,,,6122CK,Buchten,Sittard-Geleen,Limburg,VBO,5.808666,51.043985
Kerkvonderen,17,,,6122CK,Buchten,Sittard-Geleen,Limburg,VBO,5.809199,51.044612
Kerkvonderen,18,,,6122CK,Buchten,Sittard-Geleen,Limburg,VBO,5.808766,51.043975
Kerkvonderen,19,,,6122CK,Buchten,Sittard-Geleen,Limburg,VBO,5.809241,51.044567
Kerkvonderen,20,,,6122CK,Buchten,Sittard-Geleen,Limburg,VBO,5.808851,51.043948
Kerkvonderen,21,,,6122CK,Buchten,Sittard-Geleen,Limburg,VBO,5.809270,51.044522
Kerkvonderen,22,,,6122CK,Buchten,Sittard-Geleen,Limburg,VBO,5.808865,51.043894
Kerkvonderen,23,,,6122CK,Buchten,Sittard-Geleen,Limburg,VBO,5.809269,51.044459
Kerkvonderen,24,,,6122CK,Buchten,Sittard-Geleen,Limburg,VBO,5.808893,51.043840
Kerkvonderen,25,,,6122CK,Buchten,Sittard-Geleen,Limburg,VBO,5.809369,51.044432
Kerkvonderen,26,,,6122CK,Buchten,Sittard-Geleen,Limburg,VBO,5.808921,51.043795
Kerkvonderen,27,,,6122CK,Buchten,Sittard-Geleen,Limburg,VBO,5.809468,51.044431
Kerkvonderen,28,,,6122CK,Buchten,Sittard-Geleen,Limburg,VBO,5.808963,51.043750
Kerkvonderen,29,,,6122CK,Buchten,Sittard-Geleen,Limburg,VBO,5.809540,51.044449
Kerkvonderen,30,,,6122CK,Buchten,Sittard-Geleen,Limburg,VBO,5.808991,51.043696
Kerkvonderen,31,,,6122CK,Buchten,Sittard-Geleen,Limburg,VBO,5.809626,51.044476
Kerkvonderen,32,,,6122CK,Buchten,Sittard-Geleen,Limburg,VBO,5.809362,51.043748
Kerkvonderen,33,,,6122CK,Buchten,Sittard-Geleen,Limburg,VBO,5.809697,51.044493
Kerkvonderen,34,,,6122CK,Buchten,Sittard-Geleen,Limburg,VBO,5.809291,51.043776
Kerkvonderen,35,,,6122CK,Buchten,Sittard-Geleen,Limburg,VBO,5.809840,51.044502
Kerkvonderen,36,,,6122CK,Buchten,Sittard-Geleen,Limburg,VBO,5.809263,51.043830
Kerkvonderen,37,,,6122CK,Buchten,Sittard-Geleen,Limburg,VBO,5.809911,51.044519
Kerkvonderen,38,,,6122CK,Buchten,Sittard-Geleen,Limburg,VBO,5.809235,51.043875
Kerkvonderen,39,,,6122CK,Buchten,Sittard-Geleen,Limburg,VBO,5.810197,51.044599
Kerkvonderen,40,,,6122CK,Buchten,Sittard-Geleen,Limburg,VBO,5.809193,51.043920
Kerkvonderen,41,,,6122CK,Buchten,Sittard-Geleen,Limburg,VBO,5.810283,51.044617
Kerkvonderen,42,,,6122CK,Buchten,Sittard-Geleen,Limburg,VBO,5.809165,51.043974
Kerkvonderen,43,,,6122CK,Buchten,Sittard-Geleen,Limburg,VBO,5.810612,51.044724
Kerkvonderen,44,,,6122CK,Buchten,Sittard-Geleen,Limburg,VBO,5.809108,51.044019
Kerkvonderen,46,,,6122CK,Buchten,Sittard-Geleen,Limburg,VBO,5.809151,51.044073
Kerkvonderen,48,,,6122CK,Buchten,Sittard-Geleen,Limburg,VBO,5.809223,51.044117
Kerkvonderen,50,,,6122CK,Buchten,Sittard-Geleen,Limburg,VBO,5.809295,51.044144
Kerkvonderen,52,,,6122CK,Buchten,Sittard-Geleen,Limburg,VBO,5.809366,51.044162
Kerkvonderen,54,,,6122CK,Buchten,Sittard-Geleen,Limburg,VBO,5.809452,51.044180
Kerkvonderen,56,,,6122CK,Buchten,Sittard-Geleen,Limburg,VBO,5.809523,51.044197
Kerkvonderen,58,,,6122CK,Buchten,Sittard-Geleen,Limburg,VBO,5.810424,51.044419
Kerkvonderen,60,,,6122CK,Buchten,Sittard-Geleen,Limburg,VBO,5.810724,51.044507
Keerweg,2,,,6122CL,Buchten,Sittard-Geleen,Limburg,VBO,5.808790,51.048191
Keerweg,8,,,6122CL,Buchten,Sittard-Geleen,Limburg,VBO,5.809392,51.046966
Keerweg,10,,,6122CL,Buchten,Sittard-Geleen,Limburg,VBO,5.809518,51.046741
Keerweg,12,,,6122CL,Buchten,Sittard-Geleen,Limburg,VBO,5.809488,51.046525
Keerweg,16,,,6122CL,Buchten,Sittard-Geleen,Limburg,VBO,5.809711,51.046030
Keerweg,18,,,6122CL,Buchten,Sittard-Geleen,Limburg,VBO,5.809725,51.045949
Keerweg,20,,,6122CL,Buchten,Sittard-Geleen,Limburg,VBO,5.809823,51.045805
Keerweg,22,,,6122CL,Buchten,Sittard-Geleen,Limburg,VBO,5.809922,51.045652
Keerweg,24,,,6122CL,Buchten,Sittard-Geleen,Limburg,VBO,5.809978,51.045562
Keerweg,28,,,6122CL,Buchten,Sittard-Geleen,Limburg,VBO,5.810190,51.045318
Keerweg,30,,,6122CL,Buchten,Sittard-Geleen,Limburg,VBO,5.810218,51.045273
Keerweg,32,,,6122CL,Buchten,Sittard-Geleen,Limburg,VBO,5.810288,51.045183
Keerweg,34,,,6122CL,Buchten,Sittard-Geleen,Limburg,VBO,5.810330,51.045129
Keerweg,36,,,6122CL,Buchten,Sittard-Geleen,Limburg,VBO,5.810415,51.045021
Keerweg,38,,,6122CL,Buchten,Sittard-Geleen,Limburg,VBO,5.810471,51.044958
Keerweg,40,,,6122CL,Buchten,Sittard-Geleen,Limburg,VBO,5.810499,51.044904
Keerweg,42,,,6122CL,Buchten,Sittard-Geleen,Limburg,VBO,5.810598,51.044778
Keerweg,44,,,6122CM,Buchten,Sittard-Geleen,Limburg,VBO,5.810963,51.044192
Keerweg,46,,,6122CM,Buchten,Sittard-Geleen,Limburg,VBO,5.810991,51.044129
Keerweg,48,,,6122CM,Buchten,Sittard-Geleen,Limburg,VBO,5.811033,51.044021
Keerweg,50,,,6122CM,Buchten,Sittard-Geleen,Limburg,VBO,5.811061,51.043958
Keerweg,52,,,6122CM,Buchten,Sittard-Geleen,Limburg,VBO,5.811117,51.043850
Keerweg,54,,,6122CM,Buchten,Sittard-Geleen,Limburg,VBO,5.811131,51.043787
Keerweg,56,,,6122CM,Buchten,Sittard-Geleen,Limburg,VBO,5.811242,51.043526
Keerweg,58,,,6122CM,Buchten,Sittard-Geleen,Limburg,VBO,5.811255,51.043346
Keerweg,60,,,6122CM,Buchten,Sittard-Geleen,Limburg,VBO,5.811410,51.043157
Keerweg,62,A,,6122CM,Buchten,Sittard-Geleen,Limburg,VBO,5.811349,51.042653
Keerweg,62,B,1,6122CM,Buchten,Sittard-Geleen,Limburg,VBO,5.811437,51.042938
Keerweg,62,B,,6122CM,Buchten,Sittard-Geleen,Limburg,VBO,5.811463,51.042900
Keerweg,62,C,,6122CM,Buchten,Sittard-Geleen,Limburg,VBO,5.811146,51.042678
Keerweg,62,D,,6122CM,Buchten,Sittard-Geleen,Limburg,VBO,5.811152,51.042644
Keerweg,62,E,,6122CM,Buchten,Sittard-Geleen,Limburg,VBO,5.811163,51.042617
Keerweg,62,F,,6122CM,Buchten,Sittard-Geleen,Limburg,VBO,5.811182,51.042585
Keerweg,62,,,6122CM,Buchten,Sittard-Geleen,Limburg,VBO,5.811438,51.043103
Keerweg,64,,,6122CM,Buchten,Sittard-Geleen,Limburg,VBO,5.811902,51.042373
Keerweg,66,,,6122CM,Buchten,Sittard-Geleen,Limburg,VBO,5.811959,51.042319
Keerweg,68,,,6122CM,Buchten,Sittard-Geleen,Limburg,VBO,5.812072,51.042201
Keerweg,70,,,6122CM,Buchten,Sittard-Geleen,Limburg,VBO,5.812114,51.042147
Keerweg,72,,,6122CM,Buchten,Sittard-Geleen,Limburg,VBO,5.812227,51.042030
Keerweg,74,,,6122CM,Buchten,Sittard-Geleen,Limburg,VBO,5.812269,51.041985
Keerweg,76,,,6122CM,Buchten,Sittard-Geleen,Limburg,VBO,5.812382,51.041859
Keerweg,78,,,6122CM,Buchten,Sittard-Geleen,Limburg,VBO,5.812439,51.041814
Keerweg,80,,,6122CM,Buchten,Sittard-Geleen,Limburg,VBO,5.812622,51.041606
Keerweg,82,,,6122CM,Buchten,Sittard-Geleen,Limburg,VBO,5.812678,51.041534
Keerweg,84,,,6122CM,Buchten,Sittard-Geleen,Limburg,VBO,5.812735,51.041489
Keerweg,86,,,6122CM,Buchten,Sittard-Geleen,Limburg,VBO,5.812706,51.041407
Keerweg,3,,,6122CN,Buchten,Sittard-Geleen,Limburg,VBO,5.809302,51.048018
Keerweg,5,,,6122CN,Buchten,Sittard-Geleen,Limburg,VBO,5.809347,51.047939
Keerweg,7,,,6122CN,Buchten,Sittard-Geleen,Limburg,VBO,5.809515,51.047955
Keerweg,23,,,6122CN,Buchten,Sittard-Geleen,Limburg,VBO,5.809860,51.046686
Keerweg,25,,,6122CN,Buchten,Sittard-Geleen,Limburg,VBO,5.809888,51.046614
Keerweg,27,,,6122CN,Buchten,Sittard-Geleen,Limburg,VBO,5.809844,51.046515
Keerweg,29,,,6122CN,Buchten,Sittard-Geleen,Limburg,VBO,5.809942,51.046335
Keerweg,31,,,6122CN,Buchten,Sittard-Geleen,Limburg,VBO,5.809984,51.046272
Keerweg,33,,,6122CN,Buchten,Sittard-Geleen,Limburg,VBO,5.810026,51.046200
Keerweg,35,,,6122CN,Buchten,Sittard-Geleen,Limburg,VBO,5.810097,51.046092
Keerweg,37,,,6122CN,Buchten,Sittard-Geleen,Limburg,VBO,5.810125,51.046038
Keerweg,39,,,6122CN,Buchten,Sittard-Geleen,Limburg,VBO,5.810237,51.045858
Keerweg,41,,,6122CN,Buchten,Sittard-Geleen,Limburg,VBO,5.810265,51.045795
Keerweg,43,,,6122CN,Buchten,Sittard-Geleen,Limburg,VBO,5.810321,51.045686
Keerweg,45,,,6122CN,Buchten,Sittard-Geleen,Limburg,VBO,5.810363,51.045632
Keerweg,49,,,6122CN,Buchten,Sittard-Geleen,Limburg,VBO,5.810547,51.045416
Keerweg,51,,,6122CN,Buchten,Sittard-Geleen,Limburg,VBO,5.810674,51.045299
Keerweg,55,,,6122CN,Buchten,Sittard-Geleen,Limburg,VBO,5.810815,51.045127
Keerweg,57,,,6122CN,Buchten,Sittard-Geleen,Limburg,VBO,5.810928,51.045010
Keerweg,59,,,6122CN,Buchten,Sittard-Geleen,Limburg,VBO,5.811027,51.044911
Keerweg,61,,,6122CP,Buchten,Sittard-Geleen,Limburg,VBO,5.811279,51.044434
Keerweg,63,,,6122CP,Buchten,Sittard-Geleen,Limburg,VBO,5.811335,51.044325
Keerweg,65,,,6122CP,Buchten,Sittard-Geleen,Limburg,VBO,5.811349,51.044271
Keerweg,67,,,6122CP,Buchten,Sittard-Geleen,Limburg,VBO,5.811419,51.044145
Keerweg,69,,,6122CP,Buchten,Sittard-Geleen,Limburg,VBO,5.811433,51.044082
Keerweg,71,,,6122CP,Buchten,Sittard-Geleen,Limburg,VBO,5.811489,51.043974
Keerweg,73,,,6122CP,Buchten,Sittard-Geleen,Limburg,VBO,5.811517,51.043920
Keerweg,75,,,6122CP,Buchten,Sittard-Geleen,Limburg,VBO,5.811573,51.043821
Keerweg,77,,,6122CP,Buchten,Sittard-Geleen,Limburg,VBO,5.811601,51.043767
Keerweg,79,,,6122CP,Buchten,Sittard-Geleen,Limburg,VBO,5.811657,51.043659
Keerweg,81,,,6122CP,Buchten,Sittard-Geleen,Limburg,VBO,5.811671,51.043605
Keerweg,83,,,6122CP,Buchten,Sittard-Geleen,Limburg,VBO,5.811713,51.043479
Keerweg,85,,,6122CP,Buchten,Sittard-Geleen,Limburg,VBO,5.811755,51.043407
Keerweg,87,,,6122CR,Buchten,Sittard-Geleen,Limburg,VBO,5.811881,51.043155
Keerweg,89,,,6122CR,Buchten,Sittard-Geleen,Limburg,VBO,5.811923,51.043101
Keerweg,91,,,6122CR,Buchten,Sittard-Geleen,Limburg,VBO,5.811979,51.042957
Keerweg,93,,,6122CR,Buchten,Sittard-Geleen,Limburg,VBO,5.812020,51.042822
Keerweg,95,,,6122CR,Buchten,Sittard-Geleen,Limburg,VBO,5.812048,51.042768
Keerweg,97,A,,6122CR,Buchten,Sittard-Geleen,Limburg,VBO,5.812175,51.042614
Keerweg,97,,,6122CR,Buchten,Sittard-Geleen,Limburg,VBO,5.812133,51.042660
Keerweg,99,,,6122CR,Buchten,Sittard-Geleen,Limburg,VBO,5.812302,51.042416
Keerweg,101,,,6122CR,Buchten,Sittard-Geleen,Limburg,VBO,5.812372,51.042335
Keerweg,103,,,6122CR,Buchten,Sittard-Geleen,Limburg,VBO,5.812414,51.042281
Keerweg,105,,,6122CR,Buchten,Sittard-Geleen,Limburg,VBO,5.812513,51.042182
Keerweg,107,,,6122CR,Buchten,Sittard-Geleen,Limburg,VBO,5.812697,51.042001
Keerweg,109,,,6122CR,Buchten,Sittard-Geleen,Limburg,VBO,5.812782,51.041920
Keerweg,111,,,6122CR,Buchten,Sittard-Geleen,Limburg,VBO,5.812838,51.041866
Keerweg,113,,,6122CR,Buchten,Sittard-Geleen,Limburg,VBO,5.812923,51.041776
Keerweg,115,,,6122CR,Buchten,Sittard-Geleen,Limburg,VBO,5.812965,51.041731
Keerweg,117,,,6122CR,Buchten,Sittard-Geleen,Limburg,VBO,5.813064,51.041640
Keerweg,119,,,6122CR,Buchten,Sittard-Geleen,Limburg,VBO,5.813107,51.041595
Keerweg,121,,,6122CR,Buchten,Sittard-Geleen,Limburg,VBO,5.813234,51.041478
Burg. Heffelsstraat,1,,,6122CS,Buchten,Sittard-Geleen,Limburg,VBO,5.809639,51.047146
Burg. Heffelsstraat,2,,,6122CS,Buchten,Sittard-Geleen,Limburg,VBO,5.809805,51.046875
Burg. Heffelsstraat,3,,,6122CS,Buchten,Sittard-Geleen,Limburg,VBO,5.809639,51.047146
Burg. Heffelsstraat,4,,,6122CS,Buchten,Sittard-Geleen,Limburg,VBO,5.809890,51.046884
Burg. Heffelsstraat,5,,,6122CS,Buchten,Sittard-Geleen,Limburg,VBO,5.809639,51.047146
Burg. Heffelsstraat,6,,,6122CS,Buchten,Sittard-Geleen,Limburg,VBO,5.810033,51.046910
Burg. Heffelsstraat,7,,,6122CS,Buchten,Sittard-Geleen,Limburg,VBO,5.809779,51.047169
Burg. Heffelsstraat,8,,,6122CS,Buchten,Sittard-Geleen,Limburg,VBO,5.810119,51.046928
Burg. Heffelsstraat,9,,,6122CS,Buchten,Sittard-Geleen,Limburg,VBO,5.809779,51.047169
Burg. Heffelsstraat,10,,,6122CS,Buchten,Sittard-Geleen,Limburg,VBO,5.810276,51.046954
Burg. Heffelsstraat,11,,,6122CS,Buchten,Sittard-Geleen,Limburg,VBO,5.809779,51.047169
Burg. Heffelsstraat,12,,,6122CS,Buchten,Sittard-Geleen,Limburg,VBO,5.810361,51.046963
Burg. Heffelsstraat,13,,,6122CS,Buchten,Sittard-Geleen,Limburg,VBO,5.809890,51.047188
Burg. Heffelsstraat,15,,,6122CS,Buchten,Sittard-Geleen,Limburg,VBO,5.809890,51.047188
Burg. Heffelsstraat,17,,,6122CS,Buchten,Sittard-Geleen,Limburg,VBO,5.809890,51.047188
Burg. Heffelsstraat,19,,,6122CS,Buchten,Sittard-Geleen,Limburg,VBO,5.810053,51.047215
Burg. Heffelsstraat,21,,,6122CS,Buchten,Sittard-Geleen,Limburg,VBO,5.810053,51.047215
Burg. Heffelsstraat,23,,,6122CS,Buchten,Sittard-Geleen,Limburg,VBO,5.810053,51.047215
Schuttersdreef,1,,,6122CT,Buchten,Sittard-Geleen,Limburg,VBO,5.806006,51.044713
Schuttersdreef,2,,,6122CT,Buchten,Sittard-Geleen,Limburg,VBO,5.806018,51.044489
Burg. Paulssenstraat,9,,,6122EB,Buchten,Sittard-Geleen,Limburg,VBO,5.812240,51.043504
Burg. Paulssenstraat,10,,,6122EB,Buchten,Sittard-Geleen,Limburg,VBO,5.812410,51.043315
Burg. Paulssenstraat,11,,,6122EB,Buchten,Sittard-Geleen,Limburg,VBO,5.812326,51.043522
Burg. Paulssenstraat,12,,,6122EB,Buchten,Sittard-Geleen,Limburg,VBO,5.812496,51.043341
Burg. Hausmansstraat,1,,,6122EC,Buchten,Sittard-Geleen,Limburg,VBO,5.812842,51.042306
Burg. Hausmansstraat,2,,,6122EC,Buchten,Sittard-Geleen,Limburg,VBO,5.812997,51.042108
Burg. Hausmansstraat,3,,,6122EC,Buchten,Sittard-Geleen,Limburg,VBO,5.812928,51.042333
Burg. Hausmansstraat,4,,,6122EC,Buchten,Sittard-Geleen,Limburg,VBO,5.813083,51.042135
Burg. Hausmansstraat,5,,,6122EC,Buchten,Sittard-Geleen,Limburg,VBO,5.813071,51.042386
Burg. Hausmansstraat,6,,,6122EC,Buchten,Sittard-Geleen,Limburg,VBO,5.813226,51.042188
Burg. Hausmansstraat,7,,,6122EC,Buchten,Sittard-Geleen,Limburg,VBO,5.813143,51.042413
Burg. Hausmansstraat,8,,,6122EC,Buchten,Sittard-Geleen,Limburg,VBO,5.813298,51.042215
Burg. Hausmansstraat,9,,,6122EC,Buchten,Sittard-Geleen,Limburg,VBO,5.813286,51.042467
Burg. Hausmansstraat,10,,,6122EC,Buchten,Sittard-Geleen,Limburg,VBO,5.813441,51.042268
Burg. Hausmansstraat,11,,,6122EC,Buchten,Sittard-Geleen,Limburg,VBO,5.813372,51.042493
Burg. Hausmansstraat,12,,,6122EC,Buchten,Sittard-Geleen,Limburg,VBO,5.813527,51.042295
Burg. Hausmansstraat,14,,,6122EC,Buchten,Sittard-Geleen,Limburg,VBO,5.813670,51.042348
Burg. Hausmansstraat,16,,,6122EC,Buchten,Sittard-Geleen,Limburg,VBO,5.813756,51.042375
Burg. Hausmansstraat,18,,,6122EC,Buchten,Sittard-Geleen,Limburg,VBO,5.813899,51.042419
Burg. Bovensstraat,1,,,6122ED,Buchten,Sittard-Geleen,Limburg,VBO,5.814110,51.040603
Burg. Bovensstraat,6,,,6122ED,Buchten,Sittard-Geleen,Limburg,VBO,5.814551,51.040475
Burg. Bovensstraat,7,,,6122ED,Buchten,Sittard-Geleen,Limburg,VBO,5.814539,51.040745
Burg. Bovensstraat,8,,,6122ED,Buchten,Sittard-Geleen,Limburg,VBO,5.814637,51.040502
Burg. Bovensstraat,9,,,6122ED,Buchten,Sittard-Geleen,Limburg,VBO,5.814625,51.040772
Burg. Bovensstraat,10,,,6122ED,Buchten,Sittard-Geleen,Limburg,VBO,5.814708,51.040529
Burg. Bovensstraat,11,,,6122ED,Buchten,Sittard-Geleen,Limburg,VBO,5.814696,51.040798
Burg. Bovensstraat,12,,,6122ED,Buchten,Sittard-Geleen,Limburg,VBO,5.814837,51.040582
Burg. Bovensstraat,13,,,6122ED,Buchten,Sittard-Geleen,Limburg,VBO,5.814825,51.040852
Burg. Bovensstraat,14,,,6122ED,Buchten,Sittard-Geleen,Limburg,VBO,5.814923,51.040609
Burg. Bovensstraat,15,,,6122ED,Buchten,Sittard-Geleen,Limburg,VBO,5.814911,51.040879
Burg. Bovensstraat,16,,,6122ED,Buchten,Sittard-Geleen,Limburg,VBO,5.814994,51.040636
Burg. Bovensstraat,18,,,6122ED,Buchten,Sittard-Geleen,Limburg,VBO,5.815066,51.040662
Burg. Savelkoulstraat,5,,,6122EE,Buchten,Sittard-Geleen,Limburg,VBO,5.814832,51.040088
Burg. Savelkoulstraat,6,,,6122EE,Buchten,Sittard-Geleen,Limburg,VBO,5.815016,51.039898
Burg. Savelkoulstraat,7,,,6122EE,Buchten,Sittard-Geleen,Limburg,VBO,5.814918,51.040123
Burg. Savelkoulstraat,8,,,6122EE,Buchten,Sittard-Geleen,Limburg,VBO,5.815087,51.039925
Burg. Savelkoulstraat,9,,,6122EE,Buchten,Sittard-Geleen,Limburg,VBO,5.815004,51.040150
Burg. Savelkoulstraat,10,,,6122EE,Buchten,Sittard-Geleen,Limburg,VBO,5.815173,51.039952
Burg. Savelkoulstraat,11,,,6122EE,Buchten,Sittard-Geleen,Limburg,VBO,5.815076,51.040177
Burg. Savelkoulstraat,12,,,6122EE,Buchten,Sittard-Geleen,Limburg,VBO,5.815316,51.040005
Burg. Savelkoulstraat,13,,,6122EE,Buchten,Sittard-Geleen,Limburg,VBO,5.815219,51.040221
Burg. Savelkoulstraat,14,,,6122EE,Buchten,Sittard-Geleen,Limburg,VBO,5.815402,51.040032
Burg. Savelkoulstraat,15,,,6122EE,Buchten,Sittard-Geleen,Limburg,VBO,5.815304,51.040248
Burg. Savelkoulstraat,16,,,6122EE,Buchten,Sittard-Geleen,Limburg,VBO,5.815474,51.040058
Burg. Savelkoulstraat,17,,,6122EE,Buchten,Sittard-Geleen,Limburg,VBO,5.815376,51.040284
Burg. Savelkoulstraat,18,,,6122EE,Buchten,Sittard-Geleen,Limburg,VBO,5.815559,51.040085
Klein Holtum,1,,,6122EG,Buchten,Sittard-Geleen,Limburg,VBO,5.813757,51.040964
Klein Holtum,3,,,6122EG,Buchten,Sittard-Geleen,Limburg,VBO,5.813883,51.040783
Klein Holtum,4,,,6122EG,Buchten,Sittard-Geleen,Limburg,VBO,5.813653,51.040506
Klein Holtum,5,,,6122EG,Buchten,Sittard-Geleen,Limburg,VBO,5.813968,51.040684
Klein Holtum,8,,,6122EG,Buchten,Sittard-Geleen,Limburg,VBO,5.813892,51.040208
Klein Holtum,9,,,6122EG,Buchten,Sittard-Geleen,Limburg,VBO,5.814293,51.040368
Klein Holtum,10,,,6122EG,Buchten,Sittard-Geleen,Limburg,VBO,5.813935,51.040154
Klein Holtum,11,,,6122EG,Buchten,Sittard-Geleen,Limburg,VBO,5.814335,51.040314
Klein Holtum,12,,,6122EG,Buchten,Sittard-Geleen,Limburg,VBO,5.814033,51.040037
Klein Holtum,13,,,6122EG,Buchten,Sittard-Geleen,Limburg,VBO,5.814420,51.040215
Klein Holtum,14,,,6122EG,Buchten,Sittard-Geleen,Limburg,VBO,5.814118,51.039929
Klein Holtum,15,,,6122EG,Buchten,Sittard-Geleen,Limburg,VBO,5.814462,51.040161
Klein Holtum,16,,,6122EG,Buchten,Sittard-Geleen,Limburg,VBO,5.814160,51.039875
Klein Holtum,17,,,6122EG,Buchten,Sittard-Geleen,Limburg,VBO,5.814547,51.040062
Klein Holtum,18,,,6122EG,Buchten,Sittard-Geleen,Limburg,VBO,5.814245,51.039775
Klein Holtum,19,,,6122EG,Buchten,Sittard-Geleen,Limburg,VBO,5.814589,51.040008
Klein Holtum,20,,,6122EG,Buchten,Sittard-Geleen,Limburg,VBO,5.814287,51.039721
Klein Holtum,21,,,6122EG,Buchten,Sittard-Geleen,Limburg,VBO,5.814672,51.039765
Klein Holtum,22,,,6122EG,Buchten,Sittard-Geleen,Limburg,VBO,5.814358,51.039631
Klein Holtum,23,,,6122EG,Buchten,Sittard-Geleen,Limburg,VBO,5.814800,51.039692
Klein Holtum,24,,,6122EG,Buchten,Sittard-Geleen,Limburg,VBO,5.814400,51.039577
Klein Holtum,25,,,6122EG,Buchten,Sittard-Geleen,Limburg,VBO,5.814842,51.039638
Klein Holtum,27,,,6122EG,Buchten,Sittard-Geleen,Limburg,VBO,5.814927,51.039539
Klein Holtum,29,,,6122EG,Buchten,Sittard-Geleen,Limburg,VBO,5.814969,51.039485
Klein Holtum,31,,,6122EG,Buchten,Sittard-Geleen,Limburg,VBO,5.814997,51.039368
Klein Holtum,33,,,6122EG,Buchten,Sittard-Geleen,Limburg,VBO,5.815326,51.039502
Klein Holtum,35,,,6122EG,Buchten,Sittard-Geleen,Limburg,VBO,5.815498,51.039564
Klein Holtum,37,,,6122EG,Buchten,Sittard-Geleen,Limburg,VBO,5.815683,51.039626
Klein Holtum,39,,,6122EG,Buchten,Sittard-Geleen,Limburg,VBO,5.815855,51.039689
Havenweg,2,,,6122EH,Buchten,Sittard-Geleen,Limburg,VBO,5.809898,51.047825
Havenweg,4,,,6122EH,Buchten,Sittard-Geleen,Limburg,VBO,5.809898,51.047825
Havenweg,6,,,6122EH,Buchten,Sittard-Geleen,Limburg,VBO,5.809898,51.047825
Havenweg,8,,,6122EH,Buchten,Sittard-Geleen,Limburg,VBO,5.809935,51.047737
Havenweg,10,,,6122EH,Buchten,Sittard-Geleen,Limburg,VBO,5.809935,51.047737
Havenweg,12,,,6122EH,Buchten,Sittard-Geleen,Limburg,VBO,5.809935,51.047737
Havenweg,14,,,6122EH,Buchten,Sittard-Geleen,Limburg,VBO,5.810040,51.047680
Havenweg,16,,,6122EH,Buchten,Sittard-Geleen,Limburg,VBO,5.810040,51.047680
Havenweg,18,,,6122EH,Buchten,Sittard-Geleen,Limburg,VBO,5.810040,51.047680
Havenweg,20,,,6122EH,Buchten,Sittard-Geleen,Limburg,VBO,5.810077,51.047590
Havenweg,22,,,6122EH,Buchten,Sittard-Geleen,Limburg,VBO,5.810077,51.047590
Havenweg,24,,,6122EH,Buchten,Sittard-Geleen,Limburg,VBO,5.810077,51.047590
Havenweg,26,,,6122EH,Buchten,Sittard-Geleen,Limburg,VBO,5.810106,51.047526
Havenweg,28,,,6122EH,Buchten,Sittard-Geleen,Limburg,VBO,5.810106,51.047526
Havenweg,30,,,6122EH,Buchten,Sittard-Geleen,Limburg,VBO,5.810106,51.047526
Havenweg,32,,,6122EH,Buchten,Sittard-Geleen,Limburg,VBO,5.810149,51.047422
Havenweg,34,,,6122EH,Buchten,Sittard-Geleen,Limburg,VBO,5.810149,51.047422
Havenweg,36,,,6122EH,Buchten,Sittard-Geleen,Limburg,VBO,5.810149,51.047422
Havenweg,38,A,,6122EJ,Buchten,Sittard-Geleen,Limburg,VBO,5.810488,51.046738
Havenweg,38,B,,6122EJ,Buchten,Sittard-Geleen,Limburg,VBO,5.810530,51.046639
Havenweg,38,C,,6122EJ,Buchten,Sittard-Geleen,Limburg,VBO,5.810558,51.046585
Havenweg,38,D,,6122EJ,Buchten,Sittard-Geleen,Limburg,VBO,5.810599,51.046476
Havenweg,38,E,,6122EJ,Buchten,Sittard-Geleen,Limburg,VBO,5.810627,51.046422
Havenweg,38,,,6122EJ,Buchten,Sittard-Geleen,Limburg,VBO,5.810460,51.046792
Havenweg,40,A,,6122EJ,Buchten,Sittard-Geleen,Limburg,VBO,5.810712,51.046260
Havenweg,40,B,,6122EJ,Buchten,Sittard-Geleen,Limburg,VBO,5.810810,51.046161
Havenweg,40,C,,6122EJ,Buchten,Sittard-Geleen,Limburg,VBO,5.810838,51.046107
Havenweg,40,D,,6122EJ,Buchten,Sittard-Geleen,Limburg,VBO,5.810894,51.045990
Havenweg,40,,,6122EJ,Buchten,Sittard-Geleen,Limburg,VBO,5.810683,51.046314
Havenweg,42,,,6122EJ,Buchten,Sittard-Geleen,Limburg,VBO,5.810951,51.045891
Havenweg,44,,,6122EJ,Buchten,Sittard-Geleen,Limburg,VBO,5.810979,51.045837
Havenweg,46,,,6122EJ,Buchten,Sittard-Geleen,Limburg,VBO,5.811049,51.045747
Havenweg,48,,,6122EJ,Buchten,Sittard-Geleen,Limburg,VBO,5.811077,51.045693
Havenweg,50,,,6122EJ,Buchten,Sittard-Geleen,Limburg,VBO,5.811147,51.045594
Havenweg,52,,,6122EJ,Buchten,Sittard-Geleen,Limburg,VBO,5.811175,51.045540
Havenweg,54,,,6122EJ,Buchten,Sittard-Geleen,Limburg,VBO,5.811246,51.045440
Havenweg,56,,,6122EJ,Buchten,Sittard-Geleen,Limburg,VBO,5.811274,51.045395
Havenweg,58,,,6122EJ,Buchten,Sittard-Geleen,Limburg,VBO,5.811344,51.045296
Havenweg,60,,,6122EJ,Buchten,Sittard-Geleen,Limburg,VBO,5.811372,51.045242
Havenweg,70,,,6122EK,Buchten,Sittard-Geleen,Limburg,VBO,5.811963,51.044350
Havenweg,72,,,6122EK,Buchten,Sittard-Geleen,Limburg,VBO,5.812090,51.044197
Havenweg,74,,,6122EK,Buchten,Sittard-Geleen,Limburg,VBO,5.812160,51.044080
Havenweg,76,,,6122EK,Buchten,Sittard-Geleen,Limburg,VBO,5.812301,51.043881
Havenweg,78,,,6122EK,Buchten,Sittard-Geleen,Limburg,VBO,5.812428,51.043755
Havenweg,80,,,6122EK,Buchten,Sittard-Geleen,Limburg,VBO,5.812569,51.043611
Havenweg,82,,,6122EK,Buchten,Sittard-Geleen,Limburg,VBO,5.812796,51.043403
Havenweg,84,,,6122EK,Buchten,Sittard-Geleen,Limburg,VBO,5.812951,51.043241
Havenweg,86,,,6122EK,Buchten,Sittard-Geleen,Limburg,VBO,5.813078,51.043151
Havenweg,88,,,6122EK,Buchten,Sittard-Geleen,Limburg,VBO,5.813234,51.043006
Havenweg,90,,,6122EK,Buchten,Sittard-Geleen,Limburg,VBO,5.813318,51.042871
Havenweg,92,,,6122EK,Buchten,Sittard-Geleen,Limburg,VBO,5.813502,51.042735
Havenweg,94,,,6122EK,Buchten,Sittard-Geleen,Limburg,VBO,5.813658,51.042600
Havenweg,96,,,6122EK,Buchten,Sittard-Geleen,Limburg,VBO,5.814096,51.042203
Havenweg,98,,,6122EK,Buchten,Sittard-Geleen,Limburg,VBO,5.814153,51.042149
Havenweg,100,,,6122EK,Buchten,Sittard-Geleen,Limburg,VBO,5.814237,51.042059
Havenweg,102,,,6122EK,Buchten,Sittard-Geleen,Limburg,VBO,5.814294,51.042004
Havenweg,104,,,6122EK,Buchten,Sittard-Geleen,Limburg,VBO,5.814393,51.041923
Havenweg,108,,,6122EL,Buchten,Sittard-Geleen,Limburg,VBO,5.814788,51.041499
Havenweg,110,,,6122EL,Buchten,Sittard-Geleen,Limburg,VBO,5.814831,51.041445
Havenweg,112,,,6122EL,Buchten,Sittard-Geleen,Limburg,VBO,5.814915,51.041346
Havenweg,114,,,6122EL,Buchten,Sittard-Geleen,Limburg,VBO,5.814958,51.041301
Havenweg,116,,,6122EL,Buchten,Sittard-Geleen,Limburg,VBO,5.815042,51.041202
Havenweg,118,,,6122EL,Buchten,Sittard-Geleen,Limburg,VBO,5.815085,51.041148
Havenweg,120,,,6122EL,Buchten,Sittard-Geleen,Limburg,VBO,5.815169,51.041048
Havenweg,122,,,6122EL,Buchten,Sittard-Geleen,Limburg,VBO,5.815211,51.040994
Havenweg,124,,,6122EL,Buchten,Sittard-Geleen,Limburg,VBO,5.815409,51.040760
Havenweg,126,,,6122EL,Buchten,Sittard-Geleen,Limburg,VBO,5.815465,51.040634
Havenweg,128,,,6122EL,Buchten,Sittard-Geleen,Limburg,VBO,5.815521,51.040562
Havenweg,130,,,6122EL,Buchten,Sittard-Geleen,Limburg,VBO,5.815606,51.040454
Havenweg,132,,,6122EL,Buchten,Sittard-Geleen,Limburg,VBO,5.815662,51.040390
Havenweg,134,,,6122EL,Buchten,Sittard-Geleen,Limburg,VBO,5.815845,51.040165
Havenweg,136,,,6122EL,Buchten,Sittard-Geleen,Limburg,VBO,5.815902,51.040102
Havenweg,138,,,6122EL,Buchten,Sittard-Geleen,Limburg,VBO,5.816000,51.039967
Havenweg,140,,,6122EL,Buchten,Sittard-Geleen,Limburg,VBO,5.816057,51.039895
Havenweg,142,,,6122EL,Buchten,Sittard-Geleen,Limburg,VBO,5.816169,51.039750
Aan 't Geley,1,,,6122EM,Buchten,Sittard-Geleen,Limburg,VBO,5.813624,51.040452
Aan 't Geley,3,,,6122EM,Buchten,Sittard-Geleen,Limburg,VBO,5.813566,51.040425
Havenweg,99,,,6122EN,Buchten,Sittard-Geleen,Limburg,VBO,5.814370,51.042481
Havenweg,101,,,6122EN,Buchten,Sittard-Geleen,Limburg,VBO,5.814511,51.042345
Havenweg,139,,,6122EN,Buchten,Sittard-Geleen,Limburg,VBO,5.818551,51.039759
Havenweg,141,,,6122EN,Buchten,Sittard-Geleen,Limburg,VBO,5.817979,51.039636
Havenweg,143,,,6122EN,Buchten,Sittard-Geleen,Limburg,VBO,5.817008,51.039478
Buchterweg,15,A,,6122ER,Buchten,Sittard-Geleen,Limburg,STA,5.813044,51.045176
Buchterweg,15,B,,6122ER,Buchten,Sittard-Geleen,Limburg,STA,5.812881,51.045105
Buchterweg,15,C,,6122ER,Buchten,Sittard-Geleen,Limburg,STA,5.812739,51.045045
Buchterweg,15,D,,6122ER,Buchten,Sittard-Geleen,Limburg,STA,5.812577,51.044975
Buchterweg,17,A,,6122ER,Buchten,Sittard-Geleen,Limburg,VBO,5.811823,51.044620
Buchterweg,19,,,6122ER,Buchten,Sittard-Geleen,Limburg,VBO,5.811352,51.044550
Ankersweg,52,A,1,6122ET,Buchten,Sittard-Geleen,Limburg,VBO,5.814519,51.043714
Ankersweg,52,B,1,6122ET,Buchten,Sittard-Geleen,Limburg,VBO,5.814561,51.043520
Ankersweg,52,B,2,6122ET,Buchten,Sittard-Geleen,Limburg,VBO,5.815474,51.044704
Ankersweg,52,B,3,6122ET,Buchten,Sittard-Geleen,Limburg,VBO,5.816327,51.044726
Ankersweg,52,C,,6122ET,Buchten,Sittard-Geleen,Limburg,VBO,5.815898,51.042763
Ankersweg,52,,,6122ET,Buchten,Sittard-Geleen,Limburg,VBO,5.815110,51.043853
Ankersweg,54,A,,6122ET,Buchten,Sittard-Geleen,Limburg,VBO,5.814923,51.042128
Ankersweg,54,B,,6122ET,Buchten,Sittard-Geleen,Limburg,VBO,5.815094,51.042217
Ankersweg,54,,,6122ET,Buchten,Sittard-Geleen,Limburg,VBO,5.815309,51.042315
Ankersweg,56,A,,6122ET,Buchten,Sittard-Geleen,Limburg,VBO,5.814164,51.041789
Ankersweg,56,,,6122ET,Buchten,Sittard-Geleen,Limburg,VBO,5.814779,51.042012
Ankersweg,58,,,6122ET,Buchten,Sittard-Geleen,Limburg,VBO,5.814049,51.041736
Ankersweg,60,,,6122ET,Buchten,Sittard-Geleen,Limburg,VBO,5.813963,51.041700
Ankersweg,62,,,6122ET,Buchten,Sittard-Geleen,Limburg,VBO,5.813834,51.041638
Ankersweg,64,,,6122ET,Buchten,Sittard-Geleen,Limburg,VBO,5.813763,51.041602
Ankersweg,66,,,6122ET,Buchten,Sittard-Geleen,Limburg,VBO,5.813634,51.041530
Ankersweg,68,,,6122ET,Buchten,Sittard-Geleen,Limburg,VBO,5.813562,51.041495
Ankersweg,70,,,6122ET,Buchten,Sittard-Geleen,Limburg,VBO,5.813319,51.041397
Ankersweg,59,A,,6122EW,Buchten,Sittard-Geleen,Limburg,VBO,5.815591,51.041991
Ankersweg,59,B,,6122EW,Buchten,Sittard-Geleen,Limburg,VBO,5.815448,51.041928
Ankersweg,59,,,6122EW,Buchten,Sittard-Geleen,Limburg,VBO,5.815764,51.042143
Ankersweg,61,,,6122EW,Buchten,Sittard-Geleen,Limburg,VBO,5.815234,51.041884
Ankersweg,63,,,6122EW,Buchten,Sittard-Geleen,Limburg,VBO,5.815048,51.041822
Ankersweg,65,,,6122EW,Buchten,Sittard-Geleen,Limburg,VBO,5.814619,51.041680
Ankersweg,67,,,6122EW,Buchten,Sittard-Geleen,Limburg,VBO,5.814433,51.041608
Ankersweg,69,,,6122EW,Buchten,Sittard-Geleen,Limburg,VBO,5.814204,51.041555
Ankersweg,71,,,6122EW,Buchten,Sittard-Geleen,Limburg,VBO,5.814032,51.041430
Ankersweg,73,,,6122EW,Buchten,Sittard-Geleen,Limburg,VBO,5.813975,51.041385
Ankersweg,75,,,6122EW,Buchten,Sittard-Geleen,Limburg,VBO,5.813673,51.041189
Ankersweg,77,,,6122EW,Buchten,Sittard-Geleen,Limburg,VBO,5.813559,51.041126
Aan de Laadhaven,2,,,6122EX,Buchten,Sittard-Geleen,Limburg,VBO,5.806560,51.046015
Aan de Laadhaven,4,,,6122EX,Buchten,Sittard-Geleen,Limburg,VBO,5.807508,51.046856
