openbareruimtenaam,huisnummer,huisletter,huisnummertoevoeging,postcode,woonplaatsnaam,gemeentenaam,provincienaam,typeadresseerbaarobject,longitude,latitude
Beelaertsstraat,65,,,6124AA,Papenhoven,Sittard-Geleen,Limburg,VBO,5.784466,51.035468
Beelaertsstraat,67,,,6124AA,Papenhoven,Sittard-Geleen,Limburg,VBO,5.784467,51.035540
Merovingenstraat,1,,,6124AB,Papenhoven,Sittard-Geleen,Limburg,VBO,5.778527,51.039506
Merovingenstraat,2,,,6124AB,Papenhoven,Sittard-Geleen,Limburg,VBO,5.778297,51.039354
Merovingenstraat,3,,,6124AB,Papenhoven,Sittard-Geleen,Limburg,VBO,5.778768,51.039379
Merovingenstraat,4,,,6124AB,Papenhoven,Sittard-Geleen,Limburg,VBO,5.778440,51.039291
Merovingenstraat,5,,,6124AB,Papenhoven,Sittard-Geleen,Limburg,VBO,5.779010,51.039262
Merovingenstraat,7,,,6124AB,Papenhoven,Sittard-Geleen,Limburg,VBO,5.779279,51.039126
Merovingenstraat,9,,,6124AB,Papenhoven,Sittard-Geleen,Limburg,VBO,5.779549,51.038990
Merovingenstraat,11,,,6124AB,Papenhoven,Sittard-Geleen,Limburg,VBO,5.779833,51.038872
Merovingenstraat,25,,,6124AB,Papenhoven,Sittard-Geleen,Limburg,VBO,5.781720,51.037823
Merovingenstraat,26,,,6124AB,Papenhoven,Sittard-Geleen,Limburg,VBO,5.780937,51.037943
Merovingenstraat,28,,,6124AB,Papenhoven,Sittard-Geleen,Limburg,VBO,5.781193,51.037825
Merovingenstraat,31,,,6124AB,Papenhoven,Sittard-Geleen,Limburg,VBO,5.782699,51.037245
Merovingenstraat,42,,,6124AB,Papenhoven,Sittard-Geleen,Limburg,VBO,5.782143,51.037246
Hoppenhofjeslaan,2,A,,6124AC,Papenhoven,Sittard-Geleen,Limburg,VBO,5.779860,51.040337
Hoppenhofjeslaan,2,,,6124AC,Papenhoven,Sittard-Geleen,Limburg,VBO,5.780030,51.040220
Hoppenhofjeslaan,4,,,6124AC,Papenhoven,Sittard-Geleen,Limburg,VBO,5.780043,51.040076
Hoppenhofjeslaan,6,,,6124AC,Papenhoven,Sittard-Geleen,Limburg,VBO,5.780056,51.039959
Hoppenhofjeslaan,8,,,6124AC,Papenhoven,Sittard-Geleen,Limburg,VBO,5.780055,51.039833
Hoppenhofjeslaan,10,,,6124AC,Papenhoven,Sittard-Geleen,Limburg,VBO,5.780068,51.039707
Hoppenhofjeslaan,12,,,6124AC,Papenhoven,Sittard-Geleen,Limburg,VBO,5.780082,51.039618
Hoppenhofjeslaan,14,,,6124AC,Papenhoven,Sittard-Geleen,Limburg,VBO,5.780095,51.039465
Hoppenhofjeslaan,16,,,6124AC,Papenhoven,Sittard-Geleen,Limburg,VBO,5.780108,51.039321
Hoppenhofjeslaan,18,,,6124AC,Papenhoven,Sittard-Geleen,Limburg,VBO,5.780121,51.039159
Hoppenhofjeslaan,20,,,6124AC,Papenhoven,Sittard-Geleen,Limburg,VBO,5.780141,51.038998
Hoppenhofjeslaan,22,,,6124AC,Papenhoven,Sittard-Geleen,Limburg,VBO,5.780140,51.038909
Hoppenhofjeslaan,24,,,6124AC,Papenhoven,Sittard-Geleen,Limburg,VBO,5.780150,51.038816
Hoppenhofjeslaan,26,,,6124AC,Papenhoven,Sittard-Geleen,Limburg,VBO,5.780162,51.038730
Hoppenhofjeslaan,28,,,6124AC,Papenhoven,Sittard-Geleen,Limburg,VBO,5.780182,51.038624
Hoppenhofjeslaan,1,,,6124AD,Papenhoven,Sittard-Geleen,Limburg,VBO,5.780403,51.040497
Hoppenhofjeslaan,3,,,6124AD,Papenhoven,Sittard-Geleen,Limburg,VBO,5.780403,51.040452
Hoppenhofjeslaan,5,,,6124AD,Papenhoven,Sittard-Geleen,Limburg,VBO,5.780388,51.040363
Hoppenhofjeslaan,7,,,6124AD,Papenhoven,Sittard-Geleen,Limburg,VBO,5.780373,51.040318
Hoppenhofjeslaan,9,,,6124AD,Papenhoven,Sittard-Geleen,Limburg,VBO,5.780386,51.040201
Hoppenhofjeslaan,11,,,6124AD,Papenhoven,Sittard-Geleen,Limburg,VBO,5.780386,51.040138
Hoppenhofjeslaan,13,,,6124AD,Papenhoven,Sittard-Geleen,Limburg,VBO,5.780385,51.040030
Hoppenhofjeslaan,15,,,6124AD,Papenhoven,Sittard-Geleen,Limburg,VBO,5.780425,51.039697
Hoppenhofjeslaan,17,,,6124AD,Papenhoven,Sittard-Geleen,Limburg,VBO,5.780424,51.039643
Hoppenhofjeslaan,19,,,6124AD,Papenhoven,Sittard-Geleen,Limburg,VBO,5.780438,51.039544
Hoppenhofjeslaan,21,,,6124AD,Papenhoven,Sittard-Geleen,Limburg,VBO,5.780452,51.039490
Hoppenhofjeslaan,23,,,6124AD,Papenhoven,Sittard-Geleen,Limburg,VBO,5.780465,51.039401
Hoppenhofjeslaan,25,,,6124AD,Papenhoven,Sittard-Geleen,Limburg,VBO,5.780467,51.039339
Beatrixlaan,1,,,6124AE,Papenhoven,Sittard-Geleen,Limburg,VBO,5.780713,51.040029
Beatrixlaan,2,,,6124AE,Papenhoven,Sittard-Geleen,Limburg,VBO,5.780426,51.039814
Beatrixlaan,3,,,6124AE,Papenhoven,Sittard-Geleen,Limburg,VBO,5.780798,51.040029
Beatrixlaan,4,,,6124AE,Papenhoven,Sittard-Geleen,Limburg,VBO,5.780711,51.039831
Beatrixlaan,5,,,6124AE,Papenhoven,Sittard-Geleen,Limburg,VBO,5.780955,51.040037
Beatrixlaan,6,,,6124AE,Papenhoven,Sittard-Geleen,Limburg,VBO,5.780797,51.039840
Beatrixlaan,7,,,6124AE,Papenhoven,Sittard-Geleen,Limburg,VBO,5.781055,51.040046
Beatrixlaan,8,,,6124AE,Papenhoven,Sittard-Geleen,Limburg,VBO,5.780968,51.039848
Beatrixlaan,10,,,6124AE,Papenhoven,Sittard-Geleen,Limburg,VBO,5.781068,51.039848
Julianalaan,3,,,6124AG,Papenhoven,Sittard-Geleen,Limburg,VBO,5.781694,51.041365
Julianalaan,5,,,6124AG,Papenhoven,Sittard-Geleen,Limburg,VBO,5.781922,51.041337
Julianalaan,7,,,6124AG,Papenhoven,Sittard-Geleen,Limburg,VBO,5.782065,51.041445
Julianalaan,9,,,6124AG,Papenhoven,Sittard-Geleen,Limburg,VBO,5.782208,51.041462
Julianalaan,15,,,6124AG,Papenhoven,Sittard-Geleen,Limburg,VBO,5.782836,51.041505
Julianalaan,17,,,6124AG,Papenhoven,Sittard-Geleen,Limburg,VBO,5.783078,51.041504
Julianalaan,19,,,6124AG,Papenhoven,Sittard-Geleen,Limburg,VBO,5.783292,51.041503
Julianalaan,21,,,6124AG,Papenhoven,Sittard-Geleen,Limburg,VBO,5.783491,51.041503
Julianalaan,25,,,6124AG,Papenhoven,Sittard-Geleen,Limburg,VBO,5.783819,51.041475
Julianalaan,27,,,6124AG,Papenhoven,Sittard-Geleen,Limburg,VBO,5.784047,51.041483
Julianalaan,29,,,6124AG,Papenhoven,Sittard-Geleen,Limburg,VBO,5.784275,51.041446
Julianalaan,31,,,6124AG,Papenhoven,Sittard-Geleen,Limburg,VBO,5.784574,51.041409
Julianalaan,37,,,6124AG,Papenhoven,Sittard-Geleen,Limburg,VBO,5.784974,51.041408
Julianalaan,39,,,6124AG,Papenhoven,Sittard-Geleen,Limburg,VBO,5.785216,51.041380
Julianalaan,41,,,6124AG,Papenhoven,Sittard-Geleen,Limburg,VBO,5.785301,51.041371
Julianalaan,43,,,6124AG,Papenhoven,Sittard-Geleen,Limburg,VBO,5.785728,51.041297
Julianalaan,47,,,6124AG,Papenhoven,Sittard-Geleen,Limburg,VBO,5.786255,51.041179
Julianalaan,2,,,6124AH,Papenhoven,Sittard-Geleen,Limburg,VBO,5.780136,51.040993
Julianalaan,4,,,6124AH,Papenhoven,Sittard-Geleen,Limburg,VBO,5.780720,51.040865
Julianalaan,6,,,6124AH,Papenhoven,Sittard-Geleen,Limburg,VBO,5.780976,51.040855
Julianalaan,8,,,6124AH,Papenhoven,Sittard-Geleen,Limburg,VBO,5.781233,51.040890
Julianalaan,10,,,6124AH,Papenhoven,Sittard-Geleen,Limburg,VBO,5.781420,51.041024
Julianalaan,12,,,6124AH,Papenhoven,Sittard-Geleen,Limburg,VBO,5.781534,51.041042
Julianalaan,14,,,6124AH,Papenhoven,Sittard-Geleen,Limburg,VBO,5.781748,51.041059
Julianalaan,18,,,6124AH,Papenhoven,Sittard-Geleen,Limburg,VBO,5.781948,51.041076
Julianalaan,22,,,6124AH,Papenhoven,Sittard-Geleen,Limburg,VBO,5.782176,51.041067
Julianalaan,26,A,,6124AH,Papenhoven,Sittard-Geleen,Limburg,VBO,5.782531,51.040877
Julianalaan,26,,,6124AH,Papenhoven,Sittard-Geleen,Limburg,VBO,5.782504,51.041128
Julianalaan,30,,,6124AH,Papenhoven,Sittard-Geleen,Limburg,VBO,5.782775,51.041145
Julianalaan,34,,,6124AH,Papenhoven,Sittard-Geleen,Limburg,VBO,5.783075,51.041162
Julianalaan,36,,,6124AH,Papenhoven,Sittard-Geleen,Limburg,VBO,5.783246,51.041162
Julianalaan,38,,,6124AH,Papenhoven,Sittard-Geleen,Limburg,VBO,5.783332,51.041153
Julianalaan,40,,,6124AH,Papenhoven,Sittard-Geleen,Limburg,VBO,5.783460,51.041152
Julianalaan,42,,,6124AH,Papenhoven,Sittard-Geleen,Limburg,VBO,5.783617,51.041152
Julianalaan,44,,,6124AH,Papenhoven,Sittard-Geleen,Limburg,VBO,5.783774,51.041142
Julianalaan,46,,,6124AH,Papenhoven,Sittard-Geleen,Limburg,VBO,5.783873,51.041142
Julianalaan,48,,,6124AH,Papenhoven,Sittard-Geleen,Limburg,VBO,5.784115,51.041114
Julianalaan,52,,,6124AH,Papenhoven,Sittard-Geleen,Limburg,VBO,5.784528,51.041059
Julianalaan,56,,,6124AJ,Papenhoven,Sittard-Geleen,Limburg,VBO,5.785155,51.040958
Julianalaan,58,A,,6124AJ,Papenhoven,Sittard-Geleen,Limburg,VBO,5.785539,51.040857
Julianalaan,58,,,6124AJ,Papenhoven,Sittard-Geleen,Limburg,VBO,5.785553,51.040875
Julianalaan,60,A,,6124AJ,Papenhoven,Sittard-Geleen,Limburg,VBO,5.785681,51.040839
Julianalaan,60,,,6124AJ,Papenhoven,Sittard-Geleen,Limburg,VBO,5.785696,51.040866
Julianalaan,62,A,,6124AJ,Papenhoven,Sittard-Geleen,Limburg,VBO,5.785909,51.040811
Julianalaan,62,,,6124AJ,Papenhoven,Sittard-Geleen,Limburg,VBO,5.785924,51.040829
Julianalaan,64,,,6124AJ,Papenhoven,Sittard-Geleen,Limburg,VBO,5.786066,51.040811
Julianalaan,66,,,6124AJ,Papenhoven,Sittard-Geleen,Limburg,VBO,5.786308,51.040783
Julianalaan,70,,,6124AJ,Papenhoven,Sittard-Geleen,Limburg,VBO,5.786494,51.040764
Julianalaan,72,,,6124AJ,Papenhoven,Sittard-Geleen,Limburg,VBO,5.786593,51.040746
Julianalaan,76,,,6124AJ,Papenhoven,Sittard-Geleen,Limburg,VBO,5.786964,51.040700
Tomberstraat,1,,,6124AK,Papenhoven,Sittard-Geleen,Limburg,VBO,5.785111,51.040823
Tomberstraat,3,,,6124AK,Papenhoven,Sittard-Geleen,Limburg,VBO,5.785138,51.040643
Tomberstraat,5,,,6124AK,Papenhoven,Sittard-Geleen,Limburg,VBO,5.785265,51.040544
Tomberstraat,9,,,6124AK,Papenhoven,Sittard-Geleen,Limburg,VBO,5.785622,51.040516
Tomberstraat,10,,,6124AK,Papenhoven,Sittard-Geleen,Limburg,VBO,5.784682,51.040654
Tomberstraat,11,,,6124AK,Papenhoven,Sittard-Geleen,Limburg,VBO,5.785206,51.040220
Tomberstraat,12,,,6124AK,Papenhoven,Sittard-Geleen,Limburg,VBO,5.784695,51.040492
Tomberstraat,13,,,6124AK,Papenhoven,Sittard-Geleen,Limburg,VBO,5.785191,51.040121
Tomberstraat,14,,,6124AK,Papenhoven,Sittard-Geleen,Limburg,VBO,5.784708,51.040357
Tomberstraat,16,,,6124AK,Papenhoven,Sittard-Geleen,Limburg,VBO,5.784707,51.040231
Tomberstraat,17,,,6124AK,Papenhoven,Sittard-Geleen,Limburg,VBO,5.785161,51.039987
Tomberstraat,18,,,6124AK,Papenhoven,Sittard-Geleen,Limburg,VBO,5.784720,51.040105
Tomberstraat,20,,,6124AK,Papenhoven,Sittard-Geleen,Limburg,VBO,5.784733,51.039979
Tomberstraat,33,,,6124AK,Papenhoven,Sittard-Geleen,Limburg,VBO,5.785163,51.038531
Tomberstraat,39,,,6124AK,Papenhoven,Sittard-Geleen,Limburg,VBO,5.784874,51.038172
Tomberstraat,45,,,6124AK,Papenhoven,Sittard-Geleen,Limburg,VBO,5.784844,51.037911
Tomberstraat,71,A,,6124AK,Papenhoven,Sittard-Geleen,Limburg,VBO,5.784970,51.036059
Tomberstraat,71,,,6124AK,Papenhoven,Sittard-Geleen,Limburg,VBO,5.784842,51.036060
Tomberstraat,73,,,6124AK,Papenhoven,Sittard-Geleen,Limburg,VBO,5.784769,51.035844
Kommelweg,6,,,6124AL,Papenhoven,Sittard-Geleen,Limburg,VBO,5.786803,51.040323
Kommelweg,8,,,6124AL,Papenhoven,Sittard-Geleen,Limburg,VBO,5.786788,51.040170
Kommelweg,10,,,6124AL,Papenhoven,Sittard-Geleen,Limburg,VBO,5.786673,51.040035
Kommelweg,12,,,6124AL,Papenhoven,Sittard-Geleen,Limburg,VBO,5.786572,51.039928
Meerveldweg,6,,,6124AM,Papenhoven,Sittard-Geleen,Limburg,VBO,5.790608,51.044984
Meerveldweg,8,,,6124AM,Papenhoven,Sittard-Geleen,Limburg,VBO,5.790694,51.045019
Meerveldweg,35,A,,6124AM,Papenhoven,Sittard-Geleen,Limburg,VBO,5.787340,51.043911
Meerveldweg,35,,,6124AM,Papenhoven,Sittard-Geleen,Limburg,VBO,5.787596,51.043876
Meerveldweg,61,A,,6124AM,Papenhoven,Sittard-Geleen,Limburg,VBO,5.790583,51.045325
Meerveldweg,61,,,6124AM,Papenhoven,Sittard-Geleen,Limburg,VBO,5.790397,51.045254
Meerveldweg,63,,,6124AM,Papenhoven,Sittard-Geleen,Limburg,VBO,5.790754,51.045388
Schinkelkuildeweg,50,,,6124AN,Papenhoven,Sittard-Geleen,Limburg,VBO,5.793297,51.041216
Berghaven,1,,,6124AP,Papenhoven,Sittard-Geleen,Limburg,VBO,5.792978,51.045254
Berghaven,3,,,6124AP,Papenhoven,Sittard-Geleen,Limburg,LIG,5.792939,51.044950
Berghaven,4,,,6124AP,Papenhoven,Sittard-Geleen,Limburg,LIG,5.792960,51.044745
Berghaven,5,,,6124AP,Papenhoven,Sittard-Geleen,Limburg,LIG,5.792991,51.044556
Berghaven,6,,,6124AP,Papenhoven,Sittard-Geleen,Limburg,LIG,5.793146,51.044469
Berghaven,7,A,,6124AP,Papenhoven,Sittard-Geleen,Limburg,LIG,5.793896,51.044512
Berghaven,7,,,6124AP,Papenhoven,Sittard-Geleen,Limburg,LIG,5.793515,51.044496
Berghaven,8,,,6124AP,Papenhoven,Sittard-Geleen,Limburg,LIG,5.794294,51.044526
Berghaven,9,,,6124AP,Papenhoven,Sittard-Geleen,Limburg,LIG,5.794698,51.044439
Berghaven,10,,,6124AP,Papenhoven,Sittard-Geleen,Limburg,LIG,5.794801,51.044156
Berghaven,11,,,6124AP,Papenhoven,Sittard-Geleen,Limburg,LIG,5.794853,51.043824
Berghaven,12,,,6124AP,Papenhoven,Sittard-Geleen,Limburg,LIG,5.794888,51.043571
Berghaven,13,,,6124AP,Papenhoven,Sittard-Geleen,Limburg,LIG,5.794919,51.043325
Berghaven,14,,,6124AP,Papenhoven,Sittard-Geleen,Limburg,LIG,5.794999,51.043066
Berghaven,15,,,6124AP,Papenhoven,Sittard-Geleen,Limburg,LIG,5.795433,51.042956
Berghaven,16,,,6124AP,Papenhoven,Sittard-Geleen,Limburg,LIG,5.795975,51.042994
Berghaven,17,,,6124AP,Papenhoven,Sittard-Geleen,Limburg,LIG,5.796411,51.043063
Berghaven,25,A,,6124AP,Papenhoven,Sittard-Geleen,Limburg,VBO,5.796508,51.045830
Berghaven,25,,,6124AP,Papenhoven,Sittard-Geleen,Limburg,VBO,5.796761,51.045867
Berghaven,27,A,,6124AP,Papenhoven,Sittard-Geleen,Limburg,VBO,5.798871,51.046196
Berghaven,27,,,6124AP,Papenhoven,Sittard-Geleen,Limburg,VBO,5.797975,51.046070
Berghaven,29,,,6124AP,Papenhoven,Sittard-Geleen,Limburg,VBO,5.799846,51.046326
Sterre der Zeeplein,1,,,6124AR,Papenhoven,Sittard-Geleen,Limburg,VBO,5.791041,51.045504
Sterre der Zeeplein,2,,,6124AR,Papenhoven,Sittard-Geleen,Limburg,VBO,5.792098,51.045734
Sterre der Zeeplein,3,,,6124AR,Papenhoven,Sittard-Geleen,Limburg,VBO,5.791070,51.045647
Sterre der Zeeplein,4,,,6124AR,Papenhoven,Sittard-Geleen,Limburg,VBO,5.792056,51.045833
Sterre der Zeeplein,5,,,6124AR,Papenhoven,Sittard-Geleen,Limburg,VBO,5.791042,51.045710
Sterre der Zeeplein,6,,,6124AR,Papenhoven,Sittard-Geleen,Limburg,VBO,5.792042,51.045887
Sterre der Zeeplein,7,,,6124AR,Papenhoven,Sittard-Geleen,Limburg,VBO,5.791001,51.045827
Sterre der Zeeplein,8,,,6124AR,Papenhoven,Sittard-Geleen,Limburg,VBO,5.792015,51.045995
Sterre der Zeeplein,10,,,6124AR,Papenhoven,Sittard-Geleen,Limburg,VBO,5.792001,51.046058
Sterre der Zeeplein,12,,,6124AR,Papenhoven,Sittard-Geleen,Limburg,VBO,5.791459,51.046050
Deltalaan,1,,,6124AS,Papenhoven,Sittard-Geleen,Limburg,VBO,5.790959,51.045926
Deltalaan,2,,,6124AS,Papenhoven,Sittard-Geleen,Limburg,VBO,5.790447,51.046090
Deltalaan,3,,,6124AS,Papenhoven,Sittard-Geleen,Limburg,VBO,5.790473,51.045856
Deltalaan,4,,,6124AS,Papenhoven,Sittard-Geleen,Limburg,VBO,5.790361,51.046081
Deltalaan,5,,,6124AS,Papenhoven,Sittard-Geleen,Limburg,VBO,5.790388,51.045847
Deltalaan,6,,,6124AS,Papenhoven,Sittard-Geleen,Limburg,VBO,5.790190,51.046055
Deltalaan,7,,,6124AS,Papenhoven,Sittard-Geleen,Limburg,VBO,5.790216,51.045830
Deltalaan,8,,,6124AS,Papenhoven,Sittard-Geleen,Limburg,VBO,5.790104,51.046046
Deltalaan,9,,,6124AS,Papenhoven,Sittard-Geleen,Limburg,VBO,5.790131,51.045821
Deltalaan,10,,,6124AS,Papenhoven,Sittard-Geleen,Limburg,VBO,5.789933,51.046020
Deltalaan,11,,,6124AS,Papenhoven,Sittard-Geleen,Limburg,VBO,5.789831,51.045768
Deltalaan,12,,,6124AS,Papenhoven,Sittard-Geleen,Limburg,VBO,5.789847,51.046011
Deltalaan,14,,,6124AS,Papenhoven,Sittard-Geleen,Limburg,VBO,5.789676,51.045985
Kanaallaan,1,,,6124AT,Papenhoven,Sittard-Geleen,Limburg,VBO,5.790804,51.046134
Kanaallaan,3,,,6124AT,Papenhoven,Sittard-Geleen,Limburg,VBO,5.790790,51.046197
Kanaallaan,5,,,6124AT,Papenhoven,Sittard-Geleen,Limburg,VBO,5.790777,51.046296
Kanaallaan,7,,,6124AT,Papenhoven,Sittard-Geleen,Limburg,VBO,5.790763,51.046358
Medealaan,9,,,6124AV,Papenhoven,Sittard-Geleen,Limburg,VBO,5.789967,51.046649
Medealaan,11,,,6124AV,Papenhoven,Sittard-Geleen,Limburg,VBO,5.790152,51.046657
Medealaan,13,,,6124AV,Papenhoven,Sittard-Geleen,Limburg,VBO,5.790238,51.046657
Medealaan,15,,,6124AV,Papenhoven,Sittard-Geleen,Limburg,VBO,5.790466,51.046665
Medealaan,17,,,6124AV,Papenhoven,Sittard-Geleen,Limburg,VBO,5.790566,51.046674
Medealaan,19,,,6124AV,Papenhoven,Sittard-Geleen,Limburg,VBO,5.790837,51.046682
Medealaan,21,,,6124AV,Papenhoven,Sittard-Geleen,Limburg,VBO,5.790923,51.046691
Medealaan,23,,,6124AV,Papenhoven,Sittard-Geleen,Limburg,VBO,5.791165,51.046699
Medealaan,25,,,6124AV,Papenhoven,Sittard-Geleen,Limburg,VBO,5.791336,51.046707
Medealaan,27,,,6124AV,Papenhoven,Sittard-Geleen,Limburg,VBO,5.791536,51.046715
Medealaan,29,,,6124AV,Papenhoven,Sittard-Geleen,Limburg,VBO,5.791636,51.046724
Medealaan,33,A,,6124AV,Papenhoven,Sittard-Geleen,Limburg,VBO,5.791836,51.046750
Medealaan,33,,,6124AV,Papenhoven,Sittard-Geleen,Limburg,VBO,5.791836,51.046732
Medealaan,35,,,6124AV,Papenhoven,Sittard-Geleen,Limburg,VBO,5.791921,51.046741
Medealaan,37,,,6124AV,Papenhoven,Sittard-Geleen,Limburg,VBO,5.792093,51.046758
Medealaan,39,,,6124AV,Papenhoven,Sittard-Geleen,Limburg,VBO,5.792193,51.046767
Medealaan,41,,,6124AV,Papenhoven,Sittard-Geleen,Limburg,VBO,5.792350,51.046784
Medealaan,43,,,6124AV,Papenhoven,Sittard-Geleen,Limburg,VBO,5.792435,51.046793
Medealaan,45,,,6124AV,Papenhoven,Sittard-Geleen,Limburg,VBO,5.792663,51.046810
Medealaan,2,A,,6124AW,Papenhoven,Sittard-Geleen,Limburg,VBO,5.789664,51.046281
Medealaan,2,B,,6124AW,Papenhoven,Sittard-Geleen,Limburg,VBO,5.789750,51.046308
Medealaan,2,,,6124AW,Papenhoven,Sittard-Geleen,Limburg,VBO,5.789479,51.046237
Medealaan,4,,,6124AW,Papenhoven,Sittard-Geleen,Limburg,VBO,5.789936,51.046361
Medealaan,6,,,6124AW,Papenhoven,Sittard-Geleen,Limburg,VBO,5.790122,51.046406
Medealaan,8,,,6124AW,Papenhoven,Sittard-Geleen,Limburg,VBO,5.790322,51.046432
Medealaan,10,,,6124AW,Papenhoven,Sittard-Geleen,Limburg,VBO,5.790407,51.046441
Medealaan,12,,,6124AW,Papenhoven,Sittard-Geleen,Limburg,VBO,5.790693,51.046458
Medealaan,14,A,,6124AW,Papenhoven,Sittard-Geleen,Limburg,VBO,5.792119,51.046543
Medealaan,14,,,6124AW,Papenhoven,Sittard-Geleen,Limburg,VBO,5.791948,51.046525
Medealaan,16,,,6124AW,Papenhoven,Sittard-Geleen,Limburg,VBO,5.792219,51.046551
Medealaan,18,,,6124AW,Papenhoven,Sittard-Geleen,Limburg,VBO,5.792419,51.046568
Medealaan,20,,,6124AW,Papenhoven,Sittard-Geleen,Limburg,VBO,5.792604,51.046586
Medealaan,22,,,6124AW,Papenhoven,Sittard-Geleen,Limburg,VBO,5.792831,51.046378
Roerlaan,2,,,6124AX,Papenhoven,Sittard-Geleen,Limburg,VBO,5.791988,51.046192
Roerlaan,4,,,6124AX,Papenhoven,Sittard-Geleen,Limburg,VBO,5.791946,51.046318
Roerlaan,6,,,6124AX,Papenhoven,Sittard-Geleen,Limburg,VBO,5.791932,51.046381
Abdisstraat,1,,,6124AZ,Papenhoven,Sittard-Geleen,Limburg,VBO,5.779035,51.038911
Abdisstraat,2,A,,6124AZ,Papenhoven,Sittard-Geleen,Limburg,VBO,5.778751,51.039002
Abdisstraat,2,,,6124AZ,Papenhoven,Sittard-Geleen,Limburg,VBO,5.778780,51.039056
Abdisstraat,3,,,6124AZ,Papenhoven,Sittard-Geleen,Limburg,VBO,5.778992,51.038875
Abdisstraat,4,A,,6124AZ,Papenhoven,Sittard-Geleen,Limburg,VBO,5.778607,51.038885
Abdisstraat,4,,,6124AZ,Papenhoven,Sittard-Geleen,Limburg,VBO,5.778650,51.038948
Abdisstraat,5,,,6124AZ,Papenhoven,Sittard-Geleen,Limburg,VBO,5.778849,51.038768
Abdisstraat,6,A,,6124AZ,Papenhoven,Sittard-Geleen,Limburg,VBO,5.778350,51.038832
Abdisstraat,6,,,6124AZ,Papenhoven,Sittard-Geleen,Limburg,VBO,5.778436,51.038868
Abdisstraat,7,,,6124AZ,Papenhoven,Sittard-Geleen,Limburg,VBO,5.778791,51.038741
Abdisstraat,9,,,6124AZ,Papenhoven,Sittard-Geleen,Limburg,VBO,5.778591,51.038679
Abdisstraat,11,,,6124AZ,Papenhoven,Sittard-Geleen,Limburg,VBO,5.778520,51.038670
Ruitersweg,2,A,,6124BA,Papenhoven,Sittard-Geleen,Limburg,VBO,5.778594,51.044108
Ruitersweg,2,,,6124BA,Papenhoven,Sittard-Geleen,Limburg,VBO,5.778681,51.044225
Ruitersweg,4,,,6124BA,Papenhoven,Sittard-Geleen,Limburg,VBO,5.778681,51.044207
Op de Coul,2,,,6124BB,Papenhoven,Sittard-Geleen,Limburg,VBO,5.777049,51.043457
Op de Coul,4,,,6124BB,Papenhoven,Sittard-Geleen,Limburg,VBO,5.777264,51.043591
Op de Coul,6,,,6124BB,Papenhoven,Sittard-Geleen,Limburg,VBO,5.777393,51.043654
Op de Coul,10,,,6124BB,Papenhoven,Sittard-Geleen,Limburg,VBO,5.777593,51.043743
Op de Coul,12,,,6124BB,Papenhoven,Sittard-Geleen,Limburg,VBO,5.777579,51.043779
Op de Coul,14,,,6124BB,Papenhoven,Sittard-Geleen,Limburg,VBO,5.777794,51.043922
Op de Coul,16,,,6124BB,Papenhoven,Sittard-Geleen,Limburg,VBO,5.777996,51.044110
Op de Coul,18,,,6124BB,Papenhoven,Sittard-Geleen,Limburg,VBO,5.778196,51.044235
Op de Coul,20,,,6124BB,Papenhoven,Sittard-Geleen,Limburg,VBO,5.778382,51.044315
Op de Coul,26,,,6124BB,Papenhoven,Sittard-Geleen,Limburg,VBO,5.778800,51.044808
Op de Coul,30,,,6124BB,Papenhoven,Sittard-Geleen,Limburg,VBO,5.778874,51.045114
Op de Coul,32,,,6124BB,Papenhoven,Sittard-Geleen,Limburg,VBO,5.778846,51.045195
Op de Coul,34,,,6124BB,Papenhoven,Sittard-Geleen,Limburg,VBO,5.778861,51.045276
Op de Coul,38,A,,6124BB,Papenhoven,Sittard-Geleen,Limburg,VBO,5.779106,51.045571
Op de Coul,38,,,6124BB,Papenhoven,Sittard-Geleen,Limburg,VBO,5.778920,51.045491
Op de Coul,40,,,6124BB,Papenhoven,Sittard-Geleen,Limburg,VBO,5.779107,51.045661
Op de Coul,42,A,,6124BB,Papenhoven,Sittard-Geleen,Limburg,VBO,5.779109,51.045976
Op de Coul,42,,,6124BB,Papenhoven,Sittard-Geleen,Limburg,VBO,5.779065,51.045823
Op de Coul,44,,,6124BB,Papenhoven,Sittard-Geleen,Limburg,VBO,5.779125,51.046129
Op de Coul,46,,,6124BB,Papenhoven,Sittard-Geleen,Limburg,VBO,5.778970,51.046300
Merker-Eyckstraat,4,,,6124BC,Papenhoven,Sittard-Geleen,Limburg,VBO,5.777764,51.042043
Merker-Eyckstraat,8,,,6124BC,Papenhoven,Sittard-Geleen,Limburg,VBO,5.777580,51.042170
Merker-Eyckstraat,12,,,6124BC,Papenhoven,Sittard-Geleen,Limburg,VBO,5.777495,51.042251
Merker-Eyckstraat,14,,,6124BC,Papenhoven,Sittard-Geleen,Limburg,VBO,5.777254,51.042378
Merker-Eyckstraat,16,,,6124BC,Papenhoven,Sittard-Geleen,Limburg,VBO,5.777184,51.042513
Merker-Eyckstraat,20,,,6124BC,Papenhoven,Sittard-Geleen,Limburg,VBO,5.777086,51.042720
Merker-Eyckstraat,28,,,6124BC,Papenhoven,Sittard-Geleen,Limburg,VBO,5.776988,51.042963
Merker-Eyckstraat,30,,,6124BC,Papenhoven,Sittard-Geleen,Limburg,VBO,5.777032,51.043187
Oude Kerkstraat,1,,,6124BD,Papenhoven,Sittard-Geleen,Limburg,VBO,5.779499,51.041507
Oude Kerkstraat,2,,,6124BD,Papenhoven,Sittard-Geleen,Limburg,VBO,5.779644,51.041758
Oude Kerkstraat,7,,,6124BD,Papenhoven,Sittard-Geleen,Limburg,VBO,5.778844,51.041536
Oude Kerkstraat,8,,,6124BD,Papenhoven,Sittard-Geleen,Limburg,VBO,5.779002,51.041680
Oude Kerkstraat,10,,,6124BD,Papenhoven,Sittard-Geleen,Limburg,VBO,5.778817,51.041743
Oude Kerkstraat,11,,,6124BD,Papenhoven,Sittard-Geleen,Limburg,VBO,5.778487,51.041538
Oude Kerkstraat,12,,,6124BD,Papenhoven,Sittard-Geleen,Limburg,VBO,5.778717,51.041717
Oude Kerkstraat,15,A,,6124BD,Papenhoven,Sittard-Geleen,Limburg,VBO,5.778231,51.041556
Oude Kerkstraat,15,,,6124BD,Papenhoven,Sittard-Geleen,Limburg,VBO,5.778044,51.041440
Oude Kerkstraat,16,,,6124BD,Papenhoven,Sittard-Geleen,Limburg,VBO,5.778517,51.041690
Oude Kerkstraat,18,,,6124BD,Papenhoven,Sittard-Geleen,Limburg,VBO,5.778332,51.041700
Oude Kerkstraat,20,,,6124BD,Papenhoven,Sittard-Geleen,Limburg,VBO,5.778019,51.041764
Burg. Houbenstraat,7,,,6124BE,Papenhoven,Sittard-Geleen,Limburg,VBO,5.780519,51.040695
Burg. Houbenstraat,11,,,6124BE,Papenhoven,Sittard-Geleen,Limburg,VBO,5.779702,51.040203
Burg. Houbenstraat,13,,,6124BE,Papenhoven,Sittard-Geleen,Limburg,VBO,5.779487,51.040123
Burg. Houbenstraat,15,,,6124BE,Papenhoven,Sittard-Geleen,Limburg,VBO,5.779244,51.039998
Burg. Houbenstraat,17,,,6124BE,Papenhoven,Sittard-Geleen,Limburg,VBO,5.779087,51.039945
Burg. Houbenstraat,20,,,6124BE,Papenhoven,Sittard-Geleen,Limburg,VBO,5.779691,51.040644
Burg. Houbenstraat,21,,,6124BE,Papenhoven,Sittard-Geleen,Limburg,VBO,5.778829,51.039856
Burg. Houbenstraat,22,,,6124BE,Papenhoven,Sittard-Geleen,Limburg,VBO,5.779448,51.040510
Burg. Houbenstraat,23,,,6124BE,Papenhoven,Sittard-Geleen,Limburg,VBO,5.778729,51.039811
Burg. Houbenstraat,24,,,6124BE,Papenhoven,Sittard-Geleen,Limburg,VBO,5.779176,51.040385
Burg. Houbenstraat,25,,,6124BE,Papenhoven,Sittard-Geleen,Limburg,VBO,5.778486,51.039695
Burg. Houbenstraat,28,,,6124BE,Papenhoven,Sittard-Geleen,Limburg,VBO,5.778832,51.040125
Burg. Houbenstraat,32,,,6124BE,Papenhoven,Sittard-Geleen,Limburg,VBO,5.778502,51.039973
Burg. Houbenstraat,34,,,6124BE,Papenhoven,Sittard-Geleen,Limburg,VBO,5.778388,51.039920
Burg. Houbenstraat,36,,,6124BE,Papenhoven,Sittard-Geleen,Limburg,VBO,5.778187,51.039759
Frankenstraat,17,A,,6124BG,Papenhoven,Sittard-Geleen,Limburg,VBO,5.781074,51.035542
Frankenstraat,17,,,6124BG,Papenhoven,Sittard-Geleen,Limburg,VBO,5.781074,51.035560
Frankenstraat,20,,,6124BG,Papenhoven,Sittard-Geleen,Limburg,VBO,5.780321,51.035850
Kempenweg,70,,,6124BH,Papenhoven,Sittard-Geleen,Limburg,VBO,5.778249,51.035381
Waddenlaan,2,,,6124BK,Papenhoven,Sittard-Geleen,Limburg,VBO,5.790141,51.045363
Waddenlaan,4,,,6124BK,Papenhoven,Sittard-Geleen,Limburg,VBO,5.790071,51.045453
Waddenlaan,6,,,6124BK,Papenhoven,Sittard-Geleen,Limburg,VBO,5.789972,51.045579
Waddenlaan,8,,,6124BK,Papenhoven,Sittard-Geleen,Limburg,VBO,5.789873,51.045714
Grote Tienden,2,,,6124CA,Papenhoven,Sittard-Geleen,Limburg,VBO,5.779504,51.038694
Grote Tienden,4,,,6124CA,Papenhoven,Sittard-Geleen,Limburg,VBO,5.779461,51.038658
Grote Tienden,6,,,6124CA,Papenhoven,Sittard-Geleen,Limburg,VBO,5.779332,51.038586
Grote Tienden,8,,,6124CA,Papenhoven,Sittard-Geleen,Limburg,VBO,5.779274,51.038551
Grote Tienden,10,,,6124CA,Papenhoven,Sittard-Geleen,Limburg,VBO,5.779117,51.038515
Grote Tienden,12,,,6124CA,Papenhoven,Sittard-Geleen,Limburg,VBO,5.779060,51.038488
Grote Tienden,14,,,6124CA,Papenhoven,Sittard-Geleen,Limburg,VBO,5.778917,51.038444
Grote Tienden,16,,,6124CA,Papenhoven,Sittard-Geleen,Limburg,VBO,5.778846,51.038426
Grote Tienden,18,,,6124CA,Papenhoven,Sittard-Geleen,Limburg,VBO,5.778703,51.038382
Grote Tienden,20,,,6124CA,Papenhoven,Sittard-Geleen,Limburg,VBO,5.778631,51.038364
Grote Tienden,22,,,6124CA,Papenhoven,Sittard-Geleen,Limburg,VBO,5.778644,51.038238
Grote Tienden,24,,,6124CA,Papenhoven,Sittard-Geleen,Limburg,VBO,5.778672,51.038184
Grote Tienden,26,,,6124CA,Papenhoven,Sittard-Geleen,Limburg,VBO,5.778729,51.038103
Grote Tienden,28,,,6124CA,Papenhoven,Sittard-Geleen,Limburg,VBO,5.778757,51.038049
Grote Tienden,30,,,6124CA,Papenhoven,Sittard-Geleen,Limburg,VBO,5.778842,51.037977
Grote Tienden,32,,,6124CA,Papenhoven,Sittard-Geleen,Limburg,VBO,5.778870,51.037923
Grote Tienden,34,,,6124CA,Papenhoven,Sittard-Geleen,Limburg,VBO,5.778926,51.037842
Grote Tienden,36,,,6124CA,Papenhoven,Sittard-Geleen,Limburg,VBO,5.778954,51.037788
Grote Tienden,38,,,6124CA,Papenhoven,Sittard-Geleen,Limburg,VBO,5.778996,51.037698
Grote Tienden,40,,,6124CA,Papenhoven,Sittard-Geleen,Limburg,VBO,5.779024,51.037644
Grote Tienden,1,,,6124CB,Papenhoven,Sittard-Geleen,Limburg,VBO,5.779759,51.038576
Grote Tienden,3,,,6124CB,Papenhoven,Sittard-Geleen,Limburg,VBO,5.779716,51.038540
Grote Tienden,5,,,6124CB,Papenhoven,Sittard-Geleen,Limburg,VBO,5.779602,51.038469
Grote Tienden,7,,,6124CB,Papenhoven,Sittard-Geleen,Limburg,VBO,5.779544,51.038433
Grote Tienden,9,,,6124CB,Papenhoven,Sittard-Geleen,Limburg,VBO,5.779699,51.038217
Grote Tienden,11,,,6124CB,Papenhoven,Sittard-Geleen,Limburg,VBO,5.779642,51.038181
Grote Tienden,13,,,6124CB,Papenhoven,Sittard-Geleen,Limburg,VBO,5.779527,51.038109
Grote Tienden,15,,,6124CB,Papenhoven,Sittard-Geleen,Limburg,VBO,5.779470,51.038083
Grote Tienden,17,,,6124CB,Papenhoven,Sittard-Geleen,Limburg,VBO,5.779127,51.037994
Grote Tienden,19,,,6124CB,Papenhoven,Sittard-Geleen,Limburg,VBO,5.779141,51.037958
Grote Tienden,21,,,6124CB,Papenhoven,Sittard-Geleen,Limburg,VBO,5.779211,51.037859
Grote Tienden,23,,,6124CB,Papenhoven,Sittard-Geleen,Limburg,VBO,5.779225,51.037823
Grote Tienden,25,,,6124CB,Papenhoven,Sittard-Geleen,Limburg,VBO,5.779324,51.037723
Grote Tienden,27,,,6124CB,Papenhoven,Sittard-Geleen,Limburg,VBO,5.779353,51.037687
Stiftstraat,4,,,6124CC,Papenhoven,Sittard-Geleen,Limburg,VBO,5.778723,51.037393
Stiftstraat,6,,,6124CC,Papenhoven,Sittard-Geleen,Limburg,VBO,5.778937,51.037419
Stiftstraat,8,,,6124CC,Papenhoven,Sittard-Geleen,Limburg,VBO,5.779151,51.037445
Stiftstraat,10,,,6124CC,Papenhoven,Sittard-Geleen,Limburg,VBO,5.779422,51.037471
Stiftstraat,12,,,6124CC,Papenhoven,Sittard-Geleen,Limburg,VBO,5.779722,51.037488
