openbareruimtenaam,huisnummer,huisletter,huisnummertoevoeging,postcode,woonplaatsnaam,gemeentenaam,provincienaam,typeadresseerbaarobject,longitude,latitude
Kastanjelaan,1,,,6261NA,Mheer,Eijsden-Margraten,Limburg,VBO,5.792190,50.781116
Kastanjelaan,2,,,6261NA,Mheer,Eijsden-Margraten,Limburg,VBO,5.792197,50.781198
Kastanjelaan,3,,,6261NA,Mheer,Eijsden-Margraten,Limburg,VBO,5.792203,50.781254
Kastanjelaan,4,,,6261NA,Mheer,Eijsden-Margraten,Limburg,VBO,5.792289,50.781308
Kastanjelaan,5,,,6261NA,Mheer,Eijsden-Margraten,Limburg,VBO,5.792484,50.781118
Kastanjelaan,6,,,6261NA,Mheer,Eijsden-Margraten,Limburg,VBO,5.792542,50.781185
Kastanjelaan,7,,,6261NA,Mheer,Eijsden-Margraten,Limburg,VBO,5.792527,50.781240
Kastanjelaan,8,,,6261NA,Mheer,Eijsden-Margraten,Limburg,VBO,5.792508,50.781322
Kastanjelaan,9,,,6261NA,Mheer,Eijsden-Margraten,Limburg,VBO,5.792002,50.781488
Kastanjelaan,10,,,6261NA,Mheer,Eijsden-Margraten,Limburg,VBO,5.791905,50.781668
Wienickerstraat,1,,,6261NB,Mheer,Eijsden-Margraten,Limburg,VBO,5.794558,50.776192
Wienickerstraat,3,,,6261NB,Mheer,Eijsden-Margraten,Limburg,VBO,5.794769,50.776448
Wienickerstraat,4,,,6261NB,Mheer,Eijsden-Margraten,Limburg,VBO,5.794904,50.776120
Wienickerstraat,5,,,6261NB,Mheer,Eijsden-Margraten,Limburg,VBO,5.794928,50.776605
Wienickerstraat,6,,,6261NB,Mheer,Eijsden-Margraten,Limburg,VBO,5.795076,50.776318
Wienickerstraat,8,,,6261NB,Mheer,Eijsden-Margraten,Limburg,VBO,5.795120,50.776434
Stallestraat,1,,,6261NC,Mheer,Eijsden-Margraten,Limburg,VBO,5.793766,50.777399
Stallestraat,3,,,6261NC,Mheer,Eijsden-Margraten,Limburg,VBO,5.793996,50.777114
Stallestraat,5,,,6261NC,Mheer,Eijsden-Margraten,Limburg,VBO,5.794061,50.776932
Stallestraat,7,,,6261NC,Mheer,Eijsden-Margraten,Limburg,VBO,5.794060,50.776789
Stallestraat,9,,,6261NC,Mheer,Eijsden-Margraten,Limburg,VBO,5.794087,50.776690
Stallestraat,11,,,6261NC,Mheer,Eijsden-Margraten,Limburg,VBO,5.794115,50.776636
Stallestraat,13,,,6261NC,Mheer,Eijsden-Margraten,Limburg,VBO,5.794142,50.776528
Stallestraat,15,,,6261NC,Mheer,Eijsden-Margraten,Limburg,VBO,5.794170,50.776474
Stallestraat,17,,,6261NC,Mheer,Eijsden-Margraten,Limburg,VBO,5.794268,50.776347
Stallestraat,21,,,6261NC,Mheer,Eijsden-Margraten,Limburg,VBO,5.795510,50.775264
Stallestraat,23,,,6261NC,Mheer,Eijsden-Margraten,Limburg,VBO,5.795779,50.775211
Stallestraat,25,,,6261NC,Mheer,Eijsden-Margraten,Limburg,VBO,5.795786,50.775181
Stallestraat,2,,,6261ND,Mheer,Eijsden-Margraten,Limburg,VBO,5.793551,50.777459
Stallestraat,4,,,6261ND,Mheer,Eijsden-Margraten,Limburg,VBO,5.793544,50.777375
Stallestraat,8,,,6261ND,Mheer,Eijsden-Margraten,Limburg,VBO,5.793486,50.777182
Stallestraat,10,A,,6261ND,Mheer,Eijsden-Margraten,Limburg,VBO,5.793527,50.776990
Stallestraat,10,,,6261ND,Mheer,Eijsden-Margraten,Limburg,VBO,5.793493,50.777069
Stallestraat,12,,,6261ND,Mheer,Eijsden-Margraten,Limburg,VBO,5.793662,50.776907
Stallestraat,14,,,6261ND,Mheer,Eijsden-Margraten,Limburg,VBO,5.793655,50.776809
Stallestraat,16,,,6261ND,Mheer,Eijsden-Margraten,Limburg,VBO,5.793775,50.776682
Stallestraat,18,,,6261ND,Mheer,Eijsden-Margraten,Limburg,VBO,5.793857,50.776362
Stallestraat,20,,,6261ND,Mheer,Eijsden-Margraten,Limburg,VBO,5.794040,50.776222
Stallestraat,22,,,6261ND,Mheer,Eijsden-Margraten,Limburg,VBO,5.794110,50.776051
Stallestraat,24,,,6261ND,Mheer,Eijsden-Margraten,Limburg,VBO,5.794264,50.775853
Stallestraat,26,,,6261ND,Mheer,Eijsden-Margraten,Limburg,VBO,5.794631,50.775717
Stallestraat,28,,,6261ND,Mheer,Eijsden-Margraten,Limburg,VBO,5.794836,50.775447
Stallestraat,30,,,6261ND,Mheer,Eijsden-Margraten,Limburg,VBO,5.795081,50.775221
Stallestraat,32,,,6261ND,Mheer,Eijsden-Margraten,Limburg,VBO,5.795163,50.775083
Stallestraat,34,,,6261ND,Mheer,Eijsden-Margraten,Limburg,VBO,5.795198,50.774745
Stallestraat,36,A,,6261ND,Mheer,Eijsden-Margraten,Limburg,VBO,5.795396,50.773979
Stallestraat,36,,,6261ND,Mheer,Eijsden-Margraten,Limburg,VBO,5.795227,50.774169
Stallestraat,38,,,6261ND,Mheer,Eijsden-Margraten,Limburg,VBO,5.795983,50.772794
Papenweg,1,A,,6261NE,Mheer,Eijsden-Margraten,Limburg,VBO,5.793787,50.778048
Papenweg,1,,,6261NE,Mheer,Eijsden-Margraten,Limburg,VBO,5.793607,50.778235
Papenweg,2,,,6261NE,Mheer,Eijsden-Margraten,Limburg,VBO,5.794720,50.777664
Papenweg,3,,,6261NE,Mheer,Eijsden-Margraten,Limburg,VBO,5.794128,50.778024
Papenweg,4,,,6261NE,Mheer,Eijsden-Margraten,Limburg,VBO,5.795158,50.777621
Papenweg,5,,,6261NE,Mheer,Eijsden-Margraten,Limburg,VBO,5.794440,50.778002
Papenweg,7,,,6261NE,Mheer,Eijsden-Margraten,Limburg,VBO,5.794657,50.777940
Papenweg,8,,,6261NE,Mheer,Eijsden-Margraten,Limburg,VBO,5.795704,50.777398
Papenweg,9,,,6261NE,Mheer,Eijsden-Margraten,Limburg,VBO,5.794737,50.777870
Papenweg,10,,,6261NE,Mheer,Eijsden-Margraten,Limburg,VBO,5.795879,50.777330
Papenweg,11,,,6261NE,Mheer,Eijsden-Margraten,Limburg,VBO,5.794836,50.777796
Papenweg,12,,,6261NE,Mheer,Eijsden-Margraten,Limburg,VBO,5.796148,50.777258
Papenweg,13,,,6261NE,Mheer,Eijsden-Margraten,Limburg,VBO,5.795075,50.777774
Papenweg,16,,,6261NE,Mheer,Eijsden-Margraten,Limburg,VBO,5.796758,50.777300
Papenweg,17,,,6261NE,Mheer,Eijsden-Margraten,Limburg,VBO,5.795584,50.777655
Papenweg,18,,,6261NE,Mheer,Eijsden-Margraten,Limburg,VBO,5.797055,50.777263
Papenweg,21,,,6261NE,Mheer,Eijsden-Margraten,Limburg,VBO,5.796065,50.777549
Papenweg,23,,,6261NE,Mheer,Eijsden-Margraten,Limburg,VBO,5.796357,50.777527
Papenweg,25,,,6261NE,Mheer,Eijsden-Margraten,Limburg,VBO,5.796620,50.777509
Papenweg,27,,,6261NE,Mheer,Eijsden-Margraten,Limburg,VBO,5.796844,50.777462
Papenweg,29,,,6261NE,Mheer,Eijsden-Margraten,Limburg,VBO,5.797042,50.777443
Papenweg,31,,,6261NE,Mheer,Eijsden-Margraten,Limburg,VBO,5.798863,50.777288
Noorbeekerweg,1,,,6261NG,Mheer,Eijsden-Margraten,Limburg,VBO,5.801319,50.774922
Dorpsstraat,1,,,6261NH,Mheer,Eijsden-Margraten,Limburg,VBO,5.792448,50.780543
Dorpsstraat,3,,,6261NH,Mheer,Eijsden-Margraten,Limburg,VBO,5.792206,50.780418
Dorpsstraat,5,A,,6261NH,Mheer,Eijsden-Margraten,Limburg,VBO,5.792278,50.780269
Dorpsstraat,5,B,,6261NH,Mheer,Eijsden-Margraten,Limburg,VBO,5.792419,50.780314
Dorpsstraat,5,C,,6261NH,Mheer,Eijsden-Margraten,Limburg,VBO,5.792432,50.780336
Dorpsstraat,5,,,6261NH,Mheer,Eijsden-Margraten,Limburg,VBO,5.792247,50.780292
Dorpsstraat,7,,,6261NH,Mheer,Eijsden-Margraten,Limburg,VBO,5.792344,50.780040
Dorpsstraat,9,,,6261NH,Mheer,Eijsden-Margraten,Limburg,VBO,5.792171,50.779654
Dorpsstraat,11,,,6261NH,Mheer,Eijsden-Margraten,Limburg,VBO,5.791629,50.779332
Dorpsstraat,13,,,6261NH,Mheer,Eijsden-Margraten,Limburg,VBO,5.791767,50.778927
Dorpsstraat,15,,,6261NH,Mheer,Eijsden-Margraten,Limburg,VBO,5.791908,50.778846
Dorpsstraat,17,,,6261NH,Mheer,Eijsden-Margraten,Limburg,VBO,5.791938,50.778816
Dorpsstraat,19,,,6261NH,Mheer,Eijsden-Margraten,Limburg,VBO,5.792163,50.778719
Dorpsstraat,21,,,6261NH,Mheer,Eijsden-Margraten,Limburg,VBO,5.792247,50.778683
Dorpsstraat,23,,,6261NH,Mheer,Eijsden-Margraten,Limburg,VBO,5.792487,50.778502
Dorpsstraat,25,,,6261NH,Mheer,Eijsden-Margraten,Limburg,VBO,5.792642,50.778430
Dorpsstraat,27,,,6261NH,Mheer,Eijsden-Margraten,Limburg,VBO,5.793193,50.778260
Dorpsstraat,29,,,6261NH,Mheer,Eijsden-Margraten,Limburg,VBO,5.793522,50.777941
Dorpsstraat,31,,,6261NH,Mheer,Eijsden-Margraten,Limburg,VBO,5.793671,50.777743
Dorpsstraat,33,,,6261NH,Mheer,Eijsden-Margraten,Limburg,VBO,5.793911,50.777616
Dorpsstraat,35,,,6261NH,Mheer,Eijsden-Margraten,Limburg,VBO,5.794250,50.777507
Dorpsstraat,37,,,6261NH,Mheer,Eijsden-Margraten,Limburg,VBO,5.794442,50.777473
Dorpsstraat,39,,,6261NH,Mheer,Eijsden-Margraten,Limburg,VBO,5.795438,50.777215
Dorpsstraat,43,,,6261NH,Mheer,Eijsden-Margraten,Limburg,VBO,5.796344,50.776969
Dorpsstraat,45,,,6261NH,Mheer,Eijsden-Margraten,Limburg,VBO,5.796640,50.776779
Dorpsstraat,2,,,6261NJ,Mheer,Eijsden-Margraten,Limburg,VBO,5.791846,50.780521
Dorpsstraat,4,,,6261NJ,Mheer,Eijsden-Margraten,Limburg,VBO,5.791099,50.780296
Dorpsstraat,6,A,,6261NJ,Mheer,Eijsden-Margraten,Limburg,VBO,5.790518,50.780487
Dorpsstraat,6,,,6261NJ,Mheer,Eijsden-Margraten,Limburg,VBO,5.790730,50.780575
Dorpsstraat,8,A,,6261NJ,Mheer,Eijsden-Margraten,Limburg,VBO,5.790425,50.779731
Dorpsstraat,8,,,6261NJ,Mheer,Eijsden-Margraten,Limburg,VBO,5.790572,50.780028
Dorpsstraat,10,A,,6261NJ,Mheer,Eijsden-Margraten,Limburg,VBO,5.790869,50.779973
Dorpsstraat,10,,,6261NJ,Mheer,Eijsden-Margraten,Limburg,VBO,5.791068,50.780044
Dorpsstraat,12,,,6261NJ,Mheer,Eijsden-Margraten,Limburg,VBO,5.791289,50.779297
Dorpsstraat,14,,,6261NJ,Mheer,Eijsden-Margraten,Limburg,VBO,5.791386,50.779117
Dorpsstraat,16,,,6261NJ,Mheer,Eijsden-Margraten,Limburg,VBO,5.791391,50.778851
Dorpsstraat,20,,,6261NJ,Mheer,Eijsden-Margraten,Limburg,VBO,5.791815,50.778645
Dorpsstraat,22,,,6261NJ,Mheer,Eijsden-Margraten,Limburg,VBO,5.791976,50.778589
Dorpsstraat,24,,,6261NJ,Mheer,Eijsden-Margraten,Limburg,VBO,5.792214,50.778390
Dorpsstraat,26,,,6261NJ,Mheer,Eijsden-Margraten,Limburg,VBO,5.792524,50.778221
Dorpsstraat,28,,,6261NJ,Mheer,Eijsden-Margraten,Limburg,VBO,5.793007,50.778042
Dorpsstraat,30,,,6261NJ,Mheer,Eijsden-Margraten,Limburg,VBO,5.793045,50.777854
Dorpsstraat,32,,,6261NJ,Mheer,Eijsden-Margraten,Limburg,VBO,5.793176,50.777672
Dorpsstraat,34,,,6261NJ,Mheer,Eijsden-Margraten,Limburg,VBO,5.793096,50.777547
Dorpsstraat,36,,,6261NJ,Mheer,Eijsden-Margraten,Limburg,VBO,5.793400,50.777573
Dorpsstraat,38,,,6261NJ,Mheer,Eijsden-Margraten,Limburg,VBO,5.793536,50.777528
Dorpsstraat,40,A,,6261NJ,Mheer,Eijsden-Margraten,Limburg,VBO,5.794292,50.777071
Dorpsstraat,40,,,6261NJ,Mheer,Eijsden-Margraten,Limburg,VBO,5.794395,50.777294
Dorpsstraat,42,A,,6261NJ,Mheer,Eijsden-Margraten,Limburg,VBO,5.794612,50.777206
Dorpsstraat,42,,,6261NJ,Mheer,Eijsden-Margraten,Limburg,VBO,5.794673,50.777254
Dorpsstraat,44,A,,6261NJ,Mheer,Eijsden-Margraten,Limburg,VBO,5.794736,50.777003
Dorpsstraat,44,,,6261NJ,Mheer,Eijsden-Margraten,Limburg,VBO,5.794842,50.777157
Dorpsstraat,46,,,6261NJ,Mheer,Eijsden-Margraten,Limburg,VBO,5.795421,50.776802
Dorpsstraat,48,A,,6261NJ,Mheer,Eijsden-Margraten,Limburg,VBO,5.795912,50.776627
Dorpsstraat,48,,,6261NJ,Mheer,Eijsden-Margraten,Limburg,VBO,5.795787,50.776632
Dorpsstraat,50,A,,6261NJ,Mheer,Eijsden-Margraten,Limburg,VBO,5.796099,50.776557
Dorpsstraat,50,,,6261NJ,Mheer,Eijsden-Margraten,Limburg,VBO,5.796014,50.776593
Dorpsstraat,52,,,6261NJ,Mheer,Eijsden-Margraten,Limburg,VBO,5.796485,50.776195
Steegstraat,2,,,6261NK,Mheer,Eijsden-Margraten,Limburg,VBO,5.791683,50.778478
Steegstraat,5,,,6261NK,Mheer,Eijsden-Margraten,Limburg,VBO,5.791289,50.777706
Steegstraat,6,,,6261NK,Mheer,Eijsden-Margraten,Limburg,VBO,5.791491,50.778110
Steegstraat,7,,,6261NK,Mheer,Eijsden-Margraten,Limburg,VBO,5.791232,50.777661
Steegstraat,8,,,6261NK,Mheer,Eijsden-Margraten,Limburg,VBO,5.791291,50.778088
Steegstraat,9,,,6261NK,Mheer,Eijsden-Margraten,Limburg,VBO,5.791118,50.777572
Steegstraat,10,,,6261NK,Mheer,Eijsden-Margraten,Limburg,VBO,5.791190,50.777982
Steegstraat,11,,,6261NK,Mheer,Eijsden-Margraten,Limburg,VBO,5.790852,50.777481
Steegstraat,12,,,6261NK,Mheer,Eijsden-Margraten,Limburg,VBO,5.790978,50.777797
Steegstraat,13,,,6261NK,Mheer,Eijsden-Margraten,Limburg,VBO,5.790804,50.777433
Steegstraat,14,,,6261NK,Mheer,Eijsden-Margraten,Limburg,VBO,5.790835,50.777708
Steegstraat,15,,,6261NK,Mheer,Eijsden-Margraten,Limburg,VBO,5.790595,50.777369
Steegstraat,16,,,6261NK,Mheer,Eijsden-Margraten,Limburg,VBO,5.790133,50.777426
Steegstraat,17,,,6261NK,Mheer,Eijsden-Margraten,Limburg,VBO,5.790407,50.777240
Steegstraat,19,,,6261NK,Mheer,Eijsden-Margraten,Limburg,VBO,5.790340,50.777083
Steegstraat,21,,,6261NK,Mheer,Eijsden-Margraten,Limburg,VBO,5.790177,50.777054
Steegstraat,23,,,6261NK,Mheer,Eijsden-Margraten,Limburg,VBO,5.790077,50.776973
Steegstraat,25,,,6261NK,Mheer,Eijsden-Margraten,Limburg,VBO,5.789302,50.776232
Jonge Hagen,2,,,6261NL,Mheer,Eijsden-Margraten,Limburg,VBO,5.791865,50.782001
Jonge Hagen,4,,,6261NL,Mheer,Eijsden-Margraten,Limburg,VBO,5.792276,50.782225
Jonge Hagen,6,,,6261NL,Mheer,Eijsden-Margraten,Limburg,VBO,5.792554,50.782392
Jonge Hagen,8,,,6261NL,Mheer,Eijsden-Margraten,Limburg,VBO,5.792637,50.782678
Jonge Hagen,10,,,6261NL,Mheer,Eijsden-Margraten,Limburg,VBO,5.792412,50.782979
Jonge Hagen,12,,,6261NL,Mheer,Eijsden-Margraten,Limburg,VBO,5.792703,50.782966
Jonge Hagen,14,,,6261NL,Mheer,Eijsden-Margraten,Limburg,VBO,5.792955,50.783029
Jonge Hagen,16,,,6261NL,Mheer,Eijsden-Margraten,Limburg,VBO,5.793191,50.783075
Jonge Hagen,18,,,6261NL,Mheer,Eijsden-Margraten,Limburg,VBO,5.793442,50.783119
Jonge Hagen,20,,,6261NL,Mheer,Eijsden-Margraten,Limburg,VBO,5.793680,50.783162
Jonge Hagen,22,,,6261NL,Mheer,Eijsden-Margraten,Limburg,VBO,5.793907,50.783200
Jonge Hagen,24,,,6261NL,Mheer,Eijsden-Margraten,Limburg,VBO,5.794154,50.783171
Jonge Hagen,26,,,6261NL,Mheer,Eijsden-Margraten,Limburg,VBO,5.795027,50.783138
Jonge Hagen,28,,,6261NL,Mheer,Eijsden-Margraten,Limburg,VBO,5.795157,50.783181
Jonge Hagen,30,,,6261NL,Mheer,Eijsden-Margraten,Limburg,VBO,5.795297,50.783154
Jonge Hagen,32,,,6261NL,Mheer,Eijsden-Margraten,Limburg,VBO,5.795414,50.783106
Jonge Hagen,34,,,6261NL,Mheer,Eijsden-Margraten,Limburg,VBO,5.795590,50.783187
Jonge Hagen,36,,,6261NL,Mheer,Eijsden-Margraten,Limburg,VBO,5.795980,50.783086
Jonge Hagen,1,,,6261NM,Mheer,Eijsden-Margraten,Limburg,VBO,5.791441,50.782164
Jonge Hagen,3,,,6261NM,Mheer,Eijsden-Margraten,Limburg,VBO,5.791869,50.782414
Jonge Hagen,5,,,6261NM,Mheer,Eijsden-Margraten,Limburg,VBO,5.792041,50.782719
Jonge Hagen,7,,,6261NM,Mheer,Eijsden-Margraten,Limburg,VBO,5.791346,50.782650
Jonge Hagen,9,,,6261NM,Mheer,Eijsden-Margraten,Limburg,VBO,5.791349,50.783018
Jonge Hagen,11,,,6261NM,Mheer,Eijsden-Margraten,Limburg,VBO,5.791973,50.782944
Jonge Hagen,13,,,6261NM,Mheer,Eijsden-Margraten,Limburg,VBO,5.791819,50.783196
Jonge Hagen,15,,,6261NM,Mheer,Eijsden-Margraten,Limburg,VBO,5.792210,50.783264
Jonge Hagen,17,,,6261NM,Mheer,Eijsden-Margraten,Limburg,VBO,5.792600,50.783338
Jonge Hagen,19,,,6261NM,Mheer,Eijsden-Margraten,Limburg,VBO,5.793054,50.783435
Jonge Hagen,21,,,6261NM,Mheer,Eijsden-Margraten,Limburg,VBO,5.793395,50.783470
Jonge Hagen,23,,,6261NM,Mheer,Eijsden-Margraten,Limburg,VBO,5.793891,50.783495
Jonge Hagen,25,,,6261NM,Mheer,Eijsden-Margraten,Limburg,VBO,5.794204,50.783521
Jonge Hagen,27,,,6261NM,Mheer,Eijsden-Margraten,Limburg,VBO,5.794487,50.783538
Jonge Hagen,29,,,6261NM,Mheer,Eijsden-Margraten,Limburg,VBO,5.794856,50.783536
Jonge Hagen,31,,,6261NM,Mheer,Eijsden-Margraten,Limburg,VBO,5.795323,50.783551
Jonge Hagen,33,,,6261NM,Mheer,Eijsden-Margraten,Limburg,VBO,5.795692,50.783506
Jonge Hagen,35,,,6261NM,Mheer,Eijsden-Margraten,Limburg,VBO,5.796065,50.783474
Jonge Hagen,37,,,6261NM,Mheer,Eijsden-Margraten,Limburg,VBO,5.796428,50.783194
Van Imstenraedtlaan,1,,,6261NN,Mheer,Eijsden-Margraten,Limburg,VBO,5.793425,50.781507
Van Imstenraedtlaan,2,,,6261NN,Mheer,Eijsden-Margraten,Limburg,VBO,5.793805,50.781688
Van Imstenraedtlaan,4,,,6261NN,Mheer,Eijsden-Margraten,Limburg,VBO,5.793735,50.781779
Van Imstenraedtlaan,6,,,6261NN,Mheer,Eijsden-Margraten,Limburg,VBO,5.793608,50.781869
Van Imstenraedtlaan,8,,,6261NN,Mheer,Eijsden-Margraten,Limburg,VBO,5.793438,50.781950
Rondelenstraat,1,A,,6261NP,Mheer,Eijsden-Margraten,Limburg,VBO,5.789651,50.782704
Rondelenstraat,1,,,6261NP,Mheer,Eijsden-Margraten,Limburg,VBO,5.790401,50.782778
Rondelenstraat,2,,,6261NP,Mheer,Eijsden-Margraten,Limburg,VBO,5.790300,50.783047
Rondelenstraat,3,,,6261NP,Mheer,Eijsden-Margraten,Limburg,VBO,5.789050,50.782599
Rondelenstraat,4,A,,6261NP,Mheer,Eijsden-Margraten,Limburg,VBO,5.790186,50.782995
Rondelenstraat,4,B,,6261NP,Mheer,Eijsden-Margraten,Limburg,VBO,5.790024,50.783205
Rondelenstraat,4,,,6261NP,Mheer,Eijsden-Margraten,Limburg,VBO,5.789983,50.782952
Rondelenstraat,6,A,,6261NP,Mheer,Eijsden-Margraten,Limburg,VBO,5.789696,50.783011
Rondelenstraat,6,,,6261NP,Mheer,Eijsden-Margraten,Limburg,VBO,5.789874,50.782925
Rondelenstraat,8,A,,6261NP,Mheer,Eijsden-Margraten,Limburg,VBO,5.789506,50.782980
Rondelenstraat,8,,,6261NP,Mheer,Eijsden-Margraten,Limburg,VBO,5.789720,50.782869
Rondelenstraat,10,A,,6261NP,Mheer,Eijsden-Margraten,Limburg,VBO,5.789303,50.782889
Rondelenstraat,10,,,6261NP,Mheer,Eijsden-Margraten,Limburg,VBO,5.789362,50.782810
Rondelenstraat,12,A,,6261NP,Mheer,Eijsden-Margraten,Limburg,VBO,5.788951,50.782791
Rondelenstraat,12,,,6261NP,Mheer,Eijsden-Margraten,Limburg,VBO,5.789030,50.782772
Rondelenstraat,14,,,6261NP,Mheer,Eijsden-Margraten,Limburg,VBO,5.788667,50.782677
Rondelenstraat,16,,,6261NP,Mheer,Eijsden-Margraten,Limburg,VBO,5.788210,50.782804
Trichterweg,1,,,6261NR,Mheer,Eijsden-Margraten,Limburg,VBO,5.779804,50.787616
Duivenstraat,2,,,6261NT,Mheer,Eijsden-Margraten,Limburg,VBO,5.791197,50.783423
Duivenstraat,4,A,,6261NT,Mheer,Eijsden-Margraten,Limburg,VBO,5.791327,50.783668
Duivenstraat,4,B,,6261NT,Mheer,Eijsden-Margraten,Limburg,VBO,5.791235,50.783721
Duivenstraat,4,,,6261NT,Mheer,Eijsden-Margraten,Limburg,VBO,5.791254,50.783630
Duivenstraat,6,,,6261NT,Mheer,Eijsden-Margraten,Limburg,VBO,5.791158,50.783891
Duivenstraat,8,,,6261NT,Mheer,Eijsden-Margraten,Limburg,VBO,5.791131,50.784026
Duivenstraat,10,A,,6261NT,Mheer,Eijsden-Margraten,Limburg,VBO,5.791199,50.784300
Duivenstraat,10,,,6261NT,Mheer,Eijsden-Margraten,Limburg,VBO,5.790977,50.784206
Duivenstraat,12,A,,6261NT,Mheer,Eijsden-Margraten,Limburg,VBO,5.790865,50.784440
Duivenstraat,12,,,6261NT,Mheer,Eijsden-Margraten,Limburg,VBO,5.790921,50.784350
Duivenstraat,14,,,6261NT,Mheer,Eijsden-Margraten,Limburg,VBO,5.790838,50.784521
Duivenstraat,20,,,6261NT,Mheer,Eijsden-Margraten,Limburg,VBO,5.790845,50.785039
Duivenstraat,22,,,6261NT,Mheer,Eijsden-Margraten,Limburg,VBO,5.790758,50.785142
Duivenstraat,24,,,6261NT,Mheer,Eijsden-Margraten,Limburg,VBO,5.790689,50.785322
Duivenstraat,26,,,6261NT,Mheer,Eijsden-Margraten,Limburg,VBO,5.790654,50.785448
Duivenstraat,28,A,,6261NT,Mheer,Eijsden-Margraten,Limburg,VBO,5.790344,50.785963
Duivenstraat,28,,,6261NT,Mheer,Eijsden-Margraten,Limburg,VBO,5.790507,50.785646
Duivenstraat,30,,,6261NT,Mheer,Eijsden-Margraten,Limburg,VBO,5.790312,50.785979
Duivenstraat,1,A,,6261NV,Mheer,Eijsden-Margraten,Limburg,VBO,5.790804,50.781886
Duivenstraat,1,,,6261NV,Mheer,Eijsden-Margraten,Limburg,VBO,5.790751,50.781958
Duivenstraat,3,A,,6261NV,Mheer,Eijsden-Margraten,Limburg,VBO,5.790794,50.782193
Duivenstraat,3,,,6261NV,Mheer,Eijsden-Margraten,Limburg,VBO,5.790747,50.782292
Duivenstraat,5,A,,6261NV,Mheer,Eijsden-Margraten,Limburg,VBO,5.790410,50.782596
Duivenstraat,5,,,6261NV,Mheer,Eijsden-Margraten,Limburg,VBO,5.790565,50.782464
Duivenstraat,7,,,6261NV,Mheer,Eijsden-Margraten,Limburg,VBO,5.790568,50.782859
Duivenstraat,9,A,,6261NV,Mheer,Eijsden-Margraten,Limburg,VBO,5.790541,50.783068
Duivenstraat,9,B,,6261NV,Mheer,Eijsden-Margraten,Limburg,VBO,5.790403,50.783195
Duivenstraat,9,,,6261NV,Mheer,Eijsden-Margraten,Limburg,VBO,5.790584,50.783093
Duivenstraat,11,A,,6261NV,Mheer,Eijsden-Margraten,Limburg,VBO,5.790747,50.783269
Duivenstraat,11,B,,6261NV,Mheer,Eijsden-Margraten,Limburg,VBO,5.790870,50.783247
Duivenstraat,11,,,6261NV,Mheer,Eijsden-Margraten,Limburg,VBO,5.790651,50.783178
Duivenstraat,13,A,,6261NV,Mheer,Eijsden-Margraten,Limburg,VBO,5.790769,50.783321
Duivenstraat,13,B,,6261NV,Mheer,Eijsden-Margraten,Limburg,VBO,5.790972,50.783304
Duivenstraat,13,,,6261NV,Mheer,Eijsden-Margraten,Limburg,VBO,5.790964,50.783286
Duivenstraat,15,,,6261NV,Mheer,Eijsden-Margraten,Limburg,VBO,5.790914,50.783496
Duivenstraat,17,,,6261NV,Mheer,Eijsden-Margraten,Limburg,VBO,5.790873,50.783640
Duivenstraat,19,,,6261NV,Mheer,Eijsden-Margraten,Limburg,VBO,5.790874,50.783811
Duivenstraat,21,,,6261NV,Mheer,Eijsden-Margraten,Limburg,VBO,5.790783,50.783968
Duivenstraat,23,,,6261NV,Mheer,Eijsden-Margraten,Limburg,VBO,5.790763,50.784027
Duivenstraat,25,,,6261NV,Mheer,Eijsden-Margraten,Limburg,VBO,5.790707,50.784126
Duivenstraat,27,,,6261NV,Mheer,Eijsden-Margraten,Limburg,VBO,5.790665,50.784180
Duivenstraat,29,,,6261NV,Mheer,Eijsden-Margraten,Limburg,VBO,5.790623,50.784288
Duivenstraat,31,,,6261NV,Mheer,Eijsden-Margraten,Limburg,VBO,5.790609,50.784342
Duivenstraat,33,,,6261NV,Mheer,Eijsden-Margraten,Limburg,VBO,5.790540,50.784486
Duivenstraat,35,,,6261NV,Mheer,Eijsden-Margraten,Limburg,VBO,5.790470,50.784603
Duivenstraat,37,,,6261NV,Mheer,Eijsden-Margraten,Limburg,VBO,5.790442,50.784666
Duivenstraat,39,,,6261NV,Mheer,Eijsden-Margraten,Limburg,VBO,5.790358,50.784784
Duivenstraat,41,,,6261NV,Mheer,Eijsden-Margraten,Limburg,VBO,5.790344,50.784856
Duivenstraat,43,,,6261NV,Mheer,Eijsden-Margraten,Limburg,VBO,5.790303,50.784973
Duivenstraat,45,,,6261NV,Mheer,Eijsden-Margraten,Limburg,VBO,5.790262,50.785135
Duivenstraat,47,,,6261NV,Mheer,Eijsden-Margraten,Limburg,VBO,5.790234,50.785207
Duivenstraat,49,,,6261NV,Mheer,Eijsden-Margraten,Limburg,VBO,5.790192,50.785306
Duivenstraat,51,,,6261NV,Mheer,Eijsden-Margraten,Limburg,VBO,5.790164,50.785369
Duivenstraat,53,,,6261NV,Mheer,Eijsden-Margraten,Limburg,VBO,5.790109,50.785486
Duivenstraat,55,,,6261NV,Mheer,Eijsden-Margraten,Limburg,VBO,5.790095,50.785549
Duivenstraat,57,,,6261NV,Mheer,Eijsden-Margraten,Limburg,VBO,5.790054,50.785702
Leemstraat,1,,,6261NW,Mheer,Eijsden-Margraten,Limburg,VBO,5.793681,50.783874
Leemstraat,3,,,6261NW,Mheer,Eijsden-Margraten,Limburg,VBO,5.793799,50.783953
Burgemeester Beckersweg,5,,,6261NX,Mheer,Eijsden-Margraten,Limburg,VBO,5.792852,50.781359
Burgemeester Beckersweg,7,,,6261NX,Mheer,Eijsden-Margraten,Limburg,VBO,5.794061,50.781822
Burgemeester Beckersweg,9,,,6261NX,Mheer,Eijsden-Margraten,Limburg,VBO,5.794175,50.781912
Burgemeester Beckersweg,11,,,6261NX,Mheer,Eijsden-Margraten,Limburg,VBO,5.794318,50.781992
Burgemeester Beckersweg,13,,,6261NX,Mheer,Eijsden-Margraten,Limburg,VBO,5.794460,50.782055
Burgemeester Beckersweg,15,,,6261NX,Mheer,Eijsden-Margraten,Limburg,VBO,5.794603,50.782126
Burgemeester Beckersweg,17,,,6261NX,Mheer,Eijsden-Margraten,Limburg,VBO,5.794731,50.782251
Burgemeester Beckersweg,19,,,6261NX,Mheer,Eijsden-Margraten,Limburg,VBO,5.794831,50.782359
Burgemeester Beckersweg,21,,,6261NX,Mheer,Eijsden-Margraten,Limburg,VBO,5.794974,50.782439
Burgemeester Beckersweg,23,,,6261NX,Mheer,Eijsden-Margraten,Limburg,VBO,5.795216,50.782501
Burgemeester Beckersweg,25,,,6261NX,Mheer,Eijsden-Margraten,Limburg,VBO,5.795344,50.782609
Burgemeester Beckersweg,27,,,6261NX,Mheer,Eijsden-Margraten,Limburg,VBO,5.795486,50.782662
Burgemeester Beckersweg,29,,,6261NX,Mheer,Eijsden-Margraten,Limburg,VBO,5.795615,50.782734
Burgemeester Beckersweg,31,,,6261NX,Mheer,Eijsden-Margraten,Limburg,VBO,5.795743,50.782805
Burgemeester Beckersweg,33,,,6261NX,Mheer,Eijsden-Margraten,Limburg,VBO,5.795857,50.782886
Burgemeester Beckersweg,35,,,6261NX,Mheer,Eijsden-Margraten,Limburg,VBO,5.796128,50.783020
Burgemeester Beckersweg,37,,,6261NX,Mheer,Eijsden-Margraten,Limburg,VBO,5.796577,50.783332
Burgemeester Beckersweg,39,,,6261NX,Mheer,Eijsden-Margraten,Limburg,VBO,5.796729,50.783418
Burgemeester Beckersweg,41,,,6261NX,Mheer,Eijsden-Margraten,Limburg,VBO,5.796975,50.783572
Burgemeester Beckersweg,43,A,,6261NX,Mheer,Eijsden-Margraten,Limburg,VBO,5.797247,50.783692
Burgemeester Beckersweg,43,,,6261NX,Mheer,Eijsden-Margraten,Limburg,VBO,5.797148,50.783779
Burgemeester Beckersweg,45,,,6261NX,Mheer,Eijsden-Margraten,Limburg,VBO,5.797297,50.784303
Burgemeester Beckersweg,49,,,6261NZ,Mheer,Eijsden-Margraten,Limburg,VBO,5.797943,50.784433
Burgemeester Beckersweg,51,,,6261NZ,Mheer,Eijsden-Margraten,Limburg,VBO,5.797947,50.784606
Burgemeester Beckersweg,53,,,6261NZ,Mheer,Eijsden-Margraten,Limburg,VBO,5.798032,50.784645
Burgemeester Beckersweg,55,,,6261NZ,Mheer,Eijsden-Margraten,Limburg,VBO,5.798339,50.784522
Burgemeester Beckersweg,59,,,6261NZ,Mheer,Eijsden-Margraten,Limburg,VBO,5.798680,50.784673
Burgemeester Beckersweg,61,,,6261NZ,Mheer,Eijsden-Margraten,Limburg,VBO,5.798751,50.784709
Burgemeester Beckersweg,63,,,6261NZ,Mheer,Eijsden-Margraten,Limburg,VBO,5.798908,50.784789
Burgemeester Beckersweg,65,,,6261NZ,Mheer,Eijsden-Margraten,Limburg,VBO,5.798979,50.784834
Burgemeester Beckersweg,67,,,6261NZ,Mheer,Eijsden-Margraten,Limburg,VBO,5.799250,50.784950
Burgemeester Beckersweg,69,,,6261NZ,Mheer,Eijsden-Margraten,Limburg,VBO,5.799308,50.785067
Burgemeester Beckersweg,71,,,6261NZ,Mheer,Eijsden-Margraten,Limburg,VBO,5.799563,50.785138
Burgemeester Beckersweg,73,,,6261NZ,Mheer,Eijsden-Margraten,Limburg,VBO,5.799635,50.785164
Burgemeester Beckersweg,75,,,6261NZ,Mheer,Eijsden-Margraten,Limburg,VBO,5.799693,50.785344
Burgemeester Beckersweg,77,,,6261NZ,Mheer,Eijsden-Margraten,Limburg,VBO,5.799962,50.785361
Burgemeester Beckersweg,79,,,6261NZ,Mheer,Eijsden-Margraten,Limburg,VBO,5.800020,50.785397
Burgemeester Beckersweg,81,,,6261NZ,Mheer,Eijsden-Margraten,Limburg,VBO,5.800206,50.785594
Burgemeester Beckersweg,83,,,6261NZ,Mheer,Eijsden-Margraten,Limburg,VBO,5.801759,50.786415
Pastoor Gilissenstraat,2,,,6261PA,Mheer,Eijsden-Margraten,Limburg,VBO,5.792281,50.781808
Pastoor Gilissenstraat,4,,,6261PA,Mheer,Eijsden-Margraten,Limburg,VBO,5.792627,50.781702
Pastoor Gilissenstraat,6,,,6261PA,Mheer,Eijsden-Margraten,Limburg,VBO,5.793040,50.781790
Pastoor Gilissenstraat,8,,,6261PA,Mheer,Eijsden-Margraten,Limburg,VBO,5.793738,50.782053
Pastoor Gilissenstraat,10,,,6261PA,Mheer,Eijsden-Margraten,Limburg,VBO,5.793842,50.782141
Pastoor Gilissenstraat,12,,,6261PA,Mheer,Eijsden-Margraten,Limburg,VBO,5.793871,50.782219
Pastoor Gilissenstraat,14,,,6261PA,Mheer,Eijsden-Margraten,Limburg,VBO,5.793971,50.782260
Pastoor Gilissenstraat,16,,,6261PA,Mheer,Eijsden-Margraten,Limburg,VBO,5.794061,50.782339
Pastoor Gilissenstraat,18,,,6261PA,Mheer,Eijsden-Margraten,Limburg,VBO,5.794258,50.782388
Pastoor Gilissenstraat,20,,,6261PA,Mheer,Eijsden-Margraten,Limburg,VBO,5.794368,50.782429
Pastoor Gilissenstraat,22,,,6261PA,Mheer,Eijsden-Margraten,Limburg,VBO,5.794388,50.782524
Pastoor Gilissenstraat,24,,,6261PA,Mheer,Eijsden-Margraten,Limburg,VBO,5.794476,50.782575
Pastoor Gilissenstraat,26,,,6261PA,Mheer,Eijsden-Margraten,Limburg,VBO,5.794612,50.782648
Pastoor Gilissenstraat,28,,,6261PA,Mheer,Eijsden-Margraten,Limburg,VBO,5.794732,50.782858
Pastoor Gilissenstraat,30,,,6261PA,Mheer,Eijsden-Margraten,Limburg,VBO,5.794746,50.782939
Pastoor Gilissenstraat,32,,,6261PA,Mheer,Eijsden-Margraten,Limburg,VBO,5.794727,50.783017
Pastoor Gilissenstraat,34,,,6261PA,Mheer,Eijsden-Margraten,Limburg,VBO,5.794742,50.783092
Pastoor Gilissenstraat,36,,,6261PA,Mheer,Eijsden-Margraten,Limburg,VBO,5.794594,50.783167
Pastoor Gilissenstraat,1,,,6261PB,Mheer,Eijsden-Margraten,Limburg,VBO,5.792600,50.782089
Pastoor Gilissenstraat,3,,,6261PB,Mheer,Eijsden-Margraten,Limburg,VBO,5.792664,50.782020
Pastoor Gilissenstraat,5,,,6261PB,Mheer,Eijsden-Margraten,Limburg,VBO,5.792890,50.782110
Pastoor Gilissenstraat,7,,,6261PB,Mheer,Eijsden-Margraten,Limburg,VBO,5.792986,50.782129
Pastoor Gilissenstraat,9,,,6261PB,Mheer,Eijsden-Margraten,Limburg,VBO,5.793153,50.782236
Pastoor Gilissenstraat,11,,,6261PB,Mheer,Eijsden-Margraten,Limburg,VBO,5.793211,50.782276
Pastoor Gilissenstraat,13,,,6261PB,Mheer,Eijsden-Margraten,Limburg,VBO,5.793231,50.782451
Pastoor Gilissenstraat,15,,,6261PB,Mheer,Eijsden-Margraten,Limburg,VBO,5.793192,50.782514
Pastoor Gilissenstraat,17,,,6261PB,Mheer,Eijsden-Margraten,Limburg,VBO,5.793146,50.782655
Pastoor Gilissenstraat,19,,,6261PB,Mheer,Eijsden-Margraten,Limburg,VBO,5.793096,50.782726
Pastoor Gilissenstraat,21,,,6261PB,Mheer,Eijsden-Margraten,Limburg,VBO,5.793426,50.782813
Pastoor Gilissenstraat,23,,,6261PB,Mheer,Eijsden-Margraten,Limburg,VBO,5.793490,50.782845
Pastoor Gilissenstraat,25,,,6261PB,Mheer,Eijsden-Margraten,Limburg,VBO,5.793790,50.782733
Pastoor Gilissenstraat,27,,,6261PB,Mheer,Eijsden-Margraten,Limburg,VBO,5.793838,50.782680
Pastoor Gilissenstraat,29,,,6261PB,Mheer,Eijsden-Margraten,Limburg,VBO,5.794063,50.782819
Pastoor Gilissenstraat,31,,,6261PB,Mheer,Eijsden-Margraten,Limburg,VBO,5.794126,50.782901
Op 't Hövelke,2,,,6261PC,Mheer,Eijsden-Margraten,Limburg,VBO,5.792011,50.784113
Op 't Hövelke,4,,,6261PC,Mheer,Eijsden-Margraten,Limburg,VBO,5.792138,50.784049
Op 't Hövelke,6,,,6261PC,Mheer,Eijsden-Margraten,Limburg,VBO,5.792194,50.784004
Op 't Hövelke,7,,,6261PC,Mheer,Eijsden-Margraten,Limburg,VBO,5.792394,50.784129
Op 't Hövelke,8,,,6261PC,Mheer,Eijsden-Margraten,Limburg,VBO,5.792039,50.783811
Op 't Hövelke,9,,,6261PC,Mheer,Eijsden-Margraten,Limburg,VBO,5.792592,50.784102
Op 't Hövelke,10,,,6261PC,Mheer,Eijsden-Margraten,Limburg,VBO,5.792046,50.783740
Op 't Hövelke,11,,,6261PC,Mheer,Eijsden-Margraten,Limburg,VBO,5.792692,50.784110
Op 't Hövelke,12,,,6261PC,Mheer,Eijsden-Margraten,Limburg,VBO,5.792011,50.783696
Op 't Hövelke,13,,,6261PC,Mheer,Eijsden-Margraten,Limburg,VBO,5.792862,50.784119
Op 't Hövelke,14,,,6261PC,Mheer,Eijsden-Margraten,Limburg,VBO,5.791820,50.783621
Op 't Hövelke,15,,,6261PC,Mheer,Eijsden-Margraten,Limburg,VBO,5.792969,50.784172
Op 't Hövelke,16,,,6261PC,Mheer,Eijsden-Margraten,Limburg,VBO,5.791773,50.783590
Op 't Hövelke,17,,,6261PC,Mheer,Eijsden-Margraten,Limburg,VBO,5.793101,50.784263
Op 't Hövelke,18,,,6261PC,Mheer,Eijsden-Margraten,Limburg,VBO,5.791670,50.783558
Op 't Hövelke,19,,,6261PC,Mheer,Eijsden-Margraten,Limburg,VBO,5.793260,50.784216
Op 't Hövelke,20,,,6261PC,Mheer,Eijsden-Margraten,Limburg,VBO,5.792281,50.783740
Op 't Hövelke,22,,,6261PC,Mheer,Eijsden-Margraten,Limburg,VBO,5.792377,50.783833
Op 't Hövelke,24,,,6261PC,Mheer,Eijsden-Margraten,Limburg,VBO,5.792506,50.783904
Op 't Hövelke,26,,,6261PC,Mheer,Eijsden-Margraten,Limburg,VBO,5.792605,50.783922
Op 't Hövelke,28,,,6261PC,Mheer,Eijsden-Margraten,Limburg,VBO,5.792789,50.783921
Op 't Hövelke,30,,,6261PC,Mheer,Eijsden-Margraten,Limburg,VBO,5.792874,50.783939
Op 't Hövelke,32,,,6261PC,Mheer,Eijsden-Margraten,Limburg,VBO,5.793059,50.783938
Op 't Hövelke,34,,,6261PC,Mheer,Eijsden-Margraten,Limburg,VBO,5.793144,50.783956
Op 't Hövelke,36,,,6261PC,Mheer,Eijsden-Margraten,Limburg,VBO,5.793343,50.783991
Michiels van Kessenichstraat,1,,,6261PD,Mheer,Eijsden-Margraten,Limburg,VBO,5.793405,50.784575
Michiels van Kessenichstraat,3,,,6261PD,Mheer,Eijsden-Margraten,Limburg,VBO,5.793576,50.784655
Michiels van Kessenichstraat,5,,,6261PD,Mheer,Eijsden-Margraten,Limburg,VBO,5.793789,50.784709
Michiels van Kessenichstraat,7,,,6261PD,Mheer,Eijsden-Margraten,Limburg,VBO,5.793960,50.784798
Michiels van Kessenichstraat,9,,,6261PD,Mheer,Eijsden-Margraten,Limburg,VBO,5.794258,50.784887
Michiels van Kessenichstraat,11,,,6261PD,Mheer,Eijsden-Margraten,Limburg,VBO,5.794379,50.785006
Michiels van Kessenichstraat,13,,,6261PD,Mheer,Eijsden-Margraten,Limburg,VBO,5.794648,50.785055
Michiels van Kessenichstraat,15,,,6261PD,Mheer,Eijsden-Margraten,Limburg,VBO,5.794812,50.785119
Michiels van Kessenichstraat,17,,,6261PD,Mheer,Eijsden-Margraten,Limburg,VBO,5.794964,50.785186
An Mhaerebaom,1,,,6261PE,Mheer,Eijsden-Margraten,Limburg,VBO,5.797634,50.784947
An Mhaerebaom,3,,,6261PE,Mheer,Eijsden-Margraten,Limburg,VBO,5.797707,50.784862
Sint Lambertusstraat,1,,,6261PG,Mheer,Eijsden-Margraten,Limburg,VBO,5.795145,50.784304
Sint Lambertusstraat,3,,,6261PG,Mheer,Eijsden-Margraten,Limburg,VBO,5.795115,50.784413
Sint Lambertusstraat,5,,,6261PG,Mheer,Eijsden-Margraten,Limburg,VBO,5.795061,50.784465
Sint Lambertusstraat,7,,,6261PG,Mheer,Eijsden-Margraten,Limburg,VBO,5.795075,50.784539
Sint Lambertusstraat,9,,,6261PG,Mheer,Eijsden-Margraten,Limburg,VBO,5.794981,50.784596
Sint Lambertusstraat,11,,,6261PG,Mheer,Eijsden-Margraten,Limburg,VBO,5.794958,50.784684
Sint Lambertusstraat,13,,,6261PG,Mheer,Eijsden-Margraten,Limburg,VBO,5.794896,50.784747
De Gelimment,1,,,6261PH,Mheer,Eijsden-Margraten,Limburg,VBO,5.794422,50.784714
De Gelimment,2,,,6261PH,Mheer,Eijsden-Margraten,Limburg,VBO,5.794044,50.784611
De Gelimment,3,,,6261PH,Mheer,Eijsden-Margraten,Limburg,VBO,5.794441,50.784643
De Gelimment,4,,,6261PH,Mheer,Eijsden-Margraten,Limburg,VBO,5.794137,50.784523
De Gelimment,5,,,6261PH,Mheer,Eijsden-Margraten,Limburg,VBO,5.794471,50.784597
De Gelimment,6,,,6261PH,Mheer,Eijsden-Margraten,Limburg,VBO,5.794165,50.784410
De Gelimment,7,,,6261PH,Mheer,Eijsden-Margraten,Limburg,VBO,5.794484,50.784563
De Gelimment,8,,,6261PH,Mheer,Eijsden-Margraten,Limburg,VBO,5.794164,50.784323
De Gelimment,9,,,6261PH,Mheer,Eijsden-Margraten,Limburg,VBO,5.794549,50.784520
De Gelimment,10,,,6261PH,Mheer,Eijsden-Margraten,Limburg,VBO,5.794255,50.784228
De Gelimment,11,,,6261PH,Mheer,Eijsden-Margraten,Limburg,VBO,5.794621,50.784440
De Gelimment,12,,,6261PH,Mheer,Eijsden-Margraten,Limburg,VBO,5.794254,50.784157
De Gelimment,13,,,6261PH,Mheer,Eijsden-Margraten,Limburg,VBO,5.794630,50.784397
De Gelimment,14,,,6261PH,Mheer,Eijsden-Margraten,Limburg,VBO,5.794273,50.784060
De Gelimment,15,,,6261PH,Mheer,Eijsden-Margraten,Limburg,VBO,5.794648,50.784339
De Gelimment,16,,,6261PH,Mheer,Eijsden-Margraten,Limburg,VBO,5.794477,50.783934
De Gelimment,17,,,6261PH,Mheer,Eijsden-Margraten,Limburg,VBO,5.794659,50.784293
De Gelimment,18,,,6261PH,Mheer,Eijsden-Margraten,Limburg,VBO,5.794897,50.783950
De Gelimment,19,,,6261PH,Mheer,Eijsden-Margraten,Limburg,VBO,5.794627,50.784192
De Gelimment,20,,,6261PH,Mheer,Eijsden-Margraten,Limburg,VBO,5.795147,50.783965
De Gelimment,21,,,6261PH,Mheer,Eijsden-Margraten,Limburg,VBO,5.795084,50.784223
De Gelimment,22,A,,6261PH,Mheer,Eijsden-Margraten,Limburg,VBO,5.795369,50.784017
De Gelimment,22,,,6261PH,Mheer,Eijsden-Margraten,Limburg,VBO,5.795281,50.784001
De Gelimment,23,,,6261PH,Mheer,Eijsden-Margraten,Limburg,VBO,5.795451,50.784501
De Gelimment,24,,,6261PH,Mheer,Eijsden-Margraten,Limburg,VBO,5.795661,50.783922
De Gelimment,25,,,6261PH,Mheer,Eijsden-Margraten,Limburg,VBO,5.795664,50.784484
De Gelimment,26,,,6261PH,Mheer,Eijsden-Margraten,Limburg,VBO,5.795634,50.783974
De Gelimment,28,,,6261PH,Mheer,Eijsden-Margraten,Limburg,VBO,5.795626,50.784085
De Gelimment,30,,,6261PH,Mheer,Eijsden-Margraten,Limburg,VBO,5.795610,50.784132
De Gelimment,32,,,6261PH,Mheer,Eijsden-Margraten,Limburg,VBO,5.795591,50.784249
De Gelimment,34,,,6261PH,Mheer,Eijsden-Margraten,Limburg,VBO,5.796462,50.784429
Gouverneur De Loëstraat,2,,,6261PJ,Mheer,Eijsden-Margraten,Limburg,VBO,5.795425,50.784644
Gouverneur De Loëstraat,4,,,6261PJ,Mheer,Eijsden-Margraten,Limburg,VBO,5.795592,50.784572
Gouverneur De Loëstraat,6,,,6261PJ,Mheer,Eijsden-Margraten,Limburg,VBO,5.795737,50.784821
Gouverneur De Loëstraat,8,,,6261PJ,Mheer,Eijsden-Margraten,Limburg,VBO,5.795635,50.784941
Gouverneur De Loëstraat,10,,,6261PJ,Mheer,Eijsden-Margraten,Limburg,VBO,5.795545,50.785056
Gouverneur De Loëstraat,12,,,6261PJ,Mheer,Eijsden-Margraten,Limburg,VBO,5.795451,50.785149
Gouverneur De Loëstraat,16,,,6261PJ,Mheer,Eijsden-Margraten,Limburg,VBO,5.795229,50.785366
