openbareruimtenaam,huisnummer,huisletter,huisnummertoevoeging,postcode,woonplaatsnaam,gemeentenaam,provincienaam,typeadresseerbaarobject,longitude,latitude
Klimmenderstraat,5,,,6343AA,Klimmen,Voerendaal,Limburg,VBO,5.888693,50.877917
Klimmenderstraat,21,,,6343AA,Klimmen,Voerendaal,Limburg,VBO,5.886614,50.877480
Klimmenderstraat,23,,,6343AA,Klimmen,Voerendaal,Limburg,VBO,5.886474,50.877473
Klimmenderstraat,25,,,6343AA,Klimmen,Voerendaal,Limburg,VBO,5.885377,50.877565
Klimmenderstraat,27,,,6343AA,Klimmen,Voerendaal,Limburg,VBO,5.885243,50.877550
Klimmenderstraat,31,,,6343AA,Klimmen,Voerendaal,Limburg,VBO,5.884661,50.877436
Klimmenderstraat,39,A,,6343AA,Klimmen,Voerendaal,Limburg,VBO,5.883231,50.877684
Klimmenderstraat,39,,,6343AA,Klimmen,Voerendaal,Limburg,VBO,5.883347,50.877638
Klimmenderstraat,41,,,6343AA,Klimmen,Voerendaal,Limburg,VBO,5.883147,50.877694
Klimmenderstraat,43,,,6343AA,Klimmen,Voerendaal,Limburg,VBO,5.882899,50.877763
Klimmenderstraat,45,,,6343AA,Klimmen,Voerendaal,Limburg,VBO,5.882620,50.877836
Klimmenderstraat,47,,,6343AA,Klimmen,Voerendaal,Limburg,VBO,5.882376,50.877803
Klimmenderstraat,49,A,,6343AA,Klimmen,Voerendaal,Limburg,VBO,5.882092,50.877899
Klimmenderstraat,49,,,6343AA,Klimmen,Voerendaal,Limburg,VBO,5.882292,50.877827
Klimmenderstraat,51,,,6343AA,Klimmen,Voerendaal,Limburg,VBO,5.881876,50.877994
Klimmenderstraat,55,,,6343AA,Klimmen,Voerendaal,Limburg,VBO,5.881638,50.877998
Klimmenderstraat,57,,,6343AA,Klimmen,Voerendaal,Limburg,VBO,5.881540,50.878024
Klimmenderstraat,61,,,6343AA,Klimmen,Voerendaal,Limburg,VBO,5.881340,50.878079
Klimmenderstraat,63,,,6343AA,Klimmen,Voerendaal,Limburg,VBO,5.881167,50.878126
Klimmenderstraat,65,,,6343AA,Klimmen,Voerendaal,Limburg,VBO,5.880849,50.878209
Klimmenderstraat,95,,,6343AA,Klimmen,Voerendaal,Limburg,VBO,5.877963,50.878790
Klimmenderstraat,109,,,6343AA,Klimmen,Voerendaal,Limburg,VBO,5.876314,50.878924
Klimmenderstraat,69,,,6343AB,Klimmen,Voerendaal,Limburg,VBO,5.880216,50.878295
Klimmenderstraat,71,A,,6343AB,Klimmen,Voerendaal,Limburg,VBO,5.880242,50.878349
Klimmenderstraat,71,,,6343AB,Klimmen,Voerendaal,Limburg,VBO,5.880242,50.878349
Klimmenderstraat,75,,,6343AB,Klimmen,Voerendaal,Limburg,VBO,5.879822,50.878465
Klimmenderstraat,77,,,6343AB,Klimmen,Voerendaal,Limburg,VBO,5.879658,50.878569
Klimmenderstraat,79,,,6343AB,Klimmen,Voerendaal,Limburg,VBO,5.879591,50.878582
Klimmenderstraat,81,A,,6343AB,Klimmen,Voerendaal,Limburg,VBO,5.879550,50.878590
Klimmenderstraat,81,,,6343AB,Klimmen,Voerendaal,Limburg,VBO,5.879510,50.878597
Klimmenderstraat,83,,,6343AB,Klimmen,Voerendaal,Limburg,VBO,5.879355,50.878629
Klimmenderstraat,87,,,6343AB,Klimmen,Voerendaal,Limburg,VBO,5.879100,50.878619
Klimmenderstraat,89,,,6343AB,Klimmen,Voerendaal,Limburg,VBO,5.878906,50.878653
Klimmenderstraat,91,A,,6343AB,Klimmen,Voerendaal,Limburg,VBO,5.878731,50.878721
Klimmenderstraat,91,,,6343AB,Klimmen,Voerendaal,Limburg,VBO,5.878654,50.878738
Klimmenderstraat,93,,,6343AB,Klimmen,Voerendaal,Limburg,VBO,5.878484,50.878769
Klimmenderstraat,2,,,6343AC,Klimmen,Voerendaal,Limburg,VBO,5.886450,50.878015
Klimmenderstraat,4,,,6343AC,Klimmen,Voerendaal,Limburg,VBO,5.885818,50.877829
Klimmenderstraat,6,A,,6343AC,Klimmen,Voerendaal,Limburg,VBO,5.885692,50.877831
Klimmenderstraat,6,,,6343AC,Klimmen,Voerendaal,Limburg,VBO,5.885664,50.877810
Klimmenderstraat,8,A,,6343AC,Klimmen,Voerendaal,Limburg,VBO,5.885571,50.877788
Klimmenderstraat,8,,,6343AC,Klimmen,Voerendaal,Limburg,VBO,5.885501,50.877776
Klimmenderstraat,10,A,,6343AC,Klimmen,Voerendaal,Limburg,VBO,5.885358,50.877753
Klimmenderstraat,10,,,6343AC,Klimmen,Voerendaal,Limburg,VBO,5.885294,50.877739
Klimmenderstraat,12,,,6343AC,Klimmen,Voerendaal,Limburg,VBO,5.885186,50.877710
Klimmenderstraat,14,,,6343AC,Klimmen,Voerendaal,Limburg,VBO,5.885076,50.877689
Klimmenderstraat,16,,,6343AC,Klimmen,Voerendaal,Limburg,VBO,5.884867,50.877688
Klimmenderstraat,20,,,6343AC,Klimmen,Voerendaal,Limburg,VBO,5.884730,50.877681
Klimmenderstraat,22,,,6343AC,Klimmen,Voerendaal,Limburg,VBO,5.884470,50.877675
Klimmenderstraat,24,A,,6343AC,Klimmen,Voerendaal,Limburg,VBO,5.884305,50.877668
Klimmenderstraat,24,,,6343AC,Klimmen,Voerendaal,Limburg,VBO,5.884198,50.877679
Klimmenderstraat,26,A,,6343AC,Klimmen,Voerendaal,Limburg,VBO,5.883934,50.877696
Klimmenderstraat,26,,,6343AC,Klimmen,Voerendaal,Limburg,VBO,5.884100,50.877685
Klimmenderstraat,28,,,6343AC,Klimmen,Voerendaal,Limburg,VBO,5.883863,50.877699
Klimmenderstraat,30,,,6343AC,Klimmen,Voerendaal,Limburg,VBO,5.883743,50.877710
Klimmenderstraat,32,,,6343AC,Klimmen,Voerendaal,Limburg,VBO,5.883693,50.877739
Klimmenderstraat,34,,,6343AC,Klimmen,Voerendaal,Limburg,VBO,5.883608,50.877762
Klimmenderstraat,36,,,6343AC,Klimmen,Voerendaal,Limburg,VBO,5.883422,50.877800
Klimmenderstraat,40,A,,6343AC,Klimmen,Voerendaal,Limburg,VBO,5.883289,50.877864
Klimmenderstraat,40,,,6343AC,Klimmen,Voerendaal,Limburg,VBO,5.883333,50.877840
Klimmenderstraat,42,,,6343AC,Klimmen,Voerendaal,Limburg,VBO,5.883126,50.877882
Klimmenderstraat,44,,,6343AC,Klimmen,Voerendaal,Limburg,VBO,5.882933,50.877935
Klimmenderstraat,46,,,6343AC,Klimmen,Voerendaal,Limburg,VBO,5.882883,50.878026
Klimmenderstraat,48,,,6343AC,Klimmen,Voerendaal,Limburg,VBO,5.882686,50.878009
Klimmenderstraat,50,,,6343AD,Klimmen,Voerendaal,Limburg,VBO,5.882580,50.878037
Klimmenderstraat,52,,,6343AD,Klimmen,Voerendaal,Limburg,VBO,5.882490,50.878062
Klimmenderstraat,54,,,6343AD,Klimmen,Voerendaal,Limburg,VBO,5.882327,50.878087
Klimmenderstraat,56,,,6343AD,Klimmen,Voerendaal,Limburg,VBO,5.882277,50.878119
Klimmenderstraat,58,,,6343AD,Klimmen,Voerendaal,Limburg,VBO,5.882227,50.878132
Klimmenderstraat,60,A,,6343AD,Klimmen,Voerendaal,Limburg,VBO,5.882099,50.878266
Klimmenderstraat,60,,,6343AD,Klimmen,Voerendaal,Limburg,VBO,5.882137,50.878149
Klimmenderstraat,62,,,6343AD,Klimmen,Voerendaal,Limburg,VBO,5.881891,50.878233
Klimmenderstraat,64,,,6343AD,Klimmen,Voerendaal,Limburg,VBO,5.881819,50.878253
Klimmenderstraat,66,,,6343AD,Klimmen,Voerendaal,Limburg,VBO,5.881643,50.878295
Klimmenderstraat,68,,,6343AD,Klimmen,Voerendaal,Limburg,VBO,5.881555,50.878319
Klimmenderstraat,70,,,6343AD,Klimmen,Voerendaal,Limburg,VBO,5.881350,50.878362
Klimmenderstraat,72,,,6343AD,Klimmen,Voerendaal,Limburg,VBO,5.881270,50.878385
Klimmenderstraat,74,,,6343AD,Klimmen,Voerendaal,Limburg,VBO,5.881183,50.878408
Klimmenderstraat,76,,,6343AD,Klimmen,Voerendaal,Limburg,VBO,5.881105,50.878428
Klimmenderstraat,78,,r01,6343AD,Klimmen,Voerendaal,Limburg,VBO,5.881082,50.878540
Klimmenderstraat,78,,r02,6343AD,Klimmen,Voerendaal,Limburg,VBO,5.881121,50.878591
Klimmenderstraat,78,,,6343AD,Klimmen,Voerendaal,Limburg,VBO,5.881047,50.878459
Klimmenderstraat,80,,,6343AD,Klimmen,Voerendaal,Limburg,VBO,5.880872,50.878489
Klimmenderstraat,82,,,6343AE,Klimmen,Voerendaal,Limburg,VBO,5.880585,50.878563
Klimmenderstraat,88,,,6343AE,Klimmen,Voerendaal,Limburg,VBO,5.880121,50.878659
Klimmenderstraat,90,A,,6343AE,Klimmen,Voerendaal,Limburg,VBO,5.880136,50.878863
Klimmenderstraat,90,B,,6343AE,Klimmen,Voerendaal,Limburg,VBO,5.880187,50.878865
Klimmenderstraat,90,C,,6343AE,Klimmen,Voerendaal,Limburg,VBO,5.880183,50.878897
Klimmenderstraat,90,D,,6343AE,Klimmen,Voerendaal,Limburg,VBO,5.880234,50.878899
Klimmenderstraat,90,,,6343AE,Klimmen,Voerendaal,Limburg,VBO,5.879999,50.878700
Klimmenderstraat,92,,,6343AE,Klimmen,Voerendaal,Limburg,VBO,5.879692,50.878832
Klimmenderstraat,94,,,6343AE,Klimmen,Voerendaal,Limburg,VBO,5.879462,50.878880
Klimmenderstraat,100,,,6343AE,Klimmen,Voerendaal,Limburg,VBO,5.878889,50.878938
Klimmenderstraat,102,,,6343AE,Klimmen,Voerendaal,Limburg,VBO,5.878690,50.878979
Klimmenderstraat,104,,,6343AE,Klimmen,Voerendaal,Limburg,VBO,5.878583,50.879007
Klimmenderstraat,106,A,,6343AE,Klimmen,Voerendaal,Limburg,VBO,5.878472,50.879228
Klimmenderstraat,106,,,6343AE,Klimmen,Voerendaal,Limburg,VBO,5.878464,50.879096
Klimmenderstraat,110,,,6343AE,Klimmen,Voerendaal,Limburg,VBO,5.877632,50.879140
Klimmenderstraat,112,,,6343AE,Klimmen,Voerendaal,Limburg,VBO,5.877303,50.879273
Klimmenderstraat,114,,,6343AE,Klimmen,Voerendaal,Limburg,VBO,5.876898,50.879363
Klimmenderstraat,116,,,6343AE,Klimmen,Voerendaal,Limburg,VBO,5.876603,50.879340
Klimmenderstraat,118,,,6343AE,Klimmen,Voerendaal,Limburg,VBO,5.876513,50.879378
Schutteheiweg,5,,,6343AG,Klimmen,Voerendaal,Limburg,VBO,5.876409,50.878641
Schutteheiweg,7,,,6343AG,Klimmen,Voerendaal,Limburg,VBO,5.876402,50.878431
Schutteheiweg,9,,,6343AG,Klimmen,Voerendaal,Limburg,VBO,5.876452,50.878242
Schutteheiweg,11,,,6343AG,Klimmen,Voerendaal,Limburg,VBO,5.876511,50.878032
Schutteheiweg,13,,,6343AG,Klimmen,Voerendaal,Limburg,VBO,5.876982,50.877327
Schutteheiweg,15,,,6343AG,Klimmen,Voerendaal,Limburg,VBO,5.877112,50.877116
Schutteheiweg,17,,,6343AG,Klimmen,Voerendaal,Limburg,VBO,5.877246,50.876897
Schutteheiweg,19,,,6343AG,Klimmen,Voerendaal,Limburg,VBO,5.877388,50.876634
Schutteheiweg,21,,,6343AG,Klimmen,Voerendaal,Limburg,VBO,5.877460,50.876413
Schutteheiweg,23,,,6343AG,Klimmen,Voerendaal,Limburg,VBO,5.877524,50.876208
Schutteheiweg,25,,,6343AG,Klimmen,Voerendaal,Limburg,VBO,5.877525,50.875752
Schutteheiweg,27,,,6343AG,Klimmen,Voerendaal,Limburg,VBO,5.877415,50.875549
Schutteheiweg,29,,,6343AG,Klimmen,Voerendaal,Limburg,VBO,5.877305,50.875302
Schutteheiweg,33,,,6343AG,Klimmen,Voerendaal,Limburg,VBO,5.877193,50.875103
Schutteheiweg,35,,,6343AG,Klimmen,Voerendaal,Limburg,VBO,5.877139,50.874982
Schutteheiweg,37,,,6343AG,Klimmen,Voerendaal,Limburg,VBO,5.877053,50.874791
Schutteheiweg,39,,,6343AG,Klimmen,Voerendaal,Limburg,VBO,5.877026,50.874665
Schutteheiweg,41,,,6343AG,Klimmen,Voerendaal,Limburg,VBO,5.876879,50.874481
Schutteheiweg,43,,,6343AG,Klimmen,Voerendaal,Limburg,VBO,5.876711,50.874336
Schutteheiweg,45,,,6343AG,Klimmen,Voerendaal,Limburg,VBO,5.876525,50.874218
Schutteheiweg,4,,,6343AH,Klimmen,Voerendaal,Limburg,VBO,5.875876,50.878655
Schutteheiweg,6,,,6343AH,Klimmen,Voerendaal,Limburg,VBO,5.876121,50.877933
Schutteheiweg,8,,,6343AH,Klimmen,Voerendaal,Limburg,VBO,5.876215,50.877696
Schutteheiweg,10,,,6343AH,Klimmen,Voerendaal,Limburg,VBO,5.876273,50.877511
Schutteheiweg,12,,,6343AH,Klimmen,Voerendaal,Limburg,VBO,5.876370,50.877232
Schutteheiweg,14,,,6343AH,Klimmen,Voerendaal,Limburg,VBO,5.876605,50.876967
Schutteheiweg,16,,,6343AH,Klimmen,Voerendaal,Limburg,VBO,5.876780,50.876750
Schutteheiweg,18,,,6343AH,Klimmen,Voerendaal,Limburg,VBO,5.876861,50.876494
Schutteheiweg,20,,,6343AH,Klimmen,Voerendaal,Limburg,VBO,5.876966,50.876184
Schutteheiweg,22,,,6343AH,Klimmen,Voerendaal,Limburg,VBO,5.876849,50.875936
Schutteheiweg,24,,,6343AH,Klimmen,Voerendaal,Limburg,VBO,5.876908,50.875569
Schutteheiweg,26,,,6343AH,Klimmen,Voerendaal,Limburg,VBO,5.876788,50.875351
Schutteheiweg,28,,,6343AH,Klimmen,Voerendaal,Limburg,VBO,5.876643,50.875044
Schutteheiweg,30,,,6343AH,Klimmen,Voerendaal,Limburg,VBO,5.876554,50.874780
Schutteheiweg,32,,,6343AH,Klimmen,Voerendaal,Limburg,VBO,5.876415,50.874570
Schutteheiweg,34,,,6343AH,Klimmen,Voerendaal,Limburg,VBO,5.876136,50.874363
Schutteheiweg,36,,,6343AH,Klimmen,Voerendaal,Limburg,VBO,5.875939,50.874146
Waalheimerweg,2,A,,6343AJ,Klimmen,Voerendaal,Limburg,VBO,5.875763,50.873727
Waalheimerweg,2,,,6343AJ,Klimmen,Voerendaal,Limburg,VBO,5.875872,50.873654
Dolberg,1,,,6343AK,Klimmen,Voerendaal,Limburg,VBO,5.876269,50.873623
Dolberg,3,,,6343AK,Klimmen,Voerendaal,Limburg,VBO,5.876397,50.873529
Dolberg,4,A,,6343AK,Klimmen,Voerendaal,Limburg,VBO,5.876355,50.873266
Dolberg,4,,,6343AK,Klimmen,Voerendaal,Limburg,VBO,5.876304,50.873392
Dolberg,5,,,6343AK,Klimmen,Voerendaal,Limburg,VBO,5.876797,50.873376
Dolberg,8,,,6343AK,Klimmen,Voerendaal,Limburg,VBO,5.876630,50.873263
Dolberg,10,,,6343AK,Klimmen,Voerendaal,Limburg,VBO,5.876763,50.873179
Dolberg,12,,,6343AK,Klimmen,Voerendaal,Limburg,VBO,5.876880,50.873106
Dolberg,14,A,,6343AK,Klimmen,Voerendaal,Limburg,VBO,5.877075,50.872994
Dolberg,14,B,,6343AK,Klimmen,Voerendaal,Limburg,VBO,5.877125,50.872962
Dolberg,14,,,6343AK,Klimmen,Voerendaal,Limburg,VBO,5.876960,50.873058
Dolberg,16,A,,6343AK,Klimmen,Voerendaal,Limburg,VBO,5.877178,50.872710
Dolberg,16,,r01,6343AK,Klimmen,Voerendaal,Limburg,VBO,5.877296,50.872892
Dolberg,16,,r02,6343AK,Klimmen,Voerendaal,Limburg,VBO,5.877241,50.872922
Dolberg,16,,r03,6343AK,Klimmen,Voerendaal,Limburg,VBO,5.877182,50.872894
Dolberg,16,,r04,6343AK,Klimmen,Voerendaal,Limburg,VBO,5.877139,50.872867
Dolberg,16,,,6343AK,Klimmen,Voerendaal,Limburg,VBO,5.877290,50.872824
Dolberg,18,A,,6343AK,Klimmen,Voerendaal,Limburg,VBO,5.877705,50.872909
Dolberg,18,,,6343AK,Klimmen,Voerendaal,Limburg,VBO,5.877556,50.872874
Dolberg,20,,,6343AK,Klimmen,Voerendaal,Limburg,VBO,5.877444,50.872727
Dolberg,22,,,6343AK,Klimmen,Voerendaal,Limburg,VBO,5.877653,50.872524
Hekerdelstraat,1,,,6343AL,Klimmen,Voerendaal,Limburg,VBO,5.877882,50.875854
Hekerdelstraat,2,,,6343AL,Klimmen,Voerendaal,Limburg,VBO,5.878091,50.876136
Hekerdelstraat,4,,,6343AL,Klimmen,Voerendaal,Limburg,VBO,5.877987,50.876135
Kruisveldstraat,3,,,6343AM,Klimmen,Voerendaal,Limburg,VBO,5.877455,50.877635
Kruisveldstraat,4,,,6343AM,Klimmen,Voerendaal,Limburg,VBO,5.877195,50.877875
Kruisveldstraat,5,,,6343AM,Klimmen,Voerendaal,Limburg,VBO,5.877275,50.877603
Kruisveldstraat,6,,,6343AM,Klimmen,Voerendaal,Limburg,VBO,5.877003,50.877842
Kruisveldstraat,7,,,6343AM,Klimmen,Voerendaal,Limburg,VBO,5.876956,50.877542
Kruisveldstraat,8,,,6343AM,Klimmen,Voerendaal,Limburg,VBO,5.876699,50.877789
Achtbunderstraat,5,,,6343AN,Klimmen,Voerendaal,Limburg,VBO,5.877665,50.878593
Achtbunderstraat,7,,,6343AN,Klimmen,Voerendaal,Limburg,VBO,5.877692,50.878525
Achtbunderstraat,9,,,6343AN,Klimmen,Voerendaal,Limburg,VBO,5.877895,50.878044
Achtbunderstraat,11,,,6343AN,Klimmen,Voerendaal,Limburg,VBO,5.877919,50.877989
Achtbunderstraat,13,,,6343AN,Klimmen,Voerendaal,Limburg,VBO,5.877970,50.877868
Achtbunderstraat,15,,,6343AN,Klimmen,Voerendaal,Limburg,VBO,5.877995,50.877810
Achtbunderstraat,17,,,6343AN,Klimmen,Voerendaal,Limburg,VBO,5.878047,50.877686
Achtbunderstraat,19,,,6343AN,Klimmen,Voerendaal,Limburg,VBO,5.878070,50.877633
Achtbunderstraat,21,,,6343AN,Klimmen,Voerendaal,Limburg,VBO,5.878123,50.877508
Achtbunderstraat,23,,,6343AN,Klimmen,Voerendaal,Limburg,VBO,5.878149,50.877447
Achtbunderstraat,25,,,6343AN,Klimmen,Voerendaal,Limburg,VBO,5.878199,50.877330
Achtbunderstraat,27,,,6343AN,Klimmen,Voerendaal,Limburg,VBO,5.878253,50.877260
Achtbunderstraat,29,,,6343AN,Klimmen,Voerendaal,Limburg,VBO,5.878273,50.877154
Achtbunderstraat,31,,,6343AN,Klimmen,Voerendaal,Limburg,VBO,5.878299,50.877090
Achtbunderstraat,33,,,6343AN,Klimmen,Voerendaal,Limburg,VBO,5.878346,50.876966
Achtbunderstraat,35,,,6343AN,Klimmen,Voerendaal,Limburg,VBO,5.878367,50.876904
Achtbunderstraat,37,,,6343AN,Klimmen,Voerendaal,Limburg,VBO,5.878404,50.876781
Achtbunderstraat,39,,,6343AN,Klimmen,Voerendaal,Limburg,VBO,5.878420,50.876719
Achtbunderstraat,41,,,6343AP,Klimmen,Voerendaal,Limburg,VBO,5.878449,50.876596
Achtbunderstraat,43,,,6343AP,Klimmen,Voerendaal,Limburg,VBO,5.878462,50.876530
Achtbunderstraat,45,,,6343AP,Klimmen,Voerendaal,Limburg,VBO,5.878482,50.876409
Achtbunderstraat,47,,,6343AP,Klimmen,Voerendaal,Limburg,VBO,5.878489,50.876350
Achtbunderstraat,49,,,6343AP,Klimmen,Voerendaal,Limburg,VBO,5.878521,50.876213
Achtbunderstraat,51,,,6343AP,Klimmen,Voerendaal,Limburg,VBO,5.878531,50.876150
Achtbunderstraat,53,,,6343AP,Klimmen,Voerendaal,Limburg,VBO,5.878500,50.875716
Achtbunderstraat,55,,,6343AP,Klimmen,Voerendaal,Limburg,VBO,5.878515,50.875598
Achtbunderstraat,57,,,6343AP,Klimmen,Voerendaal,Limburg,VBO,5.878514,50.875469
Achtbunderstraat,59,,,6343AP,Klimmen,Voerendaal,Limburg,VBO,5.878524,50.875361
Achtbunderstraat,61,,,6343AP,Klimmen,Voerendaal,Limburg,VBO,5.878565,50.875242
Achtbunderstraat,63,,,6343AP,Klimmen,Voerendaal,Limburg,VBO,5.878758,50.875041
Achtbunderstraat,2,,,6343AR,Klimmen,Voerendaal,Limburg,VBO,5.877237,50.878849
Achtbunderstraat,4,A,,6343AR,Klimmen,Voerendaal,Limburg,VBO,5.877264,50.878711
Achtbunderstraat,4,B,,6343AR,Klimmen,Voerendaal,Limburg,VBO,5.877269,50.878610
Achtbunderstraat,4,C,,6343AR,Klimmen,Voerendaal,Limburg,VBO,5.877287,50.878563
Achtbunderstraat,4,,,6343AR,Klimmen,Voerendaal,Limburg,VBO,5.877260,50.878755
Achtbunderstraat,6,A,,6343AR,Klimmen,Voerendaal,Limburg,VBO,5.877331,50.878380
Achtbunderstraat,6,,,6343AR,Klimmen,Voerendaal,Limburg,VBO,5.877337,50.878438
Achtbunderstraat,8,,,6343AR,Klimmen,Voerendaal,Limburg,VBO,5.877350,50.878311
Achtbunderstraat,10,,,6343AR,Klimmen,Voerendaal,Limburg,VBO,5.877425,50.878191
Achtbunderstraat,12,,,6343AR,Klimmen,Voerendaal,Limburg,VBO,5.877451,50.878130
Achtbunderstraat,14,,,6343AR,Klimmen,Voerendaal,Limburg,VBO,5.877496,50.878023
Achtbunderstraat,16,A,,6343AR,Klimmen,Voerendaal,Limburg,VBO,5.877640,50.877688
Achtbunderstraat,16,,,6343AR,Klimmen,Voerendaal,Limburg,VBO,5.877522,50.877963
Achtbunderstraat,18,,,6343AR,Klimmen,Voerendaal,Limburg,VBO,5.877741,50.877450
Achtbunderstraat,20,,,6343AR,Klimmen,Voerendaal,Limburg,VBO,5.877768,50.877385
Achtbunderstraat,22,,,6343AR,Klimmen,Voerendaal,Limburg,VBO,5.877830,50.877233
Achtbunderstraat,24,,,6343AR,Klimmen,Voerendaal,Limburg,VBO,5.877850,50.877191
Achtbunderstraat,26,,,6343AR,Klimmen,Voerendaal,Limburg,VBO,5.877910,50.877048
Achtbunderstraat,28,,,6343AR,Klimmen,Voerendaal,Limburg,VBO,5.877934,50.876987
Achtbunderstraat,30,,,6343AR,Klimmen,Voerendaal,Limburg,VBO,5.877987,50.876836
Achtbunderstraat,32,,,6343AR,Klimmen,Voerendaal,Limburg,VBO,5.878005,50.876774
Achtbunderstraat,34,,,6343AR,Klimmen,Voerendaal,Limburg,VBO,5.878040,50.876651
Achtbunderstraat,36,,,6343AR,Klimmen,Voerendaal,Limburg,VBO,5.878054,50.876586
Achtbunderstraat,38,,,6343AR,Klimmen,Voerendaal,Limburg,VBO,5.878080,50.876449
Achtbunderstraat,40,,,6343AR,Klimmen,Voerendaal,Limburg,VBO,5.878090,50.876389
Achtbunderstraat,42,,,6343AS,Klimmen,Voerendaal,Limburg,VBO,5.878127,50.875865
Achtbunderstraat,44,,,6343AS,Klimmen,Voerendaal,Limburg,VBO,5.878117,50.875688
Achtbunderstraat,46,,,6343AS,Klimmen,Voerendaal,Limburg,VBO,5.878115,50.875565
Achtbunderstraat,48,,,6343AS,Klimmen,Voerendaal,Limburg,VBO,5.878114,50.875442
Achtbunderstraat,50,,,6343AS,Klimmen,Voerendaal,Limburg,VBO,5.878128,50.875314
Achtbunderstraat,54,,,6343AS,Klimmen,Voerendaal,Limburg,VBO,5.878165,50.875186
Achtbunderstraat,56,,,6343AS,Klimmen,Voerendaal,Limburg,VBO,5.878227,50.875055
Achtbunderstraat,58,,,6343AS,Klimmen,Voerendaal,Limburg,VBO,5.878314,50.874951
Pleinstraat,1,,,6343AT,Klimmen,Voerendaal,Limburg,VBO,5.879267,50.878056
Pleinstraat,2,,,6343AT,Klimmen,Voerendaal,Limburg,VBO,5.879268,50.878234
Pleinstraat,3,,,6343AT,Klimmen,Voerendaal,Limburg,VBO,5.879245,50.877980
Pleinstraat,4,,,6343AT,Klimmen,Voerendaal,Limburg,VBO,5.879083,50.878255
Pleinstraat,5,,,6343AT,Klimmen,Voerendaal,Limburg,VBO,5.879223,50.877907
Pleinstraat,6,,,6343AT,Klimmen,Voerendaal,Limburg,VBO,5.878996,50.878266
Pleinstraat,7,,,6343AT,Klimmen,Voerendaal,Limburg,VBO,5.879203,50.877834
Pleinstraat,8,,,6343AT,Klimmen,Voerendaal,Limburg,VBO,5.878823,50.878286
Pleinstraat,9,,,6343AT,Klimmen,Voerendaal,Limburg,VBO,5.879184,50.877763
Pleinstraat,10,,,6343AT,Klimmen,Voerendaal,Limburg,VBO,5.878701,50.878300
Pleinstraat,11,,,6343AT,Klimmen,Voerendaal,Limburg,VBO,5.879157,50.877687
Pleinstraat,13,,,6343AT,Klimmen,Voerendaal,Limburg,VBO,5.879083,50.878042
Pleinstraat,15,,,6343AT,Klimmen,Voerendaal,Limburg,VBO,5.878968,50.878055
Pleinstraat,16,,,6343AT,Klimmen,Voerendaal,Limburg,VBO,5.878009,50.878293
Pleinstraat,17,,,6343AT,Klimmen,Voerendaal,Limburg,VBO,5.878841,50.878067
Pleinstraat,18,,,6343AT,Klimmen,Voerendaal,Limburg,VBO,5.877905,50.878282
Pleinstraat,19,,,6343AT,Klimmen,Voerendaal,Limburg,VBO,5.879311,50.878047
Pleinstraat,20,,,6343AT,Klimmen,Voerendaal,Limburg,VBO,5.877801,50.878272
Pleinstraat,21,,,6343AT,Klimmen,Voerendaal,Limburg,VBO,5.879291,50.877972
Pleinstraat,23,,,6343AT,Klimmen,Voerendaal,Limburg,VBO,5.879270,50.877899
Pleinstraat,25,,,6343AT,Klimmen,Voerendaal,Limburg,VBO,5.879250,50.877826
Pleinstraat,27,,,6343AT,Klimmen,Voerendaal,Limburg,VBO,5.879230,50.877753
Pleinstraat,29,,,6343AT,Klimmen,Voerendaal,Limburg,VBO,5.879210,50.877680
Pleinstraat,31,,,6343AT,Klimmen,Voerendaal,Limburg,VBO,5.879074,50.878013
Pleinstraat,33,,,6343AT,Klimmen,Voerendaal,Limburg,VBO,5.878959,50.878025
Pleinstraat,35,,,6343AT,Klimmen,Voerendaal,Limburg,VBO,5.878831,50.878040
Pleinstraat,37,,,6343AT,Klimmen,Voerendaal,Limburg,VBO,5.878771,50.878119
Drossaert de Limpensplein,1,,,6343AV,Klimmen,Voerendaal,Limburg,VBO,5.880567,50.877995
Drossaert de Limpensplein,2,,,6343AV,Klimmen,Voerendaal,Limburg,VBO,5.880517,50.877905
Drossaert de Limpensplein,3,,,6343AV,Klimmen,Voerendaal,Limburg,VBO,5.880416,50.877747
Drossaert de Limpensplein,4,,,6343AV,Klimmen,Voerendaal,Limburg,VBO,5.880396,50.877696
Drossaert de Limpensplein,5,,,6343AV,Klimmen,Voerendaal,Limburg,VBO,5.880030,50.877558
Drossaert de Limpensplein,6,,,6343AV,Klimmen,Voerendaal,Limburg,VBO,5.879942,50.877567
Drossaert de Limpensplein,7,,,6343AV,Klimmen,Voerendaal,Limburg,VBO,5.879842,50.877577
Drossaert de Limpensplein,8,,,6343AV,Klimmen,Voerendaal,Limburg,VBO,5.879749,50.877586
Drossaert de Limpensplein,9,,,6343AV,Klimmen,Voerendaal,Limburg,VBO,5.879659,50.877595
Drossaert de Limpensplein,10,,,6343AV,Klimmen,Voerendaal,Limburg,VBO,5.879550,50.877606
Drossaert de Limpensplein,14,,,6343AW,Klimmen,Voerendaal,Limburg,VBO,5.879288,50.877742
Drossaert de Limpensplein,16,,,6343AW,Klimmen,Voerendaal,Limburg,VBO,5.879362,50.878042
Drossaert de Limpensplein,21,,,6343AW,Klimmen,Voerendaal,Limburg,VBO,5.879426,50.878170
Drossaert de Limpensplein,22,,,6343AW,Klimmen,Voerendaal,Limburg,VBO,5.879538,50.878157
Drossaert de Limpensplein,23,,,6343AW,Klimmen,Voerendaal,Limburg,VBO,5.879637,50.878147
Drossaert de Limpensplein,24,,,6343AW,Klimmen,Voerendaal,Limburg,VBO,5.879715,50.878136
Drossaert de Limpensplein,25,,,6343AW,Klimmen,Voerendaal,Limburg,VBO,5.879809,50.878126
Drossaert de Limpensplein,26,,,6343AW,Klimmen,Voerendaal,Limburg,VBO,5.879895,50.878115
Drossaert de Limpensplein,27,,,6343AW,Klimmen,Voerendaal,Limburg,VBO,5.880123,50.878090
Magergats,2,,,6343AX,Klimmen,Voerendaal,Limburg,VBO,5.882574,50.878135
Bep van Kootenstraat,1,,,6343AZ,Klimmen,Voerendaal,Limburg,VBO,5.883444,50.877529
Bep van Kootenstraat,2,,,6343AZ,Klimmen,Voerendaal,Limburg,VBO,5.883080,50.877538
Bep van Kootenstraat,3,,,6343AZ,Klimmen,Voerendaal,Limburg,VBO,5.883384,50.877531
Bep van Kootenstraat,4,,,6343AZ,Klimmen,Voerendaal,Limburg,VBO,5.882996,50.877483
Bep van Kootenstraat,5,,,6343AZ,Klimmen,Voerendaal,Limburg,VBO,5.883226,50.877420
Bep van Kootenstraat,6,,,6343AZ,Klimmen,Voerendaal,Limburg,VBO,5.882953,50.877352
Bep van Kootenstraat,7,,,6343AZ,Klimmen,Voerendaal,Limburg,VBO,5.883185,50.877386
Bep van Kootenstraat,8,,,6343AZ,Klimmen,Voerendaal,Limburg,VBO,5.882920,50.877321
Bep van Kootenstraat,9,,,6343AZ,Klimmen,Voerendaal,Limburg,VBO,5.883107,50.877288
Bep van Kootenstraat,10,,,6343AZ,Klimmen,Voerendaal,Limburg,VBO,5.882873,50.877282
Bep van Kootenstraat,11,,,6343AZ,Klimmen,Voerendaal,Limburg,VBO,5.883213,50.877370
Bep van Kootenstraat,12,,,6343AZ,Klimmen,Voerendaal,Limburg,VBO,5.882830,50.877241
Bep van Kootenstraat,13,,,6343AZ,Klimmen,Voerendaal,Limburg,VBO,5.883259,50.877400
Bep van Kootenstraat,15,,,6343AZ,Klimmen,Voerendaal,Limburg,VBO,5.883372,50.877476
Bep van Kootenstraat,17,,,6343AZ,Klimmen,Voerendaal,Limburg,VBO,5.883462,50.877490
Pendersstraat,1,,,6343BA,Klimmen,Voerendaal,Limburg,VBO,5.879596,50.877337
Pendersstraat,3,,,6343BA,Klimmen,Voerendaal,Limburg,VBO,5.879638,50.877285
Pendersstraat,5,,,6343BA,Klimmen,Voerendaal,Limburg,VBO,5.879747,50.877196
Pendersstraat,7,,,6343BA,Klimmen,Voerendaal,Limburg,VBO,5.879816,50.877146
Pendersstraat,9,,,6343BA,Klimmen,Voerendaal,Limburg,VBO,5.879942,50.877068
Pendersstraat,11,,,6343BA,Klimmen,Voerendaal,Limburg,VBO,5.880004,50.877022
Pendersstraat,13,,,6343BA,Klimmen,Voerendaal,Limburg,VBO,5.880102,50.876937
Pendersstraat,15,,,6343BA,Klimmen,Voerendaal,Limburg,VBO,5.880202,50.876887
Pendersstraat,17,,,6343BA,Klimmen,Voerendaal,Limburg,VBO,5.880286,50.876818
Pendersstraat,19,,,6343BA,Klimmen,Voerendaal,Limburg,VBO,5.880354,50.876768
Pendersstraat,21,,,6343BA,Klimmen,Voerendaal,Limburg,VBO,5.880495,50.876643
Pendersstraat,23,,,6343BA,Klimmen,Voerendaal,Limburg,VBO,5.880566,50.876591
Pendersstraat,25,,,6343BA,Klimmen,Voerendaal,Limburg,VBO,5.880614,50.876556
Pendersstraat,27,,,6343BA,Klimmen,Voerendaal,Limburg,VBO,5.880873,50.876379
Pendersstraat,29,,,6343BA,Klimmen,Voerendaal,Limburg,VBO,5.880926,50.876340
Pendersstraat,31,,,6343BA,Klimmen,Voerendaal,Limburg,VBO,5.881089,50.876243
Pendersstraat,33,,,6343BA,Klimmen,Voerendaal,Limburg,VBO,5.881151,50.876196
Pendersstraat,35,,,6343BA,Klimmen,Voerendaal,Limburg,VBO,5.881354,50.876065
Pendersstraat,2,,,6343BB,Klimmen,Voerendaal,Limburg,VBO,5.879245,50.877570
Pendersstraat,4,,,6343BB,Klimmen,Voerendaal,Limburg,VBO,5.879244,50.877501
Pendersstraat,6,,,6343BB,Klimmen,Voerendaal,Limburg,VBO,5.879259,50.877390
Pendersstraat,8,,,6343BB,Klimmen,Voerendaal,Limburg,VBO,5.879286,50.877329
Pendersstraat,10,,,6343BB,Klimmen,Voerendaal,Limburg,VBO,5.879367,50.877187
Pendersstraat,12,,,6343BB,Klimmen,Voerendaal,Limburg,VBO,5.879414,50.877136
Pendersstraat,14,,,6343BB,Klimmen,Voerendaal,Limburg,VBO,5.879405,50.876977
Pendersstraat,16,,,6343BB,Klimmen,Voerendaal,Limburg,VBO,5.879500,50.876862
Pendersstraat,18,,,6343BB,Klimmen,Voerendaal,Limburg,VBO,5.879553,50.876811
Pendersstraat,20,,,6343BB,Klimmen,Voerendaal,Limburg,VBO,5.879659,50.876708
Pendersstraat,22,,,6343BB,Klimmen,Voerendaal,Limburg,VBO,5.879711,50.876659
Pendersstraat,24,,,6343BB,Klimmen,Voerendaal,Limburg,VBO,5.879822,50.876551
Pendersstraat,26,,,6343BB,Klimmen,Voerendaal,Limburg,VBO,5.879872,50.876503
Pendersstraat,28,,,6343BC,Klimmen,Voerendaal,Limburg,VBO,5.880013,50.876308
Pendersstraat,30,,,6343BC,Klimmen,Voerendaal,Limburg,VBO,5.880065,50.876259
Pendersstraat,32,,,6343BC,Klimmen,Voerendaal,Limburg,VBO,5.880119,50.876206
Pendersstraat,36,,,6343BC,Klimmen,Voerendaal,Limburg,VBO,5.880408,50.876187
Pendersstraat,38,,,6343BC,Klimmen,Voerendaal,Limburg,VBO,5.880518,50.876224
Pendersstraat,40,,,6343BC,Klimmen,Voerendaal,Limburg,VBO,5.880601,50.876252
Pendersstraat,42,,,6343BC,Klimmen,Voerendaal,Limburg,VBO,5.880191,50.876530
Pendersstraat,44,A,,6343BC,Klimmen,Voerendaal,Limburg,VBO,5.880331,50.876427
Pendersstraat,44,,,6343BC,Klimmen,Voerendaal,Limburg,VBO,5.880258,50.876481
Pendersstraat,46,,,6343BC,Klimmen,Voerendaal,Limburg,VBO,5.880860,50.876102
Pendersstraat,48,,,6343BC,Klimmen,Voerendaal,Limburg,VBO,5.880913,50.876062
Pendersstraat,50,,,6343BC,Klimmen,Voerendaal,Limburg,VBO,5.881057,50.875955
Pendersstraat,52,,,6343BC,Klimmen,Voerendaal,Limburg,VBO,5.881124,50.875904
Groene Kruisstraat,1,,,6343BD,Klimmen,Voerendaal,Limburg,VBO,5.879750,50.876175
Groene Kruisstraat,2,,,6343BD,Klimmen,Voerendaal,Limburg,VBO,5.879566,50.876362
Groene Kruisstraat,3,,,6343BD,Klimmen,Voerendaal,Limburg,VBO,5.879598,50.876112
Groene Kruisstraat,4,,,6343BD,Klimmen,Voerendaal,Limburg,VBO,5.879478,50.876326
Groene Kruisstraat,5,,,6343BD,Klimmen,Voerendaal,Limburg,VBO,5.879514,50.876077
Groene Kruisstraat,11,,,6343BD,Klimmen,Voerendaal,Limburg,VBO,5.878832,50.875873
Groene Kruisstraat,13,,,6343BD,Klimmen,Voerendaal,Limburg,VBO,5.878522,50.875869
Doctor Schoenmaekersstraat,1,,,6343BE,Klimmen,Voerendaal,Limburg,VBO,5.881630,50.876698
Doctor Schoenmaekersstraat,2,,,6343BE,Klimmen,Voerendaal,Limburg,VBO,5.881160,50.876760
Doctor Schoenmaekersstraat,3,,,6343BE,Klimmen,Voerendaal,Limburg,VBO,5.881560,50.876667
Doctor Schoenmaekersstraat,4,,,6343BE,Klimmen,Voerendaal,Limburg,VBO,5.881083,50.876726
Doctor Schoenmaekersstraat,5,,,6343BE,Klimmen,Voerendaal,Limburg,VBO,5.881408,50.876600
Doctor Schoenmaekersstraat,6,,,6343BE,Klimmen,Voerendaal,Limburg,VBO,5.880931,50.876660
Doctor Schoenmaekersstraat,7,,,6343BE,Klimmen,Voerendaal,Limburg,VBO,5.881341,50.876571
Doctor Schoenmaekersstraat,8,,,6343BE,Klimmen,Voerendaal,Limburg,VBO,5.880856,50.876627
Doctor Schoenmaekersstraat,9,,,6343BE,Klimmen,Voerendaal,Limburg,VBO,5.881187,50.876501
Doctor Schoenmaekersstraat,11,,,6343BE,Klimmen,Voerendaal,Limburg,VBO,5.881113,50.876469
Doctor Poelsstraat,5,,,6343BG,Klimmen,Voerendaal,Limburg,VBO,5.880651,50.877557
Doctor Poelsstraat,7,,,6343BG,Klimmen,Voerendaal,Limburg,VBO,5.880730,50.877524
Doctor Poelsstraat,9,,,6343BG,Klimmen,Voerendaal,Limburg,VBO,5.880817,50.877489
Doctor Poelsstraat,11,,,6343BG,Klimmen,Voerendaal,Limburg,VBO,5.880943,50.877438
Doctor Poelsstraat,13,,,6343BG,Klimmen,Voerendaal,Limburg,VBO,5.881023,50.877406
Doctor Poelsstraat,15,,,6343BG,Klimmen,Voerendaal,Limburg,VBO,5.881093,50.877377
Doctor Poelsstraat,17,,,6343BG,Klimmen,Voerendaal,Limburg,VBO,5.881159,50.877350
Doctor Poelsstraat,19,,,6343BG,Klimmen,Voerendaal,Limburg,VBO,5.881288,50.877298
Doctor Poelsstraat,21,,,6343BG,Klimmen,Voerendaal,Limburg,VBO,5.881346,50.877274
Doctor Poelsstraat,23,,,6343BG,Klimmen,Voerendaal,Limburg,VBO,5.881425,50.877242
Doctor Poelsstraat,25,,,6343BG,Klimmen,Voerendaal,Limburg,VBO,5.881493,50.877215
Doctor Poelsstraat,27,,,6343BG,Klimmen,Voerendaal,Limburg,VBO,5.881644,50.877154
Doctor Poelsstraat,29,,,6343BG,Klimmen,Voerendaal,Limburg,VBO,5.881715,50.877125
Doctor Poelsstraat,31,,,6343BG,Klimmen,Voerendaal,Limburg,VBO,5.881770,50.877102
Doctor Poelsstraat,33,,,6343BG,Klimmen,Voerendaal,Limburg,VBO,5.881836,50.877075
Doctor Poelsstraat,35,,,6343BG,Klimmen,Voerendaal,Limburg,VBO,5.881994,50.877011
Doctor Poelsstraat,37,,,6343BG,Klimmen,Voerendaal,Limburg,VBO,5.882086,50.876974
Doctor Poelsstraat,39,,,6343BG,Klimmen,Voerendaal,Limburg,VBO,5.882175,50.876937
Doctor Poelsstraat,41,,,6343BG,Klimmen,Voerendaal,Limburg,VBO,5.882327,50.876875
Doctor Poelsstraat,43,,,6343BG,Klimmen,Voerendaal,Limburg,VBO,5.882410,50.876840
Doctor Poelsstraat,45,,,6343BG,Klimmen,Voerendaal,Limburg,VBO,5.882533,50.876782
Doctor Poelsstraat,47,,,6343BG,Klimmen,Voerendaal,Limburg,VBO,5.882577,50.876760
Doctor Poelsstraat,49,,,6343BG,Klimmen,Voerendaal,Limburg,VBO,5.882687,50.876703
Doctor Poelsstraat,51,,,6343BG,Klimmen,Voerendaal,Limburg,VBO,5.882771,50.876658
Doctor Poelsstraat,53,,,6343BG,Klimmen,Voerendaal,Limburg,VBO,5.882884,50.876562
Doctor Poelsstraat,55,,,6343BG,Klimmen,Voerendaal,Limburg,VBO,5.883119,50.876429
Doctor Poelsstraat,1,,,6343BH,Klimmen,Voerendaal,Limburg,VBO,5.880226,50.877494
Doctor Poelsstraat,2,,,6343BH,Klimmen,Voerendaal,Limburg,VBO,5.880382,50.877418
Doctor Poelsstraat,4,,,6343BH,Klimmen,Voerendaal,Limburg,VBO,5.880467,50.877383
Doctor Poelsstraat,6,,,6343BH,Klimmen,Voerendaal,Limburg,VBO,5.880631,50.877300
Doctor Poelsstraat,8,,,6343BH,Klimmen,Voerendaal,Limburg,VBO,5.880694,50.877275
Doctor Poelsstraat,10,,,6343BH,Klimmen,Voerendaal,Limburg,VBO,5.880858,50.877209
Doctor Poelsstraat,12,,,6343BH,Klimmen,Voerendaal,Limburg,VBO,5.880932,50.877178
Doctor Poelsstraat,14,,,6343BH,Klimmen,Voerendaal,Limburg,VBO,5.881092,50.877129
Doctor Poelsstraat,16,,,6343BH,Klimmen,Voerendaal,Limburg,VBO,5.881160,50.877101
Doctor Poelsstraat,18,,,6343BH,Klimmen,Voerendaal,Limburg,VBO,5.881271,50.877056
Doctor Poelsstraat,20,,,6343BH,Klimmen,Voerendaal,Limburg,VBO,5.881324,50.877035
Doctor Poelsstraat,22,,,6343BH,Klimmen,Voerendaal,Limburg,VBO,5.881451,50.876988
Doctor Poelsstraat,24,,,6343BH,Klimmen,Voerendaal,Limburg,VBO,5.881503,50.876968
Doctor Poelsstraat,26,,,6343BH,Klimmen,Voerendaal,Limburg,VBO,5.881913,50.876793
Doctor Poelsstraat,28,,,6343BH,Klimmen,Voerendaal,Limburg,VBO,5.882035,50.876747
Doctor Poelsstraat,30,,,6343BH,Klimmen,Voerendaal,Limburg,VBO,5.881682,50.876504
Doctor Poelsstraat,32,,,6343BH,Klimmen,Voerendaal,Limburg,VBO,5.881586,50.876452
Doctor Poelsstraat,34,,,6343BH,Klimmen,Voerendaal,Limburg,VBO,5.881755,50.876339
Doctor Poelsstraat,36,,,6343BH,Klimmen,Voerendaal,Limburg,VBO,5.881854,50.876400
Doctor Poelsstraat,38,,,6343BH,Klimmen,Voerendaal,Limburg,VBO,5.882247,50.876673
Doctor Poelsstraat,40,,,6343BH,Klimmen,Voerendaal,Limburg,VBO,5.882324,50.876634
Doctor Poelsstraat,42,,,6343BH,Klimmen,Voerendaal,Limburg,VBO,5.882400,50.876597
Doctor Poelsstraat,44,,,6343BH,Klimmen,Voerendaal,Limburg,VBO,5.882493,50.876550
Doctor Poelsstraat,46,,,6343BH,Klimmen,Voerendaal,Limburg,VBO,5.882702,50.876430
Doctor Poelsstraat,48,,,6343BH,Klimmen,Voerendaal,Limburg,VBO,5.882607,50.876411
Doctor Poelsstraat,50,,,6343BH,Klimmen,Voerendaal,Limburg,VBO,5.882517,50.876394
Doctor Poelsstraat,52,,,6343BH,Klimmen,Voerendaal,Limburg,VBO,5.882426,50.876376
Doctor Poelsstraat,54,,,6343BH,Klimmen,Voerendaal,Limburg,VBO,5.882331,50.876357
Doctor Poelsstraat,56,,,6343BH,Klimmen,Voerendaal,Limburg,VBO,5.882215,50.876648
Doctor Poelsstraat,58,,,6343BH,Klimmen,Voerendaal,Limburg,VBO,5.882293,50.876609
Doctor Poelsstraat,60,,,6343BH,Klimmen,Voerendaal,Limburg,VBO,5.882368,50.876572
Doctor Poelsstraat,62,,,6343BH,Klimmen,Voerendaal,Limburg,VBO,5.882460,50.876525
Doctor Poelsstraat,64,,,6343BH,Klimmen,Voerendaal,Limburg,VBO,5.882718,50.876398
Doctor Poelsstraat,66,,,6343BH,Klimmen,Voerendaal,Limburg,VBO,5.882624,50.876381
Doctor Poelsstraat,68,,,6343BH,Klimmen,Voerendaal,Limburg,VBO,5.882532,50.876363
Doctor Poelsstraat,70,,,6343BH,Klimmen,Voerendaal,Limburg,VBO,5.882441,50.876345
Doctor Poelsstraat,72,,,6343BH,Klimmen,Voerendaal,Limburg,VBO,5.882345,50.876326
Doctor Poelsstraat,74,,,6343BH,Klimmen,Voerendaal,Limburg,VBO,5.882184,50.876623
Doctor Poelsstraat,76,,,6343BH,Klimmen,Voerendaal,Limburg,VBO,5.882261,50.876584
Doctor Poelsstraat,78,,,6343BH,Klimmen,Voerendaal,Limburg,VBO,5.882337,50.876547
Doctor Poelsstraat,80,,,6343BH,Klimmen,Voerendaal,Limburg,VBO,5.882430,50.876500
Doctor Poelsstraat,82,,,6343BH,Klimmen,Voerendaal,Limburg,VBO,5.882733,50.876367
Doctor Poelsstraat,84,,,6343BH,Klimmen,Voerendaal,Limburg,VBO,5.882548,50.876331
Doctor Poelsstraat,86,,,6343BH,Klimmen,Voerendaal,Limburg,VBO,5.882364,50.876295
Houtstraat,1,A,,6343BJ,Klimmen,Voerendaal,Limburg,VBO,5.884254,50.876916
Houtstraat,1,,,6343BJ,Klimmen,Voerendaal,Limburg,VBO,5.884200,50.876893
Houtstraat,3,,,6343BJ,Klimmen,Voerendaal,Limburg,VBO,5.884160,50.876834
Houtstraat,5,,,6343BJ,Klimmen,Voerendaal,Limburg,VBO,5.884084,50.876760
Houtstraat,7,,,6343BJ,Klimmen,Voerendaal,Limburg,VBO,5.883969,50.876623
Houtstraat,9,,,6343BJ,Klimmen,Voerendaal,Limburg,VBO,5.883928,50.876586
Houtstraat,11,,,6343BJ,Klimmen,Voerendaal,Limburg,VBO,5.883801,50.876501
Houtstraat,13,,,6343BJ,Klimmen,Voerendaal,Limburg,VBO,5.883725,50.876454
Houtstraat,15,,,6343BJ,Klimmen,Voerendaal,Limburg,VBO,5.883578,50.876381
Houtstraat,17,,,6343BJ,Klimmen,Voerendaal,Limburg,VBO,5.883504,50.876349
Houtstraat,23,A,,6343BJ,Klimmen,Voerendaal,Limburg,VBO,5.882648,50.875992
Houtstraat,23,B,,6343BJ,Klimmen,Voerendaal,Limburg,VBO,5.882549,50.875995
Houtstraat,23,C,,6343BJ,Klimmen,Voerendaal,Limburg,VBO,5.882781,50.876029
Houtstraat,23,D,,6343BJ,Klimmen,Voerendaal,Limburg,VBO,5.882918,50.876071
Houtstraat,23,E,,6343BJ,Klimmen,Voerendaal,Limburg,VBO,5.882635,50.875848
Houtstraat,23,F,,6343BJ,Klimmen,Voerendaal,Limburg,VBO,5.882693,50.875747
Houtstraat,23,G,,6343BJ,Klimmen,Voerendaal,Limburg,VBO,5.882831,50.875805
Houtstraat,23,H,,6343BJ,Klimmen,Voerendaal,Limburg,VBO,5.882785,50.875884
Houtstraat,23,J,,6343BJ,Klimmen,Voerendaal,Limburg,VBO,5.882844,50.876146
Houtstraat,23,K,,6343BJ,Klimmen,Voerendaal,Limburg,VBO,5.882505,50.876041
Houtstraat,23,L,,6343BJ,Klimmen,Voerendaal,Limburg,VBO,5.882571,50.875972
Houtstraat,23,M,,6343BJ,Klimmen,Voerendaal,Limburg,VBO,5.882804,50.876005
Houtstraat,23,N,,6343BJ,Klimmen,Voerendaal,Limburg,VBO,5.882944,50.876043
Houtstraat,23,O,,6343BJ,Klimmen,Voerendaal,Limburg,VBO,5.882872,50.876119
Houtstraat,23,P,,6343BJ,Klimmen,Voerendaal,Limburg,VBO,5.882700,50.876064
Houtstraat,23,R,,6343BJ,Klimmen,Voerendaal,Limburg,VBO,5.882648,50.875822
Houtstraat,23,S,,6343BJ,Klimmen,Voerendaal,Limburg,VBO,5.882711,50.875717
Houtstraat,23,T,,6343BJ,Klimmen,Voerendaal,Limburg,VBO,5.882850,50.875775
Houtstraat,23,U,,6343BJ,Klimmen,Voerendaal,Limburg,VBO,5.882803,50.875853
Houtstraat,23,V,,6343BJ,Klimmen,Voerendaal,Limburg,VBO,5.882593,50.875949
Houtstraat,23,W,,6343BJ,Klimmen,Voerendaal,Limburg,VBO,5.882679,50.876086
Houtstraat,23,X,,6343BJ,Klimmen,Voerendaal,Limburg,VBO,5.882826,50.875981
Houtstraat,23,Y,,6343BJ,Klimmen,Voerendaal,Limburg,VBO,5.882731,50.876052
Houtstraat,23,Z,,6343BJ,Klimmen,Voerendaal,Limburg,VBO,5.882663,50.875796
Houtstraat,23,,,6343BJ,Klimmen,Voerendaal,Limburg,VBO,5.883104,50.876170
Houtstraat,25,A,,6343BJ,Klimmen,Voerendaal,Limburg,VBO,5.882293,50.876002
Houtstraat,25,,,6343BJ,Klimmen,Voerendaal,Limburg,VBO,5.882056,50.875936
Houtstraat,29,,,6343BJ,Klimmen,Voerendaal,Limburg,VBO,5.881060,50.875609
Houtstraat,31,,,6343BJ,Klimmen,Voerendaal,Limburg,VBO,5.880959,50.875597
Houtstraat,55,,,6343BJ,Klimmen,Voerendaal,Limburg,VBO,5.876539,50.873704
Houtstraat,2,,,6343BK,Klimmen,Voerendaal,Limburg,VBO,5.883966,50.876873
Houtstraat,4,,,6343BK,Klimmen,Voerendaal,Limburg,VBO,5.883782,50.876802
Houtstraat,6,,,6343BK,Klimmen,Voerendaal,Limburg,VBO,5.883689,50.876752
Houtstraat,10,,,6343BK,Klimmen,Voerendaal,Limburg,VBO,5.883578,50.876618
Houtstraat,12,,,6343BK,Klimmen,Voerendaal,Limburg,VBO,5.883514,50.876570
Houtstraat,14,,,6343BK,Klimmen,Voerendaal,Limburg,VBO,5.883463,50.876556
Houtstraat,16,,,6343BK,Klimmen,Voerendaal,Limburg,VBO,5.883337,50.876558
Houtstraat,18,,,6343BK,Klimmen,Voerendaal,Limburg,VBO,5.883223,50.876452
Houtstraat,26,,,6343BK,Klimmen,Voerendaal,Limburg,VBO,5.882185,50.876207
Houtstraat,28,,,6343BK,Klimmen,Voerendaal,Limburg,VBO,5.882101,50.876176
Houtstraat,30,,,6343BK,Klimmen,Voerendaal,Limburg,VBO,5.881903,50.876115
Houtstraat,32,,,6343BK,Klimmen,Voerendaal,Limburg,VBO,5.881794,50.876075
Houtstraat,34,A,,6343BL,Klimmen,Voerendaal,Limburg,VBO,5.880947,50.875835
Houtstraat,34,,,6343BL,Klimmen,Voerendaal,Limburg,VBO,5.880961,50.875790
Houtstraat,36,,,6343BL,Klimmen,Voerendaal,Limburg,VBO,5.880755,50.875746
Houtstraat,38,,,6343BL,Klimmen,Voerendaal,Limburg,VBO,5.880452,50.875814
Houtstraat,40,,,6343BL,Klimmen,Voerendaal,Limburg,VBO,5.880179,50.875706
Houtstraat,42,,,6343BL,Klimmen,Voerendaal,Limburg,VBO,5.879961,50.875635
Houtstraat,44,,,6343BL,Klimmen,Voerendaal,Limburg,VBO,5.879719,50.875556
Houtstraat,52,,,6343BL,Klimmen,Voerendaal,Limburg,VBO,5.879074,50.875169
Houtstraat,54,,,6343BL,Klimmen,Voerendaal,Limburg,VBO,5.878497,50.874727
Houtstraat,56,,,6343BL,Klimmen,Voerendaal,Limburg,VBO,5.878212,50.874555
Houtstraat,58,,,6343BL,Klimmen,Voerendaal,Limburg,VBO,5.878036,50.874397
Houtstraat,60,,,6343BL,Klimmen,Voerendaal,Limburg,VBO,5.877801,50.874295
Houtstraat,62,,,6343BL,Klimmen,Voerendaal,Limburg,VBO,5.877564,50.874206
Houtstraat,64,,,6343BL,Klimmen,Voerendaal,Limburg,VBO,5.877363,50.874137
Houtstraat,66,,,6343BL,Klimmen,Voerendaal,Limburg,VBO,5.877156,50.874067
Houtstraat,68,,,6343BL,Klimmen,Voerendaal,Limburg,VBO,5.876925,50.873992
Houtstraat,70,,,6343BL,Klimmen,Voerendaal,Limburg,VBO,5.876665,50.873951
Vrijthof,1,,,6343BM,Klimmen,Voerendaal,Limburg,VBO,5.883650,50.877411
Vrijthof,2,,,6343BM,Klimmen,Voerendaal,Limburg,VBO,5.883849,50.877202
Vrijthof,3,,,6343BM,Klimmen,Voerendaal,Limburg,VBO,5.884126,50.877117
Vrijthof,4,,,6343BM,Klimmen,Voerendaal,Limburg,VBO,5.884429,50.876987
Vrijthof,5,,,6343BM,Klimmen,Voerendaal,Limburg,VBO,5.884596,50.877033
Vrijthof,6,,,6343BM,Klimmen,Voerendaal,Limburg,VBO,5.884954,50.876864
Vrijthof,8,A,,6343BM,Klimmen,Voerendaal,Limburg,VBO,5.885522,50.877329
Vrijthof,8,,,6343BM,Klimmen,Voerendaal,Limburg,VBO,5.885550,50.877307
Vrijthof,9,,,6343BM,Klimmen,Voerendaal,Limburg,VBO,5.885438,50.877245
Vrijthof,10,,,6343BM,Klimmen,Voerendaal,Limburg,VBO,5.885350,50.877204
Vrijthof,11,,,6343BM,Klimmen,Voerendaal,Limburg,VBO,5.885278,50.877260
Vrijthof,12,,,6343BM,Klimmen,Voerendaal,Limburg,VBO,5.885180,50.877313
Vrijthof,13,,,6343BM,Klimmen,Voerendaal,Limburg,VBO,5.885095,50.877420
Vrijthof,14,,,6343BM,Klimmen,Voerendaal,Limburg,VBO,5.884942,50.877385
Vrijthof,15,,,6343BM,Klimmen,Voerendaal,Limburg,VBO,5.884824,50.877352
Vrijthof,16,,,6343BM,Klimmen,Voerendaal,Limburg,VBO,5.884773,50.877297
Vrijthof,17,,,6343BM,Klimmen,Voerendaal,Limburg,VBO,5.884583,50.877251
Kinkershof,1,,,6343BN,Klimmen,Voerendaal,Limburg,VBO,5.883442,50.876892
Kinkershof,2,,,6343BN,Klimmen,Voerendaal,Limburg,VBO,5.883369,50.876927
Kinkershof,3,,,6343BN,Klimmen,Voerendaal,Limburg,VBO,5.883264,50.876956
Kinkershof,4,,,6343BN,Klimmen,Voerendaal,Limburg,VBO,5.883193,50.876998
Kinkershof,5,,,6343BN,Klimmen,Voerendaal,Limburg,VBO,5.883146,50.877055
Kinkershof,6,,,6343BN,Klimmen,Voerendaal,Limburg,VBO,5.883075,50.877096
Kinkershof,17,,,6343BN,Klimmen,Voerendaal,Limburg,VBO,5.881917,50.877573
Kinkershof,18,,,6343BN,Klimmen,Voerendaal,Limburg,VBO,5.881832,50.877602
Kinkershof,19,,,6343BN,Klimmen,Voerendaal,Limburg,VBO,5.881764,50.877641
Kinkershof,20,,,6343BN,Klimmen,Voerendaal,Limburg,VBO,5.881681,50.877670
Kinkershof,21,,,6343BN,Klimmen,Voerendaal,Limburg,VBO,5.881608,50.877695
Kinkershof,22,,,6343BN,Klimmen,Voerendaal,Limburg,VBO,5.881430,50.877629
Kinkershof,23,,,6343BN,Klimmen,Voerendaal,Limburg,VBO,5.881378,50.877568
Kinkershof,24,,,6343BN,Klimmen,Voerendaal,Limburg,VBO,5.881741,50.877478
Kinkershof,25,,,6343BN,Klimmen,Voerendaal,Limburg,VBO,5.881868,50.877435
Kinkershof,26,,,6343BN,Klimmen,Voerendaal,Limburg,VBO,5.881936,50.877412
Kinkershof,27,,,6343BN,Klimmen,Voerendaal,Limburg,VBO,5.882052,50.877392
Kinkershof,28,,,6343BN,Klimmen,Voerendaal,Limburg,VBO,5.882032,50.877369
Kinkershof,29,,,6343BN,Klimmen,Voerendaal,Limburg,VBO,5.882106,50.877344
Kinkershof,30,,,6343BN,Klimmen,Voerendaal,Limburg,VBO,5.882126,50.877367
Kinkershof,31,,,6343BN,Klimmen,Voerendaal,Limburg,VBO,5.882189,50.877345
Kinkershof,32,,,6343BN,Klimmen,Voerendaal,Limburg,VBO,5.882284,50.877312
Kinkershof,33,,,6343BN,Klimmen,Voerendaal,Limburg,VBO,5.882333,50.877266
Kinkershof,34,,,6343BN,Klimmen,Voerendaal,Limburg,VBO,5.882420,50.877236
Kinkershof,35,,,6343BN,Klimmen,Voerendaal,Limburg,VBO,5.882554,50.877146
Kinkershof,36,,,6343BN,Klimmen,Voerendaal,Limburg,VBO,5.882614,50.877111
Kinkershof,37,,,6343BN,Klimmen,Voerendaal,Limburg,VBO,5.882682,50.877071
Kinkershof,38,,,6343BN,Klimmen,Voerendaal,Limburg,VBO,5.882797,50.877049
Kinkershof,39,,,6343BN,Klimmen,Voerendaal,Limburg,VBO,5.882862,50.877011
Kinkershof,40,,,6343BN,Klimmen,Voerendaal,Limburg,VBO,5.882921,50.876976
Kinkershof,41,,,6343BN,Klimmen,Voerendaal,Limburg,VBO,5.882982,50.876941
Kinkershof,42,,,6343BN,Klimmen,Voerendaal,Limburg,VBO,5.883030,50.876889
Kinkershof,43,,,6343BN,Klimmen,Voerendaal,Limburg,VBO,5.883083,50.876858
Remigiusstraat,1,,,6343BP,Klimmen,Voerendaal,Limburg,VBO,5.885087,50.876091
Remigiusstraat,2,,,6343BP,Klimmen,Voerendaal,Limburg,VBO,5.884866,50.876609
Remigiusstraat,3,,,6343BP,Klimmen,Voerendaal,Limburg,VBO,5.885045,50.876074
Remigiusstraat,4,,,6343BP,Klimmen,Voerendaal,Limburg,VBO,5.884845,50.876550
Remigiusstraat,5,,,6343BP,Klimmen,Voerendaal,Limburg,VBO,5.885032,50.876038
Remigiusstraat,6,,,6343BP,Klimmen,Voerendaal,Limburg,VBO,5.884798,50.876347
Remigiusstraat,7,,,6343BP,Klimmen,Voerendaal,Limburg,VBO,5.885060,50.876010
Remigiusstraat,8,,,6343BP,Klimmen,Voerendaal,Limburg,VBO,5.884778,50.876290
Remigiusstraat,9,,,6343BP,Klimmen,Voerendaal,Limburg,VBO,5.885050,50.875988
Remigiusstraat,10,,,6343BP,Klimmen,Voerendaal,Limburg,VBO,5.884739,50.876178
Remigiusstraat,11,,,6343BP,Klimmen,Voerendaal,Limburg,VBO,5.885011,50.875964
Remigiusstraat,12,,,6343BP,Klimmen,Voerendaal,Limburg,VBO,5.884718,50.876130
Remigiusstraat,13,,,6343BP,Klimmen,Voerendaal,Limburg,VBO,5.885001,50.875935
Remigiusstraat,14,,,6343BP,Klimmen,Voerendaal,Limburg,VBO,5.884608,50.875953
Remigiusstraat,15,A,,6343BP,Klimmen,Voerendaal,Limburg,VBO,5.885389,50.875966
Remigiusstraat,15,B,,6343BP,Klimmen,Voerendaal,Limburg,VBO,5.885671,50.875916
Remigiusstraat,15,,,6343BP,Klimmen,Voerendaal,Limburg,VBO,5.885029,50.875907
Remigiusstraat,16,,,6343BP,Klimmen,Voerendaal,Limburg,VBO,5.884530,50.875964
Remigiusstraat,17,,,6343BP,Klimmen,Voerendaal,Limburg,VBO,5.884711,50.875713
Remigiusstraat,18,,,6343BP,Klimmen,Voerendaal,Limburg,VBO,5.884357,50.875989
Remigiusstraat,20,,,6343BP,Klimmen,Voerendaal,Limburg,VBO,5.884262,50.876004
Remigiusstraat,22,,,6343BP,Klimmen,Voerendaal,Limburg,VBO,5.884087,50.876037
Remigiusstraat,24,,,6343BP,Klimmen,Voerendaal,Limburg,VBO,5.884008,50.876055
Remigiusstraat,25,,,6343BP,Klimmen,Voerendaal,Limburg,VBO,5.884024,50.875824
Remigiusstraat,26,,,6343BP,Klimmen,Voerendaal,Limburg,VBO,5.883857,50.876124
Remigiusstraat,27,,,6343BP,Klimmen,Voerendaal,Limburg,VBO,5.883797,50.875864
Remigiusstraat,29,,,6343BP,Klimmen,Voerendaal,Limburg,VBO,5.883377,50.876053
Remigiusstraat,31,,,6343BP,Klimmen,Voerendaal,Limburg,VBO,5.883319,50.876085
Sebastianusstraat,2,,,6343BR,Klimmen,Voerendaal,Limburg,VBO,5.884186,50.876507
Sebastianusstraat,4,,,6343BR,Klimmen,Voerendaal,Limburg,VBO,5.884354,50.876465
Sebastianusstraat,6,,,6343BR,Klimmen,Voerendaal,Limburg,VBO,5.884482,50.876421
Sebastianusstraat,8,,,6343BR,Klimmen,Voerendaal,Limburg,VBO,5.884546,50.876412
Hoofdbank,3,,,6343BS,Klimmen,Voerendaal,Limburg,VBO,5.884621,50.875564
Hoofdbank,5,,,6343BS,Klimmen,Voerendaal,Limburg,VBO,5.884602,50.875521
Hoofdbank,7,,,6343BS,Klimmen,Voerendaal,Limburg,VBO,5.884552,50.875411
Hoofdbank,9,,,6343BS,Klimmen,Voerendaal,Limburg,VBO,5.884536,50.875376
Hoofdbank,11,,,6343BS,Klimmen,Voerendaal,Limburg,VBO,5.884486,50.875262
Hoofdbank,13,,,6343BS,Klimmen,Voerendaal,Limburg,VBO,5.884469,50.875222
Hoofdbank,15,,,6343BS,Klimmen,Voerendaal,Limburg,VBO,5.884428,50.875099
Hoofdbank,17,,,6343BS,Klimmen,Voerendaal,Limburg,VBO,5.884351,50.874929
Hoofdbank,19,,,6343BS,Klimmen,Voerendaal,Limburg,VBO,5.884271,50.874745
Hoofdbank,21,,,6343BS,Klimmen,Voerendaal,Limburg,VBO,5.884032,50.874289
Hoofdbank,23,,,6343BS,Klimmen,Voerendaal,Limburg,VBO,5.883937,50.874114
Hoofdbank,2,,,6343BT,Klimmen,Voerendaal,Limburg,VBO,5.884240,50.875727
Hoofdbank,4,,,6343BT,Klimmen,Voerendaal,Limburg,VBO,5.884182,50.875614
Hoofdbank,6,,,6343BT,Klimmen,Voerendaal,Limburg,VBO,5.884137,50.875523
Hoofdbank,8,,,6343BT,Klimmen,Voerendaal,Limburg,VBO,5.884114,50.875480
Hoofdbank,10,,,6343BT,Klimmen,Voerendaal,Limburg,VBO,5.884067,50.875387
Hoofdbank,12,,,6343BT,Klimmen,Voerendaal,Limburg,VBO,5.884044,50.875344
Hoofdbank,14,,,6343BT,Klimmen,Voerendaal,Limburg,VBO,5.883999,50.875255
Hoofdbank,16,,,6343BT,Klimmen,Voerendaal,Limburg,VBO,5.883978,50.875215
Hoofdbank,18,,,6343BT,Klimmen,Voerendaal,Limburg,VBO,5.883931,50.875124
Hoofdbank,20,,,6343BT,Klimmen,Voerendaal,Limburg,VBO,5.883912,50.875088
Hoofdbank,22,,,6343BT,Klimmen,Voerendaal,Limburg,VBO,5.883790,50.874879
Hoofdbank,26,,,6343BT,Klimmen,Voerendaal,Limburg,VBO,5.883541,50.874398
Hoofdbank,28,,,6343BT,Klimmen,Voerendaal,Limburg,VBO,5.883472,50.874230
Hagerweg,1,,,6343BV,Klimmen,Voerendaal,Limburg,VBO,5.881814,50.875733
Hagerweg,2,,,6343BV,Klimmen,Voerendaal,Limburg,VBO,5.881399,50.875664
Hagerweg,3,,,6343BV,Klimmen,Voerendaal,Limburg,VBO,5.882199,50.875528
Hagerweg,4,,,6343BV,Klimmen,Voerendaal,Limburg,VBO,5.881652,50.875484
Hagerweg,5,,,6343BV,Klimmen,Voerendaal,Limburg,VBO,5.882332,50.875460
Hagerweg,6,,,6343BV,Klimmen,Voerendaal,Limburg,VBO,5.881809,50.875392
Hagerweg,7,,,6343BV,Klimmen,Voerendaal,Limburg,VBO,5.882490,50.875378
Hagerweg,8,,,6343BV,Klimmen,Voerendaal,Limburg,VBO,5.882012,50.875251
Hagerweg,9,,,6343BV,Klimmen,Voerendaal,Limburg,VBO,5.882655,50.875298
Hagerweg,10,,,6343BV,Klimmen,Voerendaal,Limburg,VBO,5.882232,50.875173
Hagerweg,11,,,6343BV,Klimmen,Voerendaal,Limburg,VBO,5.882810,50.875210
Hagerweg,12,,,6343BV,Klimmen,Voerendaal,Limburg,VBO,5.882460,50.875061
Hagerweg,13,,,6343BV,Klimmen,Voerendaal,Limburg,VBO,5.883037,50.875122
Hagerweg,14,,,6343BV,Klimmen,Voerendaal,Limburg,VBO,5.882673,50.874968
Hagerweg,15,,,6343BV,Klimmen,Voerendaal,Limburg,VBO,5.883250,50.875053
Hagerweg,16,,,6343BV,Klimmen,Voerendaal,Limburg,VBO,5.882954,50.874853
Hagerweg,17,,,6343BV,Klimmen,Voerendaal,Limburg,VBO,5.883508,50.874964
Hagerweg,18,,,6343BV,Klimmen,Voerendaal,Limburg,VBO,5.883205,50.874705
Hagerweg,20,,,6343BV,Klimmen,Voerendaal,Limburg,VBO,5.883566,50.874619
Platz,1,,,6343BW,Klimmen,Voerendaal,Limburg,VBO,5.884606,50.874701
Platz,2,,,6343BW,Klimmen,Voerendaal,Limburg,VBO,5.884166,50.874478
Platz,3,,,6343BW,Klimmen,Voerendaal,Limburg,VBO,5.884973,50.874651
Platz,4,,,6343BW,Klimmen,Voerendaal,Limburg,VBO,5.884606,50.874399
Platz,5,,,6343BW,Klimmen,Voerendaal,Limburg,VBO,5.885274,50.874595
Platz,6,,,6343BW,Klimmen,Voerendaal,Limburg,VBO,5.885036,50.874303
Kloosterstraat,1,,,6343BX,Klimmen,Voerendaal,Limburg,VBO,5.883751,50.875880
Kloosterstraat,2,,,6343BX,Klimmen,Voerendaal,Limburg,VBO,5.883482,50.875974
Kloosterstraat,3,,,6343BX,Klimmen,Voerendaal,Limburg,VBO,5.883545,50.875715
Kloosterstraat,4,,,6343BX,Klimmen,Voerendaal,Limburg,VBO,5.883276,50.875809
Kloosterstraat,5,,,6343BX,Klimmen,Voerendaal,Limburg,VBO,5.883509,50.875672
Kloosterstraat,6,,,6343BX,Klimmen,Voerendaal,Limburg,VBO,5.883229,50.875770
Kloosterstraat,7,,,6343BX,Klimmen,Voerendaal,Limburg,VBO,5.883476,50.875631
Kloosterstraat,8,,,6343BX,Klimmen,Voerendaal,Limburg,VBO,5.883152,50.875661
Kloosterstraat,9,,,6343BX,Klimmen,Voerendaal,Limburg,VBO,5.883482,50.875581
Kloosterstraat,10,,,6343BX,Klimmen,Voerendaal,Limburg,VBO,5.883134,50.875607
Kloosterstraat,11,,,6343BX,Klimmen,Voerendaal,Limburg,VBO,5.883440,50.875530
Kloosterstraat,12,,,6343BX,Klimmen,Voerendaal,Limburg,VBO,5.883138,50.875548
Kloosterstraat,13,,,6343BX,Klimmen,Voerendaal,Limburg,VBO,5.883399,50.875480
Kloosterstraat,14,,,6343BX,Klimmen,Voerendaal,Limburg,VBO,5.883122,50.875500
Kloosterstraat,15,,,6343BX,Klimmen,Voerendaal,Limburg,VBO,5.883353,50.875391
Kloosterstraat,16,,,6343BX,Klimmen,Voerendaal,Limburg,VBO,5.883106,50.875454
Kloosterstraat,17,,,6343BX,Klimmen,Voerendaal,Limburg,VBO,5.883310,50.875350
Kloosterstraat,19,,,6343BX,Klimmen,Voerendaal,Limburg,VBO,5.883271,50.875312
Grubbenweg,3,,,6343CA,Klimmen,Voerendaal,Limburg,VBO,5.881101,50.875288
Grubbenweg,5,,,6343CA,Klimmen,Voerendaal,Limburg,VBO,5.881310,50.875102
Grubbenweg,7,,,6343CA,Klimmen,Voerendaal,Limburg,VBO,5.881539,50.874924
Grubbenweg,9,,,6343CA,Klimmen,Voerendaal,Limburg,VBO,5.881729,50.874748
Grubbenweg,11,,,6343CA,Klimmen,Voerendaal,Limburg,VBO,5.881962,50.874597
Grubbenweg,15,,,6343CA,Klimmen,Voerendaal,Limburg,VBO,5.882365,50.874405
Grubbenweg,17,,,6343CA,Klimmen,Voerendaal,Limburg,VBO,5.882680,50.874227
Grubbenweg,19,,,6343CA,Klimmen,Voerendaal,Limburg,VBO,5.882958,50.874118
Grubbenweg,21,,,6343CA,Klimmen,Voerendaal,Limburg,VBO,5.883252,50.874040
Grubbenweg,23,,,6343CA,Klimmen,Voerendaal,Limburg,VBO,5.883909,50.873927
Grubbenweg,25,,,6343CA,Klimmen,Voerendaal,Limburg,VBO,5.884220,50.873831
Grubbenweg,27,,,6343CA,Klimmen,Voerendaal,Limburg,VBO,5.884636,50.873754
Grubbenweg,29,,,6343CA,Klimmen,Voerendaal,Limburg,VBO,5.885011,50.873671
Grubbenweg,31,,,6343CA,Klimmen,Voerendaal,Limburg,VBO,5.885423,50.873586
Grubbenweg,2,,,6343CB,Klimmen,Voerendaal,Limburg,VBO,5.880399,50.875362
Grubbenweg,4,,,6343CB,Klimmen,Voerendaal,Limburg,VBO,5.880550,50.875218
Grubbenweg,6,,,6343CB,Klimmen,Voerendaal,Limburg,VBO,5.880730,50.875049
Grubbenweg,8,,,6343CB,Klimmen,Voerendaal,Limburg,VBO,5.880964,50.874849
Grubbenweg,10,,,6343CB,Klimmen,Voerendaal,Limburg,VBO,5.881211,50.874646
Grubbenweg,12,,,6343CB,Klimmen,Voerendaal,Limburg,VBO,5.881443,50.874477
Grubbenweg,14,,,6343CB,Klimmen,Voerendaal,Limburg,VBO,5.881701,50.874315
Grubbenweg,16,,,6343CB,Klimmen,Voerendaal,Limburg,VBO,5.882002,50.874158
Grubbenweg,18,,,6343CB,Klimmen,Voerendaal,Limburg,VBO,5.882292,50.874022
Grubbenweg,20,A,,6343CC,Klimmen,Voerendaal,Limburg,VBO,5.882740,50.873861
Grubbenweg,20,,,6343CC,Klimmen,Voerendaal,Limburg,VBO,5.882633,50.873894
Grubbenweg,22,,,6343CC,Klimmen,Voerendaal,Limburg,VBO,5.883021,50.873780
Grubbenweg,24,,,6343CC,Klimmen,Voerendaal,Limburg,VBO,5.883407,50.873684
Grubbenweg,26,,,6343CC,Klimmen,Voerendaal,Limburg,VBO,5.883789,50.873600
Grubbenweg,28,,,6343CC,Klimmen,Voerendaal,Limburg,VBO,5.884167,50.873517
Grubbenweg,30,,,6343CC,Klimmen,Voerendaal,Limburg,VBO,5.884550,50.873432
Grubbenweg,32,,,6343CC,Klimmen,Voerendaal,Limburg,VBO,5.884913,50.873352
Grubbenweg,34,,,6343CC,Klimmen,Voerendaal,Limburg,VBO,5.885211,50.873282
Schoolstraat,3,,,6343CD,Klimmen,Voerendaal,Limburg,VBO,5.886023,50.877325
Schoolstraat,5,,,6343CD,Klimmen,Voerendaal,Limburg,VBO,5.886554,50.877249
Schoolstraat,21,,,6343CD,Klimmen,Voerendaal,Limburg,VBO,5.886292,50.875858
Schoolstraat,23,,,6343CD,Klimmen,Voerendaal,Limburg,VBO,5.886212,50.875676
Schoolstraat,25,,,6343CD,Klimmen,Voerendaal,Limburg,VBO,5.886208,50.875544
Schoolstraat,29,,,6343CD,Klimmen,Voerendaal,Limburg,VBO,5.886074,50.875385
Schoolstraat,33,,,6343CD,Klimmen,Voerendaal,Limburg,VBO,5.886268,50.875021
Schoolstraat,35,,,6343CD,Klimmen,Voerendaal,Limburg,VBO,5.886371,50.874830
Schoolstraat,37,,,6343CD,Klimmen,Voerendaal,Limburg,VBO,5.886491,50.874649
Schoolstraat,39,,,6343CD,Klimmen,Voerendaal,Limburg,VBO,5.886640,50.874331
Schoolstraat,45,,,6343CD,Klimmen,Voerendaal,Limburg,VBO,5.886839,50.873510
Schoolstraat,2,,,6343CE,Klimmen,Voerendaal,Limburg,VBO,5.885508,50.877535
Schoolstraat,4,,,6343CE,Klimmen,Voerendaal,Limburg,VBO,5.885842,50.876968
Schoolstraat,6,,,6343CE,Klimmen,Voerendaal,Limburg,VBO,5.885957,50.876700
Schoolstraat,14,,,6343CE,Klimmen,Voerendaal,Limburg,VBO,5.885317,50.875599
Schoolstraat,18,,,6343CE,Klimmen,Voerendaal,Limburg,VBO,5.885485,50.875077
Schoolstraat,20,,,6343CE,Klimmen,Voerendaal,Limburg,VBO,5.885758,50.874759
Schoolstraat,22,,,6343CE,Klimmen,Voerendaal,Limburg,VBO,5.885911,50.874535
Schoolstraat,24,,,6343CE,Klimmen,Voerendaal,Limburg,VBO,5.886001,50.874331
Schoolstraat,26,,,6343CE,Klimmen,Voerendaal,Limburg,VBO,5.886046,50.874173
Schoolstraat,28,,,6343CE,Klimmen,Voerendaal,Limburg,VBO,5.886057,50.873886
Schoolstraat,30,,,6343CE,Klimmen,Voerendaal,Limburg,VBO,5.885800,50.873597
Straterweg,23,,,6343CG,Klimmen,Voerendaal,Limburg,VBO,5.884387,50.871056
Straterweg,25,,,6343CG,Klimmen,Voerendaal,Limburg,VBO,5.884353,50.870829
Straterweg,27,,,6343CG,Klimmen,Voerendaal,Limburg,VBO,5.884239,50.870561
Koulen,1,,,6343CJ,Klimmen,Voerendaal,Limburg,VBO,5.882770,50.867974
Koulen,8,,,6343CJ,Klimmen,Voerendaal,Limburg,VBO,5.881611,50.867767
Koulen,10,,,6343CJ,Klimmen,Voerendaal,Limburg,VBO,5.881229,50.867605
Koulen,12,,,6343CJ,Klimmen,Voerendaal,Limburg,VBO,5.881170,50.867565
Koulen,14,,,6343CJ,Klimmen,Voerendaal,Limburg,VBO,5.881020,50.867504
Koulen,21,,,6343CJ,Klimmen,Voerendaal,Limburg,VBO,5.879725,50.866410
Koulen,23,,,6343CJ,Klimmen,Voerendaal,Limburg,VBO,5.879568,50.866305
Koulenbergsweg,5,,,6343CK,Klimmen,Voerendaal,Limburg,VBO,5.880335,50.865924
Koulenbergsweg,7,,,6343CK,Klimmen,Voerendaal,Limburg,VBO,5.880631,50.865857
Koulenbergsweg,9,,,6343CK,Klimmen,Voerendaal,Limburg,VBO,5.880552,50.865674
Termaar,1,,,6343CL,Klimmen,Voerendaal,Limburg,VBO,5.882983,50.868384
Termaar,3,,,6343CL,Klimmen,Voerendaal,Limburg,VBO,5.883123,50.868441
Termaar,5,,,6343CL,Klimmen,Voerendaal,Limburg,VBO,5.883500,50.868573
Termaar,7,,,6343CL,Klimmen,Voerendaal,Limburg,VBO,5.883795,50.868671
Termaar,9,,,6343CL,Klimmen,Voerendaal,Limburg,VBO,5.884149,50.868774
Termaar,11,,,6343CL,Klimmen,Voerendaal,Limburg,VBO,5.884404,50.868851
Termaar,19,,,6343CL,Klimmen,Voerendaal,Limburg,VBO,5.884943,50.868911
Termaar,25,A,,6343CL,Klimmen,Voerendaal,Limburg,VBO,5.885456,50.868989
Termaar,25,,,6343CL,Klimmen,Voerendaal,Limburg,VBO,5.885218,50.868893
Termaar,27,,,6343CL,Klimmen,Voerendaal,Limburg,VBO,5.885965,50.869062
Termaar,29,,,6343CL,Klimmen,Voerendaal,Limburg,VBO,5.886314,50.869118
Termaar,31,,,6343CL,Klimmen,Voerendaal,Limburg,VBO,5.886410,50.869125
Termaar,33,,,6343CL,Klimmen,Voerendaal,Limburg,VBO,5.886541,50.869133
Termaar,35,,,6343CL,Klimmen,Voerendaal,Limburg,VBO,5.886672,50.869148
Termaar,37,,,6343CL,Klimmen,Voerendaal,Limburg,VBO,5.886828,50.869165
Termaar,39,,,6343CL,Klimmen,Voerendaal,Limburg,VBO,5.886942,50.869165
Termaar,41,,,6343CL,Klimmen,Voerendaal,Limburg,VBO,5.887098,50.869172
Termaar,43,,,6343CL,Klimmen,Voerendaal,Limburg,VBO,5.887223,50.869181
Termaar,45,,,6343CL,Klimmen,Voerendaal,Limburg,VBO,5.887362,50.869192
Termaar,47,,,6343CL,Klimmen,Voerendaal,Limburg,VBO,5.887487,50.869200
Termaar,49,,,6343CL,Klimmen,Voerendaal,Limburg,VBO,5.887720,50.869215
Termaar,51,,,6343CL,Klimmen,Voerendaal,Limburg,VBO,5.887940,50.869181
Termaar,53,,,6343CL,Klimmen,Voerendaal,Limburg,VBO,5.888043,50.869186
Termaar,55,,,6343CL,Klimmen,Voerendaal,Limburg,VBO,5.888132,50.869186
Termaar,57,A,,6343CL,Klimmen,Voerendaal,Limburg,VBO,5.888201,50.869481
Termaar,57,,,6343CL,Klimmen,Voerendaal,Limburg,VBO,5.888317,50.869224
Termaar,59,,,6343CL,Klimmen,Voerendaal,Limburg,VBO,5.888437,50.869245
Termaar,2,,,6343CM,Klimmen,Voerendaal,Limburg,VBO,5.883021,50.868130
Termaar,4,A,,6343CM,Klimmen,Voerendaal,Limburg,VBO,5.883340,50.868275
Termaar,4,,,6343CM,Klimmen,Voerendaal,Limburg,VBO,5.883250,50.868221
Termaar,6,,,6343CM,Klimmen,Voerendaal,Limburg,VBO,5.883432,50.868319
Termaar,8,,,6343CM,Klimmen,Voerendaal,Limburg,VBO,5.883632,50.868395
Termaar,10,,,6343CM,Klimmen,Voerendaal,Limburg,VBO,5.883797,50.868437
Termaar,12,,,6343CM,Klimmen,Voerendaal,Limburg,VBO,5.884083,50.868380
Termaar,14,,,6343CM,Klimmen,Voerendaal,Limburg,VBO,5.884266,50.868418
Termaar,16,,,6343CM,Klimmen,Voerendaal,Limburg,VBO,5.884519,50.868521
Termaar,18,,,6343CM,Klimmen,Voerendaal,Limburg,VBO,5.884819,50.868584
Termaar,20,,,6343CM,Klimmen,Voerendaal,Limburg,VBO,5.885040,50.868631
Termaar,22,,,6343CM,Klimmen,Voerendaal,Limburg,VBO,5.885363,50.868667
Termaar,26,,,6343CM,Klimmen,Voerendaal,Limburg,VBO,5.885590,50.868796
Termaar,28,,,6343CM,Klimmen,Voerendaal,Limburg,VBO,5.885962,50.868851
Termaar,30,,,6343CM,Klimmen,Voerendaal,Limburg,VBO,5.886233,50.868821
Termaar,32,,,6343CN,Klimmen,Voerendaal,Limburg,VBO,5.886553,50.868831
Termaar,34,,,6343CN,Klimmen,Voerendaal,Limburg,VBO,5.886993,50.868855
Termaar,36,A,,6343CN,Klimmen,Voerendaal,Limburg,VBO,5.887287,50.868925
Termaar,36,,,6343CN,Klimmen,Voerendaal,Limburg,VBO,5.887280,50.868963
Termaar,38,,,6343CN,Klimmen,Voerendaal,Limburg,VBO,5.887480,50.868980
Termaar,40,,,6343CN,Klimmen,Voerendaal,Limburg,VBO,5.887663,50.869005
Termaar,44,,,6343CN,Klimmen,Voerendaal,Limburg,VBO,5.888112,50.869037
Termaar,46,,,6343CN,Klimmen,Voerendaal,Limburg,VBO,5.888449,50.869073
Termaar,48,,,6343CN,Klimmen,Voerendaal,Limburg,VBO,5.888604,50.869072
Termaar,50,,,6343CN,Klimmen,Voerendaal,Limburg,VBO,5.888809,50.869071
Termaar,52,,,6343CN,Klimmen,Voerendaal,Limburg,VBO,5.888921,50.869067
Manensheide,3,,,6343CP,Klimmen,Voerendaal,Limburg,VBO,5.884496,50.869184
Manensheide,5,,,6343CP,Klimmen,Voerendaal,Limburg,VBO,5.884555,50.869264
Manensheide,7,,,6343CP,Klimmen,Voerendaal,Limburg,VBO,5.884722,50.869448
Manensheide,9,,,6343CP,Klimmen,Voerendaal,Limburg,VBO,5.884748,50.869544
Manensheide,11,,,6343CP,Klimmen,Voerendaal,Limburg,VBO,5.884942,50.869745
Manensheide,13,,,6343CP,Klimmen,Voerendaal,Limburg,VBO,5.884964,50.869812
Manensheide,15,,,6343CP,Klimmen,Voerendaal,Limburg,VBO,5.885075,50.870008
Manensheide,17,,,6343CP,Klimmen,Voerendaal,Limburg,VBO,5.885115,50.870098
Manensheide,19,,,6343CP,Klimmen,Voerendaal,Limburg,VBO,5.885302,50.870433
Manensheide,21,,,6343CP,Klimmen,Voerendaal,Limburg,VBO,5.885350,50.870556
Manensheide,23,,,6343CP,Klimmen,Voerendaal,Limburg,VBO,5.885439,50.870747
Manensheide,25,,,6343CP,Klimmen,Voerendaal,Limburg,VBO,5.885463,50.870839
Manensheide,27,,,6343CP,Klimmen,Voerendaal,Limburg,VBO,5.885533,50.870998
Manensheide,29,,,6343CP,Klimmen,Voerendaal,Limburg,VBO,5.885574,50.871113
Manensheide,31,,,6343CP,Klimmen,Voerendaal,Limburg,VBO,5.885575,50.871215
Manensheide,2,,,6343CR,Klimmen,Voerendaal,Limburg,VBO,5.884820,50.868942
Manensheide,6,,,6343CR,Klimmen,Voerendaal,Limburg,VBO,5.884878,50.869125
Manensheide,8,,,6343CR,Klimmen,Voerendaal,Limburg,VBO,5.884933,50.869202
Manensheide,10,,,6343CR,Klimmen,Voerendaal,Limburg,VBO,5.885048,50.869321
Manensheide,12,,,6343CR,Klimmen,Voerendaal,Limburg,VBO,5.885113,50.869445
Manensheide,14,,,6343CR,Klimmen,Voerendaal,Limburg,VBO,5.885165,50.869516
Manensheide,16,,,6343CR,Klimmen,Voerendaal,Limburg,VBO,5.885233,50.869604
Manensheide,18,,,6343CR,Klimmen,Voerendaal,Limburg,VBO,5.885280,50.869679
Manensheide,20,,,6343CR,Klimmen,Voerendaal,Limburg,VBO,5.885351,50.869766
Manensheide,22,,,6343CR,Klimmen,Voerendaal,Limburg,VBO,5.885398,50.869833
Manensheide,24,,,6343CR,Klimmen,Voerendaal,Limburg,VBO,5.885437,50.869926
Manensheide,26,,,6343CR,Klimmen,Voerendaal,Limburg,VBO,5.885488,50.870000
Manensheide,32,,,6343CR,Klimmen,Voerendaal,Limburg,VBO,5.885702,50.870509
Manensheide,34,,,6343CR,Klimmen,Voerendaal,Limburg,VBO,5.885754,50.870599
Manensheide,38,,,6343CR,Klimmen,Voerendaal,Limburg,VBO,5.885887,50.871113
Manensheide,40,,,6343CR,Klimmen,Voerendaal,Limburg,VBO,5.886093,50.871257
Manensheide,42,,,6343CR,Klimmen,Voerendaal,Limburg,VBO,5.886094,50.871341
Schoutstraat,1,,,6343CS,Klimmen,Voerendaal,Limburg,VBO,5.882935,50.868729
Schoutstraat,2,,,6343CS,Klimmen,Voerendaal,Limburg,VBO,5.883666,50.869030
Schoutstraat,3,,,6343CS,Klimmen,Voerendaal,Limburg,VBO,5.883077,50.868887
Schoutstraat,4,,,6343CS,Klimmen,Voerendaal,Limburg,VBO,5.883788,50.869188
Schoutstraat,5,,,6343CS,Klimmen,Voerendaal,Limburg,VBO,5.883221,50.869026
Schoutstraat,6,,,6343CS,Klimmen,Voerendaal,Limburg,VBO,5.883910,50.869308
Schoutstraat,7,,,6343CS,Klimmen,Voerendaal,Limburg,VBO,5.883458,50.869265
Schoutstraat,8,,,6343CS,Klimmen,Voerendaal,Limburg,VBO,5.884062,50.869498
Schoutstraat,9,,,6343CS,Klimmen,Voerendaal,Limburg,VBO,5.883687,50.869523
Schoutstraat,10,,,6343CS,Klimmen,Voerendaal,Limburg,VBO,5.884151,50.869561
Schoutstraat,11,,,6343CS,Klimmen,Voerendaal,Limburg,VBO,5.883878,50.869722
Schoutstraat,12,,,6343CS,Klimmen,Voerendaal,Limburg,VBO,5.884321,50.869755
Schoutstraat,13,,,6343CS,Klimmen,Voerendaal,Limburg,VBO,5.884081,50.869899
Schoutstraat,14,,,6343CS,Klimmen,Voerendaal,Limburg,VBO,5.884415,50.869813
Schoutstraat,15,,,6343CS,Klimmen,Voerendaal,Limburg,VBO,5.884243,50.870092
Schoutstraat,16,,,6343CS,Klimmen,Voerendaal,Limburg,VBO,5.884585,50.870016
Schoutstraat,17,,,6343CS,Klimmen,Voerendaal,Limburg,VBO,5.884370,50.870310
Schoutstraat,18,,,6343CS,Klimmen,Voerendaal,Limburg,VBO,5.884685,50.870113
't Böschke,1,,,6343CT,Klimmen,Voerendaal,Limburg,VBO,5.884854,50.870448
't Böschke,3,,,6343CT,Klimmen,Voerendaal,Limburg,VBO,5.884878,50.870528
't Böschke,5,,,6343CT,Klimmen,Voerendaal,Limburg,VBO,5.884947,50.870726
't Böschke,7,,,6343CT,Klimmen,Voerendaal,Limburg,VBO,5.884992,50.870835
't Böschke,9,,,6343CT,Klimmen,Voerendaal,Limburg,VBO,5.885070,50.871057
Schepenbank,1,A,,6343CV,Klimmen,Voerendaal,Limburg,VBO,5.887797,50.870980
Schepenbank,1,B,,6343CV,Klimmen,Voerendaal,Limburg,VBO,5.888017,50.870982
Schepenbank,1,,,6343CV,Klimmen,Voerendaal,Limburg,VBO,5.887871,50.870990
Schepenbank,2,,,6343CV,Klimmen,Voerendaal,Limburg,VBO,5.887934,50.871226
Schepenbank,3,A,,6343CV,Klimmen,Voerendaal,Limburg,VBO,5.887463,50.870930
Schepenbank,3,,,6343CV,Klimmen,Voerendaal,Limburg,VBO,5.887560,50.870946
Schepenbank,4,,,6343CV,Klimmen,Voerendaal,Limburg,VBO,5.887883,50.871218
Schepenbank,5,,,6343CV,Klimmen,Voerendaal,Limburg,VBO,5.887075,50.870864
Schepenbank,6,,,6343CV,Klimmen,Voerendaal,Limburg,VBO,5.887716,50.871197
Schepenbank,7,,,6343CV,Klimmen,Voerendaal,Limburg,VBO,5.886897,50.870834
Schepenbank,8,,,6343CV,Klimmen,Voerendaal,Limburg,VBO,5.887611,50.871184
Schepenbank,9,,,6343CV,Klimmen,Voerendaal,Limburg,VBO,5.886713,50.870802
Schepenbank,10,,,6343CV,Klimmen,Voerendaal,Limburg,VBO,5.887537,50.871173
Schepenbank,11,,,6343CV,Klimmen,Voerendaal,Limburg,VBO,5.886526,50.870779
Schepenbank,12,,,6343CV,Klimmen,Voerendaal,Limburg,VBO,5.887356,50.871156
Schepenbank,13,,,6343CV,Klimmen,Voerendaal,Limburg,VBO,5.886360,50.870768
Schepenbank,14,,,6343CV,Klimmen,Voerendaal,Limburg,VBO,5.887284,50.871144
Schepenbank,15,,,6343CV,Klimmen,Voerendaal,Limburg,VBO,5.886164,50.870769
Schepenbank,16,,,6343CV,Klimmen,Voerendaal,Limburg,VBO,5.886655,50.871042
Schepenbank,17,,,6343CV,Klimmen,Voerendaal,Limburg,VBO,5.885811,50.870755
Schepenbank,18,,,6343CV,Klimmen,Voerendaal,Limburg,VBO,5.886487,50.871010
Schepenbank,20,,,6343CV,Klimmen,Voerendaal,Limburg,VBO,5.886260,50.870994
Schepenbank,22,,,6343CV,Klimmen,Voerendaal,Limburg,VBO,5.885909,50.870955
Jaagveld,1,,,6343CW,Klimmen,Voerendaal,Limburg,VBO,5.886948,50.871080
Jaagveld,2,,,6343CW,Klimmen,Voerendaal,Limburg,VBO,5.887210,50.871343
Jaagveld,3,,,6343CW,Klimmen,Voerendaal,Limburg,VBO,5.886933,50.871133
Jaagveld,4,,,6343CW,Klimmen,Voerendaal,Limburg,VBO,5.887202,50.871396
Jaagveld,5,,,6343CW,Klimmen,Voerendaal,Limburg,VBO,5.886911,50.871189
Jaagveld,6,,,6343CW,Klimmen,Voerendaal,Limburg,VBO,5.887164,50.871458
Jaagveld,7,,,6343CW,Klimmen,Voerendaal,Limburg,VBO,5.886727,50.871260
Jaagveld,8,,,6343CW,Klimmen,Voerendaal,Limburg,VBO,5.887150,50.871494
Jaagveld,9,,,6343CW,Klimmen,Voerendaal,Limburg,VBO,5.886711,50.871302
Jaagveld,10,,,6343CW,Klimmen,Voerendaal,Limburg,VBO,5.886897,50.871660
Jaagveld,11,,,6343CW,Klimmen,Voerendaal,Limburg,VBO,5.886592,50.871384
Jaagveld,12,,,6343CW,Klimmen,Voerendaal,Limburg,VBO,5.887054,50.871712
Jaagveld,13,,,6343CW,Klimmen,Voerendaal,Limburg,VBO,5.886569,50.871440
Jaagveld,14,,,6343CW,Klimmen,Voerendaal,Limburg,VBO,5.887152,50.871725
Jaagveld,15,,,6343CW,Klimmen,Voerendaal,Limburg,VBO,5.886547,50.871497
Jaagveld,16,,,6343CW,Klimmen,Voerendaal,Limburg,VBO,5.887297,50.871780
Jaagveld,18,,,6343CW,Klimmen,Voerendaal,Limburg,VBO,5.887387,50.871796
Jaagveld,20,,,6343CW,Klimmen,Voerendaal,Limburg,VBO,5.887569,50.871837
Jaagveld,22,,,6343CW,Klimmen,Voerendaal,Limburg,VBO,5.887652,50.871854
Tiendstraat,1,,,6343CX,Klimmen,Voerendaal,Limburg,VBO,5.885649,50.870346
Tiendstraat,2,,,6343CX,Klimmen,Voerendaal,Limburg,VBO,5.885614,50.870128
Tiendstraat,3,,,6343CX,Klimmen,Voerendaal,Limburg,VBO,5.886027,50.870302
Tiendstraat,4,,,6343CX,Klimmen,Voerendaal,Limburg,VBO,5.885755,50.870104
Tiendstraat,5,,,6343CX,Klimmen,Voerendaal,Limburg,VBO,5.886152,50.870320
Tiendstraat,6,,,6343CX,Klimmen,Voerendaal,Limburg,VBO,5.886386,50.870036
Tiendstraat,7,,,6343CX,Klimmen,Voerendaal,Limburg,VBO,5.886323,50.870329
Tiendstraat,8,,,6343CX,Klimmen,Voerendaal,Limburg,VBO,5.886475,50.869975
Tiendstraat,9,,,6343CX,Klimmen,Voerendaal,Limburg,VBO,5.886423,50.870346
Tiendstraat,10,,,6343CX,Klimmen,Voerendaal,Limburg,VBO,5.886589,50.870141
Tiendstraat,11,,,6343CX,Klimmen,Voerendaal,Limburg,VBO,5.886573,50.870357
Tiendstraat,12,,,6343CX,Klimmen,Voerendaal,Limburg,VBO,5.886678,50.870080
Tiendstraat,13,,,6343CX,Klimmen,Voerendaal,Limburg,VBO,5.886701,50.870375
Tiendstraat,14,,,6343CX,Klimmen,Voerendaal,Limburg,VBO,5.886758,50.870021
Tiendstraat,15,,,6343CX,Klimmen,Voerendaal,Limburg,VBO,5.886843,50.870398
Tiendstraat,16,,,6343CX,Klimmen,Voerendaal,Limburg,VBO,5.886892,50.870188
Tiendstraat,17,,,6343CX,Klimmen,Voerendaal,Limburg,VBO,5.886972,50.870419
Tiendstraat,18,,,6343CX,Klimmen,Voerendaal,Limburg,VBO,5.886980,50.870127
Tiendstraat,20,,,6343CX,Klimmen,Voerendaal,Limburg,VBO,5.887061,50.870068
Tiendstraat,22,,,6343CX,Klimmen,Voerendaal,Limburg,VBO,5.887186,50.870233
Tiendstraat,24,,,6343CX,Klimmen,Voerendaal,Limburg,VBO,5.887274,50.870173
Tiendstraat,26,,,6343CX,Klimmen,Voerendaal,Limburg,VBO,5.887354,50.870113
Tiendstraat,28,,,6343CX,Klimmen,Voerendaal,Limburg,VBO,5.887435,50.870056
Haspengouw,2,,,6343DA,Klimmen,Voerendaal,Limburg,VBO,5.878000,50.880433
Haspengouw,4,,,6343DA,Klimmen,Voerendaal,Limburg,VBO,5.878113,50.880522
Haspengouw,6,,,6343DA,Klimmen,Voerendaal,Limburg,VBO,5.878235,50.880609
Haspengouw,8,,,6343DA,Klimmen,Voerendaal,Limburg,VBO,5.878300,50.880741
Haspengouw,10,,,6343DA,Klimmen,Voerendaal,Limburg,VBO,5.878269,50.880845
Haspengouw,12,,,6343DA,Klimmen,Voerendaal,Limburg,VBO,5.878170,50.880966
Haspengouw,14,,,6343DA,Klimmen,Voerendaal,Limburg,VBO,5.878037,50.881044
Haspengouw,16,,,6343DA,Klimmen,Voerendaal,Limburg,VBO,5.877895,50.881118
Haspengouw,18,,,6343DA,Klimmen,Voerendaal,Limburg,VBO,5.877753,50.881192
Andalusië,1,,,6343DB,Klimmen,Voerendaal,Limburg,VBO,5.874802,50.880314
Andalusië,2,,,6343DB,Klimmen,Voerendaal,Limburg,VBO,5.875142,50.880070
Andalusië,3,,,6343DB,Klimmen,Voerendaal,Limburg,VBO,5.874927,50.880414
Andalusië,4,,,6343DB,Klimmen,Voerendaal,Limburg,VBO,5.875294,50.880153
Andalusië,5,,,6343DB,Klimmen,Voerendaal,Limburg,VBO,5.874998,50.880461
Andalusië,6,,,6343DB,Klimmen,Voerendaal,Limburg,VBO,5.875364,50.880199
Andalusië,7,,,6343DB,Klimmen,Voerendaal,Limburg,VBO,5.875128,50.880537
Andalusië,8,,,6343DB,Klimmen,Voerendaal,Limburg,VBO,5.875477,50.880287
Bourgondië,1,,,6343DC,Klimmen,Voerendaal,Limburg,VBO,5.876499,50.880166
Bourgondië,3,,,6343DC,Klimmen,Voerendaal,Limburg,VBO,5.876552,50.880184
Bourgondië,5,,,6343DC,Klimmen,Voerendaal,Limburg,VBO,5.876590,50.880226
Bourgondië,7,,,6343DC,Klimmen,Voerendaal,Limburg,VBO,5.876636,50.880256
Bourgondië,9,,,6343DC,Klimmen,Voerendaal,Limburg,VBO,5.876727,50.880316
Bourgondië,11,,,6343DC,Klimmen,Voerendaal,Limburg,VBO,5.876769,50.880348
Bourgondië,13,,,6343DC,Klimmen,Voerendaal,Limburg,VBO,5.876814,50.880378
Bourgondië,15,,,6343DC,Klimmen,Voerendaal,Limburg,VBO,5.876861,50.880409
Bourgondië,17,,,6343DC,Klimmen,Voerendaal,Limburg,VBO,5.876962,50.880476
Bourgondië,19,,,6343DC,Klimmen,Voerendaal,Limburg,VBO,5.877017,50.880512
Bourgondië,21,,,6343DC,Klimmen,Voerendaal,Limburg,VBO,5.877075,50.880549
Bourgondië,23,,,6343DC,Klimmen,Voerendaal,Limburg,VBO,5.877113,50.880581
Bourgondië,25,,,6343DC,Klimmen,Voerendaal,Limburg,VBO,5.877169,50.880635
Bourgondië,29,,,6343DC,Klimmen,Voerendaal,Limburg,VBO,5.876516,50.880963
Bourgondië,31,,,6343DC,Klimmen,Voerendaal,Limburg,VBO,5.876471,50.881102
Bourgondië,33,,,6343DC,Klimmen,Voerendaal,Limburg,VBO,5.876425,50.881240
Bourgondië,35,,,6343DC,Klimmen,Voerendaal,Limburg,VBO,5.876305,50.881662
Bourgondië,37,,,6343DC,Klimmen,Voerendaal,Limburg,VBO,5.876187,50.881750
Bourgondië,39,,,6343DC,Klimmen,Voerendaal,Limburg,VBO,5.876043,50.881837
Bourgondië,41,,,6343DC,Klimmen,Voerendaal,Limburg,VBO,5.875823,50.881857
Bourgondië,43,,,6343DC,Klimmen,Voerendaal,Limburg,VBO,5.875135,50.881910
Bourgondië,45,,,6343DC,Klimmen,Voerendaal,Limburg,VBO,5.874909,50.881923
Bourgondië,47,,,6343DC,Klimmen,Voerendaal,Limburg,VBO,5.874654,50.881914
Bourgondië,49,,,6343DC,Klimmen,Voerendaal,Limburg,VBO,5.874409,50.881757
Bourgondië,51,,,6343DC,Klimmen,Voerendaal,Limburg,VBO,5.874247,50.881630
Bourgondië,77,,,6343DC,Klimmen,Voerendaal,Limburg,VBO,5.875670,50.880931
Bourgondië,79,,,6343DC,Klimmen,Voerendaal,Limburg,VBO,5.875750,50.880906
Bourgondië,81,,,6343DC,Klimmen,Voerendaal,Limburg,VBO,5.875807,50.880871
Bourgondië,83,,,6343DC,Klimmen,Voerendaal,Limburg,VBO,5.875857,50.880830
Bourgondië,85,,,6343DC,Klimmen,Voerendaal,Limburg,VBO,5.875916,50.880793
Bourgondië,87,,,6343DC,Klimmen,Voerendaal,Limburg,VBO,5.875985,50.880764
Bourgondië,89,,,6343DC,Klimmen,Voerendaal,Limburg,VBO,5.876042,50.880730
Bourgondië,91,,,6343DC,Klimmen,Voerendaal,Limburg,VBO,5.876083,50.880679
Bourgondië,2,,,6343DD,Klimmen,Voerendaal,Limburg,VBO,5.875704,50.880290
Bourgondië,4,,,6343DD,Klimmen,Voerendaal,Limburg,VBO,5.875819,50.880206
Bourgondië,6,,,6343DD,Klimmen,Voerendaal,Limburg,VBO,5.876023,50.880099
Bourgondië,8,,,6343DD,Klimmen,Voerendaal,Limburg,VBO,5.876261,50.879991
Bourgondië,10,,,6343DD,Klimmen,Voerendaal,Limburg,VBO,5.876739,50.880006
Bourgondië,12,,,6343DD,Klimmen,Voerendaal,Limburg,VBO,5.876794,50.880044
Bourgondië,14,,,6343DD,Klimmen,Voerendaal,Limburg,VBO,5.876876,50.880066
Bourgondië,16,,,6343DD,Klimmen,Voerendaal,Limburg,VBO,5.876932,50.880103
Bourgondië,18,,,6343DD,Klimmen,Voerendaal,Limburg,VBO,5.876987,50.880137
Bourgondië,20,,,6343DD,Klimmen,Voerendaal,Limburg,VBO,5.877092,50.880208
Bourgondië,22,,,6343DD,Klimmen,Voerendaal,Limburg,VBO,5.877147,50.880244
Bourgondië,24,,,6343DD,Klimmen,Voerendaal,Limburg,VBO,5.877203,50.880281
Bourgondië,26,,,6343DD,Klimmen,Voerendaal,Limburg,VBO,5.877236,50.880333
Bourgondië,28,,,6343DD,Klimmen,Voerendaal,Limburg,VBO,5.877295,50.880372
Bourgondië,30,,,6343DD,Klimmen,Voerendaal,Limburg,VBO,5.876901,50.881095
Bourgondië,32,,,6343DD,Klimmen,Voerendaal,Limburg,VBO,5.876872,50.881247
Bourgondië,34,,,6343DD,Klimmen,Voerendaal,Limburg,VBO,5.876811,50.881419
Bourgondië,36,,,6343DD,Klimmen,Voerendaal,Limburg,VBO,5.876749,50.881582
Bourgondië,38,,,6343DD,Klimmen,Voerendaal,Limburg,VBO,5.876684,50.881758
Bourgondië,40,,,6343DD,Klimmen,Voerendaal,Limburg,VBO,5.876654,50.881939
Bourgondië,42,,,6343DD,Klimmen,Voerendaal,Limburg,VBO,5.876391,50.882111
Bourgondië,44,,,6343DD,Klimmen,Voerendaal,Limburg,VBO,5.875951,50.882132
Bourgondië,46,,,6343DD,Klimmen,Voerendaal,Limburg,VBO,5.875682,50.882148
Bourgondië,48,,,6343DE,Klimmen,Voerendaal,Limburg,VBO,5.875321,50.882166
Bourgondië,82,,,6343DE,Klimmen,Voerendaal,Limburg,VBO,5.874290,50.881210
Bourgondië,84,,,6343DE,Klimmen,Voerendaal,Limburg,VBO,5.874463,50.881101
Bourgondië,86,,,6343DE,Klimmen,Voerendaal,Limburg,VBO,5.874618,50.880981
Bourgondië,88,,,6343DE,Klimmen,Voerendaal,Limburg,VBO,5.874793,50.880870
Bourgondië,90,,,6343DE,Klimmen,Voerendaal,Limburg,VBO,5.874974,50.880754
Bourgondië,92,,,6343DE,Klimmen,Voerendaal,Limburg,VBO,5.875140,50.880669
Toscane,2,,,6343DG,Klimmen,Voerendaal,Limburg,VBO,5.876124,50.880380
Toscane,3,,,6343DG,Klimmen,Voerendaal,Limburg,VBO,5.876270,50.880828
Toscane,4,,,6343DG,Klimmen,Voerendaal,Limburg,VBO,5.876205,50.880434
Toscane,6,,,6343DG,Klimmen,Voerendaal,Limburg,VBO,5.876333,50.880518
Toscane,8,,,6343DG,Klimmen,Voerendaal,Limburg,VBO,5.876429,50.880581
Toscane,10,,,6343DG,Klimmen,Voerendaal,Limburg,VBO,5.876553,50.880658
Toscane,12,,,6343DG,Klimmen,Voerendaal,Limburg,VBO,5.876650,50.880722
Toscane,14,,,6343DG,Klimmen,Voerendaal,Limburg,VBO,5.876778,50.880806
Toscane,16,,,6343DG,Klimmen,Voerendaal,Limburg,VBO,5.876858,50.880859
Brandenburg,1,,,6343DH,Klimmen,Voerendaal,Limburg,VBO,5.875204,50.880955
Brandenburg,3,,,6343DH,Klimmen,Voerendaal,Limburg,VBO,5.875284,50.881008
Brandenburg,4,,,6343DH,Klimmen,Voerendaal,Limburg,VBO,5.875903,50.881046
Brandenburg,5,,,6343DH,Klimmen,Voerendaal,Limburg,VBO,5.875411,50.881092
Brandenburg,6,,,6343DH,Klimmen,Voerendaal,Limburg,VBO,5.876023,50.881139
Brandenburg,7,,,6343DH,Klimmen,Voerendaal,Limburg,VBO,5.875510,50.881157
Brandenburg,8,,,6343DH,Klimmen,Voerendaal,Limburg,VBO,5.876349,50.881378
Brandenburg,9,,,6343DH,Klimmen,Voerendaal,Limburg,VBO,5.875628,50.881235
Brandenburg,11,,,6343DH,Klimmen,Voerendaal,Limburg,VBO,5.875723,50.881302
Brandenburg,13,,,6343DH,Klimmen,Voerendaal,Limburg,VBO,5.875867,50.881407
Brandenburg,15,,,6343DH,Klimmen,Voerendaal,Limburg,VBO,5.876003,50.881497
Algarve,1,,,6343DJ,Klimmen,Voerendaal,Limburg,VBO,5.873497,50.881065
Algarve,3,,,6343DJ,Klimmen,Voerendaal,Limburg,VBO,5.873657,50.881169
Algarve,5,,,6343DJ,Klimmen,Voerendaal,Limburg,VBO,5.873831,50.881289
Algarve,7,,,6343DJ,Klimmen,Voerendaal,Limburg,VBO,5.873984,50.881389
Korinthe,1,,,6343DK,Klimmen,Voerendaal,Limburg,VBO,5.874614,50.881408
Korinthe,2,,,6343DK,Klimmen,Voerendaal,Limburg,VBO,5.874877,50.881223
Korinthe,3,,,6343DK,Klimmen,Voerendaal,Limburg,VBO,5.874790,50.881530
Korinthe,4,,,6343DK,Klimmen,Voerendaal,Limburg,VBO,5.875059,50.881344
Korinthe,5,,,6343DK,Klimmen,Voerendaal,Limburg,VBO,5.874978,50.881648
Korinthe,6,,,6343DK,Klimmen,Voerendaal,Limburg,VBO,5.875222,50.881451
Korinthe,7,,,6343DK,Klimmen,Voerendaal,Limburg,VBO,5.875334,50.881862
Korinthe,8,,,6343DK,Klimmen,Voerendaal,Limburg,VBO,5.875385,50.881558
Korinthe,10,,,6343DK,Klimmen,Voerendaal,Limburg,VBO,5.875551,50.881663
Umbrië,1,,,6343DL,Klimmen,Voerendaal,Limburg,VBO,5.873728,50.881593
Umbrië,3,,,6343DL,Klimmen,Voerendaal,Limburg,VBO,5.873620,50.881656
Umbrië,5,,,6343DL,Klimmen,Voerendaal,Limburg,VBO,5.873512,50.881719
Umbrië,7,,,6343DL,Klimmen,Voerendaal,Limburg,VBO,5.873409,50.881555
Umbrië,9,,,6343DL,Klimmen,Voerendaal,Limburg,VBO,5.873334,50.881499
Umbrië,11,,,6343DL,Klimmen,Voerendaal,Limburg,VBO,5.873298,50.881474
Umbrië,13,,,6343DL,Klimmen,Voerendaal,Limburg,VBO,5.872882,50.881717
Umbrië,15,,,6343DL,Klimmen,Voerendaal,Limburg,VBO,5.872917,50.881742
Umbrië,17,,,6343DL,Klimmen,Voerendaal,Limburg,VBO,5.872995,50.881793
Umbrië,19,,,6343DL,Klimmen,Voerendaal,Limburg,VBO,5.873236,50.881875
Umbrië,21,,,6343DL,Klimmen,Voerendaal,Limburg,VBO,5.873128,50.881938
Umbrië,23,,,6343DL,Klimmen,Voerendaal,Limburg,VBO,5.873020,50.882001
Provence,3,,,6343DM,Klimmen,Voerendaal,Limburg,VBO,5.872535,50.882027
Provence,4,,,6343DM,Klimmen,Voerendaal,Limburg,VBO,5.874103,50.882231
Provence,5,,,6343DM,Klimmen,Voerendaal,Limburg,VBO,5.872402,50.881937
Dingbank,1,,,6343EA,Klimmen,Voerendaal,Limburg,VBO,5.886226,50.869659
Dingbank,3,,,6343EA,Klimmen,Voerendaal,Limburg,VBO,5.886564,50.869712
Dingbank,5,,,6343EA,Klimmen,Voerendaal,Limburg,VBO,5.886482,50.869771
Dingbank,7,,,6343EA,Klimmen,Voerendaal,Limburg,VBO,5.886399,50.869827
Dingbank,9,,,6343EA,Klimmen,Voerendaal,Limburg,VBO,5.886850,50.869758
Dingbank,11,,,6343EA,Klimmen,Voerendaal,Limburg,VBO,5.886770,50.869813
Dingbank,13,,,6343EA,Klimmen,Voerendaal,Limburg,VBO,5.886688,50.869872
Dingbank,15,,,6343EA,Klimmen,Voerendaal,Limburg,VBO,5.887160,50.869804
Dingbank,17,,,6343EA,Klimmen,Voerendaal,Limburg,VBO,5.887080,50.869859
Dingbank,19,,,6343EA,Klimmen,Voerendaal,Limburg,VBO,5.886998,50.869918
Dingbank,21,,,6343EA,Klimmen,Voerendaal,Limburg,VBO,5.887384,50.869844
Dingbank,23,,,6343EA,Klimmen,Voerendaal,Limburg,VBO,5.887304,50.869899
Dingbank,25,,,6343EA,Klimmen,Voerendaal,Limburg,VBO,5.887249,50.870461
Dingbank,27,,,6343EA,Klimmen,Voerendaal,Limburg,VBO,5.887217,50.870545
Dingbank,29,,,6343EA,Klimmen,Voerendaal,Limburg,VBO,5.887174,50.870659
Dingbank,2,,,6343EB,Klimmen,Voerendaal,Limburg,VBO,5.886051,50.869459
Dingbank,4,,,6343EB,Klimmen,Voerendaal,Limburg,VBO,5.886380,50.869457
Dingbank,6,,,6343EB,Klimmen,Voerendaal,Limburg,VBO,5.886504,50.869470
Dingbank,8,,,6343EB,Klimmen,Voerendaal,Limburg,VBO,5.886646,50.869488
Dingbank,10,,,6343EB,Klimmen,Voerendaal,Limburg,VBO,5.886763,50.869503
Dingbank,12,,,6343EB,Klimmen,Voerendaal,Limburg,VBO,5.886910,50.869520
Dingbank,14,,,6343EB,Klimmen,Voerendaal,Limburg,VBO,5.887037,50.869536
Dingbank,16,,,6343EB,Klimmen,Voerendaal,Limburg,VBO,5.887174,50.869555
Dingbank,18,,,6343EB,Klimmen,Voerendaal,Limburg,VBO,5.887304,50.869572
Dingbank,20,,,6343EB,Klimmen,Voerendaal,Limburg,VBO,5.887444,50.869600
Dingbank,22,,,6343EB,Klimmen,Voerendaal,Limburg,VBO,5.887559,50.869628
Dingbank,24,,,6343EB,Klimmen,Voerendaal,Limburg,VBO,5.887726,50.869739
Dingbank,26,,,6343EB,Klimmen,Voerendaal,Limburg,VBO,5.887781,50.869815
Dingbank,28,,,6343EB,Klimmen,Voerendaal,Limburg,VBO,5.887789,50.869920
Dingbank,30,,,6343EB,Klimmen,Voerendaal,Limburg,VBO,5.887766,50.869983
Dingbank,32,,,6343EB,Klimmen,Voerendaal,Limburg,VBO,5.887692,50.870195
Dingbank,34,,,6343EB,Klimmen,Voerendaal,Limburg,VBO,5.887669,50.870246
Dingbank,36,,,6343EB,Klimmen,Voerendaal,Limburg,VBO,5.887629,50.870359
Dingbank,38,,,6343EB,Klimmen,Voerendaal,Limburg,VBO,5.887608,50.870410
Dingbank,40,,,6343EB,Klimmen,Voerendaal,Limburg,VBO,5.887569,50.870526
Dingbank,42,,,6343EB,Klimmen,Voerendaal,Limburg,VBO,5.887544,50.870578
Dingbank,44,,,6343EB,Klimmen,Voerendaal,Limburg,VBO,5.887499,50.870690
Dingbank,46,,,6343EB,Klimmen,Voerendaal,Limburg,VBO,5.887473,50.870755
Steenput,2,,,6343EC,Klimmen,Voerendaal,Limburg,VBO,5.885956,50.869150
Steenput,4,,,6343EC,Klimmen,Voerendaal,Limburg,VBO,5.885985,50.869238
Steenput,6,,,6343EC,Klimmen,Voerendaal,Limburg,VBO,5.885975,50.869318
Steenput,7,,,6343EC,Klimmen,Voerendaal,Limburg,VBO,5.885442,50.869174
Steenput,9,,,6343EC,Klimmen,Voerendaal,Limburg,VBO,5.885490,50.869248
Steenput,11,,,6343EC,Klimmen,Voerendaal,Limburg,VBO,5.885568,50.869410
Steenput,13,,,6343EC,Klimmen,Voerendaal,Limburg,VBO,5.885675,50.869515
Steenput,15,,,6343EC,Klimmen,Voerendaal,Limburg,VBO,5.885783,50.869655
Steenput,17,,,6343EC,Klimmen,Voerendaal,Limburg,VBO,5.885834,50.869734
Steenput,19,,,6343EC,Klimmen,Voerendaal,Limburg,VBO,5.885915,50.869808
Steenput,21,,,6343EC,Klimmen,Voerendaal,Limburg,VBO,5.885962,50.869900
Steenput,23,,,6343EC,Klimmen,Voerendaal,Limburg,VBO,5.886005,50.870071
Schalenboschweg,1,,,6343ED,Klimmen,Voerendaal,Limburg,VBO,5.888661,50.869331
Schalenboschweg,3,,,6343ED,Klimmen,Voerendaal,Limburg,VBO,5.888624,50.869412
Schalenboschweg,5,,,6343ED,Klimmen,Voerendaal,Limburg,VBO,5.888443,50.869446
Schalenboschweg,7,,,6343ED,Klimmen,Voerendaal,Limburg,VBO,5.888561,50.869581
Schalenboschweg,9,,,6343ED,Klimmen,Voerendaal,Limburg,VBO,5.888530,50.869664
Schalenboschweg,11,,,6343ED,Klimmen,Voerendaal,Limburg,VBO,5.888500,50.869733
Schalenboschweg,13,,,6343ED,Klimmen,Voerendaal,Limburg,VBO,5.888464,50.869834
Schalenboschweg,15,,,6343ED,Klimmen,Voerendaal,Limburg,VBO,5.888432,50.869908
Schalenboschweg,17,,,6343ED,Klimmen,Voerendaal,Limburg,VBO,5.888390,50.870000
Schalenboschweg,19,,,6343ED,Klimmen,Voerendaal,Limburg,VBO,5.888354,50.870077
Schalenboschweg,21,,,6343ED,Klimmen,Voerendaal,Limburg,VBO,5.888285,50.870265
Schalenboschweg,23,,,6343ED,Klimmen,Voerendaal,Limburg,VBO,5.888241,50.870350
Schalenboschweg,25,,,6343ED,Klimmen,Voerendaal,Limburg,VBO,5.888222,50.870433
Schalenboschweg,27,,,6343ED,Klimmen,Voerendaal,Limburg,VBO,5.888192,50.870517
Schalenboschweg,29,,,6343ED,Klimmen,Voerendaal,Limburg,VBO,5.888168,50.870598
Schalenboschweg,31,,,6343ED,Klimmen,Voerendaal,Limburg,VBO,5.888120,50.870684
Schalenboschweg,33,,,6343ED,Klimmen,Voerendaal,Limburg,VBO,5.888089,50.870772
Schalenboschweg,35,,,6343ED,Klimmen,Voerendaal,Limburg,VBO,5.888059,50.870850
Schalenboschweg,37,,,6343ED,Klimmen,Voerendaal,Limburg,VBO,5.887851,50.871421
Schalenboschweg,39,,,6343ED,Klimmen,Voerendaal,Limburg,VBO,5.887818,50.871488
Schalenboschweg,41,,,6343ED,Klimmen,Voerendaal,Limburg,VBO,5.887790,50.871586
Schalenboschweg,43,,,6343ED,Klimmen,Voerendaal,Limburg,VBO,5.887767,50.871657
Schalenboschweg,2,,,6343EG,Klimmen,Voerendaal,Limburg,VBO,5.889049,50.869259
Schalenboschweg,4,,,6343EG,Klimmen,Voerendaal,Limburg,VBO,5.889001,50.869351
Schalenboschweg,36,,,6343EG,Klimmen,Voerendaal,Limburg,VBO,5.888369,50.870889
Schalenboschweg,38,,,6343EG,Klimmen,Voerendaal,Limburg,VBO,5.888371,50.870999
Stationsstraat,2,,,6343EH,Klimmen,Voerendaal,Limburg,VBO,5.889020,50.869051
Stationsstraat,6,,,6343EH,Klimmen,Voerendaal,Limburg,VBO,5.888929,50.868528
Stationsstraat,8,,,6343EH,Klimmen,Voerendaal,Limburg,VBO,5.889087,50.868272
Stationsstraat,10,,,6343EH,Klimmen,Voerendaal,Limburg,VBO,5.889322,50.868145
Stationsstraat,12,,,6343EH,Klimmen,Voerendaal,Limburg,VBO,5.889417,50.868057
Stationsstraat,16,A,,6343EH,Klimmen,Voerendaal,Limburg,VBO,5.889551,50.867698
Stationsstraat,16,B,,6343EH,Klimmen,Voerendaal,Limburg,VBO,5.889418,50.867675
Stationsstraat,16,,,6343EH,Klimmen,Voerendaal,Limburg,VBO,5.889672,50.868002
Stationsstraat,18,,,6343EH,Klimmen,Voerendaal,Limburg,VBO,5.889743,50.867594
Stationsstraat,20,,,6343EH,Klimmen,Voerendaal,Limburg,VBO,5.889805,50.867453
Stationsstraat,22,A,,6343EH,Klimmen,Voerendaal,Limburg,VBO,5.889903,50.867246
Stationsstraat,22,,,6343EH,Klimmen,Voerendaal,Limburg,VBO,5.889860,50.867314
Stationsstraat,24,,,6343EH,Klimmen,Voerendaal,Limburg,VBO,5.889999,50.867101
Stationsstraat,1,,,6343EJ,Klimmen,Voerendaal,Limburg,VBO,5.889197,50.868915
Stationsstraat,3,,,6343EJ,Klimmen,Voerendaal,Limburg,VBO,5.889360,50.868883
Stationsstraat,5,,,6343EJ,Klimmen,Voerendaal,Limburg,VBO,5.889209,50.868715
Stationsstraat,7,,,6343EJ,Klimmen,Voerendaal,Limburg,VBO,5.889209,50.868664
Stationsstraat,9,,,6343EJ,Klimmen,Voerendaal,Limburg,VBO,5.889200,50.868609
Stationsstraat,11,,,6343EJ,Klimmen,Voerendaal,Limburg,VBO,5.889188,50.868552
Stationsstraat,13,,,6343EJ,Klimmen,Voerendaal,Limburg,VBO,5.889245,50.868435
Stationsstraat,15,,,6343EJ,Klimmen,Voerendaal,Limburg,VBO,5.889290,50.868392
Stationsstraat,17,,,6343EJ,Klimmen,Voerendaal,Limburg,VBO,5.889340,50.868347
Stationsstraat,19,,,6343EJ,Klimmen,Voerendaal,Limburg,VBO,5.889390,50.868300
Stationsstraat,21,,,6343EJ,Klimmen,Voerendaal,Limburg,VBO,5.889552,50.868213
Stationsstraat,23,,,6343EJ,Klimmen,Voerendaal,Limburg,VBO,5.889685,50.868131
Stationsstraat,25,,,6343EJ,Klimmen,Voerendaal,Limburg,VBO,5.889946,50.868019
Stationsstraat,27,,,6343EJ,Klimmen,Voerendaal,Limburg,VBO,5.890013,50.867928
Stationsstraat,31,,,6343EJ,Klimmen,Voerendaal,Limburg,VBO,5.890075,50.867620
Mareheiweg,2,A,,6343EK,Klimmen,Voerendaal,Limburg,VBO,5.890235,50.866501
Mareheiweg,2,,,6343EK,Klimmen,Voerendaal,Limburg,VBO,5.890368,50.866534
Mareheiweg,6,,,6343EK,Klimmen,Voerendaal,Limburg,VBO,5.890606,50.867112
Mareheiweg,12,,,6343EK,Klimmen,Voerendaal,Limburg,VBO,5.891252,50.867628
Mareheiweg,16,,,6343EK,Klimmen,Voerendaal,Limburg,VBO,5.891674,50.868019
Mareheiweg,18,,,6343EK,Klimmen,Voerendaal,Limburg,VBO,5.891792,50.868478
Mareheiweg,20,,,6343EK,Klimmen,Voerendaal,Limburg,VBO,5.892170,50.868662
Mareheiweg,22,,,6343EK,Klimmen,Voerendaal,Limburg,VBO,5.891814,50.868844
Mareheiweg,26,,,6343EK,Klimmen,Voerendaal,Limburg,VBO,5.891342,50.868982
Mareheiweg,30,A,,6343EK,Klimmen,Voerendaal,Limburg,VBO,5.889924,50.869222
Mareheiweg,30,B,,6343EK,Klimmen,Voerendaal,Limburg,VBO,5.889926,50.869298
Mareheiweg,30,C,,6343EK,Klimmen,Voerendaal,Limburg,VBO,5.889809,50.869349
Mareheiweg,30,,,6343EK,Klimmen,Voerendaal,Limburg,VBO,5.889734,50.869199
Mareheiweg,32,,,6343EK,Klimmen,Voerendaal,Limburg,VBO,5.889216,50.869275
Mareheiweg,1,,,6343EL,Klimmen,Voerendaal,Limburg,VBO,5.888168,50.865750
Mareheiweg,3,,,6343EL,Klimmen,Voerendaal,Limburg,VBO,5.888553,50.865893
Mareheiweg,5,,,6343EL,Klimmen,Voerendaal,Limburg,VBO,5.888906,50.866050
Mareheiweg,15,,r01,6343EL,Klimmen,Voerendaal,Limburg,VBO,5.889636,50.866600
Mareheiweg,15,,r02,6343EL,Klimmen,Voerendaal,Limburg,VBO,5.889750,50.866774
Mareheiweg,15,,r03,6343EL,Klimmen,Voerendaal,Limburg,VBO,5.889805,50.866857
Mareheiweg,15,,r04,6343EL,Klimmen,Voerendaal,Limburg,VBO,5.889713,50.866880
Mareheiweg,15,,r05,6343EL,Klimmen,Voerendaal,Limburg,VBO,5.889657,50.866796
Mareheiweg,15,,r06,6343EL,Klimmen,Voerendaal,Limburg,VBO,5.889596,50.866708
Mareheiweg,15,,r07,6343EL,Klimmen,Voerendaal,Limburg,VBO,5.889544,50.866622
Mareheiweg,15,,r08,6343EL,Klimmen,Voerendaal,Limburg,VBO,5.889595,50.866610
Mareheiweg,15,,r09,6343EL,Klimmen,Voerendaal,Limburg,VBO,5.889652,50.866696
Mareheiweg,15,,r10,6343EL,Klimmen,Voerendaal,Limburg,VBO,5.889710,50.866784
Mareheiweg,15,,r11,6343EL,Klimmen,Voerendaal,Limburg,VBO,5.889765,50.866868
Mareheiweg,15,,r12,6343EL,Klimmen,Voerendaal,Limburg,VBO,5.889673,50.866892
Mareheiweg,15,,r13,6343EL,Klimmen,Voerendaal,Limburg,VBO,5.889617,50.866808
Mareheiweg,15,,r14,6343EL,Klimmen,Voerendaal,Limburg,VBO,5.889560,50.866720
Mareheiweg,15,,r15,6343EL,Klimmen,Voerendaal,Limburg,VBO,5.889503,50.866634
Mareheiweg,15,,,6343EL,Klimmen,Voerendaal,Limburg,VBO,5.889700,50.866683
Mareheiweg,19,,,6343EL,Klimmen,Voerendaal,Limburg,VBO,5.890243,50.867276
Mareheiweg,21,,,6343EM,Klimmen,Voerendaal,Limburg,VBO,5.890310,50.867312
Mareheiweg,25,,,6343EM,Klimmen,Voerendaal,Limburg,VBO,5.890505,50.867769
Mareheiweg,27,,,6343EM,Klimmen,Voerendaal,Limburg,VBO,5.890721,50.868059
Mareheiweg,29,,,6343EM,Klimmen,Voerendaal,Limburg,VBO,5.890794,50.868236
Mareheiweg,31,,,6343EM,Klimmen,Voerendaal,Limburg,VBO,5.891157,50.868691
Mareheiweg,33,,,6343EM,Klimmen,Voerendaal,Limburg,VBO,5.890816,50.868832
Mareheiweg,35,,,6343EM,Klimmen,Voerendaal,Limburg,VBO,5.890566,50.868925
Mareheiweg,37,,,6343EM,Klimmen,Voerendaal,Limburg,VBO,5.890494,50.868942
Mareheiweg,39,,,6343EM,Klimmen,Voerendaal,Limburg,VBO,5.890187,50.868978
Mareheiweg,41,,,6343EM,Klimmen,Voerendaal,Limburg,VBO,5.889896,50.868990
Mareheiweg,43,,,6343EM,Klimmen,Voerendaal,Limburg,VBO,5.889648,50.868939
Mareheiweg,45,,,6343EM,Klimmen,Voerendaal,Limburg,VBO,5.889271,50.868999
Heek,2,,,6343PA,Klimmen,Voerendaal,Limburg,VBO,5.875421,50.879228
Heek,3,,r01,6343PA,Klimmen,Voerendaal,Limburg,VBO,5.866246,50.877687
Heek,3,,r02,6343PA,Klimmen,Voerendaal,Limburg,VBO,5.866277,50.877668
Heek,3,,,6343PA,Klimmen,Voerendaal,Limburg,VBO,5.866093,50.877695
Heek,4,,,6343PA,Klimmen,Voerendaal,Limburg,VBO,5.873781,50.879095
Heek,6,,,6343PA,Klimmen,Voerendaal,Limburg,VBO,5.871604,50.878743
Heek,8,,,6343PA,Klimmen,Voerendaal,Limburg,VBO,5.871135,50.878637
Heek,10,,,6343PA,Klimmen,Voerendaal,Limburg,VBO,5.870186,50.878570
Heek,12,,,6343PA,Klimmen,Voerendaal,Limburg,VBO,5.868351,50.878204
Heek,14,,,6343PA,Klimmen,Voerendaal,Limburg,VBO,5.867349,50.878161
Overheek,1,A,,6343PB,Klimmen,Voerendaal,Limburg,VBO,5.875021,50.879510
Overheek,1,B,,6343PB,Klimmen,Voerendaal,Limburg,VBO,5.874852,50.879627
Overheek,1,,,6343PB,Klimmen,Voerendaal,Limburg,VBO,5.875212,50.879408
Overheek,3,,,6343PB,Klimmen,Voerendaal,Limburg,VBO,5.874729,50.879749
Overheek,5,,,6343PB,Klimmen,Voerendaal,Limburg,VBO,5.874700,50.879838
Overheek,7,,,6343PB,Klimmen,Voerendaal,Limburg,VBO,5.874635,50.879889
Overheek,9,A,,6343PB,Klimmen,Voerendaal,Limburg,VBO,5.874200,50.880186
Overheek,9,,,6343PB,Klimmen,Voerendaal,Limburg,VBO,5.874385,50.880067
Overheek,11,,,6343PB,Klimmen,Voerendaal,Limburg,VBO,5.874089,50.880287
Overheek,13,,,6343PB,Klimmen,Voerendaal,Limburg,VBO,5.873976,50.880380
Overheek,15,,,6343PB,Klimmen,Voerendaal,Limburg,VBO,5.873925,50.880428
Overheek,17,,,6343PB,Klimmen,Voerendaal,Limburg,VBO,5.873790,50.880492
Overheek,19,,,6343PB,Klimmen,Voerendaal,Limburg,VBO,5.871521,50.881664
Overheek,21,,,6343PB,Klimmen,Voerendaal,Limburg,VBO,5.871174,50.881631
Overheek,2,,,6343PC,Klimmen,Voerendaal,Limburg,VBO,5.876255,50.879393
Overheek,4,,,6343PC,Klimmen,Voerendaal,Limburg,VBO,5.876090,50.879453
Overheek,10,,,6343PC,Klimmen,Voerendaal,Limburg,VBO,5.875529,50.879745
Overheek,12,,,6343PC,Klimmen,Voerendaal,Limburg,VBO,5.875282,50.879836
Overheek,14,,,6343PC,Klimmen,Voerendaal,Limburg,VBO,5.875151,50.879945
Overheek,16,,,6343PC,Klimmen,Voerendaal,Limburg,VBO,5.874604,50.880313
Overheek,18,,,6343PC,Klimmen,Voerendaal,Limburg,VBO,5.874468,50.880413
Overheek,20,,,6343PC,Klimmen,Voerendaal,Limburg,VBO,5.874333,50.880548
Overheek,22,,,6343PC,Klimmen,Voerendaal,Limburg,VBO,5.874147,50.880661
Overheek,24,,,6343PC,Klimmen,Voerendaal,Limburg,VBO,5.873969,50.880784
Overheek,26,,,6343PC,Klimmen,Voerendaal,Limburg,VBO,5.873780,50.880888
Overheek,28,,,6343PC,Klimmen,Voerendaal,Limburg,VBO,5.873155,50.881247
Overheek,28,,,6343PC,Klimmen,Voerendaal,Limburg,VBO,5.873164,50.881231
Overheek,30,,,6343PC,Klimmen,Voerendaal,Limburg,VBO,5.872997,50.881337
Overheek,32,,,6343PC,Klimmen,Voerendaal,Limburg,VBO,5.872842,50.881431
Overheek,34,,,6343PC,Klimmen,Voerendaal,Limburg,VBO,5.872683,50.881519
Overheek,36,,,6343PC,Klimmen,Voerendaal,Limburg,VBO,5.872523,50.881610
Overheek,38,,,6343PC,Klimmen,Voerendaal,Limburg,VBO,5.872368,50.881701
Overheek,40,,,6343PC,Klimmen,Voerendaal,Limburg,VBO,5.872211,50.881791
Overheek,56,,,6343PC,Klimmen,Voerendaal,Limburg,VBO,5.871868,50.882002
Overheek,60,A,,6343PC,Klimmen,Voerendaal,Limburg,VBO,5.871383,50.882407
Overheek,60,,,6343PC,Klimmen,Voerendaal,Limburg,VBO,5.871230,50.882201
Overheek,62,,r02,6343PC,Klimmen,Voerendaal,Limburg,VBO,5.871122,50.882386
Overheek,62,,r03,6343PC,Klimmen,Voerendaal,Limburg,VBO,5.871194,50.882441
Overheek,62,,r04,6343PC,Klimmen,Voerendaal,Limburg,VBO,5.871122,50.882473
Overheek,62,,r05,6343PC,Klimmen,Voerendaal,Limburg,VBO,5.871020,50.882490
Overheek,62,,r06,6343PC,Klimmen,Voerendaal,Limburg,VBO,5.870949,50.882535
Overheek,62,,r07,6343PC,Klimmen,Voerendaal,Limburg,VBO,5.871144,50.882419
Overheek,62,,r08,6343PC,Klimmen,Voerendaal,Limburg,VBO,5.871216,50.882474
Overheek,62,,r09,6343PC,Klimmen,Voerendaal,Limburg,VBO,5.871145,50.882506
Overheek,62,,r10,6343PC,Klimmen,Voerendaal,Limburg,VBO,5.871041,50.882523
Overheek,62,,r11,6343PC,Klimmen,Voerendaal,Limburg,VBO,5.870972,50.882567
Overheek,62,,,6343PC,Klimmen,Voerendaal,Limburg,VBO,5.871028,50.882248
Overheek,70,,,6343PC,Klimmen,Voerendaal,Limburg,VBO,5.870463,50.882438
Putweg,5,,,6343PD,Klimmen,Voerendaal,Limburg,VBO,5.885850,50.878274
Putweg,7,,,6343PD,Klimmen,Voerendaal,Limburg,VBO,5.885858,50.878410
Putweg,9,,,6343PD,Klimmen,Voerendaal,Limburg,VBO,5.885986,50.878557
Putweg,11,,,6343PD,Klimmen,Voerendaal,Limburg,VBO,5.886131,50.878713
Putweg,13,A,,6343PD,Klimmen,Voerendaal,Limburg,VBO,5.886470,50.878987
Putweg,13,,,6343PD,Klimmen,Voerendaal,Limburg,VBO,5.886369,50.878921
Putweg,15,,,6343PD,Klimmen,Voerendaal,Limburg,VBO,5.886545,50.879090
Putweg,17,,,6343PD,Klimmen,Voerendaal,Limburg,VBO,5.886659,50.879256
Putweg,19,A,,6343PD,Klimmen,Voerendaal,Limburg,VBO,5.886832,50.879460
Putweg,19,,,6343PD,Klimmen,Voerendaal,Limburg,VBO,5.886877,50.879445
Putweg,21,,,6343PD,Klimmen,Voerendaal,Limburg,VBO,5.886962,50.879572
Putweg,23,,,6343PD,Klimmen,Voerendaal,Limburg,VBO,5.887056,50.879683
Putweg,27,,,6343PD,Klimmen,Voerendaal,Limburg,VBO,5.887172,50.879841
Putweg,29,,,6343PD,Klimmen,Voerendaal,Limburg,VBO,5.887261,50.879949
Putweg,31,,,6343PD,Klimmen,Voerendaal,Limburg,VBO,5.887336,50.880055
Putweg,33,,,6343PD,Klimmen,Voerendaal,Limburg,VBO,5.887411,50.880156
Putweg,35,,,6343PD,Klimmen,Voerendaal,Limburg,VBO,5.887465,50.880242
Putweg,45,A,,6343PD,Klimmen,Voerendaal,Limburg,VBO,5.888507,50.883363
Putweg,45,,r01,6343PD,Klimmen,Voerendaal,Limburg,VBO,5.888340,50.883228
Putweg,45,,,6343PD,Klimmen,Voerendaal,Limburg,VBO,5.888739,50.883238
Putweg,47,,,6343PD,Klimmen,Voerendaal,Limburg,VBO,5.889172,50.883302
Putweg,49,A,,6343PD,Klimmen,Voerendaal,Limburg,VBO,5.891890,50.883528
Putweg,49,B,,6343PD,Klimmen,Voerendaal,Limburg,VBO,5.891795,50.883659
Putweg,49,,,6343PD,Klimmen,Voerendaal,Limburg,VBO,5.891621,50.883411
Putweg,51,,,6343PD,Klimmen,Voerendaal,Limburg,VBO,5.892359,50.883759
Putweg,53,,,6343PD,Klimmen,Voerendaal,Limburg,VBO,5.892332,50.884042
Putweg,2,,,6343PE,Klimmen,Voerendaal,Limburg,VBO,5.886400,50.878312
Putweg,12,,,6343PE,Klimmen,Voerendaal,Limburg,VBO,5.889276,50.881304
Putweg,14,,,6343PE,Klimmen,Voerendaal,Limburg,VBO,5.889410,50.881447
Putweg,16,,,6343PE,Klimmen,Voerendaal,Limburg,VBO,5.889607,50.881563
Putweg,18,,,6343PE,Klimmen,Voerendaal,Limburg,VBO,5.889708,50.881643
Putweg,20,,,6343PE,Klimmen,Voerendaal,Limburg,VBO,5.889766,50.881664
Putweg,22,,,6343PE,Klimmen,Voerendaal,Limburg,VBO,5.890004,50.881841
Putweg,24,,,6343PE,Klimmen,Voerendaal,Limburg,VBO,5.890072,50.881887
Kalfshofweg,1,,,6343PG,Klimmen,Voerendaal,Limburg,VBO,5.888601,50.884217
Retersbekerweg,5,,,6343PH,Klimmen,Voerendaal,Limburg,VBO,5.897426,50.886559
Retersbekerweg,7,A,,6343PH,Klimmen,Voerendaal,Limburg,VBO,5.898085,50.887101
Retersbekerweg,7,B,,6343PH,Klimmen,Voerendaal,Limburg,VBO,5.898400,50.886961
Retersbekerweg,7,C,,6343PH,Klimmen,Voerendaal,Limburg,VBO,5.898558,50.886887
Retersbekerweg,7,D,,6343PH,Klimmen,Voerendaal,Limburg,VBO,5.898598,50.886796
Retersbekerweg,7,,,6343PH,Klimmen,Voerendaal,Limburg,VBO,5.898394,50.886694
Retersbekerweg,15,,,6343PH,Klimmen,Voerendaal,Limburg,VBO,5.903477,50.888230
Retersbekerweg,17,,,6343PH,Klimmen,Voerendaal,Limburg,VBO,5.903890,50.888482
Retersbekerweg,19,,,6343PH,Klimmen,Voerendaal,Limburg,VBO,5.904389,50.888713
Retersbekerweg,21,,,6343PH,Klimmen,Voerendaal,Limburg,VBO,5.904537,50.888634
Retersbekerweg,29,,,6343PH,Klimmen,Voerendaal,Limburg,VBO,5.906200,50.889110
Retersbekerweg,31,,,6343PH,Klimmen,Voerendaal,Limburg,VBO,5.906292,50.889144
Retersbekerweg,33,,,6343PH,Klimmen,Voerendaal,Limburg,VBO,5.906402,50.889258
Retersbekerweg,35,,,6343PH,Klimmen,Voerendaal,Limburg,VBO,5.906514,50.889196
Retersbekerweg,37,,,6343PH,Klimmen,Voerendaal,Limburg,VBO,5.906742,50.889266
Retersbekerweg,45,,,6343PH,Klimmen,Voerendaal,Limburg,VBO,5.910523,50.890360
Retersbekerweg,47,,,6343PH,Klimmen,Voerendaal,Limburg,VBO,5.910587,50.890381
Retersbekerweg,49,,,6343PH,Klimmen,Voerendaal,Limburg,VBO,5.910679,50.890409
Retersbekerweg,51,,,6343PJ,Klimmen,Voerendaal,Limburg,VBO,5.913161,50.891554
Retersbekerweg,53,A,,6343PJ,Klimmen,Voerendaal,Limburg,VBO,5.913496,50.891730
Retersbekerweg,53,,,6343PJ,Klimmen,Voerendaal,Limburg,VBO,5.913385,50.891591
Retersbekerweg,55,,,6343PJ,Klimmen,Voerendaal,Limburg,VBO,5.913730,50.891846
Retersbekerweg,57,,,6343PJ,Klimmen,Voerendaal,Limburg,VBO,5.913765,50.892270
Retersbekerweg,59,,,6343PJ,Klimmen,Voerendaal,Limburg,VBO,5.914419,50.892100
Retersbekerweg,61,,,6343PJ,Klimmen,Voerendaal,Limburg,VBO,5.914631,50.892263
Retersbekerweg,63,,,6343PJ,Klimmen,Voerendaal,Limburg,VBO,5.914979,50.892357
Retersbekerweg,65,,,6343PJ,Klimmen,Voerendaal,Limburg,VBO,5.915338,50.892565
Retersbekerweg,77,,,6343PJ,Klimmen,Voerendaal,Limburg,VBO,5.917864,50.893714
Retersbekerweg,79,,,6343PJ,Klimmen,Voerendaal,Limburg,VBO,5.917775,50.893827
Retersbekerweg,83,,,6343PJ,Klimmen,Voerendaal,Limburg,VBO,5.918136,50.893720
Retersbekerweg,85,,,6343PJ,Klimmen,Voerendaal,Limburg,VBO,5.918211,50.893752
Retersbekerweg,87,,,6343PJ,Klimmen,Voerendaal,Limburg,VBO,5.918362,50.893820
Retersbekerweg,89,,,6343PJ,Klimmen,Voerendaal,Limburg,VBO,5.918208,50.893867
Retersbekerweg,93,,,6343PJ,Klimmen,Voerendaal,Limburg,VBO,5.918590,50.893896
Retersbekerweg,2,,,6343PK,Klimmen,Voerendaal,Limburg,VBO,5.895266,50.885730
Retersbekerweg,4,,,6343PK,Klimmen,Voerendaal,Limburg,VBO,5.896110,50.885896
Retersbekerweg,12,,,6343PK,Klimmen,Voerendaal,Limburg,VBO,5.901163,50.887329
Retersbekerweg,14,,,6343PK,Klimmen,Voerendaal,Limburg,VBO,5.901713,50.887454
Retersbekerweg,16,,,6343PK,Klimmen,Voerendaal,Limburg,VBO,5.902034,50.887537
Retersbekerweg,20,,,6343PK,Klimmen,Voerendaal,Limburg,VBO,5.902474,50.887581
Retersbekerweg,22,,,6343PK,Klimmen,Voerendaal,Limburg,VBO,5.902707,50.887581
Retersbekerweg,32,A,,6343PK,Klimmen,Voerendaal,Limburg,VBO,5.913831,50.891505
Retersbekerweg,32,B,,6343PK,Klimmen,Voerendaal,Limburg,VBO,5.913782,50.891578
Retersbekerweg,32,,,6343PK,Klimmen,Voerendaal,Limburg,VBO,5.913568,50.891506
Retersbekerweg,34,,,6343PK,Klimmen,Voerendaal,Limburg,VBO,5.914209,50.891705
Retersbekerweg,36,,,6343PK,Klimmen,Voerendaal,Limburg,VBO,5.914493,50.891900
Retersbekerweg,38,,,6343PK,Klimmen,Voerendaal,Limburg,VBO,5.914554,50.891928
Retersbekerweg,40,,,6343PK,Klimmen,Voerendaal,Limburg,VBO,5.914850,50.892091
Retersbekerweg,42,,,6343PK,Klimmen,Voerendaal,Limburg,VBO,5.915164,50.892179
Retersbekerweg,44,,,6343PK,Klimmen,Voerendaal,Limburg,VBO,5.915482,50.892281
Retersbekerweg,46,A,,6343PK,Klimmen,Voerendaal,Limburg,VBO,5.915791,50.892311
Retersbekerweg,46,,,6343PK,Klimmen,Voerendaal,Limburg,VBO,5.915547,50.892341
Retersbekerweg,48,A,,6343PK,Klimmen,Voerendaal,Limburg,VBO,5.915938,50.892398
Retersbekerweg,48,,,6343PK,Klimmen,Voerendaal,Limburg,VBO,5.915778,50.892460
Retersbekerweg,50,,,6343PL,Klimmen,Voerendaal,Limburg,VBO,5.916113,50.892581
Retersbekerweg,54,,,6343PL,Klimmen,Voerendaal,Limburg,VBO,5.916594,50.892906
Retersbekerweg,56,,,6343PL,Klimmen,Voerendaal,Limburg,VBO,5.916988,50.893088
Retersbekerweg,58,,,6343PL,Klimmen,Voerendaal,Limburg,VBO,5.917125,50.893143
Retersbekerweg,66,,,6343PL,Klimmen,Voerendaal,Limburg,VBO,5.918025,50.893484
Retersbekerweg,74,,,6343PL,Klimmen,Voerendaal,Limburg,VBO,5.918980,50.893916
Retersbekerweg,76,,,6343PL,Klimmen,Voerendaal,Limburg,VBO,5.919055,50.893959
Retersbekerweg,78,A,,6343PL,Klimmen,Voerendaal,Limburg,VBO,5.919517,50.893985
Retersbekerweg,78,,,6343PL,Klimmen,Voerendaal,Limburg,VBO,5.919359,50.894135
Retersbekerweg,88,A,,6343PL,Klimmen,Voerendaal,Limburg,VBO,5.924726,50.897043
Retersbekerweg,88,,,6343PL,Klimmen,Voerendaal,Limburg,VBO,5.924251,50.897168
Retersbekerweg,90,,,6343PL,Klimmen,Voerendaal,Limburg,VBO,5.924333,50.896749
Groeneweg,1,,,6343PM,Klimmen,Voerendaal,Limburg,VBO,5.907491,50.889747
Groeneweg,3,,,6343PM,Klimmen,Voerendaal,Limburg,VBO,5.906948,50.890123
Esschenderweg,1,,,6343PN,Klimmen,Voerendaal,Limburg,VBO,5.916754,50.898819
Esschenderweg,25,,,6343PN,Klimmen,Voerendaal,Limburg,VBO,5.919706,50.899523
Esschenderweg,27,,,6343PN,Klimmen,Voerendaal,Limburg,VBO,5.919954,50.899593
Gebroeders Crousplein,1,,,6343PP,Klimmen,Voerendaal,Limburg,VBO,5.916190,50.898834
Gebroeders Crousplein,2,,,6343PP,Klimmen,Voerendaal,Limburg,VBO,5.916416,50.898645
Gebroeders Crousplein,3,,,6343PP,Klimmen,Voerendaal,Limburg,VBO,5.916118,50.898739
Jan Peukensweg,1,,,6343PR,Klimmen,Voerendaal,Limburg,VBO,5.915951,50.898621
Jan Peukensweg,7,,,6343PR,Klimmen,Voerendaal,Limburg,VBO,5.915595,50.898170
Jan Peukensweg,9,,,6343PR,Klimmen,Voerendaal,Limburg,VBO,5.915508,50.898098
Jan Peukensweg,11,,,6343PR,Klimmen,Voerendaal,Limburg,VBO,5.915426,50.898029
Jan Peukensweg,13,,,6343PR,Klimmen,Voerendaal,Limburg,VBO,5.915341,50.897971
Jan Peukensweg,75,,,6343PR,Klimmen,Voerendaal,Limburg,VBO,5.909531,50.892272
Kruisstraat,1,,,6343PS,Klimmen,Voerendaal,Limburg,VBO,5.915140,50.898009
Kruisstraat,2,,,6343PS,Klimmen,Voerendaal,Limburg,VBO,5.914952,50.897819
Kruisstraat,3,,,6343PS,Klimmen,Voerendaal,Limburg,VBO,5.914798,50.898111
Kruisstraat,4,,,6343PS,Klimmen,Voerendaal,Limburg,VBO,5.914731,50.897905
Kruisstraat,8,,,6343PS,Klimmen,Voerendaal,Limburg,VBO,5.914405,50.897974
Kruisstraat,10,,,6343PS,Klimmen,Voerendaal,Limburg,VBO,5.914182,50.898038
Kruisstraat,11,,,6343PS,Klimmen,Voerendaal,Limburg,VBO,5.914233,50.898287
Kruisstraat,12,,,6343PS,Klimmen,Voerendaal,Limburg,VBO,5.913950,50.898107
Kruisstraat,13,,,6343PS,Klimmen,Voerendaal,Limburg,VBO,5.914151,50.898311
Kruisstraat,14,,,6343PS,Klimmen,Voerendaal,Limburg,VBO,5.913737,50.898179
Kruisstraat,15,,,6343PS,Klimmen,Voerendaal,Limburg,VBO,5.914019,50.898388
Kruisstraat,16,,,6343PS,Klimmen,Voerendaal,Limburg,VBO,5.913496,50.898234
Kruisstraat,17,,,6343PS,Klimmen,Voerendaal,Limburg,VBO,5.913856,50.898306
Kruisstraat,18,,,6343PS,Klimmen,Voerendaal,Limburg,VBO,5.913253,50.898298
Luiperbeekstraat,1,,,6343PT,Klimmen,Voerendaal,Limburg,VBO,5.916545,50.900235
Luiperbeekstraat,3,,,6343PT,Klimmen,Voerendaal,Limburg,VBO,5.916395,50.900075
Luiperbeekstraat,5,,,6343PT,Klimmen,Voerendaal,Limburg,VBO,5.916316,50.899869
Luiperbeekstraat,7,,,6343PT,Klimmen,Voerendaal,Limburg,VBO,5.915646,50.899680
Luiperbeekstraat,9,,,6343PT,Klimmen,Voerendaal,Limburg,VBO,5.915578,50.899646
Luiperbeekstraat,11,,,6343PT,Klimmen,Voerendaal,Limburg,VBO,5.915382,50.899548
Luiperbeekstraat,13,,,6343PT,Klimmen,Voerendaal,Limburg,VBO,5.915312,50.899515
Luiperbeekstraat,15,,,6343PT,Klimmen,Voerendaal,Limburg,VBO,5.915177,50.899425
Luiperbeekstraat,17,,,6343PT,Klimmen,Voerendaal,Limburg,VBO,5.914961,50.899341
Luiperbeekstraat,19,,,6343PT,Klimmen,Voerendaal,Limburg,VBO,5.914765,50.899250
Luiperbeekstraat,21,,,6343PT,Klimmen,Voerendaal,Limburg,VBO,5.914495,50.899105
Luiperbeekstraat,23,,,6343PT,Klimmen,Voerendaal,Limburg,VBO,5.914425,50.899066
Luiperbeekstraat,25,A,,6343PT,Klimmen,Voerendaal,Limburg,VBO,5.914170,50.898930
Luiperbeekstraat,25,B,,6343PT,Klimmen,Voerendaal,Limburg,VBO,5.914105,50.898898
Luiperbeekstraat,25,,,6343PT,Klimmen,Voerendaal,Limburg,VBO,5.914263,50.898980
Luiperbeekstraat,27,,,6343PT,Klimmen,Voerendaal,Limburg,VBO,5.913874,50.898767
Luiperbeekstraat,29,,,6343PT,Klimmen,Voerendaal,Limburg,VBO,5.913720,50.898676
Luiperbeekstraat,31,,,6343PT,Klimmen,Voerendaal,Limburg,VBO,5.913566,50.898600
Luiperbeekstraat,33,,,6343PT,Klimmen,Voerendaal,Limburg,VBO,5.913485,50.898448
Luiperbeekstraat,35,,,6343PT,Klimmen,Voerendaal,Limburg,VBO,5.912995,50.898340
Luiperbeekstraat,37,,,6343PT,Klimmen,Voerendaal,Limburg,VBO,5.912801,50.898221
Luiperbeekstraat,39,,,6343PT,Klimmen,Voerendaal,Limburg,VBO,5.912622,50.898102
Luiperbeekstraat,61,,,6343PT,Klimmen,Voerendaal,Limburg,VBO,5.909749,50.897228
Luiperbeekstraat,2,,,6343PV,Klimmen,Voerendaal,Limburg,VBO,5.916167,50.900313
Luiperbeekstraat,4,,,6343PV,Klimmen,Voerendaal,Limburg,VBO,5.916048,50.900188
Luiperbeekstraat,8,,,6343PV,Klimmen,Voerendaal,Limburg,VBO,5.915840,50.900052
Luiperbeekstraat,12,,,6343PV,Klimmen,Voerendaal,Limburg,VBO,5.915671,50.899957
Luiperbeekstraat,14,A,,6343PV,Klimmen,Voerendaal,Limburg,VBO,5.915385,50.899867
Luiperbeekstraat,14,B,,6343PV,Klimmen,Voerendaal,Limburg,VBO,5.915458,50.899979
Luiperbeekstraat,14,,,6343PV,Klimmen,Voerendaal,Limburg,VBO,5.915414,50.899841
Luiperbeekstraat,16,,,6343PV,Klimmen,Voerendaal,Limburg,VBO,5.915195,50.899730
Luiperbeekstraat,20,,,6343PV,Klimmen,Voerendaal,Limburg,VBO,5.914891,50.899548
Luiperbeekstraat,24,,,6343PV,Klimmen,Voerendaal,Limburg,VBO,5.914466,50.899494
Luiperbeekstraat,26,,,6343PV,Klimmen,Voerendaal,Limburg,VBO,5.914347,50.899433
Luiperbeekstraat,32,,,6343PV,Klimmen,Voerendaal,Limburg,VBO,5.914171,50.899251
Luiperbeekstraat,34,,,6343PV,Klimmen,Voerendaal,Limburg,VBO,5.914072,50.899141
Luiperbeekstraat,38,,,6343PV,Klimmen,Voerendaal,Limburg,VBO,5.913798,50.899055
Luiperbeekstraat,40,,,6343PV,Klimmen,Voerendaal,Limburg,VBO,5.913508,50.898938
Luiperbeekstraat,42,,,6343PV,Klimmen,Voerendaal,Limburg,VBO,5.913240,50.898855
Luiperbeekstraat,44,,,6343PV,Klimmen,Voerendaal,Limburg,VBO,5.913034,50.898747
Luiperbeekstraat,46,,,6343PV,Klimmen,Voerendaal,Limburg,VBO,5.912884,50.898628
Luiperbeekstraat,48,,,6343PV,Klimmen,Voerendaal,Limburg,VBO,5.912814,50.898556
Luiperbeekstraat,50,,,6343PV,Klimmen,Voerendaal,Limburg,VBO,5.912646,50.898461
Luiperbeekstraat,52,,,6343PV,Klimmen,Voerendaal,Limburg,VBO,5.912498,50.898354
Luiperbeekstraat,54,A,,6343PV,Klimmen,Voerendaal,Limburg,VBO,5.912290,50.898219
Luiperbeekstraat,54,,,6343PV,Klimmen,Voerendaal,Limburg,VBO,5.912341,50.898252
Luiperbeekstraat,56,,,6343PV,Klimmen,Voerendaal,Limburg,VBO,5.912155,50.898144
Luiperbeekstraat,58,,,6343PV,Klimmen,Voerendaal,Limburg,VBO,5.912032,50.897986
Luiperbeekstraat,60,,,6343PV,Klimmen,Voerendaal,Limburg,VBO,5.911845,50.897943
Oliemolenstraat,1,,,6343PW,Klimmen,Voerendaal,Limburg,VBO,5.916332,50.900595
Oliemolenstraat,2,,,6343PW,Klimmen,Voerendaal,Limburg,VBO,5.916722,50.900386
Oliemolenstraat,3,,,6343PW,Klimmen,Voerendaal,Limburg,VBO,5.916417,50.900669
Oliemolenstraat,4,,,6343PW,Klimmen,Voerendaal,Limburg,VBO,5.916867,50.900622
Oliemolenstraat,5,,,6343PW,Klimmen,Voerendaal,Limburg,VBO,5.916503,50.900813
Oliemolenstraat,6,,,6343PW,Klimmen,Voerendaal,Limburg,VBO,5.916916,50.900653
Oliemolenstraat,7,,,6343PW,Klimmen,Voerendaal,Limburg,VBO,5.916738,50.900896
Oliemolenstraat,8,,,6343PW,Klimmen,Voerendaal,Limburg,VBO,5.917187,50.900761
Oliemolenstraat,9,,,6343PW,Klimmen,Voerendaal,Limburg,VBO,5.916869,50.900954
Oliemolenstraat,10,,,6343PW,Klimmen,Voerendaal,Limburg,VBO,5.917234,50.900784
Oliemolenstraat,11,,,6343PW,Klimmen,Voerendaal,Limburg,VBO,5.917142,50.901004
Oliemolenstraat,12,,,6343PW,Klimmen,Voerendaal,Limburg,VBO,5.917571,50.900887
Oliemolenstraat,14,,,6343PW,Klimmen,Voerendaal,Limburg,VBO,5.917715,50.900961
Oliemolenstraat,19,,,6343PW,Klimmen,Voerendaal,Limburg,VBO,5.917904,50.901252
Oliemolenstraat,34,,,6343PW,Klimmen,Voerendaal,Limburg,VBO,5.920542,50.902823
Oliemolenstraat,36,,,6343PW,Klimmen,Voerendaal,Limburg,VBO,5.920592,50.902916
Vleckstraat,1,A,,6343PX,Klimmen,Voerendaal,Limburg,VBO,5.916021,50.899099
Vleckstraat,1,,,6343PX,Klimmen,Voerendaal,Limburg,VBO,5.916184,50.899025
Vleckstraat,2,,,6343PX,Klimmen,Voerendaal,Limburg,VBO,5.916630,50.899093
Vleckstraat,3,,,6343PX,Klimmen,Voerendaal,Limburg,VBO,5.916227,50.899147
Vleckstraat,4,,,6343PX,Klimmen,Voerendaal,Limburg,VBO,5.916664,50.899243
Vleckstraat,5,,,6343PX,Klimmen,Voerendaal,Limburg,VBO,5.916280,50.899283
Vleckstraat,6,,,6343PX,Klimmen,Voerendaal,Limburg,VBO,5.916643,50.899410
Vleckstraat,7,,,6343PX,Klimmen,Voerendaal,Limburg,VBO,5.916296,50.899353
Vleckstraat,8,,,6343PX,Klimmen,Voerendaal,Limburg,VBO,5.916624,50.899604
Vleckstraat,9,,,6343PX,Klimmen,Voerendaal,Limburg,VBO,5.916264,50.899494
Vleckstraat,10,,,6343PX,Klimmen,Voerendaal,Limburg,VBO,5.916546,50.899712
Vleckstraat,11,,,6343PX,Klimmen,Voerendaal,Limburg,VBO,5.916229,50.899546
Vleckstraat,13,,,6343PX,Klimmen,Voerendaal,Limburg,VBO,5.916080,50.899649
Vleckstraat,15,,,6343PX,Klimmen,Voerendaal,Limburg,VBO,5.915982,50.899673
Barrier,51,,,6343RA,Klimmen,Voerendaal,Limburg,VBO,5.895853,50.878750
Barrier,53,,,6343RA,Klimmen,Voerendaal,Limburg,VBO,5.895971,50.878760
Barrier,81,A,,6343RA,Klimmen,Voerendaal,Limburg,VBO,5.899136,50.879076
Barrier,81,,,6343RA,Klimmen,Voerendaal,Limburg,VBO,5.899146,50.879048
Barrier,83,A,,6343RA,Klimmen,Voerendaal,Limburg,VBO,5.899354,50.879066
Barrier,83,,,6343RA,Klimmen,Voerendaal,Limburg,VBO,5.899275,50.879059
Barrier,85,A,,6343RA,Klimmen,Voerendaal,Limburg,VBO,5.899590,50.879073
Barrier,85,,,6343RA,Klimmen,Voerendaal,Limburg,VBO,5.899455,50.879061
Barrier,87,,,6343RA,Klimmen,Voerendaal,Limburg,VBO,5.899748,50.879097
Barrier,91,,,6343RA,Klimmen,Voerendaal,Limburg,VBO,5.900068,50.879128
Barrier,40,,,6343RB,Klimmen,Voerendaal,Limburg,VBO,5.894982,50.878455
Barrier,50,,,6343RB,Klimmen,Voerendaal,Limburg,VBO,5.895994,50.878554
Barrier,52,,,6343RB,Klimmen,Voerendaal,Limburg,VBO,5.896072,50.878560
Barrier,64,,,6343RB,Klimmen,Voerendaal,Limburg,VBO,5.897225,50.878657
Barrier,70,,,6343RB,Klimmen,Voerendaal,Limburg,VBO,5.897655,50.878662
Barrier,78,,,6343RB,Klimmen,Voerendaal,Limburg,VBO,5.898394,50.878764
Barrier,80,,,6343RB,Klimmen,Voerendaal,Limburg,VBO,5.898513,50.878777
Barrier,82,,,6343RB,Klimmen,Voerendaal,Limburg,VBO,5.898617,50.878788
Barrier,86,,,6343RB,Klimmen,Voerendaal,Limburg,VBO,5.899206,50.878839
Barrier,88,,,6343RB,Klimmen,Voerendaal,Limburg,VBO,5.899907,50.878884
Barrier,90,,,6343RB,Klimmen,Voerendaal,Limburg,VBO,5.900049,50.878899
Barrier,92,,,6343RB,Klimmen,Voerendaal,Limburg,VBO,5.900179,50.878911
Barrier,96,,,6343RB,Klimmen,Voerendaal,Limburg,VBO,5.900938,50.878855
Craubekerstraat,1,A,,6343RC,Klimmen,Voerendaal,Limburg,VBO,5.894394,50.875698
Craubekerstraat,1,,,6343RC,Klimmen,Voerendaal,Limburg,VBO,5.894317,50.875895
Craubekerstraat,2,A,,6343RC,Klimmen,Voerendaal,Limburg,VBO,5.894605,50.875599
Craubekerstraat,2,,,6343RC,Klimmen,Voerendaal,Limburg,VBO,5.894516,50.875503
Craubekerstraat,3,,,6343RC,Klimmen,Voerendaal,Limburg,VBO,5.894615,50.875944
Craubekerstraat,4,,,6343RC,Klimmen,Voerendaal,Limburg,VBO,5.894720,50.875687
Craubekerstraat,5,,,6343RC,Klimmen,Voerendaal,Limburg,VBO,5.894766,50.875995
Craubekerstraat,6,,,6343RC,Klimmen,Voerendaal,Limburg,VBO,5.894905,50.875754
Craubekerstraat,8,A,,6343RC,Klimmen,Voerendaal,Limburg,VBO,5.895054,50.875805
Craubekerstraat,8,,,6343RC,Klimmen,Voerendaal,Limburg,VBO,5.895155,50.875847
Craubekerstraat,9,,,6343RC,Klimmen,Voerendaal,Limburg,VBO,5.894953,50.876057
Craubekerstraat,10,,,6343RC,Klimmen,Voerendaal,Limburg,VBO,5.895238,50.875889
Craubekerstraat,11,,,6343RC,Klimmen,Voerendaal,Limburg,VBO,5.895094,50.876107
Craubekerstraat,13,A,,6343RC,Klimmen,Voerendaal,Limburg,VBO,5.895161,50.876289
Craubekerstraat,13,,,6343RC,Klimmen,Voerendaal,Limburg,VBO,5.895247,50.876218
Craubekerstraat,21,,,6343RC,Klimmen,Voerendaal,Limburg,VBO,5.895412,50.876556
Craubekerstraat,29,,,6343RC,Klimmen,Voerendaal,Limburg,VBO,5.895595,50.877029
Craubekerstraat,31,,,6343RC,Klimmen,Voerendaal,Limburg,VBO,5.895848,50.877241
Craubekerstraat,33,,,6343RC,Klimmen,Voerendaal,Limburg,VBO,5.896085,50.877370
Craubekerstraat,35,,,6343RC,Klimmen,Voerendaal,Limburg,VBO,5.896264,50.877472
Craubekerstraat,39,,,6343RC,Klimmen,Voerendaal,Limburg,VBO,5.896525,50.877606
Craubekerstraat,41,,,6343RC,Klimmen,Voerendaal,Limburg,VBO,5.896699,50.877672
Craubekerstraat,43,,,6343RC,Klimmen,Voerendaal,Limburg,VBO,5.896887,50.877722
Craubekerstraat,75,,,6343RC,Klimmen,Voerendaal,Limburg,VBO,5.899139,50.878793
Kaardenbekerweg,5,,,6343RE,Klimmen,Voerendaal,Limburg,VBO,5.895948,50.876068
Kaardenbekerweg,20,,,6343RE,Klimmen,Voerendaal,Limburg,VBO,5.897276,50.876054
Kaardenbekerweg,22,,,6343RE,Klimmen,Voerendaal,Limburg,VBO,5.897455,50.876026
Kaardenbekerweg,25,,,6343RE,Klimmen,Voerendaal,Limburg,VBO,5.898824,50.876037
Kaardenbekerweg,30,,,6343RE,Klimmen,Voerendaal,Limburg,VBO,5.899991,50.874405
Kaardenbekerweg,32,,,6343RE,Klimmen,Voerendaal,Limburg,VBO,5.900181,50.874135
Penderskoolhofweg,1,,,6343RG,Klimmen,Voerendaal,Limburg,VBO,5.894369,50.875335
Penderskoolhofweg,2,,,6343RG,Klimmen,Voerendaal,Limburg,VBO,5.894178,50.875317
Penderskoolhofweg,3,,,6343RG,Klimmen,Voerendaal,Limburg,VBO,5.894286,50.875187
Penderskoolhofweg,4,A,,6343RG,Klimmen,Voerendaal,Limburg,VBO,5.893943,50.875264
Penderskoolhofweg,4,,,6343RG,Klimmen,Voerendaal,Limburg,VBO,5.893951,50.875174
Penderskoolhofweg,6,,,6343RG,Klimmen,Voerendaal,Limburg,VBO,5.894039,50.875033
Penderskoolhofweg,7,,,6343RG,Klimmen,Voerendaal,Limburg,VBO,5.894228,50.875057
Penderskoolhofweg,8,A,,6343RG,Klimmen,Voerendaal,Limburg,VBO,5.893898,50.874682
Penderskoolhofweg,8,,,6343RG,Klimmen,Voerendaal,Limburg,VBO,5.894005,50.874902
Penderskoolhofweg,10,,,6343RG,Klimmen,Voerendaal,Limburg,VBO,5.893989,50.874538
Penderskoolhofweg,11,,,6343RG,Klimmen,Voerendaal,Limburg,VBO,5.894322,50.874855
Penderskoolhofweg,12,,,6343RG,Klimmen,Voerendaal,Limburg,VBO,5.893999,50.874472
Penderskoolhofweg,13,,,6343RG,Klimmen,Voerendaal,Limburg,VBO,5.894326,50.874740
Penderskoolhofweg,14,,,6343RG,Klimmen,Voerendaal,Limburg,VBO,5.894022,50.874328
Penderskoolhofweg,15,,,6343RG,Klimmen,Voerendaal,Limburg,VBO,5.894354,50.874563
Penderskoolhofweg,17,,,6343RG,Klimmen,Voerendaal,Limburg,VBO,5.894364,50.874496
Holleweg,2,,,6343RH,Klimmen,Voerendaal,Limburg,VBO,5.894115,50.875942
Holleweg,4,,,6343RH,Klimmen,Voerendaal,Limburg,VBO,5.894030,50.875977
Holleweg,5,,,6343RH,Klimmen,Voerendaal,Limburg,VBO,5.893630,50.875646
Holleweg,6,,,6343RH,Klimmen,Voerendaal,Limburg,VBO,5.893874,50.876042
Holleweg,8,,,6343RH,Klimmen,Voerendaal,Limburg,VBO,5.893788,50.876078
Holleweg,10,,,6343RH,Klimmen,Voerendaal,Limburg,VBO,5.893630,50.876148
Holleweg,12,,,6343RH,Klimmen,Voerendaal,Limburg,VBO,5.893545,50.876183
Holleweg,13,A,,6343RH,Klimmen,Voerendaal,Limburg,VBO,5.893188,50.876067
Holleweg,13,,,6343RH,Klimmen,Voerendaal,Limburg,VBO,5.893262,50.875690
Holleweg,14,,,6343RH,Klimmen,Voerendaal,Limburg,VBO,5.893389,50.876248
Holleweg,15,,,6343RH,Klimmen,Voerendaal,Limburg,VBO,5.893019,50.876147
Holleweg,16,,,6343RH,Klimmen,Voerendaal,Limburg,VBO,5.893303,50.876284
Holleweg,17,,,6343RH,Klimmen,Voerendaal,Limburg,VBO,5.892782,50.876252
Holleweg,18,,,6343RH,Klimmen,Voerendaal,Limburg,VBO,5.893169,50.876389
Holleweg,19,,,6343RH,Klimmen,Voerendaal,Limburg,VBO,5.892351,50.876651
Holleweg,20,A,,6343RH,Klimmen,Voerendaal,Limburg,VBO,5.892759,50.876784
Holleweg,20,,,6343RH,Klimmen,Voerendaal,Limburg,VBO,5.892847,50.876669
Holleweg,21,,,6343RH,Klimmen,Voerendaal,Limburg,VBO,5.892284,50.876774
Holleweg,22,,,6343RH,Klimmen,Voerendaal,Limburg,VBO,5.892671,50.876881
Holleweg,23,,,6343RH,Klimmen,Voerendaal,Limburg,VBO,5.892198,50.876929
Holleweg,25,,,6343RH,Klimmen,Voerendaal,Limburg,VBO,5.891694,50.876924
Kerkveldweg,1,A,,6343RJ,Klimmen,Voerendaal,Limburg,VBO,5.886949,50.876463
Kerkveldweg,1,B,,6343RJ,Klimmen,Voerendaal,Limburg,VBO,5.886565,50.876227
Kerkveldweg,1,,,6343RJ,Klimmen,Voerendaal,Limburg,VBO,5.886890,50.876243
Kerkveldweg,2,,,6343RJ,Klimmen,Voerendaal,Limburg,VBO,5.891702,50.876558
Kerkveldweg,3,,,6343RJ,Klimmen,Voerendaal,Limburg,VBO,5.888972,50.876292
Kerkveldweg,5,,,6343RJ,Klimmen,Voerendaal,Limburg,VBO,5.892021,50.876304
Hellebeukerweg,21,,,6343RK,Klimmen,Voerendaal,Limburg,VBO,5.864193,50.878851
Hellebeukerweg,22,,,6343RK,Klimmen,Voerendaal,Limburg,VBO,5.863813,50.878996
Hellebeukerweg,24,,,6343RK,Klimmen,Voerendaal,Limburg,VBO,5.863989,50.878616
Hellebeukerweg,25,,b01,6343RK,Klimmen,Voerendaal,Limburg,VBO,5.863765,50.879910
Hellebeukerweg,25,,b02,6343RK,Klimmen,Voerendaal,Limburg,VBO,5.863912,50.879919
Hellebeukerweg,25,,b03,6343RK,Klimmen,Voerendaal,Limburg,VBO,5.864519,50.880017
Hellebeukerweg,25,,b05,6343RK,Klimmen,Voerendaal,Limburg,VBO,5.864546,50.879741
Hellebeukerweg,25,,b06,6343RK,Klimmen,Voerendaal,Limburg,VBO,5.864774,50.879808
Hellebeukerweg,25,,b07,6343RK,Klimmen,Voerendaal,Limburg,VBO,5.864139,50.879587
Hellebeukerweg,25,,b08,6343RK,Klimmen,Voerendaal,Limburg,VBO,5.864256,50.879630
Hellebeukerweg,25,,b09,6343RK,Klimmen,Voerendaal,Limburg,VBO,5.863360,50.879197
Hellebeukerweg,25,,b11,6343RK,Klimmen,Voerendaal,Limburg,VBO,5.863472,50.879399
Hellebeukerweg,25,,b12,6343RK,Klimmen,Voerendaal,Limburg,VBO,5.863556,50.879401
Hellebeukerweg,25,,b13,6343RK,Klimmen,Voerendaal,Limburg,VBO,5.863674,50.879659
Hellebeukerweg,25,,b15,6343RK,Klimmen,Voerendaal,Limburg,VBO,5.864966,50.879486
Hellebeukerweg,25,,b16,6343RK,Klimmen,Voerendaal,Limburg,VBO,5.865057,50.879506
Hellebeukerweg,25,,b17,6343RK,Klimmen,Voerendaal,Limburg,VBO,5.864581,50.879391
Hellebeukerweg,25,,b18,6343RK,Klimmen,Voerendaal,Limburg,VBO,5.864670,50.879418
Hellebeukerweg,25,,b19,6343RK,Klimmen,Voerendaal,Limburg,VBO,5.864245,50.879248
Hellebeukerweg,25,,b20,6343RK,Klimmen,Voerendaal,Limburg,VBO,5.864328,50.879278
Hellebeukerweg,25,,b26,6343RK,Klimmen,Voerendaal,Limburg,VBO,5.864554,50.878959
Hellebeukerweg,25,,b27,6343RK,Klimmen,Voerendaal,Limburg,VBO,5.864655,50.878997
Hellebeukerweg,25,,b28,6343RK,Klimmen,Voerendaal,Limburg,VBO,5.864878,50.879072
Hellebeukerweg,25,,b29,6343RK,Klimmen,Voerendaal,Limburg,VBO,5.864959,50.879104
Hellebeukerweg,25,,b30,6343RK,Klimmen,Voerendaal,Limburg,VBO,5.865197,50.879200
Hellebeukerweg,25,,b31,6343RK,Klimmen,Voerendaal,Limburg,VBO,5.865311,50.879242
Hellebeukerweg,25,,b32,6343RK,Klimmen,Voerendaal,Limburg,VBO,5.865244,50.879795
Hellebeukerweg,25,,b33,6343RK,Klimmen,Voerendaal,Limburg,VBO,5.865587,50.879435
Hellebeukerweg,25,,b34,6343RK,Klimmen,Voerendaal,Limburg,VBO,5.865662,50.879807
Hellebeukerweg,25,,b35,6343RK,Klimmen,Voerendaal,Limburg,VBO,5.866010,50.879480
Hellebeukerweg,25,,b36,6343RK,Klimmen,Voerendaal,Limburg,VBO,5.866116,50.879855
Hellebeukerweg,25,,b37,6343RK,Klimmen,Voerendaal,Limburg,VBO,5.866218,50.879869
Hellebeukerweg,25,,b38,6343RK,Klimmen,Voerendaal,Limburg,VBO,5.866569,50.879905
Hellebeukerweg,25,,b40,6343RK,Klimmen,Voerendaal,Limburg,VBO,5.865425,50.879991
Hellebeukerweg,25,,b41,6343RK,Klimmen,Voerendaal,Limburg,VBO,5.866383,50.879513
Hellebeukerweg,25,,b42,6343RK,Klimmen,Voerendaal,Limburg,VBO,5.865880,50.880035
Hellebeukerweg,25,,b43,6343RK,Klimmen,Voerendaal,Limburg,VBO,5.866764,50.879500
Hellebeukerweg,25,,b44,6343RK,Klimmen,Voerendaal,Limburg,VBO,5.866238,50.880066
Hellebeukerweg,25,,b45,6343RK,Klimmen,Voerendaal,Limburg,VBO,5.866378,50.880080
Hellebeukerweg,25,,b46,6343RK,Klimmen,Voerendaal,Limburg,VBO,5.866716,50.880116
Hellebeukerweg,25,,b47,6343RK,Klimmen,Voerendaal,Limburg,VBO,5.866798,50.880122
Hellebeukerweg,25,,b48,6343RK,Klimmen,Voerendaal,Limburg,VBO,5.863984,50.879505
Hellebeukerweg,25,,b49,6343RK,Klimmen,Voerendaal,Limburg,VBO,5.863634,50.880117
Hellebeukerweg,25,,b50,6343RK,Klimmen,Voerendaal,Limburg,VBO,5.863574,50.880253
Hellebeukerweg,25,,b51,6343RK,Klimmen,Voerendaal,Limburg,VBO,5.863498,50.880377
Hellebeukerweg,25,,b52,6343RK,Klimmen,Voerendaal,Limburg,VBO,5.863410,50.880498
Hellebeukerweg,25,,b53,6343RK,Klimmen,Voerendaal,Limburg,VBO,5.863361,50.880843
Hellebeukerweg,25,,b54,6343RK,Klimmen,Voerendaal,Limburg,VBO,5.863119,50.880825
Hellebeukerweg,25,,b55,6343RK,Klimmen,Voerendaal,Limburg,VBO,5.862808,50.880840
Hellebeukerweg,25,,b56,6343RK,Klimmen,Voerendaal,Limburg,VBO,5.862714,50.881068
Hellebeukerweg,25,,b57,6343RK,Klimmen,Voerendaal,Limburg,VBO,5.862945,50.881151
Hellebeukerweg,25,,b58,6343RK,Klimmen,Voerendaal,Limburg,VBO,5.863293,50.881210
Hellebeukerweg,25,,b59,6343RK,Klimmen,Voerendaal,Limburg,VBO,5.863567,50.881241
Hellebeukerweg,25,,b60,6343RK,Klimmen,Voerendaal,Limburg,VBO,5.863743,50.881109
Hellebeukerweg,25,,b61,6343RK,Klimmen,Voerendaal,Limburg,VBO,5.863725,50.880960
Hellebeukerweg,25,,b62,6343RK,Klimmen,Voerendaal,Limburg,VBO,5.863779,50.880828
Hellebeukerweg,25,,b63,6343RK,Klimmen,Voerendaal,Limburg,VBO,5.863843,50.880696
Hellebeukerweg,25,,b64,6343RK,Klimmen,Voerendaal,Limburg,VBO,5.863870,50.880565
Hellebeukerweg,25,,b65,6343RK,Klimmen,Voerendaal,Limburg,VBO,5.864091,50.880194
Hellebeukerweg,25,,b66,6343RK,Klimmen,Voerendaal,Limburg,VBO,5.864313,50.880205
Hellebeukerweg,25,,b67,6343RK,Klimmen,Voerendaal,Limburg,VBO,5.864563,50.880227
Hellebeukerweg,25,,,6343RK,Klimmen,Voerendaal,Limburg,VBO,5.863198,50.879683
Krekelsbos,1,,,6343RL,Klimmen,Voerendaal,Limburg,VBO,5.875426,50.858338
Krekelsbos,2,A,,6343RL,Klimmen,Voerendaal,Limburg,VBO,5.878499,50.864812
Krekelsbos,2,,,6343RL,Klimmen,Voerendaal,Limburg,VBO,5.876418,50.862759
Krekelsbos,4,,,6343RL,Klimmen,Voerendaal,Limburg,VBO,5.878883,50.865269
Krekelsbos,6,,,6343RL,Klimmen,Voerendaal,Limburg,VBO,5.879086,50.865503
Krekelsbos,8,,,6343RL,Klimmen,Voerendaal,Limburg,VBO,5.879153,50.865556
Krekelsbos,10,,,6343RL,Klimmen,Voerendaal,Limburg,VBO,5.879654,50.865890
Kerkeveld,1,,,6343RM,Klimmen,Voerendaal,Limburg,VBO,5.873652,50.857164
Kerkeveld,3,,,6343RM,Klimmen,Voerendaal,Limburg,VBO,5.873908,50.857292
Langs de Ling,1,,,6343RN,Klimmen,Voerendaal,Limburg,VBO,5.880305,50.861235
Langs de Ling,3,,,6343RN,Klimmen,Voerendaal,Limburg,VBO,5.880372,50.861253
Langs de Ling,5,,,6343RN,Klimmen,Voerendaal,Limburg,VBO,5.880442,50.861272
Langs de Ling,7,,,6343RN,Klimmen,Voerendaal,Limburg,VBO,5.880511,50.861295
Langs de Ling,9,,,6343RN,Klimmen,Voerendaal,Limburg,VBO,5.880576,50.861315
Langs de Ling,11,,,6343RN,Klimmen,Voerendaal,Limburg,VBO,5.880656,50.861330
Walemerweg,1,,r01,6343RP,Klimmen,Voerendaal,Limburg,VBO,5.879055,50.866127
Walemerweg,1,,,6343RP,Klimmen,Voerendaal,Limburg,VBO,5.879224,50.866256
Walemerweg,3,A,R1,6343RP,Klimmen,Voerendaal,Limburg,VBO,5.879127,50.866315
Walemerweg,3,A,R2,6343RP,Klimmen,Voerendaal,Limburg,VBO,5.878798,50.866139
Walemerweg,3,A,,6343RP,Klimmen,Voerendaal,Limburg,VBO,5.878993,50.866243
Walemerweg,3,,,6343RP,Klimmen,Voerendaal,Limburg,VBO,5.878867,50.866427
