openbareruimtenaam,huisnummer,huisletter,huisnummertoevoeging,postcode,woonplaatsnaam,gemeentenaam,provincienaam,typeadresseerbaarobject,longitude,latitude
Parallelweg,2,,,6465AA,Kerkrade,Kerkrade,Limburg,VBO,6.027017,50.853531
Parallelweg,4,A,,6465AA,Kerkrade,Kerkrade,Limburg,VBO,6.027239,50.853358
Parallelweg,4,,,6465AA,Kerkrade,Kerkrade,Limburg,VBO,6.027101,50.853565
Parallelweg,6,,,6465AA,Kerkrade,Kerkrade,Limburg,VBO,6.027401,50.853621
Parallelweg,8,,,6465AA,Kerkrade,Kerkrade,Limburg,VBO,6.031318,50.854698
Parallelweg,38,,,6465AA,Kerkrade,Kerkrade,Limburg,VBO,6.033476,50.855227
Steenbergstraat,5,,,6465AB,Kerkrade,Kerkrade,Limburg,VBO,6.036775,50.852505
Steenbergstraat,20,,,6465AB,Kerkrade,Kerkrade,Limburg,VBO,6.036914,50.853524
Steenbergstraat,22,,,6465AB,Kerkrade,Kerkrade,Limburg,VBO,6.036678,50.853703
Steenbergstraat,27,,,6465AB,Kerkrade,Kerkrade,Limburg,VBO,6.035678,50.854222
Steenbergstraat,29,,,6465AB,Kerkrade,Kerkrade,Limburg,VBO,6.035471,50.854561
Steenbergstraat,31,,,6465AB,Kerkrade,Kerkrade,Limburg,VBO,6.034848,50.855456
Steenbergstraat,42,,,6465AB,Kerkrade,Kerkrade,Limburg,VBO,6.036283,50.855264
Baamstraat,61,,,6465AC,Kerkrade,Kerkrade,Limburg,VBO,6.043924,50.853372
Hamstraat,159,,,6465AD,Kerkrade,Kerkrade,Limburg,VBO,6.031331,50.850168
Hamstraat,161,,,6465AD,Kerkrade,Kerkrade,Limburg,VBO,6.031256,50.850133
Hamstraat,165,,,6465AD,Kerkrade,Kerkrade,Limburg,VBO,6.031015,50.849986
Hamstraat,167,,,6465AD,Kerkrade,Kerkrade,Limburg,VBO,6.030905,50.849942
Hamstraat,169,A,,6465AE,Kerkrade,Kerkrade,Limburg,VBO,6.031021,50.849670
Hamstraat,171,,,6465AE,Kerkrade,Kerkrade,Limburg,VBO,6.030591,50.849830
Hamstraat,183,,,6465AE,Kerkrade,Kerkrade,Limburg,VBO,6.029922,50.849551
Hamstraat,185,,,6465AE,Kerkrade,Kerkrade,Limburg,VBO,6.029821,50.849510
Hamstraat,187,A,,6465AE,Kerkrade,Kerkrade,Limburg,VBO,6.029723,50.849213
Hamstraat,187,,,6465AE,Kerkrade,Kerkrade,Limburg,VBO,6.029558,50.849449
Hamstraat,189,,,6465AE,Kerkrade,Kerkrade,Limburg,VBO,6.029473,50.849417
Hamstraat,191,,,6465AE,Kerkrade,Kerkrade,Limburg,VBO,6.029373,50.849357
Hamstraat,193,,,6465AE,Kerkrade,Kerkrade,Limburg,VBO,6.029359,50.849373
Hamstraat,195,,,6465AE,Kerkrade,Kerkrade,Limburg,VBO,6.029240,50.849326
Hamstraat,197,,,6465AE,Kerkrade,Kerkrade,Limburg,VBO,6.029115,50.849224
Hamstraat,199,,,6465AE,Kerkrade,Kerkrade,Limburg,VBO,6.028950,50.849159
Hamstraat,201,,,6465AE,Kerkrade,Kerkrade,Limburg,VBO,6.028780,50.849092
Hamstraat,203,,,6465AE,Kerkrade,Kerkrade,Limburg,VBO,6.028666,50.849046
Hamstraat,205,,,6465AE,Kerkrade,Kerkrade,Limburg,VBO,6.028589,50.849016
Hamstraat,209,,,6465AE,Kerkrade,Kerkrade,Limburg,VBO,6.028448,50.848967
Hamstraat,211,,,6465AE,Kerkrade,Kerkrade,Limburg,VBO,6.028284,50.848898
Hamstraat,213,,,6465AE,Kerkrade,Kerkrade,Limburg,VBO,6.028257,50.848568
Hamstraat,70,,,6465AG,Kerkrade,Kerkrade,Limburg,VBO,6.037630,50.852676
Hamstraat,76,,,6465AG,Kerkrade,Kerkrade,Limburg,VBO,6.039488,50.853107
Crombacherstraat,12,A,,6465AH,Kerkrade,Kerkrade,Limburg,VBO,6.021204,50.846637
Crombacherstraat,12,,,6465AH,Kerkrade,Kerkrade,Limburg,VBO,6.021142,50.847033
Crombacherstraat,14,,,6465AH,Kerkrade,Kerkrade,Limburg,VBO,6.021467,50.847094
Crombacherstraat,18,,,6465AH,Kerkrade,Kerkrade,Limburg,VBO,6.021688,50.847195
Crombacherstraat,20,,,6465AH,Kerkrade,Kerkrade,Limburg,VBO,6.021789,50.847216
Crombacherstraat,22,,,6465AH,Kerkrade,Kerkrade,Limburg,VBO,6.021839,50.847133
Crombacherstraat,24,,,6465AH,Kerkrade,Kerkrade,Limburg,VBO,6.021906,50.847240
Crombacherstraat,26,,,6465AH,Kerkrade,Kerkrade,Limburg,VBO,6.022135,50.847238
Crombacherstraat,28,,,6465AH,Kerkrade,Kerkrade,Limburg,VBO,6.022897,50.847483
Crombacherstraat,30,,,6465AH,Kerkrade,Kerkrade,Limburg,VBO,6.023066,50.847535
Crombacherstraat,32,,,6465AH,Kerkrade,Kerkrade,Limburg,VBO,6.023173,50.847569
Locht,80,E,,6465AJ,Kerkrade,Kerkrade,Limburg,VBO,6.016998,50.847297
Locht,80,F,,6465AJ,Kerkrade,Kerkrade,Limburg,VBO,6.017752,50.847319
Locht,80,,,6465AJ,Kerkrade,Kerkrade,Limburg,VBO,6.017390,50.847731
Locht,82,,,6465AJ,Kerkrade,Kerkrade,Limburg,VBO,6.017894,50.847160
Locht,84,,,6465AJ,Kerkrade,Kerkrade,Limburg,VBO,6.017946,50.847101
Locht,86,A,,6465AJ,Kerkrade,Kerkrade,Limburg,VBO,6.018050,50.846986
Locht,86,,,6465AJ,Kerkrade,Kerkrade,Limburg,VBO,6.017994,50.847048
Locht,88,A,,6465AJ,Kerkrade,Kerkrade,Limburg,VBO,6.018137,50.846897
Locht,88,,,6465AJ,Kerkrade,Kerkrade,Limburg,VBO,6.018090,50.846943
Locht,100,A,,6465AJ,Kerkrade,Kerkrade,Limburg,VBO,6.018760,50.846106
Locht,100,,,6465AJ,Kerkrade,Kerkrade,Limburg,VBO,6.018786,50.846113
Locht,102,,,6465AJ,Kerkrade,Kerkrade,Limburg,VBO,6.018821,50.846029
Locht,173,,,6465AJ,Kerkrade,Kerkrade,Limburg,VBO,6.016378,50.849634
Locht,175,A,,6465AJ,Kerkrade,Kerkrade,Limburg,VBO,6.016879,50.849545
Locht,175,,,6465AJ,Kerkrade,Kerkrade,Limburg,VBO,6.016467,50.849515
Locht,177,,,6465AJ,Kerkrade,Kerkrade,Limburg,VBO,6.016818,50.849309
Locht,179,,,6465AJ,Kerkrade,Kerkrade,Limburg,VBO,6.016909,50.849201
Locht,181,,,6465AJ,Kerkrade,Kerkrade,Limburg,VBO,6.017031,50.849041
Locht,187,,,6465AJ,Kerkrade,Kerkrade,Limburg,VBO,6.017155,50.848877
Grachterstraat,1,,,6465AK,Kerkrade,Kerkrade,Limburg,VBO,6.026525,50.853429
Grachterstraat,5,,,6465AK,Kerkrade,Kerkrade,Limburg,VBO,6.026593,50.853302
Grachterstraat,7,,,6465AK,Kerkrade,Kerkrade,Limburg,VBO,6.026644,50.853254
Grachterstraat,11,,,6465AK,Kerkrade,Kerkrade,Limburg,VBO,6.026729,50.853171
Grachterstraat,13,,,6465AK,Kerkrade,Kerkrade,Limburg,VBO,6.026793,50.853110
Grachterstraat,15,,,6465AK,Kerkrade,Kerkrade,Limburg,VBO,6.026843,50.853062
Grachterstraat,17,,,6465AK,Kerkrade,Kerkrade,Limburg,VBO,6.026894,50.853013
Grachterstraat,19,,,6465AK,Kerkrade,Kerkrade,Limburg,VBO,6.027039,50.852956
Grachterstraat,21,,,6465AK,Kerkrade,Kerkrade,Limburg,VBO,6.027169,50.852836
Grachterstraat,23,,,6465AK,Kerkrade,Kerkrade,Limburg,VBO,6.027295,50.852738
Grachterstraat,25,,,6465AK,Kerkrade,Kerkrade,Limburg,VBO,6.027380,50.852647
Grachterstraat,37,,,6465AK,Kerkrade,Kerkrade,Limburg,VBO,6.027474,50.852559
Grachterstraat,39,,,6465AK,Kerkrade,Kerkrade,Limburg,VBO,6.027679,50.852436
Grachterstraat,41,,,6465AK,Kerkrade,Kerkrade,Limburg,VBO,6.027659,50.852309
Grachterstraat,43,,,6465AK,Kerkrade,Kerkrade,Limburg,VBO,6.027721,50.852252
Grachterstraat,45,,,6465AK,Kerkrade,Kerkrade,Limburg,VBO,6.027784,50.852193
Grachterstraat,47,,,6465AK,Kerkrade,Kerkrade,Limburg,VBO,6.027909,50.852143
Grachterstraat,49,,,6465AK,Kerkrade,Kerkrade,Limburg,VBO,6.027962,50.852096
Grachterstraat,51,,,6465AK,Kerkrade,Kerkrade,Limburg,VBO,6.028017,50.852046
Grachterstraat,53,,,6465AK,Kerkrade,Kerkrade,Limburg,VBO,6.028068,50.852001
Grachterstraat,55,,,6465AK,Kerkrade,Kerkrade,Limburg,VBO,6.028121,50.851953
Grachterstraat,57,,,6465AK,Kerkrade,Kerkrade,Limburg,VBO,6.028192,50.851890
Grachterstraat,59,,,6465AL,Kerkrade,Kerkrade,Limburg,VBO,6.028248,50.851839
Grachterstraat,61,,,6465AL,Kerkrade,Kerkrade,Limburg,VBO,6.028306,50.851787
Grachterstraat,63,,,6465AL,Kerkrade,Kerkrade,Limburg,VBO,6.028360,50.851738
Grachterstraat,65,,,6465AL,Kerkrade,Kerkrade,Limburg,VBO,6.028415,50.851688
Grachterstraat,67,,,6465AL,Kerkrade,Kerkrade,Limburg,VBO,6.028471,50.851637
Grachterstraat,69,A,,6465AL,Kerkrade,Kerkrade,Limburg,VBO,6.028577,50.851597
Grachterstraat,69,,,6465AL,Kerkrade,Kerkrade,Limburg,VBO,6.028539,50.851576
Grachterstraat,71,,,6465AL,Kerkrade,Kerkrade,Limburg,VBO,6.028615,50.851508
Grachterstraat,73,,,6465AL,Kerkrade,Kerkrade,Limburg,VBO,6.028661,50.851464
Grachterstraat,75,,,6465AL,Kerkrade,Kerkrade,Limburg,VBO,6.028710,50.851420
Grachterstraat,77,,,6465AL,Kerkrade,Kerkrade,Limburg,VBO,6.028760,50.851376
Grachterstraat,79,,,6465AL,Kerkrade,Kerkrade,Limburg,VBO,6.028809,50.851331
Grachterstraat,81,,,6465AL,Kerkrade,Kerkrade,Limburg,VBO,6.028861,50.851285
Grachterstraat,83,,,6465AL,Kerkrade,Kerkrade,Limburg,VBO,6.028884,50.851204
Grachterstraat,85,,,6465AL,Kerkrade,Kerkrade,Limburg,VBO,6.028929,50.851163
Grachterstraat,87,,,6465AL,Kerkrade,Kerkrade,Limburg,VBO,6.028970,50.851126
Grachterstraat,89,A,,6465AL,Kerkrade,Kerkrade,Limburg,VBO,6.029053,50.851090
Grachterstraat,89,B,,6465AL,Kerkrade,Kerkrade,Limburg,VBO,6.029082,50.851107
Grachterstraat,89,,,6465AL,Kerkrade,Kerkrade,Limburg,VBO,6.029026,50.851076
Grachterstraat,91,,,6465AL,Kerkrade,Kerkrade,Limburg,VBO,6.029105,50.851006
Grachterstraat,93,,,6465AM,Kerkrade,Kerkrade,Limburg,VBO,6.029138,50.851022
Grachterstraat,95,,,6465AM,Kerkrade,Kerkrade,Limburg,VBO,6.029404,50.850797
Grachterstraat,105,G,1,6465AM,Kerkrade,Kerkrade,Limburg,VBO,6.029848,50.850841
Grachterstraat,105,G,10,6465AM,Kerkrade,Kerkrade,Limburg,VBO,6.030085,50.850745
Grachterstraat,105,G,11,6465AM,Kerkrade,Kerkrade,Limburg,VBO,6.030053,50.850730
Grachterstraat,105,G,12,6465AM,Kerkrade,Kerkrade,Limburg,VBO,6.030022,50.850714
Grachterstraat,105,G,2,6465AM,Kerkrade,Kerkrade,Limburg,VBO,6.029879,50.850857
Grachterstraat,105,G,3,6465AM,Kerkrade,Kerkrade,Limburg,VBO,6.029909,50.850872
Grachterstraat,105,G,4,6465AM,Kerkrade,Kerkrade,Limburg,VBO,6.029940,50.850888
Grachterstraat,105,G,5,6465AM,Kerkrade,Kerkrade,Limburg,VBO,6.029970,50.850903
Grachterstraat,105,G,6,6465AM,Kerkrade,Kerkrade,Limburg,VBO,6.030001,50.850919
Grachterstraat,105,G,7,6465AM,Kerkrade,Kerkrade,Limburg,VBO,6.030180,50.850792
Grachterstraat,105,G,8,6465AM,Kerkrade,Kerkrade,Limburg,VBO,6.030148,50.850776
Grachterstraat,105,G,9,6465AM,Kerkrade,Kerkrade,Limburg,VBO,6.030117,50.850761
Grachterstraat,105,,,6465AM,Kerkrade,Kerkrade,Limburg,VBO,6.029511,50.850701
Grachterstraat,107,,,6465AM,Kerkrade,Kerkrade,Limburg,VBO,6.029619,50.850582
Grachterstraat,109,,,6465AM,Kerkrade,Kerkrade,Limburg,VBO,6.029617,50.850519
Grachterstraat,111,,,6465AM,Kerkrade,Kerkrade,Limburg,VBO,6.029661,50.850476
Grachterstraat,113,,,6465AM,Kerkrade,Kerkrade,Limburg,VBO,6.029700,50.850439
Grachterstraat,115,,,6465AM,Kerkrade,Kerkrade,Limburg,VBO,6.029740,50.850400
Grachterstraat,117,,,6465AM,Kerkrade,Kerkrade,Limburg,VBO,6.029781,50.850361
Grachterstraat,119,,,6465AM,Kerkrade,Kerkrade,Limburg,VBO,6.029821,50.850322
Grachterstraat,121,,,6465AM,Kerkrade,Kerkrade,Limburg,VBO,6.029863,50.850281
Grachterstraat,123,,,6465AM,Kerkrade,Kerkrade,Limburg,VBO,6.029908,50.850237
Grachterstraat,125,,,6465AM,Kerkrade,Kerkrade,Limburg,VBO,6.029956,50.850191
Grachterstraat,127,,,6465AM,Kerkrade,Kerkrade,Limburg,VBO,6.030004,50.850145
Grachterstraat,4,,,6465AN,Kerkrade,Kerkrade,Limburg,VBO,6.026360,50.853243
Grachterstraat,6,,,6465AN,Kerkrade,Kerkrade,Limburg,VBO,6.026422,50.853147
Grachterstraat,8,,,6465AN,Kerkrade,Kerkrade,Limburg,VBO,6.026463,50.853110
Grachterstraat,10,,,6465AN,Kerkrade,Kerkrade,Limburg,VBO,6.026507,50.853019
Grachterstraat,12,,,6465AN,Kerkrade,Kerkrade,Limburg,VBO,6.026593,50.852916
Grachterstraat,14,,,6465AN,Kerkrade,Kerkrade,Limburg,VBO,6.026646,50.852867
Grachterstraat,16,,,6465AN,Kerkrade,Kerkrade,Limburg,VBO,6.026767,50.852774
Grachterstraat,18,,,6465AN,Kerkrade,Kerkrade,Limburg,VBO,6.026886,50.852649
Grachterstraat,20,,,6465AN,Kerkrade,Kerkrade,Limburg,VBO,6.026970,50.852570
Grachterstraat,22,,,6465AN,Kerkrade,Kerkrade,Limburg,VBO,6.027066,50.852472
Grachterstraat,24,,,6465AN,Kerkrade,Kerkrade,Limburg,VBO,6.027128,50.852416
Grachterstraat,26,,,6465AN,Kerkrade,Kerkrade,Limburg,VBO,6.027178,50.852370
Grachterstraat,30,,,6465AN,Kerkrade,Kerkrade,Limburg,VBO,6.027324,50.852235
Grachterstraat,32,,,6465AN,Kerkrade,Kerkrade,Limburg,VBO,6.027378,50.852186
Grachterstraat,34,,,6465AN,Kerkrade,Kerkrade,Limburg,VBO,6.027512,50.852063
Grachterstraat,36,,,6465AN,Kerkrade,Kerkrade,Limburg,VBO,6.027568,50.852011
Grachterstraat,56,,,6465AN,Kerkrade,Kerkrade,Limburg,VBO,6.027799,50.851764
Grachterstraat,62,,,6465AP,Kerkrade,Kerkrade,Limburg,VBO,6.028525,50.851079
Grachterstraat,64,,,6465AP,Kerkrade,Kerkrade,Limburg,VBO,6.028768,50.851047
Grachterstraat,66,,,6465AP,Kerkrade,Kerkrade,Limburg,VBO,6.028818,50.851002
Grachterstraat,74,,,6465AP,Kerkrade,Kerkrade,Limburg,VBO,6.028892,50.850847
Grachterstraat,76,,,6465AP,Kerkrade,Kerkrade,Limburg,VBO,6.029044,50.850709
Grachterstraat,78,,,6465AP,Kerkrade,Kerkrade,Limburg,VBO,6.029182,50.850563
Grachterstraat,80,,,6465AP,Kerkrade,Kerkrade,Limburg,VBO,6.029453,50.850312
Grachterstraat,82,,,6465AP,Kerkrade,Kerkrade,Limburg,VBO,6.029594,50.850180
Grachterstraat,84,,,6465AP,Kerkrade,Kerkrade,Limburg,VBO,6.029672,50.850109
Agatha-Gracht,1,,,6465AR,Kerkrade,Kerkrade,Limburg,VBO,6.029161,50.850167
Agatha-Gracht,2,,,6465AR,Kerkrade,Kerkrade,Limburg,VBO,6.029073,50.850128
Agatha-Gracht,3,,,6465AR,Kerkrade,Kerkrade,Limburg,VBO,6.028998,50.850095
Agatha-Gracht,4,,,6465AR,Kerkrade,Kerkrade,Limburg,VBO,6.028924,50.850063
Agatha-Gracht,5,,,6465AR,Kerkrade,Kerkrade,Limburg,VBO,6.028836,50.850045
Agatha-Gracht,6,A,,6465AR,Kerkrade,Kerkrade,Limburg,VBO,6.028782,50.849977
Agatha-Gracht,6,,,6465AR,Kerkrade,Kerkrade,Limburg,VBO,6.028766,50.849993
Agatha-Gracht,7,,,6465AR,Kerkrade,Kerkrade,Limburg,VBO,6.028838,50.849762
Agatha-Gracht,8,,,6465AR,Kerkrade,Kerkrade,Limburg,VBO,6.028775,50.849734
Agatha-Gracht,9,,,6465AR,Kerkrade,Kerkrade,Limburg,VBO,6.028700,50.849701
Agatha-Gracht,10,,,6465AR,Kerkrade,Kerkrade,Limburg,VBO,6.028632,50.849671
Agatha-Gracht,11,,,6465AR,Kerkrade,Kerkrade,Limburg,VBO,6.028554,50.849637
Agatha-Gracht,12,,,6465AR,Kerkrade,Kerkrade,Limburg,VBO,6.028483,50.849605
Agatha-Gracht,13,,,6465AR,Kerkrade,Kerkrade,Limburg,VBO,6.028054,50.849315
Agatha-Gracht,14,,,6465AR,Kerkrade,Kerkrade,Limburg,VBO,6.028005,50.849360
Agatha-Gracht,15,,,6465AR,Kerkrade,Kerkrade,Limburg,VBO,6.027953,50.849408
Agatha-Gracht,16,,,6465AR,Kerkrade,Kerkrade,Limburg,VBO,6.027901,50.849455
Agatha-Gracht,17,,,6465AR,Kerkrade,Kerkrade,Limburg,VBO,6.027848,50.849503
Agatha-Gracht,18,,,6465AR,Kerkrade,Kerkrade,Limburg,VBO,6.027801,50.849545
Agatha-Gracht,19,,,6465AR,Kerkrade,Kerkrade,Limburg,VBO,6.027763,50.849616
Agatha-Gracht,20,,,6465AR,Kerkrade,Kerkrade,Limburg,VBO,6.027723,50.849654
Agatha-Gracht,21,,,6465AR,Kerkrade,Kerkrade,Limburg,VBO,6.027668,50.849704
Agatha-Gracht,22,,,6465AS,Kerkrade,Kerkrade,Limburg,VBO,6.027841,50.849779
Agatha-Gracht,23,,,6465AS,Kerkrade,Kerkrade,Limburg,VBO,6.027911,50.849806
Agatha-Gracht,24,,,6465AS,Kerkrade,Kerkrade,Limburg,VBO,6.027986,50.849839
Agatha-Gracht,25,,,6465AS,Kerkrade,Kerkrade,Limburg,VBO,6.028097,50.849835
Agatha-Gracht,26,,,6465AS,Kerkrade,Kerkrade,Limburg,VBO,6.028170,50.849867
Agatha-Gracht,27,,TR,6465AS,Kerkrade,Kerkrade,Limburg,VBO,6.028451,50.849897
Agatha-Gracht,27,,,6465AS,Kerkrade,Kerkrade,Limburg,VBO,6.028382,50.849934
Agatha-Gracht,28,,,6465AS,Kerkrade,Kerkrade,Limburg,VBO,6.028329,50.849982
Agatha-Gracht,29,,,6465AS,Kerkrade,Kerkrade,Limburg,VBO,6.028277,50.850030
Agatha-Gracht,30,,,6465AS,Kerkrade,Kerkrade,Limburg,VBO,6.028127,50.850066
Agatha-Gracht,31,,,6465AS,Kerkrade,Kerkrade,Limburg,VBO,6.028082,50.850108
Agatha-Gracht,32,,,6465AS,Kerkrade,Kerkrade,Limburg,VBO,6.028032,50.850153
Agatha-Gracht,33,,,6465AS,Kerkrade,Kerkrade,Limburg,VBO,6.027980,50.850200
Agatha-Gracht,34,,,6465AS,Kerkrade,Kerkrade,Limburg,VBO,6.027928,50.850247
Agatha-Gracht,35,,,6465AS,Kerkrade,Kerkrade,Limburg,VBO,6.027876,50.850295
Agatha-Gracht,36,,,6465AS,Kerkrade,Kerkrade,Limburg,VBO,6.027998,50.850482
Agatha-Gracht,37,,,6465AS,Kerkrade,Kerkrade,Limburg,VBO,6.028064,50.850511
Agatha-Gracht,38,,,6465AS,Kerkrade,Kerkrade,Limburg,VBO,6.028139,50.850544
Agatha-Gracht,39,,,6465AS,Kerkrade,Kerkrade,Limburg,VBO,6.028214,50.850577
Agatha-Gracht,40,,,6465AS,Kerkrade,Kerkrade,Limburg,VBO,6.028289,50.850610
Akerstraat,89,,TR,6465AS,Kerkrade,Kerkrade,Limburg,VBO,6.025034,50.858676
Agatha-Gracht,41,,,6465AT,Kerkrade,Kerkrade,Limburg,VBO,6.028449,50.850677
Agatha-Gracht,42,,,6465AT,Kerkrade,Kerkrade,Limburg,VBO,6.028490,50.850639
Agatha-Gracht,43,,,6465AT,Kerkrade,Kerkrade,Limburg,VBO,6.028542,50.850592
Agatha-Gracht,44,,,6465AT,Kerkrade,Kerkrade,Limburg,VBO,6.028551,50.850517
Agatha-Gracht,45,,,6465AT,Kerkrade,Kerkrade,Limburg,VBO,6.028596,50.850476
Agatha-Gracht,46,,,6465AT,Kerkrade,Kerkrade,Limburg,VBO,6.028648,50.850429
Agatha-Gracht,47,,,6465AT,Kerkrade,Kerkrade,Limburg,VBO,6.028700,50.850381
Agatha-Gracht,48,,,6465AT,Kerkrade,Kerkrade,Limburg,VBO,6.028753,50.850334
St.Bernadettestraat,13,,BW1,6465AV,Kerkrade,Kerkrade,Limburg,VBO,6.026997,50.850894
St.Bernadettestraat,19,,,6465AV,Kerkrade,Kerkrade,Limburg,VBO,6.025676,50.850558
St.Bernadettestraat,21,,,6465AV,Kerkrade,Kerkrade,Limburg,VBO,6.025727,50.850509
St.Bernadettestraat,23,,,6465AV,Kerkrade,Kerkrade,Limburg,VBO,6.025777,50.850463
St.Bernadettestraat,25,,,6465AV,Kerkrade,Kerkrade,Limburg,VBO,6.025589,50.850493
St.Bernadettestraat,27,,,6465AV,Kerkrade,Kerkrade,Limburg,VBO,6.025524,50.850466
St.Bernadettestraat,29,,,6465AV,Kerkrade,Kerkrade,Limburg,VBO,6.025447,50.850434
St.Bernadettestraat,31,,,6465AV,Kerkrade,Kerkrade,Limburg,VBO,6.025367,50.850401
St.Bernadettestraat,33,,,6465AV,Kerkrade,Kerkrade,Limburg,VBO,6.025308,50.850344
St.Bernadettestraat,35,,,6465AV,Kerkrade,Kerkrade,Limburg,VBO,6.025245,50.850318
St.Bernadettestraat,37,,,6465AV,Kerkrade,Kerkrade,Limburg,VBO,6.025169,50.850286
St.Bernadettestraat,39,,,6465AV,Kerkrade,Kerkrade,Limburg,VBO,6.025093,50.850255
St.Bernadettestraat,41,,,6465AV,Kerkrade,Kerkrade,Limburg,VBO,6.025013,50.850222
St.Bernadettestraat,43,,,6465AV,Kerkrade,Kerkrade,Limburg,VBO,6.024880,50.850166
St.Bernadettestraat,45,,,6465AV,Kerkrade,Kerkrade,Limburg,VBO,6.024817,50.850140
St.Bernadettestraat,47,,,6465AV,Kerkrade,Kerkrade,Limburg,VBO,6.024742,50.850109
St.Bernadettestraat,49,,,6465AV,Kerkrade,Kerkrade,Limburg,VBO,6.024666,50.850077
St.Bernadettestraat,51,,,6465AV,Kerkrade,Kerkrade,Limburg,VBO,6.024562,50.850055
St.Bernadettestraat,53,,,6465AV,Kerkrade,Kerkrade,Limburg,VBO,6.024500,50.850030
St.Bernadettestraat,55,,,6465AV,Kerkrade,Kerkrade,Limburg,VBO,6.024425,50.849999
St.Bernadettestraat,57,,,6465AV,Kerkrade,Kerkrade,Limburg,VBO,6.024349,50.849967
St.Bernadettestraat,59,,,6465AV,Kerkrade,Kerkrade,Limburg,VBO,6.024246,50.849945
St.Bernadettestraat,61,,,6465AV,Kerkrade,Kerkrade,Limburg,VBO,6.024179,50.849918
St.Bernadettestraat,63,,,6465AV,Kerkrade,Kerkrade,Limburg,VBO,6.024106,50.849887
St.Bernadettestraat,65,,,6465AV,Kerkrade,Kerkrade,Limburg,VBO,6.024029,50.849855
St.Bernadettestraat,6,,,6465AW,Kerkrade,Kerkrade,Limburg,VBO,6.026712,50.851107
St.Bernadettestraat,8,,,6465AW,Kerkrade,Kerkrade,Limburg,VBO,6.026631,50.851087
St.Bernadettestraat,10,,,6465AW,Kerkrade,Kerkrade,Limburg,VBO,6.026543,50.851065
St.Bernadettestraat,12,,,6465AW,Kerkrade,Kerkrade,Limburg,VBO,6.026462,50.851045
St.Bernadettestraat,14,,,6465AW,Kerkrade,Kerkrade,Limburg,VBO,6.026102,50.850965
St.Bernadettestraat,16,,,6465AW,Kerkrade,Kerkrade,Limburg,VBO,6.026003,50.850940
St.Bernadettestraat,18,,,6465AW,Kerkrade,Kerkrade,Limburg,VBO,6.025903,50.850916
St.Bernadettestraat,20,,,6465AW,Kerkrade,Kerkrade,Limburg,VBO,6.025801,50.850890
St.Bernadettestraat,22,,,6465AW,Kerkrade,Kerkrade,Limburg,VBO,6.025701,50.850865
St.Bernadettestraat,24,,,6465AW,Kerkrade,Kerkrade,Limburg,VBO,6.025602,50.850841
St.Bernadettestraat,26,,,6465AW,Kerkrade,Kerkrade,Limburg,VBO,6.025232,50.850726
St.Bernadettestraat,28,,,6465AW,Kerkrade,Kerkrade,Limburg,VBO,6.025068,50.850659
St.Bernadettestraat,30,,,6465AW,Kerkrade,Kerkrade,Limburg,VBO,6.024995,50.850629
St.Bernadettestraat,32,,,6465AW,Kerkrade,Kerkrade,Limburg,VBO,6.024837,50.850564
St.Bernadettestraat,34,,,6465AW,Kerkrade,Kerkrade,Limburg,VBO,6.024759,50.850538
St.Bernadettestraat,36,,,6465AW,Kerkrade,Kerkrade,Limburg,VBO,6.024513,50.850386
St.Bernadettestraat,38,,,6465AW,Kerkrade,Kerkrade,Limburg,VBO,6.024440,50.850356
St.Bernadettestraat,40,,,6465AW,Kerkrade,Kerkrade,Limburg,VBO,6.024302,50.850299
St.Bernadettestraat,42,,,6465AW,Kerkrade,Kerkrade,Limburg,VBO,6.024228,50.850268
St.Bernadettestraat,44,,,6465AW,Kerkrade,Kerkrade,Limburg,VBO,6.024090,50.850211
St.Bernadettestraat,46,,,6465AW,Kerkrade,Kerkrade,Limburg,VBO,6.024017,50.850180
Alexander-Eik,1,,,6465AX,Kerkrade,Kerkrade,Limburg,VBO,6.026154,50.850718
Alexander-Eik,2,,,6465AX,Kerkrade,Kerkrade,Limburg,VBO,6.026204,50.850673
Alexander-Eik,3,,,6465AX,Kerkrade,Kerkrade,Limburg,VBO,6.026256,50.850626
Alexander-Eik,4,,,6465AX,Kerkrade,Kerkrade,Limburg,VBO,6.026308,50.850578
Alexander-Eik,5,,,6465AX,Kerkrade,Kerkrade,Limburg,VBO,6.026363,50.850528
Alexander-Eik,6,,,6465AX,Kerkrade,Kerkrade,Limburg,VBO,6.026450,50.850496
Alexander-Eik,7,,,6465AX,Kerkrade,Kerkrade,Limburg,VBO,6.026472,50.850446
Alexander-Eik,8,,,6465AX,Kerkrade,Kerkrade,Limburg,VBO,6.026552,50.850403
Alexander-Eik,9,,,6465AX,Kerkrade,Kerkrade,Limburg,VBO,6.026603,50.850357
Alexander-Eik,10,,,6465AX,Kerkrade,Kerkrade,Limburg,VBO,6.026671,50.850295
Alexander-Eik,11,,,6465AX,Kerkrade,Kerkrade,Limburg,VBO,6.026724,50.850247
Alexander-Eik,12,,,6465AX,Kerkrade,Kerkrade,Limburg,VBO,6.026774,50.850203
Alexander-Eik,13,,,6465AX,Kerkrade,Kerkrade,Limburg,VBO,6.026886,50.850097
Alexander-Eik,14,,,6465AX,Kerkrade,Kerkrade,Limburg,VBO,6.026823,50.850069
Alexander-Eik,15,,,6465AX,Kerkrade,Kerkrade,Limburg,VBO,6.026749,50.850036
Alexander-Eik,16,,,6465AX,Kerkrade,Kerkrade,Limburg,VBO,6.026676,50.850004
Alexander-Eik,17,,,6465AX,Kerkrade,Kerkrade,Limburg,VBO,6.026602,50.849971
Alexander-Eik,18,,,6465AX,Kerkrade,Kerkrade,Limburg,VBO,6.026528,50.849938
Alexander-Eik,19,,,6465AX,Kerkrade,Kerkrade,Limburg,VBO,6.026454,50.849906
Alexander-Eik,20,,,6465AZ,Kerkrade,Kerkrade,Limburg,VBO,6.026369,50.849889
Alexander-Eik,21,,,6465AZ,Kerkrade,Kerkrade,Limburg,VBO,6.026297,50.849836
Alexander-Eik,22,,,6465AZ,Kerkrade,Kerkrade,Limburg,VBO,6.026234,50.849809
Alexander-Eik,23,,,6465AZ,Kerkrade,Kerkrade,Limburg,VBO,6.026063,50.849735
Alexander-Eik,24,,,6465AZ,Kerkrade,Kerkrade,Limburg,VBO,6.026018,50.849776
Alexander-Eik,25,,,6465AZ,Kerkrade,Kerkrade,Limburg,VBO,6.025966,50.849823
Alexander-Eik,26,,,6465AZ,Kerkrade,Kerkrade,Limburg,VBO,6.025938,50.849888
Alexander-Eik,27,,,6465AZ,Kerkrade,Kerkrade,Limburg,VBO,6.025892,50.849930
Alexander-Eik,28,,,6465AZ,Kerkrade,Kerkrade,Limburg,VBO,6.025840,50.849978
Alexander-Eik,29,,,6465AZ,Kerkrade,Kerkrade,Limburg,VBO,6.026068,50.850192
Alexander-Eik,30,,,6465AZ,Kerkrade,Kerkrade,Limburg,VBO,6.026024,50.850232
Alexander-Eik,31,,,6465AZ,Kerkrade,Kerkrade,Limburg,VBO,6.025970,50.850282
Alexander-Eik,32,,,6465AZ,Kerkrade,Kerkrade,Limburg,VBO,6.025921,50.850327
Alexander-Eik,33,,,6465AZ,Kerkrade,Kerkrade,Limburg,VBO,6.025869,50.850374
St.Eugeniusstraat,1,,,6465BA,Kerkrade,Kerkrade,Limburg,VBO,6.025690,50.852955
St.Eugeniusstraat,3,,,6465BA,Kerkrade,Kerkrade,Limburg,VBO,6.025724,50.852906
St.Eugeniusstraat,5,,,6465BA,Kerkrade,Kerkrade,Limburg,VBO,6.025760,50.852855
St.Eugeniusstraat,7,,,6465BA,Kerkrade,Kerkrade,Limburg,VBO,6.025796,50.852803
St.Eugeniusstraat,9,,,6465BA,Kerkrade,Kerkrade,Limburg,VBO,6.025870,50.852696
St.Eugeniusstraat,11,,,6465BA,Kerkrade,Kerkrade,Limburg,VBO,6.025917,50.852651
St.Eugeniusstraat,13,,,6465BA,Kerkrade,Kerkrade,Limburg,VBO,6.025964,50.852606
St.Eugeniusstraat,15,,,6465BA,Kerkrade,Kerkrade,Limburg,VBO,6.026013,50.852559
St.Eugeniusstraat,17,,,6465BA,Kerkrade,Kerkrade,Limburg,VBO,6.026105,50.852482
St.Eugeniusstraat,19,,,6465BA,Kerkrade,Kerkrade,Limburg,VBO,6.026155,50.852436
St.Eugeniusstraat,21,,,6465BA,Kerkrade,Kerkrade,Limburg,VBO,6.026206,50.852390
St.Eugeniusstraat,23,,,6465BA,Kerkrade,Kerkrade,Limburg,VBO,6.026254,50.852346
St.Eugeniusstraat,25,,,6465BA,Kerkrade,Kerkrade,Limburg,VBO,6.026347,50.852259
St.Eugeniusstraat,27,,,6465BA,Kerkrade,Kerkrade,Limburg,VBO,6.026395,50.852212
St.Eugeniusstraat,29,,,6465BA,Kerkrade,Kerkrade,Limburg,VBO,6.026443,50.852165
St.Eugeniusstraat,31,,,6465BA,Kerkrade,Kerkrade,Limburg,VBO,6.026494,50.852115
St.Eugeniusstraat,33,,,6465BA,Kerkrade,Kerkrade,Limburg,VBO,6.026572,50.852036
St.Eugeniusstraat,35,,,6465BA,Kerkrade,Kerkrade,Limburg,VBO,6.026619,50.851988
St.Eugeniusstraat,37,,,6465BA,Kerkrade,Kerkrade,Limburg,VBO,6.026665,50.851940
St.Eugeniusstraat,39,,,6465BA,Kerkrade,Kerkrade,Limburg,VBO,6.026711,50.851893
St.Eugeniusstraat,2,,,6465BB,Kerkrade,Kerkrade,Limburg,VBO,6.025527,50.852645
St.Eugeniusstraat,4,,,6465BB,Kerkrade,Kerkrade,Limburg,VBO,6.025575,50.852597
St.Eugeniusstraat,6,,,6465BB,Kerkrade,Kerkrade,Limburg,VBO,6.025624,50.852550
St.Eugeniusstraat,8,,,6465BB,Kerkrade,Kerkrade,Limburg,VBO,6.025672,50.852503
St.Eugeniusstraat,10,,,6465BB,Kerkrade,Kerkrade,Limburg,VBO,6.025758,50.852420
St.Eugeniusstraat,12,,,6465BB,Kerkrade,Kerkrade,Limburg,VBO,6.025806,50.852373
St.Eugeniusstraat,14,,,6465BB,Kerkrade,Kerkrade,Limburg,VBO,6.025855,50.852326
St.Eugeniusstraat,16,,,6465BB,Kerkrade,Kerkrade,Limburg,VBO,6.025903,50.852279
St.Eugeniusstraat,18,,,6465BB,Kerkrade,Kerkrade,Limburg,VBO,6.025976,50.852185
St.Eugeniusstraat,20,,,6465BB,Kerkrade,Kerkrade,Limburg,VBO,6.026027,50.852136
St.Eugeniusstraat,22,,,6465BB,Kerkrade,Kerkrade,Limburg,VBO,6.026075,50.852088
St.Eugeniusstraat,24,,,6465BB,Kerkrade,Kerkrade,Limburg,VBO,6.026124,50.852041
St.Eugeniusstraat,26,,,6465BB,Kerkrade,Kerkrade,Limburg,VBO,6.026202,50.851965
St.Eugeniusstraat,28,,,6465BB,Kerkrade,Kerkrade,Limburg,VBO,6.026250,50.851918
St.Eugeniusstraat,30,,,6465BC,Kerkrade,Kerkrade,Limburg,VBO,6.026298,50.851871
St.Eugeniusstraat,32,,,6465BC,Kerkrade,Kerkrade,Limburg,VBO,6.026347,50.851824
St.Eugeniusstraat,34,,,6465BC,Kerkrade,Kerkrade,Limburg,VBO,6.026446,50.851734
St.Eugeniusstraat,36,,,6465BC,Kerkrade,Kerkrade,Limburg,VBO,6.026494,50.851688
St.Eugeniusstraat,38,,,6465BC,Kerkrade,Kerkrade,Limburg,VBO,6.026543,50.851643
St.Eugeniusstraat,40,,,6465BC,Kerkrade,Kerkrade,Limburg,VBO,6.026592,50.851597
St.Eugeniusstraat,42,,,6465BC,Kerkrade,Kerkrade,Limburg,VBO,6.026641,50.851552
St.Eugeniusstraat,44,,,6465BC,Kerkrade,Kerkrade,Limburg,VBO,6.026690,50.851506
St.Eugeniusstraat,46,,,6465BC,Kerkrade,Kerkrade,Limburg,VBO,6.026783,50.851415
St.Eugeniusstraat,48,,,6465BC,Kerkrade,Kerkrade,Limburg,VBO,6.026829,50.851368
St.Eugeniusstraat,50,,,6465BC,Kerkrade,Kerkrade,Limburg,VBO,6.026874,50.851321
St.Eugeniusstraat,52,,,6465BC,Kerkrade,Kerkrade,Limburg,VBO,6.026920,50.851274
St.Eugeniusstraat,54,,,6465BC,Kerkrade,Kerkrade,Limburg,VBO,6.026965,50.851228
St.Eugeniusstraat,56,,,6465BC,Kerkrade,Kerkrade,Limburg,VBO,6.027011,50.851181
St.Corneliusstraat,1,,,6465BD,Kerkrade,Kerkrade,Limburg,VBO,6.025104,50.852381
St.Corneliusstraat,3,,,6465BD,Kerkrade,Kerkrade,Limburg,VBO,6.025149,50.852337
St.Corneliusstraat,5,,,6465BD,Kerkrade,Kerkrade,Limburg,VBO,6.025197,50.852291
St.Corneliusstraat,7,,,6465BD,Kerkrade,Kerkrade,Limburg,VBO,6.025245,50.852244
St.Corneliusstraat,9,,,6465BD,Kerkrade,Kerkrade,Limburg,VBO,6.025330,50.852166
St.Corneliusstraat,11,,,6465BD,Kerkrade,Kerkrade,Limburg,VBO,6.025379,50.852123
St.Corneliusstraat,13,,,6465BD,Kerkrade,Kerkrade,Limburg,VBO,6.025428,50.852081
St.Corneliusstraat,15,,,6465BD,Kerkrade,Kerkrade,Limburg,VBO,6.025479,50.852036
St.Corneliusstraat,17,,,6465BD,Kerkrade,Kerkrade,Limburg,VBO,6.025569,50.851955
St.Corneliusstraat,19,,,6465BD,Kerkrade,Kerkrade,Limburg,VBO,6.025617,50.851909
St.Corneliusstraat,21,,,6465BD,Kerkrade,Kerkrade,Limburg,VBO,6.025664,50.851862
St.Corneliusstraat,23,,,6465BD,Kerkrade,Kerkrade,Limburg,VBO,6.025710,50.851818
St.Corneliusstraat,25,,,6465BD,Kerkrade,Kerkrade,Limburg,VBO,6.025790,50.851740
St.Corneliusstraat,27,,,6465BD,Kerkrade,Kerkrade,Limburg,VBO,6.025838,50.851694
St.Corneliusstraat,29,,,6465BD,Kerkrade,Kerkrade,Limburg,VBO,6.025886,50.851647
St.Corneliusstraat,31,,,6465BD,Kerkrade,Kerkrade,Limburg,VBO,6.025936,50.851599
St.Corneliusstraat,33,,,6465BD,Kerkrade,Kerkrade,Limburg,VBO,6.026019,50.851516
St.Corneliusstraat,35,,,6465BD,Kerkrade,Kerkrade,Limburg,VBO,6.026063,50.851469
St.Corneliusstraat,37,,,6465BD,Kerkrade,Kerkrade,Limburg,VBO,6.026108,50.851422
St.Corneliusstraat,39,,,6465BD,Kerkrade,Kerkrade,Limburg,VBO,6.026152,50.851375
St.Corneliusstraat,41,,,6465BD,Kerkrade,Kerkrade,Limburg,VBO,6.026199,50.851326
St.Corneliusstraat,43,,,6465BD,Kerkrade,Kerkrade,Limburg,VBO,6.026241,50.851281
St.Corneliusstraat,2,,,6465BE,Kerkrade,Kerkrade,Limburg,VBO,6.024803,50.852283
St.Corneliusstraat,4,,,6465BE,Kerkrade,Kerkrade,Limburg,VBO,6.024848,50.852236
St.Corneliusstraat,6,,,6465BE,Kerkrade,Kerkrade,Limburg,VBO,6.024893,50.852189
St.Corneliusstraat,8,,,6465BE,Kerkrade,Kerkrade,Limburg,VBO,6.024938,50.852142
St.Corneliusstraat,10,,,6465BE,Kerkrade,Kerkrade,Limburg,VBO,6.024987,50.852090
St.Corneliusstraat,12,,,6465BE,Kerkrade,Kerkrade,Limburg,VBO,6.025032,50.852043
St.Corneliusstraat,14,,,6465BE,Kerkrade,Kerkrade,Limburg,VBO,6.025117,50.851959
St.Corneliusstraat,16,,,6465BE,Kerkrade,Kerkrade,Limburg,VBO,6.025164,50.851912
St.Corneliusstraat,18,,,6465BE,Kerkrade,Kerkrade,Limburg,VBO,6.025210,50.851866
St.Corneliusstraat,20,,,6465BE,Kerkrade,Kerkrade,Limburg,VBO,6.025259,50.851818
St.Corneliusstraat,22,,,6465BE,Kerkrade,Kerkrade,Limburg,VBO,6.025305,50.851771
St.Corneliusstraat,24,,,6465BE,Kerkrade,Kerkrade,Limburg,VBO,6.025352,50.851725
St.Corneliusstraat,26,,,6465BE,Kerkrade,Kerkrade,Limburg,VBO,6.025429,50.851649
St.Corneliusstraat,28,,,6465BE,Kerkrade,Kerkrade,Limburg,VBO,6.025477,50.851603
St.Corneliusstraat,30,,,6465BE,Kerkrade,Kerkrade,Limburg,VBO,6.025524,50.851557
St.Corneliusstraat,32,,,6465BE,Kerkrade,Kerkrade,Limburg,VBO,6.025571,50.851511
St.Corneliusstraat,34,,,6465BE,Kerkrade,Kerkrade,Limburg,VBO,6.025683,50.851405
St.Corneliusstraat,36,,,6465BE,Kerkrade,Kerkrade,Limburg,VBO,6.025732,50.851360
St.Corneliusstraat,38,,,6465BE,Kerkrade,Kerkrade,Limburg,VBO,6.025782,50.851315
St.Corneliusstraat,40,,,6465BE,Kerkrade,Kerkrade,Limburg,VBO,6.025832,50.851269
St.Corneliusstraat,42,,,6465BE,Kerkrade,Kerkrade,Limburg,VBO,6.025881,50.851224
St.Corneliusstraat,44,,,6465BE,Kerkrade,Kerkrade,Limburg,VBO,6.025931,50.851179
St.Joannesstraat,1,,,6465BG,Kerkrade,Kerkrade,Limburg,VBO,6.024381,50.852034
St.Joannesstraat,3,,,6465BG,Kerkrade,Kerkrade,Limburg,VBO,6.024426,50.851990
St.Joannesstraat,5,,,6465BG,Kerkrade,Kerkrade,Limburg,VBO,6.024474,50.851944
St.Joannesstraat,7,,,6465BG,Kerkrade,Kerkrade,Limburg,VBO,6.024521,50.851897
St.Joannesstraat,9,,,6465BG,Kerkrade,Kerkrade,Limburg,VBO,6.024608,50.851813
St.Joannesstraat,11,,,6465BG,Kerkrade,Kerkrade,Limburg,VBO,6.024654,50.851769
St.Joannesstraat,13,,,6465BG,Kerkrade,Kerkrade,Limburg,VBO,6.024699,50.851725
St.Joannesstraat,15,,,6465BG,Kerkrade,Kerkrade,Limburg,VBO,6.024746,50.851679
St.Joannesstraat,17,,,6465BG,Kerkrade,Kerkrade,Limburg,VBO,6.024830,50.851598
St.Joannesstraat,19,,,6465BG,Kerkrade,Kerkrade,Limburg,VBO,6.024877,50.851552
St.Joannesstraat,21,,,6465BG,Kerkrade,Kerkrade,Limburg,VBO,6.024925,50.851505
St.Joannesstraat,23,,,6465BG,Kerkrade,Kerkrade,Limburg,VBO,6.024970,50.851461
St.Joannesstraat,25,,,6465BG,Kerkrade,Kerkrade,Limburg,VBO,6.025054,50.851378
St.Joannesstraat,27,,,6465BG,Kerkrade,Kerkrade,Limburg,VBO,6.025101,50.851332
St.Joannesstraat,29,,,6465BG,Kerkrade,Kerkrade,Limburg,VBO,6.025148,50.851286
St.Joannesstraat,31,,,6465BG,Kerkrade,Kerkrade,Limburg,VBO,6.025197,50.851237
St.Joannesstraat,33,,,6465BG,Kerkrade,Kerkrade,Limburg,VBO,6.025279,50.851157
St.Joannesstraat,35,,,6465BG,Kerkrade,Kerkrade,Limburg,VBO,6.025326,50.851111
St.Joannesstraat,37,,,6465BG,Kerkrade,Kerkrade,Limburg,VBO,6.025372,50.851065
St.Joannesstraat,39,,,6465BG,Kerkrade,Kerkrade,Limburg,VBO,6.025419,50.851019
St.Joannesstraat,2,,,6465BH,Kerkrade,Kerkrade,Limburg,VBO,6.024132,50.851837
St.Joannesstraat,4,,,6465BH,Kerkrade,Kerkrade,Limburg,VBO,6.024179,50.851791
St.Joannesstraat,6,,,6465BH,Kerkrade,Kerkrade,Limburg,VBO,6.024226,50.851745
St.Joannesstraat,8,,,6465BH,Kerkrade,Kerkrade,Limburg,VBO,6.024274,50.851700
St.Joannesstraat,10,,,6465BH,Kerkrade,Kerkrade,Limburg,VBO,6.024355,50.851621
St.Joannesstraat,12,,,6465BH,Kerkrade,Kerkrade,Limburg,VBO,6.024402,50.851575
St.Joannesstraat,14,,,6465BH,Kerkrade,Kerkrade,Limburg,VBO,6.024450,50.851529
St.Joannesstraat,16,G,1,6465BH,Kerkrade,Kerkrade,Limburg,VBO,6.024517,50.851412
St.Joannesstraat,16,G,2,6465BH,Kerkrade,Kerkrade,Limburg,VBO,6.024479,50.851396
St.Joannesstraat,16,G,3,6465BH,Kerkrade,Kerkrade,Limburg,VBO,6.024440,50.851380
St.Joannesstraat,16,G,4,6465BH,Kerkrade,Kerkrade,Limburg,VBO,6.024401,50.851364
St.Joannesstraat,16,G,5,6465BH,Kerkrade,Kerkrade,Limburg,VBO,6.024363,50.851348
St.Joannesstraat,16,,,6465BH,Kerkrade,Kerkrade,Limburg,VBO,6.024497,50.851483
St.Joannesstraat,18,G,1,6465BH,Kerkrade,Kerkrade,Limburg,VBO,6.024620,50.851314
St.Joannesstraat,18,G,2,6465BH,Kerkrade,Kerkrade,Limburg,VBO,6.024581,50.851298
St.Joannesstraat,18,G,3,6465BH,Kerkrade,Kerkrade,Limburg,VBO,6.024542,50.851282
St.Joannesstraat,18,G,4,6465BH,Kerkrade,Kerkrade,Limburg,VBO,6.024504,50.851266
St.Joannesstraat,18,G,5,6465BH,Kerkrade,Kerkrade,Limburg,VBO,6.024465,50.851250
St.Joannesstraat,18,,,6465BH,Kerkrade,Kerkrade,Limburg,VBO,6.024716,50.851272
St.Joannesstraat,20,,,6465BH,Kerkrade,Kerkrade,Limburg,VBO,6.024766,50.851224
St.Joannesstraat,22,,,6465BH,Kerkrade,Kerkrade,Limburg,VBO,6.024813,50.851178
St.Joannesstraat,24,,,6465BH,Kerkrade,Kerkrade,Limburg,VBO,6.024860,50.851132
St.Joannesstraat,26,,,6465BH,Kerkrade,Kerkrade,Limburg,VBO,6.024941,50.851054
St.Joannesstraat,28,,,6465BH,Kerkrade,Kerkrade,Limburg,VBO,6.024989,50.851008
St.Joannesstraat,30,,,6465BH,Kerkrade,Kerkrade,Limburg,VBO,6.025036,50.850962
St.Joannesstraat,32,,,6465BH,Kerkrade,Kerkrade,Limburg,VBO,6.025083,50.850917
Massabiellestraat,1,G,1,6465BJ,Kerkrade,Kerkrade,Limburg,VBO,6.024264,50.851188
Massabiellestraat,1,G,2,6465BJ,Kerkrade,Kerkrade,Limburg,VBO,6.024303,50.851204
Massabiellestraat,1,G,3,6465BJ,Kerkrade,Kerkrade,Limburg,VBO,6.024342,50.851220
Massabiellestraat,1,G,4,6465BJ,Kerkrade,Kerkrade,Limburg,VBO,6.024380,50.851236
Massabiellestraat,1,,TR,6465BJ,Kerkrade,Kerkrade,Limburg,VBO,6.024230,50.851171
Massabiellestraat,1,,,6465BJ,Kerkrade,Kerkrade,Limburg,VBO,6.024253,50.851096
Massabiellestraat,3,,,6465BJ,Kerkrade,Kerkrade,Limburg,VBO,6.024298,50.851052
Massabiellestraat,5,,,6465BJ,Kerkrade,Kerkrade,Limburg,VBO,6.024346,50.851006
Massabiellestraat,7,,,6465BJ,Kerkrade,Kerkrade,Limburg,VBO,6.024393,50.850960
Massabiellestraat,9,,,6465BJ,Kerkrade,Kerkrade,Limburg,VBO,6.024415,50.850857
Massabiellestraat,11,,,6465BJ,Kerkrade,Kerkrade,Limburg,VBO,6.024460,50.850814
Massabiellestraat,13,,,6465BJ,Kerkrade,Kerkrade,Limburg,VBO,6.024505,50.850770
Massabiellestraat,15,,,6465BJ,Kerkrade,Kerkrade,Limburg,VBO,6.024552,50.850725
Massabiellestraat,17,,,6465BJ,Kerkrade,Kerkrade,Limburg,VBO,6.024395,50.850549
Massabiellestraat,19,,,6465BJ,Kerkrade,Kerkrade,Limburg,VBO,6.024348,50.850595
Massabiellestraat,21,,,6465BJ,Kerkrade,Kerkrade,Limburg,VBO,6.024300,50.850641
Massabiellestraat,23,,,6465BJ,Kerkrade,Kerkrade,Limburg,VBO,6.024255,50.850684
Massabiellestraat,25,,,6465BJ,Kerkrade,Kerkrade,Limburg,VBO,6.024114,50.850738
Massabiellestraat,27,,,6465BJ,Kerkrade,Kerkrade,Limburg,VBO,6.024067,50.850784
Massabiellestraat,29,,,6465BJ,Kerkrade,Kerkrade,Limburg,VBO,6.024017,50.850833
Massabiellestraat,31,G,1,6465BJ,Kerkrade,Kerkrade,Limburg,VBO,6.023868,50.850917
Massabiellestraat,31,G,2,6465BJ,Kerkrade,Kerkrade,Limburg,VBO,6.023830,50.850900
Massabiellestraat,31,G,3,6465BJ,Kerkrade,Kerkrade,Limburg,VBO,6.023791,50.850884
Massabiellestraat,31,G,4,6465BJ,Kerkrade,Kerkrade,Limburg,VBO,6.023753,50.850868
Massabiellestraat,31,G,5,6465BJ,Kerkrade,Kerkrade,Limburg,VBO,6.023714,50.850852
Massabiellestraat,31,,,6465BJ,Kerkrade,Kerkrade,Limburg,VBO,6.023970,50.850878
Massabiellestraat,2,G,1,6465BK,Kerkrade,Kerkrade,Limburg,VBO,6.024128,50.851269
Massabiellestraat,2,G,2,6465BK,Kerkrade,Kerkrade,Limburg,VBO,6.024166,50.851286
Massabiellestraat,2,G,3,6465BK,Kerkrade,Kerkrade,Limburg,VBO,6.024204,50.851302
Massabiellestraat,2,G,4,6465BK,Kerkrade,Kerkrade,Limburg,VBO,6.024243,50.851318
Massabiellestraat,2,G,5,6465BK,Kerkrade,Kerkrade,Limburg,VBO,6.024282,50.851334
Massabiellestraat,2,,,6465BK,Kerkrade,Kerkrade,Limburg,VBO,6.024032,50.851310
Massabiellestraat,4,,,6465BK,Kerkrade,Kerkrade,Limburg,VBO,6.023984,50.851356
Massabiellestraat,6,,,6465BK,Kerkrade,Kerkrade,Limburg,VBO,6.023938,50.851401
Massabiellestraat,8,,,6465BK,Kerkrade,Kerkrade,Limburg,VBO,6.023891,50.851447
Massabiellestraat,10,,,6465BK,Kerkrade,Kerkrade,Limburg,VBO,6.023750,50.851501
Massabiellestraat,12,,,6465BK,Kerkrade,Kerkrade,Limburg,VBO,6.023702,50.851547
Massabiellestraat,14,,,6465BK,Kerkrade,Kerkrade,Limburg,VBO,6.023655,50.851593
Massabiellestraat,16,,,6465BK,Kerkrade,Kerkrade,Limburg,VBO,6.023608,50.851639
Massabiellestraat,18,,,6465BK,Kerkrade,Kerkrade,Limburg,VBO,6.023449,50.851464
Massabiellestraat,20,,,6465BK,Kerkrade,Kerkrade,Limburg,VBO,6.023498,50.851416
Massabiellestraat,22,,,6465BK,Kerkrade,Kerkrade,Limburg,VBO,6.023546,50.851370
Massabiellestraat,24,,,6465BK,Kerkrade,Kerkrade,Limburg,VBO,6.023593,50.851324
Massabiellestraat,26,,,6465BK,Kerkrade,Kerkrade,Limburg,VBO,6.023611,50.851225
Massabiellestraat,28,,,6465BK,Kerkrade,Kerkrade,Limburg,VBO,6.023658,50.851180
Massabiellestraat,30,,,6465BK,Kerkrade,Kerkrade,Limburg,VBO,6.023705,50.851134
Massabiellestraat,32,G,1,6465BK,Kerkrade,Kerkrade,Limburg,VBO,6.023766,50.851016
Massabiellestraat,32,G,2,6465BK,Kerkrade,Kerkrade,Limburg,VBO,6.023727,50.851000
Massabiellestraat,32,G,3,6465BK,Kerkrade,Kerkrade,Limburg,VBO,6.023689,50.850984
Massabiellestraat,32,G,4,6465BK,Kerkrade,Kerkrade,Limburg,VBO,6.023650,50.850968
Massabiellestraat,32,G,5,6465BK,Kerkrade,Kerkrade,Limburg,VBO,6.023611,50.850952
Massabiellestraat,32,,,6465BK,Kerkrade,Kerkrade,Limburg,VBO,6.023753,50.851088
Lourdesstraat,1,,,6465BL,Kerkrade,Kerkrade,Limburg,VBO,6.022917,50.851259
Lourdesstraat,3,,,6465BL,Kerkrade,Kerkrade,Limburg,VBO,6.022962,50.851215
Lourdesstraat,5,,,6465BL,Kerkrade,Kerkrade,Limburg,VBO,6.023009,50.851169
Lourdesstraat,7,,,6465BL,Kerkrade,Kerkrade,Limburg,VBO,6.023057,50.851123
Lourdesstraat,9,,,6465BL,Kerkrade,Kerkrade,Limburg,VBO,6.023134,50.851049
Lourdesstraat,11,,,6465BL,Kerkrade,Kerkrade,Limburg,VBO,6.023179,50.851005
Lourdesstraat,13,,,6465BL,Kerkrade,Kerkrade,Limburg,VBO,6.023224,50.850961
Lourdesstraat,15,G,1,6465BL,Kerkrade,Kerkrade,Limburg,VBO,6.023374,50.850876
Lourdesstraat,15,G,2,6465BL,Kerkrade,Kerkrade,Limburg,VBO,6.023412,50.850893
Lourdesstraat,15,G,3,6465BL,Kerkrade,Kerkrade,Limburg,VBO,6.023451,50.850909
Lourdesstraat,15,G,4,6465BL,Kerkrade,Kerkrade,Limburg,VBO,6.023489,50.850925
Lourdesstraat,15,G,5,6465BL,Kerkrade,Kerkrade,Limburg,VBO,6.023528,50.850940
Lourdesstraat,15,,,6465BL,Kerkrade,Kerkrade,Limburg,VBO,6.023271,50.850915
Lourdesstraat,17,G,1,6465BL,Kerkrade,Kerkrade,Limburg,VBO,6.023475,50.850776
Lourdesstraat,17,G,2,6465BL,Kerkrade,Kerkrade,Limburg,VBO,6.023513,50.850792
Lourdesstraat,17,G,3,6465BL,Kerkrade,Kerkrade,Limburg,VBO,6.023552,50.850808
Lourdesstraat,17,G,4,6465BL,Kerkrade,Kerkrade,Limburg,VBO,6.023591,50.850824
Lourdesstraat,17,G,5,6465BL,Kerkrade,Kerkrade,Limburg,VBO,6.023629,50.850840
Lourdesstraat,17,,,6465BL,Kerkrade,Kerkrade,Limburg,VBO,6.023490,50.850703
Lourdesstraat,19,,,6465BL,Kerkrade,Kerkrade,Limburg,VBO,6.023537,50.850657
Lourdesstraat,21,,,6465BL,Kerkrade,Kerkrade,Limburg,VBO,6.023585,50.850612
Lourdesstraat,23,,,6465BL,Kerkrade,Kerkrade,Limburg,VBO,6.023630,50.850568
Lourdesstraat,25,,,6465BL,Kerkrade,Kerkrade,Limburg,VBO,6.023712,50.850489
Lourdesstraat,27,,,6465BL,Kerkrade,Kerkrade,Limburg,VBO,6.023759,50.850443
Lourdesstraat,29,,,6465BL,Kerkrade,Kerkrade,Limburg,VBO,6.023806,50.850398
Lourdesstraat,31,,,6465BL,Kerkrade,Kerkrade,Limburg,VBO,6.023856,50.850350
Lourdesstraat,2,,,6465BM,Kerkrade,Kerkrade,Limburg,VBO,6.022778,50.850548
Lourdesstraat,4,G,1,6465BM,Kerkrade,Kerkrade,Limburg,VBO,6.022768,50.850734
Lourdesstraat,4,G,2,6465BM,Kerkrade,Kerkrade,Limburg,VBO,6.022775,50.850702
Lourdesstraat,4,G,3,6465BM,Kerkrade,Kerkrade,Limburg,VBO,6.022781,50.850672
Lourdesstraat,4,G,4,6465BM,Kerkrade,Kerkrade,Limburg,VBO,6.022796,50.850595
Lourdesstraat,4,G,5,6465BM,Kerkrade,Kerkrade,Limburg,VBO,6.022801,50.850565
Lourdesstraat,4,G,6,6465BM,Kerkrade,Kerkrade,Limburg,VBO,6.022813,50.850502
Lourdesstraat,4,G,7,6465BM,Kerkrade,Kerkrade,Limburg,VBO,6.022818,50.850476
Lourdesstraat,4,G,8,6465BM,Kerkrade,Kerkrade,Limburg,VBO,6.022837,50.850381
Lourdesstraat,4,,,6465BM,Kerkrade,Kerkrade,Limburg,VBO,6.022778,50.850548
Lourdesstraat,6,,,6465BM,Kerkrade,Kerkrade,Limburg,VBO,6.022778,50.850548
Lourdesstraat,8,,,6465BM,Kerkrade,Kerkrade,Limburg,VBO,6.022778,50.850548
Lourdesstraat,10,,,6465BM,Kerkrade,Kerkrade,Limburg,VBO,6.022778,50.850548
Lourdesstraat,12,,,6465BM,Kerkrade,Kerkrade,Limburg,VBO,6.022778,50.850548
Lourdesstraat,14,,,6465BM,Kerkrade,Kerkrade,Limburg,VBO,6.022778,50.850548
Lourdesstraat,16,,,6465BM,Kerkrade,Kerkrade,Limburg,VBO,6.022778,50.850548
Lourdesstraat,18,,,6465BM,Kerkrade,Kerkrade,Limburg,VBO,6.022778,50.850548
Lourdesstraat,20,,,6465BM,Kerkrade,Kerkrade,Limburg,VBO,6.022778,50.850548
Lourdesstraat,22,,,6465BM,Kerkrade,Kerkrade,Limburg,VBO,6.022778,50.850548
Lourdesstraat,24,,,6465BM,Kerkrade,Kerkrade,Limburg,VBO,6.022778,50.850548
Lourdesstraat,26,,,6465BM,Kerkrade,Kerkrade,Limburg,VBO,6.022778,50.850548
Lourdesstraat,28,,,6465BM,Kerkrade,Kerkrade,Limburg,VBO,6.022778,50.850548
Lourdesstraat,30,,,6465BM,Kerkrade,Kerkrade,Limburg,VBO,6.022778,50.850548
Lourdesstraat,32,,,6465BM,Kerkrade,Kerkrade,Limburg,VBO,6.022778,50.850548
Lourdesstraat,34,,,6465BM,Kerkrade,Kerkrade,Limburg,VBO,6.022778,50.850548
Lourdesstraat,36,,,6465BM,Kerkrade,Kerkrade,Limburg,VBO,6.022778,50.850548
Lourdesstraat,38,,,6465BM,Kerkrade,Kerkrade,Limburg,VBO,6.022778,50.850548
Lourdesstraat,40,,,6465BM,Kerkrade,Kerkrade,Limburg,VBO,6.022778,50.850548
Lourdesstraat,42,,,6465BM,Kerkrade,Kerkrade,Limburg,VBO,6.022778,50.850548
Lourdesstraat,44,,,6465BN,Kerkrade,Kerkrade,Limburg,VBO,6.022778,50.850548
Lourdesstraat,46,,,6465BN,Kerkrade,Kerkrade,Limburg,VBO,6.022778,50.850548
Lourdesstraat,48,,,6465BN,Kerkrade,Kerkrade,Limburg,VBO,6.022778,50.850548
Lourdesstraat,50,,,6465BN,Kerkrade,Kerkrade,Limburg,VBO,6.022778,50.850548
Lourdesstraat,52,,,6465BN,Kerkrade,Kerkrade,Limburg,VBO,6.022778,50.850548
Lourdesstraat,54,,,6465BN,Kerkrade,Kerkrade,Limburg,VBO,6.022778,50.850548
Lourdesstraat,56,,,6465BN,Kerkrade,Kerkrade,Limburg,VBO,6.022778,50.850548
Lourdesstraat,58,,,6465BN,Kerkrade,Kerkrade,Limburg,VBO,6.022778,50.850548
Lourdesstraat,60,,,6465BN,Kerkrade,Kerkrade,Limburg,VBO,6.022778,50.850548
Lourdesstraat,62,,,6465BN,Kerkrade,Kerkrade,Limburg,VBO,6.022778,50.850548
Lourdesstraat,64,,,6465BN,Kerkrade,Kerkrade,Limburg,VBO,6.022778,50.850548
Lourdesstraat,66,,,6465BN,Kerkrade,Kerkrade,Limburg,VBO,6.022778,50.850548
Lourdesstraat,68,,,6465BN,Kerkrade,Kerkrade,Limburg,VBO,6.022778,50.850548
Lourdesstraat,70,,,6465BN,Kerkrade,Kerkrade,Limburg,VBO,6.022778,50.850548
Lourdesstraat,72,,,6465BN,Kerkrade,Kerkrade,Limburg,VBO,6.022778,50.850548
Lourdesstraat,74,,,6465BN,Kerkrade,Kerkrade,Limburg,VBO,6.022778,50.850548
Lourdesstraat,76,,,6465BN,Kerkrade,Kerkrade,Limburg,VBO,6.022778,50.850548
Lourdesstraat,78,,,6465BN,Kerkrade,Kerkrade,Limburg,VBO,6.022778,50.850548
Lourdesstraat,80,,,6465BN,Kerkrade,Kerkrade,Limburg,VBO,6.022778,50.850548
Lourdesstraat,82,,,6465BN,Kerkrade,Kerkrade,Limburg,VBO,6.022778,50.850548
Lourdesstraat,84,,,6465BN,Kerkrade,Kerkrade,Limburg,VBO,6.022778,50.850548
Lourdesstraat,86,,,6465BP,Kerkrade,Kerkrade,Limburg,VBO,6.022778,50.850548
Lourdesstraat,88,,,6465BP,Kerkrade,Kerkrade,Limburg,VBO,6.022778,50.850548
Lourdesstraat,90,,,6465BP,Kerkrade,Kerkrade,Limburg,VBO,6.022778,50.850548
Lourdesstraat,92,,,6465BP,Kerkrade,Kerkrade,Limburg,VBO,6.022778,50.850548
Lourdesstraat,94,,,6465BP,Kerkrade,Kerkrade,Limburg,VBO,6.022778,50.850548
Lourdesstraat,96,,,6465BP,Kerkrade,Kerkrade,Limburg,VBO,6.022778,50.850548
Lourdesstraat,98,,,6465BP,Kerkrade,Kerkrade,Limburg,VBO,6.022778,50.850548
Lourdesstraat,100,,,6465BP,Kerkrade,Kerkrade,Limburg,VBO,6.022778,50.850548
Lourdesstraat,102,,,6465BP,Kerkrade,Kerkrade,Limburg,VBO,6.022778,50.850548
Lourdesstraat,104,,,6465BP,Kerkrade,Kerkrade,Limburg,VBO,6.022778,50.850548
Lourdesstraat,106,,,6465BP,Kerkrade,Kerkrade,Limburg,VBO,6.022778,50.850548
Lourdesstraat,108,,,6465BP,Kerkrade,Kerkrade,Limburg,VBO,6.022778,50.850548
Lourdesstraat,110,,,6465BP,Kerkrade,Kerkrade,Limburg,VBO,6.022778,50.850548
Lourdesstraat,112,,,6465BP,Kerkrade,Kerkrade,Limburg,VBO,6.022778,50.850548
Lourdesstraat,114,,,6465BR,Kerkrade,Kerkrade,Limburg,VBO,6.023125,50.849956
Lourdesstraat,116,,,6465BR,Kerkrade,Kerkrade,Limburg,VBO,6.023205,50.849985
Lourdesstraat,118,,,6465BR,Kerkrade,Kerkrade,Limburg,VBO,6.023282,50.850017
Lourdesstraat,120,,,6465BR,Kerkrade,Kerkrade,Limburg,VBO,6.023546,50.850101
Lourdesstraat,122,,,6465BR,Kerkrade,Kerkrade,Limburg,VBO,6.023595,50.850053
Lourdesstraat,124,,,6465BR,Kerkrade,Kerkrade,Limburg,VBO,6.023641,50.850007
Lourdesstraat,126,,,6465BR,Kerkrade,Kerkrade,Limburg,VBO,6.023691,50.849957
Lourdesstraat,128,,,6465BR,Kerkrade,Kerkrade,Limburg,VBO,6.023740,50.849910
Lourdesstraat,130,,,6465BR,Kerkrade,Kerkrade,Limburg,VBO,6.023788,50.849861
Lourdesstraat,132,,,6465BR,Kerkrade,Kerkrade,Limburg,VBO,6.023838,50.849814
Lourdesstraat,134,,,6465BR,Kerkrade,Kerkrade,Limburg,VBO,6.023886,50.849766
Eikerplein,2,,,6465BS,Kerkrade,Kerkrade,Limburg,VBO,6.022383,50.850347
Eikerplein,3,G,1,6465BS,Kerkrade,Kerkrade,Limburg,VBO,6.022945,50.850047
Eikerplein,3,G,2,6465BS,Kerkrade,Kerkrade,Limburg,VBO,6.022939,50.850074
Eikerplein,3,G,3,6465BS,Kerkrade,Kerkrade,Limburg,VBO,6.022933,50.850101
Eikerplein,3,G,4,6465BS,Kerkrade,Kerkrade,Limburg,VBO,6.022928,50.850128
Eikerplein,3,,,6465BS,Kerkrade,Kerkrade,Limburg,VBO,6.022368,50.850292
Eikerplein,5,,,6465BS,Kerkrade,Kerkrade,Limburg,VBO,6.022814,50.850105
Eikerplein,6,,,6465BS,Kerkrade,Kerkrade,Limburg,VBO,6.022704,50.850096
Eikerplein,7,,,6465BS,Kerkrade,Kerkrade,Limburg,VBO,6.022594,50.850087
Eikerplein,8,,,6465BS,Kerkrade,Kerkrade,Limburg,VBO,6.022483,50.850078
Eikerplein,9,G,1,6465BS,Kerkrade,Kerkrade,Limburg,VBO,6.022262,50.850010
Eikerplein,9,,,6465BS,Kerkrade,Kerkrade,Limburg,VBO,6.022373,50.850068
Eikerplein,10,,,6465BS,Kerkrade,Kerkrade,Limburg,VBO,6.022128,50.849793
Eikerplein,11,,,6465BS,Kerkrade,Kerkrade,Limburg,VBO,6.022113,50.849865
Eikerplein,12,,,6465BS,Kerkrade,Kerkrade,Limburg,VBO,6.022099,50.849933
Eikerplein,13,,,6465BS,Kerkrade,Kerkrade,Limburg,VBO,6.022058,50.850094
Eikerplein,14,,,6465BS,Kerkrade,Kerkrade,Limburg,VBO,6.021946,50.850085
Eikerplein,15,,,6465BS,Kerkrade,Kerkrade,Limburg,VBO,6.021835,50.850076
Daniël-Eik,1,,,6465BT,Kerkrade,Kerkrade,Limburg,VBO,6.021300,50.850505
Daniël-Eik,2,,,6465BT,Kerkrade,Kerkrade,Limburg,VBO,6.021361,50.850510
Daniël-Eik,3,,,6465BT,Kerkrade,Kerkrade,Limburg,VBO,6.021425,50.850516
Daniël-Eik,4,,,6465BT,Kerkrade,Kerkrade,Limburg,VBO,6.021489,50.850522
Daniël-Eik,5,,,6465BT,Kerkrade,Kerkrade,Limburg,VBO,6.021588,50.850501
Daniël-Eik,6,,,6465BT,Kerkrade,Kerkrade,Limburg,VBO,6.021653,50.850506
Daniël-Eik,7,,,6465BT,Kerkrade,Kerkrade,Limburg,VBO,6.021718,50.850512
Daniël-Eik,8,A,,6465BT,Kerkrade,Kerkrade,Limburg,VBO,6.021799,50.850388
Daniël-Eik,8,B,,6465BT,Kerkrade,Kerkrade,Limburg,VBO,6.021915,50.850397
Daniël-Eik,8,C,,6465BT,Kerkrade,Kerkrade,Limburg,VBO,6.022006,50.850405
Daniël-Eik,8,G,1,6465BT,Kerkrade,Kerkrade,Limburg,VBO,6.021757,50.850136
Daniël-Eik,8,G,2,6465BT,Kerkrade,Kerkrade,Limburg,VBO,6.021714,50.850132
Daniël-Eik,8,G,3,6465BT,Kerkrade,Kerkrade,Limburg,VBO,6.021671,50.850129
Daniël-Eik,8,G,4,6465BT,Kerkrade,Kerkrade,Limburg,VBO,6.021639,50.850157
Daniël-Eik,8,G,5,6465BT,Kerkrade,Kerkrade,Limburg,VBO,6.021634,50.850184
Daniël-Eik,8,G,6,6465BT,Kerkrade,Kerkrade,Limburg,VBO,6.021628,50.850211
Daniël-Eik,8,G,7,6465BT,Kerkrade,Kerkrade,Limburg,VBO,6.021623,50.850238
Daniël-Eik,8,G,8,6465BT,Kerkrade,Kerkrade,Limburg,VBO,6.021617,50.850265
Daniël-Eik,8,,,6465BT,Kerkrade,Kerkrade,Limburg,VBO,6.021784,50.850518
Daniël-Eik,9,,,6465BT,Kerkrade,Kerkrade,Limburg,VBO,6.021260,50.850229
Daniël-Eik,10,,,6465BT,Kerkrade,Kerkrade,Limburg,VBO,6.021267,50.850192
Daniël-Eik,11,,,6465BT,Kerkrade,Kerkrade,Limburg,VBO,6.021276,50.850148
Daniël-Eik,12,,,6465BT,Kerkrade,Kerkrade,Limburg,VBO,6.021337,50.850078
Daniël-Eik,13,,,6465BT,Kerkrade,Kerkrade,Limburg,VBO,6.021346,50.850037
Daniël-Eik,14,,,6465BT,Kerkrade,Kerkrade,Limburg,VBO,6.021354,50.849996
Daniël-Eik,15,,,6465BT,Kerkrade,Kerkrade,Limburg,VBO,6.021363,50.849955
Daniël-Eik,16,,,6465BT,Kerkrade,Kerkrade,Limburg,VBO,6.021371,50.849914
Daniël-Eik,17,,,6465BT,Kerkrade,Kerkrade,Limburg,VBO,6.021005,50.850091
Daniël-Eik,18,,,6465BT,Kerkrade,Kerkrade,Limburg,VBO,6.020996,50.850133
Daniël-Eik,19,,,6465BT,Kerkrade,Kerkrade,Limburg,VBO,6.020988,50.850175
Daniël-Eik,20,,,6465BT,Kerkrade,Kerkrade,Limburg,VBO,6.020928,50.850245
Daniël-Eik,21,,,6465BT,Kerkrade,Kerkrade,Limburg,VBO,6.020919,50.850289
Daniël-Eik,22,,,6465BT,Kerkrade,Kerkrade,Limburg,VBO,6.020912,50.850327
Daniël-Eik,23,,,6465BT,Kerkrade,Kerkrade,Limburg,VBO,6.020903,50.850369
Daniël-Eik,24,,,6465BT,Kerkrade,Kerkrade,Limburg,VBO,6.020895,50.850410
Constantijn-Eik,1,,,6465BV,Kerkrade,Kerkrade,Limburg,VBO,6.021133,50.849381
Constantijn-Eik,2,,,6465BV,Kerkrade,Kerkrade,Limburg,VBO,6.021124,50.849421
Constantijn-Eik,3,,,6465BV,Kerkrade,Kerkrade,Limburg,VBO,6.021071,50.849459
Constantijn-Eik,4,,,6465BV,Kerkrade,Kerkrade,Limburg,VBO,6.021062,50.849499
Constantijn-Eik,5,,,6465BV,Kerkrade,Kerkrade,Limburg,VBO,6.021054,50.849539
Constantijn-Eik,6,,,6465BV,Kerkrade,Kerkrade,Limburg,VBO,6.020996,50.849593
Constantijn-Eik,7,,,6465BV,Kerkrade,Kerkrade,Limburg,VBO,6.020988,50.849634
Constantijn-Eik,8,,,6465BV,Kerkrade,Kerkrade,Limburg,VBO,6.020980,50.849675
Constantijn-Eik,9,,,6465BV,Kerkrade,Kerkrade,Limburg,VBO,6.020971,50.849716
Constantijn-Eik,10,,,6465BV,Kerkrade,Kerkrade,Limburg,VBO,6.020964,50.849752
Constantijn-Eik,11,,,6465BV,Kerkrade,Kerkrade,Limburg,VBO,6.020992,50.849835
Constantijn-Eik,12,,,6465BV,Kerkrade,Kerkrade,Limburg,VBO,6.020984,50.849874
Constantijn-Eik,13,,,6465BV,Kerkrade,Kerkrade,Limburg,VBO,6.020975,50.849916
Constantijn-Eik,14,,,6465BV,Kerkrade,Kerkrade,Limburg,VBO,6.021290,50.849624
Constantijn-Eik,15,,,6465BV,Kerkrade,Kerkrade,Limburg,VBO,6.021356,50.849629
Constantijn-Eik,16,,,6465BV,Kerkrade,Kerkrade,Limburg,VBO,6.021422,50.849635
Constantijn-Eik,17,,,6465BV,Kerkrade,Kerkrade,Limburg,VBO,6.021538,50.849673
Constantijn-Eik,18,,,6465BV,Kerkrade,Kerkrade,Limburg,VBO,6.021604,50.849678
Constantijn-Eik,19,A,,6465BV,Kerkrade,Kerkrade,Limburg,VBO,6.021912,50.849577
Constantijn-Eik,19,B,,6465BV,Kerkrade,Kerkrade,Limburg,VBO,6.022024,50.849586
Constantijn-Eik,19,C,,6465BV,Kerkrade,Kerkrade,Limburg,VBO,6.022136,50.849595
Constantijn-Eik,19,,,6465BV,Kerkrade,Kerkrade,Limburg,VBO,6.021670,50.849684
Constantijn-Eik,20,,,6465BV,Kerkrade,Kerkrade,Limburg,VBO,6.022106,50.849417
Constantijn-Eik,21,,,6465BV,Kerkrade,Kerkrade,Limburg,VBO,6.022036,50.849411
Constantijn-Eik,22,,,6465BV,Kerkrade,Kerkrade,Limburg,VBO,6.021975,50.849406
Constantijn-Eik,23,,,6465BV,Kerkrade,Kerkrade,Limburg,VBO,6.021888,50.849369
Constantijn-Eik,24,,,6465BV,Kerkrade,Kerkrade,Limburg,VBO,6.021824,50.849364
Constantijn-Eik,25,,,6465BV,Kerkrade,Kerkrade,Limburg,VBO,6.021760,50.849359
Constantijn-Eik,26,,,6465BV,Kerkrade,Kerkrade,Limburg,VBO,6.021696,50.849353
Constantijn-Eik,27,,,6465BV,Kerkrade,Kerkrade,Limburg,VBO,6.021631,50.849348
Calbertsweg,3,A,,6465CA,Kerkrade,Kerkrade,Limburg,VBO,6.026001,50.853134
Calbertsweg,3,B,,6465CA,Kerkrade,Kerkrade,Limburg,VBO,6.026014,50.853121
Calbertsweg,5,A,,6465CA,Kerkrade,Kerkrade,Limburg,VBO,6.025951,50.853088
Calbertsweg,5,,,6465CA,Kerkrade,Kerkrade,Limburg,VBO,6.025936,50.853099
Calbertsweg,7,,,6465CA,Kerkrade,Kerkrade,Limburg,VBO,6.025342,50.852791
Calbertsweg,9,,,6465CA,Kerkrade,Kerkrade,Limburg,VBO,6.025275,50.852754
Calbertsweg,11,,,6465CA,Kerkrade,Kerkrade,Limburg,VBO,6.025210,50.852720
Calbertsweg,13,,,6465CA,Kerkrade,Kerkrade,Limburg,VBO,6.025146,50.852685
Calbertsweg,15,,,6465CA,Kerkrade,Kerkrade,Limburg,VBO,6.024985,50.852611
Calbertsweg,17,,,6465CA,Kerkrade,Kerkrade,Limburg,VBO,6.024919,50.852577
Calbertsweg,19,,,6465CA,Kerkrade,Kerkrade,Limburg,VBO,6.024606,50.852446
Calbertsweg,21,,,6465CA,Kerkrade,Kerkrade,Limburg,VBO,6.024497,50.852335
Calbertsweg,23,,,6465CA,Kerkrade,Kerkrade,Limburg,VBO,6.024418,50.852293
Calbertsweg,25,,,6465CA,Kerkrade,Kerkrade,Limburg,VBO,6.024337,50.852249
Calbertsweg,27,,,6465CA,Kerkrade,Kerkrade,Limburg,VBO,6.024255,50.852206
Calbertsweg,29,,,6465CA,Kerkrade,Kerkrade,Limburg,VBO,6.023947,50.852029
Calbertsweg,31,,,6465CA,Kerkrade,Kerkrade,Limburg,VBO,6.023870,50.851997
Calbertsweg,33,,,6465CA,Kerkrade,Kerkrade,Limburg,VBO,6.023754,50.851927
Calbertsweg,35,,,6465CA,Kerkrade,Kerkrade,Limburg,VBO,6.023681,50.851897
Calbertsweg,37,,,6465CA,Kerkrade,Kerkrade,Limburg,VBO,6.023562,50.851825
Calbertsweg,39,,,6465CA,Kerkrade,Kerkrade,Limburg,VBO,6.023489,50.851795
Calbertsweg,41,,,6465CA,Kerkrade,Kerkrade,Limburg,VBO,6.023242,50.851656
Calbertsweg,43,,,6465CA,Kerkrade,Kerkrade,Limburg,VBO,6.023172,50.851627
Calbertsweg,45,,,6465CA,Kerkrade,Kerkrade,Limburg,VBO,6.023051,50.851554
Calbertsweg,47,,,6465CA,Kerkrade,Kerkrade,Limburg,VBO,6.022978,50.851524
Calbertsweg,49,,,6465CA,Kerkrade,Kerkrade,Limburg,VBO,6.022857,50.851451
Calbertsweg,51,,,6465CA,Kerkrade,Kerkrade,Limburg,VBO,6.022780,50.851419
Calbertsweg,61,G,1,6465CC,Kerkrade,Kerkrade,Limburg,VBO,6.022634,50.850869
Calbertsweg,61,G,2,6465CC,Kerkrade,Kerkrade,Limburg,VBO,6.022542,50.850862
Calbertsweg,61,G,3,6465CC,Kerkrade,Kerkrade,Limburg,VBO,6.022498,50.850858
Calbertsweg,61,G,4,6465CC,Kerkrade,Kerkrade,Limburg,VBO,6.022401,50.850851
Calbertsweg,61,G,5,6465CC,Kerkrade,Kerkrade,Limburg,VBO,6.022359,50.850847
Calbertsweg,61,G,6,6465CC,Kerkrade,Kerkrade,Limburg,VBO,6.022272,50.850840
Calbertsweg,61,G,7,6465CC,Kerkrade,Kerkrade,Limburg,VBO,6.022233,50.850837
Calbertsweg,61,G,8,6465CC,Kerkrade,Kerkrade,Limburg,VBO,6.022117,50.850828
Calbertsweg,75,G,1,6465CC,Kerkrade,Kerkrade,Limburg,VBO,6.021631,50.850758
Calbertsweg,75,G,2,6465CC,Kerkrade,Kerkrade,Limburg,VBO,6.021625,50.850784
Calbertsweg,75,G,3,6465CC,Kerkrade,Kerkrade,Limburg,VBO,6.021677,50.850810
Calbertsweg,75,G,4,6465CC,Kerkrade,Kerkrade,Limburg,VBO,6.021719,50.850815
Calbertsweg,75,G,5,6465CC,Kerkrade,Kerkrade,Limburg,VBO,6.021762,50.850819
Calbertsweg,75,G,6,6465CC,Kerkrade,Kerkrade,Limburg,VBO,6.021802,50.850823
Calbertsweg,103,G,1,6465CC,Kerkrade,Kerkrade,Limburg,VBO,6.022202,50.849210
Calbertsweg,103,G,2,6465CC,Kerkrade,Kerkrade,Limburg,VBO,6.022197,50.849237
Calbertsweg,103,G,3,6465CC,Kerkrade,Kerkrade,Limburg,VBO,6.022191,50.849263
Calbertsweg,103,G,4,6465CC,Kerkrade,Kerkrade,Limburg,VBO,6.022186,50.849290
Calbertsweg,103,G,5,6465CC,Kerkrade,Kerkrade,Limburg,VBO,6.022179,50.849317
Calbertsweg,103,G,6,6465CC,Kerkrade,Kerkrade,Limburg,VBO,6.022173,50.849344
Calbertsweg,103,G,7,6465CC,Kerkrade,Kerkrade,Limburg,VBO,6.022168,50.849371
Calbertsweg,103,G,8,6465CC,Kerkrade,Kerkrade,Limburg,VBO,6.022162,50.849397
Calbertsweg,103,G,9,6465CC,Kerkrade,Kerkrade,Limburg,VBO,6.022157,50.849424
Calbertsweg,115,,,6465CC,Kerkrade,Kerkrade,Limburg,VBO,6.023507,50.849355
Calbertsweg,117,,,6465CC,Kerkrade,Kerkrade,Limburg,VBO,6.023586,50.849361
Calbertsweg,119,,,6465CC,Kerkrade,Kerkrade,Limburg,VBO,6.023677,50.849369
Calbertsweg,121,,,6465CC,Kerkrade,Kerkrade,Limburg,VBO,6.023767,50.849377
Calbertsweg,123,,,6465CC,Kerkrade,Kerkrade,Limburg,VBO,6.023854,50.849384
Calbertsweg,125,,,6465CC,Kerkrade,Kerkrade,Limburg,VBO,6.024011,50.849421
Calbertsweg,127,,,6465CC,Kerkrade,Kerkrade,Limburg,VBO,6.024076,50.849448
Calbertsweg,129,,,6465CC,Kerkrade,Kerkrade,Limburg,VBO,6.024152,50.849479
Calbertsweg,131,,,6465CC,Kerkrade,Kerkrade,Limburg,VBO,6.024276,50.849486
Calbertsweg,133,,,6465CC,Kerkrade,Kerkrade,Limburg,VBO,6.024337,50.849511
Calbertsweg,135,,,6465CC,Kerkrade,Kerkrade,Limburg,VBO,6.024414,50.849542
Calbertsweg,137,,,6465CC,Kerkrade,Kerkrade,Limburg,VBO,6.024490,50.849574
Calbertsweg,139,,,6465CC,Kerkrade,Kerkrade,Limburg,VBO,6.024634,50.849588
Calbertsweg,141,,,6465CC,Kerkrade,Kerkrade,Limburg,VBO,6.024700,50.849616
Calbertsweg,143,,,6465CC,Kerkrade,Kerkrade,Limburg,VBO,6.024773,50.849646
Calbertsweg,145,,,6465CC,Kerkrade,Kerkrade,Limburg,VBO,6.024848,50.849678
Calbertsweg,147,,,6465CC,Kerkrade,Kerkrade,Limburg,VBO,6.024967,50.849681
Calbertsweg,149,,,6465CC,Kerkrade,Kerkrade,Limburg,VBO,6.025032,50.849708
Calbertsweg,151,,,6465CD,Kerkrade,Kerkrade,Limburg,VBO,6.025110,50.849741
Calbertsweg,153,,,6465CD,Kerkrade,Kerkrade,Limburg,VBO,6.025195,50.849756
Calbertsweg,155,,,6465CD,Kerkrade,Kerkrade,Limburg,VBO,6.025328,50.849886
Calbertsweg,157,,,6465CD,Kerkrade,Kerkrade,Limburg,VBO,6.025372,50.849846
Calbertsweg,159,,,6465CD,Kerkrade,Kerkrade,Limburg,VBO,6.025424,50.849798
Calbertsweg,161,,,6465CD,Kerkrade,Kerkrade,Limburg,VBO,6.025463,50.849734
Calbertsweg,163,,,6465CD,Kerkrade,Kerkrade,Limburg,VBO,6.025506,50.849694
Calbertsweg,165,,,6465CD,Kerkrade,Kerkrade,Limburg,VBO,6.025552,50.849616
Calbertsweg,167,,,6465CD,Kerkrade,Kerkrade,Limburg,VBO,6.025533,50.849534
Calbertsweg,169,,,6465CD,Kerkrade,Kerkrade,Limburg,VBO,6.025578,50.849492
Calbertsweg,171,,,6465CD,Kerkrade,Kerkrade,Limburg,VBO,6.025632,50.849441
Calbertsweg,173,,,6465CD,Kerkrade,Kerkrade,Limburg,VBO,6.025630,50.849351
Calbertsweg,175,,,6465CD,Kerkrade,Kerkrade,Limburg,VBO,6.025683,50.849304
Calbertsweg,177,,,6465CD,Kerkrade,Kerkrade,Limburg,VBO,6.025735,50.849256
Calbertsweg,183,,,6465CD,Kerkrade,Kerkrade,Limburg,VBO,6.026409,50.848847
Grisenstraat,3,,TR,6465CE,Kerkrade,Kerkrade,Limburg,VBO,6.036930,50.854112
Grisenstraat,3,,,6465CE,Kerkrade,Kerkrade,Limburg,VBO,6.036602,50.854161
Grisenstraat,4,,,6465CE,Kerkrade,Kerkrade,Limburg,VBO,6.038751,50.854320
Grisenstraat,5,,,6465CE,Kerkrade,Kerkrade,Limburg,VBO,6.037431,50.854284
Grisenstraat,6,,,6465CE,Kerkrade,Kerkrade,Limburg,VBO,6.039534,50.854509
Grisenstraat,9,,,6465CE,Kerkrade,Kerkrade,Limburg,VBO,6.038593,50.854607
Calbertsweg,52,,,6465CH,Kerkrade,Kerkrade,Limburg,VBO,6.021753,50.851122
Calbertsweg,54,,,6465CH,Kerkrade,Kerkrade,Limburg,VBO,6.021674,50.851086
Calbertsweg,56,,,6465CH,Kerkrade,Kerkrade,Limburg,VBO,6.021532,50.851027
Calbertsweg,58,,,6465CH,Kerkrade,Kerkrade,Limburg,VBO,6.021468,50.850975
Calbertsweg,60,,,6465CH,Kerkrade,Kerkrade,Limburg,VBO,6.021328,50.850911
Calbertsweg,62,,,6465CH,Kerkrade,Kerkrade,Limburg,VBO,6.021235,50.850891
Calbertsweg,64,,,6465CH,Kerkrade,Kerkrade,Limburg,VBO,6.021093,50.850827
Calbertsweg,66,,,6465CH,Kerkrade,Kerkrade,Limburg,VBO,6.021031,50.850778
Calbertsweg,68,,,6465CH,Kerkrade,Kerkrade,Limburg,VBO,6.020750,50.850662
Calbertsweg,70,,,6465CH,Kerkrade,Kerkrade,Limburg,VBO,6.020462,50.850532
Calbertsweg,100,,,6465CH,Kerkrade,Kerkrade,Limburg,VBO,6.022257,50.848848
Calbertsweg,102,,,6465CH,Kerkrade,Kerkrade,Limburg,VBO,6.022321,50.848853
Calbertsweg,104,,,6465CH,Kerkrade,Kerkrade,Limburg,VBO,6.022385,50.848858
Calbertsweg,106,,,6465CH,Kerkrade,Kerkrade,Limburg,VBO,6.022449,50.848864
Calbertsweg,108,,,6465CH,Kerkrade,Kerkrade,Limburg,VBO,6.022513,50.848869
Calbertsweg,110,,,6465CH,Kerkrade,Kerkrade,Limburg,VBO,6.022573,50.848874
Calbertsweg,112,,,6465CH,Kerkrade,Kerkrade,Limburg,VBO,6.022637,50.848879
Calbertsweg,114,,,6465CH,Kerkrade,Kerkrade,Limburg,VBO,6.022701,50.848885
Calbertsweg,130,,,6465CH,Kerkrade,Kerkrade,Limburg,VBO,6.024506,50.849000
Calbertsweg,132,,,6465CH,Kerkrade,Kerkrade,Limburg,VBO,6.024570,50.849005
Calbertsweg,134,,,6465CH,Kerkrade,Kerkrade,Limburg,VBO,6.024634,50.849011
Calbertsweg,136,,,6465CH,Kerkrade,Kerkrade,Limburg,VBO,6.024699,50.849016
Calbertsweg,138,,,6465CH,Kerkrade,Kerkrade,Limburg,VBO,6.024763,50.849021
Calbertsweg,140,,,6465CH,Kerkrade,Kerkrade,Limburg,VBO,6.024827,50.849027
Calbertsweg,142,,,6465CH,Kerkrade,Kerkrade,Limburg,VBO,6.024892,50.849032
Calbertsweg,144,,,6465CH,Kerkrade,Kerkrade,Limburg,VBO,6.024956,50.849037
Gerarda-Gracht,1,,,6465CJ,Kerkrade,Kerkrade,Limburg,VBO,6.020438,50.850606
Gerarda-Gracht,3,,,6465CJ,Kerkrade,Kerkrade,Limburg,VBO,6.020324,50.850629
Gerarda-Gracht,4,,,6465CJ,Kerkrade,Kerkrade,Limburg,VBO,6.020667,50.850803
Gerarda-Gracht,5,,,6465CJ,Kerkrade,Kerkrade,Limburg,VBO,6.020268,50.850680
Gerarda-Gracht,6,G,1,6465CJ,Kerkrade,Kerkrade,Limburg,VBO,6.020529,50.850814
Gerarda-Gracht,6,G,2,6465CJ,Kerkrade,Kerkrade,Limburg,VBO,6.020490,50.850802
Gerarda-Gracht,6,G,3,6465CJ,Kerkrade,Kerkrade,Limburg,VBO,6.020451,50.850789
Gerarda-Gracht,6,G,4,6465CJ,Kerkrade,Kerkrade,Limburg,VBO,6.020417,50.850778
Frederika-Gracht,1,,,6465CR,Kerkrade,Kerkrade,Limburg,VBO,6.020085,50.850071
Frederika-Gracht,2,,,6465CR,Kerkrade,Kerkrade,Limburg,VBO,6.020094,50.850032
Frederika-Gracht,3,,,6465CR,Kerkrade,Kerkrade,Limburg,VBO,6.020104,50.849991
Frederika-Gracht,4,,,6465CR,Kerkrade,Kerkrade,Limburg,VBO,6.020167,50.849918
Frederika-Gracht,5,,,6465CR,Kerkrade,Kerkrade,Limburg,VBO,6.020177,50.849877
Frederika-Gracht,6,,,6465CR,Kerkrade,Kerkrade,Limburg,VBO,6.020187,50.849836
Frederika-Gracht,7,,,6465CR,Kerkrade,Kerkrade,Limburg,VBO,6.020196,50.849795
Frederika-Gracht,8,,,6465CR,Kerkrade,Kerkrade,Limburg,VBO,6.020206,50.849754
Frederika-Gracht,9,,,6465CR,Kerkrade,Kerkrade,Limburg,VBO,6.019960,50.849613
Frederika-Gracht,10,,,6465CR,Kerkrade,Kerkrade,Limburg,VBO,6.019953,50.849649
Frederika-Gracht,11,,,6465CR,Kerkrade,Kerkrade,Limburg,VBO,6.019944,50.849693
Frederika-Gracht,12,,,6465CR,Kerkrade,Kerkrade,Limburg,VBO,6.019937,50.849732
Frederika-Gracht,13,,,6465CR,Kerkrade,Kerkrade,Limburg,VBO,6.019789,50.849920
Frederika-Gracht,14,,,6465CR,Kerkrade,Kerkrade,Limburg,VBO,6.019725,50.849914
Frederika-Gracht,15,,,6465CR,Kerkrade,Kerkrade,Limburg,VBO,6.019661,50.849909
Frederika-Gracht,16,,,6465CR,Kerkrade,Kerkrade,Limburg,VBO,6.019597,50.849903
Frederika-Gracht,17,,,6465CR,Kerkrade,Kerkrade,Limburg,VBO,6.019527,50.849924
Frederika-Gracht,18,,,6465CR,Kerkrade,Kerkrade,Limburg,VBO,6.019462,50.849919
Frederika-Gracht,19,,,6465CR,Kerkrade,Kerkrade,Limburg,VBO,6.019397,50.849913
Frederika-Gracht,20,,,6465CR,Kerkrade,Kerkrade,Limburg,VBO,6.019021,50.849920
Frederika-Gracht,21,,,6465CR,Kerkrade,Kerkrade,Limburg,VBO,6.019031,50.849875
Frederika-Gracht,22,,,6465CR,Kerkrade,Kerkrade,Limburg,VBO,6.018997,50.849817
Frederika-Gracht,23,,,6465CR,Kerkrade,Kerkrade,Limburg,VBO,6.019006,50.849776
Frederika-Gracht,24,,,6465CR,Kerkrade,Kerkrade,Limburg,VBO,6.019014,50.849735
Frederika-Gracht,25,,,6465CR,Kerkrade,Kerkrade,Limburg,VBO,6.019023,50.849694
Frederika-Gracht,26,,,6465CS,Kerkrade,Kerkrade,Limburg,VBO,6.018816,50.849738
Frederika-Gracht,27,,,6465CS,Kerkrade,Kerkrade,Limburg,VBO,6.018751,50.849732
Frederika-Gracht,28,,,6465CS,Kerkrade,Kerkrade,Limburg,VBO,6.018686,50.849727
Frederika-Gracht,29,,,6465CS,Kerkrade,Kerkrade,Limburg,VBO,6.018621,50.849721
Frederika-Gracht,30,,,6465CS,Kerkrade,Kerkrade,Limburg,VBO,6.018556,50.849716
Frederika-Gracht,31,,,6465CS,Kerkrade,Kerkrade,Limburg,VBO,6.018425,50.849734
Frederika-Gracht,32,,,6465CS,Kerkrade,Kerkrade,Limburg,VBO,6.018363,50.849729
Frederika-Gracht,33,,,6465CS,Kerkrade,Kerkrade,Limburg,VBO,6.018297,50.849723
Frederika-Gracht,34,,,6465CS,Kerkrade,Kerkrade,Limburg,VBO,6.018378,50.849864
Frederika-Gracht,35,,,6465CS,Kerkrade,Kerkrade,Limburg,VBO,6.018369,50.849905
Frederika-Gracht,36,,,6465CS,Kerkrade,Kerkrade,Limburg,VBO,6.018361,50.849946
Frederika-Gracht,37,,,6465CS,Kerkrade,Kerkrade,Limburg,VBO,6.018352,50.849987
Frederika-Gracht,38,,,6465CS,Kerkrade,Kerkrade,Limburg,VBO,6.018344,50.850028
Frederika-Gracht,39,,,6465CS,Kerkrade,Kerkrade,Limburg,VBO,6.018293,50.850065
Frederika-Gracht,40,,,6465CS,Kerkrade,Kerkrade,Limburg,VBO,6.018285,50.850106
Frederika-Gracht,41,,,6465CS,Kerkrade,Kerkrade,Limburg,VBO,6.018277,50.850149
Frederika-Gracht,42,,,6465CS,Kerkrade,Kerkrade,Limburg,VBO,6.018564,50.850100
Frederika-Gracht,43,,,6465CS,Kerkrade,Kerkrade,Limburg,VBO,6.018628,50.850105
Frederika-Gracht,44,,,6465CS,Kerkrade,Kerkrade,Limburg,VBO,6.018691,50.850110
Frederika-Gracht,45,,,6465CS,Kerkrade,Kerkrade,Limburg,VBO,6.018755,50.850115
Frederika-Gracht,46,,,6465CS,Kerkrade,Kerkrade,Limburg,VBO,6.018819,50.850121
Frederika-Gracht,47,,,6465CS,Kerkrade,Kerkrade,Limburg,VBO,6.018889,50.850099
Frederika-Gracht,48,,,6465CS,Kerkrade,Kerkrade,Limburg,VBO,6.018954,50.850105
Frederika-Gracht,49,,,6465CS,Kerkrade,Kerkrade,Limburg,VBO,6.019018,50.850110
Frederika-Gracht,50,,,6465CS,Kerkrade,Kerkrade,Limburg,VBO,6.019083,50.850115
Frederika-Gracht,51,,,6465CS,Kerkrade,Kerkrade,Limburg,VBO,6.019151,50.850121
Frederika-Gracht,52,,,6465CS,Kerkrade,Kerkrade,Limburg,VBO,6.019212,50.850126
Frederika-Gracht,53,,,6465CT,Kerkrade,Kerkrade,Limburg,VBO,6.019608,50.850100
Frederika-Gracht,54,,,6465CT,Kerkrade,Kerkrade,Limburg,VBO,6.019599,50.850140
Frederika-Gracht,55,,,6465CT,Kerkrade,Kerkrade,Limburg,VBO,6.019591,50.850180
Frederika-Gracht,56,,,6465CT,Kerkrade,Kerkrade,Limburg,VBO,6.019583,50.850220
Frederika-Gracht,57,,,6465CT,Kerkrade,Kerkrade,Limburg,VBO,6.019615,50.850285
Frederika-Gracht,58,,,6465CT,Kerkrade,Kerkrade,Limburg,VBO,6.019606,50.850326
Frederika-Gracht,59,,,6465CT,Kerkrade,Kerkrade,Limburg,VBO,6.019598,50.850368
Frederika-Gracht,60,,,6465CT,Kerkrade,Kerkrade,Limburg,VBO,6.019589,50.850409
Frederika-Gracht,61,,,6465CT,Kerkrade,Kerkrade,Limburg,VBO,6.019891,50.850328
Frederika-Gracht,62,,,6465CT,Kerkrade,Kerkrade,Limburg,VBO,6.019952,50.850333
Frederika-Gracht,63,,,6465CT,Kerkrade,Kerkrade,Limburg,VBO,6.020051,50.850312
Frederika-Gracht,64,,,6465CT,Kerkrade,Kerkrade,Limburg,VBO,6.020116,50.850318
Frederika-Gracht,65,,,6465CT,Kerkrade,Kerkrade,Limburg,VBO,6.020182,50.850323
Frederika-Gracht,66,,,6465CT,Kerkrade,Kerkrade,Limburg,VBO,6.020247,50.850329
Elisa-Gracht,1,,,6465CV,Kerkrade,Kerkrade,Limburg,VBO,6.020999,50.849059
Elisa-Gracht,2,,,6465CV,Kerkrade,Kerkrade,Limburg,VBO,6.020938,50.849054
Elisa-Gracht,3,,,6465CV,Kerkrade,Kerkrade,Limburg,VBO,6.020872,50.849048
Elisa-Gracht,4,,,6465CV,Kerkrade,Kerkrade,Limburg,VBO,6.020813,50.849014
Elisa-Gracht,5,,,6465CV,Kerkrade,Kerkrade,Limburg,VBO,6.020750,50.849009
Elisa-Gracht,6,,,6465CV,Kerkrade,Kerkrade,Limburg,VBO,6.020687,50.849003
Elisa-Gracht,7,,,6465CV,Kerkrade,Kerkrade,Limburg,VBO,6.020623,50.848998
Elisa-Gracht,8,,,6465CV,Kerkrade,Kerkrade,Limburg,VBO,6.020560,50.848993
Elisa-Gracht,9,,,6465CV,Kerkrade,Kerkrade,Limburg,VBO,6.020496,50.848987
Elisa-Gracht,10,,,6465CV,Kerkrade,Kerkrade,Limburg,VBO,6.020769,50.848609
Elisa-Gracht,11,,,6465CV,Kerkrade,Kerkrade,Limburg,VBO,6.020839,50.848615
Elisa-Gracht,12,,,6465CV,Kerkrade,Kerkrade,Limburg,VBO,6.020901,50.848621
Elisa-Gracht,13,,,6465CV,Kerkrade,Kerkrade,Limburg,VBO,6.021015,50.848661
Elisa-Gracht,14,,,6465CV,Kerkrade,Kerkrade,Limburg,VBO,6.021081,50.848667
Elisa-Gracht,15,,,6465CV,Kerkrade,Kerkrade,Limburg,VBO,6.021147,50.848673
Elisa-Gracht,16,,,6465CV,Kerkrade,Kerkrade,Limburg,VBO,6.021263,50.848442
Elisa-Gracht,17,,,6465CV,Kerkrade,Kerkrade,Limburg,VBO,6.021199,50.848436
Elisa-Gracht,18,,,6465CV,Kerkrade,Kerkrade,Limburg,VBO,6.021135,50.848431
Elisa-Gracht,19,,,6465CV,Kerkrade,Kerkrade,Limburg,VBO,6.021071,50.848426
Elisa-Gracht,20,,,6465CV,Kerkrade,Kerkrade,Limburg,VBO,6.020976,50.848447
Elisa-Gracht,21,,,6465CV,Kerkrade,Kerkrade,Limburg,VBO,6.020906,50.848442
Elisa-Gracht,22,,,6465CV,Kerkrade,Kerkrade,Limburg,VBO,6.020845,50.848437
Elisa-Gracht,23,,,6465CV,Kerkrade,Kerkrade,Limburg,VBO,6.020780,50.848431
Elisa-Gracht,24,,,6465CW,Kerkrade,Kerkrade,Limburg,VBO,6.020668,50.848527
Elisa-Gracht,25,,,6465CW,Kerkrade,Kerkrade,Limburg,VBO,6.020603,50.848521
Elisa-Gracht,26,,,6465CW,Kerkrade,Kerkrade,Limburg,VBO,6.020539,50.848516
Elisa-Gracht,27,,,6465CW,Kerkrade,Kerkrade,Limburg,VBO,6.020474,50.848511
Elisa-Gracht,28,,,6465CW,Kerkrade,Kerkrade,Limburg,VBO,6.020409,50.848505
Elisa-Gracht,29,,,6465CW,Kerkrade,Kerkrade,Limburg,VBO,6.020345,50.848500
Elisa-Gracht,30,,,6465CW,Kerkrade,Kerkrade,Limburg,VBO,6.020096,50.848463
Elisa-Gracht,31,,,6465CW,Kerkrade,Kerkrade,Limburg,VBO,6.020087,50.848506
Elisa-Gracht,32,,,6465CW,Kerkrade,Kerkrade,Limburg,VBO,6.020079,50.848545
Elisa-Gracht,33,,,6465CW,Kerkrade,Kerkrade,Limburg,VBO,6.020071,50.848586
Elisa-Gracht,34,,,6465CW,Kerkrade,Kerkrade,Limburg,VBO,6.020062,50.848626
Elisa-Gracht,35,,,6465CW,Kerkrade,Kerkrade,Limburg,VBO,6.020054,50.848667
Elisa-Gracht,36,,,6465CW,Kerkrade,Kerkrade,Limburg,VBO,6.020045,50.848708
Elisa-Gracht,37,,,6465CW,Kerkrade,Kerkrade,Limburg,VBO,6.020074,50.848790
Elisa-Gracht,38,,,6465CW,Kerkrade,Kerkrade,Limburg,VBO,6.020066,50.848831
Elisa-Gracht,39,,,6465CW,Kerkrade,Kerkrade,Limburg,VBO,6.020057,50.848872
Elisa-Gracht,40,,,6465CW,Kerkrade,Kerkrade,Limburg,VBO,6.020048,50.848913
Elisa-Gracht,41,,,6465CW,Kerkrade,Kerkrade,Limburg,VBO,6.019622,50.848834
Elisa-Gracht,42,,,6465CW,Kerkrade,Kerkrade,Limburg,VBO,6.019562,50.848829
Elisa-Gracht,43,,,6465CW,Kerkrade,Kerkrade,Limburg,VBO,6.019498,50.848823
Elisa-Gracht,44,,,6465CW,Kerkrade,Kerkrade,Limburg,VBO,6.019434,50.848818
Elisa-Gracht,45,,,6465CW,Kerkrade,Kerkrade,Limburg,VBO,6.019370,50.848813
Elisa-Gracht,46,,,6465CW,Kerkrade,Kerkrade,Limburg,VBO,6.019295,50.848860
Elisa-Gracht,47,,,6465CW,Kerkrade,Kerkrade,Limburg,VBO,6.019230,50.848855
Elisa-Gracht,48,,,6465CW,Kerkrade,Kerkrade,Limburg,VBO,6.019166,50.848849
Elisa-Gracht,49,,,6465CW,Kerkrade,Kerkrade,Limburg,VBO,6.019101,50.848843
Elisa-Gracht,50,,,6465CW,Kerkrade,Kerkrade,Limburg,VBO,6.019037,50.848837
Elisa-Gracht,51,,,6465CX,Kerkrade,Kerkrade,Limburg,VBO,6.018788,50.848735
Elisa-Gracht,52,,,6465CX,Kerkrade,Kerkrade,Limburg,VBO,6.018780,50.848773
Elisa-Gracht,53,,,6465CX,Kerkrade,Kerkrade,Limburg,VBO,6.018771,50.848814
Elisa-Gracht,54,,,6465CX,Kerkrade,Kerkrade,Limburg,VBO,6.018763,50.848855
Elisa-Gracht,55,,,6465CX,Kerkrade,Kerkrade,Limburg,VBO,6.018754,50.848896
Elisa-Gracht,56,,,6465CX,Kerkrade,Kerkrade,Limburg,VBO,6.018666,50.848969
Elisa-Gracht,57,,,6465CX,Kerkrade,Kerkrade,Limburg,VBO,6.018658,50.849011
Elisa-Gracht,58,,,6465CX,Kerkrade,Kerkrade,Limburg,VBO,6.018649,50.849052
Elisa-Gracht,59,,,6465CX,Kerkrade,Kerkrade,Limburg,VBO,6.018641,50.849093
Elisa-Gracht,60,,,6465CX,Kerkrade,Kerkrade,Limburg,VBO,6.018548,50.849127
Elisa-Gracht,61,,,6465CX,Kerkrade,Kerkrade,Limburg,VBO,6.018539,50.849170
Elisa-Gracht,62,,,6465CX,Kerkrade,Kerkrade,Limburg,VBO,6.018531,50.849208
Elisa-Gracht,63,,,6465CX,Kerkrade,Kerkrade,Limburg,VBO,6.018523,50.849248
Elisa-Gracht,64,,,6465CX,Kerkrade,Kerkrade,Limburg,VBO,6.018514,50.849289
Elisa-Gracht,65,,,6465CX,Kerkrade,Kerkrade,Limburg,VBO,6.018747,50.849303
Elisa-Gracht,66,,,6465CX,Kerkrade,Kerkrade,Limburg,VBO,6.018812,50.849308
Elisa-Gracht,67,,,6465CX,Kerkrade,Kerkrade,Limburg,VBO,6.018877,50.849313
Elisa-Gracht,68,,,6465CX,Kerkrade,Kerkrade,Limburg,VBO,6.018942,50.849319
Elisa-Gracht,69,,,6465CX,Kerkrade,Kerkrade,Limburg,VBO,6.019007,50.849324
Elisa-Gracht,70,,,6465CX,Kerkrade,Kerkrade,Limburg,VBO,6.019134,50.849305
Elisa-Gracht,71,,,6465CX,Kerkrade,Kerkrade,Limburg,VBO,6.019204,50.849311
Elisa-Gracht,72,,,6465CX,Kerkrade,Kerkrade,Limburg,VBO,6.019266,50.849316
Elisa-Gracht,72,,TR,6465CZ,Kerkrade,Kerkrade,Limburg,VBO,6.019343,50.849277
Elisa-Gracht,73,,,6465CZ,Kerkrade,Kerkrade,Limburg,VBO,6.019216,50.849166
Elisa-Gracht,74,,,6465CZ,Kerkrade,Kerkrade,Limburg,VBO,6.019224,50.849125
Elisa-Gracht,75,,,6465CZ,Kerkrade,Kerkrade,Limburg,VBO,6.019233,50.849084
Elisa-Gracht,76,,,6465CZ,Kerkrade,Kerkrade,Limburg,VBO,6.019241,50.849043
Elisa-Gracht,77,,,6465CZ,Kerkrade,Kerkrade,Limburg,VBO,6.019558,50.849130
Elisa-Gracht,78,,,6465CZ,Kerkrade,Kerkrade,Limburg,VBO,6.019623,50.849135
Elisa-Gracht,79,,,6465CZ,Kerkrade,Kerkrade,Limburg,VBO,6.019687,50.849141
Elisa-Gracht,80,,,6465CZ,Kerkrade,Kerkrade,Limburg,VBO,6.019751,50.849146
Elisa-Gracht,81,,,6465CZ,Kerkrade,Kerkrade,Limburg,VBO,6.019820,50.849151
Elisa-Gracht,82,,,6465CZ,Kerkrade,Kerkrade,Limburg,VBO,6.019880,50.849156
Elisa-Gracht,83,,,6465CZ,Kerkrade,Kerkrade,Limburg,VBO,6.019944,50.849162
Elisa-Gracht,84,,,6465CZ,Kerkrade,Kerkrade,Limburg,VBO,6.019959,50.849390
Elisa-Gracht,85,,,6465CZ,Kerkrade,Kerkrade,Limburg,VBO,6.019951,50.849431
Elisa-Gracht,86,,,6465CZ,Kerkrade,Kerkrade,Limburg,VBO,6.019942,50.849473
Elisa-Gracht,87,,,6465CZ,Kerkrade,Kerkrade,Limburg,VBO,6.019934,50.849514
Elisa-Gracht,88,,,6465CZ,Kerkrade,Kerkrade,Limburg,VBO,6.020209,50.849520
Elisa-Gracht,89,,,6465CZ,Kerkrade,Kerkrade,Limburg,VBO,6.020219,50.849479
Elisa-Gracht,90,,,6465CZ,Kerkrade,Kerkrade,Limburg,VBO,6.020228,50.849437
Elisa-Gracht,91,,,6465CZ,Kerkrade,Kerkrade,Limburg,VBO,6.020291,50.849362
Elisa-Gracht,92,,,6465CZ,Kerkrade,Kerkrade,Limburg,VBO,6.020300,50.849324
Elisa-Gracht,93,,,6465CZ,Kerkrade,Kerkrade,Limburg,VBO,6.020309,50.849283
Elisa-Gracht,94,,,6465CZ,Kerkrade,Kerkrade,Limburg,VBO,6.020318,50.849242
Elisa-Gracht,95,,,6465CZ,Kerkrade,Kerkrade,Limburg,VBO,6.020327,50.849201
Dorothea-Gracht,1,,,6465EA,Kerkrade,Kerkrade,Limburg,VBO,6.022999,50.848798
Dorothea-Gracht,2,,,6465EA,Kerkrade,Kerkrade,Limburg,VBO,6.023007,50.848760
Dorothea-Gracht,3,,,6465EA,Kerkrade,Kerkrade,Limburg,VBO,6.023015,50.848719
Dorothea-Gracht,4,,,6465EA,Kerkrade,Kerkrade,Limburg,VBO,6.023023,50.848678
Dorothea-Gracht,5,,,6465EA,Kerkrade,Kerkrade,Limburg,VBO,6.022990,50.848616
Dorothea-Gracht,6,,,6465EA,Kerkrade,Kerkrade,Limburg,VBO,6.022998,50.848575
Dorothea-Gracht,7,,,6465EA,Kerkrade,Kerkrade,Limburg,VBO,6.023006,50.848534
Dorothea-Gracht,8,,,6465EA,Kerkrade,Kerkrade,Limburg,VBO,6.023014,50.848492
Dorothea-Gracht,9,,,6465EA,Kerkrade,Kerkrade,Limburg,VBO,6.022962,50.848288
Dorothea-Gracht,10,,,6465EA,Kerkrade,Kerkrade,Limburg,VBO,6.023035,50.848294
Dorothea-Gracht,11,,,6465EA,Kerkrade,Kerkrade,Limburg,VBO,6.023095,50.848299
Dorothea-Gracht,12,,,6465EA,Kerkrade,Kerkrade,Limburg,VBO,6.023164,50.848305
Dorothea-Gracht,13,,,6465EA,Kerkrade,Kerkrade,Limburg,VBO,6.023283,50.848344
Dorothea-Gracht,14,,,6465EA,Kerkrade,Kerkrade,Limburg,VBO,6.023348,50.848349
Dorothea-Gracht,15,,,6465EA,Kerkrade,Kerkrade,Limburg,VBO,6.023412,50.848355
Dorothea-Gracht,16,,,6465EA,Kerkrade,Kerkrade,Limburg,VBO,6.023476,50.848360
Dorothea-Gracht,17,,,6465EA,Kerkrade,Kerkrade,Limburg,VBO,6.023540,50.848365
Dorothea-Gracht,18,,,6465EA,Kerkrade,Kerkrade,Limburg,VBO,6.023604,50.848370
Dorothea-Gracht,19,,,6465EA,Kerkrade,Kerkrade,Limburg,VBO,6.023668,50.848376
Dorothea-Gracht,20,,,6465EB,Kerkrade,Kerkrade,Limburg,VBO,6.023631,50.848601
Dorothea-Gracht,21,,,6465EB,Kerkrade,Kerkrade,Limburg,VBO,6.023622,50.848645
Dorothea-Gracht,22,,,6465EB,Kerkrade,Kerkrade,Limburg,VBO,6.023613,50.848684
Dorothea-Gracht,23,,,6465EB,Kerkrade,Kerkrade,Limburg,VBO,6.023556,50.848739
Dorothea-Gracht,24,,,6465EB,Kerkrade,Kerkrade,Limburg,VBO,6.023548,50.848780
Dorothea-Gracht,25,,,6465EB,Kerkrade,Kerkrade,Limburg,VBO,6.023539,50.848820
Dorothea-Gracht,26,,,6465EB,Kerkrade,Kerkrade,Limburg,VBO,6.023531,50.848861
Dorothea-Gracht,27,,,6465EB,Kerkrade,Kerkrade,Limburg,VBO,6.023522,50.848901
Dorothea-Gracht,28,,,6465EB,Kerkrade,Kerkrade,Limburg,VBO,6.022675,50.848158
Dorothea-Gracht,29,,,6465EB,Kerkrade,Kerkrade,Limburg,VBO,6.022666,50.848199
Dorothea-Gracht,30,,,6465EB,Kerkrade,Kerkrade,Limburg,VBO,6.022657,50.848241
Dorothea-Gracht,31,,,6465EB,Kerkrade,Kerkrade,Limburg,VBO,6.022598,50.848298
Dorothea-Gracht,32,,,6465EB,Kerkrade,Kerkrade,Limburg,VBO,6.022590,50.848336
Dorothea-Gracht,33,,,6465EB,Kerkrade,Kerkrade,Limburg,VBO,6.022581,50.848377
Dorothea-Gracht,34,,,6465EB,Kerkrade,Kerkrade,Limburg,VBO,6.022572,50.848417
Dorothea-Gracht,35,,,6465EB,Kerkrade,Kerkrade,Limburg,VBO,6.022563,50.848458
Dorothea-Gracht,36,,TR,6465EB,Kerkrade,Kerkrade,Limburg,VBO,6.022335,50.848263
Dorothea-Gracht,36,,,6465EB,Kerkrade,Kerkrade,Limburg,VBO,6.022242,50.848300
Dorothea-Gracht,37,,,6465EB,Kerkrade,Kerkrade,Limburg,VBO,6.022177,50.848294
Dorothea-Gracht,38,,,6465EB,Kerkrade,Kerkrade,Limburg,VBO,6.022113,50.848289
Dorothea-Gracht,39,,,6465EB,Kerkrade,Kerkrade,Limburg,VBO,6.022049,50.848284
Dorothea-Gracht,75,,BW1,6465EB,Kerkrade,Kerkrade,Limburg,VBO,6.022419,50.848674
Dorothea-Gracht,40,,,6465EC,Kerkrade,Kerkrade,Limburg,VBO,6.021985,50.848278
Dorothea-Gracht,41,,,6465EC,Kerkrade,Kerkrade,Limburg,VBO,6.021916,50.848273
Dorothea-Gracht,42,,,6465EC,Kerkrade,Kerkrade,Limburg,VBO,6.021673,50.848257
Dorothea-Gracht,43,,,6465EC,Kerkrade,Kerkrade,Limburg,VBO,6.021665,50.848298
Dorothea-Gracht,44,,,6465EC,Kerkrade,Kerkrade,Limburg,VBO,6.021657,50.848339
Dorothea-Gracht,45,,,6465EC,Kerkrade,Kerkrade,Limburg,VBO,6.021649,50.848380
Dorothea-Gracht,46,,,6465EC,Kerkrade,Kerkrade,Limburg,VBO,6.021682,50.848441
Dorothea-Gracht,47,,,6465EC,Kerkrade,Kerkrade,Limburg,VBO,6.021675,50.848482
Dorothea-Gracht,48,,,6465EC,Kerkrade,Kerkrade,Limburg,VBO,6.021667,50.848524
Dorothea-Gracht,49,,,6465EC,Kerkrade,Kerkrade,Limburg,VBO,6.021659,50.848565
Dorothea-Gracht,50,,,6465EC,Kerkrade,Kerkrade,Limburg,VBO,6.021569,50.848639
Dorothea-Gracht,51,,,6465EC,Kerkrade,Kerkrade,Limburg,VBO,6.021560,50.848683
Dorothea-Gracht,52,,,6465EC,Kerkrade,Kerkrade,Limburg,VBO,6.021552,50.848721
Dorothea-Gracht,53,,,6465EC,Kerkrade,Kerkrade,Limburg,VBO,6.021496,50.848776
Dorothea-Gracht,54,,,6465EC,Kerkrade,Kerkrade,Limburg,VBO,6.021487,50.848817
Dorothea-Gracht,55,,,6465EC,Kerkrade,Kerkrade,Limburg,VBO,6.021479,50.848857
Dorothea-Gracht,56,,,6465EC,Kerkrade,Kerkrade,Limburg,VBO,6.021471,50.848898
Dorothea-Gracht,57,,,6465EC,Kerkrade,Kerkrade,Limburg,VBO,6.021462,50.848939
Dorothea-Gracht,58,,,6465EC,Kerkrade,Kerkrade,Limburg,VBO,6.021768,50.848904
Dorothea-Gracht,59,,,6465EC,Kerkrade,Kerkrade,Limburg,VBO,6.021777,50.848865
Dorothea-Gracht,60,,,6465EC,Kerkrade,Kerkrade,Limburg,VBO,6.021785,50.848822
Dorothea-Gracht,61,,,6465EC,Kerkrade,Kerkrade,Limburg,VBO,6.021792,50.848780
Dorothea-Gracht,62,,,6465EC,Kerkrade,Kerkrade,Limburg,VBO,6.021798,50.848743
Dorothea-Gracht,63,,,6465EC,Kerkrade,Kerkrade,Limburg,VBO,6.021808,50.848702
Boudewijn-Eik,1,,,6465ED,Kerkrade,Kerkrade,Limburg,VBO,6.022616,50.849443
Boudewijn-Eik,2,,,6465ED,Kerkrade,Kerkrade,Limburg,VBO,6.022616,50.849443
Boudewijn-Eik,3,G,1,6465ED,Kerkrade,Kerkrade,Limburg,VBO,6.022691,50.849187
Boudewijn-Eik,3,G,10,6465ED,Kerkrade,Kerkrade,Limburg,VBO,6.022535,50.849636
Boudewijn-Eik,3,G,11,6465ED,Kerkrade,Kerkrade,Limburg,VBO,6.022528,50.849668
Boudewijn-Eik,3,G,12,6465ED,Kerkrade,Kerkrade,Limburg,VBO,6.022522,50.849698
Boudewijn-Eik,3,G,13,6465ED,Kerkrade,Kerkrade,Limburg,VBO,6.022505,50.849781
Boudewijn-Eik,3,G,14,6465ED,Kerkrade,Kerkrade,Limburg,VBO,6.022499,50.849813
Boudewijn-Eik,3,G,2,6465ED,Kerkrade,Kerkrade,Limburg,VBO,6.022681,50.849236
Boudewijn-Eik,3,G,3,6465ED,Kerkrade,Kerkrade,Limburg,VBO,6.022676,50.849265
Boudewijn-Eik,3,G,4,6465ED,Kerkrade,Kerkrade,Limburg,VBO,6.022666,50.849309
Boudewijn-Eik,3,G,5,6465ED,Kerkrade,Kerkrade,Limburg,VBO,6.022657,50.849358
Boudewijn-Eik,3,G,6,6465ED,Kerkrade,Kerkrade,Limburg,VBO,6.022650,50.849388
Boudewijn-Eik,3,G,7,6465ED,Kerkrade,Kerkrade,Limburg,VBO,6.022641,50.849435
Boudewijn-Eik,3,G,8,6465ED,Kerkrade,Kerkrade,Limburg,VBO,6.022548,50.849569
Boudewijn-Eik,3,G,9,6465ED,Kerkrade,Kerkrade,Limburg,VBO,6.022542,50.849604
Boudewijn-Eik,3,,,6465ED,Kerkrade,Kerkrade,Limburg,VBO,6.022616,50.849443
Boudewijn-Eik,4,,,6465ED,Kerkrade,Kerkrade,Limburg,VBO,6.022616,50.849443
Boudewijn-Eik,5,,,6465ED,Kerkrade,Kerkrade,Limburg,VBO,6.022616,50.849443
Boudewijn-Eik,6,,,6465ED,Kerkrade,Kerkrade,Limburg,VBO,6.022616,50.849443
Boudewijn-Eik,7,,,6465ED,Kerkrade,Kerkrade,Limburg,VBO,6.022616,50.849443
Boudewijn-Eik,8,,,6465ED,Kerkrade,Kerkrade,Limburg,VBO,6.022616,50.849443
Boudewijn-Eik,9,,,6465ED,Kerkrade,Kerkrade,Limburg,VBO,6.022616,50.849443
Boudewijn-Eik,10,,,6465ED,Kerkrade,Kerkrade,Limburg,VBO,6.022616,50.849443
Boudewijn-Eik,11,,,6465ED,Kerkrade,Kerkrade,Limburg,VBO,6.022616,50.849443
Boudewijn-Eik,12,,,6465ED,Kerkrade,Kerkrade,Limburg,VBO,6.022616,50.849443
Boudewijn-Eik,13,,,6465ED,Kerkrade,Kerkrade,Limburg,VBO,6.022616,50.849443
Boudewijn-Eik,14,,,6465ED,Kerkrade,Kerkrade,Limburg,VBO,6.022616,50.849443
Boudewijn-Eik,15,,,6465ED,Kerkrade,Kerkrade,Limburg,VBO,6.022616,50.849443
Boudewijn-Eik,16,,,6465ED,Kerkrade,Kerkrade,Limburg,VBO,6.022616,50.849443
Boudewijn-Eik,17,,,6465ED,Kerkrade,Kerkrade,Limburg,VBO,6.022616,50.849443
Boudewijn-Eik,18,,,6465ED,Kerkrade,Kerkrade,Limburg,VBO,6.022616,50.849443
Boudewijn-Eik,19,,,6465ED,Kerkrade,Kerkrade,Limburg,VBO,6.022616,50.849443
Boudewijn-Eik,20,,,6465ED,Kerkrade,Kerkrade,Limburg,VBO,6.022616,50.849443
Boudewijn-Eik,21,,,6465ED,Kerkrade,Kerkrade,Limburg,VBO,6.022616,50.849443
Boudewijn-Eik,22,,,6465ED,Kerkrade,Kerkrade,Limburg,VBO,6.022616,50.849443
Boudewijn-Eik,23,,,6465ED,Kerkrade,Kerkrade,Limburg,VBO,6.022616,50.849443
Boudewijn-Eik,24,,,6465ED,Kerkrade,Kerkrade,Limburg,VBO,6.022616,50.849443
Boudewijn-Eik,25,,,6465ED,Kerkrade,Kerkrade,Limburg,VBO,6.022616,50.849443
Boudewijn-Eik,26,,,6465EE,Kerkrade,Kerkrade,Limburg,VBO,6.022616,50.849443
Boudewijn-Eik,27,,,6465EE,Kerkrade,Kerkrade,Limburg,VBO,6.022616,50.849443
Boudewijn-Eik,28,,,6465EE,Kerkrade,Kerkrade,Limburg,VBO,6.022616,50.849443
Boudewijn-Eik,29,,,6465EE,Kerkrade,Kerkrade,Limburg,VBO,6.022616,50.849443
Boudewijn-Eik,30,,,6465EE,Kerkrade,Kerkrade,Limburg,VBO,6.022616,50.849443
Boudewijn-Eik,31,,,6465EE,Kerkrade,Kerkrade,Limburg,VBO,6.022616,50.849443
Boudewijn-Eik,32,,,6465EE,Kerkrade,Kerkrade,Limburg,VBO,6.022616,50.849443
Boudewijn-Eik,33,,,6465EE,Kerkrade,Kerkrade,Limburg,VBO,6.022616,50.849443
Boudewijn-Eik,34,,,6465EE,Kerkrade,Kerkrade,Limburg,VBO,6.022616,50.849443
Boudewijn-Eik,35,,,6465EE,Kerkrade,Kerkrade,Limburg,VBO,6.022616,50.849443
Boudewijn-Eik,36,,,6465EE,Kerkrade,Kerkrade,Limburg,VBO,6.022616,50.849443
Boudewijn-Eik,37,,,6465EE,Kerkrade,Kerkrade,Limburg,VBO,6.022616,50.849443
Boudewijn-Eik,38,,,6465EE,Kerkrade,Kerkrade,Limburg,VBO,6.022616,50.849443
Boudewijn-Eik,39,,,6465EE,Kerkrade,Kerkrade,Limburg,VBO,6.022616,50.849443
Boudewijn-Eik,40,,,6465EE,Kerkrade,Kerkrade,Limburg,VBO,6.022616,50.849443
Boudewijn-Eik,41,,,6465EE,Kerkrade,Kerkrade,Limburg,VBO,6.022616,50.849443
Boudewijn-Eik,42,,,6465EE,Kerkrade,Kerkrade,Limburg,VBO,6.022616,50.849443
Boudewijn-Eik,43,,,6465EE,Kerkrade,Kerkrade,Limburg,VBO,6.022616,50.849443
Boudewijn-Eik,44,,,6465EE,Kerkrade,Kerkrade,Limburg,VBO,6.022616,50.849443
Boudewijn-Eik,45,,,6465EE,Kerkrade,Kerkrade,Limburg,VBO,6.022616,50.849443
Boudewijn-Eik,46,,,6465EE,Kerkrade,Kerkrade,Limburg,VBO,6.022616,50.849443
Boudewijn-Eik,47,,,6465EG,Kerkrade,Kerkrade,Limburg,VBO,6.023224,50.849705
Boudewijn-Eik,48,,,6465EG,Kerkrade,Kerkrade,Limburg,VBO,6.023234,50.849656
Boudewijn-Eik,49,,,6465EG,Kerkrade,Kerkrade,Limburg,VBO,6.023247,50.849598
Boudewijn-Eik,50,,,6465EG,Kerkrade,Kerkrade,Limburg,VBO,6.023259,50.849541
Boudewijn-Eik,51,,,6465EG,Kerkrade,Kerkrade,Limburg,VBO,6.023272,50.849481
Boudewijn-Eik,52,,,6465EG,Kerkrade,Kerkrade,Limburg,VBO,6.023284,50.849426
Boudewijn-Eik,53,,,6465EG,Kerkrade,Kerkrade,Limburg,VBO,6.023296,50.849368
Caecilia-Gracht,1,,,6465EH,Kerkrade,Kerkrade,Limburg,VBO,6.024116,50.848918
Caecilia-Gracht,2,,,6465EH,Kerkrade,Kerkrade,Limburg,VBO,6.024125,50.848874
Caecilia-Gracht,3,,,6465EH,Kerkrade,Kerkrade,Limburg,VBO,6.024134,50.848833
Caecilia-Gracht,4,,,6465EH,Kerkrade,Kerkrade,Limburg,VBO,6.024142,50.848791
Caecilia-Gracht,5,,,6465EH,Kerkrade,Kerkrade,Limburg,VBO,6.024109,50.848729
Caecilia-Gracht,6,,,6465EH,Kerkrade,Kerkrade,Limburg,VBO,6.024118,50.848688
Caecilia-Gracht,7,,,6465EH,Kerkrade,Kerkrade,Limburg,VBO,6.024126,50.848647
Caecilia-Gracht,8,,,6465EH,Kerkrade,Kerkrade,Limburg,VBO,6.024135,50.848607
Caecilia-Gracht,9,,,6465EH,Kerkrade,Kerkrade,Limburg,VBO,6.023916,50.848411
Caecilia-Gracht,10,,,6465EH,Kerkrade,Kerkrade,Limburg,VBO,6.023989,50.848417
Caecilia-Gracht,11,,,6465EH,Kerkrade,Kerkrade,Limburg,VBO,6.024050,50.848422
Caecilia-Gracht,12,,,6465EH,Kerkrade,Kerkrade,Limburg,VBO,6.024119,50.848428
Caecilia-Gracht,13,,,6465EH,Kerkrade,Kerkrade,Limburg,VBO,6.024249,50.848410
Caecilia-Gracht,14,,,6465EH,Kerkrade,Kerkrade,Limburg,VBO,6.024313,50.848415
Caecilia-Gracht,15,,,6465EH,Kerkrade,Kerkrade,Limburg,VBO,6.024378,50.848421
Caecilia-Gracht,16,,,6465EH,Kerkrade,Kerkrade,Limburg,VBO,6.024442,50.848426
Caecilia-Gracht,17,,,6465EH,Kerkrade,Kerkrade,Limburg,VBO,6.024506,50.848431
Caecilia-Gracht,18,,,6465EH,Kerkrade,Kerkrade,Limburg,VBO,6.024571,50.848437
Caecilia-Gracht,19,,,6465EJ,Kerkrade,Kerkrade,Limburg,VBO,6.024635,50.848442
Caecilia-Gracht,20,,,6465EJ,Kerkrade,Kerkrade,Limburg,VBO,6.024995,50.848568
Caecilia-Gracht,21,,,6465EJ,Kerkrade,Kerkrade,Limburg,VBO,6.025004,50.848530
Caecilia-Gracht,22,,,6465EJ,Kerkrade,Kerkrade,Limburg,VBO,6.025014,50.848487
Caecilia-Gracht,23,,,6465EJ,Kerkrade,Kerkrade,Limburg,VBO,6.025023,50.848446
Caecilia-Gracht,24,,,6465EJ,Kerkrade,Kerkrade,Limburg,VBO,6.025032,50.848405
Caecilia-Gracht,25,,,6465EJ,Kerkrade,Kerkrade,Limburg,VBO,6.025041,50.848364
Caecilia-Gracht,26,,,6465EJ,Kerkrade,Kerkrade,Limburg,VBO,6.025317,50.848538
Caecilia-Gracht,27,,,6465EJ,Kerkrade,Kerkrade,Limburg,VBO,6.025309,50.848579
Caecilia-Gracht,28,,,6465EJ,Kerkrade,Kerkrade,Limburg,VBO,6.025300,50.848621
Caecilia-Gracht,29,,,6465EJ,Kerkrade,Kerkrade,Limburg,VBO,6.025329,50.848701
Caecilia-Gracht,30,,,6465EJ,Kerkrade,Kerkrade,Limburg,VBO,6.025321,50.848742
Caecilia-Gracht,31,,,6465EJ,Kerkrade,Kerkrade,Limburg,VBO,6.025313,50.848780
Caecilia-Gracht,32,,,6465EJ,Kerkrade,Kerkrade,Limburg,VBO,6.025305,50.848823
Caecilia-Gracht,33,,,6465EJ,Kerkrade,Kerkrade,Limburg,VBO,6.025296,50.848863
Caecilia-Gracht,34,,,6465EJ,Kerkrade,Kerkrade,Limburg,VBO,6.025239,50.848919
Caecilia-Gracht,35,,,6465EJ,Kerkrade,Kerkrade,Limburg,VBO,6.025231,50.848959
Caecilia-Gracht,36,,,6465EJ,Kerkrade,Kerkrade,Limburg,VBO,6.025222,50.849000
Caecilia-Gracht,37,,,6465EJ,Kerkrade,Kerkrade,Limburg,VBO,6.025169,50.849037
Caecilia-Gracht,38,,,6465EJ,Kerkrade,Kerkrade,Limburg,VBO,6.025160,50.849079
Birgitta-Gracht,1,,,6465EK,Kerkrade,Kerkrade,Limburg,VBO,6.025913,50.849330
Birgitta-Gracht,2,,,6465EK,Kerkrade,Kerkrade,Limburg,VBO,6.025998,50.849346
Birgitta-Gracht,3,,,6465EK,Kerkrade,Kerkrade,Limburg,VBO,6.026093,50.849362
Birgitta-Gracht,4,,,6465EK,Kerkrade,Kerkrade,Limburg,VBO,6.026157,50.849390
Birgitta-Gracht,5,,,6465EK,Kerkrade,Kerkrade,Limburg,VBO,6.026231,50.849423
Birgitta-Gracht,6,,,6465EK,Kerkrade,Kerkrade,Limburg,VBO,6.026306,50.849456
Birgitta-Gracht,7,,,6465EK,Kerkrade,Kerkrade,Limburg,VBO,6.026381,50.849489
Birgitta-Gracht,8,,,6465EK,Kerkrade,Kerkrade,Limburg,VBO,6.026455,50.849522
Birgitta-Gracht,9,,,6465EK,Kerkrade,Kerkrade,Limburg,VBO,6.026597,50.849538
Birgitta-Gracht,10,,,6465EK,Kerkrade,Kerkrade,Limburg,VBO,6.026655,50.849563
Birgitta-Gracht,11,,,6465EK,Kerkrade,Kerkrade,Limburg,VBO,6.026734,50.849598
Birgitta-Gracht,12,,,6465EK,Kerkrade,Kerkrade,Limburg,VBO,6.026807,50.849630
Birgitta-Gracht,13,,,6465EK,Kerkrade,Kerkrade,Limburg,VBO,6.026968,50.849700
Birgitta-Gracht,14,,,6465EK,Kerkrade,Kerkrade,Limburg,VBO,6.027013,50.849659
Birgitta-Gracht,15,,,6465EK,Kerkrade,Kerkrade,Limburg,VBO,6.027065,50.849612
Birgitta-Gracht,16,,,6465EK,Kerkrade,Kerkrade,Limburg,VBO,6.027116,50.849565
Birgitta-Gracht,17,,,6465EK,Kerkrade,Kerkrade,Limburg,VBO,6.027168,50.849518
Birgitta-Gracht,18,,,6465EK,Kerkrade,Kerkrade,Limburg,VBO,6.027220,50.849471
Birgitta-Gracht,19,,,6465EK,Kerkrade,Kerkrade,Limburg,VBO,6.027272,50.849424
Birgitta-Gracht,20,,,6465EL,Kerkrade,Kerkrade,Limburg,VBO,6.027322,50.849378
Birgitta-Gracht,21,,,6465EL,Kerkrade,Kerkrade,Limburg,VBO,6.027376,50.849329
Birgitta-Gracht,22,,,6465EL,Kerkrade,Kerkrade,Limburg,VBO,6.027472,50.849217
Birgitta-Gracht,23,,,6465EL,Kerkrade,Kerkrade,Limburg,VBO,6.027407,50.849189
Birgitta-Gracht,24,,,6465EL,Kerkrade,Kerkrade,Limburg,VBO,6.027332,50.849156
Birgitta-Gracht,25,,,6465EL,Kerkrade,Kerkrade,Limburg,VBO,6.027258,50.849123
Birgitta-Gracht,26,,,6465EL,Kerkrade,Kerkrade,Limburg,VBO,6.027183,50.849090
Birgitta-Gracht,27,,,6465EL,Kerkrade,Kerkrade,Limburg,VBO,6.027108,50.849058
Birgitta-Gracht,28,,,6465EL,Kerkrade,Kerkrade,Limburg,VBO,6.026961,50.848971
Birgitta-Gracht,29,,,6465EL,Kerkrade,Kerkrade,Limburg,VBO,6.026916,50.849012
Birgitta-Gracht,30,,,6465EL,Kerkrade,Kerkrade,Limburg,VBO,6.026864,50.849060
Birgitta-Gracht,31,,,6465EL,Kerkrade,Kerkrade,Limburg,VBO,6.026781,50.849108
Birgitta-Gracht,32,,,6465EL,Kerkrade,Kerkrade,Limburg,VBO,6.026740,50.849145
Birgitta-Gracht,33,,,6465EL,Kerkrade,Kerkrade,Limburg,VBO,6.026687,50.849193
Birgitta-Gracht,34,,,6465EL,Kerkrade,Kerkrade,Limburg,VBO,6.026210,50.849031
