openbareruimtenaam,huisnummer,huisletter,huisnummertoevoeging,postcode,woonplaatsnaam,gemeentenaam,provincienaam,typeadresseerbaarobject,longitude,latitude
Bagijnstraat,2,A,,6582AA,Heumen,Heumen,Gelderland,VBO,5.864778,51.770263
Bagijnstraat,2,,,6582AA,Heumen,Heumen,Gelderland,VBO,5.866680,51.770813
Rijksweg,217,,,6582AA,Heumen,Heumen,Gelderland,VBO,5.863729,51.770250
Rijksweg,221,,,6582AA,Heumen,Heumen,Gelderland,VBO,5.864109,51.769988
Rijksweg,225,,,6582AA,Heumen,Heumen,Gelderland,VBO,5.864545,51.769482
Rijksweg,227,,,6582AA,Heumen,Heumen,Gelderland,VBO,5.864673,51.769265
Rijksweg,229,,,6582AA,Heumen,Heumen,Gelderland,VBO,5.864813,51.769113
Rijksweg,231,,,6582AA,Heumen,Heumen,Gelderland,VBO,5.865191,51.768719
Rijksweg,233,,,6582AA,Heumen,Heumen,Gelderland,VBO,5.865869,51.768687
Rijksweg,235,,,6582AA,Heumen,Heumen,Gelderland,VBO,5.866146,51.768143
Rijksweg,251,,,6582AA,Heumen,Heumen,Gelderland,VBO,5.867465,51.766549
Rijksweg,253,,,6582AA,Heumen,Heumen,Gelderland,VBO,5.867565,51.766480
Rijksweg,206,,,6582AB,Heumen,Heumen,Gelderland,VBO,5.862901,51.770461
Rijksweg,208,,,6582AB,Heumen,Heumen,Gelderland,VBO,5.862247,51.769871
Rijksweg,214,,,6582AB,Heumen,Heumen,Gelderland,VBO,5.863993,51.769272
Rijksweg,222,,,6582AB,Heumen,Heumen,Gelderland,VBO,5.863146,51.768505
Rijksweg,224,,,6582AB,Heumen,Heumen,Gelderland,VBO,5.863657,51.768294
Rijksweg,230,,,6582AB,Heumen,Heumen,Gelderland,VBO,5.865294,51.767875
Rijksweg,232,,,6582AB,Heumen,Heumen,Gelderland,VBO,5.864950,51.766949
Rijksweg,234,,,6582AB,Heumen,Heumen,Gelderland,VBO,5.866345,51.766677
Rijksweg,236,,,6582AB,Heumen,Heumen,Gelderland,VBO,5.866812,51.766454
Rijksweg,238,,,6582AB,Heumen,Heumen,Gelderland,VBO,5.866855,51.766411
Rijksweg,240,,,6582AB,Heumen,Heumen,Gelderland,VBO,5.867003,51.766260
Rijksweg,242,,T001,6582AB,Heumen,Heumen,Gelderland,VBO,5.867168,51.766194
Rijksweg,244,,,6582AB,Heumen,Heumen,Gelderland,VBO,5.867292,51.766100
Rijksweg,246,,,6582AB,Heumen,Heumen,Gelderland,VBO,5.867344,51.766050
Rijksweg,248,,,6582AB,Heumen,Heumen,Gelderland,VBO,5.867429,51.765959
Rijksweg,250,,,6582AB,Heumen,Heumen,Gelderland,VBO,5.867556,51.765814
Rijksweg,254,,,6582AB,Heumen,Heumen,Gelderland,VBO,5.867596,51.765479
Rijksweg,256,,,6582AC,Heumen,Heumen,Gelderland,VBO,5.867919,51.765038
Rijksweg,258,,,6582AC,Heumen,Heumen,Gelderland,VBO,5.867961,51.764955
Rijksweg,260,A,,6582AC,Heumen,Heumen,Gelderland,VBO,5.868081,51.764279
Rijksweg,260,B,,6582AC,Heumen,Heumen,Gelderland,VBO,5.867961,51.764325
Rijksweg,260,C,,6582AC,Heumen,Heumen,Gelderland,VBO,5.868030,51.764407
Rijksweg,260,D,,6582AC,Heumen,Heumen,Gelderland,VBO,5.868045,51.764273
Rijksweg,260,E,,6582AC,Heumen,Heumen,Gelderland,VBO,5.867926,51.764319
Rijksweg,260,F,,6582AC,Heumen,Heumen,Gelderland,VBO,5.867996,51.764400
Rijksweg,260,G,,6582AC,Heumen,Heumen,Gelderland,VBO,5.868008,51.764263
Rijksweg,260,H,,6582AC,Heumen,Heumen,Gelderland,VBO,5.867894,51.764311
Rijksweg,260,I,,6582AC,Heumen,Heumen,Gelderland,VBO,5.867961,51.764394
Rijksweg,260,,,6582AC,Heumen,Heumen,Gelderland,VBO,5.868013,51.764573
Rijksweg,262,A,,6582AC,Heumen,Heumen,Gelderland,VBO,5.867745,51.764058
Rijksweg,262,,,6582AC,Heumen,Heumen,Gelderland,VBO,5.868049,51.764340
Rijksweg,264,,,6582AC,Heumen,Heumen,Gelderland,VBO,5.868197,51.764023
Rijksweg,266,,,6582AC,Heumen,Heumen,Gelderland,VBO,5.868192,51.763726
Rijksweg,268,,,6582AC,Heumen,Heumen,Gelderland,VBO,5.868536,51.763460
Rijksweg,270,,,6582AC,Heumen,Heumen,Gelderland,VBO,5.868505,51.762712
Bredeweg,2,,,6582AD,Heumen,Heumen,Gelderland,VBO,5.866875,51.762133
Bredeweg,4,,,6582AD,Heumen,Heumen,Gelderland,VBO,5.866107,51.762281
Bredeweg,6,,,6582AD,Heumen,Heumen,Gelderland,VBO,5.865127,51.759411
Molenstraat,1,,,6582AE,Heumen,Heumen,Gelderland,VBO,5.867440,51.764869
Molenstraat,2,A,,6582AE,Heumen,Heumen,Gelderland,VBO,5.866741,51.765012
Molenstraat,2,,,6582AE,Heumen,Heumen,Gelderland,VBO,5.867016,51.765094
Molenstraat,3,,,6582AE,Heumen,Heumen,Gelderland,VBO,5.867359,51.764840
Molenstraat,4,,,6582AE,Heumen,Heumen,Gelderland,VBO,5.866306,51.764866
Molenstraat,5,,,6582AE,Heumen,Heumen,Gelderland,VBO,5.867191,51.764783
Molenstraat,6,A,,6582AE,Heumen,Heumen,Gelderland,VBO,5.865716,51.764638
Molenstraat,6,,,6582AE,Heumen,Heumen,Gelderland,VBO,5.865870,51.764695
Molenstraat,7,,,6582AE,Heumen,Heumen,Gelderland,VBO,5.867110,51.764755
Molenstraat,8,,,6582AE,Heumen,Heumen,Gelderland,VBO,5.865395,51.764590
Molenstraat,9,,,6582AE,Heumen,Heumen,Gelderland,VBO,5.866965,51.764703
Molenstraat,10,,,6582AE,Heumen,Heumen,Gelderland,VBO,5.864798,51.764563
Molenstraat,11,,,6582AE,Heumen,Heumen,Gelderland,VBO,5.866879,51.764673
Molenstraat,13,,,6582AE,Heumen,Heumen,Gelderland,VBO,5.866698,51.764610
Molenstraat,15,,,6582AE,Heumen,Heumen,Gelderland,VBO,5.866534,51.764553
Molenstraat,17,,,6582AE,Heumen,Heumen,Gelderland,VBO,5.866289,51.764474
Molenstraat,18,,,6582AE,Heumen,Heumen,Gelderland,VBO,5.862961,51.764332
Molenstraat,19,A,,6582AE,Heumen,Heumen,Gelderland,VBO,5.866088,51.764346
Molenstraat,19,,,6582AE,Heumen,Heumen,Gelderland,VBO,5.866213,51.764450
Molenstraat,20,A,,6582AE,Heumen,Heumen,Gelderland,VBO,5.861474,51.763878
Molenstraat,20,,,6582AE,Heumen,Heumen,Gelderland,VBO,5.861512,51.763886
Molenstraat,21,,,6582AE,Heumen,Heumen,Gelderland,VBO,5.865547,51.764183
Molenstraat,23,,,6582AE,Heumen,Heumen,Gelderland,VBO,5.863973,51.763137
Molenstraat,25,A,,6582AE,Heumen,Heumen,Gelderland,VBO,5.863667,51.764215
Molenstraat,25,,,6582AE,Heumen,Heumen,Gelderland,VBO,5.863545,51.764181
Molenstraat,27,,,6582AE,Heumen,Heumen,Gelderland,VBO,5.862705,51.763859
Molenstraat,29,,,6582AE,Heumen,Heumen,Gelderland,VBO,5.862199,51.763654
Jan J. Ludenlaan,2,,,6582AG,Heumen,Heumen,Gelderland,VBO,5.835571,51.766809
Sluisweg,1,A,,6582AG,Heumen,Heumen,Gelderland,VBO,5.861406,51.769963
Sluisweg,1,B,,6582AG,Heumen,Heumen,Gelderland,VBO,5.861100,51.769993
Sluisweg,1,,,6582AG,Heumen,Heumen,Gelderland,VBO,5.862039,51.770146
Sluisweg,3,,,6582AG,Heumen,Heumen,Gelderland,VBO,5.860764,51.769779
Sluisweg,5,,,6582AG,Heumen,Heumen,Gelderland,VBO,5.860172,51.769737
Sluisweg,7,A,,6582AG,Heumen,Heumen,Gelderland,VBO,5.859097,51.769663
Sluisweg,7,,,6582AG,Heumen,Heumen,Gelderland,VBO,5.859208,51.769682
Sluisweg,9,,,6582AG,Heumen,Heumen,Gelderland,VBO,5.858846,51.769556
Sluisweg,11,,,6582AG,Heumen,Heumen,Gelderland,VBO,5.858341,51.769516
Sluisweg,13,A,,6582AG,Heumen,Heumen,Gelderland,VBO,5.856368,51.769128
Sluisweg,13,,,6582AG,Heumen,Heumen,Gelderland,VBO,5.857767,51.769378
Kuilseweg,1,,,6582AH,Heumen,Heumen,Gelderland,VBO,5.867492,51.766952
Kuilseweg,3,,,6582AH,Heumen,Heumen,Gelderland,VBO,5.867367,51.767210
Oosterkanaaldijk,1,,,6582AJ,Heumen,Heumen,Gelderland,VBO,5.854747,51.767967
Oosterkanaaldijk,3,,,6582AJ,Heumen,Heumen,Gelderland,VBO,5.855771,51.767921
Oosterkanaaldijk,5,,,6582AJ,Heumen,Heumen,Gelderland,VBO,5.857855,51.765796
Oosterkanaaldijk,7,,,6582AJ,Heumen,Heumen,Gelderland,VBO,5.862146,51.761627
Dorpstraat,5,,,6582AK,Heumen,Heumen,Gelderland,VBO,5.845550,51.764350
Dorpstraat,7,A,,6582AK,Heumen,Heumen,Gelderland,VBO,5.845217,51.764255
Dorpstraat,7,,,6582AK,Heumen,Heumen,Gelderland,VBO,5.845304,51.764277
Dorpstraat,9,A,,6582AK,Heumen,Heumen,Gelderland,VBO,5.844736,51.764157
Dorpstraat,9,,,6582AK,Heumen,Heumen,Gelderland,VBO,5.844906,51.764186
Dorpstraat,11,,,6582AK,Heumen,Heumen,Gelderland,VBO,5.844537,51.764131
Dorpstraat,13,,,6582AK,Heumen,Heumen,Gelderland,VBO,5.844388,51.764116
Dorpstraat,17,,,6582AK,Heumen,Heumen,Gelderland,VBO,5.843950,51.764021
Dorpstraat,19,,,6582AL,Heumen,Heumen,Gelderland,VBO,5.843282,51.764009
Dorpstraat,21,,,6582AL,Heumen,Heumen,Gelderland,VBO,5.842843,51.764023
Dorpstraat,23,,,6582AL,Heumen,Heumen,Gelderland,VBO,5.842532,51.764126
Dorpstraat,25,,,6582AL,Heumen,Heumen,Gelderland,VBO,5.842411,51.764125
Dorpstraat,27,,,6582AL,Heumen,Heumen,Gelderland,VBO,5.842286,51.764124
Dorpstraat,29,,,6582AL,Heumen,Heumen,Gelderland,VBO,5.842007,51.764128
Dorpstraat,31,A,,6582AL,Heumen,Heumen,Gelderland,VBO,5.841518,51.764095
Dorpstraat,31,B,,6582AL,Heumen,Heumen,Gelderland,VBO,5.841269,51.764099
Dorpstraat,31,C,,6582AL,Heumen,Heumen,Gelderland,VBO,5.841179,51.764101
Dorpstraat,31,,,6582AL,Heumen,Heumen,Gelderland,VBO,5.841707,51.764093
Dorpstraat,33,,,6582AL,Heumen,Heumen,Gelderland,VBO,5.840997,51.764035
Dorpstraat,35,,,6582AL,Heumen,Heumen,Gelderland,VBO,5.840772,51.764108
Dorpstraat,37,,,6582AL,Heumen,Heumen,Gelderland,VBO,5.840538,51.764126
Dorpstraat,39,,,6582AL,Heumen,Heumen,Gelderland,VBO,5.839383,51.764270
Dorpstraat,41,,,6582AL,Heumen,Heumen,Gelderland,VBO,5.839083,51.764254
Dorpstraat,43,,,6582AL,Heumen,Heumen,Gelderland,VBO,5.838381,51.764213
Dorpstraat,6,,T001,6582AM,Heumen,Heumen,Gelderland,VBO,5.845505,51.764604
Dorpstraat,12,,,6582AM,Heumen,Heumen,Gelderland,VBO,5.845055,51.764457
Dorpstraat,14,,,6582AM,Heumen,Heumen,Gelderland,VBO,5.844985,51.764442
Dorpstraat,16,,,6582AM,Heumen,Heumen,Gelderland,VBO,5.844844,51.764415
Dorpstraat,18,,,6582AM,Heumen,Heumen,Gelderland,VBO,5.844776,51.764403
Dorpstraat,20,,,6582AN,Heumen,Heumen,Gelderland,VBO,5.844708,51.764389
Dorpstraat,22,A,,6582AN,Heumen,Heumen,Gelderland,VBO,5.844377,51.764355
Dorpstraat,22,,,6582AN,Heumen,Heumen,Gelderland,VBO,5.844487,51.764365
Dorpstraat,24,A,,6582AN,Heumen,Heumen,Gelderland,VBO,5.844100,51.764318
Dorpstraat,24,,,6582AN,Heumen,Heumen,Gelderland,VBO,5.844199,51.764328
Dorpstraat,26,A,,6582AN,Heumen,Heumen,Gelderland,VBO,5.843852,51.764404
Dorpstraat,26,,,6582AN,Heumen,Heumen,Gelderland,VBO,5.843865,51.764295
Dorpstraat,28,,,6582AN,Heumen,Heumen,Gelderland,VBO,5.843883,51.764526
Dorpstraat,30,,,6582AN,Heumen,Heumen,Gelderland,VBO,5.843616,51.764304
Dorpstraat,32,,,6582AN,Heumen,Heumen,Gelderland,VBO,5.843257,51.764471
Dorpstraat,34,,,6582AN,Heumen,Heumen,Gelderland,VBO,5.842783,51.764685
Dorpstraat,36,,,6582AN,Heumen,Heumen,Gelderland,VBO,5.842484,51.764312
Dorpstraat,38,,,6582AN,Heumen,Heumen,Gelderland,VBO,5.841888,51.764314
Dorpstraat,40,,,6582AN,Heumen,Heumen,Gelderland,VBO,5.841554,51.764340
Dorpstraat,42,,,6582AN,Heumen,Heumen,Gelderland,VBO,5.841336,51.764346
Dorpstraat,44,A,,6582AP,Heumen,Heumen,Gelderland,VBO,5.840847,51.764387
Dorpstraat,44,,,6582AP,Heumen,Heumen,Gelderland,VBO,5.840882,51.764319
Dorpstraat,46,,,6582AP,Heumen,Heumen,Gelderland,VBO,5.840473,51.764418
Dorpstraat,48,A,,6582AP,Heumen,Heumen,Gelderland,VBO,5.840011,51.764463
Dorpstraat,48,,,6582AP,Heumen,Heumen,Gelderland,VBO,5.840250,51.764439
Dorpstraat,50,,,6582AP,Heumen,Heumen,Gelderland,VBO,5.839743,51.764451
Dorpstraat,52,,,6582AP,Heumen,Heumen,Gelderland,VBO,5.839557,51.764527
Dorpstraat,56,,,6582AP,Heumen,Heumen,Gelderland,VBO,5.839359,51.764503
Dorpstraat,58,,,6582AP,Heumen,Heumen,Gelderland,VBO,5.839086,51.764513
Dorpstraat,60,,,6582AP,Heumen,Heumen,Gelderland,VBO,5.838993,51.764517
Dorpstraat,62,,,6582AP,Heumen,Heumen,Gelderland,VBO,5.838517,51.764535
Maasstraat,1,A,,6582AR,Heumen,Heumen,Gelderland,VBO,5.846403,51.764303
Maasstraat,1,,,6582AR,Heumen,Heumen,Gelderland,VBO,5.846320,51.764341
Maasstraat,2,,,6582AR,Heumen,Heumen,Gelderland,VBO,5.846116,51.764157
Maasstraat,3,,,6582AR,Heumen,Heumen,Gelderland,VBO,5.846604,51.764225
Maasstraat,4,,,6582AR,Heumen,Heumen,Gelderland,VBO,5.846190,51.764123
Maasstraat,5,,,6582AR,Heumen,Heumen,Gelderland,VBO,5.846664,51.764200
Maasstraat,6,,,6582AR,Heumen,Heumen,Gelderland,VBO,5.846422,51.764040
Maasstraat,7,A,,6582AR,Heumen,Heumen,Gelderland,VBO,5.847383,51.763930
Maasstraat,7,,,6582AR,Heumen,Heumen,Gelderland,VBO,5.846916,51.764142
Maasstraat,9,A,,6582AR,Heumen,Heumen,Gelderland,VBO,5.847914,51.764050
Maasstraat,9,B,,6582AR,Heumen,Heumen,Gelderland,VBO,5.848384,51.765252
Maasstraat,9,,,6582AR,Heumen,Heumen,Gelderland,VBO,5.847863,51.765170
Maasstraat,11,,,6582AR,Heumen,Heumen,Gelderland,VBO,5.850613,51.763304
Maasstraat,12,,,6582AR,Heumen,Heumen,Gelderland,VBO,5.846924,51.763785
Maasstraat,13,,,6582AR,Heumen,Heumen,Gelderland,VBO,5.852917,51.762972
Maasstraat,16,,,6582AR,Heumen,Heumen,Gelderland,VBO,5.847404,51.763561
Maasstraat,18,,,6582AR,Heumen,Heumen,Gelderland,VBO,5.847624,51.763487
Maasstraat,22,,,6582AR,Heumen,Heumen,Gelderland,VBO,5.848014,51.763336
Oude Boterdijk,1,,,6582AS,Heumen,Heumen,Gelderland,VBO,5.844844,51.764848
Oude Boterdijk,3,,,6582AS,Heumen,Heumen,Gelderland,VBO,5.844780,51.764886
Oude Boterdijk,5,,,6582AS,Heumen,Heumen,Gelderland,VBO,5.844615,51.764985
Oude Boterdijk,7,,,6582AS,Heumen,Heumen,Gelderland,VBO,5.844547,51.765024
Oude Boterdijk,9,,,6582AS,Heumen,Heumen,Gelderland,VBO,5.843993,51.765364
Oude Boterdijk,11,,,6582AS,Heumen,Heumen,Gelderland,VBO,5.843868,51.765486
Oude Boterdijk,13,,,6582AS,Heumen,Heumen,Gelderland,VBO,5.843721,51.765645
Oude Boterdijk,15,,,6582AS,Heumen,Heumen,Gelderland,VBO,5.843554,51.765887
Oude Boterdijk,17,,,6582AS,Heumen,Heumen,Gelderland,VBO,5.843490,51.765991
Oude Boterdijk,19,,,6582AS,Heumen,Heumen,Gelderland,VBO,5.843437,51.766093
Oude Boterdijk,21,,,6582AS,Heumen,Heumen,Gelderland,VBO,5.843386,51.766192
Oude Boterdijk,23,,,6582AS,Heumen,Heumen,Gelderland,VBO,5.843325,51.766294
Oude Boterdijk,25,,,6582AS,Heumen,Heumen,Gelderland,VBO,5.843257,51.766453
Oude Boterdijk,27,,,6582AS,Heumen,Heumen,Gelderland,VBO,5.843375,51.767055
Oude Boterdijk,29,,,6582AS,Heumen,Heumen,Gelderland,VBO,5.843344,51.767688
Oude Boterdijk,31,,,6582AS,Heumen,Heumen,Gelderland,VBO,5.843281,51.767616
Oude Boterdijk,37,,,6582AS,Heumen,Heumen,Gelderland,VBO,5.842839,51.769480
Oude Boterdijk,2,,,6582AT,Heumen,Heumen,Gelderland,VBO,5.845518,51.764807
Oude Boterdijk,4,,,6582AT,Heumen,Heumen,Gelderland,VBO,5.845274,51.764953
Oude Boterdijk,8,,,6582AT,Heumen,Heumen,Gelderland,VBO,5.845113,51.765065
Oude Boterdijk,10,,,6582AT,Heumen,Heumen,Gelderland,VBO,5.845035,51.765105
Oude Boterdijk,12,,,6582AT,Heumen,Heumen,Gelderland,VBO,5.844902,51.765177
Oude Boterdijk,14,,,6582AT,Heumen,Heumen,Gelderland,VBO,5.844833,51.765219
Oude Boterdijk,16,,,6582AT,Heumen,Heumen,Gelderland,VBO,5.844711,51.765296
Oude Boterdijk,18,,,6582AT,Heumen,Heumen,Gelderland,VBO,5.844646,51.765341
Oude Boterdijk,20,,,6582AT,Heumen,Heumen,Gelderland,VBO,5.844433,51.765511
Oude Boterdijk,22,,,6582AT,Heumen,Heumen,Gelderland,VBO,5.844379,51.765561
Oude Boterdijk,24,,,6582AT,Heumen,Heumen,Gelderland,VBO,5.844271,51.765668
Oude Boterdijk,26,,,6582AT,Heumen,Heumen,Gelderland,VBO,5.844225,51.765719
Oude Boterdijk,28,,,6582AT,Heumen,Heumen,Gelderland,VBO,5.844129,51.765836
Oude Boterdijk,30,,,6582AV,Heumen,Heumen,Gelderland,VBO,5.844091,51.765892
Oude Boterdijk,32,,,6582AV,Heumen,Heumen,Gelderland,VBO,5.844015,51.766006
Oude Boterdijk,34,,,6582AV,Heumen,Heumen,Gelderland,VBO,5.843983,51.766062
Oude Boterdijk,36,,,6582AV,Heumen,Heumen,Gelderland,VBO,5.843917,51.766179
Oude Boterdijk,38,A,,6582AV,Heumen,Heumen,Gelderland,VBO,5.844025,51.766374
Oude Boterdijk,38,,,6582AV,Heumen,Heumen,Gelderland,VBO,5.843799,51.766352
Oude Boterdijk,40,,,6582AV,Heumen,Heumen,Gelderland,VBO,5.843803,51.766519
Oude Boterdijk,42,,,6582AV,Heumen,Heumen,Gelderland,VBO,5.843762,51.766943
Graaf Lodewijkstraat,1,,,6582AW,Heumen,Heumen,Gelderland,VBO,5.845320,51.764086
Graaf Lodewijkstraat,2,,,6582AW,Heumen,Heumen,Gelderland,VBO,5.844971,51.763897
Graaf Lodewijkstraat,3,,,6582AW,Heumen,Heumen,Gelderland,VBO,5.845351,51.763937
Graaf Lodewijkstraat,4,,,6582AW,Heumen,Heumen,Gelderland,VBO,5.844935,51.763845
Graaf Lodewijkstraat,5,,,6582AW,Heumen,Heumen,Gelderland,VBO,5.845314,51.763883
Graaf Lodewijkstraat,6,,,6582AW,Heumen,Heumen,Gelderland,VBO,5.844613,51.763844
Graaf Lodewijkstraat,7,,,6582AW,Heumen,Heumen,Gelderland,VBO,5.845230,51.763761
Graaf Lodewijkstraat,8,,,6582AW,Heumen,Heumen,Gelderland,VBO,5.844518,51.763844
Graaf Lodewijkstraat,9,,,6582AW,Heumen,Heumen,Gelderland,VBO,5.845193,51.763708
Graaf Lodewijkstraat,10,,,6582AW,Heumen,Heumen,Gelderland,VBO,5.844305,51.763845
Graaf Lodewijkstraat,11,,,6582AW,Heumen,Heumen,Gelderland,VBO,5.844879,51.763607
Graaf Lodewijkstraat,12,,,6582AW,Heumen,Heumen,Gelderland,VBO,5.844213,51.763845
Graaf Lodewijkstraat,13,,,6582AW,Heumen,Heumen,Gelderland,VBO,5.844614,51.763606
Graaf Lodewijkstraat,14,,,6582AW,Heumen,Heumen,Gelderland,VBO,5.843970,51.763839
Graaf Lodewijkstraat,15,,,6582AW,Heumen,Heumen,Gelderland,VBO,5.844353,51.763617
Graaf Lodewijkstraat,17,,,6582AW,Heumen,Heumen,Gelderland,VBO,5.844089,51.763653
Graaf Lodewijkstraat,19,,,6582AW,Heumen,Heumen,Gelderland,VBO,5.843818,51.763654
Graaf Lodewijkstraat,21,,,6582AW,Heumen,Heumen,Gelderland,VBO,5.843572,51.763655
Bulberg,13,,,6582AX,Heumen,Heumen,Gelderland,VBO,5.841747,51.763801
Bulberg,15,,,6582AX,Heumen,Heumen,Gelderland,VBO,5.841556,51.763817
Bulberg,17,,,6582AX,Heumen,Heumen,Gelderland,VBO,5.841367,51.763833
Bulberg,19,,,6582AX,Heumen,Heumen,Gelderland,VBO,5.841181,51.763849
Kasteellaan,1,,,6582AZ,Heumen,Heumen,Gelderland,VBO,5.839663,51.760857
Kasteellaan,3,,,6582AZ,Heumen,Heumen,Gelderland,VBO,5.839984,51.760876
Looistraat,1,,,6582BA,Heumen,Heumen,Gelderland,VBO,5.840957,51.764465
Looistraat,3,,,6582BA,Heumen,Heumen,Gelderland,VBO,5.840950,51.764646
Looistraat,5,,,6582BA,Heumen,Heumen,Gelderland,VBO,5.840972,51.764806
Looistraat,7,,,6582BA,Heumen,Heumen,Gelderland,VBO,5.840992,51.764938
Looistraat,9,,,6582BA,Heumen,Heumen,Gelderland,VBO,5.841009,51.765070
Looistraat,11,,,6582BA,Heumen,Heumen,Gelderland,VBO,5.841027,51.765186
Looistraat,13,,,6582BA,Heumen,Heumen,Gelderland,VBO,5.841075,51.765359
Looistraat,15,,,6582BA,Heumen,Heumen,Gelderland,VBO,5.841085,51.765410
Looistraat,17,,,6582BA,Heumen,Heumen,Gelderland,VBO,5.841096,51.765455
Looistraat,19,,,6582BA,Heumen,Heumen,Gelderland,VBO,5.841115,51.765560
Looistraat,21,,,6582BA,Heumen,Heumen,Gelderland,VBO,5.841126,51.765612
Looistraat,23,,,6582BA,Heumen,Heumen,Gelderland,VBO,5.841137,51.765661
Looistraat,25,,,6582BA,Heumen,Heumen,Gelderland,VBO,5.841159,51.765765
Looistraat,27,,,6582BA,Heumen,Heumen,Gelderland,VBO,5.841170,51.765816
Looistraat,29,,,6582BB,Heumen,Heumen,Gelderland,VBO,5.841178,51.765858
Looistraat,31,,,6582BB,Heumen,Heumen,Gelderland,VBO,5.841204,51.765983
Looistraat,33,,,6582BB,Heumen,Heumen,Gelderland,VBO,5.841206,51.766029
Looistraat,35,,,6582BB,Heumen,Heumen,Gelderland,VBO,5.841209,51.766077
Looistraat,37,,,6582BB,Heumen,Heumen,Gelderland,VBO,5.841205,51.766195
Looistraat,39,,,6582BB,Heumen,Heumen,Gelderland,VBO,5.841202,51.766243
Looistraat,41,,,6582BB,Heumen,Heumen,Gelderland,VBO,5.841200,51.766289
Looistraat,43,A,,6582BB,Heumen,Heumen,Gelderland,VBO,5.841192,51.766460
Looistraat,43,,,6582BB,Heumen,Heumen,Gelderland,VBO,5.841194,51.766410
Looistraat,45,A,,6582BB,Heumen,Heumen,Gelderland,VBO,5.841208,51.766788
Looistraat,45,,,6582BB,Heumen,Heumen,Gelderland,VBO,5.841215,51.766718
Looistraat,47,A,,6582BB,Heumen,Heumen,Gelderland,VBO,5.841041,51.767585
Looistraat,47,E,,6582BB,Heumen,Heumen,Gelderland,VBO,5.840531,51.768411
Looistraat,47,,,6582BB,Heumen,Heumen,Gelderland,VBO,5.841076,51.767206
Looistraat,49,,,6582BB,Heumen,Heumen,Gelderland,VBO,5.840577,51.768701
Looistraat,55,,,6582BB,Heumen,Heumen,Gelderland,VBO,5.839627,51.771336
Looistraat,57,,,6582BB,Heumen,Heumen,Gelderland,VBO,5.839379,51.772404
Looistraat,59,,,6582BB,Heumen,Heumen,Gelderland,VBO,5.839218,51.773375
Looistraat,61,,,6582BB,Heumen,Heumen,Gelderland,VBO,5.839089,51.773594
Looistraat,63,,,6582BB,Heumen,Heumen,Gelderland,VBO,5.839872,51.775087
Looistraat,2,A,,6582BC,Heumen,Heumen,Gelderland,VBO,5.841275,51.764656
Looistraat,2,,,6582BC,Heumen,Heumen,Gelderland,VBO,5.841471,51.764861
Looistraat,4,A,,6582BC,Heumen,Heumen,Gelderland,VBO,5.841666,51.765138
Looistraat,4,,,6582BC,Heumen,Heumen,Gelderland,VBO,5.841497,51.764973
Looistraat,6,,,6582BC,Heumen,Heumen,Gelderland,VBO,5.841823,51.765506
Looistraat,8,,,6582BC,Heumen,Heumen,Gelderland,VBO,5.841812,51.765558
Looistraat,10,,,6582BC,Heumen,Heumen,Gelderland,VBO,5.841800,51.765617
Looistraat,12,,,6582BC,Heumen,Heumen,Gelderland,VBO,5.841791,51.765668
Looistraat,14,,,6582BC,Heumen,Heumen,Gelderland,VBO,5.841778,51.765724
Looistraat,16,,,6582BC,Heumen,Heumen,Gelderland,VBO,5.841767,51.765777
Looistraat,18,,,6582BC,Heumen,Heumen,Gelderland,VBO,5.841579,51.766053
Looistraat,20,,,6582BC,Heumen,Heumen,Gelderland,VBO,5.841581,51.766120
Looistraat,22,,,6582BC,Heumen,Heumen,Gelderland,VBO,5.841559,51.766253
Looistraat,24,,,6582BC,Heumen,Heumen,Gelderland,VBO,5.841545,51.766431
Looistraat,26,,,6582BC,Heumen,Heumen,Gelderland,VBO,5.841502,51.766932
Looistraat,28,,,6582BC,Heumen,Heumen,Gelderland,VBO,5.841489,51.767066
Looistraat,30,,,6582BC,Heumen,Heumen,Gelderland,VBO,5.841476,51.767202
Looistraat,32,A,,6582BC,Heumen,Heumen,Gelderland,VBO,5.840196,51.770871
Looistraat,32,,,6582BC,Heumen,Heumen,Gelderland,VBO,5.840331,51.770609
Looistraat,34,,,6582BC,Heumen,Heumen,Gelderland,VBO,5.841208,51.773676
Looistraat,36,,,6582BC,Heumen,Heumen,Gelderland,VBO,5.840967,51.774124
Looistraat,46,,,6582BC,Heumen,Heumen,Gelderland,VBO,5.836920,51.782227
Prins Bernhardstraat,2,,,6582BD,Heumen,Heumen,Gelderland,VBO,5.842102,51.765828
Prins Bernhardstraat,4,,,6582BD,Heumen,Heumen,Gelderland,VBO,5.842186,51.765835
Prins Bernhardstraat,6,,,6582BD,Heumen,Heumen,Gelderland,VBO,5.842273,51.765842
Prins Bernhardstraat,8,,,6582BD,Heumen,Heumen,Gelderland,VBO,5.842360,51.765849
Koningin Julianastraat,1,,,6582BE,Heumen,Heumen,Gelderland,VBO,5.842631,51.766228
Koningin Julianastraat,3,,,6582BE,Heumen,Heumen,Gelderland,VBO,5.842644,51.766174
Koningin Julianastraat,5,,,6582BE,Heumen,Heumen,Gelderland,VBO,5.842657,51.766119
Koningin Julianastraat,7,,,6582BE,Heumen,Heumen,Gelderland,VBO,5.842669,51.766064
Koningin Julianastraat,9,,,6582BE,Heumen,Heumen,Gelderland,VBO,5.842695,51.765960
Koningin Julianastraat,11,,,6582BE,Heumen,Heumen,Gelderland,VBO,5.842707,51.765909
Koningin Julianastraat,13,,,6582BE,Heumen,Heumen,Gelderland,VBO,5.842720,51.765856
Koningin Julianastraat,15,,,6582BE,Heumen,Heumen,Gelderland,VBO,5.842734,51.765799
Koningin Julianastraat,17,,,6582BE,Heumen,Heumen,Gelderland,VBO,5.842791,51.765644
Koningin Julianastraat,19,,,6582BE,Heumen,Heumen,Gelderland,VBO,5.842803,51.765593
Koningin Julianastraat,21,,,6582BE,Heumen,Heumen,Gelderland,VBO,5.842816,51.765538
Koningin Julianastraat,23,,,6582BE,Heumen,Heumen,Gelderland,VBO,5.842830,51.765481
Koningin Julianastraat,25,,,6582BE,Heumen,Heumen,Gelderland,VBO,5.842852,51.765388
Koningin Julianastraat,27,,,6582BE,Heumen,Heumen,Gelderland,VBO,5.842865,51.765332
Koningin Julianastraat,29,,,6582BE,Heumen,Heumen,Gelderland,VBO,5.842878,51.765277
Koningin Julianastraat,31,,,6582BE,Heumen,Heumen,Gelderland,VBO,5.843194,51.765274
Koningin Julianastraat,33,,,6582BE,Heumen,Heumen,Gelderland,VBO,5.843287,51.765277
Koningin Julianastraat,35,,,6582BE,Heumen,Heumen,Gelderland,VBO,5.843376,51.765280
Koningin Julianastraat,2,,,6582BG,Heumen,Heumen,Gelderland,VBO,5.842238,51.766519
Koningin Julianastraat,4,,,6582BG,Heumen,Heumen,Gelderland,VBO,5.842251,51.766465
Koningin Julianastraat,6,,,6582BG,Heumen,Heumen,Gelderland,VBO,5.842265,51.766409
Koningin Julianastraat,8,,,6582BG,Heumen,Heumen,Gelderland,VBO,5.842279,51.766354
Koningin Julianastraat,10,,,6582BG,Heumen,Heumen,Gelderland,VBO,5.842293,51.766295
Koningin Julianastraat,12,,,6582BG,Heumen,Heumen,Gelderland,VBO,5.842316,51.766197
Koningin Julianastraat,14,,,6582BG,Heumen,Heumen,Gelderland,VBO,5.842331,51.766136
Koningin Julianastraat,16,,,6582BG,Heumen,Heumen,Gelderland,VBO,5.842347,51.766069
Koningin Julianastraat,18,,,6582BH,Heumen,Heumen,Gelderland,VBO,5.842449,51.765420
Koningin Julianastraat,20,,,6582BH,Heumen,Heumen,Gelderland,VBO,5.842352,51.765412
Koningin Julianastraat,22,,,6582BH,Heumen,Heumen,Gelderland,VBO,5.842256,51.765403
Koningin Julianastraat,24,,,6582BH,Heumen,Heumen,Gelderland,VBO,5.842157,51.765395
Koningin Julianastraat,26,,,6582BH,Heumen,Heumen,Gelderland,VBO,5.842237,51.765052
Koningin Julianastraat,28,,,6582BH,Heumen,Heumen,Gelderland,VBO,5.842336,51.765061
Koningin Julianastraat,30,,,6582BH,Heumen,Heumen,Gelderland,VBO,5.842434,51.765070
Koningin Julianastraat,32,,,6582BH,Heumen,Heumen,Gelderland,VBO,5.842533,51.765080
Koningin Julianastraat,34,,,6582BH,Heumen,Heumen,Gelderland,VBO,5.842698,51.765042
Koningin Julianastraat,36,,,6582BH,Heumen,Heumen,Gelderland,VBO,5.842791,51.765045
Koningin Julianastraat,38,,,6582BJ,Heumen,Heumen,Gelderland,VBO,5.842880,51.765047
Koningin Julianastraat,40,,,6582BJ,Heumen,Heumen,Gelderland,VBO,5.842971,51.765050
Koningin Julianastraat,42,,,6582BJ,Heumen,Heumen,Gelderland,VBO,5.843123,51.765054
Koningin Julianastraat,44,,,6582BJ,Heumen,Heumen,Gelderland,VBO,5.843214,51.765057
Koningin Julianastraat,46,,,6582BJ,Heumen,Heumen,Gelderland,VBO,5.843307,51.765059
Koningin Julianastraat,48,,,6582BJ,Heumen,Heumen,Gelderland,VBO,5.843397,51.765062
Koningin Julianastraat,50,,,6582BJ,Heumen,Heumen,Gelderland,VBO,5.843729,51.765013
Koningin Julianastraat,52,,,6582BJ,Heumen,Heumen,Gelderland,VBO,5.843771,51.764880
Koningin Julianastraat,54,,,6582BJ,Heumen,Heumen,Gelderland,VBO,5.843996,51.764813
Koningin Julianastraat,56,,,6582BJ,Heumen,Heumen,Gelderland,VBO,5.844088,51.764807
Koningin Julianastraat,58,,,6582BJ,Heumen,Heumen,Gelderland,VBO,5.844256,51.764852
Koningin Julianastraat,60,,,6582BJ,Heumen,Heumen,Gelderland,VBO,5.844319,51.764892
Verbindingsweg,1,,,6582BK,Heumen,Heumen,Gelderland,VBO,5.843160,51.766629
Verbindingsweg,2,,,6582BK,Heumen,Heumen,Gelderland,VBO,5.843037,51.766889
Verbindingsweg,3,,,6582BK,Heumen,Heumen,Gelderland,VBO,5.842809,51.766553
Verbindingsweg,4,,,6582BK,Heumen,Heumen,Gelderland,VBO,5.842728,51.766802
Verbindingsweg,5,,,6582BK,Heumen,Heumen,Gelderland,VBO,5.842604,51.766486
Verbindingsweg,10,,,6582BK,Heumen,Heumen,Gelderland,VBO,5.842157,51.766747
Verbindingsweg,12,,,6582BK,Heumen,Heumen,Gelderland,VBO,5.841948,51.766746
Verbindingsweg,14,,,6582BK,Heumen,Heumen,Gelderland,VBO,5.841744,51.766741
Verbindingsweg,16,,,6582BK,Heumen,Heumen,Gelderland,VBO,5.841537,51.766740
Overasseltseweg,2,,,6582BL,Heumen,Heumen,Gelderland,VBO,5.830527,51.764891
Overasseltseweg,4,A,,6582BL,Heumen,Heumen,Gelderland,VBO,5.828344,51.764850
Overasseltseweg,4,B,,6582BL,Heumen,Heumen,Gelderland,VBO,5.829863,51.765526
Overasseltseweg,4,C,,6582BL,Heumen,Heumen,Gelderland,VBO,5.830291,51.765428
Overasseltseweg,4,,,6582BL,Heumen,Heumen,Gelderland,VBO,5.830212,51.764799
Overasseltseweg,6,,,6582BL,Heumen,Heumen,Gelderland,VBO,5.824699,51.764405
Overasseltseweg,8,,,6582BL,Heumen,Heumen,Gelderland,VBO,5.822858,51.764377
Heegtseveldweg,1,,,6582BM,Heumen,Heumen,Gelderland,VBO,5.822125,51.765138
Heegtseveldweg,2,,,6582BM,Heumen,Heumen,Gelderland,VBO,5.825063,51.765009
Heegtseveldweg,4,,,6582BM,Heumen,Heumen,Gelderland,VBO,5.825088,51.765286
Heegtseveldweg,6,,,6582BM,Heumen,Heumen,Gelderland,VBO,5.822106,51.765389
Vosseneindseweg,5,,,6582BN,Heumen,Heumen,Gelderland,VBO,5.833295,51.765790
Vosseneindseweg,7,,,6582BN,Heumen,Heumen,Gelderland,VBO,5.831601,51.766234
Vosseneindseweg,9,,,6582BN,Heumen,Heumen,Gelderland,VBO,5.830771,51.766504
Vosseneindseweg,11,A,,6582BN,Heumen,Heumen,Gelderland,VBO,5.825902,51.768057
Vosseneindseweg,11,B,,6582BN,Heumen,Heumen,Gelderland,VBO,5.829233,51.766729
Vosseneindseweg,11,,,6582BN,Heumen,Heumen,Gelderland,VBO,5.829777,51.766904
Vosseneindseweg,13,,,6582BN,Heumen,Heumen,Gelderland,VBO,5.825037,51.768182
Vosseneindseweg,15,,,6582BN,Heumen,Heumen,Gelderland,VBO,5.822855,51.768415
Vosseneindseweg,17,,,6582BN,Heumen,Heumen,Gelderland,VBO,5.815560,51.770927
Vosseneindseweg,19,,,6582BN,Heumen,Heumen,Gelderland,VBO,5.814716,51.771317
Vosseneindseweg,16,,,6582BP,Heumen,Heumen,Gelderland,VBO,5.834144,51.765908
Vosseneindseweg,18,,,6582BP,Heumen,Heumen,Gelderland,VBO,5.832851,51.766144
Vosseneindseweg,22,,,6582BP,Heumen,Heumen,Gelderland,VBO,5.830792,51.766927
Vosseneindseweg,24,A,,6582BP,Heumen,Heumen,Gelderland,VBO,5.830392,51.767055
Vosseneindseweg,24,,,6582BP,Heumen,Heumen,Gelderland,VBO,5.830445,51.767010
Vosseneindseweg,26,,,6582BP,Heumen,Heumen,Gelderland,VBO,5.829772,51.767704
Vosseneindseweg,28,,,6582BP,Heumen,Heumen,Gelderland,VBO,5.829298,51.767620
Vosseneindseweg,30,,,6582BP,Heumen,Heumen,Gelderland,VBO,5.828839,51.767643
Vosseneindseweg,32,,,6582BP,Heumen,Heumen,Gelderland,VBO,5.829158,51.767470
Vosseneindseweg,34,,,6582BP,Heumen,Heumen,Gelderland,VBO,5.828426,51.767635
Vosseneindseweg,36,,,6582BP,Heumen,Heumen,Gelderland,VBO,5.826645,51.768181
Vosseneindseweg,38,,,6582BP,Heumen,Heumen,Gelderland,VBO,5.825497,51.768535
Vosseneindseweg,40,A,,6582BR,Heumen,Heumen,Gelderland,VBO,5.824182,51.768622
Vosseneindseweg,40,,,6582BR,Heumen,Heumen,Gelderland,VBO,5.824119,51.768607
Vosseneindseweg,42,,T001,6582BR,Heumen,Heumen,Gelderland,VBO,5.821655,51.768860
Vosseneindseweg,44,,,6582BR,Heumen,Heumen,Gelderland,VBO,5.821222,51.768851
Vosseneindseweg,46,,R001,6582BR,Heumen,Heumen,Gelderland,VBO,5.821039,51.770442
Vosseneindseweg,46,,R002,6582BR,Heumen,Heumen,Gelderland,VBO,5.821111,51.770423
Vosseneindseweg,46,,R003,6582BR,Heumen,Heumen,Gelderland,VBO,5.821184,51.770486
Vosseneindseweg,46,,R004,6582BR,Heumen,Heumen,Gelderland,VBO,5.821271,51.770540
Vosseneindseweg,46,,R006,6582BR,Heumen,Heumen,Gelderland,VBO,5.820802,51.772968
Vosseneindseweg,46,,R007,6582BR,Heumen,Heumen,Gelderland,VBO,5.820687,51.773077
Vosseneindseweg,46,,R008,6582BR,Heumen,Heumen,Gelderland,VBO,5.820776,51.773220
Vosseneindseweg,46,,R009,6582BR,Heumen,Heumen,Gelderland,VBO,5.820936,51.773354
Vosseneindseweg,46,,R010,6582BR,Heumen,Heumen,Gelderland,VBO,5.821153,51.773237
Vosseneindseweg,46,,R132,6582BR,Heumen,Heumen,Gelderland,VBO,5.820345,51.772134
Vosseneindseweg,46,,R133,6582BR,Heumen,Heumen,Gelderland,VBO,5.820301,51.772062
Vosseneindseweg,46,,R140,6582BR,Heumen,Heumen,Gelderland,VBO,5.819789,51.771516
Vosseneindseweg,46,,R141,6582BR,Heumen,Heumen,Gelderland,VBO,5.819933,51.771416
Vosseneindseweg,46,,R142,6582BR,Heumen,Heumen,Gelderland,VBO,5.820193,51.771362
Vosseneindseweg,46,,R143,6582BR,Heumen,Heumen,Gelderland,VBO,5.820323,51.771316
Vosseneindseweg,46,,R147,6582BR,Heumen,Heumen,Gelderland,VBO,5.820339,51.771487
Vosseneindseweg,46,,R150,6582BR,Heumen,Heumen,Gelderland,VBO,5.820211,51.771757
Vosseneindseweg,46,,R152,6582BR,Heumen,Heumen,Gelderland,VBO,5.820471,51.771684
Vosseneindseweg,46,,R153,6582BR,Heumen,Heumen,Gelderland,VBO,5.820702,51.771620
Vosseneindseweg,46,,R177,6582BR,Heumen,Heumen,Gelderland,VBO,5.821059,51.772572
Vosseneindseweg,46,,R203,6582BR,Heumen,Heumen,Gelderland,VBO,5.819992,51.773052
Vosseneindseweg,46,,R204,6582BR,Heumen,Heumen,Gelderland,VBO,5.819674,51.773152
Vosseneindseweg,46,,R206,6582BR,Heumen,Heumen,Gelderland,VBO,5.819561,51.773422
Vosseneindseweg,46,,R207,6582BR,Heumen,Heumen,Gelderland,VBO,5.819736,51.773574
Vosseneindseweg,46,,R210,6582BR,Heumen,Heumen,Gelderland,VBO,5.819449,51.773926
Vosseneindseweg,46,,R211,6582BR,Heumen,Heumen,Gelderland,VBO,5.819262,51.774008
Vosseneindseweg,46,,R212,6582BR,Heumen,Heumen,Gelderland,VBO,5.819075,51.774116
Vosseneindseweg,46,,R213,6582BR,Heumen,Heumen,Gelderland,VBO,5.819163,51.774242
Vosseneindseweg,46,,R214,6582BR,Heumen,Heumen,Gelderland,VBO,5.819308,51.774331
Vosseneindseweg,46,,R216,6582BR,Heumen,Heumen,Gelderland,VBO,5.819469,51.774474
Vosseneindseweg,46,,R217,6582BR,Heumen,Heumen,Gelderland,VBO,5.819714,51.774357
Vosseneindseweg,46,,R218,6582BR,Heumen,Heumen,Gelderland,VBO,5.819873,51.774284
Vosseneindseweg,46,,R220,6582BR,Heumen,Heumen,Gelderland,VBO,5.820219,51.774085
Vosseneindseweg,46,,R221,6582BR,Heumen,Heumen,Gelderland,VBO,5.820392,51.773986
Vosseneindseweg,46,,R222,6582BR,Heumen,Heumen,Gelderland,VBO,5.820536,51.773895
Vosseneindseweg,46,,R224,6582BR,Heumen,Heumen,Gelderland,VBO,5.820781,51.773750
Vosseneindseweg,46,,R225,6582BR,Heumen,Heumen,Gelderland,VBO,5.820954,51.773642
Vosseneindseweg,46,,R227,6582BR,Heumen,Heumen,Gelderland,VBO,5.820604,51.773400
Vosseneindseweg,46,,R230,6582BR,Heumen,Heumen,Gelderland,VBO,5.820389,51.773644
Vosseneindseweg,46,,R232,6582BR,Heumen,Heumen,Gelderland,VBO,5.820112,51.773546
Vosseneindseweg,46,,R233,6582BR,Heumen,Heumen,Gelderland,VBO,5.819908,51.773412
Vosseneindseweg,46,,R234,6582BR,Heumen,Heumen,Gelderland,VBO,5.819806,51.773323
Vosseneindseweg,46,,R235,6582BR,Heumen,Heumen,Gelderland,VBO,5.820130,51.773843
Vosseneindseweg,46,,R236,6582BR,Heumen,Heumen,Gelderland,VBO,5.819913,51.773951
Vosseneindseweg,46,,R237,6582BR,Heumen,Heumen,Gelderland,VBO,5.819713,51.774168
Vosseneindseweg,46,,R238,6582BR,Heumen,Heumen,Gelderland,VBO,5.819596,51.774051
Vosseneindseweg,46,,R301,6582BR,Heumen,Heumen,Gelderland,VBO,5.821141,51.773524
Vosseneindseweg,46,,R350,6582BR,Heumen,Heumen,Gelderland,VBO,5.821378,51.772625
Vosseneindseweg,46,,R401,6582BR,Heumen,Heumen,Gelderland,VBO,5.821984,51.772344
Vosseneindseweg,46,,R402,6582BR,Heumen,Heumen,Gelderland,VBO,5.822101,51.772469
Vosseneindseweg,46,,R403,6582BR,Heumen,Heumen,Gelderland,VBO,5.822276,51.772585
Vosseneindseweg,46,,R404,6582BR,Heumen,Heumen,Gelderland,VBO,5.822350,51.772711
Vosseneindseweg,46,,R405,6582BR,Heumen,Heumen,Gelderland,VBO,5.822467,51.772800
Vosseneindseweg,46,,R406,6582BR,Heumen,Heumen,Gelderland,VBO,5.822625,51.772701
Vosseneindseweg,46,,R407,6582BR,Heumen,Heumen,Gelderland,VBO,5.822784,51.772601
Vosseneindseweg,46,,R408,6582BR,Heumen,Heumen,Gelderland,VBO,5.822928,51.772493
Vosseneindseweg,46,,R409,6582BR,Heumen,Heumen,Gelderland,VBO,5.823072,51.772421
Vosseneindseweg,46,,R410,6582BR,Heumen,Heumen,Gelderland,VBO,5.823157,51.772294
Vosseneindseweg,46,,R411,6582BR,Heumen,Heumen,Gelderland,VBO,5.823170,51.772124
Vosseneindseweg,46,,R412,6582BR,Heumen,Heumen,Gelderland,VBO,5.823184,51.772025
Vosseneindseweg,46,,R413,6582BR,Heumen,Heumen,Gelderland,VBO,5.823154,51.771908
Vosseneindseweg,46,,R414,6582BR,Heumen,Heumen,Gelderland,VBO,5.823210,51.771701
Vosseneindseweg,46,,R417,6582BR,Heumen,Heumen,Gelderland,VBO,5.822128,51.772253
Vosseneindseweg,46,,R418,6582BR,Heumen,Heumen,Gelderland,VBO,5.822289,51.772370
Vosseneindseweg,46,,R419,6582BR,Heumen,Heumen,Gelderland,VBO,5.822464,51.772486
Vosseneindseweg,46,,R420,6582BR,Heumen,Heumen,Gelderland,VBO,5.822666,51.772377
Vosseneindseweg,46,,R421,6582BR,Heumen,Heumen,Gelderland,VBO,5.822839,51.772287
Vosseneindseweg,46,,R422,6582BR,Heumen,Heumen,Gelderland,VBO,5.822462,51.772261
Vosseneindseweg,46,,R423,6582BR,Heumen,Heumen,Gelderland,VBO,5.822678,51.772152
Vosseneindseweg,46,,R424,6582BR,Heumen,Heumen,Gelderland,VBO,5.822546,51.772027
Vosseneindseweg,46,,R425,6582BR,Heumen,Heumen,Gelderland,VBO,5.822895,51.772116
Vosseneindseweg,46,,R426,6582BR,Heumen,Heumen,Gelderland,VBO,5.822822,51.772035
Vosseneindseweg,46,,R427,6582BR,Heumen,Heumen,Gelderland,VBO,5.822748,51.771909
Vosseneindseweg,46,,R522,6582BR,Heumen,Heumen,Gelderland,VBO,5.821702,51.771635
Vosseneindseweg,46,,R531,6582BR,Heumen,Heumen,Gelderland,VBO,5.822036,51.771669
Vosseneindseweg,46,,R554,6582BR,Heumen,Heumen,Gelderland,VBO,5.822479,51.771101
Vosseneindseweg,46,,R558,6582BR,Heumen,Heumen,Gelderland,VBO,5.822377,51.771012
Vosseneindseweg,46,,R601,6582BR,Heumen,Heumen,Gelderland,VBO,5.823187,51.770883
Vosseneindseweg,46,,R611,6582BR,Heumen,Heumen,Gelderland,VBO,5.823060,51.771198
Vosseneindseweg,46,,R620,6582BR,Heumen,Heumen,Gelderland,VBO,5.823237,51.770065
Vosseneindseweg,46,,R652,6582BR,Heumen,Heumen,Gelderland,VBO,5.822432,51.770670
Vosseneindseweg,46,,,6582BR,Heumen,Heumen,Gelderland,VBO,5.819810,51.770076
Vosseneindseweg,48,,,6582BR,Heumen,Heumen,Gelderland,VBO,5.819265,51.769660
Vosseneindseweg,50,,,6582BR,Heumen,Heumen,Gelderland,VBO,5.816963,51.770726
Vosseneindseweg,52,,,6582BR,Heumen,Heumen,Gelderland,VBO,5.814726,51.771749
Vosseneindseweg,54,,T001,6582BR,Heumen,Heumen,Gelderland,VBO,5.814503,51.771844
Vosseneindseweg,56,,,6582BR,Heumen,Heumen,Gelderland,VBO,5.813942,51.772040
Heumenhofseweg,1,,,6582BS,Heumen,Heumen,Gelderland,VBO,5.827799,51.777286
Heumenhofseweg,3,,,6582BS,Heumen,Heumen,Gelderland,VBO,5.825020,51.771169
Heumenhofseweg,5,A,,6582BS,Heumen,Heumen,Gelderland,VBO,5.824148,51.769235
Heumenhofseweg,5,,,6582BS,Heumen,Heumen,Gelderland,VBO,5.823838,51.770228
Heumenhofseweg,7,,R001,6582BS,Heumen,Heumen,Gelderland,VBO,5.825479,51.769292
Heumenhofseweg,7,,,6582BS,Heumen,Heumen,Gelderland,VBO,5.824914,51.768727
Tarhutseweg,2,,,6582BT,Heumen,Heumen,Gelderland,VBO,5.817958,51.773461
Blankenbergseweg,1,,,6582BV,Heumen,Heumen,Gelderland,VBO,5.830871,51.779506
Blankenbergseweg,2,,,6582BV,Heumen,Heumen,Gelderland,VBO,5.836292,51.783758
Blankenbergseweg,3,A,,6582BV,Heumen,Heumen,Gelderland,VBO,5.833574,51.777776
Blankenbergseweg,3,C,,6582BV,Heumen,Heumen,Gelderland,VBO,5.832410,51.778224
Blankenbergseweg,3,D,,6582BV,Heumen,Heumen,Gelderland,VBO,5.830999,51.779005
Blankenbergseweg,3,,,6582BV,Heumen,Heumen,Gelderland,VBO,5.833489,51.777847
Blankenbergseweg,5,A,,6582BV,Heumen,Heumen,Gelderland,VBO,5.830644,51.779237
Blankenbergseweg,5,,,6582BV,Heumen,Heumen,Gelderland,VBO,5.830538,51.779338
Blankenbergseweg,6,,,6582BV,Heumen,Heumen,Gelderland,VBO,5.828026,51.779387
Blankenbergseweg,7,,,6582BV,Heumen,Heumen,Gelderland,VBO,5.827526,51.778646
De Waaij,1,,,6582BW,Heumen,Heumen,Gelderland,VBO,5.835999,51.765107
De Waaij,2,,,6582BW,Heumen,Heumen,Gelderland,VBO,5.835909,51.765392
De Waaij,3,,,6582BW,Heumen,Heumen,Gelderland,VBO,5.835526,51.765149
De Waaij,4,,,6582BW,Heumen,Heumen,Gelderland,VBO,5.836039,51.765530
De Waaij,6,,,6582BW,Heumen,Heumen,Gelderland,VBO,5.835516,51.765711
Meerpaal,2,,,6582BX,Heumen,Heumen,Gelderland,VBO,5.860890,51.768672
Meerpaal,3,,,6582BX,Heumen,Heumen,Gelderland,VBO,5.860885,51.768951
Meerpaal,4,,,6582BX,Heumen,Heumen,Gelderland,VBO,5.861064,51.768745
Meerpaal,5,,,6582BX,Heumen,Heumen,Gelderland,VBO,5.861311,51.769102
Meerpaal,6,,,6582BX,Heumen,Heumen,Gelderland,VBO,5.861503,51.768901
Bolder,1,A,,6582BZ,Heumen,Heumen,Gelderland,VBO,5.859043,51.769029
Bolder,1,,,6582BZ,Heumen,Heumen,Gelderland,VBO,5.859345,51.769091
Bolder,2,,,6582BZ,Heumen,Heumen,Gelderland,VBO,5.858620,51.769179
Bolder,3,A,,6582BZ,Heumen,Heumen,Gelderland,VBO,5.858707,51.768896
Bolder,3,B,,6582BZ,Heumen,Heumen,Gelderland,VBO,5.858454,51.768807
Bolder,3,,,6582BZ,Heumen,Heumen,Gelderland,VBO,5.858776,51.768921
Bolder,5,,,6582BZ,Heumen,Heumen,Gelderland,VBO,5.858108,51.768290
Bolder,6,,,6582BZ,Heumen,Heumen,Gelderland,VBO,5.857462,51.768389
Bolder,7,,,6582BZ,Heumen,Heumen,Gelderland,VBO,5.859095,51.768267
Bolder,9,A,,6582BZ,Heumen,Heumen,Gelderland,VBO,5.859707,51.768488
Bolder,9,,,6582BZ,Heumen,Heumen,Gelderland,VBO,5.859847,51.768534
Bolder,10,,,6582BZ,Heumen,Heumen,Gelderland,VBO,5.858082,51.767762
Bolder,11,,,6582BZ,Heumen,Heumen,Gelderland,VBO,5.859957,51.768559
Bolder,12,,,6582BZ,Heumen,Heumen,Gelderland,VBO,5.858662,51.767683
Bolder,13,,,6582BZ,Heumen,Heumen,Gelderland,VBO,5.860043,51.768591
Bolder,18,A,,6582BZ,Heumen,Heumen,Gelderland,VBO,5.859578,51.768075
Bolder,18,B,,6582BZ,Heumen,Heumen,Gelderland,VBO,5.859724,51.768067
Bolder,18,C,,6582BZ,Heumen,Heumen,Gelderland,VBO,5.859757,51.768030
Bolder,18,,,6582BZ,Heumen,Heumen,Gelderland,VBO,5.859693,51.768115
De Hosterd,1,,,6582CA,Heumen,Heumen,Gelderland,VBO,5.845162,51.766199
De Hosterd,3,,,6582CA,Heumen,Heumen,Gelderland,VBO,5.845266,51.765943
De Hosterd,5,,,6582CA,Heumen,Heumen,Gelderland,VBO,5.845337,51.765897
De Hosterd,7,,,6582CA,Heumen,Heumen,Gelderland,VBO,5.845649,51.766171
De Hosterd,9,,,6582CA,Heumen,Heumen,Gelderland,VBO,5.845875,51.765865
De Hosterd,11,,,6582CA,Heumen,Heumen,Gelderland,VBO,5.845820,51.765833
De Hosterd,13,,,6582CA,Heumen,Heumen,Gelderland,VBO,5.845732,51.765818
De Hosterd,15,,,6582CA,Heumen,Heumen,Gelderland,VBO,5.845675,51.765785
De Hosterd,17,,,6582CA,Heumen,Heumen,Gelderland,VBO,5.845618,51.765750
De Hosterd,19,,,6582CA,Heumen,Heumen,Gelderland,VBO,5.845560,51.765716
De Hosterd,21,,,6582CA,Heumen,Heumen,Gelderland,VBO,5.845859,51.765572
De Hosterd,23,,,6582CA,Heumen,Heumen,Gelderland,VBO,5.845915,51.765535
De Hosterd,25,,,6582CA,Heumen,Heumen,Gelderland,VBO,5.845968,51.765499
De Hosterd,27,,,6582CA,Heumen,Heumen,Gelderland,VBO,5.846037,51.765472
De Hosterd,29,,,6582CA,Heumen,Heumen,Gelderland,VBO,5.846089,51.765437
De Hosterd,31,,,6582CA,Heumen,Heumen,Gelderland,VBO,5.846143,51.765400
De Hosterd,33,,,6582CA,Heumen,Heumen,Gelderland,VBO,5.846461,51.765495
De Hosterd,35,,,6582CA,Heumen,Heumen,Gelderland,VBO,5.846544,51.765553
De Hosterd,37,,,6582CA,Heumen,Heumen,Gelderland,VBO,5.846620,51.765608
De Hosterd,43,,,6582CA,Heumen,Heumen,Gelderland,VBO,5.846315,51.765733
De Hosterd,45,,,6582CA,Heumen,Heumen,Gelderland,VBO,5.846471,51.765954
De Hosterd,47,,,6582CA,Heumen,Heumen,Gelderland,VBO,5.846480,51.766008
De Hosterd,49,,,6582CA,Heumen,Heumen,Gelderland,VBO,5.846506,51.766178
De Hosterd,2,,,6582CB,Heumen,Heumen,Gelderland,VBO,5.844862,51.766315
De Hosterd,4,,,6582CB,Heumen,Heumen,Gelderland,VBO,5.844792,51.766148
De Hosterd,6,,,6582CB,Heumen,Heumen,Gelderland,VBO,5.844791,51.766045
De Hosterd,8,,,6582CB,Heumen,Heumen,Gelderland,VBO,5.844847,51.765927
De Hosterd,12,,,6582CB,Heumen,Heumen,Gelderland,VBO,5.844974,51.765835
De Hosterd,14,,,6582CB,Heumen,Heumen,Gelderland,VBO,5.845044,51.765790
De Hosterd,16,,,6582CB,Heumen,Heumen,Gelderland,VBO,5.845238,51.765614
De Hosterd,18,,,6582CB,Heumen,Heumen,Gelderland,VBO,5.845292,51.765579
De Hosterd,20,,,6582CB,Heumen,Heumen,Gelderland,VBO,5.845347,51.765543
De Hosterd,22,,,6582CB,Heumen,Heumen,Gelderland,VBO,5.845401,51.765508
De Hosterd,24,,,6582CB,Heumen,Heumen,Gelderland,VBO,5.845558,51.765438
De Hosterd,26,,,6582CB,Heumen,Heumen,Gelderland,VBO,5.845521,51.765417
De Hosterd,28,,,6582CB,Heumen,Heumen,Gelderland,VBO,5.845623,51.765396
De Hosterd,30,,,6582CB,Heumen,Heumen,Gelderland,VBO,5.845587,51.765375
De Hosterd,32,,,6582CB,Heumen,Heumen,Gelderland,VBO,5.845774,51.765274
De Hosterd,34,,,6582CB,Heumen,Heumen,Gelderland,VBO,5.845834,51.765244
De Hosterd,36,,,6582CB,Heumen,Heumen,Gelderland,VBO,5.845898,51.765211
De Hosterd,38,,,6582CB,Heumen,Heumen,Gelderland,VBO,5.845981,51.765198
De Hosterd,40,,,6582CB,Heumen,Heumen,Gelderland,VBO,5.846044,51.765166
De Hosterd,42,,,6582CC,Heumen,Heumen,Gelderland,VBO,5.846483,51.765228
De Hosterd,44,,,6582CC,Heumen,Heumen,Gelderland,VBO,5.846528,51.765259
De Hosterd,46,,,6582CC,Heumen,Heumen,Gelderland,VBO,5.846571,51.765289
De Hosterd,48,,,6582CC,Heumen,Heumen,Gelderland,VBO,5.846612,51.765318
De Hosterd,50,,,6582CC,Heumen,Heumen,Gelderland,VBO,5.846655,51.765348
De Hosterd,52,,,6582CC,Heumen,Heumen,Gelderland,VBO,5.846698,51.765379
De Hosterd,54,,,6582CC,Heumen,Heumen,Gelderland,VBO,5.846740,51.765408
De Hosterd,56,,,6582CC,Heumen,Heumen,Gelderland,VBO,5.846783,51.765438
De Hosterd,58,,,6582CC,Heumen,Heumen,Gelderland,VBO,5.846826,51.765468
De Hosterd,60,,,6582CC,Heumen,Heumen,Gelderland,VBO,5.846946,51.765554
De Hosterd,62,,,6582CC,Heumen,Heumen,Gelderland,VBO,5.847002,51.765593
De Hosterd,64,,,6582CC,Heumen,Heumen,Gelderland,VBO,5.847058,51.765632
De Hosterd,66,,,6582CC,Heumen,Heumen,Gelderland,VBO,5.847113,51.765670
De Hosterd,68,,,6582CC,Heumen,Heumen,Gelderland,VBO,5.847140,51.765723
De Hosterd,70,,,6582CC,Heumen,Heumen,Gelderland,VBO,5.847195,51.765762
De Hosterd,72,,,6582CC,Heumen,Heumen,Gelderland,VBO,5.847249,51.765801
De Hosterd,74,,,6582CC,Heumen,Heumen,Gelderland,VBO,5.847556,51.765941
De Hosterd,76,,,6582CC,Heumen,Heumen,Gelderland,VBO,5.847295,51.765974
De Hosterd,78,,,6582CC,Heumen,Heumen,Gelderland,VBO,5.846745,51.765855
De Hosterd,80,,,6582CC,Heumen,Heumen,Gelderland,VBO,5.846754,51.765907
De Hosterd,82,,,6582CC,Heumen,Heumen,Gelderland,VBO,5.846761,51.765958
De Hosterd,84,,,6582CC,Heumen,Heumen,Gelderland,VBO,5.846894,51.766069
De Hosterd,86,,,6582CC,Heumen,Heumen,Gelderland,VBO,5.846902,51.766124
De Hosterd,51,,,6582CD,Heumen,Heumen,Gelderland,VBO,5.846533,51.766323
De Hosterd,53,,,6582CD,Heumen,Heumen,Gelderland,VBO,5.846594,51.766399
De Hosterd,55,,,6582CD,Heumen,Heumen,Gelderland,VBO,5.846673,51.766465
De Hosterd,57,,,6582CD,Heumen,Heumen,Gelderland,VBO,5.846773,51.766520
De Hosterd,59,,,6582CD,Heumen,Heumen,Gelderland,VBO,5.846951,51.766564
De Hosterd,61,,,6582CD,Heumen,Heumen,Gelderland,VBO,5.847015,51.766600
De Hosterd,63,,,6582CD,Heumen,Heumen,Gelderland,VBO,5.847189,51.766690
De Hosterd,88,,,6582CD,Heumen,Heumen,Gelderland,VBO,5.846946,51.766285
De Hosterd,90,,,6582CD,Heumen,Heumen,Gelderland,VBO,5.847114,51.766394
Monumentweg,1,,,6582CE,Heumen,Heumen,Gelderland,VBO,5.848332,51.769076
Monumentweg,3,,,6582CE,Heumen,Heumen,Gelderland,VBO,5.848245,51.769124
Monumentweg,2,,,6582CG,Heumen,Heumen,Gelderland,VBO,5.846519,51.772257
Monumentweg,4,A,,6582CG,Heumen,Heumen,Gelderland,VBO,5.846994,51.770524
Monumentweg,4,,,6582CG,Heumen,Heumen,Gelderland,VBO,5.846856,51.770659
Monumentweg,6,,,6582CG,Heumen,Heumen,Gelderland,VBO,5.845134,51.772897
Monumentweg,8,,,6582CG,Heumen,Heumen,Gelderland,VBO,5.844730,51.772858
Kapitein Postmalaan,1,A,,6582CH,Heumen,Heumen,Gelderland,VBO,5.850979,51.767953
Kapitein Postmalaan,1,,T001,6582CH,Heumen,Heumen,Gelderland,VBO,5.848188,51.766257
Kapitein Postmalaan,3,,,6582CH,Heumen,Heumen,Gelderland,VBO,5.850574,51.769135
Kapitein Postmalaan,5,,,6582CH,Heumen,Heumen,Gelderland,VBO,5.850535,51.769191
Kapitein Postmalaan,7,,,6582CH,Heumen,Heumen,Gelderland,VBO,5.850497,51.769246
Kapitein Postmalaan,9,,,6582CH,Heumen,Heumen,Gelderland,VBO,5.850313,51.769502
Kapitein Postmalaan,11,,,6582CH,Heumen,Heumen,Gelderland,VBO,5.850826,51.769797
Kapitein Postmalaan,2,,,6582CJ,Heumen,Heumen,Gelderland,VBO,5.849686,51.766898
De Boomgaard,1,,,6582CK,Heumen,Heumen,Gelderland,VBO,5.845806,51.764652
De Boomgaard,3,,,6582CK,Heumen,Heumen,Gelderland,VBO,5.846278,51.764937
De Boomgaard,5,,,6582CK,Heumen,Heumen,Gelderland,VBO,5.847625,51.766192
De Boomgaard,7,,,6582CK,Heumen,Heumen,Gelderland,VBO,5.847622,51.766322
De Boomgaard,9,,,6582CK,Heumen,Heumen,Gelderland,VBO,5.847526,51.766519
De Boomgaard,2,,,6582CL,Heumen,Heumen,Gelderland,VBO,5.846444,51.764636
De Boomgaard,4,,,6582CL,Heumen,Heumen,Gelderland,VBO,5.846605,51.764767
De Boomgaard,6,,,6582CL,Heumen,Heumen,Gelderland,VBO,5.846810,51.764912
De Boomgaard,10,,,6582CL,Heumen,Heumen,Gelderland,VBO,5.847336,51.765287
De Boomgaard,12,,,6582CL,Heumen,Heumen,Gelderland,VBO,5.848083,51.766785
Romeinenstraat,1,,,6582CM,Heumen,Heumen,Gelderland,VBO,5.844820,51.766542
Romeinenstraat,3,A,,6582CM,Heumen,Heumen,Gelderland,VBO,5.844569,51.766549
Romeinenstraat,3,,,6582CM,Heumen,Heumen,Gelderland,VBO,5.844636,51.766550
Romeinenstraat,5,A,,6582CM,Heumen,Heumen,Gelderland,VBO,5.844712,51.766725
Romeinenstraat,5,B,,6582CM,Heumen,Heumen,Gelderland,VBO,5.844899,51.766751
Romeinenstraat,5,,,6582CM,Heumen,Heumen,Gelderland,VBO,5.844588,51.766732
Romeinenstraat,7,,,6582CM,Heumen,Heumen,Gelderland,VBO,5.845090,51.766705
Romeinenstraat,9,,,6582CM,Heumen,Heumen,Gelderland,VBO,5.845236,51.766697
Romeinenstraat,11,,,6582CM,Heumen,Heumen,Gelderland,VBO,5.845368,51.766690
Romeinenstraat,13,,,6582CM,Heumen,Heumen,Gelderland,VBO,5.845544,51.766670
Romeinenstraat,15,,,6582CM,Heumen,Heumen,Gelderland,VBO,5.845752,51.766698
Romeinenstraat,17,,,6582CM,Heumen,Heumen,Gelderland,VBO,5.845882,51.766691
Romeinenstraat,19,,,6582CM,Heumen,Heumen,Gelderland,VBO,5.846085,51.766711
Romeinenstraat,21,,,6582CM,Heumen,Heumen,Gelderland,VBO,5.846194,51.766752
Romeinenstraat,23,,,6582CM,Heumen,Heumen,Gelderland,VBO,5.846366,51.766838
Romeinenstraat,25,,,6582CM,Heumen,Heumen,Gelderland,VBO,5.846457,51.766889
Romeinenstraat,2,,,6582CN,Heumen,Heumen,Gelderland,VBO,5.845312,51.766462
Romeinenstraat,4,,,6582CN,Heumen,Heumen,Gelderland,VBO,5.845599,51.766459
Romeinenstraat,6,,,6582CN,Heumen,Heumen,Gelderland,VBO,5.845710,51.766450
Heumense Hof,1,,,6582CP,Heumen,Heumen,Gelderland,VBO,5.842099,51.764401
Heumense Hof,3,,,6582CP,Heumen,Heumen,Gelderland,VBO,5.842001,51.764402
Heumense Hof,5,,,6582CP,Heumen,Heumen,Gelderland,VBO,5.842044,51.764363
Heumense Hof,7,,,6582CP,Heumen,Heumen,Gelderland,VBO,5.841885,51.764364
Heumense Hof,9,,,6582CP,Heumen,Heumen,Gelderland,VBO,5.841820,51.764363
Heumense Hof,11,,,6582CP,Heumen,Heumen,Gelderland,VBO,5.841961,51.764738
Heumense Hof,13,,,6582CP,Heumen,Heumen,Gelderland,VBO,5.841959,51.764674
Heumense Hof,15,,,6582CP,Heumen,Heumen,Gelderland,VBO,5.841961,51.764606
Heumense Hof,17,,,6582CP,Heumen,Heumen,Gelderland,VBO,5.842065,51.764840
Heumense Hof,19,,,6582CP,Heumen,Heumen,Gelderland,VBO,5.841910,51.764840
Heumense Hof,21,,,6582CP,Heumen,Heumen,Gelderland,VBO,5.841896,51.764736
Heumense Hof,23,,,6582CP,Heumen,Heumen,Gelderland,VBO,5.841897,51.764673
Heumense Hof,25,,,6582CP,Heumen,Heumen,Gelderland,VBO,5.841895,51.764608
Heumense Hof,27,,,6582CP,Heumen,Heumen,Gelderland,VBO,5.842075,51.764875
Heumense Hof,29,,,6582CP,Heumen,Heumen,Gelderland,VBO,5.841915,51.764875
Heumense Hof,2,,,6582CR,Heumen,Heumen,Gelderland,VBO,5.842300,51.764400
Heumense Hof,4,,,6582CR,Heumen,Heumen,Gelderland,VBO,5.842385,51.764399
Heumense Hof,6,,,6582CR,Heumen,Heumen,Gelderland,VBO,5.842334,51.764368
Heumense Hof,8,,,6582CR,Heumen,Heumen,Gelderland,VBO,5.842484,51.764362
Heumense Hof,10,,,6582CR,Heumen,Heumen,Gelderland,VBO,5.842551,51.764361
Heumense Hof,12,,,6582CR,Heumen,Heumen,Gelderland,VBO,5.842284,51.764772
Heumense Hof,14,,,6582CR,Heumen,Heumen,Gelderland,VBO,5.842432,51.764704
Heumense Hof,16,,,6582CR,Heumen,Heumen,Gelderland,VBO,5.842442,51.764641
Heumense Hof,18,,,6582CR,Heumen,Heumen,Gelderland,VBO,5.842452,51.764567
Heumense Hof,20,,,6582CR,Heumen,Heumen,Gelderland,VBO,5.842471,51.764491
Heumense Hof,22,,,6582CR,Heumen,Heumen,Gelderland,VBO,5.842235,51.764811
Heumense Hof,24,,,6582CR,Heumen,Heumen,Gelderland,VBO,5.842373,51.764803
Heumense Hof,26,,,6582CR,Heumen,Heumen,Gelderland,VBO,5.842497,51.764706
Heumense Hof,28,,,6582CR,Heumen,Heumen,Gelderland,VBO,5.842505,51.764643
Heumense Hof,30,,,6582CR,Heumen,Heumen,Gelderland,VBO,5.842517,51.764570
Heumense Hof,32,,,6582CR,Heumen,Heumen,Gelderland,VBO,5.842531,51.764494
Heumense Hof,34,,,6582CR,Heumen,Heumen,Gelderland,VBO,5.842236,51.764844
Heumense Hof,36,,,6582CR,Heumen,Heumen,Gelderland,VBO,5.842373,51.764839
Halfweg,1,,,6582CS,Heumen,Heumen,Gelderland,VBO,5.842179,51.764113
Halfweg,2,,,6582CS,Heumen,Heumen,Gelderland,VBO,5.842184,51.763927
Halfweg,3,,,6582CS,Heumen,Heumen,Gelderland,VBO,5.842319,51.763802
Halfweg,4,,,6582CS,Heumen,Heumen,Gelderland,VBO,5.842127,51.763761
Halfweg,5,,,6582CS,Heumen,Heumen,Gelderland,VBO,5.841927,51.763779
Halfweg,6,,,6582CS,Heumen,Heumen,Gelderland,VBO,5.842003,51.763928
Batavierenstraat,4,,,6582CT,Heumen,Heumen,Gelderland,VBO,5.844465,51.767051
Batavierenstraat,6,,,6582CT,Heumen,Heumen,Gelderland,VBO,5.844691,51.767011
Batavierenstraat,7,,,6582CT,Heumen,Heumen,Gelderland,VBO,5.845216,51.767228
Batavierenstraat,8,,,6582CT,Heumen,Heumen,Gelderland,VBO,5.844938,51.767023
Batavierenstraat,9,,,6582CT,Heumen,Heumen,Gelderland,VBO,5.845463,51.767216
Batavierenstraat,10,,,6582CT,Heumen,Heumen,Gelderland,VBO,5.845058,51.767013
Batavierenstraat,11,,,6582CT,Heumen,Heumen,Gelderland,VBO,5.845641,51.767280
Batavierenstraat,12,,,6582CT,Heumen,Heumen,Gelderland,VBO,5.845331,51.767013
Batavierenstraat,13,,,6582CT,Heumen,Heumen,Gelderland,VBO,5.845701,51.767315
Batavierenstraat,14,,,6582CT,Heumen,Heumen,Gelderland,VBO,5.845577,51.766993
Batavierenstraat,15,,,6582CT,Heumen,Heumen,Gelderland,VBO,5.845754,51.767347
Batavierenstraat,16,,,6582CT,Heumen,Heumen,Gelderland,VBO,5.845656,51.767013
Batavierenstraat,17,,,6582CT,Heumen,Heumen,Gelderland,VBO,5.845828,51.767378
Batavierenstraat,18,,,6582CT,Heumen,Heumen,Gelderland,VBO,5.845778,51.767086
Batavierenstraat,20,,,6582CT,Heumen,Heumen,Gelderland,VBO,5.845843,51.767125
Batavierenstraat,22,,,6582CT,Heumen,Heumen,Gelderland,VBO,5.845994,51.767215
Keltenstraat,2,,,6582CV,Heumen,Heumen,Gelderland,VBO,5.844736,51.767294
Keltenstraat,3,,,6582CV,Heumen,Heumen,Gelderland,VBO,5.844167,51.767373
Keltenstraat,4,,,6582CV,Heumen,Heumen,Gelderland,VBO,5.844805,51.767320
Keltenstraat,5,,,6582CV,Heumen,Heumen,Gelderland,VBO,5.844215,51.767414
Keltenstraat,6,,,6582CV,Heumen,Heumen,Gelderland,VBO,5.844859,51.767353
Keltenstraat,7,,,6582CV,Heumen,Heumen,Gelderland,VBO,5.844272,51.767447
Keltenstraat,8,,,6582CV,Heumen,Heumen,Gelderland,VBO,5.844910,51.767383
Keltenstraat,9,,,6582CV,Heumen,Heumen,Gelderland,VBO,5.844323,51.767478
Keltenstraat,10,,,6582CV,Heumen,Heumen,Gelderland,VBO,5.844971,51.767421
Keltenstraat,11,,,6582CV,Heumen,Heumen,Gelderland,VBO,5.844367,51.767504
Keltenstraat,12,,,6582CV,Heumen,Heumen,Gelderland,VBO,5.845031,51.767457
Keltenstraat,13,,,6582CV,Heumen,Heumen,Gelderland,VBO,5.844421,51.767536
Keltenstraat,14,,,6582CV,Heumen,Heumen,Gelderland,VBO,5.845123,51.767509
Keltenstraat,15,,,6582CV,Heumen,Heumen,Gelderland,VBO,5.844472,51.767567
Keltenstraat,16,,,6582CV,Heumen,Heumen,Gelderland,VBO,5.845182,51.767545
Keltenstraat,17,,,6582CV,Heumen,Heumen,Gelderland,VBO,5.844532,51.767602
Keltenstraat,18,,,6582CV,Heumen,Heumen,Gelderland,VBO,5.845234,51.767577
Keltenstraat,19,,,6582CV,Heumen,Heumen,Gelderland,VBO,5.844621,51.767655
Keltenstraat,20,,,6582CV,Heumen,Heumen,Gelderland,VBO,5.845286,51.767608
Keltenstraat,21,,,6582CV,Heumen,Heumen,Gelderland,VBO,5.844684,51.767693
Keltenstraat,22,,,6582CV,Heumen,Heumen,Gelderland,VBO,5.845337,51.767639
Keltenstraat,23,,,6582CV,Heumen,Heumen,Gelderland,VBO,5.844737,51.767724
Keltenstraat,24,,,6582CV,Heumen,Heumen,Gelderland,VBO,5.845388,51.767682
Keltenstraat,25,,,6582CV,Heumen,Heumen,Gelderland,VBO,5.844790,51.767756
Keltenstraat,27,,,6582CV,Heumen,Heumen,Gelderland,VBO,5.844845,51.767788
Keltenstraat,29,,,6582CV,Heumen,Heumen,Gelderland,VBO,5.844898,51.767820
Keltenstraat,31,,,6582CV,Heumen,Heumen,Gelderland,VBO,5.844953,51.767853
Keltenstraat,33,,,6582CV,Heumen,Heumen,Gelderland,VBO,5.845021,51.767881
Frankenstraat,5,,,6582CW,Heumen,Heumen,Gelderland,VBO,5.845745,51.767981
Frankenstraat,7,,,6582CW,Heumen,Heumen,Gelderland,VBO,5.845834,51.767924
Frankenstraat,9,,,6582CW,Heumen,Heumen,Gelderland,VBO,5.845743,51.767868
Frankenstraat,11,,,6582CW,Heumen,Heumen,Gelderland,VBO,5.845655,51.767926
Frankenstraat,13,,,6582CW,Heumen,Heumen,Gelderland,VBO,5.845466,51.768048
Frankenstraat,15,,,6582CW,Heumen,Heumen,Gelderland,VBO,5.845370,51.768112
Frankenstraat,17,,,6582CW,Heumen,Heumen,Gelderland,VBO,5.845462,51.768167
Frankenstraat,19,,,6582CW,Heumen,Heumen,Gelderland,VBO,5.845558,51.768104
Frankenstraat,21,,,6582CW,Heumen,Heumen,Gelderland,VBO,5.845717,51.767962
Frankenstraat,23,,,6582CW,Heumen,Heumen,Gelderland,VBO,5.845806,51.767904
Frankenstraat,25,,,6582CW,Heumen,Heumen,Gelderland,VBO,5.845713,51.767850
Frankenstraat,27,,,6582CW,Heumen,Heumen,Gelderland,VBO,5.845623,51.767909
Frankenstraat,29,,,6582CW,Heumen,Heumen,Gelderland,VBO,5.845436,51.768030
Frankenstraat,31,,,6582CW,Heumen,Heumen,Gelderland,VBO,5.845343,51.768091
Frankenstraat,33,,,6582CW,Heumen,Heumen,Gelderland,VBO,5.845433,51.768147
Frankenstraat,35,,,6582CW,Heumen,Heumen,Gelderland,VBO,5.845528,51.768085
Frankenstraat,37,,,6582CW,Heumen,Heumen,Gelderland,VBO,5.845683,51.767946
Frankenstraat,39,,,6582CW,Heumen,Heumen,Gelderland,VBO,5.845774,51.767886
Frankenstraat,41,,,6582CW,Heumen,Heumen,Gelderland,VBO,5.845686,51.767830
Frankenstraat,43,,,6582CW,Heumen,Heumen,Gelderland,VBO,5.845592,51.767891
Frankenstraat,45,,,6582CW,Heumen,Heumen,Gelderland,VBO,5.845406,51.768013
Frankenstraat,47,,,6582CW,Heumen,Heumen,Gelderland,VBO,5.845309,51.768076
Frankenstraat,49,,,6582CW,Heumen,Heumen,Gelderland,VBO,5.845401,51.768130
Frankenstraat,51,T,,6582CW,Heumen,Heumen,Gelderland,VBO,5.845534,51.767977
Frankenstraat,51,,,6582CW,Heumen,Heumen,Gelderland,VBO,5.845501,51.768065
Frankenstraat,61,,,6582CW,Heumen,Heumen,Gelderland,VBO,5.844565,51.768213
Frankenstraat,63,,,6582CW,Heumen,Heumen,Gelderland,VBO,5.844499,51.768173
Frankenstraat,65,,,6582CW,Heumen,Heumen,Gelderland,VBO,5.844368,51.768095
Frankenstraat,67,,,6582CW,Heumen,Heumen,Gelderland,VBO,5.844306,51.768057
Frankenstraat,69,,,6582CW,Heumen,Heumen,Gelderland,VBO,5.844168,51.767975
Frankenstraat,71,,,6582CW,Heumen,Heumen,Gelderland,VBO,5.844106,51.767938
Frankenstraat,73,,,6582CW,Heumen,Heumen,Gelderland,VBO,5.843975,51.767859
Frankenstraat,75,,,6582CW,Heumen,Heumen,Gelderland,VBO,5.843910,51.767821
Frankenstraat,77,,,6582CW,Heumen,Heumen,Gelderland,VBO,5.843854,51.767695
Frankenstraat,79,,,6582CW,Heumen,Heumen,Gelderland,VBO,5.843786,51.767653
Frankenstraat,2,,,6582CX,Heumen,Heumen,Gelderland,VBO,5.846420,51.767382
Frankenstraat,4,,,6582CX,Heumen,Heumen,Gelderland,VBO,5.846355,51.767483
Frankenstraat,6,,,6582CX,Heumen,Heumen,Gelderland,VBO,5.846364,51.767634
Frankenstraat,8,,,6582CX,Heumen,Heumen,Gelderland,VBO,5.846370,51.767765
Frankenstraat,10,,,6582CX,Heumen,Heumen,Gelderland,VBO,5.846349,51.767926
Frankenstraat,12,,,6582CX,Heumen,Heumen,Gelderland,VBO,5.846291,51.768062
Frankenstraat,14,,,6582CX,Heumen,Heumen,Gelderland,VBO,5.846147,51.768161
Frankenstraat,16,,,6582CX,Heumen,Heumen,Gelderland,VBO,5.846373,51.768385
Frankenstraat,24,,,6582CX,Heumen,Heumen,Gelderland,VBO,5.845689,51.768415
Frankenstraat,26,,,6582CX,Heumen,Heumen,Gelderland,VBO,5.845627,51.768456
Frankenstraat,30,,,6582CX,Heumen,Heumen,Gelderland,VBO,5.845080,51.768495
Frankenstraat,32,,,6582CX,Heumen,Heumen,Gelderland,VBO,5.844584,51.768508
Frankenstraat,34,,,6582CX,Heumen,Heumen,Gelderland,VBO,5.844307,51.768454
Frankenstraat,36,,,6582CX,Heumen,Heumen,Gelderland,VBO,5.844085,51.768344
Frankenstraat,38,,,6582CX,Heumen,Heumen,Gelderland,VBO,5.843914,51.768219
Schutkolk,1,,T001,6582DA,Heumen,Heumen,Gelderland,VBO,5.860192,51.769099
Schutkolk,3,,,6582DA,Heumen,Heumen,Gelderland,VBO,5.860500,51.768865
Schutkolk,5,A,,6582DA,Heumen,Heumen,Gelderland,VBO,5.861319,51.768350
Schutkolk,5,,,6582DA,Heumen,Heumen,Gelderland,VBO,5.860982,51.768303
Schutkolk,4,A,,6582DB,Heumen,Heumen,Gelderland,VBO,5.859766,51.769085
Schutkolk,4,B,,6582DB,Heumen,Heumen,Gelderland,VBO,5.859843,51.769005
Schutkolk,4,,,6582DB,Heumen,Heumen,Gelderland,VBO,5.859709,51.769140
Schutkolk,6,A,,6582DB,Heumen,Heumen,Gelderland,VBO,5.859830,51.768844
Schutkolk,6,B,,6582DB,Heumen,Heumen,Gelderland,VBO,5.859766,51.768825
Schutkolk,6,C,,6582DB,Heumen,Heumen,Gelderland,VBO,5.859701,51.768804
Schutkolk,6,D,,6582DB,Heumen,Heumen,Gelderland,VBO,5.859645,51.768785
Schutkolk,6,E,,6582DB,Heumen,Heumen,Gelderland,VBO,5.859589,51.768768
Schutkolk,6,F,,6582DB,Heumen,Heumen,Gelderland,VBO,5.859512,51.768744
Schutkolk,6,G,,6582DB,Heumen,Heumen,Gelderland,VBO,5.859460,51.768724
Schutkolk,6,,,6582DB,Heumen,Heumen,Gelderland,VBO,5.860072,51.768762
Hoogenhofseweg,3,,,6582DC,Heumen,Heumen,Gelderland,VBO,5.864469,51.764903
Jac Marisstraat,1,,,6582EA,Heumen,Heumen,Gelderland,VBO,5.842231,51.767972
Jac Marisstraat,3,,,6582EA,Heumen,Heumen,Gelderland,VBO,5.842322,51.767983
Jac Marisstraat,5,,,6582EA,Heumen,Heumen,Gelderland,VBO,5.842411,51.767993
Jac Marisstraat,7,,,6582EA,Heumen,Heumen,Gelderland,VBO,5.842505,51.768004
Jac Marisstraat,9,,,6582EA,Heumen,Heumen,Gelderland,VBO,5.842622,51.768021
Jac Marisstraat,11,,,6582EA,Heumen,Heumen,Gelderland,VBO,5.842713,51.768033
Jac Marisstraat,13,,,6582EA,Heumen,Heumen,Gelderland,VBO,5.842806,51.768041
Jac Marisstraat,15,,,6582EA,Heumen,Heumen,Gelderland,VBO,5.842894,51.768050
Jac Marisstraat,17,,,6582EA,Heumen,Heumen,Gelderland,VBO,5.842987,51.768060
Gerardus de Valkstraat,1,,,6582EB,Heumen,Heumen,Gelderland,VBO,5.841937,51.767974
Gerardus de Valkstraat,2,,,6582EB,Heumen,Heumen,Gelderland,VBO,5.842174,51.768223
Gerardus de Valkstraat,3,,,6582EB,Heumen,Heumen,Gelderland,VBO,5.841921,51.768026
Gerardus de Valkstraat,4,,,6582EB,Heumen,Heumen,Gelderland,VBO,5.842158,51.768271
Gerardus de Valkstraat,5,,,6582EB,Heumen,Heumen,Gelderland,VBO,5.841884,51.768153
Gerardus de Valkstraat,6,,,6582EB,Heumen,Heumen,Gelderland,VBO,5.842142,51.768318
Gerardus de Valkstraat,7,,,6582EB,Heumen,Heumen,Gelderland,VBO,5.841867,51.768206
Gerardus de Valkstraat,8,,,6582EB,Heumen,Heumen,Gelderland,VBO,5.842129,51.768368
Gerardus de Valkstraat,9,,,6582EB,Heumen,Heumen,Gelderland,VBO,5.841833,51.768332
Gerardus de Valkstraat,10,,,6582EB,Heumen,Heumen,Gelderland,VBO,5.842114,51.768417
Gerardus de Valkstraat,11,,,6582EB,Heumen,Heumen,Gelderland,VBO,5.841815,51.768384
Johan van Groesbeekstraat,1,,,6582EC,Heumen,Heumen,Gelderland,VBO,5.842965,51.768268
Johan van Groesbeekstraat,3,,,6582EC,Heumen,Heumen,Gelderland,VBO,5.842960,51.768316
Johan van Groesbeekstraat,5,,,6582EC,Heumen,Heumen,Gelderland,VBO,5.842961,51.768366
Johan van Groesbeekstraat,7,,,6582EC,Heumen,Heumen,Gelderland,VBO,5.842957,51.768415
Johan van Groesbeekstraat,9,,,6582EC,Heumen,Heumen,Gelderland,VBO,5.842952,51.768462
Johan van Groesbeekstraat,11,,,6582EC,Heumen,Heumen,Gelderland,VBO,5.842949,51.768512
