openbareruimtenaam,huisnummer,huisletter,huisnummertoevoeging,postcode,woonplaatsnaam,gemeentenaam,provincienaam,typeadresseerbaarobject,longitude,latitude
Rijksweg,37,,,6585AA,Mook,Mook en Middelaar,Limburg,VBO,5.873401,51.757039
Rijksweg,39,,,6585AA,Mook,Mook en Middelaar,Limburg,VBO,5.873810,51.757060
Rijksweg,41,,,6585AA,Mook,Mook en Middelaar,Limburg,VBO,5.874124,51.756803
Rijksweg,45,,,6585AA,Mook,Mook en Middelaar,Limburg,VBO,5.874629,51.756580
Rijksweg,47,,,6585AA,Mook,Mook en Middelaar,Limburg,VBO,5.874868,51.756368
Rijksweg,49,a,,6585AA,Mook,Mook en Middelaar,Limburg,VBO,5.875224,51.756125
Rijksweg,49,,,6585AA,Mook,Mook en Middelaar,Limburg,VBO,5.875000,51.756249
Rijksweg,51,,,6585AA,Mook,Mook en Middelaar,Limburg,VBO,5.875499,51.756002
Rijksweg,55,,,6585AA,Mook,Mook en Middelaar,Limburg,VBO,5.876519,51.755695
Rijksweg,65,,,6585AA,Mook,Mook en Middelaar,Limburg,VBO,5.879300,51.753601
Rijksweg,71,,,6585AB,Mook,Mook en Middelaar,Limburg,VBO,5.880001,51.753160
Rijksweg,73,,,6585AB,Mook,Mook en Middelaar,Limburg,VBO,5.880102,51.753006
Rijksweg,75,,,6585AB,Mook,Mook en Middelaar,Limburg,VBO,5.880218,51.752926
Rijksweg,77,,,6585AB,Mook,Mook en Middelaar,Limburg,VBO,5.880392,51.752848
Rijksweg,79,a,,6585AB,Mook,Mook en Middelaar,Limburg,VBO,5.880609,51.752617
Rijksweg,79,,,6585AB,Mook,Mook en Middelaar,Limburg,VBO,5.880556,51.752674
Rijksweg,81,a,,6585AB,Mook,Mook en Middelaar,Limburg,VBO,5.880741,51.752449
Rijksweg,81,,,6585AB,Mook,Mook en Middelaar,Limburg,VBO,5.880702,51.752495
Rijksweg,83,,,6585AB,Mook,Mook en Middelaar,Limburg,VBO,5.880850,51.752284
Rijksweg,85,,,6585AB,Mook,Mook en Middelaar,Limburg,VBO,5.880912,51.752067
Rijksweg,87,,,6585AB,Mook,Mook en Middelaar,Limburg,VBO,5.881107,51.751986
Rijksweg,89,,,6585AB,Mook,Mook en Middelaar,Limburg,VBO,5.881183,51.751907
Rijksweg,91,,,6585AB,Mook,Mook en Middelaar,Limburg,VBO,5.881227,51.751861
Rijksweg,93,,,6585AB,Mook,Mook en Middelaar,Limburg,VBO,5.881318,51.751777
Rijksweg,95,,,6585AB,Mook,Mook en Middelaar,Limburg,VBO,5.881650,51.751559
Rijksweg,101,,,6585AC,Mook,Mook en Middelaar,Limburg,VBO,5.882020,51.751155
Rijksweg,103,,,6585AC,Mook,Mook en Middelaar,Limburg,VBO,5.882143,51.751038
Rijksweg,105,,,6585AC,Mook,Mook en Middelaar,Limburg,VBO,5.882260,51.750954
Rijksweg,107,,,6585AC,Mook,Mook en Middelaar,Limburg,VBO,5.882404,51.750851
Rijksweg,109,,,6585AC,Mook,Mook en Middelaar,Limburg,VBO,5.882550,51.750778
Rijksweg,111,,,6585AC,Mook,Mook en Middelaar,Limburg,VBO,5.882636,51.750655
Rijksweg,113,,,6585AC,Mook,Mook en Middelaar,Limburg,VBO,5.882744,51.750585
Rijksweg,115,,,6585AC,Mook,Mook en Middelaar,Limburg,VBO,5.882804,51.750543
Rijksweg,117,,,6585AC,Mook,Mook en Middelaar,Limburg,VBO,5.882907,51.750469
Rijksweg,121,,,6585AC,Mook,Mook en Middelaar,Limburg,VBO,5.883240,51.750284
Rijksweg,123,,,6585AC,Mook,Mook en Middelaar,Limburg,VBO,5.883262,51.750295
Rijksweg,131,,,6585AC,Mook,Mook en Middelaar,Limburg,VBO,5.883969,51.749833
Rijksweg,133,,,6585AC,Mook,Mook en Middelaar,Limburg,VBO,5.884289,51.749680
Rijksweg,135,,,6585AC,Mook,Mook en Middelaar,Limburg,VBO,5.884365,51.749644
Rijksweg,137,,,6585AC,Mook,Mook en Middelaar,Limburg,VBO,5.884616,51.749596
Rijksweg,139,,,6585AD,Mook,Mook en Middelaar,Limburg,VBO,5.884857,51.749483
Rijksweg,141,b,,6585AD,Mook,Mook en Middelaar,Limburg,VBO,5.885238,51.749300
Rijksweg,141,,,6585AD,Mook,Mook en Middelaar,Limburg,VBO,5.885006,51.749412
Rijksweg,143,,,6585AD,Mook,Mook en Middelaar,Limburg,VBO,5.886206,51.749112
Rijksweg,145,,,6585AD,Mook,Mook en Middelaar,Limburg,VBO,5.886391,51.749071
Rijksweg,147,,,6585AD,Mook,Mook en Middelaar,Limburg,VBO,5.886486,51.749050
Rijksweg,149,,,6585AD,Mook,Mook en Middelaar,Limburg,VBO,5.886679,51.749006
Rijksweg,151,,,6585AD,Mook,Mook en Middelaar,Limburg,VBO,5.886778,51.748984
Rijksweg,153,a,,6585AD,Mook,Mook en Middelaar,Limburg,VBO,5.887251,51.748879
Rijksweg,153,b,,6585AD,Mook,Mook en Middelaar,Limburg,VBO,5.887353,51.748856
Rijksweg,153,,,6585AD,Mook,Mook en Middelaar,Limburg,VBO,5.886960,51.748918
Rijksweg,155,,,6585AD,Mook,Mook en Middelaar,Limburg,VBO,5.887603,51.748807
Rijksweg,157,,,6585AD,Mook,Mook en Middelaar,Limburg,VBO,5.887986,51.748728
Rijksweg,161,,,6585AE,Mook,Mook en Middelaar,Limburg,VBO,5.890394,51.748180
Rijksweg,163,,,6585AE,Mook,Mook en Middelaar,Limburg,VBO,5.890621,51.748114
Rijksweg,165,,,6585AE,Mook,Mook en Middelaar,Limburg,VBO,5.890876,51.748066
Rijksweg,167,,,6585AE,Mook,Mook en Middelaar,Limburg,VBO,5.890984,51.748041
Rijksweg,169,,,6585AE,Mook,Mook en Middelaar,Limburg,VBO,5.891206,51.747982
Rijksweg,171,,,6585AE,Mook,Mook en Middelaar,Limburg,VBO,5.891307,51.747959
Rijksweg,173,,,6585AE,Mook,Mook en Middelaar,Limburg,VBO,5.891517,51.747936
Rijksweg,175,,,6585AE,Mook,Mook en Middelaar,Limburg,VBO,5.891614,51.747914
Rijksweg,177,,,6585AE,Mook,Mook en Middelaar,Limburg,VBO,5.891802,51.747847
Rijksweg,179,,,6585AE,Mook,Mook en Middelaar,Limburg,VBO,5.891899,51.747825
Rijksweg,181,,,6585AE,Mook,Mook en Middelaar,Limburg,VBO,5.892165,51.747727
Rijksweg,183,,,6585AE,Mook,Mook en Middelaar,Limburg,VBO,5.892244,51.747773
Rijksweg,187,,,6585AE,Mook,Mook en Middelaar,Limburg,VBO,5.894542,51.746890
Rijksweg,189,,,6585AE,Mook,Mook en Middelaar,Limburg,VBO,5.902386,51.743547
Rijksweg,26,,,6585AG,Mook,Mook en Middelaar,Limburg,VBO,5.874009,51.756035
Rijksweg,28,,,6585AG,Mook,Mook en Middelaar,Limburg,VBO,5.874515,51.755982
Rijksweg,30,,,6585AG,Mook,Mook en Middelaar,Limburg,VBO,5.874640,51.755864
Rijksweg,32,,,6585AG,Mook,Mook en Middelaar,Limburg,VBO,5.874927,51.755795
Rijksweg,44,,,6585AG,Mook,Mook en Middelaar,Limburg,VBO,5.879102,51.753221
Rijksweg,52,,,6585AG,Mook,Mook en Middelaar,Limburg,VBO,5.879763,51.752801
Rijksweg,54,,,6585AG,Mook,Mook en Middelaar,Limburg,VBO,5.879958,51.752726
Rijksweg,56,,,6585AG,Mook,Mook en Middelaar,Limburg,VBO,5.880155,51.752569
Rijksweg,62,,,6585AG,Mook,Mook en Middelaar,Limburg,VBO,5.880446,51.752171
Rijksweg,64,a,,6585AG,Mook,Mook en Middelaar,Limburg,VBO,5.880526,51.751947
Rijksweg,64,b,,6585AG,Mook,Mook en Middelaar,Limburg,VBO,5.880543,51.751903
Rijksweg,64,,,6585AG,Mook,Mook en Middelaar,Limburg,VBO,5.880484,51.751998
Rijksweg,66,a,,6585AG,Mook,Mook en Middelaar,Limburg,VBO,5.880659,51.751825
Rijksweg,66,b,,6585AG,Mook,Mook en Middelaar,Limburg,VBO,5.880602,51.751802
Rijksweg,66,,,6585AG,Mook,Mook en Middelaar,Limburg,VBO,5.880571,51.751869
Rijksweg,68,a,,6585AG,Mook,Mook en Middelaar,Limburg,VBO,5.880691,51.751786
Rijksweg,68,b,,6585AG,Mook,Mook en Middelaar,Limburg,VBO,5.880690,51.751728
Rijksweg,68,,,6585AG,Mook,Mook en Middelaar,Limburg,VBO,5.880636,51.751771
Rijksweg,70,a,,6585AG,Mook,Mook en Middelaar,Limburg,VBO,5.880801,51.751655
Rijksweg,70,b,,6585AG,Mook,Mook en Middelaar,Limburg,VBO,5.880745,51.751631
Rijksweg,70,,,6585AG,Mook,Mook en Middelaar,Limburg,VBO,5.880718,51.751695
Rijksweg,72,a,,6585AG,Mook,Mook en Middelaar,Limburg,VBO,5.880839,51.751608
Rijksweg,72,b,,6585AG,Mook,Mook en Middelaar,Limburg,VBO,5.880836,51.751553
Rijksweg,72,,,6585AG,Mook,Mook en Middelaar,Limburg,VBO,5.880774,51.751597
Rijksweg,74,,,6585AG,Mook,Mook en Middelaar,Limburg,VBO,5.881088,51.751350
Rijksweg,84,,,6585AH,Mook,Mook en Middelaar,Limburg,VBO,5.882059,51.750622
Rijksweg,86,,,6585AH,Mook,Mook en Middelaar,Limburg,VBO,5.882258,51.750487
Rijksweg,88,,,6585AH,Mook,Mook en Middelaar,Limburg,VBO,5.882505,51.750369
Rijksweg,92,,,6585AH,Mook,Mook en Middelaar,Limburg,VBO,5.882843,51.750055
Rijksweg,94,,,6585AH,Mook,Mook en Middelaar,Limburg,VBO,5.882931,51.749997
Rijksweg,96,,,6585AH,Mook,Mook en Middelaar,Limburg,VBO,5.883080,51.749936
Rijksweg,98,,,6585AH,Mook,Mook en Middelaar,Limburg,VBO,5.883274,51.749809
Rijksweg,100,,,6585AH,Mook,Mook en Middelaar,Limburg,VBO,5.883498,51.749664
Rijksweg,104,,,6585AH,Mook,Mook en Middelaar,Limburg,VBO,5.883923,51.749434
Rijksweg,106,a,,6585AH,Mook,Mook en Middelaar,Limburg,VBO,5.884368,51.749290
Rijksweg,106,,,6585AH,Mook,Mook en Middelaar,Limburg,VBO,5.884382,51.749305
Rijksweg,108,,,6585AH,Mook,Mook en Middelaar,Limburg,VBO,5.884559,51.749241
Rijksweg,110,,,6585AJ,Mook,Mook en Middelaar,Limburg,VBO,5.884697,51.749190
Rijksweg,112,,,6585AJ,Mook,Mook en Middelaar,Limburg,VBO,5.884773,51.749163
Rijksweg,114,,,6585AJ,Mook,Mook en Middelaar,Limburg,VBO,5.884934,51.749106
Rijksweg,116,,,6585AJ,Mook,Mook en Middelaar,Limburg,VBO,5.886013,51.748819
Rijksweg,118,,,6585AJ,Mook,Mook en Middelaar,Limburg,VBO,5.886321,51.748749
Rijksweg,120,,,6585AJ,Mook,Mook en Middelaar,Limburg,VBO,5.886660,51.748666
Rijksweg,122,,,6585AJ,Mook,Mook en Middelaar,Limburg,VBO,5.887021,51.748594
Rijksweg,124,,,6585AJ,Mook,Mook en Middelaar,Limburg,VBO,5.891203,51.747490
Rijksweg,126,a,,6585AJ,Mook,Mook en Middelaar,Limburg,VBO,5.891942,51.747337
Rijksweg,126,,,6585AJ,Mook,Mook en Middelaar,Limburg,VBO,5.892111,51.747442
Rijksweg,128,,,6585AJ,Mook,Mook en Middelaar,Limburg,VBO,5.892183,51.747421
Rijksweg,132,,,6585AJ,Mook,Mook en Middelaar,Limburg,VBO,5.896165,51.745226
Rijksweg,132,,,6585AJ,Mook,Mook en Middelaar,Limburg,VBO,5.896526,51.745282
Maasdijk,1,,,6585AK,Mook,Mook en Middelaar,Limburg,VBO,5.873297,51.756352
Maasdijk,2,a,,6585AK,Mook,Mook en Middelaar,Limburg,VBO,5.875345,51.755149
Maasdijk,2,,,6585AK,Mook,Mook en Middelaar,Limburg,VBO,5.875506,51.755036
Maasdijk,4,,,6585AK,Mook,Mook en Middelaar,Limburg,VBO,5.875121,51.755323
Maasdijk,5,a,,6585AK,Mook,Mook en Middelaar,Limburg,VBO,5.873095,51.756635
Maasdijk,5,,,6585AK,Mook,Mook en Middelaar,Limburg,VBO,5.873188,51.756537
Maasdijk,6,,,6585AK,Mook,Mook en Middelaar,Limburg,VBO,5.874934,51.755438
Maasdijk,7,,,6585AK,Mook,Mook en Middelaar,Limburg,VBO,5.872858,51.756541
Maasdijk,18,,,6585AK,Mook,Mook en Middelaar,Limburg,VBO,5.873784,51.756189
van Dedemstraat,1,,,6585AL,Mook,Mook en Middelaar,Limburg,VBO,5.879779,51.752378
van Dedemstraat,3,,,6585AL,Mook,Mook en Middelaar,Limburg,VBO,5.879684,51.752322
van Dedemstraat,4,,,6585AL,Mook,Mook en Middelaar,Limburg,VBO,5.879750,51.752585
van Dedemstraat,6,,,6585AL,Mook,Mook en Middelaar,Limburg,VBO,5.879476,51.752424
van Dedemstraat,8,,,6585AL,Mook,Mook en Middelaar,Limburg,VBO,5.879403,51.752380
van Nijvenheimstraat,1,,,6585AM,Mook,Mook en Middelaar,Limburg,VBO,5.879917,51.751828
van Nijvenheimstraat,2,,,6585AM,Mook,Mook en Middelaar,Limburg,VBO,5.880053,51.752177
van Nijvenheimstraat,3,,,6585AM,Mook,Mook en Middelaar,Limburg,VBO,5.880161,51.752027
van Nijvenheimstraat,4,,,6585AM,Mook,Mook en Middelaar,Limburg,VBO,5.879979,51.752124
De Hove,1,,,6585AN,Mook,Mook en Middelaar,Limburg,VBO,5.880842,51.750667
De Hove,2,,,6585AN,Mook,Mook en Middelaar,Limburg,VBO,5.880852,51.751052
De Hove,3,,,6585AN,Mook,Mook en Middelaar,Limburg,VBO,5.880293,51.750746
De Hove,4,,,6585AN,Mook,Mook en Middelaar,Limburg,VBO,5.880792,51.751116
De Hove,5,,,6585AN,Mook,Mook en Middelaar,Limburg,VBO,5.880217,51.750955
De Hove,6,,,6585AN,Mook,Mook en Middelaar,Limburg,VBO,5.880876,51.751061
De Hove,7,,,6585AN,Mook,Mook en Middelaar,Limburg,VBO,5.879821,51.751159
De Hove,8,,,6585AN,Mook,Mook en Middelaar,Limburg,VBO,5.880817,51.751125
De Hove,9,,,6585AN,Mook,Mook en Middelaar,Limburg,VBO,5.879671,51.751336
De Hove,10,,,6585AN,Mook,Mook en Middelaar,Limburg,VBO,5.880758,51.751150
De Hove,11,a,,6585AN,Mook,Mook en Middelaar,Limburg,VBO,5.879426,51.751462
De Hove,11,,,6585AN,Mook,Mook en Middelaar,Limburg,VBO,5.879450,51.751472
De Hove,12,,,6585AN,Mook,Mook en Middelaar,Limburg,VBO,5.880696,51.751211
De Hove,13,,,6585AN,Mook,Mook en Middelaar,Limburg,VBO,5.879193,51.751703
De Hove,14,,,6585AN,Mook,Mook en Middelaar,Limburg,VBO,5.880782,51.751159
De Hove,15,a,,6585AN,Mook,Mook en Middelaar,Limburg,VBO,5.878781,51.751982
De Hove,15,b,,6585AN,Mook,Mook en Middelaar,Limburg,VBO,5.878609,51.752238
De Hove,15,,,6585AN,Mook,Mook en Middelaar,Limburg,VBO,5.879056,51.751775
De Hove,16,,,6585AN,Mook,Mook en Middelaar,Limburg,VBO,5.880720,51.751221
De Hove,17,,,6585AN,Mook,Mook en Middelaar,Limburg,VBO,5.878442,51.752385
De Hove,18,,,6585AN,Mook,Mook en Middelaar,Limburg,VBO,5.880492,51.751422
De Hove,19,,,6585AN,Mook,Mook en Middelaar,Limburg,VBO,5.878020,51.752582
De Hove,20,,,6585AN,Mook,Mook en Middelaar,Limburg,VBO,5.880436,51.751461
De Hove,22,,,6585AN,Mook,Mook en Middelaar,Limburg,VBO,5.880416,51.751515
De Hove,24,,,6585AN,Mook,Mook en Middelaar,Limburg,VBO,5.880366,51.751550
De Hove,26,,,6585AN,Mook,Mook en Middelaar,Limburg,VBO,5.880280,51.751568
De Hove,28,,,6585AN,Mook,Mook en Middelaar,Limburg,VBO,5.880227,51.751605
De Hove,30,,,6585AN,Mook,Mook en Middelaar,Limburg,VBO,5.880064,51.751709
De Hove,32,,,6585AN,Mook,Mook en Middelaar,Limburg,VBO,5.879576,51.752019
De Hove,34,,,6585AN,Mook,Mook en Middelaar,Limburg,VBO,5.879496,51.752069
De Hove,36,,,6585AN,Mook,Mook en Middelaar,Limburg,VBO,5.879158,51.752277
De Hove,38,,,6585AN,Mook,Mook en Middelaar,Limburg,VBO,5.879083,51.752319
De Hove,40,,,6585AN,Mook,Mook en Middelaar,Limburg,VBO,5.878864,51.752441
De Hove,42,,,6585AN,Mook,Mook en Middelaar,Limburg,VBO,5.878769,51.752719
De Hove,44,,,6585AN,Mook,Mook en Middelaar,Limburg,VBO,5.878730,51.752742
De Hove,46,,,6585AN,Mook,Mook en Middelaar,Limburg,VBO,5.878636,51.752797
De Hove,48,,,6585AN,Mook,Mook en Middelaar,Limburg,VBO,5.878792,51.752884
De Hove,50,,,6585AN,Mook,Mook en Middelaar,Limburg,VBO,5.878836,51.752832
De Hove,52,,,6585AN,Mook,Mook en Middelaar,Limburg,VBO,5.878909,51.752790
De Hove,54,,,6585AN,Mook,Mook en Middelaar,Limburg,VBO,5.879155,51.752817
De Hove,56,,,6585AN,Mook,Mook en Middelaar,Limburg,VBO,5.879214,51.752861
De Hove,58,,,6585AN,Mook,Mook en Middelaar,Limburg,VBO,5.879273,51.752905
De Hove,60,,,6585AN,Mook,Mook en Middelaar,Limburg,VBO,5.879154,51.753082
De Hove,62,,,6585AN,Mook,Mook en Middelaar,Limburg,VBO,5.879233,51.753035
De Hove,64,,,6585AN,Mook,Mook en Middelaar,Limburg,VBO,5.879300,51.752995
De Hove,66,,,6585AN,Mook,Mook en Middelaar,Limburg,VBO,5.879348,51.752967
De Hove,68,,,6585AN,Mook,Mook en Middelaar,Limburg,VBO,5.879415,51.752927
De Hove,70,,,6585AN,Mook,Mook en Middelaar,Limburg,VBO,5.879497,51.752877
De Hove,72,,,6585AN,Mook,Mook en Middelaar,Limburg,VBO,5.879543,51.752850
De Hove,74,,,6585AN,Mook,Mook en Middelaar,Limburg,VBO,5.879412,51.752825
De Hove,76,,,6585AN,Mook,Mook en Middelaar,Limburg,VBO,5.879354,51.752780
De Hove,78,,,6585AN,Mook,Mook en Middelaar,Limburg,VBO,5.879290,51.752740
De Hove,80,,,6585AN,Mook,Mook en Middelaar,Limburg,VBO,5.879229,51.752699
De Hove,82,,,6585AN,Mook,Mook en Middelaar,Limburg,VBO,5.879160,51.752658
Raadhuisplein,6,,,6585AP,Mook,Mook en Middelaar,Limburg,VBO,5.881153,51.750996
Raadhuisplein,8,,,6585AP,Mook,Mook en Middelaar,Limburg,VBO,5.881164,51.750399
van Neukirchenstraat,3,,,6585AR,Mook,Mook en Middelaar,Limburg,VBO,5.880814,51.751292
van Neukirchenstraat,5,,,6585AR,Mook,Mook en Middelaar,Limburg,VBO,5.880903,51.751334
van Neukirchenstraat,7,,,6585AR,Mook,Mook en Middelaar,Limburg,VBO,5.880831,51.751277
van Neukirchenstraat,9,,,6585AR,Mook,Mook en Middelaar,Limburg,VBO,5.880920,51.751320
Verbindingsweg,2,,,6585AS,Mook,Mook en Middelaar,Limburg,VBO,5.885128,51.749018
Verbindingsweg,3,,,6585AS,Mook,Mook en Middelaar,Limburg,VBO,5.886001,51.748564
Verbindingsweg,4,,,6585AS,Mook,Mook en Middelaar,Limburg,VBO,5.885246,51.748898
Verbindingsweg,6,a,,6585AS,Mook,Mook en Middelaar,Limburg,VBO,5.885514,51.748677
Verbindingsweg,6,,,6585AS,Mook,Mook en Middelaar,Limburg,VBO,5.885377,51.748791
Verbindingsweg,8,,,6585AS,Mook,Mook en Middelaar,Limburg,VBO,5.885690,51.748561
Verbindingsweg,10,,,6585AS,Mook,Mook en Middelaar,Limburg,VBO,5.885764,51.748490
Verbindingsweg,12,,,6585AS,Mook,Mook en Middelaar,Limburg,VBO,5.885927,51.748335
Verbindingsweg,14,,,6585AS,Mook,Mook en Middelaar,Limburg,VBO,5.885997,51.748268
Kerkstraat,3,,,6585AT,Mook,Mook en Middelaar,Limburg,VBO,5.881646,51.750283
Kerkstraat,5,,,6585AT,Mook,Mook en Middelaar,Limburg,VBO,5.881728,51.750156
Kerkstraat,7,,,6585AT,Mook,Mook en Middelaar,Limburg,VBO,5.881825,51.750081
Kerkstraat,9,,,6585AT,Mook,Mook en Middelaar,Limburg,VBO,5.881946,51.749986
Kerkstraat,11,,,6585AT,Mook,Mook en Middelaar,Limburg,VBO,5.882006,51.749949
Kerkstraat,13,,,6585AT,Mook,Mook en Middelaar,Limburg,VBO,5.882117,51.749864
Kerkstraat,15,,,6585AT,Mook,Mook en Middelaar,Limburg,VBO,5.882322,51.749813
Kerkstraat,17,,,6585AT,Mook,Mook en Middelaar,Limburg,VBO,5.882426,51.749785
Kerkstraat,19,,,6585AT,Mook,Mook en Middelaar,Limburg,VBO,5.882597,51.749739
Kerkstraat,21,,,6585AT,Mook,Mook en Middelaar,Limburg,VBO,5.882702,51.749711
Kerkstraat,23,,,6585AT,Mook,Mook en Middelaar,Limburg,VBO,5.882954,51.749640
Kerkstraat,27,a,,6585AT,Mook,Mook en Middelaar,Limburg,VBO,5.884105,51.749256
Kerkstraat,27,b,,6585AT,Mook,Mook en Middelaar,Limburg,VBO,5.884184,51.749197
Kerkstraat,27,c,,6585AT,Mook,Mook en Middelaar,Limburg,VBO,5.884254,51.749249
Kerkstraat,27,,,6585AT,Mook,Mook en Middelaar,Limburg,VBO,5.883899,51.749356
Kerkstraat,29,,,6585AT,Mook,Mook en Middelaar,Limburg,VBO,5.884494,51.748991
Kerkstraat,31,,,6585AT,Mook,Mook en Middelaar,Limburg,VBO,5.884547,51.748940
Kerkstraat,33,a,,6585AT,Mook,Mook en Middelaar,Limburg,VBO,5.884760,51.748716
Kerkstraat,33,,,6585AT,Mook,Mook en Middelaar,Limburg,VBO,5.884652,51.748833
Kerkstraat,35,a,,6585AT,Mook,Mook en Middelaar,Limburg,VBO,5.884938,51.748495
Kerkstraat,35,,,6585AT,Mook,Mook en Middelaar,Limburg,VBO,5.884835,51.748591
Kerkstraat,37,,,6585AT,Mook,Mook en Middelaar,Limburg,VBO,5.885056,51.748353
Kerkstraat,39,,,6585AT,Mook,Mook en Middelaar,Limburg,VBO,5.885189,51.748237
Kerkstraat,41,,,6585AT,Mook,Mook en Middelaar,Limburg,VBO,5.885273,51.748175
Kerkstraat,43,,,6585AT,Mook,Mook en Middelaar,Limburg,VBO,5.885607,51.748137
Kerkstraat,45,,,6585AT,Mook,Mook en Middelaar,Limburg,VBO,5.885733,51.748149
Kerkstraat,47,,,6585AT,Mook,Mook en Middelaar,Limburg,VBO,5.886354,51.748285
Kerkstraat,2,,,6585AV,Mook,Mook en Middelaar,Limburg,VBO,5.881336,51.750201
Kerkstraat,4,,,6585AV,Mook,Mook en Middelaar,Limburg,VBO,5.881567,51.750079
Kerkstraat,6,a,,6585AV,Mook,Mook en Middelaar,Limburg,VBO,5.881396,51.749920
Kerkstraat,6,b,,6585AV,Mook,Mook en Middelaar,Limburg,VBO,5.881511,51.749967
Kerkstraat,6,,,6585AV,Mook,Mook en Middelaar,Limburg,VBO,5.881629,51.750016
Kerkstraat,8,,,6585AV,Mook,Mook en Middelaar,Limburg,VBO,5.881695,51.749864
Kerkstraat,16,,,6585AV,Mook,Mook en Middelaar,Limburg,VBO,5.881893,51.749736
Kerkstraat,18,,,6585AV,Mook,Mook en Middelaar,Limburg,VBO,5.882321,51.749611
Kerkstraat,20,a,,6585AV,Mook,Mook en Middelaar,Limburg,VBO,5.882658,51.749511
Kerkstraat,20,,,6585AV,Mook,Mook en Middelaar,Limburg,VBO,5.882495,51.749548
Kerkstraat,22,,,6585AV,Mook,Mook en Middelaar,Limburg,VBO,5.882916,51.749455
Kerkstraat,24,,,6585AV,Mook,Mook en Middelaar,Limburg,VBO,5.883000,51.749434
Kerkstraat,26,,,6585AV,Mook,Mook en Middelaar,Limburg,VBO,5.883184,51.749395
Kerkstraat,28,,,6585AV,Mook,Mook en Middelaar,Limburg,VBO,5.883370,51.749333
Kerkstraat,30,,,6585AV,Mook,Mook en Middelaar,Limburg,VBO,5.883533,51.749277
Kerkstraat,32,,,6585AV,Mook,Mook en Middelaar,Limburg,VBO,5.883711,51.749212
Kerkstraat,34,,,6585AV,Mook,Mook en Middelaar,Limburg,VBO,5.883875,51.749125
Kerkstraat,36,,,6585AV,Mook,Mook en Middelaar,Limburg,VBO,5.883958,51.749076
Kerkstraat,38,,,6585AW,Mook,Mook en Middelaar,Limburg,VBO,5.884175,51.748952
Kerkstraat,40,,,6585AW,Mook,Mook en Middelaar,Limburg,VBO,5.884299,51.748814
Kerkstraat,42,,,6585AW,Mook,Mook en Middelaar,Limburg,VBO,5.884409,51.748705
Kerkstraat,44,,,6585AW,Mook,Mook en Middelaar,Limburg,VBO,5.884537,51.748546
Kerkstraat,46,,,6585AW,Mook,Mook en Middelaar,Limburg,VBO,5.884588,51.748479
Kerkstraat,48,a,,6585AW,Mook,Mook en Middelaar,Limburg,VBO,5.884698,51.748336
Kerkstraat,48,b,,6585AW,Mook,Mook en Middelaar,Limburg,VBO,5.884749,51.748276
Kerkstraat,48,,,6585AW,Mook,Mook en Middelaar,Limburg,VBO,5.884672,51.748378
Kerkstraat,50,,,6585AW,Mook,Mook en Middelaar,Limburg,VBO,5.884784,51.748043
Kerkstraat,54,,,6585AW,Mook,Mook en Middelaar,Limburg,VBO,5.885688,51.747887
Kanaalweg,2,a,,6585AX,Mook,Mook en Middelaar,Limburg,VBO,5.884710,51.747899
Kanaalweg,2,b,,6585AX,Mook,Mook en Middelaar,Limburg,VBO,5.884684,51.747894
Kanaalweg,2,c,,6585AX,Mook,Mook en Middelaar,Limburg,VBO,5.884656,51.747890
Kanaalweg,2,,,6585AX,Mook,Mook en Middelaar,Limburg,VBO,5.884738,51.747904
Kanaalweg,4,a,,6585AX,Mook,Mook en Middelaar,Limburg,VBO,5.884758,51.747795
Kanaalweg,4,b,,6585AX,Mook,Mook en Middelaar,Limburg,VBO,5.884730,51.747790
Kanaalweg,4,c,,6585AX,Mook,Mook en Middelaar,Limburg,VBO,5.884703,51.747785
Kanaalweg,4,,,6585AX,Mook,Mook en Middelaar,Limburg,VBO,5.884786,51.747800
Kanaalweg,6,,,6585AX,Mook,Mook en Middelaar,Limburg,VBO,5.884861,51.747646
Kanaalweg,8,,,6585AX,Mook,Mook en Middelaar,Limburg,VBO,5.884986,51.747445
Kanaalweg,10,a,,6585AX,Mook,Mook en Middelaar,Limburg,VBO,5.885298,51.746892
Kanaalweg,10,,,6585AX,Mook,Mook en Middelaar,Limburg,VBO,5.885222,51.747096
Kanaalweg,12,,,6585AX,Mook,Mook en Middelaar,Limburg,VBO,5.885436,51.746757
Kanaalweg,14,a,,6585AX,Mook,Mook en Middelaar,Limburg,VBO,5.885586,51.746321
Kanaalweg,14,,,6585AX,Mook,Mook en Middelaar,Limburg,VBO,5.885613,51.746542
't Kempke,2,,,6585AZ,Mook,Mook en Middelaar,Limburg,VBO,5.883254,51.748411
't Kempke,3,,,6585AZ,Mook,Mook en Middelaar,Limburg,VBO,5.883574,51.748576
't Kempke,4,a,,6585AZ,Mook,Mook en Middelaar,Limburg,VBO,5.883672,51.748072
't Kempke,4,,,6585AZ,Mook,Mook en Middelaar,Limburg,VBO,5.883446,51.748219
't Kempke,5,,,6585AZ,Mook,Mook en Middelaar,Limburg,VBO,5.883706,51.748425
't Kempke,6,,,6585AZ,Mook,Mook en Middelaar,Limburg,VBO,5.883797,51.747943
't Kempke,7,,,6585AZ,Mook,Mook en Middelaar,Limburg,VBO,5.883834,51.748321
't Kempke,8,,,6585AZ,Mook,Mook en Middelaar,Limburg,VBO,5.884159,51.747931
't Kempke,9,,,6585AZ,Mook,Mook en Middelaar,Limburg,VBO,5.883893,51.748273
't Kempke,10,,,6585AZ,Mook,Mook en Middelaar,Limburg,VBO,5.884404,51.747997
't Kempke,11,,,6585AZ,Mook,Mook en Middelaar,Limburg,VBO,5.884001,51.748186
't Kempke,12,,,6585AZ,Mook,Mook en Middelaar,Limburg,VBO,5.884493,51.748013
't Kempke,13,,,6585AZ,Mook,Mook en Middelaar,Limburg,VBO,5.884064,51.748142
't Kempke,15,,,6585AZ,Mook,Mook en Middelaar,Limburg,VBO,5.884320,51.748184
't Kempke,17,,,6585AZ,Mook,Mook en Middelaar,Limburg,VBO,5.884397,51.748195
't Kempke,19,,,6585AZ,Mook,Mook en Middelaar,Limburg,VBO,5.884465,51.748210
't Kempke,21,,,6585AZ,Mook,Mook en Middelaar,Limburg,VBO,5.884681,51.748258
Violenstraatje,2,,,6585BA,Mook,Mook en Middelaar,Limburg,VBO,5.883618,51.748905
Violenstraatje,3,,,6585BA,Mook,Mook en Middelaar,Limburg,VBO,5.883856,51.748762
Violenstraatje,4,,,6585BA,Mook,Mook en Middelaar,Limburg,VBO,5.883471,51.748818
Violenstraatje,5,,,6585BA,Mook,Mook en Middelaar,Limburg,VBO,5.883777,51.748723
Violenstraatje,6,,,6585BA,Mook,Mook en Middelaar,Limburg,VBO,5.883317,51.748738
Violenstraatje,7,,,6585BA,Mook,Mook en Middelaar,Limburg,LIG,5.882559,51.748050
Violenstraatje,8,,,6585BA,Mook,Mook en Middelaar,Limburg,VBO,5.883219,51.748610
Violenstraatje,10,,,6585BA,Mook,Mook en Middelaar,Limburg,VBO,5.882698,51.748412
Kleppermanstraatje,1,,,6585BB,Mook,Mook en Middelaar,Limburg,VBO,5.884446,51.747716
Kleppermanstraatje,2,,,6585BB,Mook,Mook en Middelaar,Limburg,VBO,5.884366,51.747702
Kleppermanstraatje,3,,,6585BB,Mook,Mook en Middelaar,Limburg,VBO,5.884064,51.747670
Kleppermanstraatje,4,,,6585BB,Mook,Mook en Middelaar,Limburg,VBO,5.884192,51.747577
Kleppermanstraatje,5,a,,6585BB,Mook,Mook en Middelaar,Limburg,VBO,5.884607,51.747469
Kleppermanstraatje,5,,,6585BB,Mook,Mook en Middelaar,Limburg,VBO,5.884312,51.747482
Lindeboom,1,,,6585BC,Mook,Mook en Middelaar,Limburg,VBO,5.886372,51.747650
Lindeboom,3,,,6585BC,Mook,Mook en Middelaar,Limburg,VBO,5.886393,51.747530
Lindeboom,5,,,6585BC,Mook,Mook en Middelaar,Limburg,VBO,5.886586,51.747541
Lindeboom,7,,,6585BC,Mook,Mook en Middelaar,Limburg,VBO,5.886645,51.747691
Lindeboom,9,,,6585BC,Mook,Mook en Middelaar,Limburg,VBO,5.886864,51.747652
Lindeboom,11,,,6585BC,Mook,Mook en Middelaar,Limburg,VBO,5.886875,51.747548
Lindeboom,13,,,6585BC,Mook,Mook en Middelaar,Limburg,VBO,5.886974,51.747403
Lindeboom,15,,,6585BC,Mook,Mook en Middelaar,Limburg,VBO,5.887114,51.747337
Lindeboom,17,,,6585BC,Mook,Mook en Middelaar,Limburg,VBO,5.887062,51.747199
Lindeboom,19,,,6585BC,Mook,Mook en Middelaar,Limburg,VBO,5.886835,51.747262
Lindeboom,21,,,6585BC,Mook,Mook en Middelaar,Limburg,VBO,5.886671,51.747179
Lindeboom,23,,,6585BC,Mook,Mook en Middelaar,Limburg,VBO,5.886568,51.747123
Lindeboom,25,,,6585BC,Mook,Mook en Middelaar,Limburg,VBO,5.886380,51.747122
Lindeboom,27,,,6585BC,Mook,Mook en Middelaar,Limburg,VBO,5.886321,51.746972
Lindeboom,29,,,6585BC,Mook,Mook en Middelaar,Limburg,VBO,5.886097,51.747001
Lindeboom,31,,,6585BD,Mook,Mook en Middelaar,Limburg,VBO,5.886081,51.747110
Lindeboom,33,,,6585BD,Mook,Mook en Middelaar,Limburg,VBO,5.885990,51.747249
Lindeboom,35,,,6585BD,Mook,Mook en Middelaar,Limburg,VBO,5.885844,51.747386
Lindeboom,37,,,6585BD,Mook,Mook en Middelaar,Limburg,VBO,5.885622,51.747296
Lindeboom,39,,,6585BD,Mook,Mook en Middelaar,Limburg,VBO,5.885768,51.747159
Lindeboom,41,,,6585BD,Mook,Mook en Middelaar,Limburg,VBO,5.885892,51.747105
Lindeboom,43,,,6585BD,Mook,Mook en Middelaar,Limburg,VBO,5.885898,51.746990
Lindeboom,45,,,6585BD,Mook,Mook en Middelaar,Limburg,VBO,5.886141,51.746959
Lindeboom,47,,,6585BD,Mook,Mook en Middelaar,Limburg,VBO,5.886094,51.746814
Lindeboom,49,,,6585BD,Mook,Mook en Middelaar,Limburg,VBO,5.885922,51.746806
Lindeboom,51,,,6585BD,Mook,Mook en Middelaar,Limburg,VBO,5.885925,51.746687
Lindeboom,53,,,6585BD,Mook,Mook en Middelaar,Limburg,VBO,5.886108,51.746690
Lindeboom,55,,,6585BD,Mook,Mook en Middelaar,Limburg,VBO,5.886169,51.746840
Lindeboom,57,,,6585BD,Mook,Mook en Middelaar,Limburg,VBO,5.886394,51.746811
Lindeboom,59,,,6585BE,Mook,Mook en Middelaar,Limburg,VBO,5.886407,51.746705
Lindeboom,61,,,6585BE,Mook,Mook en Middelaar,Limburg,VBO,5.886600,51.746707
Lindeboom,63,,,6585BE,Mook,Mook en Middelaar,Limburg,VBO,5.886593,51.746822
Lindeboom,65,,,6585BE,Mook,Mook en Middelaar,Limburg,VBO,5.886350,51.746860
Lindeboom,67,,,6585BE,Mook,Mook en Middelaar,Limburg,VBO,5.886399,51.746999
Lindeboom,69,,,6585BE,Mook,Mook en Middelaar,Limburg,VBO,5.886570,51.747007
Lindeboom,71,,,6585BE,Mook,Mook en Middelaar,Limburg,VBO,5.886804,51.747078
Lindeboom,73,,,6585BE,Mook,Mook en Middelaar,Limburg,VBO,5.886915,51.747156
Lindeboom,75,,,6585BE,Mook,Mook en Middelaar,Limburg,VBO,5.887139,51.747127
Lindeboom,77,,,6585BE,Mook,Mook en Middelaar,Limburg,VBO,5.887037,51.746986
Lindeboom,79,,,6585BE,Mook,Mook en Middelaar,Limburg,VBO,5.887168,51.746881
Lindeboom,81,,,6585BG,Mook,Mook en Middelaar,Limburg,VBO,5.887258,51.746817
Lindeboom,83,,,6585BG,Mook,Mook en Middelaar,Limburg,VBO,5.887263,51.746702
Lindeboom,85,,,6585BG,Mook,Mook en Middelaar,Limburg,VBO,5.887505,51.746665
Lindeboom,87,,,6585BG,Mook,Mook en Middelaar,Limburg,VBO,5.887459,51.746526
Lindeboom,89,,,6585BG,Mook,Mook en Middelaar,Limburg,VBO,5.887288,51.746518
Lindeboom,91,,,6585BG,Mook,Mook en Middelaar,Limburg,VBO,5.887065,51.746449
Lindeboom,93,,,6585BG,Mook,Mook en Middelaar,Limburg,VBO,5.886853,51.746374
Lindeboom,95,,,6585BG,Mook,Mook en Middelaar,Limburg,VBO,5.886977,51.746241
Lindeboom,97,,,6585BG,Mook,Mook en Middelaar,Limburg,VBO,5.887192,51.746317
Lindeboom,99,,,6585BG,Mook,Mook en Middelaar,Limburg,VBO,5.887289,51.746401
Lindeboom,101,,,6585BG,Mook,Mook en Middelaar,Limburg,VBO,5.887473,51.746401
Lindeboom,103,,,6585BG,Mook,Mook en Middelaar,Limburg,VBO,5.887528,51.746550
Lindeboom,105,,,6585BG,Mook,Mook en Middelaar,Limburg,VBO,5.887770,51.746510
Lindeboom,107,,,6585BH,Mook,Mook en Middelaar,Limburg,VBO,5.887770,51.746421
Lindeboom,109,,,6585BH,Mook,Mook en Middelaar,Limburg,VBO,5.887954,51.746416
Lindeboom,111,,,6585BH,Mook,Mook en Middelaar,Limburg,VBO,5.887960,51.746535
Lindeboom,113,,,6585BH,Mook,Mook en Middelaar,Limburg,VBO,5.887718,51.746572
Lindeboom,115,,,6585BH,Mook,Mook en Middelaar,Limburg,VBO,5.887761,51.746709
Lindeboom,117,,,6585BH,Mook,Mook en Middelaar,Limburg,VBO,5.887931,51.746717
Lindeboom,119,,,6585BH,Mook,Mook en Middelaar,Limburg,VBO,5.887936,51.746833
Lindeboom,121,,,6585BH,Mook,Mook en Middelaar,Limburg,VBO,5.887750,51.746835
Lindeboom,123,,,6585BH,Mook,Mook en Middelaar,Limburg,VBO,5.887695,51.746687
Lindeboom,125,,,6585BH,Mook,Mook en Middelaar,Limburg,VBO,5.887467,51.746709
Lindeboom,127,,,6585BH,Mook,Mook en Middelaar,Limburg,VBO,5.887453,51.746815
Lindeboom,151,a,,6585BH,Mook,Mook en Middelaar,Limburg,VBO,5.888393,51.746882
Lindeboom,151,b,,6585BH,Mook,Mook en Middelaar,Limburg,VBO,5.888416,51.746853
Lindeboom,151,c,,6585BH,Mook,Mook en Middelaar,Limburg,VBO,5.888439,51.746825
Lindeboom,151,d,,6585BH,Mook,Mook en Middelaar,Limburg,VBO,5.888460,51.746798
Lindeboom,151,e,,6585BH,Mook,Mook en Middelaar,Limburg,VBO,5.888326,51.746697
Lindeboom,151,f,,6585BH,Mook,Mook en Middelaar,Limburg,VBO,5.888306,51.746723
Lindeboom,151,g,,6585BH,Mook,Mook en Middelaar,Limburg,VBO,5.888288,51.746745
Lindeboom,151,h,,6585BH,Mook,Mook en Middelaar,Limburg,VBO,5.888269,51.746770
Lindeboom,151,i,,6585BH,Mook,Mook en Middelaar,Limburg,VBO,5.888249,51.746795
Lindeboom,151,j,,6585BH,Mook,Mook en Middelaar,Limburg,VBO,5.888231,51.746819
Lindeboom,151,k,,6585BH,Mook,Mook en Middelaar,Limburg,VBO,5.888211,51.746843
Lindeboom,151,,,6585BH,Mook,Mook en Middelaar,Limburg,VBO,5.888473,51.746985
Lindeboom,129,,,6585BJ,Mook,Mook en Middelaar,Limburg,VBO,5.887340,51.746957
Lindeboom,131,,,6585BJ,Mook,Mook en Middelaar,Limburg,VBO,5.887210,51.747033
Lindeboom,133,,,6585BJ,Mook,Mook en Middelaar,Limburg,VBO,5.887250,51.747170
Lindeboom,135,,,6585BJ,Mook,Mook en Middelaar,Limburg,VBO,5.887476,51.747107
Lindeboom,137,,,6585BJ,Mook,Mook en Middelaar,Limburg,VBO,5.887656,51.747186
Lindeboom,139,,,6585BJ,Mook,Mook en Middelaar,Limburg,VBO,5.887750,51.747253
Lindeboom,141,,,6585BJ,Mook,Mook en Middelaar,Limburg,VBO,5.887937,51.747249
Lindeboom,143,,,6585BJ,Mook,Mook en Middelaar,Limburg,VBO,5.887991,51.747399
Lindeboom,145,,,6585BJ,Mook,Mook en Middelaar,Limburg,VBO,5.888222,51.747372
Lindeboom,147,,,6585BJ,Mook,Mook en Middelaar,Limburg,VBO,5.888237,51.747265
Lindeboom,149,,,6585BK,Mook,Mook en Middelaar,Limburg,VBO,5.888328,51.747128
Lindeboom,153,,,6585BK,Mook,Mook en Middelaar,Limburg,VBO,5.888702,51.747072
Lindeboom,155,,,6585BK,Mook,Mook en Middelaar,Limburg,VBO,5.888560,51.747216
Lindeboom,157,,,6585BK,Mook,Mook en Middelaar,Limburg,VBO,5.888418,51.747263
Lindeboom,159,,,6585BK,Mook,Mook en Middelaar,Limburg,VBO,5.888427,51.747377
Lindeboom,161,,,6585BK,Mook,Mook en Middelaar,Limburg,VBO,5.888169,51.747434
Lindeboom,163,,,6585BK,Mook,Mook en Middelaar,Limburg,VBO,5.888222,51.747556
Lindeboom,165,,,6585BK,Mook,Mook en Middelaar,Limburg,VBO,5.888392,51.747564
Lindeboom,167,,,6585BL,Mook,Mook en Middelaar,Limburg,VBO,5.888401,51.747678
Lindeboom,169,,,6585BL,Mook,Mook en Middelaar,Limburg,VBO,5.888217,51.747684
Lindeboom,171,,,6585BL,Mook,Mook en Middelaar,Limburg,VBO,5.888155,51.747532
Lindeboom,173,,,6585BL,Mook,Mook en Middelaar,Limburg,VBO,5.887931,51.747556
Lindeboom,175,,,6585BL,Mook,Mook en Middelaar,Limburg,VBO,5.887917,51.747662
Lindeboom,177,,,6585BL,Mook,Mook en Middelaar,Limburg,VBO,5.887733,51.747668
Lindeboom,179,,,6585BL,Mook,Mook en Middelaar,Limburg,VBO,5.887724,51.747554
Lindeboom,181,,,6585BL,Mook,Mook en Middelaar,Limburg,VBO,5.887981,51.747499
Lindeboom,183,,,6585BL,Mook,Mook en Middelaar,Limburg,VBO,5.887930,51.747376
Lindeboom,185,,,6585BM,Mook,Mook en Middelaar,Limburg,VBO,5.887758,51.747367
Lindeboom,187,,,6585BM,Mook,Mook en Middelaar,Limburg,VBO,5.887530,51.747297
Lindeboom,189,,,6585BM,Mook,Mook en Middelaar,Limburg,VBO,5.887414,51.747219
Lindeboom,191,,,6585BM,Mook,Mook en Middelaar,Limburg,VBO,5.887198,51.747227
Lindeboom,193,,,6585BM,Mook,Mook en Middelaar,Limburg,VBO,5.887288,51.747382
Lindeboom,195,,,6585BM,Mook,Mook en Middelaar,Limburg,VBO,5.887161,51.747493
Lindeboom,197,,,6585BM,Mook,Mook en Middelaar,Limburg,VBO,5.887053,51.747551
Lindeboom,199,,,6585BM,Mook,Mook en Middelaar,Limburg,VBO,5.887062,51.747666
Lindeboom,201,,,6585BM,Mook,Mook en Middelaar,Limburg,VBO,5.886803,51.747721
Lindeboom,203,,,6585BM,Mook,Mook en Middelaar,Limburg,VBO,5.886852,51.747843
Lindeboom,205,,,6585BN,Mook,Mook en Middelaar,Limburg,VBO,5.887024,51.747851
Lindeboom,207,,,6585BN,Mook,Mook en Middelaar,Limburg,VBO,5.887243,51.747919
Lindeboom,209,,,6585BN,Mook,Mook en Middelaar,Limburg,VBO,5.887475,51.747992
Lindeboom,211,,,6585BN,Mook,Mook en Middelaar,Limburg,VBO,5.887349,51.748133
Lindeboom,213,,,6585BN,Mook,Mook en Middelaar,Limburg,VBO,5.887127,51.748060
Lindeboom,215,,,6585BN,Mook,Mook en Middelaar,Limburg,VBO,5.887037,51.747967
Lindeboom,217,,,6585BN,Mook,Mook en Middelaar,Limburg,VBO,5.886852,51.747973
Lindeboom,219,,,6585BN,Mook,Mook en Middelaar,Limburg,VBO,5.886791,51.747822
Lindeboom,221,,,6585BN,Mook,Mook en Middelaar,Limburg,VBO,5.886565,51.747844
Lindeboom,223,,,6585BN,Mook,Mook en Middelaar,Limburg,VBO,5.886554,51.747949
Lindeboom,225,,,6585BN,Mook,Mook en Middelaar,Limburg,VBO,5.886371,51.747958
Lindeboom,227,,,6585BN,Mook,Mook en Middelaar,Limburg,VBO,5.886357,51.747845
Lindeboom,229,,,6585BN,Mook,Mook en Middelaar,Limburg,VBO,5.886597,51.747809
Lindeboom,231,,,6585BN,Mook,Mook en Middelaar,Limburg,VBO,5.886565,51.747664
Lindeboom,2,,,6585BP,Mook,Mook en Middelaar,Limburg,VBO,5.889044,51.747508
Lindeboom,4,,,6585BP,Mook,Mook en Middelaar,Limburg,VBO,5.889014,51.747547
Lindeboom,6,,,6585BP,Mook,Mook en Middelaar,Limburg,VBO,5.888983,51.747586
Lindeboom,8,,,6585BP,Mook,Mook en Middelaar,Limburg,VBO,5.888952,51.747625
Lindeboom,10,,,6585BP,Mook,Mook en Middelaar,Limburg,VBO,5.888925,51.747660
Lindeboom,12,,,6585BP,Mook,Mook en Middelaar,Limburg,VBO,5.888894,51.747699
Lindeboom,14,,,6585BP,Mook,Mook en Middelaar,Limburg,VBO,5.889193,51.747851
Lindeboom,16,,,6585BP,Mook,Mook en Middelaar,Limburg,VBO,5.889163,51.747890
Lindeboom,18,,,6585BP,Mook,Mook en Middelaar,Limburg,VBO,5.889132,51.747929
Lindeboom,20,,,6585BP,Mook,Mook en Middelaar,Limburg,VBO,5.889103,51.747965
Lindeboom,22,,,6585BP,Mook,Mook en Middelaar,Limburg,VBO,5.889072,51.748004
Lindeboom,24,,,6585BP,Mook,Mook en Middelaar,Limburg,VBO,5.889041,51.748043
Lindeboom,26,,,6585BR,Mook,Mook en Middelaar,Limburg,VBO,5.888535,51.747990
Lindeboom,28,,,6585BR,Mook,Mook en Middelaar,Limburg,VBO,5.888504,51.748029
Lindeboom,30,,,6585BR,Mook,Mook en Middelaar,Limburg,VBO,5.888473,51.748068
Lindeboom,32,,,6585BR,Mook,Mook en Middelaar,Limburg,VBO,5.888442,51.748107
Lindeboom,34,,,6585BR,Mook,Mook en Middelaar,Limburg,VBO,5.888411,51.748147
Lindeboom,36,,,6585BR,Mook,Mook en Middelaar,Limburg,VBO,5.888380,51.748186
Lindeboom,38,a,,6585BR,Mook,Mook en Middelaar,Limburg,VBO,5.887925,51.748067
Lindeboom,38,b,,6585BR,Mook,Mook en Middelaar,Limburg,VBO,5.887873,51.748051
Lindeboom,38,c,,6585BR,Mook,Mook en Middelaar,Limburg,VBO,5.887822,51.748036
Lindeboom,38,d,,6585BR,Mook,Mook en Middelaar,Limburg,VBO,5.887772,51.748020
Lindeboom,38,e,,6585BR,Mook,Mook en Middelaar,Limburg,VBO,5.887718,51.748005
Lindeboom,38,f,,6585BR,Mook,Mook en Middelaar,Limburg,VBO,5.887830,51.747907
Lindeboom,38,g,,6585BR,Mook,Mook en Middelaar,Limburg,VBO,5.887876,51.747921
Lindeboom,38,h,,6585BR,Mook,Mook en Middelaar,Limburg,VBO,5.887921,51.747935
Lindeboom,38,i,,6585BR,Mook,Mook en Middelaar,Limburg,VBO,5.887965,51.747949
Lindeboom,38,j,,6585BR,Mook,Mook en Middelaar,Limburg,VBO,5.888010,51.747962
Lindeboom,38,,,6585BR,Mook,Mook en Middelaar,Limburg,VBO,5.887931,51.748120
Lindeboom,40,,,6585BR,Mook,Mook en Middelaar,Limburg,VBO,5.887900,51.748159
Lindeboom,42,,,6585BR,Mook,Mook en Middelaar,Limburg,VBO,5.887870,51.748197
Lindeboom,44,,,6585BR,Mook,Mook en Middelaar,Limburg,VBO,5.887839,51.748236
Lindeboom,46,,,6585BR,Mook,Mook en Middelaar,Limburg,VBO,5.887808,51.748275
Lindeboom,48,,,6585BR,Mook,Mook en Middelaar,Limburg,VBO,5.887777,51.748313
Lindeboom,50,,,6585BR,Mook,Mook en Middelaar,Limburg,VBO,5.885269,51.747899
Lindeboom,52,,,6585BR,Mook,Mook en Middelaar,Limburg,VBO,5.885304,51.747856
Lindeboom,54,,,6585BR,Mook,Mook en Middelaar,Limburg,VBO,5.885339,51.747812
Lindeboom,56,,,6585BR,Mook,Mook en Middelaar,Limburg,VBO,5.885373,51.747769
Lindeboom,58,,,6585BR,Mook,Mook en Middelaar,Limburg,VBO,5.885340,51.747705
Lindeboom,60,,,6585BR,Mook,Mook en Middelaar,Limburg,VBO,5.885373,51.747663
Lindeboom,62,,,6585BR,Mook,Mook en Middelaar,Limburg,VBO,5.885407,51.747621
Lindeboom,64,,,6585BR,Mook,Mook en Middelaar,Limburg,VBO,5.885440,51.747578
Lindeboom,66,,,6585BR,Mook,Mook en Middelaar,Limburg,VBO,5.885474,51.747536
Lindeboom,68,,,6585BR,Mook,Mook en Middelaar,Limburg,VBO,5.885508,51.747494
Lindeboom,70,,,6585BR,Mook,Mook en Middelaar,Limburg,VBO,5.885581,51.747462
Lindeboom,72,a,,6585BR,Mook,Mook en Middelaar,Limburg,VBO,5.885908,51.747719
Lindeboom,72,b,,6585BR,Mook,Mook en Middelaar,Limburg,VBO,5.885931,51.747690
Lindeboom,72,c,,6585BR,Mook,Mook en Middelaar,Limburg,VBO,5.885953,51.747663
Lindeboom,72,d,,6585BR,Mook,Mook en Middelaar,Limburg,VBO,5.885974,51.747636
Lindeboom,72,e,,6585BR,Mook,Mook en Middelaar,Limburg,VBO,5.885999,51.747604
Lindeboom,72,f,,6585BR,Mook,Mook en Middelaar,Limburg,VBO,5.885823,51.747550
Lindeboom,72,g,,6585BR,Mook,Mook en Middelaar,Limburg,VBO,5.885796,51.747585
Lindeboom,72,h,,6585BR,Mook,Mook en Middelaar,Limburg,VBO,5.885771,51.747616
Lindeboom,72,i,,6585BR,Mook,Mook en Middelaar,Limburg,VBO,5.885723,51.747677
Lindeboom,72,,,6585BR,Mook,Mook en Middelaar,Limburg,VBO,5.885616,51.747418
Startsedalweg,3,,,6585BS,Mook,Mook en Middelaar,Limburg,VBO,5.903949,51.744617
Startsedijk,1,,,6585BT,Mook,Mook en Middelaar,Limburg,VBO,5.887674,51.745399
Startsedijk,3,,,6585BT,Mook,Mook en Middelaar,Limburg,VBO,5.888588,51.744871
Startsedijk,4,a,,6585BT,Mook,Mook en Middelaar,Limburg,VBO,5.897226,51.743813
Startsedijk,4,,,6585BT,Mook,Mook en Middelaar,Limburg,VBO,5.897291,51.743883
Startsedijk,5,,,6585BT,Mook,Mook en Middelaar,Limburg,VBO,5.889700,51.744514
Lindeboom,74,,,6585BV,Mook,Mook en Middelaar,Limburg,VBO,5.887677,51.746299
Lindeboom,76,,,6585BV,Mook,Mook en Middelaar,Limburg,VBO,5.887608,51.746278
Lindeboom,78,,,6585BV,Mook,Mook en Middelaar,Limburg,VBO,5.887539,51.746256
Lindeboom,80,,,6585BV,Mook,Mook en Middelaar,Limburg,VBO,5.887470,51.746234
Lindeboom,82,,,6585BV,Mook,Mook en Middelaar,Limburg,VBO,5.887432,51.746176
Lindeboom,84,,,6585BV,Mook,Mook en Middelaar,Limburg,VBO,5.887362,51.746155
Lindeboom,86,,,6585BV,Mook,Mook en Middelaar,Limburg,VBO,5.887292,51.746134
Lindeboom,88,,,6585BV,Mook,Mook en Middelaar,Limburg,VBO,5.887222,51.746113
Lindeboom,90,,,6585BV,Mook,Mook en Middelaar,Limburg,VBO,5.887152,51.746092
Lindeboom,92,,,6585BV,Mook,Mook en Middelaar,Limburg,VBO,5.887081,51.745853
Lindeboom,94,,,6585BV,Mook,Mook en Middelaar,Limburg,VBO,5.887046,51.745897
Lindeboom,96,,,6585BV,Mook,Mook en Middelaar,Limburg,VBO,5.886953,51.745922
Lindeboom,98,,,6585BV,Mook,Mook en Middelaar,Limburg,VBO,5.886919,51.745965
Lindeboom,100,,,6585BV,Mook,Mook en Middelaar,Limburg,VBO,5.886889,51.746003
Lindeboom,102,,,6585BV,Mook,Mook en Middelaar,Limburg,VBO,5.886855,51.746046
Lindeboom,104,,,6585BV,Mook,Mook en Middelaar,Limburg,VBO,5.886761,51.746067
Lindeboom,106,,,6585BV,Mook,Mook en Middelaar,Limburg,VBO,5.886726,51.746109
Lindeboom,108,,,6585BV,Mook,Mook en Middelaar,Limburg,VBO,5.886691,51.746152
Lindeboom,110,,,6585BV,Mook,Mook en Middelaar,Limburg,VBO,5.886654,51.746196
Lindeboom,112,,,6585BV,Mook,Mook en Middelaar,Limburg,VBO,5.886619,51.746239
Lindeboom,114,a,,6585BV,Mook,Mook en Middelaar,Limburg,VBO,5.886472,51.746366
Lindeboom,114,b,,6585BV,Mook,Mook en Middelaar,Limburg,VBO,5.886422,51.746351
Lindeboom,114,c,,6585BV,Mook,Mook en Middelaar,Limburg,VBO,5.886372,51.746336
Lindeboom,114,d,,6585BV,Mook,Mook en Middelaar,Limburg,VBO,5.886320,51.746320
Lindeboom,114,e,,6585BV,Mook,Mook en Middelaar,Limburg,VBO,5.886234,51.746426
Lindeboom,114,f,,6585BV,Mook,Mook en Middelaar,Limburg,VBO,5.886275,51.746438
Lindeboom,114,g,,6585BV,Mook,Mook en Middelaar,Limburg,VBO,5.886315,51.746451
Lindeboom,114,h,,6585BV,Mook,Mook en Middelaar,Limburg,VBO,5.886355,51.746463
Lindeboom,114,i,,6585BV,Mook,Mook en Middelaar,Limburg,VBO,5.886394,51.746475
Lindeboom,114,j,,6585BV,Mook,Mook en Middelaar,Limburg,VBO,5.886435,51.746487
Lindeboom,114,,,6585BV,Mook,Mook en Middelaar,Limburg,VBO,5.886584,51.746281
Cuijksesteeg,2,,,6585BZ,Mook,Mook en Middelaar,Limburg,VBO,5.888969,51.745854
Maasstaete,1,,,6585CA,Mook,Mook en Middelaar,Limburg,VBO,5.877774,51.753773
Maasstaete,2,,,6585CA,Mook,Mook en Middelaar,Limburg,VBO,5.877693,51.753827
Maasstaete,3,,,6585CA,Mook,Mook en Middelaar,Limburg,VBO,5.877369,51.754042
Maasstaete,4,,,6585CA,Mook,Mook en Middelaar,Limburg,VBO,5.877288,51.754096
Maasstaete,5,,,6585CA,Mook,Mook en Middelaar,Limburg,VBO,5.877753,51.753761
Maasstaete,6,,,6585CA,Mook,Mook en Middelaar,Limburg,VBO,5.877672,51.753815
Maasstaete,7,,,6585CA,Mook,Mook en Middelaar,Limburg,VBO,5.877591,51.753868
Maasstaete,8,,,6585CA,Mook,Mook en Middelaar,Limburg,VBO,5.877429,51.753976
Maasstaete,9,,,6585CA,Mook,Mook en Middelaar,Limburg,VBO,5.877348,51.754030
Maasstaete,10,,,6585CA,Mook,Mook en Middelaar,Limburg,VBO,5.877267,51.754083
Maasstaete,11,,,6585CA,Mook,Mook en Middelaar,Limburg,VBO,5.877732,51.753748
Maasstaete,12,,,6585CA,Mook,Mook en Middelaar,Limburg,VBO,5.877651,51.753802
Maasstaete,13,,,6585CA,Mook,Mook en Middelaar,Limburg,VBO,5.877570,51.753856
Maasstaete,14,,,6585CA,Mook,Mook en Middelaar,Limburg,VBO,5.877408,51.753963
Maasstaete,15,,,6585CA,Mook,Mook en Middelaar,Limburg,VBO,5.877327,51.754017
Maasstaete,16,,,6585CA,Mook,Mook en Middelaar,Limburg,VBO,5.877246,51.754071
Maasstaete,17,,,6585CA,Mook,Mook en Middelaar,Limburg,VBO,5.877712,51.753735
Maasstaete,18,,,6585CA,Mook,Mook en Middelaar,Limburg,VBO,5.877631,51.753789
Maasstaete,19,,,6585CA,Mook,Mook en Middelaar,Limburg,VBO,5.877550,51.753843
Maasstaete,20,,,6585CA,Mook,Mook en Middelaar,Limburg,VBO,5.877388,51.753950
Maasstaete,21,,,6585CA,Mook,Mook en Middelaar,Limburg,VBO,5.877307,51.754004
Maasstaete,22,,,6585CA,Mook,Mook en Middelaar,Limburg,VBO,5.877226,51.754058
Maasstaete,23,,,6585CA,Mook,Mook en Middelaar,Limburg,VBO,5.877691,51.753723
Maasstaete,24,,,6585CA,Mook,Mook en Middelaar,Limburg,VBO,5.877610,51.753777
Maasstaete,25,,,6585CA,Mook,Mook en Middelaar,Limburg,VBO,5.877529,51.753831
Maasstaete,26,,,6585CA,Mook,Mook en Middelaar,Limburg,VBO,5.877367,51.753938
Maasstaete,27,,,6585CA,Mook,Mook en Middelaar,Limburg,VBO,5.877286,51.753992
Maasstaete,28,,,6585CA,Mook,Mook en Middelaar,Limburg,VBO,5.877205,51.754046
Maasstaete,29,a,,6585CB,Mook,Mook en Middelaar,Limburg,VBO,5.877520,51.754369
Maasstaete,29,,,6585CB,Mook,Mook en Middelaar,Limburg,VBO,5.877171,51.754333
Maasstaete,30,,,6585CB,Mook,Mook en Middelaar,Limburg,VBO,5.877136,51.754527
Maasstaete,31,,,6585CB,Mook,Mook en Middelaar,Limburg,VBO,5.877065,51.754574
Maasstaete,32,,,6585CB,Mook,Mook en Middelaar,Limburg,VBO,5.876923,51.754668
Maasstaete,33,,,6585CB,Mook,Mook en Middelaar,Limburg,VBO,5.876854,51.754714
Maasstaete,34,,,6585CB,Mook,Mook en Middelaar,Limburg,VBO,5.876710,51.754809
Maasstaete,35,,,6585CB,Mook,Mook en Middelaar,Limburg,VBO,5.876641,51.754855
Maasstaete,36,,,6585CB,Mook,Mook en Middelaar,Limburg,VBO,5.876497,51.754950
Maasstaete,37,,,6585CB,Mook,Mook en Middelaar,Limburg,VBO,5.876428,51.754996
Maasstaete,38,,,6585CB,Mook,Mook en Middelaar,Limburg,VBO,5.876284,51.755091
Maasstaete,39,,,6585CB,Mook,Mook en Middelaar,Limburg,VBO,5.876216,51.755136
Maasstaete,40,,,6585CB,Mook,Mook en Middelaar,Limburg,VBO,5.875739,51.754874
Maasstaete,41,,,6585CB,Mook,Mook en Middelaar,Limburg,VBO,5.875829,51.754758
Maasstaete,42,,,6585CB,Mook,Mook en Middelaar,Limburg,VBO,5.875932,51.754656
Maasstaete,43,,,6585CB,Mook,Mook en Middelaar,Limburg,VBO,5.876053,51.754562
Maasstaete,44,,,6585CB,Mook,Mook en Middelaar,Limburg,VBO,5.876187,51.754474
Maasstaete,45,,,6585CB,Mook,Mook en Middelaar,Limburg,VBO,5.876350,51.754404
Maasstaete,46,,,6585CB,Mook,Mook en Middelaar,Limburg,VBO,5.876541,51.754351
Maasstaete,47,,,6585CB,Mook,Mook en Middelaar,Limburg,VBO,5.876781,51.754325
Maasstaete,48,,,6585CC,Mook,Mook en Middelaar,Limburg,VBO,5.876633,51.753928
Maasstaete,49,,,6585CC,Mook,Mook en Middelaar,Limburg,VBO,5.876490,51.753988
Maasstaete,50,,,6585CC,Mook,Mook en Middelaar,Limburg,VBO,5.876605,51.754066
Maasstaete,51,,,6585CC,Mook,Mook en Middelaar,Limburg,VBO,5.876604,51.753926
Maasstaete,52,,,6585CC,Mook,Mook en Middelaar,Limburg,VBO,5.876461,51.753987
Maasstaete,53,,,6585CC,Mook,Mook en Middelaar,Limburg,VBO,5.876576,51.754064
Maasstaete,54,,,6585CC,Mook,Mook en Middelaar,Limburg,VBO,5.876575,51.753925
Maasstaete,55,,,6585CC,Mook,Mook en Middelaar,Limburg,VBO,5.876432,51.753985
Maasstaete,56,,,6585CC,Mook,Mook en Middelaar,Limburg,VBO,5.876547,51.754063
Maasstaete,57,,,6585CC,Mook,Mook en Middelaar,Limburg,VBO,5.876546,51.753923
Maasstaete,58,,,6585CC,Mook,Mook en Middelaar,Limburg,VBO,5.876518,51.754061
Maasstaete,59,,,6585CC,Mook,Mook en Middelaar,Limburg,VBO,5.876518,51.753921
Maasstaete,60,,,6585CC,Mook,Mook en Middelaar,Limburg,VBO,5.876489,51.754059
Maasstaete,61,,,6585CC,Mook,Mook en Middelaar,Limburg,VBO,5.876795,51.753654
Maasstaete,62,,,6585CC,Mook,Mook en Middelaar,Limburg,VBO,5.876645,51.753681
Maasstaete,63,,,6585CC,Mook,Mook en Middelaar,Limburg,VBO,5.876700,51.753768
Maasstaete,64,,,6585CC,Mook,Mook en Middelaar,Limburg,VBO,5.876769,51.753646
Maasstaete,65,,,6585CC,Mook,Mook en Middelaar,Limburg,VBO,5.876620,51.753672
Maasstaete,66,,,6585CC,Mook,Mook en Middelaar,Limburg,VBO,5.876674,51.753760
Maasstaete,67,,,6585CC,Mook,Mook en Middelaar,Limburg,VBO,5.876743,51.753638
Maasstaete,68,,,6585CC,Mook,Mook en Middelaar,Limburg,VBO,5.876595,51.753664
Maasstaete,69,,,6585CC,Mook,Mook en Middelaar,Limburg,VBO,5.876648,51.753752
Maasstaete,70,,,6585CC,Mook,Mook en Middelaar,Limburg,VBO,5.876717,51.753631
Maasstaete,71,,,6585CC,Mook,Mook en Middelaar,Limburg,VBO,5.876622,51.753744
Maasstaete,72,,,6585CC,Mook,Mook en Middelaar,Limburg,VBO,5.876691,51.753623
Maasstaete,73,,,6585CC,Mook,Mook en Middelaar,Limburg,VBO,5.876596,51.753736
Maasstaete,74,,,6585CD,Mook,Mook en Middelaar,Limburg,VBO,5.877103,51.753427
Maasstaete,75,,,6585CD,Mook,Mook en Middelaar,Limburg,VBO,5.876921,51.753409
Maasstaete,76,,,6585CD,Mook,Mook en Middelaar,Limburg,VBO,5.876950,51.753514
Maasstaete,77,,,6585CD,Mook,Mook en Middelaar,Limburg,VBO,5.877082,51.753415
Maasstaete,78,,,6585CD,Mook,Mook en Middelaar,Limburg,VBO,5.876902,51.753396
Maasstaete,79,,,6585CD,Mook,Mook en Middelaar,Limburg,VBO,5.876930,51.753502
Maasstaete,80,,,6585CD,Mook,Mook en Middelaar,Limburg,VBO,5.877062,51.753402
Maasstaete,81,,,6585CD,Mook,Mook en Middelaar,Limburg,VBO,5.876883,51.753382
Maasstaete,82,,,6585CD,Mook,Mook en Middelaar,Limburg,VBO,5.876910,51.753489
Maasstaete,83,,,6585CD,Mook,Mook en Middelaar,Limburg,VBO,5.877042,51.753389
Maasstaete,84,,,6585CD,Mook,Mook en Middelaar,Limburg,VBO,5.876889,51.753476
Maasstaete,85,,,6585CD,Mook,Mook en Middelaar,Limburg,VBO,5.877021,51.753376
Maasstaete,86,,,6585CD,Mook,Mook en Middelaar,Limburg,VBO,5.876869,51.753463
Maasstaete,87,,,6585CD,Mook,Mook en Middelaar,Limburg,VBO,5.877513,51.753281
Maasstaete,88,,,6585CD,Mook,Mook en Middelaar,Limburg,VBO,5.877372,51.753230
Maasstaete,89,,,6585CD,Mook,Mook en Middelaar,Limburg,VBO,5.877328,51.753328
Maasstaete,90,,,6585CD,Mook,Mook en Middelaar,Limburg,VBO,5.877501,51.753265
Maasstaete,91,,,6585CD,Mook,Mook en Middelaar,Limburg,VBO,5.877360,51.753214
Maasstaete,92,,,6585CD,Mook,Mook en Middelaar,Limburg,VBO,5.877316,51.753312
Maasstaete,93,,,6585CD,Mook,Mook en Middelaar,Limburg,VBO,5.877490,51.753248
Maasstaete,94,,,6585CD,Mook,Mook en Middelaar,Limburg,VBO,5.877349,51.753197
Maasstaete,95,,,6585CD,Mook,Mook en Middelaar,Limburg,VBO,5.877305,51.753295
Maasstaete,96,,,6585CD,Mook,Mook en Middelaar,Limburg,VBO,5.877478,51.753232
Maasstaete,97,,,6585CD,Mook,Mook en Middelaar,Limburg,VBO,5.877293,51.753279
Maasstaete,98,,,6585CE,Mook,Mook en Middelaar,Limburg,VBO,5.878213,51.753219
Maasstaete,99,,,6585CE,Mook,Mook en Middelaar,Limburg,VBO,5.878324,51.753284
Maasstaete,100,,,6585CE,Mook,Mook en Middelaar,Limburg,VBO,5.878410,51.753333
Maasstaete,101,,,6585CE,Mook,Mook en Middelaar,Limburg,VBO,5.878480,51.753374
Maasstaete,102,,,6585CE,Mook,Mook en Middelaar,Limburg,VBO,5.878560,51.753420
Maasstaete,103,,,6585CE,Mook,Mook en Middelaar,Limburg,VBO,5.878427,51.753478
Maasstaete,104,,,6585CE,Mook,Mook en Middelaar,Limburg,VBO,5.878353,51.753527
Maasstaete,105,,,6585CE,Mook,Mook en Middelaar,Limburg,VBO,5.878283,51.753574
Maasstaete,106,,,6585CE,Mook,Mook en Middelaar,Limburg,VBO,5.878212,51.753621
Maasstaete,107,,,6585CE,Mook,Mook en Middelaar,Limburg,VBO,5.878146,51.753665
Maasstaete,108,,,6585CE,Mook,Mook en Middelaar,Limburg,VBO,5.878038,51.753610
Maasstaete,109,,,6585CE,Mook,Mook en Middelaar,Limburg,VBO,5.877980,51.753548
Maasstaete,110,,,6585CE,Mook,Mook en Middelaar,Limburg,VBO,5.877939,51.753488
Maasstaete,111,,,6585CE,Mook,Mook en Middelaar,Limburg,VBO,5.877906,51.753425
Maasstaete,112,,,6585CE,Mook,Mook en Middelaar,Limburg,VBO,5.877972,51.753291
Maasstaete,113,,,6585CE,Mook,Mook en Middelaar,Limburg,VBO,5.877877,51.753204
Maasstaete,114,,,6585CE,Mook,Mook en Middelaar,Limburg,VBO,5.877873,51.753279
Maasstaete,115,,,6585CE,Mook,Mook en Middelaar,Limburg,VBO,5.878199,51.753187
Maasstaete,116,,,6585CE,Mook,Mook en Middelaar,Limburg,VBO,5.878281,51.753234
Maasstaete,117,,,6585CE,Mook,Mook en Middelaar,Limburg,VBO,5.878344,51.753271
Maasstaete,118,,,6585CE,Mook,Mook en Middelaar,Limburg,VBO,5.878429,51.753320
Maasstaete,119,,,6585CE,Mook,Mook en Middelaar,Limburg,VBO,5.878499,51.753361
Maasstaete,120,,,6585CE,Mook,Mook en Middelaar,Limburg,VBO,5.878579,51.753407
Maasstaete,121,,,6585CE,Mook,Mook en Middelaar,Limburg,VBO,5.878448,51.753490
Maasstaete,122,,,6585CE,Mook,Mook en Middelaar,Limburg,VBO,5.878375,51.753540
Maasstaete,123,,,6585CE,Mook,Mook en Middelaar,Limburg,VBO,5.878304,51.753587
Maasstaete,124,,,6585CE,Mook,Mook en Middelaar,Limburg,VBO,5.878233,51.753634
Maasstaete,125,,,6585CE,Mook,Mook en Middelaar,Limburg,VBO,5.878167,51.753677
Maasstaete,126,,,6585CE,Mook,Mook en Middelaar,Limburg,VBO,5.878062,51.753600
Maasstaete,127,,,6585CE,Mook,Mook en Middelaar,Limburg,VBO,5.878007,51.753540
Maasstaete,128,,,6585CE,Mook,Mook en Middelaar,Limburg,VBO,5.877966,51.753483
Maasstaete,129,,,6585CE,Mook,Mook en Middelaar,Limburg,VBO,5.877934,51.753420
Maasstaete,130,,,6585CE,Mook,Mook en Middelaar,Limburg,VBO,5.877911,51.753349
Maasstaete,131,,,6585CE,Mook,Mook en Middelaar,Limburg,VBO,5.877902,51.753278
Maasstaete,132,,,6585CE,Mook,Mook en Middelaar,Limburg,VBO,5.877906,51.753205
Maasstaete,133,,,6585CE,Mook,Mook en Middelaar,Limburg,VBO,5.877920,51.753141
Bovensteweg,1,,,6585KA,Mook,Mook en Middelaar,Limburg,VBO,5.883810,51.752881
Bovensteweg,3,,,6585KA,Mook,Mook en Middelaar,Limburg,VBO,5.883661,51.753205
Bovensteweg,5,,,6585KA,Mook,Mook en Middelaar,Limburg,VBO,5.883541,51.753395
Bovensteweg,7,,,6585KA,Mook,Mook en Middelaar,Limburg,VBO,5.883424,51.753558
Bovensteweg,9,,,6585KA,Mook,Mook en Middelaar,Limburg,VBO,5.883257,51.753725
Bovensteweg,11,,,6585KA,Mook,Mook en Middelaar,Limburg,VBO,5.883047,51.753924
Bovensteweg,13,,,6585KA,Mook,Mook en Middelaar,Limburg,VBO,5.882795,51.754117
Bovensteweg,15,,,6585KA,Mook,Mook en Middelaar,Limburg,VBO,5.882285,51.754560
Bovensteweg,17,,,6585KA,Mook,Mook en Middelaar,Limburg,VBO,5.882106,51.754715
Bovensteweg,19,,,6585KA,Mook,Mook en Middelaar,Limburg,VBO,5.881867,51.754922
Bovensteweg,21,,,6585KA,Mook,Mook en Middelaar,Limburg,VBO,5.881671,51.755095
Bovensteweg,23,,,6585KA,Mook,Mook en Middelaar,Limburg,VBO,5.881314,51.755361
Bovensteweg,25,,,6585KA,Mook,Mook en Middelaar,Limburg,VBO,5.881120,51.755561
Bovensteweg,27,,,6585KA,Mook,Mook en Middelaar,Limburg,VBO,5.880959,51.755727
Bovensteweg,29,,,6585KA,Mook,Mook en Middelaar,Limburg,VBO,5.880859,51.755813
Bovensteweg,31,a,,6585KB,Mook,Mook en Middelaar,Limburg,VBO,5.880410,51.756153
Bovensteweg,31,,,6585KB,Mook,Mook en Middelaar,Limburg,VBO,5.880571,51.756032
Bovensteweg,33,a,,6585KB,Mook,Mook en Middelaar,Limburg,VBO,5.880139,51.756383
Bovensteweg,33,,,6585KB,Mook,Mook en Middelaar,Limburg,VBO,5.880306,51.756258
Bovensteweg,35,a,,6585KB,Mook,Mook en Middelaar,Limburg,VBO,5.879917,51.756590
Bovensteweg,35,b,,6585KB,Mook,Mook en Middelaar,Limburg,VBO,5.879725,51.756745
Bovensteweg,35,,,6585KB,Mook,Mook en Middelaar,Limburg,VBO,5.880052,51.756476
Bovensteweg,37,a,,6585KB,Mook,Mook en Middelaar,Limburg,VBO,5.879410,51.756819
Bovensteweg,37,,,6585KB,Mook,Mook en Middelaar,Limburg,VBO,5.879543,51.756818
Bovensteweg,41,,,6585KB,Mook,Mook en Middelaar,Limburg,VBO,5.879289,51.757161
Bovensteweg,43,,,6585KB,Mook,Mook en Middelaar,Limburg,VBO,5.879145,51.757426
Bovensteweg,45,,,6585KB,Mook,Mook en Middelaar,Limburg,VBO,5.879055,51.757603
Bovensteweg,47,,,6585KB,Mook,Mook en Middelaar,Limburg,VBO,5.878961,51.757831
Bovensteweg,49,,,6585KB,Mook,Mook en Middelaar,Limburg,VBO,5.878893,51.758028
Bovensteweg,51,,,6585KB,Mook,Mook en Middelaar,Limburg,VBO,5.878750,51.758235
Bovensteweg,53,,,6585KB,Mook,Mook en Middelaar,Limburg,VBO,5.878700,51.758468
Bovensteweg,59,,,6585KB,Mook,Mook en Middelaar,Limburg,VBO,5.878459,51.759652
Bovensteweg,61,,,6585KB,Mook,Mook en Middelaar,Limburg,VBO,5.877632,51.759342
Bovensteweg,63,,,6585KB,Mook,Mook en Middelaar,Limburg,VBO,5.877994,51.761141
Bovensteweg,75,,,6585KB,Mook,Mook en Middelaar,Limburg,VBO,5.878449,51.762281
Bovensteweg,77,a,,6585KB,Mook,Mook en Middelaar,Limburg,VBO,5.878260,51.762182
Bovensteweg,77,,,6585KB,Mook,Mook en Middelaar,Limburg,VBO,5.878116,51.762222
Bovensteweg,79,,,6585KB,Mook,Mook en Middelaar,Limburg,VBO,5.877758,51.762230
Bovensteweg,81,,,6585KB,Mook,Mook en Middelaar,Limburg,VBO,5.877743,51.762423
Bovensteweg,83,,,6585KB,Mook,Mook en Middelaar,Limburg,VBO,5.877677,51.762424
Bovensteweg,85,,,6585KB,Mook,Mook en Middelaar,Limburg,VBO,5.878151,51.762391
Bovensteweg,87,a,,6585KB,Mook,Mook en Middelaar,Limburg,VBO,5.877953,51.762592
Bovensteweg,87,,,6585KB,Mook,Mook en Middelaar,Limburg,VBO,5.878473,51.762677
Bovensteweg,91,,,6585KB,Mook,Mook en Middelaar,Limburg,VBO,5.878944,51.763281
Bovensteweg,95,,,6585KB,Mook,Mook en Middelaar,Limburg,VBO,5.878997,51.763415
Bovensteweg,97,,,6585KB,Mook,Mook en Middelaar,Limburg,VBO,5.878896,51.763564
Bovensteweg,99,,,6585KB,Mook,Mook en Middelaar,Limburg,VBO,5.878800,51.763653
Bovensteweg,101,,,6585KB,Mook,Mook en Middelaar,Limburg,VBO,5.878538,51.763661
Bovensteweg,105,,,6585KB,Mook,Mook en Middelaar,Limburg,VBO,5.878044,51.763765
Bovensteweg,2,,,6585KC,Mook,Mook en Middelaar,Limburg,VBO,5.884177,51.753281
Bovensteweg,4,,,6585KC,Mook,Mook en Middelaar,Limburg,VBO,5.884113,51.753657
Bovensteweg,6,,,6585KC,Mook,Mook en Middelaar,Limburg,VBO,5.883947,51.753883
Bovensteweg,10,,,6585KC,Mook,Mook en Middelaar,Limburg,VBO,5.884082,51.754366
Bovensteweg,12,,,6585KC,Mook,Mook en Middelaar,Limburg,VBO,5.883524,51.754836
Bovensteweg,14,,,6585KD,Mook,Mook en Middelaar,Limburg,VBO,5.882942,51.754633
Bovensteweg,16,,,6585KD,Mook,Mook en Middelaar,Limburg,VBO,5.882723,51.754804
Bovensteweg,18,,,6585KD,Mook,Mook en Middelaar,Limburg,VBO,5.883036,51.755107
Bovensteweg,22,a,,6585KD,Mook,Mook en Middelaar,Limburg,VBO,5.882728,51.755275
Bovensteweg,22,b,,6585KD,Mook,Mook en Middelaar,Limburg,VBO,5.882629,51.755373
Bovensteweg,22,c,,6585KD,Mook,Mook en Middelaar,Limburg,VBO,5.882537,51.755520
Bovensteweg,22,,,6585KD,Mook,Mook en Middelaar,Limburg,VBO,5.882261,51.755228
Bovensteweg,24,a,,6585KD,Mook,Mook en Middelaar,Limburg,VBO,5.882303,51.755888
Bovensteweg,24,,,6585KD,Mook,Mook en Middelaar,Limburg,VBO,5.882475,51.755621
Bovensteweg,26,,,6585KD,Mook,Mook en Middelaar,Limburg,VBO,5.881872,51.755614
Bovensteweg,28,,,6585KD,Mook,Mook en Middelaar,Limburg,VBO,5.882033,51.756155
Bovensteweg,30,a,,6585KD,Mook,Mook en Middelaar,Limburg,VBO,5.881169,51.756153
Bovensteweg,30,,,6585KD,Mook,Mook en Middelaar,Limburg,VBO,5.881759,51.756387
Bovensteweg,32,a,,6585KD,Mook,Mook en Middelaar,Limburg,VBO,5.881591,51.757175
Bovensteweg,32,b,,6585KD,Mook,Mook en Middelaar,Limburg,VBO,5.880919,51.756363
Bovensteweg,32,,,6585KD,Mook,Mook en Middelaar,Limburg,VBO,5.881463,51.756619
Bovensteweg,34,,,6585KD,Mook,Mook en Middelaar,Limburg,VBO,5.880651,51.756604
Bovensteweg,36,,,6585KD,Mook,Mook en Middelaar,Limburg,VBO,5.881031,51.756954
Bovensteweg,38,,,6585KD,Mook,Mook en Middelaar,Limburg,VBO,5.880755,51.757249
Bovensteweg,40,,,6585KD,Mook,Mook en Middelaar,Limburg,VBO,5.880304,51.756907
Bovensteweg,46,,,6585KD,Mook,Mook en Middelaar,Limburg,VBO,5.880355,51.759782
Bovensteweg,48,,,6585KD,Mook,Mook en Middelaar,Limburg,VBO,5.879291,51.760924
Bovensteweg,50,,,6585KD,Mook,Mook en Middelaar,Limburg,VBO,5.879184,51.761294
Bovensteweg,56,a,,6585KD,Mook,Mook en Middelaar,Limburg,VBO,5.878955,51.761937
Bovensteweg,56,b,,6585KD,Mook,Mook en Middelaar,Limburg,VBO,5.881089,51.762337
Bovensteweg,56,,,6585KD,Mook,Mook en Middelaar,Limburg,VBO,5.879715,51.762973
Scheidingsweg,3,,,6585KD,Mook,Mook en Middelaar,Limburg,VBO,5.881609,51.757460
Scheidingsweg,5,,,6585KD,Mook,Mook en Middelaar,Limburg,VBO,5.881372,51.758035
Groesbeekseweg,3,,,6585KE,Mook,Mook en Middelaar,Limburg,VBO,5.882534,51.752145
Groesbeekseweg,5,,,6585KE,Mook,Mook en Middelaar,Limburg,VBO,5.882860,51.752082
Groesbeekseweg,9,a,,6585KE,Mook,Mook en Middelaar,Limburg,VBO,5.883033,51.752197
Groesbeekseweg,9,,,6585KE,Mook,Mook en Middelaar,Limburg,VBO,5.883052,51.752183
Groesbeekseweg,11,,,6585KE,Mook,Mook en Middelaar,Limburg,VBO,5.883315,51.752318
Groesbeekseweg,13,,,6585KE,Mook,Mook en Middelaar,Limburg,VBO,5.883578,51.752461
Groesbeekseweg,15,,,6585KE,Mook,Mook en Middelaar,Limburg,VBO,5.883798,51.752633
Groesbeekseweg,19,,,6585KE,Mook,Mook en Middelaar,Limburg,VBO,5.884532,51.752974
Groesbeekseweg,21,,,6585KE,Mook,Mook en Middelaar,Limburg,VBO,5.885069,51.753400
Groesbeekseweg,23,,,6585KE,Mook,Mook en Middelaar,Limburg,VBO,5.885330,51.753489
Groesbeekseweg,25,,,6585KE,Mook,Mook en Middelaar,Limburg,VBO,5.886902,51.755536
Groesbeekseweg,27,,,6585KE,Mook,Mook en Middelaar,Limburg,VBO,5.901952,51.762246
Groesbeekseweg,37,,,6585KE,Mook,Mook en Middelaar,Limburg,VBO,5.906606,51.764307
Groesbeekseweg,39,,,6585KE,Mook,Mook en Middelaar,Limburg,VBO,5.906680,51.764351
Groesbeekseweg,2,a,,6585KG,Mook,Mook en Middelaar,Limburg,VBO,5.882229,51.751296
Groesbeekseweg,12,,,6585KG,Mook,Mook en Middelaar,Limburg,VBO,5.883116,51.751883
Groesbeekseweg,14,,,6585KG,Mook,Mook en Middelaar,Limburg,VBO,5.883307,51.751973
Groesbeekseweg,16,,,6585KG,Mook,Mook en Middelaar,Limburg,VBO,5.883474,51.752057
Groesbeekseweg,18,,,6585KG,Mook,Mook en Middelaar,Limburg,VBO,5.883690,51.752164
Groesbeekseweg,22,,,6585KG,Mook,Mook en Middelaar,Limburg,VBO,5.883887,51.752286
Groesbeekseweg,24,,,6585KG,Mook,Mook en Middelaar,Limburg,VBO,5.884736,51.752532
Groesbeekseweg,28,a,,6585KG,Mook,Mook en Middelaar,Limburg,VBO,5.886650,51.753883
Groesbeekseweg,28,b,,6585KG,Mook,Mook en Middelaar,Limburg,VBO,5.886725,51.753979
Groesbeekseweg,28,,,6585KG,Mook,Mook en Middelaar,Limburg,VBO,5.885298,51.752845
Groesbeekseweg,30,,,6585KG,Mook,Mook en Middelaar,Limburg,VBO,5.887191,51.753631
Groesbeekseweg,38,,,6585KG,Mook,Mook en Middelaar,Limburg,VBO,5.896573,51.758657
Groesbeekseweg,40,,,6585KG,Mook,Mook en Middelaar,Limburg,VBO,5.896045,51.758829
Groesbeekseweg,46,,,6585KH,Mook,Mook en Middelaar,Limburg,VBO,5.898420,51.759846
Groesbeekseweg,74,,,6585KH,Mook,Mook en Middelaar,Limburg,VBO,5.902558,51.761507
Groesbeekseweg,80,,,6585KH,Mook,Mook en Middelaar,Limburg,VBO,5.903902,51.761067
Groesbeekseweg,82,,,6585KH,Mook,Mook en Middelaar,Limburg,VBO,5.904268,51.761317
Groesbeekseweg,84,,,6585KH,Mook,Mook en Middelaar,Limburg,VBO,5.904621,51.761013
Groesbeekseweg,86,,,6585KH,Mook,Mook en Middelaar,Limburg,VBO,5.904247,51.760826
Groesbeekseweg,92,,,6585KH,Mook,Mook en Middelaar,Limburg,VBO,5.903576,51.761961
Groesbeekseweg,94,,,6585KH,Mook,Mook en Middelaar,Limburg,VBO,5.904283,51.762195
Groesbeekseweg,96,,,6585KH,Mook,Mook en Middelaar,Limburg,VBO,5.904876,51.762704
Groesbeekseweg,98,,,6585KH,Mook,Mook en Middelaar,Limburg,VBO,5.905390,51.763018
Groesbeekseweg,100,,,6585KH,Mook,Mook en Middelaar,Limburg,VBO,5.906008,51.763020
Groesbeekseweg,102,,,6585KH,Mook,Mook en Middelaar,Limburg,VBO,5.905947,51.762944
Groesbeekseweg,106,,,6585KH,Mook,Mook en Middelaar,Limburg,VBO,5.907202,51.764236
Zandsteeg,1,,,6585KJ,Mook,Mook en Middelaar,Limburg,VBO,5.883679,51.755414
Zandsteeg,2,,,6585KJ,Mook,Mook en Middelaar,Limburg,VBO,5.884139,51.755445
Zandsteeg,3,,,6585KJ,Mook,Mook en Middelaar,Limburg,VBO,5.884055,51.755393
Zandsteeg,4,,,6585KJ,Mook,Mook en Middelaar,Limburg,VBO,5.883852,51.755305
Zandsteeg,5,,,6585KJ,Mook,Mook en Middelaar,Limburg,VBO,5.883751,51.755369
Zandsteeg,6,,,6585KJ,Mook,Mook en Middelaar,Limburg,VBO,5.883605,51.755460
Zandsteeg,7,,,6585KJ,Mook,Mook en Middelaar,Limburg,VBO,5.883507,51.755521
Zandsteeg,10,,,6585KJ,Mook,Mook en Middelaar,Limburg,VBO,5.884119,51.755458
Zandsteeg,11,,,6585KJ,Mook,Mook en Middelaar,Limburg,VBO,5.884035,51.755406
Zandsteeg,12,,,6585KJ,Mook,Mook en Middelaar,Limburg,VBO,5.883873,51.755318
Zandsteeg,13,,,6585KJ,Mook,Mook en Middelaar,Limburg,VBO,5.883771,51.755382
Zandsteeg,14,,,6585KJ,Mook,Mook en Middelaar,Limburg,VBO,5.883626,51.755473
Zandsteeg,15,,,6585KJ,Mook,Mook en Middelaar,Limburg,VBO,5.883527,51.755534
Zandsteeg,16,,,6585KJ,Mook,Mook en Middelaar,Limburg,VBO,5.883742,51.755561
Zandsteeg,17,,,6585KJ,Mook,Mook en Middelaar,Limburg,VBO,5.883874,51.755637
Zandsteeg,20,,,6585KJ,Mook,Mook en Middelaar,Limburg,VBO,5.884098,51.755471
Zandsteeg,21,,,6585KJ,Mook,Mook en Middelaar,Limburg,VBO,5.884014,51.755419
Zandsteeg,22,,,6585KJ,Mook,Mook en Middelaar,Limburg,VBO,5.883894,51.755331
Zandsteeg,23,,,6585KJ,Mook,Mook en Middelaar,Limburg,VBO,5.883792,51.755394
Zandsteeg,24,,,6585KJ,Mook,Mook en Middelaar,Limburg,VBO,5.883646,51.755485
Zandsteeg,25,,,6585KJ,Mook,Mook en Middelaar,Limburg,VBO,5.883548,51.755547
Zandsteeg,26,,,6585KJ,Mook,Mook en Middelaar,Limburg,VBO,5.883699,51.755640
Zandsteeg,27,,,6585KJ,Mook,Mook en Middelaar,Limburg,VBO,5.883787,51.755691
Zandsteeg,30,,,6585KJ,Mook,Mook en Middelaar,Limburg,VBO,5.883719,51.755627
Zandsteeg,31,,,6585KJ,Mook,Mook en Middelaar,Limburg,VBO,5.883807,51.755678
Avilaweg,1,,,6585KK,Mook,Mook en Middelaar,Limburg,VBO,5.890172,51.750113
Avilaweg,3,,,6585KK,Mook,Mook en Middelaar,Limburg,VBO,5.891308,51.750426
Avilaweg,4,,,6585KK,Mook,Mook en Middelaar,Limburg,VBO,5.890482,51.749866
Avilaweg,6,,,6585KK,Mook,Mook en Middelaar,Limburg,VBO,5.890627,51.749793
Avilaweg,8,,,6585KK,Mook,Mook en Middelaar,Limburg,VBO,5.890806,51.749756
Avilaweg,9,a,,6585KK,Mook,Mook en Middelaar,Limburg,VBO,5.892120,51.750684
Avilaweg,10,,,6585KK,Mook,Mook en Middelaar,Limburg,VBO,5.891368,51.750161
Avilaweg,12,,,6585KK,Mook,Mook en Middelaar,Limburg,VBO,5.891646,51.749967
Avilaweg,15,k,,6585KK,Mook,Mook en Middelaar,Limburg,VBO,5.895305,51.752825
Avilaweg,15,,,6585KK,Mook,Mook en Middelaar,Limburg,VBO,5.892668,51.752836
Avilaweg,17,,,6585KK,Mook,Mook en Middelaar,Limburg,VBO,5.892532,51.752831
Avilaweg,19,,,6585KK,Mook,Mook en Middelaar,Limburg,VBO,5.890988,51.752959
Hendrik van Nassaulaan,2,a,,6585KL,Mook,Mook en Middelaar,Limburg,VBO,5.904707,51.752041
Hendrik van Nassaulaan,3,,,6585KL,Mook,Mook en Middelaar,Limburg,VBO,5.899016,51.759237
Hendrik van Nassaulaan,5,,,6585KL,Mook,Mook en Middelaar,Limburg,VBO,5.899724,51.759701
Hendrik van Nassaulaan,7,,,6585KL,Mook,Mook en Middelaar,Limburg,VBO,5.899942,51.759543
Hendrik van Nassaulaan,9,,,6585KL,Mook,Mook en Middelaar,Limburg,VBO,5.900189,51.759361
Hendrik van Nassaulaan,19,,,6585KL,Mook,Mook en Middelaar,Limburg,VBO,5.898557,51.758704
Hendrik van Nassaulaan,21,,,6585KL,Mook,Mook en Middelaar,Limburg,VBO,5.898766,51.758507
Hendrik van Nassaulaan,23,a,,6585KL,Mook,Mook en Middelaar,Limburg,VBO,5.899745,51.758410
Hendrik van Nassaulaan,23,,,6585KL,Mook,Mook en Middelaar,Limburg,VBO,5.899627,51.758777
Hendrik van Nassaulaan,25,,,6585KL,Mook,Mook en Middelaar,Limburg,VBO,5.900250,51.757717
Hendrik van Nassaulaan,29,,,6585KL,Mook,Mook en Middelaar,Limburg,VBO,5.901143,51.756284
Hendrik van Nassaulaan,31,,,6585KL,Mook,Mook en Middelaar,Limburg,VBO,5.901630,51.755851
Hendrik van Nassaulaan,33,,,6585KL,Mook,Mook en Middelaar,Limburg,VBO,5.901862,51.755636
Hendrik van Nassaulaan,35,,,6585KL,Mook,Mook en Middelaar,Limburg,VBO,5.902158,51.755368
Hendrik van Nassaulaan,47,,,6585KL,Mook,Mook en Middelaar,Limburg,VBO,5.904886,51.753380
Lodewijkstraat,6,,,6585KM,Mook,Mook en Middelaar,Limburg,VBO,5.902008,51.756625
Lodewijkstraat,8,,,6585KM,Mook,Mook en Middelaar,Limburg,VBO,5.903344,51.757156
Lodewijkstraat,10,,,6585KM,Mook,Mook en Middelaar,Limburg,VBO,5.903671,51.755779
Lodewijkstraat,12,,,6585KM,Mook,Mook en Middelaar,Limburg,VBO,5.904446,51.756216
Lodewijkstraat,24,,,6585KM,Mook,Mook en Middelaar,Limburg,VBO,5.904505,51.757620
Lodewijkstraat,26,,,6585KM,Mook,Mook en Middelaar,Limburg,VBO,5.905928,51.758265
Lodewijkstraat,30,,,6585KM,Mook,Mook en Middelaar,Limburg,VBO,5.907191,51.758826
Lodewijkstraat,32,,,6585KM,Mook,Mook en Middelaar,Limburg,VBO,5.907992,51.758860
Lodewijkstraat,34,,,6585KM,Mook,Mook en Middelaar,Limburg,VBO,5.909700,51.758700
Christoffelweg,1,,,6585KN,Mook,Mook en Middelaar,Limburg,VBO,5.903413,51.754625
Christoffelweg,3,,,6585KN,Mook,Mook en Middelaar,Limburg,VBO,5.903921,51.754626
Christoffelweg,5,,,6585KN,Mook,Mook en Middelaar,Limburg,VBO,5.904024,51.754670
Christoffelweg,6,,,6585KN,Mook,Mook en Middelaar,Limburg,VBO,5.905695,51.755099
Christoffelweg,7,,,6585KN,Mook,Mook en Middelaar,Limburg,VBO,5.904688,51.755522
Christoffelweg,13,,,6585KN,Mook,Mook en Middelaar,Limburg,VBO,5.905589,51.755915
Bracamonteweg,2,,,6585KP,Mook,Mook en Middelaar,Limburg,VBO,5.901129,51.760923
Bracamonteweg,3,,,6585KP,Mook,Mook en Middelaar,Limburg,VBO,5.902609,51.760612
Bracamonteweg,4,,,6585KP,Mook,Mook en Middelaar,Limburg,VBO,5.901889,51.760479
Bracamonteweg,5,,,6585KP,Mook,Mook en Middelaar,Limburg,VBO,5.903140,51.760844
Bracamonteweg,6,,,6585KP,Mook,Mook en Middelaar,Limburg,VBO,5.902396,51.760085
Bracamonteweg,7,,,6585KP,Mook,Mook en Middelaar,Limburg,VBO,5.903198,51.760278
Bracamonteweg,9,,,6585KP,Mook,Mook en Middelaar,Limburg,VBO,5.903536,51.759935
Bracamonteweg,11,,,6585KP,Mook,Mook en Middelaar,Limburg,VBO,5.903962,51.760128
Bracamonteweg,12,,,6585KP,Mook,Mook en Middelaar,Limburg,VBO,5.903083,51.759304
Bracamonteweg,13,,,6585KP,Mook,Mook en Middelaar,Limburg,VBO,5.904409,51.760335
Bracamonteweg,14,,,6585KP,Mook,Mook en Middelaar,Limburg,VBO,5.903655,51.758845
Bracamonteweg,22,,,6585KP,Mook,Mook en Middelaar,Limburg,VBO,5.905365,51.757669
Bracamonteweg,24,,,6585KP,Mook,Mook en Middelaar,Limburg,VBO,5.904392,51.757151
Bracamonteweg,24,,,6585KP,Mook,Mook en Middelaar,Limburg,VBO,5.904487,51.757388
Bracamonteweg,26,,,6585KP,Mook,Mook en Middelaar,Limburg,VBO,5.906229,51.756888
Bracamonteweg,28,,,6585KP,Mook,Mook en Middelaar,Limburg,VBO,5.906331,51.756284
Bracamonteweg,49,,,6585KP,Mook,Mook en Middelaar,Limburg,VBO,5.906619,51.757884
Bracamonteweg,51,,,6585KP,Mook,Mook en Middelaar,Limburg,VBO,5.907054,51.757256
Bracamonteweg,53,,,6585KP,Mook,Mook en Middelaar,Limburg,VBO,5.908028,51.757089
Bracamonteweg,55,,,6585KP,Mook,Mook en Middelaar,Limburg,VBO,5.907263,51.756812
Bracamonteweg,57,,,6585KP,Mook,Mook en Middelaar,Limburg,VBO,5.907587,51.756423
Bracamonteweg,59,,,6585KP,Mook,Mook en Middelaar,Limburg,VBO,5.909395,51.757076
Bracamonteweg,69,,,6585KP,Mook,Mook en Middelaar,Limburg,VBO,5.909995,51.755187
Schuttersweg,1,a,,6585KR,Mook,Mook en Middelaar,Limburg,VBO,5.905853,51.762776
Schuttersweg,1,,,6585KR,Mook,Mook en Middelaar,Limburg,VBO,5.905688,51.762764
Schuttersweg,3,,,6585KR,Mook,Mook en Middelaar,Limburg,VBO,5.906034,51.762604
Schuttersweg,5,,,6585KR,Mook,Mook en Middelaar,Limburg,VBO,5.906436,51.762295
Schuttersweg,7,,,6585KR,Mook,Mook en Middelaar,Limburg,VBO,5.906747,51.761992
Schuttersweg,8,,,6585KR,Mook,Mook en Middelaar,Limburg,VBO,5.905269,51.761311
Schuttersweg,9,,,6585KR,Mook,Mook en Middelaar,Limburg,VBO,5.906871,51.762675
Schuttersweg,11,,,6585KR,Mook,Mook en Middelaar,Limburg,VBO,5.907214,51.763053
Schuttersweg,12,,,6585KR,Mook,Mook en Middelaar,Limburg,VBO,5.907308,51.761082
Schuttersweg,14,,,6585KR,Mook,Mook en Middelaar,Limburg,VBO,5.907836,51.761621
Schuttersweg,16,,,6585KR,Mook,Mook en Middelaar,Limburg,VBO,5.907848,51.762017
Schuttersweg,18,,,6585KR,Mook,Mook en Middelaar,Limburg,VBO,5.908259,51.762148
Schuttersweg,20,,,6585KR,Mook,Mook en Middelaar,Limburg,VBO,5.909176,51.762020
Bisseltsebaan,6,a,,6585KS,Mook,Mook en Middelaar,Limburg,VBO,5.904070,51.766718
Bisseltsebaan,6,,,6585KS,Mook,Mook en Middelaar,Limburg,VBO,5.904290,51.766661
Bisseltsebaan,8,,,6585KS,Mook,Mook en Middelaar,Limburg,VBO,5.904723,51.765563
Bisseltsebaan,10,,,6585KS,Mook,Mook en Middelaar,Limburg,VBO,5.904609,51.765523
Bisseltsebaan,14,,,6585KS,Mook,Mook en Middelaar,Limburg,VBO,5.906256,51.764721
Bisseltsebaan,16,,,6585KS,Mook,Mook en Middelaar,Limburg,VBO,5.907610,51.764013
Bisseltsebaan,18,,,6585KS,Mook,Mook en Middelaar,Limburg,VBO,5.907633,51.763449
Bisseltsebaan,20,,,6585KS,Mook,Mook en Middelaar,Limburg,VBO,5.908012,51.763463
Bisseltsebaan,22,a,,6585KS,Mook,Mook en Middelaar,Limburg,VBO,5.906312,51.763154
Bisseltsebaan,22,,,6585KS,Mook,Mook en Middelaar,Limburg,VBO,5.906834,51.763192
Bisseltsebaan,24,,,6585KS,Mook,Mook en Middelaar,Limburg,VBO,5.908223,51.763801
Bisseltsebaan,28,,,6585KS,Mook,Mook en Middelaar,Limburg,VBO,5.908870,51.763320
Bisseltsebaan,30,,,6585KS,Mook,Mook en Middelaar,Limburg,VBO,5.909511,51.763128
Bisseltsebaan,32,,,6585KT,Mook,Mook en Middelaar,Limburg,VBO,5.910260,51.762710
Bisseltsebaan,34,,,6585KT,Mook,Mook en Middelaar,Limburg,VBO,5.910982,51.762127
Bisseltsebaan,36,,,6585KT,Mook,Mook en Middelaar,Limburg,VBO,5.910325,51.761610
Bisseltsebaan,38,,,6585KT,Mook,Mook en Middelaar,Limburg,VBO,5.912014,51.760718
Bisseltsebaan,40,,,6585KT,Mook,Mook en Middelaar,Limburg,VBO,5.912161,51.760153
Bisseltsebaan,42,,,6585KT,Mook,Mook en Middelaar,Limburg,VBO,5.912766,51.759569
Bisseltsebaan,44,,,6585KT,Mook,Mook en Middelaar,Limburg,VBO,5.912388,51.758954
Bisseltsebaan,46,,,6585KT,Mook,Mook en Middelaar,Limburg,VBO,5.913175,51.758895
Bisseltsebaan,52,,,6585KT,Mook,Mook en Middelaar,Limburg,VBO,5.913162,51.757857
Bisseltsebaan,54,,,6585KT,Mook,Mook en Middelaar,Limburg,VBO,5.912170,51.757066
Bisseltsebaan,60,,,6585KT,Mook,Mook en Middelaar,Limburg,VBO,5.911145,51.756542
Papenbergseweg,5,,,6585KV,Mook,Mook en Middelaar,Limburg,VBO,5.904795,51.752750
Papenbergseweg,7,,,6585KV,Mook,Mook en Middelaar,Limburg,VBO,5.905425,51.753020
Papenbergseweg,9,,,6585KV,Mook,Mook en Middelaar,Limburg,VBO,5.905562,51.753572
Papenbergseweg,11,,,6585KV,Mook,Mook en Middelaar,Limburg,VBO,5.906821,51.754073
Papenbergseweg,13,,,6585KV,Mook,Mook en Middelaar,Limburg,VBO,5.908261,51.754253
Papenbergseweg,15,,,6585KV,Mook,Mook en Middelaar,Limburg,VBO,5.908893,51.754422
Papenbergseweg,23,,,6585KV,Mook,Mook en Middelaar,Limburg,VBO,5.910771,51.755521
Papenbergseweg,25,,,6585KV,Mook,Mook en Middelaar,Limburg,VBO,5.911413,51.755447
Papenbergseweg,27,,,6585KV,Mook,Mook en Middelaar,Limburg,VBO,5.912446,51.755642
Papenbergseweg,4,,,6585KW,Mook,Mook en Middelaar,Limburg,VBO,5.892477,51.748733
Papenbergseweg,6,,,6585KW,Mook,Mook en Middelaar,Limburg,VBO,5.892515,51.748662
Papenbergseweg,8,,,6585KW,Mook,Mook en Middelaar,Limburg,VBO,5.892578,51.748543
Papenbergseweg,14,,,6585KW,Mook,Mook en Middelaar,Limburg,VBO,5.905366,51.752308
Papenbergseweg,22,,,6585KW,Mook,Mook en Middelaar,Limburg,VBO,5.907831,51.753419
Papenbergseweg,26,,,6585KW,Mook,Mook en Middelaar,Limburg,VBO,5.908772,51.753565
Papenbergseweg,28,,,6585KW,Mook,Mook en Middelaar,Limburg,VBO,5.909086,51.754024
Papenbergseweg,36,,,6585KW,Mook,Mook en Middelaar,Limburg,VBO,5.912244,51.754767
Papenbergseweg,38,,,6585KW,Mook,Mook en Middelaar,Limburg,VBO,5.912255,51.754181
Papenbergseweg,40,,,6585KW,Mook,Mook en Middelaar,Limburg,VBO,5.913063,51.755383
Mendozaweg,5,,,6585KX,Mook,Mook en Middelaar,Limburg,VBO,5.906869,51.752203
Mendozaweg,7,,,6585KX,Mook,Mook en Middelaar,Limburg,VBO,5.907542,51.752484
Mendozaweg,11,,,6585KX,Mook,Mook en Middelaar,Limburg,VBO,5.908167,51.752559
Mendozaweg,13,,,6585KX,Mook,Mook en Middelaar,Limburg,VBO,5.908741,51.752348
Zevendalseweg,7,,,6585LA,Mook,Mook en Middelaar,Limburg,VBO,5.909588,51.749323
Zevendalseweg,13,,,6585LA,Mook,Mook en Middelaar,Limburg,VBO,5.910139,51.752656
Zevendalseweg,19,,,6585LA,Mook,Mook en Middelaar,Limburg,VBO,5.909564,51.753653
Zevendalseweg,21,,,6585LA,Mook,Mook en Middelaar,Limburg,VBO,5.909443,51.754186
Zevendalseweg,16,,,6585LB,Mook,Mook en Middelaar,Limburg,VBO,5.910755,51.752263
Zevendalseweg,18,,dl1,6585LB,Mook,Mook en Middelaar,Limburg,VBO,5.910469,51.753274
Zevendalseweg,18,,,6585LB,Mook,Mook en Middelaar,Limburg,VBO,5.910569,51.753399
Zevendalseweg,20,,,6585LB,Mook,Mook en Middelaar,Limburg,VBO,5.910201,51.754513
Leenherenstraat,1,,,6585VA,Mook,Mook en Middelaar,Limburg,VBO,5.878322,51.754599
Leenherenstraat,3,,,6585VA,Mook,Mook en Middelaar,Limburg,VBO,5.878183,51.754699
Leenherenstraat,5,,,6585VA,Mook,Mook en Middelaar,Limburg,VBO,5.878037,51.754780
Leenherenstraat,7,,,6585VA,Mook,Mook en Middelaar,Limburg,VBO,5.877924,51.754914
Leenherenstraat,9,,,6585VA,Mook,Mook en Middelaar,Limburg,VBO,5.877785,51.755033
Leenherenstraat,11,,,6585VA,Mook,Mook en Middelaar,Limburg,VBO,5.877689,51.755109
Leenherenstraat,13,,,6585VA,Mook,Mook en Middelaar,Limburg,VBO,5.877550,51.755260
Leenherenstraat,15,,,6585VA,Mook,Mook en Middelaar,Limburg,VBO,5.877494,51.755368
Leenherenstraat,17,,,6585VA,Mook,Mook en Middelaar,Limburg,VBO,5.877408,51.755488
Leenherenstraat,2,,,6585VB,Mook,Mook en Middelaar,Limburg,VBO,5.878350,51.754998
Leenherenstraat,4,,,6585VB,Mook,Mook en Middelaar,Limburg,VBO,5.878190,51.755101
Leenherenstraat,6,,,6585VB,Mook,Mook en Middelaar,Limburg,VBO,5.878079,51.755208
Leenherenstraat,8,,,6585VB,Mook,Mook en Middelaar,Limburg,VBO,5.877968,51.755323
Leenherenstraat,10,,,6585VB,Mook,Mook en Middelaar,Limburg,VBO,5.877882,51.755419
Leenherenstraat,12,,,6585VB,Mook,Mook en Middelaar,Limburg,VBO,5.877816,51.755554
Leenherenstraat,14,,,6585VB,Mook,Mook en Middelaar,Limburg,VBO,5.877744,51.755674
Leenherenstraat,16,,,6585VB,Mook,Mook en Middelaar,Limburg,VBO,5.877285,51.756033
Leenherenstraat,18,,,6585VB,Mook,Mook en Middelaar,Limburg,VBO,5.877369,51.756077
Leenherenstraat,20,,,6585VB,Mook,Mook en Middelaar,Limburg,VBO,5.877374,51.755957
Leenherenstraat,22,,,6585VB,Mook,Mook en Middelaar,Limburg,VBO,5.877454,51.756005
Leenherenstraat,24,,,6585VB,Mook,Mook en Middelaar,Limburg,VBO,5.877309,51.756044
Leenherenstraat,26,,,6585VB,Mook,Mook en Middelaar,Limburg,VBO,5.877393,51.756088
Leenherenstraat,28,,,6585VB,Mook,Mook en Middelaar,Limburg,VBO,5.877398,51.755968
Leenherenstraat,30,,,6585VB,Mook,Mook en Middelaar,Limburg,VBO,5.877478,51.756015
Leenherenstraat,32,,,6585VB,Mook,Mook en Middelaar,Limburg,VBO,5.877082,51.756207
Leenherenstraat,34,,,6585VB,Mook,Mook en Middelaar,Limburg,VBO,5.877018,51.756234
Leenherenstraat,36,,,6585VB,Mook,Mook en Middelaar,Limburg,VBO,5.876950,51.756254
Leenherenstraat,38,,,6585VB,Mook,Mook en Middelaar,Limburg,VBO,5.876878,51.756267
Leenherenstraat,40,,,6585VB,Mook,Mook en Middelaar,Limburg,VBO,5.876801,51.756273
Leenherenstraat,42,,,6585VB,Mook,Mook en Middelaar,Limburg,VBO,5.876451,51.756281
Frankenstraat,2,,,6585VD,Mook,Mook en Middelaar,Limburg,VBO,5.877946,51.755783
Frankenstraat,4,,,6585VD,Mook,Mook en Middelaar,Limburg,VBO,5.878008,51.755811
Frankenstraat,6,,,6585VD,Mook,Mook en Middelaar,Limburg,VBO,5.878133,51.755867
Frankenstraat,8,,,6585VD,Mook,Mook en Middelaar,Limburg,VBO,5.878198,51.755897
Frankenstraat,10,,,6585VD,Mook,Mook en Middelaar,Limburg,VBO,5.879058,51.756175
Frankenstraat,12,,,6585VD,Mook,Mook en Middelaar,Limburg,VBO,5.879200,51.756242
Veldweg,1,,,6585VE,Mook,Mook en Middelaar,Limburg,VBO,5.875647,51.756293
Veldweg,3,a,,6585VE,Mook,Mook en Middelaar,Limburg,VBO,5.875851,51.757647
Veldweg,3,b,,6585VE,Mook,Mook en Middelaar,Limburg,VBO,5.875882,51.757678
Veldweg,3,c,,6585VE,Mook,Mook en Middelaar,Limburg,VBO,5.875315,51.757353
Veldweg,3,,,6585VE,Mook,Mook en Middelaar,Limburg,VBO,5.875200,51.757163
Karolingenstraat,1,,,6585VG,Mook,Mook en Middelaar,Limburg,VBO,5.877548,51.756393
Karolingenstraat,3,,,6585VG,Mook,Mook en Middelaar,Limburg,VBO,5.877527,51.756439
Karolingenstraat,5,,,6585VG,Mook,Mook en Middelaar,Limburg,VBO,5.877478,51.756539
Karolingenstraat,7,,,6585VG,Mook,Mook en Middelaar,Limburg,VBO,5.877474,51.756588
Karolingenstraat,9,,,6585VG,Mook,Mook en Middelaar,Limburg,VBO,5.877470,51.756638
Karolingenstraat,11,,,6585VG,Mook,Mook en Middelaar,Limburg,VBO,5.877467,51.756684
Karolingenstraat,13,,,6585VG,Mook,Mook en Middelaar,Limburg,VBO,5.877463,51.756731
Karolingenstraat,15,,,6585VG,Mook,Mook en Middelaar,Limburg,VBO,5.877474,51.756811
Karolingenstraat,17,,,6585VG,Mook,Mook en Middelaar,Limburg,VBO,5.877494,51.756859
Karolingenstraat,19,,,6585VG,Mook,Mook en Middelaar,Limburg,VBO,5.877514,51.756906
Karolingenstraat,21,,,6585VG,Mook,Mook en Middelaar,Limburg,VBO,5.877534,51.756954
Karolingenstraat,23,,,6585VG,Mook,Mook en Middelaar,Limburg,VBO,5.877553,51.756999
Karolingenstraat,25,,,6585VG,Mook,Mook en Middelaar,Limburg,VBO,5.877652,51.757158
Karolingenstraat,27,,,6585VG,Mook,Mook en Middelaar,Limburg,VBO,5.877696,51.757184
Karolingenstraat,29,,,6585VG,Mook,Mook en Middelaar,Limburg,VBO,5.877738,51.757223
Karolingenstraat,31,,,6585VG,Mook,Mook en Middelaar,Limburg,VBO,5.877794,51.757269
Karolingenstraat,33,,,6585VG,Mook,Mook en Middelaar,Limburg,VBO,5.877888,51.757334
Karolingenstraat,35,,,6585VG,Mook,Mook en Middelaar,Limburg,VBO,5.877949,51.757366
Karolingenstraat,37,,,6585VG,Mook,Mook en Middelaar,Limburg,VBO,5.878010,51.757398
Karolingenstraat,39,,,6585VG,Mook,Mook en Middelaar,Limburg,VBO,5.878247,51.757484
Karolingenstraat,41,,,6585VG,Mook,Mook en Middelaar,Limburg,VBO,5.878265,51.757561
Karolingenstraat,43,,,6585VG,Mook,Mook en Middelaar,Limburg,VBO,5.878187,51.757649
Karolingenstraat,45,,,6585VG,Mook,Mook en Middelaar,Limburg,VBO,5.878138,51.757695
Karolingenstraat,47,,,6585VG,Mook,Mook en Middelaar,Limburg,VBO,5.878030,51.757777
Karolingenstraat,49,,,6585VG,Mook,Mook en Middelaar,Limburg,VBO,5.877931,51.757831
Karolingenstraat,51,,,6585VG,Mook,Mook en Middelaar,Limburg,VBO,5.877697,51.757733
Karolingenstraat,53,,,6585VG,Mook,Mook en Middelaar,Limburg,VBO,5.877628,51.757699
Karolingenstraat,55,,,6585VG,Mook,Mook en Middelaar,Limburg,VBO,5.877461,51.757591
Karolingenstraat,57,,,6585VG,Mook,Mook en Middelaar,Limburg,VBO,5.877409,51.757576
Karolingenstraat,59,,,6585VG,Mook,Mook en Middelaar,Limburg,VBO,5.877275,51.757474
Karolingenstraat,61,,,6585VG,Mook,Mook en Middelaar,Limburg,VBO,5.877235,51.757440
Karolingenstraat,63,,,6585VG,Mook,Mook en Middelaar,Limburg,VBO,5.877299,51.757464
Karolingenstraat,65,,,6585VG,Mook,Mook en Middelaar,Limburg,VBO,5.877259,51.757430
Karolingenstraat,67,,,6585VG,Mook,Mook en Middelaar,Limburg,VBO,5.877321,51.757452
Karolingenstraat,69,,,6585VG,Mook,Mook en Middelaar,Limburg,VBO,5.877281,51.757418
Karolingenstraat,71,,,6585VG,Mook,Mook en Middelaar,Limburg,VBO,5.876904,51.757012
Karolingenstraat,73,,,6585VG,Mook,Mook en Middelaar,Limburg,VBO,5.877121,51.757123
Karolingenstraat,75,,,6585VG,Mook,Mook en Middelaar,Limburg,VBO,5.876932,51.757007
Karolingenstraat,77,,,6585VG,Mook,Mook en Middelaar,Limburg,VBO,5.877045,51.757042
Karolingenstraat,79,,,6585VG,Mook,Mook en Middelaar,Limburg,VBO,5.877149,51.757118
Karolingenstraat,81,,,6585VG,Mook,Mook en Middelaar,Limburg,VBO,5.877073,51.757037
Karolingenstraat,83,,,6585VG,Mook,Mook en Middelaar,Limburg,VBO,5.876881,51.756890
Karolingenstraat,85,,,6585VG,Mook,Mook en Middelaar,Limburg,VBO,5.876870,51.756841
Karolingenstraat,87,,,6585VG,Mook,Mook en Middelaar,Limburg,VBO,5.876839,51.756704
Karolingenstraat,89,,,6585VG,Mook,Mook en Middelaar,Limburg,VBO,5.876838,51.756653
Karolingenstraat,91,,,6585VG,Mook,Mook en Middelaar,Limburg,VBO,5.876824,51.756549
Karolingenstraat,93,,,6585VG,Mook,Mook en Middelaar,Limburg,VBO,5.876823,51.756502
Karolingenstraat,2,,,6585VH,Mook,Mook en Middelaar,Limburg,VBO,5.877830,51.756584
Karolingenstraat,4,,,6585VH,Mook,Mook en Middelaar,Limburg,VBO,5.877822,51.756633
Karolingenstraat,6,,,6585VH,Mook,Mook en Middelaar,Limburg,VBO,5.877819,51.756683
Karolingenstraat,8,,,6585VH,Mook,Mook en Middelaar,Limburg,VBO,5.877823,51.756733
Karolingenstraat,10,,,6585VH,Mook,Mook en Middelaar,Limburg,VBO,5.877833,51.756787
Karolingenstraat,12,,,6585VH,Mook,Mook en Middelaar,Limburg,VBO,5.877849,51.756836
Karolingenstraat,14,,,6585VH,Mook,Mook en Middelaar,Limburg,VBO,5.878105,51.757080
Karolingenstraat,16,,,6585VH,Mook,Mook en Middelaar,Limburg,VBO,5.878166,51.757122
Karolingenstraat,18,,,6585VH,Mook,Mook en Middelaar,Limburg,VBO,5.878229,51.757158
Karolingenstraat,20,,,6585VH,Mook,Mook en Middelaar,Limburg,VBO,5.878300,51.757196
Karolingenstraat,22,,,6585VH,Mook,Mook en Middelaar,Limburg,VBO,5.878369,51.757227
Karolingenstraat,24,,,6585VH,Mook,Mook en Middelaar,Limburg,VBO,5.878445,51.757259
Karolingenstraat,26,,,6585VH,Mook,Mook en Middelaar,Limburg,VBO,5.878710,51.757278
Karolingenstraat,28,,,6585VH,Mook,Mook en Middelaar,Limburg,VBO,5.878598,51.757383
Karolingenstraat,30,,,6585VH,Mook,Mook en Middelaar,Limburg,VBO,5.878589,51.757561
Karolingenstraat,32,,,6585VH,Mook,Mook en Middelaar,Limburg,VBO,5.878471,51.757723
Karolingenstraat,34,,,6585VH,Mook,Mook en Middelaar,Limburg,VBO,5.878339,51.757853
Karolingenstraat,36,,,6585VH,Mook,Mook en Middelaar,Limburg,VBO,5.878301,51.757976
Karolingenstraat,38,a,,6585VH,Mook,Mook en Middelaar,Limburg,VBO,5.878137,51.758091
Karolingenstraat,38,,,6585VH,Mook,Mook en Middelaar,Limburg,VBO,5.878192,51.758044
Karolingenstraat,40,a,,6585VH,Mook,Mook en Middelaar,Limburg,VBO,5.877885,51.758084
Karolingenstraat,40,,,6585VH,Mook,Mook en Middelaar,Limburg,VBO,5.878000,51.758098
Karolingenstraat,42,,,6585VH,Mook,Mook en Middelaar,Limburg,VBO,5.877760,51.758037
Karolingenstraat,44,,,6585VH,Mook,Mook en Middelaar,Limburg,VBO,5.877642,51.757972
Karolingenstraat,46,,,6585VH,Mook,Mook en Middelaar,Limburg,VBO,5.877408,51.757867
Karolingenstraat,48,,,6585VH,Mook,Mook en Middelaar,Limburg,VBO,5.877223,51.757773
Karolingenstraat,50,,,6585VH,Mook,Mook en Middelaar,Limburg,VBO,5.877046,51.757650
Karolingenstraat,52,,,6585VH,Mook,Mook en Middelaar,Limburg,VBO,5.876876,51.757453
Karolingenstraat,54,,,6585VH,Mook,Mook en Middelaar,Limburg,VBO,5.876690,51.757530
Karolingenstraat,56,,,6585VH,Mook,Mook en Middelaar,Limburg,VBO,5.876688,51.757164
Karolingenstraat,58,,,6585VH,Mook,Mook en Middelaar,Limburg,VBO,5.876507,51.757242
Karolingenstraat,60,,,6585VH,Mook,Mook en Middelaar,Limburg,VBO,5.876540,51.757007
Karolingenstraat,62,,,6585VH,Mook,Mook en Middelaar,Limburg,VBO,5.876499,51.756856
Karolingenstraat,64,,,6585VH,Mook,Mook en Middelaar,Limburg,VBO,5.876488,51.756691
Karolingenstraat,66,,,6585VH,Mook,Mook en Middelaar,Limburg,VBO,5.876489,51.756548
Merovingenstraat,2,,,6585VJ,Mook,Mook en Middelaar,Limburg,VBO,5.877754,51.756197
Merovingenstraat,4,,,6585VJ,Mook,Mook en Middelaar,Limburg,VBO,5.877865,51.756128
Merovingenstraat,6,,,6585VJ,Mook,Mook en Middelaar,Limburg,VBO,5.877634,51.756143
Merovingenstraat,8,,,6585VJ,Mook,Mook en Middelaar,Limburg,VBO,5.877771,51.756182
Merovingenstraat,10,,,6585VJ,Mook,Mook en Middelaar,Limburg,VBO,5.877825,51.756110
Merovingenstraat,12,,,6585VJ,Mook,Mook en Middelaar,Limburg,VBO,5.877650,51.756128
Merovingenstraat,14,,,6585VJ,Mook,Mook en Middelaar,Limburg,VBO,5.878187,51.756226
Merovingenstraat,16,,,6585VJ,Mook,Mook en Middelaar,Limburg,VBO,5.878090,51.756193
Merovingenstraat,18,,,6585VJ,Mook,Mook en Middelaar,Limburg,VBO,5.878007,51.756264
Merovingenstraat,20,,,6585VJ,Mook,Mook en Middelaar,Limburg,VBO,5.878095,51.756305
Merovingenstraat,22,,,6585VJ,Mook,Mook en Middelaar,Limburg,VBO,5.878163,51.756216
Merovingenstraat,24,,,6585VJ,Mook,Mook en Middelaar,Limburg,VBO,5.878066,51.756183
Merovingenstraat,26,,,6585VJ,Mook,Mook en Middelaar,Limburg,VBO,5.877983,51.756253
Merovingenstraat,28,,,6585VJ,Mook,Mook en Middelaar,Limburg,VBO,5.878071,51.756295
Merovingenstraat,30,,,6585VJ,Mook,Mook en Middelaar,Limburg,VBO,5.878456,51.756471
Merovingenstraat,32,,,6585VJ,Mook,Mook en Middelaar,Limburg,VBO,5.878426,51.756757
Knollenberg,1,a,,6585WJ,Mook,Mook en Middelaar,Limburg,VBO,5.887257,51.752459
Knollenberg,1,,,6585WJ,Mook,Mook en Middelaar,Limburg,VBO,5.887590,51.752596
Knollenberg,3,,,6585WJ,Mook,Mook en Middelaar,Limburg,VBO,5.887818,51.752762
Knollenberg,5,,,6585WJ,Mook,Mook en Middelaar,Limburg,VBO,5.888120,51.752941
Knollenberg,7,,,6585WJ,Mook,Mook en Middelaar,Limburg,VBO,5.888318,51.752762
Knollenberg,9,,,6585WJ,Mook,Mook en Middelaar,Limburg,VBO,5.888578,51.752530
Knollenberg,11,,,6585WJ,Mook,Mook en Middelaar,Limburg,VBO,5.888906,51.752253
Knollenberg,15,,,6585WJ,Mook,Mook en Middelaar,Limburg,VBO,5.889273,51.752027
Knollenberg,17,,,6585WJ,Mook,Mook en Middelaar,Limburg,VBO,5.889543,51.751794
Knollenberg,19,,,6585WJ,Mook,Mook en Middelaar,Limburg,VBO,5.889809,51.751577
Knollenberg,21,,,6585WJ,Mook,Mook en Middelaar,Limburg,VBO,5.890046,51.751369
Knollenberg,23,,,6585WJ,Mook,Mook en Middelaar,Limburg,VBO,5.890234,51.751137
Knollenberg,25,,,6585WJ,Mook,Mook en Middelaar,Limburg,VBO,5.890235,51.750871
Knollenberg,27,,,6585WJ,Mook,Mook en Middelaar,Limburg,VBO,5.890608,51.750563
Knollenberg,29,,,6585WJ,Mook,Mook en Middelaar,Limburg,VBO,5.890740,51.750263
Knollenberg,2,,,6585WK,Mook,Mook en Middelaar,Limburg,VBO,5.888047,51.752432
Knollenberg,4,,,6585WK,Mook,Mook en Middelaar,Limburg,VBO,5.888290,51.752173
Knollenberg,6,,,6585WK,Mook,Mook en Middelaar,Limburg,VBO,5.888634,51.751924
Knollenberg,8,,,6585WK,Mook,Mook en Middelaar,Limburg,VBO,5.888817,51.751705
Knollenberg,10,,,6585WK,Mook,Mook en Middelaar,Limburg,VBO,5.889150,51.751446
Knollenberg,12,a,,6585WK,Mook,Mook en Middelaar,Limburg,VBO,5.889167,51.751229
Knollenberg,12,,,6585WK,Mook,Mook en Middelaar,Limburg,VBO,5.889398,51.751191
Knollenberg,16,,,6585WK,Mook,Mook en Middelaar,Limburg,VBO,5.889620,51.750907
Knollenberg,18,,,6585WK,Mook,Mook en Middelaar,Limburg,VBO,5.889858,51.750602
Knollenberg,20,,,6585WK,Mook,Mook en Middelaar,Limburg,VBO,5.890026,51.750328
Generaal Gavinstraat,1,a,,6585WL,Mook,Mook en Middelaar,Limburg,VBO,5.886062,51.752996
Generaal Gavinstraat,1,,,6585WL,Mook,Mook en Middelaar,Limburg,VBO,5.886461,51.753009
Generaal Gavinstraat,3,,,6585WL,Mook,Mook en Middelaar,Limburg,VBO,5.887075,51.753056
Generaal Gavinstraat,5,,,6585WL,Mook,Mook en Middelaar,Limburg,VBO,5.887856,51.753392
Generaal Gavinstraat,7,,,6585WL,Mook,Mook en Middelaar,Limburg,VBO,5.886862,51.752471
Generaal Gavinstraat,9,,,6585WL,Mook,Mook en Middelaar,Limburg,VBO,5.887037,51.752359
Generaal Gavinstraat,11,,,6585WL,Mook,Mook en Middelaar,Limburg,VBO,5.887356,51.752104
Generaal Gavinstraat,13,,,6585WL,Mook,Mook en Middelaar,Limburg,VBO,5.887589,51.751917
Generaal Gavinstraat,15,,,6585WL,Mook,Mook en Middelaar,Limburg,VBO,5.887831,51.751724
Generaal Gavinstraat,17,,,6585WL,Mook,Mook en Middelaar,Limburg,VBO,5.888116,51.751532
Generaal Gavinstraat,19,,,6585WL,Mook,Mook en Middelaar,Limburg,VBO,5.888225,51.751388
Generaal Gavinstraat,21,,,6585WL,Mook,Mook en Middelaar,Limburg,VBO,5.888406,51.751230
Generaal Gavinstraat,23,,,6585WL,Mook,Mook en Middelaar,Limburg,VBO,5.888579,51.751077
Generaal Gavinstraat,25,,,6585WL,Mook,Mook en Middelaar,Limburg,VBO,5.888628,51.751032
Generaal Gavinstraat,27,,,6585WL,Mook,Mook en Middelaar,Limburg,VBO,5.888998,51.750922
Generaal Gavinstraat,29,,,6585WL,Mook,Mook en Middelaar,Limburg,VBO,5.889166,51.750772
Generaal Gavinstraat,31,,,6585WL,Mook,Mook en Middelaar,Limburg,VBO,5.889225,51.750704
Generaal Gavinstraat,33,,,6585WL,Mook,Mook en Middelaar,Limburg,VBO,5.889140,51.750484
Generaal Gavinstraat,35,,,6585WL,Mook,Mook en Middelaar,Limburg,VBO,5.889521,51.750205
Generaal Gavinstraat,37,,,6585WL,Mook,Mook en Middelaar,Limburg,VBO,5.889672,51.749906
Generaal Gavinstraat,39,,,6585WL,Mook,Mook en Middelaar,Limburg,VBO,5.890065,51.748839
Generaal Gavinstraat,41,,,6585WL,Mook,Mook en Middelaar,Limburg,VBO,5.890068,51.748575
Generaal Gavinstraat,2,,,6585WN,Mook,Mook en Middelaar,Limburg,VBO,5.886227,51.752445
Generaal Gavinstraat,4,,,6585WN,Mook,Mook en Middelaar,Limburg,VBO,5.886292,51.752402
Generaal Gavinstraat,6,,,6585WN,Mook,Mook en Middelaar,Limburg,VBO,5.886422,51.752323
Generaal Gavinstraat,8,,,6585WN,Mook,Mook en Middelaar,Limburg,VBO,5.886490,51.752281
Generaal Gavinstraat,10,,,6585WN,Mook,Mook en Middelaar,Limburg,VBO,5.886628,51.752192
Generaal Gavinstraat,12,,,6585WN,Mook,Mook en Middelaar,Limburg,VBO,5.886770,51.752097
Generaal Gavinstraat,14,,,6585WN,Mook,Mook en Middelaar,Limburg,VBO,5.886900,51.752003
Generaal Gavinstraat,16,,,6585WN,Mook,Mook en Middelaar,Limburg,VBO,5.886946,51.751968
Generaal Gavinstraat,18,,,6585WN,Mook,Mook en Middelaar,Limburg,VBO,5.887089,51.751859
Generaal Gavinstraat,20,,,6585WN,Mook,Mook en Middelaar,Limburg,VBO,5.887214,51.751761
Generaal Gavinstraat,22,,,6585WN,Mook,Mook en Middelaar,Limburg,VBO,5.887280,51.751708
Generaal Gavinstraat,24,,,6585WN,Mook,Mook en Middelaar,Limburg,VBO,5.887395,51.751613
Generaal Gavinstraat,26,,,6585WN,Mook,Mook en Middelaar,Limburg,VBO,5.887451,51.751566
Generaal Gavinstraat,28,,,6585WN,Mook,Mook en Middelaar,Limburg,VBO,5.887556,51.751477
Generaal Gavinstraat,30,,,6585WN,Mook,Mook en Middelaar,Limburg,VBO,5.887611,51.751430
Generaal Gavinstraat,32,,,6585WN,Mook,Mook en Middelaar,Limburg,VBO,5.887716,51.751342
Generaal Gavinstraat,34,,,6585WN,Mook,Mook en Middelaar,Limburg,VBO,5.887772,51.751295
Generaal Gavinstraat,36,,,6585WN,Mook,Mook en Middelaar,Limburg,VBO,5.887877,51.751206
Generaal Gavinstraat,38,,,6585WN,Mook,Mook en Middelaar,Limburg,VBO,5.887932,51.751159
Generaal Gavinstraat,40,,,6585WN,Mook,Mook en Middelaar,Limburg,VBO,5.888037,51.751071
Generaal Gavinstraat,42,,,6585WN,Mook,Mook en Middelaar,Limburg,VBO,5.888092,51.751023
Generaal Gavinstraat,44,,,6585WP,Mook,Mook en Middelaar,Limburg,VBO,5.888672,51.750420
Generaal Gavinstraat,46,,,6585WP,Mook,Mook en Middelaar,Limburg,VBO,5.888729,51.750374
Generaal Gavinstraat,48,,,6585WP,Mook,Mook en Middelaar,Limburg,VBO,5.888818,51.750245
Generaal Gavinstraat,50,,,6585WP,Mook,Mook en Middelaar,Limburg,VBO,5.888875,51.750199
Generaal Gavinstraat,52,,,6585WP,Mook,Mook en Middelaar,Limburg,VBO,5.888964,51.750070
Generaal Gavinstraat,54,,,6585WP,Mook,Mook en Middelaar,Limburg,VBO,5.889020,51.750024
Generaal Gavinstraat,56,,,6585WP,Mook,Mook en Middelaar,Limburg,VBO,5.889645,51.748893
Generaal Gavinstraat,58,,,6585WP,Mook,Mook en Middelaar,Limburg,VBO,5.889655,51.748838
Generaal Gavinstraat,60,,,6585WP,Mook,Mook en Middelaar,Limburg,VBO,5.889668,51.748784
Generaal Gavinstraat,62,,,6585WP,Mook,Mook en Middelaar,Limburg,VBO,5.889681,51.748730
Generaal Gavinstraat,64,,,6585WP,Mook,Mook en Middelaar,Limburg,VBO,5.889464,51.748530
Kleineblokstraat,1,,,6585WR,Mook,Mook en Middelaar,Limburg,VBO,5.885001,51.752168
Kleineblokstraat,2,,,6585WR,Mook,Mook en Middelaar,Limburg,VBO,5.884941,51.751850
Kleineblokstraat,3,,,6585WR,Mook,Mook en Middelaar,Limburg,VBO,5.885147,51.752240
Kleineblokstraat,4,,,6585WR,Mook,Mook en Middelaar,Limburg,VBO,5.885028,51.751884
Kleineblokstraat,5,,,6585WR,Mook,Mook en Middelaar,Limburg,VBO,5.885221,51.752276
Kleineblokstraat,6,,,6585WR,Mook,Mook en Middelaar,Limburg,VBO,5.885116,51.751917
Kleineblokstraat,7,,,6585WR,Mook,Mook en Middelaar,Limburg,VBO,5.885363,51.752345
Kleineblokstraat,8,,,6585WR,Mook,Mook en Middelaar,Limburg,VBO,5.885203,51.751951
Kleineblokstraat,9,,,6585WR,Mook,Mook en Middelaar,Limburg,VBO,5.885438,51.752382
Kleineblokstraat,10,a,,6585WR,Mook,Mook en Middelaar,Limburg,VBO,5.885586,51.751949
Kleineblokstraat,10,,,6585WR,Mook,Mook en Middelaar,Limburg,VBO,5.885388,51.752073
Kleineblokstraat,11,,,6585WR,Mook,Mook en Middelaar,Limburg,VBO,5.885577,51.752449
Kleineblokstraat,12,,,6585WR,Mook,Mook en Middelaar,Limburg,VBO,5.885475,51.752108
Kleineblokstraat,13,,,6585WR,Mook,Mook en Middelaar,Limburg,VBO,5.885648,51.752484
Kleineblokstraat,15,,,6585WR,Mook,Mook en Middelaar,Limburg,VBO,5.885790,51.752553
Kleineblokstraat,17,,,6585WR,Mook,Mook en Middelaar,Limburg,VBO,5.885864,51.752589
St. Janstraat,1,,,6585WS,Mook,Mook en Middelaar,Limburg,VBO,5.885216,51.751566
St. Janstraat,2,,,6585WS,Mook,Mook en Middelaar,Limburg,VBO,5.885817,51.751598
St. Janstraat,3,,,6585WS,Mook,Mook en Middelaar,Limburg,VBO,5.885300,51.751598
St. Janstraat,4,,,6585WS,Mook,Mook en Middelaar,Limburg,VBO,5.885900,51.751639
St. Janstraat,5,,,6585WS,Mook,Mook en Middelaar,Limburg,VBO,5.885483,51.751719
St. Janstraat,7,,,6585WS,Mook,Mook en Middelaar,Limburg,VBO,5.885569,51.751754
St. Janstraat,9,,,6585WS,Mook,Mook en Middelaar,Limburg,VBO,5.885655,51.751788
St. Janstraat,11,,,6585WS,Mook,Mook en Middelaar,Limburg,VBO,5.885738,51.751821
St. Antoniusstraat,1,,,6585WT,Mook,Mook en Middelaar,Limburg,VBO,5.885765,51.752228
St. Antoniusstraat,3,,,6585WT,Mook,Mook en Middelaar,Limburg,VBO,5.885817,51.752179
St. Antoniusstraat,5,,,6585WT,Mook,Mook en Middelaar,Limburg,VBO,5.885919,51.752084
St. Antoniusstraat,7,,,6585WT,Mook,Mook en Middelaar,Limburg,VBO,5.885973,51.752033
St. Antoniusstraat,9,,,6585WT,Mook,Mook en Middelaar,Limburg,VBO,5.886075,51.751937
St. Antoniusstraat,11,,,6585WT,Mook,Mook en Middelaar,Limburg,VBO,5.886126,51.751888
St. Antoniusstraat,13,,,6585WT,Mook,Mook en Middelaar,Limburg,VBO,5.886225,51.751795
St. Antoniusstraat,15,,,6585WT,Mook,Mook en Middelaar,Limburg,VBO,5.886280,51.751744
St. Antoniusstraat,17,,,6585WT,Mook,Mook en Middelaar,Limburg,VBO,5.886439,51.751668
St. Antoniusstraat,19,,,6585WT,Mook,Mook en Middelaar,Limburg,VBO,5.886493,51.751623
St. Antoniusstraat,21,,,6585WT,Mook,Mook en Middelaar,Limburg,VBO,5.886607,51.751528
St. Antoniusstraat,23,,,6585WT,Mook,Mook en Middelaar,Limburg,VBO,5.886658,51.751485
St. Antoniusstraat,25,,,6585WT,Mook,Mook en Middelaar,Limburg,VBO,5.886772,51.751390
St. Antoniusstraat,27,,,6585WT,Mook,Mook en Middelaar,Limburg,VBO,5.886826,51.751345
St. Antoniusstraat,29,,,6585WV,Mook,Mook en Middelaar,Limburg,VBO,5.887010,51.751282
St. Antoniusstraat,31,,,6585WV,Mook,Mook en Middelaar,Limburg,VBO,5.887066,51.751236
St. Antoniusstraat,33,,,6585WV,Mook,Mook en Middelaar,Limburg,VBO,5.887178,51.751142
St. Antoniusstraat,35,,,6585WV,Mook,Mook en Middelaar,Limburg,VBO,5.887231,51.751098
St. Antoniusstraat,37,,,6585WV,Mook,Mook en Middelaar,Limburg,VBO,5.887344,51.751002
St. Antoniusstraat,39,,,6585WV,Mook,Mook en Middelaar,Limburg,VBO,5.887398,51.750958
St. Antoniusstraat,41,,,6585WV,Mook,Mook en Middelaar,Limburg,VBO,5.887516,51.750861
St. Antoniusstraat,43,,,6585WV,Mook,Mook en Middelaar,Limburg,VBO,5.887566,51.750819
St. Antoniusstraat,45,,,6585WV,Mook,Mook en Middelaar,Limburg,VBO,5.888196,51.750222
St. Antoniusstraat,47,,,6585WV,Mook,Mook en Middelaar,Limburg,VBO,5.888253,51.750176
St. Antoniusstraat,49,,,6585WV,Mook,Mook en Middelaar,Limburg,VBO,5.888386,51.750069
St. Antoniusstraat,51,,,6585WV,Mook,Mook en Middelaar,Limburg,VBO,5.888446,51.750021
St. Antoniusstraat,53,,,6585WV,Mook,Mook en Middelaar,Limburg,VBO,5.888577,51.749916
St. Antoniusstraat,55,,,6585WV,Mook,Mook en Middelaar,Limburg,VBO,5.888634,51.749870
St. Antoniusstraat,2,,,6585WX,Mook,Mook en Middelaar,Limburg,VBO,5.886154,51.751447
St. Antoniusstraat,4,,,6585WX,Mook,Mook en Middelaar,Limburg,VBO,5.886210,51.751404
St. Antoniusstraat,6,,,6585WX,Mook,Mook en Middelaar,Limburg,VBO,5.886320,51.751318
St. Antoniusstraat,8,,,6585WX,Mook,Mook en Middelaar,Limburg,VBO,5.886375,51.751274
St. Antoniusstraat,10,,,6585WX,Mook,Mook en Middelaar,Limburg,VBO,5.886490,51.751184
St. Antoniusstraat,12,,,6585WX,Mook,Mook en Middelaar,Limburg,VBO,5.886545,51.751141
St. Antoniusstraat,14,,,6585WX,Mook,Mook en Middelaar,Limburg,VBO,5.886655,51.751055
St. Antoniusstraat,16,,,6585WX,Mook,Mook en Middelaar,Limburg,VBO,5.886711,51.751011
St. Antoniusstraat,18,,,6585WX,Mook,Mook en Middelaar,Limburg,VBO,5.886855,51.750942
St. Antoniusstraat,20,,,6585WX,Mook,Mook en Middelaar,Limburg,VBO,5.886911,51.750896
St. Antoniusstraat,22,,,6585WX,Mook,Mook en Middelaar,Limburg,VBO,5.887054,51.750824
St. Antoniusstraat,24,,,6585WX,Mook,Mook en Middelaar,Limburg,VBO,5.887107,51.750780
St. Antoniusstraat,26,,,6585WX,Mook,Mook en Middelaar,Limburg,VBO,5.887249,51.750709
St. Antoniusstraat,28,,,6585WX,Mook,Mook en Middelaar,Limburg,VBO,5.887302,51.750664
St. Antoniusstraat,30,,,6585WZ,Mook,Mook en Middelaar,Limburg,VBO,5.887959,51.750111
St. Antoniusstraat,32,,,6585WZ,Mook,Mook en Middelaar,Limburg,VBO,5.888016,51.750065
St. Antoniusstraat,34,,,6585WZ,Mook,Mook en Middelaar,Limburg,VBO,5.888126,51.749976
St. Antoniusstraat,36,,,6585WZ,Mook,Mook en Middelaar,Limburg,VBO,5.888183,51.749930
St. Antoniusstraat,38,,,6585WZ,Mook,Mook en Middelaar,Limburg,VBO,5.888293,51.749842
St. Antoniusstraat,40,,,6585WZ,Mook,Mook en Middelaar,Limburg,VBO,5.888351,51.749795
St. Antoniusstraat,42,,,6585WZ,Mook,Mook en Middelaar,Limburg,VBO,5.888461,51.749707
St. Antoniusstraat,44,,,6585WZ,Mook,Mook en Middelaar,Limburg,VBO,5.888518,51.749661
St. Antoniusstraat,46,,,6585WZ,Mook,Mook en Middelaar,Limburg,VBO,5.888680,51.749591
St. Antoniusstraat,48,,,6585WZ,Mook,Mook en Middelaar,Limburg,VBO,5.888755,51.749625
St. Antoniusstraat,50,,,6585WZ,Mook,Mook en Middelaar,Limburg,VBO,5.888882,51.749700
St. Antoniusstraat,52,,,6585WZ,Mook,Mook en Middelaar,Limburg,VBO,5.888957,51.749734
St. Antoniusstraat,54,,,6585WZ,Mook,Mook en Middelaar,Limburg,VBO,5.889096,51.749798
St. Antoniusstraat,56,,,6585WZ,Mook,Mook en Middelaar,Limburg,VBO,5.889172,51.749833
Slakkehuis,1,,,6585XA,Mook,Mook en Middelaar,Limburg,VBO,5.879448,51.753620
Slakkehuis,2,,,6585XA,Mook,Mook en Middelaar,Limburg,VBO,5.880063,51.753801
Slakkehuis,3,,,6585XA,Mook,Mook en Middelaar,Limburg,VBO,5.879489,51.753649
Slakkehuis,4,,,6585XA,Mook,Mook en Middelaar,Limburg,VBO,5.880051,51.753918
Slakkehuis,5,,,6585XA,Mook,Mook en Middelaar,Limburg,VBO,5.879522,51.753675
Slakkehuis,7,,,6585XA,Mook,Mook en Middelaar,Limburg,VBO,5.879560,51.753694
Slakkehuis,9,,,6585XA,Mook,Mook en Middelaar,Limburg,VBO,5.879278,51.753869
Slakkehuis,11,,,6585XA,Mook,Mook en Middelaar,Limburg,VBO,5.879247,51.753850
Slakkehuis,13,,,6585XA,Mook,Mook en Middelaar,Limburg,VBO,5.879211,51.753827
Slakkehuis,15,,,6585XA,Mook,Mook en Middelaar,Limburg,VBO,5.879167,51.753800
Slakkehuis,17,,,6585XA,Mook,Mook en Middelaar,Limburg,VBO,5.879128,51.753776
Gulikstraat,2,,,6585XB,Mook,Mook en Middelaar,Limburg,VBO,5.879319,51.754192
Gulikstraat,3,,,6585XB,Mook,Mook en Middelaar,Limburg,VBO,5.879091,51.753951
Gulikstraat,4,,,6585XB,Mook,Mook en Middelaar,Limburg,VBO,5.879274,51.754253
Gulikstraat,5,,,6585XB,Mook,Mook en Middelaar,Limburg,VBO,5.879041,51.753994
Gulikstraat,6,,,6585XB,Mook,Mook en Middelaar,Limburg,VBO,5.879285,51.754297
Gulikstraat,7,,,6585XB,Mook,Mook en Middelaar,Limburg,VBO,5.878939,51.754081
Gulikstraat,8,,,6585XB,Mook,Mook en Middelaar,Limburg,VBO,5.879351,51.754397
Gulikstraat,9,,,6585XB,Mook,Mook en Middelaar,Limburg,VBO,5.878889,51.754124
Gulikstraat,11,,,6585XB,Mook,Mook en Middelaar,Limburg,VBO,5.878789,51.754210
Gulikstraat,13,,,6585XB,Mook,Mook en Middelaar,Limburg,VBO,5.878741,51.754250
Gulikstraat,15,,,6585XB,Mook,Mook en Middelaar,Limburg,VBO,5.878695,51.754363
Gulikstraat,17,,,6585XB,Mook,Mook en Middelaar,Limburg,VBO,5.878646,51.754406
Gulikstraat,19,,,6585XB,Mook,Mook en Middelaar,Limburg,VBO,5.878505,51.754532
Gulikstraat,21,,,6585XB,Mook,Mook en Middelaar,Limburg,VBO,5.878979,51.754497
Gulikstraat,23,,,6585XB,Mook,Mook en Middelaar,Limburg,VBO,5.878962,51.754511
Gulikstraat,25,,,6585XB,Mook,Mook en Middelaar,Limburg,VBO,5.879062,51.754534
Gulikstraat,27,,,6585XB,Mook,Mook en Middelaar,Limburg,VBO,5.879045,51.754549
Gulikstraat,29,,,6585XB,Mook,Mook en Middelaar,Limburg,VBO,5.879136,51.754567
Gulikstraat,31,,,6585XB,Mook,Mook en Middelaar,Limburg,VBO,5.879119,51.754582
Gulikstraat,33,,,6585XB,Mook,Mook en Middelaar,Limburg,VBO,5.879219,51.754604
Gulikstraat,35,,,6585XB,Mook,Mook en Middelaar,Limburg,VBO,5.879202,51.754619
Gulikstraat,37,,,6585XB,Mook,Mook en Middelaar,Limburg,VBO,5.879284,51.754633
Gulikstraat,39,,,6585XB,Mook,Mook en Middelaar,Limburg,VBO,5.879267,51.754648
Romeinenstraat,1,,,6585XC,Mook,Mook en Middelaar,Limburg,VBO,5.879689,51.755619
Romeinenstraat,2,,,6585XC,Mook,Mook en Middelaar,Limburg,VBO,5.880071,51.755826
Romeinenstraat,3,,,6585XC,Mook,Mook en Middelaar,Limburg,VBO,5.879607,51.755691
Romeinenstraat,4,,,6585XC,Mook,Mook en Middelaar,Limburg,VBO,5.880023,51.755865
Romeinenstraat,5,,,6585XC,Mook,Mook en Middelaar,Limburg,VBO,5.879564,51.755727
Romeinenstraat,6,,,6585XC,Mook,Mook en Middelaar,Limburg,VBO,5.879976,51.755905
Romeinenstraat,7,,,6585XC,Mook,Mook en Middelaar,Limburg,VBO,5.879470,51.755809
Romeinenstraat,8,,,6585XC,Mook,Mook en Middelaar,Limburg,VBO,5.879911,51.755967
Romeinenstraat,9,,,6585XC,Mook,Mook en Middelaar,Limburg,VBO,5.879428,51.755845
Romeinenstraat,10,,,6585XC,Mook,Mook en Middelaar,Limburg,VBO,5.879860,51.756007
Romeinenstraat,11,,,6585XC,Mook,Mook en Middelaar,Limburg,VBO,5.879331,51.755928
Romeinenstraat,12,,,6585XC,Mook,Mook en Middelaar,Limburg,VBO,5.879814,51.756047
Romeinenstraat,13,,,6585XC,Mook,Mook en Middelaar,Limburg,VBO,5.879277,51.755993
Romeinenstraat,14,,,6585XC,Mook,Mook en Middelaar,Limburg,VBO,5.879768,51.756087
Romeinenstraat,15,,,6585XC,Mook,Mook en Middelaar,Limburg,VBO,5.879222,51.756040
Romeinenstraat,16,,,6585XC,Mook,Mook en Middelaar,Limburg,VBO,5.879721,51.756127
Romeinenstraat,18,,,6585XC,Mook,Mook en Middelaar,Limburg,VBO,5.879641,51.756172
Romeinenstraat,20,,,6585XC,Mook,Mook en Middelaar,Limburg,VBO,5.879594,51.756211
Romeinenstraat,22,,,6585XC,Mook,Mook en Middelaar,Limburg,VBO,5.879551,51.756249
Romeinenstraat,24,,,6585XC,Mook,Mook en Middelaar,Limburg,VBO,5.879507,51.756287
Romeinenstraat,26,,,6585XC,Mook,Mook en Middelaar,Limburg,VBO,5.879463,51.756324
Romeinenstraat,28,,,6585XC,Mook,Mook en Middelaar,Limburg,VBO,5.879355,51.756417
Gouwenstraat,6,,,6585XD,Mook,Mook en Middelaar,Limburg,VBO,5.879703,51.753830
Gouwenstraat,8,,,6585XD,Mook,Mook en Middelaar,Limburg,VBO,5.879625,51.753957
Gouwenstraat,10,,,6585XD,Mook,Mook en Middelaar,Limburg,VBO,5.879667,51.754075
Gouwenstraat,12,,,6585XD,Mook,Mook en Middelaar,Limburg,VBO,5.879667,51.754130
Gouwenstraat,14,,,6585XD,Mook,Mook en Middelaar,Limburg,VBO,5.879667,51.754180
Gouwenstraat,16,,,6585XD,Mook,Mook en Middelaar,Limburg,VBO,5.879667,51.754218
Gouwenstraat,18,,,6585XD,Mook,Mook en Middelaar,Limburg,VBO,5.879689,51.754266
Gouwenstraat,20,,,6585XD,Mook,Mook en Middelaar,Limburg,VBO,5.879713,51.754337
Gouwenstraat,22,,,6585XD,Mook,Mook en Middelaar,Limburg,VBO,5.879668,51.754412
Gouwenstraat,24,,,6585XD,Mook,Mook en Middelaar,Limburg,VBO,5.879668,51.754468
Gouwenstraat,26,,,6585XD,Mook,Mook en Middelaar,Limburg,VBO,5.879668,51.754523
Gouwenstraat,28,,,6585XD,Mook,Mook en Middelaar,Limburg,VBO,5.879668,51.754579
Gouwenstraat,30,,,6585XD,Mook,Mook en Middelaar,Limburg,VBO,5.879668,51.754635
Gouwenstraat,32,,,6585XD,Mook,Mook en Middelaar,Limburg,VBO,5.879668,51.754702
Gouwenstraat,34,,,6585XD,Mook,Mook en Middelaar,Limburg,VBO,5.879668,51.754758
Gouwenstraat,36,,,6585XD,Mook,Mook en Middelaar,Limburg,VBO,5.879668,51.754802
Gouwenstraat,38,,,6585XD,Mook,Mook en Middelaar,Limburg,VBO,5.879669,51.754858
Gouwenstraat,40,,,6585XD,Mook,Mook en Middelaar,Limburg,VBO,5.879669,51.754914
Gouwenstraat,42,,,6585XD,Mook,Mook en Middelaar,Limburg,VBO,5.879614,51.754979
Gouwenstraat,44,,,6585XD,Mook,Mook en Middelaar,Limburg,VBO,5.879569,51.755024
Gouwenstraat,46,,,6585XD,Mook,Mook en Middelaar,Limburg,VBO,5.879528,51.755061
Gouwenstraat,48,,,6585XD,Mook,Mook en Middelaar,Limburg,VBO,5.879473,51.755094
Gouwenstraat,50,,,6585XD,Mook,Mook en Middelaar,Limburg,VBO,5.879442,51.755137
Gouwenstraat,52,,,6585XD,Mook,Mook en Middelaar,Limburg,VBO,5.879401,51.755173
Gouwenstraat,54,,,6585XD,Mook,Mook en Middelaar,Limburg,VBO,5.879347,51.755206
Gouwenstraat,56,,,6585XD,Mook,Mook en Middelaar,Limburg,VBO,5.878939,51.755596
Gouwenstraat,58,,,6585XD,Mook,Mook en Middelaar,Limburg,VBO,5.878963,51.755607
Gouwenstraat,60,,,6585XD,Mook,Mook en Middelaar,Limburg,VBO,5.878860,51.755649
Gouwenstraat,62,,,6585XD,Mook,Mook en Middelaar,Limburg,VBO,5.878884,51.755659
Gouwenstraat,64,,,6585XD,Mook,Mook en Middelaar,Limburg,VBO,5.878821,51.755682
Gouwenstraat,66,,,6585XD,Mook,Mook en Middelaar,Limburg,VBO,5.878845,51.755693
Gouwenstraat,68,,,6585XD,Mook,Mook en Middelaar,Limburg,VBO,5.878743,51.755749
Gouwenstraat,70,,,6585XD,Mook,Mook en Middelaar,Limburg,VBO,5.878766,51.755760
St. Adelbertstraat,1,,,6585XD,Mook,Mook en Middelaar,Limburg,VBO,5.887204,51.750360
St. Adelbertstraat,3,,,6585XD,Mook,Mook en Middelaar,Limburg,VBO,5.887273,51.750392
St. Adelbertstraat,5,,,6585XD,Mook,Mook en Middelaar,Limburg,VBO,5.887415,51.750458
St. Adelbertstraat,7,,,6585XD,Mook,Mook en Middelaar,Limburg,VBO,5.887487,51.750492
St. Adelbertstraat,9,,,6585XD,Mook,Mook en Middelaar,Limburg,VBO,5.887790,51.750634
St. Adelbertstraat,11,,,6585XD,Mook,Mook en Middelaar,Limburg,VBO,5.887860,51.750666
St. Adelbertstraat,13,,,6585XD,Mook,Mook en Middelaar,Limburg,VBO,5.887998,51.750731
St. Adelbertstraat,15,,,6585XD,Mook,Mook en Middelaar,Limburg,VBO,5.888071,51.750765
St. Adelbertstraat,17,,,6585XD,Mook,Mook en Middelaar,Limburg,VBO,5.888213,51.750831
St. Adelbertstraat,19,,,6585XD,Mook,Mook en Middelaar,Limburg,VBO,5.888286,51.750865
Gouwenstraat,1,,,6585XE,Mook,Mook en Middelaar,Limburg,VBO,5.879341,51.754881
Gouwenstraat,3,,,6585XE,Mook,Mook en Middelaar,Limburg,VBO,5.879270,51.754913
Gouwenstraat,5,,,6585XE,Mook,Mook en Middelaar,Limburg,VBO,5.879215,51.754960
Gouwenstraat,7,,,6585XE,Mook,Mook en Middelaar,Limburg,VBO,5.879186,51.755015
Gouwenstraat,9,,,6585XE,Mook,Mook en Middelaar,Limburg,VBO,5.878879,51.755202
Gouwenstraat,11,,,6585XE,Mook,Mook en Middelaar,Limburg,VBO,5.878838,51.755238
Gouwenstraat,13,,,6585XE,Mook,Mook en Middelaar,Limburg,VBO,5.878796,51.755274
Gouwenstraat,15,,,6585XE,Mook,Mook en Middelaar,Limburg,VBO,5.878752,51.755312
Gouwenstraat,17,,,6585XE,Mook,Mook en Middelaar,Limburg,VBO,5.878645,51.755370
Gouwenstraat,19,,,6585XE,Mook,Mook en Middelaar,Limburg,VBO,5.878600,51.755408
Gouwenstraat,21,,,6585XE,Mook,Mook en Middelaar,Limburg,VBO,5.878509,51.755486
Gouwenstraat,23,,,6585XE,Mook,Mook en Middelaar,Limburg,VBO,5.878467,51.755522
Gouwenstraat,25,,,6585XE,Mook,Mook en Middelaar,Limburg,VBO,5.878375,51.755601
Gouwenstraat,27,,,6585XE,Mook,Mook en Middelaar,Limburg,VBO,5.878331,51.755639
St. Adelbertstraat,2,,,6585XE,Mook,Mook en Middelaar,Limburg,VBO,5.887454,51.750116
St. Adelbertstraat,4,,,6585XE,Mook,Mook en Middelaar,Limburg,VBO,5.887529,51.750151
St. Adelbertstraat,6,,,6585XE,Mook,Mook en Middelaar,Limburg,VBO,5.887674,51.750219
St. Adelbertstraat,8,,,6585XE,Mook,Mook en Middelaar,Limburg,VBO,5.887748,51.750253
St. Adelbertstraat,10,,,6585XE,Mook,Mook en Middelaar,Limburg,VBO,5.888028,51.750384
St. Adelbertstraat,12,,,6585XE,Mook,Mook en Middelaar,Limburg,VBO,5.888104,51.750419
St. Adelbertstraat,14,,,6585XE,Mook,Mook en Middelaar,Limburg,VBO,5.888239,51.750482
St. Adelbertstraat,16,,,6585XE,Mook,Mook en Middelaar,Limburg,VBO,5.888314,51.750517
St. Adelbertstraat,18,,,6585XE,Mook,Mook en Middelaar,Limburg,VBO,5.888449,51.750580
St. Adelbertstraat,20,,,6585XE,Mook,Mook en Middelaar,Limburg,VBO,5.888527,51.750616
Mortel,1,a,,6585XG,Mook,Mook en Middelaar,Limburg,VBO,5.887508,51.749069
Mortel,1,b,,6585XG,Mook,Mook en Middelaar,Limburg,VBO,5.887552,51.749095
Mortel,1,c,,6585XG,Mook,Mook en Middelaar,Limburg,VBO,5.887596,51.749113
Mortel,1,d,,6585XG,Mook,Mook en Middelaar,Limburg,VBO,5.887640,51.749131
Mortel,1,,,6585XG,Mook,Mook en Middelaar,Limburg,VBO,5.887716,51.748844
Mortel,2,a,,6585XG,Mook,Mook en Middelaar,Limburg,VBO,5.888408,51.748891
Mortel,2,,,6585XG,Mook,Mook en Middelaar,Limburg,VBO,5.888301,51.748805
Mortel,3,,,6585XG,Mook,Mook en Middelaar,Limburg,VBO,5.887928,51.748977
Mortel,4,,,6585XG,Mook,Mook en Middelaar,Limburg,VBO,5.888549,51.748983
Mortel,5,,,6585XG,Mook,Mook en Middelaar,Limburg,VBO,5.888196,51.749107
Mortel,6,,,6585XG,Mook,Mook en Middelaar,Limburg,VBO,5.888779,51.749064
Mortel,7,,,6585XG,Mook,Mook en Middelaar,Limburg,VBO,5.888563,51.749242
Mortel,8,a,,6585XG,Mook,Mook en Middelaar,Limburg,VBO,5.888986,51.749095
Mortel,8,b,,6585XG,Mook,Mook en Middelaar,Limburg,VBO,5.889072,51.749103
Mortel,8,c,,6585XG,Mook,Mook en Middelaar,Limburg,VBO,5.889264,51.749135
Mortel,8,d,,6585XG,Mook,Mook en Middelaar,Limburg,VBO,5.889350,51.749134
Mortel,8,e,,6585XG,Mook,Mook en Middelaar,Limburg,VBO,5.889535,51.749121
Mortel,8,f,,6585XG,Mook,Mook en Middelaar,Limburg,VBO,5.889621,51.749120
Mortel,9,,,6585XG,Mook,Mook en Middelaar,Limburg,VBO,5.888835,51.749375
Mortel,10,,,6585XG,Mook,Mook en Middelaar,Limburg,VBO,5.890258,51.749036
Mortel,11,,,6585XG,Mook,Mook en Middelaar,Limburg,VBO,5.888988,51.749484
Mortel,12,,,6585XG,Mook,Mook en Middelaar,Limburg,VBO,5.890522,51.748926
Mortel,13,,,6585XG,Mook,Mook en Middelaar,Limburg,VBO,5.889138,51.749521
Mortel,14,,,6585XG,Mook,Mook en Middelaar,Limburg,VBO,5.890619,51.748909
Mortel,15,,,6585XG,Mook,Mook en Middelaar,Limburg,VBO,5.889306,51.749602
Mortel,16,,,6585XG,Mook,Mook en Middelaar,Limburg,VBO,5.890810,51.748800
Mortel,17,,,6585XG,Mook,Mook en Middelaar,Limburg,VBO,5.889829,51.749592
Mortel,19,,,6585XG,Mook,Mook en Middelaar,Limburg,VBO,5.890244,51.749528
Mortel,21,,,6585XG,Mook,Mook en Middelaar,Limburg,VBO,5.890569,51.749426
Mortel,22,,,6585XG,Mook,Mook en Middelaar,Limburg,VBO,5.891036,51.748508
Mortel,23,,,6585XG,Mook,Mook en Middelaar,Limburg,VBO,5.890793,51.749345
Mortel,25,,,6585XG,Mook,Mook en Middelaar,Limburg,VBO,5.890709,51.749063
Mortel,27,a,,6585XG,Mook,Mook en Middelaar,Limburg,VBO,5.890864,51.749231
Mortel,27,b,,6585XG,Mook,Mook en Middelaar,Limburg,VBO,5.891008,51.749243
Mortel,27,,,6585XG,Mook,Mook en Middelaar,Limburg,VBO,5.890923,51.749124
Mortel,31,,,6585XG,Mook,Mook en Middelaar,Limburg,VBO,5.891211,51.748685
Mortel,33,,,6585XG,Mook,Mook en Middelaar,Limburg,VBO,5.891646,51.748380
Pastoor Fabritiusstraat,1,,,6585XH,Mook,Mook en Middelaar,Limburg,VBO,5.884686,51.752138
Pastoor Fabritiusstraat,3,,,6585XH,Mook,Mook en Middelaar,Limburg,VBO,5.884793,51.752082
Pastoor Fabritiusstraat,19,,,6585XH,Mook,Mook en Middelaar,Limburg,VBO,5.885437,51.751411
Pastoor Fabritiusstraat,21,,,6585XH,Mook,Mook en Middelaar,Limburg,VBO,5.885495,51.751365
Pastoor Fabritiusstraat,23,,,6585XH,Mook,Mook en Middelaar,Limburg,VBO,5.885603,51.751278
Pastoor Fabritiusstraat,25,,,6585XH,Mook,Mook en Middelaar,Limburg,VBO,5.885661,51.751231
Pastoor Fabritiusstraat,27,,,6585XH,Mook,Mook en Middelaar,Limburg,VBO,5.885771,51.751142
Pastoor Fabritiusstraat,29,,,6585XH,Mook,Mook en Middelaar,Limburg,VBO,5.885829,51.751095
Pastoor Fabritiusstraat,31,,,6585XH,Mook,Mook en Middelaar,Limburg,VBO,5.885942,51.751004
Pastoor Fabritiusstraat,33,,,6585XH,Mook,Mook en Middelaar,Limburg,VBO,5.885998,51.750959
Pastoor Fabritiusstraat,35,,,6585XH,Mook,Mook en Middelaar,Limburg,VBO,5.886143,51.750842
Pastoor Fabritiusstraat,37,,,6585XH,Mook,Mook en Middelaar,Limburg,VBO,5.886307,51.750710
Pastoor Fabritiusstraat,39,,,6585XH,Mook,Mook en Middelaar,Limburg,VBO,5.886376,51.750654
Pastoor Fabritiusstraat,41,,,6585XH,Mook,Mook en Middelaar,Limburg,VBO,5.886503,51.750551
Pastoor Fabritiusstraat,43,,,6585XH,Mook,Mook en Middelaar,Limburg,VBO,5.886666,51.750429
Pastoor Fabritiusstraat,45,,,6585XH,Mook,Mook en Middelaar,Limburg,VBO,5.886893,51.750243
Pastoor Fabritiusstraat,47,,,6585XJ,Mook,Mook en Middelaar,Limburg,VBO,5.887224,51.750012
Pastoor Fabritiusstraat,49,,,6585XJ,Mook,Mook en Middelaar,Limburg,VBO,5.887284,51.749968
Pastoor Fabritiusstraat,51,,,6585XJ,Mook,Mook en Middelaar,Limburg,VBO,5.887451,51.749865
Pastoor Fabritiusstraat,53,,,6585XJ,Mook,Mook en Middelaar,Limburg,VBO,5.887530,51.749818
Pastoor Fabritiusstraat,55,,,6585XJ,Mook,Mook en Middelaar,Limburg,VBO,5.887739,51.749706
Pastoor Fabritiusstraat,57,,,6585XJ,Mook,Mook en Middelaar,Limburg,VBO,5.887828,51.749662
Pastoor Fabritiusstraat,59,,,6585XJ,Mook,Mook en Middelaar,Limburg,VBO,5.888081,51.749585
Pastoor Fabritiusstraat,61,,,6585XJ,Mook,Mook en Middelaar,Limburg,VBO,5.888307,51.749423
Pastoor Fabritiusstraat,2,,,6585XK,Mook,Mook en Middelaar,Limburg,VBO,5.883992,51.752327
Pastoor Fabritiusstraat,4,,,6585XK,Mook,Mook en Middelaar,Limburg,VBO,5.884290,51.752136
Pastoor Fabritiusstraat,6,,,6585XK,Mook,Mook en Middelaar,Limburg,VBO,5.884356,51.751956
Pastoor Fabritiusstraat,8,,,6585XK,Mook,Mook en Middelaar,Limburg,VBO,5.884512,51.751833
Pastoor Fabritiusstraat,10,,,6585XK,Mook,Mook en Middelaar,Limburg,VBO,5.884648,51.751669
Pastoor Fabritiusstraat,12,,,6585XK,Mook,Mook en Middelaar,Limburg,VBO,5.884766,51.751542
Pastoor Fabritiusstraat,14,a,,6585XK,Mook,Mook en Middelaar,Limburg,VBO,5.884962,51.751274
Pastoor Fabritiusstraat,14,,,6585XK,Mook,Mook en Middelaar,Limburg,VBO,5.884922,51.751391
Pastoor Fabritiusstraat,22,,,6585XK,Mook,Mook en Middelaar,Limburg,VBO,5.885858,51.750635
Pastoor Fabritiusstraat,24,,,6585XK,Mook,Mook en Middelaar,Limburg,VBO,5.885916,51.750588
Pastoor Fabritiusstraat,26,,,6585XK,Mook,Mook en Middelaar,Limburg,VBO,5.886032,51.750494
Pastoor Fabritiusstraat,28,,,6585XK,Mook,Mook en Middelaar,Limburg,VBO,5.886101,51.750439
Pastoor Fabritiusstraat,30,,,6585XK,Mook,Mook en Middelaar,Limburg,VBO,5.886225,51.750339
Pastoor Fabritiusstraat,32,,,6585XK,Mook,Mook en Middelaar,Limburg,VBO,5.886295,51.750284
Pastoor Fabritiusstraat,34,,,6585XK,Mook,Mook en Middelaar,Limburg,VBO,5.886575,51.750053
Pastoor Fabritiusstraat,40,,,6585XL,Mook,Mook en Middelaar,Limburg,VBO,5.887138,51.749676
Pastoor Fabritiusstraat,42,,,6585XL,Mook,Mook en Middelaar,Limburg,VBO,5.887237,51.749621
Pastoor Fabritiusstraat,44,,,6585XL,Mook,Mook en Middelaar,Limburg,VBO,5.887391,51.749538
Pastoor Fabritiusstraat,46,,,6585XL,Mook,Mook en Middelaar,Limburg,VBO,5.887479,51.749494
Pastoor Fabritiusstraat,48,,,6585XL,Mook,Mook en Middelaar,Limburg,VBO,5.887615,51.749376
Pastoor Fabritiusstraat,50,,,6585XL,Mook,Mook en Middelaar,Limburg,VBO,5.887695,51.749330
Pastoor Fabritiusstraat,52,,,6585XL,Mook,Mook en Middelaar,Limburg,VBO,5.887934,51.749271
Pastoor Fabritiusstraat,54,,,6585XL,Mook,Mook en Middelaar,Limburg,VBO,5.888020,51.749229
Prins Bernhardstraat,2,,,6585XM,Mook,Mook en Middelaar,Limburg,VBO,5.886272,51.749431
Prins Bernhardstraat,4,,,6585XM,Mook,Mook en Middelaar,Limburg,VBO,5.886321,51.749477
Prins Bernhardstraat,6,,,6585XM,Mook,Mook en Middelaar,Limburg,VBO,5.886443,51.749575
Prins Bernhardstraat,8,,,6585XM,Mook,Mook en Middelaar,Limburg,VBO,5.886504,51.749615
Prins Bernhardstraat,9,,,6585XM,Mook,Mook en Middelaar,Limburg,VBO,5.886269,51.749853
Prins Bernhardstraat,10,,,6585XM,Mook,Mook en Middelaar,Limburg,VBO,5.886676,51.749729
Prins Bernhardstraat,11,,,6585XM,Mook,Mook en Middelaar,Limburg,VBO,5.886492,51.750001
Prins Bernhardstraat,12,,,6585XM,Mook,Mook en Middelaar,Limburg,VBO,5.886846,51.749841
Prinses Beatrixstraat,2,,,6585XN,Mook,Mook en Middelaar,Limburg,VBO,5.884062,51.750037
Prinses Beatrixstraat,4,a,,6585XN,Mook,Mook en Middelaar,Limburg,VBO,5.883953,51.750025
Prinses Beatrixstraat,4,b,,6585XN,Mook,Mook en Middelaar,Limburg,VBO,5.884018,51.750054
Prinses Beatrixstraat,4,c,,6585XN,Mook,Mook en Middelaar,Limburg,VBO,5.884068,51.750099
Prinses Beatrixstraat,4,,,6585XN,Mook,Mook en Middelaar,Limburg,VBO,5.883892,51.749983
Prinses Beatrixstraat,5,,,6585XN,Mook,Mook en Middelaar,Limburg,VBO,5.885377,51.750977
Prinses Beatrixstraat,6,,,6585XN,Mook,Mook en Middelaar,Limburg,VBO,5.884248,51.750177
Prinses Beatrixstraat,7,,,6585XN,Mook,Mook en Middelaar,Limburg,VBO,5.885245,51.751084
Prinses Beatrixstraat,8,,,6585XN,Mook,Mook en Middelaar,Limburg,VBO,5.884434,51.750258
Prinses Beatrixstraat,10,,,6585XN,Mook,Mook en Middelaar,Limburg,VBO,5.884518,51.750294
Prinses Beatrixstraat,12,,,6585XN,Mook,Mook en Middelaar,Limburg,VBO,5.884955,51.750474
Prinses Beatrixstraat,13,,,6585XN,Mook,Mook en Middelaar,Limburg,VBO,5.884779,51.751051
Prinses Beatrixstraat,14,,,6585XN,Mook,Mook en Middelaar,Limburg,VBO,5.885136,51.750560
Prinses Beatrixstraat,15,,,6585XN,Mook,Mook en Middelaar,Limburg,VBO,5.884958,51.750906
Prinses Beatrixstraat,16,,,6585XN,Mook,Mook en Middelaar,Limburg,VBO,5.885309,51.750643
Prinses Beatrixstraat,17,,,6585XN,Mook,Mook en Middelaar,Limburg,VBO,5.885142,51.750865
Prinses Beatrixstraat,18,,,6585XN,Mook,Mook en Middelaar,Limburg,VBO,5.885467,51.750718
Prinses Beatrixstraat,19,,,6585XN,Mook,Mook en Middelaar,Limburg,VBO,5.885218,51.750901
Prinses Beatrixstraat,20,,,6585XN,Mook,Mook en Middelaar,Limburg,VBO,5.885646,51.750803
Koningin Julianastraat,1,,,6585XP,Mook,Mook en Middelaar,Limburg,VBO,5.883233,51.751815
Koningin Julianastraat,3,a,,6585XP,Mook,Mook en Middelaar,Limburg,VBO,5.883838,51.751559
Koningin Julianastraat,3,b,,6585XP,Mook,Mook en Middelaar,Limburg,VBO,5.883758,51.751588
Koningin Julianastraat,3,,,6585XP,Mook,Mook en Middelaar,Limburg,VBO,5.883734,51.751578
Koningin Julianastraat,5,a,,6585XP,Mook,Mook en Middelaar,Limburg,VBO,5.884346,51.751115
Koningin Julianastraat,5,,,6585XP,Mook,Mook en Middelaar,Limburg,VBO,5.883959,51.751250
Koningin Julianastraat,7,,,6585XP,Mook,Mook en Middelaar,Limburg,VBO,5.885188,51.750316
Koningin Julianastraat,9,,,6585XP,Mook,Mook en Middelaar,Limburg,VBO,5.885262,51.750279
Koningin Julianastraat,11,,,6585XP,Mook,Mook en Middelaar,Limburg,VBO,5.885400,51.750209
Koningin Julianastraat,13,,,6585XP,Mook,Mook en Middelaar,Limburg,VBO,5.885471,51.750173
Koningin Julianastraat,15,,,6585XP,Mook,Mook en Middelaar,Limburg,VBO,5.885613,51.750102
Koningin Julianastraat,17,,,6585XP,Mook,Mook en Middelaar,Limburg,VBO,5.885687,51.750065
Koningin Julianastraat,19,,,6585XP,Mook,Mook en Middelaar,Limburg,VBO,5.885828,51.749993
Koningin Julianastraat,21,,,6585XP,Mook,Mook en Middelaar,Limburg,VBO,5.885903,51.749956
Koningin Julianastraat,23,,,6585XP,Mook,Mook en Middelaar,Limburg,VBO,5.886174,51.749823
Koningin Julianastraat,4,,,6585XR,Mook,Mook en Middelaar,Limburg,VBO,5.883382,51.751243
Koningin Julianastraat,6,,,6585XR,Mook,Mook en Middelaar,Limburg,VBO,5.883545,51.751137
Koningin Julianastraat,8,,,6585XR,Mook,Mook en Middelaar,Limburg,VBO,5.883708,51.750994
Koningin Julianastraat,10,,,6585XR,Mook,Mook en Middelaar,Limburg,VBO,5.883834,51.750885
Koningin Julianastraat,12,a,,6585XR,Mook,Mook en Middelaar,Limburg,VBO,5.884094,51.750624
Koningin Julianastraat,12,,,6585XR,Mook,Mook en Middelaar,Limburg,VBO,5.883942,51.750758
Koningin Julianastraat,14,,,6585XR,Mook,Mook en Middelaar,Limburg,VBO,5.884868,51.750153
Koningin Julianastraat,16,,,6585XR,Mook,Mook en Middelaar,Limburg,VBO,5.884942,51.750116
Koningin Julianastraat,18,,,6585XR,Mook,Mook en Middelaar,Limburg,VBO,5.885084,51.750045
Koningin Julianastraat,20,,,6585XR,Mook,Mook en Middelaar,Limburg,VBO,5.885161,51.750006
Koningin Julianastraat,22,,,6585XR,Mook,Mook en Middelaar,Limburg,VBO,5.885334,51.749920
Koningin Julianastraat,24,,,6585XR,Mook,Mook en Middelaar,Limburg,VBO,5.885407,51.749883
Koningin Julianastraat,26,,,6585XR,Mook,Mook en Middelaar,Limburg,VBO,5.885553,51.749809
Koningin Julianastraat,28,,,6585XR,Mook,Mook en Middelaar,Limburg,VBO,5.885701,51.749737
Koningin Julianastraat,30,,,6585XR,Mook,Mook en Middelaar,Limburg,VBO,5.885851,51.749661
Koningin Julianastraat,32,,,6585XR,Mook,Mook en Middelaar,Limburg,VBO,5.885926,51.749623
Graaf Gerardstraat,1,,,6585XS,Mook,Mook en Middelaar,Limburg,VBO,5.881824,51.752527
Graaf Gerardstraat,2,,,6585XS,Mook,Mook en Middelaar,Limburg,VBO,5.882406,51.752392
Graaf Gerardstraat,3,,,6585XS,Mook,Mook en Middelaar,Limburg,VBO,5.882072,51.752616
Graaf Gerardstraat,5,,,6585XS,Mook,Mook en Middelaar,Limburg,VBO,5.882427,51.752746
Graaf Gerardstraat,6,,,6585XS,Mook,Mook en Middelaar,Limburg,VBO,5.882691,51.752556
Graaf Gerardstraat,7,,,6585XS,Mook,Mook en Middelaar,Limburg,VBO,5.883063,51.752964
Graaf Gerardstraat,8,,,6585XS,Mook,Mook en Middelaar,Limburg,VBO,5.883014,51.752672
Graaf Gerardstraat,10,,,6585XS,Mook,Mook en Middelaar,Limburg,VBO,5.883357,51.752795
Hijlekamp,1,,,6585XT,Mook,Mook en Middelaar,Limburg,VBO,5.882378,51.752958
Hijlekamp,2,,,6585XT,Mook,Mook en Middelaar,Limburg,VBO,5.882910,51.753099
Hijlekamp,3,,,6585XT,Mook,Mook en Middelaar,Limburg,VBO,5.882121,51.753155
Hijlekamp,4,,,6585XT,Mook,Mook en Middelaar,Limburg,VBO,5.882834,51.753305
Hijlekamp,5,,,6585XT,Mook,Mook en Middelaar,Limburg,VBO,5.881943,51.753390
Hijlekamp,6,,,6585XT,Mook,Mook en Middelaar,Limburg,VBO,5.882686,51.753459
Hijlekamp,8,,,6585XT,Mook,Mook en Middelaar,Limburg,VBO,5.882650,51.753749
Hijlekamp,9,,,6585XT,Mook,Mook en Middelaar,Limburg,VBO,5.882131,51.753715
Hijlekamp,10,,,6585XT,Mook,Mook en Middelaar,Limburg,VBO,5.882428,51.753890
Hijlekamp,11,,,6585XT,Mook,Mook en Middelaar,Limburg,VBO,5.881890,51.753918
Hijlekamp,12,,,6585XT,Mook,Mook en Middelaar,Limburg,VBO,5.882248,51.754061
Overkwartierstraat,2,,,6585XV,Mook,Mook en Middelaar,Limburg,VBO,5.879762,51.753383
Overkwartierstraat,3,,,6585XV,Mook,Mook en Middelaar,Limburg,VBO,5.881042,51.754083
Overkwartierstraat,4,,,6585XV,Mook,Mook en Middelaar,Limburg,VBO,5.879883,51.753315
Overkwartierstraat,5,,,6585XV,Mook,Mook en Middelaar,Limburg,VBO,5.881455,51.754251
Overkwartierstraat,6,,,6585XV,Mook,Mook en Middelaar,Limburg,VBO,5.880101,51.753400
Overkwartierstraat,7,,,6585XV,Mook,Mook en Middelaar,Limburg,VBO,5.881160,51.754531
Overkwartierstraat,8,,,6585XV,Mook,Mook en Middelaar,Limburg,VBO,5.880917,51.753676
Overkwartierstraat,9,,,6585XV,Mook,Mook en Middelaar,Limburg,VBO,5.881479,51.754635
Overkwartierstraat,10,,,6585XV,Mook,Mook en Middelaar,Limburg,VBO,5.881210,51.753763
Overkwartierstraat,11,a,,6585XV,Mook,Mook en Middelaar,Limburg,VBO,5.881899,51.754506
Overkwartierstraat,11,,,6585XV,Mook,Mook en Middelaar,Limburg,VBO,5.881783,51.754402
Overkwartierstraat,12,,,6585XV,Mook,Mook en Middelaar,Limburg,VBO,5.881531,51.753859
Gelrestraat,1,,,6585XW,Mook,Mook en Middelaar,Limburg,VBO,5.882306,51.751823
Gelrestraat,3,,,6585XW,Mook,Mook en Middelaar,Limburg,VBO,5.882075,51.751989
Gelrestraat,5,a,,6585XW,Mook,Mook en Middelaar,Limburg,VBO,5.881846,51.752122
Gelrestraat,5,,,6585XW,Mook,Mook en Middelaar,Limburg,VBO,5.881920,51.752102
Gelrestraat,7,a,,6585XW,Mook,Mook en Middelaar,Limburg,VBO,5.881592,51.752270
Gelrestraat,7,b,,6585XW,Mook,Mook en Middelaar,Limburg,VBO,5.881554,51.752367
Gelrestraat,7,c,,6585XW,Mook,Mook en Middelaar,Limburg,VBO,5.881505,51.752403
Gelrestraat,7,d,,6585XW,Mook,Mook en Middelaar,Limburg,VBO,5.881403,51.752477
Gelrestraat,7,,,6585XW,Mook,Mook en Middelaar,Limburg,VBO,5.881699,51.752229
Gelrestraat,9,a,,6585XW,Mook,Mook en Middelaar,Limburg,VBO,5.881152,51.752658
Gelrestraat,9,,,6585XW,Mook,Mook en Middelaar,Limburg,VBO,5.881269,51.752574
Gelrestraat,11,,,6585XW,Mook,Mook en Middelaar,Limburg,VBO,5.881000,51.752833
Gelrestraat,13,,,6585XW,Mook,Mook en Middelaar,Limburg,VBO,5.880892,51.753018
Gelrestraat,15,,,6585XW,Mook,Mook en Middelaar,Limburg,VBO,5.880786,51.753165
Gelrestraat,17,a,,6585XW,Mook,Mook en Middelaar,Limburg,VBO,5.880318,51.753867
Gelrestraat,17,b,,6585XW,Mook,Mook en Middelaar,Limburg,VBO,5.880231,51.754089
Gelrestraat,17,,,6585XW,Mook,Mook en Middelaar,Limburg,VBO,5.880494,51.753526
Gelrestraat,19,,,6585XW,Mook,Mook en Middelaar,Limburg,VBO,5.880233,51.754341
Gelrestraat,21,,,6585XW,Mook,Mook en Middelaar,Limburg,VBO,5.880234,51.754538
Gelrestraat,23,,,6585XW,Mook,Mook en Middelaar,Limburg,VBO,5.880234,51.754733
Gelrestraat,25,,,6585XW,Mook,Mook en Middelaar,Limburg,VBO,5.880308,51.754906
Gelrestraat,27,,,6585XW,Mook,Mook en Middelaar,Limburg,VBO,5.880560,51.755031
Gelrestraat,29,,,6585XW,Mook,Mook en Middelaar,Limburg,VBO,5.880812,51.755155
Gelrestraat,4,,,6585XX,Mook,Mook en Middelaar,Limburg,VBO,5.881492,51.752846
Gelrestraat,6,,,6585XX,Mook,Mook en Middelaar,Limburg,VBO,5.881380,51.753019
Gelrestraat,8,,,6585XX,Mook,Mook en Middelaar,Limburg,VBO,5.881146,51.753241
Gelrestraat,10,,,6585XX,Mook,Mook en Middelaar,Limburg,VBO,5.881057,51.753367
Gelrestraat,12,,,6585XX,Mook,Mook en Middelaar,Limburg,VBO,5.880712,51.754024
Gelrestraat,14,,,6585XX,Mook,Mook en Middelaar,Limburg,VBO,5.880618,51.754322
Gelrestraat,16,,,6585XX,Mook,Mook en Middelaar,Limburg,VBO,5.880618,51.754520
Gelrestraat,18,,,6585XX,Mook,Mook en Middelaar,Limburg,VBO,5.880682,51.754742
Gelrestraat,20,,,6585XX,Mook,Mook en Middelaar,Limburg,VBO,5.880990,51.754889
Gelrestraat,22,,,6585XX,Mook,Mook en Middelaar,Limburg,VBO,5.881230,51.754996
Schansweg,1,,,6585XZ,Mook,Mook en Middelaar,Limburg,VBO,5.880554,51.755703
Schansweg,2,,,6585XZ,Mook,Mook en Middelaar,Limburg,VBO,5.879346,51.755499
Schansweg,3,,,6585XZ,Mook,Mook en Middelaar,Limburg,VBO,5.880493,51.755676
Schansweg,4,,,6585XZ,Mook,Mook en Middelaar,Limburg,VBO,5.879286,51.755472
Schansweg,5,,,6585XZ,Mook,Mook en Middelaar,Limburg,VBO,5.880429,51.755647
Schansweg,6,,,6585XZ,Mook,Mook en Middelaar,Limburg,VBO,5.879225,51.755444
Schansweg,7,,,6585XZ,Mook,Mook en Middelaar,Limburg,VBO,5.880364,51.755618
Schansweg,8,,,6585XZ,Mook,Mook en Middelaar,Limburg,VBO,5.879164,51.755417
Schansweg,9,,,6585XZ,Mook,Mook en Middelaar,Limburg,VBO,5.880272,51.755577
Schansweg,10,,,6585XZ,Mook,Mook en Middelaar,Limburg,VBO,5.879097,51.755387
Schansweg,11,,,6585XZ,Mook,Mook en Middelaar,Limburg,VBO,5.880211,51.755549
Schansweg,13,,,6585XZ,Mook,Mook en Middelaar,Limburg,VBO,5.880150,51.755521
Schansweg,15,,,6585XZ,Mook,Mook en Middelaar,Limburg,VBO,5.880086,51.755493
Schansweg,17,,,6585XZ,Mook,Mook en Middelaar,Limburg,VBO,5.879952,51.755450
Schansweg,19,,,6585XZ,Mook,Mook en Middelaar,Limburg,VBO,5.879892,51.755422
Schansweg,21,,,6585XZ,Mook,Mook en Middelaar,Limburg,VBO,5.879831,51.755395
Schansweg,23,,,6585XZ,Mook,Mook en Middelaar,Limburg,VBO,5.879774,51.755369
Schansweg,25,,,6585XZ,Mook,Mook en Middelaar,Limburg,VBO,5.879713,51.755342
Schansweg,27,,,6585XZ,Mook,Mook en Middelaar,Limburg,VBO,5.878887,51.754870
Schansweg,29,,,6585XZ,Mook,Mook en Middelaar,Limburg,VBO,5.878823,51.754842
Schansweg,31,,,6585XZ,Mook,Mook en Middelaar,Limburg,VBO,5.878757,51.754812
Schansweg,33,,,6585XZ,Mook,Mook en Middelaar,Limburg,VBO,5.878697,51.754785
Schansweg,35,,,6585XZ,Mook,Mook en Middelaar,Limburg,VBO,5.878634,51.754756
Schansweg,37,,,6585XZ,Mook,Mook en Middelaar,Limburg,VBO,5.878571,51.754728
