openbareruimtenaam,huisnummer,huisletter,huisnummertoevoeging,postcode,woonplaatsnaam,gemeentenaam,provincienaam,typeadresseerbaarobject,longitude,latitude
Oosterweg,207,,,6603AA,Wijchen,Wijchen,Gelderland,VBO,5.745170,51.799845
Oosterweg,209,,,6603AA,Wijchen,Wijchen,Gelderland,VBO,5.745230,51.799799
Oosterweg,257,,,6603AA,Wijchen,Wijchen,Gelderland,VBO,5.747561,51.799639
Oosterweg,259,,,6603AA,Wijchen,Wijchen,Gelderland,VBO,5.747370,51.799406
Oosterweg,263,,,6603AA,Wijchen,Wijchen,Gelderland,VBO,5.748239,51.799251
Oosterweg,265,,,6603AA,Wijchen,Wijchen,Gelderland,VBO,5.748397,51.799116
Oosterweg,269,,,6603AA,Wijchen,Wijchen,Gelderland,VBO,5.748935,51.798999
Oosterweg,273,,,6603AA,Wijchen,Wijchen,Gelderland,VBO,5.750120,51.798769
Oosterweg,277,,,6603AA,Wijchen,Wijchen,Gelderland,VBO,5.751177,51.798586
Oosterweg,279,,,6603AA,Wijchen,Wijchen,Gelderland,VBO,5.751540,51.798674
Oosterweg,140,,,6603AB,Wijchen,Wijchen,Gelderland,VBO,5.739219,51.800797
Oosterweg,144,,,6603AB,Wijchen,Wijchen,Gelderland,VBO,5.740305,51.800533
Oosterweg,172,,,6603AB,Wijchen,Wijchen,Gelderland,VBO,5.742141,51.799908
Oosterweg,186,,,6603AB,Wijchen,Wijchen,Gelderland,VBO,5.743083,51.799860
Oosterweg,188,A,,6603AB,Wijchen,Wijchen,Gelderland,VBO,5.743463,51.799605
Oosterweg,188,,,6603AB,Wijchen,Wijchen,Gelderland,VBO,5.743343,51.799742
Oosterweg,220,,,6603AB,Wijchen,Wijchen,Gelderland,VBO,5.746904,51.799084
Oosterweg,290,,,6603AB,Wijchen,Wijchen,Gelderland,VBO,5.748850,51.798341
Oosterweg,292,,,6603AB,Wijchen,Wijchen,Gelderland,VBO,5.749716,51.798194
Oosterweg,300,,,6603AB,Wijchen,Wijchen,Gelderland,VBO,5.751186,51.797947
Oosterweg,302,A,,6603AB,Wijchen,Wijchen,Gelderland,VBO,5.751327,51.797408
Oosterweg,302,,,6603AB,Wijchen,Wijchen,Gelderland,VBO,5.752141,51.797738
Valendrieseweg,77,A,,6603AC,Wijchen,Wijchen,Gelderland,VBO,5.739180,51.805040
Valendrieseweg,77,,,6603AC,Wijchen,Wijchen,Gelderland,VBO,5.739077,51.804816
Valendrieseweg,81,,,6603AC,Wijchen,Wijchen,Gelderland,VBO,5.739265,51.804770
Valendrieseweg,83,,,6603AC,Wijchen,Wijchen,Gelderland,VBO,5.739718,51.805218
Valendrieseweg,85,,,6603AC,Wijchen,Wijchen,Gelderland,VBO,5.740155,51.805496
Valendrieseweg,87,A,,6603AC,Wijchen,Wijchen,Gelderland,VBO,5.739938,51.805091
Valendrieseweg,87,,,6603AC,Wijchen,Wijchen,Gelderland,VBO,5.739774,51.804993
Valendrieseweg,91,,,6603AC,Wijchen,Wijchen,Gelderland,VBO,5.739655,51.804616
Valendrieseweg,95,,,6603AC,Wijchen,Wijchen,Gelderland,VBO,5.740176,51.804453
Valendrieseweg,97,,,6603AC,Wijchen,Wijchen,Gelderland,VBO,5.740263,51.804435
Valendrieseweg,167,,,6603AC,Wijchen,Wijchen,Gelderland,VBO,5.744817,51.802857
Valendrieseweg,173,,,6603AC,Wijchen,Wijchen,Gelderland,VBO,5.745297,51.803676
Valendrieseweg,175,,,6603AC,Wijchen,Wijchen,Gelderland,VBO,5.745767,51.803638
Valendrieseweg,181,,,6603AC,Wijchen,Wijchen,Gelderland,VBO,5.746112,51.803732
Valendrieseweg,199,,,6603AC,Wijchen,Wijchen,Gelderland,VBO,5.747166,51.802859
Valendrieseweg,291,,,6603AC,Wijchen,Wijchen,Gelderland,VBO,5.753603,51.801961
Valendrieseweg,295,,,6603AC,Wijchen,Wijchen,Gelderland,VBO,5.753800,51.802029
Valendrieseweg,301,A,,6603AC,Wijchen,Wijchen,Gelderland,VBO,5.754004,51.802199
Valendrieseweg,301,,,6603AC,Wijchen,Wijchen,Gelderland,VBO,5.754103,51.801866
Valendrieseweg,82,A,,6603AD,Wijchen,Wijchen,Gelderland,VBO,5.739500,51.804223
Valendrieseweg,82,,,6603AD,Wijchen,Wijchen,Gelderland,VBO,5.739392,51.804329
Valendrieseweg,84,,,6603AD,Wijchen,Wijchen,Gelderland,VBO,5.739748,51.804265
Valendrieseweg,86,,,6603AD,Wijchen,Wijchen,Gelderland,VBO,5.739961,51.804207
Valendrieseweg,112,,,6603AD,Wijchen,Wijchen,Gelderland,VBO,5.742341,51.803269
Valendrieseweg,184,,,6603AD,Wijchen,Wijchen,Gelderland,VBO,5.746235,51.802412
Valendrieseweg,188,,,6603AD,Wijchen,Wijchen,Gelderland,VBO,5.747569,51.802462
Valendrieseweg,262,,,6603AD,Wijchen,Wijchen,Gelderland,VBO,5.751540,51.802297
Valendrieseweg,264,,,6603AD,Wijchen,Wijchen,Gelderland,VBO,5.751640,51.802291
Waszinkweg,5,,,6603AD,Wijchen,Wijchen,Gelderland,VBO,5.746168,51.801316
Urnenveldweg,1,,,6603AE,Wijchen,Wijchen,Gelderland,VBO,5.740698,51.808163
Urnenveldweg,2,,,6603AE,Wijchen,Wijchen,Gelderland,VBO,5.740291,51.808066
Urnenveldweg,3,,,6603AE,Wijchen,Wijchen,Gelderland,VBO,5.740755,51.808037
Urnenveldweg,4,,,6603AE,Wijchen,Wijchen,Gelderland,VBO,5.740320,51.808012
Urnenveldweg,5,,,6603AE,Wijchen,Wijchen,Gelderland,VBO,5.740969,51.807650
Urnenveldweg,10,,,6603AE,Wijchen,Wijchen,Gelderland,VBO,5.740281,51.806709
Urnenveldweg,14,,,6603AE,Wijchen,Wijchen,Gelderland,VBO,5.741927,51.805895
Urnenveldweg,18,,,6603AE,Wijchen,Wijchen,Gelderland,VBO,5.744925,51.805463
Urnenveldweg,20,,,6603AE,Wijchen,Wijchen,Gelderland,VBO,5.745070,51.805427
Urnenveldweg,22,,,6603AE,Wijchen,Wijchen,Gelderland,VBO,5.746049,51.804624
Urnenveldweg,24,,,6603AE,Wijchen,Wijchen,Gelderland,VBO,5.746150,51.804569
Urnenveldweg,30,,,6603AE,Wijchen,Wijchen,Gelderland,VBO,5.748697,51.803870
Urnenveldweg,32,,,6603AE,Wijchen,Wijchen,Gelderland,VBO,5.750850,51.803027
Urnenveldweg,35,,,6603AE,Wijchen,Wijchen,Gelderland,VBO,5.751866,51.804911
Urnenveldweg,36,,,6603AE,Wijchen,Wijchen,Gelderland,VBO,5.751364,51.803879
de Wijchert,2,,,6603AG,Wijchen,Wijchen,Gelderland,VBO,5.747946,51.807863
de Wijchert,4,,,6603AG,Wijchen,Wijchen,Gelderland,VBO,5.749277,51.807580
Zandweg,1,,,6603AG,Wijchen,Wijchen,Gelderland,VBO,5.741979,51.808771
Zandweg,3,,,6603AG,Wijchen,Wijchen,Gelderland,VBO,5.742095,51.808860
Zandweg,5,,,6603AG,Wijchen,Wijchen,Gelderland,VBO,5.742227,51.808950
Zandweg,7,,,6603AG,Wijchen,Wijchen,Gelderland,VBO,5.742358,51.809030
Zandweg,9,,,6603AG,Wijchen,Wijchen,Gelderland,VBO,5.742460,51.809102
Zandweg,11,,,6603AG,Wijchen,Wijchen,Gelderland,VBO,5.742185,51.809247
Zandweg,13,,,6603AG,Wijchen,Wijchen,Gelderland,VBO,5.742118,51.809370
Zandweg,15,,,6603AG,Wijchen,Wijchen,Gelderland,VBO,5.742056,51.809418
Zandweg,17,,,6603AG,Wijchen,Wijchen,Gelderland,VBO,5.741985,51.809535
de Wijchert,1,A,,6603AH,Wijchen,Wijchen,Gelderland,VBO,5.749657,51.809331
de Wijchert,1,,,6603AH,Wijchen,Wijchen,Gelderland,VBO,5.750929,51.809202
Zandweg,2,,,6603AH,Wijchen,Wijchen,Gelderland,VBO,5.742396,51.808374
Zandweg,4,,,6603AH,Wijchen,Wijchen,Gelderland,VBO,5.742426,51.808500
Zandweg,6,,,6603AH,Wijchen,Wijchen,Gelderland,VBO,5.742747,51.808750
Zandweg,8,,,6603AH,Wijchen,Wijchen,Gelderland,VBO,5.742877,51.808660
Zandweg,10,,,6603AH,Wijchen,Wijchen,Gelderland,VBO,5.742963,51.808597
Zandweg,12,,,6603AH,Wijchen,Wijchen,Gelderland,VBO,5.743137,51.808525
Zandweg,14,,,6603AH,Wijchen,Wijchen,Gelderland,VBO,5.743686,51.808352
Zandweg,16,,,6603AH,Wijchen,Wijchen,Gelderland,VBO,5.743803,51.808451
Zandweg,18,,,6603AH,Wijchen,Wijchen,Gelderland,VBO,5.743616,51.808622
Zandweg,20,,,6603AH,Wijchen,Wijchen,Gelderland,VBO,5.743472,51.808730
Zandweg,22,,,6603AH,Wijchen,Wijchen,Gelderland,VBO,5.743357,51.808830
Zandweg,24,,,6603AH,Wijchen,Wijchen,Gelderland,VBO,5.743285,51.808893
Zandweg,26,,,6603AH,Wijchen,Wijchen,Gelderland,VBO,5.743169,51.808983
Zandweg,28,,,6603AH,Wijchen,Wijchen,Gelderland,VBO,5.743097,51.809046
Zandweg,30,,,6603AH,Wijchen,Wijchen,Gelderland,VBO,5.742968,51.809154
Zandweg,32,,,6603AH,Wijchen,Wijchen,Gelderland,VBO,5.742853,51.809263
Zandweg,34,,,6603AH,Wijchen,Wijchen,Gelderland,VBO,5.742737,51.809362
Zandweg,36,,,6603AH,Wijchen,Wijchen,Gelderland,VBO,5.742681,51.809551
Leemweg,19,,,6603AJ,Wijchen,Wijchen,Gelderland,VBO,5.740544,51.808874
Leemweg,21,,,6603AJ,Wijchen,Wijchen,Gelderland,VBO,5.740602,51.808856
Leemweg,23,,,6603AJ,Wijchen,Wijchen,Gelderland,VBO,5.740747,51.808810
Leemweg,25,,,6603AJ,Wijchen,Wijchen,Gelderland,VBO,5.740833,51.808783
Leemweg,27,,,6603AJ,Wijchen,Wijchen,Gelderland,VBO,5.740978,51.808738
Leemweg,29,,,6603AJ,Wijchen,Wijchen,Gelderland,VBO,5.741065,51.808720
Leemweg,31,,,6603AJ,Wijchen,Wijchen,Gelderland,VBO,5.741209,51.808674
Leemweg,33,,,6603AJ,Wijchen,Wijchen,Gelderland,VBO,5.741296,51.808656
Leemweg,35,,,6603AJ,Wijchen,Wijchen,Gelderland,VBO,5.741441,51.808611
Leemweg,37,,,6603AJ,Wijchen,Wijchen,Gelderland,VBO,5.741528,51.808565
Leemweg,39,,,6603AJ,Wijchen,Wijchen,Gelderland,VBO,5.741658,51.808556
Leemweg,41,,,6603AJ,Wijchen,Wijchen,Gelderland,VBO,5.741759,51.808520
Leemweg,55,,,6603AK,Wijchen,Wijchen,Gelderland,VBO,5.742629,51.808454
Leemweg,57,,,6603AK,Wijchen,Wijchen,Gelderland,VBO,5.742628,51.808301
Leemweg,59,,,6603AK,Wijchen,Wijchen,Gelderland,VBO,5.742685,51.808274
Leemweg,61,,,6603AK,Wijchen,Wijchen,Gelderland,VBO,5.742935,51.808206
Leemweg,63,,,6603AK,Wijchen,Wijchen,Gelderland,VBO,5.743022,51.808179
Leemweg,67,,,6603AK,Wijchen,Wijchen,Gelderland,VBO,5.743206,51.808156
Leemweg,69,,,6603AK,Wijchen,Wijchen,Gelderland,VBO,5.743414,51.808075
Leemweg,71,,,6603AK,Wijchen,Wijchen,Gelderland,VBO,5.743472,51.808066
Leemweg,73,,,6603AK,Wijchen,Wijchen,Gelderland,VBO,5.743640,51.808020
Leemweg,75,,,6603AK,Wijchen,Wijchen,Gelderland,VBO,5.743698,51.808002
Leemweg,77,,,6603AK,Wijchen,Wijchen,Gelderland,VBO,5.743915,51.807938
Leemweg,79,,,6603AK,Wijchen,Wijchen,Gelderland,VBO,5.743988,51.807920
Leemweg,81,,,6603AK,Wijchen,Wijchen,Gelderland,VBO,5.744250,51.808045
Leemweg,89,,,6603AK,Wijchen,Wijchen,Gelderland,VBO,5.744436,51.807802
Leemweg,91,,,6603AK,Wijchen,Wijchen,Gelderland,VBO,5.744523,51.807783
Leemweg,93,,,6603AK,Wijchen,Wijchen,Gelderland,VBO,5.744697,51.807729
Leemweg,95,,,6603AK,Wijchen,Wijchen,Gelderland,VBO,5.744769,51.807711
Leemweg,97,,,6603AK,Wijchen,Wijchen,Gelderland,VBO,5.744957,51.807674
Leemweg,99,,,6603AK,Wijchen,Wijchen,Gelderland,VBO,5.745019,51.807654
Leemweg,101,,,6603AK,Wijchen,Wijchen,Gelderland,VBO,5.745178,51.807585
Leemweg,103,,,6603AK,Wijchen,Wijchen,Gelderland,VBO,5.745248,51.807572
Leemweg,105,,,6603AK,Wijchen,Wijchen,Gelderland,VBO,5.745424,51.807521
Leemweg,107,,,6603AK,Wijchen,Wijchen,Gelderland,VBO,5.745502,51.807497
Leemweg,109,,,6603AK,Wijchen,Wijchen,Gelderland,VBO,5.745695,51.807474
Leemweg,121,,,6603AL,Wijchen,Wijchen,Gelderland,VBO,5.752943,51.805501
Leemweg,123,,,6603AL,Wijchen,Wijchen,Gelderland,VBO,5.753214,51.804916
Leemweg,125,,,6603AL,Wijchen,Wijchen,Gelderland,VBO,5.753344,51.804790
Leemweg,127,,,6603AL,Wijchen,Wijchen,Gelderland,VBO,5.753444,51.804709
Leemweg,129,,,6603AL,Wijchen,Wijchen,Gelderland,VBO,5.753531,51.804619
Leemweg,131,,,6603AL,Wijchen,Wijchen,Gelderland,VBO,5.753603,51.804582
Leemweg,133,,,6603AL,Wijchen,Wijchen,Gelderland,VBO,5.753805,51.804519
Leemweg,139,,,6603AL,Wijchen,Wijchen,Gelderland,VBO,5.753993,51.804392
Leemweg,141,,,6603AL,Wijchen,Wijchen,Gelderland,VBO,5.754166,51.804338
Leemweg,153,,,6603AL,Wijchen,Wijchen,Gelderland,VBO,5.754686,51.804103
Leemweg,155,,,6603AL,Wijchen,Wijchen,Gelderland,VBO,5.754889,51.804012
Leemweg,157,,,6603AL,Wijchen,Wijchen,Gelderland,VBO,5.755091,51.803922
Leemweg,64,,,6603AM,Wijchen,Wijchen,Gelderland,VBO,5.742257,51.807287
Leemweg,66,,,6603AM,Wijchen,Wijchen,Gelderland,VBO,5.742358,51.807179
Leemweg,100,,,6603AM,Wijchen,Wijchen,Gelderland,VBO,5.744563,51.807307
Leemweg,102,,,6603AM,Wijchen,Wijchen,Gelderland,VBO,5.745214,51.807188
Leemweg,112,,,6603AM,Wijchen,Wijchen,Gelderland,VBO,5.749752,51.805322
Leemweg,124,,,6603AM,Wijchen,Wijchen,Gelderland,VBO,5.752223,51.804227
Leemweg,130,,,6603AM,Wijchen,Wijchen,Gelderland,VBO,5.753320,51.803684
Leemweg,134,A,,6603AM,Wijchen,Wijchen,Gelderland,VBO,5.753168,51.803014
Leemweg,134,K,021,6603AM,Wijchen,Wijchen,Gelderland,VBO,5.753651,51.803746
Leemweg,134,K,022,6603AM,Wijchen,Wijchen,Gelderland,VBO,5.753811,51.803737
Leemweg,134,K,023,6603AM,Wijchen,Wijchen,Gelderland,VBO,5.753682,51.803794
Leemweg,134,K,024,6603AM,Wijchen,Wijchen,Gelderland,VBO,5.753847,51.803792
Leemweg,134,K,025,6603AM,Wijchen,Wijchen,Gelderland,VBO,5.753711,51.803832
Leemweg,134,K,026,6603AM,Wijchen,Wijchen,Gelderland,VBO,5.753883,51.803837
Leemweg,134,K,027,6603AM,Wijchen,Wijchen,Gelderland,VBO,5.753744,51.803876
Leemweg,134,K,028,6603AM,Wijchen,Wijchen,Gelderland,VBO,5.753909,51.803879
Leemweg,134,K,030,6603AM,Wijchen,Wijchen,Gelderland,VBO,5.753587,51.803719
Leemweg,134,K,041,6603AM,Wijchen,Wijchen,Gelderland,VBO,5.753631,51.803560
Leemweg,134,K,043,6603AM,Wijchen,Wijchen,Gelderland,VBO,5.753591,51.803503
Leemweg,134,K,045,6603AM,Wijchen,Wijchen,Gelderland,VBO,5.753550,51.803451
Leemweg,134,K,047,6603AM,Wijchen,Wijchen,Gelderland,VBO,5.753517,51.803403
Leemweg,134,K,049,6603AM,Wijchen,Wijchen,Gelderland,VBO,5.753481,51.803361
Leemweg,134,K,120,6603AM,Wijchen,Wijchen,Gelderland,VBO,5.753760,51.803695
Leemweg,134,K,121,6603AM,Wijchen,Wijchen,Gelderland,VBO,5.753659,51.803729
Leemweg,134,K,122,6603AM,Wijchen,Wijchen,Gelderland,VBO,5.753782,51.803748
Leemweg,134,K,123,6603AM,Wijchen,Wijchen,Gelderland,VBO,5.753696,51.803781
Leemweg,134,K,125,6603AM,Wijchen,Wijchen,Gelderland,VBO,5.753723,51.803822
Leemweg,134,K,127,6603AM,Wijchen,Wijchen,Gelderland,VBO,5.753755,51.803862
Leemweg,134,K,136,6603AM,Wijchen,Wijchen,Gelderland,VBO,5.753521,51.803686
Leemweg,134,K,138,6603AM,Wijchen,Wijchen,Gelderland,VBO,5.753488,51.803642
Leemweg,134,K,139,6603AM,Wijchen,Wijchen,Gelderland,VBO,5.753614,51.803577
Leemweg,134,K,140,6603AM,Wijchen,Wijchen,Gelderland,VBO,5.753452,51.803589
Leemweg,134,K,141,6603AM,Wijchen,Wijchen,Gelderland,VBO,5.753591,51.803551
Leemweg,134,K,142,6603AM,Wijchen,Wijchen,Gelderland,VBO,5.753425,51.803554
Leemweg,134,K,143,6603AM,Wijchen,Wijchen,Gelderland,VBO,5.753559,51.803514
Leemweg,134,K,144,6603AM,Wijchen,Wijchen,Gelderland,VBO,5.753387,51.803500
Leemweg,134,K,145,6603AM,Wijchen,Wijchen,Gelderland,VBO,5.753519,51.803461
Leemweg,134,K,146,6603AM,Wijchen,Wijchen,Gelderland,VBO,5.753354,51.803452
Leemweg,134,K,147,6603AM,Wijchen,Wijchen,Gelderland,VBO,5.753491,51.803412
Leemweg,134,K,149,6603AM,Wijchen,Wijchen,Gelderland,VBO,5.753461,51.803370
Leemweg,134,K,220,6603AM,Wijchen,Wijchen,Gelderland,VBO,5.753749,51.803711
Leemweg,134,K,222,6603AM,Wijchen,Wijchen,Gelderland,VBO,5.753785,51.803765
Leemweg,134,K,223,6603AM,Wijchen,Wijchen,Gelderland,VBO,5.753725,51.803786
Leemweg,134,K,224,6603AM,Wijchen,Wijchen,Gelderland,VBO,5.753816,51.803802
Leemweg,134,K,225,6603AM,Wijchen,Wijchen,Gelderland,VBO,5.753761,51.803820
Leemweg,134,K,226,6603AM,Wijchen,Wijchen,Gelderland,VBO,5.753848,51.803848
Leemweg,134,K,227,6603AM,Wijchen,Wijchen,Gelderland,VBO,5.753783,51.803864
Leemweg,134,K,228,6603AM,Wijchen,Wijchen,Gelderland,VBO,5.753887,51.803889
Leemweg,134,K,230,6603AM,Wijchen,Wijchen,Gelderland,VBO,5.753606,51.803714
Leemweg,134,K,236,6603AM,Wijchen,Wijchen,Gelderland,VBO,5.753541,51.803682
Leemweg,134,K,238,6603AM,Wijchen,Wijchen,Gelderland,VBO,5.753515,51.803635
Leemweg,134,K,239,6603AM,Wijchen,Wijchen,Gelderland,VBO,5.753609,51.803612
Leemweg,134,K,240,6603AM,Wijchen,Wijchen,Gelderland,VBO,5.753481,51.803587
Leemweg,134,K,241,6603AM,Wijchen,Wijchen,Gelderland,VBO,5.753566,51.803565
Leemweg,134,K,242,6603AM,Wijchen,Wijchen,Gelderland,VBO,5.753452,51.803542
Leemweg,134,K,243,6603AM,Wijchen,Wijchen,Gelderland,VBO,5.753525,51.803522
Leemweg,134,K,244,6603AM,Wijchen,Wijchen,Gelderland,VBO,5.753423,51.803495
Leemweg,134,K,245,6603AM,Wijchen,Wijchen,Gelderland,VBO,5.753498,51.803475
Leemweg,134,K,246,6603AM,Wijchen,Wijchen,Gelderland,VBO,5.753385,51.803446
Leemweg,134,K,247,6603AM,Wijchen,Wijchen,Gelderland,VBO,5.753466,51.803423
Leemweg,134,K,249,6603AM,Wijchen,Wijchen,Gelderland,VBO,5.753442,51.803380
Leemweg,134,K,320,6603AM,Wijchen,Wijchen,Gelderland,VBO,5.753717,51.803713
Leemweg,134,K,321,6603AM,Wijchen,Wijchen,Gelderland,VBO,5.753686,51.803731
Leemweg,134,K,322,6603AM,Wijchen,Wijchen,Gelderland,VBO,5.753754,51.803762
Leemweg,134,K,323,6603AM,Wijchen,Wijchen,Gelderland,VBO,5.753726,51.803766
Leemweg,134,K,324,6603AM,Wijchen,Wijchen,Gelderland,VBO,5.753791,51.803800
Leemweg,134,K,325,6603AM,Wijchen,Wijchen,Gelderland,VBO,5.753759,51.803805
Leemweg,134,K,326,6603AM,Wijchen,Wijchen,Gelderland,VBO,5.753824,51.803845
Leemweg,134,K,327,6603AM,Wijchen,Wijchen,Gelderland,VBO,5.753798,51.803853
Leemweg,134,K,328,6603AM,Wijchen,Wijchen,Gelderland,VBO,5.753859,51.803888
Leemweg,134,K,338,6603AM,Wijchen,Wijchen,Gelderland,VBO,5.753559,51.803666
Leemweg,134,K,340,6603AM,Wijchen,Wijchen,Gelderland,VBO,5.753489,51.803570
Leemweg,134,K,342,6603AM,Wijchen,Wijchen,Gelderland,VBO,5.753467,51.803528
Leemweg,134,K,343,6603AM,Wijchen,Wijchen,Gelderland,VBO,5.753494,51.803520
Leemweg,134,K,344,6603AM,Wijchen,Wijchen,Gelderland,VBO,5.753434,51.803480
Leemweg,134,K,345,6603AM,Wijchen,Wijchen,Gelderland,VBO,5.753467,51.803470
Leemweg,134,K,346,6603AM,Wijchen,Wijchen,Gelderland,VBO,5.753393,51.803430
Leemweg,134,K,347,6603AM,Wijchen,Wijchen,Gelderland,VBO,5.753427,51.803425
Leemweg,134,K,349,6603AM,Wijchen,Wijchen,Gelderland,VBO,5.753422,51.803396
Leemweg,134,,,6603AM,Wijchen,Wijchen,Gelderland,VBO,5.753809,51.803626
Sint Jorispad,37,,,6603AM,Wijchen,Wijchen,Gelderland,VBO,5.744783,51.805841
Sint Jorispad,39,,,6603AM,Wijchen,Wijchen,Gelderland,VBO,5.745057,51.805696
Sint Jorispad,41,,,6603AM,Wijchen,Wijchen,Gelderland,VBO,5.743730,51.804890
Sint Jorispad,46,,,6603AM,Wijchen,Wijchen,Gelderland,VBO,5.741720,51.804469
Veenseweg,2,,,6603AN,Wijchen,Wijchen,Gelderland,VBO,5.757343,51.806269
Veenseweg,4,,,6603AN,Wijchen,Wijchen,Gelderland,VBO,5.757140,51.806243
Veenseweg,17,A,,6603AN,Wijchen,Wijchen,Gelderland,VBO,5.753235,51.805849
Veenseweg,17,,,6603AN,Wijchen,Wijchen,Gelderland,VBO,5.752773,51.805960
Veenseweg,18,,,6603AN,Wijchen,Wijchen,Gelderland,VBO,5.752011,51.806700
Grootvenseweg,2,A,,6603AP,Wijchen,Wijchen,Gelderland,VBO,5.740377,51.809540
Grootvenseweg,2,B,,6603AP,Wijchen,Wijchen,Gelderland,VBO,5.740475,51.809540
Grootvenseweg,2,,,6603AP,Wijchen,Wijchen,Gelderland,VBO,5.740709,51.809512
Grootvenseweg,4,,,6603AP,Wijchen,Wijchen,Gelderland,VBO,5.740810,51.809511
Grootvenseweg,5,,,6603AP,Wijchen,Wijchen,Gelderland,VBO,5.741001,51.809798
Grootvenseweg,8,,,6603AP,Wijchen,Wijchen,Gelderland,VBO,5.741100,51.809511
Grootvenseweg,9,,,6603AP,Wijchen,Wijchen,Gelderland,VBO,5.741725,51.809733
Grootvenseweg,10,,,6603AP,Wijchen,Wijchen,Gelderland,VBO,5.741113,51.809322
Grootvenseweg,11,,,6603AP,Wijchen,Wijchen,Gelderland,VBO,5.741711,51.809805
Grootvenseweg,12,,,6603AP,Wijchen,Wijchen,Gelderland,VBO,5.741141,51.809241
Grootvenseweg,13,,,6603AP,Wijchen,Wijchen,Gelderland,VBO,5.741698,51.809913
Grootvenseweg,14,,,6603AP,Wijchen,Wijchen,Gelderland,VBO,5.741170,51.809133
Grootvenseweg,15,,,6603AP,Wijchen,Wijchen,Gelderland,VBO,5.741728,51.810093
Grootvenseweg,16,,,6603AP,Wijchen,Wijchen,Gelderland,VBO,5.741792,51.808996
Grootvenseweg,18,,,6603AP,Wijchen,Wijchen,Gelderland,VBO,5.741778,51.809113
Grootvenseweg,20,,,6603AP,Wijchen,Wijchen,Gelderland,VBO,5.741634,51.809230
Grootvenseweg,22,,,6603AP,Wijchen,Wijchen,Gelderland,VBO,5.741606,51.809338
Grootvenseweg,24,,,6603AP,Wijchen,Wijchen,Gelderland,VBO,5.741593,51.809455
Grootvenseweg,26,,,6603AP,Wijchen,Wijchen,Gelderland,VBO,5.741535,51.809545
Grootvenseweg,28,,,6603AP,Wijchen,Wijchen,Gelderland,VBO,5.742639,51.809731
Grootvenseweg,30,,,6603AP,Wijchen,Wijchen,Gelderland,VBO,5.742611,51.809847
Grootvenseweg,32,,,6603AP,Wijchen,Wijchen,Gelderland,VBO,5.742612,51.809946
Grootvenseweg,34,,,6603AP,Wijchen,Wijchen,Gelderland,VBO,5.742424,51.810109
Grootvenseweg,36,,,6603AP,Wijchen,Wijchen,Gelderland,VBO,5.742250,51.810091
Grootvenseweg,38,,,6603AP,Wijchen,Wijchen,Gelderland,VBO,5.742148,51.810047
Grootvenseweg,40,,,6603AP,Wijchen,Wijchen,Gelderland,VBO,5.742147,51.810429
Bospad,5,,,6603AR,Wijchen,Wijchen,Gelderland,VBO,5.756588,51.807503
Bospad,6,,,6603AR,Wijchen,Wijchen,Gelderland,VBO,5.756717,51.807773
Havenweg,2,,,6603AS,Wijchen,Wijchen,Gelderland,VBO,5.759173,51.810102
Havenweg,4,A,,6603AS,Wijchen,Wijchen,Gelderland,VBO,5.756694,51.810217
Havenweg,4,,,6603AS,Wijchen,Wijchen,Gelderland,VBO,5.757984,51.810123
Havenweg,6,,,6603AS,Wijchen,Wijchen,Gelderland,VBO,5.757127,51.810045
Havenweg,8,,,6603AS,Wijchen,Wijchen,Gelderland,VBO,5.756419,51.810263
Havenweg,14,,,6603AS,Wijchen,Wijchen,Gelderland,VBO,5.754953,51.810088
Havenweg,16,,,6603AS,Wijchen,Wijchen,Gelderland,VBO,5.753792,51.810020
Havenweg,18,,,6603AS,Wijchen,Wijchen,Gelderland,VBO,5.753609,51.810118
Havenweg,20,,,6603AT,Wijchen,Wijchen,Gelderland,VBO,5.751804,51.809846
Havenweg,22,A,,6603AT,Wijchen,Wijchen,Gelderland,VBO,5.751124,51.810037
Havenweg,22,B,,6603AT,Wijchen,Wijchen,Gelderland,VBO,5.751118,51.810063
Havenweg,22,,,6603AT,Wijchen,Wijchen,Gelderland,VBO,5.751457,51.809919
Havenweg,24,,,6603AT,Wijchen,Wijchen,Gelderland,VBO,5.750745,51.809832
Havenweg,25,,KPN,6603AT,Wijchen,Wijchen,Gelderland,VBO,5.753875,51.809462
Havenweg,26,,,6603AT,Wijchen,Wijchen,Gelderland,VBO,5.750383,51.809815
Havenweg,28,,,6603AT,Wijchen,Wijchen,Gelderland,VBO,5.749513,51.809835
Havenweg,30,A,,6603AT,Wijchen,Wijchen,Gelderland,VBO,5.748556,51.809856
Havenweg,30,B,,6603AT,Wijchen,Wijchen,Gelderland,VBO,5.748859,51.809703
Havenweg,30,,,6603AT,Wijchen,Wijchen,Gelderland,VBO,5.749019,51.809783
Havenweg,31,,,6603AT,Wijchen,Wijchen,Gelderland,VBO,5.747009,51.808725
Havenweg,32,,,6603AT,Wijchen,Wijchen,Gelderland,VBO,5.748627,51.809685
Havenweg,34,B,,6603AT,Wijchen,Wijchen,Gelderland,VBO,5.748222,51.809803
Havenweg,34,,,6603AT,Wijchen,Wijchen,Gelderland,VBO,5.748147,51.809516
Havenweg,40,,,6603AT,Wijchen,Wijchen,Gelderland,VBO,5.746127,51.808974
Pieter Zeemanstraat,1,,,6603AV,Wijchen,Wijchen,Gelderland,VBO,5.749210,51.810088
Pieter Zeemanstraat,3,,,6603AV,Wijchen,Wijchen,Gelderland,VBO,5.749052,51.810232
Pieter Zeemanstraat,11,,,6603AV,Wijchen,Wijchen,Gelderland,VBO,5.748271,51.810468
Pieter Zeemanstraat,13,,,6603AV,Wijchen,Wijchen,Gelderland,VBO,5.748042,51.810910
Pieter Zeemanstraat,19,,,6603AV,Wijchen,Wijchen,Gelderland,VBO,5.747287,51.810696
Pieter Zeemanstraat,21,,,6603AV,Wijchen,Wijchen,Gelderland,VBO,5.747111,51.810436
Pieter Zeemanstraat,23,A,,6603AV,Wijchen,Wijchen,Gelderland,VBO,5.747762,51.810236
Pieter Zeemanstraat,23,,,6603AV,Wijchen,Wijchen,Gelderland,VBO,5.747168,51.810355
Pieter Zeemanstraat,25,A,,6603AV,Wijchen,Wijchen,Gelderland,VBO,5.747907,51.809946
Pieter Zeemanstraat,25,B,,6603AV,Wijchen,Wijchen,Gelderland,VBO,5.747921,51.810031
Pieter Zeemanstraat,25,,,6603AV,Wijchen,Wijchen,Gelderland,VBO,5.747512,51.809868
Pieter Zeemanstraat,27,,,6603AV,Wijchen,Wijchen,Gelderland,VBO,5.747886,51.809499
Pieter Zeemanstraat,29,,,6603AV,Wijchen,Wijchen,Gelderland,VBO,5.746855,51.809259
Pieter Zeemanstraat,31,A,,6603AV,Wijchen,Wijchen,Gelderland,VBO,5.746660,51.809459
Pieter Zeemanstraat,31,,,6603AV,Wijchen,Wijchen,Gelderland,VBO,5.746915,51.809529
Pieter Zeemanstraat,33,,,6603AV,Wijchen,Wijchen,Gelderland,VBO,5.746699,51.809718
Pieter Zeemanstraat,35,A,,6603AV,Wijchen,Wijchen,Gelderland,VBO,5.746207,51.809899
Pieter Zeemanstraat,35,,,6603AV,Wijchen,Wijchen,Gelderland,VBO,5.746556,51.809979
Pieter Zeemanstraat,37,A,,6603AV,Wijchen,Wijchen,Gelderland,VBO,5.746388,51.810259
Pieter Zeemanstraat,37,B,,6603AV,Wijchen,Wijchen,Gelderland,VBO,5.745965,51.810350
Pieter Zeemanstraat,37,C,,6603AV,Wijchen,Wijchen,Gelderland,VBO,5.746017,51.810159
Pieter Zeemanstraat,37,,,6603AV,Wijchen,Wijchen,Gelderland,VBO,5.746301,51.810390
Pieter Zeemanstraat,39,,,6603AV,Wijchen,Wijchen,Gelderland,VBO,5.745456,51.810198
Pieter Zeemanstraat,41,,,6603AV,Wijchen,Wijchen,Gelderland,VBO,5.745063,51.810119
Pieter Zeemanstraat,43,,,6603AV,Wijchen,Wijchen,Gelderland,VBO,5.745496,51.809848
Pieter Zeemanstraat,53,,,6603AV,Wijchen,Wijchen,Gelderland,VBO,5.744293,51.809851
Pieter Zeemanstraat,55,,,6603AV,Wijchen,Wijchen,Gelderland,VBO,5.744089,51.809780
Pieter Zeemanstraat,57,,,6603AV,Wijchen,Wijchen,Gelderland,VBO,5.744406,51.809509
Pieter Zeemanstraat,59,A,,6603AV,Wijchen,Wijchen,Gelderland,VBO,5.744946,51.808694
Pieter Zeemanstraat,59,B,,6603AV,Wijchen,Wijchen,Gelderland,VBO,5.744723,51.808906
Pieter Zeemanstraat,59,,,6603AV,Wijchen,Wijchen,Gelderland,VBO,5.745212,51.808734
Pioniershof,2,,,6603AV,Wijchen,Wijchen,Gelderland,VBO,5.754484,51.804220
Pioniershof,4,,,6603AV,Wijchen,Wijchen,Gelderland,VBO,5.754674,51.804390
Pioniershof,6,,,6603AV,Wijchen,Wijchen,Gelderland,VBO,5.754704,51.804444
Pioniershof,8,,,6603AV,Wijchen,Wijchen,Gelderland,VBO,5.754748,51.804498
Pioniershof,10,,,6603AV,Wijchen,Wijchen,Gelderland,VBO,5.754791,51.804534
Pieter Zeemanstraat,2,A,,6603AW,Wijchen,Wijchen,Gelderland,VBO,5.750560,51.810237
Pieter Zeemanstraat,2,,,6603AW,Wijchen,Wijchen,Gelderland,VBO,5.750269,51.810058
Pieter Zeemanstraat,4,,,6603AW,Wijchen,Wijchen,Gelderland,VBO,5.750052,51.810202
Pieter Zeemanstraat,6,A,,6603AW,Wijchen,Wijchen,Gelderland,VBO,5.750247,51.810573
Pieter Zeemanstraat,6,,,6603AW,Wijchen,Wijchen,Gelderland,VBO,5.749822,51.810374
Pieter Zeemanstraat,8,,,6603AW,Wijchen,Wijchen,Gelderland,VBO,5.749649,51.810581
Pieter Zeemanstraat,10,B,,6603AW,Wijchen,Wijchen,Gelderland,VBO,5.749681,51.810878
Pieter Zeemanstraat,10,,,6603AW,Wijchen,Wijchen,Gelderland,VBO,5.749535,51.810734
Pieter Zeemanstraat,12,A,,6603AW,Wijchen,Wijchen,Gelderland,VBO,5.749384,51.811042
Pieter Zeemanstraat,12,,,6603AW,Wijchen,Wijchen,Gelderland,VBO,5.749116,51.810960
Pieter Zeemanstraat,14,A,,6603AW,Wijchen,Wijchen,Gelderland,VBO,5.749173,51.811216
Pieter Zeemanstraat,14,,,6603AW,Wijchen,Wijchen,Gelderland,VBO,5.748958,51.811122
Pieter Zeemanstraat,16,,,6603AW,Wijchen,Wijchen,Gelderland,VBO,5.748597,51.811312
Pieter Zeemanstraat,20,A,,6603AW,Wijchen,Wijchen,Gelderland,VBO,5.746893,51.811268
Pieter Zeemanstraat,20,,,6603AW,Wijchen,Wijchen,Gelderland,VBO,5.747000,51.811101
Pieter Zeemanstraat,22,,,6603AW,Wijchen,Wijchen,Gelderland,VBO,5.746477,51.810968
Pieter Zeemanstraat,26,,,6603AW,Wijchen,Wijchen,Gelderland,VBO,5.745329,51.810648
Pieter Zeemanstraat,28,,,6603AW,Wijchen,Wijchen,Gelderland,VBO,5.745243,51.810765
Pieter Zeemanstraat,30,,,6603AW,Wijchen,Wijchen,Gelderland,VBO,5.743717,51.810374
Pioniershof,1,,,6603AW,Wijchen,Wijchen,Gelderland,VBO,5.754401,51.804625
Pioniershof,3,,,6603AW,Wijchen,Wijchen,Gelderland,VBO,5.754532,51.804750
Pioniershof,5,,,6603AW,Wijchen,Wijchen,Gelderland,VBO,5.754635,51.804894
Pioniershof,7,,,6603AW,Wijchen,Wijchen,Gelderland,VBO,5.754896,51.804866
Pioniershof,9,,,6603AW,Wijchen,Wijchen,Gelderland,VBO,5.755112,51.804784
Kamerlingh Onnesstraat,3,,,6603AX,Wijchen,Wijchen,Gelderland,VBO,5.749718,51.811938
Kamerlingh Onnesstraat,5,,,6603AX,Wijchen,Wijchen,Gelderland,VBO,5.750312,51.811774
Kamerlingh Onnesstraat,9,,,6603AX,Wijchen,Wijchen,Gelderland,VBO,5.750593,51.811447
Kamerlingh Onnesstraat,11,B,,6603AX,Wijchen,Wijchen,Gelderland,VBO,5.750828,51.811135
Kamerlingh Onnesstraat,11,,,6603AX,Wijchen,Wijchen,Gelderland,VBO,5.750610,51.811027
Kamerlingh Onnesstraat,13,,,6603AX,Wijchen,Wijchen,Gelderland,VBO,5.751537,51.810854
Kamerlingh Onnesstraat,23,,,6603AX,Wijchen,Wijchen,Gelderland,VBO,5.752213,51.810222
Kamerlingh Onnesstraat,25,,,6603AX,Wijchen,Wijchen,Gelderland,VBO,5.752210,51.809863
Kamerlingh Onnesstraat,2,A,,6603AZ,Wijchen,Wijchen,Gelderland,VBO,5.751394,51.811810
Kamerlingh Onnesstraat,2,B,,6603AZ,Wijchen,Wijchen,Gelderland,VBO,5.750980,51.811997
Kamerlingh Onnesstraat,2,,,6603AZ,Wijchen,Wijchen,Gelderland,VBO,5.751067,51.811916
Kamerlingh Onnesstraat,4,A,,6603AZ,Wijchen,Wijchen,Gelderland,VBO,5.751637,51.811659
Kamerlingh Onnesstraat,4,,,6603AZ,Wijchen,Wijchen,Gelderland,VBO,5.751383,51.811564
Kamerlingh Onnesstraat,6,B,,6603AZ,Wijchen,Wijchen,Gelderland,VBO,5.752030,51.811419
Kamerlingh Onnesstraat,6,,,6603AZ,Wijchen,Wijchen,Gelderland,VBO,5.751861,51.811518
Kamerlingh Onnesstraat,8,A,,6603AZ,Wijchen,Wijchen,Gelderland,VBO,5.752034,51.811185
Kamerlingh Onnesstraat,8,,,6603AZ,Wijchen,Wijchen,Gelderland,VBO,5.752063,51.811355
Kamerlingh Onnesstraat,10,A,,6603AZ,Wijchen,Wijchen,Gelderland,VBO,5.752199,51.811057
Kamerlingh Onnesstraat,10,,,6603AZ,Wijchen,Wijchen,Gelderland,VBO,5.752453,51.811166
Kamerlingh Onnesstraat,14,A,,6603AZ,Wijchen,Wijchen,Gelderland,VBO,5.753417,51.810282
Kamerlingh Onnesstraat,14,,,6603AZ,Wijchen,Wijchen,Gelderland,VBO,5.753099,51.810408
Jan van der Heydenstraat,2,A,,6603BA,Wijchen,Wijchen,Gelderland,VBO,5.753364,51.812691
Jan van der Heydenstraat,2,,,6603BA,Wijchen,Wijchen,Gelderland,VBO,5.754025,51.811862
Jan van der Heydenstraat,4,,,6603BA,Wijchen,Wijchen,Gelderland,VBO,5.754196,51.811484
Jan van der Heydenstraat,5,,,6603BA,Wijchen,Wijchen,Gelderland,VBO,5.754894,51.813585
Jan van der Heydenstraat,8,,,6603BA,Wijchen,Wijchen,Gelderland,VBO,5.754133,51.810927
Jan van der Heydenstraat,9,,,6603BA,Wijchen,Wijchen,Gelderland,VBO,5.754952,51.811832
Jan van der Heydenstraat,10,,,6603BA,Wijchen,Wijchen,Gelderland,VBO,5.755044,51.810636
Jan van der Heydenstraat,12,,,6603BA,Wijchen,Wijchen,Gelderland,VBO,5.755391,51.810437
Jan van der Heydenstraat,14,A,,6603BA,Wijchen,Wijchen,Gelderland,VBO,5.755505,51.810221
Jan van der Heydenstraat,14,B,,6603BA,Wijchen,Wijchen,Gelderland,VBO,5.755422,51.810298
Jan van der Heydenstraat,14,,,6603BA,Wijchen,Wijchen,Gelderland,VBO,5.755693,51.810167
Christiaan Huygensstraat,17,,,6603BB,Wijchen,Wijchen,Gelderland,VBO,5.757478,51.812341
Christiaan Huygensstraat,19,,,6603BB,Wijchen,Wijchen,Gelderland,VBO,5.757925,51.811787
Christiaan Huygensstraat,21,,,6603BB,Wijchen,Wijchen,Gelderland,VBO,5.759064,51.810947
Christiaan Huygensstraat,23,,,6603BB,Wijchen,Wijchen,Gelderland,VBO,5.758828,51.810561
Christiaan Huygensstraat,25,,,6603BB,Wijchen,Wijchen,Gelderland,VBO,5.759378,51.810398
Christiaan Huygensstraat,18,,,6603BC,Wijchen,Wijchen,Gelderland,VBO,5.756430,51.812754
Christiaan Huygensstraat,20,A,,6603BC,Wijchen,Wijchen,Gelderland,VBO,5.756030,51.812332
Christiaan Huygensstraat,20,,,6603BC,Wijchen,Wijchen,Gelderland,VBO,5.756573,51.812583
Christiaan Huygensstraat,22,A,,6603BC,Wijchen,Wijchen,Gelderland,VBO,5.756590,51.811665
Christiaan Huygensstraat,22,,,6603BC,Wijchen,Wijchen,Gelderland,VBO,5.757023,51.811992
Christiaan Huygensstraat,24,,,6603BC,Wijchen,Wijchen,Gelderland,VBO,5.757390,51.811636
Christiaan Huygensstraat,26,,,6603BC,Wijchen,Wijchen,Gelderland,VBO,5.757774,51.811095
Simon Stevinstraat,1,A,,6603BD,Wijchen,Wijchen,Gelderland,VBO,5.758952,51.811496
Simon Stevinstraat,1,,,6603BD,Wijchen,Wijchen,Gelderland,VBO,5.758588,51.811308
Simon Stevinstraat,2,,,6603BD,Wijchen,Wijchen,Gelderland,VBO,5.759628,51.810864
Simon Stevinstraat,4,,,6603BD,Wijchen,Wijchen,Gelderland,VBO,5.759413,51.811126
Simon Stevinstraat,6,,,6603BD,Wijchen,Wijchen,Gelderland,VBO,5.759835,51.811340
Industriepark,1,A,,6603BE,Wijchen,Wijchen,Gelderland,VBO,5.757580,51.814202
Industriepark,1,B,,6603BE,Wijchen,Wijchen,Gelderland,VBO,5.757637,51.814126
Industriepark,1,C,,6603BE,Wijchen,Wijchen,Gelderland,VBO,5.757470,51.814080
Industriepark,1,E,,6603BE,Wijchen,Wijchen,Gelderland,VBO,5.757234,51.814014
Industriepark,5,A,001,6603BE,Wijchen,Wijchen,Gelderland,VBO,5.758737,51.814065
Industriepark,5,,,6603BE,Wijchen,Wijchen,Gelderland,VBO,5.758813,51.813941
Industriepark,9,,,6603BE,Wijchen,Wijchen,Gelderland,VBO,5.759719,51.813003
Industriepark,11,A,,6603BE,Wijchen,Wijchen,Gelderland,VBO,5.759982,51.813029
Industriepark,11,,,6603BE,Wijchen,Wijchen,Gelderland,VBO,5.759862,51.812769
Industriepark,17,A,,6603BE,Wijchen,Wijchen,Gelderland,VBO,5.760430,51.812688
Industriepark,17,,,6603BE,Wijchen,Wijchen,Gelderland,VBO,5.760105,51.812409
Industriepark,19,,,6603BE,Wijchen,Wijchen,Gelderland,VBO,5.760322,51.812264
Industriepark,25,,,6603BE,Wijchen,Wijchen,Gelderland,VBO,5.760534,51.811939
Industriepark,2,A,,6603BG,Wijchen,Wijchen,Gelderland,VBO,5.757652,51.813819
Industriepark,2,B,,6603BG,Wijchen,Wijchen,Gelderland,VBO,5.757623,51.813855
Industriepark,2,,,6603BG,Wijchen,Wijchen,Gelderland,VBO,5.757564,51.813801
Industriepark,4,A,,6603BG,Wijchen,Wijchen,Gelderland,VBO,5.757867,51.813530
Industriepark,4,B,,6603BG,Wijchen,Wijchen,Gelderland,VBO,5.758064,51.813407
Industriepark,4,C,,6603BG,Wijchen,Wijchen,Gelderland,VBO,5.758016,51.813720
Industriepark,4,D,,6603BG,Wijchen,Wijchen,Gelderland,VBO,5.757706,51.813691
Industriepark,4,,,6603BG,Wijchen,Wijchen,Gelderland,VBO,5.757937,51.813818
Industriepark,6,A,,6603BG,Wijchen,Wijchen,Gelderland,VBO,5.758168,51.813125
Industriepark,6,B,,6603BG,Wijchen,Wijchen,Gelderland,VBO,5.758283,51.812990
Industriepark,6,,001,6603BG,Wijchen,Wijchen,Gelderland,VBO,5.758383,51.813252
Industriepark,6,,002,6603BG,Wijchen,Wijchen,Gelderland,VBO,5.758425,51.813198
Industriepark,6,,003,6603BG,Wijchen,Wijchen,Gelderland,VBO,5.758484,51.813148
Industriepark,6,,004,6603BG,Wijchen,Wijchen,Gelderland,VBO,5.758537,51.813098
Industriepark,6,,005,6603BG,Wijchen,Wijchen,Gelderland,VBO,5.758591,51.813043
Industriepark,8,A,,6603BG,Wijchen,Wijchen,Gelderland,VBO,5.758193,51.812640
Industriepark,8,B,,6603BG,Wijchen,Wijchen,Gelderland,VBO,5.758929,51.812260
Industriepark,8,,,6603BG,Wijchen,Wijchen,Gelderland,VBO,5.758525,51.812441
Industriepark,12,,,6603BG,Wijchen,Wijchen,Gelderland,VBO,5.759492,51.812087
Industriepark,14,,,6603BG,Wijchen,Wijchen,Gelderland,VBO,5.759579,51.811907
Industriepark,16,,,6603BG,Wijchen,Wijchen,Gelderland,VBO,5.760114,51.811690
Industriepark,18,,,6603BG,Wijchen,Wijchen,Gelderland,VBO,5.760155,51.811654
Cornelis Drebbelstraat,2,,,6603BH,Wijchen,Wijchen,Gelderland,VBO,5.759213,51.813293
Cornelis Drebbelstraat,3,D,,6603BH,Wijchen,Wijchen,Gelderland,VBO,5.759182,51.814083
Cornelis Drebbelstraat,3,E,,6603BH,Wijchen,Wijchen,Gelderland,VBO,5.759136,51.814150
Cornelis Drebbelstraat,3,,,6603BH,Wijchen,Wijchen,Gelderland,VBO,5.759329,51.813863
Cornelis Drebbelstraat,5,A,,6603BH,Wijchen,Wijchen,Gelderland,VBO,5.759672,51.814168
Cornelis Drebbelstraat,5,B,,6603BH,Wijchen,Wijchen,Gelderland,VBO,5.759622,51.814237
Cornelis Drebbelstraat,5,C,,6603BH,Wijchen,Wijchen,Gelderland,VBO,5.759592,51.814308
Cornelis Drebbelstraat,5,D,,6603BH,Wijchen,Wijchen,Gelderland,VBO,5.759506,51.814285
Cornelis Drebbelstraat,5,E,,6603BH,Wijchen,Wijchen,Gelderland,VBO,5.759361,51.814248
Cornelis Drebbelstraat,5,F,,6603BH,Wijchen,Wijchen,Gelderland,VBO,5.759414,51.814179
Cornelis Drebbelstraat,5,H,,6603BH,Wijchen,Wijchen,Gelderland,VBO,5.759460,51.814114
Cornelis Drebbelstraat,5,,,6603BH,Wijchen,Wijchen,Gelderland,VBO,5.759672,51.813988
Cornelis Drebbelstraat,6,,,6603BH,Wijchen,Wijchen,Gelderland,VBO,5.759605,51.813345
Cornelis Drebbelstraat,7,A,,6603BH,Wijchen,Wijchen,Gelderland,VBO,5.759983,51.814132
Cornelis Drebbelstraat,7,,,6603BH,Wijchen,Wijchen,Gelderland,VBO,5.760046,51.814027
Cornelis Drebbelstraat,8,,,6603BH,Wijchen,Wijchen,Gelderland,VBO,5.760187,51.813613
Cornelis Drebbelstraat,9,A,,6603BH,Wijchen,Wijchen,Gelderland,VBO,5.760164,51.814314
Cornelis Drebbelstraat,9,B,,6603BH,Wijchen,Wijchen,Gelderland,VBO,5.760309,51.814233
Cornelis Drebbelstraat,9,,,6603BH,Wijchen,Wijchen,Gelderland,VBO,5.760293,51.814089
Cornelis Drebbelstraat,10,B,,6603BH,Wijchen,Wijchen,Gelderland,VBO,5.760519,51.813315
Cornelis Drebbelstraat,10,,,6603BH,Wijchen,Wijchen,Gelderland,VBO,5.760780,51.813478
Cornelis Drebbelstraat,11,A,,6603BH,Wijchen,Wijchen,Gelderland,VBO,5.760585,51.814537
Cornelis Drebbelstraat,11,,,6603BH,Wijchen,Wijchen,Gelderland,VBO,5.760759,51.814258
Cornelis Drebbelstraat,12,,,6603BH,Wijchen,Wijchen,Gelderland,VBO,5.761086,51.813574
Cornelis Drebbelstraat,13,A,,6603BH,Wijchen,Wijchen,Gelderland,VBO,5.761008,51.814590
Cornelis Drebbelstraat,13,,,6603BH,Wijchen,Wijchen,Gelderland,VBO,5.761078,51.814302
Cornelis Drebbelstraat,14,,,6603BH,Wijchen,Wijchen,Gelderland,VBO,5.761320,51.813753
Cornelis Drebbelstraat,15,A,,6603BH,Wijchen,Wijchen,Gelderland,VBO,5.761382,51.814782
Cornelis Drebbelstraat,15,,,6603BH,Wijchen,Wijchen,Gelderland,VBO,5.761602,51.814489
Cornelis Drebbelstraat,17,,,6603BH,Wijchen,Wijchen,Gelderland,VBO,5.762023,51.814542
Cornelis Drebbelstraat,18,A,,6603BH,Wijchen,Wijchen,Gelderland,VBO,5.762337,51.813966
Cornelis Drebbelstraat,18,,,6603BH,Wijchen,Wijchen,Gelderland,VBO,5.762208,51.814164
Cornelis Drebbelstraat,19,,,6603BH,Wijchen,Wijchen,Gelderland,VBO,5.762242,51.814793
Cornelis Drebbelstraat,21,A,,6603BH,Wijchen,Wijchen,Gelderland,VBO,5.762215,51.815054
Cornelis Drebbelstraat,21,B,,6603BH,Wijchen,Wijchen,Gelderland,VBO,5.762043,51.815234
Cornelis Drebbelstraat,21,,,6603BH,Wijchen,Wijchen,Gelderland,VBO,5.762216,51.815126
Cornelis Drebbelstraat,22,,,6603BH,Wijchen,Wijchen,Gelderland,VBO,5.762863,51.814404
Cornelis Drebbelstraat,23,,,6603BH,Wijchen,Wijchen,Gelderland,VBO,5.762088,51.815423
Cornelis Drebbelstraat,24,,,6603BH,Wijchen,Wijchen,Gelderland,VBO,5.763225,51.814340
Kasteellaan,112,,,6603BJ,Wijchen,Wijchen,Gelderland,VBO,5.739623,51.809830
Kasteellaan,114,,,6603BJ,Wijchen,Wijchen,Gelderland,VBO,5.739754,51.809856
Kasteellaan,118,,,6603BJ,Wijchen,Wijchen,Gelderland,VBO,5.740132,51.809936
Kasteellaan,120,,,6603BJ,Wijchen,Wijchen,Gelderland,VBO,5.740524,51.810007
Kasteellaan,130,,,6603BJ,Wijchen,Wijchen,Gelderland,VBO,5.741614,51.810345
Kasteellaan,138,A,,6603BJ,Wijchen,Wijchen,Gelderland,VBO,5.742411,51.810371
Kasteellaan,138,,,6603BJ,Wijchen,Wijchen,Gelderland,VBO,5.742113,51.810493
Kasteellaan,140,,,6603BJ,Wijchen,Wijchen,Gelderland,VBO,5.742411,51.810262
Nieuweweg,75,,,6603BK,Wijchen,Wijchen,Gelderland,VBO,5.743186,51.811122
Nieuweweg,79,,,6603BK,Wijchen,Wijchen,Gelderland,VBO,5.743361,51.811193
Nieuweweg,83,,,6603BK,Wijchen,Wijchen,Gelderland,VBO,5.743507,51.811364
Nieuweweg,91,,,6603BK,Wijchen,Wijchen,Gelderland,VBO,5.744030,51.811461
Nieuweweg,93,,,6603BK,Wijchen,Wijchen,Gelderland,VBO,5.744409,51.811667
Nieuweweg,95,,,6603BK,Wijchen,Wijchen,Gelderland,VBO,5.744612,51.811738
Nieuweweg,97,,,6603BK,Wijchen,Wijchen,Gelderland,VBO,5.745175,51.811880
Nieuweweg,127,,,6603BL,Wijchen,Wijchen,Gelderland,VBO,5.746485,51.812011
Nieuweweg,131,,,6603BL,Wijchen,Wijchen,Gelderland,VBO,5.746126,51.812434
Nieuweweg,133,,,6603BL,Wijchen,Wijchen,Gelderland,VBO,5.746737,51.812702
Nieuweweg,137,,,6603BL,Wijchen,Wijchen,Gelderland,VBO,5.747038,51.812279
Nieuweweg,141,,,6603BL,Wijchen,Wijchen,Gelderland,VBO,5.747256,51.812269
Nieuweweg,143,A,,6603BL,Wijchen,Wijchen,Gelderland,VBO,5.747344,51.812480
Nieuweweg,143,,,6603BL,Wijchen,Wijchen,Gelderland,VBO,5.747490,51.812536
Nieuweweg,145,,,6603BL,Wijchen,Wijchen,Gelderland,VBO,5.747363,51.813033
Nieuweweg,147,,,6603BL,Wijchen,Wijchen,Gelderland,VBO,5.747883,51.812717
Nieuweweg,151,,,6603BL,Wijchen,Wijchen,Gelderland,VBO,5.748307,51.813111
Nieuweweg,187,,,6603BL,Wijchen,Wijchen,Gelderland,VBO,5.749823,51.813272
Nieuweweg,187,,,6603BL,Wijchen,Wijchen,Gelderland,VBO,5.750149,51.813220
Nieuweweg,193,,,6603BM,Wijchen,Wijchen,Gelderland,VBO,5.750616,51.813562
Nieuweweg,195,A,,6603BM,Wijchen,Wijchen,Gelderland,VBO,5.750490,51.814165
Nieuweweg,195,,,6603BM,Wijchen,Wijchen,Gelderland,VBO,5.750562,51.814030
Nieuweweg,197,A,,6603BM,Wijchen,Wijchen,Gelderland,VBO,5.751198,51.813848
Nieuweweg,197,B,,6603BM,Wijchen,Wijchen,Gelderland,VBO,5.751262,51.814221
Nieuweweg,197,C,,6603BM,Wijchen,Wijchen,Gelderland,VBO,5.751075,51.814052
Nieuweweg,197,D,,6603BM,Wijchen,Wijchen,Gelderland,VBO,5.750939,51.814685
Nieuweweg,197,E,,6603BM,Wijchen,Wijchen,Gelderland,VBO,5.751016,51.814152
Nieuweweg,197,F,,6603BM,Wijchen,Wijchen,Gelderland,VBO,5.750722,51.814623
Nieuweweg,197,,,6603BM,Wijchen,Wijchen,Gelderland,VBO,5.751460,51.813901
Nieuweweg,199,,,6603BM,Wijchen,Wijchen,Gelderland,VBO,5.750584,51.814991
Nieuweweg,201,A,,6603BM,Wijchen,Wijchen,Gelderland,VBO,5.751094,51.814901
Nieuweweg,201,B,,6603BM,Wijchen,Wijchen,Gelderland,VBO,5.750930,51.814998
Nieuweweg,201,,,6603BM,Wijchen,Wijchen,Gelderland,VBO,5.751166,51.815214
Nieuweweg,203,,,6603BM,Wijchen,Wijchen,Gelderland,VBO,5.752040,51.813908
Nieuweweg,227,,,6603BM,Wijchen,Wijchen,Gelderland,VBO,5.755191,51.814429
Nieuweweg,229,,,6603BM,Wijchen,Wijchen,Gelderland,VBO,5.755395,51.814482
Nieuweweg,235,A,,6603BM,Wijchen,Wijchen,Gelderland,VBO,5.755692,51.815317
Nieuweweg,235,,,6603BM,Wijchen,Wijchen,Gelderland,VBO,5.755456,51.814949
Nieuweweg,241,A,,6603BM,Wijchen,Wijchen,Gelderland,VBO,5.756792,51.815071
Nieuweweg,241,B,,6603BM,Wijchen,Wijchen,Gelderland,VBO,5.756684,51.814986
Nieuweweg,241,,,6603BM,Wijchen,Wijchen,Gelderland,VBO,5.756587,51.814838
Nieuweweg,245,,,6603BM,Wijchen,Wijchen,Gelderland,VBO,5.756953,51.815313
Nieuweweg,267,A,,6603BN,Wijchen,Wijchen,Gelderland,VBO,5.758972,51.815621
Nieuweweg,267,B,,6603BN,Wijchen,Wijchen,Gelderland,VBO,5.758915,51.815765
Nieuweweg,267,C,,6603BN,Wijchen,Wijchen,Gelderland,VBO,5.759306,51.815737
Nieuweweg,267,D,,6603BN,Wijchen,Wijchen,Gelderland,VBO,5.758987,51.815783
Nieuweweg,267,E,,6603BN,Wijchen,Wijchen,Gelderland,VBO,5.759221,51.815917
Nieuweweg,267,,,6603BN,Wijchen,Wijchen,Gelderland,VBO,5.759075,51.815819
Nieuweweg,269,,,6603BN,Wijchen,Wijchen,Gelderland,VBO,5.759613,51.816024
Nieuweweg,271,,,6603BN,Wijchen,Wijchen,Gelderland,VBO,5.761114,51.816936
Nieuweweg,273,,,6603BN,Wijchen,Wijchen,Gelderland,VBO,5.760920,51.816181
Nieuweweg,275,,,6603BN,Wijchen,Wijchen,Gelderland,VBO,5.760111,51.816660
Nieuweweg,279,B,,6603BN,Wijchen,Wijchen,Gelderland,VBO,5.761984,51.816702
Nieuweweg,279,C,,6603BN,Wijchen,Wijchen,Gelderland,VBO,5.761757,51.817054
Nieuweweg,279,D,,6603BN,Wijchen,Wijchen,Gelderland,VBO,5.762104,51.817145
Nieuweweg,279,E,,6603BN,Wijchen,Wijchen,Gelderland,VBO,5.762404,51.817216
Nieuweweg,279,,TRNS,6603BN,Wijchen,Wijchen,Gelderland,VBO,5.761686,51.817662
Nieuweweg,279,,,6603BN,Wijchen,Wijchen,Gelderland,VBO,5.762390,51.816815
Nieuweweg,283,A,,6603BN,Wijchen,Wijchen,Gelderland,VBO,5.763821,51.816933
Nieuweweg,283,,,6603BN,Wijchen,Wijchen,Gelderland,VBO,5.763434,51.816838
Nieuweweg,285,A,,6603BN,Wijchen,Wijchen,Gelderland,VBO,5.764408,51.817069
Nieuweweg,285,,,6603BN,Wijchen,Wijchen,Gelderland,VBO,5.764354,51.817124
Nieuweweg,287,,,6603BN,Wijchen,Wijchen,Gelderland,VBO,5.764265,51.817393
Nieuweweg,289,,,6603BN,Wijchen,Wijchen,Gelderland,VBO,5.765103,51.817031
Nieuweweg,291,,,6603BN,Wijchen,Wijchen,Gelderland,VBO,5.765234,51.817075
Nieuweweg,303,,,6603BN,Wijchen,Wijchen,Gelderland,VBO,5.765905,51.817550
Nieuweweg,341,,,6603BN,Wijchen,Wijchen,Gelderland,VBO,5.767204,51.818507
Kasteellaan,101,,,6603BP,Wijchen,Wijchen,Gelderland,VBO,5.739278,51.810145
Kasteellaan,107,,,6603BP,Wijchen,Wijchen,Gelderland,VBO,5.739423,51.810199
Kasteellaan,111,,,6603BP,Wijchen,Wijchen,Gelderland,VBO,5.739801,51.810225
Kasteellaan,115,,,6603BP,Wijchen,Wijchen,Gelderland,VBO,5.739975,51.810305
Kasteellaan,125,,,6603BP,Wijchen,Wijchen,Gelderland,VBO,5.740222,51.810358
Kasteellaan,127,,,6603BP,Wijchen,Wijchen,Gelderland,VBO,5.740382,51.810403
Kasteellaan,129,,,6603BP,Wijchen,Wijchen,Gelderland,VBO,5.740498,51.810429
Kasteellaan,135,,,6603BP,Wijchen,Wijchen,Gelderland,VBO,5.740978,51.810545
Kasteellaan,137,,,6603BP,Wijchen,Wijchen,Gelderland,VBO,5.741079,51.810571
Kasteellaan,143,,,6603BP,Wijchen,Wijchen,Gelderland,VBO,5.741370,51.810651
Kasteellaan,147,,,6603BP,Wijchen,Wijchen,Gelderland,VBO,5.741617,51.810713
Kasteellaan,149,,,6603BP,Wijchen,Wijchen,Gelderland,VBO,5.741704,51.810731
Kasteellaan,153,,,6603BP,Wijchen,Wijchen,Gelderland,VBO,5.741850,51.810776
Kasteellaan,155,,,6603BP,Wijchen,Wijchen,Gelderland,VBO,5.741937,51.810793
Nieuweweg,56,,,6603BR,Wijchen,Wijchen,Gelderland,VBO,5.743213,51.810789
Nieuweweg,60,,,6603BR,Wijchen,Wijchen,Gelderland,VBO,5.743460,51.810852
Nieuweweg,74,A,,6603BR,Wijchen,Wijchen,Gelderland,VBO,5.744375,51.811038
Nieuweweg,74,,,6603BR,Wijchen,Wijchen,Gelderland,VBO,5.744502,51.810615
Nieuweweg,76,,,6603BR,Wijchen,Wijchen,Gelderland,VBO,5.744839,51.811018
Nieuweweg,78,,,6603BR,Wijchen,Wijchen,Gelderland,VBO,5.745476,51.810935
Nieuweweg,80,,,6603BR,Wijchen,Wijchen,Gelderland,VBO,5.745333,51.811125
Nieuweweg,90,A,,6603BS,Wijchen,Wijchen,Gelderland,VBO,5.745564,51.811021
Nieuweweg,90,,,6603BS,Wijchen,Wijchen,Gelderland,VBO,5.745464,51.811295
Nieuweweg,94,,,6603BS,Wijchen,Wijchen,Gelderland,VBO,5.745668,51.811393
Nieuweweg,98,,,6603BS,Wijchen,Wijchen,Gelderland,VBO,5.746017,51.811473
Nieuweweg,102,A,,6603BS,Wijchen,Wijchen,Gelderland,VBO,5.746276,51.811538
Nieuweweg,102,,,6603BS,Wijchen,Wijchen,Gelderland,VBO,5.746409,51.811544
Nieuweweg,108,,,6603BS,Wijchen,Wijchen,Gelderland,VBO,5.746599,51.811696
Nieuweweg,110,,,6603BS,Wijchen,Wijchen,Gelderland,VBO,5.746642,51.811633
Nieuweweg,112,,,6603BS,Wijchen,Wijchen,Gelderland,VBO,5.747063,51.811721
Nieuweweg,116,,,6603BS,Wijchen,Wijchen,Gelderland,VBO,5.747469,51.811765
Nieuweweg,120,,,6603BS,Wijchen,Wijchen,Gelderland,VBO,5.747891,51.811944
Nieuweweg,130,,,6603BS,Wijchen,Wijchen,Gelderland,VBO,5.748095,51.812060
Nieuweweg,136,,,6603BS,Wijchen,Wijchen,Gelderland,VBO,5.748473,51.812122
Nieuweweg,140,,,6603BS,Wijchen,Wijchen,Gelderland,VBO,5.748690,51.812148
Nieuweweg,144,,,6603BT,Wijchen,Wijchen,Gelderland,VBO,5.749213,51.812155
Nieuweweg,146,,,6603BT,Wijchen,Wijchen,Gelderland,VBO,5.749735,51.812163
Nieuweweg,160,A,,6603BT,Wijchen,Wijchen,Gelderland,VBO,5.751043,51.812554
Nieuweweg,160,,,6603BT,Wijchen,Wijchen,Gelderland,VBO,5.751014,51.812572
Nieuweweg,162,,,6603BT,Wijchen,Wijchen,Gelderland,VBO,5.751183,51.812707
Nieuweweg,164,,,6603BT,Wijchen,Wijchen,Gelderland,VBO,5.751270,51.812734
Nieuweweg,168,,,6603BT,Wijchen,Wijchen,Gelderland,VBO,5.751459,51.812805
Nieuweweg,172,,,6603BT,Wijchen,Wijchen,Gelderland,VBO,5.751858,51.812875
Nieuweweg,178,,,6603BT,Wijchen,Wijchen,Gelderland,VBO,5.752265,51.812991
Nieuweweg,180,,,6603BT,Wijchen,Wijchen,Gelderland,VBO,5.752381,51.813017
Nieuweweg,184,,,6603BT,Wijchen,Wijchen,Gelderland,VBO,5.752977,51.813168
Nieuweweg,188,,,6603BV,Wijchen,Wijchen,Gelderland,VBO,5.754894,51.813585
Nieuweweg,190,,,6603BV,Wijchen,Wijchen,Gelderland,VBO,5.754894,51.813585
Nieuweweg,196,,,6603BV,Wijchen,Wijchen,Gelderland,VBO,5.756449,51.814050
Nieuweweg,200,A,,6603BV,Wijchen,Wijchen,Gelderland,VBO,5.757440,51.814494
Nieuweweg,200,,,6603BV,Wijchen,Wijchen,Gelderland,VBO,5.757133,51.814306
Nieuweweg,204,A,,6603BV,Wijchen,Wijchen,Gelderland,VBO,5.758644,51.814634
Nieuweweg,204,,,6603BV,Wijchen,Wijchen,Gelderland,VBO,5.758296,51.814599
Nieuweweg,206,,,6603BV,Wijchen,Wijchen,Gelderland,VBO,5.759410,51.814498
Nieuweweg,208,,,6603BV,Wijchen,Wijchen,Gelderland,VBO,5.759197,51.814839
Nieuweweg,210,,,6603BV,Wijchen,Wijchen,Gelderland,VBO,5.759908,51.814836
Nieuweweg,212,,,6603BV,Wijchen,Wijchen,Gelderland,VBO,5.760418,51.815176
Nieuweweg,216,,,6603BV,Wijchen,Wijchen,Gelderland,VBO,5.760911,51.815184
Nieuweweg,220,B,,6603BV,Wijchen,Wijchen,Gelderland,VBO,5.761103,51.815534
Nieuweweg,220,C,,6603BV,Wijchen,Wijchen,Gelderland,VBO,5.761218,51.815425
Nieuweweg,220,,,6603BV,Wijchen,Wijchen,Gelderland,VBO,5.761046,51.815651
Nieuweweg,236,,,6603BV,Wijchen,Wijchen,Gelderland,VBO,5.761770,51.815523
Nieuweweg,240,A,,6603BV,Wijchen,Wijchen,Gelderland,VBO,5.763673,51.815921
Nieuweweg,240,,,6603BV,Wijchen,Wijchen,Gelderland,VBO,5.763077,51.815806
Nieuweweg,250,A,,6603BV,Wijchen,Wijchen,Gelderland,VBO,5.765536,51.816706
Nieuweweg,250,,,6603BV,Wijchen,Wijchen,Gelderland,VBO,5.765770,51.816903
Buys Ballotstraat,1,,,6603BW,Wijchen,Wijchen,Gelderland,VBO,5.748106,51.813462
Buys Ballotstraat,2,,,6603BW,Wijchen,Wijchen,Gelderland,VBO,5.749354,51.813548
Buys Ballotstraat,3,,,6603BW,Wijchen,Wijchen,Gelderland,VBO,5.747341,51.813806
Buys Ballotstraat,4,,,6603BW,Wijchen,Wijchen,Gelderland,VBO,5.749168,51.813854
Buys Ballotstraat,5,A,,6603BW,Wijchen,Wijchen,Gelderland,VBO,5.747193,51.814016
Buys Ballotstraat,5,,,6603BW,Wijchen,Wijchen,Gelderland,VBO,5.746719,51.814051
Buys Ballotstraat,10,,,6603BW,Wijchen,Wijchen,Gelderland,VBO,5.748664,51.814323
Buys Ballotstraat,14,,,6603BW,Wijchen,Wijchen,Gelderland,VBO,5.748419,51.814486
Buys Ballotstraat,16,,,6603BW,Wijchen,Wijchen,Gelderland,VBO,5.747986,51.814676
Isaac Beekmanstraat,2,,,6603BZ,Wijchen,Wijchen,Gelderland,VBO,5.758535,51.815488
Isaac Beekmanstraat,4,,,6603BZ,Wijchen,Wijchen,Gelderland,VBO,5.758595,51.815712
Isaac Beekmanstraat,6,,,6603BZ,Wijchen,Wijchen,Gelderland,VBO,5.758685,51.816018
Isaac Beekmanstraat,8,A,,6603BZ,Wijchen,Wijchen,Gelderland,VBO,5.758123,51.816539
Isaac Beekmanstraat,8,,,6603BZ,Wijchen,Wijchen,Gelderland,VBO,5.758079,51.816397
Isaac Beekmanstraat,12,,,6603BZ,Wijchen,Wijchen,Gelderland,VBO,5.757849,51.816668
Graafseweg,35,A,,6603CA,Wijchen,Wijchen,Gelderland,VBO,5.740300,51.781460
Graafseweg,35,,,6603CA,Wijchen,Wijchen,Gelderland,VBO,5.739891,51.781399
Graafseweg,37,A,,6603CA,Wijchen,Wijchen,Gelderland,VBO,5.739997,51.781569
Graafseweg,37,,,6603CA,Wijchen,Wijchen,Gelderland,VBO,5.740359,51.781541
Graafseweg,45,,,6603CA,Wijchen,Wijchen,Gelderland,VBO,5.740317,51.781765
Graafseweg,99,,,6603CA,Wijchen,Wijchen,Gelderland,VBO,5.741395,51.784324
Graafseweg,415,,,6603CA,Wijchen,Wijchen,Gelderland,VBO,5.752202,51.796272
Oude Graafseweg,4,,,6603CA,Wijchen,Wijchen,Gelderland,VBO,5.739922,51.781245
Graafseweg,479,,,6603CB,Wijchen,Wijchen,Gelderland,VBO,5.753097,51.799380
Graafseweg,489,,,6603CB,Wijchen,Wijchen,Gelderland,VBO,5.753318,51.799828
Graafseweg,525,,,6603CB,Wijchen,Wijchen,Gelderland,VBO,5.753941,51.801615
Graafseweg,527,A,,6603CB,Wijchen,Wijchen,Gelderland,VBO,5.753986,51.803254
Graafseweg,527,B,,6603CB,Wijchen,Wijchen,Gelderland,VBO,5.753998,51.803271
Graafseweg,527,C,,6603CB,Wijchen,Wijchen,Gelderland,VBO,5.754011,51.803287
Graafseweg,527,,,6603CB,Wijchen,Wijchen,Gelderland,VBO,5.753973,51.803238
Graafseweg,529,A,,6603CB,Wijchen,Wijchen,Gelderland,VBO,5.754051,51.803235
Graafseweg,529,B,,6603CB,Wijchen,Wijchen,Gelderland,VBO,5.754064,51.803251
Graafseweg,529,C,,6603CB,Wijchen,Wijchen,Gelderland,VBO,5.754076,51.803268
Graafseweg,529,,,6603CB,Wijchen,Wijchen,Gelderland,VBO,5.754039,51.803219
Graafseweg,531,A,,6603CB,Wijchen,Wijchen,Gelderland,VBO,5.754117,51.803216
Graafseweg,531,B,,6603CB,Wijchen,Wijchen,Gelderland,VBO,5.754129,51.803232
Graafseweg,531,C,,6603CB,Wijchen,Wijchen,Gelderland,VBO,5.754142,51.803249
Graafseweg,531,,,6603CB,Wijchen,Wijchen,Gelderland,VBO,5.754105,51.803200
Graafseweg,533,A,,6603CB,Wijchen,Wijchen,Gelderland,VBO,5.754182,51.803197
Graafseweg,533,B,,6603CB,Wijchen,Wijchen,Gelderland,VBO,5.754195,51.803213
Graafseweg,533,C,,6603CB,Wijchen,Wijchen,Gelderland,VBO,5.754207,51.803229
Graafseweg,533,,,6603CB,Wijchen,Wijchen,Gelderland,VBO,5.754170,51.803181
Graafseweg,535,A,,6603CB,Wijchen,Wijchen,Gelderland,VBO,5.754241,51.803154
Graafseweg,535,B,,6603CB,Wijchen,Wijchen,Gelderland,VBO,5.754253,51.803170
Graafseweg,535,C,,6603CB,Wijchen,Wijchen,Gelderland,VBO,5.754265,51.803187
Graafseweg,535,,,6603CB,Wijchen,Wijchen,Gelderland,VBO,5.754228,51.803138
Graafseweg,537,A,,6603CB,Wijchen,Wijchen,Gelderland,VBO,5.754306,51.803135
Graafseweg,537,B,,6603CB,Wijchen,Wijchen,Gelderland,VBO,5.754319,51.803151
Graafseweg,537,C,,6603CB,Wijchen,Wijchen,Gelderland,VBO,5.754331,51.803168
Graafseweg,537,,,6603CB,Wijchen,Wijchen,Gelderland,VBO,5.754294,51.803119
Graafseweg,539,A,,6603CB,Wijchen,Wijchen,Gelderland,VBO,5.754372,51.803116
Graafseweg,539,B,,6603CB,Wijchen,Wijchen,Gelderland,VBO,5.754384,51.803132
Graafseweg,539,C,,6603CB,Wijchen,Wijchen,Gelderland,VBO,5.754397,51.803148
Graafseweg,539,,,6603CB,Wijchen,Wijchen,Gelderland,VBO,5.754359,51.803100
Graafseweg,541,,,6603CB,Wijchen,Wijchen,Gelderland,VBO,5.754864,51.803557
Graafseweg,543,A,,6603CB,Wijchen,Wijchen,Gelderland,VBO,5.755039,51.803505
Graafseweg,543,B,,6603CB,Wijchen,Wijchen,Gelderland,VBO,5.755013,51.803513
Graafseweg,543,,,6603CB,Wijchen,Wijchen,Gelderland,VBO,5.755065,51.803498
Graafseweg,545,A,,6603CB,Wijchen,Wijchen,Gelderland,VBO,5.754853,51.803500
Graafseweg,545,B,,6603CB,Wijchen,Wijchen,Gelderland,VBO,5.754879,51.803492
Graafseweg,545,C,,6603CB,Wijchen,Wijchen,Gelderland,VBO,5.754906,51.803485
Graafseweg,545,,,6603CB,Wijchen,Wijchen,Gelderland,VBO,5.754827,51.803508
Graafseweg,547,A,,6603CB,Wijchen,Wijchen,Gelderland,VBO,5.755002,51.803457
Graafseweg,547,B,,6603CB,Wijchen,Wijchen,Gelderland,VBO,5.754976,51.803464
Graafseweg,547,C,,6603CB,Wijchen,Wijchen,Gelderland,VBO,5.754912,51.803423
Graafseweg,547,,,6603CB,Wijchen,Wijchen,Gelderland,VBO,5.755028,51.803449
Graafseweg,549,A,,6603CB,Wijchen,Wijchen,Gelderland,VBO,5.754816,51.803451
Graafseweg,549,B,,6603CB,Wijchen,Wijchen,Gelderland,VBO,5.754842,51.803444
Graafseweg,549,C,,6603CB,Wijchen,Wijchen,Gelderland,VBO,5.754869,51.803436
Graafseweg,549,,,6603CB,Wijchen,Wijchen,Gelderland,VBO,5.754790,51.803459
Graafseweg,551,A,,6603CB,Wijchen,Wijchen,Gelderland,VBO,5.754965,51.803408
Graafseweg,551,B,,6603CB,Wijchen,Wijchen,Gelderland,VBO,5.754938,51.803415
Graafseweg,551,C,,6603CB,Wijchen,Wijchen,Gelderland,VBO,5.754875,51.803374
Graafseweg,551,,,6603CB,Wijchen,Wijchen,Gelderland,VBO,5.754991,51.803400
Graafseweg,553,A,,6603CB,Wijchen,Wijchen,Gelderland,VBO,5.754779,51.803403
Graafseweg,553,B,,6603CB,Wijchen,Wijchen,Gelderland,VBO,5.754805,51.803395
Graafseweg,553,,,6603CB,Wijchen,Wijchen,Gelderland,VBO,5.754753,51.803410
Graafseweg,555,A,,6603CB,Wijchen,Wijchen,Gelderland,VBO,5.754928,51.803359
Graafseweg,555,B,,6603CB,Wijchen,Wijchen,Gelderland,VBO,5.754901,51.803367
Graafseweg,555,,,6603CB,Wijchen,Wijchen,Gelderland,VBO,5.754954,51.803351
Graafseweg,557,A,,6603CB,Wijchen,Wijchen,Gelderland,VBO,5.754899,51.803270
Graafseweg,557,B,,6603CB,Wijchen,Wijchen,Gelderland,VBO,5.754873,51.803278
Graafseweg,557,C,,6603CB,Wijchen,Wijchen,Gelderland,VBO,5.754847,51.803286
Graafseweg,559,A,,6603CB,Wijchen,Wijchen,Gelderland,VBO,5.754728,51.803287
Graafseweg,559,B,,6603CB,Wijchen,Wijchen,Gelderland,VBO,5.754754,51.803279
Graafseweg,559,C,,6603CB,Wijchen,Wijchen,Gelderland,VBO,5.754781,51.803272
Graafseweg,561,A,,6603CB,Wijchen,Wijchen,Gelderland,VBO,5.754862,51.803221
Graafseweg,561,B,,6603CB,Wijchen,Wijchen,Gelderland,VBO,5.754836,51.803229
Graafseweg,561,C,,6603CB,Wijchen,Wijchen,Gelderland,VBO,5.754809,51.803237
Graafseweg,561,,,6603CB,Wijchen,Wijchen,Gelderland,VBO,5.754888,51.803214
Graafseweg,563,A,,6603CB,Wijchen,Wijchen,Gelderland,VBO,5.754691,51.803238
Graafseweg,563,B,,6603CB,Wijchen,Wijchen,Gelderland,VBO,5.754717,51.803230
Graafseweg,563,C,,6603CB,Wijchen,Wijchen,Gelderland,VBO,5.754744,51.803223
Graafseweg,563,D,,6603CB,Wijchen,Wijchen,Gelderland,VBO,5.754805,51.803320
Graafseweg,563,,,6603CB,Wijchen,Wijchen,Gelderland,VBO,5.754795,51.803158
Graafseweg,565,A,,6603CB,Wijchen,Wijchen,Gelderland,VBO,5.754825,51.803173
Graafseweg,565,B,,6603CB,Wijchen,Wijchen,Gelderland,VBO,5.754799,51.803180
Graafseweg,565,C,,6603CB,Wijchen,Wijchen,Gelderland,VBO,5.754772,51.803188
Graafseweg,565,D,,6603CB,Wijchen,Wijchen,Gelderland,VBO,5.754813,51.803339
Graafseweg,565,,,6603CB,Wijchen,Wijchen,Gelderland,VBO,5.754851,51.803165
Graafseweg,567,A,,6603CB,Wijchen,Wijchen,Gelderland,VBO,5.754654,51.803189
Graafseweg,567,B,,6603CB,Wijchen,Wijchen,Gelderland,VBO,5.754680,51.803182
Graafseweg,567,C,,6603CB,Wijchen,Wijchen,Gelderland,VBO,5.754706,51.803174
Graafseweg,569,A,,6603CB,Wijchen,Wijchen,Gelderland,VBO,5.754788,51.803124
Graafseweg,569,B,,6603CB,Wijchen,Wijchen,Gelderland,VBO,5.754761,51.803132
Graafseweg,569,C,,6603CB,Wijchen,Wijchen,Gelderland,VBO,5.754735,51.803139
Graafseweg,569,,,6603CB,Wijchen,Wijchen,Gelderland,VBO,5.754814,51.803116
Graafseweg,573,A,,6603CB,Wijchen,Wijchen,Gelderland,VBO,5.754750,51.803075
Graafseweg,573,B,,6603CB,Wijchen,Wijchen,Gelderland,VBO,5.754724,51.803083
Graafseweg,573,C,,6603CB,Wijchen,Wijchen,Gelderland,VBO,5.754698,51.803091
Graafseweg,573,,,6603CB,Wijchen,Wijchen,Gelderland,VBO,5.754777,51.803068
Graafseweg,575,A,,6603CB,Wijchen,Wijchen,Gelderland,VBO,5.754437,51.803097
Graafseweg,575,B,,6603CB,Wijchen,Wijchen,Gelderland,VBO,5.754450,51.803113
Graafseweg,575,C,,6603CB,Wijchen,Wijchen,Gelderland,VBO,5.754462,51.803129
Graafseweg,575,,,6603CB,Wijchen,Wijchen,Gelderland,VBO,5.754425,51.803080
Graafseweg,577,A,,6603CC,Wijchen,Wijchen,Gelderland,VBO,5.754713,51.803026
Graafseweg,577,B,,6603CC,Wijchen,Wijchen,Gelderland,VBO,5.754687,51.803034
Graafseweg,577,C,,6603CC,Wijchen,Wijchen,Gelderland,VBO,5.754661,51.803042
Graafseweg,577,,,6603CC,Wijchen,Wijchen,Gelderland,VBO,5.754740,51.803019
Graafseweg,581,,,6603CD,Wijchen,Wijchen,Gelderland,VBO,5.755442,51.804244
Graafseweg,583,,,6603CD,Wijchen,Wijchen,Gelderland,VBO,5.755617,51.804369
Graafseweg,615,,,6603CD,Wijchen,Wijchen,Gelderland,VBO,5.755618,51.804612
Graafseweg,617,,,6603CD,Wijchen,Wijchen,Gelderland,VBO,5.755592,51.804909
Graafseweg,629,,,6603CD,Wijchen,Wijchen,Gelderland,VBO,5.756433,51.804924
Graafseweg,631,B,,6603CD,Wijchen,Wijchen,Gelderland,VBO,5.756029,51.805168
Graafseweg,631,C,,6603CD,Wijchen,Wijchen,Gelderland,VBO,5.755942,51.805195
Graafseweg,631,D,,6603CD,Wijchen,Wijchen,Gelderland,VBO,5.755841,51.805223
Graafseweg,631,E,,6603CD,Wijchen,Wijchen,Gelderland,VBO,5.755740,51.805250
Graafseweg,631,F,,6603CD,Wijchen,Wijchen,Gelderland,VBO,5.755638,51.805277
Graafseweg,631,G,,6603CD,Wijchen,Wijchen,Gelderland,VBO,5.755537,51.805313
Graafseweg,631,H,,6603CD,Wijchen,Wijchen,Gelderland,VBO,5.755450,51.805341
Graafseweg,633,A,,6603CD,Wijchen,Wijchen,Gelderland,VBO,5.756116,51.805114
Graafseweg,633,B,,6603CD,Wijchen,Wijchen,Gelderland,VBO,5.756014,51.805141
Graafseweg,633,C,,6603CD,Wijchen,Wijchen,Gelderland,VBO,5.755913,51.805168
Graafseweg,633,D,,6603CD,Wijchen,Wijchen,Gelderland,VBO,5.755812,51.805196
Graafseweg,633,E,,6603CD,Wijchen,Wijchen,Gelderland,VBO,5.755725,51.805232
Graafseweg,633,F,,6603CD,Wijchen,Wijchen,Gelderland,VBO,5.755624,51.805259
Graafseweg,633,G,,6603CD,Wijchen,Wijchen,Gelderland,VBO,5.755523,51.805286
Graafseweg,633,H,,6603CD,Wijchen,Wijchen,Gelderland,VBO,5.755421,51.805314
Graafseweg,635,A,,6603CD,Wijchen,Wijchen,Gelderland,VBO,5.756101,51.805087
Graafseweg,635,B,,6603CD,Wijchen,Wijchen,Gelderland,VBO,5.756000,51.805114
Graafseweg,635,C,,6603CD,Wijchen,Wijchen,Gelderland,VBO,5.755898,51.805141
Graafseweg,635,D,,6603CD,Wijchen,Wijchen,Gelderland,VBO,5.755797,51.805178
Graafseweg,635,E,,6603CD,Wijchen,Wijchen,Gelderland,VBO,5.755696,51.805205
Graafseweg,635,F,,6603CD,Wijchen,Wijchen,Gelderland,VBO,5.755609,51.805232
Graafseweg,635,G,,6603CD,Wijchen,Wijchen,Gelderland,VBO,5.755508,51.805260
Graafseweg,635,H,,6603CD,Wijchen,Wijchen,Gelderland,VBO,5.755407,51.805287
Graafseweg,637,A,,6603CD,Wijchen,Wijchen,Gelderland,VBO,5.756072,51.805069
Graafseweg,637,B,,6603CD,Wijchen,Wijchen,Gelderland,VBO,5.755970,51.805096
Graafseweg,637,C,,6603CD,Wijchen,Wijchen,Gelderland,VBO,5.755884,51.805124
Graafseweg,637,D,,6603CD,Wijchen,Wijchen,Gelderland,VBO,5.755782,51.805151
Graafseweg,637,E,,6603CD,Wijchen,Wijchen,Gelderland,VBO,5.755681,51.805178
Graafseweg,637,F,,6603CD,Wijchen,Wijchen,Gelderland,VBO,5.755580,51.805205
Graafseweg,637,G,,6603CD,Wijchen,Wijchen,Gelderland,VBO,5.755493,51.805233
Graafseweg,637,H,,6603CD,Wijchen,Wijchen,Gelderland,VBO,5.755392,51.805269
Graafseweg,639,B,,6603CD,Wijchen,Wijchen,Gelderland,VBO,5.756193,51.805620
Graafseweg,639,E,,6603CD,Wijchen,Wijchen,Gelderland,VBO,5.756018,51.805626
Graafseweg,639,F,,6603CD,Wijchen,Wijchen,Gelderland,VBO,5.755917,51.805654
Graafseweg,639,G,,6603CD,Wijchen,Wijchen,Gelderland,VBO,5.755830,51.805681
Graafseweg,639,H,,6603CD,Wijchen,Wijchen,Gelderland,VBO,5.755729,51.805708
Graafseweg,641,A,,6603CD,Wijchen,Wijchen,Gelderland,VBO,5.756438,51.805535
Graafseweg,641,B,,6603CD,Wijchen,Wijchen,Gelderland,VBO,5.756337,51.805563
Graafseweg,641,C,,6603CD,Wijchen,Wijchen,Gelderland,VBO,5.756235,51.805590
Graafseweg,641,D,,6603CD,Wijchen,Wijchen,Gelderland,VBO,5.756134,51.805617
Graafseweg,641,E,,6603CD,Wijchen,Wijchen,Gelderland,VBO,5.756033,51.805644
Graafseweg,641,F,,6603CD,Wijchen,Wijchen,Gelderland,VBO,5.755946,51.805681
Graafseweg,641,G,,6603CD,Wijchen,Wijchen,Gelderland,VBO,5.755845,51.805708
Graafseweg,641,H,,6603CD,Wijchen,Wijchen,Gelderland,VBO,5.755744,51.805735
Graafseweg,643,A,,6603CD,Wijchen,Wijchen,Gelderland,VBO,5.756453,51.805562
Graafseweg,643,B,,6603CD,Wijchen,Wijchen,Gelderland,VBO,5.756351,51.805589
Graafseweg,643,C,,6603CD,Wijchen,Wijchen,Gelderland,VBO,5.756250,51.805617
Graafseweg,643,D,,6603CD,Wijchen,Wijchen,Gelderland,VBO,5.756163,51.805644
Graafseweg,643,E,,6603CD,Wijchen,Wijchen,Gelderland,VBO,5.756062,51.805671
Graafseweg,643,F,,6603CD,Wijchen,Wijchen,Gelderland,VBO,5.755961,51.805699
Graafseweg,643,G,,6603CD,Wijchen,Wijchen,Gelderland,VBO,5.755860,51.805726
Graafseweg,643,H,,6603CD,Wijchen,Wijchen,Gelderland,VBO,5.755773,51.805753
Graafseweg,645,A,,6603CD,Wijchen,Wijchen,Gelderland,VBO,5.756467,51.805580
Graafseweg,645,B,,6603CD,Wijchen,Wijchen,Gelderland,VBO,5.756366,51.805607
Graafseweg,645,C,,6603CD,Wijchen,Wijchen,Gelderland,VBO,5.756279,51.805644
Graafseweg,645,D,,6603CD,Wijchen,Wijchen,Gelderland,VBO,5.756178,51.805671
Graafseweg,645,E,,6603CD,Wijchen,Wijchen,Gelderland,VBO,5.756077,51.805698
Graafseweg,645,F,,6603CD,Wijchen,Wijchen,Gelderland,VBO,5.755976,51.805725
Graafseweg,645,G,,6603CD,Wijchen,Wijchen,Gelderland,VBO,5.755874,51.805753
Graafseweg,645,H,,6603CD,Wijchen,Wijchen,Gelderland,VBO,5.755788,51.805780
Graafseweg,647,A,,6603CD,Wijchen,Wijchen,Gelderland,VBO,5.756842,51.805723
Graafseweg,647,,,6603CD,Wijchen,Wijchen,Gelderland,VBO,5.756788,51.805639
Graafseweg,649,A,,6603CD,Wijchen,Wijchen,Gelderland,VBO,5.756670,51.805570
Graafseweg,649,B,,6603CD,Wijchen,Wijchen,Gelderland,VBO,5.756714,51.805624
Graafseweg,649,C,,6603CD,Wijchen,Wijchen,Gelderland,VBO,5.756758,51.805687
Graafseweg,649,D,,6603CD,Wijchen,Wijchen,Gelderland,VBO,5.756802,51.805741
Graafseweg,649,E,,6603CD,Wijchen,Wijchen,Gelderland,VBO,5.756846,51.805804
Graafseweg,649,F,,6603CD,Wijchen,Wijchen,Gelderland,VBO,5.756876,51.805857
Graafseweg,651,A,,6603CD,Wijchen,Wijchen,Gelderland,VBO,5.756612,51.805589
Graafseweg,651,B,,6603CD,Wijchen,Wijchen,Gelderland,VBO,5.756656,51.805642
Graafseweg,651,C,,6603CD,Wijchen,Wijchen,Gelderland,VBO,5.756700,51.805705
Graafseweg,651,D,,6603CD,Wijchen,Wijchen,Gelderland,VBO,5.756744,51.805759
Graafseweg,651,E,,6603CD,Wijchen,Wijchen,Gelderland,VBO,5.756788,51.805813
Graafseweg,651,F,,6603CD,Wijchen,Wijchen,Gelderland,VBO,5.756832,51.805876
Graafseweg,653,A,,6603CD,Wijchen,Wijchen,Gelderland,VBO,5.756555,51.805607
Graafseweg,653,B,,6603CD,Wijchen,Wijchen,Gelderland,VBO,5.756599,51.805661
Graafseweg,653,C,,6603CD,Wijchen,Wijchen,Gelderland,VBO,5.756642,51.805714
Graafseweg,653,D,,6603CD,Wijchen,Wijchen,Gelderland,VBO,5.756686,51.805777
Graafseweg,653,E,,6603CD,Wijchen,Wijchen,Gelderland,VBO,5.756730,51.805831
Graafseweg,653,F,,6603CD,Wijchen,Wijchen,Gelderland,VBO,5.756774,51.805885
Graafseweg,657,,GAR,6603CD,Wijchen,Wijchen,Gelderland,VBO,5.756720,51.805542
Graafseweg,669,,,6603CD,Wijchen,Wijchen,Gelderland,VBO,5.757428,51.806044
Graafseweg,671,,,6603CE,Wijchen,Wijchen,Gelderland,VBO,5.757726,51.806316
Graafseweg,675,,,6603CE,Wijchen,Wijchen,Gelderland,VBO,5.757771,51.806469
Graafseweg,679,,,6603CE,Wijchen,Wijchen,Gelderland,VBO,5.757888,51.806594
Graafseweg,681,,,6603CE,Wijchen,Wijchen,Gelderland,VBO,5.757932,51.806684
Graafseweg,683,,,6603CE,Wijchen,Wijchen,Gelderland,VBO,5.757976,51.806738
Graafseweg,687,,,6603CE,Wijchen,Wijchen,Gelderland,VBO,5.758101,51.806815
Graafseweg,691,,,6603CE,Wijchen,Wijchen,Gelderland,VBO,5.758074,51.807004
Graafseweg,695,,,6603CE,Wijchen,Wijchen,Gelderland,VBO,5.758220,51.807085
Graafseweg,699,,,6603CE,Wijchen,Wijchen,Gelderland,VBO,5.758294,51.807291
Graafseweg,701,,,6603CE,Wijchen,Wijchen,Gelderland,VBO,5.758255,51.807795
Graafseweg,773,A,,6603CG,Wijchen,Wijchen,Gelderland,VBO,5.760434,51.810116
Graafseweg,773,,,6603CG,Wijchen,Wijchen,Gelderland,VBO,5.759972,51.810333
Graafseweg,775,,,6603CG,Wijchen,Wijchen,Gelderland,VBO,5.760481,51.810466
Graafseweg,777,A,,6603CG,Wijchen,Wijchen,Gelderland,VBO,5.760538,51.811165
Graafseweg,777,,,6603CG,Wijchen,Wijchen,Gelderland,VBO,5.760599,51.810771
Graafseweg,779,A,,6603CG,Wijchen,Wijchen,Gelderland,VBO,5.760850,51.811151
Graafseweg,779,,,6603CG,Wijchen,Wijchen,Gelderland,VBO,5.760935,51.811259
Graafseweg,781,,,6603CG,Wijchen,Wijchen,Gelderland,VBO,5.761290,51.811938
Graafseweg,789,,,6603CG,Wijchen,Wijchen,Gelderland,VBO,5.761585,51.812431
Graafseweg,831,,,6603CG,Wijchen,Wijchen,Gelderland,VBO,5.762210,51.812615
Graafseweg,833,A,,6603CG,Wijchen,Wijchen,Gelderland,VBO,5.762334,51.813000
Graafseweg,833,,,6603CG,Wijchen,Wijchen,Gelderland,VBO,5.762357,51.812866
Graafseweg,837,,,6603CG,Wijchen,Wijchen,Gelderland,VBO,5.762608,51.813417
Graafseweg,861,,,6603CG,Wijchen,Wijchen,Gelderland,VBO,5.762929,51.813658
Graafseweg,863,,,6603CG,Wijchen,Wijchen,Gelderland,VBO,5.763046,51.813829
Graafseweg,865,,,6603CG,Wijchen,Wijchen,Gelderland,VBO,5.763354,51.814232
Korte Smallesteeg,2,,,6603CG,Wijchen,Wijchen,Gelderland,VBO,5.770831,51.818657
Korte Smallesteeg,4,,,6603CG,Wijchen,Wijchen,Gelderland,VBO,5.770905,51.818747
Korte Smallesteeg,8,,,6603CG,Wijchen,Wijchen,Gelderland,VBO,5.771111,51.819106
Korte Smallesteeg,10,,,6603CG,Wijchen,Wijchen,Gelderland,VBO,5.772067,51.818959
Graafseweg,981,,,6603CH,Wijchen,Wijchen,Gelderland,VBO,5.769044,51.818214
Graafseweg,985,,,6603CH,Wijchen,Wijchen,Gelderland,VBO,5.769480,51.818356
Graafseweg,52,,,6603CJ,Wijchen,Wijchen,Gelderland,VBO,5.741159,51.781997
Graafseweg,82,,,6603CJ,Wijchen,Wijchen,Gelderland,VBO,5.741893,51.783154
Graafseweg,84,,,6603CJ,Wijchen,Wijchen,Gelderland,VBO,5.742515,51.783035
Graafseweg,88,,,6603CJ,Wijchen,Wijchen,Gelderland,VBO,5.741722,51.783505
Graafseweg,94,,,6603CJ,Wijchen,Wijchen,Gelderland,VBO,5.741724,51.783748
Graafseweg,100,A,,6603CJ,Wijchen,Wijchen,Gelderland,VBO,5.742854,51.783690
Graafseweg,100,,,6603CJ,Wijchen,Wijchen,Gelderland,VBO,5.741784,51.783999
Graafseweg,300,,,6603CJ,Wijchen,Wijchen,Gelderland,VBO,5.749528,51.790025
Graafseweg,302,,,6603CJ,Wijchen,Wijchen,Gelderland,VBO,5.750038,51.790446
Graafseweg,304,A,,6603CJ,Wijchen,Wijchen,Gelderland,VBO,5.750783,51.791000
Graafseweg,304,,,6603CJ,Wijchen,Wijchen,Gelderland,VBO,5.750648,51.791094
Graafseweg,370,,,6603CJ,Wijchen,Wijchen,Gelderland,VBO,5.753661,51.793886
Graafseweg,372,,,6603CJ,Wijchen,Wijchen,Gelderland,VBO,5.754341,51.793704
Graafseweg,374,,,6603CJ,Wijchen,Wijchen,Gelderland,VBO,5.755219,51.792937
Graafseweg,394,,,6603CJ,Wijchen,Wijchen,Gelderland,VBO,5.753482,51.795001
Graafseweg,520,,,6603CK,Wijchen,Wijchen,Gelderland,VBO,5.754575,51.801065
Graafseweg,522,,,6603CK,Wijchen,Wijchen,Gelderland,VBO,5.754677,51.801173
Graafseweg,524,,,6603CK,Wijchen,Wijchen,Gelderland,VBO,5.754736,51.801262
Graafseweg,526,,,6603CK,Wijchen,Wijchen,Gelderland,VBO,5.754751,51.801325
Graafseweg,530,,,6603CK,Wijchen,Wijchen,Gelderland,VBO,5.755013,51.801495
Graafseweg,532,,,6603CK,Wijchen,Wijchen,Gelderland,VBO,5.755000,51.801630
Graafseweg,540,,,6603CK,Wijchen,Wijchen,Gelderland,VBO,5.755044,51.801773
Graafseweg,542,,,6603CK,Wijchen,Wijchen,Gelderland,VBO,5.754966,51.801880
Graafseweg,544,,,6603CK,Wijchen,Wijchen,Gelderland,VBO,5.755002,51.801917
Graafseweg,548,,,6603CK,Wijchen,Wijchen,Gelderland,VBO,5.755072,51.802036
Graafseweg,550,,,6603CL,Wijchen,Wijchen,Gelderland,VBO,5.755149,51.802115
Graafseweg,552,,,6603CL,Wijchen,Wijchen,Gelderland,VBO,5.755178,51.802154
Graafseweg,554,,,6603CL,Wijchen,Wijchen,Gelderland,VBO,5.755251,51.802240
Graafseweg,556,,,6603CL,Wijchen,Wijchen,Gelderland,VBO,5.755295,51.802294
Graafseweg,560,,,6603CL,Wijchen,Wijchen,Gelderland,VBO,5.755586,51.802386
Graafseweg,562,,,6603CL,Wijchen,Wijchen,Gelderland,VBO,5.755430,51.802453
Graafseweg,566,,,6603CL,Wijchen,Wijchen,Gelderland,VBO,5.755515,51.802563
Graafseweg,570,,,6603CL,Wijchen,Wijchen,Gelderland,VBO,5.756095,51.802606
Graafseweg,576,,,6603CL,Wijchen,Wijchen,Gelderland,VBO,5.755750,51.802940
Graafseweg,578,,,6603CL,Wijchen,Wijchen,Gelderland,VBO,5.755838,51.803038
Graafseweg,580,,,6603CL,Wijchen,Wijchen,Gelderland,VBO,5.755876,51.803140
Graafseweg,582,A,,6603CL,Wijchen,Wijchen,Gelderland,VBO,5.756056,51.803146
Graafseweg,582,B,,6603CL,Wijchen,Wijchen,Gelderland,VBO,5.756143,51.803118
Graafseweg,582,,,6603CL,Wijchen,Wijchen,Gelderland,VBO,5.755953,51.803002
Graafseweg,584,A,,6603CL,Wijchen,Wijchen,Gelderland,VBO,5.756027,51.803110
Graafseweg,584,B,,6603CL,Wijchen,Wijchen,Gelderland,VBO,5.756113,51.803073
Graafseweg,584,,,6603CL,Wijchen,Wijchen,Gelderland,VBO,5.755925,51.803128
Graafseweg,586,,,6603CL,Wijchen,Wijchen,Gelderland,VBO,5.755955,51.803173
Graafseweg,588,,,6603CM,Wijchen,Wijchen,Gelderland,VBO,5.756364,51.803558
Graafseweg,590,,,6603CM,Wijchen,Wijchen,Gelderland,VBO,5.756446,51.803397
Graafseweg,592,A,,6603CM,Wijchen,Wijchen,Gelderland,VBO,5.756334,51.803459
Graafseweg,592,B,,6603CM,Wijchen,Wijchen,Gelderland,VBO,5.756421,51.803432
Graafseweg,592,C,,6603CM,Wijchen,Wijchen,Gelderland,VBO,5.756508,51.803405
Graafseweg,592,D,,6603CM,Wijchen,Wijchen,Gelderland,VBO,5.756508,51.803495
Graafseweg,592,E,,6603CM,Wijchen,Wijchen,Gelderland,VBO,5.756595,51.803467
Graafseweg,592,,,6603CM,Wijchen,Wijchen,Gelderland,VBO,5.756378,51.803504
Graafseweg,596,,,6603CM,Wijchen,Wijchen,Gelderland,VBO,5.756727,51.803665
Graafseweg,598,,,6603CM,Wijchen,Wijchen,Gelderland,VBO,5.756510,51.803710
Graafseweg,600,,,6603CM,Wijchen,Wijchen,Gelderland,VBO,5.756438,51.803774
Graafseweg,612,,,6603CM,Wijchen,Wijchen,Gelderland,VBO,5.756760,51.804114
Graafseweg,614,A,,6603CM,Wijchen,Wijchen,Gelderland,VBO,5.756758,51.804265
Graafseweg,614,,,6603CM,Wijchen,Wijchen,Gelderland,VBO,5.756789,51.804195
Graafseweg,618,,,6603CM,Wijchen,Wijchen,Gelderland,VBO,5.756776,51.804339
Graafseweg,624,,,6603CM,Wijchen,Wijchen,Gelderland,VBO,5.757010,51.804563
Graafseweg,628,,,6603CM,Wijchen,Wijchen,Gelderland,VBO,5.757069,51.804661
Graafseweg,630,,,6603CM,Wijchen,Wijchen,Gelderland,VBO,5.757171,51.804778
Graafseweg,632,,,6603CM,Wijchen,Wijchen,Gelderland,VBO,5.757215,51.804841
Graafseweg,636,,,6603CM,Wijchen,Wijchen,Gelderland,VBO,5.757303,51.804984
Graafseweg,638,,,6603CM,Wijchen,Wijchen,Gelderland,VBO,5.757347,51.805038
Graafseweg,642,,,6603CN,Wijchen,Wijchen,Gelderland,VBO,5.757610,51.805271
Graafseweg,652,,,6603CN,Wijchen,Wijchen,Gelderland,VBO,5.757670,51.805468
Graafseweg,660,,,6603CN,Wijchen,Wijchen,Gelderland,VBO,5.757846,51.805666
Graafseweg,662,,,6603CN,Wijchen,Wijchen,Gelderland,VBO,5.757860,51.805720
Graafseweg,666,,,6603CN,Wijchen,Wijchen,Gelderland,VBO,5.758210,51.805970
Graafseweg,668,,,6603CN,Wijchen,Wijchen,Gelderland,VBO,5.758371,51.806131
Graafseweg,670,,,6603CN,Wijchen,Wijchen,Gelderland,VBO,5.758503,51.806230
Graafseweg,674,,,6603CN,Wijchen,Wijchen,Gelderland,VBO,5.758533,51.806356
Graafseweg,676,,,6603CN,Wijchen,Wijchen,Gelderland,VBO,5.758752,51.806562
Graafseweg,678,,,6603CN,Wijchen,Wijchen,Gelderland,VBO,5.758826,51.806705
Graafseweg,680,,,6603CN,Wijchen,Wijchen,Gelderland,VBO,5.758928,51.806876
Graafseweg,706,,,6603CP,Wijchen,Wijchen,Gelderland,VBO,5.759236,51.807234
Graafseweg,708,,,6603CP,Wijchen,Wijchen,Gelderland,VBO,5.759280,51.807270
Graafseweg,710,,,6603CP,Wijchen,Wijchen,Gelderland,VBO,5.759324,51.807342
Graafseweg,712,,,6603CP,Wijchen,Wijchen,Gelderland,VBO,5.759353,51.807378
Graafseweg,714,,,6603CP,Wijchen,Wijchen,Gelderland,VBO,5.759382,51.807472
Graafseweg,716,,,6603CP,Wijchen,Wijchen,Gelderland,VBO,5.759406,51.807514
Graafseweg,722,,,6603CP,Wijchen,Wijchen,Gelderland,VBO,5.759660,51.807691
Graafseweg,734,,,6603CP,Wijchen,Wijchen,Gelderland,VBO,5.760142,51.808139
Graafseweg,742,,,6603CP,Wijchen,Wijchen,Gelderland,VBO,5.760509,51.808578
Graafseweg,752,,,6603CP,Wijchen,Wijchen,Gelderland,VBO,5.760512,51.809010
Graafseweg,780,,RG,6603CR,Wijchen,Wijchen,Gelderland,VBO,5.761259,51.809879
Graafseweg,780,,,6603CR,Wijchen,Wijchen,Gelderland,VBO,5.761420,51.810140
Graafseweg,782,,,6603CR,Wijchen,Wijchen,Gelderland,VBO,5.761595,51.810220
Graafseweg,794,,,6603CR,Wijchen,Wijchen,Gelderland,VBO,5.761962,51.810794
Graafseweg,818,,,6603CR,Wijchen,Wijchen,Gelderland,VBO,5.762608,51.811700
Graafseweg,820,,,6603CR,Wijchen,Wijchen,Gelderland,VBO,5.763671,51.812218
Graafseweg,844,,,6603CR,Wijchen,Wijchen,Gelderland,VBO,5.763560,51.812847
Graafseweg,864,,,6603CR,Wijchen,Wijchen,Gelderland,VBO,5.764103,51.813609
Graafseweg,916,A,,6603CR,Wijchen,Wijchen,Gelderland,VBO,5.766312,51.815638
Graafseweg,916,,,6603CR,Wijchen,Wijchen,Gelderland,VBO,5.765927,51.815878
Graafseweg,918,,,6603CR,Wijchen,Wijchen,Gelderland,VBO,5.767036,51.815739
Graafseweg,930,,,6603CR,Wijchen,Wijchen,Gelderland,VBO,5.766679,51.816379
Graafseweg,942,,,6603CR,Wijchen,Wijchen,Gelderland,VBO,5.766953,51.816865
Graafseweg,944,,,6603CR,Wijchen,Wijchen,Gelderland,VBO,5.767724,51.816492
Graafseweg,946,,,6603CR,Wijchen,Wijchen,Gelderland,VBO,5.767007,51.816895
Graafseweg,950,,,6603CR,Wijchen,Wijchen,Gelderland,VBO,5.767948,51.817264
Gomarius Messtraat,1,,,6603CS,Wijchen,Wijchen,Gelderland,VBO,5.754632,51.800966
Gomarius Messtraat,3,,,6603CS,Wijchen,Wijchen,Gelderland,VBO,5.755371,51.800901
Gomarius Messtraat,7,,,6603CS,Wijchen,Wijchen,Gelderland,VBO,5.756298,51.800790
Gomarius Messtraat,13,,,6603CS,Wijchen,Wijchen,Gelderland,VBO,5.757613,51.800309
Gomarius Messtraat,19,,,6603CS,Wijchen,Wijchen,Gelderland,VBO,5.758554,51.800109
Gomarius Messtraat,25,,,6603CS,Wijchen,Wijchen,Gelderland,VBO,5.759063,51.800314
Gomarius Messtraat,31,,,6603CS,Wijchen,Wijchen,Gelderland,VBO,5.759821,51.800824
Michielpad,2,,,6603CS,Wijchen,Wijchen,Gelderland,VBO,5.760354,51.800372
Michielpad,4,,,6603CS,Wijchen,Wijchen,Gelderland,VBO,5.760411,51.800336
Michielpad,6,,,6603CS,Wijchen,Wijchen,Gelderland,VBO,5.760483,51.800291
Michielpad,8,,,6603CS,Wijchen,Wijchen,Gelderland,VBO,5.760556,51.800264
Michielpad,10,,,6603CS,Wijchen,Wijchen,Gelderland,VBO,5.760295,51.800337
Michielpad,12,,,6603CS,Wijchen,Wijchen,Gelderland,VBO,5.760353,51.800301
Michielpad,14,,,6603CS,Wijchen,Wijchen,Gelderland,VBO,5.760425,51.800255
Michielpad,16,,,6603CS,Wijchen,Wijchen,Gelderland,VBO,5.760483,51.800210
Michielpad,18,,,6603CS,Wijchen,Wijchen,Gelderland,VBO,5.760927,51.799643
Michielpad,20,,,6603CS,Wijchen,Wijchen,Gelderland,VBO,5.760971,51.799615
Michielpad,22,,,6603CS,Wijchen,Wijchen,Gelderland,VBO,5.761058,51.799597
Michielpad,24,,,6603CS,Wijchen,Wijchen,Gelderland,VBO,5.761115,51.799534
Michielpad,26,,,6603CS,Wijchen,Wijchen,Gelderland,VBO,5.761216,51.799534
Michielpad,28,,,6603CS,Wijchen,Wijchen,Gelderland,VBO,5.761274,51.799489
Gomarius Messtraat,24,,,6603CT,Wijchen,Wijchen,Gelderland,VBO,5.760458,51.800684
Michielpad,11,,,6603CT,Wijchen,Wijchen,Gelderland,VBO,5.761048,51.800182
Michielpad,13,,,6603CT,Wijchen,Wijchen,Gelderland,VBO,5.760916,51.800074
Michielpad,15,,,6603CT,Wijchen,Wijchen,Gelderland,VBO,5.760814,51.799985
Michielpad,17,,,6603CT,Wijchen,Wijchen,Gelderland,VBO,5.760697,51.799877
den Berg,4,A,,6603CV,Wijchen,Wijchen,Gelderland,VBO,5.756928,51.801696
den Berg,4,,,6603CV,Wijchen,Wijchen,Gelderland,VBO,5.756669,51.801840
den Berg,5,,,6603CV,Wijchen,Wijchen,Gelderland,VBO,5.756465,51.801733
den Berg,6,,,6603CV,Wijchen,Wijchen,Gelderland,VBO,5.756549,51.801427
den Berg,7,,,6603CV,Wijchen,Wijchen,Gelderland,VBO,5.756057,51.801447
Heumenseweg,1,A,,6603CW,Wijchen,Wijchen,Gelderland,VBO,5.756710,51.803305
Heumenseweg,1,,,6603CW,Wijchen,Wijchen,Gelderland,VBO,5.756681,51.803323
Heumenseweg,3,A,,6603CW,Wijchen,Wijchen,Gelderland,VBO,5.756855,51.803296
Heumenseweg,3,,,6603CW,Wijchen,Wijchen,Gelderland,VBO,5.756855,51.803296
Heumenseweg,7,,,6603CW,Wijchen,Wijchen,Gelderland,VBO,5.757577,51.803006
Heumenseweg,9,,,6603CW,Wijchen,Wijchen,Gelderland,VBO,5.757732,51.802879
Heumenseweg,11,,,6603CW,Wijchen,Wijchen,Gelderland,VBO,5.757852,51.802924
Heumenseweg,13,,,6603CW,Wijchen,Wijchen,Gelderland,VBO,5.757924,51.802906
Heumenseweg,15,,,6603CW,Wijchen,Wijchen,Gelderland,VBO,5.758025,51.802807
Heumenseweg,19,,,6603CW,Wijchen,Wijchen,Gelderland,VBO,5.758271,51.802716
Heumenseweg,21,,,6603CW,Wijchen,Wijchen,Gelderland,VBO,5.758458,51.802617
Heumenseweg,25,,,6603CX,Wijchen,Wijchen,Gelderland,VBO,5.759107,51.802210
Heumenseweg,27,,,6603CX,Wijchen,Wijchen,Gelderland,VBO,5.759223,51.802174
Heumenseweg,29,,,6603CX,Wijchen,Wijchen,Gelderland,VBO,5.759367,51.802029
Heumenseweg,31,,,6603CX,Wijchen,Wijchen,Gelderland,VBO,5.759540,51.801966
Heumenseweg,33,,,6603CX,Wijchen,Wijchen,Gelderland,VBO,5.759699,51.801912
Heumenseweg,37,,,6603CX,Wijchen,Wijchen,Gelderland,VBO,5.760392,51.801568
Heumenseweg,41,,,6603CX,Wijchen,Wijchen,Gelderland,VBO,5.760782,51.801378
Heumenseweg,2,A,,6603CZ,Wijchen,Wijchen,Gelderland,VBO,5.756085,51.803181
Heumenseweg,2,B,,6603CZ,Wijchen,Wijchen,Gelderland,VBO,5.756158,51.803154
Heumenseweg,2,,,6603CZ,Wijchen,Wijchen,Gelderland,VBO,5.755999,51.803218
Heumenseweg,4,,,6603CZ,Wijchen,Wijchen,Gelderland,VBO,5.756288,51.803100
Heumenseweg,6,,,6603CZ,Wijchen,Wijchen,Gelderland,VBO,5.756432,51.803036
Heumenseweg,8,A,,6603CZ,Wijchen,Wijchen,Gelderland,VBO,5.756518,51.802955
Heumenseweg,8,B,,6603CZ,Wijchen,Wijchen,Gelderland,VBO,5.756474,51.802902
Heumenseweg,8,,,6603CZ,Wijchen,Wijchen,Gelderland,VBO,5.756620,51.803009
Heumenseweg,10,B,,6603CZ,Wijchen,Wijchen,Gelderland,VBO,5.756735,51.802910
Heumenseweg,10,,,6603CZ,Wijchen,Wijchen,Gelderland,VBO,5.756736,51.802937
Heumenseweg,12,,,6603CZ,Wijchen,Wijchen,Gelderland,VBO,5.756938,51.802882
Heumenseweg,14,,,6603CZ,Wijchen,Wijchen,Gelderland,VBO,5.757068,51.802738
Heumenseweg,18,,,6603CZ,Wijchen,Wijchen,Gelderland,VBO,5.757358,51.802746
Heumenseweg,22,,,6603CZ,Wijchen,Wijchen,Gelderland,VBO,5.757516,51.802620
Heumenseweg,28,A,,6603CZ,Wijchen,Wijchen,Gelderland,VBO,5.758059,51.801975
Heumenseweg,28,,,6603CZ,Wijchen,Wijchen,Gelderland,VBO,5.758368,51.802194
Heumenseweg,32,,,6603CZ,Wijchen,Wijchen,Gelderland,VBO,5.758682,51.801616
Heumenseweg,34,,,6603CZ,Wijchen,Wijchen,Gelderland,VBO,5.758739,51.801501
Heumenseweg,36,,CAI,6603CZ,Wijchen,Wijchen,Gelderland,VBO,5.759325,51.801460
Heumenseweg,46,,,6603CZ,Wijchen,Wijchen,Gelderland,VBO,5.761734,51.799047
Eliasstraat,1,,,6603DA,Wijchen,Wijchen,Gelderland,VBO,5.759981,51.801814
Eliasstraat,3,,,6603DA,Wijchen,Wijchen,Gelderland,VBO,5.760105,51.801929
Eliasstraat,5,,,6603DA,Wijchen,Wijchen,Gelderland,VBO,5.760222,51.802045
Eliasstraat,9,,,6603DA,Wijchen,Wijchen,Gelderland,VBO,5.760486,51.802359
Eliasstraat,11,,,6603DA,Wijchen,Wijchen,Gelderland,VBO,5.760733,51.802457
Eliasstraat,13,,,6603DA,Wijchen,Wijchen,Gelderland,VBO,5.760907,51.802393
Eliasstraat,15,,,6603DA,Wijchen,Wijchen,Gelderland,VBO,5.761066,51.802348
Eliasstraat,17,,,6603DA,Wijchen,Wijchen,Gelderland,VBO,5.761239,51.802293
Eliasstraat,19,,,6603DA,Wijchen,Wijchen,Gelderland,VBO,5.761384,51.802230
Eliasstraat,21,,,6603DA,Wijchen,Wijchen,Gelderland,VBO,5.761530,51.802427
Eliasstraat,23,,,6603DA,Wijchen,Wijchen,Gelderland,VBO,5.761604,51.802508
Eliasstraat,25,,,6603DA,Wijchen,Wijchen,Gelderland,VBO,5.761691,51.802588
Eliasstraat,27,,,6603DA,Wijchen,Wijchen,Gelderland,VBO,5.761750,51.802651
Eliasstraat,29,,,6603DA,Wijchen,Wijchen,Gelderland,VBO,5.761838,51.802750
Eliasstraat,31,,,6603DA,Wijchen,Wijchen,Gelderland,VBO,5.761896,51.802803
Eliasstraat,33,,,6603DA,Wijchen,Wijchen,Gelderland,VBO,5.761941,51.802947
Eliasstraat,35,,,6603DA,Wijchen,Wijchen,Gelderland,VBO,5.762029,51.803046
Eliasstraat,37,,,6603DA,Wijchen,Wijchen,Gelderland,VBO,5.762131,51.803153
Eliasstraat,2,,,6603DB,Wijchen,Wijchen,Gelderland,VBO,5.760597,51.801765
Eliasstraat,4,,,6603DB,Wijchen,Wijchen,Gelderland,VBO,5.760758,51.801980
Eliasstraat,6,,,6603DB,Wijchen,Wijchen,Gelderland,VBO,5.761134,51.801817
Damianusstraat,1,,,6603DC,Wijchen,Wijchen,Gelderland,VBO,5.759948,51.802136
Damianusstraat,2,,,6603DC,Wijchen,Wijchen,Gelderland,VBO,5.760413,51.802278
Damianusstraat,3,,,6603DC,Wijchen,Wijchen,Gelderland,VBO,5.759832,51.802172
Damianusstraat,4,,,6603DC,Wijchen,Wijchen,Gelderland,VBO,5.760153,51.802369
Damianusstraat,5,,,6603DC,Wijchen,Wijchen,Gelderland,VBO,5.759673,51.802235
Damianusstraat,6,,,6603DC,Wijchen,Wijchen,Gelderland,VBO,5.760009,51.802522
Damianusstraat,7,,,6603DC,Wijchen,Wijchen,Gelderland,VBO,5.759572,51.802263
Damianusstraat,8,,,6603DC,Wijchen,Wijchen,Gelderland,VBO,5.759908,51.802567
Damianusstraat,9,,,6603DC,Wijchen,Wijchen,Gelderland,VBO,5.759414,51.802407
Damianusstraat,10,,,6603DC,Wijchen,Wijchen,Gelderland,VBO,5.759804,51.802597
Damianusstraat,11,,,6603DC,Wijchen,Wijchen,Gelderland,VBO,5.759472,51.802479
Damianusstraat,13,,,6603DC,Wijchen,Wijchen,Gelderland,VBO,5.759531,51.802532
Damianusstraat,15,,,6603DC,Wijchen,Wijchen,Gelderland,VBO,5.759575,51.802595
Pater Sebald Lindersstraat,1,,,6603DD,Wijchen,Wijchen,Gelderland,VBO,5.758560,51.802589
Pater Sebald Lindersstraat,3,,,6603DD,Wijchen,Wijchen,Gelderland,VBO,5.758749,51.802706
Pater Sebald Lindersstraat,5,,,6603DD,Wijchen,Wijchen,Gelderland,VBO,5.758808,51.802768
Pater Sebald Lindersstraat,7,,,6603DD,Wijchen,Wijchen,Gelderland,VBO,5.758866,51.802840
Pater Sebald Lindersstraat,9,,,6603DD,Wijchen,Wijchen,Gelderland,VBO,5.758924,51.802899
Pater Sebald Lindersstraat,11,,,6603DD,Wijchen,Wijchen,Gelderland,VBO,5.759011,51.802968
Pater Sebald Lindersstraat,13,,,6603DD,Wijchen,Wijchen,Gelderland,VBO,5.759070,51.803040
Pater Sebald Lindersstraat,15,,,6603DD,Wijchen,Wijchen,Gelderland,VBO,5.759159,51.803106
Pater Sebald Lindersstraat,17,,,6603DD,Wijchen,Wijchen,Gelderland,VBO,5.759203,51.803159
Pater Sebald Lindersstraat,19,,,6603DD,Wijchen,Wijchen,Gelderland,VBO,5.759232,51.803216
Pater Sebald Lindersstraat,21,,,6603DD,Wijchen,Wijchen,Gelderland,VBO,5.759290,51.803306
Pater Sebald Lindersstraat,23,,,6603DD,Wijchen,Wijchen,Gelderland,VBO,5.759276,51.803369
Pater Sebald Lindersstraat,2,,,6603DE,Wijchen,Wijchen,Gelderland,VBO,5.758847,51.802292
Pater Sebald Lindersstraat,4,,,6603DE,Wijchen,Wijchen,Gelderland,VBO,5.758871,51.802342
Pater Sebald Lindersstraat,6,,,6603DE,Wijchen,Wijchen,Gelderland,VBO,5.758915,51.802386
Pater Sebald Lindersstraat,8,,,6603DE,Wijchen,Wijchen,Gelderland,VBO,5.758959,51.802440
Pater Sebald Lindersstraat,10,,,6603DE,Wijchen,Wijchen,Gelderland,VBO,5.759038,51.802543
Pater Sebald Lindersstraat,12,,,6603DE,Wijchen,Wijchen,Gelderland,VBO,5.759092,51.802597
Pater Sebald Lindersstraat,14,,,6603DE,Wijchen,Wijchen,Gelderland,VBO,5.759166,51.802687
Pater Sebald Lindersstraat,16,,,6603DE,Wijchen,Wijchen,Gelderland,VBO,5.759213,51.802731
Pater Sebald Lindersstraat,18,,,6603DE,Wijchen,Wijchen,Gelderland,VBO,5.759272,51.802812
Pater Sebald Lindersstraat,20,,,6603DE,Wijchen,Wijchen,Gelderland,VBO,5.759330,51.802866
Pater Sebald Lindersstraat,22,,,6603DE,Wijchen,Wijchen,Gelderland,VBO,5.759403,51.802946
Pater Sebald Lindersstraat,24,,,6603DE,Wijchen,Wijchen,Gelderland,VBO,5.759462,51.803000
Pater Sebald Lindersstraat,26,,,6603DE,Wijchen,Wijchen,Gelderland,VBO,5.759521,51.803081
Pater Sebald Lindersstraat,28,,,6603DE,Wijchen,Wijchen,Gelderland,VBO,5.759579,51.803134
Pater Sebald Lindersstraat,30,,,6603DE,Wijchen,Wijchen,Gelderland,VBO,5.759667,51.803206
Pater Sebald Lindersstraat,32,,,6603DE,Wijchen,Wijchen,Gelderland,VBO,5.759711,51.803260
Pater Sebald Lindersstraat,34,,,6603DE,Wijchen,Wijchen,Gelderland,VBO,5.759740,51.803314
Pater Sebald Lindersstraat,36,,,6603DE,Wijchen,Wijchen,Gelderland,VBO,5.759813,51.803358
Groenewoudseweg,9,,,6603DG,Wijchen,Wijchen,Gelderland,VBO,5.757031,51.803244
Groenewoudseweg,11,,,6603DG,Wijchen,Wijchen,Gelderland,VBO,5.757117,51.803412
Groenewoudseweg,13,,,6603DG,Wijchen,Wijchen,Gelderland,VBO,5.757260,51.803476
Groenewoudseweg,15,,,6603DG,Wijchen,Wijchen,Gelderland,VBO,5.757302,51.803529
Groenewoudseweg,17,,,6603DG,Wijchen,Wijchen,Gelderland,VBO,5.757365,51.803618
Groenewoudseweg,19,,,6603DG,Wijchen,Wijchen,Gelderland,VBO,5.757409,51.803690
Groenewoudseweg,21,,,6603DG,Wijchen,Wijchen,Gelderland,VBO,5.758071,51.803601
Groenewoudseweg,23,,,6603DG,Wijchen,Wijchen,Gelderland,VBO,5.758172,51.803600
Groenewoudseweg,29,,,6603DG,Wijchen,Wijchen,Gelderland,VBO,5.758660,51.803604
Groenewoudseweg,31,,,6603DG,Wijchen,Wijchen,Gelderland,VBO,5.758747,51.803604
Groenewoudseweg,33,,,6603DG,Wijchen,Wijchen,Gelderland,VBO,5.758892,51.803604
Groenewoudseweg,35,,,6603DG,Wijchen,Wijchen,Gelderland,VBO,5.759105,51.803630
Groenewoudseweg,37,,,6603DG,Wijchen,Wijchen,Gelderland,VBO,5.759177,51.803630
Groenewoudseweg,39,,,6603DG,Wijchen,Wijchen,Gelderland,VBO,5.759337,51.803621
Groenewoudseweg,41,A,,6603DG,Wijchen,Wijchen,Gelderland,VBO,5.760076,51.803609
Groenewoudseweg,41,,,6603DG,Wijchen,Wijchen,Gelderland,VBO,5.759511,51.803638
Groenewoudseweg,43,,,6603DG,Wijchen,Wijchen,Gelderland,VBO,5.760432,51.803648
Groenewoudseweg,45,,,6603DG,Wijchen,Wijchen,Gelderland,VBO,5.760511,51.803644
Groenewoudseweg,47,A,,6603DG,Wijchen,Wijchen,Gelderland,VBO,5.761323,51.803650
Groenewoudseweg,47,,,6603DG,Wijchen,Wijchen,Gelderland,VBO,5.761207,51.803660
Groenewoudseweg,49,,,6603DH,Wijchen,Wijchen,Gelderland,VBO,5.761526,51.803623
Groenewoudseweg,51,,,6603DH,Wijchen,Wijchen,Gelderland,VBO,5.761852,51.803626
Groenewoudseweg,53,,,6603DH,Wijchen,Wijchen,Gelderland,VBO,5.761961,51.803612
Groenewoudseweg,55,,,6603DH,Wijchen,Wijchen,Gelderland,VBO,5.762108,51.803611
Groenewoudseweg,57,,,6603DH,Wijchen,Wijchen,Gelderland,VBO,5.762267,51.803574
Groenewoudseweg,81,,,6603DH,Wijchen,Wijchen,Gelderland,VBO,5.763328,51.803434
Groenewoudseweg,83,,,6603DH,Wijchen,Wijchen,Gelderland,VBO,5.763453,51.803428
Groenewoudseweg,85,A,,6603DH,Wijchen,Wijchen,Gelderland,VBO,5.765600,51.803663
Groenewoudseweg,85,B,,6603DH,Wijchen,Wijchen,Gelderland,VBO,5.765686,51.803550
Groenewoudseweg,85,,,6603DH,Wijchen,Wijchen,Gelderland,VBO,5.765701,51.803489
Groenewoudseweg,87,,,6603DH,Wijchen,Wijchen,Gelderland,VBO,5.765984,51.803739
Groenewoudseweg,101,,,6603DH,Wijchen,Wijchen,Gelderland,VBO,5.771637,51.803532
Groenewoudseweg,14,,,6603DJ,Wijchen,Wijchen,Gelderland,VBO,5.757666,51.803248
Groenewoudseweg,16,,,6603DJ,Wijchen,Wijchen,Gelderland,VBO,5.757913,51.803301
Groenewoudseweg,18,,,6603DJ,Wijchen,Wijchen,Gelderland,VBO,5.758073,51.803319
Groenewoudseweg,20,,,6603DJ,Wijchen,Wijchen,Gelderland,VBO,5.758334,51.803345
Groenewoudseweg,22,,,6603DJ,Wijchen,Wijchen,Gelderland,VBO,5.758537,51.803344
Groenewoudseweg,24,,,6603DJ,Wijchen,Wijchen,Gelderland,VBO,5.758754,51.803362
Groenewoudseweg,26,,,6603DJ,Wijchen,Wijchen,Gelderland,VBO,5.758957,51.803352
Groenewoudseweg,80,,,6603DK,Wijchen,Wijchen,Gelderland,VBO,5.766707,51.802491
Groenewoudseweg,86,,,6603DK,Wijchen,Wijchen,Gelderland,VBO,5.770062,51.803086
Antonellusstraat,1,,,6603DL,Wijchen,Wijchen,Gelderland,VBO,5.760813,51.803364
Antonellusstraat,2,,,6603DL,Wijchen,Wijchen,Gelderland,VBO,5.760160,51.803249
Antonellusstraat,3,,,6603DL,Wijchen,Wijchen,Gelderland,VBO,5.760726,51.803284
Antonellusstraat,4,,,6603DL,Wijchen,Wijchen,Gelderland,VBO,5.760087,51.803169
Antonellusstraat,5,,,6603DL,Wijchen,Wijchen,Gelderland,VBO,5.760667,51.803203
Antonellusstraat,6,,,6603DL,Wijchen,Wijchen,Gelderland,VBO,5.760013,51.803070
Antonellusstraat,7,,,6603DL,Wijchen,Wijchen,Gelderland,VBO,5.760594,51.803113
Antonellusstraat,8,,G01,6603DL,Wijchen,Wijchen,Gelderland,VBO,5.759758,51.802961
Antonellusstraat,8,,G02,6603DL,Wijchen,Wijchen,Gelderland,VBO,5.759727,51.802938
Antonellusstraat,8,,G03,6603DL,Wijchen,Wijchen,Gelderland,VBO,5.759712,51.802911
Antonellusstraat,8,,G04,6603DL,Wijchen,Wijchen,Gelderland,VBO,5.759682,51.802890
Antonellusstraat,8,,G05,6603DL,Wijchen,Wijchen,Gelderland,VBO,5.759663,51.802866
Antonellusstraat,8,,G06,6603DL,Wijchen,Wijchen,Gelderland,VBO,5.759634,51.802839
Antonellusstraat,8,,G07,6603DL,Wijchen,Wijchen,Gelderland,VBO,5.759609,51.802817
Antonellusstraat,8,,G08,6603DL,Wijchen,Wijchen,Gelderland,VBO,5.759594,51.802790
Antonellusstraat,8,,G09,6603DL,Wijchen,Wijchen,Gelderland,VBO,5.759565,51.802772
Antonellusstraat,8,,G10,6603DL,Wijchen,Wijchen,Gelderland,VBO,5.759550,51.802736
Antonellusstraat,8,,G11,6603DL,Wijchen,Wijchen,Gelderland,VBO,5.759521,51.802718
Antonellusstraat,8,,G12,6603DL,Wijchen,Wijchen,Gelderland,VBO,5.759492,51.802691
Antonellusstraat,8,,,6603DL,Wijchen,Wijchen,Gelderland,VBO,5.759955,51.803007
Antonellusstraat,9,,,6603DL,Wijchen,Wijchen,Gelderland,VBO,5.760549,51.803023
Antonellusstraat,10,,,6603DL,Wijchen,Wijchen,Gelderland,VBO,5.760008,51.802820
Antonellusstraat,11,,,6603DL,Wijchen,Wijchen,Gelderland,VBO,5.760520,51.802952
Antonellusstraat,12,,,6603DL,Wijchen,Wijchen,Gelderland,VBO,5.760098,51.802773
Antonellusstraat,13,,,6603DL,Wijchen,Wijchen,Gelderland,VBO,5.760461,51.802898
Antonellusstraat,14,,,6603DL,Wijchen,Wijchen,Gelderland,VBO,5.760214,51.802728
Antonellusstraat,15,,,6603DL,Wijchen,Wijchen,Gelderland,VBO,5.760417,51.802826
Bernardusstraat,1,,,6603DM,Wijchen,Wijchen,Gelderland,VBO,5.761755,51.803280
Bernardusstraat,2,,,6603DM,Wijchen,Wijchen,Gelderland,VBO,5.761189,51.803246
Bernardusstraat,3,,,6603DM,Wijchen,Wijchen,Gelderland,VBO,5.761696,51.803209
Bernardusstraat,4,A,,6603DM,Wijchen,Wijchen,Gelderland,VBO,5.761112,51.803097
Bernardusstraat,4,,,6603DM,Wijchen,Wijchen,Gelderland,VBO,5.761087,51.803148
Bernardusstraat,5,,,6603DM,Wijchen,Wijchen,Gelderland,VBO,5.761594,51.803092
Bernardusstraat,7,,,6603DM,Wijchen,Wijchen,Gelderland,VBO,5.761535,51.803029
Bernardusstraat,9,,,6603DM,Wijchen,Wijchen,Gelderland,VBO,5.761462,51.802931
Bernardusstraat,11,,,6603DM,Wijchen,Wijchen,Gelderland,VBO,5.761418,51.802859
Bernardusstraat,13,,,6603DM,Wijchen,Wijchen,Gelderland,VBO,5.761331,51.802796
Bernardusstraat,15,,,6603DM,Wijchen,Wijchen,Gelderland,VBO,5.761563,51.802876
Bernardusstraat,17,,,6603DM,Wijchen,Wijchen,Gelderland,VBO,5.761490,51.802814
Bernardusstraat,19,,,6603DM,Wijchen,Wijchen,Gelderland,VBO,5.761446,51.802760
Bernardusstraat,21,,,6603DM,Wijchen,Wijchen,Gelderland,VBO,5.761286,51.802635
Bernardusstraat,23,,,6603DM,Wijchen,Wijchen,Gelderland,VBO,5.761185,51.802680
Bernardusstraat,25,,,6603DM,Wijchen,Wijchen,Gelderland,VBO,5.761098,51.802707
Bernardusstraat,27,,,6603DM,Wijchen,Wijchen,Gelderland,VBO,5.761026,51.802734
Bernardusstraat,29,,,6603DM,Wijchen,Wijchen,Gelderland,VBO,5.760939,51.802762
Bernardusstraat,31,,,6603DM,Wijchen,Wijchen,Gelderland,VBO,5.760881,51.802780
Bernardusstraat,33,,,6603DM,Wijchen,Wijchen,Gelderland,VBO,5.760794,51.802816
Bernardusstraat,35,,,6603DM,Wijchen,Wijchen,Gelderland,VBO,5.761246,51.802600
Bernardusstraat,37,,,6603DM,Wijchen,Wijchen,Gelderland,VBO,5.761141,51.802617
Bernardusstraat,39,,,6603DM,Wijchen,Wijchen,Gelderland,VBO,5.761054,51.802644
Bernardusstraat,41,,,6603DM,Wijchen,Wijchen,Gelderland,VBO,5.760982,51.802672
Bernardusstraat,43,,,6603DM,Wijchen,Wijchen,Gelderland,VBO,5.760909,51.802708
Bernardusstraat,45,,,6603DM,Wijchen,Wijchen,Gelderland,VBO,5.760823,51.802735
Bernardusstraat,47,,,6603DM,Wijchen,Wijchen,Gelderland,VBO,5.760750,51.802771
Bernardusstraat,6,,,6603DN,Wijchen,Wijchen,Gelderland,VBO,5.761073,51.803015
Bernardusstraat,8,,,6603DN,Wijchen,Wijchen,Gelderland,VBO,5.761029,51.802961
Bernardusstraat,10,,,6603DN,Wijchen,Wijchen,Gelderland,VBO,5.760971,51.802907
Bernardusstraat,12,,,6603DN,Wijchen,Wijchen,Gelderland,VBO,5.760888,51.802930
Bernardusstraat,14,,,6603DN,Wijchen,Wijchen,Gelderland,VBO,5.760947,51.802993
Bernardusstraat,16,,,6603DN,Wijchen,Wijchen,Gelderland,VBO,5.761005,51.803055
Franciscusstraat,3,,,6603DP,Wijchen,Wijchen,Gelderland,VBO,5.757265,51.803816
Franciscusstraat,5,,,6603DP,Wijchen,Wijchen,Gelderland,VBO,5.757135,51.803888
Franciscusstraat,9,,,6603DP,Wijchen,Wijchen,Gelderland,VBO,5.757260,51.804371
Franciscusstraat,11,,,6603DP,Wijchen,Wijchen,Gelderland,VBO,5.757371,51.804427
Franciscusstraat,13,,,6603DP,Wijchen,Wijchen,Gelderland,VBO,5.757459,51.804462
Franciscusstraat,15,,,6603DP,Wijchen,Wijchen,Gelderland,VBO,5.757531,51.804489
Franciscusstraat,17,,,6603DP,Wijchen,Wijchen,Gelderland,VBO,5.757575,51.804534
Franciscusstraat,2,A,,6603DR,Wijchen,Wijchen,Gelderland,VBO,5.757903,51.803753
Franciscusstraat,2,,,6603DR,Wijchen,Wijchen,Gelderland,VBO,5.757870,51.803659
Franciscusstraat,4,,,6603DR,Wijchen,Wijchen,Gelderland,VBO,5.757715,51.803850
Franciscusstraat,6,,,6603DR,Wijchen,Wijchen,Gelderland,VBO,5.757628,51.803950
Franciscusstraat,8,,,6603DR,Wijchen,Wijchen,Gelderland,VBO,5.757484,51.804067
Franciscusstraat,10,B,,6603DR,Wijchen,Wijchen,Gelderland,VBO,5.757471,51.804229
Franciscusstraat,10,C,,6603DR,Wijchen,Wijchen,Gelderland,VBO,5.757530,51.804264
Franciscusstraat,10,,,6603DR,Wijchen,Wijchen,Gelderland,VBO,5.757398,51.804166
Franciscusstraat,12,,,6603DR,Wijchen,Wijchen,Gelderland,VBO,5.757806,51.804362
Franciscusstraat,14,,,6603DR,Wijchen,Wijchen,Gelderland,VBO,5.757907,51.804353
Franciscusstraat,16,,,6603DR,Wijchen,Wijchen,Gelderland,VBO,5.758009,51.804335
Franciscusstraat,18,,,6603DR,Wijchen,Wijchen,Gelderland,VBO,5.758081,51.804317
Franciscusstraat,20,,,6603DR,Wijchen,Wijchen,Gelderland,VBO,5.758255,51.804307
Franciscusstraat,22,,,6603DR,Wijchen,Wijchen,Gelderland,VBO,5.758342,51.804280
Franciscusstraat,24,,,6603DR,Wijchen,Wijchen,Gelderland,VBO,5.758414,51.804253
Franciscusstraat,26,,,6603DR,Wijchen,Wijchen,Gelderland,VBO,5.758501,51.804225
Franciscusstraat,28,,,6603DR,Wijchen,Wijchen,Gelderland,VBO,5.758645,51.804198
Franciscusstraat,30,,,6603DR,Wijchen,Wijchen,Gelderland,VBO,5.758747,51.804189
Franciscusstraat,32,,,6603DR,Wijchen,Wijchen,Gelderland,VBO,5.758819,51.804161
Franciscusstraat,34,,,6603DR,Wijchen,Wijchen,Gelderland,VBO,5.758891,51.804134
Franciscusstraat,36,,,6603DR,Wijchen,Wijchen,Gelderland,VBO,5.759051,51.804116
Franciscusstraat,38,,,6603DR,Wijchen,Wijchen,Gelderland,VBO,5.759123,51.804089
Franciscusstraat,40,,,6603DR,Wijchen,Wijchen,Gelderland,VBO,5.759210,51.804061
Franciscusstraat,42,,,6603DR,Wijchen,Wijchen,Gelderland,VBO,5.759282,51.804043
Franciscusstraat,44,,,6603DR,Wijchen,Wijchen,Gelderland,VBO,5.759427,51.804016
Franciscusstraat,46,,,6603DR,Wijchen,Wijchen,Gelderland,VBO,5.759514,51.803989
Franciscusstraat,48,,,6603DR,Wijchen,Wijchen,Gelderland,VBO,5.759600,51.803970
Franciscusstraat,50,,,6603DR,Wijchen,Wijchen,Gelderland,VBO,5.759669,51.803944
Jacobusstraat,1,,,6603DS,Wijchen,Wijchen,Gelderland,VBO,5.758218,51.805116
Jacobusstraat,2,,,6603DS,Wijchen,Wijchen,Gelderland,VBO,5.757752,51.804920
Jacobusstraat,4,,,6603DS,Wijchen,Wijchen,Gelderland,VBO,5.757651,51.804938
Antoniusstraat,1,,,6603DT,Wijchen,Wijchen,Gelderland,VBO,5.757736,51.804632
Antoniusstraat,3,,,6603DT,Wijchen,Wijchen,Gelderland,VBO,5.757837,51.804668
Antoniusstraat,5,,,6603DT,Wijchen,Wijchen,Gelderland,VBO,5.757896,51.804713
Antoniusstraat,7,,,6603DT,Wijchen,Wijchen,Gelderland,VBO,5.757983,51.804757
Antoniusstraat,9,,,6603DT,Wijchen,Wijchen,Gelderland,VBO,5.758027,51.804793
Antoniusstraat,11,,,6603DT,Wijchen,Wijchen,Gelderland,VBO,5.758100,51.804838
Antoniusstraat,13,,,6603DT,Wijchen,Wijchen,Gelderland,VBO,5.758233,51.805206
Antoniusstraat,15,,,6603DT,Wijchen,Wijchen,Gelderland,VBO,5.758311,51.805300
Antoniusstraat,17,,,6603DT,Wijchen,Wijchen,Gelderland,VBO,5.758394,51.805421
Antoniusstraat,19,,,6603DT,Wijchen,Wijchen,Gelderland,VBO,5.758440,51.805476
Antoniusstraat,21,,,6603DT,Wijchen,Wijchen,Gelderland,VBO,5.758526,51.805583
Antoniusstraat,23,,,6603DT,Wijchen,Wijchen,Gelderland,VBO,5.758580,51.805638
Antoniusstraat,25,,,6603DT,Wijchen,Wijchen,Gelderland,VBO,5.758692,51.805728
Antoniusstraat,27,,,6603DT,Wijchen,Wijchen,Gelderland,VBO,5.758736,51.805791
Antoniusstraat,29,,,6603DT,Wijchen,Wijchen,Gelderland,VBO,5.758809,51.805890
Antoniusstraat,31,,,6603DT,Wijchen,Wijchen,Gelderland,VBO,5.758853,51.805953
Antoniusstraat,33,,,6603DT,Wijchen,Wijchen,Gelderland,VBO,5.758941,51.806042
Antoniusstraat,35,,,6603DT,Wijchen,Wijchen,Gelderland,VBO,5.758985,51.806123
Antoniusstraat,37,,,6603DT,Wijchen,Wijchen,Gelderland,VBO,5.759058,51.806231
Antoniusstraat,39,,,6603DT,Wijchen,Wijchen,Gelderland,VBO,5.759171,51.806381
Antoniusstraat,41,,,6603DT,Wijchen,Wijchen,Gelderland,VBO,5.759215,51.806506
Antoniusstraat,43,,,6603DT,Wijchen,Wijchen,Gelderland,VBO,5.759390,51.806587
Antoniusstraat,45,,,6603DT,Wijchen,Wijchen,Gelderland,VBO,5.759607,51.806505
Antoniusstraat,47,,,6603DT,Wijchen,Wijchen,Gelderland,VBO,5.759708,51.806487
Antoniusstraat,49,,,6603DT,Wijchen,Wijchen,Gelderland,VBO,5.759983,51.806360
Antoniusstraat,51,,,6603DT,Wijchen,Wijchen,Gelderland,VBO,5.760027,51.806414
Antoniusstraat,2,,,6603DV,Wijchen,Wijchen,Gelderland,VBO,5.758401,51.804495
Antoniusstraat,4,,,6603DV,Wijchen,Wijchen,Gelderland,VBO,5.758416,51.804549
Antoniusstraat,6,,,6603DV,Wijchen,Wijchen,Gelderland,VBO,5.758446,51.804612
Antoniusstraat,8,,,6603DV,Wijchen,Wijchen,Gelderland,VBO,5.758475,51.804657
Antoniusstraat,10,,,6603DV,Wijchen,Wijchen,Gelderland,VBO,5.758505,51.804702
Antoniusstraat,12,,,6603DV,Wijchen,Wijchen,Gelderland,VBO,5.758534,51.804756
Antoniusstraat,14,,,6603DV,Wijchen,Wijchen,Gelderland,VBO,5.758564,51.804890
Antoniusstraat,16,,,6603DV,Wijchen,Wijchen,Gelderland,VBO,5.758579,51.804953
Antoniusstraat,18,,,6603DV,Wijchen,Wijchen,Gelderland,VBO,5.758594,51.804998
Antoniusstraat,20,,,6603DV,Wijchen,Wijchen,Gelderland,VBO,5.758609,51.805052
Antoniusstraat,22,,,6603DV,Wijchen,Wijchen,Gelderland,VBO,5.758638,51.805097
Antoniusstraat,24,,,6603DV,Wijchen,Wijchen,Gelderland,VBO,5.758653,51.805151
Antoniusstraat,26,,,6603DV,Wijchen,Wijchen,Gelderland,VBO,5.758683,51.805205
Antoniusstraat,28,,,6603DV,Wijchen,Wijchen,Gelderland,VBO,5.758698,51.805258
Antoniusstraat,30,,,6603DV,Wijchen,Wijchen,Gelderland,VBO,5.758785,51.805348
Antoniusstraat,32,,,6603DV,Wijchen,Wijchen,Gelderland,VBO,5.758808,51.805384
Antoniusstraat,34,,,6603DV,Wijchen,Wijchen,Gelderland,VBO,5.758823,51.805429
Antoniusstraat,36,,,6603DV,Wijchen,Wijchen,Gelderland,VBO,5.758859,51.805474
Antoniusstraat,38,,,6603DV,Wijchen,Wijchen,Gelderland,VBO,5.759121,51.805662
Antoniusstraat,40,,,6603DV,Wijchen,Wijchen,Gelderland,VBO,5.759136,51.805715
Antoniusstraat,42,,,6603DV,Wijchen,Wijchen,Gelderland,VBO,5.759151,51.805769
Antoniusstraat,44,,,6603DV,Wijchen,Wijchen,Gelderland,VBO,5.759181,51.805805
Antoniusstraat,46,,,6603DV,Wijchen,Wijchen,Gelderland,VBO,5.759239,51.805841
Antoniusstraat,48,,,6603DV,Wijchen,Wijchen,Gelderland,VBO,5.759283,51.805931
Antoniusstraat,50,,,6603DV,Wijchen,Wijchen,Gelderland,VBO,5.759309,51.805985
Antoniusstraat,52,,,6603DV,Wijchen,Wijchen,Gelderland,VBO,5.759339,51.806021
Antoniusstraat,54,,,6603DV,Wijchen,Wijchen,Gelderland,VBO,5.759400,51.806065
Antoniusstraat,56,,,6603DV,Wijchen,Wijchen,Gelderland,VBO,5.759444,51.806101
Antoniusstraat,58,,,6603DV,Wijchen,Wijchen,Gelderland,VBO,5.759532,51.806200
Antoniusstraat,60,,,6603DV,Wijchen,Wijchen,Gelderland,VBO,5.759590,51.806262
Antoniusstraat,66,,G01,6603DV,Wijchen,Wijchen,Gelderland,VBO,5.759695,51.806006
Antoniusstraat,66,,G02,6603DV,Wijchen,Wijchen,Gelderland,VBO,5.759680,51.805979
Antoniusstraat,66,,G03,6603DV,Wijchen,Wijchen,Gelderland,VBO,5.759651,51.805952
Antoniusstraat,66,,G04,6603DV,Wijchen,Wijchen,Gelderland,VBO,5.759607,51.805916
Antoniusstraat,66,,G05,6603DV,Wijchen,Wijchen,Gelderland,VBO,5.759592,51.805889
Antoniusstraat,66,,G06,6603DV,Wijchen,Wijchen,Gelderland,VBO,5.759577,51.805853
Antoniusstraat,66,,G07,6603DV,Wijchen,Wijchen,Gelderland,VBO,5.759822,51.805810
Antoniusstraat,66,,G08,6603DV,Wijchen,Wijchen,Gelderland,VBO,5.759833,51.805839
Antoniusstraat,66,,G09,6603DV,Wijchen,Wijchen,Gelderland,VBO,5.759847,51.805864
Antoniusstraat,66,,G10,6603DV,Wijchen,Wijchen,Gelderland,VBO,5.759857,51.805890
Antoniusstraat,66,,G11,6603DV,Wijchen,Wijchen,Gelderland,VBO,5.759857,51.805917
Antoniusstraat,66,,,6603DV,Wijchen,Wijchen,Gelderland,VBO,5.759836,51.806118
Antoniusstraat,68,,,6603DV,Wijchen,Wijchen,Gelderland,VBO,5.760358,51.806179
Silvesterstraat,1,,,6603DW,Wijchen,Wijchen,Gelderland,VBO,5.758778,51.804404
Silvesterstraat,3,,,6603DW,Wijchen,Wijchen,Gelderland,VBO,5.758850,51.804458
Silvesterstraat,5,,,6603DW,Wijchen,Wijchen,Gelderland,VBO,5.758880,51.804503
Silvesterstraat,7,,,6603DW,Wijchen,Wijchen,Gelderland,VBO,5.758924,51.804548
Silvesterstraat,9,,,6603DW,Wijchen,Wijchen,Gelderland,VBO,5.758982,51.804601
Silvesterstraat,11,,,6603DW,Wijchen,Wijchen,Gelderland,VBO,5.759012,51.804655
Silvesterstraat,13,,,6603DW,Wijchen,Wijchen,Gelderland,VBO,5.758984,51.804790
Silvesterstraat,15,,,6603DW,Wijchen,Wijchen,Gelderland,VBO,5.759013,51.804835
Silvesterstraat,17,,,6603DW,Wijchen,Wijchen,Gelderland,VBO,5.759057,51.804880
Silvesterstraat,19,,,6603DW,Wijchen,Wijchen,Gelderland,VBO,5.759086,51.804934
Silvesterstraat,21,,,6603DW,Wijchen,Wijchen,Gelderland,VBO,5.759116,51.804987
Silvesterstraat,23,,,6603DW,Wijchen,Wijchen,Gelderland,VBO,5.759102,51.805050
Silvesterstraat,2,,,6603DX,Wijchen,Wijchen,Gelderland,VBO,5.759284,51.804277
Silvesterstraat,4,,,6603DX,Wijchen,Wijchen,Gelderland,VBO,5.759313,51.804340
Silvesterstraat,6,,,6603DX,Wijchen,Wijchen,Gelderland,VBO,5.759343,51.804394
Silvesterstraat,8,,,6603DX,Wijchen,Wijchen,Gelderland,VBO,5.759372,51.804447
Silvesterstraat,10,,,6603DX,Wijchen,Wijchen,Gelderland,VBO,5.759402,51.804501
Silvesterstraat,12,,,6603DX,Wijchen,Wijchen,Gelderland,VBO,5.759431,51.804546
Silvesterstraat,14,,,6603DX,Wijchen,Wijchen,Gelderland,VBO,5.759476,51.804681
Silvesterstraat,16,,,6603DX,Wijchen,Wijchen,Gelderland,VBO,5.759491,51.804735
Silvesterstraat,18,,,6603DX,Wijchen,Wijchen,Gelderland,VBO,5.759506,51.804789
Silvesterstraat,20,,,6603DX,Wijchen,Wijchen,Gelderland,VBO,5.759535,51.804842
Silvesterstraat,22,,,6603DX,Wijchen,Wijchen,Gelderland,VBO,5.759550,51.804905
Silvesterstraat,24,,,6603DX,Wijchen,Wijchen,Gelderland,VBO,5.759580,51.804950
Silvesterstraat,26,,,6603DX,Wijchen,Wijchen,Gelderland,VBO,5.759523,51.805085
Silvesterstraat,28,,,6603DX,Wijchen,Wijchen,Gelderland,VBO,5.759436,51.805094
Leostraat,1,,,6603EA,Wijchen,Wijchen,Gelderland,VBO,5.759631,51.804213
Leostraat,3,,,6603EA,Wijchen,Wijchen,Gelderland,VBO,5.759690,51.804267
Leostraat,5,,,6603EA,Wijchen,Wijchen,Gelderland,VBO,5.759734,51.804311
Leostraat,7,,,6603EA,Wijchen,Wijchen,Gelderland,VBO,5.759778,51.804365
Leostraat,9,,,6603EA,Wijchen,Wijchen,Gelderland,VBO,5.759822,51.804419
Leostraat,11,,,6603EA,Wijchen,Wijchen,Gelderland,VBO,5.759851,51.804464
Leostraat,13,,,6603EA,Wijchen,Wijchen,Gelderland,VBO,5.759896,51.804590
Leostraat,15,,,6603EA,Wijchen,Wijchen,Gelderland,VBO,5.759925,51.804634
Leostraat,17,,,6603EA,Wijchen,Wijchen,Gelderland,VBO,5.759940,51.804697
Leostraat,19,,,6603EA,Wijchen,Wijchen,Gelderland,VBO,5.759926,51.804742
Leostraat,21,,,6603EA,Wijchen,Wijchen,Gelderland,VBO,5.759970,51.804832
Leostraat,23,,G01,6603EA,Wijchen,Wijchen,Gelderland,VBO,5.759886,51.805174
Leostraat,23,,G02,6603EA,Wijchen,Wijchen,Gelderland,VBO,5.759828,51.805174
Leostraat,23,,G03,6603EA,Wijchen,Wijchen,Gelderland,VBO,5.759770,51.805174
Leostraat,23,,G04,6603EA,Wijchen,Wijchen,Gelderland,VBO,5.759726,51.805192
Leostraat,23,,G05,6603EA,Wijchen,Wijchen,Gelderland,VBO,5.759668,51.805174
Leostraat,23,,,6603EA,Wijchen,Wijchen,Gelderland,VBO,5.759985,51.804886
Leostraat,25,,,6603EA,Wijchen,Wijchen,Gelderland,VBO,5.760059,51.805047
Leostraat,27,,,6603EA,Wijchen,Wijchen,Gelderland,VBO,5.760074,51.805164
Leostraat,2,,,6603EB,Wijchen,Wijchen,Gelderland,VBO,5.759931,51.803637
Leostraat,4,,,6603EB,Wijchen,Wijchen,Gelderland,VBO,5.759991,51.803816
Leostraat,6,,,6603EB,Wijchen,Wijchen,Gelderland,VBO,5.760021,51.803933
Leostraat,8,,,6603EB,Wijchen,Wijchen,Gelderland,VBO,5.760050,51.804014
Leostraat,10,,,6603EB,Wijchen,Wijchen,Gelderland,VBO,5.760124,51.804111
Leostraat,12,,,6603EB,Wijchen,Wijchen,Gelderland,VBO,5.760138,51.804165
Leostraat,14,,,6603EB,Wijchen,Wijchen,Gelderland,VBO,5.760168,51.804219
Leostraat,16,,,6603EB,Wijchen,Wijchen,Gelderland,VBO,5.760183,51.804301
Leostraat,18,,,6603EB,Wijchen,Wijchen,Gelderland,VBO,5.760213,51.804382
Leostraat,20,,,6603EB,Wijchen,Wijchen,Gelderland,VBO,5.760316,51.804534
Leostraat,22,,,6603EB,Wijchen,Wijchen,Gelderland,VBO,5.760360,51.804660
Leostraat,24,,,6603EB,Wijchen,Wijchen,Gelderland,VBO,5.760390,51.804750
Leostraat,26,,,6603EB,Wijchen,Wijchen,Gelderland,VBO,5.760434,51.804875
Leostraat,28,,,6603EB,Wijchen,Wijchen,Gelderland,VBO,5.760479,51.805001
Leostraat,30,,,6603EB,Wijchen,Wijchen,Gelderland,VBO,5.760523,51.805118
Leostraat,32,,,6603EB,Wijchen,Wijchen,Gelderland,VBO,5.760553,51.805253
Clarastraat,10,,,6603EC,Wijchen,Wijchen,Gelderland,VBO,5.759132,51.805450
Clarastraat,12,,G01,6603EC,Wijchen,Wijchen,Gelderland,VBO,5.759018,51.805288
Clarastraat,12,,G02,6603EC,Wijchen,Wijchen,Gelderland,VBO,5.759003,51.805266
Clarastraat,12,,G03,6603EC,Wijchen,Wijchen,Gelderland,VBO,5.758999,51.805244
Clarastraat,12,,G04,6603EC,Wijchen,Wijchen,Gelderland,VBO,5.758987,51.805222
Clarastraat,12,,G05,6603EC,Wijchen,Wijchen,Gelderland,VBO,5.758983,51.805199
Clarastraat,12,,G06,6603EC,Wijchen,Wijchen,Gelderland,VBO,5.758972,51.805177
Clarastraat,12,,G07,6603EC,Wijchen,Wijchen,Gelderland,VBO,5.758957,51.805136
Clarastraat,12,,,6603EC,Wijchen,Wijchen,Gelderland,VBO,5.759248,51.805440
Clarastraat,14,,,6603EC,Wijchen,Wijchen,Gelderland,VBO,5.759546,51.805393
Clarastraat,16,,,6603EC,Wijchen,Wijchen,Gelderland,VBO,5.759619,51.805388
Clarastraat,18,,,6603EC,Wijchen,Wijchen,Gelderland,VBO,5.759771,51.805345
Clarastraat,20,,,6603EC,Wijchen,Wijchen,Gelderland,VBO,5.759887,51.805327
Clarastraat,22,,,6603EC,Wijchen,Wijchen,Gelderland,VBO,5.760148,51.805281
Clarastraat,24,,,6603EC,Wijchen,Wijchen,Gelderland,VBO,5.760857,51.805171
Clarastraat,26,,,6603EC,Wijchen,Wijchen,Gelderland,VBO,5.761002,51.805152
Clarastraat,28,,,6603EC,Wijchen,Wijchen,Gelderland,VBO,5.761393,51.805097
Clarastraat,30,,,6603EC,Wijchen,Wijchen,Gelderland,VBO,5.761711,51.805015
Clarastraat,32,,,6603EC,Wijchen,Wijchen,Gelderland,VBO,5.762044,51.804951
Dominicusstraat,1,A,,6603ED,Wijchen,Wijchen,Gelderland,VBO,5.760498,51.803788
Dominicusstraat,1,,,6603ED,Wijchen,Wijchen,Gelderland,VBO,5.760614,51.803778
Dominicusstraat,3,A,,6603ED,Wijchen,Wijchen,Gelderland,VBO,5.760524,51.803850
Dominicusstraat,3,,,6603ED,Wijchen,Wijchen,Gelderland,VBO,5.760629,51.803841
Dominicusstraat,5,A,,6603ED,Wijchen,Wijchen,Gelderland,VBO,5.760553,51.803904
Dominicusstraat,5,,,6603ED,Wijchen,Wijchen,Gelderland,VBO,5.760658,51.803886
Dominicusstraat,7,A,,6603ED,Wijchen,Wijchen,Gelderland,VBO,5.760557,51.803967
Dominicusstraat,7,B,,6603ED,Wijchen,Wijchen,Gelderland,VBO,5.760456,51.804030
Dominicusstraat,7,,,6603ED,Wijchen,Wijchen,Gelderland,VBO,5.760644,51.803967
Dominicusstraat,9,,,6603ED,Wijchen,Wijchen,Gelderland,VBO,5.760671,51.804084
Dominicusstraat,11,,,6603ED,Wijchen,Wijchen,Gelderland,VBO,5.760686,51.804129
Dominicusstraat,13,,,6603ED,Wijchen,Wijchen,Gelderland,VBO,5.760704,51.804173
Dominicusstraat,15,,,6603ED,Wijchen,Wijchen,Gelderland,VBO,5.760716,51.804230
Dominicusstraat,17,,,6603ED,Wijchen,Wijchen,Gelderland,VBO,5.760735,51.804269
Dominicusstraat,19,,,6603ED,Wijchen,Wijchen,Gelderland,VBO,5.760731,51.804319
Dominicusstraat,21,,,6603ED,Wijchen,Wijchen,Gelderland,VBO,5.760751,51.804368
Dominicusstraat,23,,,6603ED,Wijchen,Wijchen,Gelderland,VBO,5.760775,51.804418
Dominicusstraat,25,,,6603ED,Wijchen,Wijchen,Gelderland,VBO,5.760790,51.804467
Dominicusstraat,27,,,6603ED,Wijchen,Wijchen,Gelderland,VBO,5.760809,51.804650
Dominicusstraat,29,,,6603ED,Wijchen,Wijchen,Gelderland,VBO,5.760723,51.804677
Dominicusstraat,31,,,6603ED,Wijchen,Wijchen,Gelderland,VBO,5.760825,51.804802
Dominicusstraat,33,,,6603ED,Wijchen,Wijchen,Gelderland,VBO,5.760884,51.804901
Dominicusstraat,35,,,6603ED,Wijchen,Wijchen,Gelderland,VBO,5.760885,51.805018
Dominicusstraat,2,,,6603EE,Wijchen,Wijchen,Gelderland,VBO,5.760946,51.803597
Dominicusstraat,4,,,6603EE,Wijchen,Wijchen,Gelderland,VBO,5.760975,51.803687
Dominicusstraat,6,,,6603EE,Wijchen,Wijchen,Gelderland,VBO,5.761066,51.804091
Dominicusstraat,8,,,6603EE,Wijchen,Wijchen,Gelderland,VBO,5.761075,51.804150
Dominicusstraat,10,,,6603EE,Wijchen,Wijchen,Gelderland,VBO,5.761087,51.804201
Dominicusstraat,12,,,6603EE,Wijchen,Wijchen,Gelderland,VBO,5.761107,51.804245
Dominicusstraat,14,,,6603EE,Wijchen,Wijchen,Gelderland,VBO,5.761122,51.804299
Dominicusstraat,16,,,6603EE,Wijchen,Wijchen,Gelderland,VBO,5.761138,51.804342
Dominicusstraat,18,,,6603EE,Wijchen,Wijchen,Gelderland,VBO,5.761153,51.804387
Dominicusstraat,20,,,6603EE,Wijchen,Wijchen,Gelderland,VBO,5.761171,51.804446
Dominicusstraat,24,,,6603EE,Wijchen,Wijchen,Gelderland,VBO,5.761273,51.804657
Dominicusstraat,26,,,6603EE,Wijchen,Wijchen,Gelderland,VBO,5.761333,51.804783
Dominicusstraat,28,,,6603EE,Wijchen,Wijchen,Gelderland,VBO,5.761333,51.804900
Egidiusstraat,2,,,6603EH,Wijchen,Wijchen,Gelderland,VBO,5.761006,51.803867
Egidiusstraat,4,,,6603EH,Wijchen,Wijchen,Gelderland,VBO,5.761122,51.803858
Agnesstraat,2,,,6603EJ,Wijchen,Wijchen,Gelderland,VBO,5.761915,51.803796
Agnesstraat,4,,,6603EJ,Wijchen,Wijchen,Gelderland,VBO,5.761918,51.803846
Agnesstraat,6,,,6603EJ,Wijchen,Wijchen,Gelderland,VBO,5.761945,51.803882
Agnesstraat,8,,,6603EJ,Wijchen,Wijchen,Gelderland,VBO,5.761971,51.803934
Agnesstraat,10,,,6603EJ,Wijchen,Wijchen,Gelderland,VBO,5.761986,51.803979
Agnesstraat,12,,,6603EJ,Wijchen,Wijchen,Gelderland,VBO,5.762013,51.804031
Agnesstraat,14,,,6603EJ,Wijchen,Wijchen,Gelderland,VBO,5.762023,51.804079
Agnesstraat,34,,,6603EJ,Wijchen,Wijchen,Gelderland,VBO,5.761980,51.804241
Agnesstraat,36,,,6603EJ,Wijchen,Wijchen,Gelderland,VBO,5.762011,51.804376
Agnesstraat,38,,,6603EJ,Wijchen,Wijchen,Gelderland,VBO,5.762026,51.804439
Agnesstraat,40,,,6603EJ,Wijchen,Wijchen,Gelderland,VBO,5.762389,51.804573
Agnesstraat,42,,,6603EJ,Wijchen,Wijchen,Gelderland,VBO,5.762419,51.804617
Agnesstraat,44,,,6603EJ,Wijchen,Wijchen,Gelderland,VBO,5.762492,51.804734
Agnesstraat,46,,,6603EJ,Wijchen,Wijchen,Gelderland,VBO,5.762493,51.804797
Agnesstraat,48,,,6603EJ,Wijchen,Wijchen,Gelderland,VBO,5.762523,51.804914
Agnesstraat,50,,,6603EJ,Wijchen,Wijchen,Gelderland,VBO,5.762537,51.804968
Agnesstraat,1,,,6603EK,Wijchen,Wijchen,Gelderland,VBO,5.761546,51.803808
Agnesstraat,3,,,6603EK,Wijchen,Wijchen,Gelderland,VBO,5.761557,51.803874
Agnesstraat,5,,,6603EK,Wijchen,Wijchen,Gelderland,VBO,5.761499,51.803985
Agnesstraat,7,,,6603EK,Wijchen,Wijchen,Gelderland,VBO,5.761517,51.804049
Agnesstraat,9,,,6603EK,Wijchen,Wijchen,Gelderland,VBO,5.761556,51.804086
Agnesstraat,11,,,6603EK,Wijchen,Wijchen,Gelderland,VBO,5.761561,51.804144
Agnesstraat,13,,,6603EK,Wijchen,Wijchen,Gelderland,VBO,5.761545,51.804216
Agnesstraat,15,,,6603EK,Wijchen,Wijchen,Gelderland,VBO,5.761564,51.804262
Agnesstraat,17,,,6603EK,Wijchen,Wijchen,Gelderland,VBO,5.761561,51.804315
Agnesstraat,19,,,6603EK,Wijchen,Wijchen,Gelderland,VBO,5.761590,51.804368
Agnesstraat,21,,,6603EK,Wijchen,Wijchen,Gelderland,VBO,5.761635,51.804494
Agnesstraat,27,,,6603EK,Wijchen,Wijchen,Gelderland,VBO,5.761622,51.804665
Agnesstraat,29,,,6603EK,Wijchen,Wijchen,Gelderland,VBO,5.761840,51.804727
Clarastraat,1,,,6603EL,Wijchen,Wijchen,Gelderland,VBO,5.759469,51.805669
Clarastraat,3,,,6603EL,Wijchen,Wijchen,Gelderland,VBO,5.759556,51.805651
Clarastraat,5,,,6603EL,Wijchen,Wijchen,Gelderland,VBO,5.759614,51.805651
Clarastraat,7,,,6603EL,Wijchen,Wijchen,Gelderland,VBO,5.759687,51.805642
Clarastraat,9,,,6603EL,Wijchen,Wijchen,Gelderland,VBO,5.759832,51.805623
Clarastraat,11,,,6603EL,Wijchen,Wijchen,Gelderland,VBO,5.759947,51.805605
Clarastraat,13,,,6603EL,Wijchen,Wijchen,Gelderland,VBO,5.760034,51.805587
Clarastraat,21,,,6603EL,Wijchen,Wijchen,Gelderland,VBO,5.760744,51.805513
Clarastraat,23,,,6603EL,Wijchen,Wijchen,Gelderland,VBO,5.760961,51.805449
Clarastraat,25,,,6603EL,Wijchen,Wijchen,Gelderland,VBO,5.761091,51.805431
Clarastraat,27,,,6603EL,Wijchen,Wijchen,Gelderland,VBO,5.761236,51.805403
Clarastraat,29,,,6603EL,Wijchen,Wijchen,Gelderland,VBO,5.761352,51.805367
Clarastraat,31,,,6603EL,Wijchen,Wijchen,Gelderland,VBO,5.761511,51.805357
Clarastraat,33,,,6603EL,Wijchen,Wijchen,Gelderland,VBO,5.761641,51.805321
Clarastraat,35,,,6603EL,Wijchen,Wijchen,Gelderland,VBO,5.761974,51.805248
Clarastraat,37,,,6603EL,Wijchen,Wijchen,Gelderland,VBO,5.761961,51.805401
Clarastraat,39,,,6603EL,Wijchen,Wijchen,Gelderland,VBO,5.762064,51.805589
Clarastraat,41,,,6603EL,Wijchen,Wijchen,Gelderland,VBO,5.762310,51.805535
Clarastraat,97,,,6603EL,Wijchen,Wijchen,Gelderland,VBO,5.762424,51.805265
Clarastraat,99,,,6603EL,Wijchen,Wijchen,Gelderland,VBO,5.762540,51.805246
't Slotje,7,,,6603JC,Wijchen,Wijchen,Gelderland,VBO,5.740673,51.797548
't Slotje,11,,,6603JC,Wijchen,Wijchen,Gelderland,VBO,5.741137,51.797547
't Slotje,13,,,6603JC,Wijchen,Wijchen,Gelderland,VBO,5.741195,51.797556
't Slotje,15,,,6603JC,Wijchen,Wijchen,Gelderland,VBO,5.741194,51.797520
't Slotje,17,,,6603JC,Wijchen,Wijchen,Gelderland,VBO,5.741252,51.797483
't Slotje,19,,,6603JC,Wijchen,Wijchen,Gelderland,VBO,5.741310,51.797492
't Slotje,21,,,6603JC,Wijchen,Wijchen,Gelderland,VBO,5.741295,51.797456
't Slotje,23,,,6603JC,Wijchen,Wijchen,Gelderland,VBO,5.741353,51.797420
't Slotje,25,,,6603JC,Wijchen,Wijchen,Gelderland,VBO,5.741411,51.797429
't Slotje,27,,,6603JC,Wijchen,Wijchen,Gelderland,VBO,5.741396,51.797393
't Slotje,29,,,6603JC,Wijchen,Wijchen,Gelderland,VBO,5.741454,51.797357
't Slotje,31,,,6603JC,Wijchen,Wijchen,Gelderland,VBO,5.741512,51.797366
't Slotje,33,,,6603JC,Wijchen,Wijchen,Gelderland,VBO,5.741512,51.797330
't Slotje,35,,,6603JC,Wijchen,Wijchen,Gelderland,VBO,5.741540,51.797276
't Slotje,37,,,6603JC,Wijchen,Wijchen,Gelderland,VBO,5.741584,51.797276
't Slotje,39,,,6603JC,Wijchen,Wijchen,Gelderland,VBO,5.741584,51.797249
't Slotje,41,,,6603JC,Wijchen,Wijchen,Gelderland,VBO,5.741641,51.797213
't Slotje,43,,,6603JC,Wijchen,Wijchen,Gelderland,VBO,5.741699,51.797212
't Slotje,45,,,6603JC,Wijchen,Wijchen,Gelderland,VBO,5.741685,51.797177
't Slotje,49,,,6603JC,Wijchen,Wijchen,Gelderland,VBO,5.741306,51.796944
't Slotje,51,,,6603JC,Wijchen,Wijchen,Gelderland,VBO,5.741262,51.796935
't Slotje,53,,,6603JC,Wijchen,Wijchen,Gelderland,VBO,5.741263,51.796971
't Slotje,55,,,6603JC,Wijchen,Wijchen,Gelderland,VBO,5.741205,51.797007
't Slotje,57,,,6603JC,Wijchen,Wijchen,Gelderland,VBO,5.741147,51.796998
't Slotje,59,,,6603JC,Wijchen,Wijchen,Gelderland,VBO,5.741162,51.797034
't Slotje,61,,,6603JC,Wijchen,Wijchen,Gelderland,VBO,5.741075,51.797053
't Slotje,63,,,6603JC,Wijchen,Wijchen,Gelderland,VBO,5.741017,51.797044
't Slotje,65,,,6603JC,Wijchen,Wijchen,Gelderland,VBO,5.741031,51.797080
't Slotje,67,,,6603JC,Wijchen,Wijchen,Gelderland,VBO,5.740959,51.797116
't Slotje,69,,,6603JC,Wijchen,Wijchen,Gelderland,VBO,5.740901,51.797107
't Slotje,71,,,6603JC,Wijchen,Wijchen,Gelderland,VBO,5.740916,51.797143
't Slotje,73,,,6603JC,Wijchen,Wijchen,Gelderland,VBO,5.740858,51.797179
't Slotje,75,,,6603JC,Wijchen,Wijchen,Gelderland,VBO,5.740800,51.797170
't Slotje,77,,,6603JC,Wijchen,Wijchen,Gelderland,VBO,5.740815,51.797206
't Slotje,79,,,6603JC,Wijchen,Wijchen,Gelderland,VBO,5.740743,51.797242
't Slotje,81,,,6603JC,Wijchen,Wijchen,Gelderland,VBO,5.740699,51.797233
't Slotje,83,,,6603JC,Wijchen,Wijchen,Gelderland,VBO,5.740699,51.797269
't Slotje,91,,TRA,6603JC,Wijchen,Wijchen,Gelderland,VBO,5.741226,51.796623
't Slotje,4,,,6603JD,Wijchen,Wijchen,Gelderland,VBO,5.739049,51.797598
't Slotje,6,,,6603JD,Wijchen,Wijchen,Gelderland,VBO,5.739208,51.797508
't Slotje,8,,,6603JD,Wijchen,Wijchen,Gelderland,VBO,5.739266,51.797471
't Slotje,10,,,6603JD,Wijchen,Wijchen,Gelderland,VBO,5.739324,51.797444
't Slotje,12,,,6603JD,Wijchen,Wijchen,Gelderland,VBO,5.739367,51.797417
't Slotje,14,,,6603JD,Wijchen,Wijchen,Gelderland,VBO,5.739482,51.797345
't Slotje,16,,,6603JD,Wijchen,Wijchen,Gelderland,VBO,5.739554,51.797300
't Slotje,18,,,6603JD,Wijchen,Wijchen,Gelderland,VBO,5.739800,51.797182
't Slotje,20,,,6603JD,Wijchen,Wijchen,Gelderland,VBO,5.739843,51.797146
't Slotje,22,,,6603JD,Wijchen,Wijchen,Gelderland,VBO,5.739886,51.797110
't Slotje,24,,,6603JD,Wijchen,Wijchen,Gelderland,VBO,5.739944,51.797083
't Slotje,26,,,6603JD,Wijchen,Wijchen,Gelderland,VBO,5.740031,51.797011
't Slotje,28,,,6603JD,Wijchen,Wijchen,Gelderland,VBO,5.740103,51.796975
't Slotje,30,,,6603JD,Wijchen,Wijchen,Gelderland,VBO,5.740247,51.796902
't Slotje,32,,,6603JD,Wijchen,Wijchen,Gelderland,VBO,5.740305,51.796857
't Slotje,34,,,6603JD,Wijchen,Wijchen,Gelderland,VBO,5.740507,51.796713
't Slotje,36,,,6603JD,Wijchen,Wijchen,Gelderland,VBO,5.740564,51.796686
't Slotje,38,,,6603JD,Wijchen,Wijchen,Gelderland,VBO,5.740620,51.796649
't Slotje,40,,,6603JD,Wijchen,Wijchen,Gelderland,VBO,5.740678,51.796612
't Slotje,42,,,6603JD,Wijchen,Wijchen,Gelderland,VBO,5.740810,51.796559
't Slotje,44,,,6603JD,Wijchen,Wijchen,Gelderland,VBO,5.740868,51.796523
't Slotje,46,,,6603JD,Wijchen,Wijchen,Gelderland,VBO,5.741117,51.796364
't Slotje,48,,,6603JD,Wijchen,Wijchen,Gelderland,VBO,5.741175,51.796328
't Slotje,50,,,6603JD,Wijchen,Wijchen,Gelderland,VBO,5.741232,51.796292
't Slotje,52,,,6603JD,Wijchen,Wijchen,Gelderland,VBO,5.741290,51.796265
't Slotje,54,,,6603JD,Wijchen,Wijchen,Gelderland,VBO,5.741401,51.796207
't Slotje,56,,,6603JD,Wijchen,Wijchen,Gelderland,VBO,5.741488,51.796135
't Slotje,58,,,6603JD,Wijchen,Wijchen,Gelderland,VBO,5.741566,51.796091
Marskramer,3,,,6603JE,Wijchen,Wijchen,Gelderland,VBO,5.738758,51.797464
Marskramer,5,,,6603JE,Wijchen,Wijchen,Gelderland,VBO,5.738686,51.797437
Marskramer,7,,,6603JE,Wijchen,Wijchen,Gelderland,VBO,5.738628,51.797410
Marskramer,9,,,6603JE,Wijchen,Wijchen,Gelderland,VBO,5.738511,51.797330
Marskramer,11,,,6603JE,Wijchen,Wijchen,Gelderland,VBO,5.738424,51.797303
Marskramer,13,,,6603JE,Wijchen,Wijchen,Gelderland,VBO,5.737894,51.797100
Marskramer,15,,,6603JE,Wijchen,Wijchen,Gelderland,VBO,5.737835,51.797064
Marskramer,17,,,6603JE,Wijchen,Wijchen,Gelderland,VBO,5.737777,51.797046
Marskramer,19,,,6603JE,Wijchen,Wijchen,Gelderland,VBO,5.737708,51.797014
Marskramer,21,,,6603JE,Wijchen,Wijchen,Gelderland,VBO,5.737967,51.796817
Marskramer,23,,,6603JE,Wijchen,Wijchen,Gelderland,VBO,5.737985,51.796774
Marskramer,25,,,6603JE,Wijchen,Wijchen,Gelderland,VBO,5.738086,51.796668
Marskramer,27,,,6603JE,Wijchen,Wijchen,Gelderland,VBO,5.738129,51.796623
Marskramer,29,,,6603JE,Wijchen,Wijchen,Gelderland,VBO,5.738153,51.796582
Marskramer,31,,,6603JE,Wijchen,Wijchen,Gelderland,VBO,5.738171,51.796540
Marskramer,33,,,6603JE,Wijchen,Wijchen,Gelderland,VBO,5.738344,51.796378
Marskramer,35,,,6603JE,Wijchen,Wijchen,Gelderland,VBO,5.738436,51.796232
Marskramer,37,,,6603JE,Wijchen,Wijchen,Gelderland,VBO,5.738480,51.796187
Marskramer,39,,,6603JE,Wijchen,Wijchen,Gelderland,VBO,5.738537,51.796079
Marskramer,41,,,6603JE,Wijchen,Wijchen,Gelderland,VBO,5.738580,51.796043
Marskramer,43,,,6603JE,Wijchen,Wijchen,Gelderland,VBO,5.738623,51.796007
Marskramer,45,,,6603JE,Wijchen,Wijchen,Gelderland,VBO,5.738666,51.795962
Marskramer,47,,,6603JE,Wijchen,Wijchen,Gelderland,VBO,5.738923,51.795825
Marskramer,49,,,6603JE,Wijchen,Wijchen,Gelderland,VBO,5.738995,51.795789
Marskramer,51,,,6603JE,Wijchen,Wijchen,Gelderland,VBO,5.739197,51.795734
Marskramer,53,,,6603JE,Wijchen,Wijchen,Gelderland,VBO,5.739367,51.795649
Marskramer,55,,,6603JE,Wijchen,Wijchen,Gelderland,VBO,5.739439,51.795621
Marskramer,57,,,6603JE,Wijchen,Wijchen,Gelderland,VBO,5.739555,51.795558
Marskramer,59,,,6603JE,Wijchen,Wijchen,Gelderland,VBO,5.739612,51.795522
Marskramer,61,,,6603JE,Wijchen,Wijchen,Gelderland,VBO,5.739685,51.795495
Marskramer,63,,,6603JE,Wijchen,Wijchen,Gelderland,VBO,5.739742,51.795468
Marskramer,65,,,6603JE,Wijchen,Wijchen,Gelderland,VBO,5.739945,51.795321
Marskramer,67,,,6603JE,Wijchen,Wijchen,Gelderland,VBO,5.740017,51.795294
Marskramer,69,,,6603JE,Wijchen,Wijchen,Gelderland,VBO,5.740263,51.795248
Marskramer,71,,,6603JE,Wijchen,Wijchen,Gelderland,VBO,5.740365,51.795230
Marskramer,81,,,6603JG,Wijchen,Wijchen,Gelderland,VBO,5.742214,51.794433
Marskramer,83,,,6603JG,Wijchen,Wijchen,Gelderland,VBO,5.742281,51.794399
Marskramer,85,,,6603JG,Wijchen,Wijchen,Gelderland,VBO,5.742324,51.794363
Marskramer,87,,,6603JG,Wijchen,Wijchen,Gelderland,VBO,5.742382,51.794318
Marskramer,89,,,6603JG,Wijchen,Wijchen,Gelderland,VBO,5.742436,51.794236
Marskramer,91,,,6603JG,Wijchen,Wijchen,Gelderland,VBO,5.742494,51.794191
Marskramer,93,,,6603JG,Wijchen,Wijchen,Gelderland,VBO,5.742609,51.794092
Marskramer,95,,,6603JG,Wijchen,Wijchen,Gelderland,VBO,5.742681,51.794028
Marskramer,97,,,6603JG,Wijchen,Wijchen,Gelderland,VBO,5.742724,51.793983
Marskramer,99,,,6603JG,Wijchen,Wijchen,Gelderland,VBO,5.742782,51.793947
Marskramer,101,,,6603JG,Wijchen,Wijchen,Gelderland,VBO,5.742825,51.793911
Marskramer,103,,,6603JG,Wijchen,Wijchen,Gelderland,VBO,5.742912,51.793848
Marskramer,105,,,6603JG,Wijchen,Wijchen,Gelderland,VBO,5.742955,51.793803
Marskramer,107,,,6603JG,Wijchen,Wijchen,Gelderland,VBO,5.743064,51.793739
Marskramer,109,,,6603JG,Wijchen,Wijchen,Gelderland,VBO,5.743340,51.793558
Marskramer,111,,,6603JG,Wijchen,Wijchen,Gelderland,VBO,5.743397,51.793512
Marskramer,113,,,6603JG,Wijchen,Wijchen,Gelderland,VBO,5.743556,51.793431
Marskramer,115,,,6603JG,Wijchen,Wijchen,Gelderland,VBO,5.743614,51.793386
Marskramer,117,,,6603JG,Wijchen,Wijchen,Gelderland,VBO,5.744053,51.793308
Marskramer,119,,,6603JG,Wijchen,Wijchen,Gelderland,VBO,5.743995,51.793281
Marskramer,121,,,6603JG,Wijchen,Wijchen,Gelderland,VBO,5.743922,51.793254
Marskramer,123,,,6603JG,Wijchen,Wijchen,Gelderland,VBO,5.743864,51.793227
Marskramer,125,,,6603JG,Wijchen,Wijchen,Gelderland,VBO,5.743806,51.793210
Marskramer,127,,,6603JG,Wijchen,Wijchen,Gelderland,VBO,5.743733,51.793183
Marskramer,129,,,6603JG,Wijchen,Wijchen,Gelderland,VBO,5.743954,51.793019
Marskramer,131,,,6603JG,Wijchen,Wijchen,Gelderland,VBO,5.743997,51.792974
Marskramer,133,,,6603JG,Wijchen,Wijchen,Gelderland,VBO,5.744040,51.792938
Marskramer,135,,,6603JG,Wijchen,Wijchen,Gelderland,VBO,5.744150,51.792855
Marskramer,137,,,6603JG,Wijchen,Wijchen,Gelderland,VBO,5.744193,51.792801
Marskramer,139,,,6603JG,Wijchen,Wijchen,Gelderland,VBO,5.744250,51.792675
Marskramer,141,,,6603JG,Wijchen,Wijchen,Gelderland,VBO,5.744302,51.792483
Marskramer,143,,,6603JG,Wijchen,Wijchen,Gelderland,VBO,5.744346,51.792438
Marskramer,145,,,6603JG,Wijchen,Wijchen,Gelderland,VBO,5.744374,51.792402
Marskramer,147,,,6603JG,Wijchen,Wijchen,Gelderland,VBO,5.744472,51.792269
Marskramer,149,,,6603JG,Wijchen,Wijchen,Gelderland,VBO,5.744545,51.792242
Marskramer,151,,,6603JG,Wijchen,Wijchen,Gelderland,VBO,5.746119,51.792285
Marskramer,153,,,6603JG,Wijchen,Wijchen,Gelderland,VBO,5.746192,51.792276
Marskramer,155,,,6603JG,Wijchen,Wijchen,Gelderland,VBO,5.746264,51.792267
Marskramer,157,,,6603JG,Wijchen,Wijchen,Gelderland,VBO,5.746351,51.792258
Marskramer,159,,,6603JG,Wijchen,Wijchen,Gelderland,VBO,5.746543,51.792237
Marskramer,161,,,6603JG,Wijchen,Wijchen,Gelderland,VBO,5.746635,51.792242
Marskramer,163,,,6603JG,Wijchen,Wijchen,Gelderland,VBO,5.746834,51.792315
Marskramer,165,,,6603JG,Wijchen,Wijchen,Gelderland,VBO,5.747140,51.792351
Marskramer,167,,,6603JG,Wijchen,Wijchen,Gelderland,VBO,5.747213,51.792392
Marskramer,40,,,6603JH,Wijchen,Wijchen,Gelderland,VBO,5.737355,51.796937
Marskramer,42,,,6603JH,Wijchen,Wijchen,Gelderland,VBO,5.737493,51.796857
Marskramer,44,,,6603JH,Wijchen,Wijchen,Gelderland,VBO,5.737550,51.796811
Marskramer,46,,,6603JH,Wijchen,Wijchen,Gelderland,VBO,5.737603,51.796674
Marskramer,48,,,6603JH,Wijchen,Wijchen,Gelderland,VBO,5.737766,51.796550
Marskramer,50,,,6603JH,Wijchen,Wijchen,Gelderland,VBO,5.737794,51.796514
Marskramer,52,,,6603JH,Wijchen,Wijchen,Gelderland,VBO,5.737873,51.796368
Marskramer,54,,,6603JH,Wijchen,Wijchen,Gelderland,VBO,5.737916,51.796314
Marskramer,56,,,6603JH,Wijchen,Wijchen,Gelderland,VBO,5.737983,51.796163
Marskramer,58,,,6603JH,Wijchen,Wijchen,Gelderland,VBO,5.738253,51.795864
Marskramer,60,,,6603JH,Wijchen,Wijchen,Gelderland,VBO,5.738367,51.795771
Marskramer,62,,,6603JH,Wijchen,Wijchen,Gelderland,VBO,5.738540,51.795702
Marskramer,64,,,6603JH,Wijchen,Wijchen,Gelderland,VBO,5.738612,51.795666
Marskramer,66,,,6603JH,Wijchen,Wijchen,Gelderland,VBO,5.738814,51.795566
Marskramer,68,,,6603JH,Wijchen,Wijchen,Gelderland,VBO,5.739184,51.795465
Marskramer,80,,,6603JJ,Wijchen,Wijchen,Gelderland,VBO,5.744324,51.791829
Marskramer,82,,,6603JJ,Wijchen,Wijchen,Gelderland,VBO,5.744295,51.791785
Marskramer,84,,,6603JJ,Wijchen,Wijchen,Gelderland,VBO,5.744280,51.791740
Marskramer,86,,,6603JJ,Wijchen,Wijchen,Gelderland,VBO,5.744250,51.791695
Marskramer,88,,,6603JJ,Wijchen,Wijchen,Gelderland,VBO,5.744235,51.791578
Marskramer,90,,,6603JJ,Wijchen,Wijchen,Gelderland,VBO,5.744306,51.791558
Marskramer,92,,,6603JJ,Wijchen,Wijchen,Gelderland,VBO,5.744365,51.791542
Marskramer,94,,,6603JJ,Wijchen,Wijchen,Gelderland,VBO,5.744438,51.791523
Marskramer,96,,,6603JJ,Wijchen,Wijchen,Gelderland,VBO,5.744510,51.791514
Marskramer,98,,,6603JJ,Wijchen,Wijchen,Gelderland,VBO,5.744582,51.791496
Marskramer,100,,,6603JJ,Wijchen,Wijchen,Gelderland,VBO,5.744671,51.791484
Marskramer,102,,,6603JJ,Wijchen,Wijchen,Gelderland,VBO,5.744729,51.791474
Marskramer,104,,,6603JJ,Wijchen,Wijchen,Gelderland,VBO,5.744833,51.791583
Marskramer,106,,,6603JJ,Wijchen,Wijchen,Gelderland,VBO,5.744863,51.791628
Marskramer,108,,,6603JJ,Wijchen,Wijchen,Gelderland,VBO,5.744877,51.791673
Marskramer,110,,,6603JJ,Wijchen,Wijchen,Gelderland,VBO,5.744907,51.791718
Marskramer,112,,,6603JJ,Wijchen,Wijchen,Gelderland,VBO,5.745686,51.791771
Marskramer,114,,,6603JJ,Wijchen,Wijchen,Gelderland,VBO,5.745686,51.791726
Marskramer,116,,,6603JJ,Wijchen,Wijchen,Gelderland,VBO,5.745671,51.791681
Marskramer,118,,,6603JJ,Wijchen,Wijchen,Gelderland,VBO,5.745671,51.791637
Marskramer,120,,,6603JJ,Wijchen,Wijchen,Gelderland,VBO,5.745655,51.791565
Marskramer,122,,,6603JJ,Wijchen,Wijchen,Gelderland,VBO,5.745719,51.791546
Marskramer,124,,,6603JJ,Wijchen,Wijchen,Gelderland,VBO,5.745791,51.791536
Marskramer,126,,,6603JJ,Wijchen,Wijchen,Gelderland,VBO,5.745864,51.791536
Marskramer,128,,,6603JJ,Wijchen,Wijchen,Gelderland,VBO,5.745936,51.791527
Marskramer,130,,,6603JJ,Wijchen,Wijchen,Gelderland,VBO,5.746023,51.791527
Marskramer,132,,,6603JJ,Wijchen,Wijchen,Gelderland,VBO,5.746095,51.791527
Marskramer,134,,,6603JJ,Wijchen,Wijchen,Gelderland,VBO,5.746177,51.791554
Marskramer,136,,,6603JJ,Wijchen,Wijchen,Gelderland,VBO,5.746192,51.791614
Marskramer,138,,,6603JJ,Wijchen,Wijchen,Gelderland,VBO,5.746193,51.791659
Marskramer,140,,,6603JJ,Wijchen,Wijchen,Gelderland,VBO,5.746207,51.791704
Marskramer,142,,,6603JJ,Wijchen,Wijchen,Gelderland,VBO,5.746208,51.791749
Hoefsmid,3,,,6603JK,Wijchen,Wijchen,Gelderland,VBO,5.738709,51.797155
Hoefsmid,5,,,6603JK,Wijchen,Wijchen,Gelderland,VBO,5.738795,51.797128
Hoefsmid,7,,,6603JK,Wijchen,Wijchen,Gelderland,VBO,5.738925,51.797073
Hoefsmid,9,,,6603JK,Wijchen,Wijchen,Gelderland,VBO,5.738998,51.797055
Hoefsmid,11,,,6603JK,Wijchen,Wijchen,Gelderland,VBO,5.739080,51.797041
Hoefsmid,13,,,6603JK,Wijchen,Wijchen,Gelderland,VBO,5.739138,51.797014
Hoefsmid,15,,,6603JK,Wijchen,Wijchen,Gelderland,VBO,5.739447,51.796914
Hoefsmid,17,,,6603JK,Wijchen,Wijchen,Gelderland,VBO,5.739552,51.796818
Hoefsmid,19,,,6603JK,Wijchen,Wijchen,Gelderland,VBO,5.739610,51.796782
Hoefsmid,21,,,6603JK,Wijchen,Wijchen,Gelderland,VBO,5.739667,51.796692
Hoefsmid,23,,,6603JK,Wijchen,Wijchen,Gelderland,VBO,5.739696,51.796647
Hoefsmid,25,,,6603JK,Wijchen,Wijchen,Gelderland,VBO,5.739739,51.796611
Hoefsmid,27,,,6603JK,Wijchen,Wijchen,Gelderland,VBO,5.739782,51.796575
Hoefsmid,29,,,6603JK,Wijchen,Wijchen,Gelderland,VBO,5.739912,51.796493
Hoefsmid,31,,,6603JK,Wijchen,Wijchen,Gelderland,VBO,5.739939,51.796364
Hoefsmid,33,,,6603JK,Wijchen,Wijchen,Gelderland,VBO,5.740068,51.796247
Hoefsmid,35,,,6603JK,Wijchen,Wijchen,Gelderland,VBO,5.740140,51.796201
Hoefsmid,37,,,6603JK,Wijchen,Wijchen,Gelderland,VBO,5.740215,51.796132
Hoefsmid,39,,,6603JK,Wijchen,Wijchen,Gelderland,VBO,5.740303,51.796104
Hoefsmid,41,,,6603JK,Wijchen,Wijchen,Gelderland,VBO,5.740343,51.796075
Hoefsmid,43,,,6603JK,Wijchen,Wijchen,Gelderland,VBO,5.740401,51.796039
Hoefsmid,4,,,6603JL,Wijchen,Wijchen,Gelderland,VBO,5.738147,51.797178
Hoefsmid,6,,,6603JL,Wijchen,Wijchen,Gelderland,VBO,5.738205,51.797142
Hoefsmid,8,,,6603JL,Wijchen,Wijchen,Gelderland,VBO,5.738421,51.797007
Hoefsmid,10,,,6603JL,Wijchen,Wijchen,Gelderland,VBO,5.738494,51.796983
Hoefsmid,12,,,6603JL,Wijchen,Wijchen,Gelderland,VBO,5.738566,51.796961
Hoefsmid,14,,,6603JL,Wijchen,Wijchen,Gelderland,VBO,5.738682,51.796925
Hoefsmid,16,,,6603JL,Wijchen,Wijchen,Gelderland,VBO,5.738769,51.796907
Hoefsmid,18,,,6603JL,Wijchen,Wijchen,Gelderland,VBO,5.738942,51.796843
Klompenmaker,3,,,6603JM,Wijchen,Wijchen,Gelderland,VBO,5.740891,51.795795
Klompenmaker,4,,,6603JM,Wijchen,Wijchen,Gelderland,VBO,5.739156,51.796366
Klompenmaker,5,,,6603JM,Wijchen,Wijchen,Gelderland,VBO,5.740963,51.795759
Klompenmaker,6,,,6603JM,Wijchen,Wijchen,Gelderland,VBO,5.739198,51.796240
Klompenmaker,7,,,6603JM,Wijchen,Wijchen,Gelderland,VBO,5.741035,51.795731
Klompenmaker,8,,,6603JM,Wijchen,Wijchen,Gelderland,VBO,5.739227,51.796177
Klompenmaker,10,,,6603JM,Wijchen,Wijchen,Gelderland,VBO,5.739342,51.796051
Klompenmaker,12,,,6603JM,Wijchen,Wijchen,Gelderland,VBO,5.739385,51.796006
Klompenmaker,14,,,6603JM,Wijchen,Wijchen,Gelderland,VBO,5.739529,51.795907
Klompenmaker,16,,,6603JM,Wijchen,Wijchen,Gelderland,VBO,5.739717,51.795879
Klompenmaker,18,,,6603JM,Wijchen,Wijchen,Gelderland,VBO,5.739804,51.795843
Klompenmaker,20,,,6603JM,Wijchen,Wijchen,Gelderland,VBO,5.739963,51.795762
Klompenmaker,22,,,6603JM,Wijchen,Wijchen,Gelderland,VBO,5.740035,51.795734
Klompenmaker,24,,,6603JM,Wijchen,Wijchen,Gelderland,VBO,5.740397,51.795661
Klompenmaker,26,,,6603JM,Wijchen,Wijchen,Gelderland,VBO,5.740594,51.795662
Klompenmaker,28,,,6603JM,Wijchen,Wijchen,Gelderland,VBO,5.740666,51.795635
Klompenmaker,30,,,6603JM,Wijchen,Wijchen,Gelderland,VBO,5.740724,51.795608
Klompenmaker,32,,,6603JM,Wijchen,Wijchen,Gelderland,VBO,5.740796,51.795580
Brouwer,3,,,6603JN,Wijchen,Wijchen,Gelderland,VBO,5.738980,51.796594
Brouwer,4,,,6603JN,Wijchen,Wijchen,Gelderland,VBO,5.738520,51.796674
Brouwer,5,,,6603JN,Wijchen,Wijchen,Gelderland,VBO,5.738922,51.796567
Brouwer,7,,,6603JN,Wijchen,Wijchen,Gelderland,VBO,5.738849,51.796540
Brouwer,9,,,6603JN,Wijchen,Wijchen,Gelderland,VBO,5.738791,51.796522
Brouwer,11,,,6603JN,Wijchen,Wijchen,Gelderland,VBO,5.738718,51.796495
Brouwer,13,,,6603JN,Wijchen,Wijchen,Gelderland,VBO,5.738660,51.796478
Imker,3,,,6603JP,Wijchen,Wijchen,Gelderland,VBO,5.740894,51.796208
Imker,4,,,6603JP,Wijchen,Wijchen,Gelderland,VBO,5.740634,51.796308
Imker,5,,,6603JP,Wijchen,Wijchen,Gelderland,VBO,5.740836,51.796172
Imker,6,,,6603JP,Wijchen,Wijchen,Gelderland,VBO,5.740590,51.796272
Imker,7,,,6603JP,Wijchen,Wijchen,Gelderland,VBO,5.740790,51.796065
Imker,9,,,6603JP,Wijchen,Wijchen,Gelderland,VBO,5.740760,51.796020
Imker,11,,,6603JP,Wijchen,Wijchen,Gelderland,VBO,5.740716,51.795985
Imker,13,,,6603JP,Wijchen,Wijchen,Gelderland,VBO,5.740687,51.795949
Imker,15,,,6603JP,Wijchen,Wijchen,Gelderland,VBO,5.740643,51.795904
Imker,17,,,6603JP,Wijchen,Wijchen,Gelderland,VBO,5.740614,51.795868
Imker,21,,,6603JP,Wijchen,Wijchen,Gelderland,VBO,5.740178,51.795527
Brink,3,,,6603JR,Wijchen,Wijchen,Gelderland,VBO,5.742869,51.795761
Brink,4,,,6603JR,Wijchen,Wijchen,Gelderland,VBO,5.741868,51.795947
Brink,5,,,6603JR,Wijchen,Wijchen,Gelderland,VBO,5.742811,51.795734
Brink,6,,,6603JR,Wijchen,Wijchen,Gelderland,VBO,5.741824,51.795920
Brink,7,,,6603JR,Wijchen,Wijchen,Gelderland,VBO,5.742767,51.795698
Brink,8,,,6603JR,Wijchen,Wijchen,Gelderland,VBO,5.741780,51.795885
Brink,9,,,6603JR,Wijchen,Wijchen,Gelderland,VBO,5.742709,51.795663
Brink,10,,,6603JR,Wijchen,Wijchen,Gelderland,VBO,5.741722,51.795849
Brink,11,,,6603JR,Wijchen,Wijchen,Gelderland,VBO,5.742500,51.795460
Brink,12,,,6603JR,Wijchen,Wijchen,Gelderland,VBO,5.741649,51.795822
Brink,13,,,6603JR,Wijchen,Wijchen,Gelderland,VBO,5.742444,51.795415
Brink,14,,,6603JR,Wijchen,Wijchen,Gelderland,VBO,5.741541,51.795788
Brink,15,,,6603JR,Wijchen,Wijchen,Gelderland,VBO,5.742286,51.795384
Brink,16,,,6603JR,Wijchen,Wijchen,Gelderland,VBO,5.741469,51.795743
Brink,17,,,6603JR,Wijchen,Wijchen,Gelderland,VBO,5.742227,51.795348
Brink,18,,,6603JR,Wijchen,Wijchen,Gelderland,VBO,5.741339,51.795632
Brink,19,,,6603JR,Wijchen,Wijchen,Gelderland,VBO,5.742169,51.795312
Brink,20,,,6603JR,Wijchen,Wijchen,Gelderland,VBO,5.741047,51.795435
Brink,21,,,6603JR,Wijchen,Wijchen,Gelderland,VBO,5.742111,51.795285
Brink,22,,,6603JR,Wijchen,Wijchen,Gelderland,VBO,5.740975,51.795390
Brink,24,,,6603JR,Wijchen,Wijchen,Gelderland,VBO,5.740873,51.795309
Brink,26,,,6603JR,Wijchen,Wijchen,Gelderland,VBO,5.740814,51.795274
Brink,27,,,6603JR,Wijchen,Wijchen,Gelderland,VBO,5.741742,51.795002
Brink,28,,,6603JR,Wijchen,Wijchen,Gelderland,VBO,5.740771,51.795247
Brink,30,,,6603JR,Wijchen,Wijchen,Gelderland,VBO,5.740712,51.795211
Brink,32,,,6603JR,Wijchen,Wijchen,Gelderland,VBO,5.740654,51.795166
Mandenmaker,9,,,6603JS,Wijchen,Wijchen,Gelderland,VBO,5.743597,51.795184
Mandenmaker,11,,,6603JS,Wijchen,Wijchen,Gelderland,VBO,5.743712,51.795094
Mandenmaker,15,,,6603JS,Wijchen,Wijchen,Gelderland,VBO,5.743755,51.795049
Mandenmaker,17,A,,6603JS,Wijchen,Wijchen,Gelderland,VBO,5.743967,51.794922
Mandenmaker,17,,,6603JS,Wijchen,Wijchen,Gelderland,VBO,5.743854,51.794933
Mandenmaker,19,,,6603JS,Wijchen,Wijchen,Gelderland,VBO,5.743942,51.794833
Mandenmaker,21,,,6603JS,Wijchen,Wijchen,Gelderland,VBO,5.743971,51.794797
Mandenmaker,23,,,6603JS,Wijchen,Wijchen,Gelderland,VBO,5.744014,51.794761
Mandenmaker,25,,,6603JS,Wijchen,Wijchen,Gelderland,VBO,5.744186,51.794678
Mandenmaker,27,,,6603JS,Wijchen,Wijchen,Gelderland,VBO,5.744380,51.794616
Mandenmaker,29,,,6603JS,Wijchen,Wijchen,Gelderland,VBO,5.744483,51.794568
Mandenmaker,31,,,6603JS,Wijchen,Wijchen,Gelderland,VBO,5.744540,51.794532
Mandenmaker,33,,,6603JS,Wijchen,Wijchen,Gelderland,VBO,5.744613,51.794504
Mandenmaker,51,,,6603JS,Wijchen,Wijchen,Gelderland,VBO,5.746349,51.793346
Mandenmaker,53,,,6603JS,Wijchen,Wijchen,Gelderland,VBO,5.746291,51.793319
Mandenmaker,55,,,6603JS,Wijchen,Wijchen,Gelderland,VBO,5.746247,51.793283
Mandenmaker,57,,,6603JS,Wijchen,Wijchen,Gelderland,VBO,5.746189,51.793248
Mandenmaker,61,,,6603JS,Wijchen,Wijchen,Gelderland,VBO,5.745849,51.793148
Mandenmaker,63,,,6603JS,Wijchen,Wijchen,Gelderland,VBO,5.745776,51.793123
Mandenmaker,4,,,6603JT,Wijchen,Wijchen,Gelderland,VBO,5.742685,51.795340
Mandenmaker,6,,,6603JT,Wijchen,Wijchen,Gelderland,VBO,5.742742,51.795304
Mandenmaker,8,,,6603JT,Wijchen,Wijchen,Gelderland,VBO,5.742800,51.795268
Mandenmaker,10,,,6603JT,Wijchen,Wijchen,Gelderland,VBO,5.742843,51.795241
Mandenmaker,12,,,6603JT,Wijchen,Wijchen,Gelderland,VBO,5.743001,51.795164
Mandenmaker,14,,,6603JT,Wijchen,Wijchen,Gelderland,VBO,5.743082,51.795143
Mandenmaker,16,,,6603JT,Wijchen,Wijchen,Gelderland,VBO,5.743234,51.795087
Mandenmaker,18,,,6603JT,Wijchen,Wijchen,Gelderland,VBO,5.743291,51.795041
Mandenmaker,20,,,6603JT,Wijchen,Wijchen,Gelderland,VBO,5.743348,51.794997
Mandenmaker,22,,,6603JT,Wijchen,Wijchen,Gelderland,VBO,5.743376,51.794961
Mandenmaker,24,,,6603JT,Wijchen,Wijchen,Gelderland,VBO,5.743425,51.794861
Mandenmaker,26,,,6603JT,Wijchen,Wijchen,Gelderland,VBO,5.743480,51.794815
Mandenmaker,28,,,6603JT,Wijchen,Wijchen,Gelderland,VBO,5.743616,51.794727
Mandenmaker,30,,,6603JT,Wijchen,Wijchen,Gelderland,VBO,5.743665,51.794681
Mandenmaker,32,,,6603JT,Wijchen,Wijchen,Gelderland,VBO,5.743882,51.794536
Mandenmaker,34,,,6603JT,Wijchen,Wijchen,Gelderland,VBO,5.743939,51.794500
Mandenmaker,36,,,6603JT,Wijchen,Wijchen,Gelderland,VBO,5.743997,51.794464
Mandenmaker,38,,,6603JT,Wijchen,Wijchen,Gelderland,VBO,5.744130,51.794391
Mandenmaker,40,,,6603JT,Wijchen,Wijchen,Gelderland,VBO,5.744197,51.794360
Mandenmaker,42,,,6603JT,Wijchen,Wijchen,Gelderland,VBO,5.744354,51.794299
Mandenmaker,44,,,6603JT,Wijchen,Wijchen,Gelderland,VBO,5.744412,51.794263
Mandenmaker,46,,,6603JT,Wijchen,Wijchen,Gelderland,VBO,5.744470,51.794236
Mandenmaker,48,,,6603JT,Wijchen,Wijchen,Gelderland,VBO,5.744513,51.794200
Mandenmaker,50,,,6603JT,Wijchen,Wijchen,Gelderland,VBO,5.744626,51.794110
Mandenmaker,52,,,6603JT,Wijchen,Wijchen,Gelderland,VBO,5.744930,51.793969
Mandenmaker,54,,,6603JT,Wijchen,Wijchen,Gelderland,VBO,5.745098,51.793886
Mandenmaker,56,,,6603JT,Wijchen,Wijchen,Gelderland,VBO,5.745169,51.793857
Mandenmaker,58,,,6603JT,Wijchen,Wijchen,Gelderland,VBO,5.745278,51.793805
Mandenmaker,60,,,6603JT,Wijchen,Wijchen,Gelderland,VBO,5.745336,51.793778
Mandenmaker,62,,,6603JT,Wijchen,Wijchen,Gelderland,VBO,5.745408,51.793751
Mandenmaker,64,,,6603JT,Wijchen,Wijchen,Gelderland,VBO,5.745466,51.793724
Mandenmaker,66,,,6603JT,Wijchen,Wijchen,Gelderland,VBO,5.745657,51.793573
Mandenmaker,68,,,6603JT,Wijchen,Wijchen,Gelderland,VBO,5.745729,51.793537
Mandenmaker,70,,,6603JT,Wijchen,Wijchen,Gelderland,VBO,5.745772,51.793510
Mandenmaker,72,,,6603JT,Wijchen,Wijchen,Gelderland,VBO,5.745815,51.793474
Mandenmaker,76,,,6603JT,Wijchen,Wijchen,Gelderland,VBO,5.745592,51.793311
Mandenmaker,78,,,6603JT,Wijchen,Wijchen,Gelderland,VBO,5.745534,51.793293
Mandenmaker,80,,,6603JT,Wijchen,Wijchen,Gelderland,VBO,5.745462,51.793266
Mandenmaker,82,,,6603JT,Wijchen,Wijchen,Gelderland,VBO,5.745403,51.793239
Mandenmaker,84,,,6603JT,Wijchen,Wijchen,Gelderland,VBO,5.745331,51.793221
Mandenmaker,86,,,6603JT,Wijchen,Wijchen,Gelderland,VBO,5.745273,51.793195
Mandenmaker,88,,,6603JT,Wijchen,Wijchen,Gelderland,VBO,5.745200,51.793177
Rietdekker,3,,,6603JV,Wijchen,Wijchen,Gelderland,VBO,5.742412,51.795148
Rietdekker,5,,,6603JV,Wijchen,Wijchen,Gelderland,VBO,5.742485,51.795113
Rietdekker,7,,,6603JV,Wijchen,Wijchen,Gelderland,VBO,5.742581,51.795026
Rietdekker,9,,,6603JV,Wijchen,Wijchen,Gelderland,VBO,5.742639,51.794989
Rietdekker,11,,,6603JV,Wijchen,Wijchen,Gelderland,VBO,5.742696,51.794962
Rietdekker,13,,,6603JV,Wijchen,Wijchen,Gelderland,VBO,5.742898,51.794911
Rietdekker,15,,,6603JV,Wijchen,Wijchen,Gelderland,VBO,5.742911,51.794814
Rietdekker,17,,,6603JV,Wijchen,Wijchen,Gelderland,VBO,5.742939,51.794778
Rietdekker,19,,,6603JV,Wijchen,Wijchen,Gelderland,VBO,5.742968,51.794733
Rietdekker,21,,,6603JV,Wijchen,Wijchen,Gelderland,VBO,5.742997,51.794697
Rietdekker,23,,,6603JV,Wijchen,Wijchen,Gelderland,VBO,5.743237,51.794532
Rietdekker,25,,,6603JV,Wijchen,Wijchen,Gelderland,VBO,5.743359,51.794432
Rietdekker,27,,,6603JV,Wijchen,Wijchen,Gelderland,VBO,5.743402,51.794396
Rietdekker,29,,,6603JV,Wijchen,Wijchen,Gelderland,VBO,5.743460,51.794360
Rietdekker,31,,,6603JV,Wijchen,Wijchen,Gelderland,VBO,5.743605,51.794320
Rietdekker,33,,,6603JV,Wijchen,Wijchen,Gelderland,VBO,5.743668,51.794277
Rietdekker,35,,,6603JV,Wijchen,Wijchen,Gelderland,VBO,5.743719,51.794171
Rietdekker,37,,,6603JV,Wijchen,Wijchen,Gelderland,VBO,5.743777,51.794135
Rietdekker,39,,,6603JV,Wijchen,Wijchen,Gelderland,VBO,5.743835,51.794098
Rietdekker,41,,,6603JV,Wijchen,Wijchen,Gelderland,VBO,5.743878,51.794071
Rietdekker,43,,,6603JV,Wijchen,Wijchen,Gelderland,VBO,5.744104,51.794050
Rietdekker,45,,,6603JV,Wijchen,Wijchen,Gelderland,VBO,5.744165,51.794014
Rietdekker,47,,,6603JV,Wijchen,Wijchen,Gelderland,VBO,5.744323,51.793841
Rietdekker,49,,,6603JV,Wijchen,Wijchen,Gelderland,VBO,5.744493,51.793761
Rietdekker,51,,,6603JV,Wijchen,Wijchen,Gelderland,VBO,5.744550,51.793725
Rietdekker,53,,,6603JV,Wijchen,Wijchen,Gelderland,VBO,5.744608,51.793698
Rietdekker,55,,,6603JV,Wijchen,Wijchen,Gelderland,VBO,5.744821,51.793532
Rietdekker,57,,,6603JV,Wijchen,Wijchen,Gelderland,VBO,5.744860,51.793485
Rietdekker,59,,,6603JV,Wijchen,Wijchen,Gelderland,VBO,5.744973,51.793368
Rietdekker,61,,,6603JV,Wijchen,Wijchen,Gelderland,VBO,5.745360,51.793032
Rietdekker,63,,,6603JV,Wijchen,Wijchen,Gelderland,VBO,5.745374,51.792987
Rietdekker,65,,,6603JV,Wijchen,Wijchen,Gelderland,VBO,5.745403,51.792951
Rietdekker,67,,,6603JV,Wijchen,Wijchen,Gelderland,VBO,5.745432,51.792906
Rietdekker,69,,,6603JV,Wijchen,Wijchen,Gelderland,VBO,5.745537,51.792829
Rietdekker,71,,,6603JV,Wijchen,Wijchen,Gelderland,VBO,5.745668,51.792548
Rietdekker,73,,,6603JV,Wijchen,Wijchen,Gelderland,VBO,5.745745,51.792442
Rietdekker,75,,,6603JV,Wijchen,Wijchen,Gelderland,VBO,5.745790,51.792388
Rietdekker,77,,,6603JV,Wijchen,Wijchen,Gelderland,VBO,5.745832,51.792286
Rietdekker,10,,,6603JW,Wijchen,Wijchen,Gelderland,VBO,5.742592,51.794632
Rietdekker,12,,,6603JW,Wijchen,Wijchen,Gelderland,VBO,5.742664,51.794526
Rietdekker,14,,,6603JW,Wijchen,Wijchen,Gelderland,VBO,5.742711,51.794483
Rietdekker,16,,,6603JW,Wijchen,Wijchen,Gelderland,VBO,5.742817,51.794417
Rietdekker,18,,,6603JW,Wijchen,Wijchen,Gelderland,VBO,5.742875,51.794381
Rietdekker,20,,,6603JW,Wijchen,Wijchen,Gelderland,VBO,5.742918,51.794345
Rietdekker,22,,,6603JW,Wijchen,Wijchen,Gelderland,VBO,5.742976,51.794318
Rietdekker,24,,,6603JW,Wijchen,Wijchen,Gelderland,VBO,5.743226,51.794188
Rietdekker,26,A,,6603JW,Wijchen,Wijchen,Gelderland,VBO,5.743189,51.794057
Rietdekker,26,,,6603JW,Wijchen,Wijchen,Gelderland,VBO,5.743314,51.794065
Rietdekker,28,,,6603JW,Wijchen,Wijchen,Gelderland,VBO,5.743371,51.794024
Rietdekker,30,,,6603JW,Wijchen,Wijchen,Gelderland,VBO,5.743495,51.793966
Rietdekker,32,,,6603JW,Wijchen,Wijchen,Gelderland,VBO,5.743552,51.793930
Rietdekker,34,,,6603JW,Wijchen,Wijchen,Gelderland,VBO,5.743595,51.793893
Rietdekker,36,,,6603JW,Wijchen,Wijchen,Gelderland,VBO,5.743653,51.793857
Rietdekker,38,,,6603JW,Wijchen,Wijchen,Gelderland,VBO,5.743962,51.793709
Rietdekker,40,,,6603JW,Wijchen,Wijchen,Gelderland,VBO,5.744101,51.793637
Rietdekker,42,,,6603JW,Wijchen,Wijchen,Gelderland,VBO,5.744159,51.793610
Rietdekker,44,,,6603JW,Wijchen,Wijchen,Gelderland,VBO,5.744216,51.793574
Rietdekker,46,,,6603JW,Wijchen,Wijchen,Gelderland,VBO,5.744274,51.793547
Rietdekker,48,,,6603JW,Wijchen,Wijchen,Gelderland,VBO,5.744375,51.793448
Rietdekker,50,,,6603JW,Wijchen,Wijchen,Gelderland,VBO,5.744433,51.793394
Rietdekker,52,,,6603JW,Wijchen,Wijchen,Gelderland,VBO,5.744540,51.793312
Rietdekker,54,,,6603JW,Wijchen,Wijchen,Gelderland,VBO,5.744583,51.793267
Rietdekker,56,,,6603JW,Wijchen,Wijchen,Gelderland,VBO,5.744684,51.793177
Rietdekker,58,,,6603JW,Wijchen,Wijchen,Gelderland,VBO,5.744727,51.793150
Rietdekker,60,,,6603JW,Wijchen,Wijchen,Gelderland,VBO,5.744785,51.793114
Rietdekker,62,,,6603JW,Wijchen,Wijchen,Gelderland,VBO,5.744842,51.793086
Rietdekker,64,,,6603JW,Wijchen,Wijchen,Gelderland,VBO,5.744961,51.792943
Rietdekker,66,,,6603JW,Wijchen,Wijchen,Gelderland,VBO,5.744974,51.792818
Rietdekker,68,,,6603JW,Wijchen,Wijchen,Gelderland,VBO,5.745003,51.792755
Rietdekker,70,,,6603JW,Wijchen,Wijchen,Gelderland,VBO,5.744953,51.792577
Rietdekker,72,,,6603JW,Wijchen,Wijchen,Gelderland,VBO,5.744996,51.792451
Rietdekker,74,,,6603JW,Wijchen,Wijchen,Gelderland,VBO,5.744995,51.792406
Rietdekker,76,,,6603JW,Wijchen,Wijchen,Gelderland,VBO,5.744981,51.792361
Rietdekker,78,,,6603JW,Wijchen,Wijchen,Gelderland,VBO,5.744966,51.792307
Rietdekker,80,,,6603JW,Wijchen,Wijchen,Gelderland,VBO,5.744979,51.792182
Warmoezenier,4,,,6603JX,Wijchen,Wijchen,Gelderland,VBO,5.746082,51.792635
Warmoezenier,6,,,6603JX,Wijchen,Wijchen,Gelderland,VBO,5.746162,51.792652
Warmoezenier,8,,,6603JX,Wijchen,Wijchen,Gelderland,VBO,5.746316,51.792650
Warmoezenier,10,,,6603JX,Wijchen,Wijchen,Gelderland,VBO,5.746389,51.792668
Warmoezenier,11,,,6603JX,Wijchen,Wijchen,Gelderland,VBO,5.746653,51.793084
Warmoezenier,12,,,6603JX,Wijchen,Wijchen,Gelderland,VBO,5.746462,51.792677
Warmoezenier,16,,,6603JX,Wijchen,Wijchen,Gelderland,VBO,5.746908,51.792595
Warmoezenier,18,,,6603JX,Wijchen,Wijchen,Gelderland,VBO,5.746980,51.792558
Hoogbroekseweg,1,,,6603KA,Wijchen,Wijchen,Gelderland,VBO,5.759360,51.807074
Hoogbroekseweg,2,,,6603KA,Wijchen,Wijchen,Gelderland,VBO,5.759203,51.806821
Hoogbroekseweg,3,,,6603KA,Wijchen,Wijchen,Gelderland,VBO,5.760349,51.806853
Hoogbroekseweg,4,,,6603KA,Wijchen,Wijchen,Gelderland,VBO,5.759503,51.806791
Hoogbroekseweg,6,,,6603KA,Wijchen,Wijchen,Gelderland,VBO,5.759812,51.806711
Hoogbroekseweg,8,,,6603KA,Wijchen,Wijchen,Gelderland,VBO,5.760115,51.806620
Hoogbroekseweg,10,,,6603KA,Wijchen,Wijchen,Gelderland,VBO,5.760202,51.806548
Hoogbroekseweg,12,,,6603KA,Wijchen,Wijchen,Gelderland,VBO,5.760490,51.806394
Hoogbroekseweg,13,,,6603KA,Wijchen,Wijchen,Gelderland,VBO,5.763315,51.806071
Hoogbroekseweg,14,,,6603KA,Wijchen,Wijchen,Gelderland,VBO,5.760678,51.806268
Hoogbroekseweg,16,,,6603KA,Wijchen,Wijchen,Gelderland,VBO,5.761025,51.806132
Hoogbroekseweg,18,,,6603KA,Wijchen,Wijchen,Gelderland,VBO,5.761531,51.806031
Hoogbroekseweg,19,,,6603KA,Wijchen,Wijchen,Gelderland,VBO,5.764546,51.805887
Hoogbroekseweg,22,,,6603KA,Wijchen,Wijchen,Gelderland,VBO,5.762082,51.805985
Hoogbroekseweg,24,,,6603KA,Wijchen,Wijchen,Gelderland,VBO,5.762212,51.805966
Hoogbroekseweg,25,,,6603KA,Wijchen,Wijchen,Gelderland,VBO,5.765785,51.806701
Hoogbroekseweg,26,,,6603KA,Wijchen,Wijchen,Gelderland,VBO,5.762453,51.805933
Hoogbroekseweg,28,,,6603KA,Wijchen,Wijchen,Gelderland,VBO,5.762540,51.805923
Hoogbroekseweg,30,,,6603KA,Wijchen,Wijchen,Gelderland,VBO,5.762736,51.805900
Hoogbroekseweg,31,,,6603KA,Wijchen,Wijchen,Gelderland,VBO,5.766905,51.805340
Heikampseweg,1,,,6603KB,Wijchen,Wijchen,Gelderland,VBO,5.762349,51.803796
Heikampseweg,2,,,6603KB,Wijchen,Wijchen,Gelderland,VBO,5.763006,51.803798
Heikampseweg,3,,,6603KB,Wijchen,Wijchen,Gelderland,VBO,5.762408,51.803985
Heikampseweg,4,,,6603KB,Wijchen,Wijchen,Gelderland,VBO,5.763215,51.804453
Heikampseweg,5,,,6603KB,Wijchen,Wijchen,Gelderland,VBO,5.762384,51.804177
Heikampseweg,7,,,6603KB,Wijchen,Wijchen,Gelderland,VBO,5.762488,51.804384
Heikampseweg,9,,,6603KB,Wijchen,Wijchen,Gelderland,VBO,5.762503,51.804437
Heikampseweg,10,,,6603KB,Wijchen,Wijchen,Gelderland,VBO,5.763267,51.805505
Heikampseweg,11,,,6603KB,Wijchen,Wijchen,Gelderland,VBO,5.762757,51.805264
Heikampseweg,12,,,6603KB,Wijchen,Wijchen,Gelderland,VBO,5.763273,51.806251
Heikampseweg,13,,,6603KB,Wijchen,Wijchen,Gelderland,VBO,5.762744,51.805407
Heikampseweg,15,,,6603KB,Wijchen,Wijchen,Gelderland,VBO,5.762789,51.805569
Heikampseweg,29,,,6603KB,Wijchen,Wijchen,Gelderland,VBO,5.762875,51.805881
Heikampseweg,41,,,6603KB,Wijchen,Wijchen,Gelderland,VBO,5.762710,51.806549
Heikampseweg,43,,,6603KB,Wijchen,Wijchen,Gelderland,VBO,5.762697,51.806711
Heikampseweg,55,,,6603KB,Wijchen,Wijchen,Gelderland,VBO,5.762629,51.807205
Heikampseweg,57,,,6603KB,Wijchen,Wijchen,Gelderland,VBO,5.762560,51.807682
Weideweg,2,,,6603KC,Wijchen,Wijchen,Gelderland,VBO,5.762011,51.809661
Weideweg,3,,,6603KC,Wijchen,Wijchen,Gelderland,VBO,5.762434,51.809844
Weideweg,5,,,6603KC,Wijchen,Wijchen,Gelderland,VBO,5.762530,51.809825
Weideweg,6,,,6603KC,Wijchen,Wijchen,Gelderland,VBO,5.762937,51.809398
Weideweg,7,,,6603KC,Wijchen,Wijchen,Gelderland,VBO,5.764185,51.809528
Weideweg,10,,,6603KC,Wijchen,Wijchen,Gelderland,VBO,5.764933,51.808852
Weideweg,12,,,6603KC,Wijchen,Wijchen,Gelderland,VBO,5.765000,51.808142
Weideweg,19,,,6603KC,Wijchen,Wijchen,Gelderland,VBO,5.766567,51.808316
Akkerweg,3,A,,6603KD,Wijchen,Wijchen,Gelderland,VBO,5.763136,51.810664
Akkerweg,3,,,6603KD,Wijchen,Wijchen,Gelderland,VBO,5.762844,51.810486
Akkerweg,4,,,6603KD,Wijchen,Wijchen,Gelderland,VBO,5.762664,51.810246
Akkerweg,6,A,,6603KD,Wijchen,Wijchen,Gelderland,VBO,5.763855,51.809952
Akkerweg,6,,,6603KD,Wijchen,Wijchen,Gelderland,VBO,5.764001,51.810068
Akkerweg,7,,,6603KD,Wijchen,Wijchen,Gelderland,VBO,5.764062,51.810778
Akkerweg,8,,,6603KD,Wijchen,Wijchen,Gelderland,VBO,5.764769,51.810039
Akkerweg,9,,,6603KD,Wijchen,Wijchen,Gelderland,VBO,5.764347,51.810968
Akkerweg,11,,,6603KD,Wijchen,Wijchen,Gelderland,VBO,5.764585,51.810957
Akkerweg,13,,,6603KD,Wijchen,Wijchen,Gelderland,VBO,5.764475,51.811044
Akkerweg,14,,,6603KD,Wijchen,Wijchen,Gelderland,VBO,5.765761,51.809002
Akkerweg,15,,,6603KD,Wijchen,Wijchen,Gelderland,VBO,5.764394,51.810965
Akkerweg,17,,,6603KD,Wijchen,Wijchen,Gelderland,VBO,5.764531,51.810959
Akkerweg,19,,,6603KD,Wijchen,Wijchen,Gelderland,VBO,5.764461,51.810891
Akkerweg,21,,,6603KD,Wijchen,Wijchen,Gelderland,VBO,5.764476,51.811022
Akkerweg,23,,,6603KD,Wijchen,Wijchen,Gelderland,VBO,5.764439,51.810964
Akkerweg,25,,,6603KD,Wijchen,Wijchen,Gelderland,VBO,5.764486,51.810962
Akkerweg,27,,,6603KD,Wijchen,Wijchen,Gelderland,VBO,5.764465,51.810930
Akkerweg,29,,,6603KD,Wijchen,Wijchen,Gelderland,VBO,5.764474,51.810991
Akkerweg,31,,,6603KD,Wijchen,Wijchen,Gelderland,VBO,5.764829,51.810734
Akkerweg,35,,,6603KD,Wijchen,Wijchen,Gelderland,VBO,5.765340,51.810675
Panhuisweg,1,,,6603KE,Wijchen,Wijchen,Gelderland,VBO,5.765531,51.815287
Panhuisweg,3,,,6603KE,Wijchen,Wijchen,Gelderland,VBO,5.765633,51.815277
Panhuisweg,5,,,6603KE,Wijchen,Wijchen,Gelderland,VBO,5.766667,51.815012
Panhuisweg,11,,,6603KE,Wijchen,Wijchen,Gelderland,VBO,5.767120,51.813654
Panhuisweg,14,,,6603KE,Wijchen,Wijchen,Gelderland,VBO,5.766865,51.812931
Panhuisweg,16,,,6603KE,Wijchen,Wijchen,Gelderland,VBO,5.766705,51.812913
Panhuisweg,17,A,,6603KE,Wijchen,Wijchen,Gelderland,VBO,5.767243,51.813281
Panhuisweg,17,,,6603KE,Wijchen,Wijchen,Gelderland,VBO,5.767088,51.813339
Panhuisweg,19,A,,6603KE,Wijchen,Wijchen,Gelderland,VBO,5.767491,51.812897
Panhuisweg,19,,,6603KE,Wijchen,Wijchen,Gelderland,VBO,5.767324,51.812755
Panhuisweg,20,,,6603KE,Wijchen,Wijchen,Gelderland,VBO,5.765860,51.812085
Panhuisweg,21,,,6603KE,Wijchen,Wijchen,Gelderland,VBO,5.767271,51.812709
Panhuisweg,22,,,6603KE,Wijchen,Wijchen,Gelderland,VBO,5.766357,51.811499
Panhuisweg,23,,,6603KE,Wijchen,Wijchen,Gelderland,VBO,5.767747,51.812648
Panhuisweg,26,,,6603KE,Wijchen,Wijchen,Gelderland,VBO,5.766691,51.810896
Panhuisweg,27,,,6603KE,Wijchen,Wijchen,Gelderland,VBO,5.768049,51.812024
Panhuisweg,28,,,6603KE,Wijchen,Wijchen,Gelderland,VBO,5.766789,51.810581
Panhuisweg,30,,,6603KE,Wijchen,Wijchen,Gelderland,VBO,5.766757,51.810194
Panhuisweg,33,,,6603KE,Wijchen,Wijchen,Gelderland,VBO,5.767270,51.810840
Panhuisweg,36,,,6603KG,Wijchen,Wijchen,Gelderland,VBO,5.767681,51.808007
Panhuisweg,41,,,6603KG,Wijchen,Wijchen,Gelderland,VBO,5.768178,51.808561
Panhuisweg,42,,,6603KG,Wijchen,Wijchen,Gelderland,VBO,5.767708,51.805976
Panhuisweg,43,,,6603KG,Wijchen,Wijchen,Gelderland,VBO,5.768161,51.808313
Panhuisweg,55,,,6603KG,Wijchen,Wijchen,Gelderland,VBO,5.771110,51.805407
Panhuisweg,57,,,6603KG,Wijchen,Wijchen,Gelderland,VBO,5.771512,51.804876
Panhuisweg,59,,,6603KG,Wijchen,Wijchen,Gelderland,VBO,5.771741,51.804524
Wighenerhorst,1,,,6603KH,Wijchen,Wijchen,Gelderland,VBO,5.767404,51.794040
Wighenerhorst,2,,,6603KH,Wijchen,Wijchen,Gelderland,VBO,5.767228,51.793852
Wighenerhorst,3,,,6603KH,Wijchen,Wijchen,Gelderland,VBO,5.767606,51.793949
Wighenerhorst,4,,,6603KH,Wijchen,Wijchen,Gelderland,VBO,5.767416,51.793725
Wighenerhorst,5,,,6603KH,Wijchen,Wijchen,Gelderland,VBO,5.767750,51.793850
Wighenerhorst,6,,,6603KH,Wijchen,Wijchen,Gelderland,VBO,5.767604,51.793653
Wighenerhorst,7,,,6603KH,Wijchen,Wijchen,Gelderland,VBO,5.767981,51.793741
Wighenerhorst,8,,,6603KH,Wijchen,Wijchen,Gelderland,VBO,5.767965,51.793589
Wighenerhorst,9,,,6603KH,Wijchen,Wijchen,Gelderland,VBO,5.767849,51.793481
Wighenerhorst,10,,,6603KH,Wijchen,Wijchen,Gelderland,VBO,5.767688,51.793347
Wighenerhorst,11,,,6603KH,Wijchen,Wijchen,Gelderland,VBO,5.767556,51.793212
Wighenerhorst,12,,,6603KH,Wijchen,Wijchen,Gelderland,VBO,5.767396,51.793078
Wighenerhorst,13,,,6603KH,Wijchen,Wijchen,Gelderland,VBO,5.767341,51.793420
Wighenerhorst,14,,,6603KH,Wijchen,Wijchen,Gelderland,VBO,5.767107,51.793241
Wighenerhorst,15,,,6603KH,Wijchen,Wijchen,Gelderland,VBO,5.767124,51.793546
Wighenerhorst,16,,,6603KH,Wijchen,Wijchen,Gelderland,VBO,5.766761,51.793395
Wighenerhorst,17,,,6603KH,Wijchen,Wijchen,Gelderland,VBO,5.766922,51.793637
Wighenerhorst,18,,,6603KH,Wijchen,Wijchen,Gelderland,VBO,5.766513,51.793288
Wighenerhorst,19,,,6603KH,Wijchen,Wijchen,Gelderland,VBO,5.766353,51.793118
Wighenerhorst,20,,,6603KH,Wijchen,Wijchen,Gelderland,VBO,5.766932,51.793107
Wighenerhorst,21,,,6603KH,Wijchen,Wijchen,Gelderland,VBO,5.766612,51.792955
Wighenerhorst,22,,,6603KH,Wijchen,Wijchen,Gelderland,VBO,5.767221,51.793016
Wighenerhorst,23,,,6603KH,Wijchen,Wijchen,Gelderland,VBO,5.766958,51.792747
Wighenerhorst,24,,,6603KH,Wijchen,Wijchen,Gelderland,VBO,5.766148,51.792929
Wighenerhorst,25,,,6603KH,Wijchen,Wijchen,Gelderland,VBO,5.765929,51.792786
Wighenerhorst,26,,,6603KH,Wijchen,Wijchen,Gelderland,VBO,5.765652,51.792545
Wighenerhorst,27,,,6603KH,Wijchen,Wijchen,Gelderland,VBO,5.766218,51.792588
Wighenerhorst,28,,,6603KH,Wijchen,Wijchen,Gelderland,VBO,5.766013,51.792337
Wighenerhorst,29,,,6603KH,Wijchen,Wijchen,Gelderland,VBO,5.766403,51.792272
Wighenerhorst,30,,,6603KH,Wijchen,Wijchen,Gelderland,VBO,5.766608,51.792425
Wighenerhorst,31,,,6603KH,Wijchen,Wijchen,Gelderland,VBO,5.766754,51.792595
Wighenerhorst,32,,,6603KH,Wijchen,Wijchen,Gelderland,VBO,5.766422,51.792767
Wighenerhorst,33,,,6603KH,Wijchen,Wijchen,Gelderland,VBO,5.766272,51.792111
Wighenerhorst,34,,,6603KH,Wijchen,Wijchen,Gelderland,VBO,5.765852,51.792175
Wighenerhorst,35,,,6603KH,Wijchen,Wijchen,Gelderland,VBO,5.766096,51.791950
Wighenerhorst,36,,,6603KH,Wijchen,Wijchen,Gelderland,VBO,5.765647,51.791996
Wighenerhorst,37,,,6603KH,Wijchen,Wijchen,Gelderland,VBO,5.765921,51.791771
Wighenerhorst,38,,,6603KH,Wijchen,Wijchen,Gelderland,VBO,5.765457,51.791817
Wighenerhorst,39,,,6603KH,Wijchen,Wijchen,Gelderland,VBO,5.765746,51.791609
Wighenerhorst,40,,,6603KH,Wijchen,Wijchen,Gelderland,VBO,5.765267,51.791602
Wighenerhorst,41,,,6603KH,Wijchen,Wijchen,Gelderland,VBO,5.765570,51.791457
Wighenerhorst,42,,,6603KH,Wijchen,Wijchen,Gelderland,VBO,5.765424,51.791233
Wighenerhorst,43,,,6603KH,Wijchen,Wijchen,Gelderland,VBO,5.765163,51.791315
Wighenerhorst,44,,,6603KH,Wijchen,Wijchen,Gelderland,VBO,5.764845,51.791424
Wighenerhorst,45,,,6603KH,Wijchen,Wijchen,Gelderland,VBO,5.765007,51.791720
Wighenerhorst,46,,,6603KH,Wijchen,Wijchen,Gelderland,VBO,5.764571,51.791523
Wighenerhorst,47,,,6603KH,Wijchen,Wijchen,Gelderland,VBO,5.764718,51.791837
Wighenerhorst,48,,,6603KH,Wijchen,Wijchen,Gelderland,VBO,5.764383,51.791596
Wighenerhorst,49,,,6603KH,Wijchen,Wijchen,Gelderland,VBO,5.764341,51.791839
Wighenerhorst,50,,,6603KH,Wijchen,Wijchen,Gelderland,VBO,5.764343,51.792054
Wighenerhorst,51,,,6603KH,Wijchen,Wijchen,Gelderland,VBO,5.764302,51.792279
Wighenerhorst,52,,,6603KH,Wijchen,Wijchen,Gelderland,VBO,5.764086,51.792442
Wighenerhorst,53,,,6603KH,Wijchen,Wijchen,Gelderland,VBO,5.764160,51.792639
Wighenerhorst,54,,,6603KH,Wijchen,Wijchen,Gelderland,VBO,5.764320,51.792791
Wighenerhorst,55,,,6603KH,Wijchen,Wijchen,Gelderland,VBO,5.764478,51.792566
Wighenerhorst,56,,,6603KH,Wijchen,Wijchen,Gelderland,VBO,5.764752,51.792377
Wighenerhorst,57,,,6603KH,Wijchen,Wijchen,Gelderland,VBO,5.764683,51.792763
Wighenerhorst,58,,,6603KH,Wijchen,Wijchen,Gelderland,VBO,5.764985,51.792583
Wighenerhorst,59,,,6603KH,Wijchen,Wijchen,Gelderland,VBO,5.764916,51.792951
Wighenerhorst,60,,,6603KH,Wijchen,Wijchen,Gelderland,VBO,5.764510,51.792971
Wighenerhorst,61,,,6603KH,Wijchen,Wijchen,Gelderland,VBO,5.764715,51.793159
Wighenerhorst,62,,,6603KH,Wijchen,Wijchen,Gelderland,VBO,5.764919,51.793347
Wighenerhorst,63,,,6603KH,Wijchen,Wijchen,Gelderland,VBO,5.765153,51.793499
Wighenerhorst,64,,,6603KH,Wijchen,Wijchen,Gelderland,VBO,5.765236,51.793121
Wighenerhorst,65,,,6603KH,Wijchen,Wijchen,Gelderland,VBO,5.765499,51.793336
Wighenerhorst,66,,,6603KH,Wijchen,Wijchen,Gelderland,VBO,5.765190,51.792762
Wighenerhorst,67,,,6603KH,Wijchen,Wijchen,Gelderland,VBO,5.765421,51.792671
Wighenerhorst,68,,,6603KH,Wijchen,Wijchen,Gelderland,VBO,5.765202,51.792501
Wighenerhorst,69,,,6603KH,Wijchen,Wijchen,Gelderland,VBO,5.765447,51.792347
Wighenerhorst,70,,,6603KH,Wijchen,Wijchen,Gelderland,VBO,5.765012,51.792295
Wighenerhorst,71,,,6603KH,Wijchen,Wijchen,Gelderland,VBO,5.765272,51.792168
Wighenerhorst,72,,,6603KH,Wijchen,Wijchen,Gelderland,VBO,5.764793,51.792098
Wighenerhorst,73,,,6603KH,Wijchen,Wijchen,Gelderland,VBO,5.765082,51.791935
Wighenerhorst,74,,,6603KH,Wijchen,Wijchen,Gelderland,VBO,5.765699,51.792949
Wighenerhorst,75,,,6603KH,Wijchen,Wijchen,Gelderland,VBO,5.765889,51.793146
Wighenerhorst,76,,,6603KH,Wijchen,Wijchen,Gelderland,VBO,5.766195,51.793388
Wighenerhorst,77,,,6603KH,Wijchen,Wijchen,Gelderland,VBO,5.766356,51.793585
Wighenerhorst,78,,,6603KH,Wijchen,Wijchen,Gelderland,VBO,5.766022,51.793478
Wighenerhorst,79,,,6603KH,Wijchen,Wijchen,Gelderland,VBO,5.766068,51.793793
Wighenerhorst,80,,,6603KH,Wijchen,Wijchen,Gelderland,VBO,5.765820,51.793560
Wighenerhorst,81,,,6603KH,Wijchen,Wijchen,Gelderland,VBO,5.765852,51.793910
Wighenerhorst,82,,,6603KH,Wijchen,Wijchen,Gelderland,VBO,5.765589,51.793659
Wighenerhorst,83,,,6603KH,Wijchen,Wijchen,Gelderland,VBO,5.765650,51.794010
Wighenerhorst,84,,,6603KH,Wijchen,Wijchen,Gelderland,VBO,5.765387,51.793741
Wighenerhorst,85,,,6603KH,Wijchen,Wijchen,Gelderland,VBO,5.766926,51.794095
Wighenerhorst,86,A,,6603KH,Wijchen,Wijchen,Gelderland,VBO,5.766747,51.793849
Wighenerhorst,86,,,6603KH,Wijchen,Wijchen,Gelderland,VBO,5.766548,51.793926
Wighenerhorst,87,,,6603KH,Wijchen,Wijchen,Gelderland,VBO,5.766575,51.794420
Wighenerhorst,88,,,6603KH,Wijchen,Wijchen,Gelderland,VBO,5.766488,51.793719
Wighenerhorst,89,,,6603KH,Wijchen,Wijchen,Gelderland,VBO,5.766741,51.794509
Wighenerhorst,90,,,6603KH,Wijchen,Wijchen,Gelderland,VBO,5.766186,51.794017
Wighenerhorst,91,,,6603KH,Wijchen,Wijchen,Gelderland,VBO,5.766815,51.794644
Wighenerhorst,92,,,6603KH,Wijchen,Wijchen,Gelderland,VBO,5.766028,51.794134
Wighenerhorst,93,,,6603KH,Wijchen,Wijchen,Gelderland,VBO,5.766890,51.794931
Wighenerhorst,94,A,,6603KH,Wijchen,Wijchen,Gelderland,VBO,5.766506,51.794115
Wighenerhorst,94,,,6603KH,Wijchen,Wijchen,Gelderland,VBO,5.766433,51.794271
Wighenerhorst,95,,,6603KH,Wijchen,Wijchen,Gelderland,VBO,5.766292,51.794502
Wighenerhorst,96,,,6603KH,Wijchen,Wijchen,Gelderland,VBO,5.766131,51.794305
Wighenerhorst,97,,,6603KH,Wijchen,Wijchen,Gelderland,VBO,5.766191,51.794610
Wighenerhorst,98,,,6603KH,Wijchen,Wijchen,Gelderland,VBO,5.766016,51.794399
Wighenerhorst,100,,,6603KH,Wijchen,Wijchen,Gelderland,VBO,5.765792,51.794173
Wighenerhorst,101,,,6603KH,Wijchen,Wijchen,Gelderland,VBO,5.766425,51.794789
Wighenerhorst,102,A,,6603KH,Wijchen,Wijchen,Gelderland,VBO,5.766682,51.794774
Wighenerhorst,102,,,6603KH,Wijchen,Wijchen,Gelderland,VBO,5.766615,51.795013
Wighenerhorst,103,A,,6603KH,Wijchen,Wijchen,Gelderland,VBO,5.767052,51.794373
Wighenerhorst,103,,,6603KH,Wijchen,Wijchen,Gelderland,VBO,5.767072,51.794221
Wighenerhorst,104,,,6603KH,Wijchen,Wijchen,Gelderland,VBO,5.767135,51.794823
Oude Teersdijk,6,,,6603KJ,Wijchen,Wijchen,Gelderland,VBO,5.774751,51.817377
Teersdijk,43,,,6603KJ,Wijchen,Wijchen,Gelderland,VBO,5.768047,51.818684
Teersdijk,45,,,6603KJ,Wijchen,Wijchen,Gelderland,VBO,5.768293,51.818665
Teersdijk,49,,,6603KJ,Wijchen,Wijchen,Gelderland,VBO,5.768962,51.818825
Weg ter Horst,23,,,6603KK,Wijchen,Wijchen,Gelderland,VBO,5.783112,51.801709
Weg ter Horst,24,,,6603KK,Wijchen,Wijchen,Gelderland,VBO,5.782792,51.801539
Weg ter Horst,26,,,6603KK,Wijchen,Wijchen,Gelderland,VBO,5.784110,51.801454
Weg ter Horst,35,,,6603KK,Wijchen,Wijchen,Gelderland,VBO,5.787648,51.803168
de Vendam,1,,,6603KL,Wijchen,Wijchen,Gelderland,VBO,5.780725,51.794050
de Vendam,3,,,6603KL,Wijchen,Wijchen,Gelderland,VBO,5.781935,51.794339
de Vendam,4,,,6603KL,Wijchen,Wijchen,Gelderland,VBO,5.783094,51.794698
de Vendam,6,,,6603KL,Wijchen,Wijchen,Gelderland,VBO,5.782993,51.794707
de Vendam,18,A,,6603KL,Wijchen,Wijchen,Gelderland,VBO,5.781410,51.797751
de Vendam,18,,,6603KL,Wijchen,Wijchen,Gelderland,VBO,5.781221,51.797689
de Vendam,20,,,6603KL,Wijchen,Wijchen,Gelderland,VBO,5.780994,51.798184
Munnekeveld,25,,,6603KM,Wijchen,Wijchen,Gelderland,VBO,5.775311,51.798194
Munnekeveld,27,A,,6603KM,Wijchen,Wijchen,Gelderland,VBO,5.775749,51.796934
Munnekeveld,27,,,6603KM,Wijchen,Wijchen,Gelderland,VBO,5.775384,51.798265
Munnekeveld,29,,,6603KM,Wijchen,Wijchen,Gelderland,VBO,5.776152,51.798263
Gasthuisbergweg,3,A,,6603KN,Wijchen,Wijchen,Gelderland,VBO,5.777053,51.796804
Gasthuisbergweg,3,,,6603KN,Wijchen,Wijchen,Gelderland,VBO,5.777327,51.796614
Gasthuisbergweg,4,,,6603KN,Wijchen,Wijchen,Gelderland,VBO,5.776630,51.796526
Gasthuisbergweg,5,,,6603KN,Wijchen,Wijchen,Gelderland,VBO,5.778693,51.797086
Gasthuisbergweg,18,,,6603KN,Wijchen,Wijchen,Gelderland,VBO,5.785346,51.795257
Diervoortseweg,2,,,6603KP,Wijchen,Wijchen,Gelderland,VBO,5.783171,51.796882
Diervoortseweg,3,,,6603KP,Wijchen,Wijchen,Gelderland,VBO,5.784669,51.797398
Diervoortseweg,5,,,6603KP,Wijchen,Wijchen,Gelderland,VBO,5.784942,51.797092
Heiveldweg,1,,,6603KR,Wijchen,Wijchen,Gelderland,VBO,5.780348,51.792352
Heiveldweg,6,,,6603KR,Wijchen,Wijchen,Gelderland,VBO,5.784658,51.792832
Heiveldweg,8,,,6603KR,Wijchen,Wijchen,Gelderland,VBO,5.784166,51.792942
Heiveldweg,9,,,6603KR,Wijchen,Wijchen,Gelderland,VBO,5.784363,51.793921
Heiveldweg,11,,,6603KR,Wijchen,Wijchen,Gelderland,VBO,5.784494,51.793956
Heiveldweg,12,,,6603KR,Wijchen,Wijchen,Gelderland,VBO,5.785106,51.793694
Rakenbergseweg,6,,,6603KS,Wijchen,Wijchen,Gelderland,VBO,5.786798,51.789059
Rakenbergseweg,8,,,6603KS,Wijchen,Wijchen,Gelderland,VBO,5.788311,51.789701
Rakenbergseweg,9,,,6603KS,Wijchen,Wijchen,Gelderland,VBO,5.788148,51.790933
Heumenseweg,63,,,6603KT,Wijchen,Wijchen,Gelderland,VBO,5.760852,51.801045
Heumenseweg,65,,,6603KT,Wijchen,Wijchen,Gelderland,VBO,5.760996,51.800964
Heumenseweg,81,,,6603KT,Wijchen,Wijchen,Gelderland,VBO,5.761848,51.800485
Heumenseweg,83,A,,6603KT,Wijchen,Wijchen,Gelderland,VBO,5.762396,51.800146
Heumenseweg,83,B,,6603KT,Wijchen,Wijchen,Gelderland,VBO,5.762308,51.800198
Heumenseweg,83,C,,6603KT,Wijchen,Wijchen,Gelderland,VBO,5.762355,51.800272
Heumenseweg,83,D,,6603KT,Wijchen,Wijchen,Gelderland,VBO,5.762313,51.800237
Heumenseweg,83,E,,6603KT,Wijchen,Wijchen,Gelderland,VBO,5.762352,51.800245
Heumenseweg,83,F,,6603KT,Wijchen,Wijchen,Gelderland,VBO,5.762352,51.800220
Heumenseweg,83,,,6603KT,Wijchen,Wijchen,Gelderland,VBO,5.762394,51.799872
Heumenseweg,180,,,6603KT,Wijchen,Wijchen,Gelderland,VBO,5.758816,51.798508
Heumenseweg,188,,,6603KT,Wijchen,Wijchen,Gelderland,VBO,5.761200,51.795768
Heumenseweg,190,A,,6603KT,Wijchen,Wijchen,Gelderland,VBO,5.763417,51.797719
Heumenseweg,190,,,6603KT,Wijchen,Wijchen,Gelderland,VBO,5.763275,51.797783
Heumenseweg,192,,,6603KT,Wijchen,Wijchen,Gelderland,VBO,5.763794,51.797449
Heumenseweg,200,,,6603KT,Wijchen,Wijchen,Gelderland,VBO,5.762814,51.794702
Heumenseweg,202,,,6603KT,Wijchen,Wijchen,Gelderland,VBO,5.764453,51.794778
Heumenseweg,206,,,6603KT,Wijchen,Wijchen,Gelderland,VBO,5.767372,51.794555
Heumenseweg,208,,,6603KT,Wijchen,Wijchen,Gelderland,VBO,5.767875,51.796663
Heumenseweg,224,,GAR1,6603KT,Wijchen,Wijchen,Gelderland,VBO,5.768826,51.795914
Heumenseweg,224,,,6603KT,Wijchen,Wijchen,Gelderland,VBO,5.768843,51.796237
Heumenseweg,226,A,NUTS,6603KT,Wijchen,Wijchen,Gelderland,VBO,5.765614,51.796697
Heumenseweg,226,A,,6603KT,Wijchen,Wijchen,Gelderland,VBO,5.765658,51.796661
Heumenseweg,226,,R00,6603KT,Wijchen,Wijchen,Gelderland,VBO,5.767631,51.795105
Heumenseweg,226,,R01,6603KT,Wijchen,Wijchen,Gelderland,VBO,5.767891,51.795045
Heumenseweg,226,,R02,6603KT,Wijchen,Wijchen,Gelderland,VBO,5.767879,51.795306
Heumenseweg,226,,R03,6603KT,Wijchen,Wijchen,Gelderland,VBO,5.768097,51.795263
Heumenseweg,226,,R04,6603KT,Wijchen,Wijchen,Gelderland,VBO,5.768044,51.795460
Heumenseweg,226,,R05,6603KT,Wijchen,Wijchen,Gelderland,VBO,5.768227,51.795368
Heumenseweg,226,,R06,6603KT,Wijchen,Wijchen,Gelderland,VBO,5.768185,51.795592
Heumenseweg,226,,R07,6603KT,Wijchen,Wijchen,Gelderland,VBO,5.768388,51.795511
Heumenseweg,226,,R08,6603KT,Wijchen,Wijchen,Gelderland,VBO,5.768356,51.795732
Heumenseweg,226,,R09,6603KT,Wijchen,Wijchen,Gelderland,VBO,5.768563,51.795672
Heumenseweg,226,,R10,6603KT,Wijchen,Wijchen,Gelderland,VBO,5.768565,51.795933
Heumenseweg,226,,,6603KT,Wijchen,Wijchen,Gelderland,VBO,5.767498,51.794920
Heumenseweg,228,,,6603KT,Wijchen,Wijchen,Gelderland,VBO,5.769540,51.794599
Heumenseweg,230,,,6603KT,Wijchen,Wijchen,Gelderland,VBO,5.769481,51.794546
Heumenseweg,232,,,6603KT,Wijchen,Wijchen,Gelderland,VBO,5.768504,51.793875
Heumenseweg,246,,,6603KT,Wijchen,Wijchen,Gelderland,VBO,5.770201,51.795667
Heumenseweg,248,,,6603KT,Wijchen,Wijchen,Gelderland,VBO,5.770808,51.795512
Heumenseweg,250,B,,6603KT,Wijchen,Wijchen,Gelderland,VBO,5.771137,51.794918
Heumenseweg,250,,,6603KT,Wijchen,Wijchen,Gelderland,VBO,5.771227,51.795304
Heumenseweg,262,,,6603KT,Wijchen,Wijchen,Gelderland,VBO,5.771907,51.795167
Heumenseweg,290,,,6603KT,Wijchen,Wijchen,Gelderland,VBO,5.774061,51.794432
Heumenseweg,294,,,6603KT,Wijchen,Wijchen,Gelderland,VBO,5.772749,51.793618
Heumenseweg,296,,,6603KT,Wijchen,Wijchen,Gelderland,VBO,5.773097,51.793572
Heumenseweg,314,,,6603KT,Wijchen,Wijchen,Gelderland,VBO,5.769721,51.790401
Heumenseweg,316,,,6603KT,Wijchen,Wijchen,Gelderland,VBO,5.774929,51.794223
Heumenseweg,318,,,6603KT,Wijchen,Wijchen,Gelderland,VBO,5.775825,51.793976
Heumenseweg,355,,,6603KV,Wijchen,Wijchen,Gelderland,VBO,5.779324,51.794594
Heumenseweg,357,,,6603KV,Wijchen,Wijchen,Gelderland,VBO,5.779512,51.794539
Heumenseweg,367,,,6603KV,Wijchen,Wijchen,Gelderland,VBO,5.779641,51.792687
Heumenseweg,419,,,6603KV,Wijchen,Wijchen,Gelderland,VBO,5.782540,51.791087
Heumenseweg,423,,,6603KV,Wijchen,Wijchen,Gelderland,VBO,5.782583,51.790598
Heumenseweg,425,,,6603KV,Wijchen,Wijchen,Gelderland,VBO,5.782883,51.790510
Heumenseweg,455,,,6603KV,Wijchen,Wijchen,Gelderland,VBO,5.783804,51.789734
Heumenseweg,463,,,6603KV,Wijchen,Wijchen,Gelderland,VBO,5.784697,51.789066
Heumenseweg,528,A,,6603KV,Wijchen,Wijchen,Gelderland,VBO,5.785808,51.786887
Heumenseweg,528,,,6603KV,Wijchen,Wijchen,Gelderland,VBO,5.785676,51.786744
Bullekamp,2,,,6603KW,Wijchen,Wijchen,Gelderland,VBO,5.782494,51.789118
Bullekamp,6,,,6603KW,Wijchen,Wijchen,Gelderland,VBO,5.781401,51.787857
Bullekamp,8,A,,6603KW,Wijchen,Wijchen,Gelderland,VBO,5.781525,51.787674
Bullekamp,8,,,6603KW,Wijchen,Wijchen,Gelderland,VBO,5.781438,51.787702
Bullekamp,12,A,,6603KW,Wijchen,Wijchen,Gelderland,VBO,5.781991,51.786316
Bullekamp,12,,,6603KW,Wijchen,Wijchen,Gelderland,VBO,5.782225,51.786530
Bullekamp,14,,,6603KW,Wijchen,Wijchen,Gelderland,VBO,5.782819,51.786484
Bullekamp,16,,,6603KW,Wijchen,Wijchen,Gelderland,VBO,5.783034,51.786177
Bullekamp,18,,,6603KW,Wijchen,Wijchen,Gelderland,VBO,5.783277,51.785871
Bullekamp,20,,,6603KW,Wijchen,Wijchen,Gelderland,VBO,5.782612,51.785382
Sparrebosweg,1,,,6603KX,Wijchen,Wijchen,Gelderland,VBO,5.780440,51.787876
Sparrebosweg,5,,,6603KX,Wijchen,Wijchen,Gelderland,VBO,5.778968,51.787000
Sparrebosweg,9,,,6603KX,Wijchen,Wijchen,Gelderland,VBO,5.777516,51.786627
Sparrebosweg,15,,,6603KX,Wijchen,Wijchen,Gelderland,VBO,5.772406,51.785664
de Kuil,3,,,6603KZ,Wijchen,Wijchen,Gelderland,VBO,5.779173,51.785570
Geitweg,2,,,6603LB,Wijchen,Wijchen,Gelderland,VBO,5.779226,51.791592
Geitweg,4,B,,6603LB,Wijchen,Wijchen,Gelderland,VBO,5.778901,51.791553
Geitweg,4,,,6603LB,Wijchen,Wijchen,Gelderland,VBO,5.778474,51.791801
Geitweg,10,,,6603LB,Wijchen,Wijchen,Gelderland,VBO,5.776059,51.789131
Geitweg,11,,,6603LB,Wijchen,Wijchen,Gelderland,VBO,5.776810,51.788823
Geitweg,13,,,6603LB,Wijchen,Wijchen,Gelderland,VBO,5.776998,51.788759
Geitweg,15,,,6603LB,Wijchen,Wijchen,Gelderland,VBO,5.777015,51.787420
Boskant,2,,,6603LC,Wijchen,Wijchen,Gelderland,VBO,5.753291,51.796575
Boskant,5,,,6603LC,Wijchen,Wijchen,Gelderland,VBO,5.753945,51.796689
Boskant,81,,,6603LC,Wijchen,Wijchen,Gelderland,VBO,5.755552,51.794689
Boskant,83,,,6603LC,Wijchen,Wijchen,Gelderland,VBO,5.755681,51.794473
Boskant,90,,,6603LC,Wijchen,Wijchen,Gelderland,VBO,5.756329,51.792251
Boskant,100,,,6603LC,Wijchen,Wijchen,Gelderland,VBO,5.761278,51.791237
Boskant,104,,,6603LC,Wijchen,Wijchen,Gelderland,VBO,5.761886,51.791118
Boskant,106,A,,6603LC,Wijchen,Wijchen,Gelderland,VBO,5.762592,51.790649
Boskant,106,,,6603LC,Wijchen,Wijchen,Gelderland,VBO,5.762823,51.790468
Boskant,113,A,,6603LC,Wijchen,Wijchen,Gelderland,VBO,5.764057,51.786965
Boskant,113,,,6603LC,Wijchen,Wijchen,Gelderland,VBO,5.763781,51.787166
Boskant,116,,,6603LC,Wijchen,Wijchen,Gelderland,VBO,5.763515,51.786619
Boskant,123,,,6603LC,Wijchen,Wijchen,Gelderland,VBO,5.771634,51.788660
Boskant,126,A,,6603LC,Wijchen,Wijchen,Gelderland,VBO,5.768996,51.785818
Boskant,126,B,,6603LC,Wijchen,Wijchen,Gelderland,VBO,5.769161,51.785803
Boskant,126,C,,6603LC,Wijchen,Wijchen,Gelderland,VBO,5.769098,51.785824
Boskant,126,,,6603LC,Wijchen,Wijchen,Gelderland,VBO,5.768758,51.786234
Boskant,127,,,6603LC,Wijchen,Wijchen,Gelderland,VBO,5.770106,51.786184
Boskant,128,,,6603LC,Wijchen,Wijchen,Gelderland,VBO,5.769727,51.785997
Boskant,129,,,6603LC,Wijchen,Wijchen,Gelderland,VBO,5.770265,51.786166
Boskant,132,,,6603LC,Wijchen,Wijchen,Gelderland,VBO,5.771164,51.785570
Boskantse Broekstraat,2,,,6603LD,Wijchen,Wijchen,Gelderland,VBO,5.741297,51.781115
Boskantse Broekstraat,3,,,6603LD,Wijchen,Wijchen,Gelderland,VBO,5.741721,51.781501
Boskantse Broekstraat,7,,,6603LD,Wijchen,Wijchen,Gelderland,VBO,5.744562,51.781591
Boskantse Broekstraat,32,A,,6603LD,Wijchen,Wijchen,Gelderland,VBO,5.753417,51.787073
Boskantse Broekstraat,32,,,6603LD,Wijchen,Wijchen,Gelderland,VBO,5.754171,51.787152
Boskantse Broekstraat,42,,,6603LD,Wijchen,Wijchen,Gelderland,VBO,5.759918,51.788006
Boskantse Broekstraat,43,,,6603LD,Wijchen,Wijchen,Gelderland,VBO,5.758236,51.787939
Boskantse Broekstraat,46,,,6603LD,Wijchen,Wijchen,Gelderland,VBO,5.761716,51.788126
Boskantse Broekstraat,50,,,6603LD,Wijchen,Wijchen,Gelderland,VBO,5.762867,51.787641
Boskantse Broekstraat,57,,,6603LD,Wijchen,Wijchen,Gelderland,VBO,5.762499,51.788123
Boskantse Broekstraat,59,,,6603LD,Wijchen,Wijchen,Gelderland,VBO,5.762702,51.788132
Rijdtsestraat,3,,,6603LE,Wijchen,Wijchen,Gelderland,VBO,5.740272,51.783283
Rijdtsestraat,7,,,6603LE,Wijchen,Wijchen,Gelderland,VBO,5.738016,51.784055
Rijdtsestraat,8,,,6603LE,Wijchen,Wijchen,Gelderland,VBO,5.738225,51.784765
Rijdtsestraat,14,,,6603LE,Wijchen,Wijchen,Gelderland,VBO,5.735884,51.785743
Rijdtsestraat,18,,,6603LE,Wijchen,Wijchen,Gelderland,VBO,5.730535,51.787412
Rijdtsestraat,20,,,6603LE,Wijchen,Wijchen,Gelderland,VBO,5.730087,51.787557
Woordsestraat,1,,,6603LG,Wijchen,Wijchen,Gelderland,VBO,5.740583,51.784219
Woordsestraat,3,,,6603LG,Wijchen,Wijchen,Gelderland,VBO,5.740656,51.784290
Woordsestraat,4,,,6603LG,Wijchen,Wijchen,Gelderland,VBO,5.740890,51.784586
Woordsestraat,6,,,6603LG,Wijchen,Wijchen,Gelderland,VBO,5.740849,51.784883
Woordsestraat,15,,,6603LG,Wijchen,Wijchen,Gelderland,VBO,5.738997,51.787225
Woordsestraat,17,,,6603LG,Wijchen,Wijchen,Gelderland,VBO,5.738882,51.787253
Huurlingsedam,2,B,,6603LH,Wijchen,Wijchen,Gelderland,VBO,5.741589,51.799289
Huurlingsedam,4,,,6603LH,Wijchen,Wijchen,Gelderland,VBO,5.741323,51.799146
Huurlingsedam,8,,,6603LH,Wijchen,Wijchen,Gelderland,VBO,5.740434,51.798547
Huurlingsedam,10,A,,6603LH,Wijchen,Wijchen,Gelderland,VBO,5.740211,51.797828
Huurlingsedam,10,B,,6603LH,Wijchen,Wijchen,Gelderland,VBO,5.740364,51.798049
Huurlingsedam,10,,,6603LH,Wijchen,Wijchen,Gelderland,VBO,5.740518,51.798133
Huurlingsedam,13,,,6603LH,Wijchen,Wijchen,Gelderland,VBO,5.742714,51.797182
Huurlingsedam,15,A,,6603LH,Wijchen,Wijchen,Gelderland,VBO,5.743229,51.796586
Huurlingsedam,15,,,6603LH,Wijchen,Wijchen,Gelderland,VBO,5.743258,51.796363
Huurlingsedam,16,,,6603LH,Wijchen,Wijchen,Gelderland,VBO,5.742246,51.796654
Huurlingsedam,17,,,6603LH,Wijchen,Wijchen,Gelderland,VBO,5.744024,51.795992
Huurlingsedam,22,,,6603LH,Wijchen,Wijchen,Gelderland,VBO,5.743220,51.795945
Huurlingsedam,24,,,6603LH,Wijchen,Wijchen,Gelderland,VBO,5.743314,51.795815
Huurlingsedam,25,,,6603LH,Wijchen,Wijchen,Gelderland,VBO,5.746288,51.794610
Huurlingsedam,26,,,6603LH,Wijchen,Wijchen,Gelderland,VBO,5.743548,51.795759
Huurlingsedam,28,,,6603LH,Wijchen,Wijchen,Gelderland,VBO,5.743512,51.795525
Huurlingsedam,30,,,6603LH,Wijchen,Wijchen,Gelderland,VBO,5.743948,51.795543
Huurlingsedam,33,,,6603LH,Wijchen,Wijchen,Gelderland,VBO,5.748668,51.793128
Huurlingsedam,36,,,6603LH,Wijchen,Wijchen,Gelderland,VBO,5.744338,51.795281
Huurlingsedam,38,,,6603LH,Wijchen,Wijchen,Gelderland,VBO,5.744477,51.795153
Huurlingsedam,40,,,6603LH,Wijchen,Wijchen,Gelderland,VBO,5.744547,51.795116
Huurlingsedam,42,,,6603LH,Wijchen,Wijchen,Gelderland,VBO,5.744726,51.795046
Huurlingsedam,44,,,6603LH,Wijchen,Wijchen,Gelderland,VBO,5.744784,51.795010
Huurlingsedam,46,,,6603LH,Wijchen,Wijchen,Gelderland,VBO,5.744928,51.794911
Huurlingsedam,48,,,6603LH,Wijchen,Wijchen,Gelderland,VBO,5.744986,51.794866
Huurlingsedam,54,,,6603LH,Wijchen,Wijchen,Gelderland,VBO,5.745419,51.794586
Huurlingsedam,64,,,6603LH,Wijchen,Wijchen,Gelderland,VBO,5.746181,51.793855
Huurlingsedam,74,,,6603LH,Wijchen,Wijchen,Gelderland,VBO,5.747206,51.793313
Vredelaan,9,,GAR,6603LK,Wijchen,Wijchen,Gelderland,VBO,5.755675,51.796541
Vredelaan,11,,,6603LK,Wijchen,Wijchen,Gelderland,VBO,5.755546,51.796779
Vredelaan,13,,,6603LK,Wijchen,Wijchen,Gelderland,VBO,5.755585,51.796741
Vredelaan,15,,,6603LK,Wijchen,Wijchen,Gelderland,VBO,5.755628,51.796699
Vredelaan,17,,,6603LK,Wijchen,Wijchen,Gelderland,VBO,5.755684,51.796658
Vredelaan,19,,,6603LK,Wijchen,Wijchen,Gelderland,VBO,5.755712,51.796616
Vredelaan,21,,,6603LK,Wijchen,Wijchen,Gelderland,VBO,5.755768,51.796576
Vredelaan,23,,,6603LK,Wijchen,Wijchen,Gelderland,VBO,5.755803,51.796532
Vredelaan,25,,,6603LK,Wijchen,Wijchen,Gelderland,VBO,5.755853,51.796494
Vredelaan,27,,,6603LK,Wijchen,Wijchen,Gelderland,VBO,5.755895,51.796453
Vredelaan,29,,,6603LK,Wijchen,Wijchen,Gelderland,VBO,5.755930,51.796411
Vredelaan,31,,,6603LK,Wijchen,Wijchen,Gelderland,VBO,5.755971,51.796373
Vredelaan,101,,,6603LK,Wijchen,Wijchen,Gelderland,VBO,5.757499,51.795936
Vredelaan,103,,,6603LK,Wijchen,Wijchen,Gelderland,VBO,5.758077,51.795367
Vredelaan,105,,,6603LK,Wijchen,Wijchen,Gelderland,VBO,5.758659,51.794801
Staddijk,1,A,,6603LM,Wijchen,Wijchen,Gelderland,VBO,5.791015,51.798751
Staddijk,1,,,6603LM,Wijchen,Wijchen,Gelderland,VBO,5.791047,51.798994
Staddijk,17,,,6603LM,Wijchen,Wijchen,Gelderland,VBO,5.799874,51.794769
Weg door de Berendonck,3,,,6603LN,Wijchen,Wijchen,Gelderland,VBO,5.776192,51.814488
Weg door de Berendonck,5,,,6603LN,Wijchen,Wijchen,Gelderland,VBO,5.771878,51.814756
Weg door de Berendonck,9,,,6603LN,Wijchen,Wijchen,Gelderland,VBO,5.770588,51.814163
Weg door de Berendonck,29,,,6603LN,Wijchen,Wijchen,Gelderland,VBO,5.771212,51.811463
Weg door de Berendonck,31,,,6603LN,Wijchen,Wijchen,Gelderland,VBO,5.771421,51.811215
Weg door de Berendonck,35,,,6603LN,Wijchen,Wijchen,Gelderland,VBO,5.770257,51.810749
Weg door de Berendonck,37,,,6603LN,Wijchen,Wijchen,Gelderland,VBO,5.770720,51.810622
Weg door de Berendonck,57,,,6603LN,Wijchen,Wijchen,Gelderland,VBO,5.771259,51.809299
Weg door de Berendonck,59,,,6603LN,Wijchen,Wijchen,Gelderland,VBO,5.771167,51.809438
Weg door de Berendonck,4,,,6603LP,Wijchen,Wijchen,Gelderland,VBO,5.768283,51.816429
Weg door de Berendonck,10,,,6603LP,Wijchen,Wijchen,Gelderland,VBO,5.767326,51.815711
Weg door de Berendonck,40,,,6603LP,Wijchen,Wijchen,Gelderland,VBO,5.769411,51.810249
Weg door de Berendonck,52,,,6603LP,Wijchen,Wijchen,Gelderland,VBO,5.769953,51.809177
Weg door de Berendonck,58,,,6603LP,Wijchen,Wijchen,Gelderland,VBO,5.770849,51.808770
Weg door de Berendonck,66,,TRA,6603LP,Wijchen,Wijchen,Gelderland,VBO,5.771691,51.808522
Weg door de Berendonck,68,,,6603LP,Wijchen,Wijchen,Gelderland,VBO,5.771773,51.808511
