openbareruimtenaam,huisnummer,huisletter,huisnummertoevoeging,postcode,woonplaatsnaam,gemeentenaam,provincienaam,typeadresseerbaarobject,longitude,latitude
Veldsestraat,2,,,6617AA,Bergharen,Wijchen,Gelderland,VBO,5.667025,51.848190
Veldsestraat,5,,,6617AA,Bergharen,Wijchen,Gelderland,VBO,5.665004,51.847629
Veldsestraat,6,,,6617AA,Bergharen,Wijchen,Gelderland,VBO,5.666415,51.848030
Veldsestraat,7,,,6617AA,Bergharen,Wijchen,Gelderland,VBO,5.664496,51.847540
Veldsestraat,10,,,6617AA,Bergharen,Wijchen,Gelderland,VBO,5.665500,51.848005
Veldsestraat,12,,,6617AA,Bergharen,Wijchen,Gelderland,VBO,5.664878,51.848231
Veldsestraat,16,,,6617AA,Bergharen,Wijchen,Gelderland,VBO,5.664325,51.848089
Dorpsstraat,1,A,,6617AB,Bergharen,Wijchen,Gelderland,VBO,5.659948,51.851460
Dorpsstraat,1,,,6617AB,Bergharen,Wijchen,Gelderland,VBO,5.659890,51.851506
Dorpsstraat,3,A,,6617AB,Bergharen,Wijchen,Gelderland,VBO,5.660339,51.851235
Dorpsstraat,3,,,6617AB,Bergharen,Wijchen,Gelderland,VBO,5.660136,51.851343
Dorpsstraat,5,A,,6617AB,Bergharen,Wijchen,Gelderland,VBO,5.660789,51.851306
Dorpsstraat,5,,,6617AB,Bergharen,Wijchen,Gelderland,VBO,5.660600,51.851243
Dorpsstraat,7,A,,6617AB,Bergharen,Wijchen,Gelderland,VBO,5.661283,51.851403
Dorpsstraat,7,,,6617AB,Bergharen,Wijchen,Gelderland,VBO,5.661007,51.851377
Dorpsstraat,9,A,,6617AB,Bergharen,Wijchen,Gelderland,VBO,5.661675,51.851411
Dorpsstraat,9,,,6617AB,Bergharen,Wijchen,Gelderland,VBO,5.661385,51.851421
Dorpsstraat,11,A,,6617AB,Bergharen,Wijchen,Gelderland,VBO,5.663014,51.851921
Dorpsstraat,11,,,6617AB,Bergharen,Wijchen,Gelderland,VBO,5.663217,51.851956
Dorpsstraat,13,,,6617AB,Bergharen,Wijchen,Gelderland,VBO,5.662378,51.852426
Dorpsstraat,15,,,6617AB,Bergharen,Wijchen,Gelderland,VBO,5.662386,51.851365
Dorpsstraat,17,A,,6617AB,Bergharen,Wijchen,Gelderland,VBO,5.662792,51.851319
Dorpsstraat,17,,,6617AB,Bergharen,Wijchen,Gelderland,VBO,5.662734,51.851364
Dorpsstraat,19,A,,6617AB,Bergharen,Wijchen,Gelderland,VBO,5.662951,51.851184
Dorpsstraat,19,,,6617AB,Bergharen,Wijchen,Gelderland,VBO,5.662893,51.851229
Dorpsstraat,21,A,,6617AB,Bergharen,Wijchen,Gelderland,VBO,5.663139,51.851040
Dorpsstraat,21,,,6617AB,Bergharen,Wijchen,Gelderland,VBO,5.663081,51.851094
Dorpsstraat,23,,,6617AB,Bergharen,Wijchen,Gelderland,VBO,5.663254,51.850967
Dorpsstraat,25,,,6617AB,Bergharen,Wijchen,Gelderland,VBO,5.663341,51.850904
Dorpsstraat,27,,,6617AB,Bergharen,Wijchen,Gelderland,VBO,5.663647,51.851038
Dorpsstraat,29,,,6617AB,Bergharen,Wijchen,Gelderland,VBO,5.663851,51.851146
Dorpsstraat,31,,,6617AB,Bergharen,Wijchen,Gelderland,VBO,5.664273,51.851387
Dorpsstraat,33,A,,6617AB,Bergharen,Wijchen,Gelderland,VBO,5.664606,51.851297
Dorpsstraat,33,,,6617AB,Bergharen,Wijchen,Gelderland,VBO,5.664345,51.851315
Dorpsstraat,35,A,,6617AB,Bergharen,Wijchen,Gelderland,VBO,5.664984,51.851341
Dorpsstraat,35,B,,6617AB,Bergharen,Wijchen,Gelderland,VBO,5.664854,51.851467
Dorpsstraat,35,,,6617AB,Bergharen,Wijchen,Gelderland,VBO,5.664897,51.851350
Dorpsstraat,37,A,,6617AB,Bergharen,Wijchen,Gelderland,VBO,5.664833,51.851507
Dorpsstraat,37,,PIN,6617AB,Bergharen,Wijchen,Gelderland,VBO,5.664987,51.851457
Dorpsstraat,37,,,6617AB,Bergharen,Wijchen,Gelderland,VBO,5.665051,51.851386
Dorpsstraat,39,,,6617AB,Bergharen,Wijchen,Gelderland,VBO,5.664338,51.852502
Dorpsstraat,41,A,,6617AC,Bergharen,Wijchen,Gelderland,VBO,5.665752,51.851418
Dorpsstraat,41,B,,6617AC,Bergharen,Wijchen,Gelderland,VBO,5.665825,51.851427
Dorpsstraat,41,,,6617AC,Bergharen,Wijchen,Gelderland,VBO,5.665679,51.851418
Dorpsstraat,43,A,,6617AC,Bergharen,Wijchen,Gelderland,VBO,5.665765,51.851341
Dorpsstraat,43,B,,6617AC,Bergharen,Wijchen,Gelderland,VBO,5.665838,51.851350
Dorpsstraat,43,,,6617AC,Bergharen,Wijchen,Gelderland,VBO,5.665675,51.851340
Dorpsstraat,45,,,6617AC,Bergharen,Wijchen,Gelderland,VBO,5.665825,51.851213
Dorpsstraat,49,,,6617AC,Bergharen,Wijchen,Gelderland,VBO,5.665939,51.850880
Dorpsstraat,51,,,6617AC,Bergharen,Wijchen,Gelderland,VBO,5.666257,51.850736
Dorpsstraat,53,,,6617AC,Bergharen,Wijchen,Gelderland,VBO,5.666400,51.850358
Dorpsstraat,55,,,6617AC,Bergharen,Wijchen,Gelderland,VBO,5.666530,51.850259
Dorpsstraat,57,,,6617AC,Bergharen,Wijchen,Gelderland,VBO,5.666617,51.850150
Dorpsstraat,59,,,6617AC,Bergharen,Wijchen,Gelderland,VBO,5.666768,51.849992
Dorpsstraat,61,,,6617AC,Bergharen,Wijchen,Gelderland,VBO,5.666919,51.849853
Dorpsstraat,63,,,6617AC,Bergharen,Wijchen,Gelderland,VBO,5.667020,51.849727
Dorpsstraat,65,,,6617AC,Bergharen,Wijchen,Gelderland,VBO,5.667121,51.849619
Dorpsstraat,67,,,6617AC,Bergharen,Wijchen,Gelderland,VBO,5.667512,51.849456
Dorpsstraat,71,,,6617AC,Bergharen,Wijchen,Gelderland,VBO,5.667945,51.849087
Dorpsstraat,73,,,6617AC,Bergharen,Wijchen,Gelderland,VBO,5.667819,51.848803
Dorpsstraat,2,,,6617AD,Bergharen,Wijchen,Gelderland,VBO,5.660003,51.850948
Dorpsstraat,10,,,6617AD,Bergharen,Wijchen,Gelderland,VBO,5.661730,51.850935
Dorpsstraat,14,,,6617AD,Bergharen,Wijchen,Gelderland,VBO,5.662368,51.850808
Dorpsstraat,18,,,6617AD,Bergharen,Wijchen,Gelderland,VBO,5.663237,51.850536
Dorpsstraat,20,,,6617AD,Bergharen,Wijchen,Gelderland,VBO,5.663745,51.850454
Dorpsstraat,24,,,6617AD,Bergharen,Wijchen,Gelderland,VBO,5.664658,51.850272
Dorpsstraat,26,,,6617AD,Bergharen,Wijchen,Gelderland,VBO,5.664585,51.850254
Dorpsstraat,28,,,6617AD,Bergharen,Wijchen,Gelderland,VBO,5.664498,51.850218
Dorpsstraat,30,,,6617AD,Bergharen,Wijchen,Gelderland,VBO,5.664367,51.850165
Dorpsstraat,32,,,6617AD,Bergharen,Wijchen,Gelderland,VBO,5.664285,51.850929
Dorpsstraat,36,,,6617AE,Bergharen,Wijchen,Gelderland,VBO,5.665083,51.851017
Dorpsstraat,38,,,6617AE,Bergharen,Wijchen,Gelderland,VBO,5.665185,51.850963
Dorpsstraat,40,,,6617AE,Bergharen,Wijchen,Gelderland,VBO,5.665300,51.850801
Dorpsstraat,42,A,,6617AE,Bergharen,Wijchen,Gelderland,VBO,5.665023,51.850595
Dorpsstraat,42,,,6617AE,Bergharen,Wijchen,Gelderland,VBO,5.665430,51.850684
Dorpsstraat,44,,,6617AE,Bergharen,Wijchen,Gelderland,VBO,5.665458,51.850495
Dorpsstraat,46,,,6617AE,Bergharen,Wijchen,Gelderland,VBO,5.665501,51.850459
Dorpsstraat,48,,,6617AE,Bergharen,Wijchen,Gelderland,VBO,5.665470,51.850162
Dorpsstraat,50,,,6617AE,Bergharen,Wijchen,Gelderland,VBO,5.666165,51.849945
Dorpsstraat,52,,,6617AE,Bergharen,Wijchen,Gelderland,VBO,5.666411,51.849782
Dorpsstraat,54,,,6617AE,Bergharen,Wijchen,Gelderland,VBO,5.666598,51.849575
Dorpsstraat,56,,,6617AE,Bergharen,Wijchen,Gelderland,VBO,5.666453,51.849531
Dorpsstraat,58,,,6617AE,Bergharen,Wijchen,Gelderland,VBO,5.666322,51.849423
Dorpsstraat,60,,,6617AE,Bergharen,Wijchen,Gelderland,VBO,5.666234,51.849387
Dorpsstraat,62,,,6617AE,Bergharen,Wijchen,Gelderland,VBO,5.665932,51.849775
Dorpsstraat,64,,,6617AE,Bergharen,Wijchen,Gelderland,VBO,5.665816,51.849712
Dorpsstraat,66,,,6617AE,Bergharen,Wijchen,Gelderland,VBO,5.665670,51.849667
Dorpsstraat,68,,,6617AE,Bergharen,Wijchen,Gelderland,VBO,5.665785,51.849487
Dorpsstraat,70,,,6617AE,Bergharen,Wijchen,Gelderland,VBO,5.665944,51.849361
Dorpsstraat,72,,,6617AE,Bergharen,Wijchen,Gelderland,VBO,5.665857,51.849325
Dorpsstraat,74,,,6617AE,Bergharen,Wijchen,Gelderland,VBO,5.665508,51.849308
Dorpsstraat,78,,,6617AE,Bergharen,Wijchen,Gelderland,VBO,5.665970,51.848948
Dorpsstraat,80,,,6617AE,Bergharen,Wijchen,Gelderland,VBO,5.666276,51.849091
Dorpsstraat,84,,,6617AE,Bergharen,Wijchen,Gelderland,VBO,5.666945,51.849215
Dorpsstraat,86,,,6617AE,Bergharen,Wijchen,Gelderland,VBO,5.666784,51.849000
Dorpsstraat,88,,,6617AE,Bergharen,Wijchen,Gelderland,VBO,5.666914,51.848963
Dorpsstraat,92,,,6617AE,Bergharen,Wijchen,Gelderland,VBO,5.667377,51.848755
Uilengat,4,,,6617AG,Bergharen,Wijchen,Gelderland,VBO,5.662714,51.850402
Uilengat,5,,,6617AG,Bergharen,Wijchen,Gelderland,VBO,5.662317,51.849567
Uilengat,6,,,6617AG,Bergharen,Wijchen,Gelderland,VBO,5.662335,51.850223
Uilengat,10,,,6617AG,Bergharen,Wijchen,Gelderland,VBO,5.661914,51.850054
Uilengat,12,,,6617AG,Bergharen,Wijchen,Gelderland,VBO,5.661302,51.849714
Grotestraat,1,,,6617AH,Bergharen,Wijchen,Gelderland,VBO,5.659020,51.851561
Grotestraat,3,,,6617AH,Bergharen,Wijchen,Gelderland,VBO,5.658658,51.851724
Grotestraat,5,,,6617AH,Bergharen,Wijchen,Gelderland,VBO,5.658369,51.851923
Grotestraat,7,,,6617AH,Bergharen,Wijchen,Gelderland,VBO,5.658050,51.852049
Grotestraat,9,,,6617AH,Bergharen,Wijchen,Gelderland,VBO,5.657270,51.852617
Grotestraat,11,,,6617AH,Bergharen,Wijchen,Gelderland,VBO,5.657083,51.852815
Grotestraat,13,A,,6617AH,Bergharen,Wijchen,Gelderland,VBO,5.656852,51.853050
Grotestraat,13,,,6617AH,Bergharen,Wijchen,Gelderland,VBO,5.656895,51.852942
Grotestraat,15,,,6617AH,Bergharen,Wijchen,Gelderland,VBO,5.655701,51.854841
Grotestraat,17,,,6617AH,Bergharen,Wijchen,Gelderland,VBO,5.655761,51.856644
Grotestraat,19,,,6617AH,Bergharen,Wijchen,Gelderland,VBO,5.654885,51.859186
Grotestraat,21,,,6617AH,Bergharen,Wijchen,Gelderland,VBO,5.654813,51.859265
Grotestraat,23,,,6617AH,Bergharen,Wijchen,Gelderland,VBO,5.654199,51.860084
Grotestraat,25,,,6617AH,Bergharen,Wijchen,Gelderland,VBO,5.653184,51.861210
Grotestraat,27,,,6617AH,Bergharen,Wijchen,Gelderland,VBO,5.652869,51.861858
Grotestraat,29,,,6617AH,Bergharen,Wijchen,Gelderland,VBO,5.652900,51.862308
Grotestraat,33,,,6617AH,Bergharen,Wijchen,Gelderland,VBO,5.653443,51.863169
Grotestraat,2,,,6617AJ,Bergharen,Wijchen,Gelderland,VBO,5.659703,51.851758
Grotestraat,6,,,6617AJ,Bergharen,Wijchen,Gelderland,VBO,5.659327,51.851983
Grotestraat,8,,,6617AJ,Bergharen,Wijchen,Gelderland,VBO,5.660565,51.852592
Grotestraat,10,,,6617AJ,Bergharen,Wijchen,Gelderland,VBO,5.659139,51.852127
Grotestraat,14,,,6617AJ,Bergharen,Wijchen,Gelderland,VBO,5.659562,51.852315
Grotestraat,16,,,6617AJ,Bergharen,Wijchen,Gelderland,VBO,5.659143,51.852694
Grotestraat,18,,,6617AJ,Bergharen,Wijchen,Gelderland,VBO,5.658781,51.852910
Grotestraat,22,,,6617AJ,Bergharen,Wijchen,Gelderland,VBO,5.658288,51.852956
Grotestraat,24,,,6617AJ,Bergharen,Wijchen,Gelderland,VBO,5.658088,51.853388
Grotestraat,26,,,6617AJ,Bergharen,Wijchen,Gelderland,VBO,5.657827,51.853569
Grotestraat,28,,,6617AJ,Bergharen,Wijchen,Gelderland,VBO,5.657290,51.853588
Grotestraat,32,,,6617AJ,Bergharen,Wijchen,Gelderland,VBO,5.657003,51.854128
Grotestraat,34,A,,6617AJ,Bergharen,Wijchen,Gelderland,VBO,5.656383,51.855001
Grotestraat,34,,TRA,6617AJ,Bergharen,Wijchen,Gelderland,VBO,5.657069,51.854941
Grotestraat,34,,,6617AJ,Bergharen,Wijchen,Gelderland,VBO,5.656514,51.854816
Grotestraat,36,A,,6617AJ,Bergharen,Wijchen,Gelderland,VBO,5.656300,51.855257
Grotestraat,36,,,6617AJ,Bergharen,Wijchen,Gelderland,VBO,5.656069,51.855595
Grotestraat,38,,,6617AK,Bergharen,Wijchen,Gelderland,VBO,5.656448,51.855963
Grotestraat,40,A,,6617AK,Bergharen,Wijchen,Gelderland,VBO,5.657031,51.856276
Grotestraat,40,B,,6617AK,Bergharen,Wijchen,Gelderland,VBO,5.656769,51.856277
Grotestraat,40,,,6617AK,Bergharen,Wijchen,Gelderland,VBO,5.656784,51.856304
Grotestraat,42,A,,6617AK,Bergharen,Wijchen,Gelderland,VBO,5.656922,51.856839
Grotestraat,42,,,6617AK,Bergharen,Wijchen,Gelderland,VBO,5.656772,51.856636
Grotestraat,44,,,6617AK,Bergharen,Wijchen,Gelderland,VBO,5.656440,51.857077
Grotestraat,46,,,6617AK,Bergharen,Wijchen,Gelderland,VBO,5.656600,51.857077
Grotestraat,52,,,6617AK,Bergharen,Wijchen,Gelderland,VBO,5.656204,51.858804
Grotestraat,54,,,6617AK,Bergharen,Wijchen,Gelderland,VBO,5.655768,51.858751
Grotestraat,56,,,6617AK,Bergharen,Wijchen,Gelderland,VBO,5.655306,51.859201
Grotestraat,58,,,6617AK,Bergharen,Wijchen,Gelderland,VBO,5.656105,51.859262
Grotestraat,60,,,6617AK,Bergharen,Wijchen,Gelderland,VBO,5.656178,51.859307
Grotestraat,62,,,6617AK,Bergharen,Wijchen,Gelderland,VBO,5.655775,51.859892
Grotestraat,64,,,6617AK,Bergharen,Wijchen,Gelderland,VBO,5.654860,51.859840
Grotestraat,66,,,6617AK,Bergharen,Wijchen,Gelderland,VBO,5.654471,51.860390
Grotestraat,68,,,6617AK,Bergharen,Wijchen,Gelderland,VBO,5.655379,51.860595
Grotestraat,70,A,,6617AK,Bergharen,Wijchen,Gelderland,VBO,5.654405,51.861001
Grotestraat,70,,,6617AK,Bergharen,Wijchen,Gelderland,VBO,5.654055,51.861146
Grotestraat,72,A,,6617AK,Bergharen,Wijchen,Gelderland,VBO,5.654352,51.862196
Grotestraat,72,,,6617AK,Bergharen,Wijchen,Gelderland,VBO,5.653465,51.862100
Grotestraat,74,,,6617AK,Bergharen,Wijchen,Gelderland,VBO,5.653540,51.862477
Grotestraat,76,,,6617AK,Bergharen,Wijchen,Gelderland,VBO,5.653637,51.862763
Grotestraat,78,,,6617AK,Bergharen,Wijchen,Gelderland,VBO,5.653847,51.862746
Aaldert,1,,,6617AL,Bergharen,Wijchen,Gelderland,VBO,5.652911,51.856780
Aaldert,2,,,6617AL,Bergharen,Wijchen,Gelderland,VBO,5.653973,51.857074
Aaldert,3,A,,6617AL,Bergharen,Wijchen,Gelderland,VBO,5.652070,51.856890
Aaldert,3,,,6617AL,Bergharen,Wijchen,Gelderland,VBO,5.652244,51.856871
Aaldert,5,,,6617AL,Bergharen,Wijchen,Gelderland,VBO,5.650432,51.857190
Aaldert,6,,,6617AL,Bergharen,Wijchen,Gelderland,VBO,5.652405,51.857131
Aaldert,7,,,6617AL,Bergharen,Wijchen,Gelderland,VBO,5.648586,51.856825
Aaldert,9,,,6617AL,Bergharen,Wijchen,Gelderland,VBO,5.647191,51.856541
Aaldert,10,A,,6617AL,Bergharen,Wijchen,Gelderland,VBO,5.648705,51.857418
Aaldert,10,,,6617AL,Bergharen,Wijchen,Gelderland,VBO,5.648749,51.857454
Aaldert,12,A,,6617AL,Bergharen,Wijchen,Gelderland,VBO,5.647237,51.856945
Aaldert,12,B,,6617AL,Bergharen,Wijchen,Gelderland,VBO,5.647043,51.857078
Aaldert,12,,,6617AL,Bergharen,Wijchen,Gelderland,VBO,5.647367,51.856972
Aaldert,14,,,6617AL,Bergharen,Wijchen,Gelderland,VBO,5.646078,51.857370
Aaldert,16,A,,6617AL,Bergharen,Wijchen,Gelderland,VBO,5.645680,51.857481
Aaldert,16,,,6617AL,Bergharen,Wijchen,Gelderland,VBO,5.645803,51.857560
Aaldert,20,,,6617AL,Bergharen,Wijchen,Gelderland,VBO,5.645966,51.853011
de Horst,2,,,6617AM,Bergharen,Wijchen,Gelderland,VBO,5.661531,51.856266
de Horst,3,,,6617AM,Bergharen,Wijchen,Gelderland,VBO,5.657810,51.857856
de Horst,4,,,6617AM,Bergharen,Wijchen,Gelderland,VBO,5.656733,51.857517
Herenstraat,1,,,6617AN,Bergharen,Wijchen,Gelderland,VBO,5.653132,51.860264
Herenstraat,2,,,6617AN,Bergharen,Wijchen,Gelderland,VBO,5.651774,51.860845
Herenstraat,5,,,6617AN,Bergharen,Wijchen,Gelderland,VBO,5.648434,51.860646
Herenstraat,7,,,6617AN,Bergharen,Wijchen,Gelderland,VBO,5.646454,51.861407
Herenstraat,10,,,6617AN,Bergharen,Wijchen,Gelderland,VBO,5.644484,51.863027
Herenstraat,11,,,6617AN,Bergharen,Wijchen,Gelderland,VBO,5.641048,51.863745
Herenstraat,14,,,6617AN,Bergharen,Wijchen,Gelderland,VBO,5.642170,51.863642
Herenstraat,16,,,6617AN,Bergharen,Wijchen,Gelderland,VBO,5.641923,51.864064
Herenstraat,18,,,6617AN,Bergharen,Wijchen,Gelderland,VBO,5.641984,51.864143
Herenstraat,20,,,6617AN,Bergharen,Wijchen,Gelderland,VBO,5.641243,51.864041
Galgenberg,1,,,6617AP,Bergharen,Wijchen,Gelderland,VBO,5.649643,51.861389
Galgenberg,2,,,6617AP,Bergharen,Wijchen,Gelderland,VBO,5.648893,51.862164
Galgenberg,3,,,6617AP,Bergharen,Wijchen,Gelderland,VBO,5.648240,51.862237
Bredeweg,1,,,6617AR,Bergharen,Wijchen,Gelderland,VBO,5.653270,51.863349
Bredeweg,2,,,6617AR,Bergharen,Wijchen,Gelderland,VBO,5.653808,51.863519
Bredeweg,3,,,6617AR,Bergharen,Wijchen,Gelderland,VBO,5.649899,51.862962
Bredeweg,4,,,6617AR,Bergharen,Wijchen,Gelderland,VBO,5.653333,51.864212
Bredeweg,6,,,6617AR,Bergharen,Wijchen,Gelderland,VBO,5.653082,51.863521
Bredeweg,10,,,6617AR,Bergharen,Wijchen,Gelderland,VBO,5.650644,51.863796
Bredeweg,12,,,6617AR,Bergharen,Wijchen,Gelderland,VBO,5.649105,51.863754
Bredeweg,14,,,6617AR,Bergharen,Wijchen,Gelderland,VBO,5.648597,51.863710
Bredeweg,16,,,6617AR,Bergharen,Wijchen,Gelderland,VBO,5.648161,51.863684
Bredeweg,18,,,6617AR,Bergharen,Wijchen,Gelderland,VBO,5.647653,51.863749
Bredeweg,20,,,6617AR,Bergharen,Wijchen,Gelderland,VBO,5.646955,51.863543
Kortendijk,1,,,6617AS,Bergharen,Wijchen,Gelderland,VBO,5.654666,51.863787
Kortendijk,2,A,,6617AS,Bergharen,Wijchen,Gelderland,VBO,5.655581,51.863812
Kortendijk,2,,,6617AS,Bergharen,Wijchen,Gelderland,VBO,5.654546,51.863176
Kortendijk,4,B,,6617AS,Bergharen,Wijchen,Gelderland,VBO,5.657338,51.864572
Kortendijk,4,,,6617AS,Bergharen,Wijchen,Gelderland,VBO,5.657222,51.864562
Kortendijk,7,,,6617AS,Bergharen,Wijchen,Gelderland,VBO,5.655162,51.864145
Kortendijk,11,,,6617AS,Bergharen,Wijchen,Gelderland,VBO,5.656574,51.864861
Strengstraat,3,,,6617AT,Bergharen,Wijchen,Gelderland,VBO,5.652274,51.864394
Strengstraat,4,,,6617AT,Bergharen,Wijchen,Gelderland,VBO,5.642072,51.865181
Strengstraat,5,,,6617AT,Bergharen,Wijchen,Gelderland,VBO,5.645970,51.864293
Strengstraat,7,,,6617AT,Bergharen,Wijchen,Gelderland,VBO,5.642882,51.864631
Ambachtshof,2,,,6617AV,Bergharen,Wijchen,Gelderland,VBO,5.660412,51.851423
Ambachtshof,4,,,6617AV,Bergharen,Wijchen,Gelderland,VBO,5.660485,51.851441
Ambachtshof,6,,,6617AV,Bergharen,Wijchen,Gelderland,VBO,5.660631,51.851504
Ambachtshof,8,,,6617AV,Bergharen,Wijchen,Gelderland,VBO,5.660718,51.851522
Ambachtshof,10,,,6617AV,Bergharen,Wijchen,Gelderland,VBO,5.660878,51.851575
Ambachtshof,12,,,6617AV,Bergharen,Wijchen,Gelderland,VBO,5.661052,51.851593
Elzendweg,5,,,6617AV,Bergharen,Wijchen,Gelderland,VBO,5.673178,51.854854
Elzendweg,7,,,6617AV,Bergharen,Wijchen,Gelderland,VBO,5.672599,51.855232
Elzendweg,9,A,,6617AV,Bergharen,Wijchen,Gelderland,VBO,5.672019,51.855207
Elzendweg,9,B,,6617AV,Bergharen,Wijchen,Gelderland,VBO,5.672045,51.854838
Elzendweg,9,C,,6617AV,Bergharen,Wijchen,Gelderland,VBO,5.672261,51.854966
Elzendweg,9,,,6617AV,Bergharen,Wijchen,Gelderland,VBO,5.672498,51.855287
Elzendweg,11,,,6617AV,Bergharen,Wijchen,Gelderland,VBO,5.671890,51.855585
Elzendweg,13,,,6617AV,Bergharen,Wijchen,Gelderland,VBO,5.671354,51.855748
Elzendweg,15,,,6617AV,Bergharen,Wijchen,Gelderland,VBO,5.670066,51.856263
Elzendweg,17,A,,6617AV,Bergharen,Wijchen,Gelderland,VBO,5.668454,51.856231
Elzendweg,17,B,,6617AV,Bergharen,Wijchen,Gelderland,VBO,5.668368,51.856294
Elzendweg,17,C,,6617AV,Bergharen,Wijchen,Gelderland,VBO,5.668223,51.856349
Elzendweg,17,D,,6617AV,Bergharen,Wijchen,Gelderland,VBO,5.668115,51.857679
Elzendweg,19,,,6617AV,Bergharen,Wijchen,Gelderland,VBO,5.667798,51.858111
Elzendweg,21,,,6617AV,Bergharen,Wijchen,Gelderland,VBO,5.666877,51.859363
Elzendweg,23,,,6617AV,Bergharen,Wijchen,Gelderland,VBO,5.665106,51.861641
Elzendweg,25,,,6617AV,Bergharen,Wijchen,Gelderland,VBO,5.664672,51.861939
Elzendweg,27,,,6617AV,Bergharen,Wijchen,Gelderland,VBO,5.662949,51.862474
Elzendweg,29,,,6617AV,Bergharen,Wijchen,Gelderland,VBO,5.661499,51.862962
Elzendweg,31,,,6617AV,Bergharen,Wijchen,Gelderland,VBO,5.657569,51.863654
Ambachtshof,1,,,6617AW,Bergharen,Wijchen,Gelderland,VBO,5.660181,51.851622
Ambachtshof,3,,,6617AW,Bergharen,Wijchen,Gelderland,VBO,5.660254,51.851649
Ambachtshof,5,,,6617AW,Bergharen,Wijchen,Gelderland,VBO,5.660429,51.851720
Ambachtshof,7,,,6617AW,Bergharen,Wijchen,Gelderland,VBO,5.660545,51.851774
Elzendweg,6,,,6617AW,Bergharen,Wijchen,Gelderland,VBO,5.672820,51.855672
Elzendweg,8,,,6617AW,Bergharen,Wijchen,Gelderland,VBO,5.672283,51.855755
Elzendweg,10,,,6617AW,Bergharen,Wijchen,Gelderland,VBO,5.671400,51.856152
Elzendweg,12,,,6617AW,Bergharen,Wijchen,Gelderland,VBO,5.670807,51.856459
Elzendweg,16,,,6617AW,Bergharen,Wijchen,Gelderland,VBO,5.668916,51.858064
Elzendweg,20,,,6617AW,Bergharen,Wijchen,Gelderland,VBO,5.662140,51.863410
Elzendweg,22,,,6617AW,Bergharen,Wijchen,Gelderland,VBO,5.662010,51.863455
Hoekgraaf,1,,,6617AX,Bergharen,Wijchen,Gelderland,VBO,5.676442,51.856823
Hoekgraaf,3,,,6617AX,Bergharen,Wijchen,Gelderland,VBO,5.675237,51.856889
Hoekgraaf,5,,,6617AX,Bergharen,Wijchen,Gelderland,VBO,5.675181,51.857204
Hoekgraaf,7,,,6617AX,Bergharen,Wijchen,Gelderland,VBO,5.674863,51.857348
Hoekgraaf,9,,,6617AX,Bergharen,Wijchen,Gelderland,VBO,5.673243,51.858278
Hoekgraaf,11,,,6617AX,Bergharen,Wijchen,Gelderland,VBO,5.672524,51.859349
Hoekgraaf,13,,,6617AX,Bergharen,Wijchen,Gelderland,VBO,5.668968,51.861803
Hoekgraaf,15,A,,6617AX,Bergharen,Wijchen,Gelderland,VBO,5.668771,51.862801
Hoekgraaf,15,,,6617AX,Bergharen,Wijchen,Gelderland,VBO,5.669192,51.862746
Hoekgraaf,17,A,,6617AX,Bergharen,Wijchen,Gelderland,VBO,5.661346,51.864113
Hoekgraaf,17,,,6617AX,Bergharen,Wijchen,Gelderland,VBO,5.665974,51.863563
Hoekgraaf,19,,,6617AX,Bergharen,Wijchen,Gelderland,VBO,5.658533,51.864596
Hoekgraaf,2,A,,6617AZ,Bergharen,Wijchen,Gelderland,VBO,5.679324,51.856423
Hoekgraaf,2,,,6617AZ,Bergharen,Wijchen,Gelderland,VBO,5.679544,51.856195
Hoekgraaf,4,,,6617AZ,Bergharen,Wijchen,Gelderland,VBO,5.679067,51.856592
Hoekgraaf,6,,,6617AZ,Bergharen,Wijchen,Gelderland,VBO,5.674491,51.858230
Hoekgraaf,8,,,6617AZ,Bergharen,Wijchen,Gelderland,VBO,5.674150,51.859471
Hoekgraaf,10,,,6617AZ,Bergharen,Wijchen,Gelderland,VBO,5.673211,51.860157
Hoekgraaf,12,A,,6617AZ,Bergharen,Wijchen,Gelderland,VBO,5.667427,51.863757
Hoekgraaf,12,,NUTS,6617AZ,Bergharen,Wijchen,Gelderland,VBO,5.672680,51.861075
Hoekgraaf,12,,,6617AZ,Bergharen,Wijchen,Gelderland,VBO,5.672143,51.861157
Hoekgraaf,14,A,,6617AZ,Bergharen,Wijchen,Gelderland,VBO,5.662063,51.864487
Hoekgraaf,14,B,,6617AZ,Bergharen,Wijchen,Gelderland,VBO,5.661913,51.864491
Hoekgraaf,14,,,6617AZ,Bergharen,Wijchen,Gelderland,VBO,5.663512,51.864566
Hoekgraaf,16,,,6617AZ,Bergharen,Wijchen,Gelderland,VBO,5.661144,51.864383
Hoekgraaf,20,,,6617AZ,Bergharen,Wijchen,Gelderland,VBO,5.659449,51.864854
Akkerstraat,2,,,6617BA,Bergharen,Wijchen,Gelderland,VBO,5.668444,51.849885
Akkerstraat,4,,,6617BA,Bergharen,Wijchen,Gelderland,VBO,5.668544,51.849768
Akkerstraat,6,,,6617BA,Bergharen,Wijchen,Gelderland,VBO,5.668645,51.849669
Akkerstraat,8,,,6617BA,Bergharen,Wijchen,Gelderland,VBO,5.668717,51.849570
Molenweg,1,,,6617BB,Bergharen,Wijchen,Gelderland,VBO,5.665320,51.851700
Molenweg,3,,,6617BB,Bergharen,Wijchen,Gelderland,VBO,5.665509,51.851834
Molenweg,5,,,6617BB,Bergharen,Wijchen,Gelderland,VBO,5.665772,51.852004
Molenweg,7,,,6617BB,Bergharen,Wijchen,Gelderland,VBO,5.666019,51.852075
Molenweg,9,,,6617BB,Bergharen,Wijchen,Gelderland,VBO,5.666237,51.852165
Molenweg,11,,,6617BB,Bergharen,Wijchen,Gelderland,VBO,5.666675,51.852532
Molenweg,13,,,6617BB,Bergharen,Wijchen,Gelderland,VBO,5.666995,51.852594
Molenweg,15,,SCHR,6617BB,Bergharen,Wijchen,Gelderland,VBO,5.666859,51.854186
Molenweg,15,,,6617BB,Bergharen,Wijchen,Gelderland,VBO,5.667116,51.853511
Molenweg,17,,,6617BB,Bergharen,Wijchen,Gelderland,VBO,5.667373,51.852728
Molenweg,19,,,6617BB,Bergharen,Wijchen,Gelderland,VBO,5.667634,51.852773
Molenweg,21,A,,6617BB,Bergharen,Wijchen,Gelderland,VBO,5.668128,51.852870
Molenweg,21,,,6617BB,Bergharen,Wijchen,Gelderland,VBO,5.667910,51.852790
Molenweg,23,,,6617BB,Bergharen,Wijchen,Gelderland,VBO,5.668404,51.852897
Molenweg,25,,,6617BB,Bergharen,Wijchen,Gelderland,VBO,5.668637,51.852968
Molenweg,27,A,,6617BB,Bergharen,Wijchen,Gelderland,VBO,5.669087,51.853048
Molenweg,27,,,6617BB,Bergharen,Wijchen,Gelderland,VBO,5.668913,51.853012
Molenweg,29,A,,6617BC,Bergharen,Wijchen,Gelderland,VBO,5.669249,51.853362
Molenweg,29,B,,6617BC,Bergharen,Wijchen,Gelderland,VBO,5.669294,51.853524
Molenweg,29,C,,6617BC,Bergharen,Wijchen,Gelderland,VBO,5.669251,51.853668
Molenweg,29,D,,6617BC,Bergharen,Wijchen,Gelderland,VBO,5.669064,51.853875
Molenweg,29,,,6617BC,Bergharen,Wijchen,Gelderland,VBO,5.669262,51.853173
Molenweg,31,,,6617BC,Bergharen,Wijchen,Gelderland,VBO,5.669640,51.853181
Molenweg,33,A,,6617BC,Bergharen,Wijchen,Gelderland,VBO,5.670076,51.853428
Molenweg,33,,,6617BC,Bergharen,Wijchen,Gelderland,VBO,5.670138,51.853359
Molenweg,35,,,6617BC,Bergharen,Wijchen,Gelderland,VBO,5.670862,51.853574
Molenweg,37,,,6617BC,Bergharen,Wijchen,Gelderland,VBO,5.671210,51.853654
Molenweg,39,,,6617BC,Bergharen,Wijchen,Gelderland,VBO,5.671618,51.853878
Molenweg,41,A,,6617BC,Bergharen,Wijchen,Gelderland,VBO,5.671882,51.854219
Molenweg,41,,,6617BC,Bergharen,Wijchen,Gelderland,VBO,5.672069,51.854002
Molenweg,43,,,6617BC,Bergharen,Wijchen,Gelderland,VBO,5.672694,51.854208
Molenweg,45,,,6617BC,Bergharen,Wijchen,Gelderland,VBO,5.673043,51.854216
Molenweg,47,,,6617BC,Bergharen,Wijchen,Gelderland,VBO,5.673203,51.854251
Molenweg,49,,,6617BC,Bergharen,Wijchen,Gelderland,VBO,5.673392,51.854341
Molenweg,53,,,6617BC,Bergharen,Wijchen,Gelderland,VBO,5.674880,51.855443
Molenweg,57,,,6617BC,Bergharen,Wijchen,Gelderland,VBO,5.677230,51.855293
Molenweg,2,,,6617BD,Bergharen,Wijchen,Gelderland,VBO,5.665769,51.851582
Molenweg,4,,,6617BD,Bergharen,Wijchen,Gelderland,VBO,5.665973,51.851689
Molenweg,6,,,6617BD,Bergharen,Wijchen,Gelderland,VBO,5.666046,51.851716
Molenweg,8,,,6617BD,Bergharen,Wijchen,Gelderland,VBO,5.666206,51.851814
Molenweg,10,,,6617BD,Bergharen,Wijchen,Gelderland,VBO,5.666512,51.851957
Molenweg,12,,,6617BD,Bergharen,Wijchen,Gelderland,VBO,5.666730,51.852038
Molenweg,14,,,6617BD,Bergharen,Wijchen,Gelderland,VBO,5.666905,51.852145
Molenweg,16,,,6617BD,Bergharen,Wijchen,Gelderland,VBO,5.667341,51.852351
Molenweg,18,,,6617BD,Bergharen,Wijchen,Gelderland,VBO,5.667632,51.852395
Molenweg,20,,,6617BD,Bergharen,Wijchen,Gelderland,VBO,5.667897,51.852506
Molenweg,22,,,6617BD,Bergharen,Wijchen,Gelderland,VBO,5.668228,51.852555
Molenweg,24,,,6617BD,Bergharen,Wijchen,Gelderland,VBO,5.668519,51.852600
Molenweg,26,A,,6617BD,Bergharen,Wijchen,Gelderland,VBO,5.668837,51.852419
Molenweg,26,,,6617BD,Bergharen,Wijchen,Gelderland,VBO,5.668795,51.852653
Molenweg,28,,,6617BD,Bergharen,Wijchen,Gelderland,VBO,5.669085,51.852724
Molenweg,30,,,6617BE,Bergharen,Wijchen,Gelderland,VBO,5.669478,51.852849
Molenweg,32,A,,6617BE,Bergharen,Wijchen,Gelderland,VBO,5.669958,51.852992
Molenweg,32,,,6617BE,Bergharen,Wijchen,Gelderland,VBO,5.669740,51.852902
Molenweg,34,A,,6617BE,Bergharen,Wijchen,Gelderland,VBO,5.670058,51.852794
Molenweg,34,,,6617BE,Bergharen,Wijchen,Gelderland,VBO,5.670191,51.853036
Molenweg,36,A,,6617BE,Bergharen,Wijchen,Gelderland,VBO,5.670380,51.853117
Molenweg,36,,,6617BE,Bergharen,Wijchen,Gelderland,VBO,5.670482,51.853152
Molenweg,38,,,6617BE,Bergharen,Wijchen,Gelderland,VBO,5.670758,51.853224
Molenweg,40,A,,6617BE,Bergharen,Wijchen,Gelderland,VBO,5.671070,51.853279
Molenweg,40,,,6617BE,Bergharen,Wijchen,Gelderland,VBO,5.671005,51.853259
Molenweg,42,,,6617BE,Bergharen,Wijchen,Gelderland,VBO,5.671514,51.853464
Molenweg,44,,,6617BE,Bergharen,Wijchen,Gelderland,VBO,5.671878,51.853571
Molenweg,46,,,6617BE,Bergharen,Wijchen,Gelderland,VBO,5.671979,51.853598
Molenweg,50,,,6617BE,Bergharen,Wijchen,Gelderland,VBO,5.672300,51.853654
Molenweg,52,,,6617BE,Bergharen,Wijchen,Gelderland,VBO,5.672983,51.853919
Molenweg,54,,,6617BE,Bergharen,Wijchen,Gelderland,VBO,5.673419,51.853954
Molenweg,56,,,6617BE,Bergharen,Wijchen,Gelderland,VBO,5.674335,51.854266
Molenweg,58,,,6617BE,Bergharen,Wijchen,Gelderland,VBO,5.674931,51.854337
Molenweg,62,,,6617BE,Bergharen,Wijchen,Gelderland,VBO,5.675235,51.854327
Molenweg,64,,,6617BE,Bergharen,Wijchen,Gelderland,VBO,5.675222,51.854507
Molenweg,72,,,6617BE,Bergharen,Wijchen,Gelderland,VBO,5.678223,51.853933
de Weem,1,,,6617BG,Bergharen,Wijchen,Gelderland,VBO,5.666752,51.850905
de Weem,5,,,6617BG,Bergharen,Wijchen,Gelderland,VBO,5.667173,51.850904
de Weem,7,,,6617BG,Bergharen,Wijchen,Gelderland,VBO,5.667391,51.850967
de Weem,9,,,6617BG,Bergharen,Wijchen,Gelderland,VBO,5.667536,51.851029
de Weem,11,,,6617BG,Bergharen,Wijchen,Gelderland,VBO,5.667740,51.851110
de Weem,13,,,6617BG,Bergharen,Wijchen,Gelderland,VBO,5.667973,51.851172
de Weem,15,,,6617BG,Bergharen,Wijchen,Gelderland,VBO,5.668656,51.851332
de Weem,17,,,6617BG,Bergharen,Wijchen,Gelderland,VBO,5.668947,51.851403
de Weem,19,,,6617BG,Bergharen,Wijchen,Gelderland,VBO,5.669237,51.851465
de Weem,21,,,6617BG,Bergharen,Wijchen,Gelderland,VBO,5.669484,51.851519
de Weem,2,,,6617BH,Bergharen,Wijchen,Gelderland,VBO,5.666836,51.850491
de Weem,4,,,6617BH,Bergharen,Wijchen,Gelderland,VBO,5.666924,51.850527
de Weem,6,,,6617BH,Bergharen,Wijchen,Gelderland,VBO,5.667011,51.850545
de Weem,8,,,6617BH,Bergharen,Wijchen,Gelderland,VBO,5.667404,51.850688
de Weem,10,,,6617BH,Bergharen,Wijchen,Gelderland,VBO,5.667578,51.850759
de Weem,12,,,6617BH,Bergharen,Wijchen,Gelderland,VBO,5.667796,51.850831
de Weem,14,,,6617BH,Bergharen,Wijchen,Gelderland,VBO,5.668145,51.850920
de Weem,16,,,6617BH,Bergharen,Wijchen,Gelderland,VBO,5.668582,51.851054
de Weem,18,,,6617BH,Bergharen,Wijchen,Gelderland,VBO,5.668800,51.851107
de Weem,20,,,6617BH,Bergharen,Wijchen,Gelderland,VBO,5.669017,51.851142
de Weem,22,,,6617BH,Bergharen,Wijchen,Gelderland,VBO,5.669453,51.851231
de Weem,24,,,6617BH,Bergharen,Wijchen,Gelderland,VBO,5.669744,51.851302
Bosweg,2,,,6617BJ,Bergharen,Wijchen,Gelderland,VBO,5.668322,51.851297
Rogstraat,1,,,6617BK,Bergharen,Wijchen,Gelderland,VBO,5.667548,51.850508
Rogstraat,2,,,6617BK,Bergharen,Wijchen,Gelderland,VBO,5.667184,51.850329
Rogstraat,3,,,6617BK,Bergharen,Wijchen,Gelderland,VBO,5.667677,51.850373
Rogstraat,4,,,6617BK,Bergharen,Wijchen,Gelderland,VBO,5.667256,51.850239
Rogstraat,5,,,6617BK,Bergharen,Wijchen,Gelderland,VBO,5.667793,51.850238
Rogstraat,6,,,6617BK,Bergharen,Wijchen,Gelderland,VBO,5.667299,51.850185
Rogstraat,8,,,6617BK,Bergharen,Wijchen,Gelderland,VBO,5.667400,51.850095
Rogstraat,10,,,6617BK,Bergharen,Wijchen,Gelderland,VBO,5.667486,51.849996
Zandstraat,1,,,6617BL,Bergharen,Wijchen,Gelderland,VBO,5.668653,51.850946
Zandstraat,2,,,6617BL,Bergharen,Wijchen,Gelderland,VBO,5.668260,51.850776
Zandstraat,3,,,6617BL,Bergharen,Wijchen,Gelderland,VBO,5.668754,51.850810
Zandstraat,4,,,6617BL,Bergharen,Wijchen,Gelderland,VBO,5.668361,51.850650
Zandstraat,5,,,6617BL,Bergharen,Wijchen,Gelderland,VBO,5.668826,51.850684
Zandstraat,6,,,6617BL,Bergharen,Wijchen,Gelderland,VBO,5.668433,51.850524
Zandstraat,7,,,6617BL,Bergharen,Wijchen,Gelderland,VBO,5.668927,51.850531
Manegeweg,1,,,6617BM,Bergharen,Wijchen,Gelderland,VBO,5.669554,51.851042
Manegeweg,2,,,6617BM,Bergharen,Wijchen,Gelderland,VBO,5.669132,51.850953
Manegeweg,3,,,6617BM,Bergharen,Wijchen,Gelderland,VBO,5.669625,51.850862
Manegeweg,4,,,6617BM,Bergharen,Wijchen,Gelderland,VBO,5.669190,51.850818
Manegeweg,5,,,6617BM,Bergharen,Wijchen,Gelderland,VBO,5.669682,51.850691
Manegeweg,6,,,6617BM,Bergharen,Wijchen,Gelderland,VBO,5.669261,51.850665
Burgemeester van Elkstraat,1,,,6617BN,Bergharen,Wijchen,Gelderland,VBO,5.669608,51.852660
Burgemeester van Elkstraat,3,,,6617BN,Bergharen,Wijchen,Gelderland,VBO,5.669679,51.852552
Burgemeester van Elkstraat,7,,,6617BN,Bergharen,Wijchen,Gelderland,VBO,5.670112,51.852129
Burgemeester van Elkstraat,9,,,6617BN,Bergharen,Wijchen,Gelderland,VBO,5.670198,51.851940
Burgemeester van Elkstraat,11,,,6617BN,Bergharen,Wijchen,Gelderland,VBO,5.670241,51.851859
Burgemeester van Elkstraat,13,,,6617BN,Bergharen,Wijchen,Gelderland,VBO,5.670284,51.851760
Burgemeester van Elkstraat,15,,,6617BN,Bergharen,Wijchen,Gelderland,VBO,5.670327,51.851697
Burgemeester van Elkstraat,17,,,6617BN,Bergharen,Wijchen,Gelderland,VBO,5.670385,51.851589
Burgemeester van Elkstraat,19,,,6617BN,Bergharen,Wijchen,Gelderland,VBO,5.670413,51.851526
Burgemeester van Elkstraat,21,,,6617BN,Bergharen,Wijchen,Gelderland,VBO,5.670714,51.850842
Burgemeester van Elkstraat,23,,,6617BN,Bergharen,Wijchen,Gelderland,VBO,5.670786,51.850779
Burgemeester van Elkstraat,25,,,6617BN,Bergharen,Wijchen,Gelderland,VBO,5.670858,51.850671
Burgemeester van Elkstraat,27,,,6617BN,Bergharen,Wijchen,Gelderland,VBO,5.670901,51.850617
Burgemeester van Elkstraat,29,,,6617BN,Bergharen,Wijchen,Gelderland,VBO,5.670915,51.850509
Burgemeester van Elkstraat,31,,,6617BN,Bergharen,Wijchen,Gelderland,VBO,5.670987,51.850446
Burgemeester van Elkstraat,33,,,6617BN,Bergharen,Wijchen,Gelderland,VBO,5.671015,51.850311
Burgemeester van Elkstraat,35,,,6617BN,Bergharen,Wijchen,Gelderland,VBO,5.671044,51.850266
Burgemeester van Elkstraat,37,,,6617BN,Bergharen,Wijchen,Gelderland,VBO,5.671116,51.850167
Burgemeester van Elkstraat,39,,,6617BN,Bergharen,Wijchen,Gelderland,VBO,5.671130,51.850113
Burgemeester van Elkstraat,41,,,6617BN,Bergharen,Wijchen,Gelderland,VBO,5.671159,51.850068
Burgemeester van Elkstraat,43,,,6617BN,Bergharen,Wijchen,Gelderland,VBO,5.671187,51.850023
Burgemeester van Elkstraat,2,,,6617BP,Bergharen,Wijchen,Gelderland,VBO,5.669258,51.852436
Burgemeester van Elkstraat,4,,,6617BP,Bergharen,Wijchen,Gelderland,VBO,5.669408,51.852268
Burgemeester van Elkstraat,6,,,6617BP,Bergharen,Wijchen,Gelderland,VBO,5.669546,51.852049
Burgemeester van Elkstraat,8,,,6617BP,Bergharen,Wijchen,Gelderland,VBO,5.669646,51.851815
Burgemeester van Elkstraat,10,,,6617BP,Bergharen,Wijchen,Gelderland,VBO,5.669804,51.851653
Burgemeester van Elkstraat,12,,,6617BP,Bergharen,Wijchen,Gelderland,VBO,5.669848,51.851581
Burgemeester van Elkstraat,14,,,6617BP,Bergharen,Wijchen,Gelderland,VBO,5.669991,51.851338
Burgemeester van Elkstraat,16,,,6617BP,Bergharen,Wijchen,Gelderland,VBO,5.670048,51.851203
Burgemeester van Elkstraat,18,,,6617BP,Bergharen,Wijchen,Gelderland,VBO,5.670091,51.851122
Burgemeester van Elkstraat,20,,,6617BP,Bergharen,Wijchen,Gelderland,VBO,5.670149,51.851023
Burgemeester van Elkstraat,22,,,6617BP,Bergharen,Wijchen,Gelderland,VBO,5.670177,51.850951
Burgemeester van Elkstraat,24,,,6617BP,Bergharen,Wijchen,Gelderland,VBO,5.670566,51.850366
Burgemeester van Elkstraat,26,,,6617BP,Bergharen,Wijchen,Gelderland,VBO,5.670652,51.850186
Stuifstraat,1,,,6617BR,Bergharen,Wijchen,Gelderland,VBO,5.670485,51.851355
Stuifstraat,2,,,6617BR,Bergharen,Wijchen,Gelderland,VBO,5.670642,51.850986
Stuifstraat,3,,,6617BR,Bergharen,Wijchen,Gelderland,VBO,5.670586,51.851381
Stuifstraat,4,,,6617BR,Bergharen,Wijchen,Gelderland,VBO,5.670744,51.851039
Stuifstraat,5,,,6617BR,Bergharen,Wijchen,Gelderland,VBO,5.670746,51.851408
Stuifstraat,6,,,6617BR,Bergharen,Wijchen,Gelderland,VBO,5.670904,51.851066
Stuifstraat,8,,,6617BR,Bergharen,Wijchen,Gelderland,VBO,5.670991,51.851102
Stuifstraat,10,,,6617BR,Bergharen,Wijchen,Gelderland,VBO,5.671137,51.851155
Stuifstraat,12,,,6617BR,Bergharen,Wijchen,Gelderland,VBO,5.671209,51.851173
Keltenpad,2,,,6617BS,Bergharen,Wijchen,Gelderland,VBO,5.671156,51.852000
Keltenpad,3,,,6617BS,Bergharen,Wijchen,Gelderland,VBO,5.671581,51.852529
Keltenpad,4,,,6617BS,Bergharen,Wijchen,Gelderland,VBO,5.671244,51.852027
Keltenpad,5,,,6617BS,Bergharen,Wijchen,Gelderland,VBO,5.671465,51.852647
Keltenpad,6,,,6617BS,Bergharen,Wijchen,Gelderland,VBO,5.671321,51.852046
Keltenpad,7,,,6617BS,Bergharen,Wijchen,Gelderland,VBO,5.671404,51.852753
Keltenpad,8,,,6617BS,Bergharen,Wijchen,Gelderland,VBO,5.671408,51.852064
Keltenpad,9,,,6617BS,Bergharen,Wijchen,Gelderland,VBO,5.671278,51.852863
Keltenpad,14,,,6617BS,Bergharen,Wijchen,Gelderland,VBO,5.671549,51.852152
Keltenpad,16,,,6617BS,Bergharen,Wijchen,Gelderland,VBO,5.671811,51.852241
Keltenpad,24,,,6617BS,Bergharen,Wijchen,Gelderland,VBO,5.671974,51.852735
Keltenpad,26,,,6617BS,Bergharen,Wijchen,Gelderland,VBO,5.671800,51.852852
Keltenpad,28,,,6617BS,Bergharen,Wijchen,Gelderland,VBO,5.671743,51.852987
Keltenpad,30,,,6617BS,Bergharen,Wijchen,Gelderland,VBO,5.671599,51.853096
Burgemeester Luskestraat,1,,,6617BT,Bergharen,Wijchen,Gelderland,VBO,5.667441,51.849771
Burgemeester Luskestraat,3,,,6617BT,Bergharen,Wijchen,Gelderland,VBO,5.667645,51.849842
Burgemeester Luskestraat,5,,,6617BT,Bergharen,Wijchen,Gelderland,VBO,5.667908,51.850066
Burgemeester Luskestraat,7,,,6617BT,Bergharen,Wijchen,Gelderland,VBO,5.668039,51.850120
Burgemeester Luskestraat,9,,,6617BT,Bergharen,Wijchen,Gelderland,VBO,5.668184,51.850165
Burgemeester Luskestraat,11,,,6617BT,Bergharen,Wijchen,Gelderland,VBO,5.668286,51.850209
Burgemeester Luskestraat,13,,,6617BT,Bergharen,Wijchen,Gelderland,VBO,5.668548,51.850263
Burgemeester Luskestraat,15,,,6617BT,Bergharen,Wijchen,Gelderland,VBO,5.669318,51.850477
Burgemeester Luskestraat,17,,,6617BT,Bergharen,Wijchen,Gelderland,VBO,5.670031,51.850718
Burgemeester Luskestraat,19,,,6617BT,Bergharen,Wijchen,Gelderland,VBO,5.670264,51.850798
Burgemeester Luskestraat,2,,,6617BV,Bergharen,Wijchen,Gelderland,VBO,5.667788,51.849545
Burgemeester Luskestraat,4,,,6617BV,Bergharen,Wijchen,Gelderland,VBO,5.667992,51.849626
Burgemeester Luskestraat,6,,,6617BV,Bergharen,Wijchen,Gelderland,VBO,5.668167,51.849688
Burgemeester Luskestraat,8,,,6617BV,Bergharen,Wijchen,Gelderland,VBO,5.668836,51.850046
Burgemeester Luskestraat,10,,,6617BV,Bergharen,Wijchen,Gelderland,VBO,5.668967,51.850073
Burgemeester Luskestraat,12,,,6617BV,Bergharen,Wijchen,Gelderland,VBO,5.669055,51.850109
Burgemeester Luskestraat,14,,,6617BV,Bergharen,Wijchen,Gelderland,VBO,5.669258,51.850207
Burgemeester Luskestraat,16,,,6617BV,Bergharen,Wijchen,Gelderland,VBO,5.669360,51.850234
Burgemeester Luskestraat,18,,,6617BV,Bergharen,Wijchen,Gelderland,VBO,5.669506,51.850278
Burgemeester Luskestraat,20,,,6617BV,Bergharen,Wijchen,Gelderland,VBO,5.669636,51.850297
Burgemeester Luskestraat,22,,,6617BV,Bergharen,Wijchen,Gelderland,VBO,5.669796,51.850350
Burgemeester Luskestraat,24,,,6617BV,Bergharen,Wijchen,Gelderland,VBO,5.669942,51.850394
Burgemeester Luskestraat,26,,,6617BV,Bergharen,Wijchen,Gelderland,VBO,5.670058,51.850412
Burgemeester Luskestraat,28,,,6617BV,Bergharen,Wijchen,Gelderland,VBO,5.670189,51.850456
Burgemeester Luskestraat,30,,,6617BV,Bergharen,Wijchen,Gelderland,VBO,5.670363,51.850528
Boekweitstraat,1,,,6617BW,Bergharen,Wijchen,Gelderland,VBO,5.669338,51.849047
Boekweitstraat,2,,,6617BW,Bergharen,Wijchen,Gelderland,VBO,5.669844,51.848785
Boekweitstraat,3,,,6617BW,Bergharen,Wijchen,Gelderland,VBO,5.669341,51.849125
Boekweitstraat,4,,,6617BW,Bergharen,Wijchen,Gelderland,VBO,5.669830,51.848848
Boekweitstraat,5,,,6617BW,Bergharen,Wijchen,Gelderland,VBO,5.669311,51.849258
Boekweitstraat,6,,,6617BW,Bergharen,Wijchen,Gelderland,VBO,5.669831,51.848956
Boekweitstraat,7,,,6617BW,Bergharen,Wijchen,Gelderland,VBO,5.669254,51.849330
Boekweitstraat,8,,,6617BW,Bergharen,Wijchen,Gelderland,VBO,5.669817,51.849019
Boekweitstraat,10,,,6617BW,Bergharen,Wijchen,Gelderland,VBO,5.669774,51.849127
Boekweitstraat,12,,,6617BW,Bergharen,Wijchen,Gelderland,VBO,5.669760,51.849199
Boekweitstraat,14,,,6617BW,Bergharen,Wijchen,Gelderland,VBO,5.669530,51.849595
Boekweitstraat,16,,,6617BW,Bergharen,Wijchen,Gelderland,VBO,5.669487,51.849658
Wijksestraat,1,,,6617BX,Bergharen,Wijchen,Gelderland,VBO,5.668090,51.849086
Wijksestraat,2,A,,6617BX,Bergharen,Wijchen,Gelderland,VBO,5.668652,51.848678
Wijksestraat,2,,,6617BX,Bergharen,Wijchen,Gelderland,VBO,5.668494,51.848681
Wijksestraat,3,,,6617BX,Bergharen,Wijchen,Gelderland,VBO,5.668598,51.848977
Wijksestraat,5,,,6617BX,Bergharen,Wijchen,Gelderland,VBO,5.668699,51.848968
Wijksestraat,7,A,,6617BX,Bergharen,Wijchen,Gelderland,VBO,5.669322,51.848841
Wijksestraat,7,B,,6617BX,Bergharen,Wijchen,Gelderland,VBO,5.669424,51.848858
Wijksestraat,7,,,6617BX,Bergharen,Wijchen,Gelderland,VBO,5.669090,51.848895
Wijksestraat,9,A,,6617BX,Bergharen,Wijchen,Gelderland,VBO,5.670527,51.848847
Wijksestraat,9,B,,6617BX,Bergharen,Wijchen,Gelderland,VBO,5.670759,51.848873
Wijksestraat,9,,,6617BX,Bergharen,Wijchen,Gelderland,VBO,5.670207,51.848794
Wijksestraat,11,,,6617BX,Bergharen,Wijchen,Gelderland,VBO,5.670937,51.849430
Wijksestraat,13,,,6617BX,Bergharen,Wijchen,Gelderland,VBO,5.671151,51.848908
Wijksestraat,15,,,6617BX,Bergharen,Wijchen,Gelderland,VBO,5.672270,51.849022
Wijksestraat,17,,,6617BX,Bergharen,Wijchen,Gelderland,VBO,5.672619,51.849165
Wijksestraat,19,,,6617BX,Bergharen,Wijchen,Gelderland,VBO,5.672881,51.849308
Wijksestraat,21,A,,6617BX,Bergharen,Wijchen,Gelderland,VBO,5.673114,51.849371
Wijksestraat,21,,,6617BX,Bergharen,Wijchen,Gelderland,VBO,5.673085,51.849389
Wijksestraat,23,A,,6617BX,Bergharen,Wijchen,Gelderland,VBO,5.674717,51.850427
Wijksestraat,23,,,6617BX,Bergharen,Wijchen,Gelderland,VBO,5.673797,51.849621
Wijksestraat,25,,,6617BX,Bergharen,Wijchen,Gelderland,VBO,5.675023,51.850598
Wijksestraat,27,A,,6617BX,Bergharen,Wijchen,Gelderland,VBO,5.676002,51.851029
Wijksestraat,27,,,6617BX,Bergharen,Wijchen,Gelderland,VBO,5.675373,51.850965
Wijksestraat,29,,,6617BX,Bergharen,Wijchen,Gelderland,VBO,5.675611,51.851872
Wijksestraat,31,A,,6617BX,Bergharen,Wijchen,Gelderland,VBO,5.676365,51.851610
Wijksestraat,31,,,6617BX,Bergharen,Wijchen,Gelderland,VBO,5.676437,51.851538
Wijksestraat,33,,,6617BX,Bergharen,Wijchen,Gelderland,VBO,5.677017,51.851581
Wijksestraat,35,,,6617BZ,Bergharen,Wijchen,Gelderland,VBO,5.676213,51.852914
Wijksestraat,37,,,6617BZ,Bergharen,Wijchen,Gelderland,VBO,5.676735,51.852751
Wijksestraat,39,A,,6617BZ,Bergharen,Wijchen,Gelderland,VBO,5.677315,51.852659
Wijksestraat,39,,,6617BZ,Bergharen,Wijchen,Gelderland,VBO,5.677567,51.852566
Wijksestraat,41,A,,6617BZ,Bergharen,Wijchen,Gelderland,VBO,5.676942,51.853442
Wijksestraat,41,,,6617BZ,Bergharen,Wijchen,Gelderland,VBO,5.677303,51.853154
Wijksestraat,45,,,6617BZ,Bergharen,Wijchen,Gelderland,VBO,5.679013,51.854992
Haverstraat,1,,,6617CA,Bergharen,Wijchen,Gelderland,VBO,5.670301,51.849827
Haverstraat,2,,,6617CA,Bergharen,Wijchen,Gelderland,VBO,5.669937,51.849576
Haverstraat,3,,,6617CA,Bergharen,Wijchen,Gelderland,VBO,5.670344,51.849692
Haverstraat,4,,,6617CA,Bergharen,Wijchen,Gelderland,VBO,5.669994,51.849486
Haverstraat,5,,,6617CA,Bergharen,Wijchen,Gelderland,VBO,5.670401,51.849575
Haverstraat,7,,,6617CA,Bergharen,Wijchen,Gelderland,VBO,5.670458,51.849458
Korenstraat,1,,,6617CB,Bergharen,Wijchen,Gelderland,VBO,5.669082,51.849794
Korenstraat,3,,,6617CB,Bergharen,Wijchen,Gelderland,VBO,5.669329,51.849865
Korenstraat,5,,,6617CB,Bergharen,Wijchen,Gelderland,VBO,5.669576,51.849928
Korenstraat,7,,,6617CB,Bergharen,Wijchen,Gelderland,VBO,5.669823,51.850017
Korenstraat,8,,,6617CB,Bergharen,Wijchen,Gelderland,VBO,5.669778,51.849702
Korenstraat,9,,,6617CB,Bergharen,Wijchen,Gelderland,VBO,5.670056,51.850070
Korenstraat,10,,,6617CB,Bergharen,Wijchen,Gelderland,VBO,5.669865,51.849729
Korenstraat,11,,,6617CB,Bergharen,Wijchen,Gelderland,VBO,5.670317,51.850142
Korenstraat,12,,,6617CB,Bergharen,Wijchen,Gelderland,VBO,5.670592,51.849880
Korenstraat,14,,,6617CB,Bergharen,Wijchen,Gelderland,VBO,5.670708,51.849898
Distelstraat,1,,,6617CC,Bergharen,Wijchen,Gelderland,VBO,5.669616,51.849406
Distelstraat,2,,,6617CC,Bergharen,Wijchen,Gelderland,VBO,5.670108,51.849207
Distelstraat,3,,,6617CC,Bergharen,Wijchen,Gelderland,VBO,5.669703,51.849433
Distelstraat,4,,,6617CC,Bergharen,Wijchen,Gelderland,VBO,5.670225,51.849216
Distelstraat,6,,,6617CC,Bergharen,Wijchen,Gelderland,VBO,5.670428,51.849251
Distelstraat,8,,,6617CC,Bergharen,Wijchen,Gelderland,VBO,5.670530,51.849251
Tarweveld,1,,,6617CD,Bergharen,Wijchen,Gelderland,VBO,5.669198,51.849484
Tarweveld,2,,,6617CD,Bergharen,Wijchen,Gelderland,VBO,5.669094,51.849452
Tarweveld,3,,,6617CD,Bergharen,Wijchen,Gelderland,VBO,5.668992,51.849417
Tarweveld,4,,,6617CD,Bergharen,Wijchen,Gelderland,VBO,5.668818,51.849372
Tarweveld,5,,,6617CD,Bergharen,Wijchen,Gelderland,VBO,5.668657,51.849247
Tarweveld,6,,,6617CD,Bergharen,Wijchen,Gelderland,VBO,5.668469,51.849382
Ploegstraat,2,,,6617CE,Bergharen,Wijchen,Gelderland,VBO,5.670678,51.852073
Ploegstraat,4,,,6617CE,Bergharen,Wijchen,Gelderland,VBO,5.670707,51.852028
Ploegstraat,6,,,6617CE,Bergharen,Wijchen,Gelderland,VBO,5.670720,51.851902
Ploegstraat,8,,,6617CE,Bergharen,Wijchen,Gelderland,VBO,5.670749,51.851857
Ploegstraat,10,,,6617CE,Bergharen,Wijchen,Gelderland,VBO,5.670850,51.851767
Ploegstraat,12,A,,6617CE,Bergharen,Wijchen,Gelderland,VBO,5.670895,51.851735
Ploegstraat,12,,,6617CE,Bergharen,Wijchen,Gelderland,VBO,5.670914,51.851694
Ploegstraat,13,,,6617CE,Bergharen,Wijchen,Gelderland,VBO,5.671314,51.851721
Ploegstraat,14,,,6617CE,Bergharen,Wijchen,Gelderland,VBO,5.670994,51.851551
Ploegstraat,15,,,6617CE,Bergharen,Wijchen,Gelderland,VBO,5.671387,51.851730
Ploegstraat,16,,,6617CE,Bergharen,Wijchen,Gelderland,VBO,5.671037,51.851488
Ploegstraat,17,,,6617CE,Bergharen,Wijchen,Gelderland,VBO,5.671547,51.851783
Ploegstraat,18,A,,6617CE,Bergharen,Wijchen,Gelderland,VBO,5.670976,51.850931
Ploegstraat,18,,,6617CE,Bergharen,Wijchen,Gelderland,VBO,5.671237,51.850966
Ploegstraat,19,,,6617CE,Bergharen,Wijchen,Gelderland,VBO,5.671620,51.851810
Ploegstraat,20,,,6617CE,Bergharen,Wijchen,Gelderland,VBO,5.671261,51.850924
Ploegstraat,22,,,6617CE,Bergharen,Wijchen,Gelderland,VBO,5.671292,51.850824
Ploegstraat,24,,,6617CE,Bergharen,Wijchen,Gelderland,VBO,5.671306,51.850779
Ploegstraat,25,,,6617CE,Bergharen,Wijchen,Gelderland,VBO,5.672027,51.851953
Ploegstraat,26,,,6617CE,Bergharen,Wijchen,Gelderland,VBO,5.671349,51.850698
Ploegstraat,27,,,6617CE,Bergharen,Wijchen,Gelderland,VBO,5.672143,51.851998
Ploegstraat,28,,,6617CE,Bergharen,Wijchen,Gelderland,VBO,5.671378,51.850644
Ploegstraat,29,,,6617CE,Bergharen,Wijchen,Gelderland,VBO,5.672333,51.852078
Ploegstraat,30,,,6617CE,Bergharen,Wijchen,Gelderland,VBO,5.671438,51.850568
Ploegstraat,31,,,6617CE,Bergharen,Wijchen,Gelderland,VBO,5.672449,51.852132
Ploegstraat,32,,,6617CE,Bergharen,Wijchen,Gelderland,VBO,5.671467,51.850532
Ploegstraat,33,,,6617CE,Bergharen,Wijchen,Gelderland,VBO,5.671616,51.851271
Ploegstraat,34,,,6617CE,Bergharen,Wijchen,Gelderland,VBO,5.671524,51.850426
Ploegstraat,35,,,6617CE,Bergharen,Wijchen,Gelderland,VBO,5.671762,51.851325
Ploegstraat,36,,,6617CE,Bergharen,Wijchen,Gelderland,VBO,5.671553,51.850381
Ploegstraat,37,,,6617CE,Bergharen,Wijchen,Gelderland,VBO,5.671951,51.851342
Ploegstraat,38,,,6617CE,Bergharen,Wijchen,Gelderland,VBO,5.671610,51.850282
Ploegstraat,39,,,6617CE,Bergharen,Wijchen,Gelderland,VBO,5.672140,51.851387
Ploegstraat,40,,,6617CE,Bergharen,Wijchen,Gelderland,VBO,5.671624,51.850228
Ploegstraat,41,,,6617CE,Bergharen,Wijchen,Gelderland,VBO,5.672329,51.851440
Ploegstraat,42,,,6617CE,Bergharen,Wijchen,Gelderland,VBO,5.671653,51.850183
Ploegstraat,43,,,6617CE,Bergharen,Wijchen,Gelderland,VBO,5.672532,51.851520
Ploegstraat,44,,,6617CE,Bergharen,Wijchen,Gelderland,VBO,5.671682,51.850138
Ploegstraat,45,,,6617CE,Bergharen,Wijchen,Gelderland,VBO,5.672734,51.851592
Ploegstraat,47,,,6617CE,Bergharen,Wijchen,Gelderland,VBO,5.672959,51.851660
Ploegstraat,51,,,6617CE,Bergharen,Wijchen,Gelderland,VBO,5.672003,51.850452
Ploegstraat,53,,,6617CE,Bergharen,Wijchen,Gelderland,VBO,5.672046,51.850380
Ploegstraat,55,,,6617CE,Bergharen,Wijchen,Gelderland,VBO,5.672089,51.850326
Ploegstraat,57,,,6617CE,Bergharen,Wijchen,Gelderland,VBO,5.672147,51.850263
Ploegstraat,59,,,6617CE,Bergharen,Wijchen,Gelderland,VBO,5.672176,51.850209
Ploegstraat,61,,,6617CE,Bergharen,Wijchen,Gelderland,VBO,5.672233,51.850155
Gerststraat,1,,,6617CG,Bergharen,Wijchen,Gelderland,VBO,5.671759,51.850947
Gerststraat,3,,,6617CG,Bergharen,Wijchen,Gelderland,VBO,5.671963,51.850956
Gerststraat,5,,,6617CG,Bergharen,Wijchen,Gelderland,VBO,5.672064,51.850973
Gerststraat,7,,,6617CG,Bergharen,Wijchen,Gelderland,VBO,5.672239,51.851027
Gerststraat,9,,,6617CG,Bergharen,Wijchen,Gelderland,VBO,5.672341,51.851045
Gerststraat,11,,,6617CG,Bergharen,Wijchen,Gelderland,VBO,5.672501,51.851107
Gerststraat,13,,,6617CG,Bergharen,Wijchen,Gelderland,VBO,5.672588,51.851125
Gerststraat,15,,,6617CG,Bergharen,Wijchen,Gelderland,VBO,5.672646,51.851152
Gerststraat,17,,,6617CG,Bergharen,Wijchen,Gelderland,VBO,5.672806,51.851205
Gerststraat,19,,,6617CG,Bergharen,Wijchen,Gelderland,VBO,5.672883,51.851223
Gerststraat,21,,,6617CG,Bergharen,Wijchen,Gelderland,VBO,5.673010,51.851304
Gerststraat,23,,,6617CG,Bergharen,Wijchen,Gelderland,VBO,5.673083,51.851321
Gerststraat,25,,,6617CG,Bergharen,Wijchen,Gelderland,VBO,5.673228,51.851375
Gerststraat,27,,,6617CG,Bergharen,Wijchen,Gelderland,VBO,5.673324,51.851399
Gerststraat,29,,,6617CG,Bergharen,Wijchen,Gelderland,VBO,5.673440,51.851435
Gerststraat,31,,,6617CG,Bergharen,Wijchen,Gelderland,VBO,5.673519,51.851464
Gerststraat,33,,,6617CG,Bergharen,Wijchen,Gelderland,VBO,5.673592,51.851482
Gerststraat,35,,,6617CG,Bergharen,Wijchen,Gelderland,VBO,5.673660,51.851502
Gerststraat,2,,,6617CH,Bergharen,Wijchen,Gelderland,VBO,5.671869,51.850649
Gerststraat,4,,,6617CH,Bergharen,Wijchen,Gelderland,VBO,5.671955,51.850682
Gerststraat,6,,,6617CH,Bergharen,Wijchen,Gelderland,VBO,5.672019,51.850686
Gerststraat,8,,,6617CH,Bergharen,Wijchen,Gelderland,VBO,5.672071,51.850691
Gerststraat,10,,,6617CH,Bergharen,Wijchen,Gelderland,VBO,5.672209,51.850728
Gerststraat,12,,,6617CH,Bergharen,Wijchen,Gelderland,VBO,5.672267,51.850746
Gerststraat,14,,,6617CH,Bergharen,Wijchen,Gelderland,VBO,5.672325,51.850755
Gerststraat,16,,,6617CH,Bergharen,Wijchen,Gelderland,VBO,5.672384,51.850773
Gerststraat,18,,,6617CH,Bergharen,Wijchen,Gelderland,VBO,5.672717,51.850864
Gerststraat,20,,,6617CH,Bergharen,Wijchen,Gelderland,VBO,5.672789,51.850891
Gerststraat,22,,,6617CH,Bergharen,Wijchen,Gelderland,VBO,5.672964,51.850944
Gerststraat,24,,,6617CH,Bergharen,Wijchen,Gelderland,VBO,5.673066,51.850971
Gerststraat,26,,,6617CH,Bergharen,Wijchen,Gelderland,VBO,5.673253,51.851025
Gerststraat,28,,,6617CH,Bergharen,Wijchen,Gelderland,VBO,5.673326,51.851043
Gerststraat,30,,,6617CH,Bergharen,Wijchen,Gelderland,VBO,5.673502,51.851087
Gerststraat,32,,,6617CH,Bergharen,Wijchen,Gelderland,VBO,5.673575,51.851113
Gerststraat,34,,,6617CH,Bergharen,Wijchen,Gelderland,VBO,5.673633,51.851131
Egstraat,1,,,6617CJ,Bergharen,Wijchen,Gelderland,VBO,5.669881,51.852363
Egstraat,3,,,6617CJ,Bergharen,Wijchen,Gelderland,VBO,5.670143,51.852452
Egstraat,5,,,6617CJ,Bergharen,Wijchen,Gelderland,VBO,5.670361,51.852496
Egstraat,7,,,6617CJ,Bergharen,Wijchen,Gelderland,VBO,5.670565,51.852577
Egstraat,9,,,6617CJ,Bergharen,Wijchen,Gelderland,VBO,5.670812,51.852612
Egstraat,11,,,6617CJ,Bergharen,Wijchen,Gelderland,VBO,5.671000,51.852486
Egstraat,13,,,6617CJ,Bergharen,Wijchen,Gelderland,VBO,5.671115,51.852378
Egstraat,15,,,6617CJ,Bergharen,Wijchen,Gelderland,VBO,5.671202,51.852261
Egstraat,4,,,6617CK,Bergharen,Wijchen,Gelderland,VBO,5.670359,51.852191
Egstraat,6,,,6617CK,Bergharen,Wijchen,Gelderland,VBO,5.670577,51.852253
Sikkelstraat,1,,,6617CL,Bergharen,Wijchen,Gelderland,VBO,5.672890,51.850666
Sikkelstraat,2,,,6617CL,Bergharen,Wijchen,Gelderland,VBO,5.672457,51.850542
Sikkelstraat,3,,,6617CL,Bergharen,Wijchen,Gelderland,VBO,5.672918,51.850612
Sikkelstraat,4,,,6617CL,Bergharen,Wijchen,Gelderland,VBO,5.672497,51.850478
Sikkelstraat,5,,,6617CL,Bergharen,Wijchen,Gelderland,VBO,5.672799,51.850028
Sikkelstraat,6,,,6617CL,Bergharen,Wijchen,Gelderland,VBO,5.672612,51.850343
Sikkelstraat,7,,,6617CL,Bergharen,Wijchen,Gelderland,VBO,5.672740,51.850010
Sikkelstraat,8,,,6617CL,Bergharen,Wijchen,Gelderland,VBO,5.672655,51.850271
Sikkelstraat,9,,,6617CL,Bergharen,Wijchen,Gelderland,VBO,5.672595,51.849956
Sikkelstraat,11,,,6617CL,Bergharen,Wijchen,Gelderland,VBO,5.672493,51.849939
Sikkelstraat,12,,,6617CL,Bergharen,Wijchen,Gelderland,VBO,5.671710,51.849985
Sikkelstraat,13,,,6617CL,Bergharen,Wijchen,Gelderland,VBO,5.672290,51.849894
Sikkelstraat,14,,,6617CL,Bergharen,Wijchen,Gelderland,VBO,5.671637,51.849968
Sikkelstraat,15,,,6617CL,Bergharen,Wijchen,Gelderland,VBO,5.672217,51.849858
Sikkelstraat,16,,,6617CL,Bergharen,Wijchen,Gelderland,VBO,5.671579,51.849932
Sikkelstraat,17,,,6617CL,Bergharen,Wijchen,Gelderland,VBO,5.672028,51.849778
Sikkelstraat,18,,,6617CL,Bergharen,Wijchen,Gelderland,VBO,5.671506,51.849914
Sikkelstraat,19,,,6617CL,Bergharen,Wijchen,Gelderland,VBO,5.671955,51.849751
Sikkelstraat,20,,,6617CL,Bergharen,Wijchen,Gelderland,VBO,5.671433,51.849896
Sikkelstraat,21,,,6617CL,Bergharen,Wijchen,Gelderland,VBO,5.671708,51.849689
Sikkelstraat,22,,,6617CL,Bergharen,Wijchen,Gelderland,VBO,5.671346,51.849887
Sikkelstraat,23,,,6617CL,Bergharen,Wijchen,Gelderland,VBO,5.671621,51.849671
Sikkelstraat,25,,,6617CL,Bergharen,Wijchen,Gelderland,VBO,5.671388,51.849618
Sikkelstraat,27,,,6617CL,Bergharen,Wijchen,Gelderland,VBO,5.671315,51.849600
Gaffelstraat,1,,,6617CM,Bergharen,Wijchen,Gelderland,VBO,5.672975,51.850369
Gaffelstraat,2,,,6617CM,Bergharen,Wijchen,Gelderland,VBO,5.673089,51.850090
Gaffelstraat,3,,,6617CM,Bergharen,Wijchen,Gelderland,VBO,5.673077,51.850405
Gaffelstraat,4,,,6617CM,Bergharen,Wijchen,Gelderland,VBO,5.673234,51.849991
Gaffelstraat,5,,,6617CM,Bergharen,Wijchen,Gelderland,VBO,5.673164,51.850458
Gaffelstraat,6,,,6617CM,Bergharen,Wijchen,Gelderland,VBO,5.673364,51.849874
Gaffelstraat,7,,,6617CM,Bergharen,Wijchen,Gelderland,VBO,5.673237,51.850476
Gaffelstraat,8,,,6617CM,Bergharen,Wijchen,Gelderland,VBO,5.673785,51.849944
Gaffelstraat,9,,,6617CM,Bergharen,Wijchen,Gelderland,VBO,5.673672,51.850475
Gaffelstraat,10,,,6617CM,Bergharen,Wijchen,Gelderland,VBO,5.674018,51.850043
Gaffelstraat,11,,,6617CM,Bergharen,Wijchen,Gelderland,VBO,5.673701,51.850430
Gaffelstraat,12,,,6617CM,Bergharen,Wijchen,Gelderland,VBO,5.674190,51.849782
Gaffelstraat,13,,,6617CM,Bergharen,Wijchen,Gelderland,VBO,5.673816,51.850313
Gaffelstraat,15,,,6617CM,Bergharen,Wijchen,Gelderland,VBO,5.673845,51.850277
Dorsvlegel,1,,,6617CN,Bergharen,Wijchen,Gelderland,VBO,5.673209,51.850701
Dorsvlegel,3,,,6617CN,Bergharen,Wijchen,Gelderland,VBO,5.673296,51.850737
Dorsvlegel,5,,,6617CN,Bergharen,Wijchen,Gelderland,VBO,5.673379,51.850760
Dorsvlegel,7,,,6617CN,Bergharen,Wijchen,Gelderland,VBO,5.673467,51.850795
Dorsvlegel,9,,,6617CN,Bergharen,Wijchen,Gelderland,VBO,5.673627,51.850839
Dorsvlegel,11,,,6617CN,Bergharen,Wijchen,Gelderland,VBO,5.673714,51.850875
Dorsvlegel,13,,,6617CN,Bergharen,Wijchen,Gelderland,VBO,5.673806,51.850915
Dorsvlegel,15,,,6617CN,Bergharen,Wijchen,Gelderland,VBO,5.673878,51.850942
Dorsvlegel,17,,,6617CN,Bergharen,Wijchen,Gelderland,VBO,5.674096,51.850977
Dorsvlegel,19,,,6617CN,Bergharen,Wijchen,Gelderland,VBO,5.674053,51.851004
Dorsvlegel,21,,,6617CN,Bergharen,Wijchen,Gelderland,VBO,5.674010,51.851049
Dorsvlegel,23,,,6617CN,Bergharen,Wijchen,Gelderland,VBO,5.673967,51.851130
Dorsvlegel,25,,,6617CN,Bergharen,Wijchen,Gelderland,VBO,5.673930,51.851174
Dorsvlegel,27,,,6617CN,Bergharen,Wijchen,Gelderland,VBO,5.673895,51.851220
Dorsvlegel,29,,,6617CN,Bergharen,Wijchen,Gelderland,VBO,5.673491,51.851680
Dorsvlegel,31,,,6617CN,Bergharen,Wijchen,Gelderland,VBO,5.673376,51.851797
Dorsvlegel,33,,,6617CN,Bergharen,Wijchen,Gelderland,VBO,5.672813,51.852230
Dorsvlegel,35,,,6617CN,Bergharen,Wijchen,Gelderland,VBO,5.672668,51.852320
Dorsvlegel,37,,,6617CN,Bergharen,Wijchen,Gelderland,VBO,5.672481,51.852635
Dorsvlegel,39,,,6617CN,Bergharen,Wijchen,Gelderland,VBO,5.672353,51.852549
Dorsvlegel,41,,,6617CN,Bergharen,Wijchen,Gelderland,VBO,5.672248,51.852519
Dorsvlegel,43,,,6617CN,Bergharen,Wijchen,Gelderland,VBO,5.672104,51.852451
Dorsvlegel,45,,,6617CN,Bergharen,Wijchen,Gelderland,VBO,5.672001,51.852421
Dorsvlegel,2,,,6617CP,Bergharen,Wijchen,Gelderland,VBO,5.674123,51.850672
Dorsvlegel,4,,,6617CP,Bergharen,Wijchen,Gelderland,VBO,5.674224,51.850564
Dorsvlegel,6,,,6617CP,Bergharen,Wijchen,Gelderland,VBO,5.674604,51.850931
Dorsvlegel,8,,,6617CP,Bergharen,Wijchen,Gelderland,VBO,5.674503,51.851048
Dorsvlegel,10,,,6617CP,Bergharen,Wijchen,Gelderland,VBO,5.674417,51.851138
Dorsvlegel,12,,,6617CP,Bergharen,Wijchen,Gelderland,VBO,5.674301,51.851264
Dorsvlegel,14,,,6617CP,Bergharen,Wijchen,Gelderland,VBO,5.674258,51.851318
Dorsvlegel,16,,,6617CP,Bergharen,Wijchen,Gelderland,VBO,5.674012,51.851624
Dorsvlegel,18,,,6617CP,Bergharen,Wijchen,Gelderland,VBO,5.673825,51.851751
Dorsvlegel,20,,,6617CP,Bergharen,Wijchen,Gelderland,VBO,5.673710,51.851886
Dorsvlegel,22,,,6617CP,Bergharen,Wijchen,Gelderland,VBO,5.673191,51.852400
Dorsvlegel,24,,,6617CP,Bergharen,Wijchen,Gelderland,VBO,5.673075,51.852490
Dorsvlegel,26,,,6617CP,Bergharen,Wijchen,Gelderland,VBO,5.672845,51.852715
Dorsvlegel,28,,,6617CP,Bergharen,Wijchen,Gelderland,VBO,5.672990,51.852787
Dorsvlegel,30,,,6617CP,Bergharen,Wijchen,Gelderland,VBO,5.672585,51.852976
Dorsvlegel,32,,,6617CP,Bergharen,Wijchen,Gelderland,VBO,5.672527,51.852941
Dorsvlegel,34,,,6617CP,Bergharen,Wijchen,Gelderland,VBO,5.672367,51.852878
Dorsvlegel,36,,,6617CP,Bergharen,Wijchen,Gelderland,VBO,5.672265,51.852851
de Werf,1,,,6617CR,Bergharen,Wijchen,Gelderland,VBO,5.672006,51.853185
de Werf,2,,,6617CR,Bergharen,Wijchen,Gelderland,VBO,5.672124,51.853062
de Werf,3,,,6617CR,Bergharen,Wijchen,Gelderland,VBO,5.672367,51.853168
de Werf,4,,,6617CR,Bergharen,Wijchen,Gelderland,VBO,5.672295,51.853249
de Werf,5,,,6617CR,Bergharen,Wijchen,Gelderland,VBO,5.672237,51.853312
Meleveldsestraat,2,,,6617KB,Bergharen,Wijchen,Gelderland,VBO,5.640909,51.859674
Breekwagen,1,,,6617KC,Bergharen,Wijchen,Gelderland,VBO,5.658810,51.850393
Breekwagen,2,,,6617KC,Bergharen,Wijchen,Gelderland,VBO,5.658176,51.851150
Breekwagen,5,,,6617KC,Bergharen,Wijchen,Gelderland,VBO,5.650822,51.849522
Breekwagen,6,,,6617KC,Bergharen,Wijchen,Gelderland,VBO,5.658157,51.850530
Breekwagen,7,,,6617KC,Bergharen,Wijchen,Gelderland,VBO,5.647876,51.849484
Breekwagen,9,,,6617KC,Bergharen,Wijchen,Gelderland,VBO,5.647424,51.849260
Breekwagen,12,,,6617KC,Bergharen,Wijchen,Gelderland,VBO,5.655645,51.850248
Breekwagen,15,,,6617KC,Bergharen,Wijchen,Gelderland,VBO,5.640170,51.849725
Breekwagen,18,,,6617KC,Bergharen,Wijchen,Gelderland,VBO,5.641406,51.850037
Schaarsestraat,1,,,6617KD,Bergharen,Wijchen,Gelderland,VBO,5.646225,51.840094
Schaarsestraat,3,,,6617KD,Bergharen,Wijchen,Gelderland,VBO,5.650972,51.840479
Schaarsestraat,5,,,6617KD,Bergharen,Wijchen,Gelderland,VBO,5.652642,51.840601
Schaarsestraat,6,,,6617KD,Bergharen,Wijchen,Gelderland,VBO,5.647122,51.839562
Schaarsestraat,7,A,,6617KD,Bergharen,Wijchen,Gelderland,VBO,5.655010,51.841142
Schaarsestraat,7,,,6617KD,Bergharen,Wijchen,Gelderland,VBO,5.654716,51.840561
Oude Schaarsestraat,1,,,6617KE,Bergharen,Wijchen,Gelderland,VBO,5.645028,51.846479
Oude Schaarsestraat,2,,,6617KE,Bergharen,Wijchen,Gelderland,VBO,5.643183,51.846096
Oude Schaarsestraat,5,,,6617KE,Bergharen,Wijchen,Gelderland,VBO,5.644496,51.844736
Laarsdijk,3,A,,6617KG,Bergharen,Wijchen,Gelderland,VBO,5.674982,51.846436
Laarsdijk,3,,,6617KG,Bergharen,Wijchen,Gelderland,VBO,5.675024,51.846301
Laarsdijk,5,,,6617KG,Bergharen,Wijchen,Gelderland,VBO,5.675808,51.846362
Stompendijk,2,,,6617KH,Bergharen,Wijchen,Gelderland,VBO,5.667114,51.848477
Stompendijk,4,,,6617KH,Bergharen,Wijchen,Gelderland,VBO,5.667553,51.846733
Stompendijk,5,,,6617KH,Bergharen,Wijchen,Gelderland,VBO,5.667750,51.848053
Stompendijk,7,A,,6617KH,Bergharen,Wijchen,Gelderland,VBO,5.668032,51.847556
Stompendijk,7,,,6617KH,Bergharen,Wijchen,Gelderland,VBO,5.667894,51.847792
Stompendijk,9,,,6617KH,Bergharen,Wijchen,Gelderland,VBO,5.671308,51.843901
Bergharensestraat,1,,,6617KJ,Bergharen,Wijchen,Gelderland,VBO,5.641851,51.838917
't Hufke,1,A,,6617KL,Bergharen,Wijchen,Gelderland,VBO,5.656752,51.850039
't Hufke,1,B,,6617KL,Bergharen,Wijchen,Gelderland,VBO,5.656300,51.850507
't Hufke,1,,,6617KL,Bergharen,Wijchen,Gelderland,VBO,5.656735,51.850091
't Hufke,3,,,6617KL,Bergharen,Wijchen,Gelderland,VBO,5.656139,51.850391
't Hufke,22,,,6617KL,Bergharen,Wijchen,Gelderland,VBO,5.655415,51.850590
't Hufke,24,,,6617KL,Bergharen,Wijchen,Gelderland,VBO,5.655184,51.850779
't Blok,1,,,6617KM,Bergharen,Wijchen,Gelderland,VBO,5.657686,51.851816
't Blok,3,,,6617KM,Bergharen,Wijchen,Gelderland,VBO,5.655928,51.851407
't Blok,9,,,6617KM,Bergharen,Wijchen,Gelderland,VBO,5.655603,51.850921
't Blok,11,,,6617KM,Bergharen,Wijchen,Gelderland,VBO,5.655318,51.851363
't Blok,4,,,6617KN,Bergharen,Wijchen,Gelderland,VBO,5.656353,51.852224
't Blok,6,,,6617KN,Bergharen,Wijchen,Gelderland,VBO,5.655708,51.852162
't Blok,8,,,6617KN,Bergharen,Wijchen,Gelderland,VBO,5.654740,51.851841
Hogeveld,1,,,6617KP,Bergharen,Wijchen,Gelderland,VBO,5.656679,51.853221
Hogeveld,3,,,6617KP,Bergharen,Wijchen,Gelderland,VBO,5.656242,51.852970
Hogeveld,5,A,,6617KP,Bergharen,Wijchen,Gelderland,VBO,5.655108,51.852694
Hogeveld,5,B,,6617KP,Bergharen,Wijchen,Gelderland,VBO,5.655279,51.852767
Hogeveld,5,,,6617KP,Bergharen,Wijchen,Gelderland,VBO,5.655574,51.852853
Hogeveld,7,,,6617KP,Bergharen,Wijchen,Gelderland,VBO,5.654555,51.852516
Hogeveld,11,,,6617KP,Bergharen,Wijchen,Gelderland,VBO,5.654061,51.852409
Hogeveld,13,,,6617KP,Bergharen,Wijchen,Gelderland,VBO,5.653727,51.852347
Hogeveld,2,,,6617KR,Bergharen,Wijchen,Gelderland,VBO,5.655839,51.853582
Hogeveld,8,,,6617KR,Bergharen,Wijchen,Gelderland,VBO,5.654676,51.853243
