openbareruimtenaam,huisnummer,huisletter,huisnummertoevoeging,postcode,woonplaatsnaam,gemeentenaam,provincienaam,typeadresseerbaarobject,longitude,latitude
Molenstraat,17,,,6924AA,Loo Gld,Duiven,Gelderland,VBO,6.003315,51.937825
Molenstraat,19,,,6924AA,Loo Gld,Duiven,Gelderland,VBO,6.003404,51.937932
Molenstraat,21,,,6924AA,Loo Gld,Duiven,Gelderland,VBO,6.002896,51.937980
Loostraat,1,a,,6924AB,Loo Gld,Duiven,Gelderland,VBO,5.998512,51.934282
Loostraat,1,,,6924AB,Loo Gld,Duiven,Gelderland,VBO,5.998356,51.935640
Loostraat,3,,,6924AB,Loo Gld,Duiven,Gelderland,VBO,5.998143,51.933861
Loostraat,7,,,6924AB,Loo Gld,Duiven,Gelderland,VBO,5.998065,51.933484
Loostraat,9,,,6924AB,Loo Gld,Duiven,Gelderland,VBO,5.998003,51.933251
Loostraat,11,,,6924AB,Loo Gld,Duiven,Gelderland,VBO,5.998100,51.932882
Loostraat,13,,,6924AB,Loo Gld,Duiven,Gelderland,VBO,5.998024,51.931579
Loostraat,17,,,6924AB,Loo Gld,Duiven,Gelderland,VBO,5.996835,51.931810
Loostraat,19,,,6924AB,Loo Gld,Duiven,Gelderland,VBO,5.996428,51.931562
Loostraat,21,,,6924AB,Loo Gld,Duiven,Gelderland,VBO,5.995943,51.931455
Loostraat,23,,,6924AB,Loo Gld,Duiven,Gelderland,VBO,5.996243,51.931040
Loostraat,25,a,,6924AC,Loo Gld,Duiven,Gelderland,VBO,5.994323,51.931005
Loostraat,25,b,,6924AC,Loo Gld,Duiven,Gelderland,VBO,5.994134,51.930970
Loostraat,25,c,,6924AC,Loo Gld,Duiven,Gelderland,VBO,5.993930,51.930926
Loostraat,25,d,,6924AC,Loo Gld,Duiven,Gelderland,VBO,5.993682,51.930873
Loostraat,25,,,6924AC,Loo Gld,Duiven,Gelderland,VBO,5.995589,51.931345
Loostraat,27,,,6924AC,Loo Gld,Duiven,Gelderland,VBO,5.993215,51.930768
Loostraat,29,a,,6924AC,Loo Gld,Duiven,Gelderland,VBO,5.992704,51.930626
Loostraat,29,,,6924AC,Loo Gld,Duiven,Gelderland,VBO,5.992792,51.930635
Loostraat,31,,,6924AC,Loo Gld,Duiven,Gelderland,VBO,5.992471,51.930565
Loostraat,33,,,6924AC,Loo Gld,Duiven,Gelderland,VBO,5.992121,51.930477
Loostraat,35,,,6924AC,Loo Gld,Duiven,Gelderland,VBO,5.991480,51.930399
Loostraat,37,,,6924AC,Loo Gld,Duiven,Gelderland,VBO,5.990835,51.930016
Loostraat,39,,,6924AC,Loo Gld,Duiven,Gelderland,VBO,5.989891,51.930111
Loostraat,41,,,6924AC,Loo Gld,Duiven,Gelderland,VBO,5.989571,51.930094
Loostraat,43,a,,6924AC,Loo Gld,Duiven,Gelderland,VBO,5.988606,51.930299
Loostraat,43,,,6924AC,Loo Gld,Duiven,Gelderland,VBO,5.988628,51.930216
Loostraat,45,,,6924AC,Loo Gld,Duiven,Gelderland,VBO,5.988389,51.929768
Loostraat,47,,,6924AC,Loo Gld,Duiven,Gelderland,VBO,5.987198,51.929955
Loostraat,51,,,6924AD,Loo Gld,Duiven,Gelderland,VBO,5.986514,51.929813
Loostraat,53,a,,6924AD,Loo Gld,Duiven,Gelderland,VBO,5.986043,51.929897
Loostraat,53,,,6924AD,Loo Gld,Duiven,Gelderland,VBO,5.986155,51.929914
Loostraat,55,,,6924AD,Loo Gld,Duiven,Gelderland,VBO,5.985825,51.929886
Loostraat,61,a,,6924AD,Loo Gld,Duiven,Gelderland,VBO,5.985496,51.929809
Loostraat,61,,,6924AD,Loo Gld,Duiven,Gelderland,VBO,5.985642,51.929809
Loostraat,63,,,6924AD,Loo Gld,Duiven,Gelderland,VBO,5.984838,51.929904
Loostraat,65,a,,6924AD,Loo Gld,Duiven,Gelderland,VBO,5.984023,51.929270
Loostraat,65,,,6924AD,Loo Gld,Duiven,Gelderland,VBO,5.983622,51.929546
Loostraat,67,,,6924AD,Loo Gld,Duiven,Gelderland,VBO,5.983183,51.929722
Loostraat,69,a,,6924AD,Loo Gld,Duiven,Gelderland,VBO,5.982219,51.929404
Loostraat,69,b,,6924AD,Loo Gld,Duiven,Gelderland,VBO,5.981491,51.929282
Loostraat,69,,,6924AD,Loo Gld,Duiven,Gelderland,VBO,5.983023,51.929687
Loostraat,71,,,6924AD,Loo Gld,Duiven,Gelderland,VBO,5.981199,51.929220
Loostraat,73,,,6924AD,Loo Gld,Duiven,Gelderland,VBO,5.980836,51.929267
Loostraat,75,,,6924AD,Loo Gld,Duiven,Gelderland,VBO,5.980646,51.929196
Loostraat,2,a,,6924AE,Loo Gld,Duiven,Gelderland,VBO,6.000471,51.938271
Loostraat,2,,,6924AE,Loo Gld,Duiven,Gelderland,VBO,6.000560,51.938424
Loostraat,4,,,6924AE,Loo Gld,Duiven,Gelderland,VBO,5.997487,51.936993
Loostraat,6,a,,6924AE,Loo Gld,Duiven,Gelderland,VBO,5.996281,51.935455
Loostraat,6,,,6924AE,Loo Gld,Duiven,Gelderland,VBO,5.996985,51.935323
Loostraat,8,,,6924AE,Loo Gld,Duiven,Gelderland,VBO,5.997124,51.933777
Loostraat,10,,,6924AE,Loo Gld,Duiven,Gelderland,VBO,5.997299,51.932751
Loostraat,12,,,6924AE,Loo Gld,Duiven,Gelderland,VBO,5.996491,51.933232
Loostraat,14,,,6924AE,Loo Gld,Duiven,Gelderland,VBO,5.997048,51.932528
Loostraat,16,,,6924AE,Loo Gld,Duiven,Gelderland,VBO,5.996420,51.932288
Loostraat,18,a,,6924AE,Loo Gld,Duiven,Gelderland,VBO,5.994975,51.931918
Loostraat,18,,,6924AE,Loo Gld,Duiven,Gelderland,VBO,5.996039,51.932074
Loostraat,20,a,,6924AE,Loo Gld,Duiven,Gelderland,VBO,5.993879,51.931474
Loostraat,20,,,6924AE,Loo Gld,Duiven,Gelderland,VBO,5.994467,51.931966
Loostraat,22,a,,6924AE,Loo Gld,Duiven,Gelderland,VBO,5.991577,51.931136
Loostraat,22,,,6924AE,Loo Gld,Duiven,Gelderland,VBO,5.993036,51.931524
Loostraat,24,,,6924AG,Loo Gld,Duiven,Gelderland,VBO,5.991383,51.930786
Loostraat,26,,,6924AG,Loo Gld,Duiven,Gelderland,VBO,5.990701,51.930870
Loostraat,28,,,6924AG,Loo Gld,Duiven,Gelderland,VBO,5.989159,51.930842
Loostraat,30,,,6924AG,Loo Gld,Duiven,Gelderland,VBO,5.987800,51.930328
Loostraat,32,,,6924AG,Loo Gld,Duiven,Gelderland,VBO,5.987641,51.930308
Loostraat,34,,,6924AG,Loo Gld,Duiven,Gelderland,VBO,5.988000,51.930506
Loostraat,36,,,6924AG,Loo Gld,Duiven,Gelderland,VBO,5.987233,51.930322
Loostraat,38,,,6924AG,Loo Gld,Duiven,Gelderland,VBO,5.986565,51.930343
Loostraat,40,,,6924AG,Loo Gld,Duiven,Gelderland,VBO,5.986013,51.930427
Loostraat,44,a,,6924AG,Loo Gld,Duiven,Gelderland,VBO,5.984076,51.930149
Loostraat,44,,,6924AG,Loo Gld,Duiven,Gelderland,VBO,5.984178,51.930167
Loostraat,46,,,6924AG,Loo Gld,Duiven,Gelderland,VBO,5.983967,51.930011
Loostraat,48,,,6924AG,Loo Gld,Duiven,Gelderland,VBO,5.983891,51.930017
Loostraat,50,a,,6924AG,Loo Gld,Duiven,Gelderland,VBO,5.983653,51.930044
Loostraat,50,,,6924AG,Loo Gld,Duiven,Gelderland,VBO,5.983576,51.930008
Loostraat,52,,,6924AH,Loo Gld,Duiven,Gelderland,VBO,5.982883,51.930128
Loostraat,54,a,,6924AH,Loo Gld,Duiven,Gelderland,VBO,5.982430,51.929947
Loostraat,54,,,6924AH,Loo Gld,Duiven,Gelderland,VBO,5.982464,51.929864
Loostraat,56,,,6924AH,Loo Gld,Duiven,Gelderland,VBO,5.981878,51.929981
Loostraat,58,,,6924AH,Loo Gld,Duiven,Gelderland,VBO,5.981249,51.929723
Loostraat,60,,,6924AH,Loo Gld,Duiven,Gelderland,VBO,5.980811,51.929564
Loostraat,62,,,6924AH,Loo Gld,Duiven,Gelderland,VBO,5.980112,51.929495
Husselarijstraat,1,,,6924AJ,Loo Gld,Duiven,Gelderland,VBO,5.995096,51.931135
Husselarijstraat,3,,,6924AJ,Loo Gld,Duiven,Gelderland,VBO,5.995031,51.930641
Husselarijstraat,5,,,6924AJ,Loo Gld,Duiven,Gelderland,VBO,5.994353,51.929998
Husselarijstraat,7,,,6924AJ,Loo Gld,Duiven,Gelderland,VBO,5.995637,51.930005
Husselarijstraat,9,a,,6924AJ,Loo Gld,Duiven,Gelderland,VBO,5.996300,51.927462
Husselarijstraat,11,,,6924AJ,Loo Gld,Duiven,Gelderland,VBO,5.994102,51.929693
Husselarijstraat,13,,,6924AJ,Loo Gld,Duiven,Gelderland,VBO,5.993764,51.929461
Husselarijstraat,15,,,6924AJ,Loo Gld,Duiven,Gelderland,VBO,5.994400,51.929144
Husselarijstraat,17,,,6924AJ,Loo Gld,Duiven,Gelderland,VBO,5.994192,51.928848
Husselarijstraat,19,,,6924AJ,Loo Gld,Duiven,Gelderland,VBO,5.993381,51.929023
Husselarijstraat,23,,,6924AJ,Loo Gld,Duiven,Gelderland,VBO,5.993052,51.928369
Husselarijstraat,25,a,,6924AJ,Loo Gld,Duiven,Gelderland,VBO,5.992606,51.927688
Husselarijstraat,25,,,6924AJ,Loo Gld,Duiven,Gelderland,VBO,5.992723,51.927705
Husselarijstraat,27,,,6924AJ,Loo Gld,Duiven,Gelderland,VBO,5.992718,51.927310
Husselarijstraat,29,,,6924AJ,Loo Gld,Duiven,Gelderland,VBO,5.992625,51.926897
Husselarijstraat,31,,,6924AK,Loo Gld,Duiven,Gelderland,VBO,5.992620,51.926546
Husselarijstraat,33,,,6924AK,Loo Gld,Duiven,Gelderland,VBO,5.992690,51.926339
Husselarijstraat,35,a,,6924AK,Loo Gld,Duiven,Gelderland,VBO,5.992569,51.925953
Husselarijstraat,35,,,6924AK,Loo Gld,Duiven,Gelderland,VBO,5.992689,51.926294
Husselarijstraat,37,,,6924AK,Loo Gld,Duiven,Gelderland,VBO,5.992400,51.925307
Husselarijstraat,39,,,6924AK,Loo Gld,Duiven,Gelderland,VBO,5.994826,51.924960
Husselarijstraat,41,a,,6924AK,Loo Gld,Duiven,Gelderland,VBO,5.992170,51.924454
Husselarijstraat,41,,,6924AK,Loo Gld,Duiven,Gelderland,VBO,5.992175,51.924832
Husselarijstraat,43,,,6924AK,Loo Gld,Duiven,Gelderland,VBO,5.992212,51.924319
Husselarijstraat,45,,,6924AK,Loo Gld,Duiven,Gelderland,VBO,5.993010,51.924207
Husselarijstraat,47,a,,6924AK,Loo Gld,Duiven,Gelderland,VBO,5.993700,51.923520
Husselarijstraat,47,,,6924AK,Loo Gld,Duiven,Gelderland,VBO,5.993151,51.923838
Husselarijstraat,49,,,6924AK,Loo Gld,Duiven,Gelderland,VBO,5.992608,51.923508
Husselarijstraat,51,,,6924AK,Loo Gld,Duiven,Gelderland,VBO,5.992993,51.922958
Husselarijstraat,2,,,6924AL,Loo Gld,Duiven,Gelderland,VBO,5.994587,51.931120
Husselarijstraat,4,,,6924AL,Loo Gld,Duiven,Gelderland,VBO,5.994011,51.930512
Husselarijstraat,6,,,6924AL,Loo Gld,Duiven,Gelderland,VBO,5.993627,51.930073
Husselarijstraat,8,,,6924AL,Loo Gld,Duiven,Gelderland,VBO,5.993523,51.929894
Husselarijstraat,12,,,6924AL,Loo Gld,Duiven,Gelderland,VBO,5.993379,51.929676
Husselarijstraat,14,,,6924AL,Loo Gld,Duiven,Gelderland,VBO,5.993155,51.929385
Husselarijstraat,16,,,6924AL,Loo Gld,Duiven,Gelderland,VBO,5.992939,51.929235
Husselarijstraat,18,,,6924AL,Loo Gld,Duiven,Gelderland,VBO,5.992926,51.929124
Husselarijstraat,24,,,6924AL,Loo Gld,Duiven,Gelderland,VBO,5.992679,51.928784
Husselarijstraat,26,a,,6924AL,Loo Gld,Duiven,Gelderland,VBO,5.992419,51.928492
Husselarijstraat,26,,,6924AL,Loo Gld,Duiven,Gelderland,VBO,5.992429,51.928525
Husselarijstraat,34,,,6924AL,Loo Gld,Duiven,Gelderland,VBO,5.992207,51.928229
Husselarijstraat,36,,,6924AM,Loo Gld,Duiven,Gelderland,VBO,5.992131,51.928005
Husselarijstraat,38,a,,6924AM,Loo Gld,Duiven,Gelderland,VBO,5.992084,51.927753
Husselarijstraat,38,,,6924AM,Loo Gld,Duiven,Gelderland,VBO,5.992057,51.927888
Husselarijstraat,40,a,,6924AM,Loo Gld,Duiven,Gelderland,VBO,5.992019,51.927268
Husselarijstraat,40,,,6924AM,Loo Gld,Duiven,Gelderland,VBO,5.992037,51.927475
Husselarijstraat,42,,,6924AM,Loo Gld,Duiven,Gelderland,VBO,5.992046,51.927079
Husselarijstraat,44,a,,6924AM,Loo Gld,Duiven,Gelderland,VBO,5.991999,51.926810
Husselarijstraat,44,,,6924AM,Loo Gld,Duiven,Gelderland,VBO,5.991970,51.926882
Husselarijstraat,46,,,6924AM,Loo Gld,Duiven,Gelderland,VBO,5.991863,51.926460
Husselarijstraat,48,,,6924AM,Loo Gld,Duiven,Gelderland,VBO,5.991945,51.926037
Husselarijstraat,50,,,6924AM,Loo Gld,Duiven,Gelderland,VBO,5.991792,51.925499
Husselarijstraat,52,,,6924AM,Loo Gld,Duiven,Gelderland,VBO,5.991454,51.925258
Husselarijstraat,54,,,6924AM,Loo Gld,Duiven,Gelderland,VBO,5.991483,51.925204
Husselarijstraat,56,,,6924AM,Loo Gld,Duiven,Gelderland,VBO,5.989777,51.925914
Husselarijstraat,58,,,6924AM,Loo Gld,Duiven,Gelderland,VBO,5.990139,51.925218
Husselarijstraat,60,,,6924AM,Loo Gld,Duiven,Gelderland,VBO,5.990043,51.925211
Husselarijstraat,62,,,6924AM,Loo Gld,Duiven,Gelderland,VBO,5.991174,51.924990
Husselarijstraat,64,,,6924AM,Loo Gld,Duiven,Gelderland,VBO,5.991698,51.924829
Husselarijstraat,68,,,6924AM,Loo Gld,Duiven,Gelderland,VBO,5.991634,51.924538
Husselarijstraat,70,,,6924AM,Loo Gld,Duiven,Gelderland,VBO,5.991618,51.924457
IJsselstraat,6,,,6924AN,Loo Gld,Duiven,Gelderland,VBO,5.993459,51.930515
IJsselstraat,8,,,6924AN,Loo Gld,Duiven,Gelderland,VBO,5.993515,51.930398
IJsselstraat,10,,,6924AN,Loo Gld,Duiven,Gelderland,VBO,5.993558,51.930289
Groenestraat,1,a,,6924AP,Loo Gld,Duiven,Gelderland,VBO,5.997188,51.925377
Groenestraat,1,,,6924AP,Loo Gld,Duiven,Gelderland,VBO,5.996498,51.926220
Groenestraat,3,,,6924AP,Loo Gld,Duiven,Gelderland,VBO,5.997603,51.926233
Groenestraat,5,,,6924AP,Loo Gld,Duiven,Gelderland,VBO,5.997082,51.927521
Groenestraat,13,,,6924AP,Loo Gld,Duiven,Gelderland,VBO,5.998044,51.928720
Lijkweg,31,,,6924AP,Loo Gld,Duiven,Gelderland,VBO,5.993515,51.922381
Lijkweg,40,,,6924AP,Loo Gld,Duiven,Gelderland,VBO,5.993942,51.922810
Hoflaan,2,,,6924AR,Loo Gld,Duiven,Gelderland,VBO,5.992009,51.929731
Hoflaan,4,,,6924AR,Loo Gld,Duiven,Gelderland,VBO,5.992022,51.929659
Hoflaan,5,,,6924AR,Loo Gld,Duiven,Gelderland,VBO,5.992307,51.930260
Hoflaan,6,,,6924AR,Loo Gld,Duiven,Gelderland,VBO,5.992121,51.929416
Hoflaan,7,a,,6924AR,Loo Gld,Duiven,Gelderland,VBO,5.992704,51.930281
Hoflaan,7,,,6924AR,Loo Gld,Duiven,Gelderland,VBO,5.992597,51.930241
Hoflaan,8,,,6924AR,Loo Gld,Duiven,Gelderland,VBO,5.992164,51.929362
Hoflaan,9,a,,6924AR,Loo Gld,Duiven,Gelderland,VBO,5.992979,51.930156
Hoflaan,9,,,6924AR,Loo Gld,Duiven,Gelderland,VBO,5.992934,51.930224
Hoflaan,10,,,6924AR,Loo Gld,Duiven,Gelderland,VBO,5.992249,51.929249
Hoflaan,11,,,6924AR,Loo Gld,Duiven,Gelderland,VBO,5.992929,51.930032
Hoflaan,12,,,6924AR,Loo Gld,Duiven,Gelderland,VBO,5.992278,51.929198
Hoflaan,13,,,6924AR,Loo Gld,Duiven,Gelderland,VBO,5.992957,51.929978
Hoflaan,14,,,6924AR,Loo Gld,Duiven,Gelderland,VBO,5.992346,51.929079
Hoflaan,15,,,6924AR,Loo Gld,Duiven,Gelderland,VBO,5.992923,51.929803
Hoflaan,17,a,,6924AR,Loo Gld,Duiven,Gelderland,VBO,5.992662,51.929674
Hoflaan,17,b,,6924AR,Loo Gld,Duiven,Gelderland,VBO,5.992541,51.929644
Hoflaan,17,,,6924AR,Loo Gld,Duiven,Gelderland,VBO,5.992814,51.929760
Hoflaan,19,,,6924AR,Loo Gld,Duiven,Gelderland,VBO,5.992659,51.929458
Pastoorstraat,10,,,6924AS,Loo Gld,Duiven,Gelderland,VBO,5.990045,51.929633
Pastoorstraat,12,,,6924AS,Loo Gld,Duiven,Gelderland,VBO,5.990132,51.929651
Pastoorstraat,14,,,6924AS,Loo Gld,Duiven,Gelderland,VBO,5.990444,51.929712
Pastoorstraat,16,,,6924AS,Loo Gld,Duiven,Gelderland,VBO,5.990540,51.929728
Pastoorstraat,18,,,6924AS,Loo Gld,Duiven,Gelderland,VBO,5.990618,51.929744
Pastoorstraat,20,,,6924AS,Loo Gld,Duiven,Gelderland,VBO,5.990710,51.929765
Pastoorstraat,22,,,6924AS,Loo Gld,Duiven,Gelderland,VBO,5.990793,51.929777
Pastoorstraat,24,,,6924AS,Loo Gld,Duiven,Gelderland,VBO,5.990881,51.929790
Pastoorstraat,26,,,6924AS,Loo Gld,Duiven,Gelderland,VBO,5.991079,51.929763
Pastoorstraat,28,,,6924AS,Loo Gld,Duiven,Gelderland,VBO,5.991181,51.929789
Pastoorstraat,30,,,6924AS,Loo Gld,Duiven,Gelderland,VBO,5.991254,51.929807
Pastoorstraat,32,,,6924AS,Loo Gld,Duiven,Gelderland,VBO,5.991427,51.929867
Pastoorstraat,34,,,6924AS,Loo Gld,Duiven,Gelderland,VBO,5.991500,51.929876
Pastoorstraat,36,,,6924AS,Loo Gld,Duiven,Gelderland,VBO,5.991601,51.929889
Pastoorstraat,40,,,6924AS,Loo Gld,Duiven,Gelderland,VBO,5.991909,51.929902
Sint Antoniusstraat,1,a,,6924AT,Loo Gld,Duiven,Gelderland,VBO,5.989568,51.929834
Sint Antoniusstraat,1,b,,6924AT,Loo Gld,Duiven,Gelderland,VBO,5.989680,51.929545
Sint Antoniusstraat,1,,,6924AT,Loo Gld,Duiven,Gelderland,VBO,5.989612,51.929914
Sint Antoniusstraat,3,,,6924AT,Loo Gld,Duiven,Gelderland,VBO,5.989708,51.929473
Sint Antoniusstraat,5,,,6924AT,Loo Gld,Duiven,Gelderland,VBO,5.989734,51.929222
Sint Antoniusstraat,7,,,6924AT,Loo Gld,Duiven,Gelderland,VBO,5.989762,51.929141
Sint Antoniusstraat,9,,,6924AT,Loo Gld,Duiven,Gelderland,VBO,5.989775,51.929033
Sint Antoniusstraat,11,,,6924AT,Loo Gld,Duiven,Gelderland,VBO,5.989788,51.928952
Sint Antoniusstraat,13,,,6924AT,Loo Gld,Duiven,Gelderland,VBO,5.989816,51.928844
Sint Antoniusstraat,15,,,6924AT,Loo Gld,Duiven,Gelderland,VBO,5.989830,51.928772
Sint Antoniusstraat,17,,,6924AT,Loo Gld,Duiven,Gelderland,VBO,5.989927,51.928484
Sint Antoniusstraat,19,,,6924AT,Loo Gld,Duiven,Gelderland,VBO,5.989999,51.928375
Sint Antoniusstraat,21,,,6924AT,Loo Gld,Duiven,Gelderland,VBO,5.990084,51.928249
Sint Antoniusstraat,23,,,6924AT,Loo Gld,Duiven,Gelderland,VBO,5.990126,51.928141
Sint Antoniusstraat,2,,,6924AV,Loo Gld,Duiven,Gelderland,VBO,5.989244,51.929575
Sint Antoniusstraat,4,,,6924AV,Loo Gld,Duiven,Gelderland,VBO,5.989258,51.929485
Sint Antoniusstraat,6,,,6924AV,Loo Gld,Duiven,Gelderland,VBO,5.989270,51.929323
Sint Antoniusstraat,8,,,6924AV,Loo Gld,Duiven,Gelderland,VBO,5.989167,51.929056
Sint Antoniusstraat,10,,,6924AV,Loo Gld,Duiven,Gelderland,VBO,5.989183,51.928976
Sint Antoniusstraat,12,,,6924AV,Loo Gld,Duiven,Gelderland,VBO,5.989247,51.928730
Sint Antoniusstraat,14,,,6924AV,Loo Gld,Duiven,Gelderland,VBO,5.989261,51.928649
Sloetstraat,1,,,6924AW,Loo Gld,Duiven,Gelderland,VBO,5.988844,51.928974
Sloetstraat,2,a,,6924AW,Loo Gld,Duiven,Gelderland,VBO,5.989062,51.929341
Sloetstraat,2,,,6924AW,Loo Gld,Duiven,Gelderland,VBO,5.988950,51.929297
Sloetstraat,3,,,6924AW,Loo Gld,Duiven,Gelderland,VBO,5.988727,51.928957
Sloetstraat,4,,,6924AW,Loo Gld,Duiven,Gelderland,VBO,5.988862,51.929271
Sloetstraat,5,,,6924AW,Loo Gld,Duiven,Gelderland,VBO,5.988552,51.928931
Sloetstraat,6,,,6924AW,Loo Gld,Duiven,Gelderland,VBO,5.988629,51.929236
Sloetstraat,7,,,6924AW,Loo Gld,Duiven,Gelderland,VBO,5.988421,51.928914
Sloetstraat,8,,,6924AW,Loo Gld,Duiven,Gelderland,VBO,5.988527,51.929219
Sloetstraat,10,,,6924AW,Loo Gld,Duiven,Gelderland,VBO,5.988308,51.929184
Sloetstraat,11,,,6924AW,Loo Gld,Duiven,Gelderland,VBO,5.988187,51.928816
Sloetstraat,12,,,6924AW,Loo Gld,Duiven,Gelderland,VBO,5.988206,51.929157
Sloetstraat,13,,,6924AW,Loo Gld,Duiven,Gelderland,VBO,5.987969,51.928781
Sloetstraat,14,,,6924AW,Loo Gld,Duiven,Gelderland,VBO,5.987942,51.928988
Sloetstraat,15,,,6924AW,Loo Gld,Duiven,Gelderland,VBO,5.987765,51.928755
Sloetstraat,16,,,6924AW,Loo Gld,Duiven,Gelderland,VBO,5.987738,51.928962
Kerkpad,2,a,,6924AX,Loo Gld,Duiven,Gelderland,VBO,5.987671,51.929331
Kerkpad,2,,,6924AX,Loo Gld,Duiven,Gelderland,VBO,5.987542,51.929475
Kerkpad,4,,,6924AX,Loo Gld,Duiven,Gelderland,VBO,5.987698,51.929205
Kerkpad,6,,,6924AX,Loo Gld,Duiven,Gelderland,VBO,5.988449,51.928537
Kerkpad,9,,,6924AX,Loo Gld,Duiven,Gelderland,VBO,5.988122,51.929392
Prinsstraat,1,,,6924AZ,Loo Gld,Duiven,Gelderland,VBO,5.989534,51.928396
Prinsstraat,2,,,6924AZ,Loo Gld,Duiven,Gelderland,VBO,5.988911,51.928561
Prinsstraat,3,,,6924AZ,Loo Gld,Duiven,Gelderland,VBO,5.989301,51.928388
Prinsstraat,4,,,6924AZ,Loo Gld,Duiven,Gelderland,VBO,5.988780,51.928543
Prinsstraat,5,,,6924AZ,Loo Gld,Duiven,Gelderland,VBO,5.989228,51.928379
Prinsstraat,7,,,6924AZ,Loo Gld,Duiven,Gelderland,VBO,5.989024,51.928353
Prinsstraat,9,,,6924AZ,Loo Gld,Duiven,Gelderland,VBO,5.988922,51.928336
Prinsstraat,10,,,6924AZ,Loo Gld,Duiven,Gelderland,VBO,5.987071,51.928627
Prinsstraat,11,,,6924AZ,Loo Gld,Duiven,Gelderland,VBO,5.988733,51.928301
Prinsstraat,12,,,6924AZ,Loo Gld,Duiven,Gelderland,VBO,5.986975,51.928749
Prinsstraat,13,,,6924AZ,Loo Gld,Duiven,Gelderland,VBO,5.988631,51.928292
Prinsstraat,15,,,6924AZ,Loo Gld,Duiven,Gelderland,VBO,5.988427,51.928266
Prinsstraat,17,,,6924AZ,Loo Gld,Duiven,Gelderland,VBO,5.988340,51.928249
Prinsstraat,19,,,6924AZ,Loo Gld,Duiven,Gelderland,VBO,5.988106,51.928196
Prinsstraat,21,,,6924AZ,Loo Gld,Duiven,Gelderland,VBO,5.987451,51.928093
Prinsstraat,23,,,6924AZ,Loo Gld,Duiven,Gelderland,VBO,5.987146,51.928156
Prinsstraat,25,,,6924AZ,Loo Gld,Duiven,Gelderland,VBO,5.987031,51.928265
Prinsstraat,27,,,6924AZ,Loo Gld,Duiven,Gelderland,VBO,5.986870,51.928392
Prinsstraat,29,,,6924AZ,Loo Gld,Duiven,Gelderland,VBO,5.986729,51.928519
Prinsstraat,31,,,6924AZ,Loo Gld,Duiven,Gelderland,VBO,5.986686,51.928564
Eversstraat,1,,,6924BA,Loo Gld,Duiven,Gelderland,VBO,5.988524,51.927915
Eversstraat,3,,,6924BA,Loo Gld,Duiven,Gelderland,VBO,5.988612,51.927933
Eversstraat,5,,,6924BA,Loo Gld,Duiven,Gelderland,VBO,5.988815,51.927950
Eversstraat,7,,,6924BA,Loo Gld,Duiven,Gelderland,VBO,5.988917,51.927967
Eversstraat,9,,,6924BA,Loo Gld,Duiven,Gelderland,VBO,5.989107,51.927993
Eversstraat,11,,,6924BA,Loo Gld,Duiven,Gelderland,VBO,5.989223,51.928011
Eversstraat,13,,,6924BA,Loo Gld,Duiven,Gelderland,VBO,5.989398,51.928046
Eversstraat,15,,,6924BA,Loo Gld,Duiven,Gelderland,VBO,5.989515,51.928054
Eversstraat,17,,,6924BA,Loo Gld,Duiven,Gelderland,VBO,5.989675,51.928089
Eversstraat,23,,,6924BA,Loo Gld,Duiven,Gelderland,VBO,5.990723,51.928192
Eversstraat,25,,,6924BA,Loo Gld,Duiven,Gelderland,VBO,5.990825,51.928200
Eversstraat,27,,,6924BA,Loo Gld,Duiven,Gelderland,VBO,5.990985,51.928208
Eversstraat,29,,,6924BA,Loo Gld,Duiven,Gelderland,VBO,5.991072,51.928217
Eversstraat,31,,,6924BA,Loo Gld,Duiven,Gelderland,VBO,5.991218,51.928216
Eversstraat,33,a,,6924BA,Loo Gld,Duiven,Gelderland,VBO,5.991683,51.928214
Eversstraat,33,,,6924BA,Loo Gld,Duiven,Gelderland,VBO,5.991596,51.928214
Eversstraat,35,,,6924BA,Loo Gld,Duiven,Gelderland,VBO,5.991858,51.928222
Eversstraat,37,,,6924BA,Loo Gld,Duiven,Gelderland,VBO,5.992003,51.928230
Eversstraat,2,,,6924BB,Loo Gld,Duiven,Gelderland,VBO,5.988739,51.927681
Eversstraat,4,,,6924BB,Loo Gld,Duiven,Gelderland,VBO,5.988856,51.927698
Eversstraat,6,,,6924BB,Loo Gld,Duiven,Gelderland,VBO,5.989001,51.927724
Eversstraat,8,,,6924BB,Loo Gld,Duiven,Gelderland,VBO,5.989132,51.927742
Eversstraat,10,,,6924BB,Loo Gld,Duiven,Gelderland,VBO,5.989230,51.927462
Eversstraat,12,,,6924BB,Loo Gld,Duiven,Gelderland,VBO,5.989322,51.927768
Eversstraat,14,,,6924BB,Loo Gld,Duiven,Gelderland,VBO,5.989482,51.927794
Eversstraat,16,,,6924BB,Loo Gld,Duiven,Gelderland,VBO,5.989628,51.927829
Eversstraat,18,,,6924BB,Loo Gld,Duiven,Gelderland,VBO,5.989832,51.927855
Eversstraat,24,,,6924BB,Loo Gld,Duiven,Gelderland,VBO,5.990399,51.927888
Eversstraat,26,,,6924BB,Loo Gld,Duiven,Gelderland,VBO,5.990574,51.927905
Eversstraat,28,,,6924BB,Loo Gld,Duiven,Gelderland,VBO,5.990676,51.927904
Eversstraat,30,,,6924BB,Loo Gld,Duiven,Gelderland,VBO,5.990850,51.927886
Eversstraat,32,,,6924BB,Loo Gld,Duiven,Gelderland,VBO,5.991010,51.927903
Eversstraat,34,,,6924BB,Loo Gld,Duiven,Gelderland,VBO,5.991112,51.927902
Eversstraat,36,,,6924BB,Loo Gld,Duiven,Gelderland,VBO,5.991286,51.927910
Eversstraat,38,,,6924BB,Loo Gld,Duiven,Gelderland,VBO,5.991447,51.927936
Eversstraat,40,,,6924BB,Loo Gld,Duiven,Gelderland,VBO,5.991549,51.927945
Rijnstraat,2,,,6924BC,Loo Gld,Duiven,Gelderland,VBO,5.990276,51.928482
Rijnstraat,4,,,6924BC,Loo Gld,Duiven,Gelderland,VBO,5.990393,51.928508
Rijnstraat,8,,,6924BC,Loo Gld,Duiven,Gelderland,VBO,5.990801,51.928542
Rijnstraat,10,,,6924BC,Loo Gld,Duiven,Gelderland,VBO,5.990961,51.928559
Rijnstraat,12,,,6924BC,Loo Gld,Duiven,Gelderland,VBO,5.991150,51.928585
Rijnstraat,18,,,6924BC,Loo Gld,Duiven,Gelderland,VBO,5.992054,51.928742
Rijnstraat,20,,,6924BC,Loo Gld,Duiven,Gelderland,VBO,5.992320,51.928820
Rijnstraat,13,,,6924BD,Loo Gld,Duiven,Gelderland,VBO,5.990703,51.928866
Rijnstraat,15,,,6924BD,Loo Gld,Duiven,Gelderland,VBO,5.990878,51.928910
Rijnstraat,17,,,6924BD,Loo Gld,Duiven,Gelderland,VBO,5.991038,51.928918
Rijnstraat,19,,,6924BD,Loo Gld,Duiven,Gelderland,VBO,5.991366,51.928963
Rijnstraat,23,,,6924BD,Loo Gld,Duiven,Gelderland,VBO,5.991563,51.928987
Rijnstraat,25,,,6924BD,Loo Gld,Duiven,Gelderland,VBO,5.991665,51.928996
Rijnstraat,27,,,6924BD,Loo Gld,Duiven,Gelderland,VBO,5.991854,51.929031
Rijnstraat,29,,,6924BD,Loo Gld,Duiven,Gelderland,VBO,5.991941,51.929048
Angeroyen,1,,,6924BE,Loo Gld,Duiven,Gelderland,VBO,5.991800,51.929346
Angeroyen,3,,,6924BE,Loo Gld,Duiven,Gelderland,VBO,5.991713,51.929337
Angeroyen,5,,,6924BE,Loo Gld,Duiven,Gelderland,VBO,5.991553,51.929320
Angeroyen,7,,,6924BE,Loo Gld,Duiven,Gelderland,VBO,5.991436,51.929294
Angeroyen,9,,,6924BE,Loo Gld,Duiven,Gelderland,VBO,5.991276,51.929268
Angeroyen,11,,,6924BE,Loo Gld,Duiven,Gelderland,VBO,5.991174,51.929250
Angeroyen,13,,,6924BE,Loo Gld,Duiven,Gelderland,VBO,5.991013,51.929188
Angeroyen,15,,,6924BE,Loo Gld,Duiven,Gelderland,VBO,5.990911,51.929162
Angeroyen,17,,,6924BE,Loo Gld,Duiven,Gelderland,VBO,5.990721,51.929145
Angeroyen,19,,,6924BE,Loo Gld,Duiven,Gelderland,VBO,5.990634,51.929136
Angeroyen,2,,,6924BG,Loo Gld,Duiven,Gelderland,VBO,5.991818,51.929624
Angeroyen,4,,,6924BG,Loo Gld,Duiven,Gelderland,VBO,5.991716,51.929607
Angeroyen,6,,,6924BG,Loo Gld,Duiven,Gelderland,VBO,5.991629,51.929598
Angeroyen,8,,,6924BG,Loo Gld,Duiven,Gelderland,VBO,5.991556,51.929581
Angeroyen,10,,,6924BG,Loo Gld,Duiven,Gelderland,VBO,5.991381,51.929537
Angeroyen,12,,,6924BG,Loo Gld,Duiven,Gelderland,VBO,5.991308,51.929528
Angeroyen,14,,,6924BG,Loo Gld,Duiven,Gelderland,VBO,5.991250,51.929519
Angeroyen,16,,,6924BG,Loo Gld,Duiven,Gelderland,VBO,5.991177,51.929502
Angeroyen,18,,,6924BG,Loo Gld,Duiven,Gelderland,VBO,5.991104,51.929493
Angeroyen,20,,,6924BG,Loo Gld,Duiven,Gelderland,VBO,5.990900,51.929476
Angeroyen,22,,,6924BG,Loo Gld,Duiven,Gelderland,VBO,5.990813,51.929459
Angeroyen,24,,,6924BG,Loo Gld,Duiven,Gelderland,VBO,5.990740,51.929450
Angeroyen,26,,,6924BG,Loo Gld,Duiven,Gelderland,VBO,5.990638,51.929442
Angeroyen,28,,,6924BG,Loo Gld,Duiven,Gelderland,VBO,5.990551,51.929433
Angeroyen,30,,,6924BG,Loo Gld,Duiven,Gelderland,VBO,5.990333,51.929430
Angeroyen,32,,,6924BG,Loo Gld,Duiven,Gelderland,VBO,5.990260,51.929411
Angeroyen,34,,,6924BG,Loo Gld,Duiven,Gelderland,VBO,5.990172,51.929400
Angeroyen,36,,,6924BG,Loo Gld,Duiven,Gelderland,VBO,5.990082,51.929386
Cereslaan,2,,,6924BH,Loo Gld,Duiven,Gelderland,VBO,5.990258,51.929163
Cereslaan,4,,,6924BH,Loo Gld,Duiven,Gelderland,VBO,5.990271,51.929111
Cereslaan,6,,,6924BH,Loo Gld,Duiven,Gelderland,VBO,5.990288,51.929067
Cereslaan,8,,,6924BH,Loo Gld,Duiven,Gelderland,VBO,5.990306,51.929009
Cereslaan,10,,,6924BH,Loo Gld,Duiven,Gelderland,VBO,5.990333,51.928904
Cereslaan,12,,,6924BH,Loo Gld,Duiven,Gelderland,VBO,5.990347,51.928855
Cereslaan,14,,,6924BH,Loo Gld,Duiven,Gelderland,VBO,5.990368,51.928807
Cereslaan,16,,,6924BH,Loo Gld,Duiven,Gelderland,VBO,5.990383,51.928759
't Grieth,1,,,6924BJ,Loo Gld,Duiven,Gelderland,VBO,5.987878,51.928503
't Grieth,3,,,6924BJ,Loo Gld,Duiven,Gelderland,VBO,5.987892,51.928449
't Grieth,4,,,6924BJ,Loo Gld,Duiven,Gelderland,VBO,5.987457,51.928541
't Grieth,6,,,6924BJ,Loo Gld,Duiven,Gelderland,VBO,5.987528,51.928424
't Grieth,8,,,6924BJ,Loo Gld,Duiven,Gelderland,VBO,5.987667,51.927983
't Grieth,10,,,6924BJ,Loo Gld,Duiven,Gelderland,VBO,5.987141,51.927761
't Grieth,12,,,6924BJ,Loo Gld,Duiven,Gelderland,VBO,5.987840,51.927838
't Grieth,14,,,6924BJ,Loo Gld,Duiven,Gelderland,VBO,5.987941,51.927793
Willem Tellstraat,1,,,6924BK,Loo Gld,Duiven,Gelderland,VBO,5.991501,51.928709
Willem Tellstraat,3,,,6924BK,Loo Gld,Duiven,Gelderland,VBO,5.991500,51.928646
Willem Tellstraat,5,,,6924BK,Loo Gld,Duiven,Gelderland,VBO,5.991542,51.928511
Willem Tellstraat,7,,,6924BK,Loo Gld,Duiven,Gelderland,VBO,5.991555,51.928439
Binnenwei,1,,,6924BL,Loo Gld,Duiven,Gelderland,VBO,5.988283,51.927318
Binnenwei,3,,,6924BL,Loo Gld,Duiven,Gelderland,VBO,5.988347,51.927334
Binnenwei,5,,,6924BL,Loo Gld,Duiven,Gelderland,VBO,5.988313,51.927288
Binnenwei,7,,,6924BL,Loo Gld,Duiven,Gelderland,VBO,5.988371,51.927307
Binnenwei,9,,,6924BL,Loo Gld,Duiven,Gelderland,VBO,5.988380,51.927230
Binnenwei,11,,,6924BL,Loo Gld,Duiven,Gelderland,VBO,5.988424,51.927254
Binnenwei,13,,,6924BL,Loo Gld,Duiven,Gelderland,VBO,5.988347,51.927257
Binnenwei,15,,,6924BL,Loo Gld,Duiven,Gelderland,VBO,5.988396,51.927278
Binnenwei,21,,,6924BL,Loo Gld,Duiven,Gelderland,VBO,5.988783,51.927060
Binnenwei,23,,,6924BL,Loo Gld,Duiven,Gelderland,VBO,5.988841,51.927027
Binnenwei,25,,,6924BL,Loo Gld,Duiven,Gelderland,VBO,5.989034,51.926981
Binnenwei,27,,,6924BL,Loo Gld,Duiven,Gelderland,VBO,5.989096,51.926964
Binnenwei,29,,,6924BL,Loo Gld,Duiven,Gelderland,VBO,5.989159,51.926948
Binnenwei,31,,,6924BL,Loo Gld,Duiven,Gelderland,VBO,5.989335,51.926926
Binnenwei,33,,,6924BL,Loo Gld,Duiven,Gelderland,VBO,5.989406,51.926920
Binnenwei,35,,,6924BL,Loo Gld,Duiven,Gelderland,VBO,5.989469,51.926914
Binnenwei,37,,,6924BL,Loo Gld,Duiven,Gelderland,VBO,5.989558,51.926911
Binnenwei,39,,,6924BL,Loo Gld,Duiven,Gelderland,VBO,5.989775,51.926773
Binnenwei,41,,,6924BL,Loo Gld,Duiven,Gelderland,VBO,5.989968,51.926775
Binnenwei,43,,,6924BL,Loo Gld,Duiven,Gelderland,VBO,5.989961,51.927054
Binnenwei,45,,,6924BL,Loo Gld,Duiven,Gelderland,VBO,5.989977,51.927467
Binnenwei,47,,,6924BL,Loo Gld,Duiven,Gelderland,VBO,5.989946,51.927586
Binnenwei,2,,,6924BM,Loo Gld,Duiven,Gelderland,VBO,5.987597,51.927443
Binnenwei,4,,,6924BM,Loo Gld,Duiven,Gelderland,VBO,5.988300,51.927531
Binnenwei,6,,,6924BM,Loo Gld,Duiven,Gelderland,VBO,5.988160,51.927473
Binnenwei,10,,,6924BM,Loo Gld,Duiven,Gelderland,VBO,5.987652,51.927142
Binnenwei,12,,,6924BM,Loo Gld,Duiven,Gelderland,VBO,5.987747,51.926964
Binnenwei,14,,,6924BM,Loo Gld,Duiven,Gelderland,VBO,5.988071,51.926991
Binnenwei,16,,,6924BM,Loo Gld,Duiven,Gelderland,VBO,5.987798,51.926901
Binnenwei,18,,,6924BM,Loo Gld,Duiven,Gelderland,VBO,5.987981,51.926701
Binnenwei,20,,,6924BM,Loo Gld,Duiven,Gelderland,VBO,5.988288,51.926836
Binnenwei,22,,,6924BM,Loo Gld,Duiven,Gelderland,VBO,5.988345,51.926809
Binnenwei,24,,,6924BM,Loo Gld,Duiven,Gelderland,VBO,5.988409,51.926775
Binnenwei,26,,,6924BM,Loo Gld,Duiven,Gelderland,VBO,5.988463,51.926746
Binnenwei,28,,,6924BM,Loo Gld,Duiven,Gelderland,VBO,5.988065,51.926612
Binnenwei,30,,,6924BM,Loo Gld,Duiven,Gelderland,VBO,5.988234,51.926426
Binnenwei,32,,,6924BM,Loo Gld,Duiven,Gelderland,VBO,5.988847,51.926600
Binnenwei,34,,,6924BM,Loo Gld,Duiven,Gelderland,VBO,5.988725,51.926432
Binnenwei,36,,,6924BM,Loo Gld,Duiven,Gelderland,VBO,5.988502,51.926186
Binnenwei,38,,,6924BM,Loo Gld,Duiven,Gelderland,VBO,5.988778,51.925897
Binnenwei,40,,,6924BM,Loo Gld,Duiven,Gelderland,VBO,5.988800,51.926063
Binnenwei,42,,,6924BM,Loo Gld,Duiven,Gelderland,VBO,5.988943,51.926216
Binnenwei,44,,,6924BM,Loo Gld,Duiven,Gelderland,VBO,5.989090,51.926320
Binnenwei,46,,,6924BM,Loo Gld,Duiven,Gelderland,VBO,5.989132,51.926376
Binnenwei,48,,,6924BM,Loo Gld,Duiven,Gelderland,VBO,5.989219,51.926561
Binnenwei,50,,,6924BM,Loo Gld,Duiven,Gelderland,VBO,5.989521,51.926538
Binnenwei,52,,,6924BM,Loo Gld,Duiven,Gelderland,VBO,5.989598,51.926537
Binnenwei,54,,,6924BM,Loo Gld,Duiven,Gelderland,VBO,5.989841,51.926531
Binnenwei,56,,,6924BM,Loo Gld,Duiven,Gelderland,VBO,5.989952,51.926532
De Kloosterhof,1,,,6924CA,Loo Gld,Duiven,Gelderland,VBO,6.000832,51.938610
De Kloosterhof,2,,,6924CA,Loo Gld,Duiven,Gelderland,VBO,6.000579,51.938573
De Kloosterhof,3,,,6924CA,Loo Gld,Duiven,Gelderland,VBO,6.000413,51.938891
De Kloosterhof,4,,,6924CA,Loo Gld,Duiven,Gelderland,VBO,6.000829,51.938963
De Kloosterhof,5,,,6924CA,Loo Gld,Duiven,Gelderland,VBO,6.000988,51.938907
Schuttersveld,1,,,6924CB,Loo Gld,Duiven,Gelderland,VBO,5.984639,51.930105
Schuttersveld,3,,,6924CB,Loo Gld,Duiven,Gelderland,VBO,5.984626,51.930154
Schuttersveld,5,,,6924CB,Loo Gld,Duiven,Gelderland,VBO,5.984613,51.930203
Schuttersveld,7,,,6924CB,Loo Gld,Duiven,Gelderland,VBO,5.984596,51.930252
Schuttersveld,9,,,6924CB,Loo Gld,Duiven,Gelderland,VBO,5.984587,51.930301
Schuttersveld,19,,,6924CB,Loo Gld,Duiven,Gelderland,VBO,5.984192,51.930833
Schuttersveld,21,,,6924CB,Loo Gld,Duiven,Gelderland,VBO,5.984178,51.930879
Schuttersveld,23,,,6924CB,Loo Gld,Duiven,Gelderland,VBO,5.984167,51.930926
Schuttersveld,25,,,6924CB,Loo Gld,Duiven,Gelderland,VBO,5.984154,51.930977
Schuttersveld,8,,,6924CC,Loo Gld,Duiven,Gelderland,VBO,5.984702,51.930602
Schuttersveld,10,,,6924CC,Loo Gld,Duiven,Gelderland,VBO,5.984692,51.930649
Schuttersveld,12,,,6924CC,Loo Gld,Duiven,Gelderland,VBO,5.984678,51.930698
Schuttersveld,14,,,6924CC,Loo Gld,Duiven,Gelderland,VBO,5.984667,51.930747
Schuttersveld,16,,,6924CC,Loo Gld,Duiven,Gelderland,VBO,5.984654,51.930796
Schuttersveld,18,,,6924CC,Loo Gld,Duiven,Gelderland,VBO,5.984966,51.930815
Schuttersveld,20,,,6924CC,Loo Gld,Duiven,Gelderland,VBO,5.985066,51.930815
Loodijk,12,,,6924SB,Loo Gld,Duiven,Gelderland,VBO,5.969902,51.935910
Loodijk,14,,,6924SB,Loo Gld,Duiven,Gelderland,VBO,5.969506,51.936793
Loodijk,15,,,6924SB,Loo Gld,Duiven,Gelderland,VBO,5.970204,51.937931
Looveerweg,1,,,6924SB,Loo Gld,Duiven,Gelderland,VBO,5.967084,51.937496
Looveerweg,2,,,6924SB,Loo Gld,Duiven,Gelderland,VBO,5.966935,51.937680
Looveerweg,3,,,6924SB,Loo Gld,Duiven,Gelderland,VBO,5.966567,51.937787
Loodijk,5,,,6924SC,Loo Gld,Duiven,Gelderland,VBO,5.976704,51.930813
Loodijk,6,,,6924SC,Loo Gld,Duiven,Gelderland,VBO,5.975496,51.931145
Loodijk,7,,,6924SC,Loo Gld,Duiven,Gelderland,VBO,5.974812,51.934714
Loodijk,8,,,6924SC,Loo Gld,Duiven,Gelderland,VBO,5.974657,51.932633
Loodijk,9,,,6924SC,Loo Gld,Duiven,Gelderland,VBO,5.974786,51.931347
Loodijk,10,,,6924SC,Loo Gld,Duiven,Gelderland,VBO,5.973654,51.931541
Loodijk,11,,,6924SC,Loo Gld,Duiven,Gelderland,VBO,5.972311,51.932177
Loodijk,17,,,6924SC,Loo Gld,Duiven,Gelderland,VBO,5.973217,51.940379
Middelwaard,1,,,6924SE,Loo Gld,Lingewaard,Gelderland,VBO,5.967670,51.930879
Middelwaard,2,,,6924SE,Loo Gld,Lingewaard,Gelderland,VBO,5.968419,51.930300
Loowaard,1,,,6924SG,Loo Gld,Duiven,Gelderland,VBO,5.988755,51.922368
