openbareruimtenaam,huisnummer,huisletter,huisnummertoevoeging,postcode,woonplaatsnaam,gemeentenaam,provincienaam,typeadresseerbaarobject,longitude,latitude
Dorpsstraat,7,,,6964AA,Hall,Brummen,Gelderland,VBO,6.104546,52.113203
Dorpsstraat,9,,,6964AA,Hall,Brummen,Gelderland,VBO,6.103307,52.113600
Dorpsstraat,11,,,6964AA,Hall,Brummen,Gelderland,VBO,6.102878,52.113496
Dorpsstraat,19,,,6964AA,Hall,Brummen,Gelderland,VBO,6.102196,52.113425
Dorpsstraat,21,,,6964AA,Hall,Brummen,Gelderland,VBO,6.101934,52.113335
Dorpsstraat,25,,,6964AA,Hall,Brummen,Gelderland,VBO,6.101704,52.113316
Dorpsstraat,27,,,6964AA,Hall,Brummen,Gelderland,VBO,6.101621,52.113293
Dorpsstraat,29,,,6964AA,Hall,Brummen,Gelderland,VBO,6.101249,52.113203
Dorpsstraat,31,,,6964AA,Hall,Brummen,Gelderland,VBO,6.101310,52.112992
Dorpsstraat,33,,,6964AA,Hall,Brummen,Gelderland,VBO,6.101500,52.112840
Dorpsstraat,35,,,6964AA,Hall,Brummen,Gelderland,VBO,6.101647,52.112718
Dorpsstraat,37,A,,6964AA,Hall,Brummen,Gelderland,VBO,6.101834,52.112655
Dorpsstraat,37,B,,6964AA,Hall,Brummen,Gelderland,VBO,6.101953,52.112574
Dorpsstraat,37,,,6964AA,Hall,Brummen,Gelderland,VBO,6.101775,52.112628
Dorpsstraat,39,,,6964AA,Hall,Brummen,Gelderland,VBO,6.102273,52.112388
Dorpsstraat,41,,,6964AA,Hall,Brummen,Gelderland,VBO,6.102647,52.112184
Dorpsstraat,53,,,6964AA,Hall,Brummen,Gelderland,VBO,6.104589,52.111981
Dorpsstraat,55,,,6964AA,Hall,Brummen,Gelderland,VBO,6.104684,52.111842
Dorpsstraat,57,,,6964AA,Hall,Brummen,Gelderland,VBO,6.104077,52.111178
Dorpsstraat,2,,,6964AB,Hall,Brummen,Gelderland,VBO,6.105231,52.113989
Dorpsstraat,6,,,6964AB,Hall,Brummen,Gelderland,VBO,6.104476,52.114107
Dorpsstraat,14,,,6964AB,Hall,Brummen,Gelderland,VBO,6.103573,52.114187
Dorpsstraat,16,,,6964AB,Hall,Brummen,Gelderland,VBO,6.103284,52.114104
Dorpsstraat,20,,,6964AB,Hall,Brummen,Gelderland,VBO,6.103017,52.114000
Dorpsstraat,22,A,,6964AB,Hall,Brummen,Gelderland,VBO,6.102809,52.113922
Dorpsstraat,22,,,6964AB,Hall,Brummen,Gelderland,VBO,6.102897,52.113948
Dorpsstraat,26,,,6964AB,Hall,Brummen,Gelderland,VBO,6.102460,52.113851
Dorpsstraat,28,,,6964AB,Hall,Brummen,Gelderland,VBO,6.102384,52.113834
Dorpsstraat,32,,,6964AB,Hall,Brummen,Gelderland,VBO,6.102259,52.113750
Dorpsstraat,34,,,6964AB,Hall,Brummen,Gelderland,VBO,6.102125,52.113714
Dorpsstraat,36,A,,6964AB,Hall,Brummen,Gelderland,VBO,6.101978,52.113674
Dorpsstraat,36,,,6964AB,Hall,Brummen,Gelderland,VBO,6.101769,52.113619
Dorpsstraat,38,,,6964AB,Hall,Brummen,Gelderland,VBO,6.101440,52.113554
Dorpsstraat,40,,,6964AB,Hall,Brummen,Gelderland,VBO,6.101124,52.113586
Dorpsstraat,42,,,6964AC,Hall,Brummen,Gelderland,VBO,6.100741,52.112842
Dorpsstraat,44,,,6964AC,Hall,Brummen,Gelderland,VBO,6.100998,52.112705
Dorpsstraat,46,,,6964AC,Hall,Brummen,Gelderland,VBO,6.101107,52.112665
Dorpsstraat,48,,,6964AC,Hall,Brummen,Gelderland,VBO,6.101254,52.112500
Dorpsstraat,54,,,6964AC,Hall,Brummen,Gelderland,VBO,6.101632,52.112181
Dorpsstraat,58,,,6964AC,Hall,Brummen,Gelderland,VBO,6.102304,52.111966
Dorpsstraat,62,,,6964AC,Hall,Brummen,Gelderland,VBO,6.102705,52.111708
Dorpsstraat,64,,,6964AC,Hall,Brummen,Gelderland,VBO,6.102877,52.111499
Dorpsstraat,68,,,6964AC,Hall,Brummen,Gelderland,VBO,6.103177,52.111231
Dorpsstraat,70,,,6964AC,Hall,Brummen,Gelderland,VBO,6.103310,52.111109
Dorpsstraat,72,,,6964AC,Hall,Brummen,Gelderland,VBO,6.103479,52.110909
Slatweg,1,,,6964AD,Hall,Brummen,Gelderland,VBO,6.100406,52.113209
Slatweg,2,,,6964AD,Hall,Brummen,Gelderland,VBO,6.100597,52.113561
Slatweg,3,,,6964AD,Hall,Brummen,Gelderland,VBO,6.100361,52.113254
Slatweg,4,A,,6964AD,Hall,Brummen,Gelderland,VBO,6.100169,52.113859
Slatweg,4,,,6964AD,Hall,Brummen,Gelderland,VBO,6.100205,52.113725
Slatweg,5,,,6964AD,Hall,Brummen,Gelderland,VBO,6.100250,52.113336
Slatweg,6,,,6964AD,Hall,Brummen,Gelderland,VBO,6.099943,52.113870
Slatweg,7,,,6964AD,Hall,Brummen,Gelderland,VBO,6.100139,52.113463
Slatweg,9,,,6964AD,Hall,Brummen,Gelderland,VBO,6.099899,52.113550
Slatweg,11,,,6964AD,Hall,Brummen,Gelderland,VBO,6.099707,52.113588
Slatweg,13,,,6964AD,Hall,Brummen,Gelderland,VBO,6.099425,52.113596
Slatweg,15,A,,6964AD,Hall,Brummen,Gelderland,VBO,6.096906,52.113377
Slatweg,15,,,6964AD,Hall,Brummen,Gelderland,VBO,6.097108,52.113363
Slatweg,17,,,6964AD,Hall,Brummen,Gelderland,VBO,6.095944,52.116129
Zwarteweg,10,,,6964AE,Hall,Brummen,Gelderland,VBO,6.099776,52.112885
Zwarteweg,12,,,6964AE,Hall,Brummen,Gelderland,VBO,6.099720,52.112845
Zwarteweg,20,,,6964AE,Hall,Brummen,Gelderland,VBO,6.099357,52.112356
Zwarteweg,21,,,6964AE,Hall,Brummen,Gelderland,VBO,6.099389,52.111693
Zwarteweg,22,,,6964AE,Hall,Brummen,Gelderland,VBO,6.098971,52.112398
Zwarteweg,23,,,6964AE,Hall,Brummen,Gelderland,VBO,6.099694,52.111192
Zwarteweg,25,,,6964AE,Hall,Brummen,Gelderland,VBO,6.099609,52.111174
Zwarteweg,26,,,6964AE,Hall,Brummen,Gelderland,VBO,6.099246,52.112108
Zwarteweg,28,,,6964AE,Hall,Brummen,Gelderland,VBO,6.099200,52.112025
Zwarteweg,29,,,6964AE,Hall,Brummen,Gelderland,VBO,6.098002,52.110882
Zwarteweg,31,,,6964AE,Hall,Brummen,Gelderland,VBO,6.097905,52.110837
Zwarteweg,35,,,6964AE,Hall,Brummen,Gelderland,VBO,6.097205,52.109575
Zwarteweg,44,,,6964AE,Hall,Brummen,Gelderland,VBO,6.093747,52.108979
Zwarteweg,46,,,6964AE,Hall,Brummen,Gelderland,VBO,6.090902,52.109707
Zwarteweg,48,,,6964AE,Hall,Brummen,Gelderland,VBO,6.092716,52.107995
Zwarteweg,50,,,6964AE,Hall,Brummen,Gelderland,VBO,6.092667,52.107944
Zwarteweg,52,,,6964AE,Hall,Brummen,Gelderland,VBO,6.089373,52.108240
Domineeskamp,1,A,,6964AG,Hall,Brummen,Gelderland,VBO,6.101154,52.110373
Domineeskamp,1,,,6964AG,Hall,Brummen,Gelderland,VBO,6.101108,52.110460
Domineeskamp,3,,,6964AG,Hall,Brummen,Gelderland,VBO,6.101085,52.110512
Domineeskamp,5,,,6964AG,Hall,Brummen,Gelderland,VBO,6.100975,52.110640
Domineeskamp,7,,,6964AG,Hall,Brummen,Gelderland,VBO,6.100945,52.110694
Domineeskamp,9,,,6964AG,Hall,Brummen,Gelderland,VBO,6.100864,52.110825
Domineeskamp,11,,,6964AG,Hall,Brummen,Gelderland,VBO,6.100793,52.110874
Domineeskamp,13,,,6964AG,Hall,Brummen,Gelderland,VBO,6.100768,52.111015
Domineeskamp,15,,,6964AG,Hall,Brummen,Gelderland,VBO,6.100736,52.111078
Domineeskamp,17,,,6964AG,Hall,Brummen,Gelderland,VBO,6.100627,52.111197
Domineeskamp,19,,,6964AG,Hall,Brummen,Gelderland,VBO,6.100566,52.111319
Domineeskamp,21,,,6964AG,Hall,Brummen,Gelderland,VBO,6.100454,52.111500
Domineeskamp,27,,,6964AG,Hall,Brummen,Gelderland,VBO,6.100339,52.111611
Domineeskamp,29,,,6964AG,Hall,Brummen,Gelderland,VBO,6.100042,52.111696
Domineeskamp,31,,,6964AG,Hall,Brummen,Gelderland,VBO,6.099850,52.111810
Domineeskamp,33,,,6964AG,Hall,Brummen,Gelderland,VBO,6.099577,52.111893
Domineeskamp,2,,,6964AH,Hall,Brummen,Gelderland,VBO,6.101528,52.110517
Domineeskamp,4,,,6964AH,Hall,Brummen,Gelderland,VBO,6.101500,52.110563
Domineeskamp,6,,,6964AH,Hall,Brummen,Gelderland,VBO,6.101468,52.110611
Domineeskamp,8,,,6964AH,Hall,Brummen,Gelderland,VBO,6.101322,52.110825
Domineeskamp,10,,,6964AH,Hall,Brummen,Gelderland,VBO,6.101282,52.110939
Domineeskamp,12,,,6964AH,Hall,Brummen,Gelderland,VBO,6.100891,52.111906
Domineeskamp,14,,,6964AH,Hall,Brummen,Gelderland,VBO,6.101075,52.112031
Domineeskamp,30,,,6964AH,Hall,Brummen,Gelderland,VBO,6.101086,52.112389
Domineeskamp,32,,,6964AH,Hall,Brummen,Gelderland,VBO,6.101023,52.112349
Domineeskamp,34,,,6964AH,Hall,Brummen,Gelderland,VBO,6.100907,52.112286
Domineeskamp,36,,,6964AH,Hall,Brummen,Gelderland,VBO,6.100846,52.112246
Domineeskamp,38,,,6964AH,Hall,Brummen,Gelderland,VBO,6.100732,52.112171
Domineeskamp,40,,,6964AH,Hall,Brummen,Gelderland,VBO,6.100684,52.112126
Domineeskamp,42,,,6964AH,Hall,Brummen,Gelderland,VBO,6.100533,52.112024
Hallseweg,19,,,6964AJ,Hall,Brummen,Gelderland,VBO,6.086649,52.105556
Hallseweg,21,,,6964AJ,Hall,Brummen,Gelderland,VBO,6.086943,52.105938
Hallseweg,23,,,6964AJ,Hall,Brummen,Gelderland,VBO,6.087846,52.106368
Hallseweg,25,,,6964AJ,Hall,Brummen,Gelderland,VBO,6.088522,52.106094
Hallseweg,35,,,6964AJ,Hall,Brummen,Gelderland,VBO,6.089979,52.106612
Hallseweg,37,,,6964AJ,Hall,Brummen,Gelderland,VBO,6.095346,52.108029
Hallseweg,41,,,6964AJ,Hall,Brummen,Gelderland,VBO,6.097190,52.108683
Hallseweg,43,A,,6964AJ,Hall,Brummen,Gelderland,VBO,6.097203,52.109024
Hallseweg,43,,,6964AJ,Hall,Brummen,Gelderland,VBO,6.097422,52.108772
Hallseweg,45,,,6964AJ,Hall,Brummen,Gelderland,VBO,6.097479,52.108789
Hallseweg,47,,,6964AJ,Hall,Brummen,Gelderland,VBO,6.097670,52.108860
Hallseweg,49,,,6964AJ,Hall,Brummen,Gelderland,VBO,6.097731,52.108876
Hallseweg,51,,,6964AJ,Hall,Brummen,Gelderland,VBO,6.097914,52.108962
Hallseweg,53,,,6964AJ,Hall,Brummen,Gelderland,VBO,6.097981,52.108978
Hallseweg,55,,,6964AJ,Hall,Brummen,Gelderland,VBO,6.098182,52.109043
Hallseweg,57,,,6964AJ,Hall,Brummen,Gelderland,VBO,6.098384,52.109122
Hallseweg,59,,,6964AK,Hall,Brummen,Gelderland,VBO,6.098586,52.109209
Hallseweg,61,,,6964AK,Hall,Brummen,Gelderland,VBO,6.098670,52.109233
Hallseweg,63,,,6964AK,Hall,Brummen,Gelderland,VBO,6.098936,52.109316
Hallseweg,65,,,6964AK,Hall,Brummen,Gelderland,VBO,6.099128,52.109384
Hallseweg,67,A,,6964AK,Hall,Brummen,Gelderland,VBO,6.099193,52.109650
Hallseweg,67,,,6964AK,Hall,Brummen,Gelderland,VBO,6.099357,52.109463
Hallseweg,69,,,6964AK,Hall,Brummen,Gelderland,VBO,6.099456,52.109498
Hallseweg,71,,,6964AK,Hall,Brummen,Gelderland,VBO,6.099618,52.109584
Hallseweg,73,,,6964AK,Hall,Brummen,Gelderland,VBO,6.099695,52.109595
Hallseweg,75,,,6964AK,Hall,Brummen,Gelderland,VBO,6.099977,52.109667
Hallseweg,77,,,6964AK,Hall,Brummen,Gelderland,VBO,6.100153,52.109727
Hallseweg,79,,,6964AK,Hall,Brummen,Gelderland,VBO,6.100338,52.109780
Hallseweg,81,,,6964AK,Hall,Brummen,Gelderland,VBO,6.100419,52.109808
Hallseweg,87,,,6964AL,Hall,Brummen,Gelderland,VBO,6.100897,52.110088
Hallseweg,89,,,6964AL,Hall,Brummen,Gelderland,VBO,6.100985,52.110123
Hallseweg,91,,,6964AL,Hall,Brummen,Gelderland,VBO,6.101165,52.110195
Hallseweg,93,,,6964AL,Hall,Brummen,Gelderland,VBO,6.101254,52.110236
Hallseweg,105,,,6964AL,Hall,Brummen,Gelderland,VBO,6.101761,52.110303
Hallseweg,107,,,6964AL,Hall,Brummen,Gelderland,VBO,6.101953,52.110362
Hallseweg,109,,,6964AL,Hall,Brummen,Gelderland,VBO,6.102291,52.110442
Hallseweg,111,,,6964AL,Hall,Brummen,Gelderland,VBO,6.102496,52.110515
Hallseweg,113,A,,6964AL,Hall,Brummen,Gelderland,VBO,6.102836,52.110577
Hallseweg,113,,,6964AL,Hall,Brummen,Gelderland,VBO,6.102696,52.110560
Hallseweg,115,,,6964AL,Hall,Brummen,Gelderland,VBO,6.103027,52.110640
Hallseweg,10,,,6964AM,Hall,Brummen,Gelderland,VBO,6.088674,52.104719
Hallseweg,12,,,6964AM,Hall,Brummen,Gelderland,VBO,6.089734,52.105943
Hallseweg,16,,,6964AM,Hall,Brummen,Gelderland,VBO,6.092496,52.106793
Hallseweg,20,,,6964AM,Hall,Brummen,Gelderland,VBO,6.096404,52.106388
Hallseweg,26,,,6964AM,Hall,Brummen,Gelderland,VBO,6.103265,52.110372
Hallseweg,28,A,,6964AM,Hall,Brummen,Gelderland,VBO,6.103501,52.110316
Hallseweg,28,,,6964AM,Hall,Brummen,Gelderland,VBO,6.103498,52.110414
Liudgerspad,4,,,6964AN,Hall,Brummen,Gelderland,VBO,6.110789,52.111872
C.J. van Doornstraat,1,,,6964AP,Hall,Brummen,Gelderland,VBO,6.101575,52.110900
C.J. van Doornstraat,3,,,6964AP,Hall,Brummen,Gelderland,VBO,6.101666,52.110919
C.J. van Doornstraat,5,,,6964AP,Hall,Brummen,Gelderland,VBO,6.101918,52.111045
C.J. van Doornstraat,7,,,6964AP,Hall,Brummen,Gelderland,VBO,6.101881,52.111091
C.J. van Doornstraat,2,,,6964AR,Hall,Brummen,Gelderland,VBO,6.101779,52.110681
C.J. van Doornstraat,4,,,6964AR,Hall,Brummen,Gelderland,VBO,6.101848,52.110700
C.J. van Doornstraat,6,,,6964AR,Hall,Brummen,Gelderland,VBO,6.101915,52.110717
C.J. van Doornstraat,8,,,6964AR,Hall,Brummen,Gelderland,VBO,6.101983,52.110736
C.J. van Doornstraat,10,,,6964AR,Hall,Brummen,Gelderland,VBO,6.102108,52.110798
C.J. van Doornstraat,12,,,6964AR,Hall,Brummen,Gelderland,VBO,6.102172,52.110812
C.J. van Doornstraat,14,,,6964AR,Hall,Brummen,Gelderland,VBO,6.102247,52.110829
C.J. van Doornstraat,16,,,6964AR,Hall,Brummen,Gelderland,VBO,6.102304,52.110841
C.J. van Doornstraat,18,,,6964AR,Hall,Brummen,Gelderland,VBO,6.102539,52.110970
C.J. van Doornstraat,20,,,6964AR,Hall,Brummen,Gelderland,VBO,6.102512,52.111022
C.J. van Doornstraat,22,,,6964AR,Hall,Brummen,Gelderland,VBO,6.102483,52.111070
C.J. van Doornstraat,24,,,6964AR,Hall,Brummen,Gelderland,VBO,6.102448,52.111121
C.J. van Doornstraat,26,,,6964AR,Hall,Brummen,Gelderland,VBO,6.102416,52.111170
Haagenstraatje,3,,,6964AS,Hall,Brummen,Gelderland,VBO,6.100741,52.114120
Vosstraat,16,,,6964BA,Hall,Brummen,Gelderland,VBO,6.122748,52.115234
Vosstraat,18,A,,6964BA,Hall,Brummen,Gelderland,VBO,6.117772,52.114317
Vosstraat,18,B,,6964BA,Hall,Brummen,Gelderland,VBO,6.118071,52.114340
Vosstraat,18,C,,6964BA,Hall,Brummen,Gelderland,VBO,6.118552,52.114400
Vosstraat,18,,,6964BA,Hall,Brummen,Gelderland,VBO,6.117829,52.114337
Vosstraat,19,,,6964BA,Hall,Brummen,Gelderland,VBO,6.121920,52.114411
Vosstraat,20,B,,6964BA,Hall,Brummen,Gelderland,VBO,6.115044,52.113983
Vosstraat,20,C,,6964BA,Hall,Brummen,Gelderland,VBO,6.114987,52.114147
Vosstraat,20,,,6964BA,Hall,Brummen,Gelderland,VBO,6.115544,52.113952
Vosstraat,21,A,,6964BA,Hall,Brummen,Gelderland,VBO,6.121861,52.114310
Vosstraat,21,,,6964BA,Hall,Brummen,Gelderland,VBO,6.121833,52.114403
Vosstraat,23,A,,6964BA,Hall,Brummen,Gelderland,VBO,6.120570,52.113300
Vosstraat,23,,,6964BA,Hall,Brummen,Gelderland,VBO,6.120789,52.113577
Vosstraat,25,,,6964BA,Hall,Brummen,Gelderland,VBO,6.116766,52.113774
Vosstraat,27,,,6964BA,Hall,Brummen,Gelderland,VBO,6.112850,52.113115
Vosstraat,22,,,6964BB,Hall,Brummen,Gelderland,VBO,6.113656,52.115879
Vosstraat,24,,,6964BB,Hall,Brummen,Gelderland,VBO,6.111389,52.113853
Vosstraat,26,,,6964BB,Hall,Brummen,Gelderland,VBO,6.109669,52.114650
Vosstraat,28,A,,6964BB,Hall,Brummen,Gelderland,VBO,6.107656,52.113809
Vosstraat,28,,,6964BB,Hall,Brummen,Gelderland,VBO,6.107657,52.113877
Vosstraat,30,,,6964BB,Hall,Brummen,Gelderland,VBO,6.107891,52.115259
Vosstraat,33,,,6964BB,Hall,Brummen,Gelderland,VBO,6.109752,52.113560
Kikvorsenstraat,1,A,,6964BC,Hall,Brummen,Gelderland,VBO,6.103668,52.108859
Kikvorsenstraat,1,,,6964BC,Hall,Brummen,Gelderland,VBO,6.103499,52.108877
Kikvorsenstraat,3,,,6964BC,Hall,Brummen,Gelderland,VBO,6.104023,52.109022
Kikvorsenstraat,5,,,6964BC,Hall,Brummen,Gelderland,VBO,6.107288,52.109478
Kikvorsenstraat,6,,,6964BC,Hall,Brummen,Gelderland,VBO,6.112572,52.113284
Kikvorsenstraat,7,,,6964BC,Hall,Brummen,Gelderland,VBO,6.108570,52.110410
Kikvorsenstraat,13,,,6964BC,Hall,Brummen,Gelderland,VBO,6.110914,52.111863
Kikvorsenstraat,15,,,6964BC,Hall,Brummen,Gelderland,VBO,6.111440,52.112254
Hogestraat,1,,,6964BD,Hall,Brummen,Gelderland,VBO,6.098163,52.103060
Hogestraat,2,,,6964BD,Hall,Brummen,Gelderland,VBO,6.100481,52.106136
Hogestraat,3,,,6964BD,Hall,Brummen,Gelderland,VBO,6.098169,52.105485
Hogestraat,5,,,6964BD,Hall,Brummen,Gelderland,VBO,6.101517,52.108435
Kaniestraat,6,A,,6964BE,Hall,Brummen,Gelderland,VBO,6.122902,52.108369
Kaniestraat,8,,,6964BE,Hall,Brummen,Gelderland,VBO,6.104130,52.105761
Kaniestraat,10,,,6964BE,Hall,Brummen,Gelderland,VBO,6.104048,52.105756
Rhienderensestraat,21,,,6964BG,Hall,Brummen,Gelderland,VBO,6.113847,52.100917
Rhienderensestraat,22,,,6964BG,Hall,Brummen,Gelderland,VBO,6.114951,52.103318
Rhienderensestraat,23,,,6964BG,Hall,Brummen,Gelderland,VBO,6.112529,52.100677
Rhienderensestraat,24,,,6964BG,Hall,Brummen,Gelderland,VBO,6.114848,52.103318
Rhienderensestraat,25,A,,6964BG,Hall,Brummen,Gelderland,VBO,6.111923,52.100468
Rhienderensestraat,25,,,6964BG,Hall,Brummen,Gelderland,VBO,6.111873,52.100528
Rhienderensestraat,29,A,,6964BG,Hall,Brummen,Gelderland,VBO,6.100759,52.101985
Rhienderensestraat,29,,,6964BG,Hall,Brummen,Gelderland,VBO,6.100847,52.101937
Rhienderensestraat,31,,,6964BG,Hall,Brummen,Gelderland,VBO,6.099933,52.100614
Rhienderensestraat,28,,,6964BH,Hall,Brummen,Gelderland,VBO,6.094239,52.103126
Rhienderensestraat,30,,,6964BH,Hall,Brummen,Gelderland,VBO,6.087721,52.103864
Rhienderensestraat,33,,,6964BH,Hall,Brummen,Gelderland,VBO,6.096140,52.102380
Rhienderensestraat,35,,,6964BH,Hall,Brummen,Gelderland,VBO,6.095985,52.102425
Rhienderensestraat,37,A,,6964BH,Hall,Brummen,Gelderland,VBO,6.092723,52.101173
Rhienderensestraat,37,,,6964BH,Hall,Brummen,Gelderland,VBO,6.095044,52.102586
Rhienderensestraat,39,A,,6964BH,Hall,Brummen,Gelderland,VBO,6.094018,52.101787
Rhienderensestraat,39,,,6964BH,Hall,Brummen,Gelderland,VBO,6.094148,52.101770
Rhienderensestraat,41,,,6964BH,Hall,Brummen,Gelderland,VBO,6.093321,52.102268
Rhienderensestraat,43,,,6964BH,Hall,Brummen,Gelderland,VBO,6.091653,52.101800
Rhienderensestraat,45,,,6964BH,Hall,Brummen,Gelderland,VBO,6.092146,52.102927
Rhienderensestraat,47,,,6964BH,Hall,Brummen,Gelderland,VBO,6.091349,52.103025
Rhienderensestraat,49,,,6964BH,Hall,Brummen,Gelderland,VBO,6.090266,52.103185
Rhienderensestraat,51,,,6964BH,Hall,Brummen,Gelderland,VBO,6.087855,52.103290
Rhienderensestraat,53,,,6964BH,Hall,Brummen,Gelderland,VBO,6.089191,52.101028
Rhienderensestraat,55,,,6964BH,Hall,Brummen,Gelderland,VBO,6.088273,52.100688
Heimeriete,1,,,6964BJ,Hall,Brummen,Gelderland,VBO,6.092943,52.097017
Heimeriete,2,,,6964BJ,Hall,Brummen,Gelderland,VBO,6.095627,52.098300
Heimeriete,3,A,,6964BJ,Hall,Brummen,Gelderland,VBO,6.091070,52.097482
Heimeriete,3,,,6964BJ,Hall,Brummen,Gelderland,VBO,6.093526,52.097341
Heimeriete,4,,,6964BJ,Hall,Brummen,Gelderland,VBO,6.095698,52.098345
Heimeriete,5,,,6964BJ,Hall,Brummen,Gelderland,VBO,6.092479,52.098428
Heimeriete,6,,,6964BJ,Hall,Brummen,Gelderland,VBO,6.101383,52.099957
Heimeriete,7,,,6964BJ,Hall,Brummen,Gelderland,VBO,6.093597,52.098586
Heimeriete,8,,,6964BJ,Hall,Brummen,Gelderland,VBO,6.098521,52.102016
Heimeriete,9,,,6964BJ,Hall,Brummen,Gelderland,VBO,6.094408,52.098538
Heimeriete,10,,,6964BJ,Hall,Brummen,Gelderland,VBO,6.098518,52.102088
Heimeriete,11,,,6964BJ,Hall,Brummen,Gelderland,VBO,6.096565,52.099418
Heimeriete,12,,,6964BJ,Hall,Brummen,Gelderland,VBO,6.098948,52.102091
Heimeriete,15,,,6964BJ,Hall,Brummen,Gelderland,VBO,6.097953,52.100921
Knoevenoordstraat,70,,,6964BK,Hall,Brummen,Gelderland,VBO,6.094956,52.095304
Knoevenoordstraat,74,,,6964BK,Hall,Brummen,Gelderland,VBO,6.090606,52.095424
Knoevenoordstraat,78,,,6964BK,Hall,Brummen,Gelderland,VBO,6.090044,52.096315
Knoevenoordstraat,80,,,6964BK,Hall,Brummen,Gelderland,VBO,6.089933,52.096380
Knoevenoordstraat,81,,,6964BK,Hall,Brummen,Gelderland,VBO,6.091378,52.095115
Knoevenoordstraat,83,,,6964BK,Hall,Brummen,Gelderland,VBO,6.090153,52.094992
Grolweg,1,,,6964BL,Hall,Brummen,Gelderland,VBO,6.092275,52.090911
Grolweg,2,,,6964BL,Hall,Brummen,Gelderland,VBO,6.091131,52.091031
Grolweg,3,,,6964BL,Hall,Brummen,Gelderland,VBO,6.090638,52.090003
Grolweg,4,,,6964BL,Hall,Brummen,Gelderland,VBO,6.089543,52.090740
Grolweg,5,,,6964BL,Hall,Brummen,Gelderland,VBO,6.089163,52.090376
Grolweg,6,,,6964BL,Hall,Brummen,Gelderland,VBO,6.089517,52.090792
Grolweg,7,,,6964BL,Hall,Brummen,Gelderland,VBO,6.089089,52.088810
Eerbeekseweg,22,A,,6964BM,Hall,Brummen,Gelderland,VBO,6.099141,52.093171
Eerbeekseweg,22,,,6964BM,Hall,Brummen,Gelderland,VBO,6.098845,52.093167
Eerbeekseweg,23,A,,6964BM,Hall,Brummen,Gelderland,VBO,6.103907,52.088812
Eerbeekseweg,23,,,6964BM,Hall,Brummen,Gelderland,VBO,6.103997,52.088799
Eerbeekseweg,24,,,6964BM,Hall,Brummen,Gelderland,VBO,6.093192,52.091383
Eerbeekseweg,25,,,6964BM,Hall,Brummen,Gelderland,VBO,6.098649,52.089926
Eerbeekseweg,26,,,6964BM,Hall,Brummen,Gelderland,VBO,6.091437,52.093034
Eerbeekseweg,27,A,,6964BM,Hall,Brummen,Gelderland,VBO,6.096066,52.090215
Eerbeekseweg,27,,,6964BM,Hall,Brummen,Gelderland,VBO,6.096097,52.090291
Eerbeekseweg,28,,,6964BM,Hall,Brummen,Gelderland,VBO,6.090960,52.093610
Eerbeekseweg,29,,,6964BM,Hall,Brummen,Gelderland,VBO,6.091203,52.092390
Eerbeekseweg,31,,,6964BM,Hall,Brummen,Gelderland,VBO,6.089739,52.094076
Eerbeekseweg,32,,,6964BM,Hall,Brummen,Gelderland,VBO,6.090476,52.094178
Eerbeekseweg,33,,,6964BM,Hall,Brummen,Gelderland,VBO,6.089753,52.094163
Elzenweg,1,,,6964BN,Hall,Brummen,Gelderland,VBO,6.090402,52.087621
Elzenweg,3,,,6964BN,Hall,Brummen,Gelderland,VBO,6.089041,52.087390
Elzenweg,6,,,6964BN,Hall,Brummen,Gelderland,VBO,6.089750,52.088677
Elzenweg,7,,,6964BN,Hall,Brummen,Gelderland,VBO,6.093283,52.091550
't Zaaibroek,1,A,,6964BP,Hall,Brummen,Gelderland,VBO,6.092387,52.085266
't Zaaibroek,1,,,6964BP,Hall,Brummen,Gelderland,VBO,6.093933,52.088129
't Zaaibroek,2,,,6964BP,Hall,Brummen,Gelderland,VBO,6.092979,52.087548
't Zaaibroek,3,,,6964BP,Hall,Brummen,Gelderland,VBO,6.092142,52.083728
't Zaaibroek,4,,,6964BP,Hall,Brummen,Gelderland,VBO,6.091785,52.085427
't Zaaibroek,5,A,,6964BP,Hall,Brummen,Gelderland,VBO,6.095374,52.080420
't Zaaibroek,5,B,,6964BP,Hall,Brummen,Gelderland,VBO,6.095233,52.080628
't Zaaibroek,5,,,6964BP,Hall,Brummen,Gelderland,VBO,6.095208,52.080576
't Zaaibroek,7,,,6964BP,Hall,Brummen,Gelderland,VBO,6.093423,52.080586
't Zaaibroek,11,,,6964BP,Hall,Brummen,Gelderland,VBO,6.086814,52.081742
't Zaaibroek,13,,,6964BP,Hall,Brummen,Gelderland,VBO,6.086684,52.081841
Pongeweg,2,A,,6964CA,Hall,Brummen,Gelderland,VBO,6.093752,52.115090
Pongeweg,2,,,6964CA,Hall,Brummen,Gelderland,VBO,6.093056,52.114838
Pongeweg,4,A,,6964CA,Hall,Brummen,Gelderland,VBO,6.090444,52.112759
Pongeweg,4,,,6964CA,Hall,Brummen,Gelderland,VBO,6.089914,52.112117
Pongeweg,6,,,6964CA,Hall,Brummen,Gelderland,VBO,6.089881,52.112075
Pongeweg,8,,,6964CA,Hall,Brummen,Gelderland,VBO,6.089347,52.111500
Pongeweg,10,,,6964CA,Hall,Brummen,Gelderland,VBO,6.087408,52.111072
Pongeweg,14,,,6964CA,Hall,Brummen,Gelderland,VBO,6.087287,52.110241
Pongeweg,16,,,6964CA,Hall,Brummen,Gelderland,VBO,6.086291,52.109093
Hallsedijk,3,A,,6964CB,Hall,Brummen,Gelderland,VBO,6.106286,52.121823
Hallsedijk,3,,,6964CB,Hall,Brummen,Gelderland,VBO,6.106345,52.120624
Hallsedijk,4,,,6964CB,Hall,Brummen,Gelderland,VBO,6.107818,52.119645
Voorstondensestraat,3,,,6964CC,Hall,Brummen,Gelderland,VBO,6.114108,52.119329
Voorstondensestraat,5,,,6964CC,Hall,Brummen,Gelderland,VBO,6.110118,52.120748
Voorstondensestraat,7,A,,6964CC,Hall,Brummen,Gelderland,VBO,6.095605,52.119610
Voorstondensestraat,7,,,6964CC,Hall,Brummen,Gelderland,VBO,6.100005,52.120466
Voorstondensestraat,14,,,6964CC,Hall,Brummen,Gelderland,VBO,6.102022,52.122177
Voorstondensestraat,16,,,6964CC,Hall,Brummen,Gelderland,VBO,6.100598,52.121082
Voorstondensestraat,18,,,6964CC,Hall,Brummen,Gelderland,VBO,6.095634,52.122676
Voorstondensestraat,20,,,6964CC,Hall,Brummen,Gelderland,VBO,6.094577,52.123552
Voorstondensestraat,22,A,,6964CC,Hall,Brummen,Gelderland,VBO,6.097362,52.120825
Voorstondensestraat,22,B,,6964CC,Hall,Brummen,Gelderland,VBO,6.092520,52.118433
Voorstondensestraat,22,,,6964CC,Hall,Brummen,Gelderland,VBO,6.097502,52.120874
Voorstondensestraat,9,,,6964CD,Hall,Brummen,Gelderland,VBO,6.089702,52.116206
Voorstondensestraat,15,,,6964CD,Hall,Brummen,Gelderland,VBO,6.082722,52.112561
Voorstondensestraat,24,,,6964CD,Hall,Brummen,Gelderland,VBO,6.091563,52.117842
Voorstondensestraat,26,A,,6964CD,Hall,Brummen,Gelderland,VBO,6.086645,52.114934
Voorstondensestraat,26,,,6964CD,Hall,Brummen,Gelderland,VBO,6.091270,52.117649
Voorstondensestraat,30,,,6964CD,Hall,Brummen,Gelderland,VBO,6.083513,52.113937
Voorstondensestraat,34,A,,6964CD,Hall,Brummen,Gelderland,VBO,6.079803,52.111895
Voorstondensestraat,34,B,,6964CD,Hall,Brummen,Gelderland,VBO,6.080398,52.112050
Voorstondensestraat,34,,,6964CD,Hall,Brummen,Gelderland,VBO,6.080440,52.111872
Lendeweg,1,,,6964CE,Hall,Brummen,Gelderland,VBO,6.078359,52.113257
Lendeweg,3,,,6964CE,Hall,Brummen,Gelderland,VBO,6.079809,52.121941
Lendeweg,5,,,6964CE,Hall,Brummen,Gelderland,VBO,6.079007,52.122758
Lendeweg,7,,,6964CE,Hall,Brummen,Gelderland,VBO,6.078974,52.122793
Oude Zutphenseweg,2,,,6964CG,Hall,Brummen,Gelderland,VBO,6.093059,52.119940
Oude Zutphenseweg,4,,,6964CG,Hall,Brummen,Gelderland,VBO,6.089558,52.119755
Oude Zutphenseweg,6,,,6964CG,Hall,Brummen,Gelderland,VBO,6.089092,52.119918
Oude Zutphenseweg,10,,,6964CG,Hall,Brummen,Gelderland,VBO,6.086555,52.118576
Oude Zutphenseweg,12,,,6964CG,Hall,Brummen,Gelderland,VBO,6.086432,52.118567
Oude Zutphenseweg,14,,,6964CG,Hall,Brummen,Gelderland,VBO,6.085620,52.118743
Blaarweg,2,,,6964CH,Hall,Brummen,Gelderland,VBO,6.091201,52.123445
Langedijk,1,A,,6964CJ,Hall,Brummen,Gelderland,VBO,6.099876,52.125195
Langedijk,3,A,,6964CJ,Hall,Brummen,Gelderland,VBO,6.094827,52.127792
Langedijk,3,,,6964CJ,Hall,Brummen,Gelderland,VBO,6.094759,52.127785
Langedijk,7,,,6964CJ,Hall,Brummen,Gelderland,VBO,6.074642,52.119632
Langedijk,8,,,6964CJ,Hall,Brummen,Gelderland,VBO,6.097962,52.129147
Langedijk,9,,,6964CJ,Hall,Brummen,Gelderland,VBO,6.068866,52.117509
Langedijk,10,,,6964CJ,Hall,Brummen,Gelderland,VBO,6.097391,52.129008
Langedijk,12,,,6964CJ,Hall,Brummen,Gelderland,VBO,6.091183,52.127438
Langedijk,14,A,,6964CJ,Hall,Brummen,Gelderland,VBO,6.088115,52.127176
Langedijk,14,,,6964CJ,Hall,Brummen,Gelderland,VBO,6.088206,52.127171
Langedijk,16,A,,6964CJ,Hall,Brummen,Gelderland,VBO,6.086122,52.124806
Langedijk,16,,,6964CJ,Hall,Brummen,Gelderland,VBO,6.085797,52.124663
Langedijk,18,A,,6964CJ,Hall,Brummen,Gelderland,VBO,6.080617,52.122046
Langedijk,18,,,6964CJ,Hall,Brummen,Gelderland,VBO,6.080586,52.121835
Lendeweg,2,A,,6964CK,Hall,Brummen,Gelderland,VBO,6.079956,52.122501
Lendeweg,2,,,6964CK,Hall,Brummen,Gelderland,VBO,6.077279,52.125536
Lendeweg,4,A,,6964CK,Hall,Brummen,Gelderland,VBO,6.076901,52.129806
Lendeweg,4,,,6964CK,Hall,Brummen,Gelderland,VBO,6.078873,52.126954
Lendeweg,6,A,,6964CK,Hall,Brummen,Gelderland,VBO,6.072176,52.130005
Lendeweg,6,B,,6964CK,Hall,Brummen,Gelderland,VBO,6.072278,52.129534
Lendeweg,6,,,6964CK,Hall,Brummen,Gelderland,VBO,6.077147,52.127372
Lendeweg,8,B,,6964CK,Hall,Brummen,Gelderland,VBO,6.068571,52.126198
Lendeweg,8,,,6964CK,Hall,Brummen,Gelderland,VBO,6.071408,52.127283
Lendeweg,10,,,6964CK,Hall,Brummen,Gelderland,VBO,6.066897,52.126432
Lendeweg,14,,,6964CK,Hall,Brummen,Gelderland,VBO,6.058981,52.124027
Lendeweg,16,,,6964CK,Hall,Brummen,Gelderland,VBO,6.057191,52.123509
Boerenstraat,34,,,6964CL,Hall,Brummen,Gelderland,VBO,6.068555,52.120608
Boerenstraat,35,,,6964CL,Hall,Brummen,Gelderland,VBO,6.067412,52.118279
Boerenstraat,36,,,6964CL,Hall,Brummen,Gelderland,VBO,6.068359,52.121265
Boerenstraat,37,,,6964CL,Hall,Brummen,Gelderland,VBO,6.066480,52.118587
Jaagpad,1,,,6964CM,Hall,Brummen,Gelderland,VBO,6.056982,52.126640
Eerbeekse Hooilanden,2,,,6964CN,Hall,Brummen,Gelderland,VBO,6.070454,52.126473
Eerbeekse Hooilanden,5,,,6964CN,Hall,Brummen,Gelderland,VBO,6.077820,52.127739
