openbareruimtenaam,huisnummer,huisletter,huisnummertoevoeging,postcode,woonplaatsnaam,gemeentenaam,provincienaam,typeadresseerbaarobject,longitude,latitude
IJsselstraat,18,A,,7008AA,Doetinchem,Doetinchem,Gelderland,VBO,6.280228,51.968195
IJsselstraat,18,,,7008AA,Doetinchem,Doetinchem,Gelderland,VBO,6.280452,51.968448
IJsselstraat,20,,,7008AA,Doetinchem,Doetinchem,Gelderland,VBO,6.280126,51.968045
IJsselstraat,22,,,7008AA,Doetinchem,Doetinchem,Gelderland,VBO,6.280074,51.967985
IJsselstraat,24,,,7008AA,Doetinchem,Doetinchem,Gelderland,VBO,6.279988,51.967895
IJsselstraat,26,,,7008AA,Doetinchem,Doetinchem,Gelderland,VBO,6.279851,51.967748
IJsselstraat,32,,,7008AA,Doetinchem,Doetinchem,Gelderland,VBO,6.279302,51.967163
IJsselstraat,34,,,7008AA,Doetinchem,Doetinchem,Gelderland,VBO,6.279252,51.967108
IJsselstraat,36,A,,7008AA,Doetinchem,Doetinchem,Gelderland,VBO,6.278968,51.967021
IJsselstraat,36,B,,7008AA,Doetinchem,Doetinchem,Gelderland,VBO,6.278968,51.967021
IJsselstraat,36,C,,7008AA,Doetinchem,Doetinchem,Gelderland,VBO,6.278968,51.967021
IJsselstraat,36,,,7008AA,Doetinchem,Doetinchem,Gelderland,VBO,6.279157,51.967007
IJsselstraat,40,,,7008AA,Doetinchem,Doetinchem,Gelderland,VBO,6.279037,51.966869
Heelweg,21,,,7008AB,Doetinchem,Doetinchem,Gelderland,VBO,6.278607,51.969856
Henk Luesinkweg,4,,,7008AD,Doetinchem,Doetinchem,Gelderland,VBO,6.252332,51.986089
Henk Luesinkweg,6,,,7008AD,Doetinchem,Doetinchem,Gelderland,VBO,6.252213,51.986127
Henk Luesinkweg,8,,,7008AD,Doetinchem,Doetinchem,Gelderland,VBO,6.252090,51.986163
Henk Luesinkweg,10,,,7008AD,Doetinchem,Doetinchem,Gelderland,VBO,6.251919,51.986213
Henk Luesinkweg,12,,,7008AD,Doetinchem,Doetinchem,Gelderland,VBO,6.251814,51.986248
Henk Luesinkweg,14,,,7008AD,Doetinchem,Doetinchem,Gelderland,VBO,6.251683,51.986282
Nemahoweg,1,,,7008AE,Doetinchem,Doetinchem,Gelderland,VBO,6.279226,51.968219
Nemahoweg,2,,,7008AE,Doetinchem,Doetinchem,Gelderland,VBO,6.279139,51.969188
Nemahoweg,3,,,7008AE,Doetinchem,Doetinchem,Gelderland,VBO,6.279281,51.968129
Nemahoweg,5,,,7008AE,Doetinchem,Doetinchem,Gelderland,VBO,6.279403,51.967929
Nemahoweg,6,,,7008AE,Doetinchem,Doetinchem,Gelderland,VBO,6.278982,51.968910
Nemahoweg,8,A,,7008AE,Doetinchem,Doetinchem,Gelderland,VBO,6.278562,51.968182
Nemahoweg,8,,,7008AE,Doetinchem,Doetinchem,Gelderland,VBO,6.278615,51.968274
Nemahoweg,34,,,7008AE,Doetinchem,Doetinchem,Gelderland,VBO,6.278993,51.967740
Nemahoweg,36,,,7008AE,Doetinchem,Doetinchem,Gelderland,VBO,6.279030,51.967679
Nemahoweg,38,,,7008AE,Doetinchem,Doetinchem,Gelderland,VBO,6.279155,51.967463
Nemahoweg,40,,,7008AE,Doetinchem,Doetinchem,Gelderland,VBO,6.279190,51.967406
Zaagmolenpad,17,A,,7008AG,Doetinchem,Doetinchem,Gelderland,VBO,6.275143,51.968711
Zaagmolenpad,17,B,,7008AG,Doetinchem,Doetinchem,Gelderland,VBO,6.275076,51.968733
Zaagmolenpad,17,C,,7008AG,Doetinchem,Doetinchem,Gelderland,VBO,6.275005,51.968758
Zaagmolenpad,17,D,,7008AG,Doetinchem,Doetinchem,Gelderland,VBO,6.274928,51.968776
Zaagmolenpad,17,,,7008AG,Doetinchem,Doetinchem,Gelderland,VBO,6.275208,51.968686
Zaagmolenpad,19,A,,7008AG,Doetinchem,Doetinchem,Gelderland,VBO,6.274798,51.968833
Zaagmolenpad,19,B,,7008AG,Doetinchem,Doetinchem,Gelderland,VBO,6.274735,51.968857
Zaagmolenpad,19,C,,7008AG,Doetinchem,Doetinchem,Gelderland,VBO,6.274663,51.968881
Zaagmolenpad,19,D,,7008AG,Doetinchem,Doetinchem,Gelderland,VBO,6.274588,51.968902
Zaagmolenpad,19,E,,7008AG,Doetinchem,Doetinchem,Gelderland,VBO,6.274525,51.968928
Zaagmolenpad,19,,,7008AG,Doetinchem,Doetinchem,Gelderland,VBO,6.274873,51.968815
Zaagmolenpad,45,A,,7008AG,Doetinchem,Doetinchem,Gelderland,VBO,6.271830,51.969424
Zaagmolenpad,45,B,,7008AG,Doetinchem,Doetinchem,Gelderland,VBO,6.271996,51.969553
Zaagmolenpad,45,C,,7008AG,Doetinchem,Doetinchem,Gelderland,VBO,6.272140,51.969663
Zaagmolenpad,45,,,7008AG,Doetinchem,Doetinchem,Gelderland,VBO,6.271212,51.969602
Zaagmolenpad,47,,,7008AG,Doetinchem,Doetinchem,Gelderland,VBO,6.271352,51.970166
Zaagmolenpad,51,,,7008AG,Doetinchem,Doetinchem,Gelderland,VBO,6.270184,51.970607
Zaagmolenpad,75,,,7008AH,Doetinchem,Doetinchem,Gelderland,VBO,6.269857,51.970733
Zaagmolenpad,77,,,7008AH,Doetinchem,Doetinchem,Gelderland,VBO,6.269266,51.971238
Zaagmolenpad,85,,,7008AH,Doetinchem,Doetinchem,Gelderland,VBO,6.268762,51.971476
Zaagmolenpad,87,A,,7008AH,Doetinchem,Doetinchem,Gelderland,VBO,6.268220,51.971536
Zaagmolenpad,87,,,7008AH,Doetinchem,Doetinchem,Gelderland,VBO,6.268266,51.971741
Zaagmolenpad,91,,,7008AH,Doetinchem,Doetinchem,Gelderland,VBO,6.268016,51.971816
Zaagmolenpad,93,,,7008AH,Doetinchem,Doetinchem,Gelderland,VBO,6.267900,51.971924
Zaagmolenpad,101,,,7008AH,Doetinchem,Doetinchem,Gelderland,VBO,6.267672,51.972014
Zaagmolenpad,103,A,,7008AH,Doetinchem,Doetinchem,Gelderland,VBO,6.267051,51.972236
Zaagmolenpad,103,,,7008AH,Doetinchem,Doetinchem,Gelderland,VBO,6.267373,51.972095
Zaagmolenpad,105,A,,7008AH,Doetinchem,Doetinchem,Gelderland,VBO,6.264858,51.973430
Zaagmolenpad,105,B,,7008AH,Doetinchem,Doetinchem,Gelderland,VBO,6.264757,51.973351
Zaagmolenpad,105,,,7008AH,Doetinchem,Doetinchem,Gelderland,VBO,6.265096,51.973312
Zaagmolenpad,107,A,,7008AH,Doetinchem,Doetinchem,Gelderland,VBO,6.264550,51.973190
Zaagmolenpad,107,,,7008AH,Doetinchem,Doetinchem,Gelderland,VBO,6.264493,51.973145
Zaagmolenpad,113,A,,7008AH,Doetinchem,Doetinchem,Gelderland,VBO,6.264254,51.973281
Zaagmolenpad,113,,,7008AH,Doetinchem,Doetinchem,Gelderland,VBO,6.264261,51.973171
Zaagmolenpad,115,,,7008AH,Doetinchem,Doetinchem,Gelderland,VBO,6.264535,51.973512
Zaagmolenpad,2,C,,7008AJ,Doetinchem,Doetinchem,Gelderland,VBO,6.278085,51.968396
Zaagmolenpad,2,,,7008AJ,Doetinchem,Doetinchem,Gelderland,VBO,6.278284,51.968183
Zaagmolenpad,4,,,7008AJ,Doetinchem,Doetinchem,Gelderland,VBO,6.277940,51.968231
Zaagmolenpad,6,,,7008AJ,Doetinchem,Doetinchem,Gelderland,VBO,6.277673,51.968264
Zaagmolenpad,8,A,,7008AJ,Doetinchem,Doetinchem,Gelderland,VBO,6.277256,51.968350
Zaagmolenpad,8,,,7008AJ,Doetinchem,Doetinchem,Gelderland,VBO,6.277025,51.968401
Zaagmolenpad,26,B,,7008AJ,Doetinchem,Doetinchem,Gelderland,VBO,6.270499,51.971203
Zaagmolenpad,26,,,7008AJ,Doetinchem,Doetinchem,Gelderland,VBO,6.270234,51.971189
Zaagmolenpad,34,,,7008AJ,Doetinchem,Doetinchem,Gelderland,VBO,6.278993,51.967739
Zaagmolenpad,42,,,7008AJ,Doetinchem,Doetinchem,Gelderland,VBO,6.266113,51.973341
Zaagmolenpad,44,,,7008AJ,Doetinchem,Doetinchem,Gelderland,VBO,6.265142,51.973782
Zaagmolenpad,46,,,7008AJ,Doetinchem,Doetinchem,Gelderland,VBO,6.264799,51.973907
Grutbroek,1,,,7008AK,Doetinchem,Doetinchem,Gelderland,VBO,6.271410,51.973671
Grutbroek,7,,,7008AK,Doetinchem,Doetinchem,Gelderland,VBO,6.272714,51.973735
Grutbroek,9,,,7008AK,Doetinchem,Doetinchem,Gelderland,VBO,6.273094,51.973500
Grutbroek,11,,,7008AK,Doetinchem,Doetinchem,Gelderland,VBO,6.273157,51.973563
Grutbroek,15,,,7008AK,Doetinchem,Doetinchem,Gelderland,VBO,6.273786,51.973136
Grutbroek,17,,,7008AK,Doetinchem,Doetinchem,Gelderland,VBO,6.274000,51.972983
Grutbroek,33,,,7008AL,Doetinchem,Doetinchem,Gelderland,VBO,6.268712,51.970886
Grutbroek,41,,,7008AL,Doetinchem,Doetinchem,Gelderland,VBO,6.268002,51.969947
Grutbroek,43,,,7008AL,Doetinchem,Doetinchem,Gelderland,VBO,6.266787,51.970441
Grutbroek,49,,,7008AL,Doetinchem,Doetinchem,Gelderland,VBO,6.267718,51.970785
Grutbroek,51,A,,7008AL,Doetinchem,Doetinchem,Gelderland,VBO,6.267469,51.970899
Grutbroek,51,B,,7008AL,Doetinchem,Doetinchem,Gelderland,VBO,6.267163,51.970724
Grutbroek,51,,,7008AL,Doetinchem,Doetinchem,Gelderland,VBO,6.267349,51.970971
Grutbroek,53,A,,7008AL,Doetinchem,Doetinchem,Gelderland,VBO,6.267258,51.971022
Grutbroek,53,B,,7008AL,Doetinchem,Doetinchem,Gelderland,VBO,6.267160,51.971063
Grutbroek,53,C,,7008AL,Doetinchem,Doetinchem,Gelderland,VBO,6.266482,51.970787
Grutbroek,55,,,7008AL,Doetinchem,Doetinchem,Gelderland,VBO,6.266693,51.971303
Grutbroek,57,A,,7008AL,Doetinchem,Doetinchem,Gelderland,VBO,6.266268,51.971384
Grutbroek,57,B,,7008AL,Doetinchem,Doetinchem,Gelderland,VBO,6.266124,51.971456
Grutbroek,57,C,,7008AL,Doetinchem,Doetinchem,Gelderland,VBO,6.265974,51.971532
Grutbroek,59,,,7008AL,Doetinchem,Doetinchem,Gelderland,VBO,6.265606,51.971847
Grutbroek,61,,,7008AL,Doetinchem,Doetinchem,Gelderland,VBO,6.265485,51.971908
Grutbroek,4,,,7008AM,Doetinchem,Doetinchem,Gelderland,VBO,6.269296,51.974252
Grutbroek,6,,,7008AM,Doetinchem,Doetinchem,Gelderland,VBO,6.269680,51.974099
Grutbroek,16,A,,7008AM,Doetinchem,Doetinchem,Gelderland,VBO,6.270479,51.973713
Grutbroek,16,B,,7008AM,Doetinchem,Doetinchem,Gelderland,VBO,6.270802,51.973539
Grutbroek,16,,,7008AM,Doetinchem,Doetinchem,Gelderland,VBO,6.270238,51.973837
Grutbroek,18,A,,7008AM,Doetinchem,Doetinchem,Gelderland,VBO,6.270985,51.973158
Grutbroek,18,,,7008AM,Doetinchem,Doetinchem,Gelderland,VBO,6.271020,51.973428
Grutbroek,26,A,,7008AM,Doetinchem,Doetinchem,Gelderland,VBO,6.270498,51.972752
Grutbroek,26,,,7008AM,Doetinchem,Doetinchem,Gelderland,VBO,6.270445,51.972789
Grutbroek,30,,,7008AM,Doetinchem,Doetinchem,Gelderland,VBO,6.269212,51.971833
Grutbroek,34,,,7008AM,Doetinchem,Doetinchem,Gelderland,VBO,6.268407,51.971323
Grutbroek,36,A,,7008AN,Doetinchem,Doetinchem,Gelderland,VBO,6.268360,51.971197
Grutbroek,36,,,7008AN,Doetinchem,Doetinchem,Gelderland,VBO,6.268378,51.971169
Grutbroek,38,,,7008AN,Doetinchem,Doetinchem,Gelderland,VBO,6.268149,51.971022
Grutbroek,40,,,7008AN,Doetinchem,Doetinchem,Gelderland,VBO,6.267974,51.971130
Grutbroek,42,A,,7008AN,Doetinchem,Doetinchem,Gelderland,VBO,6.267601,51.971250
Grutbroek,42,B,,7008AN,Doetinchem,Doetinchem,Gelderland,VBO,6.267530,51.971295
Grutbroek,46,,,7008AN,Doetinchem,Doetinchem,Gelderland,VBO,6.267285,51.971451
Grutbroek,50,,,7008AN,Doetinchem,Doetinchem,Gelderland,VBO,6.266609,51.971760
Houtmolenstraat,9,,,7008AP,Doetinchem,Doetinchem,Gelderland,VBO,6.270852,51.971947
Houtmolenstraat,11,,,7008AP,Doetinchem,Doetinchem,Gelderland,VBO,6.269837,51.972479
Houtmolenstraat,23,,,7008AP,Doetinchem,Doetinchem,Gelderland,VBO,6.268356,51.973210
Houtmolenstraat,25,,,7008AP,Doetinchem,Doetinchem,Gelderland,VBO,6.268022,51.973380
Houtmolenstraat,33,,,7008AP,Doetinchem,Doetinchem,Gelderland,VBO,6.266938,51.973947
Houtmolenstraat,35,,,7008AP,Doetinchem,Doetinchem,Gelderland,VBO,6.266621,51.974123
Houtmolenstraat,37,,,7008AP,Doetinchem,Doetinchem,Gelderland,VBO,6.266214,51.974343
Houtmolenstraat,41,A,,7008AP,Doetinchem,Doetinchem,Gelderland,VBO,6.265461,51.974338
Houtmolenstraat,41,,,7008AP,Doetinchem,Doetinchem,Gelderland,VBO,6.265916,51.974501
Houtmolenstraat,2,,,7008AR,Doetinchem,Doetinchem,Gelderland,VBO,6.272691,51.971495
Houtmolenstraat,6,,,7008AR,Doetinchem,Doetinchem,Gelderland,VBO,6.272073,51.971802
Houtmolenstraat,8,A,,7008AR,Doetinchem,Doetinchem,Gelderland,VBO,6.272087,51.972013
Houtmolenstraat,8,B,,7008AR,Doetinchem,Doetinchem,Gelderland,VBO,6.272040,51.972128
Houtmolenstraat,8,,,7008AR,Doetinchem,Doetinchem,Gelderland,VBO,6.272342,51.971912
Houtmolenstraat,10,,,7008AR,Doetinchem,Doetinchem,Gelderland,VBO,6.271748,51.972275
Houtmolenstraat,12,,,7008AR,Doetinchem,Doetinchem,Gelderland,VBO,6.271505,51.972260
Houtmolenstraat,14,A,,7008AR,Doetinchem,Doetinchem,Gelderland,VBO,6.271451,51.972452
Houtmolenstraat,14,,,7008AR,Doetinchem,Doetinchem,Gelderland,VBO,6.271200,51.972241
Houtmolenstraat,16,,,7008AR,Doetinchem,Doetinchem,Gelderland,VBO,6.270967,51.972351
Houtmolenstraat,18,,,7008AR,Doetinchem,Doetinchem,Gelderland,VBO,6.270302,51.972739
Houtmolenstraat,20,,,7008AR,Doetinchem,Doetinchem,Gelderland,VBO,6.269968,51.972855
Houtmolenstraat,32,,,7008AR,Doetinchem,Doetinchem,Gelderland,VBO,6.266480,51.974684
Houtmolenstraat,34,,,7008AR,Doetinchem,Doetinchem,Gelderland,VBO,6.266832,51.974977
Plakhorstweg,1,,,7008AS,Doetinchem,Doetinchem,Gelderland,VBO,6.269880,51.974828
Plakhorstweg,3,,,7008AS,Doetinchem,Doetinchem,Gelderland,VBO,6.269691,51.974684
Plakhorstweg,7,,,7008AS,Doetinchem,Doetinchem,Gelderland,VBO,6.268327,51.974063
Plakhorstweg,11,,,7008AS,Doetinchem,Doetinchem,Gelderland,VBO,6.266986,51.973081
Plakhorstweg,13,A,,7008AS,Doetinchem,Doetinchem,Gelderland,VBO,6.266340,51.972458
Plakhorstweg,13,,,7008AS,Doetinchem,Doetinchem,Gelderland,VBO,6.266377,51.972659
Plakhorstweg,17,,,7008AS,Doetinchem,Doetinchem,Gelderland,VBO,6.265890,51.972282
Plakhorstweg,19,,,7008AS,Doetinchem,Doetinchem,Gelderland,VBO,6.265233,51.971783
Plakhorstweg,21,,,7008AS,Doetinchem,Doetinchem,Gelderland,VBO,6.265126,51.971696
Plakhorstweg,23,,,7008AS,Doetinchem,Doetinchem,Gelderland,VBO,6.264946,51.971559
Plakhorstweg,25,,,7008AS,Doetinchem,Doetinchem,Gelderland,VBO,6.264819,51.971462
Plakhorstweg,2,,,7008AT,Doetinchem,Doetinchem,Gelderland,VBO,6.268592,51.975107
Plakhorstweg,14,,,7008AT,Doetinchem,Doetinchem,Gelderland,VBO,6.266800,51.973517
Plakhorstweg,46,,,7008AT,Doetinchem,Doetinchem,Gelderland,VBO,6.265343,51.972506
Plakhorstweg,48,,,7008AT,Doetinchem,Doetinchem,Gelderland,VBO,6.265002,51.972164
Plakhorstweg,50,,,7008AT,Doetinchem,Doetinchem,Gelderland,VBO,6.264573,51.971838
Padvindsterslaan,5,,,7008AV,Doetinchem,Doetinchem,Gelderland,VBO,6.267826,51.975678
Padvindsterslaan,7,,,7008AV,Doetinchem,Doetinchem,Gelderland,VBO,6.267669,51.975842
Westermaatweg,1,,,7008AW,Doetinchem,Doetinchem,Gelderland,VBO,6.264780,51.976548
Westermaatweg,3,A,,7008AW,Doetinchem,Doetinchem,Gelderland,VBO,6.263176,51.975449
Westermaatweg,3,,,7008AW,Doetinchem,Doetinchem,Gelderland,VBO,6.266214,51.976334
Westermaatweg,4,,,7008AW,Doetinchem,Doetinchem,Gelderland,VBO,6.263959,51.976221
Westermaatweg,5,,,7008AW,Doetinchem,Doetinchem,Gelderland,VBO,6.260921,51.974278
Westermaatweg,7,,,7008AW,Doetinchem,Doetinchem,Gelderland,VBO,6.260618,51.974546
Heinoordenweg,2,,,7008AX,Doetinchem,Doetinchem,Gelderland,VBO,6.256116,51.975355
Heinoordenweg,3,A,,7008AX,Doetinchem,Doetinchem,Gelderland,VBO,6.256899,51.974785
Heinoordenweg,3,,,7008AX,Doetinchem,Doetinchem,Gelderland,VBO,6.256402,51.975069
Heinoordenweg,9,,,7008AX,Doetinchem,Doetinchem,Gelderland,VBO,6.258543,51.975691
Nederbergweg,1,A,,7008AZ,Doetinchem,Doetinchem,Gelderland,VBO,6.253151,51.986137
Nederbergweg,1,,,7008AZ,Doetinchem,Doetinchem,Gelderland,VBO,6.253003,51.985978
Nederbergweg,2,A,,7008AZ,Doetinchem,Doetinchem,Gelderland,VBO,6.252257,51.985839
Nederbergweg,4,A,,7008AZ,Doetinchem,Doetinchem,Gelderland,VBO,6.251823,51.985567
Nederbergweg,4,,,7008AZ,Doetinchem,Doetinchem,Gelderland,VBO,6.251998,51.985684
Nederbergweg,5,A,,7008AZ,Doetinchem,Doetinchem,Gelderland,VBO,6.252092,51.985427
Nederbergweg,5,,,7008AZ,Doetinchem,Doetinchem,Gelderland,VBO,6.252444,51.985660
Nederbergweg,6,,,7008AZ,Doetinchem,Doetinchem,Gelderland,VBO,6.251579,51.985388
Nederbergweg,7,,,7008AZ,Doetinchem,Doetinchem,Gelderland,VBO,6.251855,51.985299
Nederbergweg,8,,,7008AZ,Doetinchem,Doetinchem,Gelderland,VBO,6.250553,51.985696
Nederbergweg,9,,,7008AZ,Doetinchem,Doetinchem,Gelderland,VBO,6.250158,51.984661
Keppelseweg,131,,,7008BA,Doetinchem,Doetinchem,Gelderland,VBO,6.275416,51.972349
Keppelseweg,133,,,7008BA,Doetinchem,Doetinchem,Gelderland,VBO,6.275053,51.972555
Keppelseweg,135,,,7008BA,Doetinchem,Doetinchem,Gelderland,VBO,6.274988,51.972593
Keppelseweg,137,,,7008BA,Doetinchem,Doetinchem,Gelderland,VBO,6.274777,51.972706
Keppelseweg,139,,,7008BA,Doetinchem,Doetinchem,Gelderland,VBO,6.274702,51.972748
Keppelseweg,225,,,7008BB,Doetinchem,Doetinchem,Gelderland,VBO,6.269403,51.975702
Keppelseweg,227,,,7008BB,Doetinchem,Doetinchem,Gelderland,VBO,6.269292,51.975762
Keppelseweg,229,,,7008BB,Doetinchem,Doetinchem,Gelderland,VBO,6.269222,51.975799
Keppelseweg,231,,,7008BB,Doetinchem,Doetinchem,Gelderland,VBO,6.269119,51.975858
Keppelseweg,233,,,7008BB,Doetinchem,Doetinchem,Gelderland,VBO,6.269047,51.975896
Keppelseweg,249,,,7008BB,Doetinchem,Doetinchem,Gelderland,VBO,6.267553,51.976417
Keppelseweg,251,,,7008BB,Doetinchem,Doetinchem,Gelderland,VBO,6.266635,51.976866
Keppelseweg,261,,,7008BC,Doetinchem,Doetinchem,Gelderland,VBO,6.265505,51.977560
Keppelseweg,267,,,7008BC,Doetinchem,Doetinchem,Gelderland,VBO,6.264259,51.977929
Keppelseweg,279,,,7008BC,Doetinchem,Doetinchem,Gelderland,VBO,6.262069,51.979283
Keppelseweg,281,,,7008BC,Doetinchem,Doetinchem,Gelderland,VBO,6.261596,51.980024
Keppelseweg,283,,,7008BC,Doetinchem,Doetinchem,Gelderland,VBO,6.261489,51.980342
Keppelseweg,285,A,,7008BC,Doetinchem,Doetinchem,Gelderland,VBO,6.259419,51.980634
Keppelseweg,285,B,,7008BC,Doetinchem,Doetinchem,Gelderland,VBO,6.259304,51.980475
Keppelseweg,285,,,7008BC,Doetinchem,Doetinchem,Gelderland,VBO,6.259238,51.980659
Keppelseweg,337,,,7008BC,Doetinchem,Doetinchem,Gelderland,VBO,6.258109,51.983571
Keppelseweg,339,,,7008BC,Doetinchem,Doetinchem,Gelderland,VBO,6.257955,51.983614
Keppelseweg,341,,,7008BC,Doetinchem,Doetinchem,Gelderland,VBO,6.257874,51.983654
Keppelseweg,347,,,7008BC,Doetinchem,Doetinchem,Gelderland,VBO,6.257375,51.983921
Keppelseweg,359,,,7008BD,Doetinchem,Doetinchem,Gelderland,VBO,6.255000,51.985438
Keppelseweg,361,,,7008BD,Doetinchem,Doetinchem,Gelderland,VBO,6.254932,51.985477
Keppelseweg,363,,,7008BD,Doetinchem,Doetinchem,Gelderland,VBO,6.254804,51.985550
Keppelseweg,365,,,7008BD,Doetinchem,Doetinchem,Gelderland,VBO,6.254736,51.985587
Keppelseweg,367,,,7008BD,Doetinchem,Doetinchem,Gelderland,VBO,6.254527,51.985706
Keppelseweg,369,,,7008BD,Doetinchem,Doetinchem,Gelderland,VBO,6.254439,51.985756
Keppelseweg,371,,,7008BD,Doetinchem,Doetinchem,Gelderland,VBO,6.254245,51.985864
Keppelseweg,377,A,,7008BD,Doetinchem,Doetinchem,Gelderland,VBO,6.253961,51.985879
Keppelseweg,377,,,7008BD,Doetinchem,Doetinchem,Gelderland,VBO,6.253960,51.986024
Keppelseweg,381,,,7008BD,Doetinchem,Doetinchem,Gelderland,VBO,6.253756,51.986067
Keppelseweg,383,,,7008BD,Doetinchem,Doetinchem,Gelderland,VBO,6.253683,51.986173
Keppelseweg,385,,,7008BD,Doetinchem,Doetinchem,Gelderland,VBO,6.253598,51.986215
Keppelseweg,391,,,7008BE,Doetinchem,Doetinchem,Gelderland,VBO,6.252901,51.986409
Keppelseweg,393,,,7008BE,Doetinchem,Doetinchem,Gelderland,VBO,6.252811,51.986432
Keppelseweg,395,,,7008BE,Doetinchem,Doetinchem,Gelderland,VBO,6.252644,51.986470
Keppelseweg,397,,,7008BE,Doetinchem,Doetinchem,Gelderland,VBO,6.252535,51.986492
Keppelseweg,399,,,7008BE,Doetinchem,Doetinchem,Gelderland,VBO,6.252372,51.986528
Keppelseweg,401,,,7008BE,Doetinchem,Doetinchem,Gelderland,VBO,6.252266,51.986552
Keppelseweg,403,,,7008BE,Doetinchem,Doetinchem,Gelderland,VBO,6.252117,51.986586
Keppelseweg,407,,,7008BE,Doetinchem,Doetinchem,Gelderland,VBO,6.251763,51.986669
Keppelseweg,409,,,7008BE,Doetinchem,Doetinchem,Gelderland,VBO,6.251691,51.986695
Keppelseweg,411,,,7008BE,Doetinchem,Doetinchem,Gelderland,VBO,6.251502,51.986765
Keppelseweg,413,,,7008BE,Doetinchem,Doetinchem,Gelderland,VBO,6.251436,51.986789
Keppelseweg,415,,,7008BE,Doetinchem,Doetinchem,Gelderland,VBO,6.251191,51.986901
Keppelseweg,419,,,7008BE,Doetinchem,Doetinchem,Gelderland,VBO,6.250922,51.987033
Keppelseweg,421,,,7008BE,Doetinchem,Doetinchem,Gelderland,VBO,6.250680,51.987153
Snoekbaars,2,,,7008BG,Doetinchem,Doetinchem,Gelderland,VBO,6.278235,51.966984
Snoekbaars,4,,,7008BG,Doetinchem,Doetinchem,Gelderland,VBO,6.278276,51.967091
Snoekbaars,5,,,7008BG,Doetinchem,Doetinchem,Gelderland,VBO,6.277991,51.967217
Snoekbaars,6,,,7008BG,Doetinchem,Doetinchem,Gelderland,VBO,6.278310,51.967141
Snoekbaars,7,,,7008BG,Doetinchem,Doetinchem,Gelderland,VBO,6.278037,51.967306
Snoekbaars,8,,,7008BG,Doetinchem,Doetinchem,Gelderland,VBO,6.278363,51.967246
Snoekbaars,9,,,7008BG,Doetinchem,Doetinchem,Gelderland,VBO,6.278078,51.967385
Snoekbaars,10,,,7008BG,Doetinchem,Doetinchem,Gelderland,VBO,6.278392,51.967302
Snoekbaars,11,,,7008BG,Doetinchem,Doetinchem,Gelderland,VBO,6.278118,51.967453
Snoekbaars,12,,,7008BG,Doetinchem,Doetinchem,Gelderland,VBO,6.278447,51.967401
Snoekbaars,13,,,7008BG,Doetinchem,Doetinchem,Gelderland,VBO,6.278152,51.967521
Snoekbaars,14,,,7008BG,Doetinchem,Doetinchem,Gelderland,VBO,6.278472,51.967451
Snoekbaars,15,,,7008BG,Doetinchem,Doetinchem,Gelderland,VBO,6.278195,51.967600
Snoekbaars,16,,,7008BG,Doetinchem,Doetinchem,Gelderland,VBO,6.278530,51.967554
Snoekbaars,18,,,7008BG,Doetinchem,Doetinchem,Gelderland,VBO,6.278557,51.967601
Karper,1,,,7008BJ,Doetinchem,Doetinchem,Gelderland,VBO,6.277842,51.967656
Karper,3,,,7008BJ,Doetinchem,Doetinchem,Gelderland,VBO,6.277773,51.967674
Karper,5,,,7008BJ,Doetinchem,Doetinchem,Gelderland,VBO,6.277685,51.967691
Karper,7,,,7008BJ,Doetinchem,Doetinchem,Gelderland,VBO,6.277630,51.967703
Karper,9,,,7008BJ,Doetinchem,Doetinchem,Gelderland,VBO,6.277532,51.967723
Karper,11,,,7008BJ,Doetinchem,Doetinchem,Gelderland,VBO,6.277478,51.967735
Karper,13,,,7008BJ,Doetinchem,Doetinchem,Gelderland,VBO,6.277191,51.967793
Karper,15,,,7008BJ,Doetinchem,Doetinchem,Gelderland,VBO,6.277124,51.967810
Karper,17,,,7008BJ,Doetinchem,Doetinchem,Gelderland,VBO,6.277034,51.967834
Karper,19,,,7008BJ,Doetinchem,Doetinchem,Gelderland,VBO,6.276969,51.967851
Karper,21,,,7008BJ,Doetinchem,Doetinchem,Gelderland,VBO,6.276881,51.967871
Karper,23,,,7008BJ,Doetinchem,Doetinchem,Gelderland,VBO,6.276810,51.967890
Karper,25,,,7008BJ,Doetinchem,Doetinchem,Gelderland,VBO,6.276758,51.967903
Karper,27,,,7008BJ,Doetinchem,Doetinchem,Gelderland,VBO,6.275672,51.968182
Karper,29,,,7008BJ,Doetinchem,Doetinchem,Gelderland,VBO,6.275585,51.968208
Karper,31,,,7008BJ,Doetinchem,Doetinchem,Gelderland,VBO,6.275524,51.968227
Karper,33,,,7008BJ,Doetinchem,Doetinchem,Gelderland,VBO,6.275448,51.968248
Karper,35,,,7008BJ,Doetinchem,Doetinchem,Gelderland,VBO,6.275386,51.968265
Karper,37,,,7008BJ,Doetinchem,Doetinchem,Gelderland,VBO,6.275302,51.968290
Karper,39,,,7008BJ,Doetinchem,Doetinchem,Gelderland,VBO,6.275240,51.968306
Karper,41,,,7008BJ,Doetinchem,Doetinchem,Gelderland,VBO,6.274970,51.968389
Karper,43,,,7008BJ,Doetinchem,Doetinchem,Gelderland,VBO,6.274906,51.968410
Karper,45,,,7008BJ,Doetinchem,Doetinchem,Gelderland,VBO,6.274826,51.968437
Karper,47,,,7008BJ,Doetinchem,Doetinchem,Gelderland,VBO,6.274768,51.968456
Karper,49,,,7008BJ,Doetinchem,Doetinchem,Gelderland,VBO,6.274688,51.968479
Karper,51,,,7008BJ,Doetinchem,Doetinchem,Gelderland,VBO,6.274627,51.968501
Brasem,2,,,7008BK,Doetinchem,Doetinchem,Gelderland,VBO,6.273901,51.968903
Brasem,4,,,7008BK,Doetinchem,Doetinchem,Gelderland,VBO,6.273901,51.968903
Brasem,6,,,7008BK,Doetinchem,Doetinchem,Gelderland,VBO,6.273901,51.968903
Brasem,8,,,7008BK,Doetinchem,Doetinchem,Gelderland,VBO,6.273901,51.968903
Brasem,10,,,7008BK,Doetinchem,Doetinchem,Gelderland,VBO,6.273901,51.968903
Brasem,12,,,7008BK,Doetinchem,Doetinchem,Gelderland,VBO,6.273901,51.968903
Brasem,14,,,7008BK,Doetinchem,Doetinchem,Gelderland,VBO,6.273901,51.968903
Brasem,16,,,7008BK,Doetinchem,Doetinchem,Gelderland,VBO,6.273901,51.968903
Brasem,18,,,7008BK,Doetinchem,Doetinchem,Gelderland,VBO,6.273901,51.968903
Brasem,20,,,7008BK,Doetinchem,Doetinchem,Gelderland,VBO,6.273901,51.968903
Brasem,22,,,7008BK,Doetinchem,Doetinchem,Gelderland,VBO,6.273901,51.968903
Brasem,24,,,7008BK,Doetinchem,Doetinchem,Gelderland,VBO,6.273901,51.968903
Brasem,26,,,7008BK,Doetinchem,Doetinchem,Gelderland,VBO,6.273901,51.968903
Brasem,28,,,7008BK,Doetinchem,Doetinchem,Gelderland,VBO,6.273901,51.968903
Brasem,30,,,7008BK,Doetinchem,Doetinchem,Gelderland,VBO,6.273901,51.968903
Brasem,32,,,7008BK,Doetinchem,Doetinchem,Gelderland,VBO,6.273901,51.968903
Brasem,34,,,7008BK,Doetinchem,Doetinchem,Gelderland,VBO,6.273901,51.968903
Brasem,36,,,7008BK,Doetinchem,Doetinchem,Gelderland,VBO,6.273901,51.968903
Brasem,38,,,7008BK,Doetinchem,Doetinchem,Gelderland,VBO,6.273901,51.968903
Brasem,40,,,7008BK,Doetinchem,Doetinchem,Gelderland,VBO,6.273901,51.968903
Brasem,42,,,7008BK,Doetinchem,Doetinchem,Gelderland,VBO,6.273901,51.968903
Brasem,44,,,7008BK,Doetinchem,Doetinchem,Gelderland,VBO,6.273901,51.968903
Brasem,46,,,7008BK,Doetinchem,Doetinchem,Gelderland,VBO,6.273901,51.968903
Brasem,48,,,7008BK,Doetinchem,Doetinchem,Gelderland,VBO,6.273901,51.968903
Brasem,50,,,7008BL,Doetinchem,Doetinchem,Gelderland,VBO,6.273542,51.968507
Brasem,52,,,7008BL,Doetinchem,Doetinchem,Gelderland,VBO,6.273542,51.968507
Brasem,54,,,7008BL,Doetinchem,Doetinchem,Gelderland,VBO,6.273542,51.968507
Brasem,56,,,7008BL,Doetinchem,Doetinchem,Gelderland,VBO,6.273542,51.968507
Brasem,58,,,7008BL,Doetinchem,Doetinchem,Gelderland,VBO,6.273542,51.968507
Brasem,60,,,7008BL,Doetinchem,Doetinchem,Gelderland,VBO,6.273542,51.968507
Brasem,62,,,7008BL,Doetinchem,Doetinchem,Gelderland,VBO,6.273542,51.968507
Brasem,64,,,7008BL,Doetinchem,Doetinchem,Gelderland,VBO,6.273542,51.968507
Brasem,66,,,7008BL,Doetinchem,Doetinchem,Gelderland,VBO,6.273542,51.968507
Brasem,68,,,7008BL,Doetinchem,Doetinchem,Gelderland,VBO,6.273542,51.968507
Brasem,70,,,7008BL,Doetinchem,Doetinchem,Gelderland,VBO,6.273542,51.968507
Brasem,72,,,7008BL,Doetinchem,Doetinchem,Gelderland,VBO,6.273542,51.968507
Brasem,74,,,7008BL,Doetinchem,Doetinchem,Gelderland,VBO,6.273542,51.968507
Brasem,76,,,7008BL,Doetinchem,Doetinchem,Gelderland,VBO,6.273542,51.968507
Brasem,78,,,7008BL,Doetinchem,Doetinchem,Gelderland,VBO,6.273542,51.968507
Brasem,80,,,7008BL,Doetinchem,Doetinchem,Gelderland,VBO,6.273542,51.968507
Brasem,82,,,7008BL,Doetinchem,Doetinchem,Gelderland,VBO,6.273542,51.968507
Brasem,84,,,7008BL,Doetinchem,Doetinchem,Gelderland,VBO,6.273542,51.968507
Brasem,86,,,7008BL,Doetinchem,Doetinchem,Gelderland,VBO,6.273542,51.968507
Brasem,88,,,7008BL,Doetinchem,Doetinchem,Gelderland,VBO,6.273542,51.968507
Brasem,90,,,7008BL,Doetinchem,Doetinchem,Gelderland,VBO,6.273542,51.968507
Brasem,92,,,7008BL,Doetinchem,Doetinchem,Gelderland,VBO,6.273542,51.968507
Brasem,94,,,7008BL,Doetinchem,Doetinchem,Gelderland,VBO,6.273542,51.968507
Brasem,96,,,7008BL,Doetinchem,Doetinchem,Gelderland,VBO,6.273542,51.968507
Brasem,98,,,7008BM,Doetinchem,Doetinchem,Gelderland,VBO,6.273219,51.968119
Brasem,100,,,7008BM,Doetinchem,Doetinchem,Gelderland,VBO,6.273219,51.968119
Brasem,102,,,7008BM,Doetinchem,Doetinchem,Gelderland,VBO,6.273219,51.968119
Brasem,104,,,7008BM,Doetinchem,Doetinchem,Gelderland,VBO,6.273219,51.968119
Brasem,106,,,7008BM,Doetinchem,Doetinchem,Gelderland,VBO,6.273219,51.968119
Brasem,108,,,7008BM,Doetinchem,Doetinchem,Gelderland,VBO,6.273219,51.968119
Brasem,110,,,7008BM,Doetinchem,Doetinchem,Gelderland,VBO,6.273219,51.968119
Brasem,112,,,7008BM,Doetinchem,Doetinchem,Gelderland,VBO,6.273219,51.968119
Brasem,114,,,7008BM,Doetinchem,Doetinchem,Gelderland,VBO,6.273219,51.968119
Brasem,116,,,7008BM,Doetinchem,Doetinchem,Gelderland,VBO,6.273219,51.968119
Brasem,118,,,7008BM,Doetinchem,Doetinchem,Gelderland,VBO,6.273219,51.968119
Brasem,120,,,7008BM,Doetinchem,Doetinchem,Gelderland,VBO,6.273219,51.968119
Brasem,122,,,7008BM,Doetinchem,Doetinchem,Gelderland,VBO,6.273219,51.968119
Brasem,124,,,7008BM,Doetinchem,Doetinchem,Gelderland,VBO,6.273219,51.968119
Brasem,126,,,7008BM,Doetinchem,Doetinchem,Gelderland,VBO,6.273219,51.968119
Brasem,128,,,7008BM,Doetinchem,Doetinchem,Gelderland,VBO,6.273219,51.968119
Brasem,130,,,7008BM,Doetinchem,Doetinchem,Gelderland,VBO,6.273219,51.968119
Brasem,132,,,7008BM,Doetinchem,Doetinchem,Gelderland,VBO,6.273219,51.968119
Brasem,134,,,7008BM,Doetinchem,Doetinchem,Gelderland,VBO,6.273219,51.968119
Brasem,136,,,7008BM,Doetinchem,Doetinchem,Gelderland,VBO,6.273219,51.968119
Brasem,138,,,7008BM,Doetinchem,Doetinchem,Gelderland,VBO,6.273219,51.968119
Brasem,140,,,7008BN,Doetinchem,Doetinchem,Gelderland,VBO,6.273050,51.967688
Brasem,142,,,7008BN,Doetinchem,Doetinchem,Gelderland,VBO,6.273050,51.967688
Brasem,144,,,7008BN,Doetinchem,Doetinchem,Gelderland,VBO,6.273050,51.967688
Brasem,146,,,7008BN,Doetinchem,Doetinchem,Gelderland,VBO,6.273050,51.967688
Brasem,148,,,7008BN,Doetinchem,Doetinchem,Gelderland,VBO,6.273050,51.967688
Brasem,150,,,7008BN,Doetinchem,Doetinchem,Gelderland,VBO,6.273050,51.967688
Brasem,152,,,7008BN,Doetinchem,Doetinchem,Gelderland,VBO,6.273050,51.967688
Brasem,154,,,7008BN,Doetinchem,Doetinchem,Gelderland,VBO,6.273050,51.967688
Brasem,156,,,7008BN,Doetinchem,Doetinchem,Gelderland,VBO,6.273050,51.967688
Brasem,158,,,7008BN,Doetinchem,Doetinchem,Gelderland,VBO,6.273050,51.967688
Brasem,160,,,7008BN,Doetinchem,Doetinchem,Gelderland,VBO,6.273050,51.967688
Brasem,162,,,7008BN,Doetinchem,Doetinchem,Gelderland,VBO,6.273624,51.967590
Brasem,164,,,7008BN,Doetinchem,Doetinchem,Gelderland,VBO,6.273624,51.967590
Brasem,166,,,7008BN,Doetinchem,Doetinchem,Gelderland,VBO,6.273624,51.967590
Brasem,168,,,7008BN,Doetinchem,Doetinchem,Gelderland,VBO,6.273624,51.967590
Brasem,170,,,7008BN,Doetinchem,Doetinchem,Gelderland,VBO,6.273624,51.967590
Brasem,172,,,7008BN,Doetinchem,Doetinchem,Gelderland,VBO,6.273624,51.967590
Brasem,174,,,7008BN,Doetinchem,Doetinchem,Gelderland,VBO,6.273624,51.967590
Brasem,176,,,7008BN,Doetinchem,Doetinchem,Gelderland,VBO,6.274176,51.967435
Brasem,178,,,7008BN,Doetinchem,Doetinchem,Gelderland,VBO,6.274176,51.967435
Brasem,180,,,7008BN,Doetinchem,Doetinchem,Gelderland,VBO,6.274176,51.967435
Brasem,182,,,7008BN,Doetinchem,Doetinchem,Gelderland,VBO,6.274176,51.967435
Brasem,184,,,7008BN,Doetinchem,Doetinchem,Gelderland,VBO,6.274176,51.967435
Brasem,186,,,7008BN,Doetinchem,Doetinchem,Gelderland,VBO,6.274176,51.967435
Brasem,188,,,7008BN,Doetinchem,Doetinchem,Gelderland,VBO,6.274176,51.967435
Brasem,190,,,7008BP,Doetinchem,Doetinchem,Gelderland,VBO,6.274747,51.967343
Brasem,192,,,7008BP,Doetinchem,Doetinchem,Gelderland,VBO,6.274747,51.967343
Brasem,194,,,7008BP,Doetinchem,Doetinchem,Gelderland,VBO,6.274747,51.967343
Brasem,196,,,7008BP,Doetinchem,Doetinchem,Gelderland,VBO,6.274747,51.967343
Brasem,198,,,7008BP,Doetinchem,Doetinchem,Gelderland,VBO,6.274747,51.967343
Brasem,200,,,7008BP,Doetinchem,Doetinchem,Gelderland,VBO,6.274747,51.967343
Brasem,202,,,7008BP,Doetinchem,Doetinchem,Gelderland,VBO,6.274747,51.967343
Brasem,204,,,7008BP,Doetinchem,Doetinchem,Gelderland,VBO,6.275336,51.967244
Brasem,206,,,7008BP,Doetinchem,Doetinchem,Gelderland,VBO,6.275336,51.967244
Brasem,208,,,7008BP,Doetinchem,Doetinchem,Gelderland,VBO,6.275336,51.967244
Brasem,210,,,7008BP,Doetinchem,Doetinchem,Gelderland,VBO,6.275336,51.967244
Brasem,212,,,7008BP,Doetinchem,Doetinchem,Gelderland,VBO,6.275336,51.967244
Brasem,214,,,7008BP,Doetinchem,Doetinchem,Gelderland,VBO,6.275336,51.967244
Brasem,216,,,7008BP,Doetinchem,Doetinchem,Gelderland,VBO,6.275336,51.967244
Brasem,220,,,7008BR,Doetinchem,Doetinchem,Gelderland,VBO,6.276172,51.967629
Brasem,222,,,7008BR,Doetinchem,Doetinchem,Gelderland,VBO,6.276221,51.967708
Brasem,224,,,7008BR,Doetinchem,Doetinchem,Gelderland,VBO,6.276270,51.967786
Brasem,226,,,7008BR,Doetinchem,Doetinchem,Gelderland,VBO,6.276318,51.967864
Brasem,228,,,7008BR,Doetinchem,Doetinchem,Gelderland,VBO,6.276367,51.967942
Brasem,230,,,7008BR,Doetinchem,Doetinchem,Gelderland,VBO,6.276416,51.968020
Brasem,15,,,7008BS,Doetinchem,Doetinchem,Gelderland,VBO,6.274324,51.968639
Brasem,17,,,7008BS,Doetinchem,Doetinchem,Gelderland,VBO,6.274259,51.968565
Brasem,19,,,7008BS,Doetinchem,Doetinchem,Gelderland,VBO,6.274196,51.968492
Brasem,21,,,7008BS,Doetinchem,Doetinchem,Gelderland,VBO,6.274132,51.968418
Brasem,23,,,7008BS,Doetinchem,Doetinchem,Gelderland,VBO,6.274069,51.968344
Brasem,25,,,7008BS,Doetinchem,Doetinchem,Gelderland,VBO,6.274004,51.968270
Brasem,35,,,7008BS,Doetinchem,Doetinchem,Gelderland,VBO,6.275712,51.967716
Brasem,37,,,7008BS,Doetinchem,Doetinchem,Gelderland,VBO,6.275769,51.967792
Brasem,39,,,7008BS,Doetinchem,Doetinchem,Gelderland,VBO,6.275826,51.967867
Brasem,41,,,7008BS,Doetinchem,Doetinchem,Gelderland,VBO,6.275883,51.967943
Brasem,43,,,7008BS,Doetinchem,Doetinchem,Gelderland,VBO,6.275940,51.968019
Brasem,45,,,7008BS,Doetinchem,Doetinchem,Gelderland,VBO,6.275997,51.968095
Rietvoorn,2,,,7008BT,Doetinchem,Doetinchem,Gelderland,VBO,6.277689,51.967296
Rietvoorn,4,,,7008BT,Doetinchem,Doetinchem,Gelderland,VBO,6.277563,51.967319
Rietvoorn,6,,,7008BT,Doetinchem,Doetinchem,Gelderland,VBO,6.277430,51.967345
Rietvoorn,8,,,7008BT,Doetinchem,Doetinchem,Gelderland,VBO,6.277299,51.967370
Rietvoorn,10,,,7008BT,Doetinchem,Doetinchem,Gelderland,VBO,6.276947,51.967499
Rietvoorn,12,,,7008BT,Doetinchem,Doetinchem,Gelderland,VBO,6.276806,51.967531
Rietvoorn,14,,,7008BT,Doetinchem,Doetinchem,Gelderland,VBO,6.276657,51.967566
Rietvoorn,16,,,7008BT,Doetinchem,Doetinchem,Gelderland,VBO,6.276508,51.967600
Rietvoorn,18,,,7008BT,Doetinchem,Doetinchem,Gelderland,VBO,6.275444,51.967875
Rietvoorn,20,,,7008BT,Doetinchem,Doetinchem,Gelderland,VBO,6.275324,51.967911
Rietvoorn,22,,,7008BT,Doetinchem,Doetinchem,Gelderland,VBO,6.275182,51.967952
Rietvoorn,24,,,7008BT,Doetinchem,Doetinchem,Gelderland,VBO,6.275039,51.967993
Rietvoorn,26,,,7008BT,Doetinchem,Doetinchem,Gelderland,VBO,6.274613,51.968074
Rietvoorn,28,,,7008BT,Doetinchem,Doetinchem,Gelderland,VBO,6.274494,51.968113
Rietvoorn,30,,,7008BT,Doetinchem,Doetinchem,Gelderland,VBO,6.274374,51.968152
Rietvoorn,32,,,7008BT,Doetinchem,Doetinchem,Gelderland,VBO,6.274246,51.968194
Rietvoorn,1,,,7008BV,Doetinchem,Doetinchem,Gelderland,VBO,6.277900,51.967066
Rietvoorn,3,,,7008BV,Doetinchem,Doetinchem,Gelderland,VBO,6.277721,51.967123
Rietvoorn,5,,,7008BV,Doetinchem,Doetinchem,Gelderland,VBO,6.277463,51.967154
Rietvoorn,7,,,7008BV,Doetinchem,Doetinchem,Gelderland,VBO,6.277267,51.967191
Rietvoorn,9,,,7008BV,Doetinchem,Doetinchem,Gelderland,VBO,6.276789,51.967292
Rietvoorn,11,,,7008BV,Doetinchem,Doetinchem,Gelderland,VBO,6.276555,51.967351
Rietvoorn,13,,,7008BV,Doetinchem,Doetinchem,Gelderland,VBO,6.276325,51.967402
Rietvoorn,15,,,7008BV,Doetinchem,Doetinchem,Gelderland,VBO,6.276125,51.967453
Maria Montessoristraat,3,,,7008CA,Doetinchem,Doetinchem,Gelderland,VBO,6.274619,51.969796
Maria Montessoristraat,5,,,7008CA,Doetinchem,Doetinchem,Gelderland,VBO,6.276536,51.970898
Maria Montessoristraat,9,,,7008CA,Doetinchem,Doetinchem,Gelderland,VBO,6.277778,51.970663
Maria Montessoristraat,11,,,7008CA,Doetinchem,Doetinchem,Gelderland,VBO,6.277971,51.970566
Maria Montessoristraat,13,,,7008CA,Doetinchem,Doetinchem,Gelderland,VBO,6.278140,51.970488
Maria Montessoristraat,15,,,7008CA,Doetinchem,Doetinchem,Gelderland,VBO,6.278371,51.970405
Maria Montessoristraat,17,,,7008CA,Doetinchem,Doetinchem,Gelderland,VBO,6.278587,51.970322
Maria Montessoristraat,19,,,7008CA,Doetinchem,Doetinchem,Gelderland,VBO,6.278827,51.970226
Maria Montessoristraat,21,,,7008CA,Doetinchem,Doetinchem,Gelderland,VBO,6.279029,51.970158
Maria Montessoristraat,23,,,7008CA,Doetinchem,Doetinchem,Gelderland,VBO,6.279262,51.970063
Maria Montessoristraat,25,,,7008CA,Doetinchem,Doetinchem,Gelderland,VBO,6.279488,51.970000
