openbareruimtenaam,huisnummer,huisletter,huisnummertoevoeging,postcode,woonplaatsnaam,gemeentenaam,provincienaam,typeadresseerbaarobject,longitude,latitude
Lage Heurnseweg,1,,,7095AA,De Heurne,Aalten,Gelderland,VBO,6.482290,51.872784
Lage Heurnseweg,3,,,7095AA,De Heurne,Aalten,Gelderland,VBO,6.483088,51.873461
Lage Heurnseweg,5,,,7095AA,De Heurne,Aalten,Gelderland,VBO,6.482368,51.873857
Lage Heurnseweg,9,,,7095AA,De Heurne,Aalten,Gelderland,VBO,6.482958,51.874400
Lage Heurnseweg,11,A,,7095AA,De Heurne,Aalten,Gelderland,VBO,6.482534,51.875558
Lage Heurnseweg,11,,,7095AA,De Heurne,Aalten,Gelderland,VBO,6.482536,51.875495
Lage Heurnseweg,13,,,7095AA,De Heurne,Aalten,Gelderland,VBO,6.483128,51.876172
Lage Heurnseweg,15,A,,7095AA,De Heurne,Aalten,Gelderland,VBO,6.483404,51.876952
Lage Heurnseweg,15,,,7095AA,De Heurne,Aalten,Gelderland,VBO,6.483391,51.876886
Lage Heurnseweg,2,A,,7095AB,De Heurne,Aalten,Gelderland,VBO,6.484700,51.872438
Lage Heurnseweg,2,,,7095AB,De Heurne,Aalten,Gelderland,VBO,6.483700,51.871562
Lage Heurnseweg,4,,,7095AB,De Heurne,Aalten,Gelderland,VBO,6.484748,51.873557
Lage Heurnseweg,6,,,7095AB,De Heurne,Aalten,Gelderland,VBO,6.484751,51.873486
Lage Heurnseweg,8,,,7095AB,De Heurne,Aalten,Gelderland,VBO,6.483875,51.874512
Lage Heurnseweg,10,A,,7095AB,De Heurne,Aalten,Gelderland,VBO,6.484319,51.875267
Lage Heurnseweg,10,,,7095AB,De Heurne,Aalten,Gelderland,VBO,6.484238,51.875351
Lage Heurnseweg,12,,,7095AB,De Heurne,Aalten,Gelderland,VBO,6.484075,51.876547
Lage Heurnseweg,14,,,7095AB,De Heurne,Aalten,Gelderland,VBO,6.484294,51.876963
Stegerdijk,1,,,7095AC,De Heurne,Aalten,Gelderland,VBO,6.485230,51.877708
Stegerdijk,2,A,,7095AC,De Heurne,Aalten,Gelderland,VBO,6.486776,51.877106
Stegerdijk,2,,,7095AC,De Heurne,Aalten,Gelderland,VBO,6.487012,51.877138
Stegerdijk,3,,,7095AC,De Heurne,Aalten,Gelderland,VBO,6.486115,51.877777
Stegerdijk,4,,,7095AC,De Heurne,Aalten,Gelderland,VBO,6.490137,51.877219
Stegerdijk,5,,,7095AC,De Heurne,Aalten,Gelderland,VBO,6.490408,51.877357
Stegerdijk,6,,,7095AC,De Heurne,Aalten,Gelderland,VBO,6.491488,51.876883
Stegerdijk,7,,,7095AC,De Heurne,Aalten,Gelderland,VBO,6.490671,51.878252
Stegerdijk,8,A,,7095AC,De Heurne,Aalten,Gelderland,VBO,6.492395,51.876570
Stegerdijk,8,,,7095AC,De Heurne,Aalten,Gelderland,VBO,6.492376,51.876631
Stegerdijk,9,A,,7095AC,De Heurne,Aalten,Gelderland,VBO,6.494051,51.878407
Stegerdijk,9,,,7095AC,De Heurne,Aalten,Gelderland,VBO,6.494298,51.878307
De Brink,1,,,7095AD,De Heurne,Aalten,Gelderland,VBO,6.490895,51.874192
De Brink,2,A,,7095AD,De Heurne,Aalten,Gelderland,VBO,6.492399,51.875496
De Brink,2,,,7095AD,De Heurne,Aalten,Gelderland,VBO,6.492439,51.875425
De Brink,3,,,7095AD,De Heurne,Aalten,Gelderland,VBO,6.490979,51.875298
De Brink,4,,,7095AD,De Heurne,Aalten,Gelderland,VBO,6.491070,51.875689
Nellisstraat,2,,,7095AG,De Heurne,Aalten,Gelderland,VBO,6.495184,51.881021
Nellisstraat,3,,,7095AG,De Heurne,Aalten,Gelderland,VBO,6.499393,51.882523
Welskerbos,1,,,7095AH,De Heurne,Aalten,Gelderland,VBO,6.495149,51.883390
Welskerbos,2,,,7095AH,De Heurne,Aalten,Gelderland,VBO,6.493889,51.886116
Welskerbos,3,,,7095AH,De Heurne,Aalten,Gelderland,VBO,6.494393,51.884225
Welskerbos,4,,,7095AH,De Heurne,Aalten,Gelderland,VBO,6.493749,51.886097
Welskerbos,5,,,7095AH,De Heurne,Aalten,Gelderland,VBO,6.494416,51.886362
De Riete,1,,,7095AJ,De Heurne,Aalten,Gelderland,VBO,6.493256,51.891227
De Riete,2,,,7095AJ,De Heurne,Aalten,Gelderland,VBO,6.493009,51.890943
De Riete,3,,,7095AJ,De Heurne,Aalten,Gelderland,VBO,6.493347,51.891353
De Riete,4,,,7095AJ,De Heurne,Aalten,Gelderland,VBO,6.493234,51.890783
De Riete,5,,,7095AJ,De Heurne,Aalten,Gelderland,VBO,6.493368,51.891417
De Riete,6,,,7095AJ,De Heurne,Aalten,Gelderland,VBO,6.493385,51.890757
De Riete,7,,,7095AJ,De Heurne,Aalten,Gelderland,VBO,6.493524,51.891874
De Riete,8,,,7095AJ,De Heurne,Aalten,Gelderland,VBO,6.493626,51.890994
De Riete,9,,,7095AJ,De Heurne,Aalten,Gelderland,VBO,6.493276,51.891952
De Riete,10,,,7095AJ,De Heurne,Aalten,Gelderland,VBO,6.493687,51.891148
De Riete,11,,,7095AJ,De Heurne,Aalten,Gelderland,VBO,6.493031,51.891992
De Riete,12,,,7095AJ,De Heurne,Aalten,Gelderland,VBO,6.493757,51.891251
De Riete,14,,,7095AJ,De Heurne,Aalten,Gelderland,VBO,6.493793,51.891338
De Riete,16,,,7095AJ,De Heurne,Aalten,Gelderland,VBO,6.493850,51.891483
De Riete,18,,,7095AJ,De Heurne,Aalten,Gelderland,VBO,6.493949,51.891655
De Riete,20,,,7095AJ,De Heurne,Aalten,Gelderland,VBO,6.494098,51.891973
De Riete,22,,,7095AJ,De Heurne,Aalten,Gelderland,VBO,6.493886,51.892034
De Riete,24,,,7095AJ,De Heurne,Aalten,Gelderland,VBO,6.493692,51.892100
De Riete,26,,,7095AJ,De Heurne,Aalten,Gelderland,VBO,6.493617,51.892128
De Riete,28,,,7095AJ,De Heurne,Aalten,Gelderland,VBO,6.493432,51.892218
De Riete,30,,,7095AJ,De Heurne,Aalten,Gelderland,VBO,6.493162,51.892268
Spekkendijk,1,,,7095AK,De Heurne,Aalten,Gelderland,VBO,6.489187,51.888202
Spekkendijk,3,,,7095AK,De Heurne,Aalten,Gelderland,VBO,6.489262,51.888134
Spekkendijk,5,,,7095AK,De Heurne,Aalten,Gelderland,VBO,6.489546,51.888082
Spekkendijk,7,,,7095AK,De Heurne,Aalten,Gelderland,VBO,6.489856,51.888126
Lage Heurnseweg,19,,,7095AL,De Heurne,Aalten,Gelderland,VBO,6.484740,51.878339
Lage Heurnseweg,21,A,,7095AL,De Heurne,Aalten,Gelderland,VBO,6.485121,51.879897
Lage Heurnseweg,21,,,7095AL,De Heurne,Aalten,Gelderland,VBO,6.485155,51.879836
Lage Heurnseweg,23,A,,7095AL,De Heurne,Aalten,Gelderland,VBO,6.484900,51.881200
Lage Heurnseweg,23,,,7095AL,De Heurne,Aalten,Gelderland,VBO,6.484975,51.881138
Lage Heurnseweg,25,A,,7095AL,De Heurne,Aalten,Gelderland,VBO,6.484249,51.881817
Lage Heurnseweg,25,,,7095AL,De Heurne,Aalten,Gelderland,VBO,6.484361,51.881762
Lage Heurnseweg,27,A,,7095AL,De Heurne,Aalten,Gelderland,VBO,6.482740,51.882892
Lage Heurnseweg,27,,,7095AL,De Heurne,Aalten,Gelderland,VBO,6.482361,51.882748
Lage Heurnseweg,29,,TR,7095AL,De Heurne,Aalten,Gelderland,VBO,6.485455,51.883197
Lage Heurnseweg,29,,,7095AL,De Heurne,Aalten,Gelderland,VBO,6.485274,51.883290
Lage Heurnseweg,31,,,7095AL,De Heurne,Aalten,Gelderland,VBO,6.485728,51.883637
Lage Heurnseweg,33,,,7095AL,De Heurne,Aalten,Gelderland,VBO,6.485695,51.885647
Lage Heurnseweg,35,,,7095AL,De Heurne,Aalten,Gelderland,VBO,6.485690,51.885760
Lage Heurnseweg,37,,,7095AL,De Heurne,Aalten,Gelderland,VBO,6.487411,51.887620
Lage Heurnseweg,16,,,7095AM,De Heurne,Aalten,Gelderland,VBO,6.485188,51.877789
Lage Heurnseweg,20,A,,7095AM,De Heurne,Aalten,Gelderland,VBO,6.485898,51.878976
Lage Heurnseweg,20,,,7095AM,De Heurne,Aalten,Gelderland,VBO,6.485743,51.879063
Lage Heurnseweg,22,,,7095AM,De Heurne,Aalten,Gelderland,VBO,6.485578,51.879902
Lage Heurnseweg,24,A,,7095AM,De Heurne,Aalten,Gelderland,VBO,6.485424,51.880423
Lage Heurnseweg,24,,,7095AM,De Heurne,Aalten,Gelderland,VBO,6.485404,51.880375
Lage Heurnseweg,26,A,,7095AM,De Heurne,Aalten,Gelderland,VBO,6.487497,51.880914
Lage Heurnseweg,26,B,,7095AM,De Heurne,Aalten,Gelderland,VBO,6.486940,51.880705
Lage Heurnseweg,26,,,7095AM,De Heurne,Aalten,Gelderland,VBO,6.485603,51.881273
Lage Heurnseweg,28,A,,7095AM,De Heurne,Aalten,Gelderland,VBO,6.486262,51.881646
Lage Heurnseweg,28,,,7095AM,De Heurne,Aalten,Gelderland,VBO,6.486173,51.881671
Lage Heurnseweg,30,A,,7095AM,De Heurne,Aalten,Gelderland,VBO,6.489873,51.882127
Lage Heurnseweg,30,,,7095AM,De Heurne,Aalten,Gelderland,VBO,6.490155,51.882128
Lage Heurnseweg,32,,,7095AM,De Heurne,Aalten,Gelderland,VBO,6.486271,51.883105
Lage Heurnseweg,34,,,7095AM,De Heurne,Aalten,Gelderland,VBO,6.488713,51.884043
Lage Heurnseweg,36,A,,7095AM,De Heurne,Aalten,Gelderland,VBO,6.487025,51.885046
Lage Heurnseweg,36,B,,7095AM,De Heurne,Aalten,Gelderland,VBO,6.487730,51.884825
Lage Heurnseweg,36,,,7095AM,De Heurne,Aalten,Gelderland,VBO,6.486721,51.885047
Lage Heurnseweg,40,A,,7095AM,De Heurne,Aalten,Gelderland,VBO,6.487974,51.887502
Lage Heurnseweg,40,,,7095AM,De Heurne,Aalten,Gelderland,VBO,6.487678,51.887418
Kamerstraat,1,,,7095AN,De Heurne,Aalten,Gelderland,VBO,6.480626,51.887238
Kamerstraat,2,,,7095AN,De Heurne,Aalten,Gelderland,VBO,6.481568,51.886632
Kamerstraat,3,,,7095AN,De Heurne,Aalten,Gelderland,VBO,6.481566,51.887481
Kamerstraat,4,A,,7095AN,De Heurne,Aalten,Gelderland,VBO,6.482180,51.887322
Kamerstraat,4,,,7095AN,De Heurne,Aalten,Gelderland,VBO,6.482131,51.887272
Kamerstraat,5,,,7095AN,De Heurne,Aalten,Gelderland,VBO,6.486069,51.887898
Kamerstraat,6,,,7095AN,De Heurne,Aalten,Gelderland,VBO,6.483707,51.887638
Kamerstraat,7,,,7095AN,De Heurne,Aalten,Gelderland,VBO,6.486795,51.887932
Kamerstraat,8,,,7095AN,De Heurne,Aalten,Gelderland,VBO,6.485102,51.887227
Oldenhofsdijk,1,A,,7095AP,De Heurne,Aalten,Gelderland,VBO,6.480247,51.891870
Oldenhofsdijk,1,,,7095AP,De Heurne,Aalten,Gelderland,VBO,6.480874,51.891210
Oldenhofsdijk,2,A,,7095AP,De Heurne,Aalten,Gelderland,VBO,6.482439,51.888475
Oldenhofsdijk,2,,,7095AP,De Heurne,Aalten,Gelderland,VBO,6.482553,51.888417
Oldenhofsdijk,3,A,,7095AP,De Heurne,Aalten,Gelderland,VBO,6.484172,51.895351
Oldenhofsdijk,3,,,7095AP,De Heurne,Aalten,Gelderland,VBO,6.484045,51.895241
Oldenhofsdijk,4,,,7095AP,De Heurne,Aalten,Gelderland,VBO,6.482330,51.892526
Oldenhofsdijk,6,,,7095AP,De Heurne,Aalten,Gelderland,VBO,6.482797,51.893835
Varsseveldseweg,1,,,7095AR,De Heurne,Aalten,Gelderland,VBO,6.486922,51.892478
Varsseveldseweg,7,,,7095AR,De Heurne,Aalten,Gelderland,VBO,6.485573,51.893264
Varsseveldseweg,9,,,7095AR,De Heurne,Aalten,Gelderland,VBO,6.487117,51.893769
Linderdijk,1,A,,7095AS,De Heurne,Aalten,Gelderland,VBO,6.490576,51.892798
Linderdijk,2,,,7095AS,De Heurne,Aalten,Gelderland,VBO,6.485449,51.891087
Linderdijk,3,,,7095AS,De Heurne,Aalten,Gelderland,VBO,6.487195,51.891933
Varsseveldseweg,2,,,7095AT,De Heurne,Aalten,Gelderland,VBO,6.490102,51.889709
Varsseveldseweg,4,,,7095AT,De Heurne,Aalten,Gelderland,VBO,6.489168,51.890602
Varsseveldseweg,6,,,7095AT,De Heurne,Aalten,Gelderland,VBO,6.488843,51.890870
Lage Heurnseweg,41,A,,7095AV,De Heurne,Aalten,Gelderland,VBO,6.488682,51.889240
Lage Heurnseweg,41,,,7095AV,De Heurne,Aalten,Gelderland,VBO,6.488561,51.889394
Lage Heurnseweg,42,,,7095AV,De Heurne,Aalten,Gelderland,VBO,6.488261,51.887631
Lage Heurnseweg,45,A,,7095AV,De Heurne,Aalten,Gelderland,VBO,6.491004,51.889770
Lage Heurnseweg,45,,,7095AV,De Heurne,Aalten,Gelderland,VBO,6.491062,51.889713
Lage Heurnseweg,46,A,,7095AV,De Heurne,Aalten,Gelderland,VBO,6.489748,51.888525
Lage Heurnseweg,46,,,7095AV,De Heurne,Aalten,Gelderland,VBO,6.489403,51.888345
Lage Heurnseweg,48,,,7095AV,De Heurne,Aalten,Gelderland,VBO,6.489954,51.888659
Lage Heurnseweg,50,,,7095AV,De Heurne,Aalten,Gelderland,VBO,6.490208,51.888794
Lage Heurnseweg,51,,,7095AV,De Heurne,Aalten,Gelderland,VBO,6.492102,51.891183
Lage Heurnseweg,52,A,,7095AV,De Heurne,Aalten,Gelderland,VBO,6.490817,51.889097
Lage Heurnseweg,52,,,7095AV,De Heurne,Aalten,Gelderland,VBO,6.490488,51.888926
Lage Heurnseweg,53,,,7095AV,De Heurne,Aalten,Gelderland,VBO,6.492233,51.891165
Lage Heurnseweg,54,,,7095AV,De Heurne,Aalten,Gelderland,VBO,6.491030,51.889258
Lage Heurnseweg,56,,,7095AV,De Heurne,Aalten,Gelderland,VBO,6.491167,51.889414
Lage Heurnseweg,58,,,7095AV,De Heurne,Aalten,Gelderland,VBO,6.491752,51.889598
Lage Heurnseweg,60,,,7095AV,De Heurne,Aalten,Gelderland,VBO,6.491833,51.889803
Lage Heurnseweg,62,,,7095AV,De Heurne,Aalten,Gelderland,VBO,6.491898,51.889860
Lage Heurnseweg,64,,,7095AV,De Heurne,Aalten,Gelderland,VBO,6.492045,51.890009
Lage Heurnseweg,66,,,7095AV,De Heurne,Aalten,Gelderland,VBO,6.492401,51.890315
Lage Heurnseweg,68,,,7095AV,De Heurne,Aalten,Gelderland,VBO,6.492512,51.890471
Lage Heurnseweg,70,A,,7095AV,De Heurne,Aalten,Gelderland,VBO,6.492598,51.890744
Lage Heurnseweg,72,,,7095AV,De Heurne,Aalten,Gelderland,VBO,6.492678,51.890924
Lage Heurnseweg,74,,,7095AV,De Heurne,Aalten,Gelderland,VBO,6.492856,51.891266
Lage Heurnseweg,76,,,7095AV,De Heurne,Aalten,Gelderland,VBO,6.492869,51.891468
Lage Heurnseweg,78,,,7095AV,De Heurne,Aalten,Gelderland,VBO,6.492950,51.891686
D H Keuperweg,1,,,7095AW,De Heurne,Aalten,Gelderland,VBO,6.492453,51.889587
D H Keuperweg,2,,,7095AW,De Heurne,Aalten,Gelderland,VBO,6.491301,51.889384
D H Keuperweg,3,,,7095AW,De Heurne,Aalten,Gelderland,VBO,6.492728,51.889589
D H Keuperweg,4,A,,7095AW,De Heurne,Aalten,Gelderland,VBO,6.492245,51.888889
D H Keuperweg,4,,,7095AW,De Heurne,Aalten,Gelderland,VBO,6.491764,51.889370
D H Keuperweg,5,,,7095AW,De Heurne,Aalten,Gelderland,VBO,6.492981,51.889567
D H Keuperweg,6,,,7095AW,De Heurne,Aalten,Gelderland,VBO,6.492093,51.889306
D H Keuperweg,7,A,,7095AW,De Heurne,Aalten,Gelderland,VBO,6.493692,51.889535
D H Keuperweg,7,B,,7095AW,De Heurne,Aalten,Gelderland,VBO,6.493785,51.889528
D H Keuperweg,7,,,7095AW,De Heurne,Aalten,Gelderland,VBO,6.493328,51.889559
D H Keuperweg,8,A,,7095AW,De Heurne,Aalten,Gelderland,VBO,6.492320,51.889320
D H Keuperweg,8,,,7095AW,De Heurne,Aalten,Gelderland,VBO,6.492227,51.889323
D H Keuperweg,9,,,7095AW,De Heurne,Aalten,Gelderland,VBO,6.494079,51.889514
D H Keuperweg,10,,,7095AW,De Heurne,Aalten,Gelderland,VBO,6.492788,51.889225
D H Keuperweg,12,,,7095AW,De Heurne,Aalten,Gelderland,VBO,6.492891,51.889221
D H Keuperweg,14,,,7095AW,De Heurne,Aalten,Gelderland,VBO,6.493068,51.889211
D H Keuperweg,16,,,7095AW,De Heurne,Aalten,Gelderland,VBO,6.493171,51.889207
D H Keuperweg,18,B,,7095AW,De Heurne,Aalten,Gelderland,VBO,6.493785,51.889206
D H Keuperweg,18,,,7095AW,De Heurne,Aalten,Gelderland,VBO,6.493520,51.889256
D H Keuperweg,20,,,7095AW,De Heurne,Aalten,Gelderland,VBO,6.494195,51.889197
Keizerweg,1,,,7095AX,De Heurne,Aalten,Gelderland,VBO,6.495582,51.889965
Keizerweg,2,A,,7095AX,De Heurne,Aalten,Gelderland,VBO,6.494107,51.888772
Keizerweg,2,,,7095AX,De Heurne,Aalten,Gelderland,VBO,6.493344,51.888407
Keizerweg,3,A,,7095AX,De Heurne,Aalten,Gelderland,VBO,6.495617,51.890453
Keizerweg,3,,,7095AX,De Heurne,Aalten,Gelderland,VBO,6.495543,51.890534
Keizerweg,4,A,,7095AX,De Heurne,Aalten,Gelderland,VBO,6.495032,51.890822
Keizerweg,4,,,7095AX,De Heurne,Aalten,Gelderland,VBO,6.495037,51.890746
Keizerweg,5,,,7095AX,De Heurne,Aalten,Gelderland,VBO,6.495246,51.892384
Keizerweg,6,,,7095AX,De Heurne,Aalten,Gelderland,VBO,6.495019,51.891101
Keizerweg,7,,,7095AX,De Heurne,Aalten,Gelderland,VBO,6.495199,51.892462
Keizerweg,9,,,7095AX,De Heurne,Aalten,Gelderland,VBO,6.495260,51.892593
Keizerweg,16,,,7095AX,De Heurne,Aalten,Gelderland,VBO,6.494881,51.891782
Nijmansdijk,1,A,,7095AZ,De Heurne,Aalten,Gelderland,VBO,6.495006,51.893244
Nijmansdijk,1,,,7095AZ,De Heurne,Aalten,Gelderland,VBO,6.494270,51.893081
Nijmansdijk,2,,,7095AZ,De Heurne,Aalten,Gelderland,VBO,6.493333,51.892639
Nijmansdijk,3,,,7095AZ,De Heurne,Aalten,Gelderland,VBO,6.497160,51.894181
Nijmansdijk,4,,,7095AZ,De Heurne,Aalten,Gelderland,VBO,6.493407,51.892655
Nijmansdijk,5,,,7095AZ,De Heurne,Aalten,Gelderland,VBO,6.498411,51.894501
Nijmansdijk,6,,,7095AZ,De Heurne,Aalten,Gelderland,VBO,6.495175,51.893004
Nijmansdijk,7,,,7095AZ,De Heurne,Aalten,Gelderland,VBO,6.499034,51.894545
Nijmansdijk,8,,,7095AZ,De Heurne,Aalten,Gelderland,VBO,6.497583,51.893545
Nijmansdijk,9,,,7095AZ,De Heurne,Aalten,Gelderland,VBO,6.499756,51.894472
Nijmansdijk,10,,,7095AZ,De Heurne,Aalten,Gelderland,VBO,6.498382,51.893634
Nijmansdijk,12,,,7095AZ,De Heurne,Aalten,Gelderland,VBO,6.498423,51.893684
Nijmansdijk,14,A,,7095AZ,De Heurne,Aalten,Gelderland,VBO,6.498809,51.893664
Nijmansdijk,14,,,7095AZ,De Heurne,Aalten,Gelderland,VBO,6.498749,51.893781
Nijmansdijk,16,A,,7095AZ,De Heurne,Aalten,Gelderland,VBO,6.499145,51.892966
Nijmansdijk,16,,,7095AZ,De Heurne,Aalten,Gelderland,VBO,6.499118,51.893018
Nijmansdijk,18,,,7095AZ,De Heurne,Aalten,Gelderland,VBO,6.499992,51.893387
Honkerbosweg,1,,,7095BA,De Heurne,Aalten,Gelderland,VBO,6.500902,51.894713
Honkerbosweg,2,,,7095BA,De Heurne,Aalten,Gelderland,VBO,6.502529,51.894017
Honkerbosweg,3,,,7095BA,De Heurne,Aalten,Gelderland,VBO,6.503688,51.894917
Honkerbosweg,4,,,7095BA,De Heurne,Aalten,Gelderland,VBO,6.505565,51.893487
Honkerbosweg,6,,,7095BA,De Heurne,Aalten,Gelderland,VBO,6.503368,51.894048
Geunstraat,1,A,,7095BB,De Heurne,Aalten,Gelderland,VBO,6.497930,51.896567
Geunstraat,1,,,7095BB,De Heurne,Aalten,Gelderland,VBO,6.497718,51.896590
Geunstraat,2,,,7095BB,De Heurne,Aalten,Gelderland,VBO,6.500213,51.895857
Geunstraat,4,A,,7095BB,De Heurne,Aalten,Gelderland,VBO,6.500120,51.895956
Geunstraat,4,,,7095BB,De Heurne,Aalten,Gelderland,VBO,6.500069,51.895843
Geunstraat,6,,,7095BB,De Heurne,Aalten,Gelderland,VBO,6.498396,51.897496
Caspersstraat,1,,,7095BC,De Heurne,Aalten,Gelderland,VBO,6.493350,51.893236
Caspersstraat,2,A,,7095BC,De Heurne,Aalten,Gelderland,VBO,6.494523,51.894090
Caspersstraat,2,B,,7095BC,De Heurne,Aalten,Gelderland,VBO,6.493884,51.893394
Caspersstraat,2,,,7095BC,De Heurne,Aalten,Gelderland,VBO,6.493743,51.893216
Caspersstraat,4,A,,7095BC,De Heurne,Aalten,Gelderland,VBO,6.494903,51.894399
Caspersstraat,4,,,7095BC,De Heurne,Aalten,Gelderland,VBO,6.494716,51.894135
Caspersstraat,5,,,7095BC,De Heurne,Aalten,Gelderland,VBO,6.494315,51.896356
Caspersstraat,6,,,7095BC,De Heurne,Aalten,Gelderland,VBO,6.494853,51.895080
Caspersstraat,7,,,7095BC,De Heurne,Aalten,Gelderland,VBO,6.494363,51.896430
Caspersstraat,8,A,,7095BC,De Heurne,Aalten,Gelderland,VBO,6.494982,51.895424
Caspersstraat,8,,,7095BC,De Heurne,Aalten,Gelderland,VBO,6.494884,51.895609
Caspersstraat,10,A,,7095BC,De Heurne,Aalten,Gelderland,VBO,6.495913,51.896193
Caspersstraat,10,,TR,7095BC,De Heurne,Aalten,Gelderland,VBO,6.495071,51.896554
Caspersstraat,10,,,7095BC,De Heurne,Aalten,Gelderland,VBO,6.495261,51.896564
Caspersstraat,11,,,7095BC,De Heurne,Aalten,Gelderland,VBO,6.495948,51.897702
Caspersstraat,12,,,7095BC,De Heurne,Aalten,Gelderland,VBO,6.498336,51.897561
Brussendijk,1,,,7095BD,De Heurne,Aalten,Gelderland,VBO,6.492379,51.893806
Brussendijk,2,,TR,7095BD,De Heurne,Aalten,Gelderland,VBO,6.493382,51.894044
Brussendijk,2,,,7095BD,De Heurne,Aalten,Gelderland,VBO,6.492990,51.893885
Brussendijk,3,,,7095BD,De Heurne,Aalten,Gelderland,VBO,6.488468,51.894417
Brussendijk,4,,,7095BD,De Heurne,Aalten,Gelderland,VBO,6.492275,51.894331
Brussendijk,6,,,7095BD,De Heurne,Aalten,Gelderland,VBO,6.491315,51.894366
Apenhorsterweg,1,A,,7095BE,De Heurne,Aalten,Gelderland,VBO,6.477737,51.899761
Apenhorsterweg,1,,,7095BE,De Heurne,Aalten,Gelderland,VBO,6.477826,51.899676
Apenhorsterweg,2,A,,7095BE,De Heurne,Aalten,Gelderland,VBO,6.478992,51.897796
Apenhorsterweg,2,,,7095BE,De Heurne,Aalten,Gelderland,VBO,6.478988,51.898196
Apenhorsterweg,3,,,7095BE,De Heurne,Aalten,Gelderland,VBO,6.480092,51.899924
Apenhorsterweg,4,A,,7095BE,De Heurne,Aalten,Gelderland,VBO,6.482470,51.898127
Apenhorsterweg,4,,,7095BE,De Heurne,Aalten,Gelderland,VBO,6.482119,51.897574
Varsseveldseweg,10,A,,7095BG,De Heurne,Aalten,Gelderland,VBO,6.487499,51.902107
Varsseveldseweg,10,,,7095BG,De Heurne,Aalten,Gelderland,VBO,6.487440,51.902105
Varsseveldseweg,11,,,7095BG,De Heurne,Aalten,Gelderland,VBO,6.486778,51.901835
Varsseveldseweg,12,,,7095BG,De Heurne,Aalten,Gelderland,VBO,6.487802,51.904078
Jurdensdijk,1,A,,7095BH,De Heurne,Aalten,Gelderland,VBO,6.493993,51.904457
Jurdensdijk,1,,,7095BH,De Heurne,Aalten,Gelderland,VBO,6.493229,51.904465
Jurdensdijk,3,,,7095BH,De Heurne,Aalten,Gelderland,VBO,6.496709,51.905072
Jurdensdijk,5,A,,7095BH,De Heurne,Aalten,Gelderland,VBO,6.498855,51.905724
Jurdensdijk,5,,,7095BH,De Heurne,Aalten,Gelderland,VBO,6.498833,51.905673
Jurdensdijk,7,,,7095BH,De Heurne,Aalten,Gelderland,VBO,6.500869,51.905421
Apenhorsterweg,5,A,,7095BJ,De Heurne,Aalten,Gelderland,VBO,6.491662,51.901301
Apenhorsterweg,5,B,,7095BJ,De Heurne,Aalten,Gelderland,VBO,6.491418,51.901323
Apenhorsterweg,5,,,7095BJ,De Heurne,Aalten,Gelderland,VBO,6.488887,51.900175
Apenhorsterweg,6,,,7095BJ,De Heurne,Aalten,Gelderland,VBO,6.490031,51.898724
Apenhorsterweg,7,A,,7095BJ,De Heurne,Aalten,Gelderland,VBO,6.495276,51.900240
Apenhorsterweg,7,,,7095BJ,De Heurne,Aalten,Gelderland,VBO,6.495111,51.900241
Apenhorsterweg,9,,,7095BJ,De Heurne,Aalten,Gelderland,VBO,6.497727,51.901056
Caspersstraat,13,,,7095BK,De Heurne,Aalten,Gelderland,VBO,6.502710,51.899629
Caspersstraat,14,,,7095BK,De Heurne,Aalten,Gelderland,VBO,6.500330,51.898059
Caspersstraat,15,A,,7095BK,De Heurne,Aalten,Gelderland,VBO,6.508875,51.901250
Caspersstraat,15,B,,7095BK,De Heurne,Aalten,Gelderland,VBO,6.509196,51.901172
Caspersstraat,15,,,7095BK,De Heurne,Aalten,Gelderland,VBO,6.505194,51.899922
Caspersstraat,16,,,7095BK,De Heurne,Aalten,Gelderland,VBO,6.500865,51.898605
Caspersstraat,18,,,7095BK,De Heurne,Aalten,Gelderland,VBO,6.502246,51.898103
Caspersstraat,20,,,7095BK,De Heurne,Aalten,Gelderland,VBO,6.504064,51.898747
Caspersstraat,24,,,7095BK,De Heurne,Aalten,Gelderland,VBO,6.504727,51.899459
Veenweg,1,,,7095BL,De Heurne,Aalten,Gelderland,VBO,6.500977,51.900145
Veenweg,3,,,7095BL,De Heurne,Aalten,Gelderland,VBO,6.501302,51.901753
Teunismolenweg,1,A,,7095BM,De Heurne,Aalten,Gelderland,VBO,6.503038,51.901457
Teunismolenweg,1,,,7095BM,De Heurne,Aalten,Gelderland,VBO,6.503135,51.901499
Teunismolenweg,2,A,,7095BM,De Heurne,Aalten,Gelderland,VBO,6.505680,51.900716
Teunismolenweg,2,,,7095BM,De Heurne,Aalten,Gelderland,VBO,6.505561,51.900835
Teunismolenweg,3,,,7095BM,De Heurne,Aalten,Gelderland,VBO,6.502805,51.901945
Teunismolenweg,4,,,7095BM,De Heurne,Aalten,Gelderland,VBO,6.503601,51.901897
Teunismolenweg,6,A,,7095BM,De Heurne,Aalten,Gelderland,VBO,6.503073,51.902054
Teunismolenweg,6,,,7095BM,De Heurne,Aalten,Gelderland,VBO,6.503236,51.902005
Teunismolenweg,8,,,7095BM,De Heurne,Aalten,Gelderland,VBO,6.503001,51.902287
Teunisbroek,2,,,7095BN,De Heurne,Aalten,Gelderland,VBO,6.505317,51.903108
Teunisbroek,4,,,7095BN,De Heurne,Aalten,Gelderland,VBO,6.506901,51.904180
Kemperjanshuisweg,1,A,,7095BP,De Heurne,Aalten,Gelderland,VBO,6.509327,51.903295
Kemperjanshuisweg,1,,,7095BP,De Heurne,Aalten,Gelderland,VBO,6.509365,51.903197
Kemperjanshuisweg,2,A,,7095BP,De Heurne,Aalten,Gelderland,VBO,6.510242,51.904947
Kemperjanshuisweg,2,,,7095BP,De Heurne,Aalten,Gelderland,VBO,6.510409,51.904920
Kemperjanshuisweg,3,,,7095BP,De Heurne,Aalten,Gelderland,VBO,6.505221,51.906349
Kemperjanshuisweg,4,,,7095BP,De Heurne,Aalten,Gelderland,VBO,6.507685,51.905699
Jurdensdijk,2,,,7095BR,De Heurne,Aalten,Gelderland,VBO,6.491250,51.902764
Caspersstraat,17,,,7095BS,De Heurne,Aalten,Gelderland,VBO,6.510967,51.901498
Caspersstraat,19,A,,7095BS,De Heurne,Aalten,Gelderland,VBO,6.512305,51.904235
Caspersstraat,19,,,7095BS,De Heurne,Aalten,Gelderland,VBO,6.511725,51.904208
Caspersstraat,21,A,,7095BS,De Heurne,Aalten,Gelderland,VBO,6.512745,51.904588
Caspersstraat,21,,,7095BS,De Heurne,Aalten,Gelderland,VBO,6.512766,51.904508
Caspersstraat,23,,,7095BS,De Heurne,Aalten,Gelderland,VBO,6.513726,51.908143
Caspersstraat,25,,,7095BS,De Heurne,Aalten,Gelderland,VBO,6.515297,51.906002
Caspersstraat,27,,,7095BS,De Heurne,Aalten,Gelderland,VBO,6.518549,51.909878
Dersenkamp,2,,,7095BS,De Heurne,Aalten,Gelderland,VBO,6.506703,51.901721
Dersenkamp,4,,,7095BS,De Heurne,Aalten,Gelderland,VBO,6.507890,51.902253
Caspersstraat,26,,,7095BT,De Heurne,Aalten,Gelderland,VBO,6.507601,51.899194
Caspersstraat,28,,,7095BT,De Heurne,Aalten,Gelderland,VBO,6.509517,51.900167
Caspersstraat,30,,,7095BT,De Heurne,Aalten,Gelderland,VBO,6.511037,51.900827
Caspersstraat,32,A,,7095BT,De Heurne,Aalten,Gelderland,VBO,6.513398,51.903481
Caspersstraat,32,,,7095BT,De Heurne,Aalten,Gelderland,VBO,6.513300,51.903429
Caspersstraat,34,A,,7095BT,De Heurne,Aalten,Gelderland,VBO,6.515479,51.904081
Caspersstraat,34,B,,7095BT,De Heurne,Aalten,Gelderland,VBO,6.515926,51.903740
Caspersstraat,34,,,7095BT,De Heurne,Aalten,Gelderland,VBO,6.515640,51.904175
Caspersstraat,36,,,7095BT,De Heurne,Aalten,Gelderland,VBO,6.517926,51.903945
Caspersstraat,38,,,7095BT,De Heurne,Aalten,Gelderland,VBO,6.516539,51.905931
Caspersstraat,40,,,7095BT,De Heurne,Aalten,Gelderland,VBO,6.519069,51.907232
Caspersstraat,42,,,7095BT,De Heurne,Aalten,Gelderland,VBO,6.523076,51.908981
Abstegerdijk,1,,,7095BV,De Heurne,Aalten,Gelderland,VBO,6.513893,51.901076
Abstegerdijk,2,,,7095BV,De Heurne,Aalten,Gelderland,VBO,6.514421,51.900101
Abstegerdijk,3,,,7095BV,De Heurne,Aalten,Gelderland,VBO,6.517735,51.899841
Abstegerdijk,4,,,7095BV,De Heurne,Aalten,Gelderland,VBO,6.522596,51.896924
Abstegerdijk,6,,,7095BV,De Heurne,Aalten,Gelderland,VBO,6.522994,51.896700
Teubenweg,1,,,7095BW,De Heurne,Aalten,Gelderland,VBO,6.517169,51.896734
Teubenweg,2,,,7095BW,De Heurne,Aalten,Gelderland,VBO,6.516040,51.895248
Teubenweg,3,,,7095BW,De Heurne,Aalten,Gelderland,VBO,6.520552,51.898056
Teubenweg,4,,,7095BW,De Heurne,Aalten,Gelderland,VBO,6.519658,51.896190
Teubenweg,5,,,7095BW,De Heurne,Aalten,Gelderland,VBO,6.521001,51.900363
Teubenweg,7,,,7095BW,De Heurne,Aalten,Gelderland,VBO,6.524073,51.899387
Geersweg,1,A,,7095BX,De Heurne,Aalten,Gelderland,VBO,6.511543,51.894574
Geersweg,1,B,,7095BX,De Heurne,Aalten,Gelderland,VBO,6.511432,51.894537
Geersweg,1,,,7095BX,De Heurne,Aalten,Gelderland,VBO,6.511908,51.893628
Geersweg,3,,,7095BX,De Heurne,Aalten,Gelderland,VBO,6.513222,51.894928
Giebinkslat,6,A,,7095BX,De Heurne,Aalten,Gelderland,VBO,6.514077,51.896250
Giebinkslat,6,,TR,7095BX,De Heurne,Aalten,Gelderland,VBO,6.514631,51.896006
Giebinkslat,6,,,7095BX,De Heurne,Aalten,Gelderland,VBO,6.513957,51.896266
Giebinkslat,8,A,,7095BX,De Heurne,Aalten,Gelderland,VBO,6.510571,51.897302
Giebinkslat,8,,,7095BX,De Heurne,Aalten,Gelderland,VBO,6.510546,51.897198
Gelkinkweg,1,A,,7095BZ,De Heurne,Aalten,Gelderland,VBO,6.505068,51.890896
Gelkinkweg,1,,,7095BZ,De Heurne,Aalten,Gelderland,VBO,6.505262,51.890957
Gelkinkweg,2,A,,7095BZ,De Heurne,Aalten,Gelderland,VBO,6.504082,51.890836
Gelkinkweg,2,,,7095BZ,De Heurne,Aalten,Gelderland,VBO,6.504298,51.890801
Ovinkveld,2,,,7095CA,De Heurne,Aalten,Gelderland,VBO,6.503607,51.889803
Ovinkveld,4,,,7095CA,De Heurne,Aalten,Gelderland,VBO,6.502056,51.890604
Gelkinkweg,3,,,7095CB,De Heurne,Aalten,Gelderland,VBO,6.509881,51.890346
Gelkinkweg,4,A,,7095CB,De Heurne,Aalten,Gelderland,VBO,6.509339,51.889297
Gelkinkweg,4,,,7095CB,De Heurne,Aalten,Gelderland,VBO,6.509246,51.889253
Gelkinkweg,5,,,7095CB,De Heurne,Aalten,Gelderland,VBO,6.515021,51.892524
Gelkinkweg,6,,,7095CB,De Heurne,Aalten,Gelderland,VBO,6.509538,51.890061
Gelkinkweg,7,,,7095CB,De Heurne,Aalten,Gelderland,VBO,6.523120,51.894585
Gelkinkweg,8,A,,7095CB,De Heurne,Aalten,Gelderland,VBO,6.510154,51.889948
Gelkinkweg,8,,,7095CB,De Heurne,Aalten,Gelderland,VBO,6.510030,51.890048
Gelkinkweg,10,,,7095CB,De Heurne,Aalten,Gelderland,VBO,6.511624,51.891146
Gelkinkweg,12,,,7095CB,De Heurne,Aalten,Gelderland,VBO,6.512507,51.891821
Gelkinkweg,14,A,,7095CB,De Heurne,Aalten,Gelderland,VBO,6.514506,51.891304
Gelkinkweg,14,,,7095CB,De Heurne,Aalten,Gelderland,VBO,6.514673,51.891386
Gelkinkweg,16,A,,7095CB,De Heurne,Aalten,Gelderland,VBO,6.519664,51.893202
Gelkinkweg,16,,,7095CB,De Heurne,Aalten,Gelderland,VBO,6.519633,51.893257
Giebinkslat,1,,,7095CC,De Heurne,Aalten,Gelderland,VBO,6.516359,51.888192
Giebinkslat,2,A,,7095CC,De Heurne,Aalten,Gelderland,VBO,6.516899,51.891416
Giebinkslat,2,,,7095CC,De Heurne,Aalten,Gelderland,VBO,6.516761,51.891391
Giebinkslat,3,,,7095CC,De Heurne,Aalten,Gelderland,VBO,6.515149,51.888475
Giebinkslat,4,,,7095CC,De Heurne,Aalten,Gelderland,VBO,6.516725,51.892377
Giebinkslat,5,A,,7095CC,De Heurne,Aalten,Gelderland,VBO,6.515179,51.891088
Giebinkslat,5,,,7095CC,De Heurne,Aalten,Gelderland,VBO,6.514619,51.890772
Giebinkslat,7,A,,7095CC,De Heurne,Aalten,Gelderland,VBO,6.507102,51.894596
Giebinkslat,7,,,7095CC,De Heurne,Aalten,Gelderland,VBO,6.506905,51.894662
Welskerveen,1,A,,7095CD,De Heurne,Aalten,Gelderland,VBO,6.507001,51.885741
Welskerveen,1,B,,7095CD,De Heurne,Aalten,Gelderland,VBO,6.506941,51.885787
Welskerveen,1,,,7095CD,De Heurne,Aalten,Gelderland,VBO,6.504159,51.885260
Welskerveen,3,A,,7095CD,De Heurne,Aalten,Gelderland,VBO,6.508524,51.886046
Welskerveen,3,,,7095CD,De Heurne,Aalten,Gelderland,VBO,6.508605,51.886061
Welskerveen,5,,,7095CD,De Heurne,Aalten,Gelderland,VBO,6.510941,51.886993
Welskerveen,7,,,7095CD,De Heurne,Aalten,Gelderland,VBO,6.512992,51.885571
Welskerveen,9,,,7095CD,De Heurne,Aalten,Gelderland,VBO,6.515029,51.886331
Welskerveen,11,,,7095CD,De Heurne,Aalten,Gelderland,VBO,6.514384,51.887091
Spekkendijk,6,,,7095CE,De Heurne,Aalten,Gelderland,VBO,6.488807,51.887684
Spekkendijk,8,,,7095CE,De Heurne,Aalten,Gelderland,VBO,6.489446,51.887758
Spekkendijk,9,,,7095CE,De Heurne,Aalten,Gelderland,VBO,6.490234,51.888166
Spekkendijk,10,,,7095CE,De Heurne,Aalten,Gelderland,VBO,6.489755,51.887736
Spekkendijk,11,,,7095CE,De Heurne,Aalten,Gelderland,VBO,6.490397,51.888128
Spekkendijk,12,,,7095CE,De Heurne,Aalten,Gelderland,VBO,6.490072,51.887710
Spekkendijk,13,,,7095CE,De Heurne,Aalten,Gelderland,VBO,6.492184,51.888081
Spekkendijk,14,,,7095CE,De Heurne,Aalten,Gelderland,VBO,6.490782,51.887600
Spekkendijk,15,,,7095CE,De Heurne,Aalten,Gelderland,VBO,6.492321,51.888090
Spekkendijk,22,,,7095CE,De Heurne,Aalten,Gelderland,VBO,6.492172,51.887672
Spekkendijk,24,A,,7095CE,De Heurne,Aalten,Gelderland,VBO,6.492764,51.887717
Spekkendijk,26,,,7095CE,De Heurne,Aalten,Gelderland,VBO,6.498887,51.885573
Spekkendijk,27,,,7095CE,De Heurne,Aalten,Gelderland,VBO,6.496198,51.888218
Spekkendijk,34,,,7095CE,De Heurne,Aalten,Gelderland,VBO,6.504896,51.883396
Spekkendijk,36,A,,7095CE,De Heurne,Aalten,Gelderland,VBO,6.506058,51.882980
Spekkendijk,36,,,7095CE,De Heurne,Aalten,Gelderland,VBO,6.505877,51.883487
Spekkendijk,37,A,,7095CE,De Heurne,Aalten,Gelderland,VBO,6.506662,51.883719
Spekkendijk,37,,,7095CE,De Heurne,Aalten,Gelderland,VBO,6.506577,51.883627
Spekkendijk,38,,,7095CE,De Heurne,Aalten,Gelderland,VBO,6.506958,51.883037
Spekkendijk,39,A,,7095CE,De Heurne,Aalten,Gelderland,VBO,6.507112,51.883843
Spekkendijk,39,,,7095CE,De Heurne,Aalten,Gelderland,VBO,6.507034,51.883765
Spekkendijk,41,,,7095CE,De Heurne,Aalten,Gelderland,VBO,6.509197,51.881840
Hoge Heurnseweg,9,,,7095CH,De Heurne,Aalten,Gelderland,VBO,6.497261,51.876529
Hoge Heurnseweg,11,,,7095CH,De Heurne,Aalten,Gelderland,VBO,6.499992,51.880311
Hoge Heurnseweg,13,,,7095CH,De Heurne,Aalten,Gelderland,VBO,6.499852,51.881344
Hoge Heurnseweg,14,A,,7095CH,De Heurne,Aalten,Gelderland,VBO,6.499951,51.879518
Hoge Heurnseweg,14,B,,7095CH,De Heurne,Aalten,Gelderland,VBO,6.503052,51.880724
Hoge Heurnseweg,14,,TR,7095CH,De Heurne,Aalten,Gelderland,VBO,6.502656,51.880561
Hoge Heurnseweg,14,,,7095CH,De Heurne,Aalten,Gelderland,VBO,6.498739,51.879044
Hoge Heurnseweg,15,,,7095CH,De Heurne,Aalten,Gelderland,VBO,6.499830,51.881405
Hoge Heurnseweg,16,,,7095CH,De Heurne,Aalten,Gelderland,VBO,6.500103,51.882445
Hoge Heurnseweg,17,,,7095CH,De Heurne,Aalten,Gelderland,VBO,6.500325,51.883378
Hoge Heurnseweg,19,A,,7095CH,De Heurne,Aalten,Gelderland,VBO,6.499875,51.883859
Hoge Heurnseweg,19,,,7095CH,De Heurne,Aalten,Gelderland,VBO,6.500087,51.883957
Hoge Heurnseweg,1,,,7095CJ,De Heurne,Aalten,Gelderland,VBO,6.500943,51.871209
Hoge Heurnseweg,2,A,,7095CJ,De Heurne,Aalten,Gelderland,VBO,6.501149,51.872118
Hoge Heurnseweg,2,B,,7095CJ,De Heurne,Aalten,Gelderland,VBO,6.501156,51.872207
Hoge Heurnseweg,2,,,7095CJ,De Heurne,Aalten,Gelderland,VBO,6.501548,51.870846
Hoge Heurnseweg,3,,,7095CJ,De Heurne,Aalten,Gelderland,VBO,6.497940,51.874849
Hoge Heurnseweg,4,,,7095CJ,De Heurne,Aalten,Gelderland,VBO,6.503675,51.873691
Hoge Heurnseweg,5,,,7095CJ,De Heurne,Aalten,Gelderland,VBO,6.497948,51.875503
Hoge Heurnseweg,6,A,,7095CJ,De Heurne,Aalten,Gelderland,VBO,6.504009,51.874287
Hoge Heurnseweg,6,B,,7095CJ,De Heurne,Aalten,Gelderland,VBO,6.504766,51.874639
Hoge Heurnseweg,6,,,7095CJ,De Heurne,Aalten,Gelderland,VBO,6.503378,51.874374
Hoge Heurnseweg,7,,,7095CJ,De Heurne,Aalten,Gelderland,VBO,6.497851,51.875545
Hoge Heurnseweg,8,,,7095CJ,De Heurne,Aalten,Gelderland,VBO,6.500556,51.873102
Hoge Heurnseweg,10,,,7095CJ,De Heurne,Aalten,Gelderland,VBO,6.500147,51.873343
Hoge Heurnseweg,12,,,7095CJ,De Heurne,Aalten,Gelderland,VBO,6.500167,51.876961
Bargerdijk,2,,,7095CK,De Heurne,Aalten,Gelderland,VBO,6.507061,51.876277
Koopsbroeck,3,,,7095CP,De Heurne,Aalten,Gelderland,VBO,6.491431,51.888059
Koopsbroeck,5,,,7095CP,De Heurne,Aalten,Gelderland,VBO,6.491422,51.888179
Koopsbroeck,7,,,7095CP,De Heurne,Aalten,Gelderland,VBO,6.491430,51.888267
Koopsbroeck,9,,,7095CP,De Heurne,Aalten,Gelderland,VBO,6.491630,51.888451
Koopsbroeck,11,,,7095CP,De Heurne,Aalten,Gelderland,VBO,6.491564,51.888475
Koopsbroeck,13,,,7095CP,De Heurne,Aalten,Gelderland,VBO,6.491485,51.888485
Koopsbroeck,15,,,7095CP,De Heurne,Aalten,Gelderland,VBO,6.491392,51.888486
Koopsbroeck,17,,,7095CP,De Heurne,Aalten,Gelderland,VBO,6.491322,51.888522
Koopsbroeck,19,,,7095CP,De Heurne,Aalten,Gelderland,VBO,6.491163,51.888736
Koopsbroeck,21,,,7095CP,De Heurne,Aalten,Gelderland,VBO,6.491271,51.888895
Koopsbroeck,23,,,7095CP,De Heurne,Aalten,Gelderland,VBO,6.491390,51.889015
Koopsbroeck,25,,,7095CP,De Heurne,Aalten,Gelderland,VBO,6.491535,51.889131
Koopsbroeck,2,,,7095CR,De Heurne,Aalten,Gelderland,VBO,6.491821,51.888038
Koopsbroeck,4,,,7095CR,De Heurne,Aalten,Gelderland,VBO,6.491825,51.888093
Koopsbroeck,6,,,7095CR,De Heurne,Aalten,Gelderland,VBO,6.491843,51.888217
Koopsbroeck,8,,,7095CR,De Heurne,Aalten,Gelderland,VBO,6.491871,51.888269
Koopsbroeck,10,,,7095CR,De Heurne,Aalten,Gelderland,VBO,6.491975,51.888378
Koopsbroeck,12,,,7095CR,De Heurne,Aalten,Gelderland,VBO,6.492041,51.888491
Koopsbroeck,14,,,7095CR,De Heurne,Aalten,Gelderland,VBO,6.491872,51.888735
Koopsbroeck,16,,,7095CR,De Heurne,Aalten,Gelderland,VBO,6.491894,51.888779
Koopsbroeck,18,,,7095CR,De Heurne,Aalten,Gelderland,VBO,6.491869,51.888835
Koopsbroeck,20,,,7095CR,De Heurne,Aalten,Gelderland,VBO,6.491785,51.888936
Koopsbroeck,22,,,7095CR,De Heurne,Aalten,Gelderland,VBO,6.491764,51.888982
