openbareruimtenaam,huisnummer,huisletter,huisnummertoevoeging,postcode,woonplaatsnaam,gemeentenaam,provincienaam,typeadresseerbaarobject,longitude,latitude
Meddoseweg,1,,,7104AA,Winterswijk Meddo,Winterswijk,Gelderland,VBO,6.710340,52.013209
Meddoseweg,2,,,7104AA,Winterswijk Meddo,Winterswijk,Gelderland,VBO,6.709189,52.013251
Meddoseweg,3,,,7104AA,Winterswijk Meddo,Winterswijk,Gelderland,VBO,6.710514,52.012776
Meddoseweg,4,,,7104AA,Winterswijk Meddo,Winterswijk,Gelderland,VBO,6.709308,52.013178
Meddoseweg,5,b,,7104AA,Winterswijk Meddo,Winterswijk,Gelderland,VBO,6.717230,52.009840
Meddoseweg,5,,,7104AA,Winterswijk Meddo,Winterswijk,Gelderland,VBO,6.711408,52.011630
Meddoseweg,6,,,7104AA,Winterswijk Meddo,Winterswijk,Gelderland,VBO,6.709382,52.013137
Meddoseweg,7,,,7104AA,Winterswijk Meddo,Winterswijk,Gelderland,VBO,6.714466,52.008992
Meddoseweg,8,,,7104AA,Winterswijk Meddo,Winterswijk,Gelderland,VBO,6.709502,52.013066
Meddoseweg,9,,,7104AA,Winterswijk Meddo,Winterswijk,Gelderland,VBO,6.713130,52.007668
Meddoseweg,10,,,7104AA,Winterswijk Meddo,Winterswijk,Gelderland,VBO,6.709657,52.012978
Meddoseweg,11,,,7104AA,Winterswijk Meddo,Winterswijk,Gelderland,VBO,6.713127,52.007560
Meddoseweg,13,,,7104AA,Winterswijk Meddo,Winterswijk,Gelderland,VBO,6.719612,51.999813
Meddoseweg,15,,,7104AA,Winterswijk Meddo,Winterswijk,Gelderland,VBO,6.719749,51.999729
Meddoseweg,16,a,,7104AA,Winterswijk Meddo,Winterswijk,Gelderland,VBO,6.709979,52.012677
Meddoseweg,16,,N01,7104AA,Winterswijk Meddo,Winterswijk,Gelderland,VBO,6.708517,52.012744
Meddoseweg,16,,,7104AA,Winterswijk Meddo,Winterswijk,Gelderland,VBO,6.709999,52.012602
Meddoseweg,17,,,7104AA,Winterswijk Meddo,Winterswijk,Gelderland,VBO,6.722828,51.999243
Meddoseweg,18,,,7104AA,Winterswijk Meddo,Winterswijk,Gelderland,VBO,6.712414,52.009069
Meddoseweg,20,a,,7104AA,Winterswijk Meddo,Winterswijk,Gelderland,VBO,6.711170,52.008426
Meddoseweg,20,,,7104AA,Winterswijk Meddo,Winterswijk,Gelderland,VBO,6.711249,52.008466
Meddoseweg,22,,,7104AA,Winterswijk Meddo,Winterswijk,Gelderland,VBO,6.712728,52.004885
Meddoseweg,24,a,,7104AA,Winterswijk Meddo,Winterswijk,Gelderland,VBO,6.715322,52.003815
Meddoseweg,24,,,7104AA,Winterswijk Meddo,Winterswijk,Gelderland,VBO,6.715478,52.003813
Meddoseweg,26,,,7104AA,Winterswijk Meddo,Winterswijk,Gelderland,VBO,6.711423,52.002644
Meddoseweg,28,a,,7104AA,Winterswijk Meddo,Winterswijk,Gelderland,VBO,6.717739,51.999030
Meddoseweg,28,,,7104AA,Winterswijk Meddo,Winterswijk,Gelderland,VBO,6.717260,51.999085
Meddoseweg,30,,,7104AA,Winterswijk Meddo,Winterswijk,Gelderland,VBO,6.715603,51.998695
Meddoseweg,32,,,7104AA,Winterswijk Meddo,Winterswijk,Gelderland,VBO,6.715430,51.998695
Meddoseweg,34,,,7104AA,Winterswijk Meddo,Winterswijk,Gelderland,VBO,6.720779,51.996947
Meddoseweg,36,,,7104AA,Winterswijk Meddo,Winterswijk,Gelderland,VBO,6.720765,51.996865
Meddoseweg,38,,,7104AA,Winterswijk Meddo,Winterswijk,Gelderland,VBO,6.721115,51.996494
Meddoseweg,40,,,7104AA,Winterswijk Meddo,Winterswijk,Gelderland,VBO,6.721819,51.997110
Meddoseweg,42,,,7104AA,Winterswijk Meddo,Winterswijk,Gelderland,VBO,6.722834,51.995221
Jonkersweg,1,,,7104AB,Winterswijk Meddo,Winterswijk,Gelderland,VBO,6.702585,51.995785
Jonkersweg,2,,,7104AB,Winterswijk Meddo,Winterswijk,Gelderland,VBO,6.706590,51.994311
Jonkersweg,37,,,7104AB,Winterswijk Meddo,Winterswijk,Gelderland,VBO,6.704003,51.995182
Jonkersweg,43,,,7104AB,Winterswijk Meddo,Winterswijk,Gelderland,VBO,6.704400,51.995594
Jonkersweg,45,,,7104AB,Winterswijk Meddo,Winterswijk,Gelderland,VBO,6.704688,51.995474
Jonkersweg,51,,,7104AB,Winterswijk Meddo,Winterswijk,Gelderland,VBO,6.704295,51.995096
Jonkersweg,53,,,7104AB,Winterswijk Meddo,Winterswijk,Gelderland,VBO,6.704821,51.995050
Jonkersweg,55,,,7104AB,Winterswijk Meddo,Winterswijk,Gelderland,VBO,6.704956,51.995184
Jonkersweg,57,,,7104AB,Winterswijk Meddo,Winterswijk,Gelderland,VBO,6.705091,51.995335
Jonkersweg,59,,,7104AB,Winterswijk Meddo,Winterswijk,Gelderland,VBO,6.705364,51.995197
Jonkersweg,61,,,7104AB,Winterswijk Meddo,Winterswijk,Gelderland,VBO,6.705229,51.995055
Jonkersweg,63,,,7104AB,Winterswijk Meddo,Winterswijk,Gelderland,VBO,6.705606,51.994996
Jonkersweg,65,,,7104AB,Winterswijk Meddo,Winterswijk,Gelderland,VBO,6.705925,51.994966
Jonkersweg,67,,,7104AB,Winterswijk Meddo,Winterswijk,Gelderland,VBO,6.706333,51.994896
Wormskampweg,1,,,7104AC,Winterswijk Meddo,Winterswijk,Gelderland,VBO,6.719296,52.004371
Wormskampweg,2,a,,7104AC,Winterswijk Meddo,Winterswijk,Gelderland,VBO,6.720908,52.004746
Wormskampweg,2,,,7104AC,Winterswijk Meddo,Winterswijk,Gelderland,VBO,6.720479,52.003602
Wormskampweg,3,,,7104AC,Winterswijk Meddo,Winterswijk,Gelderland,VBO,6.719269,52.006421
Wormskampweg,5,a,,7104AC,Winterswijk Meddo,Winterswijk,Gelderland,VBO,6.723143,52.008013
Wormskampweg,5,,,7104AC,Winterswijk Meddo,Winterswijk,Gelderland,VBO,6.723123,52.007927
Wormskampweg,9,,,7104AC,Winterswijk Meddo,Winterswijk,Gelderland,VBO,6.721379,52.008289
Zimmelinksdiek,1,,,7104AD,Winterswijk Meddo,Winterswijk,Gelderland,VBO,6.721963,52.003460
Zimmelinksdiek,2,,,7104AD,Winterswijk Meddo,Winterswijk,Gelderland,VBO,6.720833,52.003594
Zimmelinksdiek,3,a,,7104AD,Winterswijk Meddo,Winterswijk,Gelderland,VBO,6.722736,52.002791
Zimmelinksdiek,3,,,7104AD,Winterswijk Meddo,Winterswijk,Gelderland,VBO,6.722555,52.002806
Luikenhuisweg,1,,,7104AE,Winterswijk Meddo,Winterswijk,Gelderland,VBO,6.721673,52.004563
Luikenhuisweg,2,,,7104AE,Winterswijk Meddo,Winterswijk,Gelderland,VBO,6.725130,52.004143
Luikenhuisweg,3,,,7104AE,Winterswijk Meddo,Winterswijk,Gelderland,VBO,6.721721,52.004604
Beijersdiek,1,,,7104AH,Winterswijk Meddo,Winterswijk,Gelderland,VBO,6.714556,52.019913
Beijersdiek,2,,,7104AH,Winterswijk Meddo,Winterswijk,Gelderland,VBO,6.714891,52.010586
Beijersdiek,3,,,7104AH,Winterswijk Meddo,Winterswijk,Gelderland,VBO,6.715935,52.028823
Beijersdiek,4,,,7104AH,Winterswijk Meddo,Winterswijk,Gelderland,VBO,6.714343,52.015625
Beijersdiek,5,,,7104AH,Winterswijk Meddo,Winterswijk,Gelderland,VBO,6.716530,52.031900
Beijersdiek,6,,,7104AH,Winterswijk Meddo,Winterswijk,Gelderland,VBO,6.715915,52.023910
Beijersdiek,7,,,7104AH,Winterswijk Meddo,Winterswijk,Gelderland,VBO,6.716538,52.031983
Beijersdiek,8,,,7104AH,Winterswijk Meddo,Winterswijk,Gelderland,VBO,6.719044,52.035584
Beijersdiek,9,,,7104AH,Winterswijk Meddo,Winterswijk,Gelderland,VBO,6.716756,52.034666
Lemmenesweg,1,,,7104AJ,Winterswijk Meddo,Winterswijk,Gelderland,VBO,6.714311,52.015547
Geldereschweg,6,,,7104AK,Winterswijk Meddo,Winterswijk,Gelderland,VBO,6.708259,52.013846
Geldereschweg,8,,,7104AK,Winterswijk Meddo,Winterswijk,Gelderland,VBO,6.708040,52.013742
Geldereschweg,10,,,7104AK,Winterswijk Meddo,Winterswijk,Gelderland,VBO,6.707817,52.013723
Geldereschweg,12,,,7104AK,Winterswijk Meddo,Winterswijk,Gelderland,VBO,6.707759,52.013706
Geldereschweg,14,,,7104AK,Winterswijk Meddo,Winterswijk,Gelderland,VBO,6.707583,52.013672
Geldereschweg,16,,,7104AK,Winterswijk Meddo,Winterswijk,Gelderland,VBO,6.707481,52.013664
Geldereschweg,18,,,7104AK,Winterswijk Meddo,Winterswijk,Gelderland,VBO,6.707334,52.013639
Geldereschweg,20,,,7104AK,Winterswijk Meddo,Winterswijk,Gelderland,VBO,6.707232,52.013622
Geldereschweg,22,,,7104AK,Winterswijk Meddo,Winterswijk,Gelderland,VBO,6.707070,52.013588
Geldereschweg,24,,,7104AK,Winterswijk Meddo,Winterswijk,Gelderland,VBO,6.706882,52.013535
Geldereschweg,26,,,7104AK,Winterswijk Meddo,Winterswijk,Gelderland,VBO,6.706737,52.013519
Geldereschweg,28,,,7104AK,Winterswijk Meddo,Winterswijk,Gelderland,VBO,6.706617,52.013524
Geldereschweg,30,,,7104AK,Winterswijk Meddo,Winterswijk,Gelderland,VBO,6.706309,52.013596
Geldereschweg,32,,,7104AK,Winterswijk Meddo,Winterswijk,Gelderland,VBO,6.705917,52.013484
Geldereschweg,34,,,7104AK,Winterswijk Meddo,Winterswijk,Gelderland,VBO,6.705651,52.013388
Geldereschweg,38,,,7104AK,Winterswijk Meddo,Winterswijk,Gelderland,VBO,6.705445,52.013309
Geldereschweg,40,,,7104AK,Winterswijk Meddo,Winterswijk,Gelderland,VBO,6.705358,52.013301
Geldereschweg,42,,,7104AK,Winterswijk Meddo,Winterswijk,Gelderland,VBO,6.705197,52.013276
Geldereschweg,44,a,,7104AK,Winterswijk Meddo,Winterswijk,Gelderland,VBO,6.704952,52.013282
Geldereschweg,44,,,7104AK,Winterswijk Meddo,Winterswijk,Gelderland,VBO,6.704994,52.013202
Geldereschweg,46,,,7104AK,Winterswijk Meddo,Winterswijk,Gelderland,VBO,6.704657,52.013216
Geldereschweg,48,,,7104AK,Winterswijk Meddo,Winterswijk,Gelderland,VBO,6.704699,52.013159
Geldereschweg,50,,,7104AK,Winterswijk Meddo,Winterswijk,Gelderland,VBO,6.704523,52.013149
Geldereschweg,52,,,7104AK,Winterswijk Meddo,Winterswijk,Gelderland,VBO,6.704274,52.013125
Geldereschweg,84,,,7104AK,Winterswijk Meddo,Winterswijk,Gelderland,VBO,6.701139,52.012998
Geldereschweg,86,,,7104AK,Winterswijk Meddo,Winterswijk,Gelderland,VBO,6.700544,52.013396
Geldereschweg,88,,,7104AK,Winterswijk Meddo,Winterswijk,Gelderland,VBO,6.700460,52.013471
Geldereschweg,90,,,7104AL,Winterswijk Meddo,Winterswijk,Gelderland,VBO,6.696522,52.013934
Geldereschweg,92,,,7104AL,Winterswijk Meddo,Winterswijk,Gelderland,VBO,6.695523,52.014256
Geldereschweg,94,,,7104AL,Winterswijk Meddo,Winterswijk,Gelderland,VBO,6.692802,52.015365
Geldereschweg,96,,,7104AL,Winterswijk Meddo,Winterswijk,Gelderland,VBO,6.685758,52.013591
Geldereschweg,98,,,7104AL,Winterswijk Meddo,Winterswijk,Gelderland,VBO,6.680124,52.012233
Geldereschweg,100,,,7104AL,Winterswijk Meddo,Winterswijk,Gelderland,VBO,6.676754,52.018372
Geldereschweg,102,,,7104AL,Winterswijk Meddo,Winterswijk,Gelderland,VBO,6.676024,52.018588
Geldereschweg,104,,,7104AL,Winterswijk Meddo,Winterswijk,Gelderland,VBO,6.675549,52.018773
Geldereschweg,106,a,,7104AL,Winterswijk Meddo,Winterswijk,Gelderland,VBO,6.674362,52.019173
Geldereschweg,106,,,7104AL,Winterswijk Meddo,Winterswijk,Gelderland,VBO,6.674525,52.019148
Geldereschweg,108,,,7104AL,Winterswijk Meddo,Winterswijk,Gelderland,VBO,6.674715,52.019480
Geldereschweg,110,,,7104AL,Winterswijk Meddo,Winterswijk,Gelderland,VBO,6.673600,52.020439
Geldereschweg,112,,,7104AL,Winterswijk Meddo,Winterswijk,Gelderland,VBO,6.672972,52.021988
Geldereschweg,114,,,7104AL,Winterswijk Meddo,Winterswijk,Gelderland,VBO,6.672884,52.021864
Geldereschweg,116,,,7104AL,Winterswijk Meddo,Winterswijk,Gelderland,VBO,6.670352,52.020960
Geldereschweg,118,,,7104AL,Winterswijk Meddo,Winterswijk,Gelderland,VBO,6.670110,52.021156
Geldereschweg,120,,,7104AL,Winterswijk Meddo,Winterswijk,Gelderland,VBO,6.673906,52.024206
Geldereschweg,122,,,7104AL,Winterswijk Meddo,Winterswijk,Gelderland,VBO,6.673943,52.024121
Geldereschweg,1,,,7104AM,Winterswijk Meddo,Winterswijk,Gelderland,VBO,6.708709,52.013522
Geldereschweg,3,,,7104AM,Winterswijk Meddo,Winterswijk,Gelderland,VBO,6.708489,52.013266
Geldereschweg,5,,,7104AM,Winterswijk Meddo,Winterswijk,Gelderland,VBO,6.708195,52.013448
Geldereschweg,7,,,7104AM,Winterswijk Meddo,Winterswijk,Gelderland,VBO,6.707941,52.013452
Geldereschweg,9,,,7104AM,Winterswijk Meddo,Winterswijk,Gelderland,VBO,6.707750,52.013409
Geldereschweg,11,,,7104AM,Winterswijk Meddo,Winterswijk,Gelderland,VBO,6.707589,52.013384
Geldereschweg,13,,,7104AM,Winterswijk Meddo,Winterswijk,Gelderland,VBO,6.707516,52.013376
Geldereschweg,15,,,7104AM,Winterswijk Meddo,Winterswijk,Gelderland,VBO,6.707372,52.013265
Geldereschweg,17,,,7104AM,Winterswijk Meddo,Winterswijk,Gelderland,VBO,6.706812,52.013299
Geldereschweg,19,,,7104AM,Winterswijk Meddo,Winterswijk,Gelderland,VBO,6.706559,52.013196
Geldereschweg,21,,,7104AM,Winterswijk Meddo,Winterswijk,Gelderland,VBO,6.706466,52.013200
Geldereschweg,23,,,7104AM,Winterswijk Meddo,Winterswijk,Gelderland,VBO,6.706341,52.013069
Geldereschweg,25,,,7104AM,Winterswijk Meddo,Winterswijk,Gelderland,VBO,6.704763,52.012903
Geldereschweg,27,,,7104AM,Winterswijk Meddo,Winterswijk,Gelderland,VBO,6.702874,52.012565
Geldereschweg,29,,,7104AM,Winterswijk Meddo,Winterswijk,Gelderland,VBO,6.702801,52.012557
Geldereschweg,33,,,7104AM,Winterswijk Meddo,Winterswijk,Gelderland,VBO,6.702350,52.012589
Geldereschweg,35,,,7104AM,Winterswijk Meddo,Winterswijk,Gelderland,VBO,6.702188,52.012473
Geldereschweg,39,,,7104AM,Winterswijk Meddo,Winterswijk,Gelderland,VBO,6.701708,52.012584
Geldereschweg,43,,,7104AM,Winterswijk Meddo,Winterswijk,Gelderland,VBO,6.700633,52.012750
Geldereschweg,45,,,7104AM,Winterswijk Meddo,Winterswijk,Gelderland,VBO,6.700516,52.012731
Geldereschweg,47,,,7104AM,Winterswijk Meddo,Winterswijk,Gelderland,VBO,6.700024,52.012582
Geldereschweg,49,,,7104AM,Winterswijk Meddo,Winterswijk,Gelderland,VBO,6.699993,52.012643
Geldereschweg,51,,,7104AM,Winterswijk Meddo,Winterswijk,Gelderland,VBO,6.699964,52.012687
Geldereschweg,53,,,7104AM,Winterswijk Meddo,Winterswijk,Gelderland,VBO,6.699918,52.012756
Geldereschweg,55,,,7104AM,Winterswijk Meddo,Winterswijk,Gelderland,VBO,6.700505,52.012870
Geldereschweg,57,,,7104AM,Winterswijk Meddo,Winterswijk,Gelderland,VBO,6.700308,52.012980
Geldereschweg,59,,,7104AM,Winterswijk Meddo,Winterswijk,Gelderland,VBO,6.700053,52.013244
Geldereschweg,61,,,7104AN,Winterswijk Meddo,Winterswijk,Gelderland,VBO,6.677073,52.017579
Geldereschweg,63,a,,7104AN,Winterswijk Meddo,Winterswijk,Gelderland,VBO,6.675910,52.018162
Geldereschweg,63,,,7104AN,Winterswijk Meddo,Winterswijk,Gelderland,VBO,6.675843,52.018121
Geldereschweg,65,,,7104AN,Winterswijk Meddo,Winterswijk,Gelderland,VBO,6.672456,52.018115
Geldereschweg,67,a,,7104AN,Winterswijk Meddo,Winterswijk,Gelderland,VBO,6.667433,52.016000
Geldereschweg,67,,,7104AN,Winterswijk Meddo,Winterswijk,Gelderland,VBO,6.667350,52.016095
Geldereschweg,69,,,7104AN,Winterswijk Meddo,Winterswijk,Gelderland,VBO,6.672974,52.018927
Geldereschweg,71,,,7104AN,Winterswijk Meddo,Winterswijk,Gelderland,VBO,6.669338,52.019659
Geldereschweg,73,,,7104AN,Winterswijk Meddo,Winterswijk,Gelderland,VBO,6.669217,52.019615
Geldereschweg,75,,,7104AN,Winterswijk Meddo,Winterswijk,Gelderland,VBO,6.668978,52.020867
Beitelweg,1,a,,7104AP,Winterswijk Meddo,Winterswijk,Gelderland,VBO,6.697809,52.014204
Beitelweg,1,,,7104AP,Winterswijk Meddo,Winterswijk,Gelderland,VBO,6.697809,52.014204
Beitelweg,2,,,7104AP,Winterswijk Meddo,Winterswijk,Gelderland,VBO,6.699045,52.013958
Beitelweg,3,,,7104AP,Winterswijk Meddo,Winterswijk,Gelderland,VBO,6.696959,52.014732
Beitelweg,4,,,7104AP,Winterswijk Meddo,Winterswijk,Gelderland,VBO,6.698899,52.014005
Beitelweg,5,,,7104AP,Winterswijk Meddo,Winterswijk,Gelderland,VBO,6.696067,52.015913
Beitelweg,6,,,7104AP,Winterswijk Meddo,Winterswijk,Gelderland,VBO,6.697226,52.015195
Beitelweg,7,,,7104AP,Winterswijk Meddo,Winterswijk,Gelderland,VBO,6.695949,52.016373
Beitelweg,8,,,7104AP,Winterswijk Meddo,Winterswijk,Gelderland,VBO,6.697009,52.015264
Beitelweg,9,,,7104AP,Winterswijk Meddo,Winterswijk,Gelderland,VBO,6.694976,52.017672
Beitelweg,11,,,7104AP,Winterswijk Meddo,Winterswijk,Gelderland,VBO,6.696747,52.019267
Illegoorweg,2,a,,7104AR,Winterswijk Meddo,Winterswijk,Gelderland,VBO,6.699729,52.021962
Illegoorweg,2,,,7104AR,Winterswijk Meddo,Winterswijk,Gelderland,VBO,6.699717,52.021868
Illegoorweg,4,,,7104AR,Winterswijk Meddo,Winterswijk,Gelderland,VBO,6.700843,52.029116
Illegoorweg,6,,,7104AR,Winterswijk Meddo,Winterswijk,Gelderland,VBO,6.701304,52.030594
Eibergseweg,1,,,7104AS,Winterswijk Meddo,Winterswijk,Gelderland,VBO,6.701937,52.017861
Eibergseweg,2,,,7104AS,Winterswijk Meddo,Winterswijk,Gelderland,VBO,6.707888,52.014630
Eibergseweg,3,,,7104AS,Winterswijk Meddo,Winterswijk,Gelderland,VBO,6.692407,52.021172
Eibergseweg,4,,,7104AS,Winterswijk Meddo,Winterswijk,Gelderland,VBO,6.707788,52.014703
Eibergseweg,5,,,7104AS,Winterswijk Meddo,Winterswijk,Gelderland,VBO,6.691237,52.030409
Eibergseweg,6,a,,7104AS,Winterswijk Meddo,Winterswijk,Gelderland,VBO,6.707691,52.014860
Eibergseweg,6,,,7104AS,Winterswijk Meddo,Winterswijk,Gelderland,VBO,6.707615,52.014831
Eibergseweg,7,,,7104AS,Winterswijk Meddo,Winterswijk,Gelderland,VBO,6.691065,52.030575
Eibergseweg,8,,,7104AS,Winterswijk Meddo,Winterswijk,Gelderland,VBO,6.707502,52.014895
Eibergseweg,10,,,7104AS,Winterswijk Meddo,Winterswijk,Gelderland,VBO,6.702588,52.018280
Eibergseweg,12,,,7104AS,Winterswijk Meddo,Winterswijk,Gelderland,VBO,6.702455,52.018333
Eibergseweg,14,,,7104AS,Winterswijk Meddo,Winterswijk,Gelderland,VBO,6.697551,52.023511
Eibergseweg,16,,,7104AS,Winterswijk Meddo,Winterswijk,Gelderland,VBO,6.696418,52.024387
Eibergseweg,18,,,7104AS,Winterswijk Meddo,Winterswijk,Gelderland,VBO,6.691812,52.030397
Eibergseweg,20,,,7104AS,Winterswijk Meddo,Winterswijk,Gelderland,VBO,6.688995,52.035262
Voordeweg,2,,,7104AT,Winterswijk Meddo,Winterswijk,Gelderland,VBO,6.688844,52.022388
Voordeweg,4,,,7104AT,Winterswijk Meddo,Winterswijk,Gelderland,VBO,6.691856,52.022495
Grevinkweg,1,,,7104AV,Winterswijk Meddo,Winterswijk,Gelderland,VBO,6.701843,52.015499
Grevinkweg,2,,,7104AV,Winterswijk Meddo,Winterswijk,Gelderland,VBO,6.701352,52.013369
Grevinkweg,3,,,7104AV,Winterswijk Meddo,Winterswijk,Gelderland,VBO,6.701889,52.016720
Grevinkweg,4,,,7104AV,Winterswijk Meddo,Winterswijk,Gelderland,VBO,6.702260,52.014486
Grevinkweg,5,,,7104AV,Winterswijk Meddo,Winterswijk,Gelderland,VBO,6.701804,52.017314
Grevinkweg,6,,,7104AV,Winterswijk Meddo,Winterswijk,Gelderland,VBO,6.703498,52.016441
Grevinkweg,7,,,7104AV,Winterswijk Meddo,Winterswijk,Gelderland,VBO,6.704119,52.019421
Grevinkweg,8,,,7104AV,Winterswijk Meddo,Winterswijk,Gelderland,VBO,6.704515,52.018336
Grevinkweg,9,,,7104AV,Winterswijk Meddo,Winterswijk,Gelderland,VBO,6.704061,52.019497
Grevinkweg,10,,,7104AV,Winterswijk Meddo,Winterswijk,Gelderland,VBO,6.707027,52.022487
Grevinkweg,12,,,7104AV,Winterswijk Meddo,Winterswijk,Gelderland,VBO,6.707069,52.022546
Grevinkweg,14,,,7104AV,Winterswijk Meddo,Winterswijk,Gelderland,VBO,6.708206,52.026245
Grevinkweg,15,,,7104AV,Winterswijk Meddo,Winterswijk,Gelderland,VBO,6.703925,52.026467
Grevinkweg,16,,,7104AV,Winterswijk Meddo,Winterswijk,Gelderland,VBO,6.708397,52.026247
Hanekampweg,1,,,7104AW,Winterswijk Meddo,Winterswijk,Gelderland,STA,6.727453,51.994422
Hanekampweg,3,,,7104AW,Winterswijk Meddo,Winterswijk,Gelderland,STA,6.727416,51.994597
Hanekampweg,5,,,7104AW,Winterswijk Meddo,Winterswijk,Gelderland,STA,6.727380,51.994758
Hanekampweg,7,,,7104AW,Winterswijk Meddo,Winterswijk,Gelderland,STA,6.727343,51.994918
Hanekampweg,9,,,7104AW,Winterswijk Meddo,Winterswijk,Gelderland,STA,6.727292,51.995131
Hanekampweg,11,,,7104AW,Winterswijk Meddo,Winterswijk,Gelderland,VBO,6.727202,51.995526
Hanekampweg,15,,,7104AW,Winterswijk Meddo,Winterswijk,Gelderland,VBO,6.725937,51.996556
Hanekampweg,21,a,,7104AW,Winterswijk Meddo,Winterswijk,Gelderland,VBO,6.725131,51.996367
Hanekampweg,21,,,7104AW,Winterswijk Meddo,Winterswijk,Gelderland,VBO,6.724749,51.996758
Hanekampweg,23,,,7104AW,Winterswijk Meddo,Winterswijk,Gelderland,VBO,6.724425,51.996150
Hanekampweg,25,,,7104AW,Winterswijk Meddo,Winterswijk,Gelderland,VBO,6.724553,51.996060
Hanekampweg,27,,,7104AW,Winterswijk Meddo,Winterswijk,Gelderland,VBO,6.724709,51.995920
Hanekampweg,29,,,7104AW,Winterswijk Meddo,Winterswijk,Gelderland,VBO,6.725237,51.995557
Hanekampweg,31,,,7104AW,Winterswijk Meddo,Winterswijk,Gelderland,VBO,6.726488,51.995099
Hanekampweg,33,a,,7104AW,Winterswijk Meddo,Winterswijk,Gelderland,VBO,6.726007,51.994315
Hanekampweg,33,,,7104AW,Winterswijk Meddo,Winterswijk,Gelderland,VBO,6.725885,51.994309
Goossensweg,1,,,7104AX,Winterswijk Meddo,Winterswijk,Gelderland,VBO,6.709812,52.021828
Goossensweg,2,,,7104AX,Winterswijk Meddo,Winterswijk,Gelderland,VBO,6.711892,52.020459
Goossensweg,3,,,7104AX,Winterswijk Meddo,Winterswijk,Gelderland,VBO,6.711722,52.021850
Goossensweg,5,,,7104AX,Winterswijk Meddo,Winterswijk,Gelderland,VBO,6.712111,52.021477
Goossensweg,7,,,7104AX,Winterswijk Meddo,Winterswijk,Gelderland,VBO,6.713007,52.020236
Giffelweg,1,,,7104AZ,Winterswijk Meddo,Winterswijk,Gelderland,VBO,6.708427,52.015622
Giffelweg,2,,,7104AZ,Winterswijk Meddo,Winterswijk,Gelderland,VBO,6.709445,52.016110
Giffelweg,3,,,7104AZ,Winterswijk Meddo,Winterswijk,Gelderland,VBO,6.708480,52.016156
Giffelweg,4,,,7104AZ,Winterswijk Meddo,Winterswijk,Gelderland,VBO,6.709476,52.016164
Giffelweg,5,,,7104AZ,Winterswijk Meddo,Winterswijk,Gelderland,VBO,6.708976,52.016980
Giffelweg,6,,,7104AZ,Winterswijk Meddo,Winterswijk,Gelderland,VBO,6.709486,52.016310
Giffelweg,7,,,7104AZ,Winterswijk Meddo,Winterswijk,Gelderland,VBO,6.709040,52.017047
Giffelweg,8,,,7104AZ,Winterswijk Meddo,Winterswijk,Gelderland,VBO,6.709554,52.016382
Giffelweg,9,,,7104AZ,Winterswijk Meddo,Winterswijk,Gelderland,VBO,6.709274,52.017671
Goorweg,2,,,7104BA,Winterswijk Meddo,Winterswijk,Gelderland,VBO,6.705023,52.012784
Goorweg,6,,,7104BA,Winterswijk Meddo,Winterswijk,Gelderland,VBO,6.703911,52.012149
Goorweg,8,,,7104BA,Winterswijk Meddo,Winterswijk,Gelderland,VBO,6.703726,52.012063
Goorweg,10,,,7104BA,Winterswijk Meddo,Winterswijk,Gelderland,VBO,6.703599,52.011964
Goorweg,12,a,,7104BA,Winterswijk Meddo,Winterswijk,Gelderland,VBO,6.703204,52.012294
Goorweg,12,b,,7104BA,Winterswijk Meddo,Winterswijk,Gelderland,VBO,6.702788,52.012022
Goorweg,12,c,,7104BA,Winterswijk Meddo,Winterswijk,Gelderland,VBO,6.703027,52.011773
Goorweg,12,,,7104BA,Winterswijk Meddo,Winterswijk,Gelderland,VBO,6.703334,52.011877
Goorweg,14,,,7104BA,Winterswijk Meddo,Winterswijk,Gelderland,VBO,6.702889,52.011594
Goorweg,16,,,7104BA,Winterswijk Meddo,Winterswijk,Gelderland,VBO,6.702779,52.011554
Goorweg,18,,,7104BA,Winterswijk Meddo,Winterswijk,Gelderland,VBO,6.702687,52.011470
Goorweg,20,,,7104BA,Winterswijk Meddo,Winterswijk,Gelderland,VBO,6.702609,52.011433
Goorweg,22,,,7104BA,Winterswijk Meddo,Winterswijk,Gelderland,VBO,6.702057,52.011046
Goorweg,24,,,7104BA,Winterswijk Meddo,Winterswijk,Gelderland,VBO,6.689478,52.006260
Goorweg,26,,,7104BA,Winterswijk Meddo,Winterswijk,Gelderland,VBO,6.685121,52.005916
Goorweg,28,,,7104BA,Winterswijk Meddo,Winterswijk,Gelderland,VBO,6.685004,52.005871
Goorweg,30,,,7104BA,Winterswijk Meddo,Winterswijk,Gelderland,VBO,6.682310,52.006057
Goorweg,32,,,7104BA,Winterswijk Meddo,Winterswijk,Gelderland,VBO,6.682406,52.006606
Goorweg,34,,,7104BA,Winterswijk Meddo,Winterswijk,Gelderland,VBO,6.680478,52.007842
Goorweg,36,,,7104BA,Winterswijk Meddo,Winterswijk,Gelderland,VBO,6.680390,52.007825
Goorweg,38,,,7104BA,Winterswijk Meddo,Winterswijk,Gelderland,VBO,6.675120,52.006351
Goorweg,1,,,7104BB,Winterswijk Meddo,Winterswijk,Gelderland,VBO,6.706246,52.012797
Goorweg,5,,,7104BB,Winterswijk Meddo,Winterswijk,Gelderland,VBO,6.705403,52.012488
Goorweg,9,,,7104BB,Winterswijk Meddo,Winterswijk,Gelderland,VBO,6.704775,52.012218
Goorweg,11,,,7104BB,Winterswijk Meddo,Winterswijk,Gelderland,VBO,6.704452,52.012097
Goorweg,13,,,7104BB,Winterswijk Meddo,Winterswijk,Gelderland,VBO,6.704285,52.011992
Goorweg,15,,,7104BB,Winterswijk Meddo,Winterswijk,Gelderland,VBO,6.704137,52.011901
Goorweg,17,,,7104BB,Winterswijk Meddo,Winterswijk,Gelderland,VBO,6.703958,52.011780
Goorweg,19,,,7104BB,Winterswijk Meddo,Winterswijk,Gelderland,VBO,6.703454,52.011489
Goorweg,21,,,7104BB,Winterswijk Meddo,Winterswijk,Gelderland,VBO,6.703381,52.011463
Goorweg,23,,,7104BB,Winterswijk Meddo,Winterswijk,Gelderland,VBO,6.703262,52.011401
Goorweg,25,,,7104BB,Winterswijk Meddo,Winterswijk,Gelderland,VBO,6.703188,52.011357
Goorweg,27,,,7104BB,Winterswijk Meddo,Winterswijk,Gelderland,VBO,6.703031,52.011219
Goorweg,29,,,7104BB,Winterswijk Meddo,Winterswijk,Gelderland,VBO,6.703094,52.011142
Goorweg,31,,,7104BB,Winterswijk Meddo,Winterswijk,Gelderland,VBO,6.697765,52.007219
Goorweg,33,,,7104BB,Winterswijk Meddo,Winterswijk,Gelderland,VBO,6.694909,52.006932
Goorweg,37,,,7104BB,Winterswijk Meddo,Winterswijk,Gelderland,VBO,6.695109,52.004579
Goorweg,41,,,7104BB,Winterswijk Meddo,Winterswijk,Gelderland,VBO,6.693414,52.007293
Hilteweg,2,,,7104BC,Winterswijk Meddo,Winterswijk,Gelderland,VBO,6.705832,52.008725
Hilteweg,3,,,7104BC,Winterswijk Meddo,Winterswijk,Gelderland,VBO,6.705929,52.012423
Hilteweg,4,,,7104BC,Winterswijk Meddo,Winterswijk,Gelderland,VBO,6.701471,52.006592
Hilteweg,5,,,7104BC,Winterswijk Meddo,Winterswijk,Gelderland,VBO,6.705685,52.012138
Hilteweg,6,,,7104BC,Winterswijk Meddo,Winterswijk,Gelderland,VBO,6.701460,52.006537
Hilteweg,7,,,7104BC,Winterswijk Meddo,Winterswijk,Gelderland,VBO,6.705643,52.012024
Hilteweg,8,,,7104BC,Winterswijk Meddo,Winterswijk,Gelderland,VBO,6.702950,52.004726
Hilteweg,9,,,7104BC,Winterswijk Meddo,Winterswijk,Gelderland,VBO,6.705665,52.011981
Hilteweg,11,,,7104BC,Winterswijk Meddo,Winterswijk,Gelderland,VBO,6.705712,52.011896
Hilteweg,13,,,7104BC,Winterswijk Meddo,Winterswijk,Gelderland,VBO,6.705720,52.011860
Hilteweg,15,,,7104BC,Winterswijk Meddo,Winterswijk,Gelderland,VBO,6.705785,52.011775
Hilteweg,17,,,7104BC,Winterswijk Meddo,Winterswijk,Gelderland,VBO,6.705793,52.011727
Hilteweg,19,,,7104BC,Winterswijk Meddo,Winterswijk,Gelderland,VBO,6.705891,52.011503
Hilteweg,21,,,7104BC,Winterswijk Meddo,Winterswijk,Gelderland,VBO,6.705930,52.011452
Hilteweg,23,,,7104BC,Winterswijk Meddo,Winterswijk,Gelderland,VBO,6.706013,52.011334
Hilteweg,25,,,7104BC,Winterswijk Meddo,Winterswijk,Gelderland,VBO,6.706042,52.011298
Hilteweg,27,,,7104BC,Winterswijk Meddo,Winterswijk,Gelderland,VBO,6.706140,52.011162
Hilteweg,29,,,7104BC,Winterswijk Meddo,Winterswijk,Gelderland,VBO,6.706194,52.011036
Hilteweg,31,,,7104BC,Winterswijk Meddo,Winterswijk,Gelderland,VBO,6.706255,52.010856
Hilteweg,37,,,7104BC,Winterswijk Meddo,Winterswijk,Gelderland,VBO,6.706948,52.010453
Hilteweg,39,,,7104BC,Winterswijk Meddo,Winterswijk,Gelderland,VBO,6.707867,52.008371
Hilteweg,41,,,7104BC,Winterswijk Meddo,Winterswijk,Gelderland,VBO,6.707735,52.008313
Hilteweg,43,,,7104BC,Winterswijk Meddo,Winterswijk,Gelderland,VBO,6.704580,52.004162
Hilteweg,45,,,7104BC,Winterswijk Meddo,Winterswijk,Gelderland,VBO,6.703180,52.003410
Beuksveld,2,,,7104BD,Winterswijk Meddo,Winterswijk,Gelderland,VBO,6.706830,52.013176
Beuksveld,4,,,7104BD,Winterswijk Meddo,Winterswijk,Gelderland,VBO,6.706820,52.012988
Beuksveld,6,,,7104BD,Winterswijk Meddo,Winterswijk,Gelderland,VBO,6.706605,52.012613
Beuksveld,8,,,7104BD,Winterswijk Meddo,Winterswijk,Gelderland,VBO,6.707207,52.012786
Beuksveld,10,,,7104BD,Winterswijk Meddo,Winterswijk,Gelderland,VBO,6.707351,52.012774
Beuksveld,12,,,7104BD,Winterswijk Meddo,Winterswijk,Gelderland,VBO,6.707550,52.012744
Beuksveld,14,,,7104BD,Winterswijk Meddo,Winterswijk,Gelderland,VBO,6.707681,52.012547
Beuksveld,16,,,7104BD,Winterswijk Meddo,Winterswijk,Gelderland,VBO,6.707694,52.012493
Beuksveld,18,,,7104BD,Winterswijk Meddo,Winterswijk,Gelderland,VBO,6.707764,52.012393
Beuksveld,20,,,7104BD,Winterswijk Meddo,Winterswijk,Gelderland,VBO,6.707889,52.012212
Beuksveld,22,,,7104BD,Winterswijk Meddo,Winterswijk,Gelderland,VBO,6.707830,52.012168
Beuksveld,24,,,7104BD,Winterswijk Meddo,Winterswijk,Gelderland,VBO,6.707625,52.012134
Beuksveld,26,,,7104BD,Winterswijk Meddo,Winterswijk,Gelderland,VBO,6.707537,52.012126
Beuksveld,28,,,7104BD,Winterswijk Meddo,Winterswijk,Gelderland,VBO,6.707319,52.012138
Beuksveld,30,,,7104BD,Winterswijk Meddo,Winterswijk,Gelderland,VBO,6.707158,52.012103
Beuksveld,32,,,7104BD,Winterswijk Meddo,Winterswijk,Gelderland,VBO,6.707004,52.012069
Beuksveld,34,,,7104BD,Winterswijk Meddo,Winterswijk,Gelderland,VBO,6.706908,52.012043
Beuksveld,36,,,7104BD,Winterswijk Meddo,Winterswijk,Gelderland,VBO,6.706762,52.012009
Beuksveld,38,,,7104BD,Winterswijk Meddo,Winterswijk,Gelderland,VBO,6.706599,52.011921
Beuksveld,40,,,7104BD,Winterswijk Meddo,Winterswijk,Gelderland,VBO,6.706438,52.011887
Beuksveld,42,,,7104BD,Winterswijk Meddo,Winterswijk,Gelderland,VBO,6.706232,52.011835
Beuksveld,44,,,7104BD,Winterswijk Meddo,Winterswijk,Gelderland,VBO,6.706144,52.011818
Beuksveld,54,,,7104BD,Winterswijk Meddo,Winterswijk,Gelderland,VBO,6.704644,52.011808
Beuksveld,1,,,7104BE,Winterswijk Meddo,Winterswijk,Gelderland,VBO,6.707406,52.013049
Beuksveld,3,,,7104BE,Winterswijk Meddo,Winterswijk,Gelderland,VBO,6.707486,52.013045
Beuksveld,5,,,7104BE,Winterswijk Meddo,Winterswijk,Gelderland,VBO,6.707660,52.013034
Beuksveld,7,,,7104BE,Winterswijk Meddo,Winterswijk,Gelderland,VBO,6.707739,52.013026
Beuksveld,9,,,7104BE,Winterswijk Meddo,Winterswijk,Gelderland,VBO,6.707934,52.012995
Beuksveld,11,,,7104BE,Winterswijk Meddo,Winterswijk,Gelderland,VBO,6.708017,52.012988
Beuksveld,13,,,7104BE,Winterswijk Meddo,Winterswijk,Gelderland,VBO,6.708022,52.012768
Beuksveld,15,,,7104BE,Winterswijk Meddo,Winterswijk,Gelderland,VBO,6.708050,52.012714
Beuksveld,17,,,7104BE,Winterswijk Meddo,Winterswijk,Gelderland,VBO,6.708120,52.012614
Beuksveld,19,,,7104BE,Winterswijk Meddo,Winterswijk,Gelderland,VBO,6.708162,52.012572
Beuksveld,21,,,7104BE,Winterswijk Meddo,Winterswijk,Gelderland,VBO,6.708188,52.012460
Beuksveld,23,,,7104BE,Winterswijk Meddo,Winterswijk,Gelderland,VBO,6.708216,52.012406
Beuksveld,25,,,7104BE,Winterswijk Meddo,Winterswijk,Gelderland,VBO,6.708286,52.012316
Beuksveld,27,,,7104BE,Winterswijk Meddo,Winterswijk,Gelderland,VBO,6.708328,52.012261
Beuksveld,29,,,7104BE,Winterswijk Meddo,Winterswijk,Gelderland,VBO,6.708027,52.011923
Beuksveld,31,,,7104BE,Winterswijk Meddo,Winterswijk,Gelderland,VBO,6.707953,52.011906
Beuksveld,33,,,7104BE,Winterswijk Meddo,Winterswijk,Gelderland,VBO,6.707704,52.011864
Beuksveld,35,,,7104BE,Winterswijk Meddo,Winterswijk,Gelderland,VBO,6.707455,52.011803
Beuksveld,37,,,7104BE,Winterswijk Meddo,Winterswijk,Gelderland,VBO,6.707250,52.011770
Beuksveld,39,,,7104BE,Winterswijk Meddo,Winterswijk,Gelderland,VBO,6.707177,52.011753
Hilgeloweg,1,,,7104BG,Winterswijk Meddo,Winterswijk,Gelderland,VBO,6.718559,51.995750
Hilgeloweg,2,,01,7104BG,Winterswijk Meddo,Winterswijk,Gelderland,VBO,6.717205,51.997178
Hilgeloweg,2,,02,7104BG,Winterswijk Meddo,Winterswijk,Gelderland,VBO,6.717001,51.997080
Hilgeloweg,2,,03,7104BG,Winterswijk Meddo,Winterswijk,Gelderland,VBO,6.716772,51.997007
Hilgeloweg,2,,04,7104BG,Winterswijk Meddo,Winterswijk,Gelderland,VBO,6.716539,51.996971
Hilgeloweg,2,,05,7104BG,Winterswijk Meddo,Winterswijk,Gelderland,VBO,6.716433,51.996831
Hilgeloweg,2,,06,7104BG,Winterswijk Meddo,Winterswijk,Gelderland,VBO,6.716508,51.996698
Hilgeloweg,2,,07,7104BG,Winterswijk Meddo,Winterswijk,Gelderland,VBO,6.716719,51.996605
Hilgeloweg,2,,08,7104BG,Winterswijk Meddo,Winterswijk,Gelderland,VBO,6.716968,51.996642
Hilgeloweg,2,,09,7104BG,Winterswijk Meddo,Winterswijk,Gelderland,VBO,6.717061,51.996791
Hilgeloweg,2,,10,7104BG,Winterswijk Meddo,Winterswijk,Gelderland,VBO,6.717272,51.996877
Hilgeloweg,2,,11,7104BG,Winterswijk Meddo,Winterswijk,Gelderland,VBO,6.717469,51.996987
Hilgeloweg,2,,12,7104BG,Winterswijk Meddo,Winterswijk,Gelderland,VBO,6.716036,51.996753
Hilgeloweg,2,,13,7104BG,Winterswijk Meddo,Winterswijk,Gelderland,VBO,6.716199,51.996640
Hilgeloweg,2,,14,7104BG,Winterswijk Meddo,Winterswijk,Gelderland,VBO,6.716345,51.996524
Hilgeloweg,2,,15,7104BG,Winterswijk Meddo,Winterswijk,Gelderland,VBO,6.716506,51.996245
Hilgeloweg,2,,16,7104BG,Winterswijk Meddo,Winterswijk,Gelderland,VBO,6.716201,51.996317
Hilgeloweg,2,,17,7104BG,Winterswijk Meddo,Winterswijk,Gelderland,VBO,6.716053,51.996435
Hilgeloweg,2,,18,7104BG,Winterswijk Meddo,Winterswijk,Gelderland,VBO,6.715774,51.996652
Hilgeloweg,4,,,7104BG,Winterswijk Meddo,Winterswijk,Gelderland,VBO,6.717535,51.995581
de Breehegge,1,,,7104BH,Winterswijk Meddo,Winterswijk,Gelderland,VBO,6.706811,52.011703
de Breehegge,2,,,7104BH,Winterswijk Meddo,Winterswijk,Gelderland,VBO,6.706401,52.011618
de Breehegge,3,,,7104BH,Winterswijk Meddo,Winterswijk,Gelderland,VBO,6.706880,52.011567
de Breehegge,4,,,7104BH,Winterswijk Meddo,Winterswijk,Gelderland,VBO,6.706513,52.011472
de Breehegge,5,,,7104BH,Winterswijk Meddo,Winterswijk,Gelderland,VBO,6.706908,52.011522
de Breehegge,6,,,7104BH,Winterswijk Meddo,Winterswijk,Gelderland,VBO,6.706540,52.011418
de Breehegge,7,,,7104BH,Winterswijk Meddo,Winterswijk,Gelderland,VBO,6.707005,52.011368
de Breehegge,8,,,7104BH,Winterswijk Meddo,Winterswijk,Gelderland,VBO,6.706580,52.011292
de Breehegge,9,,,7104BH,Winterswijk Meddo,Winterswijk,Gelderland,VBO,6.707099,52.011192
de Breehegge,10,,,7104BH,Winterswijk Meddo,Winterswijk,Gelderland,VBO,6.706608,52.011247
de Breehegge,11,,,7104BH,Winterswijk Meddo,Winterswijk,Gelderland,VBO,6.707144,52.011133
de Breehegge,12,,,7104BH,Winterswijk Meddo,Winterswijk,Gelderland,VBO,6.706692,52.011138
de Breehegge,13,,,7104BH,Winterswijk Meddo,Winterswijk,Gelderland,VBO,6.707452,52.011219
de Breehegge,14,,,7104BH,Winterswijk Meddo,Winterswijk,Gelderland,VBO,6.706705,52.011075
de Breehegge,15,,,7104BH,Winterswijk Meddo,Winterswijk,Gelderland,VBO,6.707526,52.011236
de Breehegge,16,,,7104BH,Winterswijk Meddo,Winterswijk,Gelderland,VBO,6.706768,52.010944
de Breehegge,17,,,7104BH,Winterswijk Meddo,Winterswijk,Gelderland,VBO,6.707674,52.011343
de Breehegge,19,,,7104BH,Winterswijk Meddo,Winterswijk,Gelderland,VBO,6.707748,52.011378
de Breehegge,20,,,7104BH,Winterswijk Meddo,Winterswijk,Gelderland,VBO,6.707633,52.010930
de Breehegge,21,,,7104BH,Winterswijk Meddo,Winterswijk,Gelderland,VBO,6.707873,52.011466
de Breehegge,22,,,7104BH,Winterswijk Meddo,Winterswijk,Gelderland,VBO,6.707796,52.011018
de Breehegge,23,,,7104BH,Winterswijk Meddo,Winterswijk,Gelderland,VBO,6.707957,52.011505
de Breehegge,24,,,7104BH,Winterswijk Meddo,Winterswijk,Gelderland,VBO,6.707944,52.011106
de Breehegge,25,,,7104BH,Winterswijk Meddo,Winterswijk,Gelderland,VBO,6.708115,52.011585
de Breehegge,26,,,7104BH,Winterswijk Meddo,Winterswijk,Gelderland,VBO,6.708092,52.011194
de Breehegge,27,,,7104BH,Winterswijk Meddo,Winterswijk,Gelderland,VBO,6.708195,52.011598
de Breehegge,28,,,7104BH,Winterswijk Meddo,Winterswijk,Gelderland,VBO,6.708319,52.011315
de Breehegge,30,,,7104BH,Winterswijk Meddo,Winterswijk,Gelderland,VBO,6.708476,52.011413
de Breehegge,32,,,7104BH,Winterswijk Meddo,Winterswijk,Gelderland,VBO,6.708563,52.011571
de Breehegge,34,,,7104BH,Winterswijk Meddo,Winterswijk,Gelderland,VBO,6.708471,52.011828
de Breehegge,34,,,7104BH,Winterswijk Meddo,Winterswijk,Gelderland,VBO,6.708574,52.011701
de Breehegge,36,,,7104BH,Winterswijk Meddo,Winterswijk,Gelderland,VBO,6.708519,52.011828
de Breehegge,38,,,7104BH,Winterswijk Meddo,Winterswijk,Gelderland,VBO,6.708506,52.011873
de Breehegge,40,,,7104BH,Winterswijk Meddo,Winterswijk,Gelderland,VBO,6.708451,52.011990
de Breehegge,42,,,7104BH,Winterswijk Meddo,Winterswijk,Gelderland,VBO,6.708438,52.012044
Van Eerdenweg,1,,,7104BJ,Winterswijk Meddo,Winterswijk,Gelderland,VBO,6.701344,52.012564
Van Eerdenweg,3,,,7104BJ,Winterswijk Meddo,Winterswijk,Gelderland,VBO,6.701328,52.012523
Van Eerdenweg,4,,,7104BJ,Winterswijk Meddo,Winterswijk,Gelderland,VBO,6.700759,52.012490
Van Eerdenweg,6,,,7104BJ,Winterswijk Meddo,Winterswijk,Gelderland,VBO,6.701360,52.012105
Van Eerdenweg,8,,,7104BJ,Winterswijk Meddo,Winterswijk,Gelderland,VBO,6.701406,52.011689
Van Eerdenweg,9,,,7104BJ,Winterswijk Meddo,Winterswijk,Gelderland,VBO,6.702460,52.011374
Van Eerdenweg,10,,,7104BJ,Winterswijk Meddo,Winterswijk,Gelderland,VBO,6.701294,52.011692
Hoeninkstegge,1,,,7104BK,Winterswijk Meddo,Winterswijk,Gelderland,VBO,6.696943,52.012886
Hoeninkstegge,2,a,,7104BK,Winterswijk Meddo,Winterswijk,Gelderland,VBO,6.689731,52.009652
Hoeninkstegge,2,,,7104BK,Winterswijk Meddo,Winterswijk,Gelderland,VBO,6.689867,52.009665
Hoeninkstegge,3,,,7104BK,Winterswijk Meddo,Winterswijk,Gelderland,VBO,6.696850,52.012948
Hoeninkstegge,5,,,7104BK,Winterswijk Meddo,Winterswijk,Gelderland,VBO,6.696613,52.012590
Hoeninkstegge,7,,,7104BK,Winterswijk Meddo,Winterswijk,Gelderland,VBO,6.695873,52.011418
Hoeninkstegge,9,,,7104BK,Winterswijk Meddo,Winterswijk,Gelderland,VBO,6.695895,52.011346
Hoeninkstegge,11,,,7104BK,Winterswijk Meddo,Winterswijk,Gelderland,VBO,6.690573,52.009559
Hoeninkstegge,11,,,7104BK,Winterswijk Meddo,Winterswijk,Gelderland,VBO,6.690973,52.009432
Wesselinkweg,1,,,7104BL,Winterswijk Meddo,Winterswijk,Gelderland,VBO,6.689897,52.018541
Beerninkweg,7,,,7104BM,Winterswijk Meddo,Winterswijk,Gelderland,VBO,6.669242,52.010311
Beerninkweg,9,,,7104BM,Winterswijk Meddo,Winterswijk,Gelderland,VBO,6.670304,52.013091
Beerninkweg,11,,,7104BM,Winterswijk Meddo,Winterswijk,Gelderland,VBO,6.670412,52.013229
Beerninkweg,12,,,7104BM,Winterswijk Meddo,Winterswijk,Gelderland,VBO,6.673684,52.010173
Beerninkweg,13,,,7104BM,Winterswijk Meddo,Winterswijk,Gelderland,VBO,6.675816,52.014393
Beerninkweg,14,,,7104BM,Winterswijk Meddo,Winterswijk,Gelderland,VBO,6.672718,52.011529
Beerninkweg,15,,,7104BM,Winterswijk Meddo,Winterswijk,Gelderland,VBO,6.677293,52.016095
Beerninkweg,16,,,7104BM,Winterswijk Meddo,Winterswijk,Gelderland,VBO,6.673659,52.011381
Beerninkweg,18,,,7104BM,Winterswijk Meddo,Winterswijk,Gelderland,VBO,6.676104,52.013769
Beerninkweg,20,,,7104BM,Winterswijk Meddo,Winterswijk,Gelderland,VBO,6.677311,52.014296
Beerninkweg,22,a,,7104BM,Winterswijk Meddo,Winterswijk,Gelderland,VBO,6.677788,52.014355
Beerninkweg,22,,,7104BM,Winterswijk Meddo,Winterswijk,Gelderland,VBO,6.677470,52.014287
Beerninkweg,24,,,7104BM,Winterswijk Meddo,Winterswijk,Gelderland,VBO,6.679406,52.014623
Beerninkweg,26,,,7104BM,Winterswijk Meddo,Winterswijk,Gelderland,VBO,6.678800,52.012701
Beerninkweg,28,,,7104BM,Winterswijk Meddo,Winterswijk,Gelderland,VBO,6.678732,52.012810
Hazenveldsche Molenweg,1,,,7104BN,Winterswijk Meddo,Winterswijk,Gelderland,VBO,6.675985,52.016224
Hazenveldsche Molenweg,2,,,7104BN,Winterswijk Meddo,Winterswijk,Gelderland,VBO,6.675197,52.016170
Hazenveldsche Molenweg,3,,,7104BN,Winterswijk Meddo,Winterswijk,Gelderland,VBO,6.675809,52.016181
Hazenveldsche Molenweg,4,,,7104BN,Winterswijk Meddo,Winterswijk,Gelderland,VBO,6.673611,52.014722
Hazenveldsche Molenweg,5,,,7104BN,Winterswijk Meddo,Winterswijk,Gelderland,VBO,6.675936,52.015247
Brengersdiek,1,,,7104BP,Winterswijk Meddo,Winterswijk,Gelderland,VBO,6.689315,52.024452
Brengersdiek,2,,,7104BP,Winterswijk Meddo,Winterswijk,Gelderland,VBO,6.681812,52.017212
Brengersdiek,3,a,,7104BP,Winterswijk Meddo,Winterswijk,Gelderland,VBO,6.690674,52.025659
Brengersdiek,3,,,7104BP,Winterswijk Meddo,Winterswijk,Gelderland,VBO,6.690537,52.025638
Brengersdiek,4,,,7104BP,Winterswijk Meddo,Winterswijk,Gelderland,VBO,6.682424,52.018266
Brengersdiek,6,,,7104BP,Winterswijk Meddo,Winterswijk,Gelderland,VBO,6.682669,52.018364
Oostendorperdiek,1,,,7104BR,Winterswijk Meddo,Winterswijk,Gelderland,VBO,6.680369,52.020725
Oostendorperdiek,2,,,7104BR,Winterswijk Meddo,Winterswijk,Gelderland,VBO,6.683109,52.021484
Oostendorperdiek,3,,,7104BR,Winterswijk Meddo,Winterswijk,Gelderland,VBO,6.680283,52.020771
Oostendorperdiek,4,,,7104BR,Winterswijk Meddo,Winterswijk,Gelderland,VBO,6.682172,52.022657
Oostendorperdiek,5,,,7104BR,Winterswijk Meddo,Winterswijk,Gelderland,VBO,6.679588,52.024173
Oostendorperdiek,6,a,,7104BR,Winterswijk Meddo,Winterswijk,Gelderland,VBO,6.683911,52.027541
Oostendorperdiek,6,,,7104BR,Winterswijk Meddo,Winterswijk,Gelderland,VBO,6.683729,52.027574
Oostendorperdiek,7,,,7104BR,Winterswijk Meddo,Winterswijk,Gelderland,VBO,6.680804,52.024384
Oostendorperdiek,8,,,7104BR,Winterswijk Meddo,Winterswijk,Gelderland,VBO,6.683965,52.028164
Oostendorperdiek,9,,,7104BR,Winterswijk Meddo,Winterswijk,Gelderland,VBO,6.680434,52.024473
Oostendorperdiek,13,,,7104BR,Winterswijk Meddo,Winterswijk,Gelderland,VBO,6.682692,52.026974
Oostendorperdiek,15,,,7104BR,Winterswijk Meddo,Winterswijk,Gelderland,VBO,6.683038,52.027111
Oostendorperdiek,17,,,7104BR,Winterswijk Meddo,Winterswijk,Gelderland,VBO,6.682885,52.027234
Oostendorperdiek,23,,,7104BR,Winterswijk Meddo,Winterswijk,Gelderland,VBO,6.686398,52.029238
Oostendorperdiek,25,,,7104BR,Winterswijk Meddo,Winterswijk,Gelderland,VBO,6.689948,52.030347
Zwilbroekseweg,1,,,7104BS,Winterswijk Meddo,Winterswijk,Gelderland,VBO,6.698960,52.034595
Zwilbroekseweg,2,,,7104BS,Winterswijk Meddo,Winterswijk,Gelderland,VBO,6.695133,52.031843
Zwilbroekseweg,3,,,7104BS,Winterswijk Meddo,Winterswijk,Gelderland,VBO,6.704623,52.035461
Zwilbroekseweg,4,a,,7104BS,Winterswijk Meddo,Winterswijk,Gelderland,VBO,6.695884,52.032144
Zwilbroekseweg,4,,,7104BS,Winterswijk Meddo,Winterswijk,Gelderland,VBO,6.695942,52.032104
Zwilbroekseweg,5,,,7104BS,Winterswijk Meddo,Winterswijk,Gelderland,VBO,6.711172,52.036050
Zwilbroekseweg,6,,,7104BS,Winterswijk Meddo,Winterswijk,Gelderland,VBO,6.707869,52.035252
Zwilbroekseweg,7,,,7104BS,Winterswijk Meddo,Winterswijk,Gelderland,VBO,6.713380,52.036319
Zwilbroekseweg,9,,,7104BS,Winterswijk Meddo,Winterswijk,Gelderland,VBO,6.716310,52.036766
Morskers Driehuisweg,4,a,,7104BT,Winterswijk Meddo,Winterswijk,Gelderland,VBO,6.704036,51.992571
Morskers Driehuisweg,4,,,7104BT,Winterswijk Meddo,Winterswijk,Gelderland,VBO,6.703948,51.992615
Morskers Driehuisweg,5,,,7104BT,Winterswijk Meddo,Winterswijk,Gelderland,VBO,6.695633,51.989094
Morskers Driehuisweg,6,,,7104BT,Winterswijk Meddo,Winterswijk,Gelderland,VBO,6.700230,51.991946
Morskers Driehuisweg,7,,,7104BT,Winterswijk Meddo,Winterswijk,Gelderland,VBO,6.698755,51.988370
Morskers Driehuisweg,8,,,7104BT,Winterswijk Meddo,Winterswijk,Gelderland,VBO,6.699937,51.992290
Morskers Driehuisweg,9,,,7104BT,Winterswijk Meddo,Winterswijk,Gelderland,VBO,6.700943,51.998384
Morskers Driehuisweg,10,a,,7104BT,Winterswijk Meddo,Winterswijk,Gelderland,VBO,6.699225,51.992622
Morskers Driehuisweg,10,,,7104BT,Winterswijk Meddo,Winterswijk,Gelderland,VBO,6.699175,51.992713
Morskers Driehuisweg,11,,,7104BT,Winterswijk Meddo,Winterswijk,Gelderland,VBO,6.702658,52.000350
Morskers Driehuisweg,12,,,7104BT,Winterswijk Meddo,Winterswijk,Gelderland,VBO,6.698539,51.994935
Morskers Driehuisweg,14,,,7104BT,Winterswijk Meddo,Winterswijk,Gelderland,VBO,6.698571,51.994949
Morskers Driehuisweg,16,,,7104BT,Winterswijk Meddo,Winterswijk,Gelderland,VBO,6.699242,51.994632
Morskers Driehuisweg,18,,,7104BT,Winterswijk Meddo,Winterswijk,Gelderland,VBO,6.699493,51.994750
Morskers Driehuisweg,20,,,7104BT,Winterswijk Meddo,Winterswijk,Gelderland,VBO,6.699230,51.995077
Morskers Driehuisweg,22,,,7104BT,Winterswijk Meddo,Winterswijk,Gelderland,VBO,6.699831,51.996215
Morskers Driehuisweg,24,,,7104BT,Winterswijk Meddo,Winterswijk,Gelderland,VBO,6.707210,51.999042
Morskers Driehuisweg,26,,,7104BT,Winterswijk Meddo,Winterswijk,Gelderland,VBO,6.705361,51.998959
Balkenschotweg,1,,,7104BW,Winterswijk Meddo,Winterswijk,Gelderland,VBO,6.697364,51.995017
Balkenschotweg,3,,,7104BW,Winterswijk Meddo,Winterswijk,Gelderland,VBO,6.696288,51.995559
Balkenschotweg,5,,,7104BW,Winterswijk Meddo,Winterswijk,Gelderland,VBO,6.693046,51.993660
Balkenschotweg,7,,,7104BW,Winterswijk Meddo,Winterswijk,Gelderland,VBO,6.693116,51.993620
Dankbaarsdijk,4,,,7104BX,Winterswijk Meddo,Winterswijk,Gelderland,VBO,6.676145,52.026742
Dankbaarsdijk,6,,,7104BX,Winterswijk Meddo,Winterswijk,Gelderland,VBO,6.676258,52.026717
Greverkamp,1,,,7104CA,Winterswijk Meddo,Winterswijk,Gelderland,VBO,6.703322,52.012946
Greverkamp,2,,,7104CA,Winterswijk Meddo,Winterswijk,Gelderland,VBO,6.703745,52.013100
Greverkamp,3,,,7104CA,Winterswijk Meddo,Winterswijk,Gelderland,VBO,6.703332,52.013286
Greverkamp,4,,,7104CA,Winterswijk Meddo,Winterswijk,Gelderland,VBO,6.703769,52.013283
Greverkamp,5,,,7104CA,Winterswijk Meddo,Winterswijk,Gelderland,VBO,6.703535,52.013753
Greverkamp,6,,,7104CA,Winterswijk Meddo,Winterswijk,Gelderland,VBO,6.703785,52.013319
Greverkamp,7,,,7104CA,Winterswijk Meddo,Winterswijk,Gelderland,VBO,6.703508,52.013816
Greverkamp,8,,,7104CA,Winterswijk Meddo,Winterswijk,Gelderland,VBO,6.703792,52.013451
Greverkamp,9,,,7104CA,Winterswijk Meddo,Winterswijk,Gelderland,VBO,6.703481,52.013880
Greverkamp,10,,,7104CA,Winterswijk Meddo,Winterswijk,Gelderland,VBO,6.703807,52.013506
Greverkamp,11,,,7104CA,Winterswijk Meddo,Winterswijk,Gelderland,VBO,6.703439,52.013934
Greverkamp,12,,,7104CA,Winterswijk Meddo,Winterswijk,Gelderland,VBO,6.703889,52.013676
Greverkamp,14,,,7104CA,Winterswijk Meddo,Winterswijk,Gelderland,VBO,6.703930,52.013803
Greverkamp,16,,,7104CA,Winterswijk Meddo,Winterswijk,Gelderland,VBO,6.703946,52.013847
Greverkamp,18,,,7104CA,Winterswijk Meddo,Winterswijk,Gelderland,VBO,6.703962,52.013901
Greverkamp,20,a,,7104CA,Winterswijk Meddo,Winterswijk,Gelderland,VBO,6.704028,52.014081
Greverkamp,20,,,7104CA,Winterswijk Meddo,Winterswijk,Gelderland,VBO,6.703981,52.014029
Greverkamp,22,,,7104CA,Winterswijk Meddo,Winterswijk,Gelderland,VBO,6.704131,52.014196
Greverkamp,24,,,7104CA,Winterswijk Meddo,Winterswijk,Gelderland,VBO,6.704176,52.014231
Greverkamp,26,,,7104CA,Winterswijk Meddo,Winterswijk,Gelderland,VBO,6.704235,52.014267
Greverkamp,28,,,7104CA,Winterswijk Meddo,Winterswijk,Gelderland,VBO,6.704280,52.014302
Harberthof,1,,,7104CB,Winterswijk Meddo,Winterswijk,Gelderland,VBO,6.703484,52.013511
Harberthof,2,,,7104CB,Winterswijk Meddo,Winterswijk,Gelderland,VBO,6.703331,52.014223
Harberthof,3,,,7104CB,Winterswijk Meddo,Winterswijk,Gelderland,VBO,6.703397,52.013521
Harberthof,4,,,7104CB,Winterswijk Meddo,Winterswijk,Gelderland,VBO,6.703417,52.014195
Harberthof,6,,,7104CB,Winterswijk Meddo,Winterswijk,Gelderland,VBO,6.703504,52.014158
Harberthof,8,,,7104CB,Winterswijk Meddo,Winterswijk,Gelderland,VBO,6.703605,52.014130
Harberthof,9,,,7104CB,Winterswijk Meddo,Winterswijk,Gelderland,VBO,6.703098,52.013731
Harberthof,11,,,7104CB,Winterswijk Meddo,Winterswijk,Gelderland,VBO,6.703085,52.013785
Harberthof,13,,,7104CB,Winterswijk Meddo,Winterswijk,Gelderland,VBO,6.703000,52.013894
Harberthof,15,,,7104CB,Winterswijk Meddo,Winterswijk,Gelderland,VBO,6.702987,52.013948
Harberthof,17,,,7104CB,Winterswijk Meddo,Winterswijk,Gelderland,VBO,6.702931,52.014081
Harberthof,19,,,7104CB,Winterswijk Meddo,Winterswijk,Gelderland,VBO,6.702942,52.014237
Harberthof,23,,,7104CB,Winterswijk Meddo,Winterswijk,Gelderland,VBO,6.703208,52.014503
Harberthof,25,,,7104CB,Winterswijk Meddo,Winterswijk,Gelderland,VBO,6.703517,52.014524
Masterveldweg,1,,,7104DA,Winterswijk Meddo,Winterswijk,Gelderland,VBO,6.740252,52.023989
Greuneweg,1,,,7104DB,Winterswijk Meddo,Winterswijk,Gelderland,VBO,6.729665,52.003197
Greuneweg,2,,,7104DB,Winterswijk Meddo,Winterswijk,Gelderland,VBO,6.730985,52.002095
Greuneweg,3,,,7104DB,Winterswijk Meddo,Winterswijk,Gelderland,VBO,6.728737,52.004479
Greuneweg,4,,,7104DB,Winterswijk Meddo,Winterswijk,Gelderland,VBO,6.730994,52.002227
Greuneweg,5,,,7104DB,Winterswijk Meddo,Winterswijk,Gelderland,VBO,6.728826,52.004592
Greuneweg,6,,,7104DB,Winterswijk Meddo,Winterswijk,Gelderland,VBO,6.731940,52.008308
Greuneweg,7,b,,7104DB,Winterswijk Meddo,Winterswijk,Gelderland,VBO,6.737117,52.015712
Greuneweg,7,,I,7104DB,Winterswijk Meddo,Winterswijk,Gelderland,VBO,6.728630,52.008526
Greuneweg,7,,,7104DB,Winterswijk Meddo,Winterswijk,Gelderland,VBO,6.729022,52.008683
Greuneweg,8,,,7104DB,Winterswijk Meddo,Winterswijk,Gelderland,VBO,6.741910,52.019592
Greuneweg,9,,,7104DB,Winterswijk Meddo,Winterswijk,Gelderland,VBO,6.746237,52.024875
Greuneweg,10,,,7104DB,Winterswijk Meddo,Winterswijk,Gelderland,VBO,6.747626,52.024494
Poolserweg,1,,,7104DC,Winterswijk Meddo,Winterswijk,Gelderland,VBO,6.736235,52.004446
Poolserweg,2,a,,7104DC,Winterswijk Meddo,Winterswijk,Gelderland,VBO,6.739217,52.007631
Poolserweg,2,,,7104DC,Winterswijk Meddo,Winterswijk,Gelderland,VBO,6.739055,52.007545
Poolserweg,3,,,7104DC,Winterswijk Meddo,Winterswijk,Gelderland,VBO,6.738657,52.008747
Poolserweg,4,a,,7104DC,Winterswijk Meddo,Winterswijk,Gelderland,VBO,6.740128,52.008658
Poolserweg,4,,,7104DC,Winterswijk Meddo,Winterswijk,Gelderland,VBO,6.740247,52.008578
Poolserweg,5,,,7104DC,Winterswijk Meddo,Winterswijk,Gelderland,VBO,6.739636,52.008948
Poolserweg,7,,,7104DC,Winterswijk Meddo,Winterswijk,Gelderland,VBO,6.745568,52.017231
Wandersweg,1,,,7104DD,Winterswijk Meddo,Winterswijk,Gelderland,VBO,6.719180,52.013457
Wandersweg,2,,,7104DD,Winterswijk Meddo,Winterswijk,Gelderland,VBO,6.714727,52.012378
Wandersweg,3,,,7104DD,Winterswijk Meddo,Winterswijk,Gelderland,VBO,6.718602,52.014020
Wandersweg,4,b,,7104DD,Winterswijk Meddo,Winterswijk,Gelderland,VBO,6.719050,52.010541
Wandersweg,4,,,7104DD,Winterswijk Meddo,Winterswijk,Gelderland,VBO,6.720290,52.011344
Wandersweg,5,,,7104DD,Winterswijk Meddo,Winterswijk,Gelderland,VBO,6.719475,52.014302
Wandersweg,6,,,7104DD,Winterswijk Meddo,Winterswijk,Gelderland,VBO,6.720854,52.011212
Wandersweg,7,,,7104DD,Winterswijk Meddo,Winterswijk,Gelderland,VBO,6.721376,52.011611
Wandersweg,8,,,7104DD,Winterswijk Meddo,Winterswijk,Gelderland,VBO,6.727992,52.010085
Wandersweg,9,,,7104DD,Winterswijk Meddo,Winterswijk,Gelderland,VBO,6.721451,52.011682
Wandersweg,10,,,7104DD,Winterswijk Meddo,Winterswijk,Gelderland,VBO,6.734470,52.009551
Wandersweg,12,,,7104DD,Winterswijk Meddo,Winterswijk,Gelderland,VBO,6.734288,52.009280
Wandersweg,13,,,7104DD,Winterswijk Meddo,Winterswijk,Gelderland,VBO,6.723357,52.011136
Wandersweg,14,,,7104DD,Winterswijk Meddo,Winterswijk,Gelderland,VBO,6.746307,52.011829
Wandersweg,15,,,7104DD,Winterswijk Meddo,Winterswijk,Gelderland,VBO,6.732194,52.010957
Wandersweg,17,,,7104DD,Winterswijk Meddo,Winterswijk,Gelderland,VBO,6.732228,52.011100
Wandersweg,19,,,7104DD,Winterswijk Meddo,Winterswijk,Gelderland,VBO,6.737522,52.012096
Wandersweg,21,,,7104DD,Winterswijk Meddo,Winterswijk,Gelderland,VBO,6.739630,52.011784
Lemmenesweg,2,,,7104DE,Winterswijk Meddo,Winterswijk,Gelderland,VBO,6.713994,52.013726
Lemmenesweg,3,a,,7104DE,Winterswijk Meddo,Winterswijk,Gelderland,VBO,6.721529,52.021271
Lemmenesweg,3,,,7104DE,Winterswijk Meddo,Winterswijk,Gelderland,VBO,6.721642,52.021028
Lemmenesweg,4,,,7104DE,Winterswijk Meddo,Winterswijk,Gelderland,VBO,6.715570,52.014768
Lemmenesweg,5,,,7104DE,Winterswijk Meddo,Winterswijk,Gelderland,VBO,6.724759,52.023916
Lemmenesweg,6,a,,7104DE,Winterswijk Meddo,Winterswijk,Gelderland,VBO,6.720887,52.019511
Lemmenesweg,6,,,7104DE,Winterswijk Meddo,Winterswijk,Gelderland,VBO,6.720810,52.019411
Lemmenesweg,8,a,,7104DE,Winterswijk Meddo,Winterswijk,Gelderland,VBO,6.722288,52.020706
Lemmenesweg,8,,,7104DE,Winterswijk Meddo,Winterswijk,Gelderland,VBO,6.721973,52.020615
Lemmenesweg,10,,,7104DE,Winterswijk Meddo,Winterswijk,Gelderland,VBO,6.725203,52.023051
Lemmenesweg,12,,,7104DE,Winterswijk Meddo,Winterswijk,Gelderland,VBO,6.726249,52.024046
Lemmenesweg,14,,,7104DE,Winterswijk Meddo,Winterswijk,Gelderland,VBO,6.726381,52.024001
Wormskampweg,4,,,7104DG,Winterswijk Meddo,Winterswijk,Gelderland,VBO,6.728096,52.013152
Wormskampweg,6,,,7104DG,Winterswijk Meddo,Winterswijk,Gelderland,VBO,6.727011,52.018855
Wormskampweg,8,,,7104DG,Winterswijk Meddo,Winterswijk,Gelderland,VBO,6.727647,52.020670
Wormskampweg,10,,,7104DG,Winterswijk Meddo,Winterswijk,Gelderland,VBO,6.727816,52.021380
Wormskampweg,11,,,7104DG,Winterswijk Meddo,Winterswijk,Gelderland,VBO,6.723388,52.014257
Wormskampweg,12,a,,7104DG,Winterswijk Meddo,Winterswijk,Gelderland,VBO,6.728587,52.022910
Wormskampweg,12,,,7104DG,Winterswijk Meddo,Winterswijk,Gelderland,VBO,6.728477,52.022926
Wormskampweg,13,,,7104DG,Winterswijk Meddo,Winterswijk,Gelderland,VBO,6.724992,52.016109
Wormskampweg,14,,,7104DG,Winterswijk Meddo,Winterswijk,Gelderland,VBO,6.731784,52.031319
Wormskampweg,15,,,7104DG,Winterswijk Meddo,Winterswijk,Gelderland,VBO,6.725469,52.016967
Wormskampweg,16,,,7104DG,Winterswijk Meddo,Winterswijk,Gelderland,VBO,6.732015,52.032174
Wormskampweg,17,,,7104DG,Winterswijk Meddo,Winterswijk,Gelderland,VBO,6.726166,52.018846
Wormskampweg,19,,,7104DG,Winterswijk Meddo,Winterswijk,Gelderland,VBO,6.726238,52.018906
Wormskampweg,21,,,7104DG,Winterswijk Meddo,Winterswijk,Gelderland,VBO,6.729432,52.027663
Wormskampweg,23,,,7104DG,Winterswijk Meddo,Winterswijk,Gelderland,VBO,6.729888,52.028513
Wormskampweg,25,,,7104DG,Winterswijk Meddo,Winterswijk,Gelderland,VBO,6.730965,52.031207
Wormskampweg,27,,,7104DG,Winterswijk Meddo,Winterswijk,Gelderland,VBO,6.731360,52.032337
Roskampweg,1,,,7104DJ,Winterswijk Meddo,Winterswijk,Gelderland,VBO,6.741354,52.006961
Roskampweg,2,,,7104DJ,Winterswijk Meddo,Winterswijk,Gelderland,VBO,6.739753,52.006182
Roskampweg,3,,,7104DJ,Winterswijk Meddo,Winterswijk,Gelderland,VBO,6.741468,52.006913
Roskampweg,4,,,7104DJ,Winterswijk Meddo,Winterswijk,Gelderland,VBO,6.739806,52.006287
Roskampweg,5,,,7104DJ,Winterswijk Meddo,Winterswijk,Gelderland,VBO,6.741822,52.007556
Roskampweg,6,,,7104DJ,Winterswijk Meddo,Winterswijk,Gelderland,VBO,6.749953,52.008805
Roskampweg,7,,,7104DJ,Winterswijk Meddo,Winterswijk,Gelderland,VBO,6.748419,52.009512
Roskampweg,8,,,7104DJ,Winterswijk Meddo,Winterswijk,Gelderland,VBO,6.749858,52.008809
Loohuisweg,1,,,7104DK,Winterswijk Meddo,Winterswijk,Gelderland,VBO,6.727152,51.997703
Groenloseweg,106,a,,7104GA,Winterswijk Meddo,Winterswijk,Gelderland,VBO,6.689790,51.990482
Groenloseweg,106,b,,7104GA,Winterswijk Meddo,Winterswijk,Gelderland,VBO,6.689871,51.990525
Groenloseweg,106,,,7104GA,Winterswijk Meddo,Winterswijk,Gelderland,VBO,6.689640,51.990360
Groenloseweg,108,,,7104GA,Winterswijk Meddo,Winterswijk,Gelderland,VBO,6.681906,51.993549
Groenloseweg,110,a,,7104GA,Winterswijk Meddo,Winterswijk,Gelderland,VBO,6.674834,51.999068
Groenloseweg,110,,,7104GA,Winterswijk Meddo,Winterswijk,Gelderland,VBO,6.674850,51.999129
Groenloseweg,112,,,7104GA,Winterswijk Meddo,Winterswijk,Gelderland,VBO,6.668521,52.001058
Groenloseweg,114,,,7104GA,Winterswijk Meddo,Winterswijk,Gelderland,VBO,6.665102,52.002863
Groenloseweg,116,a,,7104GA,Winterswijk Meddo,Winterswijk,Gelderland,VBO,6.660848,52.006583
Groenloseweg,118,,,7104GA,Winterswijk Meddo,Winterswijk,Gelderland,VBO,6.659133,52.006055
Groenloseweg,120,a,,7104GA,Winterswijk Meddo,Winterswijk,Gelderland,VBO,6.659104,52.006172
Groenloseweg,120,,,7104GA,Winterswijk Meddo,Winterswijk,Gelderland,VBO,6.659003,52.006093
Groenloseweg,122,,,7104GA,Winterswijk Meddo,Winterswijk,Gelderland,VBO,6.658937,52.006387
Groenloseweg,124,,,7104GA,Winterswijk Meddo,Winterswijk,Gelderland,VBO,6.656994,52.007300
Groenloseweg,131,,,7104GA,Winterswijk Meddo,Winterswijk,Gelderland,VBO,6.686062,51.990441
Groenloseweg,133,,,7104GA,Winterswijk Meddo,Winterswijk,Gelderland,VBO,6.684032,51.991370
Groenloseweg,135,,,7104GA,Winterswijk Meddo,Winterswijk,Gelderland,VBO,6.683604,51.991525
Groenloseweg,137,,,7104GA,Winterswijk Meddo,Winterswijk,Gelderland,VBO,6.681838,51.990388
Groenloseweg,139,,,7104GA,Winterswijk Meddo,Winterswijk,Gelderland,VBO,6.682781,51.992137
Groenloseweg,141,,,7104GA,Winterswijk Meddo,Winterswijk,Gelderland,VBO,6.680023,51.993581
Groenloseweg,143,,,7104GA,Winterswijk Meddo,Winterswijk,Gelderland,VBO,6.679051,51.994149
Groenloseweg,145,,,7104GA,Winterswijk Meddo,Winterswijk,Gelderland,VBO,6.678809,51.994233
Groenloseweg,147,,,7104GA,Winterswijk Meddo,Winterswijk,Gelderland,VBO,6.678801,51.994474
Groenloseweg,149,,,7104GA,Winterswijk Meddo,Winterswijk,Gelderland,VBO,6.678723,51.994441
Groenloseweg,151,,,7104GA,Winterswijk Meddo,Winterswijk,Gelderland,VBO,6.661814,52.003822
Groenloseweg,153,,,7104GA,Winterswijk Meddo,Winterswijk,Gelderland,VBO,6.658821,52.004844
Groenloseweg,155,,,7104GA,Winterswijk Meddo,Winterswijk,Gelderland,VBO,6.658457,52.004677
Weerkampweg,1,,,7104GB,Winterswijk Meddo,Winterswijk,Gelderland,VBO,6.683836,51.994548
Weerkampweg,2,,,7104GB,Winterswijk Meddo,Winterswijk,Gelderland,VBO,6.685885,51.993436
Weerkampweg,3,,,7104GB,Winterswijk Meddo,Winterswijk,Gelderland,VBO,6.683892,51.994406
Weerkampweg,4,a,,7104GB,Winterswijk Meddo,Winterswijk,Gelderland,VBO,6.687535,51.994907
Weerkampweg,4,,,7104GB,Winterswijk Meddo,Winterswijk,Gelderland,VBO,6.687190,51.994893
Hoebinkweg,2,,,7104GC,Winterswijk Meddo,Winterswijk,Gelderland,VBO,6.680797,51.994652
Hoebinkweg,4,,,7104GC,Winterswijk Meddo,Winterswijk,Gelderland,VBO,6.683802,51.996345
Hoebinkweg,6,,,7104GC,Winterswijk Meddo,Winterswijk,Gelderland,VBO,6.685002,51.997288
Hoebinkweg,8,,,7104GC,Winterswijk Meddo,Winterswijk,Gelderland,VBO,6.685195,51.997263
Hoebinkweg,10,,,7104GC,Winterswijk Meddo,Winterswijk,Gelderland,VBO,6.684162,51.997234
Hoebinkweg,12,,,7104GC,Winterswijk Meddo,Winterswijk,Gelderland,VBO,6.682121,51.997648
Hoebinkweg,14,,,7104GC,Winterswijk Meddo,Winterswijk,Gelderland,VBO,6.681975,51.997641
Goorweg,40,,,7104GE,Winterswijk Meddo,Winterswijk,Gelderland,VBO,6.676802,52.001060
Goorweg,42,,,7104GE,Winterswijk Meddo,Winterswijk,Gelderland,VBO,6.677015,51.998971
Goorweg,43,,,7104GE,Winterswijk Meddo,Winterswijk,Gelderland,VBO,6.679647,52.003057
Goorweg,45,a,,7104GE,Winterswijk Meddo,Winterswijk,Gelderland,VBO,6.679840,52.000352
Goorweg,45,,,7104GE,Winterswijk Meddo,Winterswijk,Gelderland,VBO,6.679813,52.000425
Goorweg,47,,,7104GE,Winterswijk Meddo,Winterswijk,Gelderland,VBO,6.680965,51.999984
Goorweg,49,,,7104GE,Winterswijk Meddo,Winterswijk,Gelderland,VBO,6.680074,51.998837
Bruggersweg,1,,,7104GG,Winterswijk Meddo,Winterswijk,Gelderland,VBO,6.671497,52.000487
Bruggersweg,2,,,7104GG,Winterswijk Meddo,Winterswijk,Gelderland,VBO,6.675444,52.001868
Bruggersweg,3,,,7104GG,Winterswijk Meddo,Winterswijk,Gelderland,VBO,6.673520,52.003268
Leemkuilweg,1,,,7104GH,Winterswijk Meddo,Winterswijk,Gelderland,VBO,6.663238,51.998844
Leemkuilweg,2,,,7104GH,Winterswijk Meddo,Winterswijk,Gelderland,VBO,6.665809,52.001781
Leemkuilweg,3,,,7104GH,Winterswijk Meddo,Winterswijk,Gelderland,VBO,6.663164,51.998790
Leemkuilweg,5,,,7104GH,Winterswijk Meddo,Winterswijk,Gelderland,VBO,6.653117,51.997814
Beerninkweg,1,,,7104GJ,Winterswijk Meddo,Winterswijk,Gelderland,VBO,6.666391,52.004727
Beerninkweg,2,,,7104GJ,Winterswijk Meddo,Winterswijk,Gelderland,VBO,6.669951,52.003900
Beerninkweg,4,,,7104GJ,Winterswijk Meddo,Winterswijk,Gelderland,VBO,6.673261,52.003572
Beerninkweg,5,,,7104GJ,Winterswijk Meddo,Winterswijk,Gelderland,VBO,6.666608,52.006214
Beerninkweg,10,,,7104GJ,Winterswijk Meddo,Winterswijk,Gelderland,VBO,6.668539,52.003937
Hoeveweg,1,,,7104GK,Winterswijk Meddo,Winterswijk,Gelderland,VBO,6.657079,52.007377
Hoeveweg,2,,,7104GK,Winterswijk Meddo,Winterswijk,Gelderland,VBO,6.657958,52.006830
Hoeveweg,3,,,7104GK,Winterswijk Meddo,Winterswijk,Gelderland,VBO,6.658807,52.008428
Hoeveweg,5,,,7104GK,Winterswijk Meddo,Winterswijk,Gelderland,VBO,6.660366,52.010782
Hoeveweg,7,,,7104GK,Winterswijk Meddo,Winterswijk,Gelderland,VBO,6.660400,52.010733
Hoeveweg,9,,,7104GK,Winterswijk Meddo,Winterswijk,Gelderland,VBO,6.662167,52.010361
Hoeveweg,11,,,7104GK,Winterswijk Meddo,Winterswijk,Gelderland,VBO,6.662991,52.009773
Bessinkpasweg,2,,,7104GL,Winterswijk Meddo,Winterswijk,Gelderland,VBO,6.655849,52.000882
Tolkampweg,1,,,7104GM,Winterswijk Meddo,Winterswijk,Gelderland,VBO,6.672819,51.995732
Tolkampweg,2,,,7104GM,Winterswijk Meddo,Winterswijk,Gelderland,VBO,6.669967,51.996633
Tolkampweg,4,,,7104GM,Winterswijk Meddo,Winterswijk,Gelderland,VBO,6.665026,51.997182
Burinkweg,1,,,7104GN,Winterswijk Meddo,Winterswijk,Gelderland,VBO,6.674795,51.994533
Burinkweg,2,,,7104GN,Winterswijk Meddo,Winterswijk,Gelderland,VBO,6.676296,51.995645
