openbareruimtenaam,huisnummer,huisletter,huisnummertoevoeging,postcode,woonplaatsnaam,gemeentenaam,provincienaam,typeadresseerbaarobject,longitude,latitude
Corleseweg,9,,,7119AA,Winterswijk Corle,Winterswijk,Gelderland,VBO,6.677417,51.969562
Corleseweg,11,,,7119AA,Winterswijk Corle,Winterswijk,Gelderland,VBO,6.675758,51.968971
Corleseweg,13,,,7119AA,Winterswijk Corle,Winterswijk,Gelderland,VBO,6.667778,51.969265
Corleseweg,21,,,7119AA,Winterswijk Corle,Winterswijk,Gelderland,VBO,6.660295,51.969014
Corleseweg,29,,,7119AA,Winterswijk Corle,Winterswijk,Gelderland,VBO,6.659517,51.968939
Corleseweg,31,,,7119AA,Winterswijk Corle,Winterswijk,Gelderland,VBO,6.659240,51.968809
Corleseweg,33,,,7119AA,Winterswijk Corle,Winterswijk,Gelderland,VBO,6.659094,51.968778
Corleseweg,35,,,7119AA,Winterswijk Corle,Winterswijk,Gelderland,VBO,6.658842,51.968634
Corleseweg,37,,,7119AA,Winterswijk Corle,Winterswijk,Gelderland,VBO,6.658652,51.968591
Corleseweg,39,,,7119AA,Winterswijk Corle,Winterswijk,Gelderland,VBO,6.658490,51.968548
Corleseweg,41,,,7119AA,Winterswijk Corle,Winterswijk,Gelderland,VBO,6.658326,51.968397
Corleseweg,43,,,7119AA,Winterswijk Corle,Winterswijk,Gelderland,VBO,6.658004,51.968328
Corleseweg,45,,,7119AA,Winterswijk Corle,Winterswijk,Gelderland,VBO,6.657345,51.967995
Corleseweg,47,,,7119AA,Winterswijk Corle,Winterswijk,Gelderland,VBO,6.653593,51.968987
Corleseweg,49,,,7119AA,Winterswijk Corle,Winterswijk,Gelderland,VBO,6.653755,51.969107
Corleseweg,51,,,7119AA,Winterswijk Corle,Winterswijk,Gelderland,VBO,6.653136,51.969682
Corleseweg,53,,,7119AA,Winterswijk Corle,Winterswijk,Gelderland,VBO,6.653081,51.969748
Corleseweg,55,,,7119AA,Winterswijk Corle,Winterswijk,Gelderland,VBO,6.651832,51.969815
Corleseweg,62,,,7119AB,Winterswijk Corle,Winterswijk,Gelderland,VBO,6.672391,51.971669
Corleseweg,64,,,7119AB,Winterswijk Corle,Winterswijk,Gelderland,VBO,6.668018,51.972471
Corleseweg,66,,,7119AB,Winterswijk Corle,Winterswijk,Gelderland,VBO,6.661215,51.970098
Corleseweg,68,,,7119AB,Winterswijk Corle,Winterswijk,Gelderland,VBO,6.660885,51.969852
Corleseweg,70,,,7119AB,Winterswijk Corle,Winterswijk,Gelderland,VBO,6.660633,51.969703
Corleseweg,72,a,,7119AB,Winterswijk Corle,Winterswijk,Gelderland,VBO,6.659967,51.969673
Corleseweg,72,,,7119AB,Winterswijk Corle,Winterswijk,Gelderland,VBO,6.660076,51.969606
Corleseweg,74,,,7119AB,Winterswijk Corle,Winterswijk,Gelderland,VBO,6.657381,51.968504
Corleseweg,76,,,7119AB,Winterswijk Corle,Winterswijk,Gelderland,VBO,6.657313,51.968531
Corleseweg,78,,,7119AB,Winterswijk Corle,Winterswijk,Gelderland,VBO,6.657089,51.968629
Corleseweg,80,,,7119AB,Winterswijk Corle,Winterswijk,Gelderland,VBO,6.656351,51.968553
Corleseweg,82,,,7119AB,Winterswijk Corle,Winterswijk,Gelderland,VBO,6.648197,51.970483
Corleseweg,84,,,7119AB,Winterswijk Corle,Winterswijk,Gelderland,VBO,6.647678,51.970147
Geelinkweg,1,,,7119AC,Winterswijk Corle,Winterswijk,Gelderland,VBO,6.673217,51.965617
Geelinkweg,2,,,7119AC,Winterswijk Corle,Winterswijk,Gelderland,VBO,6.677878,51.967928
Geelinkweg,3,,,7119AC,Winterswijk Corle,Winterswijk,Gelderland,VBO,6.673087,51.965685
Geelinkweg,4,,,7119AC,Winterswijk Corle,Winterswijk,Gelderland,VBO,6.677776,51.967908
Geelinkweg,5,,,7119AC,Winterswijk Corle,Winterswijk,Gelderland,VBO,6.671596,51.964890
Geelinkweg,6,,,7119AC,Winterswijk Corle,Winterswijk,Gelderland,VBO,6.674034,51.966050
Geelinkweg,7,,,7119AC,Winterswijk Corle,Winterswijk,Gelderland,VBO,6.671716,51.964871
Geelinkweg,8,,,7119AC,Winterswijk Corle,Winterswijk,Gelderland,VBO,6.673918,51.966061
Geelinkweg,9,,,7119AC,Winterswijk Corle,Winterswijk,Gelderland,VBO,6.673116,51.964487
Geelinkweg,10,,,7119AC,Winterswijk Corle,Winterswijk,Gelderland,VBO,6.669416,51.963034
Geelinkweg,13,a,,7119AC,Winterswijk Corle,Winterswijk,Gelderland,VBO,6.673753,51.964356
Geelinkweg,13,,,7119AC,Winterswijk Corle,Winterswijk,Gelderland,VBO,6.673900,51.964365
Geelinkweg,15,,,7119AC,Winterswijk Corle,Winterswijk,Gelderland,VBO,6.673676,51.964221
Möllenkampweg,1,a,,7119AD,Winterswijk Corle,Winterswijk,Gelderland,VBO,6.677160,51.964661
Möllenkampweg,1,,,7119AD,Winterswijk Corle,Winterswijk,Gelderland,VBO,6.677112,51.964574
Möllenkampweg,2,,,7119AD,Winterswijk Corle,Winterswijk,Gelderland,VBO,6.677975,51.965018
Bessinkgoorweg,3,,,7119AE,Winterswijk Corle,Winterswijk,Gelderland,VBO,6.676261,51.960943
Bessinkgoorweg,5,,,7119AE,Winterswijk Corle,Winterswijk,Gelderland,VBO,6.676324,51.960903
Bessinkgoorweg,6,,,7119AE,Winterswijk Corle,Winterswijk,Gelderland,VBO,6.679606,51.962439
Bessinkgoorweg,7,,,7119AE,Winterswijk Corle,Winterswijk,Gelderland,VBO,6.670178,51.959740
Bessinkgoorweg,10,,,7119AE,Winterswijk Corle,Winterswijk,Gelderland,VBO,6.679552,51.962558
Grote Veldweg,1,a,,7119AG,Winterswijk Corle,Winterswijk,Gelderland,VBO,6.666382,51.964288
Grote Veldweg,1,,,7119AG,Winterswijk Corle,Winterswijk,Gelderland,VBO,6.668038,51.962952
Grote Veldweg,2,,,7119AG,Winterswijk Corle,Winterswijk,Gelderland,VBO,6.675090,51.957706
Grote Veldweg,3,a,,7119AG,Winterswijk Corle,Winterswijk,Gelderland,VBO,6.663060,51.967847
Grote Veldweg,3,,,7119AG,Winterswijk Corle,Winterswijk,Gelderland,VBO,6.663032,51.967829
Grote Veldweg,4,,,7119AG,Winterswijk Corle,Winterswijk,Gelderland,VBO,6.665104,51.967644
Grote Veldweg,5,,,7119AG,Winterswijk Corle,Winterswijk,Gelderland,VBO,6.663027,51.967914
Grote Veldweg,6,,,7119AG,Winterswijk Corle,Winterswijk,Gelderland,VBO,6.665066,51.967558
Grote Veldweg,8,,,7119AG,Winterswijk Corle,Winterswijk,Gelderland,VBO,6.664809,51.967607
Meenkmolenweg,2,,,7119AH,Winterswijk Corle,Winterswijk,Gelderland,VBO,6.650592,51.952659
Meenkmolenweg,4,,,7119AH,Winterswijk Corle,Winterswijk,Gelderland,VBO,6.652575,51.954382
Meenkmolenweg,6,,,7119AH,Winterswijk Corle,Winterswijk,Gelderland,VBO,6.653823,51.954896
Meenkmolenweg,8,a,,7119AH,Winterswijk Corle,Winterswijk,Gelderland,VBO,6.652677,51.955314
Meenkmolenweg,8,,,7119AH,Winterswijk Corle,Winterswijk,Gelderland,VBO,6.652749,51.955396
Meenkmolenweg,10,,,7119AH,Winterswijk Corle,Winterswijk,Gelderland,VBO,6.655521,51.957404
Meenkmolenweg,12,,,7119AH,Winterswijk Corle,Winterswijk,Gelderland,VBO,6.657257,51.957891
Meenkmolenweg,14,a,,7119AH,Winterswijk Corle,Winterswijk,Gelderland,VBO,6.657274,51.966155
Meenkmolenweg,14,,,7119AH,Winterswijk Corle,Winterswijk,Gelderland,VBO,6.655556,51.962825
Meenkmolenweg,16,,,7119AH,Winterswijk Corle,Winterswijk,Gelderland,VBO,6.657278,51.966835
Meenkmolenweg,18,,,7119AH,Winterswijk Corle,Winterswijk,Gelderland,VBO,6.657369,51.968020
Meenkmolenweg,25,a,,7119AH,Winterswijk Corle,Winterswijk,Gelderland,VBO,6.648311,51.952639
Meenkmolenweg,25,,,7119AH,Winterswijk Corle,Winterswijk,Gelderland,VBO,6.648457,51.952625
Meenkmolenweg,27,a,,7119AH,Winterswijk Corle,Winterswijk,Gelderland,VBO,6.647735,51.954268
Meenkmolenweg,27,,,7119AH,Winterswijk Corle,Winterswijk,Gelderland,VBO,6.647913,51.954135
Meenkmolenweg,29,,,7119AH,Winterswijk Corle,Winterswijk,Gelderland,VBO,6.651021,51.954223
Meenkmolenweg,31,,,7119AH,Winterswijk Corle,Winterswijk,Gelderland,VBO,6.651365,51.958431
Meenkmolenweg,33,,,7119AH,Winterswijk Corle,Winterswijk,Gelderland,VBO,6.650715,51.958582
Meenkmolenweg,35,,,7119AH,Winterswijk Corle,Winterswijk,Gelderland,VBO,6.651398,51.958565
Wieskampweg,1,,,7119AK,Winterswijk Corle,Winterswijk,Gelderland,VBO,6.646406,51.956947
Pasweg,1,,,7119AL,Winterswijk Corle,Winterswijk,Gelderland,VBO,6.650549,51.960435
Pasweg,2,,,7119AL,Winterswijk Corle,Winterswijk,Gelderland,VBO,6.650480,51.961242
Pasweg,3,,,7119AL,Winterswijk Corle,Winterswijk,Gelderland,VBO,6.648791,51.961382
Pasweg,4,,,7119AL,Winterswijk Corle,Winterswijk,Gelderland,VBO,6.649717,51.961494
Pasweg,5,,,7119AL,Winterswijk Corle,Winterswijk,Gelderland,VBO,6.648653,51.961418
Geerdesweg,1,,,7119AM,Winterswijk Corle,Winterswijk,Gelderland,VBO,6.652919,51.962820
Geerdesweg,2,,,7119AM,Winterswijk Corle,Winterswijk,Gelderland,VBO,6.651802,51.963622
Geerdesweg,3,,,7119AM,Winterswijk Corle,Winterswijk,Gelderland,VBO,6.652008,51.963183
Geerdesweg,4,,,7119AM,Winterswijk Corle,Winterswijk,Gelderland,VBO,6.650158,51.964664
Geerdesweg,5,,,7119AM,Winterswijk Corle,Winterswijk,Gelderland,VBO,6.650796,51.963021
Geerdesweg,6,,,7119AM,Winterswijk Corle,Winterswijk,Gelderland,VBO,6.648930,51.963410
Geerdesweg,8,,,7119AM,Winterswijk Corle,Winterswijk,Gelderland,VBO,6.649111,51.963460
Debbinkhof,1,,,7119AN,Winterswijk Corle,Winterswijk,Gelderland,VBO,6.657770,51.963707
Debbinkhof,3,,,7119AN,Winterswijk Corle,Winterswijk,Gelderland,VBO,6.657875,51.963260
Debbinkhof,5,,,7119AN,Winterswijk Corle,Winterswijk,Gelderland,VBO,6.657614,51.962777
Lensinkweg,1,,,7119AP,Winterswijk Corle,Winterswijk,Gelderland,VBO,6.650964,51.966912
Lensinkweg,3,,,7119AP,Winterswijk Corle,Winterswijk,Gelderland,VBO,6.650798,51.967066
Korenburgerveenweg,5,,,7119AR,Winterswijk Corle,Winterswijk,Gelderland,VBO,6.671546,51.978761
Korenburgerveenweg,6,,,7119AR,Winterswijk Corle,Winterswijk,Gelderland,VBO,6.668925,51.979752
Korenburgerveenweg,7,,,7119AR,Winterswijk Corle,Winterswijk,Gelderland,VBO,6.671403,51.978734
Korenburgerveenweg,8,,,7119AR,Winterswijk Corle,Winterswijk,Gelderland,VBO,6.661190,51.978386
Korenburgerveenweg,10,,,7119AR,Winterswijk Corle,Winterswijk,Gelderland,VBO,6.661063,51.978375
Korenburgerveenweg,11,,,7119AR,Winterswijk Corle,Winterswijk,Gelderland,VBO,6.664681,51.978450
Korenburgerveenweg,12,,,7119AR,Winterswijk Corle,Winterswijk,Gelderland,VBO,6.659382,51.977799
Korenburgerveenweg,14,,,7119AR,Winterswijk Corle,Winterswijk,Gelderland,VBO,6.658566,51.977493
Korenburgerveenweg,16,,,7119AR,Winterswijk Corle,Winterswijk,Gelderland,VBO,6.652509,51.972939
Korenburgerveenweg,18,,,7119AR,Winterswijk Corle,Winterswijk,Gelderland,VBO,6.651922,51.972028
Korenburgerveenweg,20,,,7119AR,Winterswijk Corle,Winterswijk,Gelderland,VBO,6.652085,51.971361
Korenburgerveenweg,22,,,7119AR,Winterswijk Corle,Winterswijk,Gelderland,VBO,6.652019,51.971296
Veenhuisweg,1,,,7119AS,Winterswijk Corle,Winterswijk,Gelderland,VBO,6.663051,51.975411
Veenhuisweg,2,a,,7119AS,Winterswijk Corle,Winterswijk,Gelderland,VBO,6.666531,51.973396
Veenhuisweg,2,,,7119AS,Winterswijk Corle,Winterswijk,Gelderland,VBO,6.666567,51.973442
Veenhuisweg,3,,,7119AS,Winterswijk Corle,Winterswijk,Gelderland,VBO,6.663093,51.975688
Veenhuisweg,4,,,7119AS,Winterswijk Corle,Winterswijk,Gelderland,VBO,6.662315,51.977136
Veenhuisweg,5,,,7119AS,Winterswijk Corle,Winterswijk,Gelderland,VBO,6.662958,51.975639
Dollemansweg,1,,,7119AT,Winterswijk Corle,Winterswijk,Gelderland,VBO,6.655452,51.972892
Dollemansweg,6,,,7119AT,Winterswijk Corle,Winterswijk,Gelderland,VBO,6.667520,51.975996
Dollemansweg,8,,,7119AT,Winterswijk Corle,Winterswijk,Gelderland,VBO,6.659386,51.974471
Goordiek,2,,,7119CE,Winterswijk Corle,Winterswijk,Gelderland,VBO,6.634514,51.945451
