openbareruimtenaam,huisnummer,huisletter,huisnummertoevoeging,postcode,woonplaatsnaam,gemeentenaam,provincienaam,typeadresseerbaarobject,longitude,latitude
Bodendijk,90,,,7123AA,Aalten,Aalten,Gelderland,VBO,6.585510,51.916055
Bodendijk,92,,,7123AA,Aalten,Aalten,Gelderland,VBO,6.585642,51.915890
Bodendijk,94,A,,7123AA,Aalten,Aalten,Gelderland,VBO,6.585956,51.915603
Bodendijk,94,,,7123AA,Aalten,Aalten,Gelderland,VBO,6.585862,51.915746
Bodendijk,96,,,7123AA,Aalten,Aalten,Gelderland,VBO,6.586128,51.915487
Bodendijk,98,,,7123AA,Aalten,Aalten,Gelderland,VBO,6.586273,51.915341
Bodendijk,100,,,7123AA,Aalten,Aalten,Gelderland,VBO,6.587025,51.914519
Bodendijk,102,,,7123AA,Aalten,Aalten,Gelderland,VBO,6.587075,51.914474
Bodendijk,104,,,7123AA,Aalten,Aalten,Gelderland,VBO,6.587125,51.914429
Bodendijk,106,,,7123AA,Aalten,Aalten,Gelderland,VBO,6.587175,51.914384
Bodendijk,108,,,7123AA,Aalten,Aalten,Gelderland,VBO,6.587358,51.914322
Bodendijk,110,,,7123AA,Aalten,Aalten,Gelderland,VBO,6.587404,51.914279
Bodendijk,112,,,7123AA,Aalten,Aalten,Gelderland,VBO,6.587897,51.913861
Bodendijk,114,,,7123AA,Aalten,Aalten,Gelderland,VBO,6.588022,51.913740
Bodendijk,116,,,7123AA,Aalten,Aalten,Gelderland,VBO,6.588140,51.913640
Bodendijk,118,,,7123AA,Aalten,Aalten,Gelderland,VBO,6.588959,51.912879
Singelweg,7,,,7123AB,Aalten,Aalten,Gelderland,VBO,6.583789,51.914195
Singelweg,9,,,7123AB,Aalten,Aalten,Gelderland,VBO,6.584121,51.914054
Singelweg,11,,,7123AB,Aalten,Aalten,Gelderland,VBO,6.584299,51.914013
Singelweg,13,,,7123AB,Aalten,Aalten,Gelderland,VBO,6.584489,51.913966
Singelweg,15,,,7123AB,Aalten,Aalten,Gelderland,VBO,6.584702,51.913947
Singelweg,17,,,7123AB,Aalten,Aalten,Gelderland,VBO,6.584898,51.913868
Singelweg,19,,,7123AB,Aalten,Aalten,Gelderland,VBO,6.585268,51.913817
Singelweg,21,,,7123AB,Aalten,Aalten,Gelderland,VBO,6.585559,51.913750
Singelweg,23,,,7123AB,Aalten,Aalten,Gelderland,VBO,6.586287,51.913871
Singelweg,25,,,7123AB,Aalten,Aalten,Gelderland,VBO,6.586698,51.914160
Singelweg,27,,,7123AB,Aalten,Aalten,Gelderland,VBO,6.586760,51.914288
Singelweg,29,,,7123AB,Aalten,Aalten,Gelderland,VBO,6.586825,51.914327
Singelweg,6,,,7123AC,Aalten,Aalten,Gelderland,VBO,6.587066,51.913323
Singelweg,8,,,7123AC,Aalten,Aalten,Gelderland,VBO,6.587113,51.913368
Singelweg,10,,,7123AC,Aalten,Aalten,Gelderland,VBO,6.587182,51.913405
Singelweg,12,,,7123AC,Aalten,Aalten,Gelderland,VBO,6.587230,51.913452
Singelweg,14,,,7123AC,Aalten,Aalten,Gelderland,VBO,6.587313,51.913650
Singelweg,16,,,7123AC,Aalten,Aalten,Gelderland,VBO,6.587331,51.913703
Singelweg,18,,,7123AC,Aalten,Aalten,Gelderland,VBO,6.587349,51.913756
Singelweg,20,,,7123AC,Aalten,Aalten,Gelderland,VBO,6.587367,51.913810
Singelweg,22,,,7123AC,Aalten,Aalten,Gelderland,VBO,6.587482,51.913932
Singelweg,24,,,7123AC,Aalten,Aalten,Gelderland,VBO,6.587637,51.914013
Singelweg,26,,,7123AC,Aalten,Aalten,Gelderland,VBO,6.587709,51.914044
Singelweg,28,,,7123AC,Aalten,Aalten,Gelderland,VBO,6.589076,51.914768
Singelweg,30,,,7123AC,Aalten,Aalten,Gelderland,VBO,6.589165,51.914833
Singelweg,42,,,7123AC,Aalten,Aalten,Gelderland,STA,6.592268,51.916356
Singelweg,48,,,7123AC,Aalten,Aalten,Gelderland,STA,6.592452,51.916537
De Pas,1,,,7123AE,Aalten,Aalten,Gelderland,VBO,6.588049,51.913415
De Pas,2,,,7123AE,Aalten,Aalten,Gelderland,VBO,6.587605,51.913318
De Pas,3,,,7123AE,Aalten,Aalten,Gelderland,VBO,6.588297,51.913424
De Pas,4,,,7123AE,Aalten,Aalten,Gelderland,VBO,6.587694,51.913297
De Pas,5,,,7123AE,Aalten,Aalten,Gelderland,VBO,6.588370,51.913456
De Pas,6,,,7123AE,Aalten,Aalten,Gelderland,VBO,6.587784,51.913275
De Pas,7,,,7123AE,Aalten,Aalten,Gelderland,VBO,6.588758,51.913621
De Pas,8,,,7123AE,Aalten,Aalten,Gelderland,VBO,6.587873,51.913254
De Pas,9,,,7123AE,Aalten,Aalten,Gelderland,VBO,6.588830,51.913650
De Pas,10,,,7123AE,Aalten,Aalten,Gelderland,VBO,6.587941,51.913218
De Pas,11,,,7123AE,Aalten,Aalten,Gelderland,VBO,6.588901,51.913680
De Pas,12,,,7123AE,Aalten,Aalten,Gelderland,VBO,6.588006,51.913203
De Pas,13,,,7123AE,Aalten,Aalten,Gelderland,VBO,6.588972,51.913709
De Pas,14,,,7123AE,Aalten,Aalten,Gelderland,VBO,6.588208,51.913076
De Pas,16,,,7123AE,Aalten,Aalten,Gelderland,VBO,6.588457,51.913114
De Pas,18,,,7123AE,Aalten,Aalten,Gelderland,VBO,6.588514,51.913157
De Pas,20,,,7123AE,Aalten,Aalten,Gelderland,VBO,6.588571,51.913199
De Pas,22,,,7123AE,Aalten,Aalten,Gelderland,VBO,6.588629,51.913241
De Pas,24,,,7123AE,Aalten,Aalten,Gelderland,VBO,6.588995,51.913471
De Pas,26,,,7123AE,Aalten,Aalten,Gelderland,VBO,6.589574,51.913791
De Pas,28,,,7123AE,Aalten,Aalten,Gelderland,VBO,6.589576,51.913844
De Pas,30,,,7123AG,Aalten,Aalten,Gelderland,VBO,6.589582,51.914069
De Pas,32,,,7123AG,Aalten,Aalten,Gelderland,VBO,6.589661,51.914069
De Pas,34,,,7123AG,Aalten,Aalten,Gelderland,VBO,6.589741,51.914068
De Pas,36,,,7123AG,Aalten,Aalten,Gelderland,VBO,6.589821,51.914067
De Pas,38,,,7123AG,Aalten,Aalten,Gelderland,VBO,6.589900,51.914066
De Pas,40,,,7123AG,Aalten,Aalten,Gelderland,VBO,6.589980,51.914065
De Pas,42,,,7123AG,Aalten,Aalten,Gelderland,VBO,6.590174,51.914018
De Pas,44,,,7123AG,Aalten,Aalten,Gelderland,VBO,6.590254,51.914018
De Pas,46,,,7123AG,Aalten,Aalten,Gelderland,VBO,6.590333,51.914017
De Pas,48,,,7123AG,Aalten,Aalten,Gelderland,VBO,6.590413,51.914016
De Pas,50,,,7123AG,Aalten,Aalten,Gelderland,VBO,6.590492,51.914015
De Pas,52,,,7123AG,Aalten,Aalten,Gelderland,VBO,6.590572,51.914014
De Pas,54,,,7123AG,Aalten,Aalten,Gelderland,VBO,6.590564,51.914261
De Pas,56,,,7123AG,Aalten,Aalten,Gelderland,VBO,6.590485,51.914262
De Pas,58,,,7123AG,Aalten,Aalten,Gelderland,VBO,6.590405,51.914263
De Pas,60,,,7123AG,Aalten,Aalten,Gelderland,VBO,6.590326,51.914264
De Pas,62,,,7123AG,Aalten,Aalten,Gelderland,VBO,6.590246,51.914265
De Pas,64,,,7123AG,Aalten,Aalten,Gelderland,VBO,6.590166,51.914266
De Pas,66,,,7123AG,Aalten,Aalten,Gelderland,VBO,6.589986,51.914289
De Pas,68,,,7123AG,Aalten,Aalten,Gelderland,VBO,6.589906,51.914290
De Pas,70,,,7123AG,Aalten,Aalten,Gelderland,VBO,6.589827,51.914291
De Pas,72,,,7123AG,Aalten,Aalten,Gelderland,VBO,6.589747,51.914291
De Pas,74,,,7123AG,Aalten,Aalten,Gelderland,VBO,6.589667,51.914292
De Pas,76,,,7123AG,Aalten,Aalten,Gelderland,VBO,6.589588,51.914293
De Pas,78,,,7123AG,Aalten,Aalten,Gelderland,VBO,6.589778,51.914596
De Pas,80,,,7123AG,Aalten,Aalten,Gelderland,VBO,6.589698,51.914597
De Pas,82,,,7123AG,Aalten,Aalten,Gelderland,VBO,6.589618,51.914598
De Pas,84,,,7123AG,Aalten,Aalten,Gelderland,VBO,6.589538,51.914599
De Pas,86,,,7123AG,Aalten,Aalten,Gelderland,VBO,6.589458,51.914600
De Pas,88,,,7123AG,Aalten,Aalten,Gelderland,VBO,6.589378,51.914600
De Pas,90,,,7123AG,Aalten,Aalten,Gelderland,VBO,6.589076,51.914499
De Pas,92,,,7123AG,Aalten,Aalten,Gelderland,VBO,6.589016,51.914535
De Pas,94,,,7123AG,Aalten,Aalten,Gelderland,VBO,6.588890,51.914607
De Pas,96,,,7123AG,Aalten,Aalten,Gelderland,VBO,6.588844,51.914649
De Pas,15,,,7123AH,Aalten,Aalten,Gelderland,VBO,6.589290,51.913956
De Pas,17,,,7123AH,Aalten,Aalten,Gelderland,VBO,6.589214,51.913981
De Pas,19,,,7123AH,Aalten,Aalten,Gelderland,VBO,6.589044,51.913982
De Pas,21,,,7123AH,Aalten,Aalten,Gelderland,VBO,6.588966,51.914007
De Pas,23,,,7123AH,Aalten,Aalten,Gelderland,VBO,6.589299,51.914237
De Pas,25,,,7123AH,Aalten,Aalten,Gelderland,VBO,6.589219,51.914269
De Pas,27,,,7123AH,Aalten,Aalten,Gelderland,VBO,6.589051,51.914270
De Pas,29,,,7123AH,Aalten,Aalten,Gelderland,VBO,6.588972,51.914247
De Pas,31,,,7123AH,Aalten,Aalten,Gelderland,VBO,6.588772,51.914126
De Pas,33,,,7123AH,Aalten,Aalten,Gelderland,VBO,6.588694,51.914147
Sniedersweide,1,,,7123AJ,Aalten,Aalten,Gelderland,VBO,6.583017,51.914407
Sniedersweide,3,,,7123AJ,Aalten,Aalten,Gelderland,VBO,6.582842,51.914452
Sniedersweide,5,,,7123AJ,Aalten,Aalten,Gelderland,VBO,6.582651,51.914484
Sniedersweide,7,,,7123AJ,Aalten,Aalten,Gelderland,VBO,6.582474,51.914523
Sniedersweide,9,,,7123AJ,Aalten,Aalten,Gelderland,VBO,6.582296,51.914646
Sniedersweide,13,,,7123AJ,Aalten,Aalten,Gelderland,VBO,6.583210,51.914722
Sniedersweide,15,,,7123AJ,Aalten,Aalten,Gelderland,VBO,6.583031,51.914782
Sniedersweide,17,,,7123AJ,Aalten,Aalten,Gelderland,VBO,6.582800,51.914832
Sniedersweide,19,,,7123AJ,Aalten,Aalten,Gelderland,VBO,6.582654,51.914953
Sniedersweide,21,,,7123AJ,Aalten,Aalten,Gelderland,VBO,6.583069,51.915118
Sniedersweide,23,,,7123AJ,Aalten,Aalten,Gelderland,VBO,6.583621,51.915310
Sniedersweide,25,,,7123AJ,Aalten,Aalten,Gelderland,VBO,6.583664,51.915268
Sniedersweide,27,,,7123AJ,Aalten,Aalten,Gelderland,VBO,6.583706,51.915226
Sniedersweide,29,,,7123AJ,Aalten,Aalten,Gelderland,VBO,6.583748,51.915184
Sniedersweide,31,,,7123AJ,Aalten,Aalten,Gelderland,VBO,6.583935,51.915091
Sniedersweide,33,,,7123AJ,Aalten,Aalten,Gelderland,VBO,6.584017,51.915071
Sniedersweide,35,,,7123AJ,Aalten,Aalten,Gelderland,VBO,6.584192,51.915028
Sniedersweide,37,,,7123AJ,Aalten,Aalten,Gelderland,VBO,6.584273,51.915009
Sniedersweide,39,,,7123AJ,Aalten,Aalten,Gelderland,VBO,6.584448,51.914966
Sniedersweide,41,,,7123AJ,Aalten,Aalten,Gelderland,VBO,6.584530,51.914947
Sniedersweide,43,,,7123AJ,Aalten,Aalten,Gelderland,VBO,6.584703,51.914902
Sniedersweide,45,,,7123AJ,Aalten,Aalten,Gelderland,VBO,6.584788,51.914881
Sniedersweide,47,,,7123AJ,Aalten,Aalten,Gelderland,VBO,6.584958,51.914839
Sniedersweide,49,,,7123AJ,Aalten,Aalten,Gelderland,VBO,6.585044,51.914818
Sniedersweide,51,,,7123AJ,Aalten,Aalten,Gelderland,VBO,6.585312,51.914827
Sniedersweide,53,,,7123AJ,Aalten,Aalten,Gelderland,VBO,6.585378,51.914855
Sniedersweide,55,,,7123AJ,Aalten,Aalten,Gelderland,VBO,6.585443,51.914882
Sniedersweide,57,,,7123AJ,Aalten,Aalten,Gelderland,VBO,6.585509,51.914910
Sniedersweide,59,,,7123AJ,Aalten,Aalten,Gelderland,VBO,6.585323,51.915116
Sniedersweide,61,,,7123AJ,Aalten,Aalten,Gelderland,VBO,6.585275,51.915159
Sniedersweide,63,,,7123AJ,Aalten,Aalten,Gelderland,VBO,6.585228,51.915202
Sniedersweide,65,,,7123AJ,Aalten,Aalten,Gelderland,VBO,6.585181,51.915245
Sniedersweide,67,,,7123AJ,Aalten,Aalten,Gelderland,VBO,6.585133,51.915288
Sniedersweide,69,,,7123AJ,Aalten,Aalten,Gelderland,VBO,6.585054,51.915360
Sniedersweide,71,,,7123AJ,Aalten,Aalten,Gelderland,VBO,6.585009,51.915400
Sniedersweide,73,,,7123AJ,Aalten,Aalten,Gelderland,VBO,6.584964,51.915441
Sniedersweide,75,,,7123AJ,Aalten,Aalten,Gelderland,VBO,6.584920,51.915481
Sniedersweide,77,,,7123AJ,Aalten,Aalten,Gelderland,VBO,6.584875,51.915522
Sniedersweide,79,,,7123AJ,Aalten,Aalten,Gelderland,VBO,6.584584,51.915700
Sniedersweide,81,,,7123AJ,Aalten,Aalten,Gelderland,VBO,6.584504,51.915678
Sniedersweide,83,,,7123AJ,Aalten,Aalten,Gelderland,VBO,6.584337,51.915611
Sniedersweide,85,,,7123AJ,Aalten,Aalten,Gelderland,VBO,6.584257,51.915580
Sniedersweide,87,,,7123AJ,Aalten,Aalten,Gelderland,VBO,6.584088,51.915515
Sniedersweide,89,,,7123AJ,Aalten,Aalten,Gelderland,VBO,6.584016,51.915477
Sniedersweide,2,,,7123AK,Aalten,Aalten,Gelderland,VBO,6.583376,51.914209
Sniedersweide,4,,,7123AK,Aalten,Aalten,Gelderland,VBO,6.583446,51.914334
Sniedersweide,6,,,7123AK,Aalten,Aalten,Gelderland,VBO,6.583516,51.914453
Sniedersweide,8,,,7123AK,Aalten,Aalten,Gelderland,VBO,6.583586,51.914570
Sniedersweide,10,,,7123AK,Aalten,Aalten,Gelderland,VBO,6.583975,51.914545
Sniedersweide,12,,,7123AK,Aalten,Aalten,Gelderland,VBO,6.584181,51.914484
Sniedersweide,14,,,7123AK,Aalten,Aalten,Gelderland,VBO,6.584365,51.914448
Sniedersweide,16,,,7123AK,Aalten,Aalten,Gelderland,VBO,6.584574,51.914399
Sniedersweide,18,,,7123AK,Aalten,Aalten,Gelderland,VBO,6.584760,51.914349
Sniedersweide,20,,,7123AK,Aalten,Aalten,Gelderland,VBO,6.584961,51.914302
Sniedersweide,22,,,7123AK,Aalten,Aalten,Gelderland,VBO,6.585175,51.914265
Sniedersweide,24,,,7123AK,Aalten,Aalten,Gelderland,VBO,6.585393,51.914182
Sniedersweide,26,,,7123AK,Aalten,Aalten,Gelderland,VBO,6.585599,51.914204
Sniedersweide,28,,,7123AK,Aalten,Aalten,Gelderland,VBO,6.585780,51.914254
Sniedersweide,30,,,7123AK,Aalten,Aalten,Gelderland,VBO,6.585955,51.914323
Sniedersweide,32,,,7123AK,Aalten,Aalten,Gelderland,VBO,6.586079,51.914426
Sniedersweide,34,,,7123AK,Aalten,Aalten,Gelderland,VBO,6.586168,51.914550
Sniedersweide,36,,,7123AK,Aalten,Aalten,Gelderland,VBO,6.586122,51.914763
Sniedersweide,38,,,7123AK,Aalten,Aalten,Gelderland,VBO,6.586206,51.914755
Sniedersweide,40,,,7123AK,Aalten,Aalten,Gelderland,VBO,6.586296,51.914788
Sniedersweide,42,,,7123AK,Aalten,Aalten,Gelderland,VBO,6.586379,51.914779
Sniedersweide,44,,,7123AK,Aalten,Aalten,Gelderland,VBO,6.586462,51.914771
Sniedersweide,46,,,7123AK,Aalten,Aalten,Gelderland,VBO,6.586631,51.914737
Sniedersweide,48,,,7123AK,Aalten,Aalten,Gelderland,VBO,6.586719,51.914728
Sniedersweide,50,,,7123AK,Aalten,Aalten,Gelderland,VBO,6.586806,51.914719
Sniedersweide,52,,,7123AK,Aalten,Aalten,Gelderland,VBO,6.586893,51.914710
Sniedersweide,56,,,7123AK,Aalten,Aalten,Gelderland,VBO,6.585779,51.915137
Sniedersweide,58,,,7123AK,Aalten,Aalten,Gelderland,VBO,6.585718,51.915177
Sniedersweide,60,,,7123AK,Aalten,Aalten,Gelderland,VBO,6.585573,51.915309
Sniedersweide,62,,,7123AK,Aalten,Aalten,Gelderland,VBO,6.585526,51.915352
Sniedersweide,64,,,7123AK,Aalten,Aalten,Gelderland,VBO,6.585392,51.915472
Sniedersweide,66,,,7123AK,Aalten,Aalten,Gelderland,VBO,6.585354,51.915521
Sniedersweide,68,,,7123AK,Aalten,Aalten,Gelderland,VBO,6.585210,51.915635
Sniedersweide,70,,,7123AK,Aalten,Aalten,Gelderland,VBO,6.585163,51.915677
Sniedersweide,72,,,7123AK,Aalten,Aalten,Gelderland,VBO,6.585097,51.915877
Sniedersweide,74,,,7123AK,Aalten,Aalten,Gelderland,VBO,6.585281,51.915952
Grote Maote,1,,,7123CA,Aalten,Aalten,Gelderland,VBO,6.588732,51.914931
Grote Maote,3,,,7123CA,Aalten,Aalten,Gelderland,VBO,6.588672,51.914969
Grote Maote,5,,,7123CA,Aalten,Aalten,Gelderland,VBO,6.588612,51.915006
Grote Maote,7,,,7123CA,Aalten,Aalten,Gelderland,VBO,6.588543,51.915078
Grote Maote,9,,,7123CA,Aalten,Aalten,Gelderland,VBO,6.588485,51.915115
Grote Maote,11,,,7123CA,Aalten,Aalten,Gelderland,VBO,6.588426,51.915152
Grote Maote,13,,,7123CA,Aalten,Aalten,Gelderland,VBO,6.588367,51.915188
Grote Maote,15,,,7123CA,Aalten,Aalten,Gelderland,VBO,6.588169,51.915218
Grote Maote,17,,,7123CA,Aalten,Aalten,Gelderland,VBO,6.588088,51.915205
Grote Maote,19,,,7123CA,Aalten,Aalten,Gelderland,VBO,6.588007,51.915192
Grote Maote,21,,,7123CA,Aalten,Aalten,Gelderland,VBO,6.587925,51.915180
Grote Maote,23,,,7123CA,Aalten,Aalten,Gelderland,VBO,6.588228,51.914938
Grote Maote,25,,,7123CA,Aalten,Aalten,Gelderland,VBO,6.588163,51.914911
Grote Maote,27,,,7123CB,Aalten,Aalten,Gelderland,VBO,6.588000,51.914838
Grote Maote,29,,,7123CB,Aalten,Aalten,Gelderland,VBO,6.587933,51.914809
Grote Maote,31,,,7123CB,Aalten,Aalten,Gelderland,VBO,6.587909,51.914485
Grote Maote,33,,,7123CB,Aalten,Aalten,Gelderland,VBO,6.587864,51.914526
Grote Maote,35,,,7123CB,Aalten,Aalten,Gelderland,VBO,6.587820,51.914566
Grote Maote,37,,,7123CB,Aalten,Aalten,Gelderland,VBO,6.587776,51.914606
Grote Maote,39,,,7123CB,Aalten,Aalten,Gelderland,VBO,6.587731,51.914647
Grote Maote,41,,,7123CB,Aalten,Aalten,Gelderland,VBO,6.587687,51.914687
Grote Maote,43,,,7123CB,Aalten,Aalten,Gelderland,VBO,6.587672,51.915081
Grote Maote,45,,,7123CB,Aalten,Aalten,Gelderland,VBO,6.587603,51.915052
Grote Maote,47,,,7123CB,Aalten,Aalten,Gelderland,VBO,6.587534,51.915023
Grote Maote,49,,,7123CB,Aalten,Aalten,Gelderland,VBO,6.587465,51.914994
Grote Maote,51,,,7123CB,Aalten,Aalten,Gelderland,VBO,6.587396,51.914965
Grote Maote,53,,,7123CB,Aalten,Aalten,Gelderland,VBO,6.587327,51.914936
Grote Maote,2,,,7123CD,Aalten,Aalten,Gelderland,VBO,6.589010,51.915148
Grote Maote,4,,,7123CD,Aalten,Aalten,Gelderland,VBO,6.589082,51.915175
Grote Maote,6,,,7123CD,Aalten,Aalten,Gelderland,VBO,6.589154,51.915203
Grote Maote,8,,,7123CD,Aalten,Aalten,Gelderland,VBO,6.589226,51.915230
Grote Maote,10,,,7123CD,Aalten,Aalten,Gelderland,VBO,6.589334,51.915271
Grote Maote,12,,,7123CD,Aalten,Aalten,Gelderland,VBO,6.589405,51.915299
Grote Maote,14,,,7123CD,Aalten,Aalten,Gelderland,VBO,6.589476,51.915326
Grote Maote,16,,,7123CD,Aalten,Aalten,Gelderland,VBO,6.589547,51.915353
Grote Maote,18,,,7123CD,Aalten,Aalten,Gelderland,VBO,6.589891,51.915452
Grote Maote,20,,,7123CD,Aalten,Aalten,Gelderland,VBO,6.589963,51.915475
Grote Maote,22,,,7123CD,Aalten,Aalten,Gelderland,VBO,6.590035,51.915498
Grote Maote,24,,,7123CD,Aalten,Aalten,Gelderland,VBO,6.590206,51.915517
Grote Maote,26,,,7123CD,Aalten,Aalten,Gelderland,VBO,6.590286,51.915514
Grote Maote,28,,,7123CD,Aalten,Aalten,Gelderland,VBO,6.590365,51.915512
Grote Maote,30,,,7123CD,Aalten,Aalten,Gelderland,VBO,6.590445,51.915509
Grote Maote,32,,,7123CD,Aalten,Aalten,Gelderland,VBO,6.590863,51.915582
Grote Maote,34,,,7123CD,Aalten,Aalten,Gelderland,VBO,6.590825,51.915626
Grote Maote,36,,,7123CD,Aalten,Aalten,Gelderland,VBO,6.590788,51.915669
Grote Maote,38,,,7123CD,Aalten,Aalten,Gelderland,VBO,6.590751,51.915713
Grote Maote,40,,,7123CD,Aalten,Aalten,Gelderland,VBO,6.590714,51.915756
Grote Maote,42,,,7123CD,Aalten,Aalten,Gelderland,VBO,6.590688,51.915853
Grote Maote,44,,,7123CD,Aalten,Aalten,Gelderland,VBO,6.590690,51.915902
Grote Maote,46,,,7123CD,Aalten,Aalten,Gelderland,VBO,6.590693,51.915952
Grote Maote,48,,,7123CE,Aalten,Aalten,Gelderland,VBO,6.590637,51.916249
Grote Maote,50,,,7123CE,Aalten,Aalten,Gelderland,VBO,6.590719,51.916247
Grote Maote,52,,,7123CE,Aalten,Aalten,Gelderland,VBO,6.590889,51.916243
Grote Maote,54,,,7123CE,Aalten,Aalten,Gelderland,VBO,6.590969,51.916241
Grote Maote,56,,,7123CE,Aalten,Aalten,Gelderland,VBO,6.591185,51.916298
Grote Maote,58,A,,7123CE,Aalten,Aalten,Gelderland,VBO,6.591089,51.916508
Grote Maote,58,,,7123CE,Aalten,Aalten,Gelderland,VBO,6.591180,51.916503
Grote Maote,60,,,7123CE,Aalten,Aalten,Gelderland,VBO,6.590710,51.916423
Grote Maote,62,,,7123CE,Aalten,Aalten,Gelderland,VBO,6.590726,51.916474
Grote Maote,64,,,7123CE,Aalten,Aalten,Gelderland,VBO,6.590742,51.916525
Grote Maote,66,,,7123CE,Aalten,Aalten,Gelderland,VBO,6.590758,51.916576
Grote Maote,68,,,7123CE,Aalten,Aalten,Gelderland,VBO,6.590773,51.916626
Grote Maote,70,,,7123CE,Aalten,Aalten,Gelderland,VBO,6.590789,51.916677
Grote Maote,72,,,7123CE,Aalten,Aalten,Gelderland,VBO,6.590805,51.916728
Grote Maote,76,,,7123CE,Aalten,Aalten,Gelderland,VBO,6.590328,51.916827
Grote Maote,78,,,7123CG,Aalten,Aalten,Gelderland,VBO,6.590259,51.916798
Grote Maote,80,,,7123CG,Aalten,Aalten,Gelderland,VBO,6.590189,51.916770
Grote Maote,82,,,7123CG,Aalten,Aalten,Gelderland,VBO,6.590119,51.916742
Grote Maote,84,,,7123CG,Aalten,Aalten,Gelderland,VBO,6.590049,51.916713
Grote Maote,86,,,7123CG,Aalten,Aalten,Gelderland,VBO,6.589979,51.916685
Grote Maote,88,,,7123CG,Aalten,Aalten,Gelderland,VBO,6.589910,51.916657
Grote Maote,90,,,7123CG,Aalten,Aalten,Gelderland,VBO,6.589840,51.916628
Grote Maote,92,,,7123CG,Aalten,Aalten,Gelderland,VBO,6.589683,51.916572
Grote Maote,94,,,7123CG,Aalten,Aalten,Gelderland,VBO,6.589603,51.916556
Grote Maote,96,,,7123CG,Aalten,Aalten,Gelderland,VBO,6.589522,51.916540
Grote Maote,98,,,7123CG,Aalten,Aalten,Gelderland,VBO,6.589442,51.916524
Grote Maote,100,,,7123CG,Aalten,Aalten,Gelderland,VBO,6.589362,51.916508
Grote Maote,102,,,7123CG,Aalten,Aalten,Gelderland,VBO,6.589282,51.916493
Grote Maote,104,,,7123CG,Aalten,Aalten,Gelderland,VBO,6.589514,51.916282
Grote Maote,106,,,7123CG,Aalten,Aalten,Gelderland,VBO,6.589615,51.916258
Grote Maote,108,,,7123CG,Aalten,Aalten,Gelderland,VBO,6.589674,51.916314
Grote Maote,110,,,7123CG,Aalten,Aalten,Gelderland,VBO,6.589774,51.916289
Grote Maote,112,,,7123CG,Aalten,Aalten,Gelderland,VBO,6.589833,51.916345
Grote Maote,114,,,7123CG,Aalten,Aalten,Gelderland,VBO,6.589934,51.916321
Grote Maote,116,A,,7123CG,Aalten,Aalten,Gelderland,VBO,6.590104,51.916486
Grote Maote,116,,,7123CG,Aalten,Aalten,Gelderland,VBO,6.590161,51.916510
Grote Maote,118,A,,7123CG,Aalten,Aalten,Gelderland,VBO,6.590151,51.916443
Grote Maote,118,,,7123CG,Aalten,Aalten,Gelderland,VBO,6.590208,51.916466
Grote Maote,120,A,,7123CG,Aalten,Aalten,Gelderland,VBO,6.590198,51.916399
Grote Maote,120,,,7123CG,Aalten,Aalten,Gelderland,VBO,6.590255,51.916423
Grote Maote,122,,,7123CG,Aalten,Aalten,Gelderland,VBO,6.590278,51.916301
Grote Maote,124,,,7123CG,Aalten,Aalten,Gelderland,VBO,6.590282,51.916251
Grote Maote,126,,,7123CG,Aalten,Aalten,Gelderland,VBO,6.590286,51.916202
Grote Maote,128,,,7123CH,Aalten,Aalten,Gelderland,VBO,6.590290,51.916152
Grote Maote,130,,,7123CH,Aalten,Aalten,Gelderland,VBO,6.590252,51.915839
Grote Maote,132,,,7123CH,Aalten,Aalten,Gelderland,VBO,6.590174,51.915825
Grote Maote,134,,,7123CH,Aalten,Aalten,Gelderland,VBO,6.590014,51.915795
Grote Maote,136,,,7123CH,Aalten,Aalten,Gelderland,VBO,6.589937,51.915781
Grote Maote,138,,,7123CH,Aalten,Aalten,Gelderland,VBO,6.589761,51.915736
Grote Maote,140,,,7123CH,Aalten,Aalten,Gelderland,VBO,6.589690,51.915709
Grote Maote,142,,,7123CH,Aalten,Aalten,Gelderland,VBO,6.589415,51.915584
Grote Maote,144,,,7123CH,Aalten,Aalten,Gelderland,VBO,6.589342,51.915557
Grote Maote,146,,,7123CH,Aalten,Aalten,Gelderland,VBO,6.589270,51.915530
Grote Maote,148,,,7123CH,Aalten,Aalten,Gelderland,VBO,6.589198,51.915503
Grote Maote,150,,,7123CH,Aalten,Aalten,Gelderland,VBO,6.589088,51.915461
Grote Maote,152,,,7123CH,Aalten,Aalten,Gelderland,VBO,6.589017,51.915434
Grote Maote,154,,,7123CH,Aalten,Aalten,Gelderland,VBO,6.588945,51.915406
Grote Maote,156,,,7123CH,Aalten,Aalten,Gelderland,VBO,6.588874,51.915379
Grote Maote,158,,,7123CH,Aalten,Aalten,Gelderland,VBO,6.588983,51.915710
Grote Maote,160,,,7123CJ,Aalten,Aalten,Gelderland,VBO,6.589026,51.915755
Grote Maote,162,,,7123CJ,Aalten,Aalten,Gelderland,VBO,6.589158,51.915845
Grote Maote,164,,,7123CJ,Aalten,Aalten,Gelderland,VBO,6.589232,51.915871
Grote Maote,166,,,7123CJ,Aalten,Aalten,Gelderland,VBO,6.588731,51.915849
Grote Maote,168,,,7123CJ,Aalten,Aalten,Gelderland,VBO,6.588739,51.915801
Grote Maote,170,,TR,7123CJ,Aalten,Aalten,Gelderland,VBO,6.588405,51.915780
Grote Maote,170,,,7123CJ,Aalten,Aalten,Gelderland,VBO,6.588655,51.915689
Grote Maote,172,,,7123CJ,Aalten,Aalten,Gelderland,VBO,6.588614,51.915648
Grote Maote,174,,,7123CJ,Aalten,Aalten,Gelderland,VBO,6.588573,51.915608
Grote Maote,176,,,7123CJ,Aalten,Aalten,Gelderland,VBO,6.588358,51.915482
Grote Maote,178,,,7123CJ,Aalten,Aalten,Gelderland,VBO,6.588260,51.915505
Grote Maote,180,,,7123CJ,Aalten,Aalten,Gelderland,VBO,6.588191,51.915457
Grote Maote,182,,,7123CK,Aalten,Aalten,Gelderland,VBO,6.588093,51.915478
Grote Maote,184,,,7123CK,Aalten,Aalten,Gelderland,VBO,6.587937,51.915434
Grote Maote,186,,,7123CK,Aalten,Aalten,Gelderland,VBO,6.587852,51.915420
Grote Maote,188,,,7123CK,Aalten,Aalten,Gelderland,VBO,6.587661,51.915478
Grote Maote,190,,,7123CK,Aalten,Aalten,Gelderland,VBO,6.587593,51.915513
Kleine Maote,1,,,7123CL,Aalten,Aalten,Gelderland,VBO,6.587260,51.915916
Kleine Maote,3,,,7123CL,Aalten,Aalten,Gelderland,VBO,6.587193,51.915878
Kleine Maote,5,,,7123CL,Aalten,Aalten,Gelderland,VBO,6.587125,51.915839
Kleine Maote,7,,,7123CL,Aalten,Aalten,Gelderland,VBO,6.587057,51.915801
Kleine Maote,9,,,7123CL,Aalten,Aalten,Gelderland,VBO,6.586967,51.915767
Kleine Maote,11,,,7123CL,Aalten,Aalten,Gelderland,VBO,6.586886,51.915741
Kleine Maote,13,,,7123CL,Aalten,Aalten,Gelderland,VBO,6.586805,51.915715
Kleine Maote,15,,,7123CL,Aalten,Aalten,Gelderland,VBO,6.586723,51.915689
Kleine Maote,17,,,7123CL,Aalten,Aalten,Gelderland,VBO,6.587142,51.916030
Kleine Maote,19,,,7123CL,Aalten,Aalten,Gelderland,VBO,6.587081,51.916073
Kleine Maote,21,,,7123CL,Aalten,Aalten,Gelderland,VBO,6.587020,51.916116
Kleine Maote,23,,,7123CL,Aalten,Aalten,Gelderland,VBO,6.586959,51.916159
Kleine Maote,25,,,7123CL,Aalten,Aalten,Gelderland,VBO,6.586980,51.916423
Kleine Maote,27,,,7123CL,Aalten,Aalten,Gelderland,VBO,6.587153,51.916363
Kleine Maote,29,,,7123CL,Aalten,Aalten,Gelderland,VBO,6.587214,51.916322
Kleine Maote,31,,,7123CL,Aalten,Aalten,Gelderland,VBO,6.587305,51.916212
Kleine Maote,33,,,7123CL,Aalten,Aalten,Gelderland,VBO,6.587358,51.916175
Kleine Maote,35,,,7123CM,Aalten,Aalten,Gelderland,VBO,6.587527,51.915985
Kleine Maote,37,,,7123CM,Aalten,Aalten,Gelderland,VBO,6.587596,51.916022
Kleine Maote,39,,,7123CM,Aalten,Aalten,Gelderland,VBO,6.587665,51.916060
Kleine Maote,41,,,7123CM,Aalten,Aalten,Gelderland,VBO,6.587734,51.916098
Kleine Maote,43,,,7123CM,Aalten,Aalten,Gelderland,VBO,6.587803,51.916136
Kleine Maote,45,,,7123CM,Aalten,Aalten,Gelderland,VBO,6.587873,51.916174
Kleine Maote,47,,,7123CM,Aalten,Aalten,Gelderland,VBO,6.587936,51.916234
Kleine Maote,49,,,7123CM,Aalten,Aalten,Gelderland,VBO,6.587965,51.916288
Kleine Maote,51,,,7123CM,Aalten,Aalten,Gelderland,VBO,6.588004,51.916362
Kleine Maote,53,,,7123CM,Aalten,Aalten,Gelderland,VBO,6.588033,51.916417
Kleine Maote,55,,,7123CM,Aalten,Aalten,Gelderland,VBO,6.588062,51.916471
Kleine Maote,57,,,7123CM,Aalten,Aalten,Gelderland,VBO,6.588091,51.916526
Kleine Maote,59,,,7123CM,Aalten,Aalten,Gelderland,VBO,6.588120,51.916581
Kleine Maote,61,,,7123CN,Aalten,Aalten,Gelderland,VBO,6.587736,51.916576
Kleine Maote,63,,,7123CN,Aalten,Aalten,Gelderland,VBO,6.587645,51.916569
Kleine Maote,65,,,7123CN,Aalten,Aalten,Gelderland,VBO,6.587553,51.916562
Kleine Maote,67,,,7123CN,Aalten,Aalten,Gelderland,VBO,6.587461,51.916554
Kleine Maote,69,,,7123CN,Aalten,Aalten,Gelderland,VBO,6.587226,51.916647
Kleine Maote,71,,,7123CN,Aalten,Aalten,Gelderland,VBO,6.587213,51.916712
Kleine Maote,73,,,7123CN,Aalten,Aalten,Gelderland,VBO,6.587459,51.916789
Kleine Maote,75,,,7123CN,Aalten,Aalten,Gelderland,VBO,6.587550,51.916797
Kleine Maote,77,,,7123CN,Aalten,Aalten,Gelderland,VBO,6.587739,51.916738
Kleine Maote,79,,,7123CN,Aalten,Aalten,Gelderland,VBO,6.587830,51.916745
Kleine Maote,81,,,7123CN,Aalten,Aalten,Gelderland,VBO,6.587922,51.916753
Kleine Maote,83,,,7123CN,Aalten,Aalten,Gelderland,VBO,6.588014,51.916760
Kleine Maote,85,,,7123CN,Aalten,Aalten,Gelderland,VBO,6.588130,51.916770
Kleine Maote,87,,,7123CN,Aalten,Aalten,Gelderland,VBO,6.588237,51.916797
Kleine Maote,89,,,7123CN,Aalten,Aalten,Gelderland,VBO,6.588310,51.916832
Kleine Maote,91,,,7123CN,Aalten,Aalten,Gelderland,VBO,6.588383,51.916866
Kleine Maote,93,,,7123CN,Aalten,Aalten,Gelderland,VBO,6.588456,51.916901
Kleine Maote,95,,,7123CN,Aalten,Aalten,Gelderland,VBO,6.588529,51.916936
Kleine Maote,97,,,7123CP,Aalten,Aalten,Gelderland,VBO,6.588204,51.917077
Kleine Maote,99,,,7123CP,Aalten,Aalten,Gelderland,VBO,6.588174,51.917132
Kleine Maote,101,,,7123CP,Aalten,Aalten,Gelderland,VBO,6.588434,51.917273
Kleine Maote,103,,,7123CP,Aalten,Aalten,Gelderland,VBO,6.588554,51.917154
Kleine Maote,105,,,7123CP,Aalten,Aalten,Gelderland,VBO,6.588610,51.917109
Kleine Maote,107,,,7123CP,Aalten,Aalten,Gelderland,VBO,6.588666,51.917064
Kleine Maote,109,,,7123CP,Aalten,Aalten,Gelderland,VBO,6.588722,51.917018
Kleine Maote,111,,,7123CP,Aalten,Aalten,Gelderland,VBO,6.588946,51.917136
Kleine Maote,113,,,7123CP,Aalten,Aalten,Gelderland,VBO,6.589019,51.917170
Kleine Maote,115,,,7123CP,Aalten,Aalten,Gelderland,VBO,6.589093,51.917205
Kleine Maote,117,,,7123CP,Aalten,Aalten,Gelderland,VBO,6.589167,51.917239
Kleine Maote,119,,,7123CP,Aalten,Aalten,Gelderland,VBO,6.589226,51.917323
Kleine Maote,121,,,7123CP,Aalten,Aalten,Gelderland,VBO,6.589300,51.917358
Kleine Maote,123,,,7123CP,Aalten,Aalten,Gelderland,VBO,6.589374,51.917393
Kleine Maote,125,,,7123CP,Aalten,Aalten,Gelderland,VBO,6.589448,51.917428
Kleine Maote,2,,,7123CR,Aalten,Aalten,Gelderland,VBO,6.588463,51.916150
Kleine Maote,4,,,7123CR,Aalten,Aalten,Gelderland,VBO,6.588444,51.916205
Kleine Maote,6,,,7123CR,Aalten,Aalten,Gelderland,VBO,6.588426,51.916260
Kleine Maote,8,,,7123CR,Aalten,Aalten,Gelderland,VBO,6.588434,51.916332
Kleine Maote,10,,,7123CR,Aalten,Aalten,Gelderland,VBO,6.588464,51.916386
Kleine Maote,12,,,7123CR,Aalten,Aalten,Gelderland,VBO,6.588514,51.916469
Kleine Maote,14,,,7123CR,Aalten,Aalten,Gelderland,VBO,6.588549,51.916521
Kleine Maote,16,,,7123CR,Aalten,Aalten,Gelderland,VBO,6.588583,51.916574
Kleine Maote,18,,,7123CR,Aalten,Aalten,Gelderland,VBO,6.588618,51.916626
Kleine Maote,20,,,7123CR,Aalten,Aalten,Gelderland,VBO,6.588688,51.916682
Kleine Maote,22,,,7123CR,Aalten,Aalten,Gelderland,VBO,6.588763,51.916718
Kleine Maote,24,,,7123CR,Aalten,Aalten,Gelderland,VBO,6.588838,51.916753
Kleine Maote,26,,,7123CR,Aalten,Aalten,Gelderland,VBO,6.589001,51.916831
Kleine Maote,28,,,7123CR,Aalten,Aalten,Gelderland,VBO,6.589075,51.916865
Kleine Maote,30,,,7123CR,Aalten,Aalten,Gelderland,VBO,6.589148,51.916900
Kleine Maote,32,,,7123CR,Aalten,Aalten,Gelderland,VBO,6.589222,51.916935
Kleine Maote,34,,,7123CR,Aalten,Aalten,Gelderland,VBO,6.589296,51.916969
Kleine Maote,36,,,7123CR,Aalten,Aalten,Gelderland,VBO,6.589651,51.916999
Kleine Maote,38,,,7123CR,Aalten,Aalten,Gelderland,VBO,6.589741,51.917011
Kleine Maote,40,,,7123CR,Aalten,Aalten,Gelderland,VBO,6.589832,51.917024
Kleine Maote,42,,,7123CR,Aalten,Aalten,Gelderland,VBO,6.589922,51.917036
Kleine Maote,44,,,7123CR,Aalten,Aalten,Gelderland,VBO,6.590012,51.917048
Kleine Maote,46,,,7123CR,Aalten,Aalten,Gelderland,VBO,6.590102,51.917061
't Slaa,1,,,7123CS,Aalten,Aalten,Gelderland,VBO,6.593398,51.918786
't Slaa,5,,,7123CS,Aalten,Aalten,Gelderland,VBO,6.593421,51.918391
't Slaa,7,,,7123CS,Aalten,Aalten,Gelderland,VBO,6.593404,51.918178
't Slaa,9,,,7123CS,Aalten,Aalten,Gelderland,VBO,6.593397,51.917783
't Slaa,11,,,7123CS,Aalten,Aalten,Gelderland,VBO,6.593393,51.917734
't Slaa,13,,,7123CS,Aalten,Aalten,Gelderland,VBO,6.592973,51.917773
't Slaa,15,,,7123CS,Aalten,Aalten,Gelderland,VBO,6.592977,51.917824
't Slaa,17,,,7123CS,Aalten,Aalten,Gelderland,VBO,6.592942,51.918114
't Slaa,19,,,7123CS,Aalten,Aalten,Gelderland,VBO,6.592946,51.918165
't Slaa,21,,,7123CS,Aalten,Aalten,Gelderland,VBO,6.592953,51.918253
't Slaa,23,,,7123CS,Aalten,Aalten,Gelderland,VBO,6.592957,51.918304
't Slaa,25,,,7123CS,Aalten,Aalten,Gelderland,VBO,6.592956,51.918421
't Slaa,27,,,7123CS,Aalten,Aalten,Gelderland,VBO,6.592960,51.918471
't Slaa,29,,,7123CS,Aalten,Aalten,Gelderland,VBO,6.592964,51.918521
't Slaa,31,,TR,7123CS,Aalten,Aalten,Gelderland,VBO,6.593384,51.918635
't Slaa,31,,,7123CS,Aalten,Aalten,Gelderland,VBO,6.592968,51.918572
't Slaa,33,,,7123CS,Aalten,Aalten,Gelderland,VBO,6.593049,51.918814
't Slaa,35,,,7123CS,Aalten,Aalten,Gelderland,VBO,6.592966,51.918817
't Slaa,37,,,7123CS,Aalten,Aalten,Gelderland,VBO,6.592755,51.918776
't Slaa,39,,,7123CS,Aalten,Aalten,Gelderland,VBO,6.592671,51.918743
't Slaa,41,,,7123CS,Aalten,Aalten,Gelderland,VBO,6.592520,51.918599
't Slaa,43,,,7123CS,Aalten,Aalten,Gelderland,VBO,6.592516,51.918551
't Slaa,45,,,7123CS,Aalten,Aalten,Gelderland,VBO,6.592509,51.918462
't Slaa,47,,,7123CS,Aalten,Aalten,Gelderland,VBO,6.592506,51.918413
't Slaa,49,A,,7123CS,Aalten,Aalten,Gelderland,VBO,6.592495,51.918275
't Slaa,49,,,7123CS,Aalten,Aalten,Gelderland,VBO,6.592499,51.918325
't Slaa,51,A,,7123CS,Aalten,Aalten,Gelderland,VBO,6.592501,51.918130
't Slaa,51,,,7123CS,Aalten,Aalten,Gelderland,VBO,6.592505,51.918177
't Slaa,53,,,7123CS,Aalten,Aalten,Gelderland,VBO,6.592500,51.917839
't Slaa,55,,,7123CS,Aalten,Aalten,Gelderland,VBO,6.592496,51.917788
't Slaa,57,,,7123CS,Aalten,Aalten,Gelderland,VBO,6.592098,51.917783
't Slaa,59,,,7123CS,Aalten,Aalten,Gelderland,VBO,6.592103,51.917839
't Slaa,61,,,7123CS,Aalten,Aalten,Gelderland,VBO,6.592091,51.918039
't Slaa,63,,,7123CS,Aalten,Aalten,Gelderland,VBO,6.592095,51.918088
't Slaa,65,,,7123CS,Aalten,Aalten,Gelderland,VBO,6.592098,51.918198
't Slaa,67,,,7123CS,Aalten,Aalten,Gelderland,VBO,6.592108,51.918250
't Slaa,69,,,7123CT,Aalten,Aalten,Gelderland,VBO,6.592056,51.918446
't Slaa,71,,,7123CT,Aalten,Aalten,Gelderland,VBO,6.591836,51.918405
't Slaa,73,,,7123CT,Aalten,Aalten,Gelderland,VBO,6.591628,51.918264
't Slaa,75,,,7123CT,Aalten,Aalten,Gelderland,VBO,6.591624,51.918215
't Slaa,77,,,7123CT,Aalten,Aalten,Gelderland,VBO,6.591615,51.918103
't Slaa,79,,,7123CT,Aalten,Aalten,Gelderland,VBO,6.591611,51.918052
't Slaa,81,,,7123CT,Aalten,Aalten,Gelderland,VBO,6.591638,51.917875
't Slaa,83,,,7123CT,Aalten,Aalten,Gelderland,VBO,6.591634,51.917825
't Slaa,85,,,7123CT,Aalten,Aalten,Gelderland,VBO,6.591630,51.917774
't Slaa,87,,,7123CT,Aalten,Aalten,Gelderland,VBO,6.591625,51.917723
't Slaa,89,,,7123CT,Aalten,Aalten,Gelderland,VBO,6.591966,51.917588
't Slaa,91,,,7123CT,Aalten,Aalten,Gelderland,VBO,6.592096,51.917584
't Slaa,93,,,7123CT,Aalten,Aalten,Gelderland,VBO,6.592405,51.917549
't Slaa,95,,,7123CT,Aalten,Aalten,Gelderland,VBO,6.592481,51.917547
't Slaa,97,,,7123CT,Aalten,Aalten,Gelderland,VBO,6.592620,51.917542
't Slaa,99,,,7123CT,Aalten,Aalten,Gelderland,VBO,6.592704,51.917584
't Slaa,101,,,7123CT,Aalten,Aalten,Gelderland,VBO,6.592782,51.917538
't Slaa,103,,,7123CT,Aalten,Aalten,Gelderland,VBO,6.592865,51.917580
't Slaa,105,,,7123CT,Aalten,Aalten,Gelderland,VBO,6.592944,51.917534
't Slaa,107,,,7123CT,Aalten,Aalten,Gelderland,VBO,6.593027,51.917575
't Slaa,109,,,7123CT,Aalten,Aalten,Gelderland,VBO,6.593371,51.917504
't Slaa,111,,,7123CT,Aalten,Aalten,Gelderland,VBO,6.593458,51.917534
't Slaa,113,,,7123CT,Aalten,Aalten,Gelderland,VBO,6.593656,51.917571
't Slaa,115,,,7123CT,Aalten,Aalten,Gelderland,VBO,6.593925,51.917710
't Slaa,117,,,7123CT,Aalten,Aalten,Gelderland,VBO,6.593929,51.917760
't Slaa,119,,,7123CT,Aalten,Aalten,Gelderland,VBO,6.593940,51.917894
't Slaa,121,,,7123CT,Aalten,Aalten,Gelderland,VBO,6.593944,51.917944
't Slaa,123,,,7123CT,Aalten,Aalten,Gelderland,VBO,6.593922,51.918158
't Slaa,125,,,7123CT,Aalten,Aalten,Gelderland,VBO,6.593928,51.918216
't Slaa,127,,,7123CT,Aalten,Aalten,Gelderland,VBO,6.593938,51.918338
't Slaa,129,,,7123CT,Aalten,Aalten,Gelderland,VBO,6.593891,51.918395
't Slaa,131,,,7123CT,Aalten,Aalten,Gelderland,VBO,6.593741,51.918512
't Slaa,133,,,7123CT,Aalten,Aalten,Gelderland,VBO,6.593697,51.918576
't Slaa,135,,,7123CT,Aalten,Aalten,Gelderland,VBO,6.593481,51.918783
't Slaa,2,,,7123CV,Aalten,Aalten,Gelderland,VBO,6.593407,51.919280
't Slaa,4,,,7123CV,Aalten,Aalten,Gelderland,VBO,6.592942,51.919153
't Slaa,6,,,7123CV,Aalten,Aalten,Gelderland,VBO,6.592734,51.919093
't Slaa,8,,,7123CV,Aalten,Aalten,Gelderland,VBO,6.592562,51.919020
't Slaa,10,,,7123CV,Aalten,Aalten,Gelderland,VBO,6.592373,51.918946
't Slaa,12,,,7123CV,Aalten,Aalten,Gelderland,VBO,6.592116,51.918804
't Slaa,14,,,7123CV,Aalten,Aalten,Gelderland,VBO,6.591907,51.918736
't Slaa,16,,,7123CV,Aalten,Aalten,Gelderland,VBO,6.591746,51.918658
't Slaa,18,,,7123CV,Aalten,Aalten,Gelderland,VBO,6.591564,51.918613
't Slaa,20,,,7123CV,Aalten,Aalten,Gelderland,VBO,6.591053,51.918423
't Slaa,22,,,7123CV,Aalten,Aalten,Gelderland,VBO,6.590909,51.918310
't Slaa,24,,,7123CV,Aalten,Aalten,Gelderland,VBO,6.590683,51.918273
't Slaa,26,,,7123CV,Aalten,Aalten,Gelderland,VBO,6.590486,51.918007
't Slaa,28,,,7123CV,Aalten,Aalten,Gelderland,VBO,6.590811,51.917868
't Slaa,30,,,7123CV,Aalten,Aalten,Gelderland,VBO,6.590887,51.917865
't Slaa,32,,,7123CV,Aalten,Aalten,Gelderland,VBO,6.591097,51.917868
't Slaa,34,,,7123CV,Aalten,Aalten,Gelderland,VBO,6.591176,51.917865
't Slaa,36,,,7123CV,Aalten,Aalten,Gelderland,VBO,6.591137,51.917534
't Slaa,38,,,7123CV,Aalten,Aalten,Gelderland,VBO,6.591056,51.917536
't Slaa,40,,,7123CV,Aalten,Aalten,Gelderland,VBO,6.590876,51.917540
't Slaa,42,,,7123CV,Aalten,Aalten,Gelderland,VBO,6.590795,51.917543
't Slaa,44,,,7123CV,Aalten,Aalten,Gelderland,VBO,6.590631,51.917537
't Slaa,46,,,7123CV,Aalten,Aalten,Gelderland,VBO,6.590556,51.917539
't Slaa,48,,,7123CV,Aalten,Aalten,Gelderland,VBO,6.590502,51.917284
't Slaa,50,,,7123CV,Aalten,Aalten,Gelderland,VBO,6.590582,51.917282
't Slaa,52,,,7123CV,Aalten,Aalten,Gelderland,VBO,6.590743,51.917277
't Slaa,54,,,7123CV,Aalten,Aalten,Gelderland,VBO,6.590824,51.917274
't Slaa,56,A,,7123CV,Aalten,Aalten,Gelderland,VBO,6.590987,51.917309
't Slaa,56,,,7123CV,Aalten,Aalten,Gelderland,VBO,6.590905,51.917271
't Slaa,58,A,,7123CV,Aalten,Aalten,Gelderland,VBO,6.591149,51.917304
't Slaa,58,,,7123CV,Aalten,Aalten,Gelderland,VBO,6.591066,51.917267
't Slaa,60,,,7123CV,Aalten,Aalten,Gelderland,VBO,6.591088,51.917092
't Slaa,62,,,7123CV,Aalten,Aalten,Gelderland,VBO,6.591085,51.917033
't Slaa,64,,,7123CW,Aalten,Aalten,Gelderland,VBO,6.591386,51.916874
't Slaa,66,,,7123CW,Aalten,Aalten,Gelderland,VBO,6.591445,51.916914
't Slaa,68,,,7123CW,Aalten,Aalten,Gelderland,VBO,6.591496,51.917027
't Slaa,70,,,7123CW,Aalten,Aalten,Gelderland,VBO,6.591500,51.917077
't Slaa,72,,,7123CW,Aalten,Aalten,Gelderland,VBO,6.591496,51.917170
't Slaa,74,,,7123CW,Aalten,Aalten,Gelderland,VBO,6.591504,51.917221
't Slaa,76,,,7123CW,Aalten,Aalten,Gelderland,VBO,6.591510,51.917313
't Slaa,78,,,7123CW,Aalten,Aalten,Gelderland,VBO,6.591514,51.917364
't Slaa,80,,,7123CW,Aalten,Aalten,Gelderland,VBO,6.591866,51.917298
't Slaa,82,,,7123CW,Aalten,Aalten,Gelderland,VBO,6.591997,51.917296
't Slaa,84,,,7123CW,Aalten,Aalten,Gelderland,VBO,6.592127,51.917292
't Slaa,86,,,7123CW,Aalten,Aalten,Gelderland,VBO,6.592403,51.917275
't Slaa,88,,,7123CW,Aalten,Aalten,Gelderland,VBO,6.592704,51.917261
't Slaa,90,,,7123CW,Aalten,Aalten,Gelderland,VBO,6.594171,51.917476
't Slaa,92,,,7123CW,Aalten,Aalten,Gelderland,VBO,6.594375,51.917580
't Slaa,94,,,7123CW,Aalten,Aalten,Gelderland,VBO,6.594377,51.917712
't Slaa,96,,,7123CW,Aalten,Aalten,Gelderland,VBO,6.594386,51.917856
't Slaa,98,,,7123CW,Aalten,Aalten,Gelderland,VBO,6.594418,51.918158
't Slaa,100,,,7123CW,Aalten,Aalten,Gelderland,VBO,6.594477,51.918325
't Slaa,102,,,7123CW,Aalten,Aalten,Gelderland,VBO,6.594340,51.918446
't Slaa,104,,,7123CW,Aalten,Aalten,Gelderland,VBO,6.594293,51.918491
't Slaa,106,,,7123CW,Aalten,Aalten,Gelderland,VBO,6.594182,51.918596
't Slaa,108,,,7123CW,Aalten,Aalten,Gelderland,VBO,6.594134,51.918642
't Slaa,110,,,7123CW,Aalten,Aalten,Gelderland,VBO,6.594050,51.918737
't Slaa,112,,,7123CW,Aalten,Aalten,Gelderland,VBO,6.593971,51.918812
't Slaa,114,,,7123CW,Aalten,Aalten,Gelderland,VBO,6.593839,51.918889
't Slaa,116,,,7123CW,Aalten,Aalten,Gelderland,VBO,6.593787,51.918938
Slaadreef,11,,,7123EA,Aalten,Aalten,Gelderland,VBO,6.594112,51.919650
Slaadreef,13,,,7123EA,Aalten,Aalten,Gelderland,VBO,6.595471,51.919213
Slaadreef,15,,,7123EA,Aalten,Aalten,Gelderland,VBO,6.595226,51.919387
Slaadreef,17,,,7123EA,Aalten,Aalten,Gelderland,VBO,6.594786,51.919481
Slaadreef,17,,,7123EA,Aalten,Aalten,Gelderland,VBO,6.594918,51.919413
Slaadreef,19,,,7123EA,Aalten,Aalten,Gelderland,VBO,6.594605,51.919617
Slaadreef,19,,,7123EA,Aalten,Aalten,Gelderland,VBO,6.594707,51.919635
Slaadreef,27,,,7123EA,Aalten,Aalten,Gelderland,VBO,6.594555,51.919910
Slaadreef,29,,,7123EA,Aalten,Aalten,Gelderland,VBO,6.594674,51.920130
Slaadreef,31,,,7123EA,Aalten,Aalten,Gelderland,VBO,6.594853,51.920273
Slaadreef,33,,,7123EA,Aalten,Aalten,Gelderland,VBO,6.595225,51.919743
Slaadreef,35,,,7123EA,Aalten,Aalten,Gelderland,VBO,6.595461,51.919866
Slaadreef,37,,,7123EA,Aalten,Aalten,Gelderland,VBO,6.595585,51.919698
Slaadreef,37,,,7123EA,Aalten,Aalten,Gelderland,VBO,6.595628,51.919772
Slaadreef,39,,,7123EA,Aalten,Aalten,Gelderland,VBO,6.595842,51.919636
Slaadreef,39,,,7123EA,Aalten,Aalten,Gelderland,VBO,6.595964,51.919607
Slaadreef,41,,,7123EA,Aalten,Aalten,Gelderland,VBO,6.595925,51.919271
Slaadreef,43,,,7123EA,Aalten,Aalten,Gelderland,VBO,6.596134,51.918737
Kriegerdreef,31,,,7123EC,Aalten,Aalten,Gelderland,VBO,6.594433,51.920805
Kriegerdreef,35,,,7123EC,Aalten,Aalten,Gelderland,VBO,6.596081,51.920693
Loohuisweg,22,,,7123EE,Aalten,Aalten,Gelderland,VBO,6.596121,51.922200
Loohuisweg,24,,,7123EE,Aalten,Aalten,Gelderland,VBO,6.596228,51.922181
Loohuisweg,26,,,7123EE,Aalten,Aalten,Gelderland,VBO,6.597076,51.922120
