openbareruimtenaam,huisnummer,huisletter,huisnummertoevoeging,postcode,woonplaatsnaam,gemeentenaam,provincienaam,typeadresseerbaarobject,longitude,latitude
Varsseveldseweg,66,,,7135JA,Harreveld,Oost Gelre,Gelderland,VBO,6.542444,51.980514
Varsseveldseweg,68,a,,7135JA,Harreveld,Oost Gelre,Gelderland,VBO,6.538040,51.979006
Varsseveldseweg,68,,,7135JA,Harreveld,Oost Gelre,Gelderland,VBO,6.542621,51.981472
Varsseveldseweg,70,a,,7135JA,Harreveld,Oost Gelre,Gelderland,VBO,6.536125,51.979920
Varsseveldseweg,74,a,,7135JA,Harreveld,Oost Gelre,Gelderland,VBO,6.533364,51.978315
Varsseveldseweg,74,,,7135JA,Harreveld,Oost Gelre,Gelderland,VBO,6.533492,51.978337
Varsseveldseweg,76,a,,7135JA,Harreveld,Oost Gelre,Gelderland,VBO,6.531018,51.978774
Varsseveldseweg,76,,,7135JA,Harreveld,Oost Gelre,Gelderland,VBO,6.531104,51.978719
Varsseveldseweg,78,a,,7135JA,Harreveld,Oost Gelre,Gelderland,VBO,6.524770,51.976718
Varsseveldseweg,78,,,7135JA,Harreveld,Oost Gelre,Gelderland,VBO,6.529363,51.977427
de Riette,1,,,7135JB,Harreveld,Oost Gelre,Gelderland,VBO,6.527960,51.970029
de Riette,2,,,7135JB,Harreveld,Oost Gelre,Gelderland,VBO,6.529639,51.974819
de Riette,3,,,7135JB,Harreveld,Oost Gelre,Gelderland,VBO,6.526846,51.969663
de Riette,4,,,7135JB,Harreveld,Oost Gelre,Gelderland,VBO,6.525100,51.969586
de Riette,6,,,7135JB,Harreveld,Oost Gelre,Gelderland,VBO,6.524051,51.969229
Varsseveldseweg,77,,,7135JC,Harreveld,Oost Gelre,Gelderland,VBO,6.531884,51.977284
Varsseveldseweg,80,a,,7135JC,Harreveld,Oost Gelre,Gelderland,VBO,6.524522,51.976646
Varsseveldseweg,80,,,7135JC,Harreveld,Oost Gelre,Gelderland,VBO,6.524397,51.976575
Varsseveldseweg,83,,,7135JC,Harreveld,Oost Gelre,Gelderland,VBO,6.523812,51.975829
Varsseveldseweg,86,a,,7135JC,Harreveld,Oost Gelre,Gelderland,VBO,6.513961,51.972018
Varsseveldseweg,86,,,7135JC,Harreveld,Oost Gelre,Gelderland,VBO,6.513991,51.971975
Varsseveldseweg,87,,,7135JC,Harreveld,Oost Gelre,Gelderland,VBO,6.520835,51.974427
Varsseveldseweg,88,,,7135JC,Harreveld,Oost Gelre,Gelderland,VBO,6.513136,51.972082
Varsseveldseweg,90,,,7135JC,Harreveld,Oost Gelre,Gelderland,VBO,6.510564,51.971989
Varsseveldseweg,91,,,7135JC,Harreveld,Oost Gelre,Gelderland,VBO,6.519098,51.973375
Varsseveldseweg,92,a,,7135JC,Harreveld,Oost Gelre,Gelderland,VBO,6.505383,51.970278
Varsseveldseweg,92,,,7135JC,Harreveld,Oost Gelre,Gelderland,VBO,6.505376,51.970208
Varsseveldseweg,93,,,7135JC,Harreveld,Oost Gelre,Gelderland,VBO,6.517110,51.972468
Varsseveldseweg,95,,,7135JC,Harreveld,Oost Gelre,Gelderland,VBO,6.516665,51.972159
Varsseveldseweg,97,,,7135JC,Harreveld,Oost Gelre,Gelderland,VBO,6.516676,51.972277
Varsseveldseweg,101,,,7135JC,Harreveld,Oost Gelre,Gelderland,VBO,6.512405,51.970188
Varsseveldseweg,105,,,7135JC,Harreveld,Oost Gelre,Gelderland,VBO,6.507326,51.969249
Veenweg,2,a,,7135JC,Harreveld,Oost Gelre,Gelderland,VBO,6.535540,51.972381
Veenweg,2,,,7135JC,Harreveld,Oost Gelre,Gelderland,VBO,6.535207,51.972240
Veenweg,4,,,7135JC,Harreveld,Oost Gelre,Gelderland,VBO,6.535840,51.972652
Veenweg,7,,,7135JC,Harreveld,Oost Gelre,Gelderland,VBO,6.538916,51.974571
Ursulastraat,1,,,7135JD,Harreveld,Oost Gelre,Gelderland,VBO,6.519389,51.976514
Ursulastraat,2,,,7135JD,Harreveld,Oost Gelre,Gelderland,VBO,6.519147,51.978705
Ursulastraat,3,,,7135JD,Harreveld,Oost Gelre,Gelderland,VBO,6.519265,51.976693
Ursulastraat,5,,,7135JD,Harreveld,Oost Gelre,Gelderland,VBO,6.519222,51.976745
Ursulastraat,7,,,7135JD,Harreveld,Oost Gelre,Gelderland,VBO,6.519144,51.976840
Ursulastraat,9,,,7135JD,Harreveld,Oost Gelre,Gelderland,VBO,6.519101,51.976892
Ursulastraat,11,,,7135JD,Harreveld,Oost Gelre,Gelderland,VBO,6.519027,51.976988
Ursulastraat,13,a,,7135JD,Harreveld,Oost Gelre,Gelderland,VBO,6.518882,51.977139
Ursulastraat,13,b,,7135JD,Harreveld,Oost Gelre,Gelderland,VBO,6.518863,51.977249
Ursulastraat,13,,,7135JD,Harreveld,Oost Gelre,Gelderland,VBO,6.518993,51.977042
Ursulastraat,15,,,7135JD,Harreveld,Oost Gelre,Gelderland,VBO,6.518705,51.978034
Ursulastraat,17,,,7135JD,Harreveld,Oost Gelre,Gelderland,VBO,6.518626,51.978288
Ursulastraat,19,,,7135JD,Harreveld,Oost Gelre,Gelderland,VBO,6.518448,51.978500
Ursulastraat,21,,,7135JD,Harreveld,Oost Gelre,Gelderland,VBO,6.518317,51.978701
Ursulastraat,23,,,7135JD,Harreveld,Oost Gelre,Gelderland,VBO,6.518135,51.978838
Looweg,18,a,,7135JE,Harreveld,Oost Gelre,Gelderland,VBO,6.519865,51.980290
Looweg,18,,,7135JE,Harreveld,Oost Gelre,Gelderland,VBO,6.518537,51.979207
Looweg,20,a,,7135JE,Harreveld,Oost Gelre,Gelderland,VBO,6.520125,51.980431
Looweg,20,,,7135JE,Harreveld,Oost Gelre,Gelderland,VBO,6.520052,51.980385
Looweg,24,a,,7135JE,Harreveld,Oost Gelre,Gelderland,VBO,6.520500,51.980526
Looweg,24,,,7135JE,Harreveld,Oost Gelre,Gelderland,VBO,6.520566,51.980460
Manschotterweg,1,,,7135JE,Harreveld,Oost Gelre,Gelderland,VBO,6.521886,51.981896
Stroetweg,2,a,,7135JE,Harreveld,Oost Gelre,Gelderland,VBO,6.528840,51.988991
Stroetweg,2,b,,7135JE,Harreveld,Oost Gelre,Gelderland,VBO,6.529263,51.989164
Stroetweg,2,,,7135JE,Harreveld,Oost Gelre,Gelderland,VBO,6.528731,51.988941
Wolterij,2,,,7135JG,Harreveld,Oost Gelre,Gelderland,VBO,6.522808,51.981160
Wolterij,3,,,7135JG,Harreveld,Oost Gelre,Gelderland,VBO,6.525023,51.980654
Wolterij,4,a,,7135JG,Harreveld,Oost Gelre,Gelderland,VBO,6.524014,51.980497
Wolterij,4,,,7135JG,Harreveld,Oost Gelre,Gelderland,VBO,6.524006,51.980591
Wolterij,5,,,7135JG,Harreveld,Oost Gelre,Gelderland,VBO,6.525155,51.980619
Wolterij,7,,,7135JG,Harreveld,Oost Gelre,Gelderland,VBO,6.525886,51.980124
Looweg,2,a,,7135JH,Harreveld,Oost Gelre,Gelderland,VBO,6.516947,51.978576
Looweg,2,,,7135JH,Harreveld,Oost Gelre,Gelderland,VBO,6.516863,51.978542
Looweg,4,,,7135JH,Harreveld,Oost Gelre,Gelderland,VBO,6.517103,51.978638
Looweg,6,,,7135JH,Harreveld,Oost Gelre,Gelderland,VBO,6.517183,51.978670
Looweg,8,,,7135JH,Harreveld,Oost Gelre,Gelderland,VBO,6.517480,51.978784
Looweg,10,,,7135JH,Harreveld,Oost Gelre,Gelderland,VBO,6.517557,51.978814
Looweg,12,,,7135JH,Harreveld,Oost Gelre,Gelderland,VBO,6.517709,51.978880
Looweg,13,,,7135JH,Harreveld,Oost Gelre,Gelderland,VBO,6.516800,51.978863
Looweg,14,,,7135JH,Harreveld,Oost Gelre,Gelderland,VBO,6.517803,51.978907
Looweg,15,,,7135JH,Harreveld,Oost Gelre,Gelderland,VBO,6.516874,51.978892
Looweg,16,,,7135JH,Harreveld,Oost Gelre,Gelderland,VBO,6.518039,51.978989
Looweg,17,,,7135JH,Harreveld,Oost Gelre,Gelderland,VBO,6.516996,51.978942
Looweg,19,,,7135JH,Harreveld,Oost Gelre,Gelderland,VBO,6.517068,51.978971
Looweg,21,,,7135JH,Harreveld,Oost Gelre,Gelderland,VBO,6.517190,51.979019
Looweg,23,,,7135JH,Harreveld,Oost Gelre,Gelderland,VBO,6.517264,51.979049
Looweg,25,,,7135JH,Harreveld,Oost Gelre,Gelderland,VBO,6.515985,51.980130
Looweg,27,a,,7135JH,Harreveld,Oost Gelre,Gelderland,VBO,6.517283,51.979406
Looweg,27,,,7135JH,Harreveld,Oost Gelre,Gelderland,VBO,6.517456,51.979839
Looweg,31,a,,7135JH,Harreveld,Oost Gelre,Gelderland,VBO,6.518860,51.980099
Looweg,31,,,7135JH,Harreveld,Oost Gelre,Gelderland,VBO,6.518731,51.980127
Looweg,33,,,7135JH,Harreveld,Oost Gelre,Gelderland,VBO,6.519428,51.980447
Looweg,35,,,7135JH,Harreveld,Oost Gelre,Gelderland,VBO,6.520217,51.980831
Looweg,37,,,7135JH,Harreveld,Oost Gelre,Gelderland,VBO,6.520304,51.980885
Kerkstraat,9,,,7135JJ,Harreveld,Oost Gelre,Gelderland,VBO,6.519134,51.976237
Kerkstraat,11,,,7135JJ,Harreveld,Oost Gelre,Gelderland,VBO,6.518990,51.976294
Kerkstraat,13,a,,7135JJ,Harreveld,Oost Gelre,Gelderland,VBO,6.518246,51.976196
Kerkstraat,13,,,7135JJ,Harreveld,Oost Gelre,Gelderland,VBO,6.518801,51.976378
Kerkstraat,15,,,7135JJ,Harreveld,Oost Gelre,Gelderland,VBO,6.518591,51.976441
Kerkstraat,17,,,7135JJ,Harreveld,Oost Gelre,Gelderland,VBO,6.518378,51.976554
Kerkstraat,19,,,7135JJ,Harreveld,Oost Gelre,Gelderland,VBO,6.518214,51.976631
Kerkstraat,21,,,7135JJ,Harreveld,Oost Gelre,Gelderland,VBO,6.517976,51.976725
Kerkstraat,23,,,7135JJ,Harreveld,Oost Gelre,Gelderland,VBO,6.517762,51.976827
Kerkstraat,25,,,7135JJ,Harreveld,Oost Gelre,Gelderland,VBO,6.517565,51.976902
Kerkstraat,27,,,7135JJ,Harreveld,Oost Gelre,Gelderland,VBO,6.517423,51.977010
Kerkstraat,29,,,7135JJ,Harreveld,Oost Gelre,Gelderland,VBO,6.517278,51.977142
Kerkstraat,31,,,7135JJ,Harreveld,Oost Gelre,Gelderland,VBO,6.517163,51.977243
Kerkstraat,33,,,7135JJ,Harreveld,Oost Gelre,Gelderland,VBO,6.517101,51.977303
Kerkstraat,35,a,,7135JJ,Harreveld,Oost Gelre,Gelderland,VBO,6.516797,51.977575
Kerkstraat,35,b,,7135JJ,Harreveld,Oost Gelre,Gelderland,VBO,6.516768,51.977573
Kerkstraat,35,,,7135JJ,Harreveld,Oost Gelre,Gelderland,VBO,6.516865,51.977463
Kerkstraat,37,a,,7135JJ,Harreveld,Oost Gelre,Gelderland,VBO,6.516350,51.977839
Kerkstraat,37,b,,7135JJ,Harreveld,Oost Gelre,Gelderland,VBO,6.516309,51.977657
Kerkstraat,37,,,7135JJ,Harreveld,Oost Gelre,Gelderland,VBO,6.516375,51.977851
Kerkstraat,39,,,7135JJ,Harreveld,Oost Gelre,Gelderland,VBO,6.516289,51.977909
Kerkstraat,41,,,7135JJ,Harreveld,Oost Gelre,Gelderland,VBO,6.516174,51.977993
Kerkstraat,43,a,,7135JJ,Harreveld,Oost Gelre,Gelderland,VBO,6.515990,51.978190
Kerkstraat,43,,,7135JJ,Harreveld,Oost Gelre,Gelderland,VBO,6.516049,51.978138
Kerkstraat,45,,,7135JJ,Harreveld,Oost Gelre,Gelderland,VBO,6.515808,51.978353
Kerkstraat,49,,,7135JJ,Harreveld,Oost Gelre,Gelderland,VBO,6.515563,51.978559
Kerkstraat,51,a,,7135JJ,Harreveld,Oost Gelre,Gelderland,VBO,6.513594,51.979893
Kerkstraat,51,b,,7135JJ,Harreveld,Oost Gelre,Gelderland,VBO,6.513806,51.980137
Kerkstraat,51,c,,7135JJ,Harreveld,Oost Gelre,Gelderland,VBO,6.513406,51.980197
Kerkstraat,51,d,,7135JJ,Harreveld,Oost Gelre,Gelderland,VBO,6.513530,51.979922
Kerkstraat,51,e,,7135JJ,Harreveld,Oost Gelre,Gelderland,VBO,6.513466,51.980159
Kerkstraat,51,,,7135JJ,Harreveld,Oost Gelre,Gelderland,VBO,6.513805,51.978964
Kerkstraat,53,,,7135JJ,Harreveld,Oost Gelre,Gelderland,VBO,6.511370,51.979826
Kerkstraat,55,,,7135JJ,Harreveld,Oost Gelre,Gelderland,VBO,6.510860,51.980410
Kerkstraat,2,,,7135JK,Harreveld,Oost Gelre,Gelderland,VBO,6.519318,51.976465
Kerkstraat,4,,,7135JK,Harreveld,Oost Gelre,Gelderland,VBO,6.519039,51.976585
Kerkstraat,6,,,7135JK,Harreveld,Oost Gelre,Gelderland,VBO,6.518885,51.976661
Kerkstraat,8,,,7135JK,Harreveld,Oost Gelre,Gelderland,VBO,6.518807,51.976694
Kerkstraat,10,,,7135JK,Harreveld,Oost Gelre,Gelderland,VBO,6.518647,51.976776
Kerkstraat,12,,,7135JK,Harreveld,Oost Gelre,Gelderland,VBO,6.518469,51.976833
Kerkstraat,14,,,7135JK,Harreveld,Oost Gelre,Gelderland,VBO,6.518313,51.976911
Kerkstraat,16,,,7135JK,Harreveld,Oost Gelre,Gelderland,VBO,6.518146,51.976985
Kerkstraat,18,,,7135JK,Harreveld,Oost Gelre,Gelderland,VBO,6.517986,51.977059
Kerkstraat,20,a,,7135JL,Harreveld,Oost Gelre,Gelderland,VBO,6.517574,51.977284
Kerkstraat,20,,,7135JL,Harreveld,Oost Gelre,Gelderland,VBO,6.517740,51.977352
Kerkstraat,22,,,7135JL,Harreveld,Oost Gelre,Gelderland,VBO,6.517471,51.977367
Kerkstraat,24,,,7135JL,Harreveld,Oost Gelre,Gelderland,VBO,6.517414,51.977418
Kerkstraat,26,,,7135JL,Harreveld,Oost Gelre,Gelderland,VBO,6.517331,51.977505
Kerkstraat,28,a,,7135JL,Harreveld,Oost Gelre,Gelderland,VBO,6.517239,51.977596
Kerkstraat,28,,,7135JL,Harreveld,Oost Gelre,Gelderland,VBO,6.517319,51.977624
Kerkstraat,30,,,7135JL,Harreveld,Oost Gelre,Gelderland,VBO,6.517138,51.977693
Kerkstraat,32,,,7135JL,Harreveld,Oost Gelre,Gelderland,VBO,6.517007,51.977824
Kerkstraat,34,,,7135JL,Harreveld,Oost Gelre,Gelderland,VBO,6.516895,51.977916
Kerkstraat,36,,,7135JL,Harreveld,Oost Gelre,Gelderland,VBO,6.516515,51.978316
Kerkstraat,38,a,,7135JM,Harreveld,Oost Gelre,Gelderland,VBO,6.515958,51.979002
Kerkstraat,38,,,7135JM,Harreveld,Oost Gelre,Gelderland,VBO,6.516136,51.978924
Kerkstraat,40,a,,7135JM,Harreveld,Oost Gelre,Gelderland,VBO,6.515748,51.979062
Kerkstraat,40,,,7135JM,Harreveld,Oost Gelre,Gelderland,VBO,6.515800,51.979002
Kerkstraat,42,,,7135JM,Harreveld,Oost Gelre,Gelderland,VBO,6.515445,51.979362
Kerkstraat,44,a,,7135JM,Harreveld,Oost Gelre,Gelderland,VBO,6.515418,51.979739
Kerkstraat,44,,,7135JM,Harreveld,Oost Gelre,Gelderland,VBO,6.515318,51.979600
Kerkstraat,46,,,7135JM,Harreveld,Oost Gelre,Gelderland,VBO,6.514925,51.979836
Kerkstraat,48,,,7135JM,Harreveld,Oost Gelre,Gelderland,VBO,6.514768,51.980002
Kerkstraat,50,a,,7135JM,Harreveld,Oost Gelre,Gelderland,VBO,6.514717,51.980327
Kerkstraat,50,,,7135JM,Harreveld,Oost Gelre,Gelderland,VBO,6.514667,51.980160
Kerkstraat,52,a,,7135JM,Harreveld,Oost Gelre,Gelderland,VBO,6.514444,51.980380
Kerkstraat,52,b,,7135JM,Harreveld,Oost Gelre,Gelderland,VBO,6.514393,51.980309
Kerkstraat,52,c,,7135JM,Harreveld,Oost Gelre,Gelderland,VBO,6.514374,51.980352
Kerkstraat,52,d,,7135JM,Harreveld,Oost Gelre,Gelderland,VBO,6.514366,51.980403
Kerkstraat,54,a,,7135JM,Harreveld,Oost Gelre,Gelderland,VBO,6.514197,51.980510
Kerkstraat,54,,,7135JM,Harreveld,Oost Gelre,Gelderland,VBO,6.514242,51.980470
Kerkstraat,56,,,7135JM,Harreveld,Oost Gelre,Gelderland,VBO,6.514120,51.980600
Kerkstraat,58,,,7135JM,Harreveld,Oost Gelre,Gelderland,VBO,6.513947,51.980772
Kerkstraat,60,,,7135JM,Harreveld,Oost Gelre,Gelderland,VBO,6.513817,51.980982
Kerkstraat,62,,,7135JM,Harreveld,Oost Gelre,Gelderland,VBO,6.514267,51.981997
Kerkstraat,64,,,7135JM,Harreveld,Oost Gelre,Gelderland,VBO,6.514338,51.982299
Kerkstraat,66,a,,7135JM,Harreveld,Oost Gelre,Gelderland,VBO,6.514067,51.983187
Kerkstraat,66,b,,7135JM,Harreveld,Oost Gelre,Gelderland,VBO,6.515156,51.983291
Kerkstraat,66,,,7135JM,Harreveld,Oost Gelre,Gelderland,VBO,6.514154,51.982968
Kerkstraat,68,,,7135JM,Harreveld,Oost Gelre,Gelderland,VBO,6.513825,51.983544
Toebeshof,1,a,,7135JN,Harreveld,Oost Gelre,Gelderland,VBO,6.518098,51.977483
Toebeshof,1,,,7135JN,Harreveld,Oost Gelre,Gelderland,VBO,6.517928,51.977411
Toebeshof,2,,,7135JN,Harreveld,Oost Gelre,Gelderland,VBO,6.518268,51.977201
Toebeshof,3,,,7135JN,Harreveld,Oost Gelre,Gelderland,VBO,6.518181,51.977518
Toebeshof,4,,,7135JN,Harreveld,Oost Gelre,Gelderland,VBO,6.518420,51.977263
Toebeshof,5,,,7135JN,Harreveld,Oost Gelre,Gelderland,VBO,6.518377,51.977598
Toebeshof,6,,,7135JN,Harreveld,Oost Gelre,Gelderland,VBO,6.518599,51.977340
Toebeshof,7,,,7135JN,Harreveld,Oost Gelre,Gelderland,VBO,6.518460,51.977632
Toebeshof,9,,,7135JN,Harreveld,Oost Gelre,Gelderland,VBO,6.518667,51.977719
Toebeshof,10,,,7135JN,Harreveld,Oost Gelre,Gelderland,VBO,6.518775,51.977408
Toebeshof,11,,,7135JN,Harreveld,Oost Gelre,Gelderland,VBO,6.518743,51.977742
Klaproosstraat,1,,,7135JP,Harreveld,Oost Gelre,Gelderland,VBO,6.516505,51.976078
Klaproosstraat,2,,,7135JP,Harreveld,Oost Gelre,Gelderland,VBO,6.515963,51.976274
Klaproosstraat,3,,,7135JP,Harreveld,Oost Gelre,Gelderland,VBO,6.516371,51.975983
Klaproosstraat,4,,,7135JP,Harreveld,Oost Gelre,Gelderland,VBO,6.515861,51.976186
Klaproosstraat,5,,,7135JP,Harreveld,Oost Gelre,Gelderland,VBO,6.516229,51.975901
Klaproosstraat,6,,,7135JP,Harreveld,Oost Gelre,Gelderland,VBO,6.515783,51.976075
Klaproosstraat,7,,,7135JP,Harreveld,Oost Gelre,Gelderland,VBO,6.516120,51.975811
Klaproosstraat,8,,,7135JP,Harreveld,Oost Gelre,Gelderland,VBO,6.515671,51.975981
Klaproosstraat,9,,,7135JP,Harreveld,Oost Gelre,Gelderland,VBO,6.515997,51.975696
Klaproosstraat,10,,,7135JP,Harreveld,Oost Gelre,Gelderland,VBO,6.515528,51.975869
Klaproosstraat,11,,,7135JP,Harreveld,Oost Gelre,Gelderland,VBO,6.515887,51.975598
Klaproosstraat,12,,,7135JP,Harreveld,Oost Gelre,Gelderland,VBO,6.515431,51.975761
Klaproosstraat,13,,,7135JP,Harreveld,Oost Gelre,Gelderland,VBO,6.515767,51.975504
Klaproosstraat,14,,,7135JP,Harreveld,Oost Gelre,Gelderland,VBO,6.515308,51.975658
Klaproosstraat,15,,,7135JP,Harreveld,Oost Gelre,Gelderland,VBO,6.515651,51.975413
Klaproosstraat,16,,,7135JP,Harreveld,Oost Gelre,Gelderland,VBO,6.515167,51.975564
Freule van Dorthstraat,1,,,7135JR,Harreveld,Oost Gelre,Gelderland,VBO,6.516097,51.976546
Freule van Dorthstraat,3,,,7135JR,Harreveld,Oost Gelre,Gelderland,VBO,6.516256,51.976489
Freule van Dorthstraat,4,,,7135JR,Harreveld,Oost Gelre,Gelderland,VBO,6.516770,51.975976
Freule van Dorthstraat,5,,,7135JR,Harreveld,Oost Gelre,Gelderland,VBO,6.516450,51.976454
Freule van Dorthstraat,6,,,7135JR,Harreveld,Oost Gelre,Gelderland,VBO,6.516855,51.975907
Freule van Dorthstraat,7,,,7135JR,Harreveld,Oost Gelre,Gelderland,VBO,6.516618,51.976399
Freule van Dorthstraat,8,,,7135JR,Harreveld,Oost Gelre,Gelderland,VBO,6.517275,51.975781
Freule van Dorthstraat,9,,,7135JR,Harreveld,Oost Gelre,Gelderland,VBO,6.516779,51.976336
Freule van Dorthstraat,10,,,7135JR,Harreveld,Oost Gelre,Gelderland,VBO,6.517450,51.975724
Freule van Dorthstraat,11,,,7135JR,Harreveld,Oost Gelre,Gelderland,VBO,6.516921,51.976252
Freule van Dorthstraat,12,,,7135JR,Harreveld,Oost Gelre,Gelderland,VBO,6.517612,51.975659
Freule van Dorthstraat,13,,,7135JR,Harreveld,Oost Gelre,Gelderland,VBO,6.517089,51.976191
Freule van Dorthstraat,14,,,7135JR,Harreveld,Oost Gelre,Gelderland,VBO,6.517791,51.975610
Freule van Dorthstraat,15,,,7135JR,Harreveld,Oost Gelre,Gelderland,VBO,6.517283,51.976158
Freule van Dorthstraat,16,,,7135JR,Harreveld,Oost Gelre,Gelderland,VBO,6.518923,51.975370
Freule van Dorthstraat,17,,,7135JR,Harreveld,Oost Gelre,Gelderland,VBO,6.517448,51.976094
Freule van Dorthstraat,18,,,7135JR,Harreveld,Oost Gelre,Gelderland,VBO,6.519088,51.975379
Freule van Dorthstraat,19,,,7135JR,Harreveld,Oost Gelre,Gelderland,VBO,6.517600,51.976023
Freule van Dorthstraat,20,,,7135JR,Harreveld,Oost Gelre,Gelderland,VBO,6.519422,51.975488
Freule van Dorthstraat,21,,,7135JR,Harreveld,Oost Gelre,Gelderland,VBO,6.517751,51.975946
Freule van Dorthstraat,23,a,,7135JR,Harreveld,Oost Gelre,Gelderland,VBO,6.518035,51.976081
Freule van Dorthstraat,23,,,7135JR,Harreveld,Oost Gelre,Gelderland,VBO,6.517918,51.975889
Freule van Dorthstraat,25,,,7135JR,Harreveld,Oost Gelre,Gelderland,VBO,6.518117,51.975881
Freule van Dorthstraat,27,,,7135JR,Harreveld,Oost Gelre,Gelderland,VBO,6.518389,51.975889
Freule van Dorthstraat,29,,,7135JR,Harreveld,Oost Gelre,Gelderland,VBO,6.518622,51.975886
Freule van Dorthstraat,31,,,7135JR,Harreveld,Oost Gelre,Gelderland,VBO,6.518850,51.975871
Freule van Dorthstraat,33,,,7135JR,Harreveld,Oost Gelre,Gelderland,VBO,6.519209,51.975884
Freule van Dorthstraat,35,,,7135JR,Harreveld,Oost Gelre,Gelderland,VBO,6.519310,51.975973
Freule van Dorthstraat,37,,,7135JR,Harreveld,Oost Gelre,Gelderland,VBO,6.519454,51.976093
Korenbloemstraat,1,,,7135JS,Harreveld,Oost Gelre,Gelderland,VBO,6.516962,51.975521
Korenbloemstraat,2,a,,7135JS,Harreveld,Oost Gelre,Gelderland,VBO,6.516730,51.975749
Korenbloemstraat,2,,,7135JS,Harreveld,Oost Gelre,Gelderland,VBO,6.516769,51.975788
Korenbloemstraat,3,,,7135JS,Harreveld,Oost Gelre,Gelderland,VBO,6.517118,51.975454
Korenbloemstraat,4,,,7135JS,Harreveld,Oost Gelre,Gelderland,VBO,6.516668,51.975647
Korenbloemstraat,5,,,7135JS,Harreveld,Oost Gelre,Gelderland,VBO,6.517274,51.975379
Korenbloemstraat,6,,,7135JS,Harreveld,Oost Gelre,Gelderland,VBO,6.516583,51.975623
Korenbloemstraat,7,,,7135JS,Harreveld,Oost Gelre,Gelderland,VBO,6.517429,51.975310
Korenbloemstraat,8,,,7135JS,Harreveld,Oost Gelre,Gelderland,VBO,6.516467,51.975523
Korenbloemstraat,9,,,7135JS,Harreveld,Oost Gelre,Gelderland,VBO,6.517117,51.975048
Korenbloemstraat,10,,,7135JS,Harreveld,Oost Gelre,Gelderland,VBO,6.516349,51.975430
Korenbloemstraat,11,,,7135JS,Harreveld,Oost Gelre,Gelderland,VBO,6.516963,51.975117
Korenbloemstraat,12,,,7135JS,Harreveld,Oost Gelre,Gelderland,VBO,6.516243,51.975332
Korenbloemstraat,13,,,7135JS,Harreveld,Oost Gelre,Gelderland,VBO,6.516808,51.975183
Korenbloemstraat,14,,,7135JS,Harreveld,Oost Gelre,Gelderland,VBO,6.516122,51.975261
Korenbloemstraat,15,,,7135JS,Harreveld,Oost Gelre,Gelderland,VBO,6.516658,51.975255
Blaauwgeersstraat,1,,,7135JT,Harreveld,Oost Gelre,Gelderland,VBO,6.515065,51.978245
Blaauwgeersstraat,2,,,7135JT,Harreveld,Oost Gelre,Gelderland,VBO,6.514584,51.978057
Blaauwgeersstraat,3,,,7135JT,Harreveld,Oost Gelre,Gelderland,VBO,6.515103,51.978194
Blaauwgeersstraat,4,,,7135JT,Harreveld,Oost Gelre,Gelderland,VBO,6.514584,51.977994
Blaauwgeersstraat,5,,,7135JT,Harreveld,Oost Gelre,Gelderland,VBO,6.515190,51.978087
Blaauwgeersstraat,6,,,7135JT,Harreveld,Oost Gelre,Gelderland,VBO,6.514758,51.977881
Blaauwgeersstraat,7,,,7135JT,Harreveld,Oost Gelre,Gelderland,VBO,6.515230,51.978036
Blaauwgeersstraat,8,,,7135JT,Harreveld,Oost Gelre,Gelderland,VBO,6.514755,51.977823
Blaauwgeersstraat,9,,,7135JT,Harreveld,Oost Gelre,Gelderland,VBO,6.515303,51.977942
Blaauwgeersstraat,10,,,7135JT,Harreveld,Oost Gelre,Gelderland,VBO,6.514878,51.977709
Blaauwgeersstraat,11,,,7135JT,Harreveld,Oost Gelre,Gelderland,VBO,6.515408,51.977818
Blaauwgeersstraat,12,,,7135JT,Harreveld,Oost Gelre,Gelderland,VBO,6.514875,51.977650
Blaauwgeersstraat,13,,,7135JT,Harreveld,Oost Gelre,Gelderland,VBO,6.515515,51.977731
Blaauwgeersstraat,14,,,7135JT,Harreveld,Oost Gelre,Gelderland,VBO,6.515008,51.977535
Blaauwgeersstraat,15,,,7135JT,Harreveld,Oost Gelre,Gelderland,VBO,6.515568,51.977633
Blaauwgeersstraat,16,,,7135JT,Harreveld,Oost Gelre,Gelderland,VBO,6.515004,51.977477
Blaauwgeersstraat,18,,,7135JT,Harreveld,Oost Gelre,Gelderland,VBO,6.515155,51.977354
Blaauwgeersstraat,20,,,7135JT,Harreveld,Oost Gelre,Gelderland,VBO,6.515177,51.977292
Blaauwgeersstraat,22,,,7135JT,Harreveld,Oost Gelre,Gelderland,VBO,6.515355,51.977201
Blaauwgeersstraat,24,,,7135JT,Harreveld,Oost Gelre,Gelderland,VBO,6.515377,51.977142
Blaauwgeersstraat,26,,,7135JT,Harreveld,Oost Gelre,Gelderland,VBO,6.515553,51.977050
Blaauwgeersstraat,28,,,7135JT,Harreveld,Oost Gelre,Gelderland,VBO,6.515575,51.976990
Rector Hulshofstraat,1,,,7135JV,Harreveld,Oost Gelre,Gelderland,VBO,6.520118,51.981568
Rector Hulshofstraat,2,a,,7135JV,Harreveld,Oost Gelre,Gelderland,VBO,6.520718,51.981521
Rector Hulshofstraat,2,,,7135JV,Harreveld,Oost Gelre,Gelderland,VBO,6.520794,51.981444
Rector Hulshofstraat,3,a,,7135JV,Harreveld,Oost Gelre,Gelderland,VBO,6.519408,51.981897
Rector Hulshofstraat,3,,,7135JV,Harreveld,Oost Gelre,Gelderland,VBO,6.520043,51.981865
Rector Hulshofstraat,4,a,,7135JV,Harreveld,Oost Gelre,Gelderland,VBO,6.520458,51.982163
Rector Hulshofstraat,4,,,7135JV,Harreveld,Oost Gelre,Gelderland,VBO,6.520514,51.982045
Rector Hulshofstraat,5,a,,7135JV,Harreveld,Oost Gelre,Gelderland,VBO,6.519298,51.983621
Rector Hulshofstraat,5,,,7135JV,Harreveld,Oost Gelre,Gelderland,VBO,6.519416,51.983694
Rector Hulshofstraat,6,a,,7135JV,Harreveld,Oost Gelre,Gelderland,VBO,6.520462,51.982885
Rector Hulshofstraat,6,,,7135JV,Harreveld,Oost Gelre,Gelderland,VBO,6.520347,51.982879
Rector Hulshofstraat,7,a,,7135JV,Harreveld,Oost Gelre,Gelderland,VBO,6.518810,51.984946
Rector Hulshofstraat,7,,,7135JV,Harreveld,Oost Gelre,Gelderland,VBO,6.518919,51.984898
Rector Hulshofstraat,8,,,7135JV,Harreveld,Oost Gelre,Gelderland,VBO,6.519217,51.984226
Rector Hulshofstraat,9,,,7135JV,Harreveld,Oost Gelre,Gelderland,VBO,6.517978,51.985821
Rector Hulshofstraat,10,a,,7135JV,Harreveld,Oost Gelre,Gelderland,VBO,6.520806,51.986094
Rector Hulshofstraat,10,b,,7135JV,Harreveld,Oost Gelre,Gelderland,VBO,6.520930,51.986584
Rector Hulshofstraat,10,,,7135JV,Harreveld,Oost Gelre,Gelderland,VBO,6.521210,51.986024
Rector Hulshofstraat,11,a,,7135JV,Harreveld,Oost Gelre,Gelderland,VBO,6.517705,51.986404
Rector Hulshofstraat,11,,,7135JV,Harreveld,Oost Gelre,Gelderland,VBO,6.517340,51.987082
Rector Hulshofstraat,13,,,7135JV,Harreveld,Oost Gelre,Gelderland,VBO,6.519463,51.986803
Rector Hulshofstraat,14,,,7135JV,Harreveld,Oost Gelre,Gelderland,VBO,6.521510,51.987322
Rector Hulshofstraat,15,,,7135JV,Harreveld,Oost Gelre,Gelderland,VBO,6.520568,51.987014
Rector Hulshofstraat,16,,,7135JV,Harreveld,Oost Gelre,Gelderland,VBO,6.521944,51.987495
Rector Hulshofstraat,17,,,7135JV,Harreveld,Oost Gelre,Gelderland,VBO,6.520452,51.988858
Rector Hulshofstraat,18,a,,7135JV,Harreveld,Oost Gelre,Gelderland,VBO,6.521609,51.989764
Rector Hulshofstraat,18,,,7135JV,Harreveld,Oost Gelre,Gelderland,VBO,6.521730,51.989700
Rector Hulshofstraat,19,,,7135JV,Harreveld,Oost Gelre,Gelderland,VBO,6.520655,51.989206
Rector Hulshofstraat,22,a,,7135JV,Harreveld,Oost Gelre,Gelderland,VBO,6.522270,51.990649
Rector Hulshofstraat,22,b,,7135JV,Harreveld,Oost Gelre,Gelderland,VBO,6.522210,51.990624
Rector Hulshofstraat,22,,,7135JV,Harreveld,Oost Gelre,Gelderland,VBO,6.522373,51.990622
Manschotterweg,2,,,7135JW,Harreveld,Oost Gelre,Gelderland,VBO,6.521468,51.980933
Manschotterweg,5,a,,7135JW,Harreveld,Oost Gelre,Gelderland,VBO,6.523441,51.983864
Manschotterweg,5,,,7135JW,Harreveld,Oost Gelre,Gelderland,VBO,6.523332,51.983927
Manschotterweg,7,,,7135JW,Harreveld,Oost Gelre,Gelderland,VBO,6.525052,51.984393
Manschotterweg,9,,,7135JW,Harreveld,Oost Gelre,Gelderland,VBO,6.526171,51.984595
Manschotterweg,12,,,7135JW,Harreveld,Oost Gelre,Gelderland,VBO,6.533863,51.984590
Manschotterweg,13,,,7135JW,Harreveld,Oost Gelre,Gelderland,VBO,6.531223,51.986249
Manschotterweg,15,,,7135JW,Harreveld,Oost Gelre,Gelderland,VBO,6.531369,51.986279
Manschotterweg,17,,,7135JW,Harreveld,Oost Gelre,Gelderland,VBO,6.534636,51.985744
Manschotterweg,19,,,7135JW,Harreveld,Oost Gelre,Gelderland,VBO,6.535297,51.985662
Stroetweg,1,a,,7135JW,Harreveld,Oost Gelre,Gelderland,VBO,6.528286,51.987282
Stroetweg,1,,,7135JW,Harreveld,Oost Gelre,Gelderland,VBO,6.528216,51.987401
Stroetweg,3,,,7135JW,Harreveld,Oost Gelre,Gelderland,VBO,6.526507,51.991025
Manschotterweg,16,a,,7135JX,Harreveld,Oost Gelre,Gelderland,VBO,6.542949,51.984996
Manschotterweg,16,,,7135JX,Harreveld,Oost Gelre,Gelderland,VBO,6.541013,51.985014
Op 't Hulshof,1,a,,7135JX,Harreveld,Oost Gelre,Gelderland,VBO,6.533974,51.983383
Op 't Hulshof,1,,,7135JX,Harreveld,Oost Gelre,Gelderland,VBO,6.533944,51.983321
Op 't Hulshof,2,a,,7135JX,Harreveld,Oost Gelre,Gelderland,VBO,6.537755,51.982046
Op 't Hulshof,2,,,7135JX,Harreveld,Oost Gelre,Gelderland,VBO,6.537898,51.982037
Op 't Hulshof,3,,,7135JX,Harreveld,Oost Gelre,Gelderland,VBO,6.537862,51.981603
Hogenkampstraat,1,,,7135JZ,Harreveld,Oost Gelre,Gelderland,VBO,6.517698,51.978620
Hogenkampstraat,2,,,7135JZ,Harreveld,Oost Gelre,Gelderland,VBO,6.517753,51.978567
Hogenkampstraat,3,,,7135JZ,Harreveld,Oost Gelre,Gelderland,VBO,6.517867,51.978473
Hogenkampstraat,4,,,7135JZ,Harreveld,Oost Gelre,Gelderland,VBO,6.517920,51.978424
Hogenkampstraat,5,,,7135JZ,Harreveld,Oost Gelre,Gelderland,VBO,6.518016,51.978320
Hogenkampstraat,6,,,7135JZ,Harreveld,Oost Gelre,Gelderland,VBO,6.518071,51.978267
Hogenkampstraat,7,,,7135JZ,Harreveld,Oost Gelre,Gelderland,VBO,6.518422,51.978000
Hogenkampstraat,8,,,7135JZ,Harreveld,Oost Gelre,Gelderland,VBO,6.518348,51.977970
Hogenkampstraat,9,,,7135JZ,Harreveld,Oost Gelre,Gelderland,VBO,6.518270,51.977938
Hogenkampstraat,10,,,7135JZ,Harreveld,Oost Gelre,Gelderland,VBO,6.518191,51.977908
Hogenkampstraat,11,,,7135JZ,Harreveld,Oost Gelre,Gelderland,VBO,6.518113,51.977874
Hogenkampstraat,12,,,7135JZ,Harreveld,Oost Gelre,Gelderland,VBO,6.517829,51.977650
Hogenkampstraat,13,,,7135JZ,Harreveld,Oost Gelre,Gelderland,VBO,6.517779,51.977697
Hogenkampstraat,14,,,7135JZ,Harreveld,Oost Gelre,Gelderland,VBO,6.517717,51.977752
Hogenkampstraat,15,,,7135JZ,Harreveld,Oost Gelre,Gelderland,VBO,6.517674,51.977797
Hogenkampstraat,16,,,7135JZ,Harreveld,Oost Gelre,Gelderland,VBO,6.517575,51.977888
Hogenkampstraat,17,,,7135JZ,Harreveld,Oost Gelre,Gelderland,VBO,6.517525,51.977936
Hogenkampstraat,18,,,7135JZ,Harreveld,Oost Gelre,Gelderland,VBO,6.517460,51.977998
Hogenkampstraat,19,,,7135JZ,Harreveld,Oost Gelre,Gelderland,VBO,6.517404,51.978043
Hogenkampstraat,21,,,7135JZ,Harreveld,Oost Gelre,Gelderland,VBO,6.517478,51.978337
Hogenkampstraat,22,,,7135JZ,Harreveld,Oost Gelre,Gelderland,VBO,6.517354,51.978459
Harreveldseweg,2,,,7135KA,Harreveld,Oost Gelre,Gelderland,VBO,6.513679,51.983801
Harreveldseweg,3,a,,7135KA,Harreveld,Oost Gelre,Gelderland,VBO,6.511375,51.986649
Harreveldseweg,3,,,7135KA,Harreveld,Oost Gelre,Gelderland,VBO,6.511403,51.986586
Harreveldseweg,4,,,7135KA,Harreveld,Oost Gelre,Gelderland,VBO,6.513684,51.983877
Harreveldseweg,5,a,,7135KA,Harreveld,Oost Gelre,Gelderland,VBO,6.511113,51.988427
Harreveldseweg,5,,,7135KA,Harreveld,Oost Gelre,Gelderland,VBO,6.511152,51.988354
Harreveldseweg,6,,,7135KA,Harreveld,Oost Gelre,Gelderland,VBO,6.512647,51.986268
Harreveldseweg,7,,,7135KA,Harreveld,Oost Gelre,Gelderland,VBO,6.511127,51.990001
Harreveldseweg,8,,,7135KA,Harreveld,Oost Gelre,Gelderland,VBO,6.512723,51.986236
Dwarsweg,1,a,,7135KB,Harreveld,Oost Gelre,Gelderland,VBO,6.516764,51.983847
Dwarsweg,1,,,7135KB,Harreveld,Oost Gelre,Gelderland,VBO,6.516647,51.983892
Dwarsweg,2,,,7135KB,Harreveld,Oost Gelre,Gelderland,VBO,6.508536,51.983927
Dwarsweg,3,,,7135KB,Harreveld,Oost Gelre,Gelderland,VBO,6.515700,51.983803
Dwarsweg,4,,,7135KB,Harreveld,Oost Gelre,Gelderland,VBO,6.514537,51.984358
Dwarsweg,5,,,7135KB,Harreveld,Oost Gelre,Gelderland,VBO,6.509920,51.982536
Dwarsweg,7,,,7135KB,Harreveld,Oost Gelre,Gelderland,VBO,6.509422,51.982325
Aagtemanweg,2,,,7135KC,Harreveld,Oost Gelre,Gelderland,VBO,6.502080,51.979034
Aagtemanweg,4,a,,7135KC,Harreveld,Oost Gelre,Gelderland,VBO,6.502134,51.977942
Aagtemanweg,4,,,7135KC,Harreveld,Oost Gelre,Gelderland,VBO,6.502067,51.978487
Aagtemanweg,5,,,7135KC,Harreveld,Oost Gelre,Gelderland,VBO,6.502840,51.977525
Aagtemanweg,7,,,7135KC,Harreveld,Oost Gelre,Gelderland,VBO,6.503024,51.977506
Aagtemanweg,8,a,,7135KC,Harreveld,Oost Gelre,Gelderland,VBO,6.498540,51.972557
Aagtemanweg,8,,,7135KC,Harreveld,Oost Gelre,Gelderland,VBO,6.498644,51.972558
Aagtemanweg,9,,,7135KC,Harreveld,Oost Gelre,Gelderland,VBO,6.503075,51.976205
Aagtemanweg,10,,,7135KC,Harreveld,Oost Gelre,Gelderland,VBO,6.500292,51.972218
Aagtemanweg,11,,,7135KC,Harreveld,Oost Gelre,Gelderland,VBO,6.503092,51.975590
Aagtemanweg,12,,,7135KC,Harreveld,Oost Gelre,Gelderland,VBO,6.500153,51.971963
de Bothweg,17,,,7135KC,Harreveld,Oost Gelre,Gelderland,VBO,6.505086,51.980019
de Bothweg,1,,,7135KD,Harreveld,Oost Gelre,Gelderland,VBO,6.514042,51.975676
de Bothweg,3,,,7135KD,Harreveld,Oost Gelre,Gelderland,VBO,6.513703,51.975853
de Bothweg,7,a,,7135KD,Harreveld,Oost Gelre,Gelderland,VBO,6.512278,51.976167
de Bothweg,7,,,7135KD,Harreveld,Oost Gelre,Gelderland,VBO,6.512325,51.976436
de Bothweg,9,,,7135KD,Harreveld,Oost Gelre,Gelderland,VBO,6.512050,51.977811
de Bothweg,11,,,7135KD,Harreveld,Oost Gelre,Gelderland,VBO,6.511372,51.978217
de Bothweg,13,a,,7135KD,Harreveld,Oost Gelre,Gelderland,VBO,6.508736,51.978943
de Bothweg,13,,,7135KD,Harreveld,Oost Gelre,Gelderland,VBO,6.508738,51.979024
de Bothweg,15,,,7135KD,Harreveld,Oost Gelre,Gelderland,VBO,6.507120,51.978984
Lindeboomweg,1,,,7135KE,Harreveld,Oost Gelre,Gelderland,VBO,6.516553,51.977341
Lindeboomweg,7,,,7135KE,Harreveld,Oost Gelre,Gelderland,VBO,6.516318,51.977029
Lindeboomweg,11,,,7135KE,Harreveld,Oost Gelre,Gelderland,VBO,6.516048,51.976915
Lindeboomweg,13,,,7135KE,Harreveld,Oost Gelre,Gelderland,VBO,6.515898,51.976787
Lindeboomweg,15,,,7135KE,Harreveld,Oost Gelre,Gelderland,VBO,6.515755,51.976660
Lindeboomweg,17,,,7135KE,Harreveld,Oost Gelre,Gelderland,VBO,6.515569,51.976430
Lindeboomweg,19,,,7135KE,Harreveld,Oost Gelre,Gelderland,VBO,6.515397,51.976305
Lindeboomweg,21,,,7135KE,Harreveld,Oost Gelre,Gelderland,VBO,6.515246,51.976175
Lindeboomweg,23,,,7135KE,Harreveld,Oost Gelre,Gelderland,VBO,6.515099,51.976031
Lindeboomweg,25,,,7135KE,Harreveld,Oost Gelre,Gelderland,VBO,6.514954,51.975897
Lindeboomweg,27,,,7135KE,Harreveld,Oost Gelre,Gelderland,VBO,6.514770,51.975781
Lindeboomweg,29,,,7135KE,Harreveld,Oost Gelre,Gelderland,VBO,6.514621,51.975646
Lindeboomweg,31,,,7135KE,Harreveld,Oost Gelre,Gelderland,VBO,6.511893,51.974679
Lindeboomweg,33,,01,7135KE,Harreveld,Oost Gelre,Gelderland,VBO,6.503010,51.974724
Lindeboomweg,33,,02,7135KE,Harreveld,Oost Gelre,Gelderland,VBO,6.502899,51.974726
Lindeboomweg,33,,03,7135KE,Harreveld,Oost Gelre,Gelderland,VBO,6.502895,51.974591
Lindeboomweg,33,,04,7135KE,Harreveld,Oost Gelre,Gelderland,VBO,6.502993,51.974591
Lindeboomweg,33,,,7135KE,Harreveld,Oost Gelre,Gelderland,VBO,6.503113,51.974451
Lindeboomweg,37,a,,7135KE,Harreveld,Oost Gelre,Gelderland,VBO,6.497163,51.974637
Lindeboomweg,37,,,7135KE,Harreveld,Oost Gelre,Gelderland,VBO,6.497720,51.974703
Lindeboomweg,39,,,7135KE,Harreveld,Oost Gelre,Gelderland,VBO,6.493631,51.973041
Lindeboomweg,41,a,,7135KE,Harreveld,Oost Gelre,Gelderland,VBO,6.491928,51.972484
Lindeboomweg,41,,,7135KE,Harreveld,Oost Gelre,Gelderland,VBO,6.491791,51.972480
Lindeboomweg,6,,,7135KG,Harreveld,Oost Gelre,Gelderland,VBO,6.515872,51.977338
Lindeboomweg,8,,,7135KG,Harreveld,Oost Gelre,Gelderland,VBO,6.515035,51.976456
Lindeboomweg,10,,,7135KG,Harreveld,Oost Gelre,Gelderland,VBO,6.514976,51.976412
Lindeboomweg,12,,,7135KG,Harreveld,Oost Gelre,Gelderland,VBO,6.514931,51.976376
Lindeboomweg,14,,,7135KG,Harreveld,Oost Gelre,Gelderland,VBO,6.514772,51.976274
Lindeboomweg,16,,,7135KG,Harreveld,Oost Gelre,Gelderland,VBO,6.514634,51.976169
Lindeboomweg,18,,,7135KG,Harreveld,Oost Gelre,Gelderland,VBO,6.514505,51.976057
Lindeboomweg,20,,,7135KG,Harreveld,Oost Gelre,Gelderland,VBO,6.514351,51.975947
Lindeboomweg,22,,,7135KG,Harreveld,Oost Gelre,Gelderland,VBO,6.514227,51.975829
Lindeboomweg,24,,,7135KG,Harreveld,Oost Gelre,Gelderland,VBO,6.514094,51.975719
Lindeboomweg,26,a,,7135KG,Harreveld,Oost Gelre,Gelderland,VBO,6.500704,51.975193
Lindeboomweg,26,,,7135KG,Harreveld,Oost Gelre,Gelderland,VBO,6.500673,51.975122
Lindeboomweg,28,a,,7135KG,Harreveld,Oost Gelre,Gelderland,VBO,6.491233,51.975611
Lindeboomweg,28,,,7135KG,Harreveld,Oost Gelre,Gelderland,VBO,6.491208,51.975639
Lindeboomweg,30,,,7135KG,Harreveld,Oost Gelre,Gelderland,VBO,6.487648,51.974515
Heideweg,1,a,,7135KH,Harreveld,Oost Gelre,Gelderland,VBO,6.503191,51.983137
Heideweg,1,,,7135KH,Harreveld,Oost Gelre,Gelderland,VBO,6.503569,51.982921
Heideweg,2,,,7135KH,Harreveld,Oost Gelre,Gelderland,VBO,6.509799,51.986411
Heideweg,3,,,7135KH,Harreveld,Oost Gelre,Gelderland,VBO,6.495719,51.984074
Heideweg,4,,,7135KH,Harreveld,Oost Gelre,Gelderland,VBO,6.505995,51.985718
Heideweg,5,a,,7135KH,Harreveld,Oost Gelre,Gelderland,VBO,6.486833,51.983010
Heideweg,5,,,7135KH,Harreveld,Oost Gelre,Gelderland,VBO,6.487359,51.983091
Heideweg,6,,,7135KH,Harreveld,Oost Gelre,Gelderland,VBO,6.502496,51.985204
Heideweg,7,a,,7135KH,Harreveld,Oost Gelre,Gelderland,VBO,6.481701,51.982405
Heideweg,7,,,7135KH,Harreveld,Oost Gelre,Gelderland,VBO,6.481690,51.982474
Heideweg,8,a,,7135KH,Harreveld,Oost Gelre,Gelderland,VBO,6.494579,51.984429
Heideweg,8,,,7135KH,Harreveld,Oost Gelre,Gelderland,VBO,6.494587,51.984353
Heideweg,9,,,7135KH,Harreveld,Oost Gelre,Gelderland,VBO,6.477406,51.980701
Heideweg,10,a,,7135KH,Harreveld,Oost Gelre,Gelderland,VBO,6.489742,51.984132
Heideweg,10,,,7135KH,Harreveld,Oost Gelre,Gelderland,VBO,6.489889,51.984139
Heideweg,14,,,7135KH,Harreveld,Oost Gelre,Gelderland,VBO,6.476222,51.981918
Landstraat,18,,,7135KH,Harreveld,Oost Gelre,Gelderland,VBO,6.468962,51.979136
Landstraat,20,,,7135KH,Harreveld,Oost Gelre,Gelderland,VBO,6.470937,51.981872
Landstraat,22,,,7135KH,Harreveld,Oost Gelre,Gelderland,VBO,6.471475,51.979050
Landstraat,24,a,,7135KH,Harreveld,Oost Gelre,Gelderland,VBO,6.472127,51.979057
Landstraat,24,,,7135KH,Harreveld,Oost Gelre,Gelderland,VBO,6.471865,51.979433
Landstraat,26,,,7135KH,Harreveld,Oost Gelre,Gelderland,VBO,6.473547,51.976286
Landstraat,28,,,7135KH,Harreveld,Oost Gelre,Gelderland,VBO,6.473706,51.976207
Landstraat,30,,,7135KH,Harreveld,Oost Gelre,Gelderland,VBO,6.476210,51.976356
Landstraat,32,a,,7135KH,Harreveld,Oost Gelre,Gelderland,VBO,6.478554,51.975032
Landstraat,32,,,7135KH,Harreveld,Oost Gelre,Gelderland,VBO,6.478485,51.975063
Landstraat,34,,,7135KH,Harreveld,Oost Gelre,Gelderland,VBO,6.483943,51.974829
Landstraat,36,,,7135KH,Harreveld,Oost Gelre,Gelderland,VBO,6.486969,51.977017
Schurinkweg,1,a,,7135KJ,Harreveld,Oost Gelre,Gelderland,VBO,6.502804,51.992064
Schurinkweg,1,,,7135KJ,Harreveld,Oost Gelre,Gelderland,VBO,6.502693,51.991972
Schurinkweg,3,,,7135KJ,Harreveld,Oost Gelre,Gelderland,VBO,6.498777,51.990115
Schurinkweg,8,a,,7135KJ,Harreveld,Oost Gelre,Gelderland,VBO,6.496401,51.991475
Schurinkweg,8,,,7135KJ,Harreveld,Oost Gelre,Gelderland,VBO,6.496305,51.991436
Schurinkweg,10,,,7135KJ,Harreveld,Oost Gelre,Gelderland,VBO,6.495880,51.989298
Schurinkweg,12,,,7135KJ,Harreveld,Oost Gelre,Gelderland,VBO,6.492543,51.987599
Schurinkweg,14,,,7135KJ,Harreveld,Oost Gelre,Gelderland,VBO,6.488678,51.985820
Nicolaasweg,1,,,7135KK,Harreveld,Oost Gelre,Gelderland,VBO,6.475477,51.985520
Nicolaasweg,2,a,,7135KK,Harreveld,Oost Gelre,Gelderland,VBO,6.480391,51.985895
Nicolaasweg,2,,,7135KK,Harreveld,Oost Gelre,Gelderland,VBO,6.479884,51.984391
Nicolaasweg,3,a,,7135KK,Harreveld,Oost Gelre,Gelderland,VBO,6.480215,51.987231
Nicolaasweg,3,,,7135KK,Harreveld,Oost Gelre,Gelderland,VBO,6.480335,51.987208
Nicolaasweg,5,,,7135KK,Harreveld,Oost Gelre,Gelderland,VBO,6.477097,51.987919
Kroosdijk,1,a,,7135KL,Harreveld,Oost Gelre,Gelderland,VBO,6.506817,51.989733
Kroosdijk,1,,,7135KL,Harreveld,Oost Gelre,Gelderland,VBO,6.498539,51.992321
Kroosdijk,2,,,7135KL,Harreveld,Oost Gelre,Gelderland,VBO,6.505823,51.990074
Kroosdijk,3,,,7135KL,Harreveld,Oost Gelre,Gelderland,VBO,6.498618,51.992261
Kroosdijk,5,a,,7135KL,Harreveld,Oost Gelre,Gelderland,VBO,6.498640,51.992974
Kroosdijk,5,b,,7135KL,Harreveld,Oost Gelre,Gelderland,VBO,6.498117,51.992899
Kroosdijk,5,,,7135KL,Harreveld,Oost Gelre,Gelderland,VBO,6.498412,51.993060
Kevelderstraat,3,a,,7135KN,Harreveld,Oost Gelre,Gelderland,VBO,6.515714,51.993405
Kevelderstraat,3,,,7135KN,Harreveld,Oost Gelre,Gelderland,VBO,6.515839,51.993470
Erve Reinas,1,,,7135KP,Harreveld,Oost Gelre,Gelderland,VBO,6.511409,51.977859
Erve Reinas,3,,,7135KP,Harreveld,Oost Gelre,Gelderland,VBO,6.511241,51.977886
Erve Reinas,5,,,7135KP,Harreveld,Oost Gelre,Gelderland,VBO,6.511027,51.977716
Erve Reinas,7,,,7135KP,Harreveld,Oost Gelre,Gelderland,VBO,6.510926,51.977798
Erve Reinas,9,,,7135KP,Harreveld,Oost Gelre,Gelderland,VBO,6.510680,51.977873
Erve Reinas,11,,,7135KP,Harreveld,Oost Gelre,Gelderland,VBO,6.510481,51.977987
Erve Reinas,13,,,7135KP,Harreveld,Oost Gelre,Gelderland,VBO,6.510707,51.978107
Erve Reinas,15,,,7135KP,Harreveld,Oost Gelre,Gelderland,VBO,6.510952,51.978047
Erve Reinas,17,,,7135KP,Harreveld,Oost Gelre,Gelderland,VBO,6.511132,51.978033
Erve 't Hag,1,,,7135KR,Harreveld,Oost Gelre,Gelderland,VBO,6.518253,51.979843
Erve 't Hag,5,,,7135KR,Harreveld,Oost Gelre,Gelderland,VBO,6.517607,51.980746
Erve 't Hag,7,,,7135KR,Harreveld,Oost Gelre,Gelderland,VBO,6.517549,51.980791
Erve 't Hag,9,a,,7135KR,Harreveld,Oost Gelre,Gelderland,VBO,6.517775,51.980979
Erve 't Hag,9,,,7135KR,Harreveld,Oost Gelre,Gelderland,VBO,6.517681,51.980909
Erve 't Hag,11,,,7135KR,Harreveld,Oost Gelre,Gelderland,VBO,6.517878,51.981033
Erve 't Hag,15,,,7135KR,Harreveld,Oost Gelre,Gelderland,VBO,6.518223,51.980984
Erve 't Hag,17,,,7135KR,Harreveld,Oost Gelre,Gelderland,VBO,6.518165,51.980913
Erve 't Hag,21,,,7135KR,Harreveld,Oost Gelre,Gelderland,VBO,6.517921,51.980645
Grachtlaan,1,,,7135TT,Harreveld,Oost Gelre,Gelderland,VBO,6.513605,51.977899
Grachtlaan,3,,,7135TT,Harreveld,Oost Gelre,Gelderland,VBO,6.513406,51.977856
Grachtlaan,5,,,7135TT,Harreveld,Oost Gelre,Gelderland,VBO,6.513201,51.977821
Grachtlaan,7,,,7135TT,Harreveld,Oost Gelre,Gelderland,VBO,6.512971,51.977752
Rector Hulshofstraat,12,a,,7135TV,Harreveld,Oost Gelre,Gelderland,VBO,6.522246,51.985620
Rector Hulshofstraat,12,,,7135TV,Harreveld,Oost Gelre,Gelderland,VBO,6.522294,51.985549
Hofkamp,1,,,7135TW,Harreveld,Oost Gelre,Gelderland,VBO,6.514068,51.977990
Hofkamp,3,,,7135TW,Harreveld,Oost Gelre,Gelderland,VBO,6.514155,51.977940
Hofkamp,4,,,7135TW,Harreveld,Oost Gelre,Gelderland,VBO,6.513668,51.977695
Hofkamp,5,,,7135TW,Harreveld,Oost Gelre,Gelderland,VBO,6.514142,51.977836
Hofkamp,6,,,7135TW,Harreveld,Oost Gelre,Gelderland,VBO,6.513744,51.977564
Hofkamp,7,,,7135TW,Harreveld,Oost Gelre,Gelderland,VBO,6.514180,51.977760
Hofkamp,8,,,7135TW,Harreveld,Oost Gelre,Gelderland,VBO,6.513782,51.977438
Hofkamp,9,,,7135TW,Harreveld,Oost Gelre,Gelderland,VBO,6.514215,51.977674
Hofkamp,10,,,7135TW,Harreveld,Oost Gelre,Gelderland,VBO,6.513930,51.977313
Hofkamp,11,,,7135TW,Harreveld,Oost Gelre,Gelderland,VBO,6.514245,51.977606
Hofkamp,12,,,7135TW,Harreveld,Oost Gelre,Gelderland,VBO,6.514002,51.977263
Hofkamp,13,,,7135TW,Harreveld,Oost Gelre,Gelderland,VBO,6.514268,51.977504
Muldershof,2,,,7135TX,Harreveld,Oost Gelre,Gelderland,VBO,6.515337,51.976725
Muldershof,4,,,7135TX,Harreveld,Oost Gelre,Gelderland,VBO,6.515219,51.976834
Muldershof,6,,,7135TX,Harreveld,Oost Gelre,Gelderland,VBO,6.515142,51.976868
Muldershof,8,,,7135TX,Harreveld,Oost Gelre,Gelderland,VBO,6.515022,51.976979
Muldershof,10,,,7135TX,Harreveld,Oost Gelre,Gelderland,VBO,6.514949,51.977011
Muldershof,12,,,7135TX,Harreveld,Oost Gelre,Gelderland,VBO,6.514848,51.977110
Muldershof,14,,,7135TX,Harreveld,Oost Gelre,Gelderland,VBO,6.514776,51.977142
Muldershof,16,,,7135TX,Harreveld,Oost Gelre,Gelderland,VBO,6.514679,51.977256
Muldershof,18,,,7135TX,Harreveld,Oost Gelre,Gelderland,VBO,6.514613,51.977286
Muldershof,20,,,7135TX,Harreveld,Oost Gelre,Gelderland,VBO,6.514534,51.977301
Muldershof,22,,,7135TX,Harreveld,Oost Gelre,Gelderland,VBO,6.514467,51.977330
Muldershof,24,,,7135TX,Harreveld,Oost Gelre,Gelderland,VBO,6.514297,51.977174
Muldershof,26,,,7135TX,Harreveld,Oost Gelre,Gelderland,VBO,6.514249,51.977133
Muldershof,28,,,7135TX,Harreveld,Oost Gelre,Gelderland,VBO,6.514174,51.977037
Muldershof,30,,,7135TX,Harreveld,Oost Gelre,Gelderland,VBO,6.514127,51.976997
Muldershof,32,,,7135TX,Harreveld,Oost Gelre,Gelderland,VBO,6.513954,51.976935
Muldershof,34,,,7135TX,Harreveld,Oost Gelre,Gelderland,VBO,6.513912,51.976900
Muldershof,36,,,7135TX,Harreveld,Oost Gelre,Gelderland,VBO,6.513848,51.976862
Muldershof,38,,,7135TX,Harreveld,Oost Gelre,Gelderland,VBO,6.513807,51.976827
Muldershof,40,,,7135TX,Harreveld,Oost Gelre,Gelderland,VBO,6.513432,51.976693
Muldershof,42,,,7135TX,Harreveld,Oost Gelre,Gelderland,VBO,6.513501,51.976663
Muldershof,44,,,7135TX,Harreveld,Oost Gelre,Gelderland,VBO,6.513719,51.976616
Muldershof,46,,,7135TX,Harreveld,Oost Gelre,Gelderland,VBO,6.513927,51.976519
Muldershof,52,,,7135TX,Harreveld,Oost Gelre,Gelderland,VBO,6.513675,51.976340
Muldershof,54,,,7135TX,Harreveld,Oost Gelre,Gelderland,VBO,6.513519,51.976247
Muldershof,56,,,7135TX,Harreveld,Oost Gelre,Gelderland,VBO,6.513401,51.976146
Muldershof,1,,,7135TZ,Harreveld,Oost Gelre,Gelderland,VBO,6.514980,51.976565
Muldershof,3,,,7135TZ,Harreveld,Oost Gelre,Gelderland,VBO,6.514907,51.976592
Muldershof,5,,,7135TZ,Harreveld,Oost Gelre,Gelderland,VBO,6.514837,51.976696
Muldershof,7,,,7135TZ,Harreveld,Oost Gelre,Gelderland,VBO,6.514766,51.976728
Muldershof,9,,,7135TZ,Harreveld,Oost Gelre,Gelderland,VBO,6.514572,51.976889
Muldershof,11,,,7135TZ,Harreveld,Oost Gelre,Gelderland,VBO,6.514527,51.976850
Muldershof,13,,,7135TZ,Harreveld,Oost Gelre,Gelderland,VBO,6.514467,51.976818
Muldershof,15,,,7135TZ,Harreveld,Oost Gelre,Gelderland,VBO,6.514420,51.976778
Muldershof,17,,,7135TZ,Harreveld,Oost Gelre,Gelderland,VBO,6.514487,51.976609
Muldershof,19,,,7135TZ,Harreveld,Oost Gelre,Gelderland,VBO,6.514440,51.976569
Muldershof,21,,,7135TZ,Harreveld,Oost Gelre,Gelderland,VBO,6.514342,51.976484
Muldershof,23,,,7135TZ,Harreveld,Oost Gelre,Gelderland,VBO,6.514295,51.976444
Muldershof,25,,,7135TZ,Harreveld,Oost Gelre,Gelderland,VBO,6.514182,51.976330
Muldershof,27,,,7135TZ,Harreveld,Oost Gelre,Gelderland,VBO,6.514124,51.976287
Muldershof,29,,,7135TZ,Harreveld,Oost Gelre,Gelderland,VBO,6.513997,51.976176
Muldershof,33,,,7135TZ,Harreveld,Oost Gelre,Gelderland,VBO,6.513848,51.976066
