openbareruimtenaam,huisnummer,huisletter,huisnummertoevoeging,postcode,woonplaatsnaam,gemeentenaam,provincienaam,typeadresseerbaarobject,longitude,latitude
Bedelaarsdijk,7,,,7136JA,Zieuwent,Oost Gelre,Gelderland,VBO,6.517791,52.041704
Kranenkampsweg,2,,,7136JC,Zieuwent,Oost Gelre,Gelderland,VBO,6.528259,52.029464
Nijlandsdijk,1,,,7136JD,Zieuwent,Oost Gelre,Gelderland,VBO,6.522482,52.024297
Stroetweg,4,,,7136JE,Zieuwent,Oost Gelre,Gelderland,VBO,6.526796,51.991608
Koolsweg,1,a,,7136JG,Zieuwent,Oost Gelre,Gelderland,VBO,6.518604,52.027061
Koolsweg,1,b,,7136JG,Zieuwent,Oost Gelre,Gelderland,VBO,6.513123,52.031929
Koolsweg,1,,,7136JG,Zieuwent,Oost Gelre,Gelderland,VBO,6.518482,52.027116
Koolsweg,2,,,7136JG,Zieuwent,Oost Gelre,Gelderland,VBO,6.515753,52.027970
Koolsweg,3,,,7136JG,Zieuwent,Oost Gelre,Gelderland,VBO,6.509058,52.033683
Koolsweg,4,,,7136JG,Zieuwent,Oost Gelre,Gelderland,VBO,6.514219,52.028755
Koolsweg,5,a,,7136JG,Zieuwent,Oost Gelre,Gelderland,VBO,6.508327,52.034221
Koolsweg,5,,,7136JG,Zieuwent,Oost Gelre,Gelderland,VBO,6.508252,52.034077
Koolsweg,6,,,7136JG,Zieuwent,Oost Gelre,Gelderland,VBO,6.512995,52.027434
Koolsweg,8,,,7136JG,Zieuwent,Oost Gelre,Gelderland,VBO,6.509558,52.031580
Verkavelingsweg,1,,,7136JH,Zieuwent,Oost Gelre,Gelderland,VBO,6.511468,52.037390
Verkavelingsweg,2,a,,7136JH,Zieuwent,Oost Gelre,Gelderland,VBO,6.506675,52.034869
Verkavelingsweg,2,,,7136JH,Zieuwent,Oost Gelre,Gelderland,VBO,6.506470,52.034525
Verkavelingsweg,4,a,,7136JH,Zieuwent,Oost Gelre,Gelderland,VBO,6.509516,52.036891
Verkavelingsweg,4,,,7136JH,Zieuwent,Oost Gelre,Gelderland,VBO,6.509639,52.036821
Verkavelingsweg,6,,,7136JH,Zieuwent,Oost Gelre,Gelderland,VBO,6.512264,52.038748
Wilgendijk,1,a,,7136JJ,Zieuwent,Oost Gelre,Gelderland,VBO,6.513586,52.021392
Wilgendijk,1,,,7136JJ,Zieuwent,Oost Gelre,Gelderland,VBO,6.513320,52.021309
Wilgendijk,2,,,7136JJ,Zieuwent,Oost Gelre,Gelderland,VBO,6.508025,52.023575
Wilgendijk,3,,,7136JJ,Zieuwent,Oost Gelre,Gelderland,VBO,6.512680,52.022401
Wilgendijk,4,a,,7136JJ,Zieuwent,Oost Gelre,Gelderland,VBO,6.507642,52.023666
Wilgendijk,4,b,,7136JJ,Zieuwent,Oost Gelre,Gelderland,VBO,6.507973,52.024114
Wilgendijk,4,,,7136JJ,Zieuwent,Oost Gelre,Gelderland,VBO,6.507729,52.023728
Wilgendijk,6,a,,7136JJ,Zieuwent,Oost Gelre,Gelderland,VBO,6.508773,52.025210
Wilgendijk,6,,,7136JJ,Zieuwent,Oost Gelre,Gelderland,VBO,6.508887,52.025282
Wilgendijk,8,a,,7136JJ,Zieuwent,Oost Gelre,Gelderland,VBO,6.507691,52.026562
Wilgendijk,8,,,7136JJ,Zieuwent,Oost Gelre,Gelderland,VBO,6.507656,52.026401
Wilgendijk,10,,,7136JJ,Zieuwent,Oost Gelre,Gelderland,VBO,6.502959,52.031638
Wilgendijk,12,,,7136JJ,Zieuwent,Oost Gelre,Gelderland,VBO,6.502690,52.031740
Wilgendijk,14,,,7136JJ,Zieuwent,Oost Gelre,Gelderland,VBO,6.502825,52.032009
Kunnerij,1,,,7136JK,Zieuwent,Oost Gelre,Gelderland,VBO,6.500703,52.018293
Kunnerij,2,,,7136JK,Zieuwent,Oost Gelre,Gelderland,VBO,6.502290,52.019416
Kunnerij,3,,,7136JK,Zieuwent,Oost Gelre,Gelderland,VBO,6.501807,52.018437
Kunnerij,4,a,,7136JK,Zieuwent,Oost Gelre,Gelderland,VBO,6.507173,52.020301
Kunnerij,4,,,7136JK,Zieuwent,Oost Gelre,Gelderland,VBO,6.507216,52.020238
Kunnerij,5,,,7136JK,Zieuwent,Oost Gelre,Gelderland,VBO,6.502945,52.019135
Kunnerij,6,,,7136JK,Zieuwent,Oost Gelre,Gelderland,VBO,6.512471,52.021301
Kunnerij,7,,,7136JK,Zieuwent,Oost Gelre,Gelderland,VBO,6.504393,52.019471
Kunnerij,8,,,7136JK,Zieuwent,Oost Gelre,Gelderland,VBO,6.516890,52.021752
Kunnerij,9,a,,7136JK,Zieuwent,Oost Gelre,Gelderland,VBO,6.504792,52.019449
Kunnerij,9,,,7136JK,Zieuwent,Oost Gelre,Gelderland,VBO,6.504783,52.019371
Kunnerij,10,,,7136JK,Zieuwent,Oost Gelre,Gelderland,VBO,6.517583,52.020861
Oude Maat,1,,,7136JL,Zieuwent,Oost Gelre,Gelderland,VBO,6.520493,52.021351
Oude Maat,2,a,,7136JL,Zieuwent,Oost Gelre,Gelderland,VBO,6.520411,52.018968
Oude Maat,2,b,,7136JL,Zieuwent,Oost Gelre,Gelderland,VBO,6.521215,52.018924
Oude Maat,2,,,7136JL,Zieuwent,Oost Gelre,Gelderland,VBO,6.521561,52.018759
Oude Maat,3,,,7136JL,Zieuwent,Oost Gelre,Gelderland,VBO,6.520108,52.023098
Oude Maat,4,,,7136JL,Zieuwent,Oost Gelre,Gelderland,VBO,6.519380,52.023320
Oude Maat,5,,,7136JL,Zieuwent,Oost Gelre,Gelderland,VBO,6.520253,52.024138
Oude Maat,6,,,7136JL,Zieuwent,Oost Gelre,Gelderland,VBO,6.519403,52.023610
Oude Maat,8,,,7136JL,Zieuwent,Oost Gelre,Gelderland,VBO,6.522224,52.029630
Oude Maat,10,,,7136JL,Zieuwent,Oost Gelre,Gelderland,VBO,6.522073,52.030736
Oude Maat,12,,,7136JL,Zieuwent,Oost Gelre,Gelderland,VBO,6.522482,52.031196
Oude Maat,14,,,7136JL,Zieuwent,Oost Gelre,Gelderland,VBO,6.521252,52.032919
Oude Maat,16,,,7136JL,Zieuwent,Oost Gelre,Gelderland,VBO,6.521143,52.032668
Oude Maat,18,,,7136JL,Zieuwent,Oost Gelre,Gelderland,VBO,6.526728,52.033701
Lanthersweg,1,,,7136JM,Zieuwent,Oost Gelre,Gelderland,VBO,6.506035,52.023133
Lanthersweg,2,,,7136JM,Zieuwent,Oost Gelre,Gelderland,VBO,6.505850,52.021144
Lanthersweg,4,,,7136JM,Zieuwent,Oost Gelre,Gelderland,VBO,6.504593,52.021681
Lanthersweg,6,,,7136JM,Zieuwent,Oost Gelre,Gelderland,VBO,6.503906,52.021000
Batsdijk,30,,,7136JP,Zieuwent,Oost Gelre,Gelderland,VBO,6.489527,52.030676
Batsdijk,32,,,7136JP,Zieuwent,Oost Gelre,Gelderland,VBO,6.491744,52.028235
Batsdijk,34,,,7136JP,Zieuwent,Oost Gelre,Gelderland,VBO,6.496173,52.022116
Batsdijk,36,a,,7136JP,Zieuwent,Oost Gelre,Gelderland,VBO,6.497364,52.022608
Batsdijk,36,,,7136JP,Zieuwent,Oost Gelre,Gelderland,VBO,6.497523,52.022179
Batsdijk,37,,,7136JP,Zieuwent,Oost Gelre,Gelderland,VBO,6.489453,52.029278
Batsdijk,38,a,,7136JP,Zieuwent,Oost Gelre,Gelderland,VBO,6.498799,52.019371
Batsdijk,38,,,7136JP,Zieuwent,Oost Gelre,Gelderland,VBO,6.499451,52.021442
Batsdijk,39,a,,7136JP,Zieuwent,Oost Gelre,Gelderland,VBO,6.494656,52.022462
Batsdijk,39,,,7136JP,Zieuwent,Oost Gelre,Gelderland,VBO,6.492293,52.025193
Batsdijk,40,,,7136JP,Zieuwent,Oost Gelre,Gelderland,VBO,6.499072,52.018961
Batsdijk,41,a,,7136JP,Zieuwent,Oost Gelre,Gelderland,VBO,6.497559,52.019580
Batsdijk,41,,,7136JP,Zieuwent,Oost Gelre,Gelderland,VBO,6.497900,52.019802
Batsdijk,43,,,7136JP,Zieuwent,Oost Gelre,Gelderland,VBO,6.497873,52.019395
Kevelderstraat,4,a,,7136KA,Zieuwent,Oost Gelre,Gelderland,VBO,6.518132,51.992353
Kevelderstraat,4,,,7136KA,Zieuwent,Oost Gelre,Gelderland,VBO,6.518126,51.992707
Kevelderstraat,6,,,7136KA,Zieuwent,Oost Gelre,Gelderland,VBO,6.518119,51.993244
Kevelderstraat,8,,,7136KA,Zieuwent,Oost Gelre,Gelderland,VBO,6.517476,51.993225
Kevelderstraat,10,,,7136KA,Zieuwent,Oost Gelre,Gelderland,VBO,6.513410,51.996192
Harreveldseweg,10,,,7136KB,Zieuwent,Oost Gelre,Gelderland,VBO,6.513315,51.998146
Harreveldseweg,12,b,,7136KB,Zieuwent,Oost Gelre,Gelderland,VBO,6.516476,52.002365
Harreveldseweg,12,c,,7136KB,Zieuwent,Oost Gelre,Gelderland,VBO,6.516673,52.002399
Harreveldseweg,12,d,,7136KB,Zieuwent,Oost Gelre,Gelderland,VBO,6.516880,52.002420
Harreveldseweg,12,,,7136KB,Zieuwent,Oost Gelre,Gelderland,VBO,6.513802,51.999589
Hofmansweg,2,,,7136KE,Zieuwent,Oost Gelre,Gelderland,VBO,6.496644,52.004364
Hofmansweg,4,,,7136KE,Zieuwent,Oost Gelre,Gelderland,VBO,6.497018,52.004598
Hofmansweg,6,,,7136KE,Zieuwent,Oost Gelre,Gelderland,VBO,6.497251,52.004642
Hofmansweg,8,,,7136KE,Zieuwent,Oost Gelre,Gelderland,VBO,6.496607,52.005175
Hofmansweg,12,,,7136KE,Zieuwent,Oost Gelre,Gelderland,VBO,6.497618,52.005350
Oude Ruurloseweg,25,,,7136KE,Zieuwent,Oost Gelre,Gelderland,VBO,6.495525,52.003108
Oude Ruurloseweg,27,a,,7136KE,Zieuwent,Oost Gelre,Gelderland,VBO,6.494878,52.003480
Oude Ruurloseweg,27,,,7136KE,Zieuwent,Oost Gelre,Gelderland,VBO,6.494510,52.003773
Oude Ruurloseweg,29,,,7136KE,Zieuwent,Oost Gelre,Gelderland,VBO,6.494537,52.003848
Oude Ruurloseweg,38,,,7136KE,Zieuwent,Oost Gelre,Gelderland,VBO,6.494239,52.004792
Reindersweg,5,,,7136KE,Zieuwent,Oost Gelre,Gelderland,VBO,6.491566,52.007693
Reindersweg,7,a,,7136KE,Zieuwent,Oost Gelre,Gelderland,VBO,6.492014,52.006018
Reindersweg,7,b,,7136KE,Zieuwent,Oost Gelre,Gelderland,VBO,6.492492,52.005978
Reindersweg,7,,,7136KE,Zieuwent,Oost Gelre,Gelderland,VBO,6.492007,52.005946
Reindersweg,9,,,7136KE,Zieuwent,Oost Gelre,Gelderland,VBO,6.492713,52.005481
Doorndijk,1,,,7136KG,Zieuwent,Oost Gelre,Gelderland,VBO,6.496857,52.000665
Doorndijk,3,,,7136KG,Zieuwent,Oost Gelre,Gelderland,VBO,6.496387,52.000508
Doorndijk,5,,,7136KG,Zieuwent,Oost Gelre,Gelderland,VBO,6.496211,52.000420
Oude Ruurloseweg,23,a,,7136KG,Zieuwent,Oost Gelre,Gelderland,VBO,6.499346,51.999823
Oude Ruurloseweg,23,,,7136KG,Zieuwent,Oost Gelre,Gelderland,VBO,6.499391,51.999895
Oude Ruurloseweg,26,,,7136KG,Zieuwent,Oost Gelre,Gelderland,VBO,6.509372,51.998441
Oude Ruurloseweg,28,,,7136KG,Zieuwent,Oost Gelre,Gelderland,VBO,6.504293,51.999777
Oude Ruurloseweg,30,,,7136KG,Zieuwent,Oost Gelre,Gelderland,VBO,6.503434,52.000999
Oude Ruurloseweg,32,,,7136KG,Zieuwent,Oost Gelre,Gelderland,VBO,6.502210,52.000942
Oude Ruurloseweg,34,,,7136KG,Zieuwent,Oost Gelre,Gelderland,VBO,6.500624,52.000095
Oude Ruurloseweg,36,,,7136KG,Zieuwent,Oost Gelre,Gelderland,VBO,6.497678,52.001272
Platenallee,2,,,7136KG,Zieuwent,Oost Gelre,Gelderland,VBO,6.498305,51.997819
Platenallee,4,,,7136KG,Zieuwent,Oost Gelre,Gelderland,VBO,6.498358,51.997907
Harreveldseweg,15,,,7136KH,Zieuwent,Oost Gelre,Gelderland,VBO,6.512431,52.000000
Harreveldseweg,17,a,,7136KH,Zieuwent,Oost Gelre,Gelderland,VBO,6.515750,52.002557
Harreveldseweg,17,b,,7136KH,Zieuwent,Oost Gelre,Gelderland,VBO,6.516431,52.002700
Harreveldseweg,17,c,,7136KH,Zieuwent,Oost Gelre,Gelderland,VBO,6.516674,52.002695
Harreveldseweg,17,d,,7136KH,Zieuwent,Oost Gelre,Gelderland,VBO,6.516909,52.002768
Harreveldseweg,17,,,7136KH,Zieuwent,Oost Gelre,Gelderland,VBO,6.514033,52.001094
Schoppenweg,2,,,7136KH,Zieuwent,Oost Gelre,Gelderland,VBO,6.504394,52.011222
Schoppenweg,3,,,7136KH,Zieuwent,Oost Gelre,Gelderland,VBO,6.503869,52.008985
Schoppenweg,4,,,7136KH,Zieuwent,Oost Gelre,Gelderland,VBO,6.504218,52.010268
Schoppenweg,5,,,7136KH,Zieuwent,Oost Gelre,Gelderland,VBO,6.502823,52.006229
Schoppenweg,5,,,7136KH,Zieuwent,Oost Gelre,Gelderland,VBO,6.502639,52.006659
Schoppenweg,7,a,,7136KH,Zieuwent,Oost Gelre,Gelderland,VBO,6.502378,52.005964
Schoppenweg,7,,,7136KH,Zieuwent,Oost Gelre,Gelderland,VBO,6.502277,52.005983
Schoppenweg,8,a,,7136KH,Zieuwent,Oost Gelre,Gelderland,VBO,6.502255,52.007366
Schoppenweg,8,,,7136KH,Zieuwent,Oost Gelre,Gelderland,VBO,6.502354,52.007347
Schoppenweg,9,a,,7136KH,Zieuwent,Oost Gelre,Gelderland,VBO,6.505302,52.004418
Schoppenweg,9,b,,7136KH,Zieuwent,Oost Gelre,Gelderland,VBO,6.504677,52.004507
Schoppenweg,9,,,7136KH,Zieuwent,Oost Gelre,Gelderland,VBO,6.505446,52.004360
Schoppenweg,11,,,7136KH,Zieuwent,Oost Gelre,Gelderland,VBO,6.509729,52.003227
Schoppenweg,13,,,7136KH,Zieuwent,Oost Gelre,Gelderland,VBO,6.513434,52.003596
Schoppenweg,14,,,7136KH,Zieuwent,Oost Gelre,Gelderland,VBO,6.512700,52.002573
Schoppenweg,16,a,,7136KH,Zieuwent,Oost Gelre,Gelderland,VBO,6.513778,52.002316
Schoppenweg,16,,,7136KH,Zieuwent,Oost Gelre,Gelderland,VBO,6.513732,52.002341
Harreveldseweg,13,,,7136KJ,Zieuwent,Oost Gelre,Gelderland,VBO,6.509858,51.999614
Reindersweg,1,,,7136KJ,Zieuwent,Oost Gelre,Gelderland,VBO,6.503661,52.009465
Reindersweg,3,,,7136KJ,Zieuwent,Oost Gelre,Gelderland,VBO,6.502032,52.009653
Reindersweg,4,a,,7136KJ,Zieuwent,Oost Gelre,Gelderland,VBO,6.498973,52.011901
Reindersweg,4,,,7136KJ,Zieuwent,Oost Gelre,Gelderland,VBO,6.499119,52.011853
Reindersweg,8,a,,7136KJ,Zieuwent,Oost Gelre,Gelderland,VBO,6.497784,52.011091
Reindersweg,8,,,7136KJ,Zieuwent,Oost Gelre,Gelderland,VBO,6.497899,52.010966
Boersweg,1,a,,7136KK,Zieuwent,Oost Gelre,Gelderland,VBO,6.509031,52.009523
Boersweg,1,,,7136KK,Zieuwent,Oost Gelre,Gelderland,VBO,6.509020,52.009605
Boersweg,2,,,7136KK,Zieuwent,Oost Gelre,Gelderland,VBO,6.508679,52.010752
Boersweg,3,a,,7136KK,Zieuwent,Oost Gelre,Gelderland,VBO,6.508398,52.007384
Boersweg,3,,,7136KK,Zieuwent,Oost Gelre,Gelderland,VBO,6.508398,52.007384
Boersweg,4,a,,7136KK,Zieuwent,Oost Gelre,Gelderland,VBO,6.508628,52.009863
Boersweg,4,,,7136KK,Zieuwent,Oost Gelre,Gelderland,VBO,6.508569,52.009938
Boersweg,5,,,7136KK,Zieuwent,Oost Gelre,Gelderland,VBO,6.510116,52.006084
Boersweg,7,,,7136KK,Zieuwent,Oost Gelre,Gelderland,VBO,6.510191,52.006007
Boersweg,8,,,7136KK,Zieuwent,Oost Gelre,Gelderland,VBO,6.505596,52.006978
Boersweg,10,,,7136KK,Zieuwent,Oost Gelre,Gelderland,VBO,6.505488,52.007007
Boersweg,12,,,7136KK,Zieuwent,Oost Gelre,Gelderland,VBO,6.505387,52.007577
Boekelderweg,1,,,7136KL,Zieuwent,Oost Gelre,Gelderland,VBO,6.514841,52.011578
Boekelderweg,2,,,7136KL,Zieuwent,Oost Gelre,Gelderland,VBO,6.516131,52.011600
Boekelderweg,3,,,7136KL,Zieuwent,Oost Gelre,Gelderland,VBO,6.516329,52.012304
Boekelderweg,4,a,,7136KL,Zieuwent,Oost Gelre,Gelderland,VBO,6.520940,52.013551
Boekelderweg,4,,,7136KL,Zieuwent,Oost Gelre,Gelderland,VBO,6.520962,52.013440
Boekelderweg,5,,,7136KL,Zieuwent,Oost Gelre,Gelderland,VBO,6.520889,52.014157
Grobbenweg,1,,,7136KM,Zieuwent,Oost Gelre,Gelderland,VBO,6.513352,52.013723
Grobbenweg,3,a,,7136KM,Zieuwent,Oost Gelre,Gelderland,VBO,6.512612,52.014454
Grobbenweg,3,,,7136KM,Zieuwent,Oost Gelre,Gelderland,VBO,6.512748,52.014398
Grobbenweg,4,,,7136KM,Zieuwent,Oost Gelre,Gelderland,VBO,6.513593,52.014646
Grobbenweg,5,,,7136KM,Zieuwent,Oost Gelre,Gelderland,VBO,6.511976,52.014446
Grobbenweg,6,,,7136KM,Zieuwent,Oost Gelre,Gelderland,VBO,6.512684,52.018810
Grobbenweg,7,a,,7136KM,Zieuwent,Oost Gelre,Gelderland,VBO,6.508553,52.016806
Grobbenweg,7,,,7136KM,Zieuwent,Oost Gelre,Gelderland,VBO,6.509314,52.016704
Grobbenweg,9,,,7136KM,Zieuwent,Oost Gelre,Gelderland,VBO,6.508077,52.016604
Grensweg,4,a,,7136KN,Zieuwent,Oost Gelre,Gelderland,VBO,6.540385,52.023307
Grensweg,4,,,7136KN,Zieuwent,Oost Gelre,Gelderland,VBO,6.540507,52.023350
Grensweg,6,,,7136KN,Zieuwent,Oost Gelre,Gelderland,VBO,6.535463,52.023343
Grensweg,8,,,7136KN,Zieuwent,Oost Gelre,Gelderland,VBO,6.527503,52.023359
Grensweg,17,,,7136KN,Zieuwent,Oost Gelre,Gelderland,VBO,6.534478,52.023031
Grensweg,19,,,7136KN,Zieuwent,Oost Gelre,Gelderland,VBO,6.533906,52.023041
Zegendijk,22,,,7136KN,Zieuwent,Oost Gelre,Gelderland,VBO,6.523227,52.012633
Zegendijk,26,,,7136KN,Zieuwent,Oost Gelre,Gelderland,VBO,6.523022,52.017338
Zegendijk,28,,,7136KN,Zieuwent,Oost Gelre,Gelderland,VBO,6.523234,52.017699
Zegendijk,30,,,7136KN,Zieuwent,Oost Gelre,Gelderland,VBO,6.523594,52.018825
Zegendijk,32,,,7136KN,Zieuwent,Oost Gelre,Gelderland,VBO,6.523757,52.018931
Zegendijk,34,,,7136KN,Zieuwent,Oost Gelre,Gelderland,VBO,6.534113,52.028295
Maatweg,2,,,7136KP,Zieuwent,Oost Gelre,Gelderland,VBO,6.533106,52.017181
Maatweg,4,a,,7136KP,Zieuwent,Oost Gelre,Gelderland,VBO,6.532940,52.018509
Maatweg,4,,,7136KP,Zieuwent,Oost Gelre,Gelderland,VBO,6.532711,52.018317
Maatweg,6,,,7136KP,Zieuwent,Oost Gelre,Gelderland,VBO,6.532078,52.019302
Ottersweg,2,,,7136KR,Zieuwent,Oost Gelre,Gelderland,VBO,6.528883,52.012480
Zegendijk,5,,,7136KR,Zieuwent,Oost Gelre,Gelderland,VBO,6.523468,52.010243
Zegendijk,9,,,7136KR,Zieuwent,Oost Gelre,Gelderland,VBO,6.522447,52.012455
Zegendijk,11,,,7136KR,Zieuwent,Oost Gelre,Gelderland,VBO,6.523566,52.021982
Zegendijk,13,,,7136KR,Zieuwent,Oost Gelre,Gelderland,VBO,6.526650,52.024055
Zegendijk,18,,,7136KR,Zieuwent,Oost Gelre,Gelderland,VBO,6.523988,52.009143
Zegendijk,20,,,7136KR,Zieuwent,Oost Gelre,Gelderland,VBO,6.524480,52.009130
Hellerweg,2,,,7136KS,Zieuwent,Oost Gelre,Gelderland,VBO,6.532974,52.005060
Hellerweg,3,a,,7136KS,Zieuwent,Oost Gelre,Gelderland,VBO,6.537969,52.009387
Hellerweg,3,,,7136KS,Zieuwent,Oost Gelre,Gelderland,VBO,6.538140,52.009299
Hellerweg,4,,,7136KS,Zieuwent,Oost Gelre,Gelderland,VBO,6.534625,52.007995
Hellerweg,5,,,7136KS,Zieuwent,Oost Gelre,Gelderland,VBO,6.540629,52.008750
Hellerweg,8,a,,7136KS,Zieuwent,Oost Gelre,Gelderland,VBO,6.540789,52.008767
Hellerweg,8,,,7136KS,Zieuwent,Oost Gelre,Gelderland,VBO,6.540629,52.008750
Rouwhorsterdijk,13,,,7136KS,Zieuwent,Oost Gelre,Gelderland,VBO,6.529049,52.005860
Rouwhorsterdijk,17,,,7136KS,Zieuwent,Oost Gelre,Gelderland,VBO,6.525035,52.006494
Rouwhorsterdijk,24,,,7136KS,Zieuwent,Oost Gelre,Gelderland,VBO,6.528081,52.007170
Vondermansdijk,6,,,7136KT,Zieuwent,Oost Gelre,Gelderland,VBO,6.548438,52.003965
Vondermansdijk,8,,,7136KT,Zieuwent,Oost Gelre,Gelderland,VBO,6.547620,52.004283
Vondermansdijk,10,,,7136KT,Zieuwent,Oost Gelre,Gelderland,VBO,6.544055,52.001085
Brandersdijk,3,,,7136KV,Zieuwent,Oost Gelre,Gelderland,VBO,6.543394,52.005186
Brandersdijk,5,a,,7136KV,Zieuwent,Oost Gelre,Gelderland,VBO,6.540520,52.005739
Brandersdijk,5,,,7136KV,Zieuwent,Oost Gelre,Gelderland,VBO,6.540110,52.005891
Brandersdijk,6,a,,7136KV,Zieuwent,Oost Gelre,Gelderland,VBO,6.544982,52.006230
Brandersdijk,6,,,7136KV,Zieuwent,Oost Gelre,Gelderland,VBO,6.544761,52.006229
Brandersdijk,10,a,,7136KV,Zieuwent,Oost Gelre,Gelderland,VBO,6.543803,52.008194
Brandersdijk,10,b,,7136KV,Zieuwent,Oost Gelre,Gelderland,VBO,6.543602,52.008089
Brandersdijk,10,c,,7136KV,Zieuwent,Oost Gelre,Gelderland,VBO,6.543917,52.007916
Brandersdijk,10,,,7136KV,Zieuwent,Oost Gelre,Gelderland,VBO,6.543752,52.008121
Brandersdijk,12,,,7136KV,Zieuwent,Oost Gelre,Gelderland,VBO,6.544009,52.009049
Brandersdijk,14,,,7136KV,Zieuwent,Oost Gelre,Gelderland,VBO,6.545767,52.010671
Rouwhorsterdijk,3,a,,7136KW,Zieuwent,Oost Gelre,Gelderland,VBO,6.540526,51.999839
Rouwhorsterdijk,3,,,7136KW,Zieuwent,Oost Gelre,Gelderland,VBO,6.540602,51.999966
Rouwhorsterdijk,7,,,7136KW,Zieuwent,Oost Gelre,Gelderland,VBO,6.536855,52.000702
Rouwhorsterdijk,11,,,7136KW,Zieuwent,Oost Gelre,Gelderland,VBO,6.531197,52.004385
Rouwhorsterdijk,16,a,,7136KW,Zieuwent,Oost Gelre,Gelderland,VBO,6.532838,52.004031
Rouwhorsterdijk,16,,,7136KW,Zieuwent,Oost Gelre,Gelderland,VBO,6.533002,52.003950
Rouwhorsterdijk,18,,,7136KW,Zieuwent,Oost Gelre,Gelderland,VBO,6.532359,52.004265
Rouwhorsterdijk,20,,,7136KW,Zieuwent,Oost Gelre,Gelderland,VBO,6.531963,52.004374
Roldersweg,1,,,7136KX,Zieuwent,Oost Gelre,Gelderland,VBO,6.529015,51.998241
Roldersweg,2,a,,7136KX,Zieuwent,Oost Gelre,Gelderland,VBO,6.528238,51.996774
Roldersweg,2,,,7136KX,Zieuwent,Oost Gelre,Gelderland,VBO,6.528195,51.996720
Roldersweg,3,a,,7136KX,Zieuwent,Oost Gelre,Gelderland,VBO,6.531395,51.998681
Roldersweg,3,,,7136KX,Zieuwent,Oost Gelre,Gelderland,VBO,6.531437,51.998617
Roldersweg,4,a,,7136KX,Zieuwent,Oost Gelre,Gelderland,VBO,6.533087,51.999208
Roldersweg,4,,,7136KX,Zieuwent,Oost Gelre,Gelderland,VBO,6.533100,51.999243
Roldersweg,9,,,7136KX,Zieuwent,Oost Gelre,Gelderland,VBO,6.532377,52.001054
Roldersweg,11,a,,7136KX,Zieuwent,Oost Gelre,Gelderland,VBO,6.531553,52.001050
Roldersweg,11,,,7136KX,Zieuwent,Oost Gelre,Gelderland,VBO,6.531806,52.001034
Roldersweg,13,a,,7136KX,Zieuwent,Oost Gelre,Gelderland,VBO,6.530201,52.001635
Roldersweg,13,,,7136KX,Zieuwent,Oost Gelre,Gelderland,VBO,6.530329,52.001636
Roldersweg,15,a,,7136KX,Zieuwent,Oost Gelre,Gelderland,VBO,6.531483,52.002077
Roldersweg,15,,,7136KX,Zieuwent,Oost Gelre,Gelderland,VBO,6.531653,52.002069
Roldersweg,17,a,,7136KX,Zieuwent,Oost Gelre,Gelderland,VBO,6.534131,52.001192
Roldersweg,17,,,7136KX,Zieuwent,Oost Gelre,Gelderland,VBO,6.534211,52.001240
Japikweg,3,a,,7136KZ,Zieuwent,Oost Gelre,Gelderland,VBO,6.542827,51.995113
Japikweg,3,,,7136KZ,Zieuwent,Oost Gelre,Gelderland,VBO,6.542651,51.994384
Japikweg,5,a,,7136KZ,Zieuwent,Oost Gelre,Gelderland,VBO,6.542402,51.995808
Japikweg,5,,,7136KZ,Zieuwent,Oost Gelre,Gelderland,VBO,6.542307,51.995809
Japikweg,7,,,7136KZ,Zieuwent,Oost Gelre,Gelderland,VBO,6.543144,51.997157
Japikweg,9,,,7136KZ,Zieuwent,Oost Gelre,Gelderland,VBO,6.543492,51.999369
Japikweg,11,,,7136KZ,Zieuwent,Oost Gelre,Gelderland,VBO,6.543438,51.999480
Zieuwentseweg,43,,,7136LA,Zieuwent,Oost Gelre,Gelderland,VBO,6.542414,51.992290
Zieuwentseweg,45,a,,7136LA,Zieuwent,Oost Gelre,Gelderland,VBO,6.540243,51.992559
Zieuwentseweg,45,,,7136LA,Zieuwent,Oost Gelre,Gelderland,VBO,6.540343,51.992546
Zieuwentseweg,47,a,,7136LA,Zieuwent,Oost Gelre,Gelderland,VBO,6.538675,51.992719
Zieuwentseweg,47,,,7136LA,Zieuwent,Oost Gelre,Gelderland,VBO,6.539654,51.992705
Zieuwentseweg,49,,,7136LA,Zieuwent,Oost Gelre,Gelderland,VBO,6.537786,51.993006
Zieuwentseweg,51,,,7136LA,Zieuwent,Oost Gelre,Gelderland,VBO,6.535638,51.993295
Zieuwentseweg,53,a,,7136LA,Zieuwent,Oost Gelre,Gelderland,VBO,6.533249,51.993133
Zieuwentseweg,53,,,7136LA,Zieuwent,Oost Gelre,Gelderland,VBO,6.532701,51.993091
Zieuwentseweg,55,,,7136LA,Zieuwent,Oost Gelre,Gelderland,VBO,6.531316,51.994741
Zieuwentseweg,57,a,,7136LA,Zieuwent,Oost Gelre,Gelderland,VBO,6.529966,51.995712
Zieuwentseweg,57,,,7136LA,Zieuwent,Oost Gelre,Gelderland,VBO,6.529976,51.995797
Zieuwentseweg,59,a,,7136LA,Zieuwent,Oost Gelre,Gelderland,VBO,6.527399,51.996243
Zieuwentseweg,59,b,,7136LA,Zieuwent,Oost Gelre,Gelderland,VBO,6.527107,51.996314
Zieuwentseweg,59,,,7136LA,Zieuwent,Oost Gelre,Gelderland,VBO,6.528005,51.996155
Zieuwentseweg,61,,,7136LB,Zieuwent,Oost Gelre,Gelderland,VBO,6.526724,51.996524
Zieuwentseweg,63,,,7136LB,Zieuwent,Oost Gelre,Gelderland,VBO,6.526613,51.996622
Zieuwentseweg,65,a,,7136LB,Zieuwent,Oost Gelre,Gelderland,VBO,6.523658,51.997652
Zieuwentseweg,67,a,,7136LB,Zieuwent,Oost Gelre,Gelderland,VBO,6.523202,51.997665
Zieuwentseweg,67,,,7136LB,Zieuwent,Oost Gelre,Gelderland,VBO,6.523267,51.997958
Zieuwentseweg,69,a,,7136LB,Zieuwent,Oost Gelre,Gelderland,VBO,6.522687,51.998492
Zieuwentseweg,69,,,7136LB,Zieuwent,Oost Gelre,Gelderland,VBO,6.522802,51.998434
Zieuwentseweg,71,a,,7136LB,Zieuwent,Oost Gelre,Gelderland,VBO,6.522065,51.998973
Zieuwentseweg,71,,,7136LB,Zieuwent,Oost Gelre,Gelderland,VBO,6.522595,51.998565
Zieuwentseweg,73,b,,7136LB,Zieuwent,Oost Gelre,Gelderland,VBO,6.521598,51.999456
Zieuwentseweg,73,,,7136LB,Zieuwent,Oost Gelre,Gelderland,VBO,6.521814,51.999227
Zieuwentseweg,75,,,7136LB,Zieuwent,Oost Gelre,Gelderland,VBO,6.521645,51.999548
Zieuwentseweg,77,,,7136LB,Zieuwent,Oost Gelre,Gelderland,VBO,6.521528,51.999868
Zieuwentseweg,32,a,,7136LC,Zieuwent,Oost Gelre,Gelderland,VBO,6.541681,51.992855
Zieuwentseweg,32,,,7136LC,Zieuwent,Oost Gelre,Gelderland,VBO,6.541479,51.992809
Zieuwentseweg,34,a,,7136LC,Zieuwent,Oost Gelre,Gelderland,VBO,6.537889,51.993392
Zieuwentseweg,34,,,7136LC,Zieuwent,Oost Gelre,Gelderland,VBO,6.537864,51.993329
Zieuwentseweg,36,,,7136LC,Zieuwent,Oost Gelre,Gelderland,VBO,6.536674,51.993545
Zieuwentseweg,38,a,,7136LC,Zieuwent,Oost Gelre,Gelderland,VBO,6.534360,51.993971
Zieuwentseweg,38,,,7136LC,Zieuwent,Oost Gelre,Gelderland,VBO,6.534133,51.993950
Zieuwentseweg,40,,,7136LC,Zieuwent,Oost Gelre,Gelderland,VBO,6.532318,51.994667
Zieuwentseweg,42,,,7136LC,Zieuwent,Oost Gelre,Gelderland,VBO,6.529316,51.996233
Zieuwentseweg,44,a,,7136LC,Zieuwent,Oost Gelre,Gelderland,VBO,6.529184,51.996253
Zieuwentseweg,44,,,7136LC,Zieuwent,Oost Gelre,Gelderland,VBO,6.529103,51.996403
Zieuwentseweg,46,,,7136LC,Zieuwent,Oost Gelre,Gelderland,VBO,6.528497,51.996412
Zieuwentseweg,48,a,,7136LC,Zieuwent,Oost Gelre,Gelderland,VBO,6.527537,51.997339
Zieuwentseweg,48,,,7136LC,Zieuwent,Oost Gelre,Gelderland,VBO,6.527685,51.997284
Zieuwentseweg,50,a,,7136LC,Zieuwent,Oost Gelre,Gelderland,VBO,6.526891,51.997096
Zieuwentseweg,50,,,7136LC,Zieuwent,Oost Gelre,Gelderland,VBO,6.526838,51.997188
Zieuwentseweg,52,,,7136LC,Zieuwent,Oost Gelre,Gelderland,VBO,6.523593,51.998257
Zieuwentseweg,54,,,7136LC,Zieuwent,Oost Gelre,Gelderland,VBO,6.522938,51.998927
Zieuwentseweg,56,,,7136LC,Zieuwent,Oost Gelre,Gelderland,VBO,6.523252,51.999191
Zieuwentseweg,58,,,7136LC,Zieuwent,Oost Gelre,Gelderland,VBO,6.522051,52.000239
Kevelderstraat,1,a,,7136LD,Zieuwent,Oost Gelre,Gelderland,VBO,6.528142,51.994968
Kevelderstraat,1,,,7136LD,Zieuwent,Oost Gelre,Gelderland,VBO,6.528083,51.994910
Kevelderstraat,2,,,7136LD,Zieuwent,Oost Gelre,Gelderland,VBO,6.527336,51.995877
Dorpsstraat,1,a,,7136LE,Zieuwent,Oost Gelre,Gelderland,VBO,6.521270,52.000642
Dorpsstraat,1,,,7136LE,Zieuwent,Oost Gelre,Gelderland,VBO,6.521309,52.000415
Dorpsstraat,3,,,7136LE,Zieuwent,Oost Gelre,Gelderland,VBO,6.521348,52.000776
Dorpsstraat,7,,,7136LE,Zieuwent,Oost Gelre,Gelderland,VBO,6.521260,52.000911
Dorpsstraat,9,,,7136LE,Zieuwent,Oost Gelre,Gelderland,VBO,6.521224,52.001032
Dorpsstraat,11,,,7136LE,Zieuwent,Oost Gelre,Gelderland,VBO,6.521150,52.001196
Dorpsstraat,13,a,,7136LE,Zieuwent,Oost Gelre,Gelderland,VBO,6.521050,52.001361
Dorpsstraat,13,,,7136LE,Zieuwent,Oost Gelre,Gelderland,VBO,6.521125,52.001324
Dorpsstraat,15,,,7136LE,Zieuwent,Oost Gelre,Gelderland,VBO,6.521105,52.001481
Dorpsstraat,17,a,,7136LE,Zieuwent,Oost Gelre,Gelderland,VBO,6.520937,52.001748
Dorpsstraat,17,,,7136LE,Zieuwent,Oost Gelre,Gelderland,VBO,6.521052,52.001603
Dorpsstraat,19,,,7136LE,Zieuwent,Oost Gelre,Gelderland,VBO,6.520900,52.001793
Dorpsstraat,21,a,,7136LE,Zieuwent,Oost Gelre,Gelderland,VBO,6.520836,52.001916
Dorpsstraat,21,,,7136LE,Zieuwent,Oost Gelre,Gelderland,VBO,6.520784,52.001905
Dorpsstraat,23,,,7136LE,Zieuwent,Oost Gelre,Gelderland,VBO,6.520669,52.002084
Dorpsstraat,25,,,7136LE,Zieuwent,Oost Gelre,Gelderland,VBO,6.520537,52.002213
Dorpsstraat,27,a,,7136LE,Zieuwent,Oost Gelre,Gelderland,VBO,6.520354,52.002382
Dorpsstraat,27,,,7136LE,Zieuwent,Oost Gelre,Gelderland,VBO,6.519641,52.001815
Dorpsstraat,29,,,7136LE,Zieuwent,Oost Gelre,Gelderland,VBO,6.520234,52.002476
Dorpsstraat,31,a,,7136LE,Zieuwent,Oost Gelre,Gelderland,VBO,6.520079,52.002583
Dorpsstraat,31,,,7136LE,Zieuwent,Oost Gelre,Gelderland,VBO,6.520109,52.002594
Dorpsstraat,33,,,7136LE,Zieuwent,Oost Gelre,Gelderland,VBO,6.519912,52.002788
Dorpsstraat,35,a,,7136LE,Zieuwent,Oost Gelre,Gelderland,VBO,6.519731,52.002875
Dorpsstraat,35,,,7136LE,Zieuwent,Oost Gelre,Gelderland,VBO,6.519804,52.002898
Dorpsstraat,37,a,,7136LE,Zieuwent,Oost Gelre,Gelderland,VBO,6.519593,52.003021
Dorpsstraat,37,,,7136LE,Zieuwent,Oost Gelre,Gelderland,VBO,6.519650,52.003044
Dorpsstraat,39,a,,7136LE,Zieuwent,Oost Gelre,Gelderland,VBO,6.519324,52.003262
Dorpsstraat,39,,,7136LE,Zieuwent,Oost Gelre,Gelderland,VBO,6.519389,52.003211
Dorpsstraat,41,,,7136LG,Zieuwent,Oost Gelre,Gelderland,VBO,6.519077,52.003480
Dorpsstraat,43,,,7136LG,Zieuwent,Oost Gelre,Gelderland,VBO,6.518860,52.003670
Dorpsstraat,47,,01,7136LG,Zieuwent,Oost Gelre,Gelderland,VBO,6.519107,52.003899
Dorpsstraat,47,,02,7136LG,Zieuwent,Oost Gelre,Gelderland,VBO,6.519075,52.003982
Dorpsstraat,47,,03,7136LG,Zieuwent,Oost Gelre,Gelderland,VBO,6.519088,52.003896
Dorpsstraat,47,,04,7136LG,Zieuwent,Oost Gelre,Gelderland,VBO,6.519057,52.003979
Dorpsstraat,49,a,,7136LG,Zieuwent,Oost Gelre,Gelderland,VBO,6.519328,52.004483
Dorpsstraat,49,,,7136LG,Zieuwent,Oost Gelre,Gelderland,VBO,6.519022,52.004289
Dorpsstraat,51,a,,7136LG,Zieuwent,Oost Gelre,Gelderland,VBO,6.519342,52.004592
Dorpsstraat,51,,,7136LG,Zieuwent,Oost Gelre,Gelderland,VBO,6.519386,52.004595
Dorpsstraat,53,,,7136LH,Zieuwent,Oost Gelre,Gelderland,VBO,6.519322,52.004824
Dorpsstraat,55,,,7136LH,Zieuwent,Oost Gelre,Gelderland,VBO,6.519319,52.004892
Dorpsstraat,57,,,7136LH,Zieuwent,Oost Gelre,Gelderland,VBO,6.519303,52.005017
Dorpsstraat,59,,,7136LH,Zieuwent,Oost Gelre,Gelderland,VBO,6.519289,52.005152
Dorpsstraat,61,,,7136LH,Zieuwent,Oost Gelre,Gelderland,VBO,6.519291,52.005376
Dorpsstraat,63,,,7136LH,Zieuwent,Oost Gelre,Gelderland,VBO,6.519247,52.005596
Dorpsstraat,65,,,7136LH,Zieuwent,Oost Gelre,Gelderland,VBO,6.519268,52.005768
Dorpsstraat,67,,,7136LH,Zieuwent,Oost Gelre,Gelderland,VBO,6.519261,52.005857
Dorpsstraat,69,,,7136LH,Zieuwent,Oost Gelre,Gelderland,VBO,6.519226,52.005969
Dorpsstraat,75,,,7136LJ,Zieuwent,Oost Gelre,Gelderland,VBO,6.519162,52.006235
Dorpsstraat,77,a,,7136LJ,Zieuwent,Oost Gelre,Gelderland,VBO,6.518992,52.006384
Dorpsstraat,77,,,7136LJ,Zieuwent,Oost Gelre,Gelderland,VBO,6.518889,52.006363
Dorpsstraat,79,,,7136LJ,Zieuwent,Oost Gelre,Gelderland,VBO,6.519073,52.006530
Dorpsstraat,81,a,,7136LJ,Zieuwent,Oost Gelre,Gelderland,VBO,6.518874,52.006624
Dorpsstraat,81,,,7136LJ,Zieuwent,Oost Gelre,Gelderland,VBO,6.518899,52.006594
Dorpsstraat,83,a,,7136LJ,Zieuwent,Oost Gelre,Gelderland,VBO,6.518879,52.006849
Dorpsstraat,83,,,7136LJ,Zieuwent,Oost Gelre,Gelderland,VBO,6.518917,52.006783
Dorpsstraat,85,,,7136LJ,Zieuwent,Oost Gelre,Gelderland,VBO,6.518781,52.006961
Dorpsstraat,87,,,7136LJ,Zieuwent,Oost Gelre,Gelderland,VBO,6.518482,52.007173
Dorpsstraat,89,,,7136LJ,Zieuwent,Oost Gelre,Gelderland,VBO,6.518278,52.007383
Dorpsstraat,91,,,7136LJ,Zieuwent,Oost Gelre,Gelderland,VBO,6.518085,52.007529
Dorpsstraat,93,,,7136LJ,Zieuwent,Oost Gelre,Gelderland,VBO,6.517765,52.007723
Dorpsstraat,95,,,7136LJ,Zieuwent,Oost Gelre,Gelderland,VBO,6.517604,52.007834
Dorpsstraat,97,,,7136LJ,Zieuwent,Oost Gelre,Gelderland,VBO,6.517458,52.007921
Dorpsstraat,99,,,7136LJ,Zieuwent,Oost Gelre,Gelderland,VBO,6.517395,52.007968
Dorpsstraat,101,,,7136LJ,Zieuwent,Oost Gelre,Gelderland,VBO,6.517200,52.008058
Dorpsstraat,103,a,,7136LJ,Zieuwent,Oost Gelre,Gelderland,VBO,6.517052,52.008186
Dorpsstraat,103,,,7136LJ,Zieuwent,Oost Gelre,Gelderland,VBO,6.516643,52.008322
Dorpsstraat,105,,,7136LJ,Zieuwent,Oost Gelre,Gelderland,VBO,6.516310,52.008542
Dorpsstraat,2,a,,7136LK,Zieuwent,Oost Gelre,Gelderland,VBO,6.521706,52.001019
Dorpsstraat,2,b,,7136LK,Zieuwent,Oost Gelre,Gelderland,VBO,6.521686,52.001079
Dorpsstraat,2,c,,7136LK,Zieuwent,Oost Gelre,Gelderland,VBO,6.521636,52.001206
Dorpsstraat,2,d,,7136LK,Zieuwent,Oost Gelre,Gelderland,VBO,6.521617,52.001262
Dorpsstraat,2,,,7136LK,Zieuwent,Oost Gelre,Gelderland,VBO,6.521763,52.000843
Dorpsstraat,4,,,7136LK,Zieuwent,Oost Gelre,Gelderland,VBO,6.521714,52.001412
Dorpsstraat,6,,,7136LK,Zieuwent,Oost Gelre,Gelderland,VBO,6.523179,52.001819
Dorpsstraat,8,,,7136LK,Zieuwent,Oost Gelre,Gelderland,VBO,6.521506,52.001591
Dorpsstraat,10,,,7136LK,Zieuwent,Oost Gelre,Gelderland,VBO,6.521466,52.001692
Dorpsstraat,12,a,,7136LK,Zieuwent,Oost Gelre,Gelderland,VBO,6.521353,52.001904
Dorpsstraat,12,,,7136LK,Zieuwent,Oost Gelre,Gelderland,VBO,6.521410,52.001794
Dorpsstraat,14,a,,7136LK,Zieuwent,Oost Gelre,Gelderland,VBO,6.521140,52.002189
Dorpsstraat,14,,,7136LK,Zieuwent,Oost Gelre,Gelderland,VBO,6.521317,52.002073
Dorpsstraat,16,a,,7136LK,Zieuwent,Oost Gelre,Gelderland,VBO,6.521014,52.002347
Dorpsstraat,16,,,7136LK,Zieuwent,Oost Gelre,Gelderland,VBO,6.521051,52.002284
Dorpsstraat,20,a,,7136LL,Zieuwent,Oost Gelre,Gelderland,VBO,6.520648,52.002613
Dorpsstraat,20,b,,7136LL,Zieuwent,Oost Gelre,Gelderland,VBO,6.520544,52.002716
Dorpsstraat,20,,,7136LL,Zieuwent,Oost Gelre,Gelderland,VBO,6.520701,52.002565
Dorpsstraat,22,a,,7136LL,Zieuwent,Oost Gelre,Gelderland,VBO,6.520387,52.002864
Dorpsstraat,22,b,,7136LL,Zieuwent,Oost Gelre,Gelderland,VBO,6.520341,52.002922
Dorpsstraat,22,,,7136LL,Zieuwent,Oost Gelre,Gelderland,VBO,6.520490,52.002765
Dorpsstraat,24,a,,7136LL,Zieuwent,Oost Gelre,Gelderland,VBO,6.520168,52.003066
Dorpsstraat,24,b,,7136LL,Zieuwent,Oost Gelre,Gelderland,VBO,6.520056,52.003172
Dorpsstraat,24,,,7136LL,Zieuwent,Oost Gelre,Gelderland,VBO,6.520237,52.003019
Dorpsstraat,28,a,,7136LL,Zieuwent,Oost Gelre,Gelderland,VBO,6.521051,52.003224
Dorpsstraat,28,,,7136LL,Zieuwent,Oost Gelre,Gelderland,VBO,6.520889,52.003241
Dorpsstraat,30,a,,7136LL,Zieuwent,Oost Gelre,Gelderland,VBO,6.520621,52.003437
Dorpsstraat,30,,,7136LL,Zieuwent,Oost Gelre,Gelderland,VBO,6.520482,52.003429
Dorpsstraat,32,,,7136LM,Zieuwent,Oost Gelre,Gelderland,VBO,6.519755,52.004530
Dorpsstraat,34,,,7136LM,Zieuwent,Oost Gelre,Gelderland,VBO,6.519796,52.004817
Dorpsstraat,36,a,,7136LM,Zieuwent,Oost Gelre,Gelderland,VBO,6.519671,52.005268
Dorpsstraat,36,b,,7136LM,Zieuwent,Oost Gelre,Gelderland,VBO,6.519660,52.005327
Dorpsstraat,36,c,,7136LM,Zieuwent,Oost Gelre,Gelderland,VBO,6.519650,52.005394
Dorpsstraat,36,d,,7136LM,Zieuwent,Oost Gelre,Gelderland,VBO,6.519645,52.005458
Dorpsstraat,36,e,,7136LM,Zieuwent,Oost Gelre,Gelderland,VBO,6.519654,52.005515
Dorpsstraat,36,,,7136LM,Zieuwent,Oost Gelre,Gelderland,VBO,6.519598,52.005172
Dorpsstraat,38,a,,7136LM,Zieuwent,Oost Gelre,Gelderland,VBO,6.520063,52.005514
Dorpsstraat,38,b,,7136LM,Zieuwent,Oost Gelre,Gelderland,VBO,6.520249,52.005518
Dorpsstraat,38,c,,7136LM,Zieuwent,Oost Gelre,Gelderland,VBO,6.520340,52.005711
Dorpsstraat,38,d,,7136LM,Zieuwent,Oost Gelre,Gelderland,VBO,6.520188,52.005715
Dorpsstraat,38,e,,7136LM,Zieuwent,Oost Gelre,Gelderland,VBO,6.520068,52.005693
Dorpsstraat,38,,,7136LM,Zieuwent,Oost Gelre,Gelderland,VBO,6.519925,52.005508
Dorpsstraat,40,,,7136LM,Zieuwent,Oost Gelre,Gelderland,VBO,6.519659,52.005738
Dorpsstraat,42,a,,7136LM,Zieuwent,Oost Gelre,Gelderland,VBO,6.519776,52.005911
Dorpsstraat,42,,,7136LM,Zieuwent,Oost Gelre,Gelderland,VBO,6.519690,52.005861
Dorpsstraat,46,,,7136LN,Zieuwent,Oost Gelre,Gelderland,VBO,6.519392,52.006841
Dorpsstraat,48,,,7136LN,Zieuwent,Oost Gelre,Gelderland,VBO,6.519271,52.007054
Dorpsstraat,52,,,7136LN,Zieuwent,Oost Gelre,Gelderland,VBO,6.518896,52.007405
Dorpsstraat,54,,,7136LN,Zieuwent,Oost Gelre,Gelderland,VBO,6.518746,52.007475
Dorpsstraat,56,,,7136LN,Zieuwent,Oost Gelre,Gelderland,VBO,6.518620,52.007571
Dorpsstraat,58,,,7136LN,Zieuwent,Oost Gelre,Gelderland,VBO,6.518556,52.007612
Dorpsstraat,60,,,7136LN,Zieuwent,Oost Gelre,Gelderland,VBO,6.518428,52.007702
Dorpsstraat,62,,,7136LN,Zieuwent,Oost Gelre,Gelderland,VBO,6.518291,52.007798
Dorpsstraat,64,,,7136LN,Zieuwent,Oost Gelre,Gelderland,VBO,6.518213,52.007849
Dorpsstraat,66,,,7136LN,Zieuwent,Oost Gelre,Gelderland,VBO,6.518387,52.008409
Dorpsstraat,68,,,7136LN,Zieuwent,Oost Gelre,Gelderland,VBO,6.517503,52.008311
Kleuterstraat,1,,,7136LP,Zieuwent,Oost Gelre,Gelderland,VBO,6.521007,52.002679
Kleuterstraat,2,,,7136LP,Zieuwent,Oost Gelre,Gelderland,VBO,6.521356,52.002414
Kleuterstraat,3,,,7136LP,Zieuwent,Oost Gelre,Gelderland,VBO,6.521172,52.002792
Kleuterstraat,4,,,7136LP,Zieuwent,Oost Gelre,Gelderland,VBO,6.521580,52.002597
Kleuterstraat,5,,,7136LP,Zieuwent,Oost Gelre,Gelderland,VBO,6.521282,52.002912
Kleuterstraat,7,,,7136LP,Zieuwent,Oost Gelre,Gelderland,VBO,6.521375,52.002966
Kleuterstraat,8,,,7136LP,Zieuwent,Oost Gelre,Gelderland,VBO,6.521822,52.002736
Kleuterstraat,9,,,7136LP,Zieuwent,Oost Gelre,Gelderland,VBO,6.521547,52.003020
Kleuterstraat,10,,,7136LP,Zieuwent,Oost Gelre,Gelderland,VBO,6.522064,52.002748
Kleuterstraat,11,,,7136LP,Zieuwent,Oost Gelre,Gelderland,VBO,6.521633,52.003023
Kleuterstraat,12,,,7136LP,Zieuwent,Oost Gelre,Gelderland,VBO,6.522180,52.002754
Kleuterstraat,13,,,7136LP,Zieuwent,Oost Gelre,Gelderland,VBO,6.521810,52.003024
Kleuterstraat,14,,,7136LP,Zieuwent,Oost Gelre,Gelderland,VBO,6.522315,52.002767
Kleuterstraat,15,,,7136LP,Zieuwent,Oost Gelre,Gelderland,VBO,6.521891,52.003028
Kleuterstraat,16,,,7136LP,Zieuwent,Oost Gelre,Gelderland,VBO,6.522421,52.002777
Kleuterstraat,17,,,7136LP,Zieuwent,Oost Gelre,Gelderland,VBO,6.522075,52.003019
Kleuterstraat,19,,,7136LP,Zieuwent,Oost Gelre,Gelderland,VBO,6.522156,52.003028
Kleuterstraat,20,,,7136LP,Zieuwent,Oost Gelre,Gelderland,VBO,6.522477,52.003116
Kleuterstraat,21,,,7136LP,Zieuwent,Oost Gelre,Gelderland,VBO,6.521745,52.003278
Kleuterstraat,22,,,7136LP,Zieuwent,Oost Gelre,Gelderland,VBO,6.522259,52.003371
Kleuterstraat,23,,,7136LP,Zieuwent,Oost Gelre,Gelderland,VBO,6.521738,52.003322
Kleuterstraat,24,,,7136LP,Zieuwent,Oost Gelre,Gelderland,VBO,6.522253,52.003421
Kleuterstraat,25,,,7136LP,Zieuwent,Oost Gelre,Gelderland,VBO,6.521728,52.003376
Kleuterstraat,26,,,7136LP,Zieuwent,Oost Gelre,Gelderland,VBO,6.522210,52.003471
Kleuterstraat,27,,,7136LP,Zieuwent,Oost Gelre,Gelderland,VBO,6.521715,52.003456
Kleuterstraat,28,,,7136LP,Zieuwent,Oost Gelre,Gelderland,VBO,6.522201,52.003525
Kleuterstraat,29,,,7136LP,Zieuwent,Oost Gelre,Gelderland,VBO,6.521706,52.003510
Kleuterstraat,30,,,7136LP,Zieuwent,Oost Gelre,Gelderland,VBO,6.522195,52.003579
Kleuterstraat,31,,,7136LP,Zieuwent,Oost Gelre,Gelderland,VBO,6.521700,52.003554
Kleuterstraat,32,,,7136LP,Zieuwent,Oost Gelre,Gelderland,VBO,6.522153,52.003684
Kleuterstraat,33,,,7136LP,Zieuwent,Oost Gelre,Gelderland,VBO,6.521730,52.003645
Kleuterstraat,34,,,7136LP,Zieuwent,Oost Gelre,Gelderland,VBO,6.522131,52.003737
Kleuterstraat,35,,,7136LP,Zieuwent,Oost Gelre,Gelderland,VBO,6.521722,52.003694
Kleuterstraat,36,,,7136LP,Zieuwent,Oost Gelre,Gelderland,VBO,6.522112,52.003845
Kleuterstraat,37,,,7136LP,Zieuwent,Oost Gelre,Gelderland,VBO,6.521715,52.003742
Kleuterstraat,38,,,7136LP,Zieuwent,Oost Gelre,Gelderland,VBO,6.522103,52.003899
Kleuterstraat,39,,,7136LP,Zieuwent,Oost Gelre,Gelderland,VBO,6.521707,52.003791
Pastoor Zanderinkstraat,2,a,,7136LR,Zieuwent,Oost Gelre,Gelderland,VBO,6.520693,52.003708
Pastoor Zanderinkstraat,2,,,7136LR,Zieuwent,Oost Gelre,Gelderland,VBO,6.520662,52.003634
Pastoor Zanderinkstraat,3,,,7136LR,Zieuwent,Oost Gelre,Gelderland,VBO,6.520144,52.004698
Pastoor Zanderinkstraat,4,,,7136LR,Zieuwent,Oost Gelre,Gelderland,VBO,6.520824,52.003785
Pastoor Zanderinkstraat,6,,,7136LR,Zieuwent,Oost Gelre,Gelderland,VBO,6.520946,52.003870
Pastoor Zanderinkstraat,8,,,7136LR,Zieuwent,Oost Gelre,Gelderland,VBO,6.521016,52.003909
Pastoor Zanderinkstraat,10,,,7136LR,Zieuwent,Oost Gelre,Gelderland,VBO,6.521391,52.003929
Pastoor Zanderinkstraat,12,a,,7136LR,Zieuwent,Oost Gelre,Gelderland,VBO,6.523662,52.004077
Pastoor Zanderinkstraat,12,,,7136LR,Zieuwent,Oost Gelre,Gelderland,VBO,6.523708,52.003998
Pastoor Zanderinkstraat,14,,,7136LR,Zieuwent,Oost Gelre,Gelderland,VBO,6.521090,52.004377
Pastoor Zanderinkstraat,16,,,7136LR,Zieuwent,Oost Gelre,Gelderland,VBO,6.520985,52.004475
Pastoor Zanderinkstraat,18,,,7136LR,Zieuwent,Oost Gelre,Gelderland,VBO,6.520934,52.004523
Pastoor Zanderinkstraat,20,,,7136LR,Zieuwent,Oost Gelre,Gelderland,VBO,6.520836,52.004618
Pastoor Zanderinkstraat,22,,,7136LR,Zieuwent,Oost Gelre,Gelderland,VBO,6.520786,52.004667
Pastoor Zanderinkstraat,24,,,7136LR,Zieuwent,Oost Gelre,Gelderland,VBO,6.520669,52.004762
Pastoor Zanderinkstraat,26,,,7136LR,Zieuwent,Oost Gelre,Gelderland,VBO,6.520564,52.004862
Pastoor Zanderinkstraat,28,a,,7136LR,Zieuwent,Oost Gelre,Gelderland,VBO,6.520640,52.005026
Pastoor Zanderinkstraat,28,,,7136LR,Zieuwent,Oost Gelre,Gelderland,VBO,6.520434,52.004981
Pastoor Zanderinkstraat,30,,,7136LR,Zieuwent,Oost Gelre,Gelderland,VBO,6.520096,52.005194
Pastoor Zanderinkstraat,32,,,7136LR,Zieuwent,Oost Gelre,Gelderland,VBO,6.519779,52.005189
Pastoor Zanderinkstraat,34,a,,7136LR,Zieuwent,Oost Gelre,Gelderland,VBO,6.519648,52.005201
Pastoor Zanderinkstraat,34,,,7136LR,Zieuwent,Oost Gelre,Gelderland,VBO,6.519646,52.005137
Zegendijk,1,a,,7136LS,Zieuwent,Oost Gelre,Gelderland,VBO,6.519734,52.006822
Zegendijk,1,b,,7136LS,Zieuwent,Oost Gelre,Gelderland,VBO,6.519998,52.007071
Zegendijk,1,,,7136LS,Zieuwent,Oost Gelre,Gelderland,VBO,6.519486,52.006612
Zegendijk,2,,,7136LS,Zieuwent,Oost Gelre,Gelderland,VBO,6.519687,52.006384
Zegendijk,3,a,,7136LS,Zieuwent,Oost Gelre,Gelderland,VBO,6.521160,52.007888
Zegendijk,3,b,,7136LS,Zieuwent,Oost Gelre,Gelderland,VBO,6.521748,52.008096
Zegendijk,3,,,7136LS,Zieuwent,Oost Gelre,Gelderland,VBO,6.520555,52.007543
Zegendijk,4,,,7136LS,Zieuwent,Oost Gelre,Gelderland,VBO,6.519971,52.006547
Zegendijk,6,,,7136LS,Zieuwent,Oost Gelre,Gelderland,VBO,6.520132,52.006651
Zegendijk,8,a,,7136LS,Zieuwent,Oost Gelre,Gelderland,VBO,6.520674,52.006976
Zegendijk,8,,,7136LS,Zieuwent,Oost Gelre,Gelderland,VBO,6.520264,52.006767
Zegendijk,10,,,7136LS,Zieuwent,Oost Gelre,Gelderland,VBO,6.520878,52.007082
Zegendijk,12,,,7136LS,Zieuwent,Oost Gelre,Gelderland,VBO,6.521089,52.007177
Zegendijk,14,,,7136LS,Zieuwent,Oost Gelre,Gelderland,VBO,6.521263,52.007251
Zegendijk,16,a,,7136LS,Zieuwent,Oost Gelre,Gelderland,VBO,6.521708,52.007413
Zegendijk,16,b,,7136LS,Zieuwent,Oost Gelre,Gelderland,VBO,6.521978,52.007491
Zegendijk,16,c,,7136LS,Zieuwent,Oost Gelre,Gelderland,VBO,6.522314,52.007556
Zegendijk,16,d,,7136LS,Zieuwent,Oost Gelre,Gelderland,VBO,6.522208,52.007610
Zegendijk,16,e,,7136LS,Zieuwent,Oost Gelre,Gelderland,VBO,6.522294,52.007634
Zegendijk,16,f,,7136LS,Zieuwent,Oost Gelre,Gelderland,VBO,6.522332,52.007536
Zegendijk,16,g,,7136LS,Zieuwent,Oost Gelre,Gelderland,VBO,6.522227,52.007591
Zegendijk,16,h,,7136LS,Zieuwent,Oost Gelre,Gelderland,VBO,6.522314,52.007613
Zegendijk,16,k,,7136LS,Zieuwent,Oost Gelre,Gelderland,VBO,6.522593,52.007670
Zegendijk,16,,,7136LS,Zieuwent,Oost Gelre,Gelderland,VBO,6.521503,52.007328
de Waareise,1,,,7136LT,Zieuwent,Oost Gelre,Gelderland,VBO,6.519744,52.007317
de Waareise,3,,,7136LT,Zieuwent,Oost Gelre,Gelderland,VBO,6.519691,52.007360
de Waareise,5,,,7136LT,Zieuwent,Oost Gelre,Gelderland,VBO,6.519627,52.007406
de Waareise,7,,,7136LT,Zieuwent,Oost Gelre,Gelderland,VBO,6.519569,52.007447
de Waareise,9,,,7136LT,Zieuwent,Oost Gelre,Gelderland,VBO,6.519418,52.007516
de Waareise,11,,,7136LT,Zieuwent,Oost Gelre,Gelderland,VBO,6.519358,52.007559
de Waareise,13,,,7136LT,Zieuwent,Oost Gelre,Gelderland,VBO,6.519299,52.007601
de Waareise,15,,,7136LT,Zieuwent,Oost Gelre,Gelderland,VBO,6.519240,52.007644
de Waareise,17,,,7136LT,Zieuwent,Oost Gelre,Gelderland,VBO,6.519122,52.007728
de Waareise,19,,,7136LT,Zieuwent,Oost Gelre,Gelderland,VBO,6.519062,52.007771
de Waareise,21,,,7136LT,Zieuwent,Oost Gelre,Gelderland,VBO,6.519003,52.007813
de Waareise,23,,,7136LT,Zieuwent,Oost Gelre,Gelderland,VBO,6.518920,52.007858
de Waareise,25,,,7136LT,Zieuwent,Oost Gelre,Gelderland,VBO,6.518859,52.007957
de Waareise,27,,,7136LT,Zieuwent,Oost Gelre,Gelderland,VBO,6.518799,52.008000
de Waareise,29,,,7136LT,Zieuwent,Oost Gelre,Gelderland,VBO,6.518740,52.008042
de Waareise,31,,,7136LT,Zieuwent,Oost Gelre,Gelderland,VBO,6.518680,52.008084
de Waareise,33,,,7136LT,Zieuwent,Oost Gelre,Gelderland,VBO,6.519139,52.008476
Eisenhowerstraat,1,,,7136LV,Zieuwent,Oost Gelre,Gelderland,VBO,6.519266,52.004592
Eisenhowerstraat,2,,,7136LV,Zieuwent,Oost Gelre,Gelderland,VBO,6.519017,52.004805
Eisenhowerstraat,3,,,7136LV,Zieuwent,Oost Gelre,Gelderland,VBO,6.518515,52.004553
Eisenhowerstraat,4,,,7136LV,Zieuwent,Oost Gelre,Gelderland,VBO,6.518861,52.004741
Eisenhowerstraat,6,,,7136LV,Zieuwent,Oost Gelre,Gelderland,VBO,6.518551,52.004784
Eisenhowerstraat,8,,,7136LV,Zieuwent,Oost Gelre,Gelderland,VBO,6.518234,52.004820
Harreveldseweg,14,,,7136LW,Zieuwent,Oost Gelre,Gelderland,VBO,6.517132,52.002421
Harreveldseweg,16,,,7136LW,Zieuwent,Oost Gelre,Gelderland,VBO,6.517232,52.002425
Harreveldseweg,18,,,7136LW,Zieuwent,Oost Gelre,Gelderland,VBO,6.517499,52.002451
Harreveldseweg,19,,,7136LW,Zieuwent,Oost Gelre,Gelderland,VBO,6.517141,52.002737
Harreveldseweg,20,,,7136LW,Zieuwent,Oost Gelre,Gelderland,VBO,6.517607,52.002471
Harreveldseweg,21,,,7136LW,Zieuwent,Oost Gelre,Gelderland,VBO,6.517488,52.002800
Harreveldseweg,22,,,7136LW,Zieuwent,Oost Gelre,Gelderland,VBO,6.517878,52.002533
Harreveldseweg,23,,,7136LW,Zieuwent,Oost Gelre,Gelderland,VBO,6.517591,52.002817
Harreveldseweg,24,,,7136LW,Zieuwent,Oost Gelre,Gelderland,VBO,6.517980,52.002561
Harreveldseweg,25,,,7136LW,Zieuwent,Oost Gelre,Gelderland,VBO,6.517671,52.002830
Harreveldseweg,26,,,7136LW,Zieuwent,Oost Gelre,Gelderland,VBO,6.518228,52.002649
Harreveldseweg,27,,,7136LW,Zieuwent,Oost Gelre,Gelderland,VBO,6.517883,52.002934
Harreveldseweg,28,,,7136LW,Zieuwent,Oost Gelre,Gelderland,VBO,6.518324,52.002685
Harreveldseweg,29,,,7136LW,Zieuwent,Oost Gelre,Gelderland,VBO,6.517970,52.002947
Harreveldseweg,30,,,7136LW,Zieuwent,Oost Gelre,Gelderland,VBO,6.518546,52.002764
Harreveldseweg,31,,,7136LW,Zieuwent,Oost Gelre,Gelderland,VBO,6.518059,52.002962
Harreveldseweg,32,,,7136LW,Zieuwent,Oost Gelre,Gelderland,VBO,6.518743,52.002863
Harreveldseweg,33,,,7136LW,Zieuwent,Oost Gelre,Gelderland,VBO,6.518272,52.003068
Harreveldseweg,34,,,7136LW,Zieuwent,Oost Gelre,Gelderland,VBO,6.519034,52.002943
Harreveldseweg,35,,,7136LW,Zieuwent,Oost Gelre,Gelderland,VBO,6.518367,52.003085
Harreveldseweg,36,,,7136LW,Zieuwent,Oost Gelre,Gelderland,VBO,6.519195,52.003133
Harreveldseweg,37,,,7136LW,Zieuwent,Oost Gelre,Gelderland,VBO,6.518451,52.003101
Harreveldseweg,39,,,7136LW,Zieuwent,Oost Gelre,Gelderland,VBO,6.518876,52.003350
Kennedystraat,1,,,7136LX,Zieuwent,Oost Gelre,Gelderland,VBO,6.518867,52.003962
Kennedystraat,3,,,7136LX,Zieuwent,Oost Gelre,Gelderland,VBO,6.518149,52.003999
Kennedystraat,5,,,7136LX,Zieuwent,Oost Gelre,Gelderland,VBO,6.517885,52.004024
Kennedystraat,6,,,7136LX,Zieuwent,Oost Gelre,Gelderland,VBO,6.518193,52.004264
Kennedystraat,7,,,7136LX,Zieuwent,Oost Gelre,Gelderland,VBO,6.517680,52.004051
Kennedystraat,8,,,7136LX,Zieuwent,Oost Gelre,Gelderland,VBO,6.517751,52.004310
Kennedystraat,9,,,7136LX,Zieuwent,Oost Gelre,Gelderland,VBO,6.517364,52.004004
Kennedystraat,10,,,7136LX,Zieuwent,Oost Gelre,Gelderland,VBO,6.517525,52.004310
Kennedystraat,11,,,7136LX,Zieuwent,Oost Gelre,Gelderland,VBO,6.517113,52.004008
Kennedystraat,12,,,7136LX,Zieuwent,Oost Gelre,Gelderland,VBO,6.517285,52.004314
Kennedystraat,13,,,7136LX,Zieuwent,Oost Gelre,Gelderland,VBO,6.516871,52.004004
Kennedystraat,14,,,7136LX,Zieuwent,Oost Gelre,Gelderland,VBO,6.517079,52.004315
Werenfriedstraat,1,a,,7136LZ,Zieuwent,Oost Gelre,Gelderland,VBO,6.518645,52.005785
Werenfriedstraat,1,,,7136LZ,Zieuwent,Oost Gelre,Gelderland,VBO,6.518835,52.005721
Werenfriedstraat,2,,,7136LZ,Zieuwent,Oost Gelre,Gelderland,VBO,6.518795,52.006159
Werenfriedstraat,3,,,7136LZ,Zieuwent,Oost Gelre,Gelderland,VBO,6.518438,52.005755
Werenfriedstraat,4,,,7136LZ,Zieuwent,Oost Gelre,Gelderland,VBO,6.516954,52.005951
Werenfriedstraat,5,,,7136LZ,Zieuwent,Oost Gelre,Gelderland,VBO,6.518223,52.005671
Werenfriedstraat,7,,,7136LZ,Zieuwent,Oost Gelre,Gelderland,VBO,6.518031,52.005621
Werenfriedstraat,9,,,7136LZ,Zieuwent,Oost Gelre,Gelderland,VBO,6.517579,52.005532
Werenfriedstraat,11,,,7136LZ,Zieuwent,Oost Gelre,Gelderland,VBO,6.517362,52.005533
Werenfriedstraat,13,,,7136LZ,Zieuwent,Oost Gelre,Gelderland,VBO,6.517183,52.005495
Werenfriedstraat,15,,,7136LZ,Zieuwent,Oost Gelre,Gelderland,VBO,6.516979,52.005481
Werenfriedstraat,17,,,7136LZ,Zieuwent,Oost Gelre,Gelderland,VBO,6.516772,52.005478
Werenfriedstraat,19,,,7136LZ,Zieuwent,Oost Gelre,Gelderland,VBO,6.516592,52.005483
Werenfriedstraat,21,,,7136LZ,Zieuwent,Oost Gelre,Gelderland,VBO,6.516680,52.005273
Werenfriedstraat,23,,,7136LZ,Zieuwent,Oost Gelre,Gelderland,VBO,6.516707,52.005152
Werenfriedstraat,25,,,7136LZ,Zieuwent,Oost Gelre,Gelderland,VBO,6.516778,52.005025
Werenfriedstraat,27,,,7136LZ,Zieuwent,Oost Gelre,Gelderland,VBO,6.516803,52.004910
Werenfriedstraat,29,,,7136LZ,Zieuwent,Oost Gelre,Gelderland,VBO,6.516831,52.004783
Werenfriedstraat,30,a,,7136LZ,Zieuwent,Oost Gelre,Gelderland,VBO,6.516179,52.003593
Werenfriedstraat,31,,,7136LZ,Zieuwent,Oost Gelre,Gelderland,VBO,6.516859,52.004655
Werenfriedstraat,32,,,7136LZ,Zieuwent,Oost Gelre,Gelderland,VBO,6.515665,52.003171
Werenfriedstraat,33,,,7136LZ,Zieuwent,Oost Gelre,Gelderland,VBO,6.516842,52.004531
Werenfriedstraat,35,,,7136LZ,Zieuwent,Oost Gelre,Gelderland,VBO,6.516868,52.004411
Werenfriedstraat,37,,,7136LZ,Zieuwent,Oost Gelre,Gelderland,VBO,6.516893,52.004288
Werenfriedstraat,39,,,7136LZ,Zieuwent,Oost Gelre,Gelderland,VBO,6.516740,52.003565
Werenfriedstraat,41,,,7136LZ,Zieuwent,Oost Gelre,Gelderland,VBO,6.516811,52.003553
Werenfriedstraat,43,,,7136LZ,Zieuwent,Oost Gelre,Gelderland,VBO,6.516910,52.003538
Werenfriedstraat,45,,,7136LZ,Zieuwent,Oost Gelre,Gelderland,VBO,6.516981,52.003527
Werenfriedstraat,47,,,7136LZ,Zieuwent,Oost Gelre,Gelderland,VBO,6.516905,52.003284
Werenfriedstraat,49,,,7136LZ,Zieuwent,Oost Gelre,Gelderland,VBO,6.516810,52.003297
Werenfriedstraat,51,,,7136LZ,Zieuwent,Oost Gelre,Gelderland,VBO,6.516719,52.003308
Werenfriedstraat,53,,,7136LZ,Zieuwent,Oost Gelre,Gelderland,VBO,6.516625,52.003324
Werenfriedstraat,55,,,7136LZ,Zieuwent,Oost Gelre,Gelderland,VBO,6.516530,52.003082
Werenfriedstraat,57,,,7136LZ,Zieuwent,Oost Gelre,Gelderland,VBO,6.516604,52.003067
Werenfriedstraat,59,,,7136LZ,Zieuwent,Oost Gelre,Gelderland,VBO,6.516714,52.003050
Werenfriedstraat,61,,,7136LZ,Zieuwent,Oost Gelre,Gelderland,VBO,6.516784,52.003038
Werenfriedstraat,63,,,7136LZ,Zieuwent,Oost Gelre,Gelderland,VBO,6.516458,52.002893
Churchillstraat,1,,,7136MA,Zieuwent,Oost Gelre,Gelderland,VBO,6.517688,52.004540
Churchillstraat,3,,,7136MA,Zieuwent,Oost Gelre,Gelderland,VBO,6.517700,52.004689
Churchillstraat,5,,,7136MA,Zieuwent,Oost Gelre,Gelderland,VBO,6.517673,52.004824
Churchillstraat,7,,,7136MA,Zieuwent,Oost Gelre,Gelderland,VBO,6.517640,52.004952
Churchillstraat,9,,,7136MA,Zieuwent,Oost Gelre,Gelderland,VBO,6.517619,52.005101
Churchillstraat,11,,,7136MA,Zieuwent,Oost Gelre,Gelderland,VBO,6.517581,52.005304
Churchillstraat,4,,,7136MB,Zieuwent,Oost Gelre,Gelderland,VBO,6.518203,52.004982
Churchillstraat,6,,,7136MB,Zieuwent,Oost Gelre,Gelderland,VBO,6.518486,52.005062
Churchillstraat,8,,,7136MB,Zieuwent,Oost Gelre,Gelderland,VBO,6.518694,52.005087
Churchillstraat,10,,,7136MB,Zieuwent,Oost Gelre,Gelderland,VBO,6.518886,52.005114
Churchillstraat,12,,,7136MB,Zieuwent,Oost Gelre,Gelderland,VBO,6.518865,52.005452
Churchillstraat,14,,,7136MB,Zieuwent,Oost Gelre,Gelderland,VBO,6.518676,52.005440
Churchillstraat,16,,,7136MB,Zieuwent,Oost Gelre,Gelderland,VBO,6.518471,52.005386
Churchillstraat,18,,,7136MB,Zieuwent,Oost Gelre,Gelderland,VBO,6.518126,52.005305
Churchillstraat,20,,,7136MB,Zieuwent,Oost Gelre,Gelderland,VBO,6.518093,52.005427
Ruurloseweg,1,,,7136MC,Zieuwent,Oost Gelre,Gelderland,VBO,6.516007,52.008738
Ruurloseweg,3,,,7136MC,Zieuwent,Oost Gelre,Gelderland,VBO,6.514966,52.009029
Ruurloseweg,5,a,,7136MC,Zieuwent,Oost Gelre,Gelderland,VBO,6.513372,52.009939
Ruurloseweg,5,,,7136MC,Zieuwent,Oost Gelre,Gelderland,VBO,6.514360,52.009401
Ruurloseweg,7,,,7136MC,Zieuwent,Oost Gelre,Gelderland,VBO,6.511067,52.010958
Ruurloseweg,9,,,7136MC,Zieuwent,Oost Gelre,Gelderland,VBO,6.510708,52.011153
Ruurloseweg,11,a,,7136MC,Zieuwent,Oost Gelre,Gelderland,VBO,6.509255,52.011594
Ruurloseweg,11,,,7136MC,Zieuwent,Oost Gelre,Gelderland,VBO,6.510253,52.011348
Ruurloseweg,13,a,,7136MC,Zieuwent,Oost Gelre,Gelderland,VBO,6.508532,52.011685
Ruurloseweg,13,b,,7136MC,Zieuwent,Oost Gelre,Gelderland,VBO,6.508609,52.011636
Ruurloseweg,13,,,7136MC,Zieuwent,Oost Gelre,Gelderland,VBO,6.509146,52.011651
Ruurloseweg,15,,,7136MC,Zieuwent,Oost Gelre,Gelderland,VBO,6.505437,52.012359
Ruurloseweg,17,a,,7136MC,Zieuwent,Oost Gelre,Gelderland,VBO,6.505396,52.012704
Ruurloseweg,17,,,7136MC,Zieuwent,Oost Gelre,Gelderland,VBO,6.505418,52.012639
Ruurloseweg,19,,,7136MC,Zieuwent,Oost Gelre,Gelderland,VBO,6.503619,52.013745
Ruurloseweg,21,,,7136MC,Zieuwent,Oost Gelre,Gelderland,VBO,6.499566,52.017477
Ruurloseweg,25,,,7136MC,Zieuwent,Oost Gelre,Gelderland,VBO,6.499084,52.017615
Ruurloseweg,27,,,7136MC,Zieuwent,Oost Gelre,Gelderland,VBO,6.498926,52.017859
Ruurloseweg,29,,,7136MC,Zieuwent,Oost Gelre,Gelderland,VBO,6.498887,52.017896
Ruurloseweg,2,,,7136MD,Zieuwent,Oost Gelre,Gelderland,VBO,6.516656,52.009200
Ruurloseweg,4,a,,7136MD,Zieuwent,Oost Gelre,Gelderland,VBO,6.515223,52.010070
Ruurloseweg,4,b,,7136MD,Zieuwent,Oost Gelre,Gelderland,VBO,6.514517,52.010230
Ruurloseweg,4,c,,7136MD,Zieuwent,Oost Gelre,Gelderland,VBO,6.514081,52.010279
Ruurloseweg,4,,,7136MD,Zieuwent,Oost Gelre,Gelderland,VBO,6.515609,52.009521
Ruurloseweg,6,,,7136MD,Zieuwent,Oost Gelre,Gelderland,VBO,6.513377,52.010489
Ruurloseweg,8,a,,7136MD,Zieuwent,Oost Gelre,Gelderland,VBO,6.512678,52.010765
Ruurloseweg,8,,,7136MD,Zieuwent,Oost Gelre,Gelderland,VBO,6.512773,52.010716
Ruurloseweg,10,a,,7136MD,Zieuwent,Oost Gelre,Gelderland,VBO,6.512272,52.011031
Ruurloseweg,10,,,7136MD,Zieuwent,Oost Gelre,Gelderland,VBO,6.512077,52.011119
Ruurloseweg,12,a,,7136MD,Zieuwent,Oost Gelre,Gelderland,VBO,6.510704,52.011848
Ruurloseweg,12,,,7136MD,Zieuwent,Oost Gelre,Gelderland,VBO,6.510654,52.011797
Ruurloseweg,16,,,7136MD,Zieuwent,Oost Gelre,Gelderland,VBO,6.508540,52.012192
Ruurloseweg,18,a,,7136MD,Zieuwent,Oost Gelre,Gelderland,VBO,6.508129,52.012188
Ruurloseweg,18,,,7136MD,Zieuwent,Oost Gelre,Gelderland,VBO,6.508031,52.012209
Ruurloseweg,20,,,7136MD,Zieuwent,Oost Gelre,Gelderland,VBO,6.507702,52.012408
Ruurloseweg,22,a,,7136MD,Zieuwent,Oost Gelre,Gelderland,VBO,6.506608,52.012687
Ruurloseweg,22,b,,7136MD,Zieuwent,Oost Gelre,Gelderland,VBO,6.506419,52.013271
Ruurloseweg,22,,,7136MD,Zieuwent,Oost Gelre,Gelderland,VBO,6.506740,52.012663
Ruurloseweg,24,,,7136MD,Zieuwent,Oost Gelre,Gelderland,VBO,6.504759,52.013573
Ruurloseweg,26,,,7136MD,Zieuwent,Oost Gelre,Gelderland,VBO,6.503719,52.014359
Ruurloseweg,28,,,7136MD,Zieuwent,Oost Gelre,Gelderland,VBO,6.503249,52.015709
Ruurloseweg,30,a,,7136MD,Zieuwent,Oost Gelre,Gelderland,VBO,6.503250,52.016125
Ruurloseweg,30,,,7136MD,Zieuwent,Oost Gelre,Gelderland,VBO,6.503166,52.016160
Ruurloseweg,32,,,7136MD,Zieuwent,Oost Gelre,Gelderland,VBO,6.503613,52.016483
Ruurloseweg,34,a,,7136MD,Zieuwent,Oost Gelre,Gelderland,VBO,6.502263,52.016452
Ruurloseweg,34,,,7136MD,Zieuwent,Oost Gelre,Gelderland,VBO,6.502200,52.016512
Ruurloseweg,36,,,7136MD,Zieuwent,Oost Gelre,Gelderland,VBO,6.499409,52.018031
Huijskesdijk,2,,,7136ME,Zieuwent,Oost Gelre,Gelderland,VBO,6.501248,52.016176
Huijskesdijk,4,,,7136ME,Zieuwent,Oost Gelre,Gelderland,VBO,6.498343,52.014256
Huijskesdijk,6,,,7136ME,Zieuwent,Oost Gelre,Gelderland,VBO,6.498040,52.011945
de Haare,39,,,7136MG,Zieuwent,Oost Gelre,Gelderland,VBO,6.522682,52.005809
de Haare,41,,,7136MG,Zieuwent,Oost Gelre,Gelderland,VBO,6.522654,52.005759
de Haare,43,,,7136MG,Zieuwent,Oost Gelre,Gelderland,VBO,6.522644,52.005648
de Haare,45,,,7136MG,Zieuwent,Oost Gelre,Gelderland,VBO,6.522616,52.005598
de Haare,47,,,7136MG,Zieuwent,Oost Gelre,Gelderland,VBO,6.522205,52.005658
de Haare,49,,,7136MG,Zieuwent,Oost Gelre,Gelderland,VBO,6.522179,52.005611
de Haare,51,,,7136MG,Zieuwent,Oost Gelre,Gelderland,VBO,6.522119,52.005562
de Haare,53,,,7136MG,Zieuwent,Oost Gelre,Gelderland,VBO,6.522093,52.005516
de Haare,55,,,7136MG,Zieuwent,Oost Gelre,Gelderland,VBO,6.522061,52.005460
de Haare,57,,,7136MG,Zieuwent,Oost Gelre,Gelderland,VBO,6.522560,52.005487
de Haare,59,,,7136MG,Zieuwent,Oost Gelre,Gelderland,VBO,6.522510,52.005445
de Haare,61,,,7136MG,Zieuwent,Oost Gelre,Gelderland,VBO,6.522484,52.005400
de Haare,63,,,7136MG,Zieuwent,Oost Gelre,Gelderland,VBO,6.522458,52.005354
de Haare,65,a,,7136MG,Zieuwent,Oost Gelre,Gelderland,VBO,6.522428,52.005257
de Haare,65,,,7136MG,Zieuwent,Oost Gelre,Gelderland,VBO,6.522432,52.005302
de Haare,67,,,7136MG,Zieuwent,Oost Gelre,Gelderland,VBO,6.522245,52.005173
de Haare,69,,,7136MG,Zieuwent,Oost Gelre,Gelderland,VBO,6.522151,52.005023
de Haare,71,,,7136MG,Zieuwent,Oost Gelre,Gelderland,VBO,6.522056,52.004839
de Haare,73,,,7136MG,Zieuwent,Oost Gelre,Gelderland,VBO,6.522002,52.004696
de Haare,75,,,7136MG,Zieuwent,Oost Gelre,Gelderland,VBO,6.521891,52.004531
de Haare,77,,,7136MG,Zieuwent,Oost Gelre,Gelderland,VBO,6.521748,52.004327
de Haare,1,a,,7136MH,Zieuwent,Oost Gelre,Gelderland,VBO,6.521399,52.006314
de Haare,1,,,7136MH,Zieuwent,Oost Gelre,Gelderland,VBO,6.521567,52.006432
de Haare,3,,,7136MH,Zieuwent,Oost Gelre,Gelderland,VBO,6.521334,52.006193
de Haare,5,,,7136MH,Zieuwent,Oost Gelre,Gelderland,VBO,6.521164,52.006065
de Haare,7,,,7136MH,Zieuwent,Oost Gelre,Gelderland,VBO,6.521124,52.006013
de Haare,9,,,7136MH,Zieuwent,Oost Gelre,Gelderland,VBO,6.521044,52.005901
de Haare,11,,,7136MH,Zieuwent,Oost Gelre,Gelderland,VBO,6.521028,52.005838
de Haare,13,,,7136MH,Zieuwent,Oost Gelre,Gelderland,VBO,6.521360,52.005729
de Haare,15,,,7136MH,Zieuwent,Oost Gelre,Gelderland,VBO,6.521432,52.005704
de Haare,17,a,,7136MH,Zieuwent,Oost Gelre,Gelderland,VBO,6.521748,52.005644
de Haare,17,,,7136MH,Zieuwent,Oost Gelre,Gelderland,VBO,6.521705,52.005597
de Haare,19,,,7136MH,Zieuwent,Oost Gelre,Gelderland,VBO,6.521795,52.005722
de Haare,21,,,7136MH,Zieuwent,Oost Gelre,Gelderland,VBO,6.521588,52.005904
de Haare,23,,,7136MH,Zieuwent,Oost Gelre,Gelderland,VBO,6.521632,52.005939
de Haare,25,,,7136MH,Zieuwent,Oost Gelre,Gelderland,VBO,6.521679,52.006056
de Haare,27,,,7136MH,Zieuwent,Oost Gelre,Gelderland,VBO,6.521709,52.006100
de Haare,29,,,7136MH,Zieuwent,Oost Gelre,Gelderland,VBO,6.521857,52.006213
de Haare,31,,,7136MH,Zieuwent,Oost Gelre,Gelderland,VBO,6.522020,52.006035
de Haare,33,,,7136MH,Zieuwent,Oost Gelre,Gelderland,VBO,6.522094,52.006013
de Haare,35,,,7136MH,Zieuwent,Oost Gelre,Gelderland,VBO,6.522232,52.005911
de Haare,37,,,7136MH,Zieuwent,Oost Gelre,Gelderland,VBO,6.522306,52.005889
de Haare,2,,,7136MJ,Zieuwent,Oost Gelre,Gelderland,VBO,6.520695,52.006585
de Haare,4,,,7136MJ,Zieuwent,Oost Gelre,Gelderland,VBO,6.520777,52.006561
de Haare,6,,,7136MJ,Zieuwent,Oost Gelre,Gelderland,VBO,6.520991,52.006491
de Haare,8,,,7136MJ,Zieuwent,Oost Gelre,Gelderland,VBO,6.520782,52.006224
de Haare,10,,,7136MJ,Zieuwent,Oost Gelre,Gelderland,VBO,6.520691,52.006250
de Haare,12,,,7136MJ,Zieuwent,Oost Gelre,Gelderland,VBO,6.520324,52.006121
de Haare,14,,,7136MJ,Zieuwent,Oost Gelre,Gelderland,VBO,6.520293,52.006046
de Haare,16,,,7136MJ,Zieuwent,Oost Gelre,Gelderland,VBO,6.520235,52.005939
de Haare,18,,,7136MK,Zieuwent,Oost Gelre,Gelderland,VBO,6.521013,52.005519
de Haare,20,,,7136MK,Zieuwent,Oost Gelre,Gelderland,VBO,6.520895,52.005395
de Haare,22,,,7136MK,Zieuwent,Oost Gelre,Gelderland,VBO,6.520774,52.005266
de Haare,24,,,7136MK,Zieuwent,Oost Gelre,Gelderland,VBO,6.520930,52.005114
de Haare,26,,,7136MK,Zieuwent,Oost Gelre,Gelderland,VBO,6.521092,52.005026
de Haare,28,,,7136MK,Zieuwent,Oost Gelre,Gelderland,VBO,6.521368,52.005394
de Haare,30,,,7136MK,Zieuwent,Oost Gelre,Gelderland,VBO,6.521540,52.005332
de Haare,32,,,7136MK,Zieuwent,Oost Gelre,Gelderland,VBO,6.521728,52.005269
de Haare,34,,,7136MK,Zieuwent,Oost Gelre,Gelderland,VBO,6.521599,52.005046
de Haare,36,,,7136MK,Zieuwent,Oost Gelre,Gelderland,VBO,6.521525,52.004916
de Haare,38,,,7136MK,Zieuwent,Oost Gelre,Gelderland,VBO,6.521443,52.004786
de Haare,40,,,7136MK,Zieuwent,Oost Gelre,Gelderland,VBO,6.521372,52.004634
de Steege,1,,,7136ML,Zieuwent,Oost Gelre,Gelderland,VBO,6.516589,52.002150
de Steege,3,,,7136ML,Zieuwent,Oost Gelre,Gelderland,VBO,6.516651,52.002005
de Steege,5,,,7136ML,Zieuwent,Oost Gelre,Gelderland,VBO,6.516732,52.001874
de Steege,7,,,7136ML,Zieuwent,Oost Gelre,Gelderland,VBO,6.517274,52.001767
de Steege,9,,,7136ML,Zieuwent,Oost Gelre,Gelderland,VBO,6.517268,52.001809
de Steege,11,,,7136ML,Zieuwent,Oost Gelre,Gelderland,VBO,6.517263,52.001860
de Steege,13,,,7136ML,Zieuwent,Oost Gelre,Gelderland,VBO,6.517261,52.001902
de Steege,15,,,7136ML,Zieuwent,Oost Gelre,Gelderland,VBO,6.517211,52.002041
de Steege,17,,,7136ML,Zieuwent,Oost Gelre,Gelderland,VBO,6.517209,52.002087
de Steege,19,,,7136ML,Zieuwent,Oost Gelre,Gelderland,VBO,6.517204,52.002135
de Steege,21,,,7136ML,Zieuwent,Oost Gelre,Gelderland,VBO,6.517199,52.002185
de Steege,23,,,7136ML,Zieuwent,Oost Gelre,Gelderland,VBO,6.517711,52.002214
de Steege,25,,,7136ML,Zieuwent,Oost Gelre,Gelderland,VBO,6.517717,52.002164
de Steege,27,,,7136ML,Zieuwent,Oost Gelre,Gelderland,VBO,6.517750,52.002050
de Steege,29,,,7136ML,Zieuwent,Oost Gelre,Gelderland,VBO,6.517756,52.001996
de Steege,31,,,7136ML,Zieuwent,Oost Gelre,Gelderland,VBO,6.517763,52.001882
de Steege,33,,,7136ML,Zieuwent,Oost Gelre,Gelderland,VBO,6.517770,52.001828
de Steege,35,,,7136ML,Zieuwent,Oost Gelre,Gelderland,VBO,6.517765,52.001694
de Steege,37,,,7136ML,Zieuwent,Oost Gelre,Gelderland,VBO,6.518319,52.001703
de Steege,39,,,7136ML,Zieuwent,Oost Gelre,Gelderland,VBO,6.518306,52.001843
de Steege,41,,,7136ML,Zieuwent,Oost Gelre,Gelderland,VBO,6.518300,52.001892
de Steege,43,,,7136ML,Zieuwent,Oost Gelre,Gelderland,VBO,6.518304,52.002003
de Steege,45,,,7136ML,Zieuwent,Oost Gelre,Gelderland,VBO,6.518297,52.002056
de Steege,47,,,7136ML,Zieuwent,Oost Gelre,Gelderland,VBO,6.518291,52.002161
de Steege,49,,,7136ML,Zieuwent,Oost Gelre,Gelderland,VBO,6.518285,52.002215
de Steege,51,a,,7136ML,Zieuwent,Oost Gelre,Gelderland,VBO,6.518265,52.002378
de Steege,51,,,7136ML,Zieuwent,Oost Gelre,Gelderland,VBO,6.518271,52.002324
de Steege,53,,,7136MN,Zieuwent,Oost Gelre,Gelderland,VBO,6.518823,52.002576
de Steege,55,,,7136MN,Zieuwent,Oost Gelre,Gelderland,VBO,6.518837,52.002440
de Steege,57,,,7136MN,Zieuwent,Oost Gelre,Gelderland,VBO,6.518843,52.002386
de Steege,59,,,7136MN,Zieuwent,Oost Gelre,Gelderland,VBO,6.518853,52.002265
de Steege,61,,,7136MN,Zieuwent,Oost Gelre,Gelderland,VBO,6.518860,52.002214
de Steege,63,,,7136MN,Zieuwent,Oost Gelre,Gelderland,VBO,6.518749,52.002083
de Steege,65,,,7136MN,Zieuwent,Oost Gelre,Gelderland,VBO,6.518731,52.002028
de Steege,67,,,7136MN,Zieuwent,Oost Gelre,Gelderland,VBO,6.518800,52.001865
de Steege,69,,,7136MN,Zieuwent,Oost Gelre,Gelderland,VBO,6.519192,52.001588
de Steege,71,,,7136MN,Zieuwent,Oost Gelre,Gelderland,VBO,6.519245,52.001540
de Steege,73,,,7136MN,Zieuwent,Oost Gelre,Gelderland,VBO,6.519366,52.001428
de Steege,75,,,7136MN,Zieuwent,Oost Gelre,Gelderland,VBO,6.519419,52.001379
de Steege,77,,,7136MN,Zieuwent,Oost Gelre,Gelderland,VBO,6.519548,52.001266
de Steege,79,,,7136MN,Zieuwent,Oost Gelre,Gelderland,VBO,6.519605,52.001213
de Steege,81,,,7136MN,Zieuwent,Oost Gelre,Gelderland,VBO,6.519718,52.001104
de Steege,83,,,7136MN,Zieuwent,Oost Gelre,Gelderland,VBO,6.519774,52.001056
de Steege,85,,,7136MN,Zieuwent,Oost Gelre,Gelderland,VBO,6.519904,52.000940
de Steege,87,,,7136MN,Zieuwent,Oost Gelre,Gelderland,VBO,6.519956,52.000897
de Steege,89,,,7136MN,Zieuwent,Oost Gelre,Gelderland,VBO,6.520077,52.000784
de Steege,91,,,7136MN,Zieuwent,Oost Gelre,Gelderland,VBO,6.520117,52.000731
de Steege,93,,,7136MN,Zieuwent,Oost Gelre,Gelderland,VBO,6.520213,52.000603
de Steege,95,,,7136MN,Zieuwent,Oost Gelre,Gelderland,VBO,6.520270,52.000451
de Steege,97,,,7136MN,Zieuwent,Oost Gelre,Gelderland,VBO,6.520319,52.000310
de Steege,99,,,7136MN,Zieuwent,Oost Gelre,Gelderland,VBO,6.520353,52.000169
de Steege,2,a,,7136MP,Zieuwent,Oost Gelre,Gelderland,VBO,6.516205,52.002011
de Steege,2,,,7136MP,Zieuwent,Oost Gelre,Gelderland,VBO,6.516117,52.002179
de Steege,4,,,7136MP,Zieuwent,Oost Gelre,Gelderland,VBO,6.516255,52.001871
de Steege,6,,,7136MP,Zieuwent,Oost Gelre,Gelderland,VBO,6.516301,52.001721
de Steege,8,,,7136MP,Zieuwent,Oost Gelre,Gelderland,VBO,6.516618,52.001550
de Steege,10,,,7136MP,Zieuwent,Oost Gelre,Gelderland,VBO,6.516868,52.001515
de Steege,12,,,7136MP,Zieuwent,Oost Gelre,Gelderland,VBO,6.517118,52.001463
de Steege,14,,,7136MP,Zieuwent,Oost Gelre,Gelderland,VBO,6.517351,52.001425
de Steege,16,,,7136MP,Zieuwent,Oost Gelre,Gelderland,VBO,6.517777,52.001426
de Steege,18,,,7136MP,Zieuwent,Oost Gelre,Gelderland,VBO,6.517871,52.001430
de Steege,20,,,7136MP,Zieuwent,Oost Gelre,Gelderland,VBO,6.518072,52.001436
de Steege,22,,,7136MP,Zieuwent,Oost Gelre,Gelderland,VBO,6.518159,52.001440
de Steege,24,,,7136MP,Zieuwent,Oost Gelre,Gelderland,VBO,6.518304,52.001447
de Steege,26,,,7136MP,Zieuwent,Oost Gelre,Gelderland,VBO,6.518391,52.001452
de Steege,28,,,7136MP,Zieuwent,Oost Gelre,Gelderland,VBO,6.518589,52.001459
de Steege,30,,,7136MP,Zieuwent,Oost Gelre,Gelderland,VBO,6.518683,52.001463
de Steege,32,,,7136MP,Zieuwent,Oost Gelre,Gelderland,VBO,6.519048,52.001223
de Steege,34,,,7136MP,Zieuwent,Oost Gelre,Gelderland,VBO,6.519214,52.001080
de Steege,36,,,7136MP,Zieuwent,Oost Gelre,Gelderland,VBO,6.519361,52.000924
de Steege,38,,,7136MP,Zieuwent,Oost Gelre,Gelderland,VBO,6.519486,52.000805
de Steege,40,,,7136MP,Zieuwent,Oost Gelre,Gelderland,VBO,6.519659,52.000661
de Steege,42,,,7136MP,Zieuwent,Oost Gelre,Gelderland,VBO,6.519750,52.000531
de Steege,44,,,7136MP,Zieuwent,Oost Gelre,Gelderland,VBO,6.519825,52.000381
de Steege,46,,,7136MP,Zieuwent,Oost Gelre,Gelderland,VBO,6.519831,52.000330
de Steege,48,,,7136MP,Zieuwent,Oost Gelre,Gelderland,VBO,6.519863,52.000214
de Steege,50,,,7136MP,Zieuwent,Oost Gelre,Gelderland,VBO,6.519888,52.000142
Anton Mollemanhof,1,,,7136MR,Zieuwent,Oost Gelre,Gelderland,VBO,6.517778,52.001123
Anton Mollemanhof,3,,,7136MR,Zieuwent,Oost Gelre,Gelderland,VBO,6.517872,52.001133
Anton Mollemanhof,5,,,7136MR,Zieuwent,Oost Gelre,Gelderland,VBO,6.518021,52.001140
Anton Mollemanhof,7,,,7136MR,Zieuwent,Oost Gelre,Gelderland,VBO,6.518124,52.001145
Anton Mollemanhof,9,,,7136MR,Zieuwent,Oost Gelre,Gelderland,VBO,6.518274,52.001152
Anton Mollemanhof,11,,,7136MR,Zieuwent,Oost Gelre,Gelderland,VBO,6.518377,52.001157
Anton Mollemanhof,13,,,7136MR,Zieuwent,Oost Gelre,Gelderland,VBO,6.518526,52.001165
Anton Mollemanhof,15,,,7136MR,Zieuwent,Oost Gelre,Gelderland,VBO,6.518630,52.001170
Anton Mollemanhof,17,,,7136MR,Zieuwent,Oost Gelre,Gelderland,VBO,6.518739,52.001025
Anton Mollemanhof,19,,,7136MR,Zieuwent,Oost Gelre,Gelderland,VBO,6.518823,52.000967
Anton Mollemanhof,21,,,7136MR,Zieuwent,Oost Gelre,Gelderland,VBO,6.518914,52.000847
Anton Mollemanhof,23,,,7136MR,Zieuwent,Oost Gelre,Gelderland,VBO,6.518978,52.000779
Anton Mollemanhof,25,,,7136MR,Zieuwent,Oost Gelre,Gelderland,VBO,6.519052,52.000627
Anton Mollemanhof,27,,,7136MR,Zieuwent,Oost Gelre,Gelderland,VBO,6.519155,52.000477
Anton Mollemanhof,29,,,7136MR,Zieuwent,Oost Gelre,Gelderland,VBO,6.519214,52.000323
Anton Mollemanhof,31,,,7136MR,Zieuwent,Oost Gelre,Gelderland,VBO,6.519289,52.000146
Anton Mollemanhof,41,,,7136MR,Zieuwent,Oost Gelre,Gelderland,VBO,6.520346,51.999860
Anton Mollemanhof,43,,,7136MR,Zieuwent,Oost Gelre,Gelderland,VBO,6.520086,51.999855
Anton Mollemanhof,45,,,7136MR,Zieuwent,Oost Gelre,Gelderland,VBO,6.519836,51.999848
Anton Mollemanhof,47,,,7136MR,Zieuwent,Oost Gelre,Gelderland,VBO,6.519581,51.999836
Anton Mollemanhof,49,,,7136MR,Zieuwent,Oost Gelre,Gelderland,VBO,6.519308,51.999837
Anton Mollemanhof,51,,,7136MR,Zieuwent,Oost Gelre,Gelderland,VBO,6.518829,51.999931
Anton Mollemanhof,53,,,7136MR,Zieuwent,Oost Gelre,Gelderland,VBO,6.518545,51.999885
Anton Mollemanhof,55,,,7136MR,Zieuwent,Oost Gelre,Gelderland,VBO,6.518271,51.999862
Anton Mollemanhof,57,,,7136MR,Zieuwent,Oost Gelre,Gelderland,VBO,6.518043,51.999851
Anton Mollemanhof,59,,,7136MR,Zieuwent,Oost Gelre,Gelderland,VBO,6.517807,51.999857
Anton Mollemanhof,61,,,7136MR,Zieuwent,Oost Gelre,Gelderland,VBO,6.517541,51.999876
Anton Mollemanhof,63,,,7136MR,Zieuwent,Oost Gelre,Gelderland,VBO,6.517274,51.999905
Anton Mollemanhof,65,,,7136MR,Zieuwent,Oost Gelre,Gelderland,VBO,6.517377,52.001070
Anton Mollemanhof,67,,,7136MR,Zieuwent,Oost Gelre,Gelderland,VBO,6.517333,52.001212
Anton Mollemanhof,2,,,7136MS,Zieuwent,Oost Gelre,Gelderland,VBO,6.517607,52.000865
Anton Mollemanhof,4,,,7136MS,Zieuwent,Oost Gelre,Gelderland,VBO,6.517760,52.000872
Anton Mollemanhof,6,,,7136MS,Zieuwent,Oost Gelre,Gelderland,VBO,6.517924,52.000880
Anton Mollemanhof,8,,,7136MS,Zieuwent,Oost Gelre,Gelderland,VBO,6.518078,52.000887
Anton Mollemanhof,10,,,7136MS,Zieuwent,Oost Gelre,Gelderland,VBO,6.518263,52.000883
Anton Mollemanhof,12,,,7136MS,Zieuwent,Oost Gelre,Gelderland,VBO,6.518442,52.000788
Anton Mollemanhof,14,,,7136MS,Zieuwent,Oost Gelre,Gelderland,VBO,6.518517,52.000653
Anton Mollemanhof,16,,,7136MS,Zieuwent,Oost Gelre,Gelderland,VBO,6.518607,52.000523
Anton Mollemanhof,18,,,7136MS,Zieuwent,Oost Gelre,Gelderland,VBO,6.518682,52.000393
Anton Mollemanhof,22,,,7136MS,Zieuwent,Oost Gelre,Gelderland,VBO,6.518753,52.000270
Anton Mollemanhof,24,,,7136MS,Zieuwent,Oost Gelre,Gelderland,VBO,6.518652,52.000198
Anton Mollemanhof,26,,,7136MS,Zieuwent,Oost Gelre,Gelderland,VBO,6.518407,52.000196
Anton Mollemanhof,28,,,7136MS,Zieuwent,Oost Gelre,Gelderland,VBO,6.518278,52.000190
Anton Mollemanhof,30,,,7136MS,Zieuwent,Oost Gelre,Gelderland,VBO,6.518077,52.000181
Anton Mollemanhof,32,,,7136MS,Zieuwent,Oost Gelre,Gelderland,VBO,6.517957,52.000158
Anton Mollemanhof,34,,,7136MS,Zieuwent,Oost Gelre,Gelderland,VBO,6.517743,52.000163
Anton Mollemanhof,36,,,7136MS,Zieuwent,Oost Gelre,Gelderland,VBO,6.517477,52.000193
Anton Mollemanhof,38,,,7136MS,Zieuwent,Oost Gelre,Gelderland,VBO,6.517415,52.000367
Anton Mollemanhof,40,,,7136MS,Zieuwent,Oost Gelre,Gelderland,VBO,6.517671,52.000389
Anton Mollemanhof,42,,,7136MS,Zieuwent,Oost Gelre,Gelderland,VBO,6.517851,52.000394
Anton Mollemanhof,44,,,7136MS,Zieuwent,Oost Gelre,Gelderland,VBO,6.518011,52.000401
Anton Mollemanhof,46,,,7136MS,Zieuwent,Oost Gelre,Gelderland,VBO,6.518186,52.000424
Anton Mollemanhof,48,,,7136MS,Zieuwent,Oost Gelre,Gelderland,VBO,6.518208,52.000552
Anton Mollemanhof,50,,,7136MS,Zieuwent,Oost Gelre,Gelderland,VBO,6.517982,52.000656
Anton Mollemanhof,52,,,7136MS,Zieuwent,Oost Gelre,Gelderland,VBO,6.517818,52.000649
Anton Mollemanhof,54,,,7136MS,Zieuwent,Oost Gelre,Gelderland,VBO,6.517637,52.000640
Anton Mollemanhof,56,,,7136MS,Zieuwent,Oost Gelre,Gelderland,VBO,6.517403,52.000646
Anton Mollemanhof,58,,,7136MS,Zieuwent,Oost Gelre,Gelderland,VBO,6.517416,52.000815
Boschlaan,21,,,7136RA,Zieuwent,Oost Gelre,Gelderland,VBO,6.550669,52.006207
Boschlaan,23,a,,7136RA,Zieuwent,Oost Gelre,Gelderland,VBO,6.551047,52.006803
Boschlaan,23,,,7136RA,Zieuwent,Oost Gelre,Gelderland,VBO,6.550824,52.006821
Boschlaan,27,,,7136RA,Zieuwent,Oost Gelre,Gelderland,VBO,6.542297,52.020917
Boschlaan,29,,,7136RA,Zieuwent,Oost Gelre,Gelderland,VBO,6.542784,52.021869
Boschlaan,31,,,7136RA,Zieuwent,Oost Gelre,Gelderland,VBO,6.536334,52.026998
