openbareruimtenaam,huisnummer,huisletter,huisnummertoevoeging,postcode,woonplaatsnaam,gemeentenaam,provincienaam,typeadresseerbaarobject,longitude,latitude
Grutto,6,,,7156HA,Beltrum,Berkelland,Gelderland,VBO,6.564997,52.065687
Grutto,8,,,7156HA,Beltrum,Berkelland,Gelderland,VBO,6.565069,52.065665
Grutto,10,,,7156HA,Beltrum,Berkelland,Gelderland,VBO,6.565132,52.065631
Grutto,12,,,7156HA,Beltrum,Berkelland,Gelderland,VBO,6.565194,52.065600
Grutto,20,,,7156HA,Beltrum,Berkelland,Gelderland,VBO,6.565835,52.065262
Bruinvisweg,1,,,7156JA,Beltrum,Berkelland,Gelderland,VBO,6.600965,52.055810
Bruinvisweg,2,a,,7156JA,Beltrum,Berkelland,Gelderland,VBO,6.598428,52.056727
Bruinvisweg,2,,,7156JA,Beltrum,Berkelland,Gelderland,VBO,6.598431,52.056606
Bruinvisweg,4,,,7156JA,Beltrum,Berkelland,Gelderland,VBO,6.603856,52.053784
Deventer Kunstweg,11,,,7156JA,Beltrum,Berkelland,Gelderland,VBO,6.606018,52.065699
Deventer Kunstweg,20,,,7156JA,Beltrum,Berkelland,Gelderland,VBO,6.604895,52.051769
Startmansweg,1,,,7156JB,Beltrum,Berkelland,Gelderland,VBO,6.593529,52.063401
Startmansweg,2,a,,7156JB,Beltrum,Berkelland,Gelderland,VBO,6.593188,52.061562
Startmansweg,2,,,7156JB,Beltrum,Berkelland,Gelderland,VBO,6.593112,52.061463
Buitinksweg,1,,,7156JC,Beltrum,Berkelland,Gelderland,VBO,6.601772,52.060269
Buitinksweg,2,,,7156JC,Beltrum,Berkelland,Gelderland,VBO,6.597011,52.062727
Buitinksweg,3,,,7156JC,Beltrum,Berkelland,Gelderland,VBO,6.594821,52.065810
Buitinksweg,4,,,7156JC,Beltrum,Berkelland,Gelderland,VBO,6.599631,52.060902
Huurninkallee,1,a,,7156JD,Beltrum,Berkelland,Gelderland,VBO,6.598437,52.061937
Huurninkallee,1,,,7156JD,Beltrum,Berkelland,Gelderland,VBO,6.598206,52.061972
Huurninkallee,2,a,,7156JD,Beltrum,Berkelland,Gelderland,VBO,6.598800,52.061450
Huurninkallee,2,,,7156JD,Beltrum,Berkelland,Gelderland,VBO,6.598802,52.061009
Huurninkallee,3,,,7156JD,Beltrum,Berkelland,Gelderland,VBO,6.599263,52.062389
Deventer Kunstweg,18,,,7156JE,Beltrum,Berkelland,Gelderland,VBO,6.604755,52.058413
Huurninkallee,4,a,,7156JE,Beltrum,Berkelland,Gelderland,VBO,6.599859,52.061781
Huurninkallee,4,,,7156JE,Beltrum,Berkelland,Gelderland,VBO,6.600198,52.061939
Huurninkallee,5,a,,7156JE,Beltrum,Berkelland,Gelderland,VBO,6.601031,52.063247
Huurninkallee,5,,,7156JE,Beltrum,Berkelland,Gelderland,VBO,6.600890,52.063262
Huurninkallee,7,,T01,7156JE,Beltrum,Berkelland,Gelderland,VBO,6.599981,52.062264
Huurninkallee,9,,,7156JE,Beltrum,Berkelland,Gelderland,VBO,6.603141,52.062367
Huurninkallee,11,,,7156JE,Beltrum,Berkelland,Gelderland,VBO,6.604915,52.063257
Deventer Kunstweg,16,,,7156JH,Beltrum,Berkelland,Gelderland,VBO,6.604620,52.066385
Startmansweg,3,a,,7156JH,Beltrum,Berkelland,Gelderland,VBO,6.600141,52.065724
Startmansweg,3,,,7156JH,Beltrum,Berkelland,Gelderland,VBO,6.600259,52.065777
Westerhaar,1,,,7156JJ,Beltrum,Berkelland,Gelderland,VBO,6.559082,52.068745
Westerhaar,2,,,7156JJ,Beltrum,Berkelland,Gelderland,VBO,6.559669,52.069109
Westerhaar,3,,,7156JJ,Beltrum,Berkelland,Gelderland,VBO,6.559112,52.068678
Westerhaar,4,,,7156JJ,Beltrum,Berkelland,Gelderland,VBO,6.559552,52.069092
Westerhaar,5,,,7156JJ,Beltrum,Berkelland,Gelderland,VBO,6.559137,52.068585
Westerhaar,6,,,7156JJ,Beltrum,Berkelland,Gelderland,VBO,6.559405,52.069042
Westerhaar,7,,,7156JJ,Beltrum,Berkelland,Gelderland,VBO,6.559154,52.068507
Westerhaar,8,,,7156JJ,Beltrum,Berkelland,Gelderland,VBO,6.559195,52.069006
Westerhaar,9,,,7156JJ,Beltrum,Berkelland,Gelderland,VBO,6.559205,52.068408
Westerhaar,10,,,7156JJ,Beltrum,Berkelland,Gelderland,VBO,6.558995,52.068981
Westerhaar,11,,,7156JJ,Beltrum,Berkelland,Gelderland,VBO,6.559219,52.068344
Westerhaar,12,,,7156JJ,Beltrum,Berkelland,Gelderland,VBO,6.558778,52.068925
Westerhaar,13,,,7156JJ,Beltrum,Berkelland,Gelderland,VBO,6.559076,52.068171
Kleine Haar,2,,,7156JK,Beltrum,Berkelland,Gelderland,VBO,6.559485,52.068221
Kleine Haar,4,,,7156JK,Beltrum,Berkelland,Gelderland,VBO,6.559217,52.068017
Buurseman,1,,,7156JM,Beltrum,Berkelland,Gelderland,VBO,6.569225,52.065337
Buurseman,2,,,7156JM,Beltrum,Berkelland,Gelderland,VBO,6.568583,52.065317
Buurseman,3,,,7156JM,Beltrum,Berkelland,Gelderland,VBO,6.569283,52.065310
Buurseman,4,,,7156JM,Beltrum,Berkelland,Gelderland,VBO,6.568772,52.065279
Buurseman,5,,,7156JM,Beltrum,Berkelland,Gelderland,VBO,6.569382,52.065192
Buurseman,6,,,7156JM,Beltrum,Berkelland,Gelderland,VBO,6.568870,52.065152
Buurseman,7,,,7156JM,Beltrum,Berkelland,Gelderland,VBO,6.569439,52.065146
Buurseman,8,,,7156JM,Beltrum,Berkelland,Gelderland,VBO,6.568663,52.065037
Buurseman,9,,,7156JM,Beltrum,Berkelland,Gelderland,VBO,6.569567,52.065037
Buurseman,10,,,7156JM,Beltrum,Berkelland,Gelderland,VBO,6.568486,52.064940
Buurseman,11,,,7156JM,Beltrum,Berkelland,Gelderland,VBO,6.569609,52.064974
Buurseman,13,,,7156JM,Beltrum,Berkelland,Gelderland,VBO,6.569112,52.064898
Buurseman,15,,,7156JM,Beltrum,Berkelland,Gelderland,VBO,6.569038,52.064872
Buurseman,17,,,7156JM,Beltrum,Berkelland,Gelderland,VBO,6.568817,52.064784
Buurseman,19,,,7156JM,Beltrum,Berkelland,Gelderland,VBO,6.568754,52.064596
Buurseman,21,,,7156JM,Beltrum,Berkelland,Gelderland,VBO,6.568588,52.064391
Olden Gaorden,1,,,7156JN,Beltrum,Berkelland,Gelderland,VBO,6.570237,52.065525
Olden Gaorden,3,,,7156JN,Beltrum,Berkelland,Gelderland,VBO,6.570481,52.065405
Olden Gaorden,5,,,7156JN,Beltrum,Berkelland,Gelderland,VBO,6.570728,52.065376
Olden Gaorden,6,,,7156JN,Beltrum,Berkelland,Gelderland,VBO,6.569725,52.065476
Olden Gaorden,7,,,7156JN,Beltrum,Berkelland,Gelderland,VBO,6.571020,52.065382
Olden Gaorden,8,,,7156JN,Beltrum,Berkelland,Gelderland,VBO,6.569782,52.065430
Olden Gaorden,10,,,7156JN,Beltrum,Berkelland,Gelderland,VBO,6.569853,52.065349
Olden Gaorden,12,,,7156JN,Beltrum,Berkelland,Gelderland,VBO,6.569880,52.065295
Olden Gaorden,14,,,7156JN,Beltrum,Berkelland,Gelderland,VBO,6.569994,52.065186
Olden Gaorden,16,,,7156JN,Beltrum,Berkelland,Gelderland,VBO,6.570081,52.065149
Olden Gaorden,18,,,7156JN,Beltrum,Berkelland,Gelderland,VBO,6.570328,52.065128
Olden Gaorden,20,,,7156JN,Beltrum,Berkelland,Gelderland,VBO,6.570401,52.065119
Olden Gaorden,22,,,7156JN,Beltrum,Berkelland,Gelderland,VBO,6.570720,52.065061
Boskamp,1,,,7156JP,Beltrum,Berkelland,Gelderland,VBO,6.570369,52.066692
Boskamp,3,,,7156JP,Beltrum,Berkelland,Gelderland,VBO,6.570646,52.066671
Boskamp,7,,,7156JP,Beltrum,Berkelland,Gelderland,VBO,6.570667,52.066905
Boskamp,9,,,7156JP,Beltrum,Berkelland,Gelderland,VBO,6.570450,52.066997
Boskamp,11,,,7156JP,Beltrum,Berkelland,Gelderland,VBO,6.570411,52.067141
Boskamp,2,,,7156JR,Beltrum,Berkelland,Gelderland,VBO,6.570493,52.066394
Boskamp,4,,,7156JR,Beltrum,Berkelland,Gelderland,VBO,6.570566,52.066384
Boskamp,6,,,7156JR,Beltrum,Berkelland,Gelderland,VBO,6.570739,52.066329
Boskamp,8,,,7156JR,Beltrum,Berkelland,Gelderland,VBO,6.570841,52.066310
Boskamp,10,,,7156JR,Beltrum,Berkelland,Gelderland,VBO,6.571081,52.066577
Boskamp,12,,,7156JR,Beltrum,Berkelland,Gelderland,VBO,6.571082,52.066622
Boskamp,14,,,7156JR,Beltrum,Berkelland,Gelderland,VBO,6.571086,52.066757
Boskamp,16,,,7156JR,Beltrum,Berkelland,Gelderland,VBO,6.571073,52.066811
Boskamp,18,,,7156JR,Beltrum,Berkelland,Gelderland,VBO,6.571090,52.066927
Boskamp,20,,,7156JR,Beltrum,Berkelland,Gelderland,VBO,6.571092,52.066990
Boskamp,22,,,7156JR,Beltrum,Berkelland,Gelderland,VBO,6.570993,52.067108
Regenkamp,3,,,7156JS,Beltrum,Berkelland,Gelderland,VBO,6.570468,52.065990
Regenkamp,5,,,7156JS,Beltrum,Berkelland,Gelderland,VBO,6.570584,52.065998
Regenkamp,7,,,7156JS,Beltrum,Berkelland,Gelderland,VBO,6.570730,52.065996
Regenkamp,9,,,7156JS,Beltrum,Berkelland,Gelderland,VBO,6.570847,52.066004
Regenkamp,13,,,7156JS,Beltrum,Berkelland,Gelderland,VBO,6.571021,52.065975
Regenkamp,15,,,7156JS,Beltrum,Berkelland,Gelderland,VBO,6.571124,52.065983
Regenkamp,17,,,7156JS,Beltrum,Berkelland,Gelderland,VBO,6.571101,52.066208
Regenkamp,19,,,7156JS,Beltrum,Berkelland,Gelderland,VBO,6.571102,52.066253
Regenkamp,2,,,7156JT,Beltrum,Berkelland,Gelderland,VBO,6.570198,52.065741
Regenkamp,4,,,7156JT,Beltrum,Berkelland,Gelderland,VBO,6.570301,52.065740
Regenkamp,6,,,7156JT,Beltrum,Berkelland,Gelderland,VBO,6.570591,52.065710
Regenkamp,8,,,7156JT,Beltrum,Berkelland,Gelderland,VBO,6.570781,52.065690
Regenkamp,10,,,7156JT,Beltrum,Berkelland,Gelderland,VBO,6.570882,52.065680
Regenkamp,12,,,7156JT,Beltrum,Berkelland,Gelderland,VBO,6.571056,52.065633
Regenkamp,14,,,7156JT,Beltrum,Berkelland,Gelderland,VBO,6.571187,52.065614
Gaarden,1,,,7156JV,Beltrum,Berkelland,Gelderland,VBO,6.568405,52.065741
Gaarden,3,,,7156JV,Beltrum,Berkelland,Gelderland,VBO,6.569345,52.066010
Gaarden,5,,,7156JV,Beltrum,Berkelland,Gelderland,VBO,6.569428,52.066030
Gaarden,7,,,7156JV,Beltrum,Berkelland,Gelderland,VBO,6.569507,52.066053
Gaarden,9,,,7156JV,Beltrum,Berkelland,Gelderland,VBO,6.569684,52.066133
Gaarden,11,,,7156JV,Beltrum,Berkelland,Gelderland,VBO,6.569699,52.066168
Gaarden,13,,,7156JV,Beltrum,Berkelland,Gelderland,VBO,6.569672,52.066232
Gaarden,15,,,7156JV,Beltrum,Berkelland,Gelderland,VBO,6.569688,52.066276
Gaarden,17,,,7156JV,Beltrum,Berkelland,Gelderland,VBO,6.569718,52.066321
Gaarden,19,,,7156JV,Beltrum,Berkelland,Gelderland,VBO,6.569734,52.066366
Gaarden,21,,,7156JV,Beltrum,Berkelland,Gelderland,VBO,6.569765,52.066455
Gaarden,23,,,7156JV,Beltrum,Berkelland,Gelderland,VBO,6.569796,52.066518
Gaarden,25,,,7156JV,Beltrum,Berkelland,Gelderland,VBO,6.569756,52.066671
Gaarden,27,,,7156JV,Beltrum,Berkelland,Gelderland,VBO,6.569728,52.066716
Gaarden,29,,,7156JV,Beltrum,Berkelland,Gelderland,VBO,6.569433,52.067124
Gaarden,31,,,7156JV,Beltrum,Berkelland,Gelderland,VBO,6.569405,52.067178
Gaarden,2,b,,7156JW,Beltrum,Berkelland,Gelderland,VBO,6.567927,52.065446
Gaarden,2,,,7156JW,Beltrum,Berkelland,Gelderland,VBO,6.569115,52.065572
Gaarden,4,,,7156JW,Beltrum,Berkelland,Gelderland,VBO,6.569336,52.065660
Gaarden,6,,T01,7156JW,Beltrum,Berkelland,Gelderland,VBO,6.569787,52.065803
Gaarden,6,,,7156JW,Beltrum,Berkelland,Gelderland,VBO,6.569600,52.065711
Gaarden,12,,,7156JW,Beltrum,Berkelland,Gelderland,VBO,6.570133,52.066029
Gaarden,14,,,7156JW,Beltrum,Berkelland,Gelderland,VBO,6.570120,52.066065
Gaarden,16,,,7156JW,Beltrum,Berkelland,Gelderland,VBO,6.570108,52.066191
Gaarden,18,,,7156JW,Beltrum,Berkelland,Gelderland,VBO,6.570124,52.066245
Gaarden,20,,,7156JW,Beltrum,Berkelland,Gelderland,VBO,6.570128,52.066398
Gaarden,22,,,7156JW,Beltrum,Berkelland,Gelderland,VBO,6.570159,52.066442
Gaarden,24,,,7156JW,Beltrum,Berkelland,Gelderland,VBO,6.570110,52.066793
Gaarden,26,,,7156JW,Beltrum,Berkelland,Gelderland,VBO,6.570025,52.066920
Gaarden,28,,,7156JW,Beltrum,Berkelland,Gelderland,VBO,6.569955,52.067020
Gaarden,30,,,7156JW,Beltrum,Berkelland,Gelderland,VBO,6.569916,52.067200
Schepersmaat,1,,,7156JX,Beltrum,Berkelland,Gelderland,VBO,6.568698,52.065801
Schepersmaat,3,,,7156JX,Beltrum,Berkelland,Gelderland,VBO,6.568670,52.065846
Schepersmaat,5,,,7156JX,Beltrum,Berkelland,Gelderland,VBO,6.568627,52.065891
Schepersmaat,7,,,7156JX,Beltrum,Berkelland,Gelderland,VBO,6.568597,52.065932
Schepersmaat,9,,,7156JX,Beltrum,Berkelland,Gelderland,VBO,6.568558,52.065974
Schepersmaat,11,,,7156JX,Beltrum,Berkelland,Gelderland,VBO,6.568514,52.066027
Schepersmaat,13,,,7156JX,Beltrum,Berkelland,Gelderland,VBO,6.568449,52.066266
Schepersmaat,15,,,7156JX,Beltrum,Berkelland,Gelderland,VBO,6.568520,52.066252
Schepersmaat,17,,,7156JX,Beltrum,Berkelland,Gelderland,VBO,6.568609,52.066239
Schepersmaat,19,,,7156JX,Beltrum,Berkelland,Gelderland,VBO,6.568680,52.066232
Schepersmaat,21,,,7156JX,Beltrum,Berkelland,Gelderland,VBO,6.568738,52.066223
Schepersmaat,23,,,7156JX,Beltrum,Berkelland,Gelderland,VBO,6.568816,52.066420
Schepersmaat,25,,,7156JX,Beltrum,Berkelland,Gelderland,VBO,6.568832,52.066474
Schepersmaat,27,,,7156JX,Beltrum,Berkelland,Gelderland,VBO,6.568893,52.066581
Schepersmaat,29,,,7156JX,Beltrum,Berkelland,Gelderland,VBO,6.568909,52.066635
Schepersmaat,31,,,7156JX,Beltrum,Berkelland,Gelderland,VBO,6.568927,52.066733
Schepersmaat,33,,,7156JX,Beltrum,Berkelland,Gelderland,VBO,6.568943,52.066787
Schepersmaat,35,,,7156JX,Beltrum,Berkelland,Gelderland,VBO,6.569004,52.066894
Schepersmaat,37,,,7156JX,Beltrum,Berkelland,Gelderland,VBO,6.569051,52.067029
Schepersmaat,2,,,7156JZ,Beltrum,Berkelland,Gelderland,VBO,6.569153,52.065931
Schepersmaat,4,,,7156JZ,Beltrum,Berkelland,Gelderland,VBO,6.569125,52.065976
Schepersmaat,6,,,7156JZ,Beltrum,Berkelland,Gelderland,VBO,6.569068,52.066022
Schepersmaat,8,,,7156JZ,Beltrum,Berkelland,Gelderland,VBO,6.569072,52.066157
Schepersmaat,10,,,7156JZ,Beltrum,Berkelland,Gelderland,VBO,6.569102,52.066192
Schepersmaat,12,,,7156JZ,Beltrum,Berkelland,Gelderland,VBO,6.569147,52.066237
Schepersmaat,14,,,7156JZ,Beltrum,Berkelland,Gelderland,VBO,6.569163,52.066282
Schepersmaat,16,,,7156JZ,Beltrum,Berkelland,Gelderland,VBO,6.569184,52.066325
Schepersmaat,18,,,7156JZ,Beltrum,Berkelland,Gelderland,VBO,6.569225,52.066416
Schepersmaat,20,,,7156JZ,Beltrum,Berkelland,Gelderland,VBO,6.569240,52.066461
Schepersmaat,22,,,7156JZ,Beltrum,Berkelland,Gelderland,VBO,6.569273,52.066577
Schepersmaat,24,,,7156JZ,Beltrum,Berkelland,Gelderland,VBO,6.569274,52.066613
Schepersmaat,26,,,7156JZ,Beltrum,Berkelland,Gelderland,VBO,6.569337,52.066801
Schepersmaat,28,,,7156JZ,Beltrum,Berkelland,Gelderland,VBO,6.569529,52.066889
Schepersmaat,30,,,7156JZ,Beltrum,Berkelland,Gelderland,VBO,6.569602,52.066906
Veldpapendijk,1,,,7156KA,Beltrum,Berkelland,Gelderland,VBO,6.583320,52.042102
Veldpapendijk,2,a,,7156KA,Beltrum,Berkelland,Gelderland,VBO,6.582524,52.041130
Veldpapendijk,2,,,7156KA,Beltrum,Berkelland,Gelderland,VBO,6.582679,52.041131
Veldpapendijk,3,a,,7156KA,Beltrum,Berkelland,Gelderland,VBO,6.583328,52.041311
Veldpapendijk,3,b,,7156KA,Beltrum,Berkelland,Gelderland,VBO,6.583713,52.040965
Veldpapendijk,3,,,7156KA,Beltrum,Berkelland,Gelderland,VBO,6.583250,52.041123
Veldpapendijk,4,,,7156KA,Beltrum,Berkelland,Gelderland,VBO,6.581212,52.040648
Veldpapendijk,5,a,,7156KA,Beltrum,Berkelland,Gelderland,VBO,6.585779,52.038658
Veldpapendijk,5,,,7156KA,Beltrum,Berkelland,Gelderland,VBO,6.585699,52.038596
Veldpapendijk,6,,,7156KA,Beltrum,Berkelland,Gelderland,VBO,6.582493,52.040618
Veldpapendijk,7,,,7156KA,Beltrum,Berkelland,Gelderland,VBO,6.589131,52.039203
Veldpapendijk,8,a,,7156KA,Beltrum,Berkelland,Gelderland,VBO,6.582244,52.039859
Veldpapendijk,8,,,7156KA,Beltrum,Berkelland,Gelderland,VBO,6.582256,52.039929
Veldpapendijk,10,,,7156KA,Beltrum,Berkelland,Gelderland,VBO,6.583463,52.039246
Veldpapendijk,12,,,7156KA,Beltrum,Berkelland,Gelderland,VBO,6.583884,52.038663
Grolseweg,23,,,7156LA,Beltrum,Berkelland,Gelderland,VBO,6.588672,52.053599
Grolseweg,25,,,7156LA,Beltrum,Berkelland,Gelderland,VBO,6.588744,52.053571
Grolseweg,27,,,7156LA,Beltrum,Berkelland,Gelderland,VBO,6.591055,52.053844
Grolseweg,29,,,7156LA,Beltrum,Berkelland,Gelderland,VBO,6.595065,52.052760
Grolseweg,31,,,7156LA,Beltrum,Berkelland,Gelderland,VBO,6.599393,52.050531
Grolseweg,32,,,7156LA,Beltrum,Berkelland,Gelderland,VBO,6.592755,52.053050
Grolseweg,34,a,,7156LA,Beltrum,Berkelland,Gelderland,VBO,6.595339,52.052046
Grolseweg,34,,,7156LA,Beltrum,Berkelland,Gelderland,VBO,6.595179,52.052130
Grolseweg,36,a,,7156LA,Beltrum,Berkelland,Gelderland,VBO,6.596574,52.051254
Grolseweg,36,,,7156LA,Beltrum,Berkelland,Gelderland,VBO,6.596524,52.051190
Grolseweg,38,,,7156LA,Beltrum,Berkelland,Gelderland,VBO,6.598059,52.050239
Helbargsweg,1,a,,7156LA,Beltrum,Berkelland,Gelderland,VBO,6.593946,52.054921
Helbargsweg,1,,,7156LA,Beltrum,Berkelland,Gelderland,VBO,6.593830,52.054854
Helbargsweg,2,,,7156LA,Beltrum,Berkelland,Gelderland,VBO,6.592224,52.054461
Helbargsweg,3,,,7156LA,Beltrum,Berkelland,Gelderland,VBO,6.593693,52.054320
Grolseweg,19,,,7156LB,Beltrum,Berkelland,Gelderland,VBO,6.582227,52.055228
Grolseweg,21,,,7156LB,Beltrum,Berkelland,Gelderland,VBO,6.583622,52.054486
Grolseweg,22,,,7156LB,Beltrum,Berkelland,Gelderland,VBO,6.584252,52.053527
Grolseweg,24,,,7156LB,Beltrum,Berkelland,Gelderland,VBO,6.585303,52.053022
Grolseweg,26,,,7156LB,Beltrum,Berkelland,Gelderland,VBO,6.585694,52.052919
Grolseweg,28,,,7156LB,Beltrum,Berkelland,Gelderland,VBO,6.585793,52.053340
Grolseweg,30,,,7156LB,Beltrum,Berkelland,Gelderland,VBO,6.585809,52.053385
Klumpersweg,1,,,7156LB,Beltrum,Berkelland,Gelderland,VBO,6.589920,52.057163
Klumpersweg,2,,,7156LB,Beltrum,Berkelland,Gelderland,VBO,6.586142,52.055485
Klumpersweg,3,,,7156LB,Beltrum,Berkelland,Gelderland,VBO,6.589777,52.055664
Bosmansweg,2,,,7156LC,Beltrum,Berkelland,Gelderland,VBO,6.581175,52.056776
Bosmansweg,3,a,,7156LC,Beltrum,Berkelland,Gelderland,VBO,6.582113,52.056973
Bosmansweg,3,,,7156LC,Beltrum,Berkelland,Gelderland,VBO,6.582218,52.057071
Bosmansweg,4,,,7156LC,Beltrum,Berkelland,Gelderland,VBO,6.580940,52.055610
Ganzepoelweg,1,a,,7156LC,Beltrum,Berkelland,Gelderland,VBO,6.576132,52.059065
Ganzepoelweg,1,,,7156LC,Beltrum,Berkelland,Gelderland,VBO,6.576093,52.059060
Grolseweg,11,,,7156LC,Beltrum,Berkelland,Gelderland,VBO,6.574427,52.057455
Grolseweg,13,,,7156LC,Beltrum,Berkelland,Gelderland,VBO,6.575539,52.057067
Grolseweg,14,,,7156LC,Beltrum,Berkelland,Gelderland,VBO,6.572496,52.057790
Grolseweg,15,,T01,7156LC,Beltrum,Berkelland,Gelderland,VBO,6.576609,52.057393
Grolseweg,16,,,7156LC,Beltrum,Berkelland,Gelderland,VBO,6.572408,52.057754
Grolseweg,17,a,,7156LC,Beltrum,Berkelland,Gelderland,VBO,6.576143,52.056778
Grolseweg,17,,,7156LC,Beltrum,Berkelland,Gelderland,VBO,6.576532,52.056880
Grolseweg,18,,,7156LC,Beltrum,Berkelland,Gelderland,VBO,6.579708,52.055353
Grolseweg,20,,,7156LC,Beltrum,Berkelland,Gelderland,VBO,6.580658,52.054903
Grolseweg,1,,,7156LD,Beltrum,Berkelland,Gelderland,VBO,6.567900,52.063193
Grolseweg,2,,,7156LD,Beltrum,Berkelland,Gelderland,VBO,6.567643,52.062615
Grolseweg,3,a,,7156LD,Beltrum,Berkelland,Gelderland,VBO,6.570622,52.061368
Grolseweg,3,,,7156LD,Beltrum,Berkelland,Gelderland,VBO,6.568129,52.063029
Grolseweg,4,,,7156LD,Beltrum,Berkelland,Gelderland,VBO,6.567967,52.062410
Grolseweg,5,a,,7156LD,Beltrum,Berkelland,Gelderland,VBO,6.571796,52.059972
Grolseweg,5,,,7156LD,Beltrum,Berkelland,Gelderland,VBO,6.571824,52.059927
Grolseweg,6,a,,7156LD,Beltrum,Berkelland,Gelderland,VBO,6.568148,52.061621
Grolseweg,6,,,7156LD,Beltrum,Berkelland,Gelderland,VBO,6.568044,52.061683
Grolseweg,7,,,7156LD,Beltrum,Berkelland,Gelderland,VBO,6.572423,52.058887
Grolseweg,8,,,7156LD,Beltrum,Berkelland,Gelderland,VBO,6.570107,52.060645
Grolseweg,10,,,7156LD,Beltrum,Berkelland,Gelderland,VBO,6.570681,52.060280
Grolseweg,12,a,,7156LD,Beltrum,Berkelland,Gelderland,VBO,6.571291,52.059567
Grolseweg,12,,,7156LD,Beltrum,Berkelland,Gelderland,VBO,6.571375,52.059500
Avesterweg,28,,,7156LE,Beltrum,Berkelland,Gelderland,VBO,6.568363,52.068591
Avesterweg,30,a,,7156LE,Beltrum,Berkelland,Gelderland,VBO,6.570680,52.069044
Avesterweg,30,,,7156LE,Beltrum,Berkelland,Gelderland,VBO,6.570475,52.069019
Avesterweg,32,,,7156LE,Beltrum,Berkelland,Gelderland,VBO,6.574378,52.068243
Avesterweg,34,a,,7156LE,Beltrum,Berkelland,Gelderland,VBO,6.578229,52.068690
Avesterweg,34,,,7156LE,Beltrum,Berkelland,Gelderland,VBO,6.578066,52.068736
Avesterweg,36,,,7156LE,Beltrum,Berkelland,Gelderland,VBO,6.582676,52.067125
Avesterweg,38,,,7156LE,Beltrum,Berkelland,Gelderland,VBO,6.583162,52.066760
Avesterweg,40,a,,7156LE,Beltrum,Berkelland,Gelderland,VBO,6.591234,52.061573
Avesterweg,40,,,7156LE,Beltrum,Berkelland,Gelderland,VBO,6.591021,52.061790
Avesterweg,42,,,7156LE,Beltrum,Berkelland,Gelderland,VBO,6.591414,52.060672
Avesterweg,44,,,7156LE,Beltrum,Berkelland,Gelderland,VBO,6.591618,52.060352
Bosmansweg,1,,,7156LG,Beltrum,Berkelland,Gelderland,VBO,6.585842,52.061717
Mölleweg,6,,,7156LG,Beltrum,Berkelland,Gelderland,VBO,6.580520,52.060648
Mölleweg,8,a,,7156LG,Beltrum,Berkelland,Gelderland,VBO,6.586261,52.060122
Mölleweg,8,,,7156LG,Beltrum,Berkelland,Gelderland,VBO,6.586193,52.060132
Mölleweg,10,,,7156LG,Beltrum,Berkelland,Gelderland,VBO,6.587390,52.060147
Mölleweg,12,,,7156LG,Beltrum,Berkelland,Gelderland,VBO,6.591405,52.058694
Damweg,1,,,7156LH,Beltrum,Berkelland,Gelderland,VBO,6.578411,52.065227
Mölleweg,1,a,,7156LJ,Beltrum,Berkelland,Gelderland,VBO,6.570577,52.062968
Mölleweg,1,,,7156LJ,Beltrum,Berkelland,Gelderland,VBO,6.569202,52.062793
Mölleweg,2,,,7156LJ,Beltrum,Berkelland,Gelderland,VBO,6.571904,52.062398
Mölleweg,3,,,7156LJ,Beltrum,Berkelland,Gelderland,VBO,6.571012,52.062847
Mölleweg,4,a,,7156LJ,Beltrum,Berkelland,Gelderland,VBO,6.572737,52.062417
Mölleweg,4,b,,7156LJ,Beltrum,Berkelland,Gelderland,VBO,6.573187,52.062566
Mölleweg,4,,,7156LJ,Beltrum,Berkelland,Gelderland,VBO,6.572742,52.062537
Mölleweg,5,,,7156LJ,Beltrum,Berkelland,Gelderland,VBO,6.575315,52.062912
Dorpsstraat,1,a,,7156LK,Beltrum,Berkelland,Gelderland,VBO,6.560367,52.066783
Dorpsstraat,1,b,,7156LK,Beltrum,Berkelland,Gelderland,VBO,6.560319,52.066640
Dorpsstraat,1,,,7156LK,Beltrum,Berkelland,Gelderland,VBO,6.560509,52.066892
Dorpsstraat,3,,,7156LK,Beltrum,Berkelland,Gelderland,VBO,6.560243,52.066515
Dorpsstraat,5,,,7156LK,Beltrum,Berkelland,Gelderland,VBO,6.560167,52.066407
Dorpsstraat,7,,,7156LK,Beltrum,Berkelland,Gelderland,VBO,6.560121,52.066336
Dorpsstraat,9,,,7156LK,Beltrum,Berkelland,Gelderland,VBO,6.560075,52.066220
Dorpsstraat,11,,,7156LK,Beltrum,Berkelland,Gelderland,VBO,6.560058,52.066139
Dorpsstraat,13,,,7156LK,Beltrum,Berkelland,Gelderland,VBO,6.559953,52.066023
Dorpsstraat,15,,,7156LK,Beltrum,Berkelland,Gelderland,VBO,6.559907,52.065961
Dorpsstraat,17,,,7156LK,Beltrum,Berkelland,Gelderland,VBO,6.559773,52.065845
Dorpsstraat,19,,,7156LK,Beltrum,Berkelland,Gelderland,VBO,6.559653,52.065720
Dorpsstraat,21,,,7156LK,Beltrum,Berkelland,Gelderland,VBO,6.559622,52.065658
Dorpsstraat,23,,,7156LK,Beltrum,Berkelland,Gelderland,VBO,6.559677,52.065513
Dorpsstraat,25,,,7156LK,Beltrum,Berkelland,Gelderland,VBO,6.559761,52.065396
Dorpsstraat,27,,,7156LK,Beltrum,Berkelland,Gelderland,VBO,6.559831,52.065278
Dorpsstraat,29,,,7156LK,Beltrum,Berkelland,Gelderland,VBO,6.559959,52.065151
Dorpsstraat,2,a,,7156LL,Beltrum,Berkelland,Gelderland,VBO,6.560951,52.067361
Dorpsstraat,2,,002,7156LL,Beltrum,Berkelland,Gelderland,VBO,6.561942,52.067643
Dorpsstraat,2,,003,7156LL,Beltrum,Berkelland,Gelderland,VBO,6.561943,52.067602
Dorpsstraat,2,,004,7156LL,Beltrum,Berkelland,Gelderland,VBO,6.561949,52.067574
Dorpsstraat,2,,005,7156LL,Beltrum,Berkelland,Gelderland,VBO,6.561824,52.067587
Dorpsstraat,2,,006,7156LL,Beltrum,Berkelland,Gelderland,VBO,6.561768,52.067599
Dorpsstraat,2,,007,7156LL,Beltrum,Berkelland,Gelderland,VBO,6.561700,52.067593
Dorpsstraat,2,,008,7156LL,Beltrum,Berkelland,Gelderland,VBO,6.561625,52.067596
Dorpsstraat,2,,009,7156LL,Beltrum,Berkelland,Gelderland,VBO,6.561558,52.067629
Dorpsstraat,2,,010,7156LL,Beltrum,Berkelland,Gelderland,VBO,6.561469,52.067649
Dorpsstraat,2,,011,7156LL,Beltrum,Berkelland,Gelderland,VBO,6.561465,52.067623
Dorpsstraat,2,,012,7156LL,Beltrum,Berkelland,Gelderland,VBO,6.561525,52.067600
Dorpsstraat,2,,013,7156LL,Beltrum,Berkelland,Gelderland,VBO,6.561427,52.067585
Dorpsstraat,2,,014,7156LL,Beltrum,Berkelland,Gelderland,VBO,6.561503,52.067574
Dorpsstraat,2,,015,7156LL,Beltrum,Berkelland,Gelderland,VBO,6.561466,52.067555
Dorpsstraat,2,,016,7156LL,Beltrum,Berkelland,Gelderland,VBO,6.561514,52.067516
Dorpsstraat,2,,017,7156LL,Beltrum,Berkelland,Gelderland,VBO,6.561425,52.067530
Dorpsstraat,2,,018,7156LL,Beltrum,Berkelland,Gelderland,VBO,6.561536,52.067561
Dorpsstraat,2,,020,7156LL,Beltrum,Berkelland,Gelderland,VBO,6.561474,52.067507
Dorpsstraat,2,,021,7156LL,Beltrum,Berkelland,Gelderland,VBO,6.561427,52.067483
Dorpsstraat,2,,030,7156LL,Beltrum,Berkelland,Gelderland,VBO,6.561736,52.067577
Dorpsstraat,2,,031,7156LL,Beltrum,Berkelland,Gelderland,VBO,6.561575,52.067581
Dorpsstraat,2,,032,7156LL,Beltrum,Berkelland,Gelderland,VBO,6.561498,52.067458
Dorpsstraat,2,,033,7156LL,Beltrum,Berkelland,Gelderland,VBO,6.561448,52.067447
Dorpsstraat,2,,034,7156LL,Beltrum,Berkelland,Gelderland,VBO,6.561516,52.067434
Dorpsstraat,2,,035,7156LL,Beltrum,Berkelland,Gelderland,VBO,6.561418,52.067424
Dorpsstraat,2,,036,7156LL,Beltrum,Berkelland,Gelderland,VBO,6.561487,52.067409
Dorpsstraat,2,,037,7156LL,Beltrum,Berkelland,Gelderland,VBO,6.561425,52.067391
Dorpsstraat,2,,038,7156LL,Beltrum,Berkelland,Gelderland,VBO,6.561498,52.067379
Dorpsstraat,2,,039,7156LL,Beltrum,Berkelland,Gelderland,VBO,6.561413,52.067366
Dorpsstraat,2,,040,7156LL,Beltrum,Berkelland,Gelderland,VBO,6.561506,52.067357
Dorpsstraat,2,,041,7156LL,Beltrum,Berkelland,Gelderland,VBO,6.561444,52.067331
Dorpsstraat,2,,042,7156LL,Beltrum,Berkelland,Gelderland,VBO,6.561461,52.067310
Dorpsstraat,2,,043,7156LL,Beltrum,Berkelland,Gelderland,VBO,6.561456,52.067368
Dorpsstraat,2,,044,7156LL,Beltrum,Berkelland,Gelderland,VBO,6.561474,52.067671
Dorpsstraat,2,,045,7156LL,Beltrum,Berkelland,Gelderland,VBO,6.561603,52.067628
Dorpsstraat,2,,046,7156LL,Beltrum,Berkelland,Gelderland,VBO,6.561667,52.067577
Dorpsstraat,2,,,7156LL,Beltrum,Berkelland,Gelderland,VBO,6.561890,52.067577
Dorpsstraat,4,a,,7156LL,Beltrum,Berkelland,Gelderland,VBO,6.559952,52.066818
Dorpsstraat,4,,,7156LL,Beltrum,Berkelland,Gelderland,VBO,6.560049,52.066921
Dorpsstraat,6,,,7156LL,Beltrum,Berkelland,Gelderland,VBO,6.559883,52.066716
Dorpsstraat,8,,,7156LL,Beltrum,Berkelland,Gelderland,VBO,6.559763,52.066582
Dorpsstraat,14,,,7156LL,Beltrum,Berkelland,Gelderland,VBO,6.559679,52.066312
Dorpsstraat,16,,,7156LL,Beltrum,Berkelland,Gelderland,VBO,6.559650,52.066152
Dorpsstraat,18,,,7156LL,Beltrum,Berkelland,Gelderland,VBO,6.559545,52.066027
Dorpsstraat,20,,,7156LL,Beltrum,Berkelland,Gelderland,VBO,6.559293,52.065877
Dorpsstraat,22,,,7156LL,Beltrum,Berkelland,Gelderland,VBO,6.559173,52.065770
Dorpsstraat,24,,,7156LL,Beltrum,Berkelland,Gelderland,VBO,6.559155,52.065707
Dorpsstraat,26,a,,7156LL,Beltrum,Berkelland,Gelderland,VBO,6.558052,52.065740
Dorpsstraat,26,,,7156LL,Beltrum,Berkelland,Gelderland,VBO,6.558211,52.065771
Dorpsstraat,28,,,7156LL,Beltrum,Berkelland,Gelderland,VBO,6.557854,52.066071
Dorpsstraat,30,,,7156LL,Beltrum,Berkelland,Gelderland,VBO,6.559066,52.065591
Dorpsstraat,32,,,7156LL,Beltrum,Berkelland,Gelderland,VBO,6.559209,52.065464
Dorpsstraat,34,,,7156LL,Beltrum,Berkelland,Gelderland,VBO,6.559278,52.065320
Dorpsstraat,36,,,7156LL,Beltrum,Berkelland,Gelderland,VBO,6.559421,52.065192
Dorpsstraat,40,,,7156LL,Beltrum,Berkelland,Gelderland,VBO,6.559544,52.064877
Haarstraat,1,a,,7156LM,Beltrum,Berkelland,Gelderland,VBO,6.559726,52.067958
Haarstraat,1,b,,7156LM,Beltrum,Berkelland,Gelderland,VBO,6.559927,52.067995
Haarstraat,1,,,7156LM,Beltrum,Berkelland,Gelderland,VBO,6.559873,52.067417
Haarstraat,3,,,7156LM,Beltrum,Berkelland,Gelderland,VBO,6.559881,52.068289
Haarstraat,5,,,7156LM,Beltrum,Berkelland,Gelderland,VBO,6.559882,52.068343
Haarstraat,7,,,7156LM,Beltrum,Berkelland,Gelderland,VBO,6.559841,52.068451
Haarstraat,9,,,7156LM,Beltrum,Berkelland,Gelderland,VBO,6.559814,52.068505
Haarstraat,11,,,7156LM,Beltrum,Berkelland,Gelderland,VBO,6.559802,52.068604
Haarstraat,13,,,7156LM,Beltrum,Berkelland,Gelderland,VBO,6.559789,52.068667
Haarstraat,15,,,7156LM,Beltrum,Berkelland,Gelderland,VBO,6.559763,52.068781
Haarstraat,17,,,7156LM,Beltrum,Berkelland,Gelderland,VBO,6.559735,52.068830
Haarstraat,19,,,7156LM,Beltrum,Berkelland,Gelderland,VBO,6.559802,52.069153
Haarstraat,21,,,7156LM,Beltrum,Berkelland,Gelderland,VBO,6.559888,52.069177
Haarstraat,23,,,7156LM,Beltrum,Berkelland,Gelderland,VBO,6.560052,52.069231
Haarstraat,25,,,7156LM,Beltrum,Berkelland,Gelderland,VBO,6.560140,52.069266
Haarstraat,27,a,,7156LM,Beltrum,Berkelland,Gelderland,VBO,6.560492,52.069344
Haarstraat,27,,,7156LM,Beltrum,Berkelland,Gelderland,VBO,6.560331,52.069318
Haarstraat,29,a,,7156LM,Beltrum,Berkelland,Gelderland,VBO,6.560831,52.069466
Haarstraat,29,,,7156LM,Beltrum,Berkelland,Gelderland,VBO,6.560684,52.069432
Haarstraat,31,,,7156LM,Beltrum,Berkelland,Gelderland,VBO,6.561065,52.069509
Haarstraat,33,,,7156LM,Beltrum,Berkelland,Gelderland,VBO,6.561256,52.069552
Haarstraat,35,,,7156LM,Beltrum,Berkelland,Gelderland,VBO,6.561608,52.069620
Haarstraat,2,,T01,7156LN,Beltrum,Berkelland,Gelderland,VBO,6.560525,52.067147
Haarstraat,2,,,7156LN,Beltrum,Berkelland,Gelderland,VBO,6.560545,52.067455
Haarstraat,4,,,7156LN,Beltrum,Berkelland,Gelderland,VBO,6.560449,52.067699
Haarstraat,6,,,7156LN,Beltrum,Berkelland,Gelderland,VBO,6.560451,52.067762
Haarstraat,8,,,7156LN,Beltrum,Berkelland,Gelderland,VBO,6.560757,52.067777
Haarstraat,10,a,,7156LN,Beltrum,Berkelland,Gelderland,VBO,6.561635,52.067867
Haarstraat,10,b,,7156LN,Beltrum,Berkelland,Gelderland,VBO,6.561663,52.067849
Haarstraat,10,c,,7156LN,Beltrum,Berkelland,Gelderland,VBO,6.561634,52.067831
Haarstraat,10,d,,7156LN,Beltrum,Berkelland,Gelderland,VBO,6.561605,52.067849
Haarstraat,10,e,,7156LN,Beltrum,Berkelland,Gelderland,VBO,6.561635,52.067876
Haarstraat,10,f,,7156LN,Beltrum,Berkelland,Gelderland,VBO,6.561664,52.067867
Haarstraat,10,g,,7156LN,Beltrum,Berkelland,Gelderland,VBO,6.561678,52.067849
Haarstraat,10,h,,7156LN,Beltrum,Berkelland,Gelderland,VBO,6.561663,52.067831
Haarstraat,10,i,,7156LN,Beltrum,Berkelland,Gelderland,VBO,6.561634,52.067822
Haarstraat,10,,,7156LN,Beltrum,Berkelland,Gelderland,VBO,6.560933,52.067802
Haarstraat,12,,,7156LN,Beltrum,Berkelland,Gelderland,VBO,6.560852,52.068055
Haarstraat,14,,,7156LN,Beltrum,Berkelland,Gelderland,VBO,6.560706,52.068047
Haarstraat,16,,,7156LN,Beltrum,Berkelland,Gelderland,VBO,6.560384,52.068005
Haarstraat,18,,,7156LN,Beltrum,Berkelland,Gelderland,VBO,6.560343,52.068114
Haarstraat,20,,,7156LN,Beltrum,Berkelland,Gelderland,VBO,6.560302,52.068222
Haarstraat,22,,,7156LN,Beltrum,Berkelland,Gelderland,VBO,6.560276,52.068330
Haarstraat,24,,,7156LN,Beltrum,Berkelland,Gelderland,VBO,6.560264,52.068438
Haarstraat,26,,,7156LN,Beltrum,Berkelland,Gelderland,VBO,6.560571,52.068462
Haarstraat,28,a,,7156LN,Beltrum,Berkelland,Gelderland,VBO,6.560889,52.068598
Haarstraat,28,,,7156LN,Beltrum,Berkelland,Gelderland,VBO,6.560762,52.068496
Haarstraat,30,,,7156LN,Beltrum,Berkelland,Gelderland,VBO,6.560680,52.068730
Haarstraat,32,,,7156LN,Beltrum,Berkelland,Gelderland,VBO,6.560520,52.068732
Haarstraat,34,,,7156LN,Beltrum,Berkelland,Gelderland,VBO,6.560183,52.068690
Haarstraat,36,,,7156LN,Beltrum,Berkelland,Gelderland,VBO,6.560155,52.068736
Haarstraat,38,,,7156LN,Beltrum,Berkelland,Gelderland,VBO,6.560143,52.068844
Haarstraat,40,,,7156LN,Beltrum,Berkelland,Gelderland,VBO,6.560130,52.068898
Haarstraat,42,,,7156LN,Beltrum,Berkelland,Gelderland,VBO,6.560382,52.069030
Haarstraat,44,,,7156LN,Beltrum,Berkelland,Gelderland,VBO,6.560558,52.069073
Haarstraat,46,,,7156LP,Beltrum,Berkelland,Gelderland,VBO,6.560705,52.069126
Haarstraat,48,,,7156LP,Beltrum,Berkelland,Gelderland,VBO,6.560808,52.069152
Haarstraat,50,,,7156LP,Beltrum,Berkelland,Gelderland,VBO,6.560963,52.068934
Haarstraat,52,,,7156LP,Beltrum,Berkelland,Gelderland,VBO,6.561005,52.068880
Haarstraat,54,,,7156LP,Beltrum,Berkelland,Gelderland,VBO,6.561314,52.068967
Haarstraat,56,,,7156LP,Beltrum,Berkelland,Gelderland,VBO,6.561301,52.069030
Haarstraat,58,,,7156LP,Beltrum,Berkelland,Gelderland,VBO,6.561131,52.069247
Haarstraat,60,,,7156LP,Beltrum,Berkelland,Gelderland,VBO,6.561249,52.069273
Haarstraat,62,,,7156LP,Beltrum,Berkelland,Gelderland,VBO,6.561395,52.069299
Haarstraat,64,,,7156LP,Beltrum,Berkelland,Gelderland,VBO,6.561571,52.069324
Haarstraat,66,,,7156LP,Beltrum,Berkelland,Gelderland,VBO,6.561761,52.069349
Hofstraat,1,,,7156LR,Beltrum,Berkelland,Gelderland,VBO,6.562517,52.065935
Hofstraat,3,,,7156LR,Beltrum,Berkelland,Gelderland,VBO,6.562589,52.065880
Hofstraat,5,,,7156LR,Beltrum,Berkelland,Gelderland,VBO,6.562777,52.065815
Hofstraat,7,,,7156LR,Beltrum,Berkelland,Gelderland,VBO,6.562848,52.065761
Hofstraat,9,,,7156LR,Beltrum,Berkelland,Gelderland,VBO,6.562963,52.065678
Hofstraat,11,,,7156LR,Beltrum,Berkelland,Gelderland,VBO,6.563019,52.065615
Hofstraat,13,,,7156LR,Beltrum,Berkelland,Gelderland,VBO,6.563044,52.065444
Hofstraat,15,,,7156LR,Beltrum,Berkelland,Gelderland,VBO,6.563072,52.065381
Hofstraat,2,,,7156LS,Beltrum,Berkelland,Gelderland,VBO,6.560609,52.066929
Hofstraat,4,,,7156LS,Beltrum,Berkelland,Gelderland,VBO,6.560742,52.066626
Hofstraat,6,,,7156LS,Beltrum,Berkelland,Gelderland,VBO,6.560871,52.066535
Hofstraat,8,,,7156LS,Beltrum,Berkelland,Gelderland,VBO,6.561029,52.066462
Hofstraat,10,,,7156LS,Beltrum,Berkelland,Gelderland,VBO,6.561143,52.066371
Hofstraat,12,,,7156LS,Beltrum,Berkelland,Gelderland,VBO,6.561272,52.066280
Hofstraat,14,,,7156LS,Beltrum,Berkelland,Gelderland,VBO,6.561359,52.066234
Hofstraat,16,,,7156LT,Beltrum,Berkelland,Gelderland,VBO,6.562206,52.065731
Hofstraat,18,,,7156LT,Beltrum,Berkelland,Gelderland,VBO,6.562306,52.065667
Hofstraat,20,,,7156LT,Beltrum,Berkelland,Gelderland,VBO,6.562464,52.065576
Hofstraat,22,,,7156LT,Beltrum,Berkelland,Gelderland,VBO,6.562536,52.065521
Hofstraat,24,,,7156LT,Beltrum,Berkelland,Gelderland,VBO,6.562621,52.065430
Hofstraat,26,,,7156LT,Beltrum,Berkelland,Gelderland,VBO,6.562648,52.065349
Kampstraat,5,,,7156LV,Beltrum,Berkelland,Gelderland,VBO,6.562451,52.066178
Kampstraat,7,,,7156LV,Beltrum,Berkelland,Gelderland,VBO,6.562288,52.066072
Kampstraat,9,,,7156LV,Beltrum,Berkelland,Gelderland,VBO,6.562035,52.065885
Kampstraat,11,,,7156LV,Beltrum,Berkelland,Gelderland,VBO,6.561961,52.065841
Kampstraat,13,,,7156LV,Beltrum,Berkelland,Gelderland,VBO,6.561842,52.065762
Kampstraat,15,,,7156LV,Beltrum,Berkelland,Gelderland,VBO,6.561768,52.065717
Kampstraat,17,,,7156LV,Beltrum,Berkelland,Gelderland,VBO,6.561664,52.065637
Kampstraat,19,,,7156LV,Beltrum,Berkelland,Gelderland,VBO,6.561604,52.065602
Kampstraat,21,,,7156LV,Beltrum,Berkelland,Gelderland,VBO,6.561486,52.065522
Kampstraat,2,,,7156LW,Beltrum,Berkelland,Gelderland,VBO,6.561515,52.066088
Kampstraat,4,,,7156LW,Beltrum,Berkelland,Gelderland,VBO,6.561453,52.065954
Kampstraat,6,,,7156LW,Beltrum,Berkelland,Gelderland,VBO,6.561364,52.065901
Kampstraat,8,,,7156LW,Beltrum,Berkelland,Gelderland,VBO,6.561260,52.065821
Kampstraat,10,,,7156LW,Beltrum,Berkelland,Gelderland,VBO,6.561171,52.065768
Kampstraat,12,,,7156LW,Beltrum,Berkelland,Gelderland,VBO,6.561052,52.065680
Kampstraat,14,,,7156LW,Beltrum,Berkelland,Gelderland,VBO,6.560949,52.065636
Kampstraat,16,,,7156LW,Beltrum,Berkelland,Gelderland,VBO,6.560845,52.065556
Kampstraat,18,,,7156LW,Beltrum,Berkelland,Gelderland,VBO,6.560771,52.065503
Kampstraat,20,,,7156LW,Beltrum,Berkelland,Gelderland,VBO,6.560623,52.065423
Kampstraat,22,,,7156LW,Beltrum,Berkelland,Gelderland,VBO,6.560563,52.065370
Kampstraat,23,a,,7156LW,Beltrum,Berkelland,Gelderland,VBO,6.560549,52.064831
Kampstraat,23,b,,7156LW,Beltrum,Berkelland,Gelderland,VBO,6.560689,52.064941
Kampstraat,23,,,7156LW,Beltrum,Berkelland,Gelderland,VBO,6.560845,52.065007
Kampstraat,24,,,7156LW,Beltrum,Berkelland,Gelderland,VBO,6.560400,52.065282
Kampstraat,26,,,7156LW,Beltrum,Berkelland,Gelderland,VBO,6.560326,52.065228
Kampstraat,27,a,,7156LW,Beltrum,Berkelland,Gelderland,VBO,6.559930,52.064585
Kampstraat,27,,,7156LW,Beltrum,Berkelland,Gelderland,VBO,6.560048,52.064629
Kampstraat,28,,,7156LW,Beltrum,Berkelland,Gelderland,VBO,6.560044,52.065060
Hassinkstraat,1,,,7156LX,Beltrum,Berkelland,Gelderland,VBO,6.563922,52.065013
Hassinkstraat,3,a,,7156LX,Beltrum,Berkelland,Gelderland,VBO,6.563261,52.064822
Hassinkstraat,3,b,,7156LX,Beltrum,Berkelland,Gelderland,VBO,6.563042,52.064797
Hassinkstraat,3,,,7156LX,Beltrum,Berkelland,Gelderland,VBO,6.563569,52.064863
Hassinkstraat,5,a,,7156LX,Beltrum,Berkelland,Gelderland,VBO,6.562692,52.064809
Hassinkstraat,5,,,7156LX,Beltrum,Berkelland,Gelderland,VBO,6.562779,52.064799
Hassinkstraat,7,,,7156LX,Beltrum,Berkelland,Gelderland,VBO,6.562446,52.064866
Hassinkstraat,9,,,7156LX,Beltrum,Berkelland,Gelderland,VBO,6.562315,52.064876
Hassinkstraat,11,,,7156LX,Beltrum,Berkelland,Gelderland,VBO,6.562111,52.064896
Hassinkstraat,13,,,7156LX,Beltrum,Berkelland,Gelderland,VBO,6.561922,52.064916
Hassinkstraat,15,,,7156LX,Beltrum,Berkelland,Gelderland,VBO,6.561748,52.064953
Hassinkstraat,17,,,7156LX,Beltrum,Berkelland,Gelderland,VBO,6.561544,52.064974
Hassinkstraat,19,,,7156LX,Beltrum,Berkelland,Gelderland,VBO,6.561341,52.065011
Hassinkstraat,21,,,7156LX,Beltrum,Berkelland,Gelderland,VBO,6.561122,52.065005
Hassinkstraat,2,,,7156LZ,Beltrum,Berkelland,Gelderland,VBO,6.563313,52.065127
Hassinkstraat,4,,,7156LZ,Beltrum,Berkelland,Gelderland,VBO,6.563093,52.065093
Hassinkstraat,6,,,7156LZ,Beltrum,Berkelland,Gelderland,VBO,6.562801,52.065069
Hassinkstraat,8,,,7156LZ,Beltrum,Berkelland,Gelderland,VBO,6.562699,52.065070
Hassinkstraat,10,,,7156LZ,Beltrum,Berkelland,Gelderland,VBO,6.562524,52.065090
Hassinkstraat,12,,,7156LZ,Beltrum,Berkelland,Gelderland,VBO,6.562423,52.065100
Hassinkstraat,14,,,7156LZ,Beltrum,Berkelland,Gelderland,VBO,6.562263,52.065119
Hassinkstraat,16,,,7156LZ,Beltrum,Berkelland,Gelderland,VBO,6.562161,52.065138
Hassinkstraat,18,,,7156LZ,Beltrum,Berkelland,Gelderland,VBO,6.561972,52.065167
Hassinkstraat,20,,,7156LZ,Beltrum,Berkelland,Gelderland,VBO,6.561914,52.065168
Hassinkstraat,22,,,7156LZ,Beltrum,Berkelland,Gelderland,VBO,6.561711,52.065206
Hassinkstraat,24,,,7156LZ,Beltrum,Berkelland,Gelderland,VBO,6.561623,52.065206
Hassinkstraat,26,,,7156LZ,Beltrum,Berkelland,Gelderland,VBO,6.561405,52.065236
Hassinkstraat,28,,,7156LZ,Beltrum,Berkelland,Gelderland,VBO,6.561144,52.065274
Meester Nelissenstraat,1,a,,7156MA,Beltrum,Berkelland,Gelderland,VBO,6.562413,52.070268
Meester Nelissenstraat,1,b,,7156MA,Beltrum,Berkelland,Gelderland,VBO,6.562201,52.070558
Meester Nelissenstraat,1,d,,7156MA,Beltrum,Berkelland,Gelderland,VBO,6.562381,52.070349
Meester Nelissenstraat,1,,,7156MA,Beltrum,Berkelland,Gelderland,VBO,6.562465,52.069819
Meester Nelissenstraat,3,,,7156MA,Beltrum,Berkelland,Gelderland,VBO,6.562529,52.069701
Meester Nelissenstraat,5,a,,7156MA,Beltrum,Berkelland,Gelderland,VBO,6.562816,52.069527
Meester Nelissenstraat,5,,,7156MA,Beltrum,Berkelland,Gelderland,VBO,6.562628,52.069592
Meester Nelissenstraat,7,,,7156MA,Beltrum,Berkelland,Gelderland,VBO,6.562681,52.069394
Meester Nelissenstraat,9,,,7156MA,Beltrum,Berkelland,Gelderland,VBO,6.562763,52.069168
Meester Nelissenstraat,11,,,7156MA,Beltrum,Berkelland,Gelderland,VBO,6.562875,52.069005
Meester Nelissenstraat,17,,,7156MA,Beltrum,Berkelland,Gelderland,VBO,6.562907,52.068546
Meester Nelissenstraat,19,a,,7156MA,Beltrum,Berkelland,Gelderland,VBO,6.563064,52.068266
Meester Nelissenstraat,19,b,,7156MA,Beltrum,Berkelland,Gelderland,VBO,6.563050,52.068324
Meester Nelissenstraat,19,c,,7156MA,Beltrum,Berkelland,Gelderland,VBO,6.563123,52.068254
Meester Nelissenstraat,19,d,,7156MA,Beltrum,Berkelland,Gelderland,VBO,6.563177,52.068269
Meester Nelissenstraat,19,e,,7156MA,Beltrum,Berkelland,Gelderland,VBO,6.563546,52.068478
Meester Nelissenstraat,19,f,,7156MA,Beltrum,Berkelland,Gelderland,VBO,6.563477,52.068462
Meester Nelissenstraat,19,g,,7156MA,Beltrum,Berkelland,Gelderland,VBO,6.563416,52.068446
Meester Nelissenstraat,19,h,,7156MA,Beltrum,Berkelland,Gelderland,VBO,6.563354,52.068430
Meester Nelissenstraat,19,j,,7156MA,Beltrum,Berkelland,Gelderland,VBO,6.563573,52.068440
Meester Nelissenstraat,19,k,,7156MA,Beltrum,Berkelland,Gelderland,VBO,6.563512,52.068424
Meester Nelissenstraat,19,l,,7156MA,Beltrum,Berkelland,Gelderland,VBO,6.563450,52.068408
Meester Nelissenstraat,19,m,,7156MA,Beltrum,Berkelland,Gelderland,VBO,6.563395,52.068386
Meester Nelissenstraat,19,n,,7156MA,Beltrum,Berkelland,Gelderland,VBO,6.563302,52.068411
Meester Nelissenstraat,19,p,,7156MA,Beltrum,Berkelland,Gelderland,VBO,6.563326,52.068364
Meester Nelissenstraat,19,,,7156MA,Beltrum,Berkelland,Gelderland,VBO,6.563104,52.068302
Meester Nelissenstraat,21,,,7156MA,Beltrum,Berkelland,Gelderland,VBO,6.563227,52.067950
Meester Nelissenstraat,23,,,7156MA,Beltrum,Berkelland,Gelderland,VBO,6.563614,52.067703
Meester Nelissenstraat,25,,,7156MA,Beltrum,Berkelland,Gelderland,VBO,6.563668,52.067532
Meester Nelissenstraat,27,,,7156MA,Beltrum,Berkelland,Gelderland,VBO,6.563804,52.067426
Meester Nelissenstraat,29,a,,7156MA,Beltrum,Berkelland,Gelderland,VBO,6.563674,52.067121
Meester Nelissenstraat,29,b,,7156MA,Beltrum,Berkelland,Gelderland,VBO,6.563672,52.067084
Meester Nelissenstraat,29,c,,7156MA,Beltrum,Berkelland,Gelderland,VBO,6.563630,52.067043
Meester Nelissenstraat,29,,,7156MA,Beltrum,Berkelland,Gelderland,VBO,6.563766,52.067273
Meester Nelissenstraat,31,,,7156MB,Beltrum,Berkelland,Gelderland,VBO,6.563456,52.066707
Meester Nelissenstraat,33,,,7156MB,Beltrum,Berkelland,Gelderland,VBO,6.563447,52.066590
Meester Nelissenstraat,35,,,7156MB,Beltrum,Berkelland,Gelderland,VBO,6.563489,52.066540
Meester Nelissenstraat,37,,T01,7156MB,Beltrum,Berkelland,Gelderland,VBO,6.563573,52.066273
Meester Nelissenstraat,37,,,7156MB,Beltrum,Berkelland,Gelderland,VBO,6.563652,52.066391
Meester Nelissenstraat,39,,,7156MB,Beltrum,Berkelland,Gelderland,VBO,6.563765,52.066237
Meester Nelissenstraat,41,,,7156MB,Beltrum,Berkelland,Gelderland,VBO,6.563835,52.066128
Meester Nelissenstraat,43,a,,7156MB,Beltrum,Berkelland,Gelderland,VBO,6.563962,52.065974
Meester Nelissenstraat,43,,,7156MB,Beltrum,Berkelland,Gelderland,VBO,6.563920,52.066019
Meester Nelissenstraat,57,,,7156MB,Beltrum,Berkelland,Gelderland,VBO,6.565744,52.064950
Meester Nelissenstraat,59,a,,7156MB,Beltrum,Berkelland,Gelderland,VBO,6.566065,52.064825
Meester Nelissenstraat,59,,,7156MB,Beltrum,Berkelland,Gelderland,VBO,6.566002,52.064794
Meester Nelissenstraat,61,,,7156MB,Beltrum,Berkelland,Gelderland,VBO,6.566088,52.064712
Meester Nelissenstraat,63,,,7156MB,Beltrum,Berkelland,Gelderland,VBO,6.566262,52.064649
Meester Nelissenstraat,65,a,,7156MB,Beltrum,Berkelland,Gelderland,VBO,6.566641,52.064445
Meester Nelissenstraat,65,,,7156MB,Beltrum,Berkelland,Gelderland,VBO,6.566636,52.064500
Meester Nelissenstraat,67,a,,7156MB,Beltrum,Berkelland,Gelderland,VBO,6.566827,52.064140
Meester Nelissenstraat,67,,,7156MB,Beltrum,Berkelland,Gelderland,VBO,6.566747,52.064274
Meester Nelissenstraat,69,,,7156MB,Beltrum,Berkelland,Gelderland,VBO,6.567016,52.063975
Meester Nelissenstraat,71,,,7156MB,Beltrum,Berkelland,Gelderland,VBO,6.567173,52.063821
Meester Nelissenstraat,73,,,7156MB,Beltrum,Berkelland,Gelderland,VBO,6.567299,52.063622
Meester Nelissenstraat,2,a,,7156MC,Beltrum,Berkelland,Gelderland,VBO,6.561771,52.070293
Meester Nelissenstraat,2,b,,7156MC,Beltrum,Berkelland,Gelderland,VBO,6.561826,52.070157
Meester Nelissenstraat,2,,,7156MC,Beltrum,Berkelland,Gelderland,VBO,6.561866,52.070004
Meester Nelissenstraat,4,a,,7156MC,Beltrum,Berkelland,Gelderland,VBO,6.562003,52.069661
Meester Nelissenstraat,4,,,7156MC,Beltrum,Berkelland,Gelderland,VBO,6.561963,52.069814
Meester Nelissenstraat,6,,,7156MC,Beltrum,Berkelland,Gelderland,VBO,6.562098,52.069400
Meester Nelissenstraat,8,,,7156MC,Beltrum,Berkelland,Gelderland,VBO,6.562153,52.069264
Meester Nelissenstraat,10,,,7156MC,Beltrum,Berkelland,Gelderland,VBO,6.562180,52.069192
Meester Nelissenstraat,12,,,7156MC,Beltrum,Berkelland,Gelderland,VBO,6.562249,52.069038
Meester Nelissenstraat,14,a,,7156MC,Beltrum,Berkelland,Gelderland,VBO,6.562869,52.067617
Meester Nelissenstraat,14,,,7156MC,Beltrum,Berkelland,Gelderland,VBO,6.562863,52.067532
Meester Nelissenstraat,16,,,7156MD,Beltrum,Berkelland,Gelderland,VBO,6.562997,52.066424
Meester Nelissenstraat,20,b,,7156MD,Beltrum,Berkelland,Gelderland,VBO,6.563252,52.066134
Meester Nelissenstraat,20,c,,7156MD,Beltrum,Berkelland,Gelderland,VBO,6.563280,52.066098
Meester Nelissenstraat,20,d,,7156MD,Beltrum,Berkelland,Gelderland,VBO,6.563322,52.066043
Meester Nelissenstraat,20,,,7156MD,Beltrum,Berkelland,Gelderland,VBO,6.563226,52.066251
Meester Nelissenstraat,22,,,7156MD,Beltrum,Berkelland,Gelderland,VBO,6.563451,52.065934
Meester Nelissenstraat,24,,,7156MD,Beltrum,Berkelland,Gelderland,VBO,6.563568,52.065818
Meester Nelissenstraat,26,,,7156MD,Beltrum,Berkelland,Gelderland,VBO,6.563604,52.065654
Meester Nelissenstraat,28,,,7156MD,Beltrum,Berkelland,Gelderland,VBO,6.563761,52.065527
Meester Nelissenstraat,30,,,7156MD,Beltrum,Berkelland,Gelderland,VBO,6.564248,52.065207
Meester Nelissenstraat,34,,,7156MD,Beltrum,Berkelland,Gelderland,VBO,6.564493,52.065079
Meester Nelissenstraat,36,,,7156MD,Beltrum,Berkelland,Gelderland,VBO,6.564607,52.064979
Meester Nelissenstraat,38,,,7156MD,Beltrum,Berkelland,Gelderland,VBO,6.564735,52.064852
Meester Nelissenstraat,40,,,7156MD,Beltrum,Berkelland,Gelderland,VBO,6.565040,52.064804
Meester Nelissenstraat,42,,,7156MD,Beltrum,Berkelland,Gelderland,VBO,6.565126,52.064740
Meester Nelissenstraat,44,a,,7156MD,Beltrum,Berkelland,Gelderland,VBO,6.565412,52.064506
Meester Nelissenstraat,44,b,,7156MD,Beltrum,Berkelland,Gelderland,VBO,6.565397,52.064559
Meester Nelissenstraat,44,c,,7156MD,Beltrum,Berkelland,Gelderland,VBO,6.565402,52.064616
Meester Nelissenstraat,44,d,,7156MD,Beltrum,Berkelland,Gelderland,VBO,6.565456,52.064601
Meester Nelissenstraat,44,,,7156MD,Beltrum,Berkelland,Gelderland,VBO,6.565511,52.064582
Meester Nelissenstraat,46,,,7156MD,Beltrum,Berkelland,Gelderland,VBO,6.565747,52.064500
Meester Nelissenstraat,48,,,7156MD,Beltrum,Berkelland,Gelderland,VBO,6.566046,52.064223
Achterom,1,a,,7156ME,Beltrum,Berkelland,Gelderland,VBO,6.562156,52.068314
Achterom,1,,,7156ME,Beltrum,Berkelland,Gelderland,VBO,6.562292,52.067866
Mariaplein,4,a,,7156MG,Beltrum,Berkelland,Gelderland,VBO,6.562366,52.067304
Mariaplein,4,b,,7156MG,Beltrum,Berkelland,Gelderland,VBO,6.562320,52.067285
Mariaplein,4,c,,7156MG,Beltrum,Berkelland,Gelderland,VBO,6.562290,52.067267
Mariaplein,4,d,,7156MG,Beltrum,Berkelland,Gelderland,VBO,6.562261,52.067285
Mariaplein,4,,,7156MG,Beltrum,Berkelland,Gelderland,VBO,6.562643,52.067372
Mariaplein,6,a,,7156MG,Beltrum,Berkelland,Gelderland,VBO,6.562220,52.066891
Mariaplein,6,b,,7156MG,Beltrum,Berkelland,Gelderland,VBO,6.562321,52.066935
Mariaplein,6,,,7156MG,Beltrum,Berkelland,Gelderland,VBO,6.562281,52.066935
Mariaplein,8,,,7156MG,Beltrum,Berkelland,Gelderland,VBO,6.561838,52.066705
Mariaplein,12,,,7156MG,Beltrum,Berkelland,Gelderland,VBO,6.562477,52.066618
Avesterweg,1,a,,7156MH,Beltrum,Berkelland,Gelderland,VBO,6.564858,52.068744
Avesterweg,1,b,,7156MH,Beltrum,Berkelland,Gelderland,VBO,6.564664,52.068586
Avesterweg,1,,T01,7156MH,Beltrum,Berkelland,Gelderland,VBO,6.564994,52.069418
Avesterweg,1,,T02,7156MH,Beltrum,Berkelland,Gelderland,VBO,6.567046,52.068758
Avesterweg,1,,,7156MH,Beltrum,Berkelland,Gelderland,VBO,6.564968,52.068669
Avesterweg,3,,,7156MH,Beltrum,Berkelland,Gelderland,VBO,6.569740,52.069377
Avesterweg,4,,,7156MH,Beltrum,Berkelland,Gelderland,VBO,6.564316,52.067786
Avesterweg,5,,,7156MH,Beltrum,Berkelland,Gelderland,VBO,6.574027,52.069864
Avesterweg,6,,,7156MH,Beltrum,Berkelland,Gelderland,VBO,6.564477,52.067812
Avesterweg,7,,,7156MH,Beltrum,Berkelland,Gelderland,VBO,6.575290,52.069636
Avesterweg,8,,,7156MH,Beltrum,Berkelland,Gelderland,VBO,6.565093,52.067922
Avesterweg,9,a,,7156MH,Beltrum,Berkelland,Gelderland,VBO,6.577886,52.069173
Avesterweg,9,,,7156MH,Beltrum,Berkelland,Gelderland,VBO,6.577729,52.069198
Avesterweg,10,,,7156MH,Beltrum,Berkelland,Gelderland,VBO,6.565210,52.067948
Avesterweg,11,,,7156MH,Beltrum,Berkelland,Gelderland,VBO,6.584928,52.066778
Avesterweg,12,,,7156MH,Beltrum,Berkelland,Gelderland,VBO,6.565283,52.067956
Avesterweg,13,,,7156MH,Beltrum,Berkelland,Gelderland,VBO,6.590695,52.062675
Avesterweg,14,,,7156MH,Beltrum,Berkelland,Gelderland,VBO,6.565416,52.067991
Avesterweg,15,,,7156MH,Beltrum,Berkelland,Gelderland,VBO,6.595781,52.056591
Avesterweg,16,,,7156MH,Beltrum,Berkelland,Gelderland,VBO,6.565533,52.068026
Avesterweg,17,a,,7156MH,Beltrum,Berkelland,Gelderland,VBO,6.596828,52.055412
Avesterweg,17,,,7156MH,Beltrum,Berkelland,Gelderland,VBO,6.596886,52.055384
Avesterweg,18,,,7156MH,Beltrum,Berkelland,Gelderland,VBO,6.565636,52.068052
Avesterweg,19,a,,7156MH,Beltrum,Berkelland,Gelderland,VBO,6.598597,52.053443
Avesterweg,19,,,7156MH,Beltrum,Berkelland,Gelderland,VBO,6.598565,52.053395
Avesterweg,20,,,7156MH,Beltrum,Berkelland,Gelderland,VBO,6.565987,52.068102
Avesterweg,21,a,,7156MH,Beltrum,Berkelland,Gelderland,VBO,6.602718,52.051839
Avesterweg,21,,,7156MH,Beltrum,Berkelland,Gelderland,VBO,6.602654,52.051809
Avesterweg,22,,,7156MH,Beltrum,Berkelland,Gelderland,VBO,6.566105,52.068128
Avesterweg,24,,,7156MH,Beltrum,Berkelland,Gelderland,VBO,6.566164,52.068145
Avesterweg,26,,,7156MH,Beltrum,Berkelland,Gelderland,VBO,6.566515,52.068187
Batenburgstraat,1,,,7156MJ,Beltrum,Berkelland,Gelderland,VBO,6.566085,52.067939
Batenburgstraat,2,,,7156MJ,Beltrum,Berkelland,Gelderland,VBO,6.565704,52.067862
Batenburgstraat,3,,,7156MJ,Beltrum,Berkelland,Gelderland,VBO,6.566128,52.067885
Batenburgstraat,4,,,7156MJ,Beltrum,Berkelland,Gelderland,VBO,6.565761,52.067808
Batenburgstraat,5,,,7156MJ,Beltrum,Berkelland,Gelderland,VBO,6.566197,52.067768
Batenburgstraat,6,,,7156MJ,Beltrum,Berkelland,Gelderland,VBO,6.565802,52.067700
Batenburgstraat,7,,,7156MJ,Beltrum,Berkelland,Gelderland,VBO,6.566225,52.067704
Batenburgstraat,8,,,7156MJ,Beltrum,Berkelland,Gelderland,VBO,6.565844,52.067636
Batenburgstraat,9,,,7156MJ,Beltrum,Berkelland,Gelderland,VBO,6.566295,52.067605
Batenburgstraat,10,,,7156MJ,Beltrum,Berkelland,Gelderland,VBO,6.565885,52.067519
Batenburgstraat,11,,,7156MJ,Beltrum,Berkelland,Gelderland,VBO,6.566323,52.067542
Batenburgstraat,12,,,7156MJ,Beltrum,Berkelland,Gelderland,VBO,6.565941,52.067464
Slieperstraat,1,,,7156MK,Beltrum,Berkelland,Gelderland,VBO,6.565206,52.067786
Slieperstraat,3,,,7156MK,Beltrum,Berkelland,Gelderland,VBO,6.565219,52.067723
Slieperstraat,5,,,7156MK,Beltrum,Berkelland,Gelderland,VBO,6.565264,52.067669
Slieperstraat,7,,,7156MK,Beltrum,Berkelland,Gelderland,VBO,6.565269,52.067625
Slieperstraat,9,,,7156MK,Beltrum,Berkelland,Gelderland,VBO,6.565345,52.067533
Slieperstraat,11,,,7156MK,Beltrum,Berkelland,Gelderland,VBO,6.565358,52.067479
Slieperstraat,13,,,7156MK,Beltrum,Berkelland,Gelderland,VBO,6.565401,52.067425
Slieperstraat,15,,,7156MK,Beltrum,Berkelland,Gelderland,VBO,6.565442,52.067326
Slieperstraat,17,,,7156MK,Beltrum,Berkelland,Gelderland,VBO,6.565470,52.067280
Slieperstraat,19,,,7156MK,Beltrum,Berkelland,Gelderland,VBO,6.565483,52.067226
Slieperstraat,21,,,7156MK,Beltrum,Berkelland,Gelderland,VBO,6.565525,52.067172
Slieperstraat,23,,,7156MK,Beltrum,Berkelland,Gelderland,VBO,6.565855,52.066584
Slieperstraat,25,,,7156MK,Beltrum,Berkelland,Gelderland,VBO,6.565887,52.066519
Slieperstraat,27,,,7156MK,Beltrum,Berkelland,Gelderland,VBO,6.565931,52.066445
Slieperstraat,2,a,,7156ML,Beltrum,Berkelland,Gelderland,VBO,6.564726,52.067836
Slieperstraat,2,b,,7156ML,Beltrum,Berkelland,Gelderland,VBO,6.564739,52.067791
Slieperstraat,2,c,,7156ML,Beltrum,Berkelland,Gelderland,VBO,6.564753,52.067764
Slieperstraat,2,d,,7156ML,Beltrum,Berkelland,Gelderland,VBO,6.564823,52.067628
Slieperstraat,2,,,7156ML,Beltrum,Berkelland,Gelderland,VBO,6.564698,52.067881
Slieperstraat,4,a,,7156ML,Beltrum,Berkelland,Gelderland,VBO,6.564933,52.067403
Slieperstraat,4,,,7156ML,Beltrum,Berkelland,Gelderland,VBO,6.564921,52.067484
Slieperstraat,6,,,7156ML,Beltrum,Berkelland,Gelderland,VBO,6.565043,52.067132
Slieperstraat,8,,,7156ML,Beltrum,Berkelland,Gelderland,VBO,6.565123,52.066852
Slieperstraat,10,,,7156ML,Beltrum,Berkelland,Gelderland,VBO,6.565165,52.066780
Slieperstraat,12,,,7156ML,Beltrum,Berkelland,Gelderland,VBO,6.565200,52.066715
Slieperstraat,14,,,7156ML,Beltrum,Berkelland,Gelderland,VBO,6.565307,52.066617
Slieperstraat,16,,,7156ML,Beltrum,Berkelland,Gelderland,VBO,6.565334,52.066554
Slieperstraat,18,,,7156ML,Beltrum,Berkelland,Gelderland,VBO,6.565366,52.066490
Slieperstraat,20,,,7156ML,Beltrum,Berkelland,Gelderland,VBO,6.565409,52.066428
Slieperstraat,22,,,7156ML,Beltrum,Berkelland,Gelderland,VBO,6.565439,52.066365
't Meken,2,,,7156MN,Beltrum,Berkelland,Gelderland,VBO,6.564557,52.067505
't Meken,4,,,7156MN,Beltrum,Berkelland,Gelderland,VBO,6.564207,52.067527
't Meken,6,,,7156MN,Beltrum,Berkelland,Gelderland,VBO,6.564187,52.067311
Voslaan,1,a,,7156MN,Beltrum,Berkelland,Gelderland,VBO,6.563936,52.066967
Voslaan,1,b,,7156MN,Beltrum,Berkelland,Gelderland,VBO,6.564011,52.066963
Voslaan,1,,,7156MN,Beltrum,Berkelland,Gelderland,VBO,6.563620,52.066998
Voslaan,3,,,7156MN,Beltrum,Berkelland,Gelderland,VBO,6.564194,52.067006
Voslaan,5,,,7156MN,Beltrum,Berkelland,Gelderland,VBO,6.564442,52.067030
Voslaan,9,,,7156MN,Beltrum,Berkelland,Gelderland,VBO,6.565775,52.067232
Voslaan,11,,,7156MN,Beltrum,Berkelland,Gelderland,VBO,6.565965,52.067257
Voslaan,13,,,7156MN,Beltrum,Berkelland,Gelderland,VBO,6.566053,52.067275
Voslaan,15,,,7156MN,Beltrum,Berkelland,Gelderland,VBO,6.566405,52.067343
Voslaan,17,,,7156MN,Beltrum,Berkelland,Gelderland,VBO,6.566610,52.067377
Voslaan,19,,,7156MN,Beltrum,Berkelland,Gelderland,VBO,6.566742,52.067394
Voslaan,21,,,7156MN,Beltrum,Berkelland,Gelderland,VBO,6.566918,52.067428
't Meken,1,,,7156MP,Beltrum,Berkelland,Gelderland,VBO,6.564596,52.067343
't Meken,3,,,7156MP,Beltrum,Berkelland,Gelderland,VBO,6.564471,52.067578
't Meken,5,,,7156MP,Beltrum,Berkelland,Gelderland,VBO,6.564334,52.067337
Voslaan,2,a,,7156MP,Beltrum,Berkelland,Gelderland,VBO,6.563966,52.066675
Voslaan,2,,,7156MP,Beltrum,Berkelland,Gelderland,VBO,6.563893,52.066658
Voslaan,4,a,,7156MP,Beltrum,Berkelland,Gelderland,VBO,6.564186,52.066700
Voslaan,4,b,,7156MP,Beltrum,Berkelland,Gelderland,VBO,6.564259,52.066708
Voslaan,4,,,7156MP,Beltrum,Berkelland,Gelderland,VBO,6.564039,52.066683
Voslaan,6,,,7156MP,Beltrum,Berkelland,Gelderland,VBO,6.564610,52.066750
Voslaan,8,,,7156MP,Beltrum,Berkelland,Gelderland,VBO,6.564830,52.066810
Voslaan,10,,,7156MP,Beltrum,Berkelland,Gelderland,VBO,6.565777,52.066747
Voslaan,12,,,7156MP,Beltrum,Berkelland,Gelderland,VBO,6.565938,52.066790
Voslaan,14,,,7156MP,Beltrum,Berkelland,Gelderland,VBO,6.566056,52.066816
Voslaan,16,,,7156MP,Beltrum,Berkelland,Gelderland,VBO,6.566202,52.066833
Voslaan,18,,,7156MP,Beltrum,Berkelland,Gelderland,VBO,6.566319,52.066849
Voslaan,20,,,7156MP,Beltrum,Berkelland,Gelderland,VBO,6.566480,52.066884
Voslaan,22,,,7156MP,Beltrum,Berkelland,Gelderland,VBO,6.566597,52.066901
Voslaan,24,,,7156MP,Beltrum,Berkelland,Gelderland,VBO,6.566759,52.066935
Voslaan,26,,,7156MP,Beltrum,Berkelland,Gelderland,VBO,6.566876,52.066943
Hoornhorststraat,1,,,7156MR,Beltrum,Berkelland,Gelderland,VBO,6.567563,52.066477
Hoornhorststraat,3,,,7156MR,Beltrum,Berkelland,Gelderland,VBO,6.567633,52.066342
Hoornhorststraat,5,,,7156MR,Beltrum,Berkelland,Gelderland,VBO,6.567673,52.066198
Hoornhorststraat,7,,,7156MR,Beltrum,Berkelland,Gelderland,VBO,6.567757,52.066062
Hoornhorststraat,9,,,7156MR,Beltrum,Berkelland,Gelderland,VBO,6.567782,52.065909
Hoornhorststraat,11,,,7156MR,Beltrum,Berkelland,Gelderland,VBO,6.567749,52.065756
Hoornhorststraat,21,,,7156MR,Beltrum,Berkelland,Gelderland,VBO,6.567243,52.064827
Hoornhorststraat,23,,,7156MR,Beltrum,Berkelland,Gelderland,VBO,6.567109,52.064747
Hoornhorststraat,2,,,7156MS,Beltrum,Berkelland,Gelderland,VBO,6.566943,52.066744
Hoornhorststraat,4,,,7156MS,Beltrum,Berkelland,Gelderland,VBO,6.566999,52.066654
Hoornhorststraat,6,,,7156MS,Beltrum,Berkelland,Gelderland,VBO,6.567095,52.066401
Hoornhorststraat,8,,,7156MS,Beltrum,Berkelland,Gelderland,VBO,6.567179,52.066275
Hoornhorststraat,10,,,7156MS,Beltrum,Berkelland,Gelderland,VBO,6.567262,52.066121
Hoornhorststraat,16,a,,7156MS,Beltrum,Berkelland,Gelderland,VBO,6.566787,52.065784
Hoornhorststraat,16,,,7156MS,Beltrum,Berkelland,Gelderland,VBO,6.567137,52.065790
Hoornhorststraat,18,,,7156MS,Beltrum,Berkelland,Gelderland,VBO,6.567255,52.065519
Hoornhorststraat,20,,,7156MS,Beltrum,Berkelland,Gelderland,VBO,6.567049,52.065233
Hoornhorststraat,22,,,7156MS,Beltrum,Berkelland,Gelderland,VBO,6.566579,52.065076
Klunt,2,,,7156MT,Beltrum,Berkelland,Gelderland,VBO,6.567344,52.067010
Klunt,4,,,7156MT,Beltrum,Berkelland,Gelderland,VBO,6.567593,52.067052
Klunt,6,,,7156MT,Beltrum,Berkelland,Gelderland,VBO,6.567930,52.067085
Klunt,8,,,7156MT,Beltrum,Berkelland,Gelderland,VBO,6.567761,52.066772
Klunt,10,,,7156MT,Beltrum,Berkelland,Gelderland,VBO,6.567453,52.066712
Klunt,1,,,7156MV,Beltrum,Berkelland,Gelderland,VBO,6.567264,52.067289
Klunt,3,,,7156MV,Beltrum,Berkelland,Gelderland,VBO,6.567542,52.067323
Klunt,5,,,7156MV,Beltrum,Berkelland,Gelderland,VBO,6.567777,52.067374
Klunt,7,,,7156MV,Beltrum,Berkelland,Gelderland,VBO,6.568127,52.067371
Klunt,9,,,7156MV,Beltrum,Berkelland,Gelderland,VBO,6.568461,52.067340
Klunt,11,,,7156MV,Beltrum,Berkelland,Gelderland,VBO,6.568455,52.067116
Klunt,13,,,7156MV,Beltrum,Berkelland,Gelderland,VBO,6.568349,52.066955
Klunt,15,,,7156MV,Beltrum,Berkelland,Gelderland,VBO,6.568285,52.066749
Klunt,17,,,7156MV,Beltrum,Berkelland,Gelderland,VBO,6.568222,52.066579
Klunt,19,,,7156MV,Beltrum,Berkelland,Gelderland,VBO,6.568101,52.066409
Klunt,21,,,7156MV,Beltrum,Berkelland,Gelderland,VBO,6.567969,52.066374
Zuivelstraat,1,,,7156MX,Beltrum,Berkelland,Gelderland,VBO,6.564750,52.066533
Zuivelstraat,3,,,7156MX,Beltrum,Berkelland,Gelderland,VBO,6.564763,52.066469
Zuivelstraat,5,,,7156MX,Beltrum,Berkelland,Gelderland,VBO,6.564845,52.066262
Zuivelstraat,7,,,7156MX,Beltrum,Berkelland,Gelderland,VBO,6.564933,52.066288
Zuivelstraat,9,,,7156MX,Beltrum,Berkelland,Gelderland,VBO,6.565094,52.066295
Zuivelstraat,11,,,7156MX,Beltrum,Berkelland,Gelderland,VBO,6.565197,52.066321
Zuivelstraat,13,,,7156MX,Beltrum,Berkelland,Gelderland,VBO,6.566135,52.066492
Zuivelstraat,15,,,7156MX,Beltrum,Berkelland,Gelderland,VBO,6.566237,52.066509
Zuivelstraat,17,,,7156MX,Beltrum,Berkelland,Gelderland,VBO,6.566369,52.066534
Zuivelstraat,19,,,7156MX,Beltrum,Berkelland,Gelderland,VBO,6.566457,52.066551
Zuivelstraat,21,,,7156MX,Beltrum,Berkelland,Gelderland,VBO,6.566618,52.066577
Zuivelstraat,23,,,7156MX,Beltrum,Berkelland,Gelderland,VBO,6.566706,52.066594
Zuivelstraat,8,,,7156MZ,Beltrum,Berkelland,Gelderland,VBO,6.564312,52.066510
Zuivelstraat,10,,,7156MZ,Beltrum,Berkelland,Gelderland,VBO,6.564340,52.066456
Zuivelstraat,12,,,7156MZ,Beltrum,Berkelland,Gelderland,VBO,6.564382,52.066392
Zuivelstraat,14,,,7156MZ,Beltrum,Berkelland,Gelderland,VBO,6.564437,52.066293
Zuivelstraat,16,,,7156MZ,Beltrum,Berkelland,Gelderland,VBO,6.564465,52.066230
Zuivelstraat,18,,,7156MZ,Beltrum,Berkelland,Gelderland,VBO,6.564521,52.066130
Zuivelstraat,20,,,7156MZ,Beltrum,Berkelland,Gelderland,VBO,6.564533,52.066058
Zuivelstraat,22,,,7156MZ,Beltrum,Berkelland,Gelderland,VBO,6.565409,52.066091
Zuivelstraat,24,,,7156MZ,Beltrum,Berkelland,Gelderland,VBO,6.565521,52.066113
Zuivelstraat,26,,,7156MZ,Beltrum,Berkelland,Gelderland,VBO,6.565622,52.066129
Zuivelstraat,28,,,7156MZ,Beltrum,Berkelland,Gelderland,VBO,6.565726,52.066147
Zuivelstraat,30,,,7156MZ,Beltrum,Berkelland,Gelderland,VBO,6.566010,52.066196
Zuivelstraat,32,,,7156MZ,Beltrum,Berkelland,Gelderland,VBO,6.566127,52.066222
Zuivelstraat,34,,,7156MZ,Beltrum,Berkelland,Gelderland,VBO,6.566289,52.066247
Zuivelstraat,36,,,7156MZ,Beltrum,Berkelland,Gelderland,VBO,6.566406,52.066264
Zuivelstraat,38,,,7156MZ,Beltrum,Berkelland,Gelderland,VBO,6.566582,52.066298
Zuivelstraat,40,,,7156MZ,Beltrum,Berkelland,Gelderland,VBO,6.566699,52.066315
Zuivelstraat,42,,,7156MZ,Beltrum,Berkelland,Gelderland,VBO,6.566830,52.066332
Bellegoorsweg,1,,,7156NA,Beltrum,Berkelland,Gelderland,VBO,6.567227,52.094625
Bellegoorsweg,2,,,7156NA,Beltrum,Berkelland,Gelderland,VBO,6.568872,52.092820
Bellegoorsweg,4,,,7156NA,Beltrum,Berkelland,Gelderland,VBO,6.570123,52.093203
Bellegoorsweg,6,,,7156NA,Beltrum,Berkelland,Gelderland,VBO,6.573368,52.092864
Bellegoorsweg,8,a,,7156NA,Beltrum,Berkelland,Gelderland,VBO,6.577554,52.092035
Bellegoorsweg,8,,,7156NA,Beltrum,Berkelland,Gelderland,VBO,6.577729,52.092227
Bruggertweg,1,a,,7156NB,Beltrum,Berkelland,Gelderland,VBO,6.555506,52.086175
Bruggertweg,1,,,7156NB,Beltrum,Berkelland,Gelderland,VBO,6.556149,52.088461
Bruggertweg,2,,,7156NB,Beltrum,Berkelland,Gelderland,VBO,6.562488,52.087580
Bruggertweg,3,a,,7156NB,Beltrum,Berkelland,Gelderland,VBO,6.561874,52.089735
Bruggertweg,3,b,,7156NB,Beltrum,Berkelland,Gelderland,VBO,6.561501,52.089302
Bruggertweg,3,c,,7156NB,Beltrum,Berkelland,Gelderland,VBO,6.561250,52.089376
Bruggertweg,3,,,7156NB,Beltrum,Berkelland,Gelderland,VBO,6.561448,52.089658
Bruggertweg,4,,,7156NB,Beltrum,Berkelland,Gelderland,VBO,6.563048,52.091682
Bruggertweg,5,,,7156NB,Beltrum,Berkelland,Gelderland,VBO,6.560392,52.094432
Bruggertweg,7,,,7156NB,Beltrum,Berkelland,Gelderland,VBO,6.553656,52.096387
Bruggertweg,9,,,7156NB,Beltrum,Berkelland,Gelderland,VBO,6.556886,52.098216
Baksweg,3,,,7156NC,Beltrum,Berkelland,Gelderland,VBO,6.530657,52.069646
Eibergseweg,1,,,7156NC,Beltrum,Berkelland,Gelderland,VBO,6.559700,52.083758
Zwarteweg,10,,,7156NC,Beltrum,Berkelland,Gelderland,VBO,6.558077,52.081835
Zwarteweg,12,,,7156NC,Beltrum,Berkelland,Gelderland,VBO,6.554737,52.083567
Zwarteweg,14,,,7156NC,Beltrum,Berkelland,Gelderland,VBO,6.553970,52.084914
Zwarteweg,15,,,7156NC,Beltrum,Berkelland,Gelderland,VBO,6.553215,52.083924
Zwarteweg,17,a,,7156NC,Beltrum,Berkelland,Gelderland,VBO,6.546329,52.088922
Zwarteweg,17,,,7156NC,Beltrum,Berkelland,Gelderland,VBO,6.546255,52.088869
Zwarteweg,18,,,7156NC,Beltrum,Berkelland,Gelderland,VBO,6.551345,52.086648
Zwarteweg,20,,,7156NC,Beltrum,Berkelland,Gelderland,VBO,6.550626,52.088174
Zwarteweg,21,a,,7156NC,Beltrum,Berkelland,Gelderland,VBO,6.541784,52.089815
Zwarteweg,21,,T01,7156NC,Beltrum,Berkelland,Gelderland,VBO,6.542474,52.090539
Zwarteweg,21,,,7156NC,Beltrum,Berkelland,Gelderland,VBO,6.541694,52.089842
Zwarteweg,22,,,7156NC,Beltrum,Berkelland,Gelderland,VBO,6.552804,52.091119
Zwarteweg,24,a,,7156NC,Beltrum,Berkelland,Gelderland,VBO,6.548203,52.090048
Zwarteweg,24,,,7156NC,Beltrum,Berkelland,Gelderland,VBO,6.548176,52.090163
Zwarteweg,26,,,7156NC,Beltrum,Berkelland,Gelderland,VBO,6.548004,52.090582
Heelweg,12,,,7156ND,Beltrum,Berkelland,Gelderland,VBO,6.539902,52.083686
Heelweg,14,a,,7156ND,Beltrum,Berkelland,Gelderland,VBO,6.536924,52.083761
Heelweg,14,,,7156ND,Beltrum,Berkelland,Gelderland,VBO,6.536813,52.083818
Heelweg,16,a,,7156ND,Beltrum,Berkelland,Gelderland,VBO,6.540443,52.086818
Heelweg,16,b,,7156ND,Beltrum,Berkelland,Gelderland,VBO,6.540510,52.086373
Heelweg,16,,,7156ND,Beltrum,Berkelland,Gelderland,VBO,6.540331,52.086756
Heelweg,18,,,7156ND,Beltrum,Berkelland,Gelderland,VBO,6.536622,52.086640
Heelweg,19,,,7156ND,Beltrum,Berkelland,Gelderland,VBO,6.540443,52.079780
Heelweg,20,,,7156ND,Beltrum,Berkelland,Gelderland,VBO,6.534053,52.086602
Heelweg,21,,,7156ND,Beltrum,Berkelland,Gelderland,VBO,6.540488,52.079824
Heelweg,23,a,,7156ND,Beltrum,Berkelland,Gelderland,VBO,6.536355,52.083388
Heelweg,23,,,7156ND,Beltrum,Berkelland,Gelderland,VBO,6.536453,52.083466
Heelweg,25,,,7156ND,Beltrum,Berkelland,Gelderland,VBO,6.534937,52.084661
Velddijk,1,a,,7156ND,Beltrum,Berkelland,Gelderland,VBO,6.530788,52.084467
Velddijk,1,,,7156ND,Beltrum,Berkelland,Gelderland,VBO,6.530741,52.084342
Waterdijk,3,,,7156ND,Beltrum,Berkelland,Gelderland,VBO,6.537128,52.079651
Waterdijk,5,a,,7156ND,Beltrum,Berkelland,Gelderland,VBO,6.529053,52.078845
Waterdijk,5,,,7156ND,Beltrum,Berkelland,Gelderland,VBO,6.529017,52.078956
Waterdijk,6,,,7156ND,Beltrum,Berkelland,Gelderland,VBO,6.536255,52.080297
Waterdijk,8,,,7156ND,Beltrum,Berkelland,Gelderland,VBO,6.527786,52.079578
Kooierlaan,1,a,,7156NE,Beltrum,Berkelland,Gelderland,VBO,6.525725,52.079878
Kooierlaan,1,,,7156NE,Beltrum,Berkelland,Gelderland,VBO,6.525488,52.079737
Kooierlaan,3,a,,7156NE,Beltrum,Berkelland,Gelderland,VBO,6.525720,52.081973
Kooierlaan,3,,,7156NE,Beltrum,Berkelland,Gelderland,VBO,6.525866,52.081962
Kooierlaan,5,,,7156NE,Beltrum,Berkelland,Gelderland,VBO,6.523057,52.083976
Waterdijk,7,a,,7156NE,Beltrum,Berkelland,Gelderland,VBO,6.524576,52.078298
Waterdijk,7,,,7156NE,Beltrum,Berkelland,Gelderland,VBO,6.524552,52.078363
Waterdijk,9,,,7156NE,Beltrum,Berkelland,Gelderland,VBO,6.523750,52.077929
Waterdijk,10,,,7156NE,Beltrum,Berkelland,Gelderland,VBO,6.520870,52.077111
Waterdijk,12,,,7156NE,Beltrum,Berkelland,Gelderland,VBO,6.520325,52.076919
Baksweg,1,a,,7156NG,Beltrum,Berkelland,Gelderland,VBO,6.524612,52.072750
Baksweg,1,,,7156NG,Beltrum,Berkelland,Gelderland,VBO,6.525247,52.072681
Baksweg,2,,,7156NG,Beltrum,Berkelland,Gelderland,VBO,6.537412,52.067017
Baksweg,4,,,7156NG,Beltrum,Berkelland,Gelderland,VBO,6.536725,52.067387
Kooigootsweg,5,,,7156NG,Beltrum,Berkelland,Gelderland,VBO,6.529581,52.076437
Kooigootsweg,7,a,,7156NG,Beltrum,Berkelland,Gelderland,VBO,6.527457,52.077359
Kooigootsweg,7,,,7156NG,Beltrum,Berkelland,Gelderland,VBO,6.527917,52.077073
Kooigootsweg,9,,,7156NG,Beltrum,Berkelland,Gelderland,VBO,6.526345,52.077877
Peppelendijk,6,a,,7156NG,Beltrum,Berkelland,Gelderland,VBO,6.537443,52.071060
Peppelendijk,6,,,7156NG,Beltrum,Berkelland,Gelderland,VBO,6.537475,52.071036
Peppelendijk,8,,,7156NG,Beltrum,Berkelland,Gelderland,VBO,6.533908,52.068799
Velddijk,3,a,,7156NG,Beltrum,Berkelland,Gelderland,VBO,6.528412,52.081030
Velddijk,3,,,7156NG,Beltrum,Berkelland,Gelderland,VBO,6.528512,52.081038
Baksweg,8,,,7156NH,Beltrum,Berkelland,Gelderland,VBO,6.533334,52.068935
Baksweg,10,a,,7156NH,Beltrum,Berkelland,Gelderland,VBO,6.525673,52.074980
Baksweg,10,,,7156NH,Beltrum,Berkelland,Gelderland,VBO,6.525235,52.074957
Kooigootsweg,1,,,7156NH,Beltrum,Berkelland,Gelderland,VBO,6.547840,52.069685
Kooigootsweg,2,,,7156NH,Beltrum,Berkelland,Gelderland,VBO,6.548062,52.070348
Kooigootsweg,3,,,7156NH,Beltrum,Berkelland,Gelderland,VBO,6.547250,52.069403
Heelweg,1,a,,7156NJ,Beltrum,Berkelland,Gelderland,VBO,6.557476,52.068340
Heelweg,1,b,,7156NJ,Beltrum,Berkelland,Gelderland,VBO,6.559689,52.067095
Heelweg,1,,,7156NJ,Beltrum,Berkelland,Gelderland,VBO,6.558899,52.067553
Heelweg,3,,,7156NJ,Beltrum,Berkelland,Gelderland,VBO,6.554753,52.069625
Heelweg,5,,,7156NJ,Beltrum,Berkelland,Gelderland,VBO,6.553533,52.069844
Heelweg,6,,,7156NJ,Beltrum,Berkelland,Gelderland,VBO,6.553583,52.072882
Heelweg,9,,,7156NJ,Beltrum,Berkelland,Gelderland,VBO,6.550741,52.072991
Heelweg,10,,,7156NJ,Beltrum,Berkelland,Gelderland,VBO,6.549160,52.074569
Heelweg,11,,,7156NJ,Beltrum,Berkelland,Gelderland,VBO,6.548690,52.074315
Heelweg,13,,,7156NJ,Beltrum,Berkelland,Gelderland,VBO,6.546398,52.075955
Heelweg,15,a,,7156NJ,Beltrum,Berkelland,Gelderland,VBO,6.544931,52.077083
Heelweg,15,,,7156NJ,Beltrum,Berkelland,Gelderland,VBO,6.544983,52.077048
Heelweg,17,a,,7156NJ,Beltrum,Berkelland,Gelderland,VBO,6.541848,52.076374
Heelweg,17,,,7156NJ,Beltrum,Berkelland,Gelderland,VBO,6.541552,52.076376
Waterdijk,1,a,,7156NK,Beltrum,Berkelland,Gelderland,VBO,6.548507,52.082991
Waterdijk,1,,,7156NK,Beltrum,Berkelland,Gelderland,VBO,6.548272,52.082939
Waterdijk,2,,,7156NK,Beltrum,Berkelland,Gelderland,VBO,6.547609,52.083826
Waterdijk,4,,,7156NK,Beltrum,Berkelland,Gelderland,VBO,6.545938,52.082378
Peppelendijk,1,a,,7156NL,Beltrum,Berkelland,Gelderland,VBO,6.557195,52.079051
Peppelendijk,1,,,7156NL,Beltrum,Berkelland,Gelderland,VBO,6.557288,52.079012
Peppelendijk,2,a,,7156NL,Beltrum,Berkelland,Gelderland,VBO,6.547455,52.081266
Peppelendijk,2,,,7156NL,Beltrum,Berkelland,Gelderland,VBO,6.548910,52.080551
Peppelendijk,3,,,7156NL,Beltrum,Berkelland,Gelderland,VBO,6.552731,52.078796
Peppelendijk,4,a,,7156NL,Beltrum,Berkelland,Gelderland,VBO,6.547728,52.079223
Peppelendijk,4,,,7156NL,Beltrum,Berkelland,Gelderland,VBO,6.547910,52.079217
Peppelendijk,5,,,7156NL,Beltrum,Berkelland,Gelderland,VBO,6.552551,52.078061
Peppelendijk,7,,,7156NL,Beltrum,Berkelland,Gelderland,VBO,6.553535,52.076622
Zwarteweg,1,,,7156NM,Beltrum,Berkelland,Gelderland,VBO,6.561717,52.070455
Zwarteweg,2,,,7156NM,Beltrum,Berkelland,Gelderland,VBO,6.561874,52.071406
Zwarteweg,3,,,7156NM,Beltrum,Berkelland,Gelderland,VBO,6.561210,52.071692
Zwarteweg,4,,,7156NM,Beltrum,Berkelland,Gelderland,VBO,6.561702,52.072082
Zwarteweg,5,,,7156NM,Beltrum,Berkelland,Gelderland,VBO,6.557890,52.071990
Zwarteweg,6,,,7156NM,Beltrum,Berkelland,Gelderland,VBO,6.563966,52.077210
Zwarteweg,8,a,,7156NM,Beltrum,Berkelland,Gelderland,VBO,6.560989,52.077168
Zwarteweg,8,,,7156NM,Beltrum,Berkelland,Gelderland,VBO,6.564156,52.077217
Zwarteweg,9,a,,7156NM,Beltrum,Berkelland,Gelderland,VBO,6.560512,52.076751
Zwarteweg,9,,,7156NM,Beltrum,Berkelland,Gelderland,VBO,6.560286,52.076465
Zwarteweg,11,,,7156NM,Beltrum,Berkelland,Gelderland,VBO,6.560439,52.076787
Sonderenweg,1,a,,7156NN,Beltrum,Berkelland,Gelderland,VBO,6.562301,52.072696
Sonderenweg,1,,,7156NN,Beltrum,Berkelland,Gelderland,VBO,6.562213,52.072652
Sonderenweg,2,,,7156NN,Beltrum,Berkelland,Gelderland,VBO,6.564804,52.072995
Sonderenweg,3,,,7156NN,Beltrum,Berkelland,Gelderland,VBO,6.567771,52.077091
Sonderenweg,4,a,,7156NN,Beltrum,Berkelland,Gelderland,VBO,6.569342,52.076533
Sonderenweg,4,b,,7156NN,Beltrum,Berkelland,Gelderland,VBO,6.569742,52.076625
Sonderenweg,4,,,7156NN,Beltrum,Berkelland,Gelderland,VBO,6.569170,52.076475
Sonderenweg,5,,,7156NN,Beltrum,Berkelland,Gelderland,VBO,6.567624,52.077066
Sonderenweg,6,,,7156NN,Beltrum,Berkelland,Gelderland,VBO,6.568442,52.077642
Sonderenweg,8,,,7156NN,Beltrum,Berkelland,Gelderland,VBO,6.568296,52.077634
Bultemansweg,2,a,,7156NP,Beltrum,Berkelland,Gelderland,VBO,6.570539,52.070879
Bultemansweg,2,,,7156NP,Beltrum,Berkelland,Gelderland,VBO,6.570866,52.071118
Bultemansweg,4,a,,7156NP,Beltrum,Berkelland,Gelderland,VBO,6.569348,52.072194
Bultemansweg,4,,,7156NP,Beltrum,Berkelland,Gelderland,VBO,6.569419,52.072131
Bultemansweg,6,a,,7156NP,Beltrum,Berkelland,Gelderland,VBO,6.567423,52.073310
Bultemansweg,6,,,7156NP,Beltrum,Berkelland,Gelderland,VBO,6.567250,52.073375
Eibergseweg,2,a,,7156NR,Beltrum,Berkelland,Gelderland,VBO,6.563577,52.080500
Eibergseweg,2,,T01,7156NR,Beltrum,Berkelland,Gelderland,VBO,6.559183,52.081306
Eibergseweg,2,,,7156NR,Beltrum,Berkelland,Gelderland,VBO,6.563431,52.080528
Eibergseweg,3,,,7156NR,Beltrum,Berkelland,Gelderland,VBO,6.561303,52.081336
Eibergseweg,4,,,7156NR,Beltrum,Berkelland,Gelderland,VBO,6.570681,52.079579
Eibergseweg,5,,,7156NR,Beltrum,Berkelland,Gelderland,VBO,6.565746,52.083862
Eibergseweg,7,a,,7156NR,Beltrum,Berkelland,Gelderland,VBO,6.566341,52.086508
Eibergseweg,7,,,7156NR,Beltrum,Berkelland,Gelderland,VBO,6.566197,52.086554
Eibergseweg,9,,,7156NR,Beltrum,Berkelland,Gelderland,VBO,6.562916,52.081113
Eibergseweg,11,a,,7156NR,Beltrum,Berkelland,Gelderland,VBO,6.567495,52.080456
Eibergseweg,11,,,7156NR,Beltrum,Berkelland,Gelderland,VBO,6.567757,52.080453
Eibergseweg,13,,,7156NR,Beltrum,Berkelland,Gelderland,VBO,6.572367,52.080964
Eibergseweg,15,a,,7156NR,Beltrum,Berkelland,Gelderland,VBO,6.573634,52.080889
Eibergseweg,15,,,7156NR,Beltrum,Berkelland,Gelderland,VBO,6.572699,52.081392
Oosterenk,1,,,7156NS,Beltrum,Berkelland,Gelderland,VBO,6.576702,52.083240
Oosterenk,2,a,,7156NS,Beltrum,Berkelland,Gelderland,VBO,6.576514,52.084419
Oosterenk,2,,,7156NS,Beltrum,Berkelland,Gelderland,VBO,6.576647,52.084454
Oosterenk,3,a,,7156NS,Beltrum,Berkelland,Gelderland,VBO,6.572540,52.083120
Oosterenk,3,,,7156NS,Beltrum,Berkelland,Gelderland,VBO,6.572526,52.083138
Oosterenk,5,a,,7156NS,Beltrum,Berkelland,Gelderland,VBO,6.572416,52.086123
Oosterenk,5,,,7156NS,Beltrum,Berkelland,Gelderland,VBO,6.571891,52.086129
Horsterweg,1,,,7156NT,Beltrum,Berkelland,Gelderland,VBO,6.576847,52.074438
Horsterweg,2,,,7156NT,Beltrum,Berkelland,Gelderland,VBO,6.581195,52.070115
Horsterweg,3,,,7156NT,Beltrum,Berkelland,Gelderland,VBO,6.577818,52.078033
Horsterweg,4,,,7156NT,Beltrum,Berkelland,Gelderland,VBO,6.581542,52.072179
Horsterweg,6,,,7156NT,Beltrum,Berkelland,Gelderland,VBO,6.578732,52.076208
Horsterweg,8,,,7156NT,Beltrum,Berkelland,Gelderland,VBO,6.578583,52.079355
Spilmansdijk,1,a,,7156NV,Beltrum,Berkelland,Gelderland,VBO,6.589877,52.065892
Spilmansdijk,1,,01,7156NV,Beltrum,Berkelland,Gelderland,VBO,6.591039,52.066178
Spilmansdijk,1,,T01,7156NV,Beltrum,Berkelland,Gelderland,VBO,6.593637,52.069711
Spilmansdijk,1,,,7156NV,Beltrum,Berkelland,Gelderland,VBO,6.591837,52.066636
Spilmansdijk,3,a,,7156NV,Beltrum,Berkelland,Gelderland,VBO,6.590556,52.071584
Spilmansdijk,3,,,7156NV,Beltrum,Berkelland,Gelderland,VBO,6.590347,52.071415
Spilmansdijk,4,,,7156NV,Beltrum,Berkelland,Gelderland,VBO,6.592110,52.064854
Spilmansdijk,5,a,,7156NV,Beltrum,Berkelland,Gelderland,VBO,6.590633,52.073235
Spilmansdijk,5,,,7156NV,Beltrum,Berkelland,Gelderland,VBO,6.590729,52.073155
Spilmansdijk,6,,,7156NV,Beltrum,Berkelland,Gelderland,VBO,6.593383,52.067726
Spilmansdijk,7,,,7156NV,Beltrum,Berkelland,Gelderland,VBO,6.597721,52.070639
Spilmansdijk,8,,,7156NV,Beltrum,Berkelland,Gelderland,VBO,6.593501,52.068857
Spilmansdijk,10,,,7156NV,Beltrum,Berkelland,Gelderland,VBO,6.597757,52.069802
Spilmansdijk,12,,,7156NV,Beltrum,Berkelland,Gelderland,VBO,6.598772,52.069028
Spilmansdijk,13,,,7156NV,Beltrum,Berkelland,Gelderland,VBO,6.599839,52.071647
Deventer Kunstweg,1,a,,7156NW,Beltrum,Berkelland,Gelderland,VBO,6.582360,52.088763
Deventer Kunstweg,1,,,7156NW,Beltrum,Berkelland,Gelderland,VBO,6.582509,52.088860
Deventer Kunstweg,2,a,,7156NW,Beltrum,Berkelland,Gelderland,VBO,6.570518,52.090485
Deventer Kunstweg,2,,,7156NW,Beltrum,Berkelland,Gelderland,VBO,6.570549,52.090392
Deventer Kunstweg,3,,,7156NW,Beltrum,Berkelland,Gelderland,VBO,6.583560,52.086557
Deventer Kunstweg,4,a,,7156NW,Beltrum,Berkelland,Gelderland,VBO,6.593769,52.078230
Deventer Kunstweg,4,,,7156NW,Beltrum,Berkelland,Gelderland,VBO,6.593625,52.078321
Deventer Kunstweg,5,,,7156NW,Beltrum,Berkelland,Gelderland,VBO,6.591554,52.081021
Deventer Kunstweg,6,,,7156NW,Beltrum,Berkelland,Gelderland,VBO,6.595064,52.077030
Deventer Kunstweg,8,,,7156NW,Beltrum,Berkelland,Gelderland,VBO,6.597934,52.072021
Deventer Kunstweg,10,,,7156NW,Beltrum,Berkelland,Gelderland,VBO,6.599521,52.071933
Deventer Kunstweg,12,,,7156NW,Beltrum,Berkelland,Gelderland,VBO,6.599871,52.069763
Deventer Kunstweg,14,,,7156NW,Beltrum,Berkelland,Gelderland,VBO,6.601722,52.069708
Meenweg,2,,,7156NX,Beltrum,Berkelland,Gelderland,VBO,6.583519,52.077903
Meenweg,4,a,,7156NX,Beltrum,Berkelland,Gelderland,VBO,6.586813,52.077570
Meenweg,4,,,7156NX,Beltrum,Berkelland,Gelderland,VBO,6.586965,52.077585
Meenweg,6,,,7156NX,Beltrum,Berkelland,Gelderland,VBO,6.591073,52.077808
Eibergseweg,6,a,,7156NZ,Beltrum,Berkelland,Gelderland,VBO,6.582122,52.080776
Eibergseweg,6,,,7156NZ,Beltrum,Berkelland,Gelderland,VBO,6.582154,52.080883
Eibergseweg,19,a,,7156NZ,Beltrum,Berkelland,Gelderland,VBO,6.580864,52.084386
Eibergseweg,19,,,7156NZ,Beltrum,Berkelland,Gelderland,VBO,6.580803,52.084360
Industrieweg,1,,,7156PA,Beltrum,Berkelland,Gelderland,VBO,6.571294,52.060831
Industrieweg,2,,,7156PA,Beltrum,Berkelland,Gelderland,VBO,6.571886,52.060710
Industrieweg,3,,T01,7156PA,Beltrum,Berkelland,Gelderland,VBO,6.571843,52.061141
Industrieweg,4,,,7156PA,Beltrum,Berkelland,Gelderland,VBO,6.572490,52.060854
Industrieweg,5,,,7156PA,Beltrum,Berkelland,Gelderland,VBO,6.572912,52.060824
Industrieweg,6,a,,7156PA,Beltrum,Berkelland,Gelderland,VBO,6.573179,52.060860
Industrieweg,6,,,7156PA,Beltrum,Berkelland,Gelderland,VBO,6.573079,52.061074
Kempersweg,5,a,,7156RB,Beltrum,Berkelland,Gelderland,VBO,6.538175,52.041300
Kempersweg,5,,,7156RB,Beltrum,Berkelland,Gelderland,VBO,6.538240,52.041256
Kempersweg,7,,,7156RB,Beltrum,Berkelland,Gelderland,VBO,6.537067,52.040388
Kempersweg,8,,,7156RB,Beltrum,Berkelland,Gelderland,VBO,6.536498,52.040933
Kempersweg,9,a,,7156RB,Beltrum,Berkelland,Gelderland,VBO,6.533730,52.037742
Kempersweg,9,b,,7156RB,Beltrum,Berkelland,Gelderland,VBO,6.533681,52.037657
Kempersweg,9,,,7156RB,Beltrum,Berkelland,Gelderland,VBO,6.533692,52.037696
Kempersweg,11,,,7156RB,Beltrum,Berkelland,Gelderland,VBO,6.533398,52.037161
Kempersweg,12,a,,7156RB,Beltrum,Berkelland,Gelderland,VBO,6.532997,52.037444
Kempersweg,12,,,7156RB,Beltrum,Berkelland,Gelderland,VBO,6.532910,52.037444
Kempersweg,13,,,7156RB,Beltrum,Berkelland,Gelderland,VBO,6.533038,52.036733
Kempersweg,15,,,7156RB,Beltrum,Berkelland,Gelderland,VBO,6.532111,52.035843
Kempersweg,16,,,7156RB,Beltrum,Berkelland,Gelderland,VBO,6.528692,52.034348
Rentinksweg,1,,,7156RB,Beltrum,Berkelland,Gelderland,VBO,6.530110,52.042523
Rentinksweg,2,a,,7156RB,Beltrum,Berkelland,Gelderland,VBO,6.534899,52.042556
Rentinksweg,2,,,7156RB,Beltrum,Berkelland,Gelderland,VBO,6.534842,52.042464
Kempersweg,1,a,,7156RC,Beltrum,Berkelland,Gelderland,VBO,6.543810,52.045979
Kempersweg,1,,,7156RC,Beltrum,Berkelland,Gelderland,VBO,6.543902,52.045975
Kempersweg,2,,,7156RC,Beltrum,Berkelland,Gelderland,VBO,6.542583,52.045709
Kempersweg,3,a,,7156RC,Beltrum,Berkelland,Gelderland,VBO,6.539322,52.042296
Kempersweg,3,,,7156RC,Beltrum,Berkelland,Gelderland,VBO,6.539300,52.042209
Kempersweg,4,,,7156RC,Beltrum,Berkelland,Gelderland,VBO,6.538245,52.044242
Kempersweg,6,a,,7156RC,Beltrum,Berkelland,Gelderland,VBO,6.535657,52.045033
Kempersweg,6,,,7156RC,Beltrum,Berkelland,Gelderland,VBO,6.536149,52.044936
Ruurloseweg,201,,,7156RC,Beltrum,Berkelland,Gelderland,VBO,6.589233,52.040838
Ruurloseweg,202,a,,7156RC,Beltrum,Berkelland,Gelderland,VBO,6.551497,52.043838
Ruurloseweg,202,b,,7156RC,Beltrum,Berkelland,Gelderland,VBO,6.545183,52.045369
Ruurloseweg,202,,,7156RC,Beltrum,Berkelland,Gelderland,VBO,6.535844,52.047834
Zieuwentseweg,15,a,,7156RC,Beltrum,Berkelland,Gelderland,VBO,6.547362,52.045337
Zieuwentseweg,15,,,7156RC,Beltrum,Berkelland,Gelderland,VBO,6.547295,52.045267
Zieuwentseweg,17,,,7156RC,Beltrum,Berkelland,Gelderland,VBO,6.546704,52.044401
Zieuwentseweg,19,,,7156RC,Beltrum,Berkelland,Gelderland,VBO,6.545627,52.042776
Zieuwentseweg,21,,,7156RC,Beltrum,Berkelland,Gelderland,VBO,6.544381,52.041395
Zieuwentseweg,23,a,,7156RC,Beltrum,Berkelland,Gelderland,VBO,6.541319,52.036274
Zieuwentseweg,23,,,7156RC,Beltrum,Berkelland,Gelderland,VBO,6.543608,52.040252
Zieuwentseweg,30,a,,7156RC,Beltrum,Berkelland,Gelderland,VBO,6.545430,52.044009
Zieuwentseweg,30,,,7156RC,Beltrum,Berkelland,Gelderland,VBO,6.545470,52.044063
Zieuwentseweg,32,a,,7156RC,Beltrum,Berkelland,Gelderland,VBO,6.544708,52.043197
Zieuwentseweg,32,,,7156RC,Beltrum,Berkelland,Gelderland,VBO,6.544878,52.043152
Zieuwentseweg,34,,,7156RC,Beltrum,Berkelland,Gelderland,VBO,6.544489,52.042432
Dwarsweg,2,,,7156RD,Beltrum,Berkelland,Gelderland,VBO,6.533411,52.051884
Dwarsweg,4,a,,7156RD,Beltrum,Berkelland,Gelderland,VBO,6.532835,52.050452
Dwarsweg,4,,,7156RD,Beltrum,Berkelland,Gelderland,VBO,6.533015,52.050657
Veldkampsweg,3,a,,7156RD,Beltrum,Berkelland,Gelderland,VBO,6.542605,52.051660
Veldkampsweg,3,,,7156RD,Beltrum,Berkelland,Gelderland,VBO,6.542582,52.051844
Huiskesdijk,4,a,,7156RE,Beltrum,Berkelland,Gelderland,VBO,6.543700,52.048898
Huiskesdijk,4,,,7156RE,Beltrum,Berkelland,Gelderland,VBO,6.543831,52.048870
Huiskesdijk,6,,,7156RE,Beltrum,Berkelland,Gelderland,VBO,6.546966,52.047827
Huiskesdijk,8,a,,7156RE,Beltrum,Berkelland,Gelderland,VBO,6.547417,52.047460
Huiskesdijk,8,,,7156RE,Beltrum,Berkelland,Gelderland,VBO,6.547472,52.047475
Veldkampsweg,1,a,,7156RE,Beltrum,Berkelland,Gelderland,VBO,6.547045,52.051931
Veldkampsweg,2,,,7156RE,Beltrum,Berkelland,Gelderland,VBO,6.546683,52.052608
Zieuwentseweg,9,,,7156RE,Beltrum,Berkelland,Gelderland,VBO,6.549945,52.048522
Zieuwentseweg,11,a,,7156RE,Beltrum,Berkelland,Gelderland,VBO,6.548416,52.046892
Zieuwentseweg,11,,,7156RE,Beltrum,Berkelland,Gelderland,VBO,6.548723,52.046925
Zieuwentseweg,13,a,,7156RE,Beltrum,Berkelland,Gelderland,VBO,6.547451,52.046218
Zieuwentseweg,13,,,7156RE,Beltrum,Berkelland,Gelderland,VBO,6.547347,52.046148
Zieuwentseweg,20,,,7156RE,Beltrum,Berkelland,Gelderland,VBO,6.551210,52.051179
Zieuwentseweg,22,,,7156RE,Beltrum,Berkelland,Gelderland,VBO,6.550596,52.050574
Huiskesdijk,1,,,7156RG,Beltrum,Berkelland,Gelderland,VBO,6.543150,52.056382
Huiskesdijk,2,a,,7156RG,Beltrum,Berkelland,Gelderland,VBO,6.541539,52.053321
Huiskesdijk,2,,,7156RG,Beltrum,Berkelland,Gelderland,VBO,6.541601,52.053284
Huiskesdijk,3,,,7156RG,Beltrum,Berkelland,Gelderland,VBO,6.542242,52.054549
Poeldersdijk,20,a,,7156RG,Beltrum,Berkelland,Gelderland,VBO,6.539323,52.057163
Poeldersdijk,20,,,7156RG,Beltrum,Berkelland,Gelderland,VBO,6.539461,52.057171
Poeldersdijk,22,,,7156RG,Beltrum,Berkelland,Gelderland,VBO,6.538186,52.057285
Severtweg,7,a,,7156RG,Beltrum,Berkelland,Gelderland,VBO,6.537560,52.064194
Severtweg,7,,,7156RG,Beltrum,Berkelland,Gelderland,VBO,6.537225,52.064125
Broedersweg,1,,,7156RH,Beltrum,Berkelland,Gelderland,VBO,6.545576,52.059397
Broedersweg,3,,,7156RH,Beltrum,Berkelland,Gelderland,VBO,6.545460,52.059434
Broedersweg,5,,,7156RH,Beltrum,Berkelland,Gelderland,VBO,6.542899,52.059099
Poeldersdijk,3,,,7156RJ,Beltrum,Berkelland,Gelderland,VBO,6.551271,52.055790
Poeldersdijk,10,a,,7156RJ,Beltrum,Berkelland,Gelderland,VBO,6.552021,52.057865
Poeldersdijk,10,,,7156RJ,Beltrum,Berkelland,Gelderland,VBO,6.552045,52.057917
Poeldersdijk,12,,,7156RJ,Beltrum,Berkelland,Gelderland,VBO,6.550168,52.057113
Poeldersdijk,14,,,7156RJ,Beltrum,Berkelland,Gelderland,VBO,6.548804,52.057909
Poeldersdijk,16,,,7156RJ,Beltrum,Berkelland,Gelderland,VBO,6.548702,52.057946
Poeldersdijk,18,,,7156RJ,Beltrum,Berkelland,Gelderland,VBO,6.547320,52.057492
Zieuwentseweg,1,a,,7156RK,Beltrum,Berkelland,Gelderland,VBO,6.556624,52.061993
Zieuwentseweg,1,b,,7156RK,Beltrum,Berkelland,Gelderland,VBO,6.556518,52.061752
Zieuwentseweg,1,,,7156RK,Beltrum,Berkelland,Gelderland,VBO,6.555429,52.061439
Zieuwentseweg,2,a,,7156RK,Beltrum,Berkelland,Gelderland,VBO,6.557820,52.063671
Zieuwentseweg,2,,,7156RK,Beltrum,Berkelland,Gelderland,VBO,6.557063,52.063166
Zieuwentseweg,3,a,,7156RK,Beltrum,Berkelland,Gelderland,VBO,6.554786,52.060295
Zieuwentseweg,3,,,7156RK,Beltrum,Berkelland,Gelderland,VBO,6.555139,52.060399
Zieuwentseweg,4,a,,7156RK,Beltrum,Berkelland,Gelderland,VBO,6.555157,52.061998
Zieuwentseweg,4,,,7156RK,Beltrum,Berkelland,Gelderland,VBO,6.555230,52.062013
Zieuwentseweg,5,,,7156RK,Beltrum,Berkelland,Gelderland,VBO,6.555002,52.058504
Zieuwentseweg,6,,,7156RK,Beltrum,Berkelland,Gelderland,VBO,6.555055,52.061658
Zieuwentseweg,8,a,,7156RK,Beltrum,Berkelland,Gelderland,VBO,6.553604,52.059723
Zieuwentseweg,8,,,7156RK,Beltrum,Berkelland,Gelderland,VBO,6.553308,52.060139
Zieuwentseweg,10,a,,7156RK,Beltrum,Berkelland,Gelderland,VBO,6.553835,52.057922
Zieuwentseweg,10,,,7156RK,Beltrum,Berkelland,Gelderland,VBO,6.553453,52.058375
Severtweg,1,,,7156RL,Beltrum,Berkelland,Gelderland,VBO,6.553261,52.060713
Severtweg,2,a,,7156RL,Beltrum,Berkelland,Gelderland,VBO,6.554335,52.061752
Severtweg,2,,,7156RL,Beltrum,Berkelland,Gelderland,VBO,6.554370,52.061665
Severtweg,3,,,7156RL,Beltrum,Berkelland,Gelderland,VBO,6.553222,52.060715
Severtweg,4,,,7156RL,Beltrum,Berkelland,Gelderland,VBO,6.554125,52.061755
Severtweg,5,,,7156RL,Beltrum,Berkelland,Gelderland,VBO,6.553232,52.061649
Severtweg,6,a,,7156RL,Beltrum,Berkelland,Gelderland,VBO,6.552472,52.062590
Severtweg,6,,,7156RL,Beltrum,Berkelland,Gelderland,VBO,6.552738,52.062301
Severtweg,8,,,7156RL,Beltrum,Berkelland,Gelderland,VBO,6.548123,52.064262
Severtweg,10,,,7156RL,Beltrum,Berkelland,Gelderland,VBO,6.544062,52.064571
Haneveldsweg,1,,,7156RM,Beltrum,Berkelland,Gelderland,VBO,6.560591,52.060866
Haneveldsweg,2,,,7156RM,Beltrum,Berkelland,Gelderland,VBO,6.557168,52.061035
Haneveldsweg,3,,,7156RM,Beltrum,Berkelland,Gelderland,VBO,6.561591,52.060649
Haneveldsweg,4,,,7156RM,Beltrum,Berkelland,Gelderland,VBO,6.559883,52.060559
Haneveldsweg,6,a,,7156RM,Beltrum,Berkelland,Gelderland,VBO,6.567401,52.059198
Haneveldsweg,6,,,7156RM,Beltrum,Berkelland,Gelderland,VBO,6.568047,52.058823
Haneveldsweg,7,a,,7156RM,Beltrum,Berkelland,Gelderland,VBO,6.568340,52.060097
Haneveldsweg,7,,,7156RM,Beltrum,Berkelland,Gelderland,VBO,6.568369,52.059988
Ringweg,1,,,7156RN,Beltrum,Berkelland,Gelderland,VBO,6.564212,52.061612
Ringweg,2,,,7156RN,Beltrum,Berkelland,Gelderland,VBO,6.563480,52.062608
Ringweg,3,,,7156RN,Beltrum,Berkelland,Gelderland,VBO,6.563815,52.060942
Ringweg,4,,,7156RN,Beltrum,Berkelland,Gelderland,VBO,6.562249,52.059052
Ringweg,5,,,7156RN,Beltrum,Berkelland,Gelderland,VBO,6.563616,52.060018
Ringweg,6,a,,7156RN,Beltrum,Berkelland,Gelderland,VBO,6.561024,52.058018
Ringweg,6,,,7156RN,Beltrum,Berkelland,Gelderland,VBO,6.560902,52.058023
Ringweg,8,,,7156RN,Beltrum,Berkelland,Gelderland,VBO,6.561650,52.056775
Abbinksweg,1,a,,7156RP,Beltrum,Berkelland,Gelderland,VBO,6.555812,52.054511
Abbinksweg,1,,,7156RP,Beltrum,Berkelland,Gelderland,VBO,6.555657,52.054560
Abbinksweg,2,a,,7156RP,Beltrum,Berkelland,Gelderland,VBO,6.557867,52.054238
Abbinksweg,2,,,7156RP,Beltrum,Berkelland,Gelderland,VBO,6.557807,52.054151
Abbinksweg,3,,,7156RP,Beltrum,Berkelland,Gelderland,VBO,6.560038,52.055352
Abbinksweg,4,,,7156RP,Beltrum,Berkelland,Gelderland,VBO,6.558649,52.054099
Abbinksweg,5,,,7156RP,Beltrum,Berkelland,Gelderland,VBO,6.561658,52.055417
Abbinksweg,6,,,7156RP,Beltrum,Berkelland,Gelderland,VBO,6.558643,52.054989
Poeldersdijk,1,,,7156RR,Beltrum,Berkelland,Gelderland,VBO,6.556299,52.055668
Poeldersdijk,2,,,7156RR,Beltrum,Berkelland,Gelderland,VBO,6.559118,52.056998
Poeldersdijk,4,,,7156RR,Beltrum,Berkelland,Gelderland,VBO,6.558091,52.057304
Poeldersdijk,6,,,7156RR,Beltrum,Berkelland,Gelderland,VBO,6.556114,52.056982
Zieuwentseweg,7,,,7156RR,Beltrum,Berkelland,Gelderland,VBO,6.554553,52.053582
Zieuwentseweg,12,,T01,7156RR,Beltrum,Berkelland,Gelderland,VBO,6.554004,52.057153
Zieuwentseweg,12,,,7156RR,Beltrum,Berkelland,Gelderland,VBO,6.553726,52.055972
Zieuwentseweg,14,a,,7156RR,Beltrum,Berkelland,Gelderland,VBO,6.553764,52.054103
Zieuwentseweg,14,,,7156RR,Beltrum,Berkelland,Gelderland,VBO,6.553665,52.054130
Zieuwentseweg,16,a,,7156RR,Beltrum,Berkelland,Gelderland,VBO,6.553047,52.053574
Zieuwentseweg,16,,,7156RR,Beltrum,Berkelland,Gelderland,VBO,6.552841,52.053046
Zieuwentseweg,18,,,7156RR,Beltrum,Berkelland,Gelderland,VBO,6.551026,52.052520
Krabbenweg,1,,,7156RS,Beltrum,Berkelland,Gelderland,VBO,6.555138,52.051976
Krabbenweg,2,,,7156RS,Beltrum,Berkelland,Gelderland,VBO,6.555731,52.051260
Krabbenweg,3,a,,7156RS,Beltrum,Berkelland,Gelderland,VBO,6.557190,52.051300
Krabbenweg,3,,,7156RS,Beltrum,Berkelland,Gelderland,VBO,6.557074,52.051319
Beekenweg,1,,,7156RT,Beltrum,Berkelland,Gelderland,VBO,6.560187,52.049940
Beekenweg,2,,,7156RT,Beltrum,Berkelland,Gelderland,VBO,6.556353,52.047704
Beekenweg,5,,,7156RT,Beltrum,Berkelland,Gelderland,VBO,6.557303,52.048359
Lieftinkweg,1,,,7156RV,Beltrum,Berkelland,Gelderland,VBO,6.576322,52.048948
Mentinksweg,2,,,7156RV,Beltrum,Berkelland,Gelderland,VBO,6.568315,52.052402
Ringweg,10,,,7156RV,Beltrum,Berkelland,Gelderland,VBO,6.562638,52.052774
Ringweg,12,,,7156RV,Beltrum,Berkelland,Gelderland,VBO,6.563619,52.052350
Abbinksweg,7,,,7156RW,Beltrum,Berkelland,Gelderland,VBO,6.564911,52.056589
Abbinksweg,8,a,,7156RW,Beltrum,Berkelland,Gelderland,VBO,6.563865,52.055397
Abbinksweg,8,,,7156RW,Beltrum,Berkelland,Gelderland,VBO,6.563830,52.055387
Abbinksweg,9,a,,7156RW,Beltrum,Berkelland,Gelderland,VBO,6.573330,52.055355
Abbinksweg,9,,,7156RW,Beltrum,Berkelland,Gelderland,VBO,6.573408,52.055292
Abbinksweg,10,,,7156RW,Beltrum,Berkelland,Gelderland,VBO,6.564924,52.055951
Abbinksweg,12,,,7156RW,Beltrum,Berkelland,Gelderland,VBO,6.566143,52.056307
Leunkweg,1,a,,7156RW,Beltrum,Berkelland,Gelderland,VBO,6.573352,52.048253
Leunkweg,1,,,7156RW,Beltrum,Berkelland,Gelderland,VBO,6.573306,52.048172
Leunkweg,2,,,7156RW,Beltrum,Berkelland,Gelderland,VBO,6.575574,52.052860
Leunkweg,3,,,7156RX,Beltrum,Berkelland,Gelderland,VBO,6.568499,52.045003
Leunkweg,4,,,7156RX,Beltrum,Berkelland,Gelderland,VBO,6.570877,52.047271
Leunkweg,6,a,,7156RX,Beltrum,Berkelland,Gelderland,VBO,6.569157,52.046200
Leunkweg,6,,,7156RX,Beltrum,Berkelland,Gelderland,VBO,6.570000,52.046650
Leunkweg,8,,,7156RX,Beltrum,Berkelland,Gelderland,VBO,6.567387,52.044879
Ringweg,7,a,,7156RX,Beltrum,Berkelland,Gelderland,VBO,6.570379,52.049388
Ringweg,7,,T01,7156RX,Beltrum,Berkelland,Gelderland,VBO,6.569487,52.046550
Ringweg,7,,,7156RX,Beltrum,Berkelland,Gelderland,VBO,6.569711,52.049503
Ringweg,9,a,,7156RX,Beltrum,Berkelland,Gelderland,VBO,6.571412,52.044838
Ringweg,9,,,7156RX,Beltrum,Berkelland,Gelderland,VBO,6.571599,52.044837
Ringweg,11,,,7156RX,Beltrum,Berkelland,Gelderland,VBO,6.571537,52.044127
Ringweg,14,,,7156RX,Beltrum,Berkelland,Gelderland,VBO,6.563698,52.049275
Ringweg,16,,,7156RX,Beltrum,Berkelland,Gelderland,VBO,6.564451,52.047398
Ringweg,18,,,7156RX,Beltrum,Berkelland,Gelderland,VBO,6.569001,52.046355
Ringweg,20,b,,7156RX,Beltrum,Berkelland,Gelderland,VBO,6.574605,52.042190
Ringweg,20,,,7156RX,Beltrum,Berkelland,Gelderland,VBO,6.570143,52.044330
Veldweg,2,a,,7156RX,Beltrum,Berkelland,Gelderland,VBO,6.568319,52.041347
Veldweg,2,,,7156RX,Beltrum,Berkelland,Gelderland,VBO,6.568344,52.041424
Bumptmansweg,1,,,7156RZ,Beltrum,Berkelland,Gelderland,VBO,6.565770,52.042135
Bumptmansweg,2,,,7156RZ,Beltrum,Berkelland,Gelderland,VBO,6.561707,52.044854
Bumptmansweg,4,,,7156RZ,Beltrum,Berkelland,Gelderland,VBO,6.561690,52.044798
Hemminksweg,1,a,,7156SB,Beltrum,Berkelland,Gelderland,VBO,6.561940,52.046165
Hemminksweg,1,,,7156SB,Beltrum,Berkelland,Gelderland,VBO,6.562433,52.046079
Hemminksweg,2,,T01,7156SB,Beltrum,Berkelland,Gelderland,VBO,6.547295,52.046032
Hemminksweg,2,,,7156SB,Beltrum,Berkelland,Gelderland,VBO,6.548990,52.046006
Hemminksweg,3,,,7156SB,Beltrum,Berkelland,Gelderland,VBO,6.557584,52.045705
Nijkampsweg,2,a,,7156SC,Beltrum,Berkelland,Gelderland,VBO,6.561920,52.039454
Nijkampsweg,2,,,7156SC,Beltrum,Berkelland,Gelderland,VBO,6.561748,52.039353
Nijkampsweg,4,a,,7156SC,Beltrum,Berkelland,Gelderland,VBO,6.558540,52.038226
Nijkampsweg,4,,,7156SC,Beltrum,Berkelland,Gelderland,VBO,6.558469,52.038307
Ruurloseweg,204,a,,7156SC,Beltrum,Berkelland,Gelderland,VBO,6.555333,52.043043
Ruurloseweg,204,,,7156SC,Beltrum,Berkelland,Gelderland,VBO,6.555407,52.043142
Ruurloseweg,206,a,,7156SC,Beltrum,Berkelland,Gelderland,VBO,6.558522,52.042294
Ruurloseweg,206,,,7156SC,Beltrum,Berkelland,Gelderland,VBO,6.558395,52.042182
Ruurloseweg,208,a,,7156SC,Beltrum,Berkelland,Gelderland,VBO,6.560399,52.041968
Ruurloseweg,208,,,7156SC,Beltrum,Berkelland,Gelderland,VBO,6.560707,52.041934
Ruurloseweg,210,a,,7156SC,Beltrum,Berkelland,Gelderland,VBO,6.562416,52.041267
Ruurloseweg,210,,,7156SC,Beltrum,Berkelland,Gelderland,VBO,6.562452,52.041326
Ruurloseweg,212,,,7156SC,Beltrum,Berkelland,Gelderland,VBO,6.573754,52.039233
Ruurloseweg,214,,,7156SC,Beltrum,Berkelland,Gelderland,VBO,6.576528,52.039402
Ruurloseweg,216,a,,7156SC,Beltrum,Berkelland,Gelderland,VBO,6.577732,52.039563
Ruurloseweg,216,,,7156SC,Beltrum,Berkelland,Gelderland,VBO,6.577698,52.039639
Hooihaarsweg,3,,,7156SE,Beltrum,Berkelland,Gelderland,VBO,6.572327,52.040946
Hooihaarsweg,5,,,7156SE,Beltrum,Berkelland,Gelderland,VBO,6.571714,52.040907
Ringweg,13,a,,7156SE,Beltrum,Berkelland,Gelderland,VBO,6.576180,52.043530
Ringweg,13,b,,7156SE,Beltrum,Berkelland,Gelderland,VBO,6.575268,52.043487
Ringweg,13,,,7156SE,Beltrum,Berkelland,Gelderland,VBO,6.576276,52.043602
Ringweg,15,a,,7156SE,Beltrum,Berkelland,Gelderland,VBO,6.577725,52.044185
Ringweg,15,,,7156SE,Beltrum,Berkelland,Gelderland,VBO,6.577577,52.044309
Ringweg,17,,,7156SE,Beltrum,Berkelland,Gelderland,VBO,6.579065,52.044357
Ringweg,19,,T01,7156SE,Beltrum,Berkelland,Gelderland,VBO,6.580812,52.044140
Ringweg,21,,,7156SE,Beltrum,Berkelland,Gelderland,VBO,6.582018,52.043260
Ringweg,22,,,7156SE,Beltrum,Berkelland,Gelderland,VBO,6.579386,52.043823
Ringweg,24,a,,7156SE,Beltrum,Berkelland,Gelderland,VBO,6.580481,52.043878
Ringweg,24,,,7156SE,Beltrum,Berkelland,Gelderland,VBO,6.580569,52.043849
Frankweg,1,,,7156SG,Beltrum,Berkelland,Gelderland,VBO,6.583341,52.049985
Frankweg,2,,,7156SG,Beltrum,Berkelland,Gelderland,VBO,6.580915,52.054331
Frankweg,3,,,7156SG,Beltrum,Berkelland,Gelderland,VBO,6.583543,52.048275
Frankweg,4,,,7156SG,Beltrum,Berkelland,Gelderland,VBO,6.580930,52.054218
Frankweg,6,a,,7156SG,Beltrum,Berkelland,Gelderland,VBO,6.578540,52.050924
Frankweg,6,,,7156SG,Beltrum,Berkelland,Gelderland,VBO,6.578687,52.050958
Frankweg,8,,,7156SG,Beltrum,Berkelland,Gelderland,VBO,6.581512,52.044278
Frankweg,12,,,7156SG,Beltrum,Berkelland,Gelderland,VBO,6.581516,52.043882
Ringweg,29,,,7156SG,Beltrum,Berkelland,Gelderland,VBO,6.586211,52.050460
Ringweg,31,,,7156SG,Beltrum,Berkelland,Gelderland,VBO,6.587604,52.051290
Ringweg,34,,,7156SG,Beltrum,Berkelland,Gelderland,VBO,6.588899,52.049560
Ringweg,36,,,7156SG,Beltrum,Berkelland,Gelderland,VBO,6.588659,52.049868
Gunninkweg,1,a,,7156SH,Beltrum,Berkelland,Gelderland,VBO,6.587375,52.047202
Gunninkweg,1,,,7156SH,Beltrum,Berkelland,Gelderland,VBO,6.587077,52.047230
Gunninkweg,2,a,,7156SH,Beltrum,Berkelland,Gelderland,VBO,6.588435,52.046949
Gunninkweg,2,,,7156SH,Beltrum,Berkelland,Gelderland,VBO,6.588347,52.046932
Gunninkweg,3,,,7156SH,Beltrum,Berkelland,Gelderland,VBO,6.587365,52.047257
Gunninkweg,4,a,,7156SH,Beltrum,Berkelland,Gelderland,VBO,6.589301,52.047286
Gunninkweg,4,,,7156SH,Beltrum,Berkelland,Gelderland,VBO,6.589287,52.047183
Ringweg,23,a,,7156SH,Beltrum,Berkelland,Gelderland,VBO,6.586033,52.042905
Ringweg,23,,,7156SH,Beltrum,Berkelland,Gelderland,VBO,6.586115,52.042835
Ringweg,25,,,7156SH,Beltrum,Berkelland,Gelderland,VBO,6.586883,52.042893
Ringweg,26,a,,7156SH,Beltrum,Berkelland,Gelderland,VBO,6.585945,52.042147
Ringweg,26,,,7156SH,Beltrum,Berkelland,Gelderland,VBO,6.581363,52.042518
Ringweg,27,a,,7156SH,Beltrum,Berkelland,Gelderland,VBO,6.590695,52.045308
Ringweg,27,b,,7156SH,Beltrum,Berkelland,Gelderland,VBO,6.590304,52.045932
Ringweg,27,,,7156SH,Beltrum,Berkelland,Gelderland,VBO,6.590474,52.045934
Ringweg,28,,01,7156SH,Beltrum,Berkelland,Gelderland,VBO,6.586608,52.041393
Ringweg,28,,,7156SH,Beltrum,Berkelland,Gelderland,VBO,6.587856,52.041652
Ringweg,30,a,,7156SH,Beltrum,Berkelland,Gelderland,VBO,6.589345,52.042293
Ringweg,30,,,7156SH,Beltrum,Berkelland,Gelderland,VBO,6.589699,52.042442
Ringweg,32,a,,7156SH,Beltrum,Berkelland,Gelderland,VBO,6.590871,52.046289
Ringweg,32,,T01,7156SH,Beltrum,Berkelland,Gelderland,VBO,6.589400,52.048367
Ringweg,32,,,7156SH,Beltrum,Berkelland,Gelderland,VBO,6.590826,52.046403
Hooihaarsweg,1,a,,7156SJ,Beltrum,Berkelland,Gelderland,VBO,6.579924,52.042137
Hooihaarsweg,1,b,,7156SJ,Beltrum,Berkelland,Gelderland,VBO,6.581085,52.042493
Hooihaarsweg,1,c,,7156SJ,Beltrum,Berkelland,Gelderland,VBO,6.580153,52.041903
Hooihaarsweg,1,,,7156SJ,Beltrum,Berkelland,Gelderland,VBO,6.580098,52.042099
Hooihaarsweg,2,a,,7156SJ,Beltrum,Berkelland,Gelderland,VBO,6.579475,52.042662
Hooihaarsweg,2,,,7156SJ,Beltrum,Berkelland,Gelderland,VBO,6.579406,52.042642
Schuurmansweg,1,a,,7156SK,Beltrum,Berkelland,Gelderland,VBO,6.573407,52.036027
Schuurmansweg,1,,,7156SK,Beltrum,Berkelland,Gelderland,VBO,6.579513,52.039264
Schuurmansweg,2,a,,7156SK,Beltrum,Berkelland,Gelderland,VBO,6.578818,52.039451
Schuurmansweg,2,,,7156SK,Beltrum,Berkelland,Gelderland,VBO,6.578670,52.039381
Schuurmansweg,3,a,,7156SK,Beltrum,Berkelland,Gelderland,VBO,6.571516,52.033421
Schuurmansweg,3,,,7156SK,Beltrum,Berkelland,Gelderland,VBO,6.573140,52.035841
Schuurmansweg,4,,,7156SK,Beltrum,Berkelland,Gelderland,VBO,6.577489,52.038808
Schuurmansweg,5,,T01,7156SK,Beltrum,Berkelland,Gelderland,VBO,6.568290,52.033490
Schuurmansweg,5,,,7156SK,Beltrum,Berkelland,Gelderland,VBO,6.568985,52.033600
Schuurmansweg,6,a,,7156SK,Beltrum,Berkelland,Gelderland,VBO,6.570629,52.035248
Schuurmansweg,6,,,7156SK,Beltrum,Berkelland,Gelderland,VBO,6.570675,52.035219
Schuurmansweg,7,,,7156SK,Beltrum,Berkelland,Gelderland,VBO,6.567911,52.033206
Bedelaarsdijk,10,,,7156SM,Beltrum,Berkelland,Gelderland,VBO,6.532221,52.031024
Boschlaan,42,a,,7156SN,Beltrum,Berkelland,Gelderland,VBO,6.536192,52.027884
Boschlaan,42,,,7156SN,Beltrum,Berkelland,Gelderland,VBO,6.536392,52.027729
