openbareruimtenaam,huisnummer,huisletter,huisnummertoevoeging,postcode,woonplaatsnaam,gemeentenaam,provincienaam,typeadresseerbaarobject,longitude,latitude
Reeverdijk,13,,,7217LA,Harfsen,Lochem,Gelderland,VBO,6.267115,52.186988
Asselerweg,3,a,,7217MA,Harfsen,Lochem,Gelderland,VBO,6.305159,52.182270
Asselerweg,3,,,7217MA,Harfsen,Lochem,Gelderland,VBO,6.305450,52.182032
Asselerweg,10,,,7217MA,Harfsen,Lochem,Gelderland,VBO,6.307615,52.182372
Asselerweg,12,,,7217MA,Harfsen,Lochem,Gelderland,VBO,6.307116,52.182296
Hazewinkelsdijk,2,,,7217MB,Harfsen,Lochem,Gelderland,VBO,6.307239,52.193927
Hazewinkelsdijk,4,,,7217MB,Harfsen,Lochem,Gelderland,VBO,6.311387,52.196721
Hazewinkelsdijk,6,,,7217MB,Harfsen,Lochem,Gelderland,VBO,6.311495,52.196763
Hazewinkelsdijk,8,,,7217MB,Harfsen,Lochem,Gelderland,VBO,6.311321,52.196871
Haarbroeksteeg,4,a,,7217MC,Harfsen,Lochem,Gelderland,VBO,6.323291,52.173388
Haarbroeksteeg,4,b,,7217MC,Harfsen,Lochem,Gelderland,VBO,6.323371,52.173702
Haarbroeksteeg,4,,,7217MC,Harfsen,Lochem,Gelderland,VBO,6.323822,52.173523
Haarbroeksteeg,5,,,7217MC,Harfsen,Lochem,Gelderland,VBO,6.321553,52.175494
Haarbroeksteeg,6,t,,7217MC,Harfsen,Lochem,Gelderland,VBO,6.322336,52.175384
Haarbroeksteeg,6,,,7217MC,Harfsen,Lochem,Gelderland,VBO,6.322847,52.175783
Haarbroeksteeg,7,,,7217MC,Harfsen,Lochem,Gelderland,VBO,6.321608,52.177501
Harfsense Steeg,9,t,,7217MD,Harfsen,Lochem,Gelderland,VBO,6.252564,52.176797
Harfsense Steeg,9,,,7217MD,Harfsen,Lochem,Gelderland,VBO,6.258597,52.177419
Harfsense Steeg,10,a,,7217MD,Harfsen,Lochem,Gelderland,VBO,6.255225,52.176488
Harfsense Steeg,10,,,7217MD,Harfsen,Lochem,Gelderland,VBO,6.256376,52.175485
Harfsense Steeg,11,a,,7217MD,Harfsen,Lochem,Gelderland,VBO,6.265102,52.177620
Harfsense Steeg,11,t,,7217MD,Harfsen,Lochem,Gelderland,VBO,6.266542,52.177401
Harfsense Steeg,11,,,7217MD,Harfsen,Lochem,Gelderland,VBO,6.262967,52.178175
Harfsense Steeg,12,,,7217MD,Harfsen,Lochem,Gelderland,VBO,6.266467,52.176834
Harfsense Steeg,13,a,,7217MD,Harfsen,Lochem,Gelderland,VBO,6.269073,52.182516
Harfsense Steeg,13,,,7217MD,Harfsen,Lochem,Gelderland,VBO,6.268025,52.179782
Harfsense Steeg,14,a,,7217MD,Harfsen,Lochem,Gelderland,VBO,6.268345,52.177059
Harfsense Steeg,14,,,7217MD,Harfsen,Lochem,Gelderland,VBO,6.268339,52.177148
Harfsense Steeg,15,t,,7217MD,Harfsen,Lochem,Gelderland,VBO,6.274581,52.180812
Harfsense Steeg,15,,H10,7217MD,Harfsen,Lochem,Gelderland,VBO,6.270602,52.181453
Harfsense Steeg,15,,H11,7217MD,Harfsen,Lochem,Gelderland,VBO,6.270353,52.181428
Harfsense Steeg,15,,H13,7217MD,Harfsen,Lochem,Gelderland,VBO,6.270030,52.181385
Harfsense Steeg,15,,H14,7217MD,Harfsen,Lochem,Gelderland,VBO,6.269105,52.181176
Harfsense Steeg,15,,H15,7217MD,Harfsen,Lochem,Gelderland,VBO,6.269094,52.181365
Harfsense Steeg,15,,H16,7217MD,Harfsen,Lochem,Gelderland,VBO,6.269184,52.181445
Harfsense Steeg,15,,H17,7217MD,Harfsen,Lochem,Gelderland,VBO,6.269711,52.181504
Harfsense Steeg,15,,H19,7217MD,Harfsen,Lochem,Gelderland,VBO,6.269597,52.181631
Harfsense Steeg,15,,H20,7217MD,Harfsen,Lochem,Gelderland,VBO,6.269964,52.181745
Harfsense Steeg,15,,H22,7217MD,Harfsen,Lochem,Gelderland,VBO,6.270142,52.181861
Harfsense Steeg,15,,H23,7217MD,Harfsen,Lochem,Gelderland,VBO,6.270189,52.182004
Harfsense Steeg,15,,H23a,7217MD,Harfsen,Lochem,Gelderland,VBO,6.270548,52.182273
Harfsense Steeg,15,,H24,7217MD,Harfsen,Lochem,Gelderland,VBO,6.271004,52.182555
Harfsense Steeg,15,,H25,7217MD,Harfsen,Lochem,Gelderland,VBO,6.271609,52.182083
Harfsense Steeg,15,,H26,7217MD,Harfsen,Lochem,Gelderland,VBO,6.271140,52.182042
Harfsense Steeg,15,,H27,7217MD,Harfsen,Lochem,Gelderland,VBO,6.270775,52.182072
Harfsense Steeg,15,,H28,7217MD,Harfsen,Lochem,Gelderland,VBO,6.270880,52.182224
Harfsense Steeg,15,,H29,7217MD,Harfsen,Lochem,Gelderland,VBO,6.271474,52.182660
Harfsense Steeg,15,,H29a,7217MD,Harfsen,Lochem,Gelderland,VBO,6.271823,52.182464
Harfsense Steeg,15,,H29b,7217MD,Harfsen,Lochem,Gelderland,VBO,6.271806,52.182743
Harfsense Steeg,15,,H3,7217MD,Harfsen,Lochem,Gelderland,VBO,6.272877,52.181876
Harfsense Steeg,15,,H30,7217MD,Harfsen,Lochem,Gelderland,VBO,6.271567,52.182947
Harfsense Steeg,15,,H30a,7217MD,Harfsen,Lochem,Gelderland,VBO,6.271859,52.182969
Harfsense Steeg,15,,H31,7217MD,Harfsen,Lochem,Gelderland,VBO,6.271996,52.183168
Harfsense Steeg,15,,H32,7217MD,Harfsen,Lochem,Gelderland,VBO,6.272160,52.183320
Harfsense Steeg,15,,H33,7217MD,Harfsen,Lochem,Gelderland,VBO,6.272446,52.183346
Harfsense Steeg,15,,H33a,7217MD,Harfsen,Lochem,Gelderland,VBO,6.272713,52.183663
Harfsense Steeg,15,,H34,7217MD,Harfsen,Lochem,Gelderland,VBO,6.273098,52.183429
Harfsense Steeg,15,,H35,7217MD,Harfsen,Lochem,Gelderland,VBO,6.272351,52.182676
Harfsense Steeg,15,,H36,7217MD,Harfsen,Lochem,Gelderland,VBO,6.273270,52.183248
Harfsense Steeg,15,,H37,7217MD,Harfsen,Lochem,Gelderland,VBO,6.273441,52.183058
Harfsense Steeg,15,,H38,7217MD,Harfsen,Lochem,Gelderland,VBO,6.273628,52.182886
Harfsense Steeg,15,,H39,7217MD,Harfsen,Lochem,Gelderland,VBO,6.273756,52.182687
Harfsense Steeg,15,,H40,7217MD,Harfsen,Lochem,Gelderland,VBO,6.273971,52.182470
Harfsense Steeg,15,,H41,7217MD,Harfsen,Lochem,Gelderland,VBO,6.274128,52.182307
Harfsense Steeg,15,,H42,7217MD,Harfsen,Lochem,Gelderland,VBO,6.273090,52.183034
Harfsense Steeg,15,,H43,7217MD,Harfsen,Lochem,Gelderland,VBO,6.273149,52.182315
Harfsense Steeg,15,,H44,7217MD,Harfsen,Lochem,Gelderland,VBO,6.272651,52.182306
Harfsense Steeg,15,,H45,7217MD,Harfsen,Lochem,Gelderland,VBO,6.272539,52.182153
Harfsense Steeg,15,,H45a,7217MD,Harfsen,Lochem,Gelderland,VBO,6.272074,52.182028
Harfsense Steeg,15,,H46,7217MD,Harfsen,Lochem,Gelderland,VBO,6.273824,52.183208
Harfsense Steeg,15,,H47,7217MD,Harfsen,Lochem,Gelderland,VBO,6.274148,52.183296
Harfsense Steeg,15,,H48,7217MD,Harfsen,Lochem,Gelderland,VBO,6.274458,52.183428
Harfsense Steeg,15,,H49,7217MD,Harfsen,Lochem,Gelderland,VBO,6.273164,52.183806
Harfsense Steeg,15,,H5,7217MD,Harfsen,Lochem,Gelderland,VBO,6.271905,52.181515
Harfsense Steeg,15,,H50,7217MD,Harfsen,Lochem,Gelderland,VBO,6.273632,52.183821
Harfsense Steeg,15,,H50a,7217MD,Harfsen,Lochem,Gelderland,VBO,6.273383,52.184025
Harfsense Steeg,15,,H51,7217MD,Harfsen,Lochem,Gelderland,VBO,6.273869,52.183990
Harfsense Steeg,15,,H52,7217MD,Harfsen,Lochem,Gelderland,VBO,6.273781,52.183703
Harfsense Steeg,15,,H53,7217MD,Harfsen,Lochem,Gelderland,VBO,6.274425,52.183680
Harfsense Steeg,15,,H54,7217MD,Harfsen,Lochem,Gelderland,VBO,6.274173,52.183705
Harfsense Steeg,15,,H55,7217MD,Harfsen,Lochem,Gelderland,VBO,6.274118,52.183940
Harfsense Steeg,15,,H56,7217MD,Harfsen,Lochem,Gelderland,VBO,6.274592,52.183465
Harfsense Steeg,15,,H58,7217MD,Harfsen,Lochem,Gelderland,VBO,6.274917,52.183659
Harfsense Steeg,15,,H59,7217MD,Harfsen,Lochem,Gelderland,VBO,6.274802,52.183779
Harfsense Steeg,15,,H6,7217MD,Harfsen,Lochem,Gelderland,VBO,6.271734,52.181777
Harfsense Steeg,15,,H60,7217MD,Harfsen,Lochem,Gelderland,VBO,6.274672,52.183917
Harfsense Steeg,15,,H62,7217MD,Harfsen,Lochem,Gelderland,VBO,6.274400,52.184137
Harfsense Steeg,15,,H64,7217MD,Harfsen,Lochem,Gelderland,VBO,6.274093,52.182921
Harfsense Steeg,15,,H65,7217MD,Harfsen,Lochem,Gelderland,VBO,6.274581,52.183175
Harfsense Steeg,15,,H66,7217MD,Harfsen,Lochem,Gelderland,VBO,6.275249,52.183440
Harfsense Steeg,15,,H67,7217MD,Harfsen,Lochem,Gelderland,VBO,6.275649,52.183620
Harfsense Steeg,15,,H68,7217MD,Harfsen,Lochem,Gelderland,VBO,6.276008,52.183770
Harfsense Steeg,15,,H73,7217MD,Harfsen,Lochem,Gelderland,VBO,6.276832,52.184154
Harfsense Steeg,15,,,7217MD,Harfsen,Lochem,Gelderland,VBO,6.273972,52.181974
Harfsense Steeg,16,,,7217MD,Harfsen,Lochem,Gelderland,VBO,6.272394,52.178165
Harfsense Steeg,17,a,,7217MD,Harfsen,Lochem,Gelderland,VBO,6.275614,52.182066
Harfsense Steeg,17,,,7217MD,Harfsen,Lochem,Gelderland,VBO,6.275737,52.182159
Harfsense Steeg,18,,,7217MD,Harfsen,Lochem,Gelderland,VBO,6.274326,52.178989
Harfsense Steeg,20,a,,7217MD,Harfsen,Lochem,Gelderland,VBO,6.275941,52.180064
Harfsense Steeg,20,b,,7217MD,Harfsen,Lochem,Gelderland,VBO,6.279896,52.179720
Harfsense Steeg,20,,,7217MD,Harfsen,Lochem,Gelderland,VBO,6.275107,52.180285
Harfsense Steeg,22,a,,7217MD,Harfsen,Lochem,Gelderland,VBO,6.281050,52.179809
Harfsense Steeg,22,,,7217MD,Harfsen,Lochem,Gelderland,VBO,6.280622,52.179656
Harfsense Steeg,24,,,7217MD,Harfsen,Lochem,Gelderland,VBO,6.281730,52.179824
Harfsense Steeg,26,a,,7217MD,Harfsen,Lochem,Gelderland,VBO,6.283449,52.179720
Harfsense Steeg,26,b,,7217MD,Harfsen,Lochem,Gelderland,VBO,6.283451,52.179801
Harfsense Steeg,26,,,7217MD,Harfsen,Lochem,Gelderland,VBO,6.282334,52.179769
Harfsense Steeg,19,a,,7217ME,Harfsen,Lochem,Gelderland,VBO,6.284366,52.180216
Harfsense Steeg,19,t,,7217ME,Harfsen,Lochem,Gelderland,VBO,6.284517,52.180457
Harfsense Steeg,19,,,7217ME,Harfsen,Lochem,Gelderland,VBO,6.282579,52.180289
Harfsense Steeg,28,,,7217ME,Harfsen,Lochem,Gelderland,VBO,6.285250,52.179945
Harfsense Steeg,30,,,7217ME,Harfsen,Lochem,Gelderland,VBO,6.285907,52.180029
Harfsense Steeg,21,,,7217MG,Harfsen,Lochem,Gelderland,VBO,6.294174,52.182965
Harfsense Steeg,23,a,,7217MG,Harfsen,Lochem,Gelderland,VBO,6.293533,52.180901
Harfsense Steeg,23,b,,7217MG,Harfsen,Lochem,Gelderland,VBO,6.293616,52.180703
Harfsense Steeg,23,t,,7217MG,Harfsen,Lochem,Gelderland,VBO,6.293775,52.180603
Harfsense Steeg,23,,,7217MG,Harfsen,Lochem,Gelderland,VBO,6.293260,52.183423
Harfsense Steeg,25,a,,7217MG,Harfsen,Lochem,Gelderland,VBO,6.293731,52.181263
Harfsense Steeg,25,,,7217MG,Harfsen,Lochem,Gelderland,VBO,6.294352,52.180978
Harfsense Steeg,27,,,7217MG,Harfsen,Lochem,Gelderland,VBO,6.295153,52.180597
Harfsense Steeg,29,,,7217MG,Harfsen,Lochem,Gelderland,VBO,6.312284,52.181276
Harfsense Steeg,32,a,,7217MG,Harfsen,Lochem,Gelderland,VBO,6.288016,52.179884
Harfsense Steeg,32,,,7217MG,Harfsen,Lochem,Gelderland,VBO,6.288014,52.180054
Harfsense Steeg,34,,,7217MG,Harfsen,Lochem,Gelderland,VBO,6.289155,52.179317
Harfsense Steeg,36,a,,7217MH,Harfsen,Lochem,Gelderland,VBO,6.308005,52.179784
Harfsense Steeg,36,,,7217MH,Harfsen,Lochem,Gelderland,VBO,6.308616,52.179940
Harfsense Steeg,38,,,7217MH,Harfsen,Lochem,Gelderland,VBO,6.315882,52.179825
Harfsense Steeg,40,,,7217MH,Harfsen,Lochem,Gelderland,VBO,6.325695,52.179616
Koekoekweg,2,,,7217MJ,Harfsen,Lochem,Gelderland,VBO,6.269131,52.196576
Oude Larenseweg,70,,,7217PA,Harfsen,Lochem,Gelderland,VBO,6.273178,52.213935
Oude Larenseweg,72,,,7217PA,Harfsen,Lochem,Gelderland,VBO,6.277407,52.215698
Oude Larenseweg,74,a,,7217PA,Harfsen,Lochem,Gelderland,VBO,6.294863,52.210319
Oude Larenseweg,74,,,7217PA,Harfsen,Lochem,Gelderland,VBO,6.283318,52.213199
Oude Larenseweg,97,,,7217PA,Harfsen,Lochem,Gelderland,VBO,6.273509,52.216108
Oude Larenseweg,99,t,,7217PA,Harfsen,Lochem,Gelderland,VBO,6.275858,52.216279
Oude Larenseweg,99,,,7217PA,Harfsen,Lochem,Gelderland,VBO,6.276279,52.216095
Oude Larenseweg,101,,,7217PA,Harfsen,Lochem,Gelderland,VBO,6.278226,52.216046
Oude Larenseweg,103,,,7217PA,Harfsen,Lochem,Gelderland,VBO,6.280796,52.216989
Oude Larenseweg,105,,,7217PA,Harfsen,Lochem,Gelderland,VBO,6.280649,52.217134
Oude Larenseweg,107,,,7217PB,Harfsen,Lochem,Gelderland,VBO,6.290057,52.212831
Oude Larenseweg,109,a,,7217PB,Harfsen,Lochem,Gelderland,VBO,6.295076,52.210713
Oude Larenseweg,109,,,7217PB,Harfsen,Lochem,Gelderland,VBO,6.290911,52.212150
Oude Larenseweg,111,,,7217PB,Harfsen,Lochem,Gelderland,VBO,6.295838,52.210358
Overveldweg,1,a,,7217PB,Harfsen,Lochem,Gelderland,VBO,6.300050,52.210000
Overveldweg,1,,,7217PB,Harfsen,Lochem,Gelderland,VBO,6.300292,52.213858
Overveldweg,2,,,7217PB,Harfsen,Lochem,Gelderland,VBO,6.302632,52.215044
Overveldweg,3,a,,7217PB,Harfsen,Lochem,Gelderland,VBO,6.296303,52.213474
Overveldweg,3,t,,7217PB,Harfsen,Lochem,Gelderland,VBO,6.295084,52.213700
Overveldweg,3,,,7217PB,Harfsen,Lochem,Gelderland,VBO,6.296097,52.213576
Overveldweg,4,,,7217PB,Harfsen,Lochem,Gelderland,VBO,6.292375,52.214471
Overveldweg,5,,,7217PB,Harfsen,Lochem,Gelderland,VBO,6.291556,52.212789
Oude Larenseweg,76,,,7217PC,Harfsen,Lochem,Gelderland,VBO,6.298352,52.209112
Oude Larenseweg,78,,,7217PC,Harfsen,Lochem,Gelderland,VBO,6.298569,52.209034
Oude Larenseweg,113,a,,7217PC,Harfsen,Lochem,Gelderland,VBO,6.304830,52.207262
Oude Larenseweg,113,,,7217PC,Harfsen,Lochem,Gelderland,VBO,6.304763,52.207240
Jufferdijk,1,a,,7217PE,Harfsen,Lochem,Gelderland,VBO,6.290118,52.202158
Jufferdijk,1,,,7217PE,Harfsen,Lochem,Gelderland,VBO,6.288963,52.203119
Jufferdijk,2,,,7217PE,Harfsen,Lochem,Gelderland,VBO,6.288007,52.205380
Jufferdijk,3,,,7217PE,Harfsen,Lochem,Gelderland,VBO,6.285523,52.205291
Jufferdijk,5,,,7217PE,Harfsen,Lochem,Gelderland,VBO,6.284491,52.207381
Jufferdijk,7,,,7217PE,Harfsen,Lochem,Gelderland,VBO,6.283325,52.215784
Jufferdijk,4,a,C14,7217PG,Harfsen,Lochem,Gelderland,VBO,6.287453,52.209851
Jufferdijk,4,a,C70,7217PG,Harfsen,Lochem,Gelderland,VBO,6.290064,52.210245
Jufferdijk,4,a,C97,7217PG,Harfsen,Lochem,Gelderland,VBO,6.291696,52.211380
Jufferdijk,4,a,H114,7217PG,Harfsen,Lochem,Gelderland,VBO,6.288743,52.210969
Jufferdijk,4,a,H116,7217PG,Harfsen,Lochem,Gelderland,VBO,6.287229,52.210200
Jufferdijk,4,a,H13,7217PG,Harfsen,Lochem,Gelderland,VBO,6.287291,52.209714
Jufferdijk,4,a,H53,7217PG,Harfsen,Lochem,Gelderland,VBO,6.291603,52.211102
Jufferdijk,4,a,H71,7217PG,Harfsen,Lochem,Gelderland,VBO,6.289742,52.210582
Jufferdijk,4,a,H78,7217PG,Harfsen,Lochem,Gelderland,VBO,6.290966,52.210677
Jufferdijk,4,a,H99,7217PG,Harfsen,Lochem,Gelderland,VBO,6.291175,52.211313
Jufferdijk,4,a,,7217PG,Harfsen,Lochem,Gelderland,VBO,6.286734,52.209923
Jufferdijk,4,t,,7217PG,Harfsen,Lochem,Gelderland,VBO,6.286024,52.209558
Jufferdijk,4,,,7217PG,Harfsen,Lochem,Gelderland,VBO,6.286106,52.209299
Jufferdijk,6,,,7217PG,Harfsen,Lochem,Gelderland,VBO,6.286177,52.210309
Jufferdijk,8,,,7217PG,Harfsen,Lochem,Gelderland,VBO,6.284708,52.218359
Dorshorst,1,a,,7217PH,Harfsen,Lochem,Gelderland,VBO,6.296900,52.216301
Dorshorst,1,b,,7217PH,Harfsen,Lochem,Gelderland,VBO,6.296876,52.216425
Dorshorst,1,,,7217PH,Harfsen,Lochem,Gelderland,VBO,6.296100,52.216234
Dorshorst,2,,,7217PH,Harfsen,Lochem,Gelderland,VBO,6.300708,52.217480
Dorshorst,3,,,7217PH,Harfsen,Lochem,Gelderland,VBO,6.296299,52.216876
Bielderweg,1,a,,7217PJ,Harfsen,Lochem,Gelderland,VBO,6.298524,52.208349
Bielderweg,1,,,7217PJ,Harfsen,Lochem,Gelderland,VBO,6.298429,52.208378
Bielderweg,2,a,,7217PJ,Harfsen,Lochem,Gelderland,VBO,6.298929,52.208112
Bielderweg,2,b,,7217PJ,Harfsen,Lochem,Gelderland,VBO,6.299138,52.208300
Bielderweg,2,,,7217PJ,Harfsen,Lochem,Gelderland,VBO,6.298708,52.207902
Bielderweg,3,,,7217PJ,Harfsen,Lochem,Gelderland,VBO,6.298828,52.208631
Bielderweg,4,,,7217PJ,Harfsen,Lochem,Gelderland,VBO,6.299234,52.208412
Bielderweg,5,,,7217PJ,Harfsen,Lochem,Gelderland,VBO,6.298970,52.208768
Bielderweg,6,,,7217PJ,Harfsen,Lochem,Gelderland,VBO,6.299297,52.208463
Bielderweg,7,,,7217PJ,Harfsen,Lochem,Gelderland,VBO,6.299017,52.208822
Bielderweg,8,,,7217PJ,Harfsen,Lochem,Gelderland,VBO,6.299346,52.208520
Bielderweg,9,,,7217PJ,Harfsen,Lochem,Gelderland,VBO,6.299076,52.208866
Bielderweg,10,a,,7217PJ,Harfsen,Lochem,Gelderland,VBO,6.299526,52.208665
Bielderweg,10,b,,7217PJ,Harfsen,Lochem,Gelderland,VBO,6.299585,52.208719
Bielderweg,10,,,7217PJ,Harfsen,Lochem,Gelderland,VBO,6.299481,52.208612
Bielderweg,11,,,7217PK,Harfsen,Lochem,Gelderland,VBO,6.299743,52.209233
Bielderweg,12,,,7217PK,Harfsen,Lochem,Gelderland,VBO,6.301733,52.209862
Bielderweg,13,,,7217PK,Harfsen,Lochem,Gelderland,VBO,6.300051,52.209666
Bielderweg,14,a,,7217PL,Harfsen,Lochem,Gelderland,VBO,6.312781,52.217110
Bielderweg,14,,,7217PL,Harfsen,Lochem,Gelderland,VBO,6.312919,52.217127
Bielderweg,15,,,7217PL,Harfsen,Lochem,Gelderland,VBO,6.307305,52.216884
Bielderweg,17,a,,7217PL,Harfsen,Lochem,Gelderland,VBO,6.311273,52.217050
Bielderweg,17,t,,7217PL,Harfsen,Lochem,Gelderland,VBO,6.311291,52.216857
Bielderweg,17,,,7217PL,Harfsen,Lochem,Gelderland,VBO,6.308207,52.219254
Bielderweg,19,,,7217PL,Harfsen,Lochem,Gelderland,VBO,6.311320,52.217855
Belterweg,1,,,7217PM,Harfsen,Lochem,Gelderland,VBO,6.306584,52.206716
Belterweg,2,a,,7217PM,Harfsen,Lochem,Gelderland,VBO,6.312424,52.207613
Belterweg,2,,,7217PM,Harfsen,Lochem,Gelderland,VBO,6.312356,52.207688
Belterweg,3,,,7217PM,Harfsen,Lochem,Gelderland,VBO,6.306847,52.209290
Belterweg,4,a,,7217PM,Harfsen,Lochem,Gelderland,VBO,6.308617,52.208217
Belterweg,4,,,7217PM,Harfsen,Lochem,Gelderland,VBO,6.308691,52.208270
Belterweg,5,a,,7217PM,Harfsen,Lochem,Gelderland,VBO,6.309410,52.210404
Belterweg,5,b,,7217PM,Harfsen,Lochem,Gelderland,VBO,6.309501,52.210501
Belterweg,5,,,7217PM,Harfsen,Lochem,Gelderland,VBO,6.309769,52.210102
Belterweg,6,a,,7217PM,Harfsen,Lochem,Gelderland,VBO,6.313559,52.209491
Belterweg,6,t,,7217PM,Harfsen,Lochem,Gelderland,VBO,6.310932,52.210281
Belterweg,6,,,7217PM,Harfsen,Lochem,Gelderland,VBO,6.313497,52.209538
Belterweg,7,,,7217PM,Harfsen,Lochem,Gelderland,VBO,6.310155,52.210405
Belterweg,8,,,7217PM,Harfsen,Lochem,Gelderland,VBO,6.312395,52.211320
Belterweg,9,,,7217PM,Harfsen,Lochem,Gelderland,VBO,6.312767,52.213216
Belterweg,10,,,7217PM,Harfsen,Lochem,Gelderland,VBO,6.314810,52.212083
Wikkemaatsweg,2,a,,7217PN,Harfsen,Lochem,Gelderland,VBO,6.315086,52.213263
Wikkemaatsweg,2,b,,7217PN,Harfsen,Lochem,Gelderland,VBO,6.315348,52.213207
Wikkemaatsweg,2,,,7217PN,Harfsen,Lochem,Gelderland,VBO,6.318795,52.213861
Holtmark,1,a,,7217PP,Harfsen,Lochem,Gelderland,VBO,6.301501,52.207230
Holtmark,1,,,7217PP,Harfsen,Lochem,Gelderland,VBO,6.302056,52.207180
Holtmark,2,a,,7217PP,Harfsen,Lochem,Gelderland,VBO,6.302772,52.206950
Holtmark,2,,,7217PP,Harfsen,Lochem,Gelderland,VBO,6.302419,52.207079
Holtmark,3,,,7217PP,Harfsen,Lochem,Gelderland,VBO,6.302078,52.207234
Holtmark,4,,,7217PP,Harfsen,Lochem,Gelderland,VBO,6.302603,52.207500
Holtmark,5,a,,7217PP,Harfsen,Lochem,Gelderland,VBO,6.302270,52.207646
Holtmark,5,,,7217PP,Harfsen,Lochem,Gelderland,VBO,6.301937,52.207605
Holtmark,7,,,7217PP,Harfsen,Lochem,Gelderland,VBO,6.301209,52.207965
Hooiweide,1,,,7217PR,Harfsen,Lochem,Gelderland,VBO,6.300445,52.208400
Hooiweide,3,,,7217PR,Harfsen,Lochem,Gelderland,VBO,6.300393,52.208350
Hooiweide,5,,,7217PR,Harfsen,Lochem,Gelderland,VBO,6.300251,52.208231
Hooiweide,7,,,7217PR,Harfsen,Lochem,Gelderland,VBO,6.300140,52.208110
Hooiweide,9,,,7217PR,Harfsen,Lochem,Gelderland,VBO,6.300026,52.207975
Hooiweide,11,,,7217PR,Harfsen,Lochem,Gelderland,VBO,6.299955,52.207839
Hooiweide,2,,,7217PS,Harfsen,Lochem,Gelderland,VBO,6.300148,52.208499
Hooiweide,4,,,7217PS,Harfsen,Lochem,Gelderland,VBO,6.300096,52.208448
Hooiweide,6,,,7217PS,Harfsen,Lochem,Gelderland,VBO,6.299981,52.208349
Hooiweide,8,,,7217PS,Harfsen,Lochem,Gelderland,VBO,6.299934,52.208313
Hooiweide,10,,,7217PS,Harfsen,Lochem,Gelderland,VBO,6.299885,52.208260
Hooiweide,12,,,7217PS,Harfsen,Lochem,Gelderland,VBO,6.299833,52.208210
Hooiweide,14,,,7217PS,Harfsen,Lochem,Gelderland,VBO,6.299775,52.208163
Hooiweide,16,,,7217PS,Harfsen,Lochem,Gelderland,VBO,6.299742,52.208124
Hooiweide,18,,,7217PS,Harfsen,Lochem,Gelderland,VBO,6.299659,52.208022
Hooiweide,20,,,7217PS,Harfsen,Lochem,Gelderland,VBO,6.299615,52.207939
Hooiweide,22,,,7217PS,Harfsen,Lochem,Gelderland,VBO,6.299549,52.207815
Hooiweide,24,,,7217PS,Harfsen,Lochem,Gelderland,VBO,6.299531,52.207759
Lochemseweg,103,,,7217RA,Harfsen,Lochem,Gelderland,VBO,6.267926,52.212471
Lochemseweg,105,,,7217RA,Harfsen,Lochem,Gelderland,VBO,6.269150,52.211401
Lochemseweg,107,a,,7217RA,Harfsen,Lochem,Gelderland,VBO,6.269371,52.211609
Lochemseweg,107,,,7217RA,Harfsen,Lochem,Gelderland,VBO,6.269365,52.211400
Lochemseweg,109,a,,7217RB,Harfsen,Lochem,Gelderland,VBO,6.278029,52.210335
Lochemseweg,109,b,,7217RB,Harfsen,Lochem,Gelderland,VBO,6.276476,52.210585
Lochemseweg,109,c,,7217RB,Harfsen,Lochem,Gelderland,VBO,6.276346,52.210676
Lochemseweg,109,,,7217RB,Harfsen,Lochem,Gelderland,VBO,6.275677,52.210433
Lochemseweg,111,a,,7217RB,Harfsen,Lochem,Gelderland,VBO,6.279398,52.210374
Lochemseweg,111,b,,7217RB,Harfsen,Lochem,Gelderland,VBO,6.282003,52.209653
Lochemseweg,111,,,7217RB,Harfsen,Lochem,Gelderland,VBO,6.278375,52.210039
Lochemseweg,113,,,7217RB,Harfsen,Lochem,Gelderland,VBO,6.282497,52.211083
Lochemseweg,115,,,7217RC,Harfsen,Lochem,Gelderland,VBO,6.286535,52.208979
Lochemseweg,117,,,7217RC,Harfsen,Lochem,Gelderland,VBO,6.287846,52.208871
Lochemseweg,119,,,7217RC,Harfsen,Lochem,Gelderland,VBO,6.289440,52.208701
Lochemseweg,121,,,7217RC,Harfsen,Lochem,Gelderland,VBO,6.290271,52.208588
Lochemseweg,125,,,7217RC,Harfsen,Lochem,Gelderland,VBO,6.291487,52.208401
Lochemseweg,127,,,7217RC,Harfsen,Lochem,Gelderland,VBO,6.293504,52.208165
Lochemseweg,129,,,7217RC,Harfsen,Lochem,Gelderland,VBO,6.293887,52.208122
Lochemseweg,131,,,7217RD,Harfsen,Lochem,Gelderland,VBO,6.294427,52.208050
Lochemseweg,133,,,7217RD,Harfsen,Lochem,Gelderland,VBO,6.294813,52.208000
Lochemseweg,135,,,7217RD,Harfsen,Lochem,Gelderland,VBO,6.295072,52.207898
Lochemseweg,137,,,7217RD,Harfsen,Lochem,Gelderland,VBO,6.295449,52.207848
Lochemseweg,139,a,,7217RD,Harfsen,Lochem,Gelderland,VBO,6.295967,52.207812
Lochemseweg,139,,,7217RD,Harfsen,Lochem,Gelderland,VBO,6.295876,52.207826
Lochemseweg,141,,,7217RD,Harfsen,Lochem,Gelderland,VBO,6.296199,52.207750
Lochemseweg,143,,,7217RD,Harfsen,Lochem,Gelderland,VBO,6.296518,52.207706
Lochemseweg,145,a,,7217RD,Harfsen,Lochem,Gelderland,VBO,6.297135,52.207686
Lochemseweg,145,t,,7217RD,Harfsen,Lochem,Gelderland,VBO,6.297019,52.207850
Lochemseweg,145,,,7217RD,Harfsen,Lochem,Gelderland,VBO,6.296751,52.207676
Lochemseweg,147,,,7217RD,Harfsen,Lochem,Gelderland,VBO,6.297354,52.207637
Lochemseweg,149,a,,7217RE,Harfsen,Lochem,Gelderland,VBO,6.298259,52.207533
Lochemseweg,149,b,,7217RE,Harfsen,Lochem,Gelderland,VBO,6.298399,52.207521
Lochemseweg,149,c,,7217RE,Harfsen,Lochem,Gelderland,VBO,6.298408,52.207570
Lochemseweg,149,d,,7217RE,Harfsen,Lochem,Gelderland,VBO,6.298433,52.207639
Lochemseweg,149,e,,7217RE,Harfsen,Lochem,Gelderland,VBO,6.298455,52.207711
Lochemseweg,149,,,7217RE,Harfsen,Lochem,Gelderland,VBO,6.298293,52.207655
Lochemseweg,151,,,7217RE,Harfsen,Lochem,Gelderland,VBO,6.298662,52.207490
Lochemseweg,153,,,7217RE,Harfsen,Lochem,Gelderland,VBO,6.299057,52.207443
Lochemseweg,155,,,7217RE,Harfsen,Lochem,Gelderland,VBO,6.299285,52.207415
Lochemseweg,157,,,7217RE,Harfsen,Lochem,Gelderland,VBO,6.299383,52.207403
Lochemseweg,159,,,7217RE,Harfsen,Lochem,Gelderland,VBO,6.299608,52.207372
Lochemseweg,161,a,,7217RE,Harfsen,Lochem,Gelderland,VBO,6.299996,52.207358
Lochemseweg,161,b,,7217RE,Harfsen,Lochem,Gelderland,VBO,6.300318,52.207347
Lochemseweg,161,c,,7217RE,Harfsen,Lochem,Gelderland,VBO,6.300698,52.207353
Lochemseweg,161,,,7217RE,Harfsen,Lochem,Gelderland,VBO,6.299714,52.207358
Lochemseweg,163,a,,7217RG,Harfsen,Lochem,Gelderland,VBO,6.309327,52.205767
Lochemseweg,163,,,7217RG,Harfsen,Lochem,Gelderland,VBO,6.309154,52.205913
Lochemseweg,165,a,,7217RG,Harfsen,Lochem,Gelderland,VBO,6.310823,52.205419
Lochemseweg,165,,,7217RG,Harfsen,Lochem,Gelderland,VBO,6.310852,52.205329
Lochemseweg,167,,,7217RG,Harfsen,Lochem,Gelderland,VBO,6.311035,52.205293
Lochemseweg,169,,,7217RG,Harfsen,Lochem,Gelderland,VBO,6.315869,52.204628
Lochemseweg,171,a,,7217RG,Harfsen,Lochem,Gelderland,VBO,6.316983,52.204267
Lochemseweg,171,,,7217RG,Harfsen,Lochem,Gelderland,VBO,6.316891,52.204284
Lochemseweg,173,,,7217RG,Harfsen,Lochem,Gelderland,VBO,6.320089,52.208463
Lochemseweg,175,,,7217RG,Harfsen,Lochem,Gelderland,VBO,6.321757,52.209443
Lochemseweg,177,,,7217RG,Harfsen,Lochem,Gelderland,VBO,6.322921,52.203996
Lochemseweg,78,t,,7217RH,Harfsen,Lochem,Gelderland,VBO,6.270376,52.210622
Lochemseweg,78,,,7217RH,Harfsen,Lochem,Gelderland,VBO,6.269528,52.210858
Lochemseweg,80,a,,7217RH,Harfsen,Lochem,Gelderland,VBO,6.270742,52.210646
Lochemseweg,80,,,7217RH,Harfsen,Lochem,Gelderland,VBO,6.270781,52.210660
Lochemseweg,82,,,7217RH,Harfsen,Lochem,Gelderland,VBO,6.271800,52.210090
Lochemseweg,84,,,7217RJ,Harfsen,Lochem,Gelderland,VBO,6.273993,52.210153
Lochemseweg,86,,,7217RJ,Harfsen,Lochem,Gelderland,VBO,6.275031,52.210103
Lochemseweg,88,,,7217RJ,Harfsen,Lochem,Gelderland,VBO,6.279798,52.209552
Lochemseweg,90,,,7217RJ,Harfsen,Lochem,Gelderland,VBO,6.280291,52.209432
Lochemseweg,92,a,,7217RJ,Harfsen,Lochem,Gelderland,VBO,6.282219,52.208007
Lochemseweg,92,b,,7217RJ,Harfsen,Lochem,Gelderland,VBO,6.281769,52.208169
Lochemseweg,92,c,,7217RJ,Harfsen,Lochem,Gelderland,VBO,6.281786,52.208331
Lochemseweg,92,d,,7217RJ,Harfsen,Lochem,Gelderland,VBO,6.282001,52.208442
Lochemseweg,92,e,,7217RJ,Harfsen,Lochem,Gelderland,VBO,6.282301,52.208527
Lochemseweg,92,t,,7217RJ,Harfsen,Lochem,Gelderland,VBO,6.282445,52.209075
Lochemseweg,92,,,7217RJ,Harfsen,Lochem,Gelderland,VBO,6.281420,52.209069
Lochemseweg,94,,,7217RJ,Harfsen,Lochem,Gelderland,VBO,6.283644,52.208833
Lochemseweg,96,a,,7217RJ,Harfsen,Lochem,Gelderland,VBO,6.284283,52.208800
Lochemseweg,96,b,,7217RJ,Harfsen,Lochem,Gelderland,VBO,6.284358,52.208898
Lochemseweg,96,,,7217RJ,Harfsen,Lochem,Gelderland,VBO,6.284287,52.209040
Lochemseweg,98,a,,7217RJ,Harfsen,Lochem,Gelderland,VBO,6.284550,52.208969
Lochemseweg,98,,,7217RJ,Harfsen,Lochem,Gelderland,VBO,6.284732,52.208936
Lochemseweg,100,,,7217RJ,Harfsen,Lochem,Gelderland,VBO,6.285078,52.208859
Lochemseweg,102,a,,7217RJ,Harfsen,Lochem,Gelderland,VBO,6.288341,52.208329
Lochemseweg,102,,,7217RJ,Harfsen,Lochem,Gelderland,VBO,6.287868,52.208564
Lochemseweg,104,,,7217RJ,Harfsen,Lochem,Gelderland,VBO,6.290975,52.208079
Lochemseweg,106,,,7217RJ,Harfsen,Lochem,Gelderland,VBO,6.290926,52.207269
Lochemseweg,108,,,7217RJ,Harfsen,Lochem,Gelderland,VBO,6.291062,52.206824
Lochemseweg,110,,,7217RJ,Harfsen,Lochem,Gelderland,VBO,6.292920,52.207875
Lochemseweg,112,,,7217RJ,Harfsen,Lochem,Gelderland,VBO,6.293008,52.207858
Lochemseweg,114,,,7217RJ,Harfsen,Lochem,Gelderland,VBO,6.293096,52.207841
Lochemseweg,116,,,7217RJ,Harfsen,Lochem,Gelderland,VBO,6.293370,52.207795
Lochemseweg,118,,,7217RJ,Harfsen,Lochem,Gelderland,VBO,6.293789,52.207744
Lochemseweg,120,a,,7217RJ,Harfsen,Lochem,Gelderland,VBO,6.294281,52.207636
Lochemseweg,120,b,,7217RJ,Harfsen,Lochem,Gelderland,VBO,6.294216,52.207681
Lochemseweg,120,,,7217RJ,Harfsen,Lochem,Gelderland,VBO,6.294306,52.207702
Lochemseweg,122,a,,7217RJ,Harfsen,Lochem,Gelderland,VBO,6.293814,52.207102
Lochemseweg,122,,,7217RJ,Harfsen,Lochem,Gelderland,VBO,6.294803,52.207651
Lochemseweg,124,,,7217RJ,Harfsen,Lochem,Gelderland,VBO,6.294871,52.207642
Lochemseweg,126,,,7217RJ,Harfsen,Lochem,Gelderland,VBO,6.295218,52.207593
Lochemseweg,128,a,,7217RK,Harfsen,Lochem,Gelderland,VBO,6.295887,52.207471
Lochemseweg,128,b,,7217RK,Harfsen,Lochem,Gelderland,VBO,6.296165,52.207442
Lochemseweg,128,,,7217RK,Harfsen,Lochem,Gelderland,VBO,6.295674,52.207534
Lochemseweg,130,a,,7217RK,Harfsen,Lochem,Gelderland,VBO,6.296776,52.207275
Lochemseweg,130,b,,7217RK,Harfsen,Lochem,Gelderland,VBO,6.296685,52.207141
Lochemseweg,130,,,7217RK,Harfsen,Lochem,Gelderland,VBO,6.296411,52.207324
Lochemseweg,132,,,7217RK,Harfsen,Lochem,Gelderland,VBO,6.297379,52.207275
Lochemseweg,134,a,,7217RL,Harfsen,Lochem,Gelderland,VBO,6.298405,52.207169
Lochemseweg,134,b,,7217RL,Harfsen,Lochem,Gelderland,VBO,6.298161,52.207185
Lochemseweg,134,c,,7217RL,Harfsen,Lochem,Gelderland,VBO,6.298143,52.207082
Lochemseweg,134,,,7217RL,Harfsen,Lochem,Gelderland,VBO,6.298193,52.207132
Lochemseweg,136,a,,7217RL,Harfsen,Lochem,Gelderland,VBO,6.298995,52.207024
Lochemseweg,136,b,,7217RL,Harfsen,Lochem,Gelderland,VBO,6.298950,52.206989
Lochemseweg,136,,,7217RL,Harfsen,Lochem,Gelderland,VBO,6.298828,52.207159
Lochemseweg,138,,,7217RL,Harfsen,Lochem,Gelderland,VBO,6.299090,52.207044
Lochemseweg,140,a,,7217RL,Harfsen,Lochem,Gelderland,VBO,6.300455,52.206878
Lochemseweg,140,b,,7217RL,Harfsen,Lochem,Gelderland,VBO,6.300542,52.206869
Lochemseweg,140,c,,7217RL,Harfsen,Lochem,Gelderland,VBO,6.300630,52.206868
Lochemseweg,140,d,,7217RL,Harfsen,Lochem,Gelderland,VBO,6.300776,52.206840
Lochemseweg,140,e,,7217RL,Harfsen,Lochem,Gelderland,VBO,6.300863,52.206839
Lochemseweg,140,g,,7217RL,Harfsen,Lochem,Gelderland,VBO,6.300951,52.206820
Lochemseweg,140,,,7217RL,Harfsen,Lochem,Gelderland,VBO,6.299506,52.207074
Lochemseweg,142,a,,7217RM,Harfsen,Lochem,Gelderland,VBO,6.308806,52.205366
Lochemseweg,142,,,7217RM,Harfsen,Lochem,Gelderland,VBO,6.309010,52.205302
Lochemseweg,144,,,7217RM,Harfsen,Lochem,Gelderland,VBO,6.315891,52.203417
Lochemseweg,146,,,7217RM,Harfsen,Lochem,Gelderland,VBO,6.317595,52.203417
Lochemseweg,148,,,7217RN,Harfsen,Lochem,Gelderland,VBO,6.319677,52.203773
Lochemseweg,150,a,,7217RN,Harfsen,Lochem,Gelderland,VBO,6.321787,52.203475
Lochemseweg,150,,,7217RN,Harfsen,Lochem,Gelderland,VBO,6.321790,52.203552
Nuisvelderbos,1,,,7217RP,Harfsen,Lochem,Gelderland,VBO,6.294132,52.208560
Nuisvelderbos,2,a,,7217RP,Harfsen,Lochem,Gelderland,VBO,6.294500,52.208326
Nuisvelderbos,2,,,7217RP,Harfsen,Lochem,Gelderland,VBO,6.294747,52.208576
Nuisvelderbos,3,,,7217RP,Harfsen,Lochem,Gelderland,VBO,6.294307,52.208772
Nuisvelderbos,4,,,7217RP,Harfsen,Lochem,Gelderland,VBO,6.295121,52.208865
Nuisvelderbos,5,a,,7217RP,Harfsen,Lochem,Gelderland,VBO,6.294399,52.209082
Nuisvelderbos,5,,,7217RP,Harfsen,Lochem,Gelderland,VBO,6.294528,52.208992
Nuisvelderbos,6,,,7217RP,Harfsen,Lochem,Gelderland,VBO,6.295352,52.209147
Nuisvelderbos,7,,,7217RP,Harfsen,Lochem,Gelderland,VBO,6.294710,52.209178
Nuisvelderbos,8,,,7217RP,Harfsen,Lochem,Gelderland,VBO,6.295584,52.209419
Nuisvelderbos,9,,,7217RP,Harfsen,Lochem,Gelderland,VBO,6.294930,52.209397
Nuisvelderbos,10,,,7217RP,Harfsen,Lochem,Gelderland,VBO,6.295887,52.209324
Nuisvelderbos,11,,,7217RP,Harfsen,Lochem,Gelderland,VBO,6.295148,52.209618
Nuisvelderbos,12,,,7217RP,Harfsen,Lochem,Gelderland,VBO,6.296187,52.209254
Nuisvelderbos,13,,,7217RP,Harfsen,Lochem,Gelderland,VBO,6.295480,52.209864
Nuisvelderbos,14,,,7217RP,Harfsen,Lochem,Gelderland,VBO,6.295979,52.208802
Nuisvelderbos,15,,,7217RP,Harfsen,Lochem,Gelderland,VBO,6.295885,52.209694
Nuisvelderbos,17,,,7217RP,Harfsen,Lochem,Gelderland,VBO,6.296258,52.209570
Nuisvelderbos,19,,,7217RP,Harfsen,Lochem,Gelderland,VBO,6.296580,52.209467
Nuisvelderbos,21,,,7217RP,Harfsen,Lochem,Gelderland,VBO,6.297027,52.209379
Nuisvelderbos,23,,,7217RP,Harfsen,Lochem,Gelderland,VBO,6.296747,52.209086
Nuisvelderbos,25,,,7217RP,Harfsen,Lochem,Gelderland,VBO,6.296593,52.208821
Bremweg,1,a,,7217RR,Harfsen,Lochem,Gelderland,VBO,6.297459,52.207764
Bremweg,1,b,,7217RR,Harfsen,Lochem,Gelderland,VBO,6.297490,52.207854
Bremweg,1,,,7217RR,Harfsen,Lochem,Gelderland,VBO,6.297602,52.207990
Bremweg,2,,,7217RR,Harfsen,Lochem,Gelderland,VBO,6.298004,52.208483
Bremweg,3,a,,7217RR,Harfsen,Lochem,Gelderland,VBO,6.297365,52.208178
Bremweg,3,,,7217RR,Harfsen,Lochem,Gelderland,VBO,6.297646,52.208193
Bremweg,4,,,7217RR,Harfsen,Lochem,Gelderland,VBO,6.297480,52.208606
Bremweg,5,,,7217RR,Harfsen,Lochem,Gelderland,VBO,6.297157,52.208280
Bremweg,6,,,7217RR,Harfsen,Lochem,Gelderland,VBO,6.295552,52.208833
Bremweg,7,,,7217RR,Harfsen,Lochem,Gelderland,VBO,6.296859,52.208307
Bremweg,9,,,7217RR,Harfsen,Lochem,Gelderland,VBO,6.296592,52.208335
Bremweg,11,,,7217RR,Harfsen,Lochem,Gelderland,VBO,6.296359,52.208380
Bremweg,13,,,7217RR,Harfsen,Lochem,Gelderland,VBO,6.296082,52.208397
Bremweg,15,,,7217RR,Harfsen,Lochem,Gelderland,VBO,6.295846,52.208447
Bremweg,17,,,7217RR,Harfsen,Lochem,Gelderland,VBO,6.295567,52.208463
Bremweg,19,,,7217RR,Harfsen,Lochem,Gelderland,VBO,6.295329,52.208503
Bremweg,21,,,7217RR,Harfsen,Lochem,Gelderland,VBO,6.295023,52.208539
Veldhoekweg,1,,,7217RS,Harfsen,Lochem,Gelderland,VBO,6.297001,52.208714
Veldhoekweg,3,,,7217RS,Harfsen,Lochem,Gelderland,VBO,6.297252,52.209011
Veldhoekweg,4,,,7217RS,Harfsen,Lochem,Gelderland,VBO,6.297628,52.208840
Veldhoekweg,5,,,7217RS,Harfsen,Lochem,Gelderland,VBO,6.297470,52.209294
Veldhoekweg,6,,,7217RS,Harfsen,Lochem,Gelderland,VBO,6.297772,52.209008
Veldhoekweg,8,,,7217RS,Harfsen,Lochem,Gelderland,VBO,6.297956,52.209181
Deventerdijk,1,,,7217SB,Harfsen,Lochem,Gelderland,VBO,6.257487,52.193807
Deventerdijk,3,,,7217SB,Harfsen,Lochem,Gelderland,VBO,6.260348,52.192159
Deventerdijk,6,t,,7217SB,Harfsen,Lochem,Gelderland,VBO,6.258609,52.192581
Deventerdijk,6,,,7217SB,Harfsen,Lochem,Gelderland,VBO,6.265350,52.188240
Deventerdijk,5,,,7217SC,Harfsen,Lochem,Gelderland,VBO,6.262910,52.192195
Deventerdijk,7,t,,7217SC,Harfsen,Lochem,Gelderland,VBO,6.269290,52.188043
Deventerdijk,7,,,7217SC,Harfsen,Lochem,Gelderland,VBO,6.266727,52.190099
Deventerdijk,8,a,,7217SC,Harfsen,Lochem,Gelderland,VBO,6.272447,52.183794
Deventerdijk,8,,,7217SC,Harfsen,Lochem,Gelderland,VBO,6.271666,52.186396
Deventerdijk,9,,,7217SC,Harfsen,Lochem,Gelderland,VBO,6.283129,52.184059
Deventerdijk,10,,H100,7217SC,Harfsen,Lochem,Gelderland,VBO,6.272204,52.184092
Deventerdijk,10,,H101,7217SC,Harfsen,Lochem,Gelderland,VBO,6.272538,52.183955
Deventerdijk,10,,H102,7217SC,Harfsen,Lochem,Gelderland,VBO,6.272215,52.183894
Deventerdijk,10,,H103,7217SC,Harfsen,Lochem,Gelderland,VBO,6.272105,52.184264
Deventerdijk,10,,H104,7217SC,Harfsen,Lochem,Gelderland,VBO,6.271739,52.184222
Deventerdijk,10,,H105,7217SC,Harfsen,Lochem,Gelderland,VBO,6.271905,52.184499
Deventerdijk,10,,H106,7217SC,Harfsen,Lochem,Gelderland,VBO,6.271407,52.184422
Deventerdijk,10,,H107,7217SC,Harfsen,Lochem,Gelderland,VBO,6.271616,52.184672
Deventerdijk,10,,H108,7217SC,Harfsen,Lochem,Gelderland,VBO,6.271385,52.184809
Deventerdijk,10,,H109,7217SC,Harfsen,Lochem,Gelderland,VBO,6.271015,52.184596
Deventerdijk,10,,H110,7217SC,Harfsen,Lochem,Gelderland,VBO,6.270776,52.184355
Deventerdijk,10,,H111,7217SC,Harfsen,Lochem,Gelderland,VBO,6.271022,52.184191
Deventerdijk,10,,H112,7217SC,Harfsen,Lochem,Gelderland,VBO,6.271325,52.184009
Deventerdijk,10,,H113,7217SC,Harfsen,Lochem,Gelderland,VBO,6.271095,52.184928
Deventerdijk,10,,H114,7217SC,Harfsen,Lochem,Gelderland,VBO,6.270712,52.184769
Deventerdijk,10,,H115,7217SC,Harfsen,Lochem,Gelderland,VBO,6.270792,52.185155
Deventerdijk,10,,H116,7217SC,Harfsen,Lochem,Gelderland,VBO,6.270408,52.184933
Deventerdijk,10,,H117,7217SC,Harfsen,Lochem,Gelderland,VBO,6.270458,52.185238
Deventerdijk,10,,H118,7217SC,Harfsen,Lochem,Gelderland,VBO,6.270091,52.185205
Deventerdijk,10,,H119,7217SC,Harfsen,Lochem,Gelderland,VBO,6.269953,52.184846
Deventerdijk,10,,H120,7217SC,Harfsen,Lochem,Gelderland,VBO,6.269739,52.185108
Deventerdijk,10,,H121,7217SC,Harfsen,Lochem,Gelderland,VBO,6.269342,52.185022
Deventerdijk,10,,H122,7217SC,Harfsen,Lochem,Gelderland,VBO,6.269034,52.184952
Deventerdijk,10,,H123,7217SC,Harfsen,Lochem,Gelderland,VBO,6.268753,52.184819
Deventerdijk,10,,H124,7217SC,Harfsen,Lochem,Gelderland,VBO,6.268589,52.184641
Deventerdijk,10,,H125,7217SC,Harfsen,Lochem,Gelderland,VBO,6.269051,52.184350
Deventerdijk,10,,H126,7217SC,Harfsen,Lochem,Gelderland,VBO,6.269158,52.184609
Deventerdijk,10,,H127,7217SC,Harfsen,Lochem,Gelderland,VBO,6.269509,52.184580
Deventerdijk,10,,H128,7217SC,Harfsen,Lochem,Gelderland,VBO,6.269619,52.184255
Deventerdijk,10,,H129,7217SC,Harfsen,Lochem,Gelderland,VBO,6.269917,52.184532
Deventerdijk,10,,H130,7217SC,Harfsen,Lochem,Gelderland,VBO,6.270224,52.184512
Deventerdijk,10,,H131,7217SC,Harfsen,Lochem,Gelderland,VBO,6.272136,52.183598
Deventerdijk,10,,H132,7217SC,Harfsen,Lochem,Gelderland,VBO,6.271739,52.183485
Deventerdijk,10,,H133,7217SC,Harfsen,Lochem,Gelderland,VBO,6.271402,52.183451
Deventerdijk,10,,H134,7217SC,Harfsen,Lochem,Gelderland,VBO,6.270978,52.183472
Deventerdijk,10,,H135,7217SC,Harfsen,Lochem,Gelderland,VBO,6.270528,52.183620
Deventerdijk,10,,H136,7217SC,Harfsen,Lochem,Gelderland,VBO,6.270075,52.183623
Deventerdijk,10,,H137,7217SC,Harfsen,Lochem,Gelderland,VBO,6.269728,52.183814
Deventerdijk,10,,H138,7217SC,Harfsen,Lochem,Gelderland,VBO,6.270095,52.183919
Deventerdijk,10,,H139,7217SC,Harfsen,Lochem,Gelderland,VBO,6.269615,52.184058
Deventerdijk,10,,H140,7217SC,Harfsen,Lochem,Gelderland,VBO,6.270756,52.184067
Deventerdijk,10,,H141,7217SC,Harfsen,Lochem,Gelderland,VBO,6.271015,52.183841
Deventerdijk,10,,H142,7217SC,Harfsen,Lochem,Gelderland,VBO,6.271350,52.183757
Deventerdijk,10,,H143,7217SC,Harfsen,Lochem,Gelderland,VBO,6.269168,52.183612
Deventerdijk,10,,H144,7217SC,Harfsen,Lochem,Gelderland,VBO,6.268954,52.183910
Deventerdijk,10,,H145,7217SC,Harfsen,Lochem,Gelderland,VBO,6.268914,52.184099
Deventerdijk,10,,H146,7217SC,Harfsen,Lochem,Gelderland,VBO,6.268729,52.184334
Deventerdijk,10,,H147,7217SC,Harfsen,Lochem,Gelderland,VBO,6.268300,52.184841
Deventerdijk,10,,H148,7217SC,Harfsen,Lochem,Gelderland,VBO,6.267976,52.184726
Deventerdijk,10,,H149,7217SC,Harfsen,Lochem,Gelderland,VBO,6.268148,52.184518
Deventerdijk,10,,H150,7217SC,Harfsen,Lochem,Gelderland,VBO,6.267665,52.184531
Deventerdijk,10,,H151,7217SC,Harfsen,Lochem,Gelderland,VBO,6.267358,52.184515
Deventerdijk,10,,H152,7217SC,Harfsen,Lochem,Gelderland,VBO,6.267050,52.184454
Deventerdijk,10,,H153,7217SC,Harfsen,Lochem,Gelderland,VBO,6.266428,52.184082
Deventerdijk,10,,H154,7217SC,Harfsen,Lochem,Gelderland,VBO,6.266896,52.184087
Deventerdijk,10,,H155,7217SC,Harfsen,Lochem,Gelderland,VBO,6.267234,52.184165
Deventerdijk,10,,H156,7217SC,Harfsen,Lochem,Gelderland,VBO,6.267556,52.184172
Deventerdijk,10,,H157,7217SC,Harfsen,Lochem,Gelderland,VBO,6.267863,52.184197
Deventerdijk,10,,H158,7217SC,Harfsen,Lochem,Gelderland,VBO,6.268274,52.184275
Deventerdijk,10,,H159,7217SC,Harfsen,Lochem,Gelderland,VBO,6.268360,52.184106
Deventerdijk,10,,H160,7217SC,Harfsen,Lochem,Gelderland,VBO,6.269480,52.183568
Deventerdijk,12,,,7217SC,Harfsen,Lochem,Gelderland,VBO,6.281452,52.180709
Velderweg,1,t,,7217SC,Harfsen,Lochem,Gelderland,VBO,6.283469,52.188312
Velderweg,1,,,7217SC,Harfsen,Lochem,Gelderland,VBO,6.280027,52.186777
Velderweg,2,,,7217SC,Harfsen,Lochem,Gelderland,VBO,6.279697,52.184328
Velderweg,4,,,7217SC,Harfsen,Lochem,Gelderland,VBO,6.282112,52.187535
Velderweg,6,,,7217SC,Harfsen,Lochem,Gelderland,VBO,6.284639,52.187926
Gerrit Slagmanstraat,3,,,7217SE,Harfsen,Lochem,Gelderland,VBO,6.263234,52.202855
Gerrit Slagmanstraat,4,a,,7217SE,Harfsen,Lochem,Gelderland,VBO,6.263853,52.199349
Gerrit Slagmanstraat,4,,,7217SE,Harfsen,Lochem,Gelderland,VBO,6.263942,52.199397
Gerrit Slagmanstraat,5,t,,7217SE,Harfsen,Lochem,Gelderland,VBO,6.264496,52.199411
Gerrit Slagmanstraat,5,,,7217SE,Harfsen,Lochem,Gelderland,VBO,6.264436,52.200856
Gerrit Slagmanstraat,6,,,7217SE,Harfsen,Lochem,Gelderland,VBO,6.261991,52.197819
Gerrit Slagmanstraat,7,,,7217SE,Harfsen,Lochem,Gelderland,VBO,6.265212,52.198536
Gerrit Slagmanstraat,9,,,7217SE,Harfsen,Lochem,Gelderland,VBO,6.264977,52.197744
Gerrit Slagmanstraat,11,,,7217SE,Harfsen,Lochem,Gelderland,VBO,6.263452,52.196396
Gerrit Slagmanstraat,13,,,7217SG,Harfsen,Lochem,Gelderland,VBO,6.260551,52.193359
Zomerdijk,1,,,7217SG,Harfsen,Lochem,Gelderland,VBO,6.262042,52.193451
Zomerdijk,2,,,7217SG,Harfsen,Lochem,Gelderland,VBO,6.264639,52.194094
Kapeldijk,1,,,7217SH,Harfsen,Lochem,Gelderland,VBO,6.285717,52.180679
Kapeldijk,2,,,7217SH,Harfsen,Lochem,Gelderland,VBO,6.286808,52.178653
Kapeldijk,3,a,,7217SH,Harfsen,Lochem,Gelderland,VBO,6.288360,52.183988
Kapeldijk,3,,,7217SH,Harfsen,Lochem,Gelderland,VBO,6.285717,52.180729
Kapeldijk,4,,,7217SH,Harfsen,Lochem,Gelderland,VBO,6.295636,52.188795
Kapeldijk,5,,,7217SH,Harfsen,Lochem,Gelderland,VBO,6.288868,52.184279
Kapeldijk,6,t,,7217SH,Harfsen,Lochem,Gelderland,VBO,6.296688,52.187223
Kapeldijk,6,,,7217SH,Harfsen,Lochem,Gelderland,VBO,6.296346,52.188479
Kapeldijk,7,,,7217SH,Harfsen,Lochem,Gelderland,VBO,6.289392,52.184532
Kapeldijk,9,,,7217SH,Harfsen,Lochem,Gelderland,VBO,6.291559,52.186711
Kapeldijk,11,a,,7217SH,Harfsen,Lochem,Gelderland,VBO,6.292377,52.186645
Kapeldijk,11,,,7217SH,Harfsen,Lochem,Gelderland,VBO,6.292513,52.186834
Kapeldijk,13,,,7217SH,Harfsen,Lochem,Gelderland,VBO,6.289454,52.188976
Kapeldijk,15,,,7217SH,Harfsen,Lochem,Gelderland,VBO,6.290490,52.189749
Kapeldijk,17,,,7217SH,Harfsen,Lochem,Gelderland,VBO,6.296940,52.189357
Braakhekkeweg,1,a,,7217SJ,Harfsen,Lochem,Gelderland,VBO,6.293147,52.200058
Braakhekkeweg,1,,,7217SJ,Harfsen,Lochem,Gelderland,VBO,6.293512,52.198861
Braakhekkeweg,2,a,,7217SJ,Harfsen,Lochem,Gelderland,VBO,6.293744,52.197061
Braakhekkeweg,2,,,7217SJ,Harfsen,Lochem,Gelderland,VBO,6.294061,52.197365
Braakhekkeweg,3,a,,7217SJ,Harfsen,Lochem,Gelderland,VBO,6.293933,52.198859
Braakhekkeweg,3,,,7217SJ,Harfsen,Lochem,Gelderland,VBO,6.293736,52.198637
Braakhekkeweg,4,,,7217SJ,Harfsen,Lochem,Gelderland,VBO,6.293292,52.194620
Braakhekkeweg,5,,,7217SJ,Harfsen,Lochem,Gelderland,VBO,6.294519,52.197558
Braakhekkeweg,6,a,,7217SJ,Harfsen,Lochem,Gelderland,VBO,6.295461,52.193030
Braakhekkeweg,6,,,7217SJ,Harfsen,Lochem,Gelderland,VBO,6.295470,52.192981
Braakhekkeweg,7,,,7217SJ,Harfsen,Lochem,Gelderland,VBO,6.295677,52.196601
Braakhekkeweg,8,a,,7217SK,Harfsen,Lochem,Gelderland,VBO,6.299879,52.187743
Braakhekkeweg,8,,,7217SK,Harfsen,Lochem,Gelderland,VBO,6.299618,52.187414
Braakhekkeweg,9,a,,7217SK,Harfsen,Lochem,Gelderland,VBO,6.296961,52.191712
Braakhekkeweg,9,b,,7217SK,Harfsen,Lochem,Gelderland,VBO,6.297133,52.191830
Braakhekkeweg,9,t,,7217SK,Harfsen,Lochem,Gelderland,VBO,6.296179,52.192320
Braakhekkeweg,9,,,7217SK,Harfsen,Lochem,Gelderland,VBO,6.296859,52.191709
Braakhekkeweg,10,,,7217SK,Harfsen,Lochem,Gelderland,VBO,6.300757,52.187386
Braakhekkeweg,11,,,7217SK,Harfsen,Lochem,Gelderland,VBO,6.301113,52.187831
Braakhekkeweg,12,a,,7217SK,Harfsen,Lochem,Gelderland,VBO,6.301229,52.186873
Braakhekkeweg,12,b,,7217SK,Harfsen,Lochem,Gelderland,VBO,6.301577,52.186736
Braakhekkeweg,12,,,7217SK,Harfsen,Lochem,Gelderland,VBO,6.301267,52.187018
Braakhekkeweg,13,,,7217SK,Harfsen,Lochem,Gelderland,VBO,6.302055,52.186860
Braakhekkeweg,14,,,7217SK,Harfsen,Lochem,Gelderland,VBO,6.302520,52.185869
Emsbroekweg,1,a,,7217SK,Harfsen,Lochem,Gelderland,VBO,6.299065,52.196043
Emsbroekweg,1,b,,7217SK,Harfsen,Lochem,Gelderland,VBO,6.299589,52.197062
Emsbroekweg,1,,H01,7217SK,Harfsen,Lochem,Gelderland,VBO,6.298239,52.195213
Emsbroekweg,1,,,7217SK,Harfsen,Lochem,Gelderland,VBO,6.297429,52.194582
Emsbroekweg,2,,,7217SK,Harfsen,Lochem,Gelderland,VBO,6.300194,52.196480
Emsbroekweg,3,a,,7217SK,Harfsen,Lochem,Gelderland,VBO,6.299546,52.201097
Emsbroekweg,3,b,,7217SK,Harfsen,Lochem,Gelderland,VBO,6.300101,52.201362
Emsbroekweg,3,,,7217SK,Harfsen,Lochem,Gelderland,VBO,6.299828,52.201140
Emsbroekweg,4,a,,7217SK,Harfsen,Lochem,Gelderland,VBO,6.301492,52.199706
Emsbroekweg,4,,,7217SK,Harfsen,Lochem,Gelderland,VBO,6.301516,52.199768
Emsbroekweg,5,t,,7217SK,Harfsen,Lochem,Gelderland,VBO,6.302720,52.201990
Emsbroekweg,5,,,7217SK,Harfsen,Lochem,Gelderland,VBO,6.299094,52.202830
Emsbroekweg,6,,,7217SK,Harfsen,Lochem,Gelderland,VBO,6.303588,52.201989
Broekstraat,1,a,,7217SL,Harfsen,Lochem,Gelderland,VBO,6.305600,52.204555
Broekstraat,1,,,7217SL,Harfsen,Lochem,Gelderland,VBO,6.305390,52.204347
Broekstraat,2,a,,7217SL,Harfsen,Lochem,Gelderland,VBO,6.305124,52.205200
Broekstraat,2,b,,7217SL,Harfsen,Lochem,Gelderland,VBO,6.305280,52.205169
Broekstraat,2,,,7217SL,Harfsen,Lochem,Gelderland,VBO,6.302796,52.203616
Broekstraat,3,,,7217SL,Harfsen,Lochem,Gelderland,VBO,6.304999,52.203879
Broekstraat,4,a,,7217SL,Harfsen,Lochem,Gelderland,VBO,6.312203,52.197043
Broekstraat,4,,,7217SL,Harfsen,Lochem,Gelderland,VBO,6.308196,52.200690
Broekstraat,5,a,,7217SL,Harfsen,Lochem,Gelderland,VBO,6.304386,52.203118
Broekstraat,5,b,,7217SL,Harfsen,Lochem,Gelderland,VBO,6.304389,52.202737
Broekstraat,5,,,7217SL,Harfsen,Lochem,Gelderland,VBO,6.304946,52.203816
Broekstraat,6,,,7217SL,Harfsen,Lochem,Gelderland,VBO,6.312121,52.195292
Broekstraat,7,,,7217SL,Harfsen,Lochem,Gelderland,VBO,6.311827,52.198367
Broekstraat,9,,,7217SL,Harfsen,Lochem,Gelderland,VBO,6.313759,52.194931
Broekstraat,11,,,7217SM,Harfsen,Lochem,Gelderland,VBO,6.313373,52.188690
Broekstraat,13,,,7217SM,Harfsen,Lochem,Gelderland,VBO,6.309826,52.187849
Broekstraat,15,a,,7217SM,Harfsen,Lochem,Gelderland,VBO,6.311950,52.186933
Broekstraat,15,b,,7217SM,Harfsen,Lochem,Gelderland,VBO,6.312077,52.186726
Broekstraat,15,t,,7217SM,Harfsen,Lochem,Gelderland,VBO,6.305622,52.184286
Broekstraat,15,,,7217SM,Harfsen,Lochem,Gelderland,VBO,6.311960,52.186816
Esveldsdijk,1,t,,7217SM,Harfsen,Lochem,Gelderland,VBO,6.324468,52.183031
Esveldsdijk,1,,,7217SM,Harfsen,Lochem,Gelderland,VBO,6.324013,52.183595
Esveldsdijk,2,,,7217SM,Harfsen,Lochem,Gelderland,VBO,6.307399,52.183709
Esveldsdijk,3,,,7217SM,Harfsen,Lochem,Gelderland,VBO,6.324210,52.183671
Esveldsdijk,4,,,7217SM,Harfsen,Lochem,Gelderland,VBO,6.307992,52.182415
Esveldsdijk,6,a,,7217SM,Harfsen,Lochem,Gelderland,VBO,6.312910,52.183187
Esveldsdijk,6,,,7217SM,Harfsen,Lochem,Gelderland,VBO,6.309547,52.182566
Esveldsdijk,8,,,7217SM,Harfsen,Lochem,Gelderland,VBO,6.312253,52.181505
Esveldsdijk,10,,,7217SM,Harfsen,Lochem,Gelderland,VBO,6.317325,52.181732
Esveldsdijk,12,,,7217SM,Harfsen,Lochem,Gelderland,VBO,6.324714,52.181727
Esveldsdijk,14,,,7217SM,Harfsen,Lochem,Gelderland,VBO,6.325812,52.183458
Broekstraat,8,,,7217SN,Harfsen,Lochem,Gelderland,VBO,6.303733,52.183716
Broekstraat,10,,,7217SN,Harfsen,Lochem,Gelderland,VBO,6.299991,52.181939
Broekstraat,12,,,7217SN,Harfsen,Lochem,Gelderland,VBO,6.298663,52.180783
Broekstraat,17,,,7217SN,Harfsen,Lochem,Gelderland,VBO,6.303965,52.183374
Broekstraat,19,a,,7217SN,Harfsen,Lochem,Gelderland,VBO,6.304065,52.183238
Broekstraat,19,b,,7217SN,Harfsen,Lochem,Gelderland,VBO,6.305065,52.182084
Broekstraat,19,,,7217SN,Harfsen,Lochem,Gelderland,VBO,6.303943,52.183234
Broekstraat,21,,,7217SN,Harfsen,Lochem,Gelderland,VBO,6.302480,52.181803
Broekstraat,23,,,7217SN,Harfsen,Lochem,Gelderland,VBO,6.300726,52.181448
Zeedijk,1,,,7217SN,Harfsen,Lochem,Gelderland,VBO,6.299171,52.183117
Zeedijk,2,a,,7217SN,Harfsen,Lochem,Gelderland,VBO,6.300766,52.183560
Zeedijk,2,,,7217SN,Harfsen,Lochem,Gelderland,VBO,6.300789,52.183483
Zeedijk,3,a,,7217SN,Harfsen,Lochem,Gelderland,VBO,6.300321,52.184678
Zeedijk,3,,,7217SN,Harfsen,Lochem,Gelderland,VBO,6.300304,52.184611
Zeedijk,4,,,7217SN,Harfsen,Lochem,Gelderland,VBO,6.298325,52.185129
Zeedijk,5,,,7217SN,Harfsen,Lochem,Gelderland,VBO,6.298120,52.184116
Zeedijk,6,,,7217SN,Harfsen,Lochem,Gelderland,VBO,6.298197,52.184760
Koelerweg,1,a,,7217SP,Harfsen,Lochem,Gelderland,VBO,6.319855,52.202407
Koelerweg,1,,,7217SP,Harfsen,Lochem,Gelderland,VBO,6.319937,52.202607
Koelerweg,2,a,,7217SP,Harfsen,Lochem,Gelderland,VBO,6.318693,52.202548
Koelerweg,2,,,7217SP,Harfsen,Lochem,Gelderland,VBO,6.318778,52.202455
Koelerweg,3,,,7217SP,Harfsen,Lochem,Gelderland,VBO,6.321404,52.200369
Koelerweg,4,,,7217SP,Harfsen,Lochem,Gelderland,VBO,6.320706,52.199376
Koelerweg,5,,,7217SP,Harfsen,Lochem,Gelderland,VBO,6.323089,52.197892
Koelerweg,6,a,,7217SP,Harfsen,Lochem,Gelderland,VBO,6.321329,52.196954
Koelerweg,6,,,7217SP,Harfsen,Lochem,Gelderland,VBO,6.321405,52.197031
Koelerweg,7,,,7217SP,Harfsen,Lochem,Gelderland,VBO,6.322206,52.196509
Koelerweg,9,,,7217SP,Harfsen,Lochem,Gelderland,VBO,6.322236,52.195581
Koelerweg,8,,,7217SR,Harfsen,Lochem,Gelderland,VBO,6.320636,52.192821
Koelerweg,10,,,7217SR,Harfsen,Lochem,Gelderland,VBO,6.319018,52.190518
Koelerweg,11,a,,7217SR,Harfsen,Lochem,Gelderland,VBO,6.324395,52.193781
Koelerweg,11,,,7217SR,Harfsen,Lochem,Gelderland,VBO,6.323283,52.193567
Koelerweg,12,,,7217SR,Harfsen,Lochem,Gelderland,VBO,6.320885,52.186663
Koelerweg,13,,,7217SR,Harfsen,Lochem,Gelderland,VBO,6.323366,52.191702
Koelerweg,14,,,7217SR,Harfsen,Lochem,Gelderland,VBO,6.321042,52.186299
Koelerweg,15,,,7217SR,Harfsen,Lochem,Gelderland,VBO,6.322581,52.185709
Rosmaatsteeg,1,,,7217SR,Harfsen,Lochem,Gelderland,VBO,6.317503,52.195275
Rosmaatsteeg,2,a,,7217SR,Harfsen,Lochem,Gelderland,VBO,6.319137,52.195964
Rosmaatsteeg,2,t,,7217SR,Harfsen,Lochem,Gelderland,VBO,6.320167,52.195273
Rosmaatsteeg,2,,,7217SR,Harfsen,Lochem,Gelderland,VBO,6.319268,52.195961
Rosmaatsteeg,3,,,7217SR,Harfsen,Lochem,Gelderland,VBO,6.318221,52.195007
Callunahof,1,,,7217ST,Harfsen,Lochem,Gelderland,VBO,6.294335,52.205237
Callunahof,2,,,7217ST,Harfsen,Lochem,Gelderland,VBO,6.294783,52.205298
Callunahof,3,,,7217ST,Harfsen,Lochem,Gelderland,VBO,6.294142,52.205329
Callunahof,4,,,7217ST,Harfsen,Lochem,Gelderland,VBO,6.294876,52.205540
Callunahof,5,,,7217ST,Harfsen,Lochem,Gelderland,VBO,6.293940,52.205423
Callunahof,6,,,7217ST,Harfsen,Lochem,Gelderland,VBO,6.294620,52.205532
Callunahof,7,,,7217ST,Harfsen,Lochem,Gelderland,VBO,6.294451,52.204942
Callunahof,8,,,7217ST,Harfsen,Lochem,Gelderland,VBO,6.294379,52.205594
Callunahof,9,,,7217ST,Harfsen,Lochem,Gelderland,VBO,6.294250,52.204987
Callunahof,10,,,7217ST,Harfsen,Lochem,Gelderland,VBO,6.294140,52.205659
Callunahof,11,,,7217ST,Harfsen,Lochem,Gelderland,VBO,6.293996,52.205047
Callunahof,12,,,7217ST,Harfsen,Lochem,Gelderland,VBO,6.293906,52.205724
Callunahof,13,,,7217ST,Harfsen,Lochem,Gelderland,VBO,6.293792,52.205162
Callunahof,14,,,7217ST,Harfsen,Lochem,Gelderland,VBO,6.293671,52.205788
Callunahof,15,,,7217ST,Harfsen,Lochem,Gelderland,VBO,6.293544,52.205243
Callunahof,17,,,7217ST,Harfsen,Lochem,Gelderland,VBO,6.293499,52.205542
Callunahof,19,,,7217ST,Harfsen,Lochem,Gelderland,VBO,6.293343,52.205397
Wakelweg,1,,,7217SV,Harfsen,Lochem,Gelderland,VBO,6.293422,52.205853
Wakelweg,2,,,7217SV,Harfsen,Lochem,Gelderland,VBO,6.293223,52.206242
Wakelweg,4,,,7217SV,Harfsen,Lochem,Gelderland,VBO,6.292960,52.206033
Wakelweg,6,,,7217SV,Harfsen,Lochem,Gelderland,VBO,6.292776,52.205863
Ericalaan,1,,,7217SW,Harfsen,Lochem,Gelderland,VBO,6.295559,52.205605
Ericalaan,2,,,7217SW,Harfsen,Lochem,Gelderland,VBO,6.296043,52.205940
Ericalaan,3,,,7217SW,Harfsen,Lochem,Gelderland,VBO,6.295282,52.205715
Ericalaan,4,,,7217SW,Harfsen,Lochem,Gelderland,VBO,6.295966,52.205970
Ericalaan,5,,,7217SW,Harfsen,Lochem,Gelderland,VBO,6.295058,52.205806
Ericalaan,6,,,7217SW,Harfsen,Lochem,Gelderland,VBO,6.295888,52.206000
Ericalaan,7,,,7217SW,Harfsen,Lochem,Gelderland,VBO,6.294843,52.205877
Ericalaan,8,,,7217SW,Harfsen,Lochem,Gelderland,VBO,6.295710,52.206067
Ericalaan,9,,,7217SW,Harfsen,Lochem,Gelderland,VBO,6.294673,52.205954
Ericalaan,10,,,7217SW,Harfsen,Lochem,Gelderland,VBO,6.295631,52.206098
Ericalaan,11,,,7217SW,Harfsen,Lochem,Gelderland,VBO,6.294379,52.205934
Ericalaan,12,,,7217SW,Harfsen,Lochem,Gelderland,VBO,6.295554,52.206128
Ericalaan,13,,,7217SW,Harfsen,Lochem,Gelderland,VBO,6.294162,52.206021
Ericalaan,15,,,7217SW,Harfsen,Lochem,Gelderland,VBO,6.293925,52.206043
Ericalaan,17,,,7217SW,Harfsen,Lochem,Gelderland,VBO,6.293708,52.206127
Ericalaan,14,,,7217SX,Harfsen,Lochem,Gelderland,VBO,6.293623,52.206542
Ericalaan,16,,,7217SX,Harfsen,Lochem,Gelderland,VBO,6.293322,52.206614
Ericalaan,18,,,7217SX,Harfsen,Lochem,Gelderland,VBO,6.293015,52.206688
Ericalaan,20,,,7217SX,Harfsen,Lochem,Gelderland,VBO,6.292616,52.206758
Ericalaan,21,,,7217SX,Harfsen,Lochem,Gelderland,VBO,6.292765,52.206334
Ericalaan,22,,,7217SX,Harfsen,Lochem,Gelderland,VBO,6.292143,52.206881
Ericalaan,23,,,7217SX,Harfsen,Lochem,Gelderland,VBO,6.292321,52.206170
Ericalaan,24,,,7217SX,Harfsen,Lochem,Gelderland,VBO,6.291990,52.206649
Ericalaan,25,,,7217SX,Harfsen,Lochem,Gelderland,VBO,6.291907,52.205914
Ericalaan,26,,,7217SX,Harfsen,Lochem,Gelderland,VBO,6.291815,52.206467
Ericalaan,28,,,7217SX,Harfsen,Lochem,Gelderland,VBO,6.291458,52.206296
Wilhelminalaan,1,,,7217SX,Harfsen,Lochem,Gelderland,VBO,6.294302,52.204328
Wilhelminalaan,2,,,7217SX,Harfsen,Lochem,Gelderland,VBO,6.293962,52.204579
Wilhelminalaan,3,,,7217SX,Harfsen,Lochem,Gelderland,VBO,6.293759,52.204737
Wilhelminalaan,4,,,7217SX,Harfsen,Lochem,Gelderland,VBO,6.293562,52.204870
Wilhelminalaan,5,,,7217SX,Harfsen,Lochem,Gelderland,VBO,6.293363,52.204975
Wilhelminalaan,6,t,,7217SX,Harfsen,Lochem,Gelderland,VBO,6.292737,52.205365
Wilhelminalaan,6,,,7217SX,Harfsen,Lochem,Gelderland,VBO,6.293085,52.205157
Wilhelminalaan,7,,,7217SX,Harfsen,Lochem,Gelderland,VBO,6.292483,52.205602
Wilhelminalaan,8,,,7217SX,Harfsen,Lochem,Gelderland,VBO,6.292213,52.205750
Hulstweg,1,,,7217SZ,Harfsen,Lochem,Gelderland,VBO,6.295637,52.207256
Hulstweg,2,,,7217SZ,Harfsen,Lochem,Gelderland,VBO,6.295138,52.207333
Hulstweg,3,,,7217SZ,Harfsen,Lochem,Gelderland,VBO,6.295623,52.207104
Hulstweg,4,,,7217SZ,Harfsen,Lochem,Gelderland,VBO,6.294500,52.207026
Hulstweg,5,,,7217SZ,Harfsen,Lochem,Gelderland,VBO,6.295621,52.206953
Hulstweg,6,,,7217SZ,Harfsen,Lochem,Gelderland,VBO,6.294193,52.206640
Hulstweg,7,,,7217SZ,Harfsen,Lochem,Gelderland,VBO,6.295619,52.206800
Hulstweg,8,,,7217SZ,Harfsen,Lochem,Gelderland,VBO,6.294697,52.206416
Hulstweg,9,,,7217SZ,Harfsen,Lochem,Gelderland,VBO,6.295618,52.206647
Hulstweg,11,,,7217SZ,Harfsen,Lochem,Gelderland,VBO,6.295614,52.206494
Hulstweg,13,,,7217SZ,Harfsen,Lochem,Gelderland,VBO,6.295610,52.206324
Reeverweg,3,,,7217TA,Harfsen,Lochem,Gelderland,VBO,6.297452,52.206753
Reeverweg,7,,,7217TA,Harfsen,Lochem,Gelderland,VBO,6.297565,52.206581
Reeverweg,9,a,,7217TA,Harfsen,Lochem,Gelderland,VBO,6.297079,52.206347
Reeverweg,9,b,,7217TA,Harfsen,Lochem,Gelderland,VBO,6.297005,52.206303
Reeverweg,9,,,7217TA,Harfsen,Lochem,Gelderland,VBO,6.297183,52.206530
Reeverweg,11,,,7217TA,Harfsen,Lochem,Gelderland,VBO,6.296894,52.206189
Reeverweg,13,,,7217TA,Harfsen,Lochem,Gelderland,VBO,6.296638,52.205955
Reeverweg,15,,,7217TA,Harfsen,Lochem,Gelderland,VBO,6.296512,52.205836
Reeverweg,17,,,7217TA,Harfsen,Lochem,Gelderland,VBO,6.296459,52.205783
Reeverweg,19,,,7217TA,Harfsen,Lochem,Gelderland,VBO,6.296473,52.205403
Reeverweg,21,,,7217TA,Harfsen,Lochem,Gelderland,VBO,6.296125,52.205111
Reeverweg,23,,,7217TA,Harfsen,Lochem,Gelderland,VBO,6.295705,52.204705
Reeverweg,27,a,,7217TA,Harfsen,Lochem,Gelderland,STA,6.295540,52.201170
Reeverweg,27,,,7217TA,Harfsen,Lochem,Gelderland,STA,6.295291,52.201522
Reeverweg,29,,,7217TA,Harfsen,Lochem,Gelderland,VBO,6.293263,52.202568
Reeverweg,31,,,7217TA,Harfsen,Lochem,Gelderland,VBO,6.286593,52.193529
Reeverweg,33,,,7217TA,Harfsen,Lochem,Gelderland,VBO,6.285793,52.193044
Reeverweg,2,a,,7217TB,Harfsen,Lochem,Gelderland,VBO,6.297327,52.207037
Reeverweg,2,b,,7217TB,Harfsen,Lochem,Gelderland,VBO,6.297134,52.206886
Reeverweg,2,,,7217TB,Harfsen,Lochem,Gelderland,VBO,6.297073,52.206833
Reeverweg,4,,,7217TB,Harfsen,Lochem,Gelderland,VBO,6.296929,52.206670
Reeverweg,6,,,7217TB,Harfsen,Lochem,Gelderland,VBO,6.296716,52.206503
Reeverweg,8,,,7217TB,Harfsen,Lochem,Gelderland,VBO,6.296551,52.206377
Reeverweg,10,,,7217TB,Harfsen,Lochem,Gelderland,VBO,6.296433,52.206244
Reeverweg,12,,,7217TB,Harfsen,Lochem,Gelderland,VBO,6.296285,52.206118
Reeverweg,14,,,7217TC,Harfsen,Lochem,Gelderland,VBO,6.295476,52.205434
Reeverweg,16,,,7217TC,Harfsen,Lochem,Gelderland,VBO,6.295337,52.205301
Reeverweg,18,,,7217TC,Harfsen,Lochem,Gelderland,VBO,6.295186,52.205163
Reeverweg,20,,,7217TD,Harfsen,Lochem,Gelderland,VBO,6.294941,52.204844
Reeverweg,22,,,7217TD,Harfsen,Lochem,Gelderland,VBO,6.294796,52.204704
Reeverweg,24,,,7217TD,Harfsen,Lochem,Gelderland,VBO,6.294671,52.204581
Reeverweg,26,,,7217TD,Harfsen,Lochem,Gelderland,VBO,6.294527,52.204437
Reeverweg,28,,,7217TD,Harfsen,Lochem,Gelderland,VBO,6.294380,52.204287
Heideweg,1,,,7217TE,Harfsen,Lochem,Gelderland,VBO,6.270314,52.212867
Heideweg,3,a,,7217TE,Harfsen,Lochem,Gelderland,VBO,6.273007,52.211986
Heideweg,3,,,7217TE,Harfsen,Lochem,Gelderland,VBO,6.273127,52.212028
Heideweg,4,,,7217TE,Harfsen,Lochem,Gelderland,VBO,6.273215,52.210164
Heideweg,5,,,7217TE,Harfsen,Lochem,Gelderland,VBO,6.272950,52.211217
Heideweg,5,,,7217TE,Harfsen,Lochem,Gelderland,VBO,6.272963,52.211188
Heideweg,6,,,7217TE,Harfsen,Lochem,Gelderland,VBO,6.272923,52.209481
Heideweg,7,,,7217TE,Harfsen,Lochem,Gelderland,VBO,6.280660,52.206158
Heideweg,8,,,7217TE,Harfsen,Lochem,Gelderland,VBO,6.274085,52.208814
Heideweg,9,,,7217TE,Harfsen,Lochem,Gelderland,VBO,6.286643,52.202483
Heideweg,10,,,7217TE,Harfsen,Lochem,Gelderland,VBO,6.273495,52.207685
Heideweg,11,,,7217TE,Harfsen,Lochem,Gelderland,VBO,6.287144,52.201965
Heideweg,12,,,7217TE,Harfsen,Lochem,Gelderland,VBO,6.272811,52.207620
Heideweg,14,,,7217TE,Harfsen,Lochem,Gelderland,VBO,6.277174,52.207291
Heideweg,16,,,7217TE,Harfsen,Lochem,Gelderland,VBO,6.276560,52.206051
Heideweg,18,,,7217TE,Harfsen,Lochem,Gelderland,VBO,6.277203,52.205615
Heideweg,20,,,7217TE,Harfsen,Lochem,Gelderland,VBO,6.288036,52.199708
Reeverweg,30,a,,7217TE,Harfsen,Lochem,Gelderland,VBO,6.293437,52.203517
Reeverweg,30,,,7217TE,Harfsen,Lochem,Gelderland,VBO,6.294035,52.204005
Reeverweg,32,,,7217TE,Harfsen,Lochem,Gelderland,VBO,6.292645,52.202706
Reeverweg,34,a,,7217TE,Harfsen,Lochem,Gelderland,VBO,6.291425,52.202436
Reeverweg,34,,,7217TE,Harfsen,Lochem,Gelderland,VBO,6.292133,52.202207
Reeverweg,36,a,,7217TE,Harfsen,Lochem,Gelderland,VBO,6.290730,52.201344
Reeverweg,36,t,,7217TE,Harfsen,Lochem,Gelderland,VBO,6.290701,52.201248
Reeverweg,36,,,7217TE,Harfsen,Lochem,Gelderland,VBO,6.291572,52.201654
Reeverweg,38,,,7217TE,Harfsen,Lochem,Gelderland,VBO,6.289337,52.199612
Reeverweg,40,,,7217TE,Harfsen,Lochem,Gelderland,VBO,6.287573,52.197904
Reeverweg,42,,,7217TG,Harfsen,Lochem,Gelderland,VBO,6.286533,52.196576
Reeverweg,44,,,7217TG,Harfsen,Lochem,Gelderland,VBO,6.285213,52.195227
Reeverweg,46,a,,7217TG,Harfsen,Lochem,Gelderland,VBO,6.280403,52.195518
Reeverweg,46,b,,7217TG,Harfsen,Lochem,Gelderland,VBO,6.280890,52.196359
Reeverweg,46,,,7217TG,Harfsen,Lochem,Gelderland,VBO,6.279425,52.195907
Reeverweg,48,,,7217TG,Harfsen,Lochem,Gelderland,VBO,6.281929,52.193556
Reeverweg,50,t,,7217TG,Harfsen,Lochem,Gelderland,VBO,6.283616,52.194048
Reeverweg,52,,,7217TG,Harfsen,Lochem,Gelderland,VBO,6.277521,52.190514
Schepersweg,2,a,,7217TH,Harfsen,Lochem,Gelderland,VBO,6.262425,52.205863
Schepersweg,2,b,,7217TH,Harfsen,Lochem,Gelderland,VBO,6.262285,52.205660
Schepersweg,2,,,7217TH,Harfsen,Lochem,Gelderland,VBO,6.262505,52.205945
Schepersweg,3,t,,7217TH,Harfsen,Lochem,Gelderland,VBO,6.271433,52.204924
Schepersweg,3,,,7217TH,Harfsen,Lochem,Gelderland,VBO,6.272090,52.204705
Schepersweg,4,,,7217TH,Harfsen,Lochem,Gelderland,VBO,6.265422,52.206962
Schepersweg,5,a,,7217TH,Harfsen,Lochem,Gelderland,VBO,6.273231,52.204111
Schepersweg,5,,,7217TH,Harfsen,Lochem,Gelderland,VBO,6.273118,52.204399
Schepersweg,6,,,7217TH,Harfsen,Lochem,Gelderland,VBO,6.267374,52.206304
Schepersweg,7,,,7217TH,Harfsen,Lochem,Gelderland,VBO,6.275702,52.203552
Schepersweg,8,,,7217TH,Harfsen,Lochem,Gelderland,VBO,6.267559,52.204764
Schepersweg,9,a,,7217TH,Harfsen,Lochem,Gelderland,VBO,6.277683,52.202172
Schepersweg,9,b,,7217TH,Harfsen,Lochem,Gelderland,VBO,6.278479,52.202376
Schepersweg,9,c,,7217TH,Harfsen,Lochem,Gelderland,VBO,6.278033,52.202717
Schepersweg,9,,,7217TH,Harfsen,Lochem,Gelderland,VBO,6.277113,52.202342
Schepersweg,10,,,7217TH,Harfsen,Lochem,Gelderland,VBO,6.270774,52.204376
Schepersweg,11,,,7217TH,Harfsen,Lochem,Gelderland,VBO,6.282430,52.200107
Schepersweg,12,,,7217TH,Harfsen,Lochem,Gelderland,VBO,6.270188,52.202536
Schepersweg,13,,,7217TH,Harfsen,Lochem,Gelderland,VBO,6.285042,52.198060
Schepersweg,14,,,7217TH,Harfsen,Lochem,Gelderland,VBO,6.267998,52.201655
Schepersweg,16,a,,7217TH,Harfsen,Lochem,Gelderland,VBO,6.271744,52.203515
Schepersweg,16,b,,7217TH,Harfsen,Lochem,Gelderland,VBO,6.271716,52.203426
Schepersweg,16,c,,7217TH,Harfsen,Lochem,Gelderland,VBO,6.271267,52.203210
Schepersweg,16,,,7217TH,Harfsen,Lochem,Gelderland,VBO,6.272174,52.203943
Schepersweg,18,,,7217TH,Harfsen,Lochem,Gelderland,VBO,6.275472,52.202645
Schepersweg,20,,,7217TH,Harfsen,Lochem,Gelderland,VBO,6.276259,52.202262
Schepersweg,22,a,,7217TH,Harfsen,Lochem,Gelderland,VBO,6.278942,52.200715
Schepersweg,22,,,7217TH,Harfsen,Lochem,Gelderland,VBO,6.279097,52.200726
Schepersweg,24,a,,7217TH,Harfsen,Lochem,Gelderland,VBO,6.288443,52.195286
Schepersweg,24,,,7217TH,Harfsen,Lochem,Gelderland,VBO,6.278017,52.197252
Schepersweg,26,,,7217TJ,Harfsen,Lochem,Gelderland,VBO,6.289298,52.194210
Schepersweg,28,,,7217TJ,Harfsen,Lochem,Gelderland,VBO,6.287825,52.193664
Schepersweg,30,,,7217TJ,Harfsen,Lochem,Gelderland,VBO,6.290906,52.194412
Schepersweg,32,,,7217TJ,Harfsen,Lochem,Gelderland,VBO,6.289594,52.192223
Schepersweg,34,,,7217TJ,Harfsen,Lochem,Gelderland,VBO,6.289995,52.191941
Schepersweg,36,,,7217TJ,Harfsen,Lochem,Gelderland,VBO,6.291463,52.192366
Schepersweg,38,,,7217TJ,Harfsen,Lochem,Gelderland,VBO,6.292244,52.191056
Schepersweg,40,,,7217TJ,Harfsen,Lochem,Gelderland,VBO,6.293662,52.191094
De Smidse,1,,,7217TK,Harfsen,Lochem,Gelderland,VBO,6.296738,52.206862
De Smidse,2,,,7217TK,Harfsen,Lochem,Gelderland,VBO,6.296622,52.206926
De Smidse,3,,,7217TK,Harfsen,Lochem,Gelderland,VBO,6.296256,52.206920
De Smidse,4,,,7217TK,Harfsen,Lochem,Gelderland,VBO,6.296182,52.206848
De Smidse,5,,,7217TK,Harfsen,Lochem,Gelderland,VBO,6.296148,52.206633
De Smidse,6,,,7217TK,Harfsen,Lochem,Gelderland,VBO,6.296249,52.206569
De Smidse,7,,,7217TK,Harfsen,Lochem,Gelderland,VBO,6.296586,52.206576
Sleedoorn,1,,,7217TL,Harfsen,Lochem,Gelderland,VBO,6.296920,52.205627
Sleedoorn,2,a,,7217TL,Harfsen,Lochem,Gelderland,VBO,6.297427,52.205490
Sleedoorn,2,,,7217TL,Harfsen,Lochem,Gelderland,VBO,6.297295,52.205400
Sleedoorn,3,,,7217TL,Harfsen,Lochem,Gelderland,VBO,6.296971,52.205677
Sleedoorn,4,,,7217TL,Harfsen,Lochem,Gelderland,VBO,6.297696,52.205644
Sleedoorn,5,,,7217TL,Harfsen,Lochem,Gelderland,VBO,6.297118,52.205760
Sleedoorn,6,,,7217TL,Harfsen,Lochem,Gelderland,VBO,6.297733,52.205684
Sleedoorn,7,,,7217TL,Harfsen,Lochem,Gelderland,VBO,6.297165,52.205804
Sleedoorn,8,,,7217TL,Harfsen,Lochem,Gelderland,VBO,6.297770,52.205725
Sleedoorn,9,,,7217TL,Harfsen,Lochem,Gelderland,VBO,6.297301,52.205890
Sleedoorn,10,,,7217TL,Harfsen,Lochem,Gelderland,VBO,6.297805,52.205764
Sleedoorn,11,,,7217TL,Harfsen,Lochem,Gelderland,VBO,6.297353,52.205936
Sleedoorn,12,,,7217TL,Harfsen,Lochem,Gelderland,VBO,6.297814,52.205859
Sleedoorn,13,,,7217TL,Harfsen,Lochem,Gelderland,VBO,6.297430,52.206041
Sleedoorn,14,,,7217TL,Harfsen,Lochem,Gelderland,VBO,6.297850,52.205900
Sleedoorn,15,,,7217TL,Harfsen,Lochem,Gelderland,VBO,6.297486,52.206093
Sleedoorn,16,,,7217TL,Harfsen,Lochem,Gelderland,VBO,6.297887,52.205940
Sleedoorn,17,,,7217TL,Harfsen,Lochem,Gelderland,VBO,6.297519,52.206154
Sleedoorn,19,,,7217TL,Harfsen,Lochem,Gelderland,VBO,6.297573,52.206206
Sleedoorn,21,,,7217TL,Harfsen,Lochem,Gelderland,VBO,6.297630,52.206259
Sleedoorn,23,,,7217TL,Harfsen,Lochem,Gelderland,VBO,6.297683,52.206310
Sporkehout,1,a,,7217TM,Harfsen,Lochem,Gelderland,VBO,6.297969,52.206933
Sporkehout,1,b,,7217TM,Harfsen,Lochem,Gelderland,VBO,6.298143,52.206878
Sporkehout,1,c,,7217TM,Harfsen,Lochem,Gelderland,VBO,6.298244,52.206832
Sporkehout,1,d,,7217TM,Harfsen,Lochem,Gelderland,VBO,6.298390,52.206786
Sporkehout,3,,,7217TM,Harfsen,Lochem,Gelderland,VBO,6.298581,52.206421
Sporkehout,5,,,7217TM,Harfsen,Lochem,Gelderland,VBO,6.298452,52.206300
Sporkehout,7,,,7217TM,Harfsen,Lochem,Gelderland,VBO,6.298846,52.206180
Sporkehout,9,,,7217TM,Harfsen,Lochem,Gelderland,VBO,6.299083,52.205879
Sporkehout,11,,,7217TM,Harfsen,Lochem,Gelderland,VBO,6.299046,52.205832
Sporkehout,13,,,7217TM,Harfsen,Lochem,Gelderland,VBO,6.299005,52.205708
Sporkehout,15,,,7217TM,Harfsen,Lochem,Gelderland,VBO,6.298966,52.205658
Sporkehout,17,,,7217TM,Harfsen,Lochem,Gelderland,VBO,6.298927,52.205607
Sporkehout,19,,,7217TM,Harfsen,Lochem,Gelderland,VBO,6.298887,52.205557
Sporkehout,2,,,7217TN,Harfsen,Lochem,Gelderland,VBO,6.297666,52.206695
Sporkehout,4,,,7217TN,Harfsen,Lochem,Gelderland,VBO,6.297860,52.206667
Sporkehout,6,,,7217TN,Harfsen,Lochem,Gelderland,VBO,6.298030,52.206526
Sporkehout,8,,,7217TN,Harfsen,Lochem,Gelderland,VBO,6.297968,52.206148
Sporkehout,10,,,7217TN,Harfsen,Lochem,Gelderland,VBO,6.298031,52.206126
Sporkehout,12,,,7217TN,Harfsen,Lochem,Gelderland,VBO,6.298097,52.206103
Sporkehout,14,,,7217TN,Harfsen,Lochem,Gelderland,VBO,6.298162,52.206080
Sporkehout,16,,,7217TN,Harfsen,Lochem,Gelderland,VBO,6.298334,52.206060
Sporkehout,18,,,7217TN,Harfsen,Lochem,Gelderland,VBO,6.298418,52.206040
Sporkehout,20,,,7217TN,Harfsen,Lochem,Gelderland,VBO,6.298494,52.206014
Sporkehout,22,,,7217TN,Harfsen,Lochem,Gelderland,VBO,6.298572,52.205986
Sporkehout,24,,,7217TN,Harfsen,Lochem,Gelderland,VBO,6.298322,52.205825
Sporkehout,26,,,7217TN,Harfsen,Lochem,Gelderland,VBO,6.298279,52.205778
Sporkehout,28,,,7217TN,Harfsen,Lochem,Gelderland,VBO,6.298273,52.205535
Sporkehout,30,,,7217TN,Harfsen,Lochem,Gelderland,VBO,6.298348,52.205510
Sporkehout,32,,,7217TN,Harfsen,Lochem,Gelderland,VBO,6.298541,52.205443
Sporkehout,34,,,7217TN,Harfsen,Lochem,Gelderland,VBO,6.298616,52.205417
Sporkehout,36,,,7217TN,Harfsen,Lochem,Gelderland,VBO,6.298821,52.205339
Sporkehout,38,,,7217TN,Harfsen,Lochem,Gelderland,VBO,6.298902,52.205312
Zonnedauw,1,,,7217TP,Harfsen,Lochem,Gelderland,VBO,6.298552,52.206713
Zonnedauw,3,,,7217TP,Harfsen,Lochem,Gelderland,VBO,6.298619,52.206694
Zonnedauw,5,,,7217TP,Harfsen,Lochem,Gelderland,VBO,6.298684,52.206672
Zonnedauw,7,,,7217TP,Harfsen,Lochem,Gelderland,VBO,6.298751,52.206652
Zonnedauw,9,,,7217TP,Harfsen,Lochem,Gelderland,VBO,6.298796,52.206603
Zonnedauw,11,,,7217TP,Harfsen,Lochem,Gelderland,VBO,6.298864,52.206582
Zonnedauw,13,,,7217TP,Harfsen,Lochem,Gelderland,VBO,6.298929,52.206562
Zonnedauw,15,,,7217TP,Harfsen,Lochem,Gelderland,VBO,6.299153,52.206566
Zonnedauw,17,,,7217TP,Harfsen,Lochem,Gelderland,VBO,6.299243,52.206539
Zonnedauw,19,,,7217TP,Harfsen,Lochem,Gelderland,VBO,6.299332,52.206511
Zonnedauw,25,,,7217TP,Harfsen,Lochem,Gelderland,VBO,6.300221,52.205908
Zonnedauw,27,,,7217TP,Harfsen,Lochem,Gelderland,VBO,6.300114,52.205802
Zonnedauw,29,,,7217TP,Harfsen,Lochem,Gelderland,VBO,6.300037,52.205675
Zonnedauw,31,,,7217TP,Harfsen,Lochem,Gelderland,VBO,6.299922,52.205573
Zonnedauw,33,,,7217TP,Harfsen,Lochem,Gelderland,VBO,6.299878,52.205517
Zonnedauw,35,,,7217TP,Harfsen,Lochem,Gelderland,VBO,6.299799,52.205409
Zonnedauw,37,,,7217TP,Harfsen,Lochem,Gelderland,VBO,6.299759,52.205349
Zonnedauw,39,,,7217TP,Harfsen,Lochem,Gelderland,VBO,6.299686,52.205231
Zonnedauw,4,,,7217TR,Harfsen,Lochem,Gelderland,VBO,6.298971,52.206303
Zonnedauw,6,,,7217TR,Harfsen,Lochem,Gelderland,VBO,6.299244,52.206146
Zonnedauw,8,,,7217TR,Harfsen,Lochem,Gelderland,VBO,6.299329,52.206121
Zonnedauw,10,,,7217TR,Harfsen,Lochem,Gelderland,VBO,6.299408,52.206098
Zonnedauw,12,,,7217TR,Harfsen,Lochem,Gelderland,VBO,6.299470,52.206079
Zonnedauw,14,,,7217TR,Harfsen,Lochem,Gelderland,VBO,6.299637,52.206063
Zonnedauw,16,,,7217TR,Harfsen,Lochem,Gelderland,VBO,6.299705,52.206043
Zonnedauw,18,,,7217TR,Harfsen,Lochem,Gelderland,VBO,6.299774,52.206022
Zonnedauw,20,,,7217TR,Harfsen,Lochem,Gelderland,VBO,6.299842,52.206001
Zonnedauw,22,,,7217TR,Harfsen,Lochem,Gelderland,VBO,6.299528,52.205734
Zonnedauw,24,,,7217TR,Harfsen,Lochem,Gelderland,VBO,6.299489,52.205685
Zonnedauw,26,,,7217TR,Harfsen,Lochem,Gelderland,VBO,6.299422,52.205574
Zonnedauw,28,,,7217TR,Harfsen,Lochem,Gelderland,VBO,6.299311,52.205435
Wilhelminalaan,11,,,7217TS,Harfsen,Lochem,Gelderland,VBO,6.292632,52.204926
Wilhelminalaan,12,,,7217TS,Harfsen,Lochem,Gelderland,VBO,6.292696,52.204890
Wilhelminalaan,13,,,7217TS,Harfsen,Lochem,Gelderland,VBO,6.292882,52.204766
Wilhelminalaan,14,,,7217TS,Harfsen,Lochem,Gelderland,VBO,6.292935,52.204727
Wilhelminalaan,15,,,7217TS,Harfsen,Lochem,Gelderland,VBO,6.293266,52.204504
Wilhelminalaan,16,,,7217TS,Harfsen,Lochem,Gelderland,VBO,6.293318,52.204470
Wilhelminalaan,17,,,7217TS,Harfsen,Lochem,Gelderland,VBO,6.293480,52.204354
Wilhelminalaan,18,,,7217TS,Harfsen,Lochem,Gelderland,VBO,6.293542,52.204317
Gagel,4,,,7217TT,Harfsen,Lochem,Gelderland,VBO,6.297717,52.205401
Gagel,6,,,7217TT,Harfsen,Lochem,Gelderland,VBO,6.297905,52.205333
Gagel,8,,,7217TT,Harfsen,Lochem,Gelderland,VBO,6.297978,52.205307
Gagel,10,,,7217TT,Harfsen,Lochem,Gelderland,VBO,6.298157,52.205244
Gagel,12,,,7217TT,Harfsen,Lochem,Gelderland,VBO,6.298233,52.205218
Gagel,14,,,7217TT,Harfsen,Lochem,Gelderland,VBO,6.298415,52.205154
Gagel,16,,,7217TT,Harfsen,Lochem,Gelderland,VBO,6.298483,52.205130
Gagel,18,,,7217TT,Harfsen,Lochem,Gelderland,VBO,6.298667,52.205070
Gagel,20,,,7217TT,Harfsen,Lochem,Gelderland,VBO,6.298741,52.205044
Gagel,22,,,7217TT,Harfsen,Lochem,Gelderland,VBO,6.298923,52.204962
Gagel,24,,,7217TT,Harfsen,Lochem,Gelderland,VBO,6.299142,52.205047
Gagel,26,,,7217TT,Harfsen,Lochem,Gelderland,VBO,6.299250,52.205167
Gentiaan,1,,,7217TV,Harfsen,Lochem,Gelderland,VBO,6.299656,52.206300
Gentiaan,3,,,7217TV,Harfsen,Lochem,Gelderland,VBO,6.299799,52.206326
Gentiaan,5,,,7217TV,Harfsen,Lochem,Gelderland,VBO,6.299830,52.206407
Gentiaan,7,,,7217TV,Harfsen,Lochem,Gelderland,VBO,6.299847,52.206487
Gentiaan,9,,,7217TV,Harfsen,Lochem,Gelderland,VBO,6.299893,52.206613
Gentiaan,11,,,7217TV,Harfsen,Lochem,Gelderland,VBO,6.299536,52.206328
Gentiaan,13,,,7217TV,Harfsen,Lochem,Gelderland,VBO,6.299552,52.206391
Gentiaan,15,,,7217TV,Harfsen,Lochem,Gelderland,VBO,6.299583,52.206472
Gentiaan,17,,,7217TV,Harfsen,Lochem,Gelderland,VBO,6.299614,52.206543
Gentiaan,19,,,7217TV,Harfsen,Lochem,Gelderland,VBO,6.299689,52.206641
Gentiaan,21,,,7217TV,Harfsen,Lochem,Gelderland,VBO,6.300127,52.206593
Gentiaan,23,,,7217TV,Harfsen,Lochem,Gelderland,VBO,6.299784,52.206982
Gentiaan,25,,,7217TV,Harfsen,Lochem,Gelderland,VBO,6.299900,52.206963
Gentiaan,27,,,7217TV,Harfsen,Lochem,Gelderland,VBO,6.300017,52.206945
Gentiaan,29,,,7217TV,Harfsen,Lochem,Gelderland,VBO,6.300249,52.206862
Gentiaan,31,,,7217TV,Harfsen,Lochem,Gelderland,VBO,6.300218,52.206754
Gentiaan,33,,,7217TV,Harfsen,Lochem,Gelderland,VBO,6.299768,52.206920
Gentiaan,35,,,7217TV,Harfsen,Lochem,Gelderland,VBO,6.299884,52.206901
Gentiaan,37,,,7217TV,Harfsen,Lochem,Gelderland,VBO,6.299972,52.206882
Gentiaan,39,,,7217TV,Harfsen,Lochem,Gelderland,VBO,6.300162,52.206863
Gentiaan,41,,,7217TV,Harfsen,Lochem,Gelderland,VBO,6.300130,52.206764
Gentiaan,2,,,7217TW,Harfsen,Lochem,Gelderland,VBO,6.300305,52.206168
Gentiaan,4,,,7217TW,Harfsen,Lochem,Gelderland,VBO,6.300386,52.206157
Gentiaan,6,,,7217TW,Harfsen,Lochem,Gelderland,VBO,6.300467,52.206147
Gentiaan,8,,,7217TW,Harfsen,Lochem,Gelderland,VBO,6.300632,52.206102
Gentiaan,10,,,7217TW,Harfsen,Lochem,Gelderland,VBO,6.300761,52.206085
Gentiaan,12,,,7217TW,Harfsen,Lochem,Gelderland,VBO,6.300871,52.205998
Gentiaan,14,,,7217TW,Harfsen,Lochem,Gelderland,VBO,6.301159,52.205958
Gentiaan,16,,,7217TW,Harfsen,Lochem,Gelderland,VBO,6.301219,52.206116
Gentiaan,18,,,7217TW,Harfsen,Lochem,Gelderland,VBO,6.301129,52.206251
Gentiaan,20,,,7217TW,Harfsen,Lochem,Gelderland,VBO,6.301145,52.206297
Gentiaan,22,,,7217TW,Harfsen,Lochem,Gelderland,VBO,6.301140,52.206407
Gentiaan,24,t,,7217TW,Harfsen,Lochem,Gelderland,VBO,6.301149,52.206733
Gentiaan,24,,,7217TW,Harfsen,Lochem,Gelderland,VBO,6.301157,52.206455
Gentiaan,26,t,,7217TW,Harfsen,Lochem,Gelderland,VBO,6.301358,52.206700
Gentiaan,26,,,7217TW,Harfsen,Lochem,Gelderland,VBO,6.301173,52.206503
Het Hazenveld,35,,,7217TX,Harfsen,Lochem,Gelderland,VBO,6.290916,52.204375
Het Hazenveld,2,,,7217TZ,Harfsen,Lochem,Gelderland,VBO,6.293111,52.203866
Het Hazenveld,4,,,7217TZ,Harfsen,Lochem,Gelderland,VBO,6.293056,52.203900
Het Hazenveld,6,,,7217TZ,Harfsen,Lochem,Gelderland,VBO,6.293010,52.203938
Het Hazenveld,8,,,7217TZ,Harfsen,Lochem,Gelderland,VBO,6.292856,52.204041
Het Hazenveld,10,,,7217TZ,Harfsen,Lochem,Gelderland,VBO,6.292804,52.204078
Het Hazenveld,12,,,7217TZ,Harfsen,Lochem,Gelderland,VBO,6.292752,52.204120
Het Hazenveld,14,,,7217TZ,Harfsen,Lochem,Gelderland,VBO,6.292702,52.204155
Het Hazenveld,16,,,7217TZ,Harfsen,Lochem,Gelderland,VBO,6.292917,52.204322
Het Hazenveld,18,,,7217TZ,Harfsen,Lochem,Gelderland,VBO,6.292967,52.204352
Het Hazenveld,20,,,7217TZ,Harfsen,Lochem,Gelderland,VBO,6.293020,52.204380
Het Hazenveld,22,,,7217TZ,Harfsen,Lochem,Gelderland,VBO,6.292755,52.204561
Het Hazenveld,24,,,7217TZ,Harfsen,Lochem,Gelderland,VBO,6.292695,52.204531
Het Hazenveld,26,,,7217TZ,Harfsen,Lochem,Gelderland,VBO,6.292641,52.204502
Het Hazenveld,44,,,7217TZ,Harfsen,Lochem,Gelderland,VBO,6.292251,52.204766
Het Hazenveld,46,,,7217TZ,Harfsen,Lochem,Gelderland,VBO,6.292309,52.204795
Het Hazenveld,48,,,7217TZ,Harfsen,Lochem,Gelderland,VBO,6.292370,52.204826
Het Hazenveld,50,,,7217TZ,Harfsen,Lochem,Gelderland,VBO,6.292093,52.205001
Het Hazenveld,52,,,7217TZ,Harfsen,Lochem,Gelderland,VBO,6.292031,52.204974
Het Hazenveld,54,,,7217TZ,Harfsen,Lochem,Gelderland,VBO,6.291975,52.204943
