openbareruimtenaam,huisnummer,huisletter,huisnummertoevoeging,postcode,woonplaatsnaam,gemeentenaam,provincienaam,typeadresseerbaarobject,longitude,latitude
Zutphen-Emmerikseweg,75,A,,7223DA,Baak,Bronckhorst,Gelderland,VBO,6.222663,52.062239
Zutphen-Emmerikseweg,75,B,,7223DA,Baak,Bronckhorst,Gelderland,VBO,6.222765,52.062519
Zutphen-Emmerikseweg,75,,,7223DA,Baak,Bronckhorst,Gelderland,VBO,6.223182,52.061977
Zutphen-Emmerikseweg,77,A,,7223DA,Baak,Bronckhorst,Gelderland,VBO,6.222848,52.062920
Zutphen-Emmerikseweg,77,,,7223DA,Baak,Bronckhorst,Gelderland,VBO,6.223260,52.062306
Zutphen-Emmerikseweg,81,,,7223DA,Baak,Bronckhorst,Gelderland,VBO,6.222166,52.063410
Zutphen-Emmerikseweg,83,A,,7223DA,Baak,Bronckhorst,Gelderland,VBO,6.221248,52.063935
Zutphen-Emmerikseweg,83,,,7223DA,Baak,Bronckhorst,Gelderland,VBO,6.221700,52.063700
Zutphen-Emmerikseweg,85,,,7223DA,Baak,Bronckhorst,Gelderland,VBO,6.221417,52.064179
Zutphen-Emmerikseweg,87,,,7223DA,Baak,Bronckhorst,Gelderland,VBO,6.220977,52.064188
Zutphen-Emmerikseweg,89,,,7223DA,Baak,Bronckhorst,Gelderland,VBO,6.223414,52.063457
Zutphen-Emmerikseweg,91,,,7223DA,Baak,Bronckhorst,Gelderland,VBO,6.223427,52.063535
Zutphen-Emmerikseweg,93,,,7223DA,Baak,Bronckhorst,Gelderland,VBO,6.222685,52.064483
Zutphen-Emmerikseweg,99,,,7223DA,Baak,Bronckhorst,Gelderland,VBO,6.223873,52.069181
Zutphen-Emmerikseweg,103,A,,7223DB,Baak,Bronckhorst,Gelderland,VBO,6.224131,52.071934
Zutphen-Emmerikseweg,103,,,7223DB,Baak,Bronckhorst,Gelderland,VBO,6.224242,52.072358
Zutphen-Emmerikseweg,105,,,7223DB,Baak,Bronckhorst,Gelderland,VBO,6.223656,52.072894
Zutphen-Emmerikseweg,107,,,7223DB,Baak,Bronckhorst,Gelderland,VBO,6.222712,52.073021
Zutphen-Emmerikseweg,109,A,,7223DB,Baak,Bronckhorst,Gelderland,VBO,6.224256,52.073017
Zutphen-Emmerikseweg,109,,,7223DB,Baak,Bronckhorst,Gelderland,VBO,6.224249,52.072951
Zutphen-Emmerikseweg,111,,,7223DB,Baak,Bronckhorst,Gelderland,VBO,6.224274,52.073162
Zutphen-Emmerikseweg,113,,,7223DB,Baak,Bronckhorst,Gelderland,VBO,6.224115,52.073279
Zutphen-Emmerikseweg,115,,,7223DB,Baak,Bronckhorst,Gelderland,VBO,6.224361,52.073600
Zutphen-Emmerikseweg,117,,,7223DB,Baak,Bronckhorst,Gelderland,VBO,6.224365,52.073665
Zutphen-Emmerikseweg,119,,,7223DB,Baak,Bronckhorst,Gelderland,VBO,6.224353,52.073956
Zutphen-Emmerikseweg,121,,,7223DB,Baak,Bronckhorst,Gelderland,VBO,6.224351,52.074172
Zutphen-Emmerikseweg,123,,,7223DB,Baak,Bronckhorst,Gelderland,VBO,6.224396,52.075134
Zutphen-Emmerikseweg,125,,,7223DB,Baak,Bronckhorst,Gelderland,VBO,6.224391,52.075205
Zutphen-Emmerikseweg,127,A,,7223DC,Baak,Bronckhorst,Gelderland,VBO,6.224599,52.076975
Zutphen-Emmerikseweg,127,,,7223DC,Baak,Bronckhorst,Gelderland,VBO,6.224640,52.076822
Zutphen-Emmerikseweg,129,A,,7223DC,Baak,Bronckhorst,Gelderland,VBO,6.224656,52.077106
Zutphen-Emmerikseweg,129,B,,7223DC,Baak,Bronckhorst,Gelderland,VBO,6.224660,52.077173
Zutphen-Emmerikseweg,129,,,7223DC,Baak,Bronckhorst,Gelderland,VBO,6.224290,52.076972
Zutphen-Emmerikseweg,131,A,,7223DC,Baak,Bronckhorst,Gelderland,VBO,6.224677,52.077308
Zutphen-Emmerikseweg,131,B,,7223DC,Baak,Bronckhorst,Gelderland,VBO,6.224676,52.077367
Zutphen-Emmerikseweg,133,,,7223DC,Baak,Bronckhorst,Gelderland,VBO,6.224769,52.077483
Zutphen-Emmerikseweg,135,,,7223DC,Baak,Bronckhorst,Gelderland,VBO,6.224766,52.077640
Zutphen-Emmerikseweg,137,,,7223DC,Baak,Bronckhorst,Gelderland,VBO,6.224771,52.077888
Zutphen-Emmerikseweg,139,,,7223DC,Baak,Bronckhorst,Gelderland,VBO,6.224779,52.078120
Zutphen-Emmerikseweg,141,A,,7223DC,Baak,Bronckhorst,Gelderland,VBO,6.224679,52.080549
Zutphen-Emmerikseweg,141,,,7223DC,Baak,Bronckhorst,Gelderland,VBO,6.224812,52.078310
Zutphen-Emmerikseweg,143,A,,7223DD,Baak,Bronckhorst,Gelderland,VBO,6.223939,52.081456
Zutphen-Emmerikseweg,143,,,7223DD,Baak,Bronckhorst,Gelderland,VBO,6.224676,52.080614
Zutphen-Emmerikseweg,145,,,7223DD,Baak,Bronckhorst,Gelderland,VBO,6.223821,52.081770
Zutphen-Emmerikseweg,40,,,7223DE,Baak,Bronckhorst,Gelderland,VBO,6.224280,52.062281
Zutphen-Emmerikseweg,42,A,,7223DE,Baak,Bronckhorst,Gelderland,VBO,6.226987,52.063098
Zutphen-Emmerikseweg,42,,,7223DE,Baak,Bronckhorst,Gelderland,VBO,6.226907,52.063223
Zutphen-Emmerikseweg,44,,,7223DE,Baak,Bronckhorst,Gelderland,VBO,6.223840,52.063180
Zutphen-Emmerikseweg,46,A,,7223DG,Baak,Bronckhorst,Gelderland,VBO,6.223969,52.063338
Zutphen-Emmerikseweg,46,,,7223DG,Baak,Bronckhorst,Gelderland,VBO,6.223867,52.063444
Zutphen-Emmerikseweg,48,,,7223DG,Baak,Bronckhorst,Gelderland,VBO,6.224338,52.063669
Zutphen-Emmerikseweg,50,,,7223DG,Baak,Bronckhorst,Gelderland,VBO,6.224168,52.063881
Zutphen-Emmerikseweg,52,,,7223DG,Baak,Bronckhorst,Gelderland,VBO,6.224037,52.064277
Zutphen-Emmerikseweg,54,A,,7223DH,Baak,Bronckhorst,Gelderland,VBO,6.224614,52.068843
Zutphen-Emmerikseweg,54,,,7223DH,Baak,Bronckhorst,Gelderland,VBO,6.224663,52.068810
Zutphen-Emmerikseweg,56,A,,7223DH,Baak,Bronckhorst,Gelderland,VBO,6.224709,52.069941
Zutphen-Emmerikseweg,56,,,7223DH,Baak,Bronckhorst,Gelderland,VBO,6.224617,52.069786
Zutphen-Emmerikseweg,58,,,7223DH,Baak,Bronckhorst,Gelderland,VBO,6.225061,52.075331
Zutphen-Emmerikseweg,62,,,7223DJ,Baak,Bronckhorst,Gelderland,VBO,6.225098,52.076122
Zutphen-Emmerikseweg,64,A,,7223DJ,Baak,Bronckhorst,Gelderland,VBO,6.225272,52.076990
Zutphen-Emmerikseweg,64,B,,7223DJ,Baak,Bronckhorst,Gelderland,VBO,6.225244,52.077137
Zutphen-Emmerikseweg,64,,,7223DJ,Baak,Bronckhorst,Gelderland,VBO,6.225160,52.076528
Zutphen-Emmerikseweg,66,,,7223DK,Baak,Bronckhorst,Gelderland,VBO,6.225333,52.077329
Zutphen-Emmerikseweg,68,,,7223DK,Baak,Bronckhorst,Gelderland,VBO,6.225252,52.077580
Zutphen-Emmerikseweg,70,,,7223DK,Baak,Bronckhorst,Gelderland,VBO,6.225282,52.077754
Zutphen-Emmerikseweg,72,,,7223DK,Baak,Bronckhorst,Gelderland,VBO,6.225265,52.077869
Zutphen-Emmerikseweg,74,,,7223DK,Baak,Bronckhorst,Gelderland,VBO,6.225275,52.077916
Zutphen-Emmerikseweg,76,,,7223DK,Baak,Bronckhorst,Gelderland,VBO,6.225288,52.078027
Zutphen-Emmerikseweg,78,,,7223DK,Baak,Bronckhorst,Gelderland,VBO,6.225293,52.078084
Zutphen-Emmerikseweg,80,,,7223DK,Baak,Bronckhorst,Gelderland,VBO,6.225455,52.078252
Zutphen-Emmerikseweg,82,,,7223DK,Baak,Bronckhorst,Gelderland,VBO,6.225456,52.078314
Zutphen-Emmerikseweg,84,,,7223DK,Baak,Bronckhorst,Gelderland,VBO,6.225457,52.078371
Zutphen-Emmerikseweg,86,,,7223DK,Baak,Bronckhorst,Gelderland,VBO,6.225476,52.078467
Zutphen-Emmerikseweg,88,,,7223DK,Baak,Bronckhorst,Gelderland,VBO,6.225482,52.078526
Zutphen-Emmerikseweg,90,,,7223DK,Baak,Bronckhorst,Gelderland,VBO,6.225485,52.078582
Zutphen-Emmerikseweg,92,,,7223DK,Baak,Bronckhorst,Gelderland,VBO,6.225495,52.078683
Zutphen-Emmerikseweg,94,,,7223DK,Baak,Bronckhorst,Gelderland,VBO,6.225497,52.078738
Zutphen-Emmerikseweg,96,,,7223DK,Baak,Bronckhorst,Gelderland,VBO,6.225505,52.078795
Zutphen-Emmerikseweg,98,,,7223DK,Baak,Bronckhorst,Gelderland,VBO,6.226103,52.080136
Zutphen-Emmerikseweg,100,,,7223DK,Baak,Bronckhorst,Gelderland,VBO,6.226111,52.080217
Zutphen-Emmerikseweg,102,,,7223DK,Baak,Bronckhorst,Gelderland,VBO,6.224739,52.081431
Zutphen-Emmerikseweg,106,,,7223DK,Baak,Bronckhorst,Gelderland,VBO,6.224660,52.081569
Zutphen-Emmerikseweg,108,,,7223DK,Baak,Bronckhorst,Gelderland,VBO,6.224184,52.082847
Zutphen-Emmerikseweg,110,,,7223DL,Baak,Bronckhorst,Gelderland,VBO,6.223492,52.084056
Zutphen-Emmerikseweg,112,A,,7223DL,Baak,Bronckhorst,Gelderland,VBO,6.223657,52.084922
Zutphen-Emmerikseweg,112,,,7223DL,Baak,Bronckhorst,Gelderland,VBO,6.223492,52.084883
Zutphen-Emmerikseweg,114,,,7223DL,Baak,Bronckhorst,Gelderland,VBO,6.222376,52.088505
Molenweg,1,,,7223DN,Baak,Bronckhorst,Gelderland,VBO,6.223138,52.076004
Molenweg,2,,,7223DN,Baak,Bronckhorst,Gelderland,VBO,6.223382,52.076341
Molenweg,3,,,7223DN,Baak,Bronckhorst,Gelderland,VBO,6.222974,52.076170
Molenweg,4,,,7223DN,Baak,Bronckhorst,Gelderland,VBO,6.223129,52.076526
Molenweg,5,,,7223DN,Baak,Bronckhorst,Gelderland,VBO,6.223525,52.078843
Molenweg,6,,,7223DN,Baak,Bronckhorst,Gelderland,VBO,6.223228,52.076703
Molenweg,7,A,,7223DN,Baak,Bronckhorst,Gelderland,VBO,6.223735,52.079163
Molenweg,7,,,7223DN,Baak,Bronckhorst,Gelderland,VBO,6.223591,52.079030
Molenweg,8,,,7223DN,Baak,Bronckhorst,Gelderland,VBO,6.223277,52.076873
Molenweg,9,A,,7223DN,Baak,Bronckhorst,Gelderland,VBO,6.223928,52.080161
Molenweg,9,B,,7223DN,Baak,Bronckhorst,Gelderland,VBO,6.224106,52.080288
Molenweg,9,,,7223DN,Baak,Bronckhorst,Gelderland,VBO,6.224104,52.080114
Molenweg,10,,,7223DN,Baak,Bronckhorst,Gelderland,VBO,6.223389,52.077040
Molenweg,12,,,7223DN,Baak,Bronckhorst,Gelderland,VBO,6.223446,52.077223
Molenweg,14,,,7223DN,Baak,Bronckhorst,Gelderland,VBO,6.223567,52.077400
Molenweg,16,A,,7223DN,Baak,Bronckhorst,Gelderland,VBO,6.223595,52.077714
Molenweg,16,,,7223DN,Baak,Bronckhorst,Gelderland,VBO,6.223582,52.077615
Molenweg,18,,,7223DN,Baak,Bronckhorst,Gelderland,VBO,6.223695,52.077989
Molenweg,20,,,7223DN,Baak,Bronckhorst,Gelderland,VBO,6.223670,52.078132
Molenweg,22,,,7223DN,Baak,Bronckhorst,Gelderland,VBO,6.223768,52.078319
Molenweg,24,,,7223DN,Baak,Bronckhorst,Gelderland,VBO,6.223797,52.078562
Wolfsstraat,2,A,,7223DP,Baak,Bronckhorst,Gelderland,VBO,6.222304,52.061178
Wolfsstraat,2,,,7223DP,Baak,Bronckhorst,Gelderland,VBO,6.222721,52.061093
Wolfsstraat,4,,,7223DP,Baak,Bronckhorst,Gelderland,VBO,6.221899,52.060997
Wolfsstraat,6,,,7223DP,Baak,Bronckhorst,Gelderland,VBO,6.218810,52.061764
Dambroek,1,,,7223DT,Baak,Bronckhorst,Gelderland,VBO,6.221128,52.069329
Dambroek,3,,,7223DT,Baak,Bronckhorst,Gelderland,VBO,6.221184,52.068506
Dambroek,5,A,,7223DT,Baak,Bronckhorst,Gelderland,VBO,6.217062,52.068376
Dambroek,5,,,7223DT,Baak,Bronckhorst,Gelderland,VBO,6.217122,52.068264
Dambroek,7,,,7223DT,Baak,Bronckhorst,Gelderland,VBO,6.216355,52.069380
Dambroek,9,,,7223DT,Baak,Bronckhorst,Gelderland,VBO,6.221474,52.070639
Dambroek,11,A,,7223DT,Baak,Bronckhorst,Gelderland,VBO,6.222022,52.070910
Dambroek,11,,,7223DT,Baak,Bronckhorst,Gelderland,VBO,6.221552,52.070897
Dambroek,13,,,7223DT,Baak,Bronckhorst,Gelderland,VBO,6.221557,52.071100
Dambroek,21,,,7223DT,Baak,Bronckhorst,Gelderland,VBO,6.221917,52.071503
Dambroek,23,,,7223DT,Baak,Bronckhorst,Gelderland,VBO,6.221133,52.071793
Dambroek,25,,,7223DT,Baak,Bronckhorst,Gelderland,VBO,6.220624,52.071834
Dambroek,27,,,7223DT,Baak,Bronckhorst,Gelderland,VBO,6.219686,52.071360
Dambroek,29,,,7223DT,Baak,Bronckhorst,Gelderland,VBO,6.220096,52.071980
Dambroek,31,,,7223DT,Baak,Bronckhorst,Gelderland,VBO,6.220195,52.072178
Dambroek,35,,,7223DT,Baak,Bronckhorst,Gelderland,VBO,6.220229,52.072433
Dambroek,2,,,7223DV,Baak,Bronckhorst,Gelderland,VBO,6.223717,52.070801
Dambroek,6,,,7223DV,Baak,Bronckhorst,Gelderland,VBO,6.222736,52.070863
Dambroek,8,,,7223DV,Baak,Bronckhorst,Gelderland,VBO,6.223893,52.071182
Dambroek,10,A,,7223DV,Baak,Bronckhorst,Gelderland,VBO,6.223680,52.071581
Dambroek,10,,,7223DV,Baak,Bronckhorst,Gelderland,VBO,6.223662,52.071449
Dambroek,12,,,7223DV,Baak,Bronckhorst,Gelderland,VBO,6.222704,52.071604
Dambroek,14,,,7223DV,Baak,Bronckhorst,Gelderland,VBO,6.222787,52.071916
Dambroek,16,A,,7223DV,Baak,Bronckhorst,Gelderland,VBO,6.223671,52.072065
Dambroek,16,,,7223DV,Baak,Bronckhorst,Gelderland,VBO,6.222837,52.072059
Dambroek,20,,,7223DV,Baak,Bronckhorst,Gelderland,VBO,6.222645,52.072499
Dambroek,22,,,7223DV,Baak,Bronckhorst,Gelderland,VBO,6.221386,52.072764
Dambroek,24,,,7223DV,Baak,Bronckhorst,Gelderland,VBO,6.221994,52.072678
Rozenstraat,3,,,7223KA,Baak,Bronckhorst,Gelderland,VBO,6.248190,52.079572
Rozenstraat,5,A,,7223KA,Baak,Bronckhorst,Gelderland,VBO,6.248520,52.078843
Rozenstraat,5,B,,7223KA,Baak,Bronckhorst,Gelderland,VBO,6.248566,52.078507
Rozenstraat,5,,,7223KA,Baak,Bronckhorst,Gelderland,VBO,6.248614,52.078847
Rozenstraat,7,,,7223KA,Baak,Bronckhorst,Gelderland,VBO,6.248826,52.078337
Rozenstraat,9,,,7223KA,Baak,Bronckhorst,Gelderland,VBO,6.249159,52.077646
Rozenstraat,11,,,7223KA,Baak,Bronckhorst,Gelderland,VBO,6.249373,52.077156
Rozenstraat,13,,,7223KA,Baak,Bronckhorst,Gelderland,VBO,6.249385,52.077065
Rozenstraat,15,A,,7223KA,Baak,Bronckhorst,Gelderland,VBO,6.251446,52.074871
Rozenstraat,15,,,7223KA,Baak,Bronckhorst,Gelderland,VBO,6.251590,52.074958
Rozenstraat,17,A,,7223KA,Baak,Bronckhorst,Gelderland,VBO,6.251679,52.074208
Rozenstraat,17,,,7223KA,Baak,Bronckhorst,Gelderland,VBO,6.251532,52.074206
Walterslagweg,1,A,,7223KB,Baak,Bronckhorst,Gelderland,VBO,6.260969,52.072508
Walterslagweg,1,B,,7223KB,Baak,Bronckhorst,Gelderland,VBO,6.261103,52.072518
Walterslagweg,1,,,7223KB,Baak,Bronckhorst,Gelderland,VBO,6.261097,52.072458
Walterslagweg,2,A,,7223KB,Baak,Bronckhorst,Gelderland,VBO,6.258895,52.071248
Walterslagweg,2,,,7223KB,Baak,Bronckhorst,Gelderland,VBO,6.259090,52.071286
Walterslagweg,3,,,7223KB,Baak,Bronckhorst,Gelderland,VBO,6.266805,52.072711
Walterslagweg,4,A,,7223KB,Baak,Bronckhorst,Gelderland,VBO,6.262472,52.070478
Walterslagweg,4,,,7223KB,Baak,Bronckhorst,Gelderland,VBO,6.262363,52.070755
Walterslagweg,6,,,7223KB,Baak,Bronckhorst,Gelderland,VBO,6.269230,52.072910
Kerveldijk,1,,,7223KC,Baak,Bronckhorst,Gelderland,VBO,6.261764,52.066203
Kerveldijk,2,,,7223KC,Baak,Bronckhorst,Gelderland,VBO,6.259688,52.062432
Kerveldijk,4,,,7223KC,Baak,Bronckhorst,Gelderland,VBO,6.260161,52.062413
Vrendenbargsedijk,1,,,7223KD,Baak,Bronckhorst,Gelderland,VBO,6.236051,52.063922
Vrendenbargsedijk,2,A,,7223KD,Baak,Bronckhorst,Gelderland,VBO,6.239120,52.063691
Vrendenbargsedijk,2,,,7223KD,Baak,Bronckhorst,Gelderland,VBO,6.237473,52.063519
Vrendenbargsedijk,4,,,7223KD,Baak,Bronckhorst,Gelderland,VBO,6.246258,52.061986
Langendijk,1,A,,7223KE,Baak,Bronckhorst,Gelderland,VBO,6.239413,52.067916
Langendijk,1,,,7223KE,Baak,Bronckhorst,Gelderland,VBO,6.239482,52.067914
Langendijk,3,A,,7223KE,Baak,Bronckhorst,Gelderland,VBO,6.240504,52.063088
Langendijk,3,,,7223KE,Baak,Bronckhorst,Gelderland,VBO,6.239728,52.067018
Langendijk,4,,,7223KE,Baak,Bronckhorst,Gelderland,VBO,6.243741,52.059959
Langendijk,5,,,7223KE,Baak,Bronckhorst,Gelderland,VBO,6.240867,52.062920
Langendijk,6,,,7223KE,Baak,Bronckhorst,Gelderland,VBO,6.244402,52.058284
Langendijk,7,,,7223KE,Baak,Bronckhorst,Gelderland,VBO,6.243517,52.058565
Langendijk,8,,,7223KE,Baak,Bronckhorst,Gelderland,VBO,6.244727,52.057801
Dollemansstraat,1,A,,7223KG,Baak,Bronckhorst,Gelderland,VBO,6.226445,52.067720
Dollemansstraat,1,,,7223KG,Baak,Bronckhorst,Gelderland,VBO,6.224644,52.068441
Dollemansstraat,2,,,7223KG,Baak,Bronckhorst,Gelderland,VBO,6.224547,52.067596
Dollemansstraat,3,,,7223KG,Baak,Bronckhorst,Gelderland,VBO,6.228313,52.067548
Dollemansstraat,4,,,7223KG,Baak,Bronckhorst,Gelderland,VBO,6.226517,52.067077
Dollemansstraat,5,,,7223KG,Baak,Bronckhorst,Gelderland,VBO,6.232980,52.064112
Dollemansstraat,6,A,,7223KG,Baak,Bronckhorst,Gelderland,VBO,6.232045,52.064374
Dollemansstraat,6,,,7223KG,Baak,Bronckhorst,Gelderland,VBO,6.231901,52.064386
Dollemansstraat,7,,,7223KG,Baak,Bronckhorst,Gelderland,VBO,6.232883,52.063857
Dollemansstraat,8,,,7223KG,Baak,Bronckhorst,Gelderland,VBO,6.230491,52.064195
Dollemansstraat,9,A,,7223KG,Baak,Bronckhorst,Gelderland,VBO,6.232709,52.063624
Dollemansstraat,9,,,7223KG,Baak,Bronckhorst,Gelderland,VBO,6.232825,52.063607
Dollemansstraat,10,,,7223KG,Baak,Bronckhorst,Gelderland,VBO,6.231882,52.064082
Dollemansstraat,11,,,7223KH,Baak,Bronckhorst,Gelderland,VBO,6.232596,52.063168
Dollemansstraat,12,A,,7223KH,Baak,Bronckhorst,Gelderland,VBO,6.231063,52.061392
Dollemansstraat,12,,,7223KH,Baak,Bronckhorst,Gelderland,VBO,6.230963,52.061313
Dollemansstraat,15,A,,7223KH,Baak,Bronckhorst,Gelderland,VBO,6.232374,52.062492
Dollemansstraat,15,,,7223KH,Baak,Bronckhorst,Gelderland,VBO,6.232401,52.062557
Dollemansstraat,17,A,,7223KH,Baak,Bronckhorst,Gelderland,VBO,6.230274,52.059870
Dollemansstraat,17,,,7223KH,Baak,Bronckhorst,Gelderland,VBO,6.230386,52.059802
Bakermarksedijk,1,A,,7223KJ,Baak,Bronckhorst,Gelderland,VBO,6.234339,52.062101
Bakermarksedijk,1,,,7223KJ,Baak,Bronckhorst,Gelderland,VBO,6.235101,52.061421
Bakermarksedijk,2,A,,7223KJ,Baak,Bronckhorst,Gelderland,VBO,6.233582,52.061199
Bakermarksedijk,2,,,7223KJ,Baak,Bronckhorst,Gelderland,VBO,6.233591,52.061134
Bakermarksedijk,3,,,7223KJ,Baak,Bronckhorst,Gelderland,VBO,6.236511,52.061259
Bakermarksedijk,4,,,7223KJ,Baak,Bronckhorst,Gelderland,VBO,6.238559,52.059077
Bakermarksedijk,5,A,,7223KJ,Baak,Bronckhorst,Gelderland,VBO,6.237874,52.060747
Bakermarksedijk,5,,,7223KJ,Baak,Bronckhorst,Gelderland,VBO,6.237758,52.060783
Bakermarksedijk,6,,,7223KJ,Baak,Bronckhorst,Gelderland,VBO,6.240854,52.058072
Bakermarksedijk,7,,,7223KJ,Baak,Bronckhorst,Gelderland,VBO,6.238680,52.060729
Bakermarksedijk,8,,,7223KJ,Baak,Bronckhorst,Gelderland,VBO,6.240802,52.058002
Bakermarksedijk,9,A,,7223KJ,Baak,Bronckhorst,Gelderland,VBO,6.237544,52.061717
Bakermarksedijk,9,,,7223KJ,Baak,Bronckhorst,Gelderland,VBO,6.237075,52.062170
Bakermarksedijk,10,,,7223KJ,Baak,Bronckhorst,Gelderland,VBO,6.245341,52.054831
Bakermarksedijk,11,,,7223KJ,Baak,Bronckhorst,Gelderland,VBO,6.239565,52.061121
Bakermarksedijk,12,A,,7223KJ,Baak,Bronckhorst,Gelderland,VBO,6.246172,52.052956
Bakermarksedijk,12,,,7223KJ,Baak,Bronckhorst,Gelderland,VBO,6.245996,52.052955
Bakermarksedijk,13,,,7223KJ,Baak,Bronckhorst,Gelderland,VBO,6.239754,52.060725
Bakermarksedijk,14,,,7223KJ,Baak,Bronckhorst,Gelderland,VBO,6.248696,52.053039
Bakermarksedijk,15,A,,7223KJ,Baak,Bronckhorst,Gelderland,VBO,6.240142,52.060294
Bakermarksedijk,15,,,7223KJ,Baak,Bronckhorst,Gelderland,VBO,6.240168,52.060264
Bakermarksedijk,19,,,7223KJ,Baak,Bronckhorst,Gelderland,VBO,6.242357,52.058924
Bakermarksedijk,21,,,7223KJ,Baak,Bronckhorst,Gelderland,VBO,6.244956,52.057287
Broekstraat,1,,,7223KK,Baak,Bronckhorst,Gelderland,VBO,6.252556,52.063002
Broekstraat,2,A,,7223KK,Baak,Bronckhorst,Gelderland,VBO,6.248092,52.057429
Broekstraat,2,,,7223KK,Baak,Bronckhorst,Gelderland,VBO,6.248100,52.057326
Broekstraat,3,,,7223KK,Baak,Bronckhorst,Gelderland,VBO,6.253014,52.062170
Broekstraat,5,A,,7223KK,Baak,Bronckhorst,Gelderland,VBO,6.252511,52.059797
Broekstraat,5,,,7223KK,Baak,Bronckhorst,Gelderland,VBO,6.252509,52.059838
Broekstraat,7,A,,7223KK,Baak,Bronckhorst,Gelderland,VBO,6.252447,52.058722
Broekstraat,7,,,7223KK,Baak,Bronckhorst,Gelderland,VBO,6.252604,52.058714
Broekstraat,9,,,7223KK,Baak,Bronckhorst,Gelderland,VBO,6.254089,52.058160
Broekstraat,11,A,,7223KK,Baak,Bronckhorst,Gelderland,VBO,6.253799,52.057625
Broekstraat,11,,,7223KK,Baak,Bronckhorst,Gelderland,VBO,6.253680,52.057611
Broekstraat,13,,,7223KK,Baak,Bronckhorst,Gelderland,VBO,6.252664,52.056015
Beukenlaan,1,,,7223KL,Baak,Bronckhorst,Gelderland,VBO,6.234274,52.075373
Beukenlaan,2,A,,7223KL,Baak,Bronckhorst,Gelderland,VBO,6.233257,52.075525
Beukenlaan,2,,,7223KL,Baak,Bronckhorst,Gelderland,VBO,6.233157,52.075479
Beukenlaan,3,,,7223KL,Baak,Bronckhorst,Gelderland,VBO,6.234536,52.075319
Beukenlaan,4,,,7223KL,Baak,Bronckhorst,Gelderland,VBO,6.232924,52.074149
Beukenlaan,5,A,,7223KL,Baak,Bronckhorst,Gelderland,VBO,6.239812,52.073027
Beukenlaan,5,,,7223KL,Baak,Bronckhorst,Gelderland,VBO,6.239868,52.073085
Beukenlaan,6,,,7223KL,Baak,Bronckhorst,Gelderland,VBO,6.232368,52.073558
Beukenlaan,7,,,7223KL,Baak,Bronckhorst,Gelderland,VBO,6.242144,52.072116
Beukenlaan,8,A,,7223KL,Baak,Bronckhorst,Gelderland,VBO,6.233178,52.071327
Beukenlaan,8,,,7223KL,Baak,Bronckhorst,Gelderland,VBO,6.232612,52.073519
Beukenlaan,9,,,7223KL,Baak,Bronckhorst,Gelderland,VBO,6.242673,52.071281
Beukenlaan,10,,,7223KL,Baak,Bronckhorst,Gelderland,VBO,6.237697,52.071771
Beukenlaan,11,A,,7223KL,Baak,Bronckhorst,Gelderland,VBO,6.241239,52.070342
Beukenlaan,11,,,7223KL,Baak,Bronckhorst,Gelderland,VBO,6.241120,52.070388
Beukenlaan,12,,,7223KL,Baak,Bronckhorst,Gelderland,VBO,6.239029,52.070884
Beukenlaan,14,,,7223KL,Baak,Bronckhorst,Gelderland,VBO,6.239113,52.070769
Beukenlaan,16,A,,7223KL,Baak,Bronckhorst,Gelderland,VBO,6.241044,52.069901
Beukenlaan,16,,,7223KL,Baak,Bronckhorst,Gelderland,VBO,6.241108,52.069872
Beukenlaan,18,A,,7223KL,Baak,Bronckhorst,Gelderland,VBO,6.249810,52.063548
Beukenlaan,18,,,7223KL,Baak,Bronckhorst,Gelderland,VBO,6.250043,52.063718
Beukenlaan,20,,,7223KL,Baak,Bronckhorst,Gelderland,VBO,6.250216,52.063773
Schooldijk,4,,,7223KM,Baak,Bronckhorst,Gelderland,VBO,6.233419,52.069968
Schooldijk,6,,,7223KM,Baak,Bronckhorst,Gelderland,VBO,6.232445,52.068438
Bonte Koeweg,2,,,7223KP,Baak,Bronckhorst,Gelderland,VBO,6.203427,52.084909
Steenderseweg,2,,,7223LA,Baak,Bronckhorst,Gelderland,VBO,6.224288,52.076609
Steenderseweg,3,,,7223LA,Baak,Bronckhorst,Gelderland,VBO,6.224321,52.076219
Steenderseweg,4,,,7223LA,Baak,Bronckhorst,Gelderland,VBO,6.224216,52.076523
Steenderseweg,6,,,7223LA,Baak,Bronckhorst,Gelderland,VBO,6.223769,52.076302
Steenderseweg,8,,,7223LA,Baak,Bronckhorst,Gelderland,VBO,6.223634,52.076280
Steenderseweg,10,,,7223LA,Baak,Bronckhorst,Gelderland,VBO,6.223813,52.076609
Pastoor Teubnerstraat,1,,,7223LB,Baak,Bronckhorst,Gelderland,VBO,6.225825,52.076229
Pastoor Teubnerstraat,3,,,7223LB,Baak,Bronckhorst,Gelderland,VBO,6.225857,52.076099
Pastoor Teubnerstraat,5,,,7223LB,Baak,Bronckhorst,Gelderland,VBO,6.225864,52.075968
van der Heijdenstraat,1,,,7223LC,Baak,Bronckhorst,Gelderland,VBO,6.226254,52.076009
van der Heijdenstraat,3,,,7223LC,Baak,Bronckhorst,Gelderland,VBO,6.226527,52.075995
van der Heijdenstraat,5,,,7223LC,Baak,Bronckhorst,Gelderland,VBO,6.226773,52.076002
van der Heijdenstraat,7,,,7223LC,Baak,Bronckhorst,Gelderland,VBO,6.227100,52.076012
van der Heijdenstraat,9,,,7223LC,Baak,Bronckhorst,Gelderland,VBO,6.227338,52.076002
van der Heijdenstraat,11,,,7223LC,Baak,Bronckhorst,Gelderland,VBO,6.227551,52.075994
van der Heijdenstraat,13,,,7223LC,Baak,Bronckhorst,Gelderland,VBO,6.227774,52.075997
van der Heijdenstraat,15,,,7223LC,Baak,Bronckhorst,Gelderland,VBO,6.227996,52.076002
van der Heijdenstraat,17,,,7223LC,Baak,Bronckhorst,Gelderland,VBO,6.228226,52.076007
van der Heijdenstraat,19,,,7223LC,Baak,Bronckhorst,Gelderland,VBO,6.228436,52.076012
van der Heijdenstraat,21,,,7223LC,Baak,Bronckhorst,Gelderland,VBO,6.228549,52.076009
van der Heijdenstraat,23,,,7223LC,Baak,Bronckhorst,Gelderland,VBO,6.228909,52.076609
van der Heijdenstraat,25,,,7223LC,Baak,Bronckhorst,Gelderland,VBO,6.229174,52.076789
Helmichstraat,1,,,7223LD,Baak,Bronckhorst,Gelderland,VBO,6.225854,52.076521
Helmichstraat,3,,,7223LD,Baak,Bronckhorst,Gelderland,VBO,6.226069,52.076532
Helmichstraat,5,,,7223LD,Baak,Bronckhorst,Gelderland,VBO,6.226155,52.076539
Helmichstraat,7,,,7223LD,Baak,Bronckhorst,Gelderland,VBO,6.226241,52.076545
Helmichstraat,9,,,7223LD,Baak,Bronckhorst,Gelderland,VBO,6.226482,52.076561
Helmichstraat,11,,,7223LD,Baak,Bronckhorst,Gelderland,VBO,6.226935,52.076611
Helmichstraat,13,,,7223LD,Baak,Bronckhorst,Gelderland,VBO,6.227019,52.076614
Helmichstraat,15,,,7223LD,Baak,Bronckhorst,Gelderland,VBO,6.227204,52.076633
Helmichstraat,17,,,7223LD,Baak,Bronckhorst,Gelderland,VBO,6.227293,52.076639
Helmichstraat,19,,,7223LD,Baak,Bronckhorst,Gelderland,VBO,6.227381,52.076642
Helmichstraat,21,,,7223LD,Baak,Bronckhorst,Gelderland,VBO,6.227495,52.076653
Helmichstraat,23,,,7223LD,Baak,Bronckhorst,Gelderland,VBO,6.227657,52.076665
Helmichstraat,25,,,7223LD,Baak,Bronckhorst,Gelderland,VBO,6.227745,52.076671
Helmichstraat,27,,,7223LD,Baak,Bronckhorst,Gelderland,VBO,6.227934,52.076681
Helmichstraat,29,,,7223LD,Baak,Bronckhorst,Gelderland,VBO,6.228022,52.076689
Helmichstraat,31,,,7223LD,Baak,Bronckhorst,Gelderland,VBO,6.228111,52.076692
Helmichstraat,33,,,7223LD,Baak,Bronckhorst,Gelderland,VBO,6.228483,52.076647
Helmichstraat,35,,,7223LD,Baak,Bronckhorst,Gelderland,VBO,6.228699,52.076607
Helmichstraat,2,,,7223LE,Baak,Bronckhorst,Gelderland,VBO,6.226142,52.076278
Helmichstraat,4,,,7223LE,Baak,Bronckhorst,Gelderland,VBO,6.226235,52.076289
Helmichstraat,6,,,7223LE,Baak,Bronckhorst,Gelderland,VBO,6.226430,52.076308
Helmichstraat,8,,,7223LE,Baak,Bronckhorst,Gelderland,VBO,6.226529,52.076316
Helmichstraat,10,,,7223LE,Baak,Bronckhorst,Gelderland,VBO,6.226718,52.076313
Helmichstraat,12,,,7223LE,Baak,Bronckhorst,Gelderland,VBO,6.227076,52.076370
Helmichstraat,14,,,7223LE,Baak,Bronckhorst,Gelderland,VBO,6.227266,52.076396
Helmichstraat,16,,,7223LE,Baak,Bronckhorst,Gelderland,VBO,6.227363,52.076403
Helmichstraat,18,,,7223LE,Baak,Bronckhorst,Gelderland,VBO,6.227563,52.076427
Helmichstraat,20,,,7223LE,Baak,Bronckhorst,Gelderland,VBO,6.227753,52.076441
Helmichstraat,22,,,7223LE,Baak,Bronckhorst,Gelderland,VBO,6.227846,52.076446
Helmichstraat,24,,,7223LE,Baak,Bronckhorst,Gelderland,VBO,6.228024,52.076455
Helmichstraat,26,,,7223LE,Baak,Bronckhorst,Gelderland,VBO,6.228121,52.076464
Helmichstraat,28,,,7223LE,Baak,Bronckhorst,Gelderland,VBO,6.228323,52.076440
Helmichstraat,30,,,7223LE,Baak,Bronckhorst,Gelderland,VBO,6.228411,52.076419
Helmichstraat,32,,,7223LE,Baak,Bronckhorst,Gelderland,VBO,6.228591,52.076348
Helmichstraat,34,,,7223LE,Baak,Bronckhorst,Gelderland,VBO,6.228790,52.076308
Wichmondseweg,1,,,7223LG,Baak,Bronckhorst,Gelderland,VBO,6.225707,52.077107
Wichmondseweg,3,,,7223LG,Baak,Bronckhorst,Gelderland,VBO,6.225791,52.077126
Wichmondseweg,5,,,7223LG,Baak,Bronckhorst,Gelderland,VBO,6.225979,52.077175
Wichmondseweg,7,,,7223LG,Baak,Bronckhorst,Gelderland,VBO,6.226077,52.077198
Wichmondseweg,2,,,7223LH,Baak,Bronckhorst,Gelderland,VBO,6.225884,52.076820
Wichmondseweg,4,A,,7223LH,Baak,Bronckhorst,Gelderland,VBO,6.226470,52.076919
Wichmondseweg,4,,,7223LH,Baak,Bronckhorst,Gelderland,VBO,6.226207,52.076886
Wichmondseweg,6,,,7223LH,Baak,Bronckhorst,Gelderland,VBO,6.226786,52.077033
Wichmondseweg,8,,,7223LH,Baak,Bronckhorst,Gelderland,VBO,6.226879,52.077059
Wichmondseweg,9,,,7223LH,Baak,Bronckhorst,Gelderland,VBO,6.226517,52.077330
Wichmondseweg,10,,,7223LH,Baak,Bronckhorst,Gelderland,VBO,6.226985,52.077084
Wichmondseweg,11,A,,7223LH,Baak,Bronckhorst,Gelderland,VBO,6.226688,52.077399
Wichmondseweg,11,B,,7223LH,Baak,Bronckhorst,Gelderland,VBO,6.226800,52.077415
Wichmondseweg,11,C,,7223LH,Baak,Bronckhorst,Gelderland,VBO,6.226947,52.077464
Wichmondseweg,11,D,,7223LH,Baak,Bronckhorst,Gelderland,VBO,6.227033,52.077481
Wichmondseweg,11,E,,7223LH,Baak,Bronckhorst,Gelderland,VBO,6.227107,52.077494
Wichmondseweg,11,F,,7223LH,Baak,Bronckhorst,Gelderland,VBO,6.227187,52.077511
Wichmondseweg,13,,,7223LH,Baak,Bronckhorst,Gelderland,VBO,6.227504,52.077500
Wichmondseweg,14,,,7223LH,Baak,Bronckhorst,Gelderland,VBO,6.227221,52.077126
Wichmondseweg,15,,,7223LH,Baak,Bronckhorst,Gelderland,VBO,6.227882,52.077547
Wichmondseweg,16,,,7223LH,Baak,Bronckhorst,Gelderland,VBO,6.227350,52.077152
Wichmondseweg,17,A,,7223LH,Baak,Bronckhorst,Gelderland,VBO,6.229657,52.077278
Wichmondseweg,17,,,7223LH,Baak,Bronckhorst,Gelderland,VBO,6.229316,52.077681
Wichmondseweg,18,,,7223LH,Baak,Bronckhorst,Gelderland,VBO,6.227506,52.077174
Wichmondseweg,19,,,7223LH,Baak,Bronckhorst,Gelderland,VBO,6.232664,52.077621
Wichmondseweg,20,,,7223LH,Baak,Bronckhorst,Gelderland,VBO,6.227601,52.077186
Wichmondseweg,22,,,7223LH,Baak,Bronckhorst,Gelderland,VBO,6.227850,52.077197
Wichmondseweg,24,,,7223LH,Baak,Bronckhorst,Gelderland,VBO,6.228148,52.077203
Wichmondseweg,26,,,7223LH,Baak,Bronckhorst,Gelderland,VBO,6.228246,52.077194
Wichmondseweg,28,,,7223LH,Baak,Bronckhorst,Gelderland,VBO,6.228346,52.077179
Wichmondseweg,30,,,7223LH,Baak,Bronckhorst,Gelderland,VBO,6.228925,52.077035
Pastoor Bouwhuisstraat,1,,,7223LJ,Baak,Bronckhorst,Gelderland,VBO,6.225932,52.077451
Pastoor Bouwhuisstraat,3,,,7223LJ,Baak,Bronckhorst,Gelderland,VBO,6.225938,52.077515
Pastoor Bouwhuisstraat,4,,,7223LJ,Baak,Bronckhorst,Gelderland,VBO,6.226456,52.078017
Pastoor Bouwhuisstraat,5,,,7223LJ,Baak,Bronckhorst,Gelderland,VBO,6.225948,52.077625
Pastoor Bouwhuisstraat,6,,,7223LJ,Baak,Bronckhorst,Gelderland,VBO,6.226482,52.078066
Pastoor Bouwhuisstraat,7,,,7223LJ,Baak,Bronckhorst,Gelderland,VBO,6.225955,52.077689
Pastoor Bouwhuisstraat,8,,,7223LJ,Baak,Bronckhorst,Gelderland,VBO,6.226509,52.078119
Pastoor Bouwhuisstraat,9,,,7223LJ,Baak,Bronckhorst,Gelderland,VBO,6.225959,52.077800
Pastoor Bouwhuisstraat,10,,,7223LJ,Baak,Bronckhorst,Gelderland,VBO,6.226533,52.078174
Pastoor Bouwhuisstraat,11,,,7223LJ,Baak,Bronckhorst,Gelderland,VBO,6.225963,52.077862
Pastoor Bouwhuisstraat,12,,,7223LJ,Baak,Bronckhorst,Gelderland,VBO,6.226557,52.078222
Pastoor Bouwhuisstraat,13,,,7223LJ,Baak,Bronckhorst,Gelderland,VBO,6.225982,52.077975
Pastoor Bouwhuisstraat,14,,,7223LJ,Baak,Bronckhorst,Gelderland,VBO,6.226593,52.078325
Pastoor Bouwhuisstraat,15,,,7223LJ,Baak,Bronckhorst,Gelderland,VBO,6.225988,52.078032
Pastoor Bouwhuisstraat,16,,,7223LJ,Baak,Bronckhorst,Gelderland,VBO,6.226571,52.078371
Pastoor Bouwhuisstraat,17,,,7223LJ,Baak,Bronckhorst,Gelderland,VBO,6.226015,52.078231
Pastoor Bouwhuisstraat,18,,,7223LJ,Baak,Bronckhorst,Gelderland,VBO,6.226537,52.078449
Pastoor Bouwhuisstraat,19,,,7223LJ,Baak,Bronckhorst,Gelderland,VBO,6.226019,52.078288
Pastoor Bouwhuisstraat,20,,,7223LJ,Baak,Bronckhorst,Gelderland,VBO,6.226555,52.078416
Pastoor Bouwhuisstraat,21,,,7223LJ,Baak,Bronckhorst,Gelderland,VBO,6.226025,52.078344
Pastoor Bouwhuisstraat,22,,,7223LJ,Baak,Bronckhorst,Gelderland,VBO,6.226558,52.078400
Pastoor Bouwhuisstraat,23,,,7223LJ,Baak,Bronckhorst,Gelderland,VBO,6.226027,52.078448
Pastoor Bouwhuisstraat,24,,,7223LJ,Baak,Bronckhorst,Gelderland,VBO,6.226577,52.078350
Pastoor Bouwhuisstraat,25,,,7223LJ,Baak,Bronckhorst,Gelderland,VBO,6.226035,52.078502
Pastoor Bouwhuisstraat,27,,,7223LJ,Baak,Bronckhorst,Gelderland,VBO,6.226044,52.078555
Pastoor Bouwhuisstraat,29,,,7223LJ,Baak,Bronckhorst,Gelderland,VBO,6.226051,52.078663
Pastoor Bouwhuisstraat,31,,,7223LJ,Baak,Bronckhorst,Gelderland,VBO,6.226055,52.078719
Pastoor Bouwhuisstraat,33,,,7223LJ,Baak,Bronckhorst,Gelderland,VBO,6.226061,52.078777
Pastoriestraat,1,A,,7223LK,Baak,Bronckhorst,Gelderland,VBO,6.230791,52.077510
Pastoriestraat,1,B,,7223LK,Baak,Bronckhorst,Gelderland,VBO,6.230491,52.077704
Pastoriestraat,1,,,7223LK,Baak,Bronckhorst,Gelderland,VBO,6.230947,52.077410
Pastoriestraat,2,,,7223LK,Baak,Bronckhorst,Gelderland,VBO,6.228804,52.078054
Pastoriestraat,3,,,7223LK,Baak,Bronckhorst,Gelderland,VBO,6.230268,52.077828
Pastoriestraat,4,,,7223LK,Baak,Bronckhorst,Gelderland,VBO,6.228746,52.077979
Pastoriestraat,5,,,7223LK,Baak,Bronckhorst,Gelderland,VBO,6.229909,52.077917
Pastoriestraat,6,,,7223LK,Baak,Bronckhorst,Gelderland,VBO,6.228661,52.077850
Pastoriestraat,8,,,7223LK,Baak,Bronckhorst,Gelderland,VBO,6.228622,52.077793
Pastoriestraat,10,,,7223LK,Baak,Bronckhorst,Gelderland,VBO,6.228374,52.077581
Pastoriestraat,12,,,7223LK,Baak,Bronckhorst,Gelderland,VBO,6.228339,52.077534
Pastoriestraat,14,,,7223LK,Baak,Bronckhorst,Gelderland,VBO,6.228285,52.077488
De Veersweg,1,,,7223LL,Baak,Bronckhorst,Gelderland,VBO,6.239679,52.080597
De Veersweg,2,A,,7223LL,Baak,Bronckhorst,Gelderland,VBO,6.241648,52.081669
De Veersweg,2,,,7223LL,Baak,Bronckhorst,Gelderland,VBO,6.241655,52.081733
De Veersweg,3,,,7223LL,Baak,Bronckhorst,Gelderland,VBO,6.240068,52.082243
De Veersweg,4,A,,7223LL,Baak,Bronckhorst,Gelderland,VBO,6.241144,52.083220
De Veersweg,4,,,7223LL,Baak,Bronckhorst,Gelderland,VBO,6.241345,52.083100
De Veersweg,5,A,,7223LL,Baak,Bronckhorst,Gelderland,VBO,6.239910,52.083216
De Veersweg,5,,,7223LL,Baak,Bronckhorst,Gelderland,VBO,6.240135,52.083083
De Veersweg,6,,,7223LL,Baak,Bronckhorst,Gelderland,VBO,6.241475,52.083793
Vordenseweg,1,,,7223LM,Baak,Bronckhorst,Gelderland,VBO,6.242007,52.080283
Vordenseweg,2,,,7223LM,Baak,Bronckhorst,Gelderland,VBO,6.246830,52.080461
Vordenseweg,3,,,7223LM,Baak,Bronckhorst,Gelderland,VBO,6.247898,52.084854
Vordenseweg,4,,,7223LM,Baak,Bronckhorst,Gelderland,VBO,6.249728,52.084159
Vordenseweg,4,,,7223LM,Baak,Bronckhorst,Gelderland,VBO,6.249744,52.084439
Vordenseweg,6,,,7223LM,Baak,Bronckhorst,Gelderland,VBO,6.249660,52.084878
Toverstraat,1,,,7223LN,Baak,Bronckhorst,Gelderland,VBO,6.252473,52.082862
Toverstraat,3,A,,7223LN,Baak,Bronckhorst,Gelderland,VBO,6.257710,52.066968
Toverstraat,3,,,7223LN,Baak,Bronckhorst,Gelderland,VBO,6.258019,52.067089
Toverstraat,5,,,7223LN,Baak,Bronckhorst,Gelderland,VBO,6.254939,52.065933
Toverstraat,7,,,7223LN,Baak,Bronckhorst,Gelderland,VBO,6.253757,52.064773
Toverstraat,2,,,7223LP,Baak,Bronckhorst,Gelderland,VBO,6.249764,52.083283
Toverstraat,4,,,7223LP,Baak,Bronckhorst,Gelderland,VBO,6.256068,52.080020
Toverstraat,6,A,,7223LP,Baak,Bronckhorst,Gelderland,VBO,6.256515,52.078725
Toverstraat,6,,,7223LP,Baak,Bronckhorst,Gelderland,VBO,6.255815,52.079317
Toverstraat,8,,,7223LP,Baak,Bronckhorst,Gelderland,VBO,6.257377,52.076246
Toverstraat,10,A,,7223LP,Baak,Bronckhorst,Gelderland,VBO,6.256400,52.070976
Toverstraat,10,,,7223LP,Baak,Bronckhorst,Gelderland,VBO,6.257294,52.072087
Toverstraat,12,,,7223LP,Baak,Bronckhorst,Gelderland,VBO,6.256308,52.070680
Toverstraat,14,,,7223LP,Baak,Bronckhorst,Gelderland,VBO,6.255285,52.069926
Toverstraat,16,A,,7223LP,Baak,Bronckhorst,Gelderland,VBO,6.254974,52.069144
Toverstraat,16,,,7223LP,Baak,Bronckhorst,Gelderland,VBO,6.255142,52.069278
Toverstraat,18,A,,7223LP,Baak,Bronckhorst,Gelderland,VBO,6.254606,52.068305
Toverstraat,18,,,7223LP,Baak,Bronckhorst,Gelderland,VBO,6.254633,52.068377
Hofstraat,1,,,7223LR,Baak,Bronckhorst,Gelderland,VBO,6.221460,52.074222
Hofstraat,2,,,7223LR,Baak,Bronckhorst,Gelderland,VBO,6.218963,52.072121
Hofstraat,3,,,7223LR,Baak,Bronckhorst,Gelderland,VBO,6.220120,52.072976
Hofstraat,4,,,7223LR,Baak,Bronckhorst,Gelderland,VBO,6.218744,52.071688
Hofstraat,5,,,7223LR,Baak,Bronckhorst,Gelderland,VBO,6.219837,52.072539
Hofstraat,6,A,,7223LR,Baak,Bronckhorst,Gelderland,VBO,6.217566,52.071860
Hofstraat,6,,,7223LR,Baak,Bronckhorst,Gelderland,VBO,6.217857,52.071716
Hofstraat,8,,,7223LR,Baak,Bronckhorst,Gelderland,VBO,6.218087,52.071174
't Baaken,1,,,7223LS,Baak,Bronckhorst,Gelderland,VBO,6.228026,52.077713
't Baaken,2,,,7223LS,Baak,Bronckhorst,Gelderland,VBO,6.228314,52.077867
't Baaken,3,,,7223LS,Baak,Bronckhorst,Gelderland,VBO,6.227950,52.077754
't Baaken,4,,,7223LS,Baak,Bronckhorst,Gelderland,VBO,6.228230,52.077878
Leeuwencamp,1,,,7223LT,Baak,Bronckhorst,Gelderland,VBO,6.226981,52.078069
Leeuwencamp,3,,,7223LT,Baak,Bronckhorst,Gelderland,VBO,6.227004,52.078120
Leeuwencamp,5,,,7223LT,Baak,Bronckhorst,Gelderland,VBO,6.227050,52.078219
Leeuwencamp,7,,,7223LT,Baak,Bronckhorst,Gelderland,VBO,6.227068,52.078264
Leeuwencamp,9,,,7223LT,Baak,Bronckhorst,Gelderland,VBO,6.227076,52.078369
Leeuwencamp,11,,,7223LT,Baak,Bronckhorst,Gelderland,VBO,6.227048,52.078424
Leeuwencamp,13,,,7223LT,Baak,Bronckhorst,Gelderland,VBO,6.227015,52.078506
Leeuwencamp,15,,,7223LT,Baak,Bronckhorst,Gelderland,VBO,6.226994,52.078565
Leeuwencamp,17,,,7223LT,Baak,Bronckhorst,Gelderland,VBO,6.226712,52.078638
Leeuwencamp,19,,,7223LT,Baak,Bronckhorst,Gelderland,VBO,6.226625,52.078638
Leeuwencamp,21,,,7223LT,Baak,Bronckhorst,Gelderland,VBO,6.226537,52.078637
Leeuwencamp,23,,,7223LT,Baak,Bronckhorst,Gelderland,VBO,6.226448,52.078636
Leeuwencamp,2,,,7223LV,Baak,Bronckhorst,Gelderland,VBO,6.227448,52.078416
Leeuwencamp,4,,,7223LV,Baak,Bronckhorst,Gelderland,VBO,6.227429,52.078461
Leeuwencamp,6,,,7223LV,Baak,Bronckhorst,Gelderland,VBO,6.227400,52.078575
Leeuwencamp,8,,,7223LV,Baak,Bronckhorst,Gelderland,VBO,6.227373,52.078627
Leeuwencamp,10,,,7223LV,Baak,Bronckhorst,Gelderland,VBO,6.227302,52.078735
Leeuwencamp,12,,,7223LV,Baak,Bronckhorst,Gelderland,VBO,6.227205,52.078767
Leeuwencamp,14,,,7223LV,Baak,Bronckhorst,Gelderland,VBO,6.227062,52.078812
Leeuwencamp,16,,,7223LV,Baak,Bronckhorst,Gelderland,VBO,6.226954,52.078846
Leeuwencamp,18,,,7223LV,Baak,Bronckhorst,Gelderland,VBO,6.226823,52.078889
Leeuwencamp,20,,,7223LV,Baak,Bronckhorst,Gelderland,VBO,6.226729,52.078919
Leeuwencamp,22,,,7223LV,Baak,Bronckhorst,Gelderland,VBO,6.226519,52.078962
Bobbinkstraat,2,A,,7223LW,Baak,Bronckhorst,Gelderland,VBO,6.227204,52.077893
Bobbinkstraat,2,,,7223LW,Baak,Bronckhorst,Gelderland,VBO,6.226622,52.077735
Bobbinkstraat,4,,,7223LW,Baak,Bronckhorst,Gelderland,VBO,6.227307,52.077908
Bobbinkstraat,6,,,7223LW,Baak,Bronckhorst,Gelderland,VBO,6.227456,52.077929
Bobbinkstraat,8,,,7223LW,Baak,Bronckhorst,Gelderland,VBO,6.227554,52.077945
Bobbinkstraat,10,,,7223LW,Baak,Bronckhorst,Gelderland,VBO,6.227667,52.077966
Bobbinkstraat,12,,,7223LW,Baak,Bronckhorst,Gelderland,VBO,6.227789,52.077983
Bobbinkstraat,14,,,7223LW,Baak,Bronckhorst,Gelderland,VBO,6.228024,52.078046
Bobbinkstraat,16,,,7223LW,Baak,Bronckhorst,Gelderland,VBO,6.228104,52.078072
Bobbinkstraat,18,,,7223LW,Baak,Bronckhorst,Gelderland,VBO,6.228177,52.078094
Bobbinkstraat,20,,,7223LW,Baak,Bronckhorst,Gelderland,VBO,6.228327,52.078129
Bobbinkstraat,22,,,7223LW,Baak,Bronckhorst,Gelderland,VBO,6.228404,52.078154
Bobbinkstraat,26,,,7223LW,Baak,Bronckhorst,Gelderland,VBO,6.228594,52.078337
Bobbinkstraat,28,,,7223LW,Baak,Bronckhorst,Gelderland,VBO,6.228694,52.078304
Bobbinkstraat,30,,,7223LW,Baak,Bronckhorst,Gelderland,VBO,6.228830,52.078253
Bobbinkstraat,32,,,7223LW,Baak,Bronckhorst,Gelderland,VBO,6.228954,52.078221
Bobbinkstraat,1,,,7223LX,Baak,Bronckhorst,Gelderland,VBO,6.227853,52.078287
Bobbinkstraat,3,,,7223LX,Baak,Bronckhorst,Gelderland,VBO,6.228047,52.078354
Bobbinkstraat,5,,,7223LX,Baak,Bronckhorst,Gelderland,VBO,6.228272,52.078505
Bobbinkstraat,7,,,7223LX,Baak,Bronckhorst,Gelderland,VBO,6.228461,52.079095
L. Dolfingweg,4,,,7223LZ,Baak,Bronckhorst,Gelderland,VBO,6.220573,52.074217
L. Dolfingweg,6,,,7223LZ,Baak,Bronckhorst,Gelderland,VBO,6.220908,52.074241
L. Dolfingweg,8,A,,7223LZ,Baak,Bronckhorst,Gelderland,VBO,6.222473,52.075175
L. Dolfingweg,8,B,,7223LZ,Baak,Bronckhorst,Gelderland,VBO,6.222541,52.075202
L. Dolfingweg,8,,,7223LZ,Baak,Bronckhorst,Gelderland,VBO,6.222475,52.075048
Holtslagweg,1,,,7223NA,Baak,Bronckhorst,Gelderland,VBO,6.242715,52.057825
Holtslagweg,4,A,,7223NA,Baak,Bronckhorst,Gelderland,VBO,6.241434,52.054397
Holtslagweg,4,,,7223NA,Baak,Bronckhorst,Gelderland,VBO,6.241642,52.054383
Holtslagweg,6,A,,7223NA,Baak,Bronckhorst,Gelderland,VBO,6.242203,52.055703
Holtslagweg,6,,,7223NA,Baak,Bronckhorst,Gelderland,VBO,6.242166,52.055640
Holtslagweg,8,,,7223NA,Baak,Bronckhorst,Gelderland,VBO,6.242741,52.057005
