openbareruimtenaam,huisnummer,huisletter,huisnummertoevoeging,postcode,woonplaatsnaam,gemeentenaam,provincienaam,typeadresseerbaarobject,longitude,latitude
Kruisbrinkseweg,1,,,7227DA,Toldijk,Bronckhorst,Gelderland,VBO,6.220582,52.053505
Kruisbrinkseweg,2,,,7227DA,Toldijk,Bronckhorst,Gelderland,VBO,6.221308,52.053772
Kruisbrinkseweg,3,,,7227DA,Toldijk,Bronckhorst,Gelderland,VBO,6.220322,52.053625
Kruisbrinkseweg,4,,,7227DA,Toldijk,Bronckhorst,Gelderland,VBO,6.220937,52.053844
Kruisbrinkseweg,5,,,7227DA,Toldijk,Bronckhorst,Gelderland,VBO,6.216447,52.054292
Kruisbrinkseweg,6,,,7227DA,Toldijk,Bronckhorst,Gelderland,VBO,6.220546,52.053922
Kruisbrinkseweg,7,,,7227DA,Toldijk,Bronckhorst,Gelderland,VBO,6.215193,52.054465
Kruisbrinkseweg,8,,,7227DA,Toldijk,Bronckhorst,Gelderland,VBO,6.220269,52.053958
Kruisbrinkseweg,10,,,7227DA,Toldijk,Bronckhorst,Gelderland,VBO,6.220045,52.053998
Kruisbrinkseweg,12,,,7227DA,Toldijk,Bronckhorst,Gelderland,VBO,6.219718,52.054110
Kruisbrinkseweg,14,A,,7227DA,Toldijk,Bronckhorst,Gelderland,VBO,6.218864,52.054224
Kruisbrinkseweg,14,,,7227DA,Toldijk,Bronckhorst,Gelderland,VBO,6.219157,52.054165
Kruisbrinkseweg,16,A,,7227DA,Toldijk,Bronckhorst,Gelderland,VBO,6.217556,52.054487
Kruisbrinkseweg,16,,,7227DA,Toldijk,Bronckhorst,Gelderland,VBO,6.217637,52.054485
Kruisbrinkseweg,18,,,7227DA,Toldijk,Bronckhorst,Gelderland,VBO,6.216531,52.054762
Kruisbrinkseweg,20,A,,7227DA,Toldijk,Bronckhorst,Gelderland,VBO,6.213480,52.056861
Kruisbrinkseweg,20,,,7227DA,Toldijk,Bronckhorst,Gelderland,VBO,6.213547,52.056852
Wethouder Massinkstraat,1,,,7227DB,Toldijk,Bronckhorst,Gelderland,VBO,6.219602,52.055624
Wethouder Massinkstraat,3,,,7227DB,Toldijk,Bronckhorst,Gelderland,VBO,6.219535,52.055506
Wethouder Massinkstraat,5,,,7227DB,Toldijk,Bronckhorst,Gelderland,VBO,6.219424,52.055371
Wethouder Massinkstraat,7,,,7227DB,Toldijk,Bronckhorst,Gelderland,VBO,6.219264,52.055142
Wethouder Massinkstraat,9,,,7227DB,Toldijk,Bronckhorst,Gelderland,VBO,6.219232,52.055090
Wethouder Massinkstraat,11,,,7227DB,Toldijk,Bronckhorst,Gelderland,VBO,6.219157,52.054992
Wethouder Massinkstraat,13,,,7227DB,Toldijk,Bronckhorst,Gelderland,VBO,6.219131,52.054943
Wethouder Massinkstraat,15,,,7227DB,Toldijk,Bronckhorst,Gelderland,VBO,6.219097,52.054841
Wethouder Massinkstraat,17,,,7227DB,Toldijk,Bronckhorst,Gelderland,VBO,6.219066,52.054791
Wethouder Massinkstraat,19,,,7227DB,Toldijk,Bronckhorst,Gelderland,VBO,6.219033,52.054747
Wethouder Massinkstraat,21,,,7227DB,Toldijk,Bronckhorst,Gelderland,VBO,6.218961,52.054642
Wethouder Massinkstraat,23,,,7227DB,Toldijk,Bronckhorst,Gelderland,VBO,6.218934,52.054593
Wethouder Massinkstraat,25,,,7227DB,Toldijk,Bronckhorst,Gelderland,VBO,6.218835,52.054501
Wethouder Massinkstraat,27,,,7227DB,Toldijk,Bronckhorst,Gelderland,VBO,6.218798,52.054455
Wethouder Massinkstraat,29,,,7227DB,Toldijk,Bronckhorst,Gelderland,VBO,6.218692,52.054267
Russerweg,1,,,7227DC,Toldijk,Bronckhorst,Gelderland,VBO,6.221603,52.055591
Russerweg,3,,,7227DC,Toldijk,Bronckhorst,Gelderland,VBO,6.221510,52.055588
Russerweg,5,,,7227DC,Toldijk,Bronckhorst,Gelderland,VBO,6.221291,52.055581
Russerweg,7,,,7227DC,Toldijk,Bronckhorst,Gelderland,VBO,6.221201,52.055577
Russerweg,9,,,7227DC,Toldijk,Bronckhorst,Gelderland,VBO,6.220941,52.055567
Russerweg,11,,,7227DC,Toldijk,Bronckhorst,Gelderland,VBO,6.220858,52.055563
Russerweg,13,,,7227DC,Toldijk,Bronckhorst,Gelderland,VBO,6.220606,52.055534
Russerweg,15,,,7227DC,Toldijk,Bronckhorst,Gelderland,VBO,6.220455,52.055372
Russerweg,17,,,7227DC,Toldijk,Bronckhorst,Gelderland,VBO,6.220415,52.055312
Russerweg,19,,,7227DC,Toldijk,Bronckhorst,Gelderland,VBO,6.220323,52.055182
Russerweg,21,,,7227DC,Toldijk,Bronckhorst,Gelderland,VBO,6.220288,52.055130
Russerweg,23,,,7227DC,Toldijk,Bronckhorst,Gelderland,VBO,6.220937,52.054996
Russerweg,25,,,7227DC,Toldijk,Bronckhorst,Gelderland,VBO,6.221018,52.054558
Russerweg,27,,,7227DC,Toldijk,Bronckhorst,Gelderland,VBO,6.220596,52.054577
Russerweg,29,,,7227DC,Toldijk,Bronckhorst,Gelderland,VBO,6.220477,52.054584
Russerweg,31,,,7227DC,Toldijk,Bronckhorst,Gelderland,VBO,6.220337,52.054619
Russerweg,33,,,7227DC,Toldijk,Bronckhorst,Gelderland,VBO,6.220200,52.054625
Russerweg,35,,,7227DC,Toldijk,Bronckhorst,Gelderland,VBO,6.219992,52.054638
Russerweg,37,,,7227DC,Toldijk,Bronckhorst,Gelderland,VBO,6.219863,52.054519
Russerweg,39,,,7227DC,Toldijk,Bronckhorst,Gelderland,VBO,6.219827,52.054466
Russerweg,41,,,7227DC,Toldijk,Bronckhorst,Gelderland,VBO,6.219739,52.054347
Russerweg,43,,,7227DC,Toldijk,Bronckhorst,Gelderland,VBO,6.219701,52.054289
Russerweg,2,A,,7227DD,Toldijk,Bronckhorst,Gelderland,VBO,6.221906,52.056177
Russerweg,2,B,,7227DD,Toldijk,Bronckhorst,Gelderland,VBO,6.221850,52.055874
Russerweg,2,C,,7227DD,Toldijk,Bronckhorst,Gelderland,VBO,6.221747,52.055879
Russerweg,2,D,,7227DD,Toldijk,Bronckhorst,Gelderland,VBO,6.221514,52.055858
Russerweg,2,E,,7227DD,Toldijk,Bronckhorst,Gelderland,VBO,6.221410,52.055869
Russerweg,4,A,,7227DD,Toldijk,Bronckhorst,Gelderland,VBO,6.220143,52.055491
Russerweg,4,B,,7227DD,Toldijk,Bronckhorst,Gelderland,VBO,6.220128,52.055473
Russerweg,6,,,7227DD,Toldijk,Bronckhorst,Gelderland,VBO,6.220013,52.055358
Russerweg,8,,,7227DD,Toldijk,Bronckhorst,Gelderland,VBO,6.219981,52.055304
Russerweg,10,,,7227DD,Toldijk,Bronckhorst,Gelderland,VBO,6.219952,52.055253
Russerweg,12,,,7227DD,Toldijk,Bronckhorst,Gelderland,VBO,6.219738,52.055039
Russerweg,14,,,7227DD,Toldijk,Bronckhorst,Gelderland,VBO,6.219664,52.054902
Russerweg,16,,,7227DD,Toldijk,Bronckhorst,Gelderland,VBO,6.219630,52.054847
Russerweg,18,,,7227DD,Toldijk,Bronckhorst,Gelderland,VBO,6.219594,52.054712
Russerweg,20,,,7227DD,Toldijk,Bronckhorst,Gelderland,VBO,6.219552,52.054661
Russerweg,22,,,7227DD,Toldijk,Bronckhorst,Gelderland,VBO,6.219469,52.054535
Russerweg,24,,,7227DD,Toldijk,Bronckhorst,Gelderland,VBO,6.219433,52.054483
Russerweg,26,,,7227DD,Toldijk,Bronckhorst,Gelderland,VBO,6.219353,52.054356
Zutphen-Emmerikseweg,1,,,7227DE,Toldijk,Bronckhorst,Gelderland,VBO,6.213574,52.032060
Zutphen-Emmerikseweg,3,,,7227DE,Toldijk,Bronckhorst,Gelderland,VBO,6.213664,52.032229
Zutphen-Emmerikseweg,5,A,,7227DE,Toldijk,Bronckhorst,Gelderland,VBO,6.211776,52.033784
Zutphen-Emmerikseweg,5,,,7227DE,Toldijk,Bronckhorst,Gelderland,VBO,6.212074,52.033747
Zutphen-Emmerikseweg,7,A,,7227DE,Toldijk,Bronckhorst,Gelderland,VBO,6.214214,52.033073
Zutphen-Emmerikseweg,7,B,,7227DE,Toldijk,Bronckhorst,Gelderland,VBO,6.214226,52.033148
Zutphen-Emmerikseweg,7,,,7227DE,Toldijk,Bronckhorst,Gelderland,VBO,6.213945,52.032873
Zutphen-Emmerikseweg,9,A,,7227DE,Toldijk,Bronckhorst,Gelderland,VBO,6.214266,52.033676
Zutphen-Emmerikseweg,9,B,,7227DE,Toldijk,Bronckhorst,Gelderland,VBO,6.214574,52.034260
Zutphen-Emmerikseweg,9,,,7227DE,Toldijk,Bronckhorst,Gelderland,VBO,6.214242,52.033555
Zutphen-Emmerikseweg,11,,,7227DE,Toldijk,Bronckhorst,Gelderland,VBO,6.214928,52.034410
Zutphen-Emmerikseweg,13,A,,7227DE,Toldijk,Bronckhorst,Gelderland,VBO,6.211218,52.034760
Zutphen-Emmerikseweg,13,B,,7227DE,Toldijk,Bronckhorst,Gelderland,VBO,6.214954,52.034683
Zutphen-Emmerikseweg,13,,,7227DE,Toldijk,Bronckhorst,Gelderland,VBO,6.214956,52.034464
Zutphen-Emmerikseweg,15,,,7227DE,Toldijk,Bronckhorst,Gelderland,VBO,6.216300,52.037487
Zutphen-Emmerikseweg,17,A,,7227DG,Toldijk,Bronckhorst,Gelderland,VBO,6.216575,52.038372
Zutphen-Emmerikseweg,17,,,7227DG,Toldijk,Bronckhorst,Gelderland,VBO,6.216279,52.037900
Zutphen-Emmerikseweg,19,,,7227DG,Toldijk,Bronckhorst,Gelderland,VBO,6.219606,52.044536
Zutphen-Emmerikseweg,21,A,,7227DG,Toldijk,Bronckhorst,Gelderland,VBO,6.219962,52.045691
Zutphen-Emmerikseweg,21,,,7227DG,Toldijk,Bronckhorst,Gelderland,VBO,6.219964,52.045742
Zutphen-Emmerikseweg,23,,,7227DG,Toldijk,Bronckhorst,Gelderland,VBO,6.219963,52.046046
Zutphen-Emmerikseweg,25,,,7227DG,Toldijk,Bronckhorst,Gelderland,VBO,6.219866,52.046362
Zutphen-Emmerikseweg,27,,,7227DG,Toldijk,Bronckhorst,Gelderland,VBO,6.220173,52.046925
Zutphen-Emmerikseweg,29,A,,7227DG,Toldijk,Bronckhorst,Gelderland,VBO,6.220228,52.048601
Zutphen-Emmerikseweg,29,,,7227DG,Toldijk,Bronckhorst,Gelderland,VBO,6.220423,52.048592
Zutphen-Emmerikseweg,31,A,,7227DG,Toldijk,Bronckhorst,Gelderland,VBO,6.220529,52.050303
Zutphen-Emmerikseweg,31,B,,7227DG,Toldijk,Bronckhorst,Gelderland,VBO,6.219961,52.051612
Zutphen-Emmerikseweg,31,,,7227DG,Toldijk,Bronckhorst,Gelderland,VBO,6.220464,52.049287
Zutphen-Emmerikseweg,33,A,,7227DG,Toldijk,Bronckhorst,Gelderland,VBO,6.221041,52.051825
Zutphen-Emmerikseweg,33,B,,7227DG,Toldijk,Bronckhorst,Gelderland,VBO,6.221150,52.052089
Zutphen-Emmerikseweg,33,,,7227DG,Toldijk,Bronckhorst,Gelderland,VBO,6.221155,52.051373
Zutphen-Emmerikseweg,35,,,7227DG,Toldijk,Bronckhorst,Gelderland,VBO,6.221060,52.052736
Zutphen-Emmerikseweg,37,A,,7227DG,Toldijk,Bronckhorst,Gelderland,VBO,6.221425,52.053825
Zutphen-Emmerikseweg,37,,,7227DG,Toldijk,Bronckhorst,Gelderland,VBO,6.221517,52.053294
Zutphen-Emmerikseweg,39,,,7227DH,Toldijk,Bronckhorst,Gelderland,VBO,6.221678,52.053956
Zutphen-Emmerikseweg,41,,,7227DH,Toldijk,Bronckhorst,Gelderland,VBO,6.221687,52.054014
Zutphen-Emmerikseweg,43,,,7227DH,Toldijk,Bronckhorst,Gelderland,VBO,6.221698,52.054191
Zutphen-Emmerikseweg,45,,,7227DH,Toldijk,Bronckhorst,Gelderland,VBO,6.221700,52.054310
Zutphen-Emmerikseweg,47,,,7227DH,Toldijk,Bronckhorst,Gelderland,VBO,6.221779,52.054481
Zutphen-Emmerikseweg,49,,,7227DH,Toldijk,Bronckhorst,Gelderland,VBO,6.221784,52.054548
Zutphen-Emmerikseweg,51,A,,7227DH,Toldijk,Bronckhorst,Gelderland,VBO,6.221819,52.054768
Zutphen-Emmerikseweg,51,B,,7227DH,Toldijk,Bronckhorst,Gelderland,VBO,6.221840,52.054868
Zutphen-Emmerikseweg,51,C,,7227DH,Toldijk,Bronckhorst,Gelderland,VBO,6.221839,52.054937
Zutphen-Emmerikseweg,51,,,7227DH,Toldijk,Bronckhorst,Gelderland,VBO,6.221805,52.054704
Zutphen-Emmerikseweg,53,A,,7227DH,Toldijk,Bronckhorst,Gelderland,VBO,6.221877,52.055246
Zutphen-Emmerikseweg,53,,,7227DH,Toldijk,Bronckhorst,Gelderland,VBO,6.221874,52.055070
Zutphen-Emmerikseweg,55,,,7227DH,Toldijk,Bronckhorst,Gelderland,VBO,6.221963,52.055412
Zutphen-Emmerikseweg,57,,,7227DH,Toldijk,Bronckhorst,Gelderland,VBO,6.221984,52.055549
Zutphen-Emmerikseweg,61,,,7227DJ,Toldijk,Bronckhorst,Gelderland,VBO,6.222086,52.056423
Zutphen-Emmerikseweg,63,,,7227DJ,Toldijk,Bronckhorst,Gelderland,VBO,6.222132,52.056664
Zutphen-Emmerikseweg,65,A,,7227DJ,Toldijk,Bronckhorst,Gelderland,VBO,6.221722,52.056858
Zutphen-Emmerikseweg,65,,,7227DJ,Toldijk,Bronckhorst,Gelderland,VBO,6.222182,52.056919
Zutphen-Emmerikseweg,67,,,7227DJ,Toldijk,Bronckhorst,Gelderland,VBO,6.222123,52.057505
Zutphen-Emmerikseweg,69,A,,7227DJ,Toldijk,Bronckhorst,Gelderland,VBO,6.222406,52.058414
Zutphen-Emmerikseweg,69,,,7227DJ,Toldijk,Bronckhorst,Gelderland,VBO,6.222573,52.058237
Zutphen-Emmerikseweg,71,,,7227DJ,Toldijk,Bronckhorst,Gelderland,VBO,6.222543,52.058829
Zutphen-Emmerikseweg,73,,,7227DJ,Toldijk,Bronckhorst,Gelderland,VBO,6.222945,52.059892
Zutphen-Emmerikseweg,2,,,7227DK,Toldijk,Bronckhorst,Gelderland,VBO,6.218165,52.039214
Zutphen-Emmerikseweg,4,,,7227DK,Toldijk,Bronckhorst,Gelderland,VBO,6.218856,52.039569
Zutphen-Emmerikseweg,6,A,,7227DL,Toldijk,Bronckhorst,Gelderland,VBO,6.220051,52.044533
Zutphen-Emmerikseweg,6,,,7227DL,Toldijk,Bronckhorst,Gelderland,VBO,6.220168,52.044531
Zutphen-Emmerikseweg,8,,,7227DL,Toldijk,Bronckhorst,Gelderland,VBO,6.220547,52.044940
Zutphen-Emmerikseweg,10,,,7227DL,Toldijk,Bronckhorst,Gelderland,VBO,6.220370,52.045421
Zutphen-Emmerikseweg,12,,,7227DL,Toldijk,Bronckhorst,Gelderland,VBO,6.220738,52.045911
Zutphen-Emmerikseweg,14,A,,7227DL,Toldijk,Bronckhorst,Gelderland,VBO,6.222339,52.053021
Zutphen-Emmerikseweg,14,,,7227DL,Toldijk,Bronckhorst,Gelderland,VBO,6.223034,52.048545
Zutphen-Emmerikseweg,16,,,7227DM,Toldijk,Bronckhorst,Gelderland,VBO,6.222272,52.053811
Zutphen-Emmerikseweg,18,,,7227DM,Toldijk,Bronckhorst,Gelderland,VBO,6.222345,52.054171
Zutphen-Emmerikseweg,20,,,7227DM,Toldijk,Bronckhorst,Gelderland,VBO,6.222309,52.054322
Zutphen-Emmerikseweg,22,,,7227DM,Toldijk,Bronckhorst,Gelderland,VBO,6.222385,52.054424
Zutphen-Emmerikseweg,24,,,7227DM,Toldijk,Bronckhorst,Gelderland,VBO,6.222575,52.054584
Zutphen-Emmerikseweg,26,,,7227DM,Toldijk,Bronckhorst,Gelderland,VBO,6.223041,52.056817
Zutphen-Emmerikseweg,28,A,,7227DM,Toldijk,Bronckhorst,Gelderland,VBO,6.225896,52.056416
Zutphen-Emmerikseweg,28,,,7227DM,Toldijk,Bronckhorst,Gelderland,VBO,6.226137,52.056387
Zutphen-Emmerikseweg,30,,,7227DM,Toldijk,Bronckhorst,Gelderland,VBO,6.228137,52.056532
Zutphen-Emmerikseweg,30,,,7227DM,Toldijk,Bronckhorst,Gelderland,VBO,6.228151,52.056568
Zutphen-Emmerikseweg,32,,,7227DM,Toldijk,Bronckhorst,Gelderland,VBO,6.223180,52.057128
Zutphen-Emmerikseweg,34,,,7227DM,Toldijk,Bronckhorst,Gelderland,VBO,6.223456,52.057704
Zutphen-Emmerikseweg,36,A,,7227DM,Toldijk,Bronckhorst,Gelderland,VBO,6.223580,52.058962
Zutphen-Emmerikseweg,36,,,7227DM,Toldijk,Bronckhorst,Gelderland,VBO,6.223425,52.058629
Zutphen-Emmerikseweg,38,,,7227DM,Toldijk,Bronckhorst,Gelderland,VBO,6.223582,52.059923
Muizengatweg,1,,,7227DN,Toldijk,Bronckhorst,Gelderland,VBO,6.220134,52.035887
Muizengatweg,3,,,7227DN,Toldijk,Bronckhorst,Gelderland,VBO,6.221740,52.035448
Muizengatweg,4,,,7227DN,Toldijk,Bronckhorst,Gelderland,VBO,6.223114,52.034239
Muizengatweg,5,,,7227DN,Toldijk,Bronckhorst,Gelderland,VBO,6.227229,52.033924
Muizengatweg,7,,,7227DN,Toldijk,Bronckhorst,Gelderland,VBO,6.233067,52.031791
Muizengatweg,9,A,,7227DN,Toldijk,Bronckhorst,Gelderland,VBO,6.229282,52.030704
Muizengatweg,9,,,7227DN,Toldijk,Bronckhorst,Gelderland,VBO,6.229402,52.030704
Wolfsstraat,1,,,7227DP,Toldijk,Bronckhorst,Gelderland,VBO,6.217563,52.060698
Wolfsstraat,3,,,7227DP,Toldijk,Bronckhorst,Gelderland,VBO,6.217551,52.062346
Wolfsstraat,5,A,,7227DP,Toldijk,Bronckhorst,Gelderland,VBO,6.215413,52.062617
Wolfsstraat,5,,,7227DP,Toldijk,Bronckhorst,Gelderland,VBO,6.215531,52.062441
Wethouder Campermanstr,1,,,7227DS,Toldijk,Bronckhorst,Gelderland,VBO,6.219633,52.056031
Wethouder Campermanstr,3,,,7227DS,Toldijk,Bronckhorst,Gelderland,VBO,6.219650,52.056085
Wethouder Campermanstr,5,,,7227DS,Toldijk,Bronckhorst,Gelderland,VBO,6.219699,52.056211
Wethouder Campermanstr,7,,,7227DS,Toldijk,Bronckhorst,Gelderland,VBO,6.219726,52.056287
Wethouder Campermanstr,9,,,7227DS,Toldijk,Bronckhorst,Gelderland,VBO,6.219668,52.056476
Wethouder Campermanstr,11,,,7227DS,Toldijk,Bronckhorst,Gelderland,VBO,6.219688,52.056522
Wethouder Campermanstr,13,,,7227DS,Toldijk,Bronckhorst,Gelderland,VBO,6.219736,52.056632
Wethouder Campermanstr,15,,,7227DS,Toldijk,Bronckhorst,Gelderland,VBO,6.219777,52.056696
Wethouder Campermanstr,17,,,7227DS,Toldijk,Bronckhorst,Gelderland,VBO,6.219851,52.056817
Wethouder Campermanstr,19,,,7227DS,Toldijk,Bronckhorst,Gelderland,VBO,6.219873,52.056878
Wethouder Campermanstr,2,,,7227DT,Toldijk,Bronckhorst,Gelderland,VBO,6.219975,52.055849
Wethouder Campermanstr,4,,,7227DT,Toldijk,Bronckhorst,Gelderland,VBO,6.219998,52.055909
Wethouder Campermanstr,6,,,7227DT,Toldijk,Bronckhorst,Gelderland,VBO,6.220027,52.055981
Wethouder Campermanstr,8,,,7227DT,Toldijk,Bronckhorst,Gelderland,VBO,6.220058,52.056056
Wethouder Campermanstr,10,,,7227DT,Toldijk,Bronckhorst,Gelderland,VBO,6.220093,52.056145
Wethouder Campermanstr,12,,,7227DT,Toldijk,Bronckhorst,Gelderland,VBO,6.220116,52.056210
Wethouder Campermanstr,14,,,7227DT,Toldijk,Bronckhorst,Gelderland,VBO,6.220071,52.056387
Wethouder Campermanstr,16,,,7227DT,Toldijk,Bronckhorst,Gelderland,VBO,6.220093,52.056440
Wethouder Campermanstr,18,,,7227DT,Toldijk,Bronckhorst,Gelderland,VBO,6.220107,52.056541
Wethouder Campermanstr,20,,,7227DT,Toldijk,Bronckhorst,Gelderland,VBO,6.220150,52.056618
Wethouder Campermanstr,22,,,7227DT,Toldijk,Bronckhorst,Gelderland,VBO,6.220185,52.056695
Wethouder Campermanstr,24,,,7227DT,Toldijk,Bronckhorst,Gelderland,VBO,6.220211,52.056746
Wethouder Spekkinkstraat,1,,,7227DV,Toldijk,Bronckhorst,Gelderland,VBO,6.220458,52.055908
Wethouder Spekkinkstraat,3,,,7227DV,Toldijk,Bronckhorst,Gelderland,VBO,6.220473,52.055962
Wethouder Spekkinkstraat,5,,,7227DV,Toldijk,Bronckhorst,Gelderland,VBO,6.220519,52.056061
Wethouder Spekkinkstraat,7,,,7227DV,Toldijk,Bronckhorst,Gelderland,VBO,6.220553,52.056124
Wethouder Spekkinkstraat,9,,,7227DV,Toldijk,Bronckhorst,Gelderland,VBO,6.220574,52.056293
Wethouder Spekkinkstraat,11,,,7227DV,Toldijk,Bronckhorst,Gelderland,VBO,6.220604,52.056355
Wethouder Spekkinkstraat,13,,,7227DV,Toldijk,Bronckhorst,Gelderland,VBO,6.220645,52.056452
Wethouder Spekkinkstraat,15,,,7227DV,Toldijk,Bronckhorst,Gelderland,VBO,6.220674,52.056505
Wethouder Spekkinkstraat,2,,,7227DW,Toldijk,Bronckhorst,Gelderland,VBO,6.220864,52.055797
Wethouder Spekkinkstraat,4,,,7227DW,Toldijk,Bronckhorst,Gelderland,VBO,6.220883,52.055860
Wethouder Spekkinkstraat,6,,,7227DW,Toldijk,Bronckhorst,Gelderland,VBO,6.220910,52.055950
Wethouder Spekkinkstraat,8,,,7227DW,Toldijk,Bronckhorst,Gelderland,VBO,6.220919,52.056008
Wethouder Spekkinkstraat,10,,,7227DW,Toldijk,Bronckhorst,Gelderland,VBO,6.220941,52.056058
Wethouder Spekkinkstraat,12,,,7227DW,Toldijk,Bronckhorst,Gelderland,VBO,6.221002,52.056201
Wethouder Spekkinkstraat,14,,,7227DW,Toldijk,Bronckhorst,Gelderland,VBO,6.221033,52.056255
Wethouder Spekkinkstraat,16,,,7227DW,Toldijk,Bronckhorst,Gelderland,VBO,6.221036,52.056374
Wethouder Spekkinkstraat,18,,,7227DW,Toldijk,Bronckhorst,Gelderland,VBO,6.221059,52.056424
Wethouder Spekkinkstraat,20,,,7227DW,Toldijk,Bronckhorst,Gelderland,VBO,6.221084,52.056477
Wethouder Spekkinkstraat,22,,,7227DW,Toldijk,Bronckhorst,Gelderland,VBO,6.221117,52.056581
Wethouder Spekkinkstraat,24,,,7227DW,Toldijk,Bronckhorst,Gelderland,VBO,6.221149,52.056641
Lamstraat,1,,,7227NA,Toldijk,Bronckhorst,Gelderland,VBO,6.213128,52.038722
Lamstraat,3,,,7227NA,Toldijk,Bronckhorst,Gelderland,VBO,6.212989,52.038762
Lamstraat,5,A,,7227NA,Toldijk,Bronckhorst,Gelderland,VBO,6.210641,52.036161
Lamstraat,5,,,7227NA,Toldijk,Bronckhorst,Gelderland,VBO,6.210733,52.036130
Lamstraat,7,,,7227NA,Toldijk,Bronckhorst,Gelderland,VBO,6.209695,52.034435
Lamstraat,11,,,7227NA,Toldijk,Bronckhorst,Gelderland,VBO,6.209531,52.039307
Lamstraat,13,,,7227NA,Toldijk,Bronckhorst,Gelderland,VBO,6.208291,52.038477
Lamstraat,15,A,,7227NA,Toldijk,Bronckhorst,Gelderland,VBO,6.206801,52.039515
Lamstraat,15,,,7227NA,Toldijk,Bronckhorst,Gelderland,VBO,6.207527,52.039370
Lamstraat,17,,,7227NA,Toldijk,Bronckhorst,Gelderland,VBO,6.202999,52.040831
Lamstraat,19,,,7227NA,Toldijk,Bronckhorst,Gelderland,VBO,6.201265,52.041678
Lamstraat,21,,,7227NA,Toldijk,Bronckhorst,Gelderland,VBO,6.198733,52.038573
Lamstraat,23,,,7227NA,Toldijk,Bronckhorst,Gelderland,VBO,6.195760,52.038274
Lamstraat,25,,,7227NA,Toldijk,Bronckhorst,Gelderland,VBO,6.188355,52.042784
Lamstraat,27,,,7227NA,Toldijk,Bronckhorst,Gelderland,VBO,6.187641,52.042596
Lamstraat,2,A,,7227NB,Toldijk,Bronckhorst,Gelderland,VBO,6.214064,52.040545
Lamstraat,2,,,7227NB,Toldijk,Bronckhorst,Gelderland,VBO,6.215172,52.038112
Lamstraat,4,,,7227NB,Toldijk,Bronckhorst,Gelderland,VBO,6.209084,52.040196
Lamstraat,6,,,7227NB,Toldijk,Bronckhorst,Gelderland,VBO,6.206748,52.040038
Lamstraat,8,,,7227NB,Toldijk,Bronckhorst,Gelderland,VBO,6.204785,52.040445
Lamstraat,10,,,7227NB,Toldijk,Bronckhorst,Gelderland,VBO,6.202160,52.041697
Lamstraat,12,A,,7227NB,Toldijk,Bronckhorst,Gelderland,VBO,6.191941,52.043111
Lamstraat,12,,,7227NB,Toldijk,Bronckhorst,Gelderland,VBO,6.199108,52.042464
Lamstraat,14,,,7227NB,Toldijk,Bronckhorst,Gelderland,VBO,6.188339,52.044149
Lamstraat,16,A,,7227NB,Toldijk,Bronckhorst,Gelderland,VBO,6.178989,52.040322
Lamstraat,16,,,7227NB,Toldijk,Bronckhorst,Gelderland,VBO,6.179030,52.040179
Beekstraat,1,A,,7227NC,Toldijk,Bronckhorst,Gelderland,VBO,6.220897,52.044499
Beekstraat,1,B,,7227NC,Toldijk,Bronckhorst,Gelderland,VBO,6.221700,52.044562
Beekstraat,1,C,,7227NC,Toldijk,Bronckhorst,Gelderland,VBO,6.222706,52.044351
Beekstraat,1,,,7227NC,Toldijk,Bronckhorst,Gelderland,VBO,6.220649,52.044560
Beekstraat,2,,,7227NC,Toldijk,Bronckhorst,Gelderland,VBO,6.222046,52.044167
Beekstraat,3,,,7227NC,Toldijk,Bronckhorst,Gelderland,VBO,6.223725,52.044154
Beekstraat,4,,,7227NC,Toldijk,Bronckhorst,Gelderland,VBO,6.225340,52.043298
Beekstraat,5,,,7227NC,Toldijk,Bronckhorst,Gelderland,VBO,6.227358,52.042916
Beekstraat,6,,,7227NC,Toldijk,Bronckhorst,Gelderland,VBO,6.231478,52.040784
Beekstraat,7,A,,7227NC,Toldijk,Bronckhorst,Gelderland,VBO,6.229352,52.042092
Beekstraat,7,,,7227NC,Toldijk,Bronckhorst,Gelderland,VBO,6.229241,52.042125
Beekstraat,8,A,,7227NC,Toldijk,Bronckhorst,Gelderland,VBO,6.232685,52.040190
Beekstraat,8,,,7227NC,Toldijk,Bronckhorst,Gelderland,VBO,6.231935,52.040582
Beekstraat,9,,,7227NC,Toldijk,Bronckhorst,Gelderland,VBO,6.231041,52.041438
Beekstraat,10,,,7227NC,Toldijk,Bronckhorst,Gelderland,VBO,6.234858,52.039104
Beekstraat,11,A,,7227NC,Toldijk,Bronckhorst,Gelderland,VBO,6.237868,52.038849
Beekstraat,11,,,7227NC,Toldijk,Bronckhorst,Gelderland,VBO,6.237667,52.038928
Beekstraat,12,,,7227NC,Toldijk,Bronckhorst,Gelderland,VBO,6.239912,52.037728
Beekstraat,13,K,1,7227NC,Toldijk,Bronckhorst,Gelderland,VBO,6.246962,52.036858
Beekstraat,13,K,2,7227NC,Toldijk,Bronckhorst,Gelderland,VBO,6.247057,52.036872
Beekstraat,13,K,3,7227NC,Toldijk,Bronckhorst,Gelderland,VBO,6.247248,52.036950
Beekstraat,13,,,7227NC,Toldijk,Bronckhorst,Gelderland,VBO,6.247350,52.036681
Beekstraat,14,,,7227NC,Toldijk,Bronckhorst,Gelderland,VBO,6.239933,52.037838
Beekstraat,16,,,7227NC,Toldijk,Bronckhorst,Gelderland,VBO,6.239974,52.037981
Hoogstraat,1,,,7227ND,Toldijk,Bronckhorst,Gelderland,VBO,6.222251,52.053570
Hoogstraat,3,,,7227ND,Toldijk,Bronckhorst,Gelderland,VBO,6.222556,52.053502
Hoogstraat,5,,,7227ND,Toldijk,Bronckhorst,Gelderland,VBO,6.222988,52.053230
Hoogstraat,7,,,7227ND,Toldijk,Bronckhorst,Gelderland,VBO,6.223685,52.053036
Hoogstraat,9,,,7227ND,Toldijk,Bronckhorst,Gelderland,VBO,6.224003,52.052917
Hoogstraat,11,A,,7227ND,Toldijk,Bronckhorst,Gelderland,VBO,6.225032,52.052604
Hoogstraat,11,,,7227ND,Toldijk,Bronckhorst,Gelderland,VBO,6.224913,52.052651
Hoogstraat,13,,,7227ND,Toldijk,Bronckhorst,Gelderland,VBO,6.225734,52.052239
Hoogstraat,15,,,7227ND,Toldijk,Bronckhorst,Gelderland,VBO,6.226285,52.052945
Hoogstraat,17,A,,7227ND,Toldijk,Bronckhorst,Gelderland,VBO,6.226578,52.051867
Hoogstraat,17,,,7227ND,Toldijk,Bronckhorst,Gelderland,VBO,6.226480,52.051920
Hoogstraat,19,A,,7227ND,Toldijk,Bronckhorst,Gelderland,VBO,6.229003,52.051209
Hoogstraat,19,,,7227ND,Toldijk,Bronckhorst,Gelderland,VBO,6.228989,52.051109
Hoogstraat,21,A,,7227ND,Toldijk,Bronckhorst,Gelderland,VBO,6.232484,52.048622
Hoogstraat,21,B,,7227ND,Toldijk,Bronckhorst,Gelderland,VBO,6.232240,52.048545
Hoogstraat,21,,,7227ND,Toldijk,Bronckhorst,Gelderland,VBO,6.232582,52.048608
Hoogstraat,23,A,,7227ND,Toldijk,Bronckhorst,Gelderland,VBO,6.236460,52.047341
Hoogstraat,23,,,7227ND,Toldijk,Bronckhorst,Gelderland,VBO,6.236351,52.047250
Holtslagweg,2,,,7227NE,Toldijk,Bronckhorst,Gelderland,VBO,6.239938,52.048702
Hoogstraat,27,,,7227NE,Toldijk,Bronckhorst,Gelderland,VBO,6.238132,52.046324
Hoogstraat,29,A,,7227NE,Toldijk,Bronckhorst,Gelderland,VBO,6.240743,52.045909
Hoogstraat,29,B,,7227NE,Toldijk,Bronckhorst,Gelderland,VBO,6.241038,52.045669
Hoogstraat,29,,,7227NE,Toldijk,Bronckhorst,Gelderland,VBO,6.240675,52.045557
Hoogstraat,31,,,7227NG,Toldijk,Bronckhorst,Gelderland,VBO,6.246026,52.042534
Schiphorsterstraat,1,A,,7227NG,Toldijk,Bronckhorst,Gelderland,VBO,6.246499,52.045947
Schiphorsterstraat,1,,,7227NG,Toldijk,Bronckhorst,Gelderland,VBO,6.246352,52.045978
Schiphorsterstraat,2,A,,7227NG,Toldijk,Bronckhorst,Gelderland,VBO,6.246269,52.043726
Schiphorsterstraat,2,,,7227NG,Toldijk,Bronckhorst,Gelderland,VBO,6.246367,52.044062
Schiphorsterstraat,3,,,7227NG,Toldijk,Bronckhorst,Gelderland,VBO,6.244308,52.047191
Schiphorsterstraat,4,,,7227NG,Toldijk,Bronckhorst,Gelderland,VBO,6.254048,52.044057
Schiphorsterstraat,5,A,,7227NG,Toldijk,Bronckhorst,Gelderland,VBO,6.245844,52.049119
Schiphorsterstraat,5,,,7227NG,Toldijk,Bronckhorst,Gelderland,VBO,6.246004,52.049100
Schiphorsterstraat,6,,,7227NG,Toldijk,Bronckhorst,Gelderland,VBO,6.254431,52.045063
Schiphorsterstraat,8,A,,7227NG,Toldijk,Bronckhorst,Gelderland,VBO,6.247122,52.045865
Schiphorsterstraat,8,,,7227NG,Toldijk,Bronckhorst,Gelderland,VBO,6.247099,52.045781
Schiphorsterstraat,10,,,7227NG,Toldijk,Bronckhorst,Gelderland,VBO,6.248103,52.047186
Schiphorsterstraat,12,A,,7227NG,Toldijk,Bronckhorst,Gelderland,VBO,6.255100,52.047520
Schiphorsterstraat,12,,,7227NG,Toldijk,Bronckhorst,Gelderland,VBO,6.255014,52.047534
Schiphorsterstraat,14,A,,7227NG,Toldijk,Bronckhorst,Gelderland,VBO,6.250432,52.051944
Schiphorsterstraat,14,,,7227NG,Toldijk,Bronckhorst,Gelderland,VBO,6.250516,52.051664
Schiphorsterstraat,16,,,7227NG,Toldijk,Bronckhorst,Gelderland,VBO,6.250607,52.053109
Hoogstraat,33,,,7227NH,Toldijk,Bronckhorst,Gelderland,VBO,6.245895,52.041033
Hoogstraat,35,,,7227NH,Toldijk,Bronckhorst,Gelderland,VBO,6.246692,52.038641
Hoogstraat,37,,,7227NH,Toldijk,Bronckhorst,Gelderland,VBO,6.247402,52.038142
Hoogstraat,39,,,7227NH,Toldijk,Bronckhorst,Gelderland,VBO,6.248039,52.037530
Voortseweg,1,A,,7227NH,Toldijk,Bronckhorst,Gelderland,VBO,6.256781,52.040880
Voortseweg,1,,,7227NH,Toldijk,Bronckhorst,Gelderland,VBO,6.246874,52.042443
Voortseweg,2,A,,7227NH,Toldijk,Bronckhorst,Gelderland,VBO,6.252015,52.041147
Voortseweg,2,,,7227NH,Toldijk,Bronckhorst,Gelderland,VBO,6.252055,52.041171
Voortseweg,3,A,,7227NH,Toldijk,Bronckhorst,Gelderland,VBO,6.258449,52.041141
Voortseweg,3,,,7227NH,Toldijk,Bronckhorst,Gelderland,VBO,6.258471,52.041189
Voortseweg,4,,,7227NH,Toldijk,Bronckhorst,Gelderland,VBO,6.251998,52.040946
Voortseweg,5,,,7227NH,Toldijk,Bronckhorst,Gelderland,VBO,6.258404,52.039796
Voortseweg,6,,,7227NH,Toldijk,Bronckhorst,Gelderland,VBO,6.256903,52.037542
Voortseweg,7,,,7227NH,Toldijk,Bronckhorst,Gelderland,VBO,6.259790,52.038910
Voortseweg,8,,,7227NH,Toldijk,Bronckhorst,Gelderland,VBO,6.256933,52.037604
Voortseweg,9,,,7227NH,Toldijk,Bronckhorst,Gelderland,VBO,6.258016,52.038490
Voortseweg,11,A,,7227NH,Toldijk,Bronckhorst,Gelderland,VBO,6.258897,52.038037
Voortseweg,11,,,7227NH,Toldijk,Bronckhorst,Gelderland,VBO,6.258748,52.038061
Hoogstraat,2,,,7227NJ,Toldijk,Bronckhorst,Gelderland,VBO,6.222504,52.053035
Hoogstraat,4,,,7227NJ,Toldijk,Bronckhorst,Gelderland,VBO,6.224811,52.052077
Hoogstraat,6,A,,7227NJ,Toldijk,Bronckhorst,Gelderland,VBO,6.225379,52.051893
Hoogstraat,6,,,7227NJ,Toldijk,Bronckhorst,Gelderland,VBO,6.225480,52.051855
Hoogstraat,8,A,,7227NJ,Toldijk,Bronckhorst,Gelderland,VBO,6.225974,52.051654
Hoogstraat,8,,,7227NJ,Toldijk,Bronckhorst,Gelderland,VBO,6.225859,52.051691
Hoogstraat,10,,,7227NJ,Toldijk,Bronckhorst,Gelderland,VBO,6.226265,52.051547
Hoogstraat,12,,,7227NJ,Toldijk,Bronckhorst,Gelderland,VBO,6.227146,52.051212
Hoogstraat,14,A,,7227NJ,Toldijk,Bronckhorst,Gelderland,VBO,6.230267,52.049411
Hoogstraat,14,,,7227NJ,Toldijk,Bronckhorst,Gelderland,VBO,6.228390,52.050686
Hoogstraat,16,A,,7227NJ,Toldijk,Bronckhorst,Gelderland,VBO,6.231244,52.048697
Hoogstraat,16,,,7227NJ,Toldijk,Bronckhorst,Gelderland,VBO,6.230318,52.049364
Hoogstraat,18,,,7227NJ,Toldijk,Bronckhorst,Gelderland,VBO,6.232556,52.047975
Hoogstraat,20,,,7227NJ,Toldijk,Bronckhorst,Gelderland,VBO,6.231093,52.047487
Hoogstraat,24,,,7227NJ,Toldijk,Bronckhorst,Gelderland,VBO,6.230132,52.047238
Hoogstraat,26,,,7227NJ,Toldijk,Bronckhorst,Gelderland,VBO,6.229740,52.047193
Hoogstraat,28,A,,7227NJ,Toldijk,Bronckhorst,Gelderland,VBO,6.230004,52.047692
Hoogstraat,28,,,7227NJ,Toldijk,Bronckhorst,Gelderland,VBO,6.229833,52.047868
Hoogstraat,30,,,7227NJ,Toldijk,Bronckhorst,Gelderland,VBO,6.229357,52.047175
Hoogstraat,32,,,7227NJ,Toldijk,Bronckhorst,Gelderland,VBO,6.234951,52.046690
Hoogstraat,34,,,7227NJ,Toldijk,Bronckhorst,Gelderland,VBO,6.236836,52.043062
Hoogstraat,36,,,7227NJ,Toldijk,Bronckhorst,Gelderland,VBO,6.245317,52.043285
Hoogstraat,38,A,,7227NJ,Toldijk,Bronckhorst,Gelderland,VBO,6.245725,52.039662
Hoogstraat,38,,,7227NJ,Toldijk,Bronckhorst,Gelderland,VBO,6.245733,52.039616
Hoogstraat,42,,,7227NJ,Toldijk,Bronckhorst,Gelderland,VBO,6.245661,52.039181
Hoogstraat,44,,,7227NJ,Toldijk,Bronckhorst,Gelderland,VBO,6.246412,52.037701
Hoogstraat,46,,,7227NJ,Toldijk,Bronckhorst,Gelderland,VBO,6.247526,52.036716
Hoogstraat,48,,,7227NJ,Toldijk,Bronckhorst,Gelderland,VBO,6.247577,52.036697
Reigersvoortseweg,2,,,7227NK,Toldijk,Bronckhorst,Gelderland,VBO,6.251911,52.035867
Reigersvoortseweg,4,A,,7227NK,Toldijk,Bronckhorst,Gelderland,VBO,6.252764,52.034805
Reigersvoortseweg,4,,,7227NK,Toldijk,Bronckhorst,Gelderland,VBO,6.252870,52.034785
Reigersvoortseweg,6,,,7227NK,Toldijk,Bronckhorst,Gelderland,VBO,6.254611,52.035445
Reigersvoortseweg,12,,,7227NK,Toldijk,Bronckhorst,Gelderland,VBO,6.256750,52.035106
Reigersvoortseweg,14,,,7227NK,Toldijk,Bronckhorst,Gelderland,VBO,6.257327,52.034958
Reigersvoortseweg,16,,,7227NK,Toldijk,Bronckhorst,Gelderland,VBO,6.259107,52.034620
Reigersvoortseweg,20,,,7227NK,Toldijk,Bronckhorst,Gelderland,VBO,6.260248,52.034209
Reigersvoortseweg,22,,,7227NK,Toldijk,Bronckhorst,Gelderland,VBO,6.260596,52.033730
Reigersvoortseweg,24,,,7227NK,Toldijk,Bronckhorst,Gelderland,VBO,6.261136,52.030297
Reigersvoortseweg,26,,,7227NK,Toldijk,Bronckhorst,Gelderland,VBO,6.261127,52.030215
Hardsteestraat,1,,,7227NL,Toldijk,Bronckhorst,Gelderland,VBO,6.201516,52.045947
Hardsteestraat,12,,,7227NL,Toldijk,Bronckhorst,Gelderland,VBO,6.210419,52.046254
Hardsteestraat,14,,,7227NL,Toldijk,Bronckhorst,Gelderland,VBO,6.206290,52.046411
Hardsteestraat,16,,,7227NL,Toldijk,Bronckhorst,Gelderland,VBO,6.204947,52.046139
Hardsteestraat,18,,,7227NL,Toldijk,Bronckhorst,Gelderland,VBO,6.199306,52.046897
Hardsteestraat,3,,,7227NM,Toldijk,Bronckhorst,Gelderland,VBO,6.197449,52.047052
Hardsteestraat,2,,,7227NN,Toldijk,Bronckhorst,Gelderland,VBO,6.218690,52.044834
Hardsteestraat,4,,,7227NN,Toldijk,Bronckhorst,Gelderland,VBO,6.217781,52.045023
Hardsteestraat,6,,,7227NN,Toldijk,Bronckhorst,Gelderland,VBO,6.215805,52.045463
Hardsteestraat,8,,,7227NN,Toldijk,Bronckhorst,Gelderland,VBO,6.215000,52.045579
Hardsteestraat,10,,,7227NN,Toldijk,Bronckhorst,Gelderland,VBO,6.211062,52.046105
Wuusweg,1,,,7227NP,Toldijk,Bronckhorst,Gelderland,VBO,6.257541,52.030851
Wuusweg,2,A,,7227NP,Toldijk,Bronckhorst,Gelderland,VBO,6.254059,52.031989
Wuusweg,2,,,7227NP,Toldijk,Bronckhorst,Gelderland,VBO,6.254139,52.031964
Wuusweg,3,,,7227NP,Toldijk,Bronckhorst,Gelderland,VBO,6.252630,52.027605
Wuusweg,4,,,7227NP,Toldijk,Bronckhorst,Gelderland,VBO,6.254161,52.030731
Holtslagweg,3,,,7227NR,Toldijk,Bronckhorst,Gelderland,VBO,6.237587,52.048435
