openbareruimtenaam,huisnummer,huisletter,huisnummertoevoeging,postcode,woonplaatsnaam,gemeentenaam,provincienaam,typeadresseerbaarobject,longitude,latitude
Amersfoortseweg,1,,,7313AA,Apeldoorn,Apeldoorn,Gelderland,VBO,5.943022,52.226814
Amersfoortseweg,3,,,7313AA,Apeldoorn,Apeldoorn,Gelderland,VBO,5.938601,52.226407
Amersfoortseweg,5,,,7313AA,Apeldoorn,Apeldoorn,Gelderland,VBO,5.938077,52.226453
Amersfoortseweg,7,,,7313AA,Apeldoorn,Apeldoorn,Gelderland,VBO,5.937414,52.226567
Amersfoortseweg,9,,,7313AA,Apeldoorn,Apeldoorn,Gelderland,VBO,5.936829,52.226419
Amersfoortseweg,11,,,7313AA,Apeldoorn,Apeldoorn,Gelderland,VBO,5.936289,52.226536
Amersfoortseweg,13,A,,7313AB,Apeldoorn,Apeldoorn,Gelderland,VBO,5.934916,52.226521
Amersfoortseweg,15,A,,7313AB,Apeldoorn,Apeldoorn,Gelderland,VBO,5.934535,52.226276
Amersfoortseweg,15,B,,7313AB,Apeldoorn,Apeldoorn,Gelderland,VBO,5.934239,52.226423
Amersfoortseweg,15,C,,7313AB,Apeldoorn,Apeldoorn,Gelderland,VBO,5.934056,52.226433
Amersfoortseweg,15,D,,7313AB,Apeldoorn,Apeldoorn,Gelderland,VBO,5.933873,52.226443
Amersfoortseweg,17,,,7313AB,Apeldoorn,Apeldoorn,Gelderland,VBO,5.933459,52.226585
Amersfoortseweg,19,,,7313AB,Apeldoorn,Apeldoorn,Gelderland,VBO,5.933526,52.226386
Amersfoortseweg,21,,,7313AB,Apeldoorn,Apeldoorn,Gelderland,VBO,5.933496,52.226239
Amersfoortseweg,23,,,7313AC,Apeldoorn,Apeldoorn,Gelderland,VBO,5.930583,52.226842
Amersfoortseweg,25,,,7313AC,Apeldoorn,Apeldoorn,Gelderland,VBO,5.930168,52.226842
Amersfoortseweg,31,,,7313AC,Apeldoorn,Apeldoorn,Gelderland,VBO,5.928418,52.226846
Amersfoortseweg,35,,,7313AC,Apeldoorn,Apeldoorn,Gelderland,VBO,5.916653,52.227457
Amersfoortseweg,37,,,7313AC,Apeldoorn,Apeldoorn,Gelderland,VBO,5.914420,52.227127
Amersfoortseweg,41,B,,7313AC,Apeldoorn,Apeldoorn,Gelderland,VBO,5.910670,52.227248
Vonderlaan,1,A,,7313AE,Apeldoorn,Apeldoorn,Gelderland,VBO,5.938325,52.226159
Vonderlaan,1,,,7313AE,Apeldoorn,Apeldoorn,Gelderland,VBO,5.938267,52.226287
Vonderlaan,2,B,,7313AE,Apeldoorn,Apeldoorn,Gelderland,VBO,5.937586,52.226185
Vonderlaan,2,,,7313AE,Apeldoorn,Apeldoorn,Gelderland,VBO,5.937506,52.226305
Vonderlaan,3,,,7313AE,Apeldoorn,Apeldoorn,Gelderland,VBO,5.938403,52.226035
Vonderlaan,4,,,7313AE,Apeldoorn,Apeldoorn,Gelderland,VBO,5.937698,52.226036
Vonderlaan,5,,,7313AE,Apeldoorn,Apeldoorn,Gelderland,VBO,5.938462,52.225895
Vonderlaan,6,,,7313AE,Apeldoorn,Apeldoorn,Gelderland,VBO,5.937713,52.225868
Vonderlaan,7,,,7313AE,Apeldoorn,Apeldoorn,Gelderland,VBO,5.938574,52.225771
Vonderlaan,8,,,7313AE,Apeldoorn,Apeldoorn,Gelderland,VBO,5.937847,52.225705
Vonderlaan,9,,,7313AE,Apeldoorn,Apeldoorn,Gelderland,VBO,5.938641,52.225644
Vonderlaan,10,,,7313AE,Apeldoorn,Apeldoorn,Gelderland,VBO,5.937901,52.225586
Vonderlaan,11,,,7313AE,Apeldoorn,Apeldoorn,Gelderland,VBO,5.938711,52.225523
Vonderlaan,12,,,7313AE,Apeldoorn,Apeldoorn,Gelderland,VBO,5.937974,52.225463
Vonderlaan,13,,,7313AE,Apeldoorn,Apeldoorn,Gelderland,VBO,5.938840,52.225327
Vonderlaan,14,,,7313AE,Apeldoorn,Apeldoorn,Gelderland,VBO,5.938154,52.225219
Vonderlaan,16,,,7313AE,Apeldoorn,Apeldoorn,Gelderland,VBO,5.938242,52.225063
Vonderlaan,15,,,7313AG,Apeldoorn,Apeldoorn,Gelderland,VBO,5.939206,52.224626
Vonderlaan,17,,,7313AG,Apeldoorn,Apeldoorn,Gelderland,VBO,5.939275,52.224472
Vonderlaan,19,,,7313AG,Apeldoorn,Apeldoorn,Gelderland,VBO,5.939386,52.224286
Vonderlaan,21,,,7313AG,Apeldoorn,Apeldoorn,Gelderland,VBO,5.939479,52.224131
Vonderlaan,22,,,7313AG,Apeldoorn,Apeldoorn,Gelderland,VBO,5.938712,52.224214
Vonderlaan,23,,,7313AG,Apeldoorn,Apeldoorn,Gelderland,VBO,5.939585,52.223956
Vonderlaan,24,,,7313AG,Apeldoorn,Apeldoorn,Gelderland,VBO,5.938848,52.224035
Vonderlaan,25,,,7313AG,Apeldoorn,Apeldoorn,Gelderland,VBO,5.939716,52.223791
Vonderlaan,27,,,7313AG,Apeldoorn,Apeldoorn,Gelderland,VBO,5.939978,52.223678
Vonderlaan,28,,,7313AG,Apeldoorn,Apeldoorn,Gelderland,VBO,5.938984,52.223740
1e Beukenlaan,1,A,,7313AH,Apeldoorn,Apeldoorn,Gelderland,VBO,5.936337,52.226042
1e Beukenlaan,1,,,7313AH,Apeldoorn,Apeldoorn,Gelderland,VBO,5.936322,52.226331
1e Beukenlaan,3,,,7313AH,Apeldoorn,Apeldoorn,Gelderland,VBO,5.936505,52.225682
Coniferenlaan,2,,,7313AH,Apeldoorn,Apeldoorn,Gelderland,VBO,5.936896,52.225885
Coniferenlaan,4,,,7313AH,Apeldoorn,Apeldoorn,Gelderland,VBO,5.937155,52.225978
1e Beukenlaan,2,,,7313AJ,Apeldoorn,Apeldoorn,Gelderland,VBO,5.935560,52.226573
1e Beukenlaan,5,,,7313AJ,Apeldoorn,Apeldoorn,Gelderland,VBO,5.936422,52.225390
1e Beukenlaan,6,,,7313AJ,Apeldoorn,Apeldoorn,Gelderland,VBO,5.935557,52.226295
1e Beukenlaan,7,,2,7313AJ,Apeldoorn,Apeldoorn,Gelderland,VBO,5.936398,52.225158
1e Beukenlaan,7,,,7313AJ,Apeldoorn,Apeldoorn,Gelderland,VBO,5.936397,52.225230
1e Beukenlaan,8,,,7313AJ,Apeldoorn,Apeldoorn,Gelderland,VBO,5.935614,52.226091
1e Beukenlaan,9,,,7313AJ,Apeldoorn,Apeldoorn,Gelderland,VBO,5.936480,52.224972
1e Beukenlaan,10,,,7313AJ,Apeldoorn,Apeldoorn,Gelderland,VBO,5.935717,52.225532
1e Beukenlaan,11,,,7313AJ,Apeldoorn,Apeldoorn,Gelderland,VBO,5.936483,52.224790
1e Beukenlaan,12,,,7313AJ,Apeldoorn,Apeldoorn,Gelderland,VBO,5.935624,52.225262
1e Beukenlaan,13,,,7313AJ,Apeldoorn,Apeldoorn,Gelderland,VBO,5.936533,52.224581
1e Beukenlaan,14,,,7313AJ,Apeldoorn,Apeldoorn,Gelderland,VBO,5.935773,52.224955
1e Beukenlaan,16,,,7313AJ,Apeldoorn,Apeldoorn,Gelderland,VBO,5.935785,52.224876
1e Beukenlaan,17,,,7313AJ,Apeldoorn,Apeldoorn,Gelderland,VBO,5.936502,52.224028
1e Beukenlaan,18,,,7313AJ,Apeldoorn,Apeldoorn,Gelderland,VBO,5.935764,52.224739
1e Beukenlaan,20,,,7313AJ,Apeldoorn,Apeldoorn,Gelderland,VBO,5.935876,52.224539
1e Beukenlaan,22,,,7313AJ,Apeldoorn,Apeldoorn,Gelderland,VBO,5.935919,52.224376
Eikenlaan,2,,,7313AK,Apeldoorn,Apeldoorn,Gelderland,VBO,5.938101,52.224828
Eikenlaan,4,,,7313AK,Apeldoorn,Apeldoorn,Gelderland,VBO,5.937763,52.224761
Eikenlaan,10,,,7313AK,Apeldoorn,Apeldoorn,Gelderland,VBO,5.937001,52.224649
Dennenlaan,1,,,7313AL,Apeldoorn,Apeldoorn,Gelderland,VBO,5.937523,52.224986
Dennenlaan,2,,,7313AL,Apeldoorn,Apeldoorn,Gelderland,VBO,5.937771,52.225250
Dennenlaan,4,,,7313AL,Apeldoorn,Apeldoorn,Gelderland,VBO,5.937513,52.225351
Dennenlaan,5,,,7313AL,Apeldoorn,Apeldoorn,Gelderland,VBO,5.937200,52.225098
Dennenlaan,6,,,7313AL,Apeldoorn,Apeldoorn,Gelderland,VBO,5.937260,52.225479
Dennenlaan,7,,,7313AL,Apeldoorn,Apeldoorn,Gelderland,VBO,5.936927,52.225172
Dennenlaan,8,,,7313AL,Apeldoorn,Apeldoorn,Gelderland,VBO,5.936887,52.225591
Dennenlaan,10,,,7313AM,Apeldoorn,Apeldoorn,Gelderland,VBO,5.935696,52.225875
Dennenlaan,12,,,7313AM,Apeldoorn,Apeldoorn,Gelderland,VBO,5.935410,52.225864
Dennenlaan,13,,,7313AM,Apeldoorn,Apeldoorn,Gelderland,VBO,5.935367,52.225500
Dennenlaan,15,,,7313AM,Apeldoorn,Apeldoorn,Gelderland,VBO,5.935079,52.225454
Dennenlaan,16,,,7313AM,Apeldoorn,Apeldoorn,Gelderland,VBO,5.934490,52.225633
Dennenlaan,17,,,7313AM,Apeldoorn,Apeldoorn,Gelderland,VBO,5.934860,52.225343
Dennenlaan,18,,,7313AM,Apeldoorn,Apeldoorn,Gelderland,VBO,5.934433,52.225587
Dennenlaan,19,,,7313AM,Apeldoorn,Apeldoorn,Gelderland,VBO,5.934920,52.225163
Dennenlaan,20,,,7313AM,Apeldoorn,Apeldoorn,Gelderland,VBO,5.934282,52.225470
2e Beukenlaan,1,A,,7313AN,Apeldoorn,Apeldoorn,Gelderland,VBO,5.932823,52.226536
2e Beukenlaan,1,,,7313AN,Apeldoorn,Apeldoorn,Gelderland,VBO,5.932866,52.226794
2e Beukenlaan,2,A,,7313AN,Apeldoorn,Apeldoorn,Gelderland,VBO,5.932151,52.226479
2e Beukenlaan,2,,,7313AN,Apeldoorn,Apeldoorn,Gelderland,VBO,5.932019,52.226790
2e Beukenlaan,3,,,7313AN,Apeldoorn,Apeldoorn,Gelderland,VBO,5.932907,52.226352
2e Beukenlaan,4,,,7313AN,Apeldoorn,Apeldoorn,Gelderland,VBO,5.932075,52.226234
2e Beukenlaan,5,,,7313AN,Apeldoorn,Apeldoorn,Gelderland,VBO,5.932934,52.226118
2e Beukenlaan,6,,,7313AN,Apeldoorn,Apeldoorn,Gelderland,VBO,5.932173,52.225995
2e Beukenlaan,7,,,7313AN,Apeldoorn,Apeldoorn,Gelderland,VBO,5.933015,52.225564
2e Beukenlaan,8,,,7313AN,Apeldoorn,Apeldoorn,Gelderland,VBO,5.932180,52.225908
2e Beukenlaan,10,,,7313AN,Apeldoorn,Apeldoorn,Gelderland,VBO,5.932256,52.225730
2e Beukenlaan,12,,,7313AN,Apeldoorn,Apeldoorn,Gelderland,VBO,5.932296,52.225481
2e Beukenlaan,14,,,7313AN,Apeldoorn,Apeldoorn,Gelderland,VBO,5.932254,52.225263
2e Beukenlaan,16,,,7313AN,Apeldoorn,Apeldoorn,Gelderland,VBO,5.932287,52.224948
2e Beukenlaan,18,,,7313AN,Apeldoorn,Apeldoorn,Gelderland,VBO,5.932411,52.224540
2e Beukenlaan,20,,,7313AN,Apeldoorn,Apeldoorn,Gelderland,VBO,5.932467,52.224312
2e Beukenlaan,22,,,7313AN,Apeldoorn,Apeldoorn,Gelderland,VBO,5.932442,52.223902
2e Beukenlaan,13,,,7313AP,Apeldoorn,Apeldoorn,Gelderland,VBO,5.933050,52.225030
2e Beukenlaan,15,,,7313AP,Apeldoorn,Apeldoorn,Gelderland,VBO,5.933106,52.224820
2e Beukenlaan,17,A,,7313AP,Apeldoorn,Apeldoorn,Gelderland,VBO,5.933283,52.224474
2e Beukenlaan,17,,,7313AP,Apeldoorn,Apeldoorn,Gelderland,VBO,5.933189,52.224631
2e Beukenlaan,19,,,7313AP,Apeldoorn,Apeldoorn,Gelderland,VBO,5.933292,52.224325
2e Beukenlaan,21,,,7313AP,Apeldoorn,Apeldoorn,Gelderland,VBO,5.933353,52.224045
2e Beukenlaan,25,,,7313AR,Apeldoorn,Apeldoorn,Gelderland,VBO,5.933076,52.223260
2e Beukenlaan,27,,,7313AR,Apeldoorn,Apeldoorn,Gelderland,VBO,5.933291,52.223128
2e Beukenlaan,29,,,7313AR,Apeldoorn,Apeldoorn,Gelderland,VBO,5.933422,52.222804
2e Beukenlaan,31,,,7313AR,Apeldoorn,Apeldoorn,Gelderland,VBO,5.933553,52.222316
2e Beukenlaan,33,,,7313AR,Apeldoorn,Apeldoorn,Gelderland,VBO,5.933644,52.222112
2e Beukenlaan,37,,,7313AR,Apeldoorn,Apeldoorn,Gelderland,VBO,5.933764,52.221395
2e Beukenlaan,39,,,7313AR,Apeldoorn,Apeldoorn,Gelderland,VBO,5.933783,52.220999
2e Beukenlaan,43,,,7313AR,Apeldoorn,Apeldoorn,Gelderland,VBO,5.933643,52.220587
2e Beukenlaan,45,,,7313AR,Apeldoorn,Apeldoorn,Gelderland,VBO,5.933388,52.219873
2e Beukenlaan,47,,,7313AR,Apeldoorn,Apeldoorn,Gelderland,VBO,5.933346,52.219699
2e Beukenlaan,49,,,7313AR,Apeldoorn,Apeldoorn,Gelderland,VBO,5.933325,52.219531
2e Beukenlaan,24,,,7313AS,Apeldoorn,Apeldoorn,Gelderland,VBO,5.932314,52.223144
2e Beukenlaan,26,,,7313AS,Apeldoorn,Apeldoorn,Gelderland,VBO,5.932422,52.223023
2e Beukenlaan,28,,,7313AS,Apeldoorn,Apeldoorn,Gelderland,VBO,5.932562,52.222906
2e Beukenlaan,32,,,7313AS,Apeldoorn,Apeldoorn,Gelderland,VBO,5.932715,52.222561
2e Beukenlaan,36,,,7313AS,Apeldoorn,Apeldoorn,Gelderland,VBO,5.932963,52.221387
2e Beukenlaan,38,A,,7313AS,Apeldoorn,Apeldoorn,Gelderland,VBO,5.932661,52.221111
2e Beukenlaan,38,,,7313AS,Apeldoorn,Apeldoorn,Gelderland,VBO,5.932917,52.221001
2e Beukenlaan,40,,,7313AS,Apeldoorn,Apeldoorn,Gelderland,VBO,5.932852,52.220670
2e Beukenlaan,42,A,,7313AS,Apeldoorn,Apeldoorn,Gelderland,VBO,5.932569,52.219681
2e Beukenlaan,42,,,7313AS,Apeldoorn,Apeldoorn,Gelderland,VBO,5.932547,52.219773
2e Beukenlaan,44,,,7313AS,Apeldoorn,Apeldoorn,Gelderland,VBO,5.932523,52.219451
Sparrenlaan,1,A,,7313AT,Apeldoorn,Apeldoorn,Gelderland,VBO,5.931114,52.226652
Sparrenlaan,1,,,7313AT,Apeldoorn,Apeldoorn,Gelderland,VBO,5.931052,52.226865
Sparrenlaan,3,A,,7313AT,Apeldoorn,Apeldoorn,Gelderland,VBO,5.931263,52.226281
Sparrenlaan,3,,,7313AT,Apeldoorn,Apeldoorn,Gelderland,VBO,5.931198,52.226462
Sparrenlaan,5,,,7313AT,Apeldoorn,Apeldoorn,Gelderland,VBO,5.931369,52.226034
Sparrenlaan,7,,,7313AT,Apeldoorn,Apeldoorn,Gelderland,VBO,5.931445,52.225796
Sparrenlaan,9,,,7313AT,Apeldoorn,Apeldoorn,Gelderland,VBO,5.931571,52.225561
Sparrenlaan,11,,,7313AT,Apeldoorn,Apeldoorn,Gelderland,VBO,5.931645,52.225356
Sparrenlaan,13,,,7313AT,Apeldoorn,Apeldoorn,Gelderland,VBO,5.931686,52.225201
Sparrenlaan,15,,,7313AT,Apeldoorn,Apeldoorn,Gelderland,VBO,5.931706,52.225019
Sparrenlaan,17,,,7313AT,Apeldoorn,Apeldoorn,Gelderland,VBO,5.931748,52.224877
Sparrenlaan,19,,,7313AT,Apeldoorn,Apeldoorn,Gelderland,VBO,5.931785,52.224718
Sparrenlaan,21,,,7313AT,Apeldoorn,Apeldoorn,Gelderland,VBO,5.931942,52.224580
Sparrenlaan,23,,,7313AT,Apeldoorn,Apeldoorn,Gelderland,VBO,5.931977,52.224457
Sparrenlaan,25,,,7313AT,Apeldoorn,Apeldoorn,Gelderland,VBO,5.932025,52.224314
Sparrenlaan,27,,,7313AT,Apeldoorn,Apeldoorn,Gelderland,VBO,5.932114,52.224153
Sparrenlaan,2,,,7313AV,Apeldoorn,Apeldoorn,Gelderland,VBO,5.930666,52.226557
Sparrenlaan,6,,,7313AV,Apeldoorn,Apeldoorn,Gelderland,VBO,5.930828,52.226093
Sparrenlaan,10,,,7313AV,Apeldoorn,Apeldoorn,Gelderland,VBO,5.930809,52.225900
Sparrenlaan,12,,,7313AV,Apeldoorn,Apeldoorn,Gelderland,VBO,5.930839,52.225651
Sparrenlaan,16,,,7313AV,Apeldoorn,Apeldoorn,Gelderland,VBO,5.931053,52.225365
Sparrenlaan,20,,,7313AV,Apeldoorn,Apeldoorn,Gelderland,VBO,5.931221,52.224978
Sparrenlaan,22,,,7313AV,Apeldoorn,Apeldoorn,Gelderland,VBO,5.931332,52.224729
Sparrenlaan,24,,,7313AV,Apeldoorn,Apeldoorn,Gelderland,VBO,5.931422,52.224487
Sparrenlaan,26,,,7313AV,Apeldoorn,Apeldoorn,Gelderland,VBO,5.931523,52.224257
Sparrenlaan,28,,,7313AV,Apeldoorn,Apeldoorn,Gelderland,VBO,5.931616,52.224119
Pijnboomlaan,30,,,7313AW,Apeldoorn,Apeldoorn,Gelderland,VBO,5.930166,52.224067
Pijnboomlaan,33,,,7313AW,Apeldoorn,Apeldoorn,Gelderland,VBO,5.930774,52.224289
Lijsterbeslaan,2,,,7313AX,Apeldoorn,Apeldoorn,Gelderland,VBO,5.935025,52.225959
Lijsterbeslaan,4,,,7313AX,Apeldoorn,Apeldoorn,Gelderland,VBO,5.934735,52.225971
Lijsterbeslaan,6,,,7313AX,Apeldoorn,Apeldoorn,Gelderland,VBO,5.934424,52.225983
Lijsterbeslaan,8,A,,7313AX,Apeldoorn,Apeldoorn,Gelderland,VBO,5.934079,52.225995
Lijsterbeslaan,8,B,,7313AX,Apeldoorn,Apeldoorn,Gelderland,VBO,5.933777,52.226008
Lijsterbeslaan,10,,,7313AX,Apeldoorn,Apeldoorn,Gelderland,VBO,5.933522,52.226021
Lijsterbeslaan,12,,,7313AX,Apeldoorn,Apeldoorn,Gelderland,VBO,5.933251,52.226015
Wildernislaan,2,,,7313BA,Apeldoorn,Apeldoorn,Gelderland,VBO,5.938361,52.223769
Wildernislaan,3,,,7313BA,Apeldoorn,Apeldoorn,Gelderland,VBO,5.937893,52.223358
Wildernislaan,4,,,7313BA,Apeldoorn,Apeldoorn,Gelderland,VBO,5.937914,52.223824
Wildernislaan,5,,,7313BA,Apeldoorn,Apeldoorn,Gelderland,VBO,5.937474,52.223379
Wildernislaan,7,,,7313BA,Apeldoorn,Apeldoorn,Gelderland,VBO,5.937127,52.223419
Wildernislaan,9,,,7313BA,Apeldoorn,Apeldoorn,Gelderland,VBO,5.936755,52.223493
Wildernislaan,6,,,7313BB,Apeldoorn,Apeldoorn,Gelderland,VBO,5.935949,52.224008
Wildernislaan,8,,,7313BB,Apeldoorn,Apeldoorn,Gelderland,VBO,5.935487,52.224446
Wildernislaan,10,,,7313BB,Apeldoorn,Apeldoorn,Gelderland,VBO,5.935345,52.224028
Wildernislaan,12,,,7313BB,Apeldoorn,Apeldoorn,Gelderland,VBO,5.933856,52.224036
Wildernislaan,13,,,7313BB,Apeldoorn,Apeldoorn,Gelderland,VBO,5.934230,52.223578
Wildernislaan,15,,,7313BB,Apeldoorn,Apeldoorn,Gelderland,VBO,5.933838,52.223575
Wildernislaan,17,,,7313BB,Apeldoorn,Apeldoorn,Gelderland,VBO,5.933451,52.223560
Wildernislaan,19,,,7313BB,Apeldoorn,Apeldoorn,Gelderland,VBO,5.933065,52.223455
Wildernislaan,23,,,7313BC,Apeldoorn,Apeldoorn,Gelderland,VBO,5.932244,52.223356
Wildernislaan,24,,,7313BC,Apeldoorn,Apeldoorn,Gelderland,VBO,5.931780,52.223842
Wildernislaan,25,,,7313BC,Apeldoorn,Apeldoorn,Gelderland,VBO,5.931985,52.223324
Wildernislaan,26,,,7313BC,Apeldoorn,Apeldoorn,Gelderland,VBO,5.931247,52.223669
Wildernislaan,27,,,7313BC,Apeldoorn,Apeldoorn,Gelderland,VBO,5.931719,52.223227
Wildernislaan,29,,,7313BC,Apeldoorn,Apeldoorn,Gelderland,VBO,5.931337,52.223189
Wildernislaan,31,,,7313BC,Apeldoorn,Apeldoorn,Gelderland,VBO,5.931026,52.223137
Wildernislaan,33,,,7313BC,Apeldoorn,Apeldoorn,Gelderland,VBO,5.930652,52.223126
Wildernislaan,35,,,7313BC,Apeldoorn,Apeldoorn,Gelderland,VBO,5.930234,52.223117
Wildernislaan,37,,,7313BC,Apeldoorn,Apeldoorn,Gelderland,VBO,5.929847,52.223127
Wildernislaan,39,,,7313BC,Apeldoorn,Apeldoorn,Gelderland,VBO,5.929463,52.223114
Wildernislaan,41,,,7313BC,Apeldoorn,Apeldoorn,Gelderland,VBO,5.929098,52.223178
Wildernislaan,43,,,7313BD,Apeldoorn,Apeldoorn,Gelderland,VBO,5.928092,52.223173
Wildernislaan,45,,,7313BD,Apeldoorn,Apeldoorn,Gelderland,VBO,5.927751,52.223153
Wildernislaan,47,,,7313BD,Apeldoorn,Apeldoorn,Gelderland,VBO,5.927046,52.223163
Wildernislaan,49,,,7313BD,Apeldoorn,Apeldoorn,Gelderland,VBO,5.926541,52.223146
Wildernislaan,51,,,7313BD,Apeldoorn,Apeldoorn,Gelderland,VBO,5.925770,52.223253
Wildernislaan,53,,,7313BD,Apeldoorn,Apeldoorn,Gelderland,VBO,5.925235,52.223236
Wildernislaan,55,,,7313BD,Apeldoorn,Apeldoorn,Gelderland,VBO,5.924764,52.223256
Wildernislaan,57,,,7313BD,Apeldoorn,Apeldoorn,Gelderland,VBO,5.924282,52.223228
Wildernislaan,59,,,7313BD,Apeldoorn,Apeldoorn,Gelderland,VBO,5.923745,52.223250
Wildernislaan,61,,,7313BD,Apeldoorn,Apeldoorn,Gelderland,VBO,5.923280,52.223276
Wildernislaan,63,,,7313BD,Apeldoorn,Apeldoorn,Gelderland,VBO,5.922728,52.223279
Genistalaan,1,,,7313BE,Apeldoorn,Apeldoorn,Gelderland,VBO,5.936262,52.220776
Genistalaan,2,,,7313BE,Apeldoorn,Apeldoorn,Gelderland,VBO,5.937081,52.220818
Genistalaan,3,,,7313BE,Apeldoorn,Apeldoorn,Gelderland,VBO,5.936073,52.221152
Genistalaan,4,,,7313BE,Apeldoorn,Apeldoorn,Gelderland,VBO,5.937150,52.221034
Genistalaan,6,,,7313BE,Apeldoorn,Apeldoorn,Gelderland,VBO,5.937200,52.221278
Genistalaan,5,,,7313BG,Apeldoorn,Apeldoorn,Gelderland,VBO,5.936165,52.221615
Genistalaan,7,,,7313BG,Apeldoorn,Apeldoorn,Gelderland,VBO,5.936081,52.221829
Genistalaan,8,,,7313BG,Apeldoorn,Apeldoorn,Gelderland,VBO,5.937081,52.221755
Genistalaan,9,,,7313BG,Apeldoorn,Apeldoorn,Gelderland,VBO,5.936072,52.221993
Genistalaan,10,,,7313BG,Apeldoorn,Apeldoorn,Gelderland,VBO,5.936914,52.221953
Genistalaan,11,,,7313BG,Apeldoorn,Apeldoorn,Gelderland,VBO,5.935433,52.222449
Genistalaan,12,,,7313BG,Apeldoorn,Apeldoorn,Gelderland,VBO,5.936843,52.222143
Genistalaan,13,,,7313BG,Apeldoorn,Apeldoorn,Gelderland,VBO,5.934679,52.223330
Genistalaan,14,,,7313BG,Apeldoorn,Apeldoorn,Gelderland,VBO,5.936872,52.222206
Genistalaan,15,,,7313BG,Apeldoorn,Apeldoorn,Gelderland,VBO,5.934531,52.223579
Genistalaan,16,,,7313BG,Apeldoorn,Apeldoorn,Gelderland,VBO,5.936902,52.222270
Genistalaan,18,A,,7313BG,Apeldoorn,Apeldoorn,Gelderland,VBO,5.936186,52.223035
Genistalaan,18,,,7313BG,Apeldoorn,Apeldoorn,Gelderland,VBO,5.935964,52.222795
Genistalaan,17,,,7313BH,Apeldoorn,Apeldoorn,Gelderland,VBO,5.934368,52.224010
Genistalaan,21,,,7313BH,Apeldoorn,Apeldoorn,Gelderland,VBO,5.934192,52.224356
Genistalaan,23,,,7313BH,Apeldoorn,Apeldoorn,Gelderland,VBO,5.934144,52.224482
Genistalaan,25,,,7313BH,Apeldoorn,Apeldoorn,Gelderland,VBO,5.934122,52.224712
Genistalaan,27,,,7313BH,Apeldoorn,Apeldoorn,Gelderland,VBO,5.934097,52.224876
Genistalaan,29,,,7313BH,Apeldoorn,Apeldoorn,Gelderland,VBO,5.934023,52.225031
Genistalaan,31,,,7313BH,Apeldoorn,Apeldoorn,Gelderland,VBO,5.933765,52.225067
Genistalaan,33,,,7313BH,Apeldoorn,Apeldoorn,Gelderland,VBO,5.933530,52.225169
Genistalaan,35,,,7313BH,Apeldoorn,Apeldoorn,Gelderland,VBO,5.933061,52.225180
Genistalaan,20,,,7313BJ,Apeldoorn,Apeldoorn,Gelderland,VBO,5.935066,52.224007
Genistalaan,22,,,7313BJ,Apeldoorn,Apeldoorn,Gelderland,VBO,5.935013,52.224280
Genistalaan,24,,,7313BJ,Apeldoorn,Apeldoorn,Gelderland,VBO,5.934937,52.224427
Genistalaan,26,,,7313BJ,Apeldoorn,Apeldoorn,Gelderland,VBO,5.934967,52.224646
Genistalaan,28,A,,7313BJ,Apeldoorn,Apeldoorn,Gelderland,VBO,5.934879,52.225000
Genistalaan,28,,,7313BJ,Apeldoorn,Apeldoorn,Gelderland,VBO,5.934857,52.224839
Genistalaan,30,,,7313BJ,Apeldoorn,Apeldoorn,Gelderland,VBO,5.933966,52.225545
Genistalaan,32,,,7313BJ,Apeldoorn,Apeldoorn,Gelderland,VBO,5.933710,52.225549
Genistalaan,34,,,7313BJ,Apeldoorn,Apeldoorn,Gelderland,VBO,5.933495,52.225565
Genistalaan,36,,,7313BJ,Apeldoorn,Apeldoorn,Gelderland,VBO,5.933258,52.225572
Valkenberglaan,16,,,7313BK,Apeldoorn,Apeldoorn,Gelderland,VBO,5.939174,52.225188
Valkenberglaan,17,,,7313BK,Apeldoorn,Apeldoorn,Gelderland,VBO,5.939131,52.224653
Valkenberglaan,18,,,7313BK,Apeldoorn,Apeldoorn,Gelderland,VBO,5.938909,52.225109
Valkenberglaan,19,,,7313BK,Apeldoorn,Apeldoorn,Gelderland,VBO,5.938672,52.224425
Valkenberglaan,20,,,7313BK,Apeldoorn,Apeldoorn,Gelderland,VBO,5.937506,52.224422
Valkenberglaan,21,,,7313BK,Apeldoorn,Apeldoorn,Gelderland,VBO,5.938253,52.224267
Valkenberglaan,22,,,7313BK,Apeldoorn,Apeldoorn,Gelderland,VBO,5.937240,52.224368
Valkenberglaan,23,,,7313BK,Apeldoorn,Apeldoorn,Gelderland,VBO,5.938177,52.224235
Valkenberglaan,24,,,7313BK,Apeldoorn,Apeldoorn,Gelderland,VBO,5.936847,52.224208
Valkenberglaan,25,,,7313BK,Apeldoorn,Apeldoorn,Gelderland,VBO,5.937879,52.224116
Valkenberglaan,27,,,7313BK,Apeldoorn,Apeldoorn,Gelderland,VBO,5.937617,52.223989
Valkenberglaan,29,,,7313BK,Apeldoorn,Apeldoorn,Gelderland,VBO,5.937237,52.223845
Valkenberglaan,31,,,7313BL,Apeldoorn,Apeldoorn,Gelderland,VBO,5.936364,52.223463
Valkenberglaan,32,,,7313BL,Apeldoorn,Apeldoorn,Gelderland,VBO,5.934312,52.223191
Valkenberglaan,33,,,7313BL,Apeldoorn,Apeldoorn,Gelderland,VBO,5.936151,52.223268
Valkenberglaan,34,A,,7313BL,Apeldoorn,Apeldoorn,Gelderland,VBO,5.933585,52.223299
Valkenberglaan,34,,,7313BL,Apeldoorn,Apeldoorn,Gelderland,VBO,5.934011,52.223121
Valkenberglaan,35,A,,7313BL,Apeldoorn,Apeldoorn,Gelderland,VBO,5.935045,52.222894
Valkenberglaan,35,B,,7313BL,Apeldoorn,Apeldoorn,Gelderland,VBO,5.934754,52.222761
Valkenberglaan,35,,,7313BL,Apeldoorn,Apeldoorn,Gelderland,VBO,5.935604,52.223141
Valkenberglaan,36,,,7313BL,Apeldoorn,Apeldoorn,Gelderland,VBO,5.933729,52.222968
Valkenberglaan,37,,,7313BL,Apeldoorn,Apeldoorn,Gelderland,VBO,5.934437,52.222709
Valkenberglaan,38,,,7313BL,Apeldoorn,Apeldoorn,Gelderland,VBO,5.932293,52.222370
Valkenberglaan,39,,,7313BL,Apeldoorn,Apeldoorn,Gelderland,VBO,5.934196,52.222567
Valkenberglaan,41,,,7313BL,Apeldoorn,Apeldoorn,Gelderland,VBO,5.933982,52.222497
Valkenberglaan,46,,,7313BM,Apeldoorn,Apeldoorn,Gelderland,VBO,5.930227,52.221551
Valkenberglaan,48,,,7313BM,Apeldoorn,Apeldoorn,Gelderland,VBO,5.929895,52.221458
Valkenberglaan,50,,,7313BM,Apeldoorn,Apeldoorn,Gelderland,VBO,5.929518,52.221181
Valkenberglaan,51,,,7313BM,Apeldoorn,Apeldoorn,Gelderland,VBO,5.931526,52.221488
Valkenberglaan,52,,,7313BM,Apeldoorn,Apeldoorn,Gelderland,VBO,5.929242,52.220995
Valkenberglaan,53,,,7313BM,Apeldoorn,Apeldoorn,Gelderland,VBO,5.931313,52.221337
Valkenberglaan,54,,,7313BM,Apeldoorn,Apeldoorn,Gelderland,VBO,5.928849,52.220944
Valkenberglaan,55,,,7313BM,Apeldoorn,Apeldoorn,Gelderland,VBO,5.931078,52.221273
Valkenberglaan,57,,,7313BM,Apeldoorn,Apeldoorn,Gelderland,VBO,5.930844,52.221138
Valkenberglaan,59,,,7313BM,Apeldoorn,Apeldoorn,Gelderland,VBO,5.930541,52.221082
Valkenberglaan,61,,,7313BM,Apeldoorn,Apeldoorn,Gelderland,VBO,5.930334,52.220972
Vijfspronglaan,4,,,7313BN,Apeldoorn,Apeldoorn,Gelderland,VBO,5.938018,52.222361
Vijfspronglaan,6,,,7313BN,Apeldoorn,Apeldoorn,Gelderland,VBO,5.937812,52.222186
Vijfspronglaan,15,,,7313BN,Apeldoorn,Apeldoorn,Gelderland,VBO,5.937952,52.221541
Ahornlaan,3,,,7313BP,Apeldoorn,Apeldoorn,Gelderland,VBO,5.935555,52.221139
Ahornlaan,4,,,7313BP,Apeldoorn,Apeldoorn,Gelderland,VBO,5.935576,52.221527
Ahornlaan,5,,,7313BP,Apeldoorn,Apeldoorn,Gelderland,VBO,5.935142,52.221077
Ahornlaan,6,,,7313BP,Apeldoorn,Apeldoorn,Gelderland,VBO,5.935204,52.221457
Ahornlaan,7,,,7313BP,Apeldoorn,Apeldoorn,Gelderland,VBO,5.934545,52.221004
Ahornlaan,8,,,7313BP,Apeldoorn,Apeldoorn,Gelderland,VBO,5.934768,52.221394
Ahornlaan,10,,,7313BP,Apeldoorn,Apeldoorn,Gelderland,VBO,5.934442,52.221346
Cederlaan,9,A,,7313BR,Apeldoorn,Apeldoorn,Gelderland,VBO,5.931941,52.222547
Cederlaan,9,,,7313BR,Apeldoorn,Apeldoorn,Gelderland,VBO,5.931828,52.222556
Cederlaan,11,,,7313BR,Apeldoorn,Apeldoorn,Gelderland,VBO,5.931472,52.222534
Cederlaan,13,,,7313BR,Apeldoorn,Apeldoorn,Gelderland,VBO,5.931115,52.222501
Cederlaan,15,,,7313BR,Apeldoorn,Apeldoorn,Gelderland,VBO,5.930846,52.222511
Cederlaan,19,,,7313BR,Apeldoorn,Apeldoorn,Gelderland,VBO,5.930501,52.222488
Cederlaan,21,,,7313BR,Apeldoorn,Apeldoorn,Gelderland,VBO,5.930163,52.222542
Cederlaan,23,,,7313BR,Apeldoorn,Apeldoorn,Gelderland,VBO,5.929861,52.222523
Cederlaan,25,,,7313BR,Apeldoorn,Apeldoorn,Gelderland,VBO,5.929742,52.222528
Cederlaan,29,,,7313BR,Apeldoorn,Apeldoorn,Gelderland,VBO,5.929431,52.222524
Cederlaan,31,,,7313BR,Apeldoorn,Apeldoorn,Gelderland,VBO,5.929164,52.222520
Cederlaan,33,,,7313BR,Apeldoorn,Apeldoorn,Gelderland,VBO,5.929052,52.222485
Cederlaan,35,,,7313BR,Apeldoorn,Apeldoorn,Gelderland,VBO,5.928954,52.222298
Cederlaan,6,,,7313BS,Apeldoorn,Apeldoorn,Gelderland,VBO,5.931832,52.222899
Cederlaan,8,,,7313BS,Apeldoorn,Apeldoorn,Gelderland,VBO,5.931453,52.222864
Cederlaan,10,,,7313BS,Apeldoorn,Apeldoorn,Gelderland,VBO,5.931150,52.222893
Cederlaan,14,,,7313BS,Apeldoorn,Apeldoorn,Gelderland,VBO,5.930817,52.222880
Cederlaan,16,,,7313BS,Apeldoorn,Apeldoorn,Gelderland,VBO,5.930525,52.222863
Cederlaan,18,,,7313BS,Apeldoorn,Apeldoorn,Gelderland,VBO,5.930407,52.222863
Cederlaan,22,,,7313BS,Apeldoorn,Apeldoorn,Gelderland,VBO,5.929789,52.222886
Cederlaan,24,,,7313BS,Apeldoorn,Apeldoorn,Gelderland,VBO,5.929486,52.222902
Cederlaan,26,,,7313BS,Apeldoorn,Apeldoorn,Gelderland,VBO,5.929137,52.222911
Cederlaan,30,,,7313BT,Apeldoorn,Apeldoorn,Gelderland,VBO,5.928352,52.223204
Cederlaan,34,,,7313BT,Apeldoorn,Apeldoorn,Gelderland,VBO,5.928529,52.222893
Cederlaan,36,,,7313BT,Apeldoorn,Apeldoorn,Gelderland,VBO,5.928500,52.222735
Cederlaan,38,,,7313BT,Apeldoorn,Apeldoorn,Gelderland,VBO,5.928394,52.222564
Cederlaan,40,,,7313BT,Apeldoorn,Apeldoorn,Gelderland,VBO,5.928300,52.222367
Excelsalaan,1,,,7313BV,Apeldoorn,Apeldoorn,Gelderland,VBO,5.925479,52.222622
Excelsalaan,2,,,7313BV,Apeldoorn,Apeldoorn,Gelderland,VBO,5.926306,52.222372
Excelsalaan,3,,,7313BV,Apeldoorn,Apeldoorn,Gelderland,VBO,5.925119,52.222568
Excelsalaan,4,,,7313BV,Apeldoorn,Apeldoorn,Gelderland,VBO,5.926287,52.222704
Excelsalaan,5,,,7313BV,Apeldoorn,Apeldoorn,Gelderland,VBO,5.924705,52.222538
Excelsalaan,7,,,7313BV,Apeldoorn,Apeldoorn,Gelderland,VBO,5.924233,52.222484
Excelsalaan,9,,,7313BV,Apeldoorn,Apeldoorn,Gelderland,VBO,5.923705,52.222479
Excelsalaan,10,,,7313BV,Apeldoorn,Apeldoorn,Gelderland,VBO,5.925769,52.222992
Excelsalaan,11,,,7313BV,Apeldoorn,Apeldoorn,Gelderland,VBO,5.923250,52.222387
Excelsalaan,12,,,7313BV,Apeldoorn,Apeldoorn,Gelderland,VBO,5.925300,52.222923
Excelsalaan,14,,,7313BV,Apeldoorn,Apeldoorn,Gelderland,VBO,5.924787,52.222919
Excelsalaan,16,,,7313BV,Apeldoorn,Apeldoorn,Gelderland,VBO,5.924296,52.222909
Excelsalaan,18,,,7313BV,Apeldoorn,Apeldoorn,Gelderland,VBO,5.923740,52.222870
Excelsalaan,20,,,7313BV,Apeldoorn,Apeldoorn,Gelderland,VBO,5.923304,52.222891
Juniperlaan,51,,,7313BW,Apeldoorn,Apeldoorn,Gelderland,VBO,5.922688,52.222968
Juniperlaan,53,,,7313BW,Apeldoorn,Apeldoorn,Gelderland,VBO,5.922657,52.222748
Juniperlaan,55,,,7313BW,Apeldoorn,Apeldoorn,Gelderland,VBO,5.922719,52.222336
Juniperlaan,57,,,7313BW,Apeldoorn,Apeldoorn,Gelderland,VBO,5.922976,52.222080
Juniperlaan,61,,,7313BW,Apeldoorn,Apeldoorn,Gelderland,VBO,5.923088,52.221474
Juniperlaan,63,,,7313BW,Apeldoorn,Apeldoorn,Gelderland,VBO,5.923242,52.221054
Bosweg,77,,,7313CA,Apeldoorn,Apeldoorn,Gelderland,VBO,5.939303,52.223006
Bosweg,81,A,,7313CA,Apeldoorn,Apeldoorn,Gelderland,VBO,5.938171,52.222654
Bosweg,81,,,7313CA,Apeldoorn,Apeldoorn,Gelderland,VBO,5.938482,52.222804
Bosweg,83,A,,7313CA,Apeldoorn,Apeldoorn,Gelderland,VBO,5.937550,52.222492
Bosweg,83,,,7313CA,Apeldoorn,Apeldoorn,Gelderland,VBO,5.937856,52.222588
Bosweg,85,,,7313CA,Apeldoorn,Apeldoorn,Gelderland,VBO,5.937172,52.222339
Bosweg,87,,,7313CA,Apeldoorn,Apeldoorn,Gelderland,VBO,5.935411,52.221872
Bosweg,89,,,7313CA,Apeldoorn,Apeldoorn,Gelderland,VBO,5.935060,52.221784
Bosweg,91,,,7313CA,Apeldoorn,Apeldoorn,Gelderland,VBO,5.934692,52.221670
Bosweg,93,,,7313CA,Apeldoorn,Apeldoorn,Gelderland,VBO,5.934283,52.221641
Bosweg,97,,,7313CA,Apeldoorn,Apeldoorn,Gelderland,VBO,5.933684,52.221630
Bosweg,99,,,7313CA,Apeldoorn,Apeldoorn,Gelderland,VBO,5.932626,52.221629
Bosweg,101,,,7313CA,Apeldoorn,Apeldoorn,Gelderland,VBO,5.932205,52.221642
Bosweg,103,,,7313CB,Apeldoorn,Apeldoorn,Gelderland,VBO,5.930817,52.221783
Bosweg,105,,,7313CB,Apeldoorn,Apeldoorn,Gelderland,VBO,5.930202,52.221831
Bosweg,107,,,7313CB,Apeldoorn,Apeldoorn,Gelderland,VBO,5.929839,52.221839
Bosweg,109,,,7313CB,Apeldoorn,Apeldoorn,Gelderland,VBO,5.929536,52.221838
Bosweg,111,,,7313CB,Apeldoorn,Apeldoorn,Gelderland,VBO,5.929197,52.221881
Bosweg,113,,,7313CB,Apeldoorn,Apeldoorn,Gelderland,VBO,5.928865,52.221864
Bosweg,115,,,7313CB,Apeldoorn,Apeldoorn,Gelderland,VBO,5.928499,52.221903
Bosweg,117,,,7313CB,Apeldoorn,Apeldoorn,Gelderland,VBO,5.928119,52.221904
Bosweg,123,,,7313CB,Apeldoorn,Apeldoorn,Gelderland,VBO,5.927616,52.221919
Bosweg,125,,,7313CC,Apeldoorn,Apeldoorn,Gelderland,VBO,5.926782,52.221938
Bosweg,127,A,,7313CC,Apeldoorn,Apeldoorn,Gelderland,VBO,5.926401,52.221900
Bosweg,127,B,,7313CC,Apeldoorn,Apeldoorn,Gelderland,VBO,5.926041,52.221906
Bosweg,129,,,7313CC,Apeldoorn,Apeldoorn,Gelderland,VBO,5.925668,52.221887
Bosweg,131,,,7313CC,Apeldoorn,Apeldoorn,Gelderland,VBO,5.925292,52.221801
Bosweg,133,,,7313CC,Apeldoorn,Apeldoorn,Gelderland,VBO,5.924775,52.221701
Bosweg,137,,,7313CC,Apeldoorn,Apeldoorn,Gelderland,VBO,5.923587,52.221514
Bosweg,78,,,7313CD,Apeldoorn,Apeldoorn,Gelderland,VBO,5.940252,52.223619
Bosweg,80,,,7313CD,Apeldoorn,Apeldoorn,Gelderland,VBO,5.938340,52.223341
Bosweg,82,,,7313CD,Apeldoorn,Apeldoorn,Gelderland,VBO,5.937968,52.223133
Bosweg,84,,,7313CD,Apeldoorn,Apeldoorn,Gelderland,VBO,5.937496,52.223067
Bosweg,86,,,7313CD,Apeldoorn,Apeldoorn,Gelderland,VBO,5.937178,52.222951
Bosweg,88,,,7313CD,Apeldoorn,Apeldoorn,Gelderland,VBO,5.936761,52.222793
Bosweg,90,A,,7313CD,Apeldoorn,Apeldoorn,Gelderland,VBO,5.935042,52.222237
Bosweg,90,,,7313CD,Apeldoorn,Apeldoorn,Gelderland,VBO,5.936370,52.222628
Bosweg,92,,,7313CD,Apeldoorn,Apeldoorn,Gelderland,VBO,5.934669,52.222156
Bosweg,94,,,7313CD,Apeldoorn,Apeldoorn,Gelderland,VBO,5.934059,52.222088
Bosweg,98,,,7313CE,Apeldoorn,Apeldoorn,Gelderland,VBO,5.931942,52.222242
Bosweg,100,,,7313CE,Apeldoorn,Apeldoorn,Gelderland,VBO,5.931451,52.222235
Bosweg,102,,,7313CE,Apeldoorn,Apeldoorn,Gelderland,VBO,5.930997,52.222322
Bosweg,106,,,7313CE,Apeldoorn,Apeldoorn,Gelderland,VBO,5.930586,52.222268
Bosweg,108,,,7313CE,Apeldoorn,Apeldoorn,Gelderland,VBO,5.929978,52.222274
Bosweg,110,,,7313CE,Apeldoorn,Apeldoorn,Gelderland,VBO,5.929442,52.222309
Bosweg,116,,,7313CG,Apeldoorn,Apeldoorn,Gelderland,VBO,5.926851,52.222433
Bosweg,120,,,7313CG,Apeldoorn,Apeldoorn,Gelderland,VBO,5.925502,52.222334
Bosweg,122,,,7313CG,Apeldoorn,Apeldoorn,Gelderland,VBO,5.925123,52.222268
Bosweg,124,,,7313CG,Apeldoorn,Apeldoorn,Gelderland,VBO,5.924706,52.222234
Bosweg,128,,,7313CG,Apeldoorn,Apeldoorn,Gelderland,VBO,5.924069,52.222151
Bosweg,130,,,7313CG,Apeldoorn,Apeldoorn,Gelderland,VBO,5.923582,52.222121
Seringenlaan,1,,,7313CH,Apeldoorn,Apeldoorn,Gelderland,VBO,5.927738,52.222875
Seringenlaan,3,,,7313CH,Apeldoorn,Apeldoorn,Gelderland,VBO,5.927719,52.222651
Seringenlaan,5,,,7313CH,Apeldoorn,Apeldoorn,Gelderland,VBO,5.927703,52.222418
Seringenlaan,6,,,7313CH,Apeldoorn,Apeldoorn,Gelderland,VBO,5.927012,52.222982
Seringenlaan,8,,,7313CH,Apeldoorn,Apeldoorn,Gelderland,VBO,5.926944,52.222710
Seringenlaan,14,,,7313CH,Apeldoorn,Apeldoorn,Gelderland,VBO,5.926858,52.221727
Seringenlaan,16,A,,7313CH,Apeldoorn,Apeldoorn,Gelderland,VBO,5.926675,52.221238
Seringenlaan,16,,,7313CH,Apeldoorn,Apeldoorn,Gelderland,VBO,5.926724,52.221439
Seringenlaan,18,,,7313CH,Apeldoorn,Apeldoorn,Gelderland,VBO,5.926964,52.221054
Seringenlaan,19,,,7313CH,Apeldoorn,Apeldoorn,Gelderland,VBO,5.927576,52.221611
Seringenlaan,20,,,7313CH,Apeldoorn,Apeldoorn,Gelderland,VBO,5.927203,52.220710
Seringenlaan,21,A,,7313CH,Apeldoorn,Apeldoorn,Gelderland,VBO,5.927541,52.221315
Seringenlaan,21,,,7313CH,Apeldoorn,Apeldoorn,Gelderland,VBO,5.928241,52.221322
Seringenlaan,23,,,7313CH,Apeldoorn,Apeldoorn,Gelderland,VBO,5.927670,52.221128
Seringenlaan,25,,,7313CH,Apeldoorn,Apeldoorn,Gelderland,VBO,5.927863,52.220807
Montanalaan,1,,,7313CJ,Apeldoorn,Apeldoorn,Gelderland,VBO,5.926072,52.220711
Montanalaan,2,,,7313CJ,Apeldoorn,Apeldoorn,Gelderland,VBO,5.926505,52.221018
Montanalaan,3,,,7313CJ,Apeldoorn,Apeldoorn,Gelderland,VBO,5.925853,52.220939
Montanalaan,4,,,7313CJ,Apeldoorn,Apeldoorn,Gelderland,VBO,5.926241,52.221175
Montanalaan,5,,,7313CJ,Apeldoorn,Apeldoorn,Gelderland,VBO,5.925526,52.221030
Montanalaan,6,,,7313CJ,Apeldoorn,Apeldoorn,Gelderland,VBO,5.925959,52.221413
Montanalaan,7,,,7313CJ,Apeldoorn,Apeldoorn,Gelderland,VBO,5.925254,52.221142
Montanalaan,8,,,7313CJ,Apeldoorn,Apeldoorn,Gelderland,VBO,5.925664,52.221551
Montanalaan,9,,,7313CJ,Apeldoorn,Apeldoorn,Gelderland,VBO,5.924990,52.221247
Montanalaan,11,,,7313CJ,Apeldoorn,Apeldoorn,Gelderland,VBO,5.924572,52.221310
Montanalaan,12,,,7313CJ,Apeldoorn,Apeldoorn,Gelderland,VBO,5.925143,52.221572
Montanalaan,13,,,7313CJ,Apeldoorn,Apeldoorn,Gelderland,VBO,5.924146,52.221459
Jachtlaan,25,,,7313CL,Apeldoorn,Apeldoorn,Gelderland,VBO,5.942515,52.224209
Jachtlaan,27,,,7313CL,Apeldoorn,Apeldoorn,Gelderland,VBO,5.942428,52.224135
Jachtlaan,29,,,7313CL,Apeldoorn,Apeldoorn,Gelderland,VBO,5.942342,52.224054
Jachtlaan,31,,,7313CL,Apeldoorn,Apeldoorn,Gelderland,VBO,5.942145,52.223910
Jachtlaan,33,,,7313CM,Apeldoorn,Apeldoorn,Gelderland,VBO,5.940995,52.222906
Jachtlaan,35,,,7313CM,Apeldoorn,Apeldoorn,Gelderland,VBO,5.940841,52.222792
Jachtlaan,37,,,7313CM,Apeldoorn,Apeldoorn,Gelderland,VBO,5.940752,52.222636
Jachtlaan,39,,,7313CM,Apeldoorn,Apeldoorn,Gelderland,VBO,5.940600,52.222533
Jachtlaan,41,,,7313CM,Apeldoorn,Apeldoorn,Gelderland,VBO,5.940474,52.222444
Jachtlaan,43,,,7313CM,Apeldoorn,Apeldoorn,Gelderland,VBO,5.940359,52.222350
Jachtlaan,45,,,7313CM,Apeldoorn,Apeldoorn,Gelderland,VBO,5.940250,52.222226
Jachtlaan,47,,,7313CM,Apeldoorn,Apeldoorn,Gelderland,VBO,5.940107,52.222108
Jachtlaan,49,,,7313CM,Apeldoorn,Apeldoorn,Gelderland,VBO,5.940041,52.221987
Jachtlaan,51,,,7313CM,Apeldoorn,Apeldoorn,Gelderland,VBO,5.939942,52.221898
Jachtlaan,53,,,7313CM,Apeldoorn,Apeldoorn,Gelderland,VBO,5.939821,52.221808
Jachtlaan,55,,,7313CM,Apeldoorn,Apeldoorn,Gelderland,VBO,5.939716,52.221729
Jachtlaan,57,,,7313CM,Apeldoorn,Apeldoorn,Gelderland,VBO,5.939609,52.221643
Jachtlaan,59,,,7313CM,Apeldoorn,Apeldoorn,Gelderland,VBO,5.939500,52.221551
Jachtlaan,61,,,7313CN,Apeldoorn,Apeldoorn,Gelderland,VBO,5.939089,52.221268
Jachtlaan,63,,,7313CN,Apeldoorn,Apeldoorn,Gelderland,VBO,5.939015,52.221202
Jachtlaan,65,,,7313CN,Apeldoorn,Apeldoorn,Gelderland,VBO,5.938948,52.221110
Jachtlaan,67,,,7313CN,Apeldoorn,Apeldoorn,Gelderland,VBO,5.938889,52.221058
Jachtlaan,69,,,7313CN,Apeldoorn,Apeldoorn,Gelderland,VBO,5.938749,52.220978
Jachtlaan,71,,,7313CN,Apeldoorn,Apeldoorn,Gelderland,VBO,5.938676,52.220879
Jachtlaan,73,,,7313CN,Apeldoorn,Apeldoorn,Gelderland,VBO,5.938583,52.220770
Jachtlaan,75,,,7313CN,Apeldoorn,Apeldoorn,Gelderland,VBO,5.938382,52.220593
Jachtlaan,77,,,7313CN,Apeldoorn,Apeldoorn,Gelderland,VBO,5.938249,52.220505
Jachtlaan,79,,,7313CN,Apeldoorn,Apeldoorn,Gelderland,VBO,5.938141,52.220420
Jachtlaan,4,,,7313CP,Apeldoorn,Apeldoorn,Gelderland,VBO,5.942679,52.225941
Jachtlaan,8,A,,7313CP,Apeldoorn,Apeldoorn,Gelderland,VBO,5.940499,52.224656
Jachtlaan,8,,,7313CP,Apeldoorn,Apeldoorn,Gelderland,VBO,5.942215,52.225029
Jachtlaan,10,,,7313CP,Apeldoorn,Apeldoorn,Gelderland,VBO,5.941981,52.224770
Jachtlaan,12,,,7313CP,Apeldoorn,Apeldoorn,Gelderland,VBO,5.941918,52.224717
Jachtlaan,14,,,7313CP,Apeldoorn,Apeldoorn,Gelderland,VBO,5.940877,52.224569
Jachtlaan,16,,,7313CP,Apeldoorn,Apeldoorn,Gelderland,VBO,5.941034,52.224247
Jachtlaan,18,,,7313CP,Apeldoorn,Apeldoorn,Gelderland,VBO,5.940980,52.223931
Jachtlaan,20,,,7313CP,Apeldoorn,Apeldoorn,Gelderland,VBO,5.940833,52.223758
Jachtlaan,22,,,7313CP,Apeldoorn,Apeldoorn,Gelderland,VBO,5.940578,52.223528
Jachtlaan,24,A,,7313CR,Apeldoorn,Apeldoorn,Gelderland,VBO,5.939870,52.222995
Jachtlaan,24,,,7313CR,Apeldoorn,Apeldoorn,Gelderland,VBO,5.940054,52.223134
Jachtlaan,26,,,7313CR,Apeldoorn,Apeldoorn,Gelderland,VBO,5.939765,52.222861
Jachtlaan,28,,,7313CR,Apeldoorn,Apeldoorn,Gelderland,VBO,5.939704,52.222809
Jachtlaan,30,,,7313CR,Apeldoorn,Apeldoorn,Gelderland,VBO,5.939549,52.222692
Jachtlaan,32,,,7313CR,Apeldoorn,Apeldoorn,Gelderland,VBO,5.939364,52.222561
Jachtlaan,34,,,7313CR,Apeldoorn,Apeldoorn,Gelderland,VBO,5.939210,52.222395
Jachtlaan,36,,,7313CR,Apeldoorn,Apeldoorn,Gelderland,VBO,5.939037,52.222244
Jachtlaan,38,,,7313CR,Apeldoorn,Apeldoorn,Gelderland,VBO,5.938883,52.222101
Jachtlaan,81,,,7313CS,Apeldoorn,Apeldoorn,Gelderland,VBO,5.935307,52.217505
Jachtlaan,83,,,7313CS,Apeldoorn,Apeldoorn,Gelderland,VBO,5.935265,52.217459
Jachtlaan,87,,,7313CS,Apeldoorn,Apeldoorn,Gelderland,VBO,5.935170,52.217367
Jachtlaan,91,,,7313CS,Apeldoorn,Apeldoorn,Gelderland,VBO,5.935079,52.217205
Jachtlaan,93,,,7313CS,Apeldoorn,Apeldoorn,Gelderland,VBO,5.935040,52.217162
Jachtlaan,95,,,7313CS,Apeldoorn,Apeldoorn,Gelderland,VBO,5.934881,52.217014
Jachtlaan,97,,,7313CS,Apeldoorn,Apeldoorn,Gelderland,VBO,5.934842,52.216971
Jachtlaan,99,,,7313CS,Apeldoorn,Apeldoorn,Gelderland,VBO,5.934724,52.216804
Jachtlaan,101,,,7313CS,Apeldoorn,Apeldoorn,Gelderland,VBO,5.934700,52.216758
Jachtlaan,103,,,7313CS,Apeldoorn,Apeldoorn,Gelderland,VBO,5.934577,52.216596
Jachtlaan,105,,,7313CS,Apeldoorn,Apeldoorn,Gelderland,VBO,5.934538,52.216553
Jachtlaan,107,,,7313CS,Apeldoorn,Apeldoorn,Gelderland,VBO,5.934340,52.216417
Jachtlaan,109,,,7313CS,Apeldoorn,Apeldoorn,Gelderland,VBO,5.934302,52.216374
Jachtlaan,111,,,7313CS,Apeldoorn,Apeldoorn,Gelderland,VBO,5.934167,52.216231
Jachtlaan,113,,,7313CS,Apeldoorn,Apeldoorn,Gelderland,VBO,5.933960,52.216043
Jachtlaan,40,,,7313CT,Apeldoorn,Apeldoorn,Gelderland,VBO,5.938704,52.221964
Jachtlaan,42,,,7313CT,Apeldoorn,Apeldoorn,Gelderland,VBO,5.938533,52.221831
Jachtlaan,44,,,7313CT,Apeldoorn,Apeldoorn,Gelderland,VBO,5.938379,52.221683
Jachtlaan,46,,,7313CV,Apeldoorn,Apeldoorn,Gelderland,VBO,5.938243,52.221543
Jachtlaan,48,,,7313CV,Apeldoorn,Apeldoorn,Gelderland,VBO,5.938040,52.221265
Jachtlaan,50,,,7313CV,Apeldoorn,Apeldoorn,Gelderland,VBO,5.937793,52.221128
Jachtlaan,52,,,7313CV,Apeldoorn,Apeldoorn,Gelderland,VBO,5.937640,52.220976
Jachtlaan,56,,,7313CV,Apeldoorn,Apeldoorn,Gelderland,VBO,5.937399,52.220793
Jachtlaan,115,,,7313CW,Apeldoorn,Apeldoorn,Gelderland,VBO,5.933513,52.215435
Jachtlaan,117,,,7313CW,Apeldoorn,Apeldoorn,Gelderland,VBO,5.933401,52.215340
Jachtlaan,119,,,7313CW,Apeldoorn,Apeldoorn,Gelderland,VBO,5.933322,52.215241
Jachtlaan,121,,,7313CW,Apeldoorn,Apeldoorn,Gelderland,VBO,5.933229,52.215133
Jachtlaan,123,,,7313CW,Apeldoorn,Apeldoorn,Gelderland,VBO,5.933169,52.214995
Jachtlaan,125,,,7313CW,Apeldoorn,Apeldoorn,Gelderland,VBO,5.933114,52.214848
Jachtlaan,127,,,7313CW,Apeldoorn,Apeldoorn,Gelderland,VBO,5.933085,52.214723
Jachtlaan,129,,,7313CW,Apeldoorn,Apeldoorn,Gelderland,VBO,5.933059,52.214577
Jachtlaan,131,,,7313CW,Apeldoorn,Apeldoorn,Gelderland,VBO,5.932988,52.214427
Jachtlaan,133,,2,7313CW,Apeldoorn,Apeldoorn,Gelderland,VBO,5.932900,52.214231
Jachtlaan,133,,,7313CW,Apeldoorn,Apeldoorn,Gelderland,VBO,5.932928,52.214316
Jachtlaan,135,,,7313CW,Apeldoorn,Apeldoorn,Gelderland,VBO,5.932858,52.213921
Jachtlaan,137,,,7313CW,Apeldoorn,Apeldoorn,Gelderland,VBO,5.932807,52.213766
Jachtlaan,139,,,7313CW,Apeldoorn,Apeldoorn,Gelderland,VBO,5.932755,52.213635
Jachtlaan,141,,,7313CW,Apeldoorn,Apeldoorn,Gelderland,VBO,5.933267,52.213436
Jachtlaan,143,A,,7313CW,Apeldoorn,Apeldoorn,Gelderland,VBO,5.932611,52.213118
Jachtlaan,143,,,7313CW,Apeldoorn,Apeldoorn,Gelderland,VBO,5.932734,52.213370
Jachtlaan,145,,,7313CX,Apeldoorn,Apeldoorn,Gelderland,VBO,5.932432,52.212765
Jachtlaan,147,,,7313CX,Apeldoorn,Apeldoorn,Gelderland,VBO,5.932329,52.212561
Jachtlaan,149,,,7313CX,Apeldoorn,Apeldoorn,Gelderland,VBO,5.932304,52.212367
Jachtlaan,151,,,7313CX,Apeldoorn,Apeldoorn,Gelderland,VBO,5.932209,52.212154
Jachtlaan,153,,,7313CX,Apeldoorn,Apeldoorn,Gelderland,VBO,5.932194,52.212016
Jachtlaan,155,B,,7313CX,Apeldoorn,Apeldoorn,Gelderland,VBO,5.932113,52.211835
Jachtlaan,155,,,7313CX,Apeldoorn,Apeldoorn,Gelderland,VBO,5.932123,52.211867
Jachtlaan,157,,,7313CX,Apeldoorn,Apeldoorn,Gelderland,VBO,5.932081,52.211692
Jachtlaan,159,,,7313CX,Apeldoorn,Apeldoorn,Gelderland,VBO,5.932006,52.211565
Jachtlaan,161,,,7313CX,Apeldoorn,Apeldoorn,Gelderland,VBO,5.931986,52.211430
Jachtlaan,163,,,7313CX,Apeldoorn,Apeldoorn,Gelderland,VBO,5.931925,52.211299
Jachtlaan,165,,2,7313CX,Apeldoorn,Apeldoorn,Gelderland,VBO,5.931866,52.211100
Jachtlaan,165,,,7313CX,Apeldoorn,Apeldoorn,Gelderland,VBO,5.931882,52.211176
Jachtlaan,167,,,7313CX,Apeldoorn,Apeldoorn,Gelderland,VBO,5.931818,52.210960
Jachtlaan,169,,,7313CX,Apeldoorn,Apeldoorn,Gelderland,VBO,5.931790,52.210837
Jachtlaan,171,,,7313CX,Apeldoorn,Apeldoorn,Gelderland,VBO,5.931727,52.210710
Jachtlaan,82,,,7313EA,Apeldoorn,Apeldoorn,Gelderland,VBO,5.936141,52.219357
Jachtlaan,84,,,7313EA,Apeldoorn,Apeldoorn,Gelderland,VBO,5.936000,52.219208
Jachtlaan,86,,,7313EA,Apeldoorn,Apeldoorn,Gelderland,VBO,5.935540,52.218763
Jachtlaan,88,,,7313EA,Apeldoorn,Apeldoorn,Gelderland,VBO,5.935425,52.218601
Jachtlaan,90,,,7313EA,Apeldoorn,Apeldoorn,Gelderland,VBO,5.935377,52.218548
Jachtlaan,92,,,7313EA,Apeldoorn,Apeldoorn,Gelderland,VBO,5.935273,52.218434
Jachtlaan,94,,,7313EB,Apeldoorn,Apeldoorn,Gelderland,VBO,5.934999,52.218178
Jachtlaan,96,,,7313EB,Apeldoorn,Apeldoorn,Gelderland,VBO,5.934864,52.217999
Jachtlaan,98,,,7313EB,Apeldoorn,Apeldoorn,Gelderland,VBO,5.934840,52.217974
Jachtlaan,100,,,7313EB,Apeldoorn,Apeldoorn,Gelderland,VBO,5.934637,52.217868
Jachtlaan,102,,,7313EB,Apeldoorn,Apeldoorn,Gelderland,VBO,5.934570,52.217693
Jachtlaan,104,,,7313EB,Apeldoorn,Apeldoorn,Gelderland,VBO,5.934522,52.217635
Jachtlaan,106,,,7313EB,Apeldoorn,Apeldoorn,Gelderland,VBO,5.934343,52.217509
Jachtlaan,108,,,7313EC,Apeldoorn,Apeldoorn,Gelderland,VBO,5.933496,52.217346
Jachtlaan,110,,,7313EC,Apeldoorn,Apeldoorn,Gelderland,VBO,5.933622,52.216718
Jachtlaan,112,,,7313EC,Apeldoorn,Apeldoorn,Gelderland,VBO,5.933555,52.216644
Jachtlaan,114,,,7313EC,Apeldoorn,Apeldoorn,Gelderland,VBO,5.933446,52.216527
Jachtlaan,118,,,7313EC,Apeldoorn,Apeldoorn,Gelderland,VBO,5.933261,52.216355
Jachtlaan,120,,,7313EC,Apeldoorn,Apeldoorn,Gelderland,VBO,5.933123,52.216211
Jachtlaan,122,,,7313EC,Apeldoorn,Apeldoorn,Gelderland,VBO,5.932921,52.215988
Jachtlaan,124,,,7313ED,Apeldoorn,Apeldoorn,Gelderland,VBO,5.932513,52.215499
Jachtlaan,126,A,,7313ED,Apeldoorn,Apeldoorn,Gelderland,VBO,5.932388,52.215277
Jachtlaan,126,,,7313ED,Apeldoorn,Apeldoorn,Gelderland,VBO,5.932452,52.215319
Jachtlaan,128,,,7313ED,Apeldoorn,Apeldoorn,Gelderland,VBO,5.932278,52.215113
Jachtlaan,130,,,7313ED,Apeldoorn,Apeldoorn,Gelderland,VBO,5.932237,52.214880
Jachtlaan,132,,,7313ED,Apeldoorn,Apeldoorn,Gelderland,VBO,5.932126,52.214730
Jachtlaan,134,,,7313ED,Apeldoorn,Apeldoorn,Gelderland,VBO,5.932097,52.214536
Jachtlaan,136,,,7313ED,Apeldoorn,Apeldoorn,Gelderland,VBO,5.932012,52.214349
Jachtlaan,138,,2,7313ED,Apeldoorn,Apeldoorn,Gelderland,VBO,5.931997,52.214133
Jachtlaan,138,,,7313ED,Apeldoorn,Apeldoorn,Gelderland,VBO,5.932017,52.214193
Jachtlaan,140,,2,7313ED,Apeldoorn,Apeldoorn,Gelderland,VBO,5.931956,52.213947
Jachtlaan,140,,,7313ED,Apeldoorn,Apeldoorn,Gelderland,VBO,5.931964,52.213973
Jachtlaan,142,,,7313EE,Apeldoorn,Apeldoorn,Gelderland,VBO,5.931843,52.213650
Jachtlaan,144,,2,7313EE,Apeldoorn,Apeldoorn,Gelderland,VBO,5.931793,52.213434
Jachtlaan,144,,,7313EE,Apeldoorn,Apeldoorn,Gelderland,VBO,5.931806,52.213476
Jachtlaan,146,,,7313EE,Apeldoorn,Apeldoorn,Gelderland,VBO,5.931725,52.213286
Jachtlaan,148,,,7313EE,Apeldoorn,Apeldoorn,Gelderland,VBO,5.931651,52.213097
Jachtlaan,150,,,7313EG,Apeldoorn,Apeldoorn,Gelderland,VBO,5.931536,52.212666
Jachtlaan,152,,,7313EG,Apeldoorn,Apeldoorn,Gelderland,VBO,5.931520,52.212602
Jachtlaan,154,,,7313EG,Apeldoorn,Apeldoorn,Gelderland,VBO,5.931482,52.212423
Jachtlaan,156,,,7313EG,Apeldoorn,Apeldoorn,Gelderland,VBO,5.931391,52.212255
Jachtlaan,158,,,7313EG,Apeldoorn,Apeldoorn,Gelderland,VBO,5.931324,52.212088
Jachtlaan,160,,,7313EG,Apeldoorn,Apeldoorn,Gelderland,VBO,5.931307,52.211920
Jachtlaan,162,,,7313EG,Apeldoorn,Apeldoorn,Gelderland,VBO,5.931272,52.211860
Jachtlaan,164,,,7313EG,Apeldoorn,Apeldoorn,Gelderland,VBO,5.931163,52.211724
Jachtlaan,166,,,7313EG,Apeldoorn,Apeldoorn,Gelderland,VBO,5.931151,52.211524
Jachtlaan,168,,,7313EG,Apeldoorn,Apeldoorn,Gelderland,VBO,5.931109,52.211345
Jachtlaan,170,,,7313EG,Apeldoorn,Apeldoorn,Gelderland,VBO,5.931116,52.211188
Jachtlaan,172,,,7313EG,Apeldoorn,Apeldoorn,Gelderland,VBO,5.930983,52.211166
Soerenseweg,73,,,7313EH,Apeldoorn,Apeldoorn,Gelderland,VBO,5.936540,52.219836
Soerenseweg,75,,2,7313EH,Apeldoorn,Apeldoorn,Gelderland,VBO,5.935676,52.219869
Soerenseweg,75,,,7313EH,Apeldoorn,Apeldoorn,Gelderland,VBO,5.935771,52.219843
Soerenseweg,77,,,7313EH,Apeldoorn,Apeldoorn,Gelderland,VBO,5.935372,52.219884
Soerenseweg,79,,,7313EH,Apeldoorn,Apeldoorn,Gelderland,VBO,5.935014,52.219952
Soerenseweg,81,,,7313EH,Apeldoorn,Apeldoorn,Gelderland,VBO,5.934581,52.219947
Soerenseweg,83,,,7313EH,Apeldoorn,Apeldoorn,Gelderland,VBO,5.934150,52.219988
Soerenseweg,85,,,7313EH,Apeldoorn,Apeldoorn,Gelderland,VBO,5.933766,52.220061
Soerenseweg,87,A,,7313EH,Apeldoorn,Apeldoorn,Gelderland,VBO,5.933266,52.220087
Soerenseweg,87,,,7313EH,Apeldoorn,Apeldoorn,Gelderland,VBO,5.933409,52.220077
Soerenseweg,89,,,7313EJ,Apeldoorn,Apeldoorn,Gelderland,VBO,5.932626,52.220090
Soerenseweg,91,,,7313EJ,Apeldoorn,Apeldoorn,Gelderland,VBO,5.932459,52.220123
Soerenseweg,93,,,7313EJ,Apeldoorn,Apeldoorn,Gelderland,VBO,5.932151,52.220118
Soerenseweg,95,,,7313EJ,Apeldoorn,Apeldoorn,Gelderland,VBO,5.931785,52.220134
Soerenseweg,97,,,7313EJ,Apeldoorn,Apeldoorn,Gelderland,VBO,5.931475,52.220160
Soerenseweg,99,,,7313EJ,Apeldoorn,Apeldoorn,Gelderland,VBO,5.931224,52.220110
Soerenseweg,105,,,7313EJ,Apeldoorn,Apeldoorn,Gelderland,VBO,5.929597,52.220122
Soerenseweg,111,,,7313EJ,Apeldoorn,Apeldoorn,Gelderland,VBO,5.927245,52.220204
Soerenseweg,113,,,7313EJ,Apeldoorn,Apeldoorn,Gelderland,VBO,5.926835,52.220216
Soerenseweg,115,,,7313EJ,Apeldoorn,Apeldoorn,Gelderland,VBO,5.926450,52.220253
Soerenseweg,117,,,7313EJ,Apeldoorn,Apeldoorn,Gelderland,VBO,5.926071,52.220169
Soerenseweg,119,,,7313EJ,Apeldoorn,Apeldoorn,Gelderland,VBO,5.925698,52.220261
Soerenseweg,125,,1,7313EK,Apeldoorn,Apeldoorn,Gelderland,VBO,5.923692,52.220097
Soerenseweg,125,,101,7313EK,Apeldoorn,Apeldoorn,Gelderland,VBO,5.923399,52.220099
Soerenseweg,125,,102,7313EK,Apeldoorn,Apeldoorn,Gelderland,VBO,5.923399,52.220066
Soerenseweg,125,,103,7313EK,Apeldoorn,Apeldoorn,Gelderland,VBO,5.923399,52.220034
Soerenseweg,125,,104,7313EK,Apeldoorn,Apeldoorn,Gelderland,VBO,5.923397,52.219938
Soerenseweg,125,,105,7313EK,Apeldoorn,Apeldoorn,Gelderland,VBO,5.923397,52.219906
Soerenseweg,125,,106,7313EK,Apeldoorn,Apeldoorn,Gelderland,VBO,5.923396,52.219874
Soerenseweg,125,,107,7313EK,Apeldoorn,Apeldoorn,Gelderland,VBO,5.923396,52.219842
Soerenseweg,125,,108,7313EK,Apeldoorn,Apeldoorn,Gelderland,VBO,5.923396,52.219810
Soerenseweg,125,,11,7313EK,Apeldoorn,Apeldoorn,Gelderland,VBO,5.923663,52.220097
Soerenseweg,125,,12,7313EK,Apeldoorn,Apeldoorn,Gelderland,VBO,5.923662,52.220065
Soerenseweg,125,,13,7313EK,Apeldoorn,Apeldoorn,Gelderland,VBO,5.923662,52.220033
Soerenseweg,125,,14,7313EK,Apeldoorn,Apeldoorn,Gelderland,VBO,5.923661,52.219937
Soerenseweg,125,,15,7313EK,Apeldoorn,Apeldoorn,Gelderland,VBO,5.923660,52.219905
Soerenseweg,125,,16,7313EK,Apeldoorn,Apeldoorn,Gelderland,VBO,5.923660,52.219873
Soerenseweg,125,,17,7313EK,Apeldoorn,Apeldoorn,Gelderland,VBO,5.923659,52.219841
Soerenseweg,125,,18,7313EK,Apeldoorn,Apeldoorn,Gelderland,VBO,5.923659,52.219809
Soerenseweg,125,,2,7313EK,Apeldoorn,Apeldoorn,Gelderland,VBO,5.923692,52.220065
Soerenseweg,125,,21,7313EK,Apeldoorn,Apeldoorn,Gelderland,VBO,5.923633,52.220097
Soerenseweg,125,,22,7313EK,Apeldoorn,Apeldoorn,Gelderland,VBO,5.923633,52.220065
Soerenseweg,125,,23,7313EK,Apeldoorn,Apeldoorn,Gelderland,VBO,5.923633,52.220033
Soerenseweg,125,,24,7313EK,Apeldoorn,Apeldoorn,Gelderland,VBO,5.923631,52.219937
Soerenseweg,125,,25,7313EK,Apeldoorn,Apeldoorn,Gelderland,VBO,5.923631,52.219905
Soerenseweg,125,,26,7313EK,Apeldoorn,Apeldoorn,Gelderland,VBO,5.923631,52.219873
Soerenseweg,125,,27,7313EK,Apeldoorn,Apeldoorn,Gelderland,VBO,5.923630,52.219841
Soerenseweg,125,,28,7313EK,Apeldoorn,Apeldoorn,Gelderland,VBO,5.923630,52.219809
Soerenseweg,125,,31,7313EK,Apeldoorn,Apeldoorn,Gelderland,VBO,5.923604,52.220097
Soerenseweg,125,,32,7313EK,Apeldoorn,Apeldoorn,Gelderland,VBO,5.923604,52.220065
Soerenseweg,125,,33,7313EK,Apeldoorn,Apeldoorn,Gelderland,VBO,5.923603,52.220033
Soerenseweg,125,,34,7313EK,Apeldoorn,Apeldoorn,Gelderland,VBO,5.923602,52.219937
Soerenseweg,125,,35,7313EK,Apeldoorn,Apeldoorn,Gelderland,VBO,5.923602,52.219905
Soerenseweg,125,,36,7313EK,Apeldoorn,Apeldoorn,Gelderland,VBO,5.923601,52.219873
Soerenseweg,125,,37,7313EK,Apeldoorn,Apeldoorn,Gelderland,VBO,5.923601,52.219841
Soerenseweg,125,,38,7313EK,Apeldoorn,Apeldoorn,Gelderland,VBO,5.923600,52.219809
Soerenseweg,125,,4,7313EK,Apeldoorn,Apeldoorn,Gelderland,VBO,5.923690,52.219937
Soerenseweg,125,,41,7313EK,Apeldoorn,Apeldoorn,Gelderland,VBO,5.923575,52.220098
Soerenseweg,125,,42,7313EK,Apeldoorn,Apeldoorn,Gelderland,VBO,5.923575,52.220066
Soerenseweg,125,,43,7313EK,Apeldoorn,Apeldoorn,Gelderland,VBO,5.923574,52.220034
Soerenseweg,125,,44,7313EK,Apeldoorn,Apeldoorn,Gelderland,VBO,5.923573,52.219938
Soerenseweg,125,,45,7313EK,Apeldoorn,Apeldoorn,Gelderland,VBO,5.923572,52.219905
Soerenseweg,125,,46,7313EK,Apeldoorn,Apeldoorn,Gelderland,VBO,5.923572,52.219873
Soerenseweg,125,,47,7313EK,Apeldoorn,Apeldoorn,Gelderland,VBO,5.923572,52.219841
Soerenseweg,125,,48,7313EK,Apeldoorn,Apeldoorn,Gelderland,VBO,5.923571,52.219809
Soerenseweg,125,,5,7313EK,Apeldoorn,Apeldoorn,Gelderland,VBO,5.923690,52.219905
Soerenseweg,125,,51,7313EK,Apeldoorn,Apeldoorn,Gelderland,VBO,5.923546,52.220098
Soerenseweg,125,,52,7313EK,Apeldoorn,Apeldoorn,Gelderland,VBO,5.923545,52.220066
Soerenseweg,125,,53,7313EK,Apeldoorn,Apeldoorn,Gelderland,VBO,5.923545,52.220034
Soerenseweg,125,,54,7313EK,Apeldoorn,Apeldoorn,Gelderland,VBO,5.923544,52.219938
Soerenseweg,125,,55,7313EK,Apeldoorn,Apeldoorn,Gelderland,VBO,5.923543,52.219906
Soerenseweg,125,,56,7313EK,Apeldoorn,Apeldoorn,Gelderland,VBO,5.923543,52.219874
Soerenseweg,125,,57,7313EK,Apeldoorn,Apeldoorn,Gelderland,VBO,5.923542,52.219842
Soerenseweg,125,,58,7313EK,Apeldoorn,Apeldoorn,Gelderland,VBO,5.923542,52.219810
Soerenseweg,125,,61,7313EK,Apeldoorn,Apeldoorn,Gelderland,VBO,5.923516,52.220098
Soerenseweg,125,,62,7313EK,Apeldoorn,Apeldoorn,Gelderland,VBO,5.923516,52.220066
Soerenseweg,125,,63,7313EK,Apeldoorn,Apeldoorn,Gelderland,VBO,5.923516,52.220034
Soerenseweg,125,,64,7313EK,Apeldoorn,Apeldoorn,Gelderland,VBO,5.923514,52.219938
Soerenseweg,125,,65,7313EK,Apeldoorn,Apeldoorn,Gelderland,VBO,5.923514,52.219906
Soerenseweg,125,,66,7313EK,Apeldoorn,Apeldoorn,Gelderland,VBO,5.923513,52.219874
Soerenseweg,125,,67,7313EK,Apeldoorn,Apeldoorn,Gelderland,VBO,5.923513,52.219842
Soerenseweg,125,,68,7313EK,Apeldoorn,Apeldoorn,Gelderland,VBO,5.923513,52.219810
Soerenseweg,125,,7,7313EK,Apeldoorn,Apeldoorn,Gelderland,VBO,5.923689,52.219841
Soerenseweg,125,,71,7313EK,Apeldoorn,Apeldoorn,Gelderland,VBO,5.923487,52.220098
Soerenseweg,125,,72,7313EK,Apeldoorn,Apeldoorn,Gelderland,VBO,5.923487,52.220066
Soerenseweg,125,,73,7313EK,Apeldoorn,Apeldoorn,Gelderland,VBO,5.923486,52.220034
Soerenseweg,125,,74,7313EK,Apeldoorn,Apeldoorn,Gelderland,VBO,5.923485,52.219938
Soerenseweg,125,,75,7313EK,Apeldoorn,Apeldoorn,Gelderland,VBO,5.923485,52.219906
Soerenseweg,125,,76,7313EK,Apeldoorn,Apeldoorn,Gelderland,VBO,5.923484,52.219874
Soerenseweg,125,,77,7313EK,Apeldoorn,Apeldoorn,Gelderland,VBO,5.923484,52.219842
Soerenseweg,125,,78,7313EK,Apeldoorn,Apeldoorn,Gelderland,VBO,5.923483,52.219810
Soerenseweg,125,,8,7313EK,Apeldoorn,Apeldoorn,Gelderland,VBO,5.923688,52.219809
Soerenseweg,125,,81,7313EK,Apeldoorn,Apeldoorn,Gelderland,VBO,5.923458,52.220098
Soerenseweg,125,,82,7313EK,Apeldoorn,Apeldoorn,Gelderland,VBO,5.923457,52.220066
Soerenseweg,125,,83,7313EK,Apeldoorn,Apeldoorn,Gelderland,VBO,5.923457,52.220034
Soerenseweg,125,,83A,7313EK,Apeldoorn,Apeldoorn,Gelderland,VBO,5.923529,52.220018
Soerenseweg,125,,84,7313EK,Apeldoorn,Apeldoorn,Gelderland,VBO,5.923456,52.219938
Soerenseweg,125,,85,7313EK,Apeldoorn,Apeldoorn,Gelderland,VBO,5.923455,52.219906
Soerenseweg,125,,86,7313EK,Apeldoorn,Apeldoorn,Gelderland,VBO,5.923455,52.219874
Soerenseweg,125,,87,7313EK,Apeldoorn,Apeldoorn,Gelderland,VBO,5.923455,52.219842
Soerenseweg,125,,88,7313EK,Apeldoorn,Apeldoorn,Gelderland,VBO,5.923454,52.219810
Soerenseweg,125,,9,7313EK,Apeldoorn,Apeldoorn,Gelderland,VBO,5.923688,52.219777
Soerenseweg,125,,91,7313EK,Apeldoorn,Apeldoorn,Gelderland,VBO,5.923429,52.220098
Soerenseweg,125,,92,7313EK,Apeldoorn,Apeldoorn,Gelderland,VBO,5.923428,52.220066
Soerenseweg,125,,93,7313EK,Apeldoorn,Apeldoorn,Gelderland,VBO,5.923428,52.220034
Soerenseweg,125,,94,7313EK,Apeldoorn,Apeldoorn,Gelderland,VBO,5.923427,52.219938
Soerenseweg,125,,95,7313EK,Apeldoorn,Apeldoorn,Gelderland,VBO,5.923426,52.219906
Soerenseweg,125,,96,7313EK,Apeldoorn,Apeldoorn,Gelderland,VBO,5.923426,52.219874
Soerenseweg,125,,97,7313EK,Apeldoorn,Apeldoorn,Gelderland,VBO,5.923425,52.219842
Soerenseweg,125,,98,7313EK,Apeldoorn,Apeldoorn,Gelderland,VBO,5.923425,52.219810
Soerenseweg,125,,,7313EK,Apeldoorn,Apeldoorn,Gelderland,VBO,5.923577,52.219982
Soerenseweg,122,,,7313EL,Apeldoorn,Apeldoorn,Gelderland,VBO,5.937073,52.220490
Soerenseweg,124,,,7313EL,Apeldoorn,Apeldoorn,Gelderland,VBO,5.936990,52.220500
Soerenseweg,126,,,7313EL,Apeldoorn,Apeldoorn,Gelderland,VBO,5.936084,52.220528
Soerenseweg,128,,,7313EL,Apeldoorn,Apeldoorn,Gelderland,VBO,5.935477,52.220488
Soerenseweg,130,,,7313EL,Apeldoorn,Apeldoorn,Gelderland,VBO,5.935103,52.220524
Soerenseweg,132,,,7313EL,Apeldoorn,Apeldoorn,Gelderland,VBO,5.935002,52.220532
Soerenseweg,134,,,7313EL,Apeldoorn,Apeldoorn,Gelderland,VBO,5.934729,52.220554
Soerenseweg,138,,2,7313EL,Apeldoorn,Apeldoorn,Gelderland,VBO,5.934010,52.220604
Soerenseweg,138,,,7313EL,Apeldoorn,Apeldoorn,Gelderland,VBO,5.934110,52.220595
Soerenseweg,140,,,7313EM,Apeldoorn,Apeldoorn,Gelderland,VBO,5.932519,52.220822
Soerenseweg,142,,,7313EM,Apeldoorn,Apeldoorn,Gelderland,VBO,5.932161,52.220732
Soerenseweg,144,,,7313EM,Apeldoorn,Apeldoorn,Gelderland,VBO,5.932036,52.220717
Soerenseweg,146,A,,7313EM,Apeldoorn,Apeldoorn,Gelderland,VBO,5.931501,52.220735
Soerenseweg,146,,,7313EM,Apeldoorn,Apeldoorn,Gelderland,VBO,5.931804,52.220820
Soerenseweg,148,,,7313EM,Apeldoorn,Apeldoorn,Gelderland,VBO,5.931191,52.220751
Soerenseweg,150,,,7313EM,Apeldoorn,Apeldoorn,Gelderland,VBO,5.930750,52.220724
Soerenseweg,154,,,7313EM,Apeldoorn,Apeldoorn,Gelderland,VBO,5.929793,52.220752
Soerenseweg,152,,,7313EN,Apeldoorn,Apeldoorn,Gelderland,VBO,5.930311,52.220762
Soerenseweg,156,,,7313EP,Apeldoorn,Apeldoorn,Gelderland,VBO,5.928446,52.220904
Soerenseweg,158,,,7313EP,Apeldoorn,Apeldoorn,Gelderland,VBO,5.927951,52.220844
Soerenseweg,166,,,7313EP,Apeldoorn,Apeldoorn,Gelderland,VBO,5.926838,52.220730
Soerenseweg,170,,,7313EP,Apeldoorn,Apeldoorn,Gelderland,VBO,5.925245,52.220763
Soerenseweg,172,,,7313EP,Apeldoorn,Apeldoorn,Gelderland,VBO,5.924707,52.220813
Soerenseweg,174,,,7313EP,Apeldoorn,Apeldoorn,Gelderland,VBO,5.924255,52.220812
Soerenseweg,176,,,7313EP,Apeldoorn,Apeldoorn,Gelderland,VBO,5.923616,52.220811
Soerenseweg,178,,,7313EP,Apeldoorn,Apeldoorn,Gelderland,VBO,5.923268,52.220753
Soerenseweg,210,,,7313ER,Apeldoorn,Apeldoorn,Gelderland,VBO,5.917085,52.219978
Soerenseweg,214,,,7313ER,Apeldoorn,Apeldoorn,Gelderland,VBO,5.915329,52.220691
Soerenseweg,220,,,7313ER,Apeldoorn,Apeldoorn,Gelderland,VBO,5.915253,52.219771
Jasmijnlaan,3,,,7313ES,Apeldoorn,Apeldoorn,Gelderland,VBO,5.925826,52.219921
Jasmijnlaan,5,,,7313ES,Apeldoorn,Apeldoorn,Gelderland,VBO,5.925761,52.219691
Jasmijnlaan,9,,,7313ES,Apeldoorn,Apeldoorn,Gelderland,VBO,5.925763,52.218850
Jasmijnlaan,11,,,7313ES,Apeldoorn,Apeldoorn,Gelderland,VBO,5.925868,52.218637
Jasmijnlaan,15,,,7313ES,Apeldoorn,Apeldoorn,Gelderland,VBO,5.926200,52.217859
Magnolialaan,2,,,7313EV,Apeldoorn,Apeldoorn,Gelderland,VBO,5.925857,52.219066
Magnolialaan,3,,,7313EV,Apeldoorn,Apeldoorn,Gelderland,VBO,5.926184,52.219771
Magnolialaan,4,,,7313EV,Apeldoorn,Apeldoorn,Gelderland,VBO,5.926141,52.219246
Magnolialaan,5,,,7313EV,Apeldoorn,Apeldoorn,Gelderland,VBO,5.926649,52.219980
Magnolialaan,6,,,7313EV,Apeldoorn,Apeldoorn,Gelderland,VBO,5.926472,52.219419
Magnolialaan,7,,,7313EV,Apeldoorn,Apeldoorn,Gelderland,VBO,5.927382,52.219802
Magnolialaan,8,,,7313EV,Apeldoorn,Apeldoorn,Gelderland,VBO,5.926907,52.219590
Magnolialaan,9,,,7313EV,Apeldoorn,Apeldoorn,Gelderland,VBO,5.927875,52.219508
Magnolialaan,10,,,7313EV,Apeldoorn,Apeldoorn,Gelderland,VBO,5.927073,52.219392
Magnolialaan,11,,,7313EV,Apeldoorn,Apeldoorn,Gelderland,VBO,5.927527,52.219164
Magnolialaan,12,,,7313EV,Apeldoorn,Apeldoorn,Gelderland,VBO,5.926807,52.219253
Magnolialaan,13,,,7313EV,Apeldoorn,Apeldoorn,Gelderland,VBO,5.927303,52.218956
Magnolialaan,14,,,7313EV,Apeldoorn,Apeldoorn,Gelderland,VBO,5.926400,52.219033
Magnolialaan,16,,,7313EV,Apeldoorn,Apeldoorn,Gelderland,VBO,5.926226,52.218778
Magnolialaan,17,,,7313EV,Apeldoorn,Apeldoorn,Gelderland,VBO,5.926578,52.218456
Magnolialaan,19,,,7313EV,Apeldoorn,Apeldoorn,Gelderland,VBO,5.926258,52.218297
Magnolialaan,21,,,7313EV,Apeldoorn,Apeldoorn,Gelderland,VBO,5.926049,52.218134
Hazelaarlaan,1,,,7313EW,Apeldoorn,Apeldoorn,Gelderland,VBO,5.927308,52.217945
Hazelaarlaan,3,,,7313EW,Apeldoorn,Apeldoorn,Gelderland,VBO,5.927183,52.218225
Hazelaarlaan,4,,,7313EW,Apeldoorn,Apeldoorn,Gelderland,VBO,5.927966,52.218302
Hazelaarlaan,5,,,7313EW,Apeldoorn,Apeldoorn,Gelderland,VBO,5.927282,52.218497
Hazelaarlaan,6,,,7313EW,Apeldoorn,Apeldoorn,Gelderland,VBO,5.927992,52.218536
Hazelaarlaan,7,,,7313EW,Apeldoorn,Apeldoorn,Gelderland,VBO,5.926858,52.218615
Hazelaarlaan,8,,,7313EW,Apeldoorn,Apeldoorn,Gelderland,VBO,5.927758,52.218895
Burg. Roosmale Nepveulaan,13,,,7313EX,Apeldoorn,Apeldoorn,Gelderland,VBO,5.929546,52.217387
Burg. Roosmale Nepveulaan,15,B,,7313EX,Apeldoorn,Apeldoorn,Gelderland,VBO,5.929443,52.217016
Burg. Roosmale Nepveulaan,15,,,7313EX,Apeldoorn,Apeldoorn,Gelderland,VBO,5.929587,52.217173
Burg. Roosmale Nepveulaan,17,B,,7313EX,Apeldoorn,Apeldoorn,Gelderland,VBO,5.929298,52.216582
Burg. Roosmale Nepveulaan,17,,,7313EX,Apeldoorn,Apeldoorn,Gelderland,VBO,5.929305,52.216705
Burg. Roosmale Nepveulaan,19,,,7313EX,Apeldoorn,Apeldoorn,Gelderland,VBO,5.929198,52.216436
Burg. Roosmale Nepveulaan,21,,,7313EX,Apeldoorn,Apeldoorn,Gelderland,VBO,5.929093,52.216178
Burg. Roosmale Nepveulaan,23,B,,7313EX,Apeldoorn,Apeldoorn,Gelderland,VBO,5.928817,52.215681
Burg. Roosmale Nepveulaan,23,,,7313EX,Apeldoorn,Apeldoorn,Gelderland,VBO,5.928928,52.215859
Burg. Roosmale Nepveulaan,25,,,7313EX,Apeldoorn,Apeldoorn,Gelderland,VBO,5.928567,52.215410
Burg. Roosmale Nepveulaan,27,,,7313EX,Apeldoorn,Apeldoorn,Gelderland,VBO,5.927956,52.214807
Burg. Roosmale Nepveulaan,29,,,7313EX,Apeldoorn,Apeldoorn,Gelderland,VBO,5.927825,52.214536
Burg. Roosmale Nepveulaan,2,,,7313EZ,Apeldoorn,Apeldoorn,Gelderland,VBO,5.928153,52.220107
Burg. Roosmale Nepveulaan,4,,,7313EZ,Apeldoorn,Apeldoorn,Gelderland,VBO,5.928073,52.219816
Burg. Roosmale Nepveulaan,6,,,7313EZ,Apeldoorn,Apeldoorn,Gelderland,VBO,5.928174,52.219534
Burg. Roosmale Nepveulaan,8,,,7313EZ,Apeldoorn,Apeldoorn,Gelderland,VBO,5.928243,52.219289
Burg. Roosmale Nepveulaan,10,,,7313EZ,Apeldoorn,Apeldoorn,Gelderland,VBO,5.928311,52.219020
Burg. Roosmale Nepveulaan,12,,,7313EZ,Apeldoorn,Apeldoorn,Gelderland,VBO,5.928325,52.218801
Burg. Roosmale Nepveulaan,14,,,7313EZ,Apeldoorn,Apeldoorn,Gelderland,VBO,5.928555,52.218514
Burg. Roosmale Nepveulaan,16,,,7313EZ,Apeldoorn,Apeldoorn,Gelderland,VBO,5.928583,52.218284
Burg. Roosmale Nepveulaan,18,,,7313EZ,Apeldoorn,Apeldoorn,Gelderland,VBO,5.928664,52.218034
Callunalaan,1,,,7313GA,Apeldoorn,Apeldoorn,Gelderland,VBO,5.932238,52.219685
Callunalaan,2,,,7313GA,Apeldoorn,Apeldoorn,Gelderland,VBO,5.931856,52.219936
Callunalaan,3,,,7313GA,Apeldoorn,Apeldoorn,Gelderland,VBO,5.931974,52.219627
Callunalaan,4,,,7313GA,Apeldoorn,Apeldoorn,Gelderland,VBO,5.931389,52.219859
Callunalaan,5,,,7313GA,Apeldoorn,Apeldoorn,Gelderland,VBO,5.931693,52.219529
Callunalaan,6,,,7313GA,Apeldoorn,Apeldoorn,Gelderland,VBO,5.931103,52.219799
Callunalaan,7,,,7313GA,Apeldoorn,Apeldoorn,Gelderland,VBO,5.930436,52.218932
Groene Kijkerweg,1,,,7313GB,Apeldoorn,Apeldoorn,Gelderland,VBO,5.932806,52.218010
Groene Kijkerweg,3,,,7313GB,Apeldoorn,Apeldoorn,Gelderland,VBO,5.932445,52.218113
Groene Kijkerweg,4,,,7313GB,Apeldoorn,Apeldoorn,Gelderland,VBO,5.932840,52.218321
Groene Kijkerweg,5,,,7313GB,Apeldoorn,Apeldoorn,Gelderland,VBO,5.931916,52.218297
Groene Kijkerweg,6,,,7313GB,Apeldoorn,Apeldoorn,Gelderland,VBO,5.932525,52.218458
Groene Kijkerweg,7,,,7313GB,Apeldoorn,Apeldoorn,Gelderland,VBO,5.931631,52.218460
Groene Kijkerweg,8,,,7313GB,Apeldoorn,Apeldoorn,Gelderland,VBO,5.932322,52.218531
Groene Kijkerweg,12,,,7313GB,Apeldoorn,Apeldoorn,Gelderland,VBO,5.931484,52.219282
Groene Kijkerweg,14,,,7313GB,Apeldoorn,Apeldoorn,Gelderland,VBO,5.931307,52.219470
Zwarte Kijkerweg,1,,,7313GC,Apeldoorn,Apeldoorn,Gelderland,VBO,5.935703,52.218860
Zwarte Kijkerweg,3,,,7313GC,Apeldoorn,Apeldoorn,Gelderland,VBO,5.935292,52.219021
Zwarte Kijkerweg,5,,,7313GC,Apeldoorn,Apeldoorn,Gelderland,VBO,5.934888,52.219012
Zwarte Kijkerweg,9,,,7313GC,Apeldoorn,Apeldoorn,Gelderland,VBO,5.934324,52.219087
Zwarte Kijkerweg,11,,,7313GC,Apeldoorn,Apeldoorn,Gelderland,VBO,5.933979,52.219105
Zwarte Kijkerweg,13,,,7313GC,Apeldoorn,Apeldoorn,Gelderland,VBO,5.933494,52.219085
Zwarte Kijkerweg,15,,,7313GC,Apeldoorn,Apeldoorn,Gelderland,VBO,5.933255,52.219115
Zwarte Kijkerweg,17,,,7313GC,Apeldoorn,Apeldoorn,Gelderland,VBO,5.932973,52.219073
Zwarte Kijkerweg,19,,,7313GC,Apeldoorn,Apeldoorn,Gelderland,VBO,5.932684,52.219017
Zwarte Kijkerweg,21,,,7313GC,Apeldoorn,Apeldoorn,Gelderland,VBO,5.932428,52.218920
Zwarte Kijkerweg,23,,,7313GC,Apeldoorn,Apeldoorn,Gelderland,VBO,5.932178,52.218830
Zwarte Kijkerweg,25,A,,7313GC,Apeldoorn,Apeldoorn,Gelderland,VBO,5.931610,52.218349
Zwarte Kijkerweg,25,,,7313GC,Apeldoorn,Apeldoorn,Gelderland,VBO,5.932026,52.218683
Zwarte Kijkerweg,27,,,7313GD,Apeldoorn,Apeldoorn,Gelderland,VBO,5.931511,52.218138
Zwarte Kijkerweg,31,,,7313GD,Apeldoorn,Apeldoorn,Gelderland,VBO,5.931404,52.217806
Zwarte Kijkerweg,33,,,7313GE,Apeldoorn,Apeldoorn,Gelderland,VBO,5.931186,52.217108
Zwarte Kijkerweg,35,,,7313GE,Apeldoorn,Apeldoorn,Gelderland,VBO,5.931059,52.216840
Zwarte Kijkerweg,39,,,7313GE,Apeldoorn,Apeldoorn,Gelderland,VBO,5.930965,52.216502
Zwarte Kijkerweg,36,,,7313GG,Apeldoorn,Apeldoorn,Gelderland,VBO,5.930213,52.216363
Zwarte Kijkerweg,38,,,7313GG,Apeldoorn,Apeldoorn,Gelderland,VBO,5.930108,52.216226
Zwarte Kijkerweg,40,,,7313GG,Apeldoorn,Apeldoorn,Gelderland,VBO,5.929759,52.216057
Zwarte Kijkerweg,43,,,7313GG,Apeldoorn,Apeldoorn,Gelderland,VBO,5.930531,52.215987
Zwarte Kijkerweg,44,,,7313GG,Apeldoorn,Apeldoorn,Gelderland,VBO,5.929572,52.215774
Zwarte Kijkerweg,45,,,7313GG,Apeldoorn,Apeldoorn,Gelderland,VBO,5.930304,52.215860
Zwarte Kijkerweg,46,,,7313GG,Apeldoorn,Apeldoorn,Gelderland,VBO,5.929464,52.215507
Zwarte Kijkerweg,47,,,7313GG,Apeldoorn,Apeldoorn,Gelderland,VBO,5.930083,52.215632
Zwarte Kijkerweg,2,,,7313GH,Apeldoorn,Apeldoorn,Gelderland,VBO,5.935660,52.219330
Zwarte Kijkerweg,4,,,7313GH,Apeldoorn,Apeldoorn,Gelderland,VBO,5.935534,52.219353
Zwarte Kijkerweg,6,,,7313GH,Apeldoorn,Apeldoorn,Gelderland,VBO,5.935283,52.219442
Zwarte Kijkerweg,8,,,7313GH,Apeldoorn,Apeldoorn,Gelderland,VBO,5.934920,52.219457
Zwarte Kijkerweg,10,,,7313GH,Apeldoorn,Apeldoorn,Gelderland,VBO,5.934421,52.219488
Zwarte Kijkerweg,14,,,7313GH,Apeldoorn,Apeldoorn,Gelderland,VBO,5.933675,52.219590
Zwarte Kijkerweg,16,,,7313GH,Apeldoorn,Apeldoorn,Gelderland,VBO,5.932169,52.219307
Zwarte Kijkerweg,18,,,7313GH,Apeldoorn,Apeldoorn,Gelderland,VBO,5.931897,52.219247
Zwarte Kijkerweg,20,,,7313GH,Apeldoorn,Apeldoorn,Gelderland,VBO,5.931719,52.219157
Zwarte Kijkerweg,22,,,7313GH,Apeldoorn,Apeldoorn,Gelderland,VBO,5.931547,52.219029
Zwarte Kijkerweg,32,,,7313GH,Apeldoorn,Apeldoorn,Gelderland,VBO,5.930550,52.217198
Larixlaan,1,,,7313GJ,Apeldoorn,Apeldoorn,Gelderland,VBO,5.930430,52.216567
Larixlaan,2,,,7313GJ,Apeldoorn,Apeldoorn,Gelderland,VBO,5.930537,52.216984
Larixlaan,3,,,7313GJ,Apeldoorn,Apeldoorn,Gelderland,VBO,5.930098,52.216625
Larixlaan,4,,,7313GJ,Apeldoorn,Apeldoorn,Gelderland,VBO,5.930193,52.217023
Larixlaan,5,,,7313GJ,Apeldoorn,Apeldoorn,Gelderland,VBO,5.929856,52.216664
Larixlaan,6,,,7313GJ,Apeldoorn,Apeldoorn,Gelderland,VBO,5.929939,52.217041
Lindelaan,1,,,7313GK,Apeldoorn,Apeldoorn,Gelderland,VBO,5.931771,52.216357
Lindelaan,2,,,7313GK,Apeldoorn,Apeldoorn,Gelderland,VBO,5.931462,52.216665
Lindelaan,3,,,7313GK,Apeldoorn,Apeldoorn,Gelderland,VBO,5.931345,52.216263
Lindelaan,5,,,7313GK,Apeldoorn,Apeldoorn,Gelderland,VBO,5.931089,52.216156
Lindelaan,7,,,7313GK,Apeldoorn,Apeldoorn,Gelderland,VBO,5.930771,52.216115
Felualaan,1,,,7313GL,Apeldoorn,Apeldoorn,Gelderland,VBO,5.932261,52.217182
Felualaan,3,,,7313GL,Apeldoorn,Apeldoorn,Gelderland,VBO,5.931870,52.217237
Felualaan,5,,,7313GL,Apeldoorn,Apeldoorn,Gelderland,VBO,5.931652,52.217258
Felualaan,7,,,7313GL,Apeldoorn,Apeldoorn,Gelderland,VBO,5.931204,52.217315
Felualaan,9,,,7313GM,Apeldoorn,Apeldoorn,Gelderland,VBO,5.930568,52.217434
Felualaan,10,,,7313GM,Apeldoorn,Apeldoorn,Gelderland,VBO,5.928294,52.217999
Felualaan,11,,,7313GM,Apeldoorn,Apeldoorn,Gelderland,VBO,5.930297,52.217477
Felualaan,12,,,7313GM,Apeldoorn,Apeldoorn,Gelderland,VBO,5.927876,52.218015
Felualaan,13,,,7313GM,Apeldoorn,Apeldoorn,Gelderland,VBO,5.930012,52.217503
Felualaan,15,,,7313GM,Apeldoorn,Apeldoorn,Gelderland,VBO,5.929656,52.217529
Felualaan,18,,,7313GM,Apeldoorn,Apeldoorn,Gelderland,VBO,5.926732,52.217888
Felualaan,29,,,7313GM,Apeldoorn,Apeldoorn,Gelderland,VBO,5.923582,52.216694
Berkenlaan,1,,,7313GN,Apeldoorn,Apeldoorn,Gelderland,VBO,5.932387,52.218002
Berkenlaan,2,,,7313GN,Apeldoorn,Apeldoorn,Gelderland,VBO,5.931864,52.218103
Berkenlaan,3,,,7313GN,Apeldoorn,Apeldoorn,Gelderland,VBO,5.932352,52.217842
Berkenlaan,4,,,7313GN,Apeldoorn,Apeldoorn,Gelderland,VBO,5.931781,52.217912
Berkenlaan,5,,,7313GN,Apeldoorn,Apeldoorn,Gelderland,VBO,5.932235,52.217643
Berkenlaan,6,,,7313GN,Apeldoorn,Apeldoorn,Gelderland,VBO,5.931698,52.217724
Vliegerlaan,1,,,7313GP,Apeldoorn,Apeldoorn,Gelderland,VBO,5.933816,52.218253
Vliegerlaan,3,,,7313GP,Apeldoorn,Apeldoorn,Gelderland,VBO,5.933654,52.218112
Vliegerlaan,4,,,7313GP,Apeldoorn,Apeldoorn,Gelderland,VBO,5.933441,52.218872
Vliegerlaan,5,,,7313GP,Apeldoorn,Apeldoorn,Gelderland,VBO,5.933611,52.217972
Vliegerlaan,6,,,7313GP,Apeldoorn,Apeldoorn,Gelderland,VBO,5.933261,52.218661
Vliegerlaan,8,,,7313GP,Apeldoorn,Apeldoorn,Gelderland,VBO,5.933284,52.218476
Vliegerlaan,10,,,7313GP,Apeldoorn,Apeldoorn,Gelderland,VBO,5.933102,52.218275
Vliegerlaan,14,,,7313GR,Apeldoorn,Apeldoorn,Gelderland,VBO,5.932719,52.217836
Vliegerlaan,16,,,7313GR,Apeldoorn,Apeldoorn,Gelderland,VBO,5.932629,52.217614
Vliegerlaan,18,,,7313GR,Apeldoorn,Apeldoorn,Gelderland,VBO,5.932185,52.216954
Vliegerlaan,20,B,,7313GR,Apeldoorn,Apeldoorn,Gelderland,VBO,5.931774,52.216335
Vliegerlaan,20,,,7313GR,Apeldoorn,Apeldoorn,Gelderland,VBO,5.932004,52.216802
Vliegerlaan,21,,,7313GR,Apeldoorn,Apeldoorn,Gelderland,VBO,5.932753,52.216799
Vliegerlaan,22,,,7313GR,Apeldoorn,Apeldoorn,Gelderland,VBO,5.931538,52.216066
Vliegerlaan,23,,,7313GR,Apeldoorn,Apeldoorn,Gelderland,VBO,5.932600,52.216609
Vliegerlaan,25,,,7313GR,Apeldoorn,Apeldoorn,Gelderland,VBO,5.932441,52.216460
Vliegerlaan,27,,,7313GR,Apeldoorn,Apeldoorn,Gelderland,VBO,5.932390,52.216269
Vliegerlaan,29,,,7313GR,Apeldoorn,Apeldoorn,Gelderland,VBO,5.932200,52.216145
Vliegerlaan,30,,,7313GR,Apeldoorn,Apeldoorn,Gelderland,VBO,5.931268,52.215784
Vliegerlaan,33,,,7313GR,Apeldoorn,Apeldoorn,Gelderland,VBO,5.932003,52.215854
Het Bergje,1,,,7313GS,Apeldoorn,Apeldoorn,Gelderland,VBO,5.934502,52.218320
Het Bergje,2,,,7313GS,Apeldoorn,Apeldoorn,Gelderland,VBO,5.934852,52.218616
Het Bergje,3,,,7313GS,Apeldoorn,Apeldoorn,Gelderland,VBO,5.934267,52.218378
Het Bergje,4,,,7313GS,Apeldoorn,Apeldoorn,Gelderland,VBO,5.934760,52.218630
Het Bergje,5,,,7313GS,Apeldoorn,Apeldoorn,Gelderland,VBO,5.933917,52.218429
Het Bergje,6,,,7313GS,Apeldoorn,Apeldoorn,Gelderland,VBO,5.934574,52.218687
Het Bergje,8,,,7313GS,Apeldoorn,Apeldoorn,Gelderland,VBO,5.934301,52.218739
Het Bergje,10,,,7313GS,Apeldoorn,Apeldoorn,Gelderland,VBO,5.933940,52.218781
Ribeslaan,1,,,7313GT,Apeldoorn,Apeldoorn,Gelderland,VBO,5.932600,52.215518
Ribeslaan,2,,,7313GT,Apeldoorn,Apeldoorn,Gelderland,VBO,5.932591,52.215973
Ribeslaan,3,A,,7313GT,Apeldoorn,Apeldoorn,Gelderland,VBO,5.932148,52.215478
Ribeslaan,3,,,7313GT,Apeldoorn,Apeldoorn,Gelderland,VBO,5.932204,52.215483
Ribeslaan,4,,,7313GT,Apeldoorn,Apeldoorn,Gelderland,VBO,5.932068,52.215894
Ribeslaan,5,,,7313GT,Apeldoorn,Apeldoorn,Gelderland,VBO,5.931779,52.215401
Ribeslaan,6,,,7313GV,Apeldoorn,Apeldoorn,Gelderland,VBO,5.931001,52.215769
Ribeslaan,8,,,7313GV,Apeldoorn,Apeldoorn,Gelderland,VBO,5.930741,52.215689
Ribeslaan,11,,,7313GV,Apeldoorn,Apeldoorn,Gelderland,VBO,5.930659,52.215231
Ribeslaan,12,,,7313GV,Apeldoorn,Apeldoorn,Gelderland,VBO,5.930447,52.215658
Ribeslaan,13,,,7313GV,Apeldoorn,Apeldoorn,Gelderland,VBO,5.930343,52.215207
Ribeslaan,15,,,7313GV,Apeldoorn,Apeldoorn,Gelderland,VBO,5.930068,52.215140
Ribeslaan,16,,,7313GV,Apeldoorn,Apeldoorn,Gelderland,VBO,5.929373,52.215535
Ribeslaan,17,,,7313GV,Apeldoorn,Apeldoorn,Gelderland,VBO,5.929975,52.215124
Ribeslaan,18,,,7313GV,Apeldoorn,Apeldoorn,Gelderland,VBO,5.929020,52.215504
Ribeslaan,19,,,7313GV,Apeldoorn,Apeldoorn,Gelderland,VBO,5.929466,52.215087
Ribeslaan,21,,,7313GV,Apeldoorn,Apeldoorn,Gelderland,VBO,5.929151,52.215027
Ribeslaan,23,,,7313GV,Apeldoorn,Apeldoorn,Gelderland,VBO,5.929050,52.215016
Ribeslaan,25,,,7313GV,Apeldoorn,Apeldoorn,Gelderland,VBO,5.928508,52.214921
Ribeslaan,33,,,7313GV,Apeldoorn,Apeldoorn,Gelderland,VBO,5.928195,52.214905
Vliegerlaan,35,,,7313GW,Apeldoorn,Apeldoorn,Gelderland,VBO,5.931828,52.215203
Vliegerlaan,37,,,7313GW,Apeldoorn,Apeldoorn,Gelderland,VBO,5.931733,52.214974
Vliegerlaan,39,,,7313GW,Apeldoorn,Apeldoorn,Gelderland,VBO,5.931730,52.214785
Vliegerlaan,41,,,7313GW,Apeldoorn,Apeldoorn,Gelderland,VBO,5.931645,52.214607
Vliegerlaan,43,,,7313GW,Apeldoorn,Apeldoorn,Gelderland,VBO,5.931544,52.214393
Vliegerlaan,45,,,7313GW,Apeldoorn,Apeldoorn,Gelderland,VBO,5.931561,52.214219
Vliegerlaan,32,,,7313GX,Apeldoorn,Apeldoorn,Gelderland,VBO,5.931044,52.215286
Vliegerlaan,34,,,7313GX,Apeldoorn,Apeldoorn,Gelderland,VBO,5.931125,52.215110
Vliegerlaan,36,,,7313GX,Apeldoorn,Apeldoorn,Gelderland,VBO,5.931127,52.214928
Vliegerlaan,38,,,7313GX,Apeldoorn,Apeldoorn,Gelderland,VBO,5.931035,52.214701
Vliegerlaan,42,,,7313GX,Apeldoorn,Apeldoorn,Gelderland,VBO,5.930904,52.214046
Korte Kijkerweg,1,,,7313GZ,Apeldoorn,Apeldoorn,Gelderland,VBO,5.931025,52.214295
Korte Kijkerweg,2,,,7313GZ,Apeldoorn,Apeldoorn,Gelderland,VBO,5.930713,52.214794
Korte Kijkerweg,3,,,7313GZ,Apeldoorn,Apeldoorn,Gelderland,VBO,5.930579,52.214355
Korte Kijkerweg,5,,,7313GZ,Apeldoorn,Apeldoorn,Gelderland,VBO,5.930294,52.214400
Korte Kijkerweg,6,,,7313GZ,Apeldoorn,Apeldoorn,Gelderland,VBO,5.930280,52.214756
Korte Kijkerweg,7,,,7313GZ,Apeldoorn,Apeldoorn,Gelderland,VBO,5.929927,52.214404
Zwarte Kijkerweg,48,,,7313HA,Apeldoorn,Apeldoorn,Gelderland,VBO,5.929421,52.214888
Zwarte Kijkerweg,50,,,7313HA,Apeldoorn,Apeldoorn,Gelderland,VBO,5.929380,52.214713
Zwarte Kijkerweg,52,,,7313HA,Apeldoorn,Apeldoorn,Gelderland,VBO,5.929376,52.214542
Zwarte Kijkerweg,54,A,,7313HA,Apeldoorn,Apeldoorn,Gelderland,VBO,5.929344,52.214097
Zwarte Kijkerweg,54,,,7313HA,Apeldoorn,Apeldoorn,Gelderland,VBO,5.929388,52.214327
Zwarte Kijkerweg,59,,,7313HA,Apeldoorn,Apeldoorn,Gelderland,VBO,5.930012,52.214904
Zwarte Kijkerweg,61,,,7313HA,Apeldoorn,Apeldoorn,Gelderland,VBO,5.930035,52.214726
Zwarte Kijkerweg,63,,,7313HA,Apeldoorn,Apeldoorn,Gelderland,VBO,5.929987,52.214241
Zwarte Kijkerweg,65,,,7313HA,Apeldoorn,Apeldoorn,Gelderland,VBO,5.929954,52.214059
Zwarte Kijkerweg,56,,,7313HB,Apeldoorn,Apeldoorn,Gelderland,VBO,5.929253,52.213592
Zwarte Kijkerweg,58,,,7313HB,Apeldoorn,Apeldoorn,Gelderland,VBO,5.929292,52.213424
Zwarte Kijkerweg,60,,,7313HB,Apeldoorn,Apeldoorn,Gelderland,VBO,5.929255,52.213253
Zwarte Kijkerweg,71,,,7313HB,Apeldoorn,Apeldoorn,Gelderland,VBO,5.929817,52.213443
Zwarte Kijkerweg,73,,,7313HB,Apeldoorn,Apeldoorn,Gelderland,VBO,5.929812,52.213381
Zwarte Kijkerweg,75,,,7313HB,Apeldoorn,Apeldoorn,Gelderland,VBO,5.929784,52.213171
Douglaslaan,1,,,7313HC,Apeldoorn,Apeldoorn,Gelderland,VBO,5.929047,52.214796
Douglaslaan,3,,,7313HC,Apeldoorn,Apeldoorn,Gelderland,VBO,5.929011,52.214634
Douglaslaan,4,,,7313HC,Apeldoorn,Apeldoorn,Gelderland,VBO,5.928361,52.214655
Douglaslaan,5,,,7313HC,Apeldoorn,Apeldoorn,Gelderland,VBO,5.928993,52.214454
Douglaslaan,8,,,7313HC,Apeldoorn,Apeldoorn,Gelderland,VBO,5.928334,52.214323
Elzenlaan,1,,,7313HD,Apeldoorn,Apeldoorn,Gelderland,VBO,5.931426,52.213653
Elzenlaan,2,,,7313HD,Apeldoorn,Apeldoorn,Gelderland,VBO,5.931567,52.214037
Elzenlaan,3,,,7313HD,Apeldoorn,Apeldoorn,Gelderland,VBO,5.931099,52.213670
Elzenlaan,4,,,7313HD,Apeldoorn,Apeldoorn,Gelderland,VBO,5.931402,52.214044
Elzenlaan,5,,,7313HD,Apeldoorn,Apeldoorn,Gelderland,VBO,5.930768,52.213621
Elzenlaan,6,,,7313HD,Apeldoorn,Apeldoorn,Gelderland,VBO,5.930422,52.213992
Elzenlaan,7,,,7313HD,Apeldoorn,Apeldoorn,Gelderland,VBO,5.929822,52.213586
Elzenlaan,8,,,7313HD,Apeldoorn,Apeldoorn,Gelderland,VBO,5.930037,52.213948
Elzenlaan,9,,,7313HE,Apeldoorn,Apeldoorn,Gelderland,VBO,5.929223,52.213737
Elzenlaan,11,,,7313HE,Apeldoorn,Apeldoorn,Gelderland,VBO,5.928935,52.213810
Elzenlaan,13,,,7313HE,Apeldoorn,Apeldoorn,Gelderland,VBO,5.928690,52.213796
Elzenlaan,15,,,7313HE,Apeldoorn,Apeldoorn,Gelderland,VBO,5.928454,52.213650
Elzenlaan,16,,,7313HE,Apeldoorn,Apeldoorn,Gelderland,VBO,5.929061,52.214216
Elzenlaan,18,,,7313HE,Apeldoorn,Apeldoorn,Gelderland,VBO,5.928956,52.214277
Elzenlaan,20,,,7313HE,Apeldoorn,Apeldoorn,Gelderland,VBO,5.928311,52.214144
Elzenlaan,22,,,7313HE,Apeldoorn,Apeldoorn,Gelderland,VBO,5.928069,52.214046
Grindberglaan,1,,,7313HG,Apeldoorn,Apeldoorn,Gelderland,VBO,5.931166,52.212566
Grindberglaan,2,,,7313HG,Apeldoorn,Apeldoorn,Gelderland,VBO,5.931220,52.213047
Grindberglaan,3,,,7313HG,Apeldoorn,Apeldoorn,Gelderland,VBO,5.930832,52.212490
Grindberglaan,4,,,7313HG,Apeldoorn,Apeldoorn,Gelderland,VBO,5.931078,52.213034
Grindberglaan,5,,,7313HG,Apeldoorn,Apeldoorn,Gelderland,VBO,5.930120,52.212499
Grindberglaan,6,,,7313HG,Apeldoorn,Apeldoorn,Gelderland,VBO,5.930742,52.213011
Grindberglaan,8,,,7313HG,Apeldoorn,Apeldoorn,Gelderland,VBO,5.930240,52.212939
Grindberglaan,10,,,7313HG,Apeldoorn,Apeldoorn,Gelderland,VBO,5.929860,52.212993
Grindberglaan,12,,,7313HG,Apeldoorn,Apeldoorn,Gelderland,VBO,5.929153,52.212930
Acacialaan,1,,,7313HH,Apeldoorn,Apeldoorn,Gelderland,VBO,5.930246,52.212298
Acacialaan,2,,,7313HH,Apeldoorn,Apeldoorn,Gelderland,VBO,5.930877,52.211924
Acacialaan,6,,,7313HH,Apeldoorn,Apeldoorn,Gelderland,VBO,5.930914,52.212164
Acacialaan,8,,,7313HJ,Apeldoorn,Apeldoorn,Gelderland,VBO,5.930754,52.213230
Acacialaan,10,,,7313HJ,Apeldoorn,Apeldoorn,Gelderland,VBO,5.930758,52.213443
Acacialaan,25,A,,7313HJ,Apeldoorn,Apeldoorn,Gelderland,VBO,5.930197,52.213383
Acacialaan,25,,,7313HJ,Apeldoorn,Apeldoorn,Gelderland,VBO,5.930207,52.213183
Acacialaan,27,,,7313HJ,Apeldoorn,Apeldoorn,Gelderland,VBO,5.930177,52.213535
Acacialaan,29,,,7313HJ,Apeldoorn,Apeldoorn,Gelderland,VBO,5.930164,52.213627
J.C. Wilslaan,1,,,7313HK,Apeldoorn,Apeldoorn,Gelderland,VBO,5.930433,52.210582
J.C. Wilslaan,3,A,,7313HK,Apeldoorn,Apeldoorn,Gelderland,VBO,5.929801,52.211160
J.C. Wilslaan,3,,,7313HK,Apeldoorn,Apeldoorn,Gelderland,VBO,5.930091,52.210914
J.C. Wilslaan,5,A,,7313HK,Apeldoorn,Apeldoorn,Gelderland,VBO,5.929197,52.211680
J.C. Wilslaan,5,,,7313HK,Apeldoorn,Apeldoorn,Gelderland,VBO,5.929507,52.211469
J.C. Wilslaan,7,,,7313HK,Apeldoorn,Apeldoorn,Gelderland,VBO,5.928871,52.212024
J.C. Wilslaan,9,,,7313HK,Apeldoorn,Apeldoorn,Gelderland,VBO,5.928436,52.212326
J.C. Wilslaan,11,,,7313HK,Apeldoorn,Apeldoorn,Gelderland,VBO,5.927900,52.212824
J.C. Wilslaan,19,,,7313HK,Apeldoorn,Apeldoorn,Gelderland,VBO,5.926273,52.213317
J.C. Wilslaan,21,,,7313HK,Apeldoorn,Apeldoorn,Gelderland,VBO,5.926357,52.213253
J.C. Wilslaan,23,,,7313HK,Apeldoorn,Apeldoorn,Gelderland,VBO,5.925861,52.213461
J.C. Wilslaan,25,,,7313HK,Apeldoorn,Apeldoorn,Gelderland,VBO,5.925255,52.213699
J.C. Wilslaan,27,,,7313HK,Apeldoorn,Apeldoorn,Gelderland,VBO,5.922971,52.211498
J.C. Wilslaan,29,,,7313HK,Apeldoorn,Apeldoorn,Gelderland,VBO,5.920859,52.214565
J.C. Wilslaan,31,,,7313HK,Apeldoorn,Apeldoorn,Gelderland,VBO,5.919824,52.213471
J.C. Wilslaan,2,,,7313HL,Apeldoorn,Apeldoorn,Gelderland,VBO,5.930661,52.211651
J.C. Wilslaan,4,,,7313HL,Apeldoorn,Apeldoorn,Gelderland,VBO,5.930181,52.212008
J.C. Wilslaan,8,,,7313HL,Apeldoorn,Apeldoorn,Gelderland,VBO,5.929708,52.212404
J.C. Wilslaan,10,,,7313HL,Apeldoorn,Apeldoorn,Gelderland,VBO,5.928859,52.213107
J.C. Wilslaan,12,,,7313HL,Apeldoorn,Apeldoorn,Gelderland,VBO,5.928705,52.213239
J.C. Wilslaan,14,,,7313HL,Apeldoorn,Apeldoorn,Gelderland,VBO,5.928574,52.213347
J.C. Wilslaan,16,,,7313HL,Apeldoorn,Apeldoorn,Gelderland,VBO,5.928455,52.213484
J.C. Wilslaan,18,,,7313HL,Apeldoorn,Apeldoorn,Gelderland,VBO,5.928243,52.213525
J.C. Wilslaan,500,,,7313HM,Apeldoorn,Apeldoorn,Gelderland,VBO,5.903662,52.227744
Sportpark Orderbos,5,,,7313HN,Apeldoorn,Apeldoorn,Gelderland,VBO,5.923522,52.203849
Sportpark Orderbos,13,,,7313HN,Apeldoorn,Apeldoorn,Gelderland,VBO,5.922290,52.202279
Sportpark Orderbos,19,,,7313HN,Apeldoorn,Apeldoorn,Gelderland,VBO,5.920772,52.200036
Sportpark Orderbos,27,,,7313HN,Apeldoorn,Apeldoorn,Gelderland,VBO,5.916398,52.200916
Sportpark Orderbos,29,,,7313HN,Apeldoorn,Apeldoorn,Gelderland,VBO,5.914949,52.201104
Sportpark Orderbos,31,,,7313HN,Apeldoorn,Apeldoorn,Gelderland,VBO,5.914880,52.201822
Sportpark Orderbos,35,,,7313HN,Apeldoorn,Apeldoorn,Gelderland,VBO,5.917225,52.204790
Sportpark Orderbos,37,,,7313HN,Apeldoorn,Apeldoorn,Gelderland,VBO,5.918797,52.204564
Sportpark Orderbos,39,,,7313HN,Apeldoorn,Apeldoorn,Gelderland,VBO,5.919926,52.204934
Sportpark Orderbos,41,,,7313HN,Apeldoorn,Apeldoorn,Gelderland,VBO,5.921796,52.205320
Sportpark Orderbos,45,,,7313HN,Apeldoorn,Apeldoorn,Gelderland,VBO,5.923282,52.205653
