openbareruimtenaam,huisnummer,huisletter,huisnummertoevoeging,postcode,woonplaatsnaam,gemeentenaam,provincienaam,typeadresseerbaarobject,longitude,latitude
Mantelmeeuw,5,,,7332AA,Apeldoorn,Apeldoorn,Gelderland,VBO,5.977206,52.204607
Mantelmeeuw,6,,,7332AA,Apeldoorn,Apeldoorn,Gelderland,VBO,5.977159,52.204680
Mantelmeeuw,7,,,7332AA,Apeldoorn,Apeldoorn,Gelderland,VBO,5.977173,52.204658
Mantelmeeuw,8,,,7332AA,Apeldoorn,Apeldoorn,Gelderland,VBO,5.977159,52.204680
Mantelmeeuw,9,,,7332AA,Apeldoorn,Apeldoorn,Gelderland,VBO,5.977144,52.204702
Mantelmeeuw,10,,,7332AA,Apeldoorn,Apeldoorn,Gelderland,VBO,5.977159,52.204680
Mantelmeeuw,11,,,7332AA,Apeldoorn,Apeldoorn,Gelderland,VBO,5.977111,52.204751
Mantelmeeuw,12,,,7332AA,Apeldoorn,Apeldoorn,Gelderland,VBO,5.977159,52.204680
Mantelmeeuw,21,,,7332AA,Apeldoorn,Apeldoorn,Gelderland,VBO,5.977159,52.204680
Mantelmeeuw,25,,,7332AA,Apeldoorn,Apeldoorn,Gelderland,VBO,5.977159,52.204680
Mantelmeeuw,27,,,7332AA,Apeldoorn,Apeldoorn,Gelderland,VBO,5.977159,52.204680
Mantelmeeuw,31,,,7332AA,Apeldoorn,Apeldoorn,Gelderland,VBO,5.977159,52.204680
Mantelmeeuw,33,,,7332AA,Apeldoorn,Apeldoorn,Gelderland,VBO,5.977159,52.204680
Mantelmeeuw,35,,,7332AA,Apeldoorn,Apeldoorn,Gelderland,VBO,5.977159,52.204680
Mantelmeeuw,37,,,7332AA,Apeldoorn,Apeldoorn,Gelderland,VBO,5.977159,52.204680
Mantelmeeuw,39,,,7332AA,Apeldoorn,Apeldoorn,Gelderland,VBO,5.977159,52.204680
Mantelmeeuw,41,,,7332AA,Apeldoorn,Apeldoorn,Gelderland,VBO,5.977159,52.204680
Mantelmeeuw,43,,,7332AA,Apeldoorn,Apeldoorn,Gelderland,VBO,5.977159,52.204680
Mantelmeeuw,45,,,7332AA,Apeldoorn,Apeldoorn,Gelderland,VBO,5.977159,52.204680
Mantelmeeuw,47,,,7332AA,Apeldoorn,Apeldoorn,Gelderland,VBO,5.977159,52.204680
Mantelmeeuw,49,,,7332AA,Apeldoorn,Apeldoorn,Gelderland,VBO,5.977159,52.204680
Laan van de Mensenrechten,590,,,7332AB,Apeldoorn,Apeldoorn,Gelderland,VBO,5.974773,52.207919
Laan van de Mensenrechten,598,,,7332AB,Apeldoorn,Apeldoorn,Gelderland,VBO,5.975227,52.207867
Laan van de Mensenrechten,608,,,7332AB,Apeldoorn,Apeldoorn,Gelderland,VBO,5.975424,52.207752
Laan van de Mensenrechten,610,,,7332AB,Apeldoorn,Apeldoorn,Gelderland,VBO,5.975784,52.207794
Laan van de Mensenrechten,612,,,7332AB,Apeldoorn,Apeldoorn,Gelderland,VBO,5.975848,52.207785
Condorweg,5,,,7332AC,Apeldoorn,Apeldoorn,Gelderland,VBO,5.975796,52.207557
Condorweg,8,,,7332AC,Apeldoorn,Apeldoorn,Gelderland,VBO,5.977092,52.206226
Condorweg,10,,,7332AC,Apeldoorn,Apeldoorn,Gelderland,VBO,5.976642,52.206989
Condorweg,16,,,7332AC,Apeldoorn,Apeldoorn,Gelderland,VBO,5.976404,52.207262
Condorweg,24,,,7332AC,Apeldoorn,Apeldoorn,Gelderland,VBO,5.976977,52.207499
Condorweg,30,,,7332AC,Apeldoorn,Apeldoorn,Gelderland,VBO,5.976420,52.207705
Mezenweg,1,A,,7332AD,Apeldoorn,Apeldoorn,Gelderland,VBO,5.976490,52.205547
Mezenweg,3,A,,7332AD,Apeldoorn,Apeldoorn,Gelderland,VBO,5.976636,52.205576
Mezenweg,5,A,,7332AD,Apeldoorn,Apeldoorn,Gelderland,VBO,5.976801,52.205608
Mezenweg,7,A,,7332AD,Apeldoorn,Apeldoorn,Gelderland,VBO,5.977015,52.205650
Mezenweg,13,,,7332AD,Apeldoorn,Apeldoorn,Gelderland,VBO,5.977278,52.205761
Mezenweg,15,,,7332AD,Apeldoorn,Apeldoorn,Gelderland,VBO,5.977592,52.205753
Mezenweg,17,,,7332AD,Apeldoorn,Apeldoorn,Gelderland,VBO,5.977562,52.205892
Mezenweg,19,,,7332AD,Apeldoorn,Apeldoorn,Gelderland,VBO,5.978038,52.205822
Lepelaarweg,1,,,7332AE,Apeldoorn,Apeldoorn,Gelderland,VBO,5.977367,52.205383
Lepelaarweg,3,,,7332AE,Apeldoorn,Apeldoorn,Gelderland,VBO,5.977457,52.205362
Lepelaarweg,5,,,7332AE,Apeldoorn,Apeldoorn,Gelderland,VBO,5.977557,52.205329
Lepelaarweg,15,,,7332AE,Apeldoorn,Apeldoorn,Gelderland,VBO,5.978344,52.205113
Lepelaarweg,17,,,7332AE,Apeldoorn,Apeldoorn,Gelderland,VBO,5.978432,52.205097
Lepelaarweg,19,,,7332AE,Apeldoorn,Apeldoorn,Gelderland,VBO,5.978517,52.205067
Lepelaarweg,21,,,7332AE,Apeldoorn,Apeldoorn,Gelderland,VBO,5.978711,52.205015
Lepelaarweg,23,,,7332AE,Apeldoorn,Apeldoorn,Gelderland,VBO,5.978799,52.204997
Lepelaarweg,25,,,7332AE,Apeldoorn,Apeldoorn,Gelderland,VBO,5.978886,52.204970
Lepelaarweg,28,,,7332AE,Apeldoorn,Apeldoorn,Gelderland,VBO,5.978450,52.204737
Lepelaarweg,30,,,7332AE,Apeldoorn,Apeldoorn,Gelderland,VBO,5.978630,52.204692
Aalscholverweg,2,,,7332AG,Apeldoorn,Apeldoorn,Gelderland,VBO,5.977219,52.204119
Aalscholverweg,4,,,7332AG,Apeldoorn,Apeldoorn,Gelderland,VBO,5.977378,52.204147
Aalscholverweg,6,,,7332AG,Apeldoorn,Apeldoorn,Gelderland,VBO,5.977700,52.204175
Aalscholverweg,7,,,7332AG,Apeldoorn,Apeldoorn,Gelderland,VBO,5.977974,52.204488
Aalscholverweg,8,,,7332AG,Apeldoorn,Apeldoorn,Gelderland,VBO,5.977864,52.204188
Aalscholverweg,10,,,7332AG,Apeldoorn,Apeldoorn,Gelderland,VBO,5.978071,52.204203
Aalscholverweg,12,,,7332AG,Apeldoorn,Apeldoorn,Gelderland,VBO,5.978268,52.204209
Aalscholverweg,14,,,7332AG,Apeldoorn,Apeldoorn,Gelderland,VBO,5.978334,52.204213
Aalscholverweg,16,,,7332AG,Apeldoorn,Apeldoorn,Gelderland,VBO,5.978667,52.204239
Aalscholverweg,18,,,7332AG,Apeldoorn,Apeldoorn,Gelderland,VBO,5.978867,52.204165
Aalscholverweg,20,,,7332AG,Apeldoorn,Apeldoorn,Gelderland,VBO,5.979226,52.204249
Kayersdijk,3,,,7332AH,Apeldoorn,Apeldoorn,Gelderland,VBO,5.974322,52.207942
Kayersdijk,5,,,7332AH,Apeldoorn,Apeldoorn,Gelderland,VBO,5.974432,52.207775
Kayersdijk,9,,,7332AH,Apeldoorn,Apeldoorn,Gelderland,VBO,5.974666,52.207577
Kayersdijk,11,,,7332AH,Apeldoorn,Apeldoorn,Gelderland,VBO,5.974685,52.207439
Kayersdijk,13,,,7332AH,Apeldoorn,Apeldoorn,Gelderland,VBO,5.974734,52.207346
Kayersdijk,15,,,7332AH,Apeldoorn,Apeldoorn,Gelderland,VBO,5.974837,52.207225
Kayersdijk,33,,,7332AH,Apeldoorn,Apeldoorn,Gelderland,VBO,5.975901,52.206086
Kayersdijk,35,,,7332AH,Apeldoorn,Apeldoorn,Gelderland,VBO,5.976011,52.205906
Kayersdijk,37,,,7332AH,Apeldoorn,Apeldoorn,Gelderland,VBO,5.976147,52.205766
Kayersdijk,41,,,7332AH,Apeldoorn,Apeldoorn,Gelderland,VBO,5.976337,52.205632
Kayersdijk,43,,,7332AH,Apeldoorn,Apeldoorn,Gelderland,VBO,5.976394,52.205508
Kayersdijk,49,,,7332AJ,Apeldoorn,Apeldoorn,Gelderland,VBO,5.976614,52.205224
Kayersdijk,55,,2,7332AK,Apeldoorn,Apeldoorn,Gelderland,VBO,5.976760,52.204937
Kayersdijk,55,,,7332AK,Apeldoorn,Apeldoorn,Gelderland,VBO,5.976740,52.204974
Kayersdijk,59,,,7332AK,Apeldoorn,Apeldoorn,Gelderland,VBO,5.976992,52.204687
Kayersdijk,61,,,7332AK,Apeldoorn,Apeldoorn,Gelderland,VBO,5.977049,52.204600
Kayersdijk,63,,,7332AK,Apeldoorn,Apeldoorn,Gelderland,VBO,5.977045,52.204461
Kayersdijk,65,A,,7332AL,Apeldoorn,Apeldoorn,Gelderland,VBO,5.977712,52.203455
Kayersdijk,65,B,,7332AL,Apeldoorn,Apeldoorn,Gelderland,VBO,5.977742,52.203412
Kayersdijk,65,C,,7332AL,Apeldoorn,Apeldoorn,Gelderland,VBO,5.977777,52.203365
Kayersdijk,67,A,,7332AL,Apeldoorn,Apeldoorn,Gelderland,VBO,5.977806,52.203324
Kayersdijk,67,B,,7332AL,Apeldoorn,Apeldoorn,Gelderland,VBO,5.977840,52.203276
Kayersdijk,67,C,,7332AL,Apeldoorn,Apeldoorn,Gelderland,VBO,5.977873,52.203238
Kayersdijk,69,A,,7332AL,Apeldoorn,Apeldoorn,Gelderland,VBO,5.977905,52.203193
Kayersdijk,69,B,,7332AL,Apeldoorn,Apeldoorn,Gelderland,VBO,5.977935,52.203146
Kayersdijk,69,C,,7332AL,Apeldoorn,Apeldoorn,Gelderland,VBO,5.977968,52.203103
Kayersdijk,71,A,,7332AL,Apeldoorn,Apeldoorn,Gelderland,VBO,5.978000,52.203062
Kayersdijk,71,B,,7332AL,Apeldoorn,Apeldoorn,Gelderland,VBO,5.978035,52.203018
Kayersdijk,71,C,,7332AL,Apeldoorn,Apeldoorn,Gelderland,VBO,5.978074,52.202975
Kayersdijk,73,A,,7332AL,Apeldoorn,Apeldoorn,Gelderland,VBO,5.978448,52.202578
Kayersdijk,73,B,,7332AL,Apeldoorn,Apeldoorn,Gelderland,VBO,5.978484,52.202526
Kayersdijk,73,C,,7332AL,Apeldoorn,Apeldoorn,Gelderland,VBO,5.978511,52.202486
Kayersdijk,75,A,,7332AL,Apeldoorn,Apeldoorn,Gelderland,VBO,5.978542,52.202441
Kayersdijk,75,B,,7332AL,Apeldoorn,Apeldoorn,Gelderland,VBO,5.978575,52.202396
Kayersdijk,75,C,,7332AL,Apeldoorn,Apeldoorn,Gelderland,VBO,5.978609,52.202352
Kayersdijk,77,A,,7332AL,Apeldoorn,Apeldoorn,Gelderland,VBO,5.978645,52.202308
Kayersdijk,77,B,,7332AL,Apeldoorn,Apeldoorn,Gelderland,VBO,5.978679,52.202262
Kayersdijk,77,C,,7332AL,Apeldoorn,Apeldoorn,Gelderland,VBO,5.978710,52.202219
Kayersdijk,79,A,,7332AL,Apeldoorn,Apeldoorn,Gelderland,VBO,5.978876,52.202158
Kayersdijk,79,B,,7332AL,Apeldoorn,Apeldoorn,Gelderland,VBO,5.978912,52.202115
Kayersdijk,79,C,,7332AL,Apeldoorn,Apeldoorn,Gelderland,VBO,5.978943,52.202072
Kayersdijk,81,A,,7332AL,Apeldoorn,Apeldoorn,Gelderland,VBO,5.978977,52.202031
Kayersdijk,81,B,,7332AL,Apeldoorn,Apeldoorn,Gelderland,VBO,5.979010,52.201987
Kayersdijk,81,C,,7332AL,Apeldoorn,Apeldoorn,Gelderland,VBO,5.979046,52.201940
Kayersdijk,81,D,,7332AL,Apeldoorn,Apeldoorn,Gelderland,VBO,5.979079,52.201898
Kayersdijk,85,,,7332AL,Apeldoorn,Apeldoorn,Gelderland,VBO,5.979228,52.201583
Kayersdijk,87,,,7332AL,Apeldoorn,Apeldoorn,Gelderland,VBO,5.979537,52.201354
Kayersdijk,89,,,7332AM,Apeldoorn,Apeldoorn,Gelderland,VBO,5.980214,52.199598
Kayersdijk,91,,,7332AM,Apeldoorn,Apeldoorn,Gelderland,VBO,5.980253,52.199402
Kayersdijk,95,A,,7332AM,Apeldoorn,Apeldoorn,Gelderland,VBO,5.980013,52.198578
Kayersdijk,95,,,7332AM,Apeldoorn,Apeldoorn,Gelderland,VBO,5.980134,52.198899
Kayersdijk,99,,,7332AM,Apeldoorn,Apeldoorn,Gelderland,VBO,5.979558,52.197798
Kayersdijk,109,,,7332AN,Apeldoorn,Apeldoorn,Gelderland,VBO,5.978880,52.196030
Kayersdijk,111,,,7332AN,Apeldoorn,Apeldoorn,Gelderland,VBO,5.978302,52.195344
Kayersdijk,113,,,7332AN,Apeldoorn,Apeldoorn,Gelderland,VBO,5.978281,52.195308
Kayersdijk,131,,,7332AP,Apeldoorn,Apeldoorn,Gelderland,VBO,5.979178,52.192512
Kayersdijk,141,,,7332AP,Apeldoorn,Apeldoorn,Gelderland,VBO,5.979922,52.190910
Kayersdijk,149,,,7332AP,Apeldoorn,Apeldoorn,Gelderland,VBO,5.980872,52.189448
Kayersdijk,151,,,7332AR,Apeldoorn,Apeldoorn,Gelderland,VBO,5.981149,52.188776
Kayersdijk,153,,,7332AR,Apeldoorn,Apeldoorn,Gelderland,VBO,5.981462,52.188430
Kayersdijk,155,,,7332AR,Apeldoorn,Apeldoorn,Gelderland,VBO,5.981665,52.187863
Kayersdijk,122,,,7332AS,Apeldoorn,Apeldoorn,Gelderland,VBO,5.981824,52.186010
Kayersdijk,165,,,7332AS,Apeldoorn,Apeldoorn,Gelderland,VBO,5.981807,52.187451
Kayersdijk,169,,,7332AS,Apeldoorn,Apeldoorn,Gelderland,VBO,5.982109,52.187068
Kayersdijk,171,,,7332AS,Apeldoorn,Apeldoorn,Gelderland,VBO,5.982303,52.186736
Kayersdijk,175,,,7332AS,Apeldoorn,Apeldoorn,Gelderland,VBO,5.982483,52.186420
Kayersdijk,2,A,,7332AT,Apeldoorn,Apeldoorn,Gelderland,VBO,5.973710,52.207801
Kayersdijk,2,B,,7332AT,Apeldoorn,Apeldoorn,Gelderland,VBO,5.973625,52.207914
Kayersdijk,2,,,7332AT,Apeldoorn,Apeldoorn,Gelderland,VBO,5.973625,52.207914
Kayersdijk,4,,,7332AT,Apeldoorn,Apeldoorn,Gelderland,VBO,5.973729,52.207717
Kayersdijk,6,,,7332AT,Apeldoorn,Apeldoorn,Gelderland,VBO,5.973922,52.207515
Kayersdijk,8,C,,7332AT,Apeldoorn,Apeldoorn,Gelderland,VBO,5.973474,52.207377
Kayersdijk,8,,,7332AT,Apeldoorn,Apeldoorn,Gelderland,VBO,5.973957,52.207481
Kayersdijk,10,B,,7332AT,Apeldoorn,Apeldoorn,Gelderland,VBO,5.972478,52.207501
Kayersdijk,10,,,7332AT,Apeldoorn,Apeldoorn,Gelderland,VBO,5.972528,52.207563
Kayersdijk,14,,,7332AT,Apeldoorn,Apeldoorn,Gelderland,VBO,5.974222,52.207198
Kayersdijk,16,,,7332AT,Apeldoorn,Apeldoorn,Gelderland,VBO,5.974328,52.207109
Kayersdijk,18,,,7332AT,Apeldoorn,Apeldoorn,Gelderland,VBO,5.974405,52.206981
Kayersdijk,20,,,7332AT,Apeldoorn,Apeldoorn,Gelderland,VBO,5.974479,52.206893
Kayersdijk,22,,,7332AT,Apeldoorn,Apeldoorn,Gelderland,VBO,5.974548,52.206785
Kayersdijk,24,,,7332AT,Apeldoorn,Apeldoorn,Gelderland,VBO,5.974633,52.206700
Kayersdijk,28,,,7332AT,Apeldoorn,Apeldoorn,Gelderland,VBO,5.974785,52.206485
Kayersdijk,40,,,7332AT,Apeldoorn,Apeldoorn,Gelderland,VBO,5.974936,52.206219
Kayersdijk,42,,,7332AT,Apeldoorn,Apeldoorn,Gelderland,VBO,5.974966,52.206177
Kayersdijk,44,,,7332AT,Apeldoorn,Apeldoorn,Gelderland,VBO,5.974997,52.206132
Kayersdijk,46,,,7332AT,Apeldoorn,Apeldoorn,Gelderland,VBO,5.975030,52.206087
Kayersdijk,48,,,7332AT,Apeldoorn,Apeldoorn,Gelderland,VBO,5.975048,52.206039
Kayersdijk,50,,,7332AT,Apeldoorn,Apeldoorn,Gelderland,VBO,5.975083,52.205993
Kayersdijk,52,,,7332AT,Apeldoorn,Apeldoorn,Gelderland,VBO,5.975115,52.205952
Kayersdijk,54,,,7332AT,Apeldoorn,Apeldoorn,Gelderland,VBO,5.975150,52.205906
Kayersdijk,56,,,7332AT,Apeldoorn,Apeldoorn,Gelderland,VBO,5.975186,52.205862
Kayersdijk,58,,,7332AT,Apeldoorn,Apeldoorn,Gelderland,VBO,5.975192,52.205824
Kayersdijk,60,,,7332AT,Apeldoorn,Apeldoorn,Gelderland,VBO,5.975170,52.205778
Kayersdijk,70,,,7332AV,Apeldoorn,Apeldoorn,Gelderland,VBO,5.975767,52.204728
Kayersdijk,88,,,7332AV,Apeldoorn,Apeldoorn,Gelderland,VBO,5.978840,52.197621
Kayersdijk,90,,,7332AV,Apeldoorn,Apeldoorn,Gelderland,VBO,5.978811,52.197568
Kayersdijk,92,,,7332AV,Apeldoorn,Apeldoorn,Gelderland,VBO,5.978626,52.197259
Kayersdijk,94,,,7332AV,Apeldoorn,Apeldoorn,Gelderland,VBO,5.978592,52.197207
Kayersdijk,96,,,7332AV,Apeldoorn,Apeldoorn,Gelderland,VBO,5.978562,52.197153
Kayersdijk,98,,,7332AV,Apeldoorn,Apeldoorn,Gelderland,VBO,5.978533,52.197099
Kayersdijk,100,A,,7332AV,Apeldoorn,Apeldoorn,Gelderland,VBO,5.978258,52.197000
Kayersdijk,100,,,7332AV,Apeldoorn,Apeldoorn,Gelderland,VBO,5.978508,52.197045
Kayersdijk,102,,,7332AV,Apeldoorn,Apeldoorn,Gelderland,VBO,5.978387,52.196918
Kayersdijk,104,,,7332AV,Apeldoorn,Apeldoorn,Gelderland,VBO,5.978347,52.196828
Kayersdijk,106,,,7332AV,Apeldoorn,Apeldoorn,Gelderland,VBO,5.978339,52.196630
Kayersdijk,108,,,7332AV,Apeldoorn,Apeldoorn,Gelderland,VBO,5.978248,52.196643
Kayersdijk,110,,,7332AV,Apeldoorn,Apeldoorn,Gelderland,VBO,5.978136,52.196670
Kayersdijk,150,,,7332AW,Apeldoorn,Apeldoorn,Gelderland,VBO,5.981221,52.182165
Rijnstraat,62,,,7332AX,Apeldoorn,Apeldoorn,Gelderland,VBO,5.981387,52.188996
Rijnstraat,66,,,7332AX,Apeldoorn,Apeldoorn,Gelderland,VBO,5.981818,52.189119
Rijnstraat,68,,,7332AX,Apeldoorn,Apeldoorn,Gelderland,VBO,5.981883,52.189126
Marchantstraat,55,,,7332AZ,Apeldoorn,Apeldoorn,Gelderland,VBO,5.981809,52.193866
Loudonstraat,55,B,,7332BA,Apeldoorn,Apeldoorn,Gelderland,VBO,5.979737,52.197442
Loudonstraat,55,,,7332BA,Apeldoorn,Apeldoorn,Gelderland,VBO,5.979880,52.197636
Loudonstraat,57,,,7332BA,Apeldoorn,Apeldoorn,Gelderland,VBO,5.979984,52.197392
Loudonstraat,59,,,7332BA,Apeldoorn,Apeldoorn,Gelderland,VBO,5.980034,52.197372
Loudonstraat,61,,,7332BA,Apeldoorn,Apeldoorn,Gelderland,VBO,5.980217,52.197274
Loudonstraat,75,,,7332BA,Apeldoorn,Apeldoorn,Gelderland,VBO,5.981134,52.196878
Kanaal Zuid,4,,,7332BB,Apeldoorn,Apeldoorn,Gelderland,VBO,5.976690,52.208465
Kanaal Zuid,6,,,7332BB,Apeldoorn,Apeldoorn,Gelderland,VBO,5.976663,52.208379
Kanaal Zuid,12,,,7332BB,Apeldoorn,Apeldoorn,Gelderland,VBO,5.978084,52.207081
Kanaal Zuid,14,,,7332BB,Apeldoorn,Apeldoorn,Gelderland,VBO,5.978432,52.206312
Kanaal Zuid,16,,,7332BB,Apeldoorn,Apeldoorn,Gelderland,VBO,5.978603,52.206087
Kanaal Zuid,38,,,7332BB,Apeldoorn,Apeldoorn,Gelderland,VBO,5.979189,52.205005
Kanaal Zuid,40,,,7332BB,Apeldoorn,Apeldoorn,Gelderland,VBO,5.979199,52.204942
Kanaal Zuid,42,,,7332BB,Apeldoorn,Apeldoorn,Gelderland,VBO,5.979230,52.204887
Kanaal Zuid,50,,,7332BC,Apeldoorn,Apeldoorn,Gelderland,VBO,5.979502,52.203847
Kanaal Zuid,52,,,7332BC,Apeldoorn,Apeldoorn,Gelderland,VBO,5.979524,52.203744
Kanaal Zuid,54,,,7332BC,Apeldoorn,Apeldoorn,Gelderland,VBO,5.979517,52.203437
Kanaal Zuid,62,,,7332BC,Apeldoorn,Apeldoorn,Gelderland,VBO,5.979696,52.202888
Kanaal Zuid,70,,,7332BC,Apeldoorn,Apeldoorn,Gelderland,VBO,5.980017,52.201435
Kanaal Zuid,72,A,,7332BC,Apeldoorn,Apeldoorn,Gelderland,VBO,5.980009,52.201129
Kanaal Zuid,72,B,,7332BC,Apeldoorn,Apeldoorn,Gelderland,VBO,5.980058,52.200967
Kanaal Zuid,72,C,,7332BC,Apeldoorn,Apeldoorn,Gelderland,VBO,5.980104,52.200804
Kanaal Zuid,74,,,7332BC,Apeldoorn,Apeldoorn,Gelderland,VBO,5.980152,52.200455
Kanaal Zuid,78,A,,7332BC,Apeldoorn,Apeldoorn,Gelderland,VBO,5.980562,52.199582
Kanaal Zuid,78,,,7332BC,Apeldoorn,Apeldoorn,Gelderland,VBO,5.980246,52.200110
Kanaal Zuid,80,,,7332BD,Apeldoorn,Apeldoorn,Gelderland,VBO,5.980542,52.198857
Kanaal Zuid,92,,,7332BD,Apeldoorn,Apeldoorn,Gelderland,VBO,5.980993,52.197191
Kanaal Zuid,106,,,7332BD,Apeldoorn,Apeldoorn,Gelderland,VBO,5.981470,52.195605
Kanaal Zuid,110,,,7332BD,Apeldoorn,Apeldoorn,Gelderland,VBO,5.981816,52.194276
Kanaal Zuid,114,,,7332BD,Apeldoorn,Apeldoorn,Gelderland,VBO,5.982037,52.193217
Kanaal Zuid,120,,,7332BD,Apeldoorn,Apeldoorn,Gelderland,VBO,5.982403,52.190957
Kanaal Zuid,130,,,7332BD,Apeldoorn,Apeldoorn,Gelderland,VBO,5.983909,52.190253
Kanaal Zuid,134,,,7332BD,Apeldoorn,Apeldoorn,Gelderland,VBO,5.984357,52.190159
Kanaal Zuid,138,,,7332BD,Apeldoorn,Apeldoorn,Gelderland,VBO,5.984509,52.189882
Zwaansprengweg,1,A,,7332BE,Apeldoorn,Apeldoorn,Gelderland,VBO,5.982043,52.187953
Zwaansprengweg,1,,,7332BE,Apeldoorn,Apeldoorn,Gelderland,VBO,5.982301,52.187918
Zwaansprengweg,4,,,7332BE,Apeldoorn,Apeldoorn,Gelderland,VBO,5.982279,52.187559
Zwaansprengweg,5,A,,7332BE,Apeldoorn,Apeldoorn,Gelderland,VBO,5.983847,52.188786
Zwaansprengweg,5,B,,7332BE,Apeldoorn,Apeldoorn,Gelderland,STA,5.983994,52.188846
Zwaansprengweg,5,C,,7332BE,Apeldoorn,Apeldoorn,Gelderland,VBO,5.984183,52.188848
Zwaansprengweg,5,D,,7332BE,Apeldoorn,Apeldoorn,Gelderland,STA,5.984325,52.188919
Zwaansprengweg,5,E,,7332BE,Apeldoorn,Apeldoorn,Gelderland,STA,5.984490,52.188955
Zwaansprengweg,5,F,,7332BE,Apeldoorn,Apeldoorn,Gelderland,STA,5.984655,52.188991
Zwaansprengweg,5,G,,7332BE,Apeldoorn,Apeldoorn,Gelderland,STA,5.984821,52.189027
Zwaansprengweg,5,H,,7332BE,Apeldoorn,Apeldoorn,Gelderland,VBO,5.985011,52.189033
Zwaansprengweg,5,J,,7332BE,Apeldoorn,Apeldoorn,Gelderland,VBO,5.984695,52.189161
Zwaansprengweg,5,K,,7332BE,Apeldoorn,Apeldoorn,Gelderland,VBO,5.984136,52.189478
Zwaansprengweg,5,P,,7332BE,Apeldoorn,Apeldoorn,Gelderland,VBO,5.984949,52.189532
Zwaansprengweg,5,S,,7332BE,Apeldoorn,Apeldoorn,Gelderland,VBO,5.985141,52.189351
Zwaansprengweg,7,A,,7332BE,Apeldoorn,Apeldoorn,Gelderland,STA,5.985241,52.189123
Zwaansprengweg,7,B,,7332BE,Apeldoorn,Apeldoorn,Gelderland,VBO,5.985428,52.189147
Zwaansprengweg,7,C,,7332BE,Apeldoorn,Apeldoorn,Gelderland,STA,5.984663,52.188712
Zwaansprengweg,7,D,,7332BE,Apeldoorn,Apeldoorn,Gelderland,STA,5.984497,52.188679
Zwaansprengweg,7,E,,7332BE,Apeldoorn,Apeldoorn,Gelderland,STA,5.984330,52.188647
Zwaansprengweg,7,F,,7332BE,Apeldoorn,Apeldoorn,Gelderland,VBO,5.984156,52.188637
Zwaansprengweg,7,G,,7332BE,Apeldoorn,Apeldoorn,Gelderland,VBO,5.983978,52.188575
Zwaansprengweg,7,K,,7332BE,Apeldoorn,Apeldoorn,Gelderland,STA,5.983321,52.188829
Zwaansprengweg,8,A,,7332BE,Apeldoorn,Apeldoorn,Gelderland,STA,5.983477,52.187806
Zwaansprengweg,8,B,,7332BE,Apeldoorn,Apeldoorn,Gelderland,STA,5.983467,52.187649
Zwaansprengweg,8,C,,7332BE,Apeldoorn,Apeldoorn,Gelderland,STA,5.983462,52.187507
Zwaansprengweg,8,D,,7332BE,Apeldoorn,Apeldoorn,Gelderland,STA,5.983461,52.187365
Zwaansprengweg,8,E,,7332BE,Apeldoorn,Apeldoorn,Gelderland,STA,5.983458,52.187235
Zwaansprengweg,8,F,,7332BE,Apeldoorn,Apeldoorn,Gelderland,STA,5.983455,52.187092
Zwaansprengweg,8,G,,7332BE,Apeldoorn,Apeldoorn,Gelderland,STA,5.983452,52.186949
Zwaansprengweg,8,H,,7332BE,Apeldoorn,Apeldoorn,Gelderland,STA,5.983450,52.186819
Zwaansprengweg,8,K,,7332BE,Apeldoorn,Apeldoorn,Gelderland,STA,5.983447,52.186690
Zwaansprengweg,8,L,,7332BE,Apeldoorn,Apeldoorn,Gelderland,STA,5.983445,52.186548
Zwaansprengweg,8,M,,7332BE,Apeldoorn,Apeldoorn,Gelderland,STA,5.983420,52.186405
Zwaansprengweg,9,,,7332BE,Apeldoorn,Apeldoorn,Gelderland,VBO,5.985293,52.188185
Zwaansprengweg,16,,,7332BE,Apeldoorn,Apeldoorn,Gelderland,VBO,5.984664,52.187515
Zwaansprengweg,19,,,7332BE,Apeldoorn,Apeldoorn,Gelderland,VBO,5.985763,52.186981
Zwaansprengweg,20,,,7332BE,Apeldoorn,Apeldoorn,Gelderland,VBO,5.984715,52.186930
Sint-Maarten,1,A,,7332BG,Apeldoorn,Apeldoorn,Gelderland,VBO,5.987449,52.186936
Sint-Maarten,1,,,7332BG,Apeldoorn,Apeldoorn,Gelderland,VBO,5.985852,52.186524
Sint-Maarten,2,,,7332BG,Apeldoorn,Apeldoorn,Gelderland,VBO,5.984484,52.186210
Sint-Maarten,3,,,7332BG,Apeldoorn,Apeldoorn,Gelderland,VBO,5.985572,52.186009
Saba,4,,,7332BH,Apeldoorn,Apeldoorn,Gelderland,VBO,5.983771,52.183960
Saba,6,,,7332BH,Apeldoorn,Apeldoorn,Gelderland,VBO,5.984236,52.184034
Saba,9,,,7332BH,Apeldoorn,Apeldoorn,Gelderland,VBO,5.986629,52.185247
Saba,10,,,7332BH,Apeldoorn,Apeldoorn,Gelderland,VBO,5.985607,52.184295
Saba,12,,,7332BH,Apeldoorn,Apeldoorn,Gelderland,VBO,5.985868,52.184325
Aruba,5,,,7332BJ,Apeldoorn,Apeldoorn,Gelderland,VBO,5.985240,52.183611
Aruba,7,,,7332BJ,Apeldoorn,Apeldoorn,Gelderland,VBO,5.985337,52.183426
Aruba,13,A,,7332BJ,Apeldoorn,Apeldoorn,Gelderland,VBO,5.985925,52.183298
Aruba,13,B,,7332BJ,Apeldoorn,Apeldoorn,Gelderland,VBO,5.985703,52.183263
Aruba,13,D,,7332BJ,Apeldoorn,Apeldoorn,Gelderland,VBO,5.985470,52.183227
Aruba,13,,,7332BJ,Apeldoorn,Apeldoorn,Gelderland,VBO,5.985532,52.183069
Aruba,15,,,7332BJ,Apeldoorn,Apeldoorn,Gelderland,VBO,5.985658,52.182824
Aruba,21,,,7332BJ,Apeldoorn,Apeldoorn,Gelderland,VBO,5.986026,52.182072
Aruba,4,,,7332BK,Apeldoorn,Apeldoorn,Gelderland,VBO,5.984307,52.183324
Aruba,6,,,7332BK,Apeldoorn,Apeldoorn,Gelderland,VBO,5.984749,52.183009
Aruba,12,,,7332BK,Apeldoorn,Apeldoorn,Gelderland,VBO,5.985103,52.182279
Aruba,16,,,7332BK,Apeldoorn,Apeldoorn,Gelderland,VBO,5.985011,52.181939
Curaçao,3,,,7332BL,Apeldoorn,Apeldoorn,Gelderland,VBO,5.987014,52.184537
Curaçao,15,,,7332BL,Apeldoorn,Apeldoorn,Gelderland,VBO,5.987335,52.183939
Curaçao,21,,,7332BL,Apeldoorn,Apeldoorn,Gelderland,VBO,5.987579,52.183360
Curaçao,31,,,7332BL,Apeldoorn,Apeldoorn,Gelderland,VBO,5.987825,52.182792
Curaçao,35,,,7332BL,Apeldoorn,Apeldoorn,Gelderland,VBO,5.987963,52.182419
Curaçao,41,A,,7332BL,Apeldoorn,Apeldoorn,Gelderland,VBO,5.988031,52.181986
Curaçao,41,,,7332BL,Apeldoorn,Apeldoorn,Gelderland,VBO,5.988154,52.182227
Curaçao,47,,,7332BL,Apeldoorn,Apeldoorn,Gelderland,VBO,5.988616,52.181980
Curaçao,10,,,7332BM,Apeldoorn,Apeldoorn,Gelderland,VBO,5.986617,52.183592
Curaçao,16,,,7332BM,Apeldoorn,Apeldoorn,Gelderland,VBO,5.986787,52.183269
Curaçao,18,,,7332BM,Apeldoorn,Apeldoorn,Gelderland,VBO,5.986870,52.183079
Curaçao,22,,,7332BM,Apeldoorn,Apeldoorn,Gelderland,VBO,5.986898,52.182876
Curaçao,30,,,7332BM,Apeldoorn,Apeldoorn,Gelderland,VBO,5.987029,52.182602
Curaçao,34,,,7332BM,Apeldoorn,Apeldoorn,Gelderland,VBO,5.986818,52.182401
Curaçao,36,,,7332BM,Apeldoorn,Apeldoorn,Gelderland,VBO,5.986857,52.182303
Curaçao,38,,,7332BM,Apeldoorn,Apeldoorn,Gelderland,VBO,5.987241,52.182189
Curaçao,42,,,7332BM,Apeldoorn,Apeldoorn,Gelderland,VBO,5.987456,52.181549
Bonaire,4,,,7332BN,Apeldoorn,Apeldoorn,Gelderland,VBO,5.986133,52.181430
Lange Amerikaweg,55,,,7332BP,Apeldoorn,Apeldoorn,Gelderland,VBO,5.983510,52.179551
Lange Amerikaweg,67,,,7332BP,Apeldoorn,Apeldoorn,Gelderland,VBO,5.984363,52.179652
Lange Amerikaweg,69,A,,7332BP,Apeldoorn,Apeldoorn,Gelderland,VBO,5.984589,52.179789
Lange Amerikaweg,69,E,,7332BP,Apeldoorn,Apeldoorn,Gelderland,VBO,5.984745,52.179860
Lange Amerikaweg,71,A,,7332BP,Apeldoorn,Apeldoorn,Gelderland,VBO,5.984928,52.179906
Lange Amerikaweg,71,B,,7332BP,Apeldoorn,Apeldoorn,Gelderland,VBO,5.985108,52.179973
Lange Amerikaweg,71,C,,7332BP,Apeldoorn,Apeldoorn,Gelderland,VBO,5.984782,52.180073
Lange Amerikaweg,71,D,,7332BP,Apeldoorn,Apeldoorn,Gelderland,VBO,5.984956,52.180127
Lange Amerikaweg,73,,,7332BP,Apeldoorn,Apeldoorn,Gelderland,VBO,5.986056,52.180488
Lange Amerikaweg,81,,,7332BP,Apeldoorn,Apeldoorn,Gelderland,VBO,5.987387,52.180909
Lange Amerikaweg,85,,,7332BP,Apeldoorn,Apeldoorn,Gelderland,VBO,5.988447,52.181108
Lange Amerikaweg,87,,,7332BP,Apeldoorn,Apeldoorn,Gelderland,VBO,5.988537,52.181137
Lange Amerikaweg,89,,,7332BP,Apeldoorn,Apeldoorn,Gelderland,VBO,5.988958,52.181372
Lange Amerikaweg,93,,,7332BP,Apeldoorn,Apeldoorn,Gelderland,VBO,5.989350,52.181789
Lange Amerikaweg,66,,,7332BR,Apeldoorn,Apeldoorn,Gelderland,VBO,5.983602,52.178617
Lange Amerikaweg,72,,,7332BR,Apeldoorn,Apeldoorn,Gelderland,VBO,5.985340,52.179303
Lange Amerikaweg,76,,,7332BR,Apeldoorn,Apeldoorn,Gelderland,VBO,5.985892,52.179617
Lange Amerikaweg,78,,,7332BR,Apeldoorn,Apeldoorn,Gelderland,VBO,5.986168,52.179702
Lange Amerikaweg,80,A,,7332BR,Apeldoorn,Apeldoorn,Gelderland,VBO,5.986708,52.179864
Lange Amerikaweg,80,,,7332BR,Apeldoorn,Apeldoorn,Gelderland,VBO,5.986675,52.179902
Lange Amerikaweg,84,,,7332BR,Apeldoorn,Apeldoorn,Gelderland,VBO,5.987304,52.180033
Lange Amerikaweg,86,,,7332BR,Apeldoorn,Apeldoorn,Gelderland,VBO,5.987648,52.180253
Lange Amerikaweg,88,,,7332BR,Apeldoorn,Apeldoorn,Gelderland,VBO,5.987748,52.180283
Lange Amerikaweg,90,,,7332BR,Apeldoorn,Apeldoorn,Gelderland,VBO,5.987838,52.180318
Lange Amerikaweg,96,,,7332BR,Apeldoorn,Apeldoorn,Gelderland,VBO,5.988477,52.180631
Lange Amerikaweg,102,,,7332BR,Apeldoorn,Apeldoorn,Gelderland,VBO,5.989244,52.180771
Loudonstraat,102,,,7332BS,Apeldoorn,Apeldoorn,Gelderland,VBO,5.979770,52.197023
Loudonstraat,104,,,7332BS,Apeldoorn,Apeldoorn,Gelderland,VBO,5.979839,52.197007
Loudonstraat,106,,,7332BS,Apeldoorn,Apeldoorn,Gelderland,VBO,5.979808,52.196971
Loudonstraat,108,,,7332BS,Apeldoorn,Apeldoorn,Gelderland,VBO,5.979791,52.196937
Loudonstraat,110,,,7332BS,Apeldoorn,Apeldoorn,Gelderland,VBO,5.979776,52.196905
Loudonstraat,112,,,7332BS,Apeldoorn,Apeldoorn,Gelderland,VBO,5.979762,52.196872
Loudonstraat,114,,,7332BS,Apeldoorn,Apeldoorn,Gelderland,VBO,5.979750,52.196840
Loudonstraat,116,,,7332BS,Apeldoorn,Apeldoorn,Gelderland,VBO,5.979731,52.196809
Loudonstraat,118,,,7332BS,Apeldoorn,Apeldoorn,Gelderland,VBO,5.979942,52.196763
Loudonstraat,120,,,7332BS,Apeldoorn,Apeldoorn,Gelderland,VBO,5.979960,52.196796
Loudonstraat,122,,,7332BS,Apeldoorn,Apeldoorn,Gelderland,VBO,5.979979,52.196828
Loudonstraat,124,,,7332BS,Apeldoorn,Apeldoorn,Gelderland,VBO,5.979997,52.196861
Loudonstraat,126,,,7332BS,Apeldoorn,Apeldoorn,Gelderland,VBO,5.980011,52.196895
Loudonstraat,128,,,7332BS,Apeldoorn,Apeldoorn,Gelderland,VBO,5.979777,52.197030
Loudonstraat,130,,,7332BS,Apeldoorn,Apeldoorn,Gelderland,VBO,5.979760,52.197000
Loudonstraat,132,,,7332BS,Apeldoorn,Apeldoorn,Gelderland,VBO,5.979744,52.196970
Loudonstraat,134,,,7332BS,Apeldoorn,Apeldoorn,Gelderland,VBO,5.979727,52.196940
Loudonstraat,136,,,7332BS,Apeldoorn,Apeldoorn,Gelderland,VBO,5.979711,52.196910
Loudonstraat,138,,,7332BS,Apeldoorn,Apeldoorn,Gelderland,VBO,5.979694,52.196880
Loudonstraat,140,,,7332BS,Apeldoorn,Apeldoorn,Gelderland,VBO,5.979678,52.196850
Loudonstraat,142,,,7332BS,Apeldoorn,Apeldoorn,Gelderland,VBO,5.979661,52.196820
Loudonstraat,144,,,7332BS,Apeldoorn,Apeldoorn,Gelderland,VBO,5.980009,52.196749
Loudonstraat,146,,,7332BS,Apeldoorn,Apeldoorn,Gelderland,VBO,5.980025,52.196779
Loudonstraat,148,,,7332BS,Apeldoorn,Apeldoorn,Gelderland,VBO,5.980042,52.196808
Loudonstraat,150,,,7332BS,Apeldoorn,Apeldoorn,Gelderland,VBO,5.980058,52.196838
Loudonstraat,152,,,7332BS,Apeldoorn,Apeldoorn,Gelderland,VBO,5.980075,52.196868
Loudonstraat,154,,,7332BS,Apeldoorn,Apeldoorn,Gelderland,VBO,5.980288,52.196692
Loudonstraat,156,,,7332BS,Apeldoorn,Apeldoorn,Gelderland,VBO,5.980304,52.196722
Loudonstraat,158,,,7332BS,Apeldoorn,Apeldoorn,Gelderland,VBO,5.980320,52.196752
Loudonstraat,160,,,7332BS,Apeldoorn,Apeldoorn,Gelderland,VBO,5.980095,52.196789
Loudonstraat,162,,,7332BS,Apeldoorn,Apeldoorn,Gelderland,VBO,5.980141,52.196781
Loudonstraat,164,,,7332BS,Apeldoorn,Apeldoorn,Gelderland,VBO,5.980187,52.196771
Loudonstraat,166,,,7332BS,Apeldoorn,Apeldoorn,Gelderland,VBO,5.980234,52.196761
Loudonstraat,168,,,7332BS,Apeldoorn,Apeldoorn,Gelderland,VBO,5.980279,52.196752
Loudonstraat,170,,,7332BS,Apeldoorn,Apeldoorn,Gelderland,VBO,5.980326,52.196742
Kwinkslag,5,,,7332CG,Apeldoorn,Apeldoorn,Gelderland,VBO,5.977448,52.203865
Kwinkslag,7,,,7332CG,Apeldoorn,Apeldoorn,Gelderland,VBO,5.977528,52.203870
Kwinkslag,9,,,7332CG,Apeldoorn,Apeldoorn,Gelderland,VBO,5.977609,52.203875
Kwinkslag,11,,,7332CG,Apeldoorn,Apeldoorn,Gelderland,VBO,5.977684,52.203880
Kwinkslag,13,,,7332CG,Apeldoorn,Apeldoorn,Gelderland,VBO,5.977762,52.203884
Kwinkslag,15,,,7332CG,Apeldoorn,Apeldoorn,Gelderland,VBO,5.977841,52.203887
Kwinkslag,17,,,7332CG,Apeldoorn,Apeldoorn,Gelderland,VBO,5.977928,52.203891
Kwinkslag,25,,,7332CG,Apeldoorn,Apeldoorn,Gelderland,VBO,5.978302,52.203797
Kwinkslag,27,,,7332CG,Apeldoorn,Apeldoorn,Gelderland,VBO,5.978382,52.203813
Kwinkslag,29,,,7332CG,Apeldoorn,Apeldoorn,Gelderland,VBO,5.978461,52.203826
Kwinkslag,31,,,7332CG,Apeldoorn,Apeldoorn,Gelderland,VBO,5.978532,52.203842
Kwinkslag,33,,,7332CG,Apeldoorn,Apeldoorn,Gelderland,VBO,5.978607,52.203863
Kwinkslag,35,,,7332CG,Apeldoorn,Apeldoorn,Gelderland,VBO,5.978679,52.203881
Kwinkslag,37,,,7332CG,Apeldoorn,Apeldoorn,Gelderland,VBO,5.978758,52.203898
Broedplaats,3,,,7332CJ,Apeldoorn,Apeldoorn,Gelderland,VBO,5.978516,52.203100
Broedplaats,5,,,7332CJ,Apeldoorn,Apeldoorn,Gelderland,VBO,5.978488,52.203143
Broedplaats,7,,,7332CJ,Apeldoorn,Apeldoorn,Gelderland,VBO,5.978458,52.203185
Broedplaats,9,,,7332CJ,Apeldoorn,Apeldoorn,Gelderland,VBO,5.978424,52.203235
Broedplaats,11,,,7332CJ,Apeldoorn,Apeldoorn,Gelderland,VBO,5.978393,52.203276
Broedplaats,13,,,7332CJ,Apeldoorn,Apeldoorn,Gelderland,VBO,5.978362,52.203320
Broedplaats,15,,,7332CJ,Apeldoorn,Apeldoorn,Gelderland,VBO,5.978328,52.203364
Broedplaats,17,,,7332CJ,Apeldoorn,Apeldoorn,Gelderland,VBO,5.978297,52.203411
Broedplaats,19,,,7332CJ,Apeldoorn,Apeldoorn,Gelderland,VBO,5.978261,52.203452
Broedplaats,21,,,7332CJ,Apeldoorn,Apeldoorn,Gelderland,VBO,5.978225,52.203497
Broedplaats,23,,,7332CJ,Apeldoorn,Apeldoorn,Gelderland,VBO,5.978193,52.203540
Broedplaats,25,,,7332CJ,Apeldoorn,Apeldoorn,Gelderland,VBO,5.978160,52.203584
Broedplaats,4,,,7332CK,Apeldoorn,Apeldoorn,Gelderland,VBO,5.978238,52.202757
Broedplaats,6,,,7332CK,Apeldoorn,Apeldoorn,Gelderland,VBO,5.978309,52.202776
Broedplaats,8,,,7332CK,Apeldoorn,Apeldoorn,Gelderland,VBO,5.978386,52.202797
Broedplaats,10,,,7332CK,Apeldoorn,Apeldoorn,Gelderland,VBO,5.978467,52.202814
Broedplaats,12,,,7332CK,Apeldoorn,Apeldoorn,Gelderland,VBO,5.978534,52.202833
Broedplaats,14,,,7332CK,Apeldoorn,Apeldoorn,Gelderland,VBO,5.978606,52.202853
Broedplaats,16,,,7332CK,Apeldoorn,Apeldoorn,Gelderland,VBO,5.978683,52.202871
Broedplaats,20,,,7332CK,Apeldoorn,Apeldoorn,Gelderland,VBO,5.978761,52.202664
Broedplaats,22,,,7332CK,Apeldoorn,Apeldoorn,Gelderland,VBO,5.978793,52.202619
Broedplaats,24,,,7332CK,Apeldoorn,Apeldoorn,Gelderland,VBO,5.978828,52.202573
Broedplaats,26,,,7332CK,Apeldoorn,Apeldoorn,Gelderland,VBO,5.978859,52.202531
Broedplaats,28,,,7332CK,Apeldoorn,Apeldoorn,Gelderland,VBO,5.978894,52.202488
Broedplaats,30,,,7332CK,Apeldoorn,Apeldoorn,Gelderland,VBO,5.978931,52.202444
Broedplaats,32,,,7332CK,Apeldoorn,Apeldoorn,Gelderland,VBO,5.978967,52.202399
Broedplaats,34,,,7332CK,Apeldoorn,Apeldoorn,Gelderland,VBO,5.979004,52.202354
Broedplaats,36,,,7332CK,Apeldoorn,Apeldoorn,Gelderland,VBO,5.979034,52.202309
Vogelvlucht,3,,,7332CL,Apeldoorn,Apeldoorn,Gelderland,VBO,5.980035,52.201914
Vogelvlucht,5,,,7332CL,Apeldoorn,Apeldoorn,Gelderland,VBO,5.980021,52.201966
Vogelvlucht,7,,,7332CL,Apeldoorn,Apeldoorn,Gelderland,VBO,5.980009,52.202013
Vogelvlucht,9,,,7332CL,Apeldoorn,Apeldoorn,Gelderland,VBO,5.979996,52.202060
Vogelvlucht,11,,,7332CL,Apeldoorn,Apeldoorn,Gelderland,VBO,5.979987,52.202109
Vogelvlucht,13,,,7332CL,Apeldoorn,Apeldoorn,Gelderland,VBO,5.979977,52.202153
Vogelvlucht,15,,,7332CL,Apeldoorn,Apeldoorn,Gelderland,VBO,5.979964,52.202205
Vogelvlucht,17,,,7332CL,Apeldoorn,Apeldoorn,Gelderland,VBO,5.979952,52.202250
Vogelvlucht,19,,,7332CL,Apeldoorn,Apeldoorn,Gelderland,VBO,5.979944,52.202297
Vogelvlucht,21,,,7332CL,Apeldoorn,Apeldoorn,Gelderland,VBO,5.979928,52.202349
Vogelvlucht,23,,,7332CL,Apeldoorn,Apeldoorn,Gelderland,VBO,5.979915,52.202397
Vogelvlucht,25,,,7332CL,Apeldoorn,Apeldoorn,Gelderland,VBO,5.979902,52.202443
Vogelvlucht,27,,,7332CL,Apeldoorn,Apeldoorn,Gelderland,VBO,5.979895,52.202491
Vogelvlucht,29,,,7332CL,Apeldoorn,Apeldoorn,Gelderland,VBO,5.979882,52.202537
Vogelvlucht,31,,,7332CL,Apeldoorn,Apeldoorn,Gelderland,VBO,5.979872,52.202588
Vogelvlucht,33,,,7332CL,Apeldoorn,Apeldoorn,Gelderland,VBO,5.979855,52.202635
Vogelvlucht,35,,,7332CL,Apeldoorn,Apeldoorn,Gelderland,VBO,5.979839,52.202686
Vogelvlucht,41,,,7332CL,Apeldoorn,Apeldoorn,Gelderland,VBO,5.979618,52.202674
Vogelvlucht,43,,,7332CL,Apeldoorn,Apeldoorn,Gelderland,VBO,5.979539,52.202666
Vogelvlucht,45,,,7332CL,Apeldoorn,Apeldoorn,Gelderland,VBO,5.979461,52.202658
Vogelvlucht,47,,,7332CL,Apeldoorn,Apeldoorn,Gelderland,VBO,5.979377,52.202652
Vogelvlucht,49,,,7332CL,Apeldoorn,Apeldoorn,Gelderland,VBO,5.979303,52.202646
Vogelvlucht,61,,,7332CL,Apeldoorn,Apeldoorn,Gelderland,VBO,5.979340,52.202466
Vogelvlucht,63,,,7332CL,Apeldoorn,Apeldoorn,Gelderland,VBO,5.979352,52.202419
Vogelvlucht,65,,,7332CL,Apeldoorn,Apeldoorn,Gelderland,VBO,5.979361,52.202372
Vogelvlucht,67,,,7332CL,Apeldoorn,Apeldoorn,Gelderland,VBO,5.979374,52.202323
Vogelvlucht,69,,,7332CL,Apeldoorn,Apeldoorn,Gelderland,VBO,5.979391,52.202273
Vogelvlucht,71,,,7332CL,Apeldoorn,Apeldoorn,Gelderland,VBO,5.979403,52.202227
Vogelvlucht,73,,,7332CL,Apeldoorn,Apeldoorn,Gelderland,VBO,5.979414,52.202180
Vogelvlucht,75,,,7332CL,Apeldoorn,Apeldoorn,Gelderland,VBO,5.979425,52.202133
Vogelvlucht,77,,,7332CL,Apeldoorn,Apeldoorn,Gelderland,VBO,5.979435,52.202084
Vogelvlucht,79,,,7332CL,Apeldoorn,Apeldoorn,Gelderland,VBO,5.979447,52.202038
Vogelvlucht,81,,,7332CL,Apeldoorn,Apeldoorn,Gelderland,VBO,5.979462,52.201987
Vogelvlucht,83,,,7332CL,Apeldoorn,Apeldoorn,Gelderland,VBO,5.979478,52.201939
Vogelvlucht,85,,,7332CL,Apeldoorn,Apeldoorn,Gelderland,VBO,5.979489,52.201891
Vogelvlucht,87,,,7332CL,Apeldoorn,Apeldoorn,Gelderland,VBO,5.979503,52.201842
Vogelvlucht,91,,,7332CL,Apeldoorn,Apeldoorn,Gelderland,VBO,5.979527,52.201722
Vogelvlucht,93,,,7332CL,Apeldoorn,Apeldoorn,Gelderland,VBO,5.979610,52.201725
Vogelvlucht,95,,,7332CL,Apeldoorn,Apeldoorn,Gelderland,VBO,5.979689,52.201731
Vogelvlucht,97,,,7332CL,Apeldoorn,Apeldoorn,Gelderland,VBO,5.979767,52.201738
Vogelvlucht,99,,,7332CL,Apeldoorn,Apeldoorn,Gelderland,VBO,5.979845,52.201744
Marchantstraat,37,,,7332NS,Apeldoorn,Apeldoorn,Gelderland,VBO,5.976146,52.193872
