openbareruimtenaam,huisnummer,huisletter,huisnummertoevoeging,postcode,woonplaatsnaam,gemeentenaam,provincienaam,typeadresseerbaarobject,longitude,latitude
Zwolseweg,265,,,7345AA,Wenum Wiesel,Apeldoorn,Gelderland,VBO,5.956219,52.238789
Zwolseweg,275,,,7345AA,Wenum Wiesel,Apeldoorn,Gelderland,VBO,5.956261,52.241062
Zwolseweg,277,,,7345AA,Wenum Wiesel,Apeldoorn,Gelderland,VBO,5.956174,52.241258
Zwolseweg,283,,,7345AA,Wenum Wiesel,Apeldoorn,Gelderland,VBO,5.956122,52.241490
Zwolseweg,285,,,7345AA,Wenum Wiesel,Apeldoorn,Gelderland,VBO,5.956052,52.241631
Zwolseweg,289,,,7345AA,Wenum Wiesel,Apeldoorn,Gelderland,VBO,5.955816,52.241788
Zwolseweg,293,,,7345AA,Wenum Wiesel,Apeldoorn,Gelderland,VBO,5.955826,52.242167
Zwolseweg,299,A,,7345AA,Wenum Wiesel,Apeldoorn,Gelderland,VBO,5.955681,52.242523
Zwolseweg,299,,,7345AA,Wenum Wiesel,Apeldoorn,Gelderland,VBO,5.955675,52.242486
Zwolseweg,305,,,7345AA,Wenum Wiesel,Apeldoorn,Gelderland,VBO,5.955527,52.242798
Zwolseweg,307,,,7345AA,Wenum Wiesel,Apeldoorn,Gelderland,VBO,5.955483,52.242934
Zwolseweg,309,,,7345AA,Wenum Wiesel,Apeldoorn,Gelderland,VBO,5.955484,52.243092
Zwolseweg,313,,,7345AA,Wenum Wiesel,Apeldoorn,Gelderland,VBO,5.955421,52.243315
Zwolseweg,315,,,7345AA,Wenum Wiesel,Apeldoorn,Gelderland,VBO,5.955059,52.243702
Zwolseweg,319,,,7345AA,Wenum Wiesel,Apeldoorn,Gelderland,VBO,5.954986,52.243984
Zwolseweg,323,,,7345AA,Wenum Wiesel,Apeldoorn,Gelderland,VBO,5.954861,52.244305
Zwolseweg,325,,,7345AA,Wenum Wiesel,Apeldoorn,Gelderland,VBO,5.954922,52.244528
Zwolseweg,327,,,7345AA,Wenum Wiesel,Apeldoorn,Gelderland,VBO,5.954805,52.244728
Zwolseweg,329,,,7345AA,Wenum Wiesel,Apeldoorn,Gelderland,VBO,5.954736,52.244938
Zwolseweg,331,,,7345AA,Wenum Wiesel,Apeldoorn,Gelderland,VBO,5.954710,52.245241
Zwolseweg,333,,,7345AA,Wenum Wiesel,Apeldoorn,Gelderland,VBO,5.954600,52.245389
Zwolseweg,335,,,7345AA,Wenum Wiesel,Apeldoorn,Gelderland,VBO,5.954573,52.245614
Wieselsedwarsweg,2,,,7345AB,Wenum Wiesel,Apeldoorn,Gelderland,VBO,5.953093,52.247865
Wieselsedwarsweg,10,,,7345AB,Wenum Wiesel,Apeldoorn,Gelderland,VBO,5.951434,52.247740
Wieselsedwarsweg,12,,,7345AB,Wenum Wiesel,Apeldoorn,Gelderland,VBO,5.950952,52.247775
Wieselsedwarsweg,14,,,7345AB,Wenum Wiesel,Apeldoorn,Gelderland,VBO,5.950745,52.247810
Wieselsedwarsweg,15,,,7345AB,Wenum Wiesel,Apeldoorn,Gelderland,VBO,5.950733,52.247430
Wieselsedwarsweg,17,,,7345AB,Wenum Wiesel,Apeldoorn,Gelderland,VBO,5.950420,52.247406
Wieselsedwarsweg,23,A,,7345AB,Wenum Wiesel,Apeldoorn,Gelderland,VBO,5.948903,52.247112
Wieselsedwarsweg,23,B,,7345AB,Wenum Wiesel,Apeldoorn,Gelderland,VBO,5.948799,52.247111
Wieselsedwarsweg,23,,,7345AB,Wenum Wiesel,Apeldoorn,Gelderland,VBO,5.948585,52.247363
Wieselsedwarsweg,25,,,7345AB,Wenum Wiesel,Apeldoorn,Gelderland,VBO,5.948399,52.247349
Wieselsedwarsweg,28,,,7345AB,Wenum Wiesel,Apeldoorn,Gelderland,VBO,5.947471,52.247722
Zwolseweg,345,,,7345AB,Wenum Wiesel,Apeldoorn,Gelderland,VBO,5.953878,52.247377
Zwolseweg,347,,,7345AB,Wenum Wiesel,Apeldoorn,Gelderland,VBO,5.953899,52.247630
Houtentorenweg,4,,,7345AC,Wenum Wiesel,Apeldoorn,Gelderland,VBO,5.952672,52.249759
Houtentorenweg,5,,,7345AC,Wenum Wiesel,Apeldoorn,Gelderland,VBO,5.951655,52.249174
Houtentorenweg,10,B,,7345AC,Wenum Wiesel,Apeldoorn,Gelderland,VBO,5.951167,52.249779
Houtentorenweg,10,,,7345AC,Wenum Wiesel,Apeldoorn,Gelderland,VBO,5.951573,52.249759
Houtentorenweg,12,,,7345AC,Wenum Wiesel,Apeldoorn,Gelderland,VBO,5.950994,52.249699
Houtentorenweg,14,,2,7345AC,Wenum Wiesel,Apeldoorn,Gelderland,VBO,5.950383,52.249694
Houtentorenweg,14,,,7345AC,Wenum Wiesel,Apeldoorn,Gelderland,VBO,5.950680,52.249731
Houtentorenweg,16,A,,7345AC,Wenum Wiesel,Apeldoorn,Gelderland,VBO,5.949686,52.249794
Houtentorenweg,16,B,,7345AC,Wenum Wiesel,Apeldoorn,Gelderland,VBO,5.949585,52.249780
Houtentorenweg,16,,,7345AC,Wenum Wiesel,Apeldoorn,Gelderland,VBO,5.950068,52.249714
Houtentorenweg,18,,,7345AC,Wenum Wiesel,Apeldoorn,Gelderland,VBO,5.949433,52.249645
Houtentorenweg,20,,2,7345AC,Wenum Wiesel,Apeldoorn,Gelderland,VBO,5.948621,52.249638
Houtentorenweg,20,,,7345AC,Wenum Wiesel,Apeldoorn,Gelderland,VBO,5.948876,52.249654
Houtentorenweg,22,,2,7345AC,Wenum Wiesel,Apeldoorn,Gelderland,VBO,5.947720,52.249581
Houtentorenweg,22,,,7345AC,Wenum Wiesel,Apeldoorn,Gelderland,VBO,5.947986,52.249630
Houtentorenweg,24,,,7345AC,Wenum Wiesel,Apeldoorn,Gelderland,VBO,5.946895,52.249752
Houtentorenweg,26,,,7345AC,Wenum Wiesel,Apeldoorn,Gelderland,VBO,5.946477,52.249671
Houtentorenweg,30,,,7345AC,Wenum Wiesel,Apeldoorn,Gelderland,VBO,5.945875,52.249816
Zwolseweg,355,,,7345AC,Wenum Wiesel,Apeldoorn,Gelderland,VBO,5.953760,52.247815
Zwolseweg,357,,,7345AC,Wenum Wiesel,Apeldoorn,Gelderland,VBO,5.953762,52.248076
Zwolseweg,359,,,7345AC,Wenum Wiesel,Apeldoorn,Gelderland,VBO,5.953643,52.248299
Zwolseweg,363,,,7345AC,Wenum Wiesel,Apeldoorn,Gelderland,VBO,5.953555,52.248657
Zwolseweg,369,,,7345AC,Wenum Wiesel,Apeldoorn,Gelderland,VBO,5.953141,52.249287
Zwolseweg,489,,,7345AC,Wenum Wiesel,Apeldoorn,Gelderland,VBO,5.958008,52.270354
Zwolseweg,371,,,7345AD,Wenum Wiesel,Apeldoorn,Gelderland,VBO,5.953100,52.249830
Zwolseweg,373,A,,7345AD,Wenum Wiesel,Apeldoorn,Gelderland,VBO,5.952754,52.250681
Zwolseweg,373,B,,7345AD,Wenum Wiesel,Apeldoorn,Gelderland,VBO,5.952589,52.251109
Zwolseweg,373,,,7345AD,Wenum Wiesel,Apeldoorn,Gelderland,VBO,5.952875,52.250283
Zwolseweg,375,A,,7345AD,Wenum Wiesel,Apeldoorn,Gelderland,VBO,5.950697,52.250922
Zwolseweg,375,,,7345AD,Wenum Wiesel,Apeldoorn,Gelderland,VBO,5.950989,52.251009
Zwolseweg,377,,,7345AD,Wenum Wiesel,Apeldoorn,Gelderland,VBO,5.952614,52.251428
Zwolseweg,379,,,7345AD,Wenum Wiesel,Apeldoorn,Gelderland,VBO,5.952548,52.251459
Zwolseweg,381,,,7345AD,Wenum Wiesel,Apeldoorn,Gelderland,VBO,5.951635,52.252221
Zwolseweg,383,,,7345AD,Wenum Wiesel,Apeldoorn,Gelderland,VBO,5.951601,52.252438
Zwolseweg,385,,,7345AD,Wenum Wiesel,Apeldoorn,Gelderland,VBO,5.951864,52.253105
Zwolseweg,389,A,,7345AD,Wenum Wiesel,Apeldoorn,Gelderland,VBO,5.951378,52.253831
Zwolseweg,389,B,,7345AD,Wenum Wiesel,Apeldoorn,Gelderland,VBO,5.951361,52.253886
Zwolseweg,389,C,,7345AD,Wenum Wiesel,Apeldoorn,Gelderland,VBO,5.951038,52.253851
Zwolseweg,389,D,,7345AD,Wenum Wiesel,Apeldoorn,Gelderland,VBO,5.950908,52.253835
Zwolseweg,389,E,,7345AD,Wenum Wiesel,Apeldoorn,Gelderland,VBO,5.950658,52.253896
Zwolseweg,389,G,,7345AD,Wenum Wiesel,Apeldoorn,Gelderland,VBO,5.950687,52.253729
Zwolseweg,389,,,7345AD,Wenum Wiesel,Apeldoorn,Gelderland,VBO,5.951396,52.253775
Zwolseweg,391,,,7345AD,Wenum Wiesel,Apeldoorn,Gelderland,VBO,5.951558,52.254235
Zwolseweg,393,,,7345AD,Wenum Wiesel,Apeldoorn,Gelderland,VBO,5.951533,52.254563
Zwolseweg,395,,,7345AD,Wenum Wiesel,Apeldoorn,Gelderland,VBO,5.951471,52.254751
Zwolseweg,397,,,7345AD,Wenum Wiesel,Apeldoorn,Gelderland,VBO,5.951462,52.254808
Zwolseweg,405,,,7345AE,Wenum Wiesel,Apeldoorn,Gelderland,VBO,5.949700,52.256561
Zwolseweg,415,,,7345AE,Wenum Wiesel,Apeldoorn,Gelderland,VBO,5.950353,52.257234
Zwolseweg,419,,,7345AE,Wenum Wiesel,Apeldoorn,Gelderland,VBO,5.951512,52.257645
Zwolseweg,431,,,7345AG,Wenum Wiesel,Apeldoorn,Gelderland,VBO,5.952380,52.259196
Zwolseweg,441,,,7345AG,Wenum Wiesel,Apeldoorn,Gelderland,VBO,5.953073,52.260546
Zwolseweg,443,,,7345AG,Wenum Wiesel,Apeldoorn,Gelderland,VBO,5.953159,52.260693
Zwolseweg,445,,,7345AG,Wenum Wiesel,Apeldoorn,Gelderland,VBO,5.953193,52.260750
Zwolseweg,447,,,7345AG,Wenum Wiesel,Apeldoorn,Gelderland,VBO,5.953265,52.260908
Zwolseweg,449,,,7345AG,Wenum Wiesel,Apeldoorn,Gelderland,VBO,5.953338,52.261065
Zwolseweg,451,,,7345AG,Wenum Wiesel,Apeldoorn,Gelderland,VBO,5.953410,52.261226
Zwolseweg,453,,,7345AG,Wenum Wiesel,Apeldoorn,Gelderland,VBO,5.953514,52.261376
Zwolseweg,455,,,7345AG,Wenum Wiesel,Apeldoorn,Gelderland,VBO,5.953535,52.261426
Zwolseweg,457,,,7345AG,Wenum Wiesel,Apeldoorn,Gelderland,VBO,5.953634,52.261574
Zwolseweg,459,,,7345AG,Wenum Wiesel,Apeldoorn,Gelderland,VBO,5.952551,52.262168
Zwolseweg,469,,,7345AG,Wenum Wiesel,Apeldoorn,Gelderland,VBO,5.954269,52.262886
Zwolseweg,471,,,7345AG,Wenum Wiesel,Apeldoorn,Gelderland,VBO,5.955891,52.266280
Zwolseweg,475,,,7345AG,Wenum Wiesel,Apeldoorn,Gelderland,VBO,5.956515,52.267495
Zwolseweg,491,,,7345AG,Wenum Wiesel,Apeldoorn,Gelderland,VBO,5.958352,52.271054
Laagakkerweg,10,,,7345AJ,Wenum Wiesel,Apeldoorn,Gelderland,VBO,5.953689,52.271144
Zwolseweg,294,,,7345AJ,Wenum Wiesel,Apeldoorn,Gelderland,VBO,5.957553,52.239894
Zwolseweg,298,,,7345AJ,Wenum Wiesel,Apeldoorn,Gelderland,VBO,5.957508,52.240027
Zwolseweg,300,,,7345AJ,Wenum Wiesel,Apeldoorn,Gelderland,VBO,5.957582,52.240137
Zwolseweg,306,,,7345AJ,Wenum Wiesel,Apeldoorn,Gelderland,VBO,5.957209,52.240462
Zwolseweg,308,,,7345AJ,Wenum Wiesel,Apeldoorn,Gelderland,VBO,5.956985,52.240726
Zwolseweg,310,,,7345AJ,Wenum Wiesel,Apeldoorn,Gelderland,VBO,5.956946,52.240779
Zwolseweg,314,,,7345AJ,Wenum Wiesel,Apeldoorn,Gelderland,VBO,5.957087,52.241041
Zwolseweg,318,,,7345AJ,Wenum Wiesel,Apeldoorn,Gelderland,VBO,5.956730,52.241211
Zwolseweg,320,A,,7345AJ,Wenum Wiesel,Apeldoorn,Gelderland,VBO,5.957197,52.241351
Zwolseweg,320,B,,7345AJ,Wenum Wiesel,Apeldoorn,Gelderland,VBO,5.956720,52.241294
Zwolseweg,322,,,7345AJ,Wenum Wiesel,Apeldoorn,Gelderland,VBO,5.956704,52.241379
Zwolseweg,324,,,7345AJ,Wenum Wiesel,Apeldoorn,Gelderland,VBO,5.956693,52.241502
Zwolseweg,326,,,7345AJ,Wenum Wiesel,Apeldoorn,Gelderland,VBO,5.956679,52.241649
Zwolseweg,330,,,7345AJ,Wenum Wiesel,Apeldoorn,Gelderland,VBO,5.956607,52.241987
Zwolseweg,334,,,7345AK,Wenum Wiesel,Apeldoorn,Gelderland,VBO,5.956396,52.242349
Zwolseweg,336,,,7345AK,Wenum Wiesel,Apeldoorn,Gelderland,VBO,5.956419,52.242457
Zwolseweg,338,,,7345AK,Wenum Wiesel,Apeldoorn,Gelderland,VBO,5.956299,52.242586
Zwolseweg,340,A,,7345AK,Wenum Wiesel,Apeldoorn,Gelderland,VBO,5.956321,52.242723
Zwolseweg,340,,,7345AK,Wenum Wiesel,Apeldoorn,Gelderland,VBO,5.956280,52.242694
Zwolseweg,342,,,7345AK,Wenum Wiesel,Apeldoorn,Gelderland,VBO,5.956245,52.242838
Zwolseweg,344,,,7345AK,Wenum Wiesel,Apeldoorn,Gelderland,VBO,5.956293,52.243040
Zwolseweg,346,,,7345AK,Wenum Wiesel,Apeldoorn,Gelderland,VBO,5.956091,52.243157
Zwolseweg,348,,,7345AK,Wenum Wiesel,Apeldoorn,Gelderland,VBO,5.956093,52.243274
Zwolseweg,352,,,7345AK,Wenum Wiesel,Apeldoorn,Gelderland,VBO,5.956014,52.243412
Zwolseweg,356,,,7345AK,Wenum Wiesel,Apeldoorn,Gelderland,VBO,5.955943,52.243650
Zwolseweg,358,,,7345AK,Wenum Wiesel,Apeldoorn,Gelderland,VBO,5.955992,52.243922
Bentweideweg,2,,,7345AL,Wenum Wiesel,Apeldoorn,Gelderland,VBO,5.955064,52.247908
Bentweideweg,18,,,7345AL,Wenum Wiesel,Apeldoorn,Gelderland,VBO,5.957676,52.247760
Bentweideweg,25,,,7345AL,Wenum Wiesel,Apeldoorn,Gelderland,VBO,5.958218,52.248269
Zwolseweg,362,,,7345AL,Wenum Wiesel,Apeldoorn,Gelderland,VBO,5.955955,52.244361
Zwolseweg,366,,,7345AL,Wenum Wiesel,Apeldoorn,Gelderland,VBO,5.955536,52.245178
Zwolseweg,368,,,7345AL,Wenum Wiesel,Apeldoorn,Gelderland,VBO,5.955529,52.245325
Zwolseweg,370,,,7345AL,Wenum Wiesel,Apeldoorn,Gelderland,VBO,5.955436,52.245508
Zwolseweg,372,,,7345AL,Wenum Wiesel,Apeldoorn,Gelderland,VBO,5.955411,52.245630
Zwolseweg,374,,,7345AL,Wenum Wiesel,Apeldoorn,Gelderland,VBO,5.955283,52.246010
Zwolseweg,376,,,7345AL,Wenum Wiesel,Apeldoorn,Gelderland,VBO,5.955154,52.246159
Zwolseweg,380,,,7345AL,Wenum Wiesel,Apeldoorn,Gelderland,VBO,5.955049,52.246474
Zwolseweg,386,,,7345AL,Wenum Wiesel,Apeldoorn,Gelderland,VBO,5.954937,52.246901
Zwolseweg,388,,,7345AL,Wenum Wiesel,Apeldoorn,Gelderland,VBO,5.954850,52.247075
Zwolseweg,390,,,7345AL,Wenum Wiesel,Apeldoorn,Gelderland,VBO,5.954739,52.247291
Zwolseweg,392,,,7345AL,Wenum Wiesel,Apeldoorn,Gelderland,VBO,5.954745,52.247482
Zwolseweg,394,A,,7345AL,Wenum Wiesel,Apeldoorn,Gelderland,VBO,5.954960,52.247644
Zwolseweg,394,,,7345AL,Wenum Wiesel,Apeldoorn,Gelderland,VBO,5.954639,52.247574
Zwolseweg,396,,,7345AL,Wenum Wiesel,Apeldoorn,Gelderland,VBO,5.954647,52.247773
Zwolseweg,400,,,7345AM,Wenum Wiesel,Apeldoorn,Gelderland,VBO,5.954418,52.248195
Zwolseweg,408,,,7345AM,Wenum Wiesel,Apeldoorn,Gelderland,VBO,5.954150,52.248853
Zwolseweg,410,,,7345AM,Wenum Wiesel,Apeldoorn,Gelderland,VBO,5.954403,52.248975
Zwolseweg,412,,,7345AM,Wenum Wiesel,Apeldoorn,Gelderland,VBO,5.954050,52.249172
Zwolseweg,414,,,7345AM,Wenum Wiesel,Apeldoorn,Gelderland,VBO,5.954066,52.249344
Zwolseweg,416,,,7345AM,Wenum Wiesel,Apeldoorn,Gelderland,VBO,5.954007,52.249498
Zwolseweg,418,,,7345AM,Wenum Wiesel,Apeldoorn,Gelderland,VBO,5.953862,52.249806
Zwolseweg,422,,,7345AM,Wenum Wiesel,Apeldoorn,Gelderland,VBO,5.953864,52.250301
Zwolseweg,426,,,7345AM,Wenum Wiesel,Apeldoorn,Gelderland,VBO,5.953926,52.250678
Zwolseweg,434,,,7345AM,Wenum Wiesel,Apeldoorn,Gelderland,VBO,5.953437,52.251131
Zwolseweg,444,,,7345AM,Wenum Wiesel,Apeldoorn,Gelderland,VBO,5.953185,52.251951
Zwolseweg,446,,,7345AM,Wenum Wiesel,Apeldoorn,Gelderland,VBO,5.953139,52.252112
Zwolseweg,448,,,7345AM,Wenum Wiesel,Apeldoorn,Gelderland,VBO,5.953083,52.252278
Zwolseweg,452,,,7345AM,Wenum Wiesel,Apeldoorn,Gelderland,VBO,5.952890,52.252725
Zwolseweg,454,,,7345AM,Wenum Wiesel,Apeldoorn,Gelderland,VBO,5.952847,52.252831
Zwolseweg,456,,,7345AM,Wenum Wiesel,Apeldoorn,Gelderland,VBO,5.953187,52.253517
Zwolseweg,480,,,7345AN,Wenum Wiesel,Apeldoorn,Gelderland,VBO,5.952600,52.254744
Zwolseweg,482,,,7345AN,Wenum Wiesel,Apeldoorn,Gelderland,VBO,5.952588,52.255072
Zwolseweg,484,,,7345AN,Wenum Wiesel,Apeldoorn,Gelderland,VBO,5.953076,52.255075
Zwolseweg,500,,,7345AN,Wenum Wiesel,Apeldoorn,Gelderland,VBO,5.952219,52.255157
Zwolseweg,502,B,,7345AN,Wenum Wiesel,Apeldoorn,Gelderland,VBO,5.952432,52.255354
Zwolseweg,504,,,7345AN,Wenum Wiesel,Apeldoorn,Gelderland,VBO,5.952275,52.255497
Zwolseweg,506,,,7345AN,Wenum Wiesel,Apeldoorn,Gelderland,VBO,5.952546,52.255616
Zwolseweg,526,,,7345AN,Wenum Wiesel,Apeldoorn,Gelderland,VBO,5.952242,52.257306
Zwolseweg,530,,,7345AN,Wenum Wiesel,Apeldoorn,Gelderland,VBO,5.952600,52.257916
Zwolseweg,538,,,7345AN,Wenum Wiesel,Apeldoorn,Gelderland,VBO,5.953003,52.258621
Zwolseweg,540,A,,7345AP,Wenum Wiesel,Apeldoorn,Gelderland,VBO,5.953590,52.258988
Zwolseweg,540,,,7345AP,Wenum Wiesel,Apeldoorn,Gelderland,VBO,5.953077,52.259033
Zwolseweg,540,,,7345AP,Wenum Wiesel,Apeldoorn,Gelderland,VBO,5.953083,52.259056
Zwolseweg,548,,,7345AP,Wenum Wiesel,Apeldoorn,Gelderland,VBO,5.953539,52.259787
Zwolseweg,550,,,7345AP,Wenum Wiesel,Apeldoorn,Gelderland,VBO,5.953805,52.260012
Zwolseweg,554,,,7345AP,Wenum Wiesel,Apeldoorn,Gelderland,VBO,5.953975,52.260519
Zwolseweg,564,,,7345AP,Wenum Wiesel,Apeldoorn,Gelderland,VBO,5.954278,52.261265
Zwolseweg,568,,,7345AP,Wenum Wiesel,Apeldoorn,Gelderland,VBO,5.954454,52.261711
Zwolseweg,578,,,7345AP,Wenum Wiesel,Apeldoorn,Gelderland,VBO,5.955205,52.262937
Zwolseweg,582,,,7345AP,Wenum Wiesel,Apeldoorn,Gelderland,VBO,5.955977,52.263609
Zwolseweg,590,,,7345AR,Wenum Wiesel,Apeldoorn,Gelderland,VBO,5.956353,52.265456
Zwolseweg,600,,,7345AR,Wenum Wiesel,Apeldoorn,Gelderland,VBO,5.957646,52.267690
Zwolseweg,602,,,7345AR,Wenum Wiesel,Apeldoorn,Gelderland,VBO,5.957778,52.267929
Zwolseweg,604,,,7345AR,Wenum Wiesel,Apeldoorn,Gelderland,VBO,5.957713,52.268075
Zwolseweg,606,,,7345AR,Wenum Wiesel,Apeldoorn,Gelderland,VBO,5.958234,52.268355
Zwolseweg,608,,,7345AR,Wenum Wiesel,Apeldoorn,Gelderland,VBO,5.958203,52.268514
Zwolseweg,620,,,7345AR,Wenum Wiesel,Apeldoorn,Gelderland,VBO,5.959426,52.270646
Zwolseweg,624,,,7345AR,Wenum Wiesel,Apeldoorn,Gelderland,VBO,5.959648,52.271708
Zwolseweg,636,,,7345AR,Wenum Wiesel,Apeldoorn,Gelderland,VBO,5.960092,52.272298
Wenumsedwarsweg,8,,,7345AS,Wenum Wiesel,Apeldoorn,Gelderland,VBO,5.955731,52.249440
Wenumsedwarsweg,9,,,7345AS,Wenum Wiesel,Apeldoorn,Gelderland,VBO,5.956036,52.250051
Wenumsedwarsweg,11,,,7345AS,Wenum Wiesel,Apeldoorn,Gelderland,VBO,5.956773,52.249889
Wenumsedwarsweg,14,,,7345AS,Wenum Wiesel,Apeldoorn,Gelderland,VBO,5.957599,52.249525
Wenumsedwarsweg,16,,,7345AS,Wenum Wiesel,Apeldoorn,Gelderland,VBO,5.958564,52.249620
Wenumsedwarsweg,18,,,7345AS,Wenum Wiesel,Apeldoorn,Gelderland,VBO,5.958649,52.249443
Wenumsedwarsweg,20,,,7345AS,Wenum Wiesel,Apeldoorn,Gelderland,VBO,5.958596,52.249291
Wenumsedwarsweg,21,,,7345AS,Wenum Wiesel,Apeldoorn,Gelderland,VBO,5.958727,52.250048
Wenumsedwarsweg,23,,,7345AS,Wenum Wiesel,Apeldoorn,Gelderland,VBO,5.959297,52.250093
Wenumsedwarsweg,25,,,7345AS,Wenum Wiesel,Apeldoorn,Gelderland,VBO,5.959503,52.250100
Wenumsedwarsweg,27,,,7345AS,Wenum Wiesel,Apeldoorn,Gelderland,VBO,5.959875,52.250031
Wenumsedwarsweg,29,,,7345AS,Wenum Wiesel,Apeldoorn,Gelderland,VBO,5.960626,52.250186
Wenumsedwarsweg,37,,,7345AS,Wenum Wiesel,Apeldoorn,Gelderland,VBO,5.962428,52.250066
Wenumsedwarsweg,39,,,7345AS,Wenum Wiesel,Apeldoorn,Gelderland,VBO,5.962664,52.250040
Wenumsedwarsweg,41,,,7345AS,Wenum Wiesel,Apeldoorn,Gelderland,VBO,5.963436,52.250012
Wenumsedwarsweg,99,,,7345AS,Wenum Wiesel,Apeldoorn,Gelderland,VBO,5.971374,52.249827
Plantageweg,1,A,,7345AT,Wenum Wiesel,Apeldoorn,Gelderland,VBO,5.953346,52.251524
Plantageweg,1,B,,7345AT,Wenum Wiesel,Apeldoorn,Gelderland,VBO,5.953886,52.251606
Plantageweg,3,,,7345AT,Wenum Wiesel,Apeldoorn,Gelderland,VBO,5.954311,52.251557
Plantageweg,5,,,7345AT,Wenum Wiesel,Apeldoorn,Gelderland,VBO,5.954629,52.251596
Plantageweg,8,,,7345AT,Wenum Wiesel,Apeldoorn,Gelderland,VBO,5.955215,52.251262
Plantageweg,11,,,7345AT,Wenum Wiesel,Apeldoorn,Gelderland,VBO,5.955795,52.251706
Plantageweg,11,,,7345AT,Wenum Wiesel,Apeldoorn,Gelderland,VBO,5.955780,52.251675
Plantageweg,12,,,7345AT,Wenum Wiesel,Apeldoorn,Gelderland,VBO,5.955748,52.251302
Plantageweg,13,,,7345AT,Wenum Wiesel,Apeldoorn,Gelderland,VBO,5.956109,52.251692
Plantageweg,14,,,7345AT,Wenum Wiesel,Apeldoorn,Gelderland,VBO,5.955984,52.251319
Plantageweg,16,,,7345AT,Wenum Wiesel,Apeldoorn,Gelderland,VBO,5.956281,52.251314
Plantageweg,19,,,7345AT,Wenum Wiesel,Apeldoorn,Gelderland,VBO,5.957209,52.251903
Plantageweg,25,,,7345AT,Wenum Wiesel,Apeldoorn,Gelderland,VBO,5.957980,52.251800
Plantageweg,26,,,7345AT,Wenum Wiesel,Apeldoorn,Gelderland,VBO,5.959063,52.251503
Plantageweg,36,,,7345AT,Wenum Wiesel,Apeldoorn,Gelderland,VBO,5.961158,52.251668
Plantageweg,45,,,7345AV,Wenum Wiesel,Apeldoorn,Gelderland,VBO,5.962224,52.252128
Oude Zwolseweg,5,,,7345BA,Wenum Wiesel,Apeldoorn,Gelderland,VBO,5.957681,52.240566
Oude Zwolseweg,7,,2,7345BA,Wenum Wiesel,Apeldoorn,Gelderland,VBO,5.957707,52.240695
Oude Zwolseweg,7,,,7345BA,Wenum Wiesel,Apeldoorn,Gelderland,VBO,5.957691,52.240661
Oude Zwolseweg,9,A,,7345BA,Wenum Wiesel,Apeldoorn,Gelderland,VBO,5.957729,52.240828
Oude Zwolseweg,9,,,7345BA,Wenum Wiesel,Apeldoorn,Gelderland,VBO,5.957718,52.240791
Oude Zwolseweg,13,,,7345BA,Wenum Wiesel,Apeldoorn,Gelderland,VBO,5.957830,52.241000
Oude Zwolseweg,15,,,7345BA,Wenum Wiesel,Apeldoorn,Gelderland,VBO,5.957821,52.241135
Oude Zwolseweg,17,,,7345BA,Wenum Wiesel,Apeldoorn,Gelderland,VBO,5.957886,52.241231
Oude Zwolseweg,21,,,7345BA,Wenum Wiesel,Apeldoorn,Gelderland,VBO,5.957861,52.241408
Oude Zwolseweg,23,,,7345BA,Wenum Wiesel,Apeldoorn,Gelderland,VBO,5.957930,52.241570
Oude Zwolseweg,27,,,7345BA,Wenum Wiesel,Apeldoorn,Gelderland,VBO,5.957981,52.241812
Oude Zwolseweg,33,,,7345BB,Wenum Wiesel,Apeldoorn,Gelderland,VBO,5.958067,52.242217
Oude Zwolseweg,35,,,7345BB,Wenum Wiesel,Apeldoorn,Gelderland,VBO,5.958097,52.242342
Oude Zwolseweg,37,,,7345BB,Wenum Wiesel,Apeldoorn,Gelderland,VBO,5.958104,52.242470
Oude Zwolseweg,39,,,7345BB,Wenum Wiesel,Apeldoorn,Gelderland,VBO,5.958179,52.242697
Oude Zwolseweg,43,,,7345BB,Wenum Wiesel,Apeldoorn,Gelderland,VBO,5.958259,52.242910
Oude Zwolseweg,45,,,7345BB,Wenum Wiesel,Apeldoorn,Gelderland,VBO,5.958241,52.243032
Oude Zwolseweg,47,,,7345BB,Wenum Wiesel,Apeldoorn,Gelderland,VBO,5.958265,52.243121
Oude Zwolseweg,49,,,7345BB,Wenum Wiesel,Apeldoorn,Gelderland,VBO,5.958374,52.243296
Oude Zwolseweg,51,,,7345BB,Wenum Wiesel,Apeldoorn,Gelderland,VBO,5.958470,52.243459
Oude Zwolseweg,53,,,7345BB,Wenum Wiesel,Apeldoorn,Gelderland,VBO,5.958518,52.243540
Oude Zwolseweg,55,,,7345BB,Wenum Wiesel,Apeldoorn,Gelderland,VBO,5.958584,52.243692
Oude Zwolseweg,57,,,7345BB,Wenum Wiesel,Apeldoorn,Gelderland,VBO,5.958658,52.243807
Oude Zwolseweg,59,,,7345BB,Wenum Wiesel,Apeldoorn,Gelderland,VBO,5.958730,52.243934
Oude Zwolseweg,61,,,7345BC,Wenum Wiesel,Apeldoorn,Gelderland,VBO,5.958786,52.244037
Oude Zwolseweg,63,,2,7345BC,Wenum Wiesel,Apeldoorn,Gelderland,VBO,5.958839,52.244231
Oude Zwolseweg,63,,3,7345BC,Wenum Wiesel,Apeldoorn,Gelderland,VBO,5.958887,52.244318
Oude Zwolseweg,63,,,7345BC,Wenum Wiesel,Apeldoorn,Gelderland,VBO,5.958851,52.244105
Oude Zwolseweg,65,A,,7345BC,Wenum Wiesel,Apeldoorn,Gelderland,VBO,5.958503,52.244486
Oude Zwolseweg,65,,,7345BC,Wenum Wiesel,Apeldoorn,Gelderland,VBO,5.958976,52.244484
Oude Zwolseweg,66,,,7345BC,Wenum Wiesel,Apeldoorn,Gelderland,VBO,5.959365,52.244012
Oude Zwolseweg,67,,,7345BC,Wenum Wiesel,Apeldoorn,Gelderland,VBO,5.958993,52.244521
Oude Zwolseweg,70,,,7345BC,Wenum Wiesel,Apeldoorn,Gelderland,VBO,5.959558,52.244318
Oude Zwolseweg,73,,,7345BC,Wenum Wiesel,Apeldoorn,Gelderland,VBO,5.959368,52.245461
Oude Zwolseweg,76,,,7345BC,Wenum Wiesel,Apeldoorn,Gelderland,VBO,5.959818,52.244909
Oude Zwolseweg,78,,,7345BC,Wenum Wiesel,Apeldoorn,Gelderland,VBO,5.959873,52.245036
Oude Zwolseweg,79,,,7345BC,Wenum Wiesel,Apeldoorn,Gelderland,VBO,5.959459,52.245711
Oude Zwolseweg,82,,,7345BC,Wenum Wiesel,Apeldoorn,Gelderland,VBO,5.959975,52.245360
Oude Zwolseweg,84,,,7345BC,Wenum Wiesel,Apeldoorn,Gelderland,VBO,5.960087,52.245499
Oude Zwolseweg,91,,,7345BD,Wenum Wiesel,Apeldoorn,Gelderland,VBO,5.959947,52.246920
Oude Zwolseweg,93,,,7345BD,Wenum Wiesel,Apeldoorn,Gelderland,VBO,5.960041,52.247072
Oude Zwolseweg,95,,,7345BD,Wenum Wiesel,Apeldoorn,Gelderland,VBO,5.960098,52.247257
Oude Zwolseweg,96,,,7345BD,Wenum Wiesel,Apeldoorn,Gelderland,VBO,5.960933,52.247270
Oude Zwolseweg,97,,,7345BD,Wenum Wiesel,Apeldoorn,Gelderland,VBO,5.960230,52.247416
Oude Zwolseweg,99,,,7345BD,Wenum Wiesel,Apeldoorn,Gelderland,VBO,5.960295,52.247729
Oude Zwolseweg,102,,,7345BD,Wenum Wiesel,Apeldoorn,Gelderland,VBO,5.961112,52.247740
Oude Zwolseweg,109,,,7345BE,Wenum Wiesel,Apeldoorn,Gelderland,VBO,5.961364,52.250106
Oude Zwolseweg,113,,,7345BE,Wenum Wiesel,Apeldoorn,Gelderland,VBO,5.961600,52.250595
Oude Zwolseweg,119,,,7345BE,Wenum Wiesel,Apeldoorn,Gelderland,VBO,5.961821,52.251061
Oude Zwolseweg,121,,,7345BE,Wenum Wiesel,Apeldoorn,Gelderland,VBO,5.961946,52.251222
Oude Zwolseweg,124,,,7345BE,Wenum Wiesel,Apeldoorn,Gelderland,VBO,5.962803,52.251697
Oude Zwolseweg,125,,,7345BE,Wenum Wiesel,Apeldoorn,Gelderland,VBO,5.962068,52.251590
Oude Zwolseweg,127,,,7345BE,Wenum Wiesel,Apeldoorn,Gelderland,VBO,5.962168,52.251744
Oude Zwolseweg,128,,,7345BE,Wenum Wiesel,Apeldoorn,Gelderland,VBO,5.963373,52.251994
Oude Zwolseweg,4,,,7345BG,Wenum Wiesel,Apeldoorn,Gelderland,VBO,5.957926,52.239856
Oude Zwolseweg,6,A,,7345BG,Wenum Wiesel,Apeldoorn,Gelderland,VBO,5.958148,52.239978
Oude Zwolseweg,6,,,7345BG,Wenum Wiesel,Apeldoorn,Gelderland,VBO,5.958110,52.239940
Oude Zwolseweg,10,,,7345BG,Wenum Wiesel,Apeldoorn,Gelderland,VBO,5.958216,52.240481
Oude Zwolseweg,14,,,7345BG,Wenum Wiesel,Apeldoorn,Gelderland,VBO,5.958347,52.240817
Oude Zwolseweg,16,,,7345BG,Wenum Wiesel,Apeldoorn,Gelderland,VBO,5.958395,52.241022
Oude Zwolseweg,18,,,7345BG,Wenum Wiesel,Apeldoorn,Gelderland,VBO,5.958397,52.241131
Oude Zwolseweg,20,,,7345BG,Wenum Wiesel,Apeldoorn,Gelderland,VBO,5.958412,52.241247
Oude Zwolseweg,22,,,7345BG,Wenum Wiesel,Apeldoorn,Gelderland,VBO,5.958416,52.241334
Oude Zwolseweg,24,,,7345BG,Wenum Wiesel,Apeldoorn,Gelderland,VBO,5.958499,52.241588
Oude Zwolseweg,30,,,7345BH,Wenum Wiesel,Apeldoorn,Gelderland,VBO,5.958545,52.241926
Oude Zwolseweg,32,,,7345BH,Wenum Wiesel,Apeldoorn,Gelderland,VBO,5.958659,52.242135
Oude Zwolseweg,34,,,7345BH,Wenum Wiesel,Apeldoorn,Gelderland,VBO,5.958761,52.242299
Oude Zwolseweg,36,,,7345BH,Wenum Wiesel,Apeldoorn,Gelderland,VBO,5.958737,52.242474
Oude Zwolseweg,38,,,7345BH,Wenum Wiesel,Apeldoorn,Gelderland,VBO,5.958819,52.242654
Oude Zwolseweg,40,,,7345BH,Wenum Wiesel,Apeldoorn,Gelderland,VBO,5.958772,52.242774
Oude Zwolseweg,42,,,7345BH,Wenum Wiesel,Apeldoorn,Gelderland,VBO,5.958776,52.242850
Oude Zwolseweg,46,,,7345BH,Wenum Wiesel,Apeldoorn,Gelderland,VBO,5.958945,52.243087
Oude Zwolseweg,48,,,7345BH,Wenum Wiesel,Apeldoorn,Gelderland,VBO,5.958931,52.243258
Oude Zwolseweg,50,,,7345BH,Wenum Wiesel,Apeldoorn,Gelderland,VBO,5.958950,52.243289
Oude Zwolseweg,52,,,7345BH,Wenum Wiesel,Apeldoorn,Gelderland,VBO,5.959003,52.243357
Oude Zwolseweg,54,,,7345BH,Wenum Wiesel,Apeldoorn,Gelderland,VBO,5.959044,52.243427
Oude Zwolseweg,56,,,7345BH,Wenum Wiesel,Apeldoorn,Gelderland,VBO,5.959073,52.243475
Oude Zwolseweg,58,,,7345BH,Wenum Wiesel,Apeldoorn,Gelderland,VBO,5.959113,52.243546
Oude Zwolseweg,60,,,7345BH,Wenum Wiesel,Apeldoorn,Gelderland,VBO,5.959146,52.243625
Oude Zwolseweg,62,,,7345BH,Wenum Wiesel,Apeldoorn,Gelderland,VBO,5.959155,52.243671
Oude Zwolseweg,64,,,7345BH,Wenum Wiesel,Apeldoorn,Gelderland,VBO,5.959217,52.243744
Fluitersweg,1,,,7345BJ,Wenum Wiesel,Apeldoorn,Gelderland,VBO,5.959774,52.244015
Fluitersweg,3,,,7345BJ,Wenum Wiesel,Apeldoorn,Gelderland,VBO,5.960091,52.243966
Fluitersweg,5,,,7345BJ,Wenum Wiesel,Apeldoorn,Gelderland,VBO,5.960417,52.243916
Fluitersweg,7,,,7345BJ,Wenum Wiesel,Apeldoorn,Gelderland,VBO,5.960760,52.243980
Fluitersweg,9,,,7345BJ,Wenum Wiesel,Apeldoorn,Gelderland,VBO,5.960955,52.244067
Fluitersweg,17,,,7345BJ,Wenum Wiesel,Apeldoorn,Gelderland,VBO,5.962309,52.244294
Fluitersweg,19,,,7345BJ,Wenum Wiesel,Apeldoorn,Gelderland,VBO,5.962655,52.244359
Fluitersweg,21,,,7345BJ,Wenum Wiesel,Apeldoorn,Gelderland,VBO,5.963390,52.244278
Fluitersweg,23,,,7345BJ,Wenum Wiesel,Apeldoorn,Gelderland,VBO,5.964189,52.244314
Fluitersweg,52,,,7345BJ,Wenum Wiesel,Apeldoorn,Gelderland,VBO,5.964368,52.243894
Fluitersweg,64,,,7345BJ,Wenum Wiesel,Apeldoorn,Gelderland,VBO,5.966504,52.243986
Fluitersweg,66,,,7345BJ,Wenum Wiesel,Apeldoorn,Gelderland,VBO,5.966773,52.244032
Fluitersweg,68,A,,7345BJ,Wenum Wiesel,Apeldoorn,Gelderland,VBO,5.967183,52.243946
Fluitersweg,68,,,7345BJ,Wenum Wiesel,Apeldoorn,Gelderland,VBO,5.967116,52.244020
Fluitersweg,70,,,7345BJ,Wenum Wiesel,Apeldoorn,Gelderland,VBO,5.967394,52.243991
Fluitersweg,72,,,7345BJ,Wenum Wiesel,Apeldoorn,Gelderland,VBO,5.967625,52.244015
Fluitersweg,74,,,7345BJ,Wenum Wiesel,Apeldoorn,Gelderland,VBO,5.967829,52.243947
Fluitersweg,76,,,7345BJ,Wenum Wiesel,Apeldoorn,Gelderland,VBO,5.968081,52.243921
Fluitersweg,2,,,7345BK,Wenum Wiesel,Apeldoorn,Gelderland,VBO,5.959280,52.243774
Fluitersweg,4,,,7345BK,Wenum Wiesel,Apeldoorn,Gelderland,VBO,5.959431,52.243730
Fluitersweg,6,,,7345BK,Wenum Wiesel,Apeldoorn,Gelderland,VBO,5.959519,52.243716
Fluitersweg,8,,,7345BK,Wenum Wiesel,Apeldoorn,Gelderland,VBO,5.959623,52.243713
Fluitersweg,10,,,7345BK,Wenum Wiesel,Apeldoorn,Gelderland,VBO,5.959740,52.243695
Fluitersweg,12,,,7345BK,Wenum Wiesel,Apeldoorn,Gelderland,VBO,5.959822,52.243667
Fluitersweg,14,,,7345BK,Wenum Wiesel,Apeldoorn,Gelderland,VBO,5.959918,52.243652
Fluitersweg,16,,,7345BK,Wenum Wiesel,Apeldoorn,Gelderland,VBO,5.960050,52.243641
Fluitersweg,18,,,7345BK,Wenum Wiesel,Apeldoorn,Gelderland,VBO,5.960117,52.243631
Fluitersweg,20,,,7345BK,Wenum Wiesel,Apeldoorn,Gelderland,VBO,5.960242,52.243602
Fluitersweg,22,,,7345BK,Wenum Wiesel,Apeldoorn,Gelderland,VBO,5.960329,52.243591
Fluitersweg,24,,,7345BK,Wenum Wiesel,Apeldoorn,Gelderland,VBO,5.960452,52.243586
Fluitersweg,26,,,7345BK,Wenum Wiesel,Apeldoorn,Gelderland,VBO,5.960532,52.243573
Fluitersweg,28,,,7345BK,Wenum Wiesel,Apeldoorn,Gelderland,VBO,5.960647,52.243542
Fluitersweg,30,,,7345BK,Wenum Wiesel,Apeldoorn,Gelderland,VBO,5.960727,52.243529
Fluitersweg,32,,,7345BK,Wenum Wiesel,Apeldoorn,Gelderland,VBO,5.960865,52.243515
Fluitersweg,34,,,7345BK,Wenum Wiesel,Apeldoorn,Gelderland,VBO,5.960933,52.243506
Fluitersweg,36,,,7345BK,Wenum Wiesel,Apeldoorn,Gelderland,VBO,5.961230,52.243445
Fluitersweg,40,,,7345BK,Wenum Wiesel,Apeldoorn,Gelderland,VBO,5.961391,52.243807
Hoekweg,1,,,7345CA,Wenum Wiesel,Apeldoorn,Gelderland,VBO,5.954035,52.242867
Hoekweg,3,,,7345CA,Wenum Wiesel,Apeldoorn,Gelderland,VBO,5.953989,52.243025
Hoekweg,5,A,,7345CA,Wenum Wiesel,Apeldoorn,Gelderland,VBO,5.953910,52.243136
Hoekweg,5,B,,7345CA,Wenum Wiesel,Apeldoorn,Gelderland,VBO,5.953827,52.243252
Hoekweg,7,A,,7345CA,Wenum Wiesel,Apeldoorn,Gelderland,VBO,5.953603,52.243426
Hoekweg,7,,,7345CA,Wenum Wiesel,Apeldoorn,Gelderland,VBO,5.953729,52.243423
Hoekweg,8,A,,7345CA,Wenum Wiesel,Apeldoorn,Gelderland,VBO,5.955221,52.241922
Hoekweg,8,,,7345CA,Wenum Wiesel,Apeldoorn,Gelderland,VBO,5.955230,52.241885
Hoekweg,10,,,7345CA,Wenum Wiesel,Apeldoorn,Gelderland,VBO,5.954641,52.242973
Hoekweg,15,,,7345CA,Wenum Wiesel,Apeldoorn,Gelderland,VBO,5.953126,52.244581
Hoekweg,17,,,7345CA,Wenum Wiesel,Apeldoorn,Gelderland,VBO,5.952971,52.244755
Hoekweg,19,,,7345CA,Wenum Wiesel,Apeldoorn,Gelderland,VBO,5.952599,52.245167
Hoekweg,20,,,7345CA,Wenum Wiesel,Apeldoorn,Gelderland,VBO,5.953707,52.244555
Hoekweg,21,,,7345CA,Wenum Wiesel,Apeldoorn,Gelderland,VBO,5.952572,52.245677
Hoekweg,22,,,7345CA,Wenum Wiesel,Apeldoorn,Gelderland,VBO,5.953387,52.245176
Hoekweg,24,,,7345CA,Wenum Wiesel,Apeldoorn,Gelderland,VBO,5.953595,52.245195
Hoekweg,28,,,7345CA,Wenum Wiesel,Apeldoorn,Gelderland,VBO,5.953439,52.245581
Hoekweg,34,,,7345CA,Wenum Wiesel,Apeldoorn,Gelderland,VBO,5.954166,52.245585
Wieselseweg,3,,,7345CB,Wenum Wiesel,Apeldoorn,Gelderland,VBO,5.944157,52.246822
Wieselseweg,5,,,7345CB,Wenum Wiesel,Apeldoorn,Gelderland,VBO,5.943928,52.246900
Wieselseweg,9,,,7345CB,Wenum Wiesel,Apeldoorn,Gelderland,VBO,5.943033,52.246818
Wieselseweg,11,,,7345CB,Wenum Wiesel,Apeldoorn,Gelderland,VBO,5.942887,52.246870
Wieselseweg,15,,,7345CB,Wenum Wiesel,Apeldoorn,Gelderland,VBO,5.942317,52.247402
Wieselseweg,17,,,7345CB,Wenum Wiesel,Apeldoorn,Gelderland,VBO,5.942013,52.246980
Wieselseweg,19,,,7345CB,Wenum Wiesel,Apeldoorn,Gelderland,VBO,5.941677,52.247080
Wieselseweg,21,,,7345CB,Wenum Wiesel,Apeldoorn,Gelderland,VBO,5.941290,52.247841
Wieselseweg,23,,,7345CB,Wenum Wiesel,Apeldoorn,Gelderland,VBO,5.941136,52.247025
Wieselseweg,25,,,7345CB,Wenum Wiesel,Apeldoorn,Gelderland,VBO,5.941037,52.247967
Wieselseweg,27,,,7345CB,Wenum Wiesel,Apeldoorn,Gelderland,VBO,5.940462,52.246754
Wieselseweg,29,,,7345CB,Wenum Wiesel,Apeldoorn,Gelderland,VBO,5.940778,52.248056
Wieselseweg,74,,,7345CB,Wenum Wiesel,Apeldoorn,Gelderland,VBO,5.944759,52.247147
Wieselseweg,76,,,7345CB,Wenum Wiesel,Apeldoorn,Gelderland,VBO,5.944371,52.247309
Wieselseweg,80,,,7345CB,Wenum Wiesel,Apeldoorn,Gelderland,VBO,5.943230,52.247662
Wieselseweg,31,,,7345CC,Wenum Wiesel,Apeldoorn,Gelderland,VBO,5.940530,52.248093
Wieselseweg,33,,,7345CC,Wenum Wiesel,Apeldoorn,Gelderland,VBO,5.940313,52.248206
Wieselseweg,35,,,7345CC,Wenum Wiesel,Apeldoorn,Gelderland,VBO,5.940003,52.248222
Wieselseweg,37,,,7345CC,Wenum Wiesel,Apeldoorn,Gelderland,VBO,5.939641,52.246892
Wieselseweg,39,,,7345CC,Wenum Wiesel,Apeldoorn,Gelderland,VBO,5.939115,52.246772
Wieselseweg,41,,,7345CC,Wenum Wiesel,Apeldoorn,Gelderland,VBO,5.939667,52.248373
Wieselseweg,43,,,7345CC,Wenum Wiesel,Apeldoorn,Gelderland,VBO,5.939487,52.248476
Wieselseweg,90,,,7345CC,Wenum Wiesel,Apeldoorn,Gelderland,VBO,5.940748,52.248454
Wieselseweg,92,,,7345CC,Wenum Wiesel,Apeldoorn,Gelderland,VBO,5.939730,52.250151
Wieselseweg,102,,,7345CC,Wenum Wiesel,Apeldoorn,Gelderland,VBO,5.934365,52.250358
Wieselseweg,108,,,7345CC,Wenum Wiesel,Apeldoorn,Gelderland,VBO,5.930666,52.251263
Wieselseweg,110,,,7345CC,Wenum Wiesel,Apeldoorn,Gelderland,VBO,5.929571,52.252598
Wieselseweg,112,,,7345CC,Wenum Wiesel,Apeldoorn,Gelderland,VBO,5.929034,52.252046
Wieselseweg,6,,,7345CD,Wenum Wiesel,Apeldoorn,Gelderland,VBO,5.954703,52.241958
Wieselseweg,8,,,7345CD,Wenum Wiesel,Apeldoorn,Gelderland,VBO,5.954551,52.242057
Wieselseweg,10,,,7345CD,Wenum Wiesel,Apeldoorn,Gelderland,VBO,5.954451,52.242112
Wieselseweg,12,,,7345CD,Wenum Wiesel,Apeldoorn,Gelderland,VBO,5.954268,52.242224
Wieselseweg,18,,,7345CD,Wenum Wiesel,Apeldoorn,Gelderland,VBO,5.954005,52.242511
Wieselseweg,24,,,7345CD,Wenum Wiesel,Apeldoorn,Gelderland,VBO,5.953309,52.242704
Wieselseweg,26,,,7345CD,Wenum Wiesel,Apeldoorn,Gelderland,VBO,5.953236,52.242727
Wieselseweg,28,,,7345CD,Wenum Wiesel,Apeldoorn,Gelderland,VBO,5.953136,52.242881
Wieselseweg,34,,,7345CD,Wenum Wiesel,Apeldoorn,Gelderland,VBO,5.952774,52.243064
Wieselseweg,36,,,7345CD,Wenum Wiesel,Apeldoorn,Gelderland,VBO,5.952475,52.243237
Wieselseweg,40,,,7345CD,Wenum Wiesel,Apeldoorn,Gelderland,VBO,5.952259,52.243357
Wieselseweg,42,,,7345CD,Wenum Wiesel,Apeldoorn,Gelderland,VBO,5.952209,52.243392
Wieselseweg,44,,,7345CD,Wenum Wiesel,Apeldoorn,Gelderland,VBO,5.951944,52.243565
Wieselseweg,48,,,7345CE,Wenum Wiesel,Apeldoorn,Gelderland,VBO,5.951152,52.243900
Wieselseweg,50,,2,7345CE,Wenum Wiesel,Apeldoorn,Gelderland,VBO,5.950745,52.244175
Wieselseweg,50,,,7345CE,Wenum Wiesel,Apeldoorn,Gelderland,VBO,5.950908,52.244105
Wieselseweg,52,,,7345CE,Wenum Wiesel,Apeldoorn,Gelderland,VBO,5.950587,52.244282
Wieselseweg,54,,,7345CE,Wenum Wiesel,Apeldoorn,Gelderland,VBO,5.950354,52.244377
Wieselseweg,56,B,,7345CE,Wenum Wiesel,Apeldoorn,Gelderland,VBO,5.949393,52.245006
Wieselseweg,56,,,7345CE,Wenum Wiesel,Apeldoorn,Gelderland,VBO,5.949824,52.244732
Wieselseweg,58,,,7345CE,Wenum Wiesel,Apeldoorn,Gelderland,VBO,5.949143,52.245090
Wieselseweg,60,,,7345CE,Wenum Wiesel,Apeldoorn,Gelderland,VBO,5.948658,52.245497
Wieselseweg,62,,,7345CE,Wenum Wiesel,Apeldoorn,Gelderland,VBO,5.948569,52.245529
Wieselseweg,64,,,7345CE,Wenum Wiesel,Apeldoorn,Gelderland,VBO,5.948113,52.245850
Wieselseweg,70,,,7345CE,Wenum Wiesel,Apeldoorn,Gelderland,VBO,5.947434,52.246596
Wieselseweg,70,,,7345CE,Wenum Wiesel,Apeldoorn,Gelderland,VBO,5.947484,52.246532
Wieselseweg,120,,,7345CG,Wenum Wiesel,Apeldoorn,Gelderland,VBO,5.926658,52.251936
Wieselseweg,124,,,7345CG,Wenum Wiesel,Apeldoorn,Gelderland,VBO,5.925926,52.252249
Wieselseweg,128,,,7345CG,Wenum Wiesel,Apeldoorn,Gelderland,VBO,5.919854,52.252506
Wieselseweg,130,,,7345CG,Wenum Wiesel,Apeldoorn,Gelderland,VBO,5.919738,52.252488
Wieselse Kampweg,2,,,7345CJ,Wenum Wiesel,Apeldoorn,Gelderland,VBO,5.951167,52.254564
Wieselse Kampweg,3,,,7345CJ,Wenum Wiesel,Apeldoorn,Gelderland,VBO,5.950862,52.254130
Wieselse Kampweg,7,,,7345CJ,Wenum Wiesel,Apeldoorn,Gelderland,VBO,5.950041,52.254183
Wieselse Kampweg,8,,,7345CJ,Wenum Wiesel,Apeldoorn,Gelderland,VBO,5.949194,52.254545
Wieselse Kampweg,9,,,7345CJ,Wenum Wiesel,Apeldoorn,Gelderland,VBO,5.949751,52.254195
Wieselse Kampweg,10,,,7345CJ,Wenum Wiesel,Apeldoorn,Gelderland,VBO,5.948827,52.254569
Wieselse Kampweg,11,,,7345CJ,Wenum Wiesel,Apeldoorn,Gelderland,VBO,5.949001,52.254146
Wieselse Kampweg,12,,,7345CJ,Wenum Wiesel,Apeldoorn,Gelderland,VBO,5.948235,52.254537
Wieselse Kampweg,15,,,7345CJ,Wenum Wiesel,Apeldoorn,Gelderland,VBO,5.946682,52.253905
Wieselse Kampweg,17,,,7345CJ,Wenum Wiesel,Apeldoorn,Gelderland,VBO,5.946112,52.254019
Wieselse Kampweg,21,,,7345CJ,Wenum Wiesel,Apeldoorn,Gelderland,VBO,5.945472,52.253921
Wieselse Kampweg,23,,,7345CJ,Wenum Wiesel,Apeldoorn,Gelderland,VBO,5.945277,52.253929
Wieselse Kampweg,24,,,7345CJ,Wenum Wiesel,Apeldoorn,Gelderland,VBO,5.945170,52.254268
Wieselse Kampweg,25,B,,7345CJ,Wenum Wiesel,Apeldoorn,Gelderland,VBO,5.945030,52.253874
Wieselse Kampweg,25,C,,7345CJ,Wenum Wiesel,Apeldoorn,Gelderland,VBO,5.944891,52.253884
Wieselse Kampweg,30,,,7345CJ,Wenum Wiesel,Apeldoorn,Gelderland,VBO,5.944084,52.254111
Wieselse Kampweg,32,,,7345CJ,Wenum Wiesel,Apeldoorn,Gelderland,VBO,5.943795,52.254032
Wieselse Kampweg,35,,,7345CJ,Wenum Wiesel,Apeldoorn,Gelderland,VBO,5.944131,52.253738
Wieselse Kampweg,40,,,7345CJ,Wenum Wiesel,Apeldoorn,Gelderland,VBO,5.942282,52.253845
Wieselse Kampweg,41,,,7345CJ,Wenum Wiesel,Apeldoorn,Gelderland,VBO,5.942657,52.253397
Wieselse Kampweg,42,,,7345CJ,Wenum Wiesel,Apeldoorn,Gelderland,VBO,5.941879,52.253715
Wieselse Kampweg,43,,,7345CJ,Wenum Wiesel,Apeldoorn,Gelderland,VBO,5.942283,52.253356
Wieselse Kampweg,46,,,7345CJ,Wenum Wiesel,Apeldoorn,Gelderland,VBO,5.941378,52.253684
Wieselse Kampweg,49,,,7345CJ,Wenum Wiesel,Apeldoorn,Gelderland,VBO,5.941311,52.253238
Wieselse Kampweg,54,,,7345CK,Wenum Wiesel,Apeldoorn,Gelderland,VBO,5.940270,52.253597
Wieselse Kampweg,60,,,7345CK,Wenum Wiesel,Apeldoorn,Gelderland,VBO,5.938784,52.253250
Wieselse Kampweg,61,,,7345CK,Wenum Wiesel,Apeldoorn,Gelderland,VBO,5.938876,52.252609
Wieselse Kampweg,62,A,,7345CK,Wenum Wiesel,Apeldoorn,Gelderland,VBO,5.937522,52.253900
Wieselse Kampweg,62,,,7345CK,Wenum Wiesel,Apeldoorn,Gelderland,VBO,5.937926,52.253348
Wieselse Kampweg,63,,,7345CK,Wenum Wiesel,Apeldoorn,Gelderland,VBO,5.936834,52.252690
Wieselse Kampweg,64,,,7345CK,Wenum Wiesel,Apeldoorn,Gelderland,VBO,5.936291,52.253789
Wieselse Kampweg,66,,,7345CK,Wenum Wiesel,Apeldoorn,Gelderland,VBO,5.935018,52.253602
Wieselse Kampweg,68,B,,7345CK,Wenum Wiesel,Apeldoorn,Gelderland,VBO,5.932585,52.253726
Wieselse Kampweg,68,C,,7345CK,Wenum Wiesel,Apeldoorn,Gelderland,VBO,5.932984,52.253717
Wieselse Kampweg,68,D,,7345CK,Wenum Wiesel,Apeldoorn,Gelderland,VBO,5.933274,52.253538
Wieselse Kampweg,68,E,,7345CK,Wenum Wiesel,Apeldoorn,Gelderland,VBO,5.933472,52.253536
Wieselse Kampweg,68,F,,7345CK,Wenum Wiesel,Apeldoorn,Gelderland,VBO,5.933723,52.253541
Wieselse Kampweg,69,,,7345CK,Wenum Wiesel,Apeldoorn,Gelderland,VBO,5.934774,52.252383
Wieselse Kampweg,70,,,7345CK,Wenum Wiesel,Apeldoorn,Gelderland,VBO,5.934564,52.253145
Wieselse Kampweg,72,,,7345CK,Wenum Wiesel,Apeldoorn,Gelderland,VBO,5.934483,52.253147
Wieselse Kampweg,73,,,7345CK,Wenum Wiesel,Apeldoorn,Gelderland,VBO,5.934312,52.252644
Wieselse Kampweg,77,,,7345CK,Wenum Wiesel,Apeldoorn,Gelderland,VBO,5.933155,52.252272
Wieselse Kampweg,78,,,7345CK,Wenum Wiesel,Apeldoorn,Gelderland,VBO,5.933576,52.253086
Wieselse Kampweg,80,,,7345CK,Wenum Wiesel,Apeldoorn,Gelderland,VBO,5.932998,52.253340
Wieselse Kampweg,81,,,7345CK,Wenum Wiesel,Apeldoorn,Gelderland,VBO,5.932288,52.252451
Wieselse Kampweg,82,,,7345CK,Wenum Wiesel,Apeldoorn,Gelderland,VBO,5.932456,52.253035
Wieselse Kampweg,85,,,7345CL,Wenum Wiesel,Apeldoorn,Gelderland,VBO,5.932579,52.251774
Wieselse Kampweg,86,A,,7345CL,Wenum Wiesel,Apeldoorn,Gelderland,VBO,5.930964,52.252901
Wieselse Kampweg,86,,,7345CL,Wenum Wiesel,Apeldoorn,Gelderland,VBO,5.931261,52.252640
Wieselse Kampweg,87,,,7345CL,Wenum Wiesel,Apeldoorn,Gelderland,VBO,5.932395,52.251455
Wieselse Kampweg,88,,,7345CL,Wenum Wiesel,Apeldoorn,Gelderland,VBO,5.931283,52.252556
Wieselse Kampweg,90,,,7345CL,Wenum Wiesel,Apeldoorn,Gelderland,VBO,5.931166,52.252406
Wieselse Kampweg,102,,,7345CL,Wenum Wiesel,Apeldoorn,Gelderland,VBO,5.931831,52.251293
Wieselse Enkweg,7,,,7345CM,Wenum Wiesel,Apeldoorn,Gelderland,VBO,5.941088,52.249976
Wieselse Enkweg,9,,,7345CM,Wenum Wiesel,Apeldoorn,Gelderland,VBO,5.940848,52.249944
Wieselse Enkweg,10,,,7345CM,Wenum Wiesel,Apeldoorn,Gelderland,VBO,5.942575,52.250874
Wieselse Enkweg,12,,,7345CM,Wenum Wiesel,Apeldoorn,Gelderland,VBO,5.941466,52.250767
Wieselse Enkweg,14,,,7345CM,Wenum Wiesel,Apeldoorn,Gelderland,VBO,5.941271,52.251361
Wieselse Enkweg,17,,,7345CM,Wenum Wiesel,Apeldoorn,Gelderland,VBO,5.940444,52.251423
Wieselse Enkweg,30,,,7345CM,Wenum Wiesel,Apeldoorn,Gelderland,VBO,5.939814,52.254394
Wieselse Enkweg,31,,,7345CM,Wenum Wiesel,Apeldoorn,Gelderland,VBO,5.938060,52.253906
Wieselse Enkweg,32,,,7345CM,Wenum Wiesel,Apeldoorn,Gelderland,VBO,5.939669,52.254688
Wieselse Enkweg,35,,,7345CM,Wenum Wiesel,Apeldoorn,Gelderland,VBO,5.938172,52.254129
Wieselse Enkweg,37,,,7345CM,Wenum Wiesel,Apeldoorn,Gelderland,VBO,5.938187,52.254773
Wieselse Enkweg,39,A,,7345CM,Wenum Wiesel,Apeldoorn,Gelderland,VBO,5.937178,52.255646
Wieselse Enkweg,39,,,7345CM,Wenum Wiesel,Apeldoorn,Gelderland,VBO,5.938237,52.255445
Wieselse Enkweg,41,,,7345CM,Wenum Wiesel,Apeldoorn,Gelderland,VBO,5.937759,52.255836
Wieselse Enkweg,48,,,7345CM,Wenum Wiesel,Apeldoorn,Gelderland,VBO,5.937998,52.257045
Wieselse Enkweg,50,,,7345CM,Wenum Wiesel,Apeldoorn,Gelderland,VBO,5.937872,52.257273
Wieselse Enkweg,51,,,7345CM,Wenum Wiesel,Apeldoorn,Gelderland,VBO,5.937304,52.257206
Wieselse Enkweg,52,,,7345CM,Wenum Wiesel,Apeldoorn,Gelderland,VBO,5.937678,52.257300
Wieselse Enkweg,58,,,7345CM,Wenum Wiesel,Apeldoorn,Gelderland,VBO,5.933254,52.258728
Wieselse Enkweg,62,,,7345CM,Wenum Wiesel,Apeldoorn,Gelderland,VBO,5.932625,52.258802
Wieselse Enkweg,66,,,7345CM,Wenum Wiesel,Apeldoorn,Gelderland,VBO,5.931442,52.258807
Huisakkers,2,,,7345CN,Wenum Wiesel,Apeldoorn,Gelderland,VBO,5.931812,52.254609
Huisakkers,3,,,7345CN,Wenum Wiesel,Apeldoorn,Gelderland,VBO,5.932864,52.255595
Huisakkers,4,,,7345CN,Wenum Wiesel,Apeldoorn,Gelderland,VBO,5.932396,52.255694
Huisakkers,5,A,,7345CN,Wenum Wiesel,Apeldoorn,Gelderland,VBO,5.933544,52.255467
Huisakkers,5,,,7345CN,Wenum Wiesel,Apeldoorn,Gelderland,VBO,5.933201,52.255743
Huisakkers,6,A,,7345CN,Wenum Wiesel,Apeldoorn,Gelderland,VBO,5.931508,52.256110
Huisakkers,6,,,7345CN,Wenum Wiesel,Apeldoorn,Gelderland,VBO,5.932041,52.256011
Huisakkers,7,,,7345CN,Wenum Wiesel,Apeldoorn,Gelderland,VBO,5.930060,52.255777
Huisakkers,8,A,,7345CN,Wenum Wiesel,Apeldoorn,Gelderland,VBO,5.928632,52.256405
Huisakkers,8,,,7345CN,Wenum Wiesel,Apeldoorn,Gelderland,VBO,5.928094,52.255755
Huisakkers,9,,,7345CN,Wenum Wiesel,Apeldoorn,Gelderland,VBO,5.928991,52.255472
Huisakkers,10,,,7345CN,Wenum Wiesel,Apeldoorn,Gelderland,VBO,5.930381,52.254597
Huisakkers,12,,,7345CN,Wenum Wiesel,Apeldoorn,Gelderland,VBO,5.929436,52.254016
Huisakkers,14,,,7345CN,Wenum Wiesel,Apeldoorn,Gelderland,VBO,5.931289,52.254161
Kopermolenweg,4,T,,7345CP,Wenum Wiesel,Apeldoorn,Gelderland,VBO,5.950832,52.258866
Kopermolenweg,4,,,7345CP,Wenum Wiesel,Apeldoorn,Gelderland,VBO,5.950890,52.259099
Kopermolenweg,5,,,7345CP,Wenum Wiesel,Apeldoorn,Gelderland,VBO,5.949573,52.257797
Kopermolenweg,7,,,7345CP,Wenum Wiesel,Apeldoorn,Gelderland,VBO,5.947784,52.257954
Kopermolenweg,10,,,7345CP,Wenum Wiesel,Apeldoorn,Gelderland,VBO,5.943889,52.259409
Kopermolenweg,12,,,7345CP,Wenum Wiesel,Apeldoorn,Gelderland,VBO,5.940652,52.259833
Kopermolenweg,15,,,7345CP,Wenum Wiesel,Apeldoorn,Gelderland,VBO,5.944290,52.257825
Kopermolenweg,48,,,7345CP,Wenum Wiesel,Apeldoorn,Gelderland,VBO,5.936040,52.265963
Kopermolenweg,50,,,7345CP,Wenum Wiesel,Apeldoorn,Gelderland,VBO,5.934270,52.266583
Kopermolenweg,60,,,7345CP,Wenum Wiesel,Apeldoorn,Gelderland,VBO,5.925452,52.267434
Kopermolenweg,65,,,7345CP,Wenum Wiesel,Apeldoorn,Gelderland,VBO,5.938080,52.261366
Kopermolenweg,75,,,7345CP,Wenum Wiesel,Apeldoorn,Gelderland,VBO,5.934376,52.265026
Greutelseweg,25,,,7345CR,Wenum Wiesel,Apeldoorn,Gelderland,VBO,5.932518,52.260668
Greutelseweg,29,,,7345CR,Wenum Wiesel,Apeldoorn,Gelderland,VBO,5.926242,52.259199
Greutelseweg,42,,,7345CR,Wenum Wiesel,Apeldoorn,Gelderland,VBO,5.917795,52.256871
Greutelseweg,45,,,7345CR,Wenum Wiesel,Apeldoorn,Gelderland,VBO,5.919763,52.257127
Greutelseweg,49,,,7345CR,Wenum Wiesel,Apeldoorn,Gelderland,VBO,5.920957,52.256885
Greutelseweg,51,,,7345CR,Wenum Wiesel,Apeldoorn,Gelderland,VBO,5.921663,52.256894
Greutelseweg,52,,,7345CR,Wenum Wiesel,Apeldoorn,Gelderland,VBO,5.920495,52.255968
Greutelseweg,61,,,7345CR,Wenum Wiesel,Apeldoorn,Gelderland,VBO,5.923237,52.254400
Greutelseweg,62,,,7345CR,Wenum Wiesel,Apeldoorn,Gelderland,VBO,5.924009,52.252710
Greutelseweg,65,,,7345CR,Wenum Wiesel,Apeldoorn,Gelderland,VBO,5.923837,52.253660
Greutelseweg,70,,,7345CR,Wenum Wiesel,Apeldoorn,Gelderland,VBO,5.925165,52.252103
Greutelseweg,73,,,7345CR,Wenum Wiesel,Apeldoorn,Gelderland,VBO,5.925289,52.252473
Hoge Brink,3,,,7345DA,Wenum Wiesel,Apeldoorn,Gelderland,VBO,5.958792,52.240615
Hoge Brink,6,,,7345DA,Wenum Wiesel,Apeldoorn,Gelderland,VBO,5.958276,52.240227
Hoge Brink,9,,,7345DA,Wenum Wiesel,Apeldoorn,Gelderland,VBO,5.959145,52.240656
Hoge Brink,11,,,7345DA,Wenum Wiesel,Apeldoorn,Gelderland,VBO,5.959338,52.240686
Hoge Brink,12,,,7345DA,Wenum Wiesel,Apeldoorn,Gelderland,VBO,5.958846,52.240262
Hoge Brink,13,,,7345DA,Wenum Wiesel,Apeldoorn,Gelderland,VBO,5.959408,52.240694
Hoge Brink,14,,,7345DA,Wenum Wiesel,Apeldoorn,Gelderland,VBO,5.959058,52.240272
Hoge Brink,17,,,7345DA,Wenum Wiesel,Apeldoorn,Gelderland,VBO,5.959947,52.240736
Hoge Brink,18,,,7345DA,Wenum Wiesel,Apeldoorn,Gelderland,VBO,5.959371,52.240350
Hoge Brink,24,,,7345DA,Wenum Wiesel,Apeldoorn,Gelderland,VBO,5.960413,52.240381
Hoge Brink,31,,,7345DA,Wenum Wiesel,Apeldoorn,Gelderland,VBO,5.960519,52.240846
Hoge Brink,33,,,7345DA,Wenum Wiesel,Apeldoorn,Gelderland,VBO,5.960750,52.240882
De Nieuwekamp,4,,,7345DB,Wenum Wiesel,Apeldoorn,Gelderland,VBO,5.961483,52.240280
De Nieuwekamp,10,,,7345DB,Wenum Wiesel,Apeldoorn,Gelderland,VBO,5.961784,52.240759
De Nieuwekamp,16,,,7345DB,Wenum Wiesel,Apeldoorn,Gelderland,VBO,5.962354,52.241441
De Nieuwekamp,18,,,7345DB,Wenum Wiesel,Apeldoorn,Gelderland,VBO,5.962402,52.241507
De Nieuwekamp,24,,,7345DB,Wenum Wiesel,Apeldoorn,Gelderland,VBO,5.962821,52.242143
De Nieuwekamp,29,,,7345DB,Wenum Wiesel,Apeldoorn,Gelderland,VBO,5.962571,52.242858
De Nieuwekamp,31,,,7345DB,Wenum Wiesel,Apeldoorn,Gelderland,VBO,5.962576,52.242911
Kleine Fluitersweg,8,,,7345DC,Wenum Wiesel,Apeldoorn,Gelderland,VBO,5.965803,52.243260
Kleine Fluitersweg,9,,,7345DC,Wenum Wiesel,Apeldoorn,Gelderland,VBO,5.966368,52.243111
Kleine Fluitersweg,12,,,7345DC,Wenum Wiesel,Apeldoorn,Gelderland,VBO,5.965714,52.242658
Kleine Fluitersweg,14,,,7345DC,Wenum Wiesel,Apeldoorn,Gelderland,VBO,5.965547,52.242388
Kleine Fluitersweg,21,,,7345DC,Wenum Wiesel,Apeldoorn,Gelderland,VBO,5.966395,52.242684
Kleine Fluitersweg,22,,,7345DC,Wenum Wiesel,Apeldoorn,Gelderland,VBO,5.965583,52.241750
Kleine Fluitersweg,23,,,7345DC,Wenum Wiesel,Apeldoorn,Gelderland,VBO,5.966377,52.242422
Kleine Fluitersweg,25,,,7345DC,Wenum Wiesel,Apeldoorn,Gelderland,VBO,5.966360,52.242169
Plasweideweg,6,,,7345DD,Wenum Wiesel,Apeldoorn,Gelderland,VBO,5.961170,52.245424
Plasweideweg,10,,,7345DD,Wenum Wiesel,Apeldoorn,Gelderland,VBO,5.961691,52.245384
Plasweideweg,18,,,7345DD,Wenum Wiesel,Apeldoorn,Gelderland,VBO,5.962968,52.245424
Plasweideweg,20,,,7345DD,Wenum Wiesel,Apeldoorn,Gelderland,VBO,5.963358,52.245386
Wenumseveldweg,13,,,7345DE,Wenum Wiesel,Apeldoorn,Gelderland,VBO,5.971892,52.247552
Wenumseweg,3,,,7345DE,Wenum Wiesel,Apeldoorn,Gelderland,VBO,5.965236,52.244575
Wenumseweg,15,,,7345DE,Wenum Wiesel,Apeldoorn,Gelderland,VBO,5.966909,52.249180
Wenumseweg,39,,,7345DE,Wenum Wiesel,Apeldoorn,Gelderland,VBO,5.966459,52.253908
Wenumseweg,41,,,7345DE,Wenum Wiesel,Apeldoorn,Gelderland,VBO,5.966969,52.254180
Wenumseweg,43,,,7345DE,Wenum Wiesel,Apeldoorn,Gelderland,VBO,5.966725,52.254394
Wenumseweg,45,,,7345DE,Wenum Wiesel,Apeldoorn,Gelderland,VBO,5.966699,52.254507
Wenumseweg,47,,,7345DE,Wenum Wiesel,Apeldoorn,Gelderland,VBO,5.966683,52.254548
Oude Zwolseweg,135,A,,7345DG,Wenum Wiesel,Apeldoorn,Gelderland,VBO,5.962766,52.253210
Oude Zwolseweg,135,,,7345DG,Wenum Wiesel,Apeldoorn,Gelderland,VBO,5.962746,52.253181
Oude Zwolseweg,139,,,7345DG,Wenum Wiesel,Apeldoorn,Gelderland,VBO,5.963064,52.253858
Oude Zwolseweg,141,A,,7345DG,Wenum Wiesel,Apeldoorn,Gelderland,VBO,5.963135,52.253975
Oude Zwolseweg,141,B,,7345DG,Wenum Wiesel,Apeldoorn,Gelderland,VBO,5.963164,52.254033
Oude Zwolseweg,141,C,,7345DG,Wenum Wiesel,Apeldoorn,Gelderland,VBO,5.963187,52.254085
Oude Zwolseweg,141,D,,7345DG,Wenum Wiesel,Apeldoorn,Gelderland,VBO,5.963298,52.254199
Oude Zwolseweg,141,E,,7345DG,Wenum Wiesel,Apeldoorn,Gelderland,VBO,5.963323,52.254256
Oude Zwolseweg,143,,,7345DG,Wenum Wiesel,Apeldoorn,Gelderland,VBO,5.963530,52.254417
Oude Zwolseweg,145,,,7345DG,Wenum Wiesel,Apeldoorn,Gelderland,VBO,5.963703,52.254716
Oude Zwolseweg,147,,,7345DG,Wenum Wiesel,Apeldoorn,Gelderland,VBO,5.963897,52.254788
Oude Zwolseweg,148,,,7345DG,Wenum Wiesel,Apeldoorn,Gelderland,VBO,5.964545,52.254930
Oude Zwolseweg,149,A,,7345DG,Wenum Wiesel,Apeldoorn,Gelderland,VBO,5.964207,52.255247
Oude Zwolseweg,149,,,7345DG,Wenum Wiesel,Apeldoorn,Gelderland,VBO,5.963871,52.254985
Oude Zwolseweg,150,,,7345DG,Wenum Wiesel,Apeldoorn,Gelderland,VBO,5.965195,52.255818
Oude Zwolseweg,152,,,7345DG,Wenum Wiesel,Apeldoorn,Gelderland,VBO,5.965755,52.256321
Oude Zwolseweg,153,,,7345DG,Wenum Wiesel,Apeldoorn,Gelderland,VBO,5.964418,52.255618
Oude Zwolseweg,154,,,7345DG,Wenum Wiesel,Apeldoorn,Gelderland,VBO,5.965781,52.256449
Oude Zwolseweg,155,,,7345DG,Wenum Wiesel,Apeldoorn,Gelderland,VBO,5.964630,52.255819
Oude Zwolseweg,156,,,7345DG,Wenum Wiesel,Apeldoorn,Gelderland,VBO,5.965754,52.256932
Oude Zwolseweg,157,,,7345DG,Wenum Wiesel,Apeldoorn,Gelderland,VBO,5.964824,52.256036
Oude Zwolseweg,158,,,7345DG,Wenum Wiesel,Apeldoorn,Gelderland,VBO,5.966136,52.257627
Oude Zwolseweg,160,,,7345DG,Wenum Wiesel,Apeldoorn,Gelderland,VBO,5.965387,52.257522
Oude Zwolseweg,164,,,7345DG,Wenum Wiesel,Apeldoorn,Gelderland,VBO,5.965103,52.257729
Oude Zwolseweg,170,,,7345DG,Wenum Wiesel,Apeldoorn,Gelderland,VBO,5.964656,52.259100
Oude Zwolseweg,176,,,7345DG,Wenum Wiesel,Apeldoorn,Gelderland,VBO,5.965265,52.259785
Oude Zwolseweg,180,,,7345DG,Wenum Wiesel,Apeldoorn,Gelderland,VBO,5.966401,52.259986
Groeneveltweg,2,,,7345DH,Wenum Wiesel,Apeldoorn,Gelderland,VBO,5.958870,52.269240
Groeneveltweg,25,,,7345DH,Wenum Wiesel,Apeldoorn,Gelderland,VBO,5.967635,52.270124
Oude Zwolseweg,163,,,7345DH,Wenum Wiesel,Apeldoorn,Gelderland,VBO,5.963659,52.258480
Oude Zwolseweg,169,,,7345DH,Wenum Wiesel,Apeldoorn,Gelderland,VBO,5.962487,52.259675
Oude Zwolseweg,187,,,7345DH,Wenum Wiesel,Apeldoorn,Gelderland,VBO,5.966753,52.264058
Oude Zwolseweg,189,,,7345DH,Wenum Wiesel,Apeldoorn,Gelderland,VBO,5.966128,52.263897
Oude Zwolseweg,193,,,7345DH,Wenum Wiesel,Apeldoorn,Gelderland,VBO,5.967040,52.266055
Oude Zwolseweg,197,,,7345DH,Wenum Wiesel,Apeldoorn,Gelderland,VBO,5.967176,52.266948
Oude Zwolseweg,203,,,7345DH,Wenum Wiesel,Apeldoorn,Gelderland,VBO,5.967413,52.267605
Oude Zwolseweg,210,,,7345DH,Wenum Wiesel,Apeldoorn,Gelderland,VBO,5.968718,52.271103
Oude Zwolseweg,213,,,7345DH,Wenum Wiesel,Apeldoorn,Gelderland,VBO,5.964978,52.267708
Oude Zwolseweg,220,,,7345DH,Wenum Wiesel,Apeldoorn,Gelderland,VBO,5.968988,52.272823
Oude Zwolseweg,227,,,7345DH,Wenum Wiesel,Apeldoorn,Gelderland,VBO,5.967595,52.268696
Schupperijweg,3,,,7345DJ,Wenum Wiesel,Apeldoorn,Gelderland,VBO,5.954728,52.252072
Schupperijweg,7,A,,7345DJ,Wenum Wiesel,Apeldoorn,Gelderland,VBO,5.953799,52.252394
Schupperijweg,7,,,7345DJ,Wenum Wiesel,Apeldoorn,Gelderland,VBO,5.954772,52.252363
Schupperijweg,10,,,7345DJ,Wenum Wiesel,Apeldoorn,Gelderland,VBO,5.955360,52.252490
Schupperijweg,16,,,7345DJ,Wenum Wiesel,Apeldoorn,Gelderland,VBO,5.955978,52.252930
Schupperijweg,20,,,7345DJ,Wenum Wiesel,Apeldoorn,Gelderland,VBO,5.957567,52.253039
Schupperijweg,22,,,7345DJ,Wenum Wiesel,Apeldoorn,Gelderland,VBO,5.957701,52.253033
Schupperijweg,26,,,7345DJ,Wenum Wiesel,Apeldoorn,Gelderland,VBO,5.958288,52.253091
Schupperijweg,27,,,7345DJ,Wenum Wiesel,Apeldoorn,Gelderland,VBO,5.956147,52.253764
Schupperijweg,27,,,7345DJ,Wenum Wiesel,Apeldoorn,Gelderland,VBO,5.956083,52.253769
Schupperijweg,29,,,7345DJ,Wenum Wiesel,Apeldoorn,Gelderland,VBO,5.955879,52.253298
Schupperijweg,30,,,7345DJ,Wenum Wiesel,Apeldoorn,Gelderland,VBO,5.958887,52.252956
Schupperijweg,35,,,7345DJ,Wenum Wiesel,Apeldoorn,Gelderland,VBO,5.956993,52.253360
Schupperijweg,36,,,7345DJ,Wenum Wiesel,Apeldoorn,Gelderland,VBO,5.960003,52.253072
Schupperijweg,38,,,7345DJ,Wenum Wiesel,Apeldoorn,Gelderland,VBO,5.960490,52.253011
Schupperijweg,39,,,7345DJ,Wenum Wiesel,Apeldoorn,Gelderland,VBO,5.957712,52.253510
Schupperijweg,45,,,7345DJ,Wenum Wiesel,Apeldoorn,Gelderland,VBO,5.958379,52.253404
Schupperijweg,49,,,7345DJ,Wenum Wiesel,Apeldoorn,Gelderland,VBO,5.959082,52.253386
Schupperijweg,61,,,7345DJ,Wenum Wiesel,Apeldoorn,Gelderland,VBO,5.962590,52.253502
Papegaaiweg,5,A,,7345DK,Wenum Wiesel,Apeldoorn,Gelderland,VBO,5.953153,52.255426
Papegaaiweg,6,,,7345DK,Wenum Wiesel,Apeldoorn,Gelderland,VBO,5.956274,52.254269
Papegaaiweg,7,,,7345DK,Wenum Wiesel,Apeldoorn,Gelderland,VBO,5.953097,52.254669
Papegaaiweg,8,,,7345DK,Wenum Wiesel,Apeldoorn,Gelderland,VBO,5.957132,52.254256
Papegaaiweg,9,,,7345DK,Wenum Wiesel,Apeldoorn,Gelderland,VBO,5.953629,52.254610
Papegaaiweg,10,,,7345DK,Wenum Wiesel,Apeldoorn,Gelderland,VBO,5.957800,52.254259
Papegaaiweg,16,,,7345DK,Wenum Wiesel,Apeldoorn,Gelderland,VBO,5.959872,52.254238
Papegaaiweg,19,,,7345DK,Wenum Wiesel,Apeldoorn,Gelderland,VBO,5.954935,52.254624
Papegaaiweg,21,,,7345DK,Wenum Wiesel,Apeldoorn,Gelderland,VBO,5.954994,52.254625
Papegaaiweg,23,,,7345DK,Wenum Wiesel,Apeldoorn,Gelderland,VBO,5.955203,52.254627
Papegaaiweg,25,,,7345DK,Wenum Wiesel,Apeldoorn,Gelderland,VBO,5.955261,52.254627
Papegaaiweg,27,,,7345DK,Wenum Wiesel,Apeldoorn,Gelderland,VBO,5.955469,52.254638
Papegaaiweg,29,,,7345DK,Wenum Wiesel,Apeldoorn,Gelderland,VBO,5.955512,52.254640
Papegaaiweg,31,,,7345DK,Wenum Wiesel,Apeldoorn,Gelderland,VBO,5.955736,52.254641
Papegaaiweg,33,,,7345DK,Wenum Wiesel,Apeldoorn,Gelderland,VBO,5.955802,52.254642
Papegaaiweg,35,,,7345DK,Wenum Wiesel,Apeldoorn,Gelderland,VBO,5.956041,52.255275
Papegaaiweg,59,,,7345DK,Wenum Wiesel,Apeldoorn,Gelderland,VBO,5.957948,52.254654
Papegaaiweg,61,,,7345DK,Wenum Wiesel,Apeldoorn,Gelderland,VBO,5.958036,52.254657
Papegaaiweg,18,,,7345DL,Wenum Wiesel,Apeldoorn,Gelderland,VBO,5.960862,52.254298
Papegaaiweg,20,,,7345DL,Wenum Wiesel,Apeldoorn,Gelderland,VBO,5.961900,52.254323
Papegaaiweg,22,,,7345DL,Wenum Wiesel,Apeldoorn,Gelderland,VBO,5.962322,52.254338
Papegaaiweg,24,,,7345DL,Wenum Wiesel,Apeldoorn,Gelderland,VBO,5.962560,52.254322
Papegaaiweg,26,A,,7345DL,Wenum Wiesel,Apeldoorn,Gelderland,VBO,5.962996,52.254367
Papegaaiweg,26,B,,7345DL,Wenum Wiesel,Apeldoorn,Gelderland,VBO,5.963094,52.254369
Papegaaiweg,26,C,,7345DL,Wenum Wiesel,Apeldoorn,Gelderland,VBO,5.963186,52.254370
Papegaaiweg,28,,,7345DL,Wenum Wiesel,Apeldoorn,Gelderland,VBO,5.964994,52.254506
Papegaaiweg,75,,,7345DL,Wenum Wiesel,Apeldoorn,Gelderland,VBO,5.959503,52.254974
Papegaaiweg,85,,,7345DL,Wenum Wiesel,Apeldoorn,Gelderland,VBO,5.961447,52.254778
Papegaaiweg,93,,,7345DL,Wenum Wiesel,Apeldoorn,Gelderland,VBO,5.962363,52.254734
Papegaaiweg,95,,,7345DL,Wenum Wiesel,Apeldoorn,Gelderland,VBO,5.962877,52.254802
Papegaaiweg,99,,,7345DL,Wenum Wiesel,Apeldoorn,Gelderland,VBO,5.963712,52.254843
Papegaaiweg,105,,,7345DL,Wenum Wiesel,Apeldoorn,Gelderland,VBO,5.965333,52.255331
Papegaaiweg,107,,,7345DL,Wenum Wiesel,Apeldoorn,Gelderland,VBO,5.965396,52.255346
Papegaaiweg,111,,,7345DL,Wenum Wiesel,Apeldoorn,Gelderland,VBO,5.965732,52.255529
Papegaaiweg,117,,,7345DL,Wenum Wiesel,Apeldoorn,Gelderland,VBO,5.967225,52.255939
Papegaaiweg,44,,,7345DM,Wenum Wiesel,Apeldoorn,Gelderland,VBO,5.972518,52.255459
Papegaaiweg,46,,,7345DM,Wenum Wiesel,Apeldoorn,Gelderland,VBO,5.972653,52.255447
Papegaaiweg,125,A,,7345DM,Wenum Wiesel,Apeldoorn,Gelderland,VBO,5.969493,52.256414
Papegaaiweg,125,B,,7345DM,Wenum Wiesel,Apeldoorn,Gelderland,VBO,5.969622,52.256294
Papegaaiweg,131,,,7345DM,Wenum Wiesel,Apeldoorn,Gelderland,VBO,5.970396,52.256213
Papegaaiweg,137,,,7345DM,Wenum Wiesel,Apeldoorn,Gelderland,VBO,5.971962,52.256528
Papegaaiweg,145,,,7345DM,Wenum Wiesel,Apeldoorn,Gelderland,VBO,5.973481,52.255861
Papegaaiweg,147,,,7345DM,Wenum Wiesel,Apeldoorn,Gelderland,VBO,5.974346,52.255922
Papegaaiweg,165,,,7345DM,Wenum Wiesel,Apeldoorn,Gelderland,VBO,5.981856,52.257428
Astaweg,5,,,7345DN,Wenum Wiesel,Apeldoorn,Gelderland,VBO,5.967141,52.257798
Astaweg,7,,,7345DN,Wenum Wiesel,Apeldoorn,Gelderland,VBO,5.967490,52.257277
Astaweg,9,,,7345DN,Wenum Wiesel,Apeldoorn,Gelderland,VBO,5.967760,52.256843
Astaweg,11,,,7345DN,Wenum Wiesel,Apeldoorn,Gelderland,VBO,5.967963,52.256690
Astaweg,13,,,7345DN,Wenum Wiesel,Apeldoorn,Gelderland,VBO,5.968201,52.256622
Astaweg,15,,,7345DN,Wenum Wiesel,Apeldoorn,Gelderland,VBO,5.968627,52.256419
Kathage,16,,,7345DN,Wenum Wiesel,Apeldoorn,Gelderland,VBO,5.968287,52.243405
Kathage,18,,,7345DN,Wenum Wiesel,Apeldoorn,Gelderland,VBO,5.968300,52.243600
Kathage,20,,,7345DN,Wenum Wiesel,Apeldoorn,Gelderland,VBO,5.967975,52.243441
Kathage,22,,,7345DN,Wenum Wiesel,Apeldoorn,Gelderland,VBO,5.967598,52.243430
Kathage,26,,,7345DN,Wenum Wiesel,Apeldoorn,Gelderland,VBO,5.966963,52.243448
Kathage,28,,,7345DN,Wenum Wiesel,Apeldoorn,Gelderland,VBO,5.966657,52.243457
Kathage,30,,,7345DN,Wenum Wiesel,Apeldoorn,Gelderland,VBO,5.966386,52.243466
De Wildkampen,7,,,7345DP,Wenum Wiesel,Apeldoorn,Gelderland,VBO,5.972365,52.258224
De Wildkampen,8,,,7345DP,Wenum Wiesel,Apeldoorn,Gelderland,VBO,5.973462,52.258732
De Wildkampen,10,,,7345DP,Wenum Wiesel,Apeldoorn,Gelderland,VBO,5.973458,52.258834
De Wildkampen,14,,,7345DP,Wenum Wiesel,Apeldoorn,Gelderland,VBO,5.973318,52.259574
De Wildkampen,19,,,7345DP,Wenum Wiesel,Apeldoorn,Gelderland,VBO,5.972018,52.260396
Veldmaterweg,9,,,7345DR,Wenum Wiesel,Apeldoorn,Gelderland,VBO,5.976920,52.257744
Veldmaterweg,10,,,7345DR,Wenum Wiesel,Apeldoorn,Gelderland,VBO,5.978709,52.257913
Veldmaterweg,12,,,7345DR,Wenum Wiesel,Apeldoorn,Gelderland,VBO,5.978710,52.258001
Veldmaterweg,13,,,7345DR,Wenum Wiesel,Apeldoorn,Gelderland,VBO,5.977558,52.259088
Veldmaterweg,53,,,7345DR,Wenum Wiesel,Apeldoorn,Gelderland,VBO,5.975405,52.264359
Marleweg,3,,,7345DS,Wenum Wiesel,Apeldoorn,Gelderland,VBO,5.954541,52.261741
Marleweg,57,,,7345DS,Wenum Wiesel,Apeldoorn,Gelderland,VBO,5.968316,52.261342
Marleweg,64,,,7345DS,Wenum Wiesel,Apeldoorn,Gelderland,VBO,5.972874,52.260700
Marleweg,68,,,7345DS,Wenum Wiesel,Apeldoorn,Gelderland,VBO,5.974074,52.260959
Marleweg,80,,,7345DS,Wenum Wiesel,Apeldoorn,Gelderland,VBO,5.979038,52.261640
Marleweg,90,,,7345DS,Wenum Wiesel,Apeldoorn,Gelderland,VBO,5.983931,52.262680
Nieuwe Molenweg,14,,,7345DS,Wenum Wiesel,Apeldoorn,Gelderland,VBO,5.960005,52.258572
Greutelseweg,1,,,7345DT,Wenum Wiesel,Apeldoorn,Gelderland,VBO,5.954972,52.265084
Greutelseweg,3,,,7345DT,Wenum Wiesel,Apeldoorn,Gelderland,VBO,5.954989,52.265015
Greutelseweg,7,,,7345DT,Wenum Wiesel,Apeldoorn,Gelderland,VBO,5.954407,52.264984
Greutelseweg,11,,,7345DT,Wenum Wiesel,Apeldoorn,Gelderland,VBO,5.953874,52.264836
Marleweg,4,,,7345DT,Wenum Wiesel,Apeldoorn,Gelderland,VBO,5.954636,52.261211
Marleweg,8,,,7345DT,Wenum Wiesel,Apeldoorn,Gelderland,VBO,5.955347,52.261316
Marleweg,16,,,7345DT,Wenum Wiesel,Apeldoorn,Gelderland,VBO,5.956857,52.261043
Marleweg,18,,,7345DT,Wenum Wiesel,Apeldoorn,Gelderland,VBO,5.957214,52.261267
Klein Cannenburgh,3,,,7345DV,Wenum Wiesel,Apeldoorn,Gelderland,VBO,5.952728,52.257390
Klein Cannenburgh,4,,,7345DV,Wenum Wiesel,Apeldoorn,Gelderland,VBO,5.953039,52.257021
Klein Cannenburgh,6,,,7345DV,Wenum Wiesel,Apeldoorn,Gelderland,VBO,5.953983,52.257185
Klein Cannenburgh,7,,,7345DV,Wenum Wiesel,Apeldoorn,Gelderland,VBO,5.953628,52.257787
Klein Cannenburgh,24,,,7345DV,Wenum Wiesel,Apeldoorn,Gelderland,VBO,5.957872,52.258284
Nieuwe Molenweg,11,,,7345DV,Wenum Wiesel,Apeldoorn,Gelderland,VBO,5.953268,52.259049
Nieuwe Molenweg,17,,,7345DV,Wenum Wiesel,Apeldoorn,Gelderland,VBO,5.960814,52.258981
Nieuwe Molenweg,19,,,7345DV,Wenum Wiesel,Apeldoorn,Gelderland,VBO,5.961602,52.258847
Ramsbrugweg,3,,,7345DW,Wenum Wiesel,Apeldoorn,Gelderland,VBO,5.958385,52.265925
Ramsbrugweg,6,,,7345DW,Wenum Wiesel,Apeldoorn,Gelderland,VBO,5.958884,52.265373
Ramsbrugweg,7,,,7345DW,Wenum Wiesel,Apeldoorn,Gelderland,VBO,5.960801,52.265946
Ramsbrugweg,12,,,7345DW,Wenum Wiesel,Apeldoorn,Gelderland,VBO,5.961841,52.265425
Ramsbrugweg,14,,,7345DW,Wenum Wiesel,Apeldoorn,Gelderland,VBO,5.961935,52.265412
Ramsbrugweg,28,,,7345DW,Wenum Wiesel,Apeldoorn,Gelderland,VBO,5.969580,52.264064
Ramsbrugweg,30,,,7345DW,Wenum Wiesel,Apeldoorn,Gelderland,VBO,5.969674,52.264075
Ramsbrugweg,33,,,7345DW,Wenum Wiesel,Apeldoorn,Gelderland,VBO,5.971239,52.264944
Ramsbrugweg,38,,,7345DW,Wenum Wiesel,Apeldoorn,Gelderland,VBO,5.973589,52.264324
Ramsbrugweg,42,,,7345DW,Wenum Wiesel,Apeldoorn,Gelderland,VBO,5.975419,52.264417
De Flesse,6,,,7345DX,Wenum Wiesel,Apeldoorn,Gelderland,VBO,5.974018,52.266370
De Flesse,9,,,7345DX,Wenum Wiesel,Apeldoorn,Gelderland,VBO,5.973356,52.266564
De Flesse,18,,,7345DX,Wenum Wiesel,Apeldoorn,Gelderland,VBO,5.973533,52.268937
Ramsbrugweg,41,,,7345DX,Wenum Wiesel,Apeldoorn,Gelderland,VBO,5.977172,52.264986
Ramsbrugweg,45,,,7345DX,Wenum Wiesel,Apeldoorn,Gelderland,VBO,5.979715,52.264757
Ramsbrugweg,46,,,7345DX,Wenum Wiesel,Apeldoorn,Gelderland,VBO,5.977884,52.263715
Ramsbrugweg,47,A,,7345DX,Wenum Wiesel,Apeldoorn,Gelderland,VBO,5.980525,52.264897
Ramsbrugweg,47,,,7345DX,Wenum Wiesel,Apeldoorn,Gelderland,VBO,5.980412,52.264890
Ramsbrugweg,48,,,7345DX,Wenum Wiesel,Apeldoorn,Gelderland,VBO,5.978559,52.263661
Ramsbrugweg,51,,,7345DX,Wenum Wiesel,Apeldoorn,Gelderland,VBO,5.981394,52.265316
Ramsbrugweg,52,,,7345DX,Wenum Wiesel,Apeldoorn,Gelderland,VBO,5.980535,52.264098
Ramsbrugweg,54,,,7345DX,Wenum Wiesel,Apeldoorn,Gelderland,VBO,5.982120,52.263436
Ramsbrugweg,55,,,7345DX,Wenum Wiesel,Apeldoorn,Gelderland,VBO,5.982862,52.265882
Kanaweg,8,,,7345DZ,Wenum Wiesel,Apeldoorn,Gelderland,VBO,5.984014,52.266570
Kanaweg,12,,,7345DZ,Wenum Wiesel,Apeldoorn,Gelderland,VBO,5.983812,52.267866
Kanaweg,15,,,7345DZ,Wenum Wiesel,Apeldoorn,Gelderland,VBO,5.978652,52.267849
Kanaweg,18,A,,7345DZ,Wenum Wiesel,Apeldoorn,Gelderland,VBO,5.979341,52.269359
Kanaweg,18,,,7345DZ,Wenum Wiesel,Apeldoorn,Gelderland,VBO,5.979331,52.269166
Kanaweg,18,,,7345DZ,Wenum Wiesel,Apeldoorn,Gelderland,VBO,5.979239,52.269148
Kanaweg,20,,,7345DZ,Wenum Wiesel,Apeldoorn,Gelderland,VBO,5.979145,52.270607
Kanaweg,21,,,7345DZ,Wenum Wiesel,Apeldoorn,Gelderland,VBO,5.977039,52.271468
Kanaweg,24,,,7345DZ,Wenum Wiesel,Apeldoorn,Gelderland,VBO,5.982326,52.272447
De Poel,1,,,7345EA,Wenum Wiesel,Apeldoorn,Gelderland,VBO,5.972468,52.273064
De Poel,3,A,,7345EA,Wenum Wiesel,Apeldoorn,Gelderland,VBO,5.977996,52.276994
De Poel,3,B,,7345EA,Wenum Wiesel,Apeldoorn,Gelderland,VBO,5.977990,52.276937
De Poel,3,C,,7345EA,Wenum Wiesel,Apeldoorn,Gelderland,VBO,5.977984,52.276795
De Poel,5,,,7345EA,Wenum Wiesel,Apeldoorn,Gelderland,VBO,5.978749,52.275426
De Poel,7,,,7345EA,Wenum Wiesel,Apeldoorn,Gelderland,VBO,5.979851,52.275105
De Poel,9,,,7345EA,Wenum Wiesel,Apeldoorn,Gelderland,VBO,5.980386,52.274065
De Poel,15,,,7345EA,Wenum Wiesel,Apeldoorn,Gelderland,VBO,5.981358,52.280637
Jonas,9,A,,7345EB,Wenum Wiesel,Apeldoorn,Gelderland,VBO,5.988531,52.284465
Jonas,9,,,7345EB,Wenum Wiesel,Apeldoorn,Gelderland,VBO,5.988413,52.284432
Jonas,12,,,7345EB,Wenum Wiesel,Apeldoorn,Gelderland,VBO,5.989182,52.283836
Jonas,13,,,7345EB,Wenum Wiesel,Apeldoorn,Gelderland,VBO,5.989842,52.284824
Jonas,15,,,7345EB,Wenum Wiesel,Apeldoorn,Gelderland,VBO,5.989935,52.284314
Jonas,16,,,7345EB,Wenum Wiesel,Apeldoorn,Gelderland,VBO,5.990248,52.283623
Jonas,19,,,7345EB,Wenum Wiesel,Apeldoorn,Gelderland,VBO,5.991749,52.285014
Jonas,23,,,7345EB,Wenum Wiesel,Apeldoorn,Gelderland,VBO,5.991129,52.285341
De Vennen,55,,,7345EC,Wenum Wiesel,Apeldoorn,Gelderland,VBO,5.946089,52.266505
De Vennen,60,,,7345EC,Wenum Wiesel,Apeldoorn,Gelderland,VBO,5.944428,52.266873
De Vennen,63,,,7345EC,Wenum Wiesel,Apeldoorn,Gelderland,VBO,5.944832,52.266292
Ridderweg,25,,,7345EC,Wenum Wiesel,Apeldoorn,Gelderland,VBO,5.950596,52.267348
Ridderweg,34,,,7345EC,Wenum Wiesel,Apeldoorn,Gelderland,VBO,5.951790,52.269515
Ridderweg,35,,,7345EC,Wenum Wiesel,Apeldoorn,Gelderland,VBO,5.950965,52.269502
Ridderweg,36,,,7345EC,Wenum Wiesel,Apeldoorn,Gelderland,VBO,5.951533,52.269681
Elburgerweg,1,,,7345ED,Wenum Wiesel,Apeldoorn,Gelderland,VBO,5.951872,52.258956
Elburgerweg,4,,,7345ED,Wenum Wiesel,Apeldoorn,Gelderland,VBO,5.951136,52.259944
Elburgerweg,6,,,7345ED,Wenum Wiesel,Apeldoorn,Gelderland,VBO,5.950638,52.260160
Elburgerweg,7,,,7345ED,Wenum Wiesel,Apeldoorn,Gelderland,VBO,5.949986,52.260029
Elburgerweg,12,,,7345ED,Wenum Wiesel,Apeldoorn,Gelderland,VBO,5.949084,52.261202
Elburgerweg,15,A,,7345ED,Wenum Wiesel,Apeldoorn,Gelderland,VBO,5.947699,52.260949
Elburgerweg,15,B,,7345ED,Wenum Wiesel,Apeldoorn,Gelderland,VBO,5.947755,52.261151
Elburgerweg,16,,,7345ED,Wenum Wiesel,Apeldoorn,Gelderland,VBO,5.949035,52.262204
Elburgerweg,18,,,7345ED,Wenum Wiesel,Apeldoorn,Gelderland,VBO,5.947451,52.261986
Elburgerweg,19,,,7345ED,Wenum Wiesel,Apeldoorn,Gelderland,VBO,5.946382,52.261727
Elburgerweg,21,,,7345ED,Wenum Wiesel,Apeldoorn,Gelderland,VBO,5.946861,52.261869
Elburgerweg,22,,,7345ED,Wenum Wiesel,Apeldoorn,Gelderland,VBO,5.946930,52.262473
Elburgerweg,24,,,7345ED,Wenum Wiesel,Apeldoorn,Gelderland,VBO,5.945818,52.263274
Elburgerweg,25,,,7345ED,Wenum Wiesel,Apeldoorn,Gelderland,VBO,5.944858,52.262882
Elburgerweg,26,,,7345ED,Wenum Wiesel,Apeldoorn,Gelderland,VBO,5.945357,52.263496
Elburgerweg,33,,,7345EE,Wenum Wiesel,Apeldoorn,Gelderland,VBO,5.943269,52.264092
Elburgerweg,44,,,7345EE,Wenum Wiesel,Apeldoorn,Gelderland,VBO,5.937621,52.268829
Elburgerweg,48,,,7345EE,Wenum Wiesel,Apeldoorn,Gelderland,VBO,5.936829,52.269703
Elburgerweg,53,,,7345EE,Wenum Wiesel,Apeldoorn,Gelderland,VBO,5.936889,52.268219
Elburgerweg,54,,,7345EE,Wenum Wiesel,Apeldoorn,Gelderland,VBO,5.935405,52.270685
Elburgerweg,55,,,7345EE,Wenum Wiesel,Apeldoorn,Gelderland,VBO,5.935925,52.269423
Elburgerweg,57,B,,7345EE,Wenum Wiesel,Apeldoorn,Gelderland,VBO,5.932007,52.271062
Elburgerweg,57,C,,7345EE,Wenum Wiesel,Apeldoorn,Gelderland,VBO,5.932238,52.271086
Elburgerweg,59,A,,7345EE,Wenum Wiesel,Apeldoorn,Gelderland,VBO,5.933367,52.270988
Elburgerweg,59,B,,7345EE,Wenum Wiesel,Apeldoorn,Gelderland,VBO,5.925744,52.269666
Elburgerweg,59,,,7345EE,Wenum Wiesel,Apeldoorn,Gelderland,VBO,5.933514,52.270872
Elburgerweg,60,,,7345EE,Wenum Wiesel,Apeldoorn,Gelderland,VBO,5.933752,52.271668
Elburgerweg,61,,,7345EE,Wenum Wiesel,Apeldoorn,Gelderland,VBO,5.932511,52.271859
Elburgerweg,63,,,7345EE,Wenum Wiesel,Apeldoorn,Gelderland,VBO,5.931999,52.272124
Elburgerweg,65,A,,7345EE,Wenum Wiesel,Apeldoorn,Gelderland,VBO,5.931005,52.272022
Elburgerweg,65,B,,7345EE,Wenum Wiesel,Apeldoorn,Gelderland,VBO,5.931025,52.272097
Elburgerweg,67,,,7345EE,Wenum Wiesel,Apeldoorn,Gelderland,VBO,5.927789,52.272321
Elburgerweg,68,,,7345EE,Wenum Wiesel,Apeldoorn,Gelderland,VBO,5.932595,52.273497
Elburgerweg,69,,,7345EE,Wenum Wiesel,Apeldoorn,Gelderland,VBO,5.931102,52.272879
Elburgerweg,70,,,7345EE,Wenum Wiesel,Apeldoorn,Gelderland,VBO,5.931619,52.273344
Berenbergh,2,,,7345EG,Wenum Wiesel,Apeldoorn,Gelderland,VBO,5.939306,52.268124
Berenbergh,4,,,7345EG,Wenum Wiesel,Apeldoorn,Gelderland,VBO,5.939029,52.268609
Berenbergh,6,,,7345EG,Wenum Wiesel,Apeldoorn,Gelderland,VBO,5.938254,52.269339
Elburgerweg,34,A,,7345EG,Wenum Wiesel,Apeldoorn,Gelderland,VBO,5.940841,52.266962
Elburgerweg,34,B,,7345EG,Wenum Wiesel,Apeldoorn,Gelderland,VBO,5.940478,52.267607
Elburgerweg,34,,,7345EG,Wenum Wiesel,Apeldoorn,Gelderland,VBO,5.940861,52.266729
Elburgerweg,40,,,7345EG,Wenum Wiesel,Apeldoorn,Gelderland,VBO,5.939173,52.267677
Elburgerweg,42,,,7345EG,Wenum Wiesel,Apeldoorn,Gelderland,VBO,5.938384,52.268161
Greutelseweg,14,,,7345EG,Wenum Wiesel,Apeldoorn,Gelderland,VBO,5.950271,52.264945
Greutelseweg,15,,,7345EG,Wenum Wiesel,Apeldoorn,Gelderland,VBO,5.950384,52.264334
Greutelseweg,16,,,7345EG,Wenum Wiesel,Apeldoorn,Gelderland,VBO,5.945914,52.264471
Greutelseweg,17,,,7345EG,Wenum Wiesel,Apeldoorn,Gelderland,VBO,5.948196,52.264251
Greutelseweg,18,,,7345EG,Wenum Wiesel,Apeldoorn,Gelderland,VBO,5.943429,52.264054
Windhoek,3,,,7345EH,Wenum Wiesel,Apeldoorn,Gelderland,VBO,5.932639,52.272833
Windhoek,5,,,7345EH,Wenum Wiesel,Apeldoorn,Gelderland,VBO,5.933434,52.272741
Windhoek,7,,,7345EH,Wenum Wiesel,Apeldoorn,Gelderland,VBO,5.934148,52.272676
Windhoek,9,,,7345EH,Wenum Wiesel,Apeldoorn,Gelderland,VBO,5.934879,52.272754
Windhoek,11,,,7345EH,Wenum Wiesel,Apeldoorn,Gelderland,VBO,5.934868,52.272695
Windhoek,18,,,7345EH,Wenum Wiesel,Apeldoorn,Gelderland,VBO,5.937311,52.271830
Windhoek,20,,,7345EH,Wenum Wiesel,Apeldoorn,Gelderland,VBO,5.937344,52.271995
Windhoek,21,,,7345EH,Wenum Wiesel,Apeldoorn,Gelderland,VBO,5.938043,52.272386
Windhoek,24,,,7345EH,Wenum Wiesel,Apeldoorn,Gelderland,VBO,5.943149,52.270025
Windhoek,28,,,7345EH,Wenum Wiesel,Apeldoorn,Gelderland,VBO,5.942555,52.268889
Windhoek,35,,,7345EH,Wenum Wiesel,Apeldoorn,Gelderland,VBO,5.942237,52.272262
Windhoek,39,,,7345EH,Wenum Wiesel,Apeldoorn,Gelderland,VBO,5.942736,52.272290
Windhoek,42,,,7345EH,Wenum Wiesel,Apeldoorn,Gelderland,VBO,5.944022,52.269503
Windhoek,45,,,7345EH,Wenum Wiesel,Apeldoorn,Gelderland,VBO,5.945229,52.272886
Windhoek,54,,,7345EH,Wenum Wiesel,Apeldoorn,Gelderland,VBO,5.947435,52.272439
Windhoek,55,,A,7345EH,Wenum Wiesel,Apeldoorn,Gelderland,VBO,5.947796,52.273144
Windhoek,55,,,7345EH,Wenum Wiesel,Apeldoorn,Gelderland,VBO,5.947649,52.273131
Windhoek,57,,,7345EH,Wenum Wiesel,Apeldoorn,Gelderland,VBO,5.948104,52.273237
Windhoek,98,,,7345EH,Wenum Wiesel,Apeldoorn,Gelderland,VBO,5.953504,52.272613
Hogekampweg,68,,,7345EJ,Wenum Wiesel,Apeldoorn,Gelderland,VBO,5.959843,52.240430
De Haere,238,,,7345EK,Wenum Wiesel,Apeldoorn,Gelderland,STA,5.955379,52.268637
De Haere,300,,,7345EK,Wenum Wiesel,Apeldoorn,Gelderland,VBO,5.951958,52.269634
De Haere,102,,,7345EL,Wenum Wiesel,Apeldoorn,Gelderland,STA,5.956747,52.270006
De Haere,104,,,7345EL,Wenum Wiesel,Apeldoorn,Gelderland,STA,5.956869,52.270096
De Haere,106,,,7345EL,Wenum Wiesel,Apeldoorn,Gelderland,STA,5.956992,52.270275
De Haere,108,,,7345EL,Wenum Wiesel,Apeldoorn,Gelderland,STA,5.956976,52.270392
De Haere,110,,,7345EL,Wenum Wiesel,Apeldoorn,Gelderland,STA,5.956958,52.270508
De Haere,112,,,7345EL,Wenum Wiesel,Apeldoorn,Gelderland,STA,5.956550,52.270565
De Haere,114,,,7345EL,Wenum Wiesel,Apeldoorn,Gelderland,STA,5.956263,52.270462
De Haere,116,,,7345EL,Wenum Wiesel,Apeldoorn,Gelderland,STA,5.956209,52.270282
De Haere,118,,,7345EL,Wenum Wiesel,Apeldoorn,Gelderland,STA,5.956226,52.270166
De Haere,120,,,7345EL,Wenum Wiesel,Apeldoorn,Gelderland,STA,5.956244,52.270050
De Haere,122,,,7345EL,Wenum Wiesel,Apeldoorn,Gelderland,STA,5.956261,52.269933
De Haere,124,,,7345EL,Wenum Wiesel,Apeldoorn,Gelderland,STA,5.955784,52.269906
De Haere,126,,,7345EL,Wenum Wiesel,Apeldoorn,Gelderland,STA,5.955767,52.270022
De Haere,128,,,7345EL,Wenum Wiesel,Apeldoorn,Gelderland,STA,5.955749,52.270139
De Haere,130,,,7345EL,Wenum Wiesel,Apeldoorn,Gelderland,STA,5.955731,52.270255
De Haere,132,,,7345EL,Wenum Wiesel,Apeldoorn,Gelderland,STA,5.955620,52.270423
De Haere,134,,,7345EL,Wenum Wiesel,Apeldoorn,Gelderland,STA,5.955311,52.270494
De Haere,136,,,7345EL,Wenum Wiesel,Apeldoorn,Gelderland,STA,5.954926,52.270392
De Haere,138,,,7345EL,Wenum Wiesel,Apeldoorn,Gelderland,STA,5.954944,52.270276
De Haere,140,,,7345EL,Wenum Wiesel,Apeldoorn,Gelderland,STA,5.954964,52.270159
De Haere,142,,,7345EL,Wenum Wiesel,Apeldoorn,Gelderland,STA,5.955139,52.269997
De Haere,144,,,7345EL,Wenum Wiesel,Apeldoorn,Gelderland,STA,5.955285,52.269923
De Haere,101,,,7345EM,Wenum Wiesel,Apeldoorn,Gelderland,STA,5.956019,52.269326
De Haere,103,,,7345EM,Wenum Wiesel,Apeldoorn,Gelderland,STA,5.956271,52.269308
De Haere,105,,,7345EM,Wenum Wiesel,Apeldoorn,Gelderland,STA,5.956461,52.269319
De Haere,107,,,7345EM,Wenum Wiesel,Apeldoorn,Gelderland,STA,5.956650,52.269329
De Haere,109,,,7345EM,Wenum Wiesel,Apeldoorn,Gelderland,STA,5.956940,52.269295
De Haere,111,,,7345EM,Wenum Wiesel,Apeldoorn,Gelderland,STA,5.957113,52.269121
De Haere,113,,,7345EM,Wenum Wiesel,Apeldoorn,Gelderland,STA,5.957019,52.268869
De Haere,115,,,7345EM,Wenum Wiesel,Apeldoorn,Gelderland,STA,5.956830,52.268859
De Haere,117,,,7345EM,Wenum Wiesel,Apeldoorn,Gelderland,STA,5.956641,52.268847
De Haere,119,,,7345EM,Wenum Wiesel,Apeldoorn,Gelderland,STA,5.956348,52.268925
De Haere,121,,,7345EM,Wenum Wiesel,Apeldoorn,Gelderland,STA,5.956201,52.269000
De Haere,123,,,7345EM,Wenum Wiesel,Apeldoorn,Gelderland,STA,5.955989,52.268603
De Haere,125,,,7345EM,Wenum Wiesel,Apeldoorn,Gelderland,STA,5.956179,52.268613
De Haere,127,,,7345EM,Wenum Wiesel,Apeldoorn,Gelderland,STA,5.956371,52.268620
De Haere,129,,,7345EM,Wenum Wiesel,Apeldoorn,Gelderland,STA,5.956676,52.268527
De Haere,131,,,7345EM,Wenum Wiesel,Apeldoorn,Gelderland,STA,5.956760,52.268356
De Haere,133,,,7345EM,Wenum Wiesel,Apeldoorn,Gelderland,STA,5.956734,52.268136
De Haere,135,,,7345EM,Wenum Wiesel,Apeldoorn,Gelderland,STA,5.956471,52.268096
De Haere,137,,,7345EM,Wenum Wiesel,Apeldoorn,Gelderland,STA,5.956280,52.268100
De Haere,139,,,7345EM,Wenum Wiesel,Apeldoorn,Gelderland,STA,5.955987,52.268170
De Haere,141,,,7345EM,Wenum Wiesel,Apeldoorn,Gelderland,STA,5.955841,52.268246
De Haere,143,,,7345EM,Wenum Wiesel,Apeldoorn,Gelderland,STA,5.955696,52.268321
De Haere,145,,,7345EM,Wenum Wiesel,Apeldoorn,Gelderland,STA,5.955375,52.268212
De Haere,147,,,7345EM,Wenum Wiesel,Apeldoorn,Gelderland,STA,5.955252,52.268123
De Haere,149,,,7345EM,Wenum Wiesel,Apeldoorn,Gelderland,STA,5.955129,52.268034
De Haere,151,,,7345EM,Wenum Wiesel,Apeldoorn,Gelderland,STA,5.954863,52.267927
De Haere,153,,,7345EM,Wenum Wiesel,Apeldoorn,Gelderland,STA,5.954673,52.267918
De Haere,155,,,7345EM,Wenum Wiesel,Apeldoorn,Gelderland,STA,5.954483,52.267908
De Haere,157,,,7345EM,Wenum Wiesel,Apeldoorn,Gelderland,STA,5.954322,52.268136
De Haere,159,,,7345EM,Wenum Wiesel,Apeldoorn,Gelderland,STA,5.954354,52.268384
De Haere,161,,,7345EM,Wenum Wiesel,Apeldoorn,Gelderland,STA,5.954633,52.268393
De Haere,163,,,7345EM,Wenum Wiesel,Apeldoorn,Gelderland,STA,5.954825,52.268406
De Haere,165,,,7345EM,Wenum Wiesel,Apeldoorn,Gelderland,STA,5.955014,52.268416
De Haere,167,,,7345EM,Wenum Wiesel,Apeldoorn,Gelderland,STA,5.955318,52.268947
De Haere,169,,,7345EM,Wenum Wiesel,Apeldoorn,Gelderland,STA,5.955169,52.268858
De Haere,171,,,7345EM,Wenum Wiesel,Apeldoorn,Gelderland,STA,5.954906,52.268749
De Haere,173,,,7345EM,Wenum Wiesel,Apeldoorn,Gelderland,STA,5.954716,52.268738
De Haere,175,,,7345EM,Wenum Wiesel,Apeldoorn,Gelderland,STA,5.954526,52.268727
De Haere,177,,,7345EM,Wenum Wiesel,Apeldoorn,Gelderland,STA,5.954360,52.268963
De Haere,179,,,7345EM,Wenum Wiesel,Apeldoorn,Gelderland,STA,5.954475,52.269153
De Haere,181,,,7345EM,Wenum Wiesel,Apeldoorn,Gelderland,STA,5.954750,52.269221
De Haere,183,,,7345EM,Wenum Wiesel,Apeldoorn,Gelderland,STA,5.954940,52.269232
De Haere,185,,,7345EM,Wenum Wiesel,Apeldoorn,Gelderland,STA,5.955129,52.269243
De Haere,187,,,7345EM,Wenum Wiesel,Apeldoorn,Gelderland,STA,5.955319,52.269253
Berenbergh,3,,,7345EN,Wenum Wiesel,Apeldoorn,Gelderland,VBO,5.937699,52.269113
Berenbergh,15,,,7345EN,Wenum Wiesel,Apeldoorn,Gelderland,VBO,5.937132,52.271399
Wenumseweg,30,,,7345GA,Wenum Wiesel,Apeldoorn,Gelderland,VBO,5.966400,52.245728
