openbareruimtenaam,huisnummer,huisletter,huisnummertoevoeging,postcode,woonplaatsnaam,gemeentenaam,provincienaam,typeadresseerbaarobject,longitude,latitude
Burelhul,1,,,7348BA,Radio Kootwijk,Apeldoorn,Gelderland,VBO,5.842312,52.169810
Burelhul,3,,,7348BA,Radio Kootwijk,Apeldoorn,Gelderland,VBO,5.842487,52.167545
Burelhul,5,,,7348BA,Radio Kootwijk,Apeldoorn,Gelderland,VBO,5.844737,52.165571
Hoog Buurlo,1,,,7348BB,Radio Kootwijk,Apeldoorn,Gelderland,VBO,5.847231,52.177918
Hoog Buurlo,3,,,7348BB,Radio Kootwijk,Apeldoorn,Gelderland,VBO,5.845486,52.178562
Hoog Buurlo,5,,,7348BB,Radio Kootwijk,Apeldoorn,Gelderland,VBO,5.846156,52.178572
Turfbergweg,28,,,7348BC,Radio Kootwijk,Apeldoorn,Gelderland,VBO,5.834202,52.177578
Turfbergweg,30,,,7348BC,Radio Kootwijk,Apeldoorn,Gelderland,VBO,5.834204,52.177623
Turfbergweg,32,,,7348BC,Radio Kootwijk,Apeldoorn,Gelderland,VBO,5.834242,52.177679
Turfbergweg,34,,,7348BC,Radio Kootwijk,Apeldoorn,Gelderland,VBO,5.834328,52.177705
Turfbergweg,36,,,7348BC,Radio Kootwijk,Apeldoorn,Gelderland,VBO,5.834273,52.177767
Turfbergweg,38,,,7348BC,Radio Kootwijk,Apeldoorn,Gelderland,VBO,5.834400,52.177786
Turfbergweg,40,,,7348BC,Radio Kootwijk,Apeldoorn,Gelderland,VBO,5.834618,52.177953
Turfbergweg,42,,,7348BC,Radio Kootwijk,Apeldoorn,Gelderland,VBO,5.834619,52.178022
Turfbergweg,44,,,7348BC,Radio Kootwijk,Apeldoorn,Gelderland,VBO,5.834728,52.178023
Turfbergweg,46,,,7348BC,Radio Kootwijk,Apeldoorn,Gelderland,VBO,5.834730,52.178088
Turfbergweg,48,,,7348BC,Radio Kootwijk,Apeldoorn,Gelderland,VBO,5.834826,52.178094
Turfbergweg,50,,,7348BC,Radio Kootwijk,Apeldoorn,Gelderland,VBO,5.834879,52.178131
Turfbergweg,97,,,7348BC,Radio Kootwijk,Apeldoorn,Gelderland,VBO,5.830960,52.183110
Turfbergweg,2,,,7348BD,Radio Kootwijk,Apeldoorn,Gelderland,VBO,5.838370,52.173096
Turfbergweg,4,,,7348BD,Radio Kootwijk,Apeldoorn,Gelderland,VBO,5.833833,52.175888
Turfbergweg,6,,,7348BD,Radio Kootwijk,Apeldoorn,Gelderland,VBO,5.833840,52.175945
Turfbergweg,8,,,7348BD,Radio Kootwijk,Apeldoorn,Gelderland,VBO,5.833850,52.176077
Turfbergweg,10,,,7348BD,Radio Kootwijk,Apeldoorn,Gelderland,VBO,5.833851,52.176129
Turfbergweg,12,,,7348BD,Radio Kootwijk,Apeldoorn,Gelderland,VBO,5.833865,52.176263
Turfbergweg,14,,,7348BD,Radio Kootwijk,Apeldoorn,Gelderland,VBO,5.833870,52.176309
Turfbergweg,16,,,7348BD,Radio Kootwijk,Apeldoorn,Gelderland,VBO,5.833886,52.177143
Turfbergweg,18,,,7348BD,Radio Kootwijk,Apeldoorn,Gelderland,VBO,5.833908,52.177195
Turfbergweg,20,,,7348BD,Radio Kootwijk,Apeldoorn,Gelderland,VBO,5.833982,52.177240
Turfbergweg,22,,,7348BD,Radio Kootwijk,Apeldoorn,Gelderland,VBO,5.834005,52.177292
Turfbergweg,24,,,7348BD,Radio Kootwijk,Apeldoorn,Gelderland,VBO,5.833986,52.177359
Turfbergweg,26,,,7348BD,Radio Kootwijk,Apeldoorn,Gelderland,VBO,5.834008,52.177413
Turfbergweg,5,,,7348BE,Radio Kootwijk,Apeldoorn,Gelderland,VBO,5.833168,52.174113
Radioweg,1,A,,7348BG,Radio Kootwijk,Apeldoorn,Gelderland,VBO,5.810719,52.186446
Radioweg,1,B,,7348BG,Radio Kootwijk,Apeldoorn,Gelderland,VBO,5.818662,52.173371
Radioweg,1,E,,7348BG,Radio Kootwijk,Apeldoorn,Gelderland,VBO,5.824361,52.174928
Radioweg,1,G,,7348BG,Radio Kootwijk,Apeldoorn,Gelderland,VBO,5.825653,52.174989
Radioweg,1,K,,7348BG,Radio Kootwijk,Apeldoorn,Gelderland,VBO,5.825977,52.173467
Radioweg,1,N,,7348BG,Radio Kootwijk,Apeldoorn,Gelderland,VBO,5.825429,52.173163
Radioweg,1,P,,7348BG,Radio Kootwijk,Apeldoorn,Gelderland,VBO,5.822165,52.173550
Radioweg,3,,,7348BG,Radio Kootwijk,Apeldoorn,Gelderland,VBO,5.825932,52.174804
Radioweg,5,,,7348BG,Radio Kootwijk,Apeldoorn,Gelderland,VBO,5.826047,52.174818
Radioweg,7,,,7348BG,Radio Kootwijk,Apeldoorn,Gelderland,VBO,5.826156,52.174834
Radioweg,9,,,7348BG,Radio Kootwijk,Apeldoorn,Gelderland,VBO,5.826739,52.174697
Radioweg,11,,,7348BG,Radio Kootwijk,Apeldoorn,Gelderland,VBO,5.828382,52.175072
Radioweg,13,,,7348BG,Radio Kootwijk,Apeldoorn,Gelderland,VBO,5.829391,52.175306
Radioweg,21,,,7348BG,Radio Kootwijk,Apeldoorn,Gelderland,VBO,5.830402,52.175778
Radioweg,2,,,7348BH,Radio Kootwijk,Apeldoorn,Gelderland,VBO,5.828184,52.174310
Radioweg,6,,,7348BH,Radio Kootwijk,Apeldoorn,Gelderland,VBO,5.829652,52.174812
Radioweg,22,,,7348BH,Radio Kootwijk,Apeldoorn,Gelderland,VBO,5.832088,52.176185
Radioweg,24,,,7348BH,Radio Kootwijk,Apeldoorn,Gelderland,VBO,5.832161,52.176223
Radioweg,26,,,7348BH,Radio Kootwijk,Apeldoorn,Gelderland,VBO,5.832384,52.176359
Radioweg,28,,,7348BH,Radio Kootwijk,Apeldoorn,Gelderland,VBO,5.832450,52.176396
Gerritsflesweg,1,,,7348BJ,Radio Kootwijk,Apeldoorn,Gelderland,VBO,5.827479,52.165728
Gerritsflesweg,3,,,7348BJ,Radio Kootwijk,Apeldoorn,Gelderland,VBO,5.826178,52.166200
Gerritsflesweg,5,,,7348BJ,Radio Kootwijk,Apeldoorn,Gelderland,VBO,5.826415,52.166486
Gerritsflesweg,7,,,7348BJ,Radio Kootwijk,Apeldoorn,Gelderland,VBO,5.826337,52.166758
Gerritsflesweg,9,,,7348BJ,Radio Kootwijk,Apeldoorn,Gelderland,VBO,5.826160,52.166888
Gerritsflesweg,11,,,7348BJ,Radio Kootwijk,Apeldoorn,Gelderland,VBO,5.825878,52.167129
Gerritsflesweg,13,,,7348BJ,Radio Kootwijk,Apeldoorn,Gelderland,VBO,5.825625,52.166816
Gerritsflesweg,15,,,7348BJ,Radio Kootwijk,Apeldoorn,Gelderland,VBO,5.825226,52.166270
Gerritsflesweg,17,,,7348BJ,Radio Kootwijk,Apeldoorn,Gelderland,VBO,5.824852,52.166072
Gerritsflesweg,19,,,7348BJ,Radio Kootwijk,Apeldoorn,Gelderland,VBO,5.824194,52.165500
Gerritsflesweg,21,,,7348BJ,Radio Kootwijk,Apeldoorn,Gelderland,VBO,5.824491,52.165422
Gerritsflesweg,23,,,7348BJ,Radio Kootwijk,Apeldoorn,Gelderland,VBO,5.824445,52.165369
Gerritsflesweg,25,,,7348BJ,Radio Kootwijk,Apeldoorn,Gelderland,VBO,5.824710,52.165335
Gerritsflesweg,27,,,7348BJ,Radio Kootwijk,Apeldoorn,Gelderland,VBO,5.822796,52.164126
Rijksweg A1,738,,,7348BK,Radio Kootwijk,Apeldoorn,Gelderland,VBO,5.834657,52.195658
Alverschotenseweg,100,,,7348BL,Radio Kootwijk,Apeldoorn,Gelderland,VBO,5.829934,52.197717
Pomphulweg,196,,,7348BN,Radio Kootwijk,Apeldoorn,Gelderland,VBO,5.815842,52.200407
Pomphulweg,200,,,7348BN,Radio Kootwijk,Apeldoorn,Gelderland,VBO,5.814115,52.199855
