openbareruimtenaam,huisnummer,huisletter,huisnummertoevoeging,postcode,woonplaatsnaam,gemeentenaam,provincienaam,typeadresseerbaarobject,longitude,latitude
Dalkweg,2,,,7382AA,Klarenbeek,Voorst,Gelderland,VBO,6.068020,52.170909
Dalkweg,3,,,7382AA,Klarenbeek,Voorst,Gelderland,VBO,6.066020,52.170809
Dalkweg,5,,,7382AA,Klarenbeek,Voorst,Gelderland,VBO,6.065766,52.170813
Dalkweg,8,,,7382AA,Klarenbeek,Voorst,Gelderland,VBO,6.064176,52.171315
Dalkweg,10,,,7382AA,Klarenbeek,Voorst,Gelderland,VBO,6.063792,52.171308
Broekstraat,3,,,7382AB,Klarenbeek,Voorst,Gelderland,VBO,6.064749,52.192691
Broekstraat,4,,,7382AB,Klarenbeek,Voorst,Gelderland,VBO,6.064378,52.193967
Broekstraat,5,,,7382AB,Klarenbeek,Voorst,Gelderland,VBO,6.064749,52.192587
Broekstraat,6,,,7382AB,Klarenbeek,Voorst,Gelderland,VBO,6.064368,52.193884
Broekstraat,7,A,,7382AB,Klarenbeek,Voorst,Gelderland,VBO,6.067041,52.188438
Broekstraat,7,,,7382AB,Klarenbeek,Voorst,Gelderland,VBO,6.067158,52.188417
Broekstraat,8,A,,7382AB,Klarenbeek,Voorst,Gelderland,VBO,6.063040,52.191578
Broekstraat,8,,,7382AB,Klarenbeek,Voorst,Gelderland,VBO,6.063143,52.191573
Broekstraat,9,A,,7382AB,Klarenbeek,Voorst,Gelderland,VBO,6.063903,52.188166
Broekstraat,9,,,7382AB,Klarenbeek,Voorst,Gelderland,VBO,6.067122,52.188324
Broekstraat,10,,,7382AB,Klarenbeek,Voorst,Gelderland,VBO,6.061452,52.191424
Broekstraat,11,,,7382AB,Klarenbeek,Voorst,Gelderland,VBO,6.066026,52.187066
Broekstraat,12,A,,7382AB,Klarenbeek,Voorst,Gelderland,VBO,6.060648,52.191165
Broekstraat,12,,,7382AB,Klarenbeek,Voorst,Gelderland,VBO,6.060751,52.191219
Broekstraat,13,,,7382AB,Klarenbeek,Voorst,Gelderland,VBO,6.066004,52.186953
Broekstraat,14,A,,7382AB,Klarenbeek,Voorst,Gelderland,VBO,6.063228,52.190771
Broekstraat,14,,,7382AB,Klarenbeek,Voorst,Gelderland,VBO,6.063212,52.190721
Broekstraat,15,,,7382AB,Klarenbeek,Voorst,Gelderland,VBO,6.063343,52.185708
Broekstraat,16,,,7382AB,Klarenbeek,Voorst,Gelderland,VBO,6.058801,52.190914
Broekstraat,17,,,7382AB,Klarenbeek,Voorst,Gelderland,VBO,6.063196,52.185350
Broekstraat,18,,,7382AB,Klarenbeek,Voorst,Gelderland,VBO,6.060563,52.185972
Broekstraat,21,,,7382AB,Klarenbeek,Voorst,Gelderland,VBO,6.061625,52.184025
Broekstraat,22,A,,7382AB,Klarenbeek,Voorst,Gelderland,VBO,6.060499,52.184115
Broekstraat,22,,,7382AB,Klarenbeek,Voorst,Gelderland,VBO,6.060584,52.184151
Bruggekampsweg,1,,,7382AB,Klarenbeek,Voorst,Gelderland,VBO,6.067831,52.191044
Broekstraat,25,,,7382AC,Klarenbeek,Voorst,Gelderland,VBO,6.063356,52.178052
Broekstraat,26,,,7382AC,Klarenbeek,Voorst,Gelderland,VBO,6.057289,52.181141
Broekstraat,27,,,7382AC,Klarenbeek,Voorst,Gelderland,VBO,6.064098,52.176591
Broekstraat,28,,,7382AC,Klarenbeek,Voorst,Gelderland,VBO,6.058068,52.180529
Broekstraat,29,A,,7382AC,Klarenbeek,Voorst,Gelderland,VBO,6.065152,52.175797
Broekstraat,29,,,7382AC,Klarenbeek,Voorst,Gelderland,VBO,6.064912,52.176002
Broekstraat,30,,,7382AC,Klarenbeek,Voorst,Gelderland,VBO,6.057098,52.178623
Broekstraat,31,A,,7382AC,Klarenbeek,Voorst,Gelderland,VBO,6.066844,52.174575
Broekstraat,31,B,,7382AC,Klarenbeek,Voorst,Gelderland,VBO,6.066923,52.174528
Broekstraat,31,,0002,7382AC,Klarenbeek,Voorst,Gelderland,VBO,6.065532,52.175691
Broekstraat,31,,,7382AC,Klarenbeek,Voorst,Gelderland,VBO,6.065977,52.175876
Broekstraat,32,A,,7382AC,Klarenbeek,Voorst,Gelderland,VBO,6.059923,52.179163
Broekstraat,32,,,7382AC,Klarenbeek,Voorst,Gelderland,VBO,6.059985,52.179111
Broekstraat,34,,,7382AC,Klarenbeek,Voorst,Gelderland,VBO,6.060693,52.177377
Henkenburgweg,1,,,7382AC,Klarenbeek,Voorst,Gelderland,VBO,6.075692,52.175639
Henkenburgweg,3,,,7382AC,Klarenbeek,Voorst,Gelderland,VBO,6.069161,52.174594
Henkenburgweg,4,,,7382AC,Klarenbeek,Voorst,Gelderland,VBO,6.064559,52.173961
Henkenburgweg,5,,,7382AC,Klarenbeek,Voorst,Gelderland,VBO,6.066873,52.174012
Broekstraat,33,A,,7382AD,Klarenbeek,Voorst,Gelderland,VBO,6.067724,52.173883
Broekstraat,33,B,,7382AD,Klarenbeek,Voorst,Gelderland,VBO,6.068083,52.173704
Broekstraat,33,,,7382AD,Klarenbeek,Voorst,Gelderland,VBO,6.067687,52.173922
Broekstraat,35,,,7382AD,Klarenbeek,Voorst,Gelderland,VBO,6.068242,52.173536
Broekstraat,37,,,7382AD,Klarenbeek,Voorst,Gelderland,VBO,6.068640,52.173392
Broekstraat,39,,,7382AD,Klarenbeek,Voorst,Gelderland,VBO,6.069207,52.173235
Broekstraat,40,,,7382AD,Klarenbeek,Voorst,Gelderland,VBO,6.068992,52.172320
Broekstraat,41,A,,7382AD,Klarenbeek,Voorst,Gelderland,VBO,6.068791,52.173053
Broekstraat,41,,,7382AD,Klarenbeek,Voorst,Gelderland,VBO,6.069116,52.173188
Broekstraat,42,A,,7382AD,Klarenbeek,Voorst,Gelderland,VBO,6.068571,52.171839
Broekstraat,42,,,7382AD,Klarenbeek,Voorst,Gelderland,VBO,6.069194,52.172147
Broekstraat,43,,,7382AD,Klarenbeek,Voorst,Gelderland,VBO,6.068896,52.172940
Broekstraat,44,,,7382AD,Klarenbeek,Voorst,Gelderland,VBO,6.069501,52.172037
Broekstraat,45,,,7382AD,Klarenbeek,Voorst,Gelderland,VBO,6.068996,52.172866
Broekstraat,46,,,7382AD,Klarenbeek,Voorst,Gelderland,VBO,6.069551,52.171919
Broekstraat,47,,,7382AD,Klarenbeek,Voorst,Gelderland,VBO,6.069124,52.172765
Broekstraat,49,,,7382AD,Klarenbeek,Voorst,Gelderland,VBO,6.069212,52.172696
Broekstraat,51,,,7382AD,Klarenbeek,Voorst,Gelderland,VBO,6.069326,52.172607
Broekstraat,53,,,7382AD,Klarenbeek,Voorst,Gelderland,VBO,6.069386,52.172572
Broekstraat,55,,,7382AD,Klarenbeek,Voorst,Gelderland,VBO,6.069460,52.172467
Broekstraat,57,,,7382AD,Klarenbeek,Voorst,Gelderland,VBO,6.069517,52.172429
Broekstraat,59,,,7382AD,Klarenbeek,Voorst,Gelderland,VBO,6.069631,52.172360
Broekstraat,61,,,7382AD,Klarenbeek,Voorst,Gelderland,VBO,6.069667,52.172303
Broekstraat,63,,,7382AD,Klarenbeek,Voorst,Gelderland,VBO,6.069825,52.172203
Broekstraat,65,,,7382AD,Klarenbeek,Voorst,Gelderland,VBO,6.069876,52.172156
Henkenburgweg,2,A,,7382AE,Klarenbeek,Voorst,Gelderland,VBO,6.071455,52.175550
Henkenburgweg,2,,,7382AE,Klarenbeek,Voorst,Gelderland,VBO,6.076216,52.176631
Verlengde Broekstraat,3,,,7382AG,Klarenbeek,Voorst,Gelderland,VBO,6.050980,52.186698
Verlengde Broekstraat,4,,,7382AG,Klarenbeek,Voorst,Gelderland,VBO,6.051098,52.185851
Verlengde Broekstraat,7,,,7382AG,Klarenbeek,Voorst,Gelderland,VBO,6.055726,52.183000
Verlengde Broekstraat,8,A,,7382AG,Klarenbeek,Voorst,Gelderland,VBO,6.050971,52.183683
Verlengde Broekstraat,8,,,7382AG,Klarenbeek,Voorst,Gelderland,VBO,6.051176,52.183726
Verlengde Broekstraat,12,,,7382AG,Klarenbeek,Voorst,Gelderland,VBO,6.052976,52.183530
de Kar,1,,,7382AH,Klarenbeek,Voorst,Gelderland,VBO,6.056272,52.195828
de Kar,5,A,,7382AH,Klarenbeek,Voorst,Gelderland,VBO,6.054232,52.194428
de Kar,5,,,7382AH,Klarenbeek,Voorst,Gelderland,VBO,6.054220,52.194378
de Kar,9,,,7382AH,Klarenbeek,Voorst,Gelderland,VBO,6.056358,52.191999
de Kar,11,A,,7382AH,Klarenbeek,Voorst,Gelderland,VBO,6.052459,52.190595
de Kar,11,B,,7382AH,Klarenbeek,Voorst,Gelderland,VBO,6.052284,52.190214
de Kar,13,,,7382AH,Klarenbeek,Voorst,Gelderland,VBO,6.053995,52.189268
de Kar,15,,,7382AH,Klarenbeek,Voorst,Gelderland,VBO,6.051805,52.189511
Oude Apeldoornseweg,2,A,,7382AJ,Klarenbeek,Voorst,Gelderland,VBO,6.062306,52.196611
Oude Apeldoornseweg,2,,,7382AJ,Klarenbeek,Voorst,Gelderland,VBO,6.062468,52.196621
Zutphenseweg,1,A,,7382AJ,Klarenbeek,Voorst,Gelderland,VBO,6.058017,52.196950
Zutphenseweg,1,,,7382AJ,Klarenbeek,Voorst,Gelderland,VBO,6.058012,52.196964
Zutphenseweg,3,A,,7382AJ,Klarenbeek,Voorst,Gelderland,VBO,6.059438,52.196617
Zutphenseweg,3,,,7382AJ,Klarenbeek,Voorst,Gelderland,VBO,6.059385,52.196605
Zutphenseweg,7,A,,7382AJ,Klarenbeek,Voorst,Gelderland,VBO,6.061183,52.196154
Zutphenseweg,7,,,7382AJ,Klarenbeek,Voorst,Gelderland,VBO,6.061113,52.196165
Zutphenseweg,11,,,7382AJ,Klarenbeek,Voorst,Gelderland,VBO,6.061991,52.195732
Zutphenseweg,15,A,,7382AJ,Klarenbeek,Voorst,Gelderland,VBO,6.063971,52.195231
Zutphenseweg,15,,,7382AJ,Klarenbeek,Voorst,Gelderland,VBO,6.063820,52.195238
Zutphenseweg,17,,,7382AJ,Klarenbeek,Voorst,Gelderland,VBO,6.064369,52.195078
Zutphenseweg,19,,,7382AK,Klarenbeek,Voorst,Gelderland,VBO,6.064826,52.194887
Zutphenseweg,21,A,,7382AK,Klarenbeek,Voorst,Gelderland,VBO,6.066053,52.194834
Zutphenseweg,21,,,7382AK,Klarenbeek,Voorst,Gelderland,VBO,6.065299,52.195004
Zutphenseweg,22,A,,7382AK,Klarenbeek,Voorst,Gelderland,VBO,6.072869,52.191937
Zutphenseweg,22,,,7382AK,Klarenbeek,Voorst,Gelderland,VBO,6.072692,52.191967
Zutphenseweg,23,A,,7382AK,Klarenbeek,Voorst,Gelderland,VBO,6.066722,52.194535
Zutphenseweg,23,,,7382AK,Klarenbeek,Voorst,Gelderland,VBO,6.066571,52.194604
Zutphenseweg,25,,,7382AK,Klarenbeek,Voorst,Gelderland,VBO,6.067148,52.194475
Zutphenseweg,27,,,7382AK,Klarenbeek,Voorst,Gelderland,VBO,6.067433,52.194450
Zutphenseweg,31,A,,7382AK,Klarenbeek,Voorst,Gelderland,VBO,6.072070,52.193885
Zutphenseweg,31,,,7382AK,Klarenbeek,Voorst,Gelderland,VBO,6.072143,52.193807
Zutphenseweg,33,A,,7382AK,Klarenbeek,Voorst,Gelderland,VBO,6.075255,52.193270
Zutphenseweg,33,,,7382AK,Klarenbeek,Voorst,Gelderland,VBO,6.074969,52.192810
Zutphenseweg,35,,,7382AK,Klarenbeek,Voorst,Gelderland,VBO,6.075893,52.192792
Zutphenseweg,39,T,,7382AK,Klarenbeek,Voorst,Gelderland,VBO,6.078707,52.192079
Zutphenseweg,41,,,7382AK,Klarenbeek,Voorst,Gelderland,VBO,6.079670,52.191932
Zutphenseweg,45,,,7382AK,Klarenbeek,Voorst,Gelderland,VBO,6.084814,52.191715
Zutphenseweg,47,,,7382AK,Klarenbeek,Voorst,Gelderland,VBO,6.087064,52.190176
Broekstraat,1,,,7382AL,Klarenbeek,Voorst,Gelderland,VBO,6.064897,52.194542
Zutphenseweg,2,,,7382AL,Klarenbeek,Voorst,Gelderland,VBO,6.059079,52.195917
Zutphenseweg,4,A,,7382AL,Klarenbeek,Voorst,Gelderland,VBO,6.060112,52.195341
Zutphenseweg,4,B,,7382AL,Klarenbeek,Voorst,Gelderland,VBO,6.060434,52.195291
Zutphenseweg,4,,,7382AL,Klarenbeek,Voorst,Gelderland,VBO,6.060045,52.195358
Zutphenseweg,6,A,,7382AL,Klarenbeek,Voorst,Gelderland,VBO,6.060819,52.194249
Zutphenseweg,6,B,,7382AL,Klarenbeek,Voorst,Gelderland,VBO,6.060840,52.194474
Zutphenseweg,6,C,,7382AL,Klarenbeek,Voorst,Gelderland,VBO,6.060825,52.194367
Zutphenseweg,6,D,,7382AL,Klarenbeek,Voorst,Gelderland,VBO,6.060538,52.194228
Zutphenseweg,6,,,7382AL,Klarenbeek,Voorst,Gelderland,VBO,6.061183,52.195251
Zutphenseweg,8,A,,7382AL,Klarenbeek,Voorst,Gelderland,VBO,6.060053,52.193330
Zutphenseweg,8,,,7382AL,Klarenbeek,Voorst,Gelderland,VBO,6.060568,52.193289
Zutphenseweg,10,,,7382AL,Klarenbeek,Voorst,Gelderland,VBO,6.061682,52.195033
Zutphenseweg,12,,,7382AL,Klarenbeek,Voorst,Gelderland,VBO,6.063647,52.194838
Zutphenseweg,14,,,7382AL,Klarenbeek,Voorst,Gelderland,VBO,6.064009,52.194734
Zutphenseweg,16,,,7382AL,Klarenbeek,Voorst,Gelderland,VBO,6.064937,52.194599
Zutphenseweg,26,,,7382AM,Klarenbeek,Voorst,Gelderland,VBO,6.081364,52.190415
Zutphenseweg,30,,,7382AM,Klarenbeek,Voorst,Gelderland,VBO,6.081881,52.188574
Zutphenseweg,32,,,7382AM,Klarenbeek,Voorst,Gelderland,VBO,6.083884,52.189974
Zutphenseweg,34,,,7382AM,Klarenbeek,Voorst,Gelderland,VBO,6.083996,52.189999
Zutphenseweg,36,,,7382AM,Klarenbeek,Voorst,Gelderland,VBO,6.084753,52.189991
Zutphenseweg,38,,,7382AM,Klarenbeek,Voorst,Gelderland,VBO,6.087001,52.189283
Zutphenseweg,40,,,7382AM,Klarenbeek,Voorst,Gelderland,VBO,6.089620,52.188919
Zutphenseweg,42,,,7382AM,Klarenbeek,Voorst,Gelderland,VBO,6.090423,52.188727
Zutphenseweg,44,,,7382AM,Klarenbeek,Voorst,Gelderland,VBO,6.091116,52.188658
Zutphenseweg,46,,,7382AM,Klarenbeek,Voorst,Gelderland,VBO,6.092075,52.188417
Zutphenseweg,48,,,7382AM,Klarenbeek,Voorst,Gelderland,VBO,6.092273,52.188434
Zutphenseweg,50,A,,7382AM,Klarenbeek,Voorst,Gelderland,VBO,6.102248,52.186836
Zutphenseweg,50,,,7382AM,Klarenbeek,Voorst,Gelderland,VBO,6.102222,52.186779
Bruggekampsweg,2,,,7382AN,Klarenbeek,Voorst,Gelderland,VBO,6.072291,52.190738
Goorweg,1,,,7382AN,Klarenbeek,Voorst,Gelderland,VBO,6.074732,52.191830
Goorweg,3,A,,7382AN,Klarenbeek,Voorst,Gelderland,VBO,6.075108,52.190190
Goorweg,3,,,7382AN,Klarenbeek,Voorst,Gelderland,VBO,6.075027,52.190175
Goorweg,4,,,7382AN,Klarenbeek,Voorst,Gelderland,VBO,6.073386,52.189788
Goorweg,7,A,,7382AN,Klarenbeek,Voorst,Gelderland,VBO,6.076657,52.189117
Goorweg,7,B,,7382AN,Klarenbeek,Voorst,Gelderland,VBO,6.076749,52.189022
Goorweg,7,,,7382AN,Klarenbeek,Voorst,Gelderland,VBO,6.076755,52.189131
Goorweg,8,,,7382AP,Klarenbeek,Voorst,Gelderland,VBO,6.075931,52.184067
Goorweg,10,,,7382AP,Klarenbeek,Voorst,Gelderland,VBO,6.076428,52.183287
Goorweg,13,,,7382AP,Klarenbeek,Voorst,Gelderland,VBO,6.076705,52.184921
Goorweg,14,,,7382AP,Klarenbeek,Voorst,Gelderland,VBO,6.076441,52.182781
Goorweg,16,,,7382AP,Klarenbeek,Voorst,Gelderland,VBO,6.076568,52.182347
Goorweg,17,,,7382AP,Klarenbeek,Voorst,Gelderland,VBO,6.076892,52.183577
Goorweg,22,,,7382AP,Klarenbeek,Voorst,Gelderland,VBO,6.076769,52.179708
Goorweg,26,,,7382AP,Klarenbeek,Voorst,Gelderland,VBO,6.076684,52.178656
Oude Broekstraat,2,,,7382AR,Klarenbeek,Voorst,Gelderland,VBO,6.067050,52.184847
Oude Broekstraat,4,,,7382AR,Klarenbeek,Voorst,Gelderland,VBO,6.067856,52.184858
Oude Broekstraat,5,,,7382AR,Klarenbeek,Voorst,Gelderland,VBO,6.069722,52.185170
Oude Broekstraat,8,,,7382AR,Klarenbeek,Voorst,Gelderland,VBO,6.067972,52.182623
Oude Broekstraat,12,A,,7382AR,Klarenbeek,Voorst,Gelderland,VBO,6.074373,52.183682
Oude Broekstraat,12,,,7382AR,Klarenbeek,Voorst,Gelderland,VBO,6.071936,52.183911
Oude Broekstraat,16,,,7382AR,Klarenbeek,Voorst,Gelderland,VBO,6.073259,52.184058
Vorstersweg,1,A,,7382AS,Klarenbeek,Voorst,Gelderland,VBO,6.078640,52.185524
Vorstersweg,1,,,7382AS,Klarenbeek,Voorst,Gelderland,VBO,6.079241,52.185729
Vorstersweg,3,A,,7382AS,Klarenbeek,Voorst,Gelderland,VBO,6.080285,52.186561
Vorstersweg,3,,,7382AS,Klarenbeek,Voorst,Gelderland,VBO,6.080326,52.186482
Vorstersweg,6,,,7382AS,Klarenbeek,Voorst,Gelderland,VBO,6.083431,52.186396
Vorstersweg,8,,,7382AS,Klarenbeek,Voorst,Gelderland,VBO,6.084070,52.186582
Korte Struikenveenweg,2,A,,7382BA,Klarenbeek,Voorst,Gelderland,VBO,6.095055,52.186355
Korte Struikenveenweg,2,B,,7382BA,Klarenbeek,Voorst,Gelderland,VBO,6.094977,52.186364
Korte Struikenveenweg,2,,,7382BA,Klarenbeek,Voorst,Gelderland,VBO,6.094545,52.185947
Struikenveenweg,2,,,7382BB,Klarenbeek,Voorst,Gelderland,VBO,6.093824,52.184689
Struikenveenweg,3,,,7382BB,Klarenbeek,Voorst,Gelderland,VBO,6.098557,52.182509
Koperdijk,3,,,7382BC,Klarenbeek,Voorst,Gelderland,VBO,6.088486,52.180270
Koperdijk,4,A,,7382BC,Klarenbeek,Voorst,Gelderland,VBO,6.087387,52.179377
Koperdijk,4,,,7382BC,Klarenbeek,Voorst,Gelderland,VBO,6.087447,52.179394
Koperdijk,5,,,7382BC,Klarenbeek,Voorst,Gelderland,VBO,6.088745,52.179511
Heideparkweg,4,,,7382BD,Klarenbeek,Voorst,Gelderland,VBO,6.077136,52.173639
Heideparkweg,6,,,7382BD,Klarenbeek,Voorst,Gelderland,VBO,6.077535,52.173789
Hoofdweg,3,A,,7382BD,Klarenbeek,Voorst,Gelderland,VBO,6.093957,52.179602
Hoofdweg,3,,,7382BD,Klarenbeek,Voorst,Gelderland,VBO,6.094085,52.179644
Hoofdweg,5,A,,7382BD,Klarenbeek,Voorst,Gelderland,VBO,6.090000,52.176530
Hoofdweg,5,B,,7382BD,Klarenbeek,Voorst,Gelderland,VBO,6.090058,52.179065
Hoofdweg,5,,,7382BD,Klarenbeek,Voorst,Gelderland,VBO,6.090219,52.179108
Hoofdweg,7,,,7382BD,Klarenbeek,Voorst,Gelderland,VBO,6.087168,52.178418
Hoofdweg,9,,,7382BD,Klarenbeek,Voorst,Gelderland,VBO,6.087090,52.178409
Hoofdweg,11,,,7382BD,Klarenbeek,Voorst,Gelderland,VBO,6.084110,52.177971
Hoofdweg,13,,,7382BD,Klarenbeek,Voorst,Gelderland,VBO,6.085777,52.176069
Hoofdweg,15,A,,7382BD,Klarenbeek,Voorst,Gelderland,VBO,6.085787,52.176546
Hoofdweg,15,,,7382BD,Klarenbeek,Voorst,Gelderland,VBO,6.085854,52.176567
Hoofdweg,17,A,,7382BD,Klarenbeek,Voorst,Gelderland,VBO,6.086069,52.176863
Hoofdweg,17,,,7382BD,Klarenbeek,Voorst,Gelderland,VBO,6.085811,52.176757
Hoofdweg,19,,,7382BD,Klarenbeek,Voorst,Gelderland,VBO,6.080314,52.177062
Hoofdweg,21,,,7382BE,Klarenbeek,Voorst,Gelderland,VBO,6.076296,52.175147
Hoofdweg,23,,,7382BE,Klarenbeek,Voorst,Gelderland,VBO,6.075106,52.174510
Hoofdweg,25,,,7382BE,Klarenbeek,Voorst,Gelderland,VBO,6.074953,52.174370
Hoofdweg,27,,,7382BE,Klarenbeek,Voorst,Gelderland,VBO,6.074747,52.174285
Hoofdweg,29,,,7382BE,Klarenbeek,Voorst,Gelderland,VBO,6.074557,52.174038
Hoofdweg,31,,,7382BE,Klarenbeek,Voorst,Gelderland,VBO,6.074524,52.174007
Hoofdweg,35,,,7382BE,Klarenbeek,Voorst,Gelderland,VBO,6.073802,52.173629
Hoofdweg,37,A,,7382BE,Klarenbeek,Voorst,Gelderland,VBO,6.073255,52.173270
Hoofdweg,37,,,7382BE,Klarenbeek,Voorst,Gelderland,VBO,6.073145,52.173320
Hoofdweg,41,,,7382BE,Klarenbeek,Voorst,Gelderland,VBO,6.072829,52.173000
Hoofdweg,49,A,,7382BE,Klarenbeek,Voorst,Gelderland,VBO,6.067896,52.169899
Hoofdweg,49,,,7382BE,Klarenbeek,Voorst,Gelderland,VBO,6.068021,52.169981
Hoofdweg,53,,,7382BE,Klarenbeek,Voorst,Gelderland,VBO,6.067401,52.169537
Hoofdweg,55,T,,7382BE,Klarenbeek,Voorst,Gelderland,VBO,6.067399,52.169064
Hoofdweg,55,,,7382BE,Klarenbeek,Voorst,Gelderland,VBO,6.067218,52.169325
Molenweg,1,A,,7382BE,Klarenbeek,Voorst,Gelderland,VBO,6.068213,52.169687
Molenweg,1,,,7382BE,Klarenbeek,Voorst,Gelderland,VBO,6.068965,52.168638
Molenweg,2,A,,7382BE,Klarenbeek,Voorst,Gelderland,VBO,6.067769,52.169484
Molenweg,2,,,7382BE,Klarenbeek,Voorst,Gelderland,VBO,6.067658,52.169679
Molenweg,3,,,7382BE,Klarenbeek,Voorst,Gelderland,VBO,6.068979,52.168597
Molenweg,4,A,,7382BE,Klarenbeek,Voorst,Gelderland,VBO,6.068311,52.169035
Molenweg,4,B,,7382BE,Klarenbeek,Voorst,Gelderland,VBO,6.068288,52.168941
Molenweg,4,Z,,7382BE,Klarenbeek,Voorst,Gelderland,VBO,6.068039,52.169221
Molenweg,4,,,7382BE,Klarenbeek,Voorst,Gelderland,VBO,6.067878,52.169177
Molenweg,5,,,7382BE,Klarenbeek,Voorst,Gelderland,VBO,6.069032,52.168548
Molenweg,7,,,7382BE,Klarenbeek,Voorst,Gelderland,VBO,6.069127,52.168442
Molenweg,9,,,7382BE,Klarenbeek,Voorst,Gelderland,VBO,6.069155,52.168410
Molenweg,11,,,7382BE,Klarenbeek,Voorst,Gelderland,VBO,6.069161,52.168360
Molenweg,13,,,7382BE,Klarenbeek,Voorst,Gelderland,VBO,6.069188,52.168315
Molenweg,15,,,7382BE,Klarenbeek,Voorst,Gelderland,VBO,6.069212,52.168276
Molenweg,17,,,7382BE,Klarenbeek,Voorst,Gelderland,VBO,6.069257,52.168240
Hoofdweg,61,,,7382BG,Klarenbeek,Voorst,Gelderland,VBO,6.065621,52.168402
Hoofdweg,61,,,7382BG,Klarenbeek,Voorst,Gelderland,VBO,6.065675,52.168412
Hoofdweg,63,,,7382BG,Klarenbeek,Voorst,Gelderland,VBO,6.065437,52.168293
Hoofdweg,65,A,,7382BG,Klarenbeek,Voorst,Gelderland,VBO,6.065471,52.167991
Hoofdweg,65,,,7382BG,Klarenbeek,Voorst,Gelderland,VBO,6.065220,52.168201
Hoofdweg,67,,,7382BG,Klarenbeek,Voorst,Gelderland,VBO,6.065014,52.168056
Hoofdweg,69,,,7382BG,Klarenbeek,Voorst,Gelderland,VBO,6.064711,52.167906
Hoofdweg,71,,,7382BG,Klarenbeek,Voorst,Gelderland,VBO,6.064494,52.167756
Hoofdweg,2,A,,7382BH,Klarenbeek,Voorst,Gelderland,VBO,6.101839,52.184239
Hoofdweg,2,,,7382BH,Klarenbeek,Voorst,Gelderland,VBO,6.102675,52.184675
Hoofdweg,4,A,,7382BH,Klarenbeek,Voorst,Gelderland,VBO,6.092226,52.180204
Hoofdweg,4,,,7382BH,Klarenbeek,Voorst,Gelderland,VBO,6.092241,52.180165
Hoofdweg,8,A,,7382BH,Klarenbeek,Voorst,Gelderland,VBO,6.084987,52.178786
Hoofdweg,8,,,7382BH,Klarenbeek,Voorst,Gelderland,VBO,6.085059,52.178791
Hoofdweg,14,A,,7382BH,Klarenbeek,Voorst,Gelderland,VBO,6.077299,52.176348
Hoofdweg,14,,,7382BH,Klarenbeek,Voorst,Gelderland,VBO,6.077302,52.176416
Hoofdweg,16,A,,7382BH,Klarenbeek,Voorst,Gelderland,VBO,6.075959,52.175739
Hoofdweg,16,B,,7382BH,Klarenbeek,Voorst,Gelderland,VBO,6.075884,52.175507
Hoofdweg,16,,,7382BH,Klarenbeek,Voorst,Gelderland,VBO,6.076116,52.175647
Hoofdweg,18,,,7382BH,Klarenbeek,Voorst,Gelderland,VBO,6.075620,52.175442
Hoofdweg,20,,,7382BH,Klarenbeek,Voorst,Gelderland,VBO,6.075510,52.175343
Hoofdweg,22,,,7382BH,Klarenbeek,Voorst,Gelderland,VBO,6.075377,52.175256
Hoofdweg,24,,,7382BH,Klarenbeek,Voorst,Gelderland,VBO,6.075007,52.175290
Hoofdweg,26,,,7382BH,Klarenbeek,Voorst,Gelderland,VBO,6.074915,52.174994
Hoofdweg,28,,,7382BH,Klarenbeek,Voorst,Gelderland,VBO,6.074814,52.174891
Hoofdweg,30,,,7382BH,Klarenbeek,Voorst,Gelderland,VBO,6.074670,52.174812
Hoofdweg,32,A,,7382BH,Klarenbeek,Voorst,Gelderland,VBO,6.074611,52.174722
Hoofdweg,32,,,7382BH,Klarenbeek,Voorst,Gelderland,VBO,6.074567,52.174695
Hoofdweg,34,,,7382BH,Klarenbeek,Voorst,Gelderland,VBO,6.074260,52.174579
Hoofdweg,36,,,7382BH,Klarenbeek,Voorst,Gelderland,VBO,6.073930,52.174314
Hoofdweg,38,,,7382BJ,Klarenbeek,Voorst,Gelderland,VBO,6.073742,52.174202
Hoofdweg,40,B,,7382BJ,Klarenbeek,Voorst,Gelderland,VBO,6.072593,52.173520
Hoofdweg,40,,,7382BJ,Klarenbeek,Voorst,Gelderland,VBO,6.073201,52.173956
Hoofdweg,42,,,7382BJ,Klarenbeek,Voorst,Gelderland,VBO,6.072340,52.173309
Hoofdweg,44,,,7382BJ,Klarenbeek,Voorst,Gelderland,VBO,6.072171,52.173248
Hoofdweg,46,,,7382BJ,Klarenbeek,Voorst,Gelderland,VBO,6.072041,52.173152
Hoofdweg,48,,,7382BJ,Klarenbeek,Voorst,Gelderland,VBO,6.071219,52.173599
Hoofdweg,50,A,,7382BJ,Klarenbeek,Voorst,Gelderland,VBO,6.071749,52.173071
Hoofdweg,50,,,7382BJ,Klarenbeek,Voorst,Gelderland,VBO,6.071893,52.172988
Hoofdweg,52,,,7382BJ,Klarenbeek,Voorst,Gelderland,VBO,6.071703,52.172886
Hoofdweg,54,,,7382BJ,Klarenbeek,Voorst,Gelderland,VBO,6.071512,52.172775
Hoofdweg,56,,,7382BJ,Klarenbeek,Voorst,Gelderland,VBO,6.071259,52.172676
Hoofdweg,58,,,7382BJ,Klarenbeek,Voorst,Gelderland,VBO,6.071097,52.172409
Hoofdweg,60,,,7382BJ,Klarenbeek,Voorst,Gelderland,VBO,6.071038,52.172374
Hoofdweg,62,,,7382BJ,Klarenbeek,Voorst,Gelderland,VBO,6.070491,52.172093
Hoofdweg,64,,,7382BK,Klarenbeek,Voorst,Gelderland,VBO,6.069763,52.171612
Hoofdweg,68,,,7382BK,Klarenbeek,Voorst,Gelderland,VBO,6.069311,52.171328
Hoofdweg,70,,,7382BK,Klarenbeek,Voorst,Gelderland,VBO,6.069127,52.171240
Hoofdweg,72,,,7382BK,Klarenbeek,Voorst,Gelderland,VBO,6.069167,52.171141
Hoofdweg,74,A,,7382BK,Klarenbeek,Voorst,Gelderland,VBO,6.068687,52.170952
Hoofdweg,74,,,7382BK,Klarenbeek,Voorst,Gelderland,VBO,6.068919,52.171031
Hoofdweg,76,A,,7382BK,Klarenbeek,Voorst,Gelderland,VBO,6.068524,52.170779
Hoofdweg,76,B,,7382BK,Klarenbeek,Voorst,Gelderland,VBO,6.068427,52.170881
Hoofdweg,76,,,7382BK,Klarenbeek,Voorst,Gelderland,VBO,6.068618,52.170723
Hoofdweg,78,A,,7382BK,Klarenbeek,Voorst,Gelderland,VBO,6.067998,52.170489
Hoofdweg,78,,,7382BK,Klarenbeek,Voorst,Gelderland,VBO,6.068065,52.170420
Hoofdweg,80,,,7382BK,Klarenbeek,Voorst,Gelderland,VBO,6.067941,52.170364
Hoofdweg,82,,,7382BK,Klarenbeek,Voorst,Gelderland,VBO,6.067590,52.170249
Hoofdweg,84,A,0001,7382BK,Klarenbeek,Voorst,Gelderland,VBO,6.066890,52.169727
Hoofdweg,84,A,,7382BK,Klarenbeek,Voorst,Gelderland,VBO,6.067033,52.169847
Hoofdweg,84,,0002,7382BK,Klarenbeek,Voorst,Gelderland,VBO,6.067486,52.170136
Hoofdweg,84,,,7382BK,Klarenbeek,Voorst,Gelderland,VBO,6.067425,52.170114
Hoofdweg,86,,,7382BK,Klarenbeek,Voorst,Gelderland,VBO,6.066226,52.169457
Hoofdweg,88,,,7382BK,Klarenbeek,Voorst,Gelderland,VBO,6.065909,52.169261
Landweg,3,,,7382BL,Klarenbeek,Voorst,Gelderland,VBO,6.101171,52.174371
Landweg,4,A,,7382BL,Klarenbeek,Voorst,Gelderland,VBO,6.096029,52.174925
Landweg,4,,,7382BL,Klarenbeek,Voorst,Gelderland,VBO,6.095910,52.174866
Landweg,5,A,,7382BL,Klarenbeek,Voorst,Gelderland,VBO,6.099139,52.174188
Landweg,5,,,7382BL,Klarenbeek,Voorst,Gelderland,VBO,6.099389,52.174011
Landweg,9,,,7382BL,Klarenbeek,Voorst,Gelderland,VBO,6.087351,52.173436
Landweg,10,,,7382BL,Klarenbeek,Voorst,Gelderland,VBO,6.092519,52.174521
Landweg,11,,,7382BL,Klarenbeek,Voorst,Gelderland,VBO,6.081115,52.171784
Landweg,13,,,7382BL,Klarenbeek,Voorst,Gelderland,VBO,6.081446,52.172158
Landweg,15,,,7382BL,Klarenbeek,Voorst,Gelderland,VBO,6.083249,52.171391
Landweg,17,,,7382BL,Klarenbeek,Voorst,Gelderland,VBO,6.082545,52.171407
Landweg,19,A,,7382BL,Klarenbeek,Voorst,Gelderland,VBO,6.075919,52.170555
Landweg,19,,,7382BL,Klarenbeek,Voorst,Gelderland,VBO,6.075804,52.170490
Landweg,20,,,7382BL,Klarenbeek,Voorst,Gelderland,VBO,6.074723,52.171693
J.R. Krepellaan,2,A,,7382BM,Klarenbeek,Voorst,Gelderland,VBO,6.073343,52.168581
J.R. Krepellaan,2,,,7382BM,Klarenbeek,Voorst,Gelderland,VBO,6.073475,52.168637
J.R. Krepellaan,3,,,7382BM,Klarenbeek,Voorst,Gelderland,VBO,6.075305,52.166877
J.R. Krepellaan,4,,,7382BM,Klarenbeek,Voorst,Gelderland,VBO,6.072456,52.165669
J.R. Krepellaan,5,,,7382BM,Klarenbeek,Voorst,Gelderland,VBO,6.076038,52.167009
J.R. Krepellaan,6,,,7382BM,Klarenbeek,Voorst,Gelderland,VBO,6.075637,52.166143
J.R. Krepellaan,7,,,7382BM,Klarenbeek,Voorst,Gelderland,VBO,6.075519,52.166883
J.R. Krepellaan,8,,,7382BM,Klarenbeek,Voorst,Gelderland,VBO,6.075521,52.166083
J.R. Krepellaan,9,,,7382BM,Klarenbeek,Voorst,Gelderland,VBO,6.075782,52.166564
Kerkweg,2,,,7382BN,Klarenbeek,Voorst,Gelderland,VBO,6.074464,52.169069
Kerkweg,4,,,7382BN,Klarenbeek,Voorst,Gelderland,VBO,6.074262,52.168923
Kopermolenweg,2,,,7382BP,Klarenbeek,Voorst,Gelderland,VBO,6.070216,52.171302
Kopermolenweg,5,,,7382BP,Klarenbeek,Voorst,Gelderland,VBO,6.078263,52.170814
Kopermolenweg,7,A,,7382BP,Klarenbeek,Voorst,Gelderland,VBO,6.077375,52.167559
Kopermolenweg,8,,,7382BP,Klarenbeek,Voorst,Gelderland,VBO,6.074616,52.169805
Kopermolenweg,9,,,7382BP,Klarenbeek,Voorst,Gelderland,VBO,6.077466,52.167432
Kopermolenweg,11,,,7382BP,Klarenbeek,Voorst,Gelderland,VBO,6.078477,52.168079
Oudhuizerstraat,4,,,7382BR,Klarenbeek,Voorst,Gelderland,VBO,6.103899,52.172294
Oudhuizerstraat,5,A,,7382BR,Klarenbeek,Voorst,Gelderland,VBO,6.102986,52.170217
Oudhuizerstraat,5,,,7382BR,Klarenbeek,Voorst,Gelderland,VBO,6.103034,52.170152
Oudhuizerstraat,6,,,7382BR,Klarenbeek,Voorst,Gelderland,VBO,6.096598,52.172059
Oudhuizerstraat,8,,,7382BR,Klarenbeek,Voorst,Gelderland,VBO,6.100518,52.169836
Oudhuizerstraat,9,,,7382BR,Klarenbeek,Voorst,Gelderland,VBO,6.099860,52.169202
Oudhuizerstraat,10,A,,7382BR,Klarenbeek,Voorst,Gelderland,VBO,6.099236,52.169550
Oudhuizerstraat,10,,,7382BR,Klarenbeek,Voorst,Gelderland,VBO,6.099540,52.169484
Oudhuizerstraat,13,,,7382BR,Klarenbeek,Voorst,Gelderland,VBO,6.097017,52.168340
Oudhuizerstraat,14,,,7382BR,Klarenbeek,Voorst,Gelderland,VBO,6.097403,52.168778
Oudhuizerstraat,16,A,,7382BR,Klarenbeek,Voorst,Gelderland,VBO,6.095535,52.168441
Oudhuizerstraat,16,,,7382BR,Klarenbeek,Voorst,Gelderland,VBO,6.095574,52.168444
Oudhuizerstraat,17,,,7382BR,Klarenbeek,Voorst,Gelderland,VBO,6.096941,52.165086
Oudhuizerstraat,18,A,,7382BR,Klarenbeek,Voorst,Gelderland,VBO,6.095176,52.168185
Oudhuizerstraat,18,,,7382BR,Klarenbeek,Voorst,Gelderland,VBO,6.095115,52.168256
Oudhuizerstraat,19,A,,7382BR,Klarenbeek,Voorst,Gelderland,VBO,6.092874,52.166964
Oudhuizerstraat,19,,,7382BR,Klarenbeek,Voorst,Gelderland,VBO,6.097747,52.162879
Oudhuizerstraat,20,,,7382BS,Klarenbeek,Voorst,Gelderland,VBO,6.090744,52.166575
Oudhuizerstraat,21,A,,7382BS,Klarenbeek,Voorst,Gelderland,VBO,6.092307,52.166878
Oudhuizerstraat,21,,,7382BS,Klarenbeek,Voorst,Gelderland,VBO,6.092370,52.166897
Oudhuizerstraat,22,,,7382BS,Klarenbeek,Voorst,Gelderland,VBO,6.088640,52.166316
Oudhuizerstraat,23,A,,7382BS,Klarenbeek,Voorst,Gelderland,VBO,6.090916,52.166411
Oudhuizerstraat,23,B,,7382BS,Klarenbeek,Voorst,Gelderland,VBO,6.090964,52.166107
Oudhuizerstraat,23,,,7382BS,Klarenbeek,Voorst,Gelderland,VBO,6.091037,52.166460
Oudhuizerstraat,26,A,,7382BS,Klarenbeek,Voorst,Gelderland,VBO,6.086210,52.165483
Oudhuizerstraat,26,,,7382BS,Klarenbeek,Voorst,Gelderland,VBO,6.086256,52.165423
Oudhuizerstraat,27,A,,7382BS,Klarenbeek,Voorst,Gelderland,VBO,6.085388,52.164556
Oudhuizerstraat,27,,,7382BS,Klarenbeek,Voorst,Gelderland,VBO,6.085489,52.164594
Oudhuizerstraat,29,,,7382BS,Klarenbeek,Voorst,Gelderland,VBO,6.083801,52.164047
Oudhuizerstraat,30,,,7382BS,Klarenbeek,Voorst,Gelderland,VBO,6.083510,52.164507
Oudhuizerstraat,31,,,7382BS,Klarenbeek,Voorst,Gelderland,VBO,6.082819,52.163681
Oudhuizerstraat,32,B,,7382BS,Klarenbeek,Voorst,Gelderland,VBO,6.082616,52.164277
Oudhuizerstraat,33,B,,7382BS,Klarenbeek,Voorst,Gelderland,VBO,6.080031,52.162772
Oudhuizerstraat,33,,,7382BS,Klarenbeek,Voorst,Gelderland,VBO,6.082275,52.163628
Oudhuizerstraat,35,,,7382BS,Klarenbeek,Voorst,Gelderland,VBO,6.079415,52.163045
Oudhuizerstraat,37,,,7382BS,Klarenbeek,Voorst,Gelderland,VBO,6.079119,52.162961
Kopermolenweg,17,,,7382BT,Klarenbeek,Voorst,Gelderland,VBO,6.078128,52.162702
Kopermolenweg,21,,,7382BT,Klarenbeek,Voorst,Gelderland,VBO,6.079978,52.159610
Kopermolenweg,23,,,7382BT,Klarenbeek,Voorst,Gelderland,VBO,6.079343,52.159238
Kopermolenweg,25,,,7382BT,Klarenbeek,Voorst,Gelderland,VBO,6.078559,52.158171
Oudhuizerstraat,34,A,,7382BT,Klarenbeek,Voorst,Gelderland,VBO,6.072489,52.161772
Oudhuizerstraat,34,,,7382BT,Klarenbeek,Voorst,Gelderland,VBO,6.072901,52.161683
Oudhuizerstraat,36,A,,7382BT,Klarenbeek,Voorst,Gelderland,VBO,6.071815,52.161518
Oudhuizerstraat,36,,,7382BT,Klarenbeek,Voorst,Gelderland,VBO,6.071763,52.161544
Oudhuizerstraat,38,,,7382BT,Klarenbeek,Voorst,Gelderland,VBO,6.071349,52.161314
Oudhuizerstraat,39,A,,7382BT,Klarenbeek,Voorst,Gelderland,VBO,6.077713,52.162614
Oudhuizerstraat,39,,,7382BT,Klarenbeek,Voorst,Gelderland,VBO,6.077711,52.162712
Oudhuizerstraat,40,,,7382BT,Klarenbeek,Voorst,Gelderland,VBO,6.070387,52.161122
Oudhuizerstraat,41,A,,7382BT,Klarenbeek,Voorst,Gelderland,VBO,6.077125,52.162544
Oudhuizerstraat,41,,,7382BT,Klarenbeek,Voorst,Gelderland,VBO,6.077211,52.162564
Oudhuizerstraat,42,,,7382BT,Klarenbeek,Voorst,Gelderland,VBO,6.069269,52.160847
Oudhuizerstraat,45,,,7382BT,Klarenbeek,Voorst,Gelderland,VBO,6.072587,52.161160
Molenweg,19,,,7382BV,Klarenbeek,Voorst,Gelderland,VBO,6.069565,52.167871
Molenweg,21,,,7382BV,Klarenbeek,Voorst,Gelderland,VBO,6.069598,52.167825
Molenweg,23,,,7382BV,Klarenbeek,Voorst,Gelderland,VBO,6.069644,52.167764
Molenweg,25,,,7382BV,Klarenbeek,Voorst,Gelderland,VBO,6.069713,52.167677
Molenweg,27,,,7382BV,Klarenbeek,Voorst,Gelderland,VBO,6.069729,52.167612
Molenweg,29,,,7382BV,Klarenbeek,Voorst,Gelderland,VBO,6.069781,52.167571
Molenweg,31,,,7382BV,Klarenbeek,Voorst,Gelderland,VBO,6.070209,52.167814
Molenweg,33,,,7382BV,Klarenbeek,Voorst,Gelderland,VBO,6.070260,52.167775
Molenweg,35,,,7382BV,Klarenbeek,Voorst,Gelderland,VBO,6.070297,52.167715
Molenweg,37,,,7382BV,Klarenbeek,Voorst,Gelderland,VBO,6.070443,52.167599
Molenweg,39,,,7382BV,Klarenbeek,Voorst,Gelderland,VBO,6.070379,52.167431
Molenweg,41,,,7382BV,Klarenbeek,Voorst,Gelderland,VBO,6.070234,52.167387
Molenweg,43,,,7382BV,Klarenbeek,Voorst,Gelderland,VBO,6.070082,52.167338
Molenweg,45,,,7382BV,Klarenbeek,Voorst,Gelderland,VBO,6.069867,52.167341
Vijverweg,2,,,7382BV,Klarenbeek,Voorst,Gelderland,VBO,6.071061,52.165813
Vijverweg,3,,,7382BV,Klarenbeek,Voorst,Gelderland,VBO,6.070128,52.163276
Vijverweg,5,,,7382BV,Klarenbeek,Voorst,Gelderland,VBO,6.070212,52.163212
Vijverweg,7,,,7382BV,Klarenbeek,Voorst,Gelderland,VBO,6.068521,52.162421
Dennenweg,1,,,7382BW,Klarenbeek,Voorst,Gelderland,VBO,6.067974,52.168575
Dennenweg,3,,,7382BW,Klarenbeek,Voorst,Gelderland,VBO,6.068104,52.168455
Dennenweg,5,,,7382BW,Klarenbeek,Voorst,Gelderland,VBO,6.068280,52.168212
Dennenweg,7,,,7382BW,Klarenbeek,Voorst,Gelderland,VBO,6.068349,52.168080
Dennenweg,9,,,7382BW,Klarenbeek,Voorst,Gelderland,VBO,6.068390,52.168030
Dennenweg,11,,,7382BW,Klarenbeek,Voorst,Gelderland,VBO,6.068485,52.167848
Molenweg,6,,,7382BW,Klarenbeek,Voorst,Gelderland,VBO,6.068470,52.168690
Molenweg,10,,,7382BW,Klarenbeek,Voorst,Gelderland,VBO,6.068561,52.168551
Molenweg,12,A,,7382BW,Klarenbeek,Voorst,Gelderland,VBO,6.068696,52.168358
Molenweg,12,,0002,7382BW,Klarenbeek,Voorst,Gelderland,VBO,6.068361,52.168416
Molenweg,12,,,7382BW,Klarenbeek,Voorst,Gelderland,VBO,6.068616,52.168489
Molenweg,14,,,7382BW,Klarenbeek,Voorst,Gelderland,VBO,6.068800,52.168277
Molenweg,16,,,7382BW,Klarenbeek,Voorst,Gelderland,VBO,6.068827,52.168156
Molenweg,18,,,7382BW,Klarenbeek,Voorst,Gelderland,VBO,6.068968,52.167975
Molenweg,20,A,,7382BW,Klarenbeek,Voorst,Gelderland,VBO,6.069143,52.167707
Molenweg,20,,,7382BW,Klarenbeek,Voorst,Gelderland,VBO,6.069176,52.167785
Molenweg,22,,,7382BW,Klarenbeek,Voorst,Gelderland,VBO,6.069216,52.167610
Molenweg,24,,,7382BW,Klarenbeek,Voorst,Gelderland,VBO,6.069324,52.167500
Molenweg,26,,,7382BW,Klarenbeek,Voorst,Gelderland,VBO,6.069344,52.167425
Molenweg,28,,,7382BW,Klarenbeek,Voorst,Gelderland,VBO,6.069406,52.167314
Molenweg,30,,,7382BW,Klarenbeek,Voorst,Gelderland,VBO,6.069515,52.167105
Molenweg,32,,,7382BW,Klarenbeek,Voorst,Gelderland,VBO,6.069640,52.166946
Postweg,2,,,7382BW,Klarenbeek,Voorst,Gelderland,VBO,6.069346,52.166618
Postweg,4,,,7382BW,Klarenbeek,Voorst,Gelderland,VBO,6.065884,52.165262
Dennenweg,2,,,7382BX,Klarenbeek,Voorst,Gelderland,VBO,6.067563,52.168446
Dennenweg,4,,,7382BX,Klarenbeek,Voorst,Gelderland,VBO,6.067636,52.168386
Dennenweg,6,,,7382BX,Klarenbeek,Voorst,Gelderland,VBO,6.067735,52.168308
Dennenweg,8,,,7382BX,Klarenbeek,Voorst,Gelderland,VBO,6.067769,52.168254
Dennenweg,10,,,7382BX,Klarenbeek,Voorst,Gelderland,VBO,6.067813,52.168178
Dennenweg,12,,,7382BX,Klarenbeek,Voorst,Gelderland,VBO,6.067856,52.168125
Dennenweg,14,,,7382BX,Klarenbeek,Voorst,Gelderland,VBO,6.067942,52.168046
Dennenweg,16,,,7382BX,Klarenbeek,Voorst,Gelderland,VBO,6.068012,52.167982
Dennenweg,18,,,7382BX,Klarenbeek,Voorst,Gelderland,VBO,6.068053,52.167892
Dennenweg,20,,,7382BX,Klarenbeek,Voorst,Gelderland,VBO,6.068088,52.167841
Dennenweg,22,,,7382BX,Klarenbeek,Voorst,Gelderland,VBO,6.068101,52.167781
Dennenweg,24,,,7382BX,Klarenbeek,Voorst,Gelderland,VBO,6.068112,52.167726
Lariksweg,1,,,7382BZ,Klarenbeek,Voorst,Gelderland,VBO,6.068146,52.166931
Lariksweg,2,,,7382BZ,Klarenbeek,Voorst,Gelderland,VBO,6.067683,52.166811
Lariksweg,3,,,7382BZ,Klarenbeek,Voorst,Gelderland,VBO,6.068201,52.166887
Lariksweg,4,,,7382BZ,Klarenbeek,Voorst,Gelderland,VBO,6.067721,52.166761
Lariksweg,5,,,7382BZ,Klarenbeek,Voorst,Gelderland,VBO,6.068258,52.166808
Lariksweg,6,,,7382BZ,Klarenbeek,Voorst,Gelderland,VBO,6.067809,52.166667
Lariksweg,7,,,7382BZ,Klarenbeek,Voorst,Gelderland,VBO,6.068335,52.166743
Lariksweg,8,,,7382BZ,Klarenbeek,Voorst,Gelderland,VBO,6.067870,52.166631
Lariksweg,9,,,7382BZ,Klarenbeek,Voorst,Gelderland,VBO,6.068795,52.166750
Lariksweg,10,,,7382BZ,Klarenbeek,Voorst,Gelderland,VBO,6.067870,52.166574
Lariksweg,11,,,7382BZ,Klarenbeek,Voorst,Gelderland,VBO,6.068878,52.166623
Lariksweg,12,,,7382BZ,Klarenbeek,Voorst,Gelderland,VBO,6.067659,52.166428
Lariksweg,13,,,7382BZ,Klarenbeek,Voorst,Gelderland,VBO,6.068558,52.166504
Lariksweg,14,,,7382BZ,Klarenbeek,Voorst,Gelderland,VBO,6.067618,52.166410
Lariksweg,15,,,7382BZ,Klarenbeek,Voorst,Gelderland,VBO,6.068467,52.166480
Lariksweg,16,,,7382BZ,Klarenbeek,Voorst,Gelderland,VBO,6.067532,52.166360
Lariksweg,17,,,7382BZ,Klarenbeek,Voorst,Gelderland,VBO,6.068208,52.166375
Lariksweg,18,,,7382BZ,Klarenbeek,Voorst,Gelderland,VBO,6.067450,52.166356
Lariksweg,19,,,7382BZ,Klarenbeek,Voorst,Gelderland,VBO,6.068077,52.166296
Lariksweg,20,,,7382BZ,Klarenbeek,Voorst,Gelderland,VBO,6.067334,52.166546
Lariksweg,21,,,7382BZ,Klarenbeek,Voorst,Gelderland,VBO,6.068010,52.166260
Lariksweg,22,,,7382BZ,Klarenbeek,Voorst,Gelderland,VBO,6.067341,52.166630
Lariksweg,23,,,7382BZ,Klarenbeek,Voorst,Gelderland,VBO,6.067876,52.166171
Lariksweg,24,,,7382BZ,Klarenbeek,Voorst,Gelderland,VBO,6.067236,52.166658
Lariksweg,25,,,7382BZ,Klarenbeek,Voorst,Gelderland,VBO,6.067792,52.166151
Lariksweg,26,,,7382BZ,Klarenbeek,Voorst,Gelderland,VBO,6.067226,52.166693
Lariksweg,27,,,7382BZ,Klarenbeek,Voorst,Gelderland,VBO,6.067645,52.166097
Lariksweg,29,,,7382BZ,Klarenbeek,Voorst,Gelderland,VBO,6.067551,52.166077
Lariksweg,35,,,7382BZ,Klarenbeek,Voorst,Gelderland,VBO,6.067203,52.166032
Cederweg,1,,,7382CA,Klarenbeek,Voorst,Gelderland,VBO,6.067229,52.168347
Cederweg,3,,,7382CA,Klarenbeek,Voorst,Gelderland,VBO,6.067252,52.168276
Cederweg,5,,,7382CA,Klarenbeek,Voorst,Gelderland,VBO,6.067278,52.168182
Cederweg,7,,,7382CA,Klarenbeek,Voorst,Gelderland,VBO,6.067317,52.168126
Cederweg,9,,,7382CA,Klarenbeek,Voorst,Gelderland,VBO,6.067365,52.168045
Cederweg,11,,,7382CA,Klarenbeek,Voorst,Gelderland,VBO,6.067401,52.167989
Cederweg,13,,,7382CA,Klarenbeek,Voorst,Gelderland,VBO,6.067457,52.167903
Cederweg,15,,,7382CA,Klarenbeek,Voorst,Gelderland,VBO,6.067504,52.167846
Cederweg,17,,,7382CA,Klarenbeek,Voorst,Gelderland,VBO,6.067583,52.167765
Cederweg,19,,,7382CA,Klarenbeek,Voorst,Gelderland,VBO,6.067604,52.167720
Cederweg,21,,,7382CA,Klarenbeek,Voorst,Gelderland,VBO,6.067663,52.167666
Cederweg,23,,,7382CA,Klarenbeek,Voorst,Gelderland,VBO,6.067703,52.167617
Sparrenweg,2,,,7382CA,Klarenbeek,Voorst,Gelderland,VBO,6.067644,52.168864
Sparrenweg,4,,,7382CA,Klarenbeek,Voorst,Gelderland,VBO,6.067348,52.168718
Cederweg,2,,,7382CB,Klarenbeek,Voorst,Gelderland,VBO,6.066879,52.168204
Cederweg,4,,,7382CB,Klarenbeek,Voorst,Gelderland,VBO,6.066989,52.168032
Cederweg,6,,,7382CB,Klarenbeek,Voorst,Gelderland,VBO,6.067018,52.167981
Cederweg,8,,,7382CB,Klarenbeek,Voorst,Gelderland,VBO,6.067074,52.167935
Cederweg,10,,,7382CB,Klarenbeek,Voorst,Gelderland,VBO,6.067081,52.167891
Cederweg,12,,,7382CB,Klarenbeek,Voorst,Gelderland,VBO,6.067109,52.167834
Cederweg,14,,,7382CB,Klarenbeek,Voorst,Gelderland,VBO,6.067198,52.167715
Cederweg,16,,,7382CB,Klarenbeek,Voorst,Gelderland,VBO,6.067225,52.167676
Cederweg,18,,,7382CB,Klarenbeek,Voorst,Gelderland,VBO,6.067278,52.167617
Cederweg,20,,,7382CB,Klarenbeek,Voorst,Gelderland,VBO,6.067315,52.167565
Cederweg,22,,,7382CB,Klarenbeek,Voorst,Gelderland,VBO,6.067326,52.167523
Sparrenweg,3,,,7382CB,Klarenbeek,Voorst,Gelderland,VBO,6.066556,52.168361
Sparrenweg,5,,,7382CB,Klarenbeek,Voorst,Gelderland,VBO,6.066407,52.168341
Bosweg,1,,,7382CC,Klarenbeek,Voorst,Gelderland,VBO,6.066448,52.168111
Bosweg,2,,,7382CC,Klarenbeek,Voorst,Gelderland,VBO,6.065930,52.168150
Bosweg,3,,,7382CC,Klarenbeek,Voorst,Gelderland,VBO,6.066493,52.167987
Bosweg,4,,,7382CC,Klarenbeek,Voorst,Gelderland,VBO,6.066007,52.168048
Bosweg,5,,,7382CC,Klarenbeek,Voorst,Gelderland,VBO,6.066567,52.167874
Bosweg,6,,,7382CC,Klarenbeek,Voorst,Gelderland,VBO,6.066043,52.167993
Bosweg,7,,,7382CC,Klarenbeek,Voorst,Gelderland,VBO,6.066627,52.167751
Bosweg,8,,,7382CC,Klarenbeek,Voorst,Gelderland,VBO,6.066106,52.167895
Bosweg,9,,,7382CC,Klarenbeek,Voorst,Gelderland,VBO,6.066734,52.167661
Bosweg,10,,,7382CC,Klarenbeek,Voorst,Gelderland,VBO,6.066162,52.167841
Bosweg,11,,,7382CC,Klarenbeek,Voorst,Gelderland,VBO,6.066802,52.167553
Bosweg,12,,,7382CC,Klarenbeek,Voorst,Gelderland,VBO,6.065478,52.167584
Bosweg,13,,,7382CC,Klarenbeek,Voorst,Gelderland,VBO,6.066847,52.167450
Bosweg,14,S,,7382CC,Klarenbeek,Voorst,Gelderland,VBO,6.065504,52.167612
Bosweg,14,,,7382CC,Klarenbeek,Voorst,Gelderland,VBO,6.065154,52.167345
Bosweg,15,,,7382CC,Klarenbeek,Voorst,Gelderland,VBO,6.066883,52.167388
Bosweg,16,,,7382CC,Klarenbeek,Voorst,Gelderland,VBO,6.067276,52.166859
Bosweg,18,,,7382CC,Klarenbeek,Voorst,Gelderland,VBO,6.067203,52.166893
Bosweg,20,,,7382CC,Klarenbeek,Voorst,Gelderland,VBO,6.067130,52.166994
Bosweg,21,,,7382CC,Klarenbeek,Voorst,Gelderland,VBO,6.069377,52.168087
Bosweg,22,,,7382CC,Klarenbeek,Voorst,Gelderland,VBO,6.067104,52.167032
Bosweg,23,,,7382CC,Klarenbeek,Voorst,Gelderland,VBO,6.069437,52.168101
Bosweg,24,,,7382CC,Klarenbeek,Voorst,Gelderland,VBO,6.067047,52.167127
Bosweg,25,,,7382CC,Klarenbeek,Voorst,Gelderland,VBO,6.069528,52.168124
Bosweg,26,,,7382CC,Klarenbeek,Voorst,Gelderland,VBO,6.067023,52.167169
Bosweg,27,,,7382CC,Klarenbeek,Voorst,Gelderland,VBO,6.069676,52.168155
Bosweg,29,,,7382CC,Klarenbeek,Voorst,Gelderland,VBO,6.069753,52.168176
Bosweg,31,,,7382CC,Klarenbeek,Voorst,Gelderland,VBO,6.069809,52.168205
Bosweg,28,,,7382CD,Klarenbeek,Voorst,Gelderland,VBO,6.067359,52.167273
Bosweg,30,,,7382CD,Klarenbeek,Voorst,Gelderland,VBO,6.067401,52.167218
Bosweg,32,,,7382CD,Klarenbeek,Voorst,Gelderland,VBO,6.067472,52.167119
Bosweg,34,,,7382CD,Klarenbeek,Voorst,Gelderland,VBO,6.067511,52.167068
Bosweg,36,,,7382CD,Klarenbeek,Voorst,Gelderland,VBO,6.067624,52.166976
Bosweg,38,,,7382CD,Klarenbeek,Voorst,Gelderland,VBO,6.068124,52.167108
Bosweg,40,,,7382CD,Klarenbeek,Voorst,Gelderland,VBO,6.067992,52.167194
Bosweg,42,,,7382CD,Klarenbeek,Voorst,Gelderland,VBO,6.067951,52.167245
Bosweg,44,,,7382CD,Klarenbeek,Voorst,Gelderland,VBO,6.067879,52.167349
Bosweg,46,,,7382CD,Klarenbeek,Voorst,Gelderland,VBO,6.067889,52.167440
Bosweg,48,,,7382CD,Klarenbeek,Voorst,Gelderland,VBO,6.068273,52.167540
Bosweg,50,,,7382CD,Klarenbeek,Voorst,Gelderland,VBO,6.068259,52.167452
Bosweg,52,,,7382CD,Klarenbeek,Voorst,Gelderland,VBO,6.068329,52.167349
Bosweg,54,,,7382CD,Klarenbeek,Voorst,Gelderland,VBO,6.068371,52.167294
Bosweg,56,,,7382CD,Klarenbeek,Voorst,Gelderland,VBO,6.068425,52.167190
Bosweg,58,,,7382CD,Klarenbeek,Voorst,Gelderland,VBO,6.068537,52.167042
Bosweg,60,,,7382CD,Klarenbeek,Voorst,Gelderland,VBO,6.068586,52.166990
Bosweg,62,,,7382CD,Klarenbeek,Voorst,Gelderland,VBO,6.068641,52.166894
Bosweg,64,,,7382CD,Klarenbeek,Voorst,Gelderland,VBO,6.069102,52.167040
Bosweg,66,,,7382CD,Klarenbeek,Voorst,Gelderland,VBO,6.069023,52.167201
Bosweg,68,,,7382CD,Klarenbeek,Voorst,Gelderland,VBO,6.068928,52.167311
Bosweg,70,,,7382CD,Klarenbeek,Voorst,Gelderland,VBO,6.068881,52.167368
Bosweg,72,,,7382CD,Klarenbeek,Voorst,Gelderland,VBO,6.068818,52.167476
Bosweg,74,,,7382CD,Klarenbeek,Voorst,Gelderland,VBO,6.068775,52.167527
Bosweg,76,,,7382CD,Klarenbeek,Voorst,Gelderland,VBO,6.068693,52.167632
Achter de Molen,1,,,7382CE,Klarenbeek,Voorst,Gelderland,VBO,6.069601,52.168463
Achter de Molen,3,,,7382CE,Klarenbeek,Voorst,Gelderland,VBO,6.069501,52.168757
Achter de Molen,5,,,7382CE,Klarenbeek,Voorst,Gelderland,VBO,6.069280,52.168693
Achter de Molen,10,,,7382CE,Klarenbeek,Voorst,Gelderland,VBO,6.068687,52.168906
Achter de Molen,12,,,7382CE,Klarenbeek,Voorst,Gelderland,VBO,6.068922,52.168935
Achter de Molen,14,,,7382CE,Klarenbeek,Voorst,Gelderland,VBO,6.069194,52.169158
Bosweg,90,,,7382CE,Klarenbeek,Voorst,Gelderland,VBO,6.069941,52.167959
Bosweg,92,,,7382CE,Klarenbeek,Voorst,Gelderland,VBO,6.070022,52.167981
Bosweg,94,,,7382CE,Klarenbeek,Voorst,Gelderland,VBO,6.070098,52.168000
Boterbloem,2,,,7382CG,Klarenbeek,Voorst,Gelderland,VBO,6.065390,52.168931
Boterbloem,4,,,7382CG,Klarenbeek,Voorst,Gelderland,VBO,6.065209,52.168853
Boterbloem,6,,,7382CG,Klarenbeek,Voorst,Gelderland,VBO,6.065009,52.168767
Boterbloem,8,,,7382CG,Klarenbeek,Voorst,Gelderland,VBO,6.064723,52.168700
Boterbloem,10,,,7382CG,Klarenbeek,Voorst,Gelderland,VBO,6.064473,52.168629
Boterbloem,12,,,7382CG,Klarenbeek,Voorst,Gelderland,VBO,6.064285,52.168566
Boterbloem,14,,,7382CG,Klarenbeek,Voorst,Gelderland,VBO,6.064179,52.168768
Boterbloem,16,,,7382CG,Klarenbeek,Voorst,Gelderland,VBO,6.064165,52.168824
Boterbloem,18,,,7382CG,Klarenbeek,Voorst,Gelderland,VBO,6.064132,52.168883
Boterbloem,20,,,7382CG,Klarenbeek,Voorst,Gelderland,VBO,6.064068,52.168965
Boterbloem,22,,,7382CG,Klarenbeek,Voorst,Gelderland,VBO,6.064054,52.169027
Boterbloem,24,,,7382CG,Klarenbeek,Voorst,Gelderland,VBO,6.064026,52.169087
Boterbloem,26,,,7382CG,Klarenbeek,Voorst,Gelderland,VBO,6.063975,52.169164
Boterbloem,28,,,7382CG,Klarenbeek,Voorst,Gelderland,VBO,6.063943,52.169217
Boterbloem,30,,,7382CG,Klarenbeek,Voorst,Gelderland,VBO,6.063891,52.169395
Boterbloem,32,,,7382CG,Klarenbeek,Voorst,Gelderland,VBO,6.064123,52.169479
Boterbloem,34,,,7382CG,Klarenbeek,Voorst,Gelderland,VBO,6.064429,52.169566
Boterbloem,36,,,7382CG,Klarenbeek,Voorst,Gelderland,VBO,6.064675,52.169663
Boterbloem,38,,,7382CG,Klarenbeek,Voorst,Gelderland,VBO,6.064840,52.169502
Boterbloem,40,,,7382CG,Klarenbeek,Voorst,Gelderland,VBO,6.064889,52.169450
Boterbloem,42,,,7382CG,Klarenbeek,Voorst,Gelderland,VBO,6.064933,52.169408
Boterbloem,44,,,7382CG,Klarenbeek,Voorst,Gelderland,VBO,6.064978,52.169368
Boterbloem,46,,,7382CG,Klarenbeek,Voorst,Gelderland,VBO,6.065101,52.169236
Boterbloem,48,,,7382CG,Klarenbeek,Voorst,Gelderland,VBO,6.065153,52.169187
Klaproos,4,,,7382CH,Klarenbeek,Voorst,Gelderland,VBO,6.064820,52.169018
Klaproos,5,,,7382CH,Klarenbeek,Voorst,Gelderland,VBO,6.064513,52.168977
Klaproos,6,,,7382CH,Klarenbeek,Voorst,Gelderland,VBO,6.064748,52.169086
Klaproos,7,,,7382CH,Klarenbeek,Voorst,Gelderland,VBO,6.064485,52.169008
Duizendblad,4,,,7382CJ,Klarenbeek,Voorst,Gelderland,VBO,6.065439,52.169450
Duizendblad,6,,,7382CJ,Klarenbeek,Voorst,Gelderland,VBO,6.065469,52.169461
Duizendblad,8,,,7382CJ,Klarenbeek,Voorst,Gelderland,VBO,6.065541,52.169485
Duizendblad,10,,,7382CJ,Klarenbeek,Voorst,Gelderland,VBO,6.065651,52.169519
Duizendblad,12,,,7382CJ,Klarenbeek,Voorst,Gelderland,VBO,6.065681,52.169529
Duizendblad,31,,,7382CK,Klarenbeek,Voorst,Gelderland,VBO,6.065738,52.170076
Duizendblad,33,,,7382CK,Klarenbeek,Voorst,Gelderland,VBO,6.065725,52.170110
Duizendblad,51,,,7382CK,Klarenbeek,Voorst,Gelderland,VBO,6.064788,52.170464
Polveensweg,3,,,7382DA,Klarenbeek,Voorst,Gelderland,VBO,6.087549,52.154844
Polveensweg,4,,,7382DA,Klarenbeek,Voorst,Gelderland,VBO,6.088117,52.155356
Polveensweg,5,,,7382DA,Klarenbeek,Voorst,Gelderland,VBO,6.083721,52.155637
Polveensweg,7,,,7382DA,Klarenbeek,Voorst,Gelderland,VBO,6.079899,52.156996
Polveensweg,9,,,7382DA,Klarenbeek,Voorst,Gelderland,VBO,6.079781,52.157046
Polveensweg,10,,,7382DA,Klarenbeek,Voorst,Gelderland,VBO,6.083123,52.156845
Polveensweg,12,A,,7382DA,Klarenbeek,Voorst,Gelderland,VBO,6.082929,52.156928
Polveensweg,12,,,7382DA,Klarenbeek,Voorst,Gelderland,VBO,6.082825,52.157009
Polveensweg,13,,,7382DA,Klarenbeek,Voorst,Gelderland,VBO,6.078173,52.157477
Polveensweg,15,,,7382DA,Klarenbeek,Voorst,Gelderland,VBO,6.077607,52.157842
Polveensweg,17,,,7382DA,Klarenbeek,Voorst,Gelderland,VBO,6.076505,52.158297
Polveensweg,18,,,7382DA,Klarenbeek,Voorst,Gelderland,VBO,6.075245,52.160594
Polveensweg,19,A,,7382DA,Klarenbeek,Voorst,Gelderland,VBO,6.071116,52.159684
Polveensweg,19,B,,7382DA,Klarenbeek,Voorst,Gelderland,VBO,6.071223,52.159658
Polveensweg,19,,,7382DA,Klarenbeek,Voorst,Gelderland,VBO,6.074375,52.158869
Polveensweg,21,A,,7382DA,Klarenbeek,Voorst,Gelderland,VBO,6.070648,52.158733
Polveensweg,21,,,7382DA,Klarenbeek,Voorst,Gelderland,VBO,6.070482,52.158764
Polveensweg,23,A,,7382DA,Klarenbeek,Voorst,Gelderland,VBO,6.069061,52.158481
Polveensweg,23,,,7382DA,Klarenbeek,Voorst,Gelderland,VBO,6.069023,52.158582
Polveensweg,24,,,7382DA,Klarenbeek,Voorst,Gelderland,VBO,6.066642,52.161546
Polveensweg,25,,,7382DA,Klarenbeek,Voorst,Gelderland,VBO,6.068782,52.158786
Clabanusweg,1,,,7382DB,Klarenbeek,Voorst,Gelderland,VBO,6.088704,52.151788
Clabanusweg,3,,,7382DB,Klarenbeek,Voorst,Gelderland,VBO,6.088276,52.151370
Clabanusweg,4,,,7382DB,Klarenbeek,Voorst,Gelderland,VBO,6.086874,52.151026
Clabanusweg,5,A,,7382DB,Klarenbeek,Voorst,Gelderland,VBO,6.087790,52.150899
Clabanusweg,5,,,7382DB,Klarenbeek,Voorst,Gelderland,VBO,6.087742,52.150956
Clabanusweg,6,,,7382DB,Klarenbeek,Voorst,Gelderland,VBO,6.086302,52.150636
Clabanusweg,9,A,,7382DB,Klarenbeek,Voorst,Gelderland,VBO,6.086191,52.149623
Clabanusweg,9,,,7382DB,Klarenbeek,Voorst,Gelderland,VBO,6.086265,52.149913
Clabanusweg,10,,,7382DB,Klarenbeek,Voorst,Gelderland,VBO,6.083312,52.148986
Clabanusweg,14,,,7382DB,Klarenbeek,Voorst,Gelderland,VBO,6.080132,52.147430
Clabanusweg,15,,,7382DB,Klarenbeek,Voorst,Gelderland,VBO,6.084988,52.147043
Clabanusweg,16,A,,7382DB,Klarenbeek,Voorst,Gelderland,VBO,6.079989,52.147733
Clabanusweg,16,,,7382DB,Klarenbeek,Voorst,Gelderland,VBO,6.080028,52.147487
Clabanusweg,17,,,7382DB,Klarenbeek,Voorst,Gelderland,VBO,6.075890,52.147846
Clabanusweg,19,,,7382DB,Klarenbeek,Voorst,Gelderland,VBO,6.075568,52.147862
Clabanusweg,20,,,7382DB,Klarenbeek,Voorst,Gelderland,VBO,6.078381,52.147800
Clabanusweg,22,A,,7382DB,Klarenbeek,Voorst,Gelderland,VBO,6.075044,52.148818
Clabanusweg,22,,,7382DB,Klarenbeek,Voorst,Gelderland,VBO,6.076509,52.148100
Clabanusweg,24,,,7382DB,Klarenbeek,Voorst,Gelderland,VBO,6.074419,52.148782
Hallseweg,2,,,7382RA,Klarenbeek,Voorst,Gelderland,VBO,6.088781,52.151760
Hallseweg,4,,,7382RA,Klarenbeek,Voorst,Gelderland,VBO,6.089370,52.150654
Hallseweg,5,,,7382RA,Klarenbeek,Voorst,Gelderland,VBO,6.091084,52.149854
Hallseweg,6,,,7382RA,Klarenbeek,Voorst,Gelderland,VBO,6.089516,52.150525
Oude Zutphenseweg,1,,,7382SB,Klarenbeek,Voorst,Gelderland,VBO,6.074330,52.196994
Oude Zutphenseweg,2,A,,7382SB,Klarenbeek,Voorst,Gelderland,VBO,6.074060,52.196661
Oude Zutphenseweg,2,B,,7382SB,Klarenbeek,Voorst,Gelderland,VBO,6.073806,52.196482
Oude Zutphenseweg,2,,,7382SB,Klarenbeek,Voorst,Gelderland,VBO,6.073927,52.196906
Oude Zutphenseweg,3,A,,7382SB,Klarenbeek,Voorst,Gelderland,VBO,6.081701,52.193415
Oude Zutphenseweg,3,,0001,7382SB,Klarenbeek,Voorst,Gelderland,VBO,6.077668,52.195280
Oude Zutphenseweg,3,,,7382SB,Klarenbeek,Voorst,Gelderland,VBO,6.077496,52.195107
Oude Zutphenseweg,4,,,7382SB,Klarenbeek,Voorst,Gelderland,VBO,6.073763,52.195850
Oude Zutphenseweg,5,,,7382SB,Klarenbeek,Voorst,Gelderland,VBO,6.082588,52.192986
