openbareruimtenaam,huisnummer,huisletter,huisnummertoevoeging,postcode,woonplaatsnaam,gemeentenaam,provincienaam,typeadresseerbaarobject,longitude,latitude
Zwarte Hoopstraat,2,,,7416AA,Deventer,Deventer,Overijssel,VBO,6.167422,52.258643
Zwarte Hoopstraat,3,,,7416AA,Deventer,Deventer,Overijssel,VBO,6.167875,52.258622
Zwarte Hoopstraat,4,,,7416AA,Deventer,Deventer,Overijssel,VBO,6.167551,52.258534
Zwarte Hoopstraat,5,,,7416AA,Deventer,Deventer,Overijssel,VBO,6.167933,52.258585
Zwarte Hoopstraat,6,,,7416AA,Deventer,Deventer,Overijssel,VBO,6.167580,52.258498
Zwarte Hoopstraat,7,,,7416AA,Deventer,Deventer,Overijssel,VBO,6.167977,52.258549
Zwarte Hoopstraat,8,,,7416AA,Deventer,Deventer,Overijssel,VBO,6.167638,52.258471
Zwarte Hoopstraat,9,,,7416AA,Deventer,Deventer,Overijssel,VBO,6.168035,52.258522
Zwarte Hoopstraat,10,,,7416AA,Deventer,Deventer,Overijssel,VBO,6.167696,52.258443
Zwarte Hoopstraat,11,,,7416AA,Deventer,Deventer,Overijssel,VBO,6.168078,52.258486
Zwarte Hoopstraat,12,,,7416AA,Deventer,Deventer,Overijssel,VBO,6.167754,52.258416
Zwarte Hoopstraat,13,,,7416AA,Deventer,Deventer,Overijssel,VBO,6.168151,52.258449
Zwarte Hoopstraat,14,,,7416AA,Deventer,Deventer,Overijssel,VBO,6.167783,52.258389
Zwarte Hoopstraat,15,,,7416AA,Deventer,Deventer,Overijssel,VBO,6.168208,52.258413
Zwarte Hoopstraat,16,,,7416AA,Deventer,Deventer,Overijssel,VBO,6.168084,52.258266
Bleekstraat,1,,,7416AB,Deventer,Deventer,Overijssel,VBO,6.168143,52.259016
Bleekstraat,2,,,7416AB,Deventer,Deventer,Overijssel,VBO,6.167866,52.258927
Bleekstraat,3,,,7416AB,Deventer,Deventer,Overijssel,VBO,6.168226,52.259037
Bleekstraat,5,,,7416AB,Deventer,Deventer,Overijssel,VBO,6.168291,52.258952
Bleekstraat,6,,,7416AB,Deventer,Deventer,Overijssel,VBO,6.168026,52.258872
Bleekstraat,7,,,7416AB,Deventer,Deventer,Overijssel,VBO,6.168393,52.258897
Bleekstraat,8,,,7416AB,Deventer,Deventer,Overijssel,VBO,6.167980,52.258774
Bleekstraat,9,,,7416AB,Deventer,Deventer,Overijssel,VBO,6.168451,52.258870
Bleekstraat,10,,,7416AB,Deventer,Deventer,Overijssel,VBO,6.168127,52.258782
Bleekstraat,11,,,7416AB,Deventer,Deventer,Overijssel,VBO,6.168753,52.258644
Bleekstraat,12,,,7416AB,Deventer,Deventer,Overijssel,VBO,6.168171,52.258755
Bleekstraat,14,,,7416AB,Deventer,Deventer,Overijssel,VBO,6.168229,52.258727
Bleekstraat,16,,,7416AB,Deventer,Deventer,Overijssel,VBO,6.168272,52.258700
Bleekstraat,18,,,7416AB,Deventer,Deventer,Overijssel,VBO,6.168330,52.258673
Bleekstraat,20,,,7416AB,Deventer,Deventer,Overijssel,VBO,6.168388,52.258645
Bleekstraat,22,,,7416AB,Deventer,Deventer,Overijssel,VBO,6.168446,52.258618
Bleekstraat,24,,,7416AB,Deventer,Deventer,Overijssel,VBO,6.168490,52.258591
Bleekdwarsstraat,1,,,7416AC,Deventer,Deventer,Overijssel,VBO,6.168505,52.258974
Bleekdwarsstraat,2,,,7416AC,Deventer,Deventer,Overijssel,VBO,6.168590,52.258753
Bleekdwarsstraat,3,,,7416AC,Deventer,Deventer,Overijssel,VBO,6.168555,52.259009
Bleekdwarsstraat,4,,,7416AC,Deventer,Deventer,Overijssel,VBO,6.168640,52.258787
Bleekdwarsstraat,5,,,7416AC,Deventer,Deventer,Overijssel,VBO,6.168615,52.259048
Bleekdwarsstraat,6,,,7416AC,Deventer,Deventer,Overijssel,VBO,6.168699,52.258814
Bleekdwarsstraat,7,,,7416AC,Deventer,Deventer,Overijssel,VBO,6.168660,52.259075
Bleekdwarsstraat,8,,,7416AC,Deventer,Deventer,Overijssel,VBO,6.168743,52.258850
Bleekdwarsstraat,9,,,7416AC,Deventer,Deventer,Overijssel,VBO,6.168719,52.259111
Bleekdwarsstraat,10,,,7416AC,Deventer,Deventer,Overijssel,VBO,6.168788,52.258876
Bleekdwarsstraat,11,,,7416AC,Deventer,Deventer,Overijssel,VBO,6.168763,52.259137
Bleekdwarsstraat,12,,,7416AC,Deventer,Deventer,Overijssel,VBO,6.168847,52.258912
Bleekdwarsstraat,13,,,7416AC,Deventer,Deventer,Overijssel,VBO,6.168823,52.259182
Bleekdwarsstraat,14,,,7416AC,Deventer,Deventer,Overijssel,VBO,6.168891,52.258939
Bleekdwarsstraat,15,,,7416AC,Deventer,Deventer,Overijssel,VBO,6.168882,52.259226
Bleekdwarsstraat,16,,,7416AC,Deventer,Deventer,Overijssel,VBO,6.168951,52.258983
Bleekdwarsstraat,18,,,7416AC,Deventer,Deventer,Overijssel,VBO,6.168995,52.259019
Tamboerslaantje,1,,,7416AD,Deventer,Deventer,Overijssel,VBO,6.169202,52.259107
Tamboerslaantje,3,,,7416AD,Deventer,Deventer,Overijssel,VBO,6.169246,52.259134
Tamboerslaantje,5,,,7416AD,Deventer,Deventer,Overijssel,VBO,6.169291,52.259152
Tamboerslaantje,7,,,7416AD,Deventer,Deventer,Overijssel,VBO,6.169454,52.259258
Tamboerslaantje,9,,,7416AD,Deventer,Deventer,Overijssel,VBO,6.169504,52.259282
Tamboerslaantje,11,,,7416AD,Deventer,Deventer,Overijssel,VBO,6.169543,52.259312
Tamboerslaantje,13,,,7416AD,Deventer,Deventer,Overijssel,VBO,6.169587,52.259356
Tamboerslaantje,15,,,7416AD,Deventer,Deventer,Overijssel,VBO,6.169661,52.259401
Tamboerslaantje,17,,,7416AD,Deventer,Deventer,Overijssel,VBO,6.169721,52.259445
Tamboerslaantje,19,,,7416AD,Deventer,Deventer,Overijssel,VBO,6.169809,52.259490
Tamboerslaantje,2,,,7416AE,Deventer,Deventer,Overijssel,VBO,6.169434,52.258971
Tamboerslaantje,4,,,7416AE,Deventer,Deventer,Overijssel,VBO,6.169479,52.259007
Tamboerslaantje,6,,,7416AE,Deventer,Deventer,Overijssel,VBO,6.169538,52.259060
Tamboerslaantje,8,,,7416AE,Deventer,Deventer,Overijssel,VBO,6.169597,52.259105
Tamboerslaantje,10,,,7416AE,Deventer,Deventer,Overijssel,VBO,6.169700,52.259131
Tamboerslaantje,12,,,7416AE,Deventer,Deventer,Overijssel,VBO,6.169775,52.259211
Tamboerslaantje,14,,,7416AE,Deventer,Deventer,Overijssel,VBO,6.169820,52.259238
Tamboerslaantje,16,,,7416AE,Deventer,Deventer,Overijssel,VBO,6.169864,52.259283
Tamboerslaantje,18,,,7416AE,Deventer,Deventer,Overijssel,VBO,6.169938,52.259309
Tamboerslaantje,20,,,7416AE,Deventer,Deventer,Overijssel,VBO,6.169973,52.259377
Tamboerslaantje,22,,,7416AE,Deventer,Deventer,Overijssel,VBO,6.170069,52.259425
H.J. Schoemakersplein,2,,,7416AG,Deventer,Deventer,Overijssel,VBO,6.169073,52.259252
H.J. Schoemakersplein,3,,,7416AG,Deventer,Deventer,Overijssel,VBO,6.168986,52.259306
H.J. Schoemakersplein,4,,,7416AG,Deventer,Deventer,Overijssel,VBO,6.169017,52.259396
H.J. Schoemakersplein,5,,,7416AG,Deventer,Deventer,Overijssel,VBO,6.169076,52.259432
H.J. Schoemakersplein,6,,,7416AG,Deventer,Deventer,Overijssel,VBO,6.169208,52.259440
H.J. Schoemakersplein,7,,,7416AG,Deventer,Deventer,Overijssel,VBO,6.169310,52.259394
Bierstraat,3,,,7416AH,Deventer,Deventer,Overijssel,VBO,6.166226,52.257482
Bierstraat,5,,,7416AH,Deventer,Deventer,Overijssel,VBO,6.166236,52.257477
Bierstraat,15,,,7416AH,Deventer,Deventer,Overijssel,VBO,6.166510,52.257615
Bierstraat,17,,,7416AH,Deventer,Deventer,Overijssel,VBO,6.166584,52.257633
Bierstraat,19,,,7416AH,Deventer,Deventer,Overijssel,VBO,6.166657,52.257668
Bierstraat,21,,,7416AH,Deventer,Deventer,Overijssel,VBO,6.166716,52.257686
Bierstraat,27,,,7416AH,Deventer,Deventer,Overijssel,VBO,6.166879,52.257756
Bierstraat,29,,,7416AH,Deventer,Deventer,Overijssel,VBO,6.166978,52.257800
Bierstraat,31,,,7416AH,Deventer,Deventer,Overijssel,VBO,6.167023,52.257817
Bierstraat,33,,,7416AH,Deventer,Deventer,Overijssel,VBO,6.167082,52.257844
Bierstraat,35,A,,7416AH,Deventer,Deventer,Overijssel,VBO,6.167117,52.257941
Bierstraat,35,B,,7416AH,Deventer,Deventer,Overijssel,VBO,6.167030,52.257942
Bierstraat,35,C,,7416AH,Deventer,Deventer,Overijssel,VBO,6.167082,52.257959
Bierstraat,35,D,,7416AH,Deventer,Deventer,Overijssel,VBO,6.167024,52.257978
Bierstraat,35,,,7416AH,Deventer,Deventer,Overijssel,VBO,6.167071,52.257916
Bierstraat,37,,,7416AH,Deventer,Deventer,Overijssel,VBO,6.167165,52.257871
Bierstraat,41,,,7416AJ,Deventer,Deventer,Overijssel,VBO,6.167262,52.257916
Bierstraat,43,,,7416AJ,Deventer,Deventer,Overijssel,VBO,6.167336,52.257933
Bierstraat,45,,,7416AJ,Deventer,Deventer,Overijssel,VBO,6.167395,52.257969
Bierstraat,47,A,,7416AJ,Deventer,Deventer,Overijssel,VBO,6.167448,52.257992
Bierstraat,47,,,7416AJ,Deventer,Deventer,Overijssel,VBO,6.167467,52.257978
Bierstraat,49,,,7416AJ,Deventer,Deventer,Overijssel,VBO,6.167528,52.258022
Bierstraat,51,,,7416AJ,Deventer,Deventer,Overijssel,VBO,6.167605,52.258036
Bierstraat,53,,,7416AJ,Deventer,Deventer,Overijssel,VBO,6.167646,52.258045
Bierstraat,55,,,7416AJ,Deventer,Deventer,Overijssel,VBO,6.167680,52.258060
Bierstraat,65,,,7416AJ,Deventer,Deventer,Overijssel,VBO,6.167860,52.258134
Bierstraat,67,,,7416AJ,Deventer,Deventer,Overijssel,VBO,6.167899,52.258147
Bierstraat,69,,,7416AJ,Deventer,Deventer,Overijssel,VBO,6.167935,52.258162
Bierstraat,71,,,7416AJ,Deventer,Deventer,Overijssel,VBO,6.167981,52.258184
Bierstraat,73,,,7416AK,Deventer,Deventer,Overijssel,VBO,6.168011,52.258196
Bierstraat,75,,,7416AK,Deventer,Deventer,Overijssel,VBO,6.168064,52.258212
Bierstraat,77,,,7416AK,Deventer,Deventer,Overijssel,VBO,6.168110,52.258235
Bierstraat,79,,,7416AK,Deventer,Deventer,Overijssel,VBO,6.168301,52.258343
Bierstraat,81,,,7416AK,Deventer,Deventer,Overijssel,VBO,6.168380,52.258368
Bierstraat,83,,,7416AK,Deventer,Deventer,Overijssel,VBO,6.168457,52.258393
Bierstraat,85,,,7416AK,Deventer,Deventer,Overijssel,VBO,6.168568,52.258453
Bierstraat,87,,,7416AK,Deventer,Deventer,Overijssel,VBO,6.168572,52.258494
Bierstraat,89,,,7416AK,Deventer,Deventer,Overijssel,VBO,6.168845,52.258652
Bierstraat,91,,,7416AK,Deventer,Deventer,Overijssel,VBO,6.168938,52.258650
Bierstraat,93,,,7416AK,Deventer,Deventer,Overijssel,VBO,6.169021,52.258649
Bierstraat,95,,,7416AK,Deventer,Deventer,Overijssel,VBO,6.169150,52.258649
Bierstraat,97,,,7416AK,Deventer,Deventer,Overijssel,VBO,6.169231,52.258686
Bierstraat,99,,,7416AK,Deventer,Deventer,Overijssel,VBO,6.169301,52.258717
Bierstraat,101,,,7416AK,Deventer,Deventer,Overijssel,VBO,6.169363,52.258743
Bierstraat,2,A,,7416AL,Deventer,Deventer,Overijssel,VBO,6.166578,52.257450
Bierstraat,2,B,,7416AL,Deventer,Deventer,Overijssel,VBO,6.166660,52.257476
Bierstraat,2,C,,7416AL,Deventer,Deventer,Overijssel,VBO,6.166767,52.257517
Bierstraat,2,D,,7416AL,Deventer,Deventer,Overijssel,VBO,6.166861,52.257556
Bierstraat,2,,,7416AL,Deventer,Deventer,Overijssel,VBO,6.166521,52.257434
Bierstraat,4,A,,7416AL,Deventer,Deventer,Overijssel,VBO,6.166593,52.257432
Bierstraat,4,B,,7416AL,Deventer,Deventer,Overijssel,VBO,6.166675,52.257458
Bierstraat,4,C,,7416AL,Deventer,Deventer,Overijssel,VBO,6.166783,52.257501
Bierstraat,4,D,,7416AL,Deventer,Deventer,Overijssel,VBO,6.166878,52.257534
Bierstraat,4,E,,7416AL,Deventer,Deventer,Overijssel,VBO,6.166942,52.257589
Bierstraat,4,,,7416AL,Deventer,Deventer,Overijssel,VBO,6.166541,52.257417
Bierstraat,6,A,,7416AL,Deventer,Deventer,Overijssel,VBO,6.166620,52.257414
Bierstraat,6,B,,7416AL,Deventer,Deventer,Overijssel,VBO,6.166692,52.257438
Bierstraat,6,C,,7416AL,Deventer,Deventer,Overijssel,VBO,6.166804,52.257478
Bierstraat,6,D,,7416AL,Deventer,Deventer,Overijssel,VBO,6.166906,52.257512
Bierstraat,6,E,,7416AL,Deventer,Deventer,Overijssel,VBO,6.166961,52.257564
Bierstraat,6,,,7416AL,Deventer,Deventer,Overijssel,VBO,6.166562,52.257394
Bierstraat,8,A,,7416AL,Deventer,Deventer,Overijssel,VBO,6.166645,52.257393
Bierstraat,8,B,,7416AL,Deventer,Deventer,Overijssel,VBO,6.166712,52.257417
Bierstraat,8,C,,7416AL,Deventer,Deventer,Overijssel,VBO,6.166828,52.257456
Bierstraat,8,D,,7416AL,Deventer,Deventer,Overijssel,VBO,6.166928,52.257489
Bierstraat,8,E,,7416AL,Deventer,Deventer,Overijssel,VBO,6.166983,52.257542
Bierstraat,8,,,7416AL,Deventer,Deventer,Overijssel,VBO,6.166580,52.257371
Bierstraat,10,,,7416AL,Deventer,Deventer,Overijssel,VBO,6.167009,52.257635
Bierstraat,12,,,7416AL,Deventer,Deventer,Overijssel,VBO,6.167065,52.257654
Bierstraat,14,,,7416AL,Deventer,Deventer,Overijssel,VBO,6.167096,52.257665
Bierstraat,16,,,7416AL,Deventer,Deventer,Overijssel,VBO,6.167170,52.257656
Bierstraat,18,,,7416AL,Deventer,Deventer,Overijssel,VBO,6.167229,52.257682
Bierstraat,20,,,7416AL,Deventer,Deventer,Overijssel,VBO,6.167317,52.257709
Bierstraat,22,,,7416AL,Deventer,Deventer,Overijssel,VBO,6.167362,52.257753
Bierstraat,24,,,7416AL,Deventer,Deventer,Overijssel,VBO,6.167450,52.257771
Bierstraat,26,,,7416AL,Deventer,Deventer,Overijssel,VBO,6.167509,52.257788
Bierstraat,28,,,7416AL,Deventer,Deventer,Overijssel,VBO,6.167583,52.257824
Bierstraat,30,G,1,7416AL,Deventer,Deventer,Overijssel,VBO,6.167705,52.257901
Bierstraat,30,,,7416AL,Deventer,Deventer,Overijssel,VBO,6.167642,52.257841
Bierstraat,34,,,7416AL,Deventer,Deventer,Overijssel,VBO,6.167825,52.257955
Bierstraat,36,,,7416AL,Deventer,Deventer,Overijssel,VBO,6.167877,52.257974
Bierstraat,38,,,7416AM,Deventer,Deventer,Overijssel,VBO,6.168173,52.258045
Bierstraat,40,,,7416AM,Deventer,Deventer,Overijssel,VBO,6.168241,52.258051
Bierstraat,42,,,7416AM,Deventer,Deventer,Overijssel,VBO,6.168319,52.258062
Bierstraat,44,,,7416AM,Deventer,Deventer,Overijssel,VBO,6.168393,52.258070
Bierstraat,46,,,7416AM,Deventer,Deventer,Overijssel,VBO,6.168452,52.258079
Bierstraat,48,,,7416AM,Deventer,Deventer,Overijssel,VBO,6.168719,52.258284
Bierstraat,50,,,7416AM,Deventer,Deventer,Overijssel,VBO,6.168822,52.258319
Bierstraat,52,,,7416AM,Deventer,Deventer,Overijssel,VBO,6.169095,52.258038
Bierstraat,54,,,7416AM,Deventer,Deventer,Overijssel,VBO,6.169293,52.258469
Bierstraat,56,,,7416AM,Deventer,Deventer,Overijssel,VBO,6.169441,52.258557
Bierstraat,58,,,7416AM,Deventer,Deventer,Overijssel,VBO,6.169500,52.258575
Bierstraat,60,,,7416AM,Deventer,Deventer,Overijssel,VBO,6.169574,52.258602
Van Mouwijckstraat,1,,,7416AN,Deventer,Deventer,Overijssel,VBO,6.169506,52.258926
Van Mouwijckstraat,2,,,7416AN,Deventer,Deventer,Overijssel,VBO,6.169723,52.258762
Van Mouwijckstraat,4,,,7416AN,Deventer,Deventer,Overijssel,VBO,6.169797,52.258780
Van Mouwijckstraat,5,,,7416AN,Deventer,Deventer,Overijssel,VBO,6.170197,52.259065
Van Mouwijckstraat,6,,,7416AN,Deventer,Deventer,Overijssel,VBO,6.169856,52.258788
Van Mouwijckstraat,8,,,7416AN,Deventer,Deventer,Overijssel,VBO,6.169944,52.258806
Van Mouwijckstraat,10,,,7416AN,Deventer,Deventer,Overijssel,VBO,6.170002,52.258814
Van Mouwijckstraat,12,,,7416AN,Deventer,Deventer,Overijssel,VBO,6.170061,52.258832
Van Mouwijckstraat,14,,,7416AN,Deventer,Deventer,Overijssel,VBO,6.170120,52.258832
Stappestraat,2,,,7416AP,Deventer,Deventer,Overijssel,VBO,6.167966,52.257932
Stappestraat,4,,,7416AP,Deventer,Deventer,Overijssel,VBO,6.167976,52.257884
Stappestraat,6,,,7416AP,Deventer,Deventer,Overijssel,VBO,6.168007,52.257819
Stappestraat,8,,,7416AP,Deventer,Deventer,Overijssel,VBO,6.168021,52.257749
Stappestraat,14,,,7416AP,Deventer,Deventer,Overijssel,VBO,6.168147,52.257448
Stappedwarsstraat,1,,,7416AR,Deventer,Deventer,Overijssel,VBO,6.168285,52.257765
Stappedwarsstraat,2,,,7416AR,Deventer,Deventer,Overijssel,VBO,6.168341,52.257621
Stappedwarsstraat,3,,,7416AR,Deventer,Deventer,Overijssel,VBO,6.168373,52.257774
Stappedwarsstraat,4,,,7416AR,Deventer,Deventer,Overijssel,VBO,6.168429,52.257620
Stappedwarsstraat,5,,,7416AR,Deventer,Deventer,Overijssel,VBO,6.168432,52.257782
Stappedwarsstraat,6,,,7416AR,Deventer,Deventer,Overijssel,VBO,6.168502,52.257638
Stappedwarsstraat,7,,,7416AR,Deventer,Deventer,Overijssel,VBO,6.168505,52.257791
Stappedwarsstraat,8,,,7416AR,Deventer,Deventer,Overijssel,VBO,6.168561,52.257647
Stappedwarsstraat,9,,,7416AR,Deventer,Deventer,Overijssel,VBO,6.168564,52.257808
Stappedwarsstraat,10,,,7416AR,Deventer,Deventer,Overijssel,VBO,6.168635,52.257655
Stappedwarsstraat,12,,,7416AR,Deventer,Deventer,Overijssel,VBO,6.168737,52.257654
Stappedwarsstraat,14,,,7416AR,Deventer,Deventer,Overijssel,VBO,6.168810,52.257663
Nicolaas de Cusastraat,1,,,7416AS,Deventer,Deventer,Overijssel,VBO,6.168674,52.258221
Nicolaas de Cusastraat,3,,,7416AS,Deventer,Deventer,Overijssel,VBO,6.168673,52.258185
Nicolaas de Cusastraat,5,,,7416AS,Deventer,Deventer,Overijssel,VBO,6.168702,52.258158
Nicolaas de Cusastraat,7,,,7416AS,Deventer,Deventer,Overijssel,VBO,6.168716,52.258113
Nicolaas de Cusastraat,9,,,7416AS,Deventer,Deventer,Overijssel,VBO,6.168730,52.258077
Nicolaas de Cusastraat,11,,,7416AS,Deventer,Deventer,Overijssel,VBO,6.168758,52.258032
Nicolaas de Cusastraat,13,,,7416AS,Deventer,Deventer,Overijssel,VBO,6.168772,52.257987
Nicolaas de Cusastraat,15,,,7416AS,Deventer,Deventer,Overijssel,VBO,6.168786,52.257933
Nicolaas de Cusastraat,17,,,7416AS,Deventer,Deventer,Overijssel,VBO,6.168814,52.257888
Van Haexbergenstraat,5,,,7416AT,Deventer,Deventer,Overijssel,VBO,6.169462,52.258881
Van Haexbergenstraat,9,,,7416AT,Deventer,Deventer,Overijssel,VBO,6.169876,52.258627
Van Haexbergenstraat,11,,,7416AT,Deventer,Deventer,Overijssel,VBO,6.169923,52.258592
Van Haexbergenstraat,13,,,7416AT,Deventer,Deventer,Overijssel,VBO,6.169962,52.258560
Van Haexbergenstraat,15,,,7416AT,Deventer,Deventer,Overijssel,VBO,6.169998,52.258523
Van Haexbergenstraat,17,,,7416AT,Deventer,Deventer,Overijssel,VBO,6.170054,52.258473
Van Haexbergenstraat,19,,,7416AT,Deventer,Deventer,Overijssel,VBO,6.170098,52.258436
Van Haexbergenstraat,21,,,7416AT,Deventer,Deventer,Overijssel,VBO,6.170156,52.258391
Van Haexbergenstraat,23,,,7416AT,Deventer,Deventer,Overijssel,VBO,6.170207,52.258352
Van Haexbergenstraat,25,,,7416AT,Deventer,Deventer,Overijssel,VBO,6.170248,52.258305
Van Haexbergenstraat,27,,,7416AT,Deventer,Deventer,Overijssel,VBO,6.170305,52.258256
Van Haexbergenstraat,29,,,7416AT,Deventer,Deventer,Overijssel,VBO,6.170347,52.258223
Van Haexbergenstraat,31,,,7416AT,Deventer,Deventer,Overijssel,VBO,6.170402,52.258201
Van Haexbergenstraat,33,,,7416AT,Deventer,Deventer,Overijssel,VBO,6.170445,52.258164
Van Haexbergenstraat,35,,,7416AT,Deventer,Deventer,Overijssel,VBO,6.170474,52.258137
Van Haexbergenstraat,2,,,7416AV,Deventer,Deventer,Overijssel,VBO,6.169110,52.258883
Van Haexbergenstraat,4,,,7416AV,Deventer,Deventer,Overijssel,VBO,6.169154,52.258856
Van Haexbergenstraat,6,,,7416AV,Deventer,Deventer,Overijssel,VBO,6.169197,52.258838
Van Haexbergenstraat,10,,,7416AV,Deventer,Deventer,Overijssel,VBO,6.169706,52.258500
Van Haexbergenstraat,12,,,7416AV,Deventer,Deventer,Overijssel,VBO,6.169748,52.258465
Van Haexbergenstraat,14,,,7416AV,Deventer,Deventer,Overijssel,VBO,6.169791,52.258429
Van Haexbergenstraat,16,,,7416AV,Deventer,Deventer,Overijssel,VBO,6.169834,52.258393
Van Haexbergenstraat,18,,,7416AV,Deventer,Deventer,Overijssel,VBO,6.169870,52.258345
Van Haexbergenstraat,20,,,7416AV,Deventer,Deventer,Overijssel,VBO,6.169906,52.258312
Van Haexbergenstraat,22,,,7416AV,Deventer,Deventer,Overijssel,VBO,6.169949,52.258275
Van Haexbergenstraat,24,,,7416AV,Deventer,Deventer,Overijssel,VBO,6.169989,52.258241
Van Haexbergenstraat,26,,,7416AV,Deventer,Deventer,Overijssel,VBO,6.170026,52.258206
Van Haexbergenstraat,28,,,7416AV,Deventer,Deventer,Overijssel,VBO,6.170064,52.258167
Van Haexbergenstraat,30,,,7416AV,Deventer,Deventer,Overijssel,VBO,6.170122,52.258131
Van Haexbergenstraat,32,,,7416AV,Deventer,Deventer,Overijssel,VBO,6.170166,52.258094
Van Haexbergenstraat,34,,,7416AV,Deventer,Deventer,Overijssel,VBO,6.170224,52.258067
Boevinckstraat,2,,,7416AW,Deventer,Deventer,Overijssel,VBO,6.170250,52.258750
Boevinckstraat,4,,,7416AW,Deventer,Deventer,Overijssel,VBO,6.170279,52.258705
Boevinckstraat,6,,,7416AW,Deventer,Deventer,Overijssel,VBO,6.170322,52.258686
Boevinckstraat,8,,,7416AW,Deventer,Deventer,Overijssel,VBO,6.170351,52.258659
Boevinckstraat,10,,,7416AW,Deventer,Deventer,Overijssel,VBO,6.170409,52.258605
Boevinckstraat,12,,,7416AW,Deventer,Deventer,Overijssel,VBO,6.170438,52.258569
Boevinckstraat,14,,,7416AW,Deventer,Deventer,Overijssel,VBO,6.170481,52.258533
Boevinckstraat,16,,,7416AW,Deventer,Deventer,Overijssel,VBO,6.170524,52.258478
Boevinckstraat,18,,,7416AW,Deventer,Deventer,Overijssel,VBO,6.170582,52.258451
Boevinckstraat,20,,,7416AW,Deventer,Deventer,Overijssel,VBO,6.170625,52.258415
Boevinckstraat,22,,,7416AW,Deventer,Deventer,Overijssel,VBO,6.170669,52.258388
Boevinckstraat,24,,,7416AW,Deventer,Deventer,Overijssel,VBO,6.170712,52.258351
Boevinckstraat,28,,,7416AW,Deventer,Deventer,Overijssel,VBO,6.170725,52.258270
Boevinckstraat,30,T,,7416AW,Deventer,Deventer,Overijssel,VBO,6.170897,52.258210
Boevinckstraat,30,,,7416AW,Deventer,Deventer,Overijssel,VBO,6.170754,52.258234
Henri Dunantlaan,6,,,7416AX,Deventer,Deventer,Overijssel,VBO,6.173737,52.261760
Henri Dunantlaan,10,,,7416AX,Deventer,Deventer,Overijssel,VBO,6.174285,52.261599
Henri Dunantlaan,12,,,7416AX,Deventer,Deventer,Overijssel,VBO,6.174386,52.261545
Henri Dunantlaan,14,,,7416AX,Deventer,Deventer,Overijssel,VBO,6.174531,52.261445
Henri Dunantlaan,16,,,7416AX,Deventer,Deventer,Overijssel,VBO,6.174618,52.261390
Henri Dunantlaan,18,,,7416AX,Deventer,Deventer,Overijssel,VBO,6.174778,52.261299
Henri Dunantlaan,20,,,7416AX,Deventer,Deventer,Overijssel,VBO,6.174879,52.261245
Henri Dunantlaan,22,,,7416AX,Deventer,Deventer,Overijssel,VBO,6.175009,52.261154
Henri Dunantlaan,24,,,7416AX,Deventer,Deventer,Overijssel,VBO,6.175125,52.261081
Henri Dunantlaan,26,,,7416AX,Deventer,Deventer,Overijssel,VBO,6.175241,52.261018
Henri Dunantlaan,28,,,7416AX,Deventer,Deventer,Overijssel,VBO,6.175449,52.260856
Henri Dunantlaan,30,,,7416AX,Deventer,Deventer,Overijssel,VBO,6.175550,52.260801
Henri Dunantlaan,32,,,7416AX,Deventer,Deventer,Overijssel,VBO,6.175705,52.260709
Henri Dunantlaan,34,,,7416AX,Deventer,Deventer,Overijssel,VBO,6.175777,52.260664
Henri Dunantlaan,36,,,7416AX,Deventer,Deventer,Overijssel,VBO,6.175897,52.260579
Henri Dunantlaan,38,,,7416AX,Deventer,Deventer,Overijssel,VBO,6.175965,52.260545
Henri Dunantlaan,40,,,7416AX,Deventer,Deventer,Overijssel,VBO,6.176074,52.260438
Henri Dunantlaan,42,,,7416AX,Deventer,Deventer,Overijssel,VBO,6.176139,52.260409
Henri Dunantlaan,44,,,7416AX,Deventer,Deventer,Overijssel,VBO,6.176281,52.260316
Henri Dunantlaan,46,,,7416AX,Deventer,Deventer,Overijssel,VBO,6.176341,52.260282
Veenweg,1,A,,7416BA,Deventer,Deventer,Overijssel,VBO,6.170269,52.259828
Veenweg,1,B,,7416BA,Deventer,Deventer,Overijssel,VBO,6.170298,52.259810
Veenweg,1,C,,7416BA,Deventer,Deventer,Overijssel,VBO,6.170269,52.259792
Veenweg,1,D,,7416BA,Deventer,Deventer,Overijssel,VBO,6.170240,52.259811
Veenweg,1,T,,7416BA,Deventer,Deventer,Overijssel,VBO,6.170051,52.259884
Veenweg,1,,,7416BA,Deventer,Deventer,Overijssel,VBO,6.170240,52.259837
Veenweg,3,,,7416BA,Deventer,Deventer,Overijssel,VBO,6.170340,52.259684
Veenweg,5,,,7416BA,Deventer,Deventer,Overijssel,VBO,6.170398,52.259630
Veenweg,7,,,7416BA,Deventer,Deventer,Overijssel,VBO,6.170441,52.259584
Veenweg,9,,,7416BA,Deventer,Deventer,Overijssel,VBO,6.170557,52.259557
Veenweg,11,,,7416BA,Deventer,Deventer,Overijssel,VBO,6.170586,52.259512
Veenweg,13,,,7416BA,Deventer,Deventer,Overijssel,VBO,6.170629,52.259466
Veenweg,15,,,7416BA,Deventer,Deventer,Overijssel,VBO,6.170672,52.259421
Veenweg,17,,,7416BA,Deventer,Deventer,Overijssel,VBO,6.170759,52.259367
Veenweg,19,,,7416BA,Deventer,Deventer,Overijssel,VBO,6.170817,52.259312
Veenweg,21,,,7416BA,Deventer,Deventer,Overijssel,VBO,6.170860,52.259267
Veenweg,23,,,7416BA,Deventer,Deventer,Overijssel,VBO,6.170903,52.259222
Veenweg,25,,,7416BA,Deventer,Deventer,Overijssel,VBO,6.170946,52.259150
Veenweg,27,,,7416BA,Deventer,Deventer,Overijssel,VBO,6.171004,52.259122
Veenweg,29,,,7416BA,Deventer,Deventer,Overijssel,VBO,6.171047,52.259077
Veenweg,31,,,7416BA,Deventer,Deventer,Overijssel,VBO,6.171105,52.259014
Veenweg,33,,,7416BA,Deventer,Deventer,Overijssel,VBO,6.171162,52.258960
Veenweg,35,,,7416BA,Deventer,Deventer,Overijssel,VBO,6.171176,52.258923
Veenweg,37,,,7416BA,Deventer,Deventer,Overijssel,VBO,6.171234,52.258860
Veenweg,39,,,7416BA,Deventer,Deventer,Overijssel,VBO,6.171306,52.258833
Veenweg,41,,,7416BA,Deventer,Deventer,Overijssel,VBO,6.171364,52.258787
Veenweg,43,,,7416BB,Deventer,Deventer,Overijssel,VBO,6.171479,52.258643
Veenweg,45,,,7416BB,Deventer,Deventer,Overijssel,VBO,6.171537,52.258598
Veenweg,47,,,7416BB,Deventer,Deventer,Overijssel,VBO,6.171609,52.258561
Veenweg,49,,,7416BB,Deventer,Deventer,Overijssel,VBO,6.171681,52.258507
Veenweg,51,,,7416BB,Deventer,Deventer,Overijssel,VBO,6.171710,52.258462
Veenweg,53,,,7416BB,Deventer,Deventer,Overijssel,VBO,6.171768,52.258416
Veenweg,55,,,7416BB,Deventer,Deventer,Overijssel,VBO,6.171821,52.258367
Veenweg,57,,,7416BB,Deventer,Deventer,Overijssel,VBO,6.171866,52.258323
Veenweg,65,A,,7416BB,Deventer,Deventer,Overijssel,VBO,6.172009,52.257705
Veenweg,65,B,,7416BB,Deventer,Deventer,Overijssel,VBO,6.171875,52.257625
Veenweg,65,C,,7416BB,Deventer,Deventer,Overijssel,VBO,6.171866,52.257559
Veenweg,65,D,,7416BB,Deventer,Deventer,Overijssel,VBO,6.171849,52.257486
Veenweg,65,E,,7416BB,Deventer,Deventer,Overijssel,VBO,6.171839,52.257430
Veenweg,65,F,,7416BB,Deventer,Deventer,Overijssel,VBO,6.172067,52.257702
Veenweg,65,G,,7416BB,Deventer,Deventer,Overijssel,VBO,6.171936,52.257621
Veenweg,65,H,,7416BB,Deventer,Deventer,Overijssel,VBO,6.171921,52.257555
Veenweg,65,J,,7416BB,Deventer,Deventer,Overijssel,VBO,6.171910,52.257481
Veenweg,65,K,,7416BB,Deventer,Deventer,Overijssel,VBO,6.171899,52.257424
Veenweg,65,L,,7416BB,Deventer,Deventer,Overijssel,VBO,6.172119,52.257699
Veenweg,65,M,,7416BB,Deventer,Deventer,Overijssel,VBO,6.171997,52.257616
Veenweg,65,N,,7416BB,Deventer,Deventer,Overijssel,VBO,6.171975,52.257550
Veenweg,65,P,,7416BB,Deventer,Deventer,Overijssel,VBO,6.171958,52.257475
Veenweg,65,R,,7416BB,Deventer,Deventer,Overijssel,VBO,6.171947,52.257419
Veenweg,67,T,,7416BB,Deventer,Deventer,Overijssel,VBO,6.171675,52.257044
Veenweg,67,,,7416BB,Deventer,Deventer,Overijssel,VBO,6.171747,52.257230
Veenweg,71,,,7416BB,Deventer,Deventer,Overijssel,VBO,6.171663,52.256602
Veenweg,2,,,7416BC,Deventer,Deventer,Overijssel,VBO,6.169698,52.259841
Veenweg,4,,,7416BC,Deventer,Deventer,Overijssel,VBO,6.169753,52.259801
Veenweg,6,,,7416BC,Deventer,Deventer,Overijssel,VBO,6.169802,52.259755
Veenweg,8,,,7416BC,Deventer,Deventer,Overijssel,VBO,6.169854,52.259710
Veenweg,10,,,7416BC,Deventer,Deventer,Overijssel,VBO,6.169902,52.259670
Veenweg,12,,,7416BC,Deventer,Deventer,Overijssel,VBO,6.169960,52.259627
Veenweg,14,,,7416BC,Deventer,Deventer,Overijssel,VBO,6.170004,52.259580
Veenweg,20,,,7416BC,Deventer,Deventer,Overijssel,VBO,6.170161,52.259477
Veenweg,22,,,7416BC,Deventer,Deventer,Overijssel,VBO,6.170184,52.259409
Veenweg,24,B,,7416BC,Deventer,Deventer,Overijssel,VBO,6.170221,52.259378
Veenweg,24,,,7416BC,Deventer,Deventer,Overijssel,VBO,6.170254,52.259391
Veenweg,26,,,7416BC,Deventer,Deventer,Overijssel,VBO,6.170295,52.259348
Veenweg,28,,,7416BC,Deventer,Deventer,Overijssel,VBO,6.170334,52.259318
Veenweg,30,,,7416BC,Deventer,Deventer,Overijssel,VBO,6.170377,52.259279
Veenweg,32,,,7416BC,Deventer,Deventer,Overijssel,VBO,6.170420,52.259243
Veenweg,34,,,7416BC,Deventer,Deventer,Overijssel,VBO,6.170461,52.259202
Veenweg,36,,,7416BC,Deventer,Deventer,Overijssel,VBO,6.170503,52.259172
Veenweg,38,,,7416BC,Deventer,Deventer,Overijssel,VBO,6.170565,52.259125
Veenweg,40,,,7416BC,Deventer,Deventer,Overijssel,VBO,6.170520,52.259108
Veenweg,42,,,7416BD,Deventer,Deventer,Overijssel,VBO,6.170731,52.258966
Veenweg,44,,,7416BD,Deventer,Deventer,Overijssel,VBO,6.170778,52.258928
Veenweg,46,,,7416BD,Deventer,Deventer,Overijssel,VBO,6.170827,52.258885
Veenweg,48,,,7416BD,Deventer,Deventer,Overijssel,VBO,6.170867,52.258836
Veenweg,50,,,7416BD,Deventer,Deventer,Overijssel,VBO,6.170911,52.258805
Veenweg,52,,,7416BD,Deventer,Deventer,Overijssel,VBO,6.170953,52.258754
Veenweg,54,,,7416BD,Deventer,Deventer,Overijssel,VBO,6.171010,52.258725
Veenweg,56,,,7416BD,Deventer,Deventer,Overijssel,VBO,6.171055,52.258682
Veenweg,58,,,7416BD,Deventer,Deventer,Overijssel,VBO,6.171099,52.258648
Veenweg,60,,,7416BD,Deventer,Deventer,Overijssel,VBO,6.171149,52.258607
Veenweg,62,,,7416BD,Deventer,Deventer,Overijssel,VBO,6.171198,52.258569
Veenweg,64,,,7416BD,Deventer,Deventer,Overijssel,VBO,6.171242,52.258531
Veenweg,66,,,7416BD,Deventer,Deventer,Overijssel,VBO,6.171291,52.258490
Veenweg,68,,,7416BD,Deventer,Deventer,Overijssel,VBO,6.171329,52.258437
Veenweg,70,,,7416BD,Deventer,Deventer,Overijssel,VBO,6.171383,52.258404
Veenweg,72,,,7416BD,Deventer,Deventer,Overijssel,VBO,6.171428,52.258367
Veenweg,74,,,7416BD,Deventer,Deventer,Overijssel,VBO,6.171474,52.258328
Veenweg,76,,,7416BD,Deventer,Deventer,Overijssel,VBO,6.171502,52.258283
Veenweg,78,,,7416BD,Deventer,Deventer,Overijssel,VBO,6.171545,52.258247
Veenweg,80,,,7416BE,Deventer,Deventer,Overijssel,VBO,6.171580,52.257778
Veenweg,82,,,7416BE,Deventer,Deventer,Overijssel,VBO,6.171572,52.257734
Veenweg,86,,,7416BE,Deventer,Deventer,Overijssel,VBO,6.171545,52.257681
Veenweg,88,,,7416BE,Deventer,Deventer,Overijssel,VBO,6.171544,52.257637
Veenweg,90,,,7416BE,Deventer,Deventer,Overijssel,VBO,6.171533,52.257590
Veenweg,92,,,7416BE,Deventer,Deventer,Overijssel,VBO,6.171525,52.257548
Veenweg,94,,,7416BE,Deventer,Deventer,Overijssel,VBO,6.171517,52.257499
Veenweg,96,,,7416BE,Deventer,Deventer,Overijssel,VBO,6.171502,52.257456
Veenweg,98,,,7416BE,Deventer,Deventer,Overijssel,VBO,6.171499,52.257406
Veenweg,100,,,7416BE,Deventer,Deventer,Overijssel,VBO,6.171484,52.257362
Veenweg,102,,,7416BE,Deventer,Deventer,Overijssel,VBO,6.171469,52.257241
Veenweg,104,,,7416BE,Deventer,Deventer,Overijssel,VBO,6.171483,52.257205
Veenweg,106,,,7416BE,Deventer,Deventer,Overijssel,VBO,6.171453,52.257169
Veenweg,108,,,7416BE,Deventer,Deventer,Overijssel,VBO,6.171438,52.257133
Veenweg,110,,,7416BE,Deventer,Deventer,Overijssel,VBO,6.171422,52.257097
Weseperstraat,3,,,7416BG,Deventer,Deventer,Overijssel,VBO,6.171853,52.256600
Weseperstraat,7,,,7416BG,Deventer,Deventer,Overijssel,VBO,6.172435,52.256729
Weseperstraat,14,,,7416BG,Deventer,Deventer,Overijssel,VBO,6.172229,52.257391
Weseperstraat,15,,,7416BG,Deventer,Deventer,Overijssel,VBO,6.172631,52.257137
Weseperstraat,16,,,7416BG,Deventer,Deventer,Overijssel,VBO,6.172310,52.257387
Weseperstraat,17,,,7416BG,Deventer,Deventer,Overijssel,VBO,6.172359,52.257180
Weseperstraat,18,,,7416BG,Deventer,Deventer,Overijssel,VBO,6.172391,52.257381
Weseperstraat,20,,,7416BG,Deventer,Deventer,Overijssel,VBO,6.172474,52.257372
Weseperstraat,22,,,7416BG,Deventer,Deventer,Overijssel,VBO,6.173044,52.257195
Weseperstraat,24,,,7416BG,Deventer,Deventer,Overijssel,VBO,6.173036,52.257143
Weseperstraat,26,,,7416BG,Deventer,Deventer,Overijssel,VBO,6.173057,52.257096
Weseperstraat,28,,,7416BG,Deventer,Deventer,Overijssel,VBO,6.173015,52.257046
Venenstraat,1,A,,7416BH,Deventer,Deventer,Overijssel,VBO,6.169880,52.257287
Venenstraat,1,B,,7416BH,Deventer,Deventer,Overijssel,VBO,6.169926,52.257300
Venenstraat,1,,,7416BH,Deventer,Deventer,Overijssel,VBO,6.170139,52.257286
Venenstraat,3,,,7416BH,Deventer,Deventer,Overijssel,VBO,6.170231,52.257297
Venenstraat,5,,,7416BH,Deventer,Deventer,Overijssel,VBO,6.170328,52.257301
Venenstraat,7,A,,7416BH,Deventer,Deventer,Overijssel,VBO,6.170484,52.257375
Venenstraat,7,,,7416BH,Deventer,Deventer,Overijssel,VBO,6.170405,52.257307
Venenstraat,9,A,,7416BH,Deventer,Deventer,Overijssel,VBO,6.170600,52.257332
Venenstraat,9,B,,7416BH,Deventer,Deventer,Overijssel,VBO,6.170596,52.257350
Venenstraat,9,,,7416BH,Deventer,Deventer,Overijssel,VBO,6.170597,52.257313
Venenstraat,11,A,,7416BH,Deventer,Deventer,Overijssel,VBO,6.170671,52.257335
Venenstraat,11,B,,7416BH,Deventer,Deventer,Overijssel,VBO,6.170751,52.257321
Venenstraat,11,C,,7416BH,Deventer,Deventer,Overijssel,VBO,6.170754,52.257345
Venenstraat,11,D,,7416BH,Deventer,Deventer,Overijssel,VBO,6.170864,52.257330
Venenstraat,11,E,,7416BH,Deventer,Deventer,Overijssel,VBO,6.170859,52.257347
Venenstraat,11,F,,7416BH,Deventer,Deventer,Overijssel,VBO,6.170856,52.257368
Venenstraat,11,G,,7416BH,Deventer,Deventer,Overijssel,VBO,6.170853,52.257386
Venenstraat,11,H,,7416BH,Deventer,Deventer,Overijssel,VBO,6.170852,52.257405
Venenstraat,13,A,,7416BH,Deventer,Deventer,Overijssel,VBO,6.170955,52.257368
Venenstraat,13,,,7416BH,Deventer,Deventer,Overijssel,VBO,6.170963,52.257338
Venenstraat,15,,,7416BH,Deventer,Deventer,Overijssel,VBO,6.171060,52.257333
Venenstraat,17,,,7416BH,Deventer,Deventer,Overijssel,VBO,6.171134,52.257342
Venenstraat,19,,,7416BH,Deventer,Deventer,Overijssel,VBO,6.171207,52.257341
Venenstraat,2,T,,7416BJ,Deventer,Deventer,Overijssel,VBO,6.169953,52.257122
Venenstraat,2,,,7416BJ,Deventer,Deventer,Overijssel,VBO,6.170031,52.257117
Venenstraat,4,,,7416BJ,Deventer,Deventer,Overijssel,VBO,6.170108,52.257125
Venenstraat,6,,,7416BJ,Deventer,Deventer,Overijssel,VBO,6.170181,52.257127
Venenstraat,8,,,7416BJ,Deventer,Deventer,Overijssel,VBO,6.170257,52.257133
Venenstraat,10,,,7416BJ,Deventer,Deventer,Overijssel,VBO,6.170375,52.257173
Venenstraat,12,,,7416BJ,Deventer,Deventer,Overijssel,VBO,6.170447,52.257182
Venenstraat,14,,,7416BJ,Deventer,Deventer,Overijssel,VBO,6.170516,52.257184
Venenstraat,16,,,7416BJ,Deventer,Deventer,Overijssel,VBO,6.170601,52.257190
Venenstraat,18,,,7416BJ,Deventer,Deventer,Overijssel,VBO,6.170686,52.257198
Venenstraat,22,,,7416BJ,Deventer,Deventer,Overijssel,VBO,6.170827,52.257206
Venenstraat,24,,,7416BJ,Deventer,Deventer,Overijssel,VBO,6.170898,52.257210
Venenstraat,26,,,7416BJ,Deventer,Deventer,Overijssel,VBO,6.170976,52.257213
Venenstraat,28,,,7416BJ,Deventer,Deventer,Overijssel,VBO,6.171056,52.257216
Venenstraat,30,,,7416BJ,Deventer,Deventer,Overijssel,VBO,6.171136,52.257224
Venenstraat,32,,,7416BJ,Deventer,Deventer,Overijssel,VBO,6.171234,52.257233
Venenstraat,34,,,7416BJ,Deventer,Deventer,Overijssel,VBO,6.171298,52.257239
Venenstraat,36,,,7416BJ,Deventer,Deventer,Overijssel,VBO,6.171352,52.257242
Smallepad,1,,,7416BK,Deventer,Deventer,Overijssel,VBO,6.168528,52.257065
Smallepad,2,,,7416BK,Deventer,Deventer,Overijssel,VBO,6.168346,52.257078
Smallepad,4,,,7416BK,Deventer,Deventer,Overijssel,VBO,6.168346,52.257012
Smallepad,6,,,7416BK,Deventer,Deventer,Overijssel,VBO,6.168296,52.256844
Smallepad,8,,,7416BK,Deventer,Deventer,Overijssel,VBO,6.168288,52.256799
Smallepad,10,,,7416BK,Deventer,Deventer,Overijssel,VBO,6.168282,52.256750
Rozengaarderweg,1,,,7416BL,Deventer,Deventer,Overijssel,VBO,6.166048,52.257142
Rozengaarderweg,5,,,7416BL,Deventer,Deventer,Overijssel,VBO,6.166354,52.257050
Rozengaarderweg,7,,,7416BL,Deventer,Deventer,Overijssel,VBO,6.166456,52.257031
Rozengaarderweg,9,,,7416BL,Deventer,Deventer,Overijssel,VBO,6.166514,52.257013
Rozengaarderweg,11,,,7416BL,Deventer,Deventer,Overijssel,VBO,6.166602,52.256985
Rozengaarderweg,13,,,7416BL,Deventer,Deventer,Overijssel,VBO,6.166674,52.256967
Rozengaarderweg,17,,,7416BL,Deventer,Deventer,Overijssel,VBO,6.166791,52.256930
Rozengaarderweg,19,,,7416BL,Deventer,Deventer,Overijssel,VBO,6.166878,52.256903
Rozengaarderweg,21,,,7416BL,Deventer,Deventer,Overijssel,VBO,6.166995,52.256884
Rozengaarderweg,23,,,7416BL,Deventer,Deventer,Overijssel,VBO,6.167156,52.256808
Rozengaarderweg,25,,,7416BL,Deventer,Deventer,Overijssel,VBO,6.167536,52.256720
Rozengaarderweg,27,,,7416BL,Deventer,Deventer,Overijssel,VBO,6.167655,52.256690
Rozengaarderweg,29,,,7416BL,Deventer,Deventer,Overijssel,VBO,6.167722,52.256677
Rozengaarderweg,31,,,7416BL,Deventer,Deventer,Overijssel,VBO,6.167794,52.256660
Rozengaarderweg,35,,,7416BL,Deventer,Deventer,Overijssel,VBO,6.167909,52.256632
Rozengaarderweg,37,,,7416BL,Deventer,Deventer,Overijssel,VBO,6.167980,52.256613
Rozengaarderweg,39,,,7416BL,Deventer,Deventer,Overijssel,VBO,6.168059,52.256590
Rozengaarderweg,41,,,7416BL,Deventer,Deventer,Overijssel,VBO,6.168169,52.256552
Rozengaarderweg,43,,,7416BL,Deventer,Deventer,Overijssel,VBO,6.168275,52.256522
Rozengaarderweg,45,,,7416BM,Deventer,Deventer,Overijssel,VBO,6.168467,52.256481
Rozengaarderweg,47,,,7416BM,Deventer,Deventer,Overijssel,VBO,6.168533,52.256464
Rozengaarderweg,49,,,7416BM,Deventer,Deventer,Overijssel,VBO,6.168607,52.256447
Rozengaarderweg,51,,,7416BM,Deventer,Deventer,Overijssel,VBO,6.168670,52.256431
Rozengaarderweg,53,,,7416BM,Deventer,Deventer,Overijssel,VBO,6.168733,52.256414
Rozengaarderweg,55,,,7416BM,Deventer,Deventer,Overijssel,VBO,6.168800,52.256398
Rozengaarderweg,57,,,7416BM,Deventer,Deventer,Overijssel,VBO,6.168876,52.256377
Rozengaarderweg,59,,,7416BM,Deventer,Deventer,Overijssel,VBO,6.169009,52.256390
Rozengaarderweg,61,,,7416BM,Deventer,Deventer,Overijssel,VBO,6.169095,52.256382
Rozengaarderweg,63,,,7416BM,Deventer,Deventer,Overijssel,VBO,6.169177,52.256378
Rozengaarderweg,65,,,7416BM,Deventer,Deventer,Overijssel,VBO,6.169258,52.256371
Rozengaarderweg,67,,,7416BM,Deventer,Deventer,Overijssel,VBO,6.169342,52.256353
Rozengaarderweg,69,,,7416BM,Deventer,Deventer,Overijssel,VBO,6.169427,52.256348
Rozengaarderweg,71,,,7416BM,Deventer,Deventer,Overijssel,VBO,6.169503,52.256343
Rozengaarderweg,2,A,,7416BN,Deventer,Deventer,Overijssel,VBO,6.165977,52.256968
Rozengaarderweg,2,,,7416BN,Deventer,Deventer,Overijssel,VBO,6.165809,52.257009
Rozengaarderweg,4,A,,7416BN,Deventer,Deventer,Overijssel,VBO,6.166281,52.256882
Rozengaarderweg,4,B,,7416BN,Deventer,Deventer,Overijssel,VBO,6.166265,52.256869
Rozengaarderweg,4,C,,7416BN,Deventer,Deventer,Overijssel,VBO,6.166254,52.256845
Rozengaarderweg,4,D,,7416BN,Deventer,Deventer,Overijssel,VBO,6.166241,52.256828
Rozengaarderweg,4,,,7416BN,Deventer,Deventer,Overijssel,VBO,6.166296,52.256901
Rozengaarderweg,6,A,,7416BN,Deventer,Deventer,Overijssel,VBO,6.166422,52.256806
Rozengaarderweg,6,B,,7416BN,Deventer,Deventer,Overijssel,VBO,6.166375,52.256732
Rozengaarderweg,6,C,,7416BN,Deventer,Deventer,Overijssel,VBO,6.166284,52.256675
Rozengaarderweg,6,,,7416BN,Deventer,Deventer,Overijssel,VBO,6.166463,52.256864
Rozengaarderweg,8,,,7416BN,Deventer,Deventer,Overijssel,VBO,6.166540,52.256797
Rozengaarderweg,10,,,7416BN,Deventer,Deventer,Overijssel,VBO,6.166627,52.256778
Rozengaarderweg,12,,,7416BN,Deventer,Deventer,Overijssel,VBO,6.166700,52.256760
Rozengaarderweg,16,,,7416BN,Deventer,Deventer,Overijssel,VBO,6.166758,52.256742
Rozengaarderweg,18,,,7416BN,Deventer,Deventer,Overijssel,VBO,6.166861,52.256723
Rozengaarderweg,20,,,7416BN,Deventer,Deventer,Overijssel,VBO,6.166963,52.256739
Rozengaarderweg,22,,,7416BN,Deventer,Deventer,Overijssel,VBO,6.167036,52.256720
Rozengaarderweg,24,,,7416BN,Deventer,Deventer,Overijssel,VBO,6.167094,52.256693
Rozengaarderweg,26,,,7416BN,Deventer,Deventer,Overijssel,VBO,6.167182,52.256667
Rozengaarderweg,28,,,7416BN,Deventer,Deventer,Overijssel,VBO,6.167263,52.256642
Rozengaarderweg,30,,,7416BN,Deventer,Deventer,Overijssel,VBO,6.167328,52.256624
Rozengaarderweg,32,,,7416BN,Deventer,Deventer,Overijssel,VBO,6.167400,52.256603
Rozengaarderweg,34,,,7416BN,Deventer,Deventer,Overijssel,VBO,6.167500,52.256588
Rozengaarderweg,36,,,7416BN,Deventer,Deventer,Overijssel,VBO,6.167586,52.256566
Rozengaarderweg,38,,,7416BN,Deventer,Deventer,Overijssel,VBO,6.167667,52.256546
Rozengaarderweg,40,,,7416BP,Deventer,Deventer,Overijssel,VBO,6.167778,52.256502
Rozengaarderweg,42,,,7416BP,Deventer,Deventer,Overijssel,VBO,6.167849,52.256484
Rozengaarderweg,44,,,7416BP,Deventer,Deventer,Overijssel,VBO,6.167918,52.256467
Rozengaarderweg,46,,,7416BP,Deventer,Deventer,Overijssel,VBO,6.167991,52.256448
Rozengaarderweg,48,,,7416BP,Deventer,Deventer,Overijssel,VBO,6.168024,52.256373
Rozengaarderweg,50,,,7416BP,Deventer,Deventer,Overijssel,VBO,6.168091,52.256355
Rozengaarderweg,52,,,7416BP,Deventer,Deventer,Overijssel,VBO,6.168157,52.256337
Rozengaarderweg,54,,,7416BP,Deventer,Deventer,Overijssel,VBO,6.168230,52.256323
Rozengaarderweg,56,,,7416BP,Deventer,Deventer,Overijssel,VBO,6.168295,52.256307
Rozengaarderweg,58,,,7416BP,Deventer,Deventer,Overijssel,VBO,6.168363,52.256285
Rozengaarderweg,60,,,7416BP,Deventer,Deventer,Overijssel,VBO,6.168515,52.256316
Rozengaarderweg,62,,,7416BP,Deventer,Deventer,Overijssel,VBO,6.168577,52.256303
Rozengaarderweg,64,,,7416BP,Deventer,Deventer,Overijssel,VBO,6.168637,52.256215
Rozengaarderweg,66,,,7416BP,Deventer,Deventer,Overijssel,VBO,6.168706,52.256194
Rozengaarderweg,68,,,7416BP,Deventer,Deventer,Overijssel,VBO,6.168770,52.256178
Rozengaarderweg,70,,,7416BP,Deventer,Deventer,Overijssel,VBO,6.168844,52.256160
Rozengaarderweg,72,,,7416BP,Deventer,Deventer,Overijssel,VBO,6.168977,52.256139
Rozengaarderweg,74,,,7416BP,Deventer,Deventer,Overijssel,VBO,6.169054,52.256129
Rozengaarderweg,76,,,7416BP,Deventer,Deventer,Overijssel,VBO,6.169127,52.256121
Rozengaarderweg,78,,,7416BP,Deventer,Deventer,Overijssel,VBO,6.169213,52.256108
Rozengaarderweg,80,,,7416BP,Deventer,Deventer,Overijssel,VBO,6.169279,52.256102
Rozengaarderweg,82,,,7416BP,Deventer,Deventer,Overijssel,VBO,6.169436,52.256124
Rozengaarderweg,84,,,7416BP,Deventer,Deventer,Overijssel,VBO,6.169509,52.256127
Rozengaarderweg,86,,,7416BP,Deventer,Deventer,Overijssel,VBO,6.169586,52.256130
Rozengaarderweg,88,,,7416BP,Deventer,Deventer,Overijssel,VBO,6.169656,52.256132
Rozengaarderweg,90,,,7416BP,Deventer,Deventer,Overijssel,VBO,6.169731,52.256133
Rozengaarderweg,92,,,7416BP,Deventer,Deventer,Overijssel,VBO,6.169803,52.256134
Rozengaarderweg,94,,,7416BP,Deventer,Deventer,Overijssel,VBO,6.169880,52.256142
Rozengaarderweg,96,,,7416BP,Deventer,Deventer,Overijssel,VBO,6.169948,52.256147
Rozengaarderweg,98,,,7416BP,Deventer,Deventer,Overijssel,VBO,6.170042,52.256201
Rozengaarderweg,100,,,7416BP,Deventer,Deventer,Overijssel,VBO,6.170136,52.256203
Rozengaarderweg,102,,,7416BP,Deventer,Deventer,Overijssel,VBO,6.170202,52.256218
Rozengaarderweg,104,,,7416BP,Deventer,Deventer,Overijssel,VBO,6.170338,52.256215
Rozengaarderweg,106,G,1,7416BP,Deventer,Deventer,Overijssel,VBO,6.170585,52.256252
Rozengaarderweg,106,G,10,7416BP,Deventer,Deventer,Overijssel,VBO,6.170782,52.256231
Rozengaarderweg,106,G,11,7416BP,Deventer,Deventer,Overijssel,VBO,6.170775,52.256256
Rozengaarderweg,106,G,2,7416BP,Deventer,Deventer,Overijssel,VBO,6.170590,52.256226
Rozengaarderweg,106,G,3,7416BP,Deventer,Deventer,Overijssel,VBO,6.170587,52.256204
Rozengaarderweg,106,G,4,7416BP,Deventer,Deventer,Overijssel,VBO,6.170589,52.256181
Rozengaarderweg,106,G,5,7416BP,Deventer,Deventer,Overijssel,VBO,6.170589,52.256154
Rozengaarderweg,106,G,6,7416BP,Deventer,Deventer,Overijssel,VBO,6.170589,52.256136
Rozengaarderweg,106,G,7,7416BP,Deventer,Deventer,Overijssel,VBO,6.170778,52.256164
Rozengaarderweg,106,G,8,7416BP,Deventer,Deventer,Overijssel,VBO,6.170781,52.256187
Rozengaarderweg,106,G,9,7416BP,Deventer,Deventer,Overijssel,VBO,6.170782,52.256214
Rozengaarderweg,106,,,7416BP,Deventer,Deventer,Overijssel,VBO,6.170440,52.256214
Rozengaarderweg,108,,,7416BP,Deventer,Deventer,Overijssel,VBO,6.170910,52.256265
Rozengaarderweg,110,,,7416BP,Deventer,Deventer,Overijssel,VBO,6.171007,52.256269
Colmschaterstraatweg,32,A,,7416BR,Deventer,Deventer,Overijssel,LIG,6.206013,52.260340
Colmschaterstraatweg,32,,,7416BR,Deventer,Deventer,Overijssel,VBO,6.205524,52.260542
Loomanstraat,1,,,7416BS,Deventer,Deventer,Overijssel,VBO,6.168540,52.256900
Loomanstraat,2,,,7416BS,Deventer,Deventer,Overijssel,VBO,6.168516,52.256682
Loomanstraat,3,,,7416BS,Deventer,Deventer,Overijssel,VBO,6.168624,52.256895
Loomanstraat,4,,,7416BS,Deventer,Deventer,Overijssel,VBO,6.168603,52.256692
Loomanstraat,5,,,7416BS,Deventer,Deventer,Overijssel,VBO,6.168709,52.256891
Loomanstraat,6,,,7416BS,Deventer,Deventer,Overijssel,VBO,6.168686,52.256691
Loomanstraat,7,,,7416BS,Deventer,Deventer,Overijssel,VBO,6.168782,52.256890
Loomanstraat,8,,,7416BS,Deventer,Deventer,Overijssel,VBO,6.168769,52.256689
Loomanstraat,9,,,7416BS,Deventer,Deventer,Overijssel,VBO,6.168870,52.256880
Loomanstraat,10,,,7416BS,Deventer,Deventer,Overijssel,VBO,6.168845,52.256689
Loomanstraat,11,,,7416BS,Deventer,Deventer,Overijssel,VBO,6.168956,52.256880
Loomanstraat,12,,,7416BS,Deventer,Deventer,Overijssel,VBO,6.168931,52.256701
Loomanstraat,13,,,7416BS,Deventer,Deventer,Overijssel,VBO,6.169083,52.256858
Loomanstraat,14,,,7416BS,Deventer,Deventer,Overijssel,VBO,6.169042,52.256690
Loomanstraat,15,,,7416BS,Deventer,Deventer,Overijssel,VBO,6.169166,52.256856
Loomanstraat,16,,,7416BS,Deventer,Deventer,Overijssel,VBO,6.169117,52.256687
Loomanstraat,17,,,7416BS,Deventer,Deventer,Overijssel,VBO,6.169250,52.256852
Loomanstraat,18,,,7416BS,Deventer,Deventer,Overijssel,VBO,6.169200,52.256685
Loomanstraat,19,,,7416BS,Deventer,Deventer,Overijssel,VBO,6.169332,52.256868
Loomanstraat,20,,,7416BS,Deventer,Deventer,Overijssel,VBO,6.169267,52.256683
Loomanstraat,21,,,7416BS,Deventer,Deventer,Overijssel,VBO,6.169426,52.256869
Loomanstraat,22,,,7416BS,Deventer,Deventer,Overijssel,VBO,6.169341,52.256628
Loomanstraat,24,,,7416BS,Deventer,Deventer,Overijssel,VBO,6.169416,52.256623
Loomanstraat,26,,,7416BS,Deventer,Deventer,Overijssel,VBO,6.169488,52.256621
Van Zalingenstraat,1,,,7416BT,Deventer,Deventer,Overijssel,VBO,6.170054,52.256954
Van Zalingenstraat,2,,,7416BT,Deventer,Deventer,Overijssel,VBO,6.169711,52.257216
Van Zalingenstraat,3,,,7416BT,Deventer,Deventer,Overijssel,VBO,6.170035,52.256902
Van Zalingenstraat,4,,,7416BT,Deventer,Deventer,Overijssel,VBO,6.169738,52.257081
Van Zalingenstraat,5,,,7416BT,Deventer,Deventer,Overijssel,VBO,6.170027,52.256855
Van Zalingenstraat,6,,,7416BT,Deventer,Deventer,Overijssel,VBO,6.169737,52.257037
Van Zalingenstraat,7,,,7416BT,Deventer,Deventer,Overijssel,VBO,6.170026,52.256810
Van Zalingenstraat,8,,,7416BT,Deventer,Deventer,Overijssel,VBO,6.169736,52.256992
Van Zalingenstraat,9,,,7416BT,Deventer,Deventer,Overijssel,VBO,6.170024,52.256764
Van Zalingenstraat,10,,,7416BT,Deventer,Deventer,Overijssel,VBO,6.169721,52.256947
Van Zalingenstraat,11,,,7416BT,Deventer,Deventer,Overijssel,VBO,6.170127,52.256719
Van Zalingenstraat,12,,,7416BT,Deventer,Deventer,Overijssel,VBO,6.169720,52.256902
Van Zalingenstraat,13,,,7416BT,Deventer,Deventer,Overijssel,VBO,6.170138,52.256522
Van Zalingenstraat,14,,,7416BT,Deventer,Deventer,Overijssel,VBO,6.169719,52.256857
Van Zalingenstraat,15,,,7416BT,Deventer,Deventer,Overijssel,VBO,6.170138,52.256473
Van Zalingenstraat,16,,,7416BT,Deventer,Deventer,Overijssel,VBO,6.169744,52.256623
Van Zalingenstraat,17,,,7416BT,Deventer,Deventer,Overijssel,VBO,6.170136,52.256432
Van Zalingenstraat,18,,,7416BT,Deventer,Deventer,Overijssel,VBO,6.169787,52.256569
Van Zalingenstraat,19,,,7416BT,Deventer,Deventer,Overijssel,VBO,6.170132,52.256387
Van Zalingenstraat,20,,,7416BT,Deventer,Deventer,Overijssel,VBO,6.169772,52.256533
Van Zalingenstraat,21,,,7416BT,Deventer,Deventer,Overijssel,VBO,6.170207,52.256333
Van Zalingenstraat,22,,,7416BT,Deventer,Deventer,Overijssel,VBO,6.169771,52.256488
Van Zalingenstraat,24,,,7416BT,Deventer,Deventer,Overijssel,VBO,6.169770,52.256434
Van Zalingenstraat,26,,,7416BT,Deventer,Deventer,Overijssel,VBO,6.169770,52.256398
Metzelaarplein,1,,,7416BV,Deventer,Deventer,Overijssel,VBO,6.170473,52.256569
Metzelaarplein,2,,,7416BV,Deventer,Deventer,Overijssel,VBO,6.170544,52.256567
Metzelaarplein,3,,,7416BV,Deventer,Deventer,Overijssel,VBO,6.170624,52.256534
Metzelaarplein,4,,,7416BV,Deventer,Deventer,Overijssel,VBO,6.170682,52.256525
Metzelaarplein,5,,,7416BV,Deventer,Deventer,Overijssel,VBO,6.170769,52.256524
Metzelaarplein,6,,,7416BV,Deventer,Deventer,Overijssel,VBO,6.170842,52.256523
Metzelaarplein,7,,,7416BV,Deventer,Deventer,Overijssel,VBO,6.170915,52.256523
Metzelaarplein,8,,,7416BV,Deventer,Deventer,Overijssel,VBO,6.170973,52.256525
Metzelaarplein,9,,,7416BV,Deventer,Deventer,Overijssel,VBO,6.171075,52.256524
Metzelaarplein,10,,,7416BV,Deventer,Deventer,Overijssel,VBO,6.171147,52.256517
Metzelaarplein,11,,,7416BV,Deventer,Deventer,Overijssel,VBO,6.171092,52.256614
Metzelaarplein,12,,,7416BV,Deventer,Deventer,Overijssel,VBO,6.171078,52.256668
Metzelaarplein,13,,,7416BV,Deventer,Deventer,Overijssel,VBO,6.171020,52.256713
Metzelaarplein,14,,,7416BV,Deventer,Deventer,Overijssel,VBO,6.171021,52.256758
Metzelaarplein,15,,,7416BV,Deventer,Deventer,Overijssel,VBO,6.171036,52.256803
Metzelaarplein,16,,,7416BV,Deventer,Deventer,Overijssel,VBO,6.171037,52.256848
Metzelaarplein,17,,,7416BV,Deventer,Deventer,Overijssel,VBO,6.171082,52.256893
Metzelaarplein,18,,,7416BV,Deventer,Deventer,Overijssel,VBO,6.171068,52.256938
Metzelaarplein,19,,,7416BV,Deventer,Deventer,Overijssel,VBO,6.171083,52.256983
Metzelaarplein,20,,,7416BV,Deventer,Deventer,Overijssel,VBO,6.170876,52.256849
Metzelaarplein,21,,,7416BV,Deventer,Deventer,Overijssel,VBO,6.170788,52.256850
Metzelaarplein,22,,,7416BV,Deventer,Deventer,Overijssel,VBO,6.170715,52.256850
Metzelaarplein,23,,,7416BV,Deventer,Deventer,Overijssel,VBO,6.170656,52.256851
Metzelaarplein,24,,,7416BV,Deventer,Deventer,Overijssel,VBO,6.170554,52.256860
Metzelaarplein,25,,,7416BV,Deventer,Deventer,Overijssel,VBO,6.170489,52.256772
Metzelaarplein,26,,,7416BV,Deventer,Deventer,Overijssel,VBO,6.170409,52.256774
Metzelaarplein,27,,,7416BV,Deventer,Deventer,Overijssel,VBO,6.170340,52.256774
Fortuinhof,1,,,7416BW,Deventer,Deventer,Overijssel,VBO,6.166796,52.257209
Fortuinhof,2,,,7416BW,Deventer,Deventer,Overijssel,VBO,6.166752,52.257209
Fortuinhof,3,,,7416BW,Deventer,Deventer,Overijssel,VBO,6.166693,52.257209
Fortuinhof,4,,,7416BW,Deventer,Deventer,Overijssel,VBO,6.166635,52.257210
Fortuinhof,5,,,7416BW,Deventer,Deventer,Overijssel,VBO,6.166576,52.257210
Fortuinhof,6,,,7416BW,Deventer,Deventer,Overijssel,VBO,6.166518,52.257211
Fortuinhof,7,,,7416BW,Deventer,Deventer,Overijssel,VBO,6.166459,52.257211
Fortuinhof,8,,,7416BW,Deventer,Deventer,Overijssel,VBO,6.166415,52.257211
Fortuinhof,9,,,7416BW,Deventer,Deventer,Overijssel,VBO,6.166811,52.257254
Fortuinhof,11,,,7416BW,Deventer,Deventer,Overijssel,VBO,6.166738,52.257254
Fortuinhof,13,,,7416BW,Deventer,Deventer,Overijssel,VBO,6.166650,52.257255
Fortuinhof,15,,,7416BW,Deventer,Deventer,Overijssel,VBO,6.166562,52.257246
Fortuinhof,16,,,7416BW,Deventer,Deventer,Overijssel,VBO,6.166518,52.257256
Fortuinhof,17,,,7416BW,Deventer,Deventer,Overijssel,VBO,6.166489,52.257256
Fortuinhof,18,,,7416BW,Deventer,Deventer,Overijssel,VBO,6.166445,52.257247
Fortuinhof,19,,,7416BW,Deventer,Deventer,Overijssel,VBO,6.166416,52.257256
Fortuinhof,20,,,7416BW,Deventer,Deventer,Overijssel,VBO,6.166386,52.257247
Fortuinhof,21,,,7416BW,Deventer,Deventer,Overijssel,VBO,6.166357,52.257248
Fortuinhof,22,,,7416BW,Deventer,Deventer,Overijssel,VBO,6.166343,52.257248
Fortuinhof,23,,,7416BW,Deventer,Deventer,Overijssel,VBO,6.166328,52.257248
Fortuinhof,24,,,7416BW,Deventer,Deventer,Overijssel,VBO,6.166313,52.257257
Fortuinhof,25,,,7416BX,Deventer,Deventer,Overijssel,VBO,6.167167,52.256896
Fortuinhof,26,,,7416BX,Deventer,Deventer,Overijssel,VBO,6.167223,52.256885
Fortuinhof,27,,,7416BX,Deventer,Deventer,Overijssel,VBO,6.167284,52.256864
Fortuinhof,28,,,7416BX,Deventer,Deventer,Overijssel,VBO,6.167139,52.256837
Fortuinhof,29,,,7416BX,Deventer,Deventer,Overijssel,VBO,6.167200,52.256822
Fortuinhof,30,,,7416BX,Deventer,Deventer,Overijssel,VBO,6.167246,52.256813
Fortuinhof,31,,,7416BX,Deventer,Deventer,Overijssel,VBO,6.167390,52.256984
Fortuinhof,32,,,7416BX,Deventer,Deventer,Overijssel,VBO,6.167435,52.256968
Fortuinhof,33,,,7416BX,Deventer,Deventer,Overijssel,VBO,6.167491,52.256954
Fortuinhof,34,,,7416BX,Deventer,Deventer,Overijssel,VBO,6.167546,52.256940
Fortuinhof,35,,,7416BX,Deventer,Deventer,Overijssel,VBO,6.167445,52.256922
Fortuinhof,36,,,7416BX,Deventer,Deventer,Overijssel,VBO,6.167399,52.256933
Fortuinhof,40,,,7416BX,Deventer,Deventer,Overijssel,VBO,6.167432,52.256878
Fortuinhof,41,,,7416BX,Deventer,Deventer,Overijssel,VBO,6.167397,52.256850
Fortuinhof,42,,,7416BX,Deventer,Deventer,Overijssel,VBO,6.167440,52.256837
Fortuinhof,43,,,7416BX,Deventer,Deventer,Overijssel,VBO,6.167372,52.256822
Fortuinhof,44,,,7416BX,Deventer,Deventer,Overijssel,VBO,6.167413,52.256814
Fortuinhof,48,,,7416BX,Deventer,Deventer,Overijssel,VBO,6.167439,52.256778
Fortuinhof,49,,,7416BX,Deventer,Deventer,Overijssel,VBO,6.167332,52.256770
Fortuinhof,50,,,7416BX,Deventer,Deventer,Overijssel,VBO,6.167375,52.256765
Fortuinhof,51,,,7416BX,Deventer,Deventer,Overijssel,VBO,6.167416,52.256757
Nova Zemblastraat,1,,,7416CA,Deventer,Deventer,Overijssel,VBO,6.173100,52.257433
Nova Zemblastraat,2,,,7416CA,Deventer,Deventer,Overijssel,VBO,6.172819,52.257492
Nova Zemblastraat,3,,,7416CA,Deventer,Deventer,Overijssel,VBO,6.173093,52.257389
Nova Zemblastraat,4,,,7416CA,Deventer,Deventer,Overijssel,VBO,6.172816,52.257441
Nova Zemblastraat,5,,,7416CA,Deventer,Deventer,Overijssel,VBO,6.173079,52.257340
Nova Zemblastraat,6,,,7416CA,Deventer,Deventer,Overijssel,VBO,6.172803,52.257388
Nova Zemblastraat,7,,,7416CA,Deventer,Deventer,Overijssel,VBO,6.173065,52.257292
Nova Zemblastraat,8,,,7416CA,Deventer,Deventer,Overijssel,VBO,6.172797,52.257342
Nova Zemblastraat,9,,,7416CA,Deventer,Deventer,Overijssel,VBO,6.173058,52.257240
Hein Burgersstraat,1,,,7416CB,Deventer,Deventer,Overijssel,VBO,6.172307,52.257714
Hein Burgersstraat,3,,,7416CB,Deventer,Deventer,Overijssel,VBO,6.172385,52.257703
Hein Burgersstraat,5,,,7416CB,Deventer,Deventer,Overijssel,VBO,6.172464,52.257697
Hein Burgersstraat,7,,,7416CB,Deventer,Deventer,Overijssel,VBO,6.172542,52.257688
Hein Burgersstraat,9,,,7416CB,Deventer,Deventer,Overijssel,VBO,6.172621,52.257680
Hein Burgersstraat,11,,,7416CB,Deventer,Deventer,Overijssel,VBO,6.172696,52.257671
Hein Burgersstraat,13,,,7416CB,Deventer,Deventer,Overijssel,VBO,6.172769,52.257662
Hein Burgersstraat,15,,,7416CB,Deventer,Deventer,Overijssel,VBO,6.172857,52.257653
Hein Burgersstraat,17,,,7416CB,Deventer,Deventer,Overijssel,VBO,6.173148,52.257633
Hein Burgersstraat,19,,,7416CB,Deventer,Deventer,Overijssel,VBO,6.173240,52.257626
Hein Burgersstraat,21,,,7416CB,Deventer,Deventer,Overijssel,VBO,6.173320,52.257616
Hein Burgersstraat,23,,,7416CB,Deventer,Deventer,Overijssel,VBO,6.173403,52.257611
Hein Burgersstraat,25,,,7416CB,Deventer,Deventer,Overijssel,VBO,6.173486,52.257603
Hein Burgersstraat,27,,,7416CB,Deventer,Deventer,Overijssel,VBO,6.173570,52.257596
Hein Burgersstraat,29,,,7416CB,Deventer,Deventer,Overijssel,VBO,6.173655,52.257587
Hein Burgersstraat,31,,,7416CB,Deventer,Deventer,Overijssel,VBO,6.173744,52.257579
Hein Burgersstraat,33,,,7416CB,Deventer,Deventer,Overijssel,VBO,6.173837,52.257569
Hein Burgersstraat,35,,,7416CB,Deventer,Deventer,Overijssel,VBO,6.174099,52.257559
Hein Burgersstraat,37,,,7416CB,Deventer,Deventer,Overijssel,VBO,6.174178,52.257554
Hein Burgersstraat,39,,,7416CB,Deventer,Deventer,Overijssel,VBO,6.174260,52.257549
Hein Burgersstraat,41,,,7416CB,Deventer,Deventer,Overijssel,VBO,6.174344,52.257542
Hein Burgersstraat,43,,,7416CB,Deventer,Deventer,Overijssel,VBO,6.174416,52.257534
Hein Burgersstraat,45,,,7416CB,Deventer,Deventer,Overijssel,VBO,6.174494,52.257526
Hein Burgersstraat,47,,,7416CB,Deventer,Deventer,Overijssel,VBO,6.174573,52.257518
Hein Burgersstraat,49,,,7416CB,Deventer,Deventer,Overijssel,VBO,6.174651,52.257511
Hein Burgersstraat,51,,,7416CB,Deventer,Deventer,Overijssel,VBO,6.174750,52.257507
Hein Burgersstraat,36,,,7416CC,Deventer,Deventer,Overijssel,VBO,6.174186,52.257775
Hein Burgersstraat,38,,,7416CC,Deventer,Deventer,Overijssel,VBO,6.174261,52.257764
Hein Burgersstraat,40,,,7416CC,Deventer,Deventer,Overijssel,VBO,6.174344,52.257757
Hein Burgersstraat,42,,,7416CC,Deventer,Deventer,Overijssel,VBO,6.174415,52.257751
Hein Burgersstraat,44,,,7416CC,Deventer,Deventer,Overijssel,VBO,6.174498,52.257745
Hein Burgersstraat,46,,,7416CC,Deventer,Deventer,Overijssel,VBO,6.174576,52.257736
Hein Burgersstraat,48,,,7416CC,Deventer,Deventer,Overijssel,VBO,6.174655,52.257728
Hein Burgersstraat,50,,,7416CC,Deventer,Deventer,Overijssel,VBO,6.174728,52.257720
Frits Drijverstraat,1,A,,7416CD,Deventer,Deventer,Overijssel,VBO,6.173039,52.256851
Frits Drijverstraat,1,B,,7416CD,Deventer,Deventer,Overijssel,VBO,6.173057,52.256911
Frits Drijverstraat,1,C,,7416CD,Deventer,Deventer,Overijssel,VBO,6.173074,52.256983
Frits Drijverstraat,1,D,,7416CD,Deventer,Deventer,Overijssel,VBO,6.172994,52.256853
Frits Drijverstraat,1,E,,7416CD,Deventer,Deventer,Overijssel,VBO,6.173014,52.256912
Frits Drijverstraat,1,F,,7416CD,Deventer,Deventer,Overijssel,VBO,6.173024,52.256989
Frits Drijverstraat,1,G,,7416CD,Deventer,Deventer,Overijssel,VBO,6.173215,52.256904
Frits Drijverstraat,1,H,,7416CD,Deventer,Deventer,Overijssel,VBO,6.172953,52.256853
Frits Drijverstraat,1,J,,7416CD,Deventer,Deventer,Overijssel,VBO,6.172968,52.256915
Frits Drijverstraat,1,K,,7416CD,Deventer,Deventer,Overijssel,VBO,6.172981,52.256993
Frits Drijverstraat,1,L,,7416CD,Deventer,Deventer,Overijssel,VBO,6.173191,52.256927
Frits Drijverstraat,3,,,7416CD,Deventer,Deventer,Overijssel,VBO,6.173334,52.256903
Frits Drijverstraat,5,,,7416CD,Deventer,Deventer,Overijssel,VBO,6.173407,52.256927
Frits Drijverstraat,7,,,7416CD,Deventer,Deventer,Overijssel,VBO,6.173479,52.256947
Frits Drijverstraat,9,,,7416CD,Deventer,Deventer,Overijssel,VBO,6.173558,52.256962
Frits Drijverstraat,11,,,7416CD,Deventer,Deventer,Overijssel,VBO,6.173652,52.256986
Frits Drijverstraat,13,,,7416CD,Deventer,Deventer,Overijssel,VBO,6.174032,52.257225
Frits Drijverstraat,15,,,7416CD,Deventer,Deventer,Overijssel,VBO,6.174010,52.257170
Frits Drijverstraat,17,,,7416CD,Deventer,Deventer,Overijssel,VBO,6.173993,52.257117
Frits Drijverstraat,19,,,7416CD,Deventer,Deventer,Overijssel,VBO,6.173985,52.257071
Frits Drijverstraat,21,,,7416CD,Deventer,Deventer,Overijssel,VBO,6.174067,52.257079
Frits Drijverstraat,23,,,7416CD,Deventer,Deventer,Overijssel,VBO,6.174137,52.257097
Frits Drijverstraat,25,,,7416CD,Deventer,Deventer,Overijssel,VBO,6.174201,52.257107
Frits Drijverstraat,27,,,7416CD,Deventer,Deventer,Overijssel,VBO,6.174264,52.257124
Frits Drijverstraat,29,,,7416CD,Deventer,Deventer,Overijssel,VBO,6.174078,52.257222
Frits Drijverstraat,31,,,7416CD,Deventer,Deventer,Overijssel,VBO,6.174057,52.257166
Frits Drijverstraat,33,,,7416CD,Deventer,Deventer,Overijssel,VBO,6.174050,52.257111
Frits Drijverstraat,35,,,7416CD,Deventer,Deventer,Overijssel,VBO,6.174348,52.257161
Frits Drijverstraat,37,,,7416CD,Deventer,Deventer,Overijssel,VBO,6.174423,52.257176
Frits Drijverstraat,39,,,7416CD,Deventer,Deventer,Overijssel,VBO,6.174497,52.257193
Frits Drijverstraat,41,,,7416CD,Deventer,Deventer,Overijssel,VBO,6.174572,52.257207
Frits Drijverstraat,43,,,7416CD,Deventer,Deventer,Overijssel,VBO,6.174655,52.257223
Frits Drijverstraat,45,,,7416CD,Deventer,Deventer,Overijssel,VBO,6.174725,52.257239
Frits Drijverstraat,47,,,7416CD,Deventer,Deventer,Overijssel,VBO,6.174796,52.257256
Frits Drijverstraat,49,,,7416CD,Deventer,Deventer,Overijssel,VBO,6.174872,52.257272
Frits Drijverstraat,51,,,7416CD,Deventer,Deventer,Overijssel,VBO,6.174945,52.257292
Frits Drijverstraat,53,,,7416CD,Deventer,Deventer,Overijssel,VBO,6.175214,52.257357
Frits Drijverstraat,55,,,7416CD,Deventer,Deventer,Overijssel,VBO,6.175293,52.257369
Frits Drijverstraat,57,,,7416CD,Deventer,Deventer,Overijssel,VBO,6.175372,52.257377
Frits Drijverstraat,59,,,7416CD,Deventer,Deventer,Overijssel,VBO,6.175446,52.257390
Frits Drijverstraat,61,,,7416CD,Deventer,Deventer,Overijssel,VBO,6.175515,52.257420
Frits Drijverstraat,63,,,7416CD,Deventer,Deventer,Overijssel,VBO,6.175585,52.257434
Frits Drijverstraat,65,,,7416CD,Deventer,Deventer,Overijssel,VBO,6.175658,52.257453
Frits Drijverstraat,67,,,7416CD,Deventer,Deventer,Overijssel,VBO,6.175733,52.257471
Frits Drijverstraat,69,,,7416CD,Deventer,Deventer,Overijssel,VBO,6.175807,52.257489
Frits Drijverstraat,71,,,7416CD,Deventer,Deventer,Overijssel,VBO,6.175888,52.257505
Carboniastraat,1,,,7416CE,Deventer,Deventer,Overijssel,VBO,6.174251,52.258179
Carboniastraat,2,,,7416CE,Deventer,Deventer,Overijssel,VBO,6.173816,52.257408
Carboniastraat,3,,,7416CE,Deventer,Deventer,Overijssel,VBO,6.174240,52.258128
Carboniastraat,4,,,7416CE,Deventer,Deventer,Overijssel,VBO,6.173766,52.257360
Carboniastraat,5,,,7416CE,Deventer,Deventer,Overijssel,VBO,6.174227,52.258081
Carboniastraat,6,,,7416CE,Deventer,Deventer,Overijssel,VBO,6.173788,52.257315
Carboniastraat,7,,,7416CE,Deventer,Deventer,Overijssel,VBO,6.174217,52.258034
Carboniastraat,8,,,7416CE,Deventer,Deventer,Overijssel,VBO,6.173781,52.257267
Carboniastraat,9,,,7416CE,Deventer,Deventer,Overijssel,VBO,6.174210,52.257984
Carboniastraat,10,,,7416CE,Deventer,Deventer,Overijssel,VBO,6.173773,52.257215
Carboniastraat,11,,,7416CE,Deventer,Deventer,Overijssel,VBO,6.174201,52.257934
Carboniastraat,12,,,7416CE,Deventer,Deventer,Overijssel,VBO,6.173723,52.257168
Carboniastraat,13,,,7416CE,Deventer,Deventer,Overijssel,VBO,6.174055,52.257384
Carboniastraat,14,,,7416CE,Deventer,Deventer,Overijssel,VBO,6.173745,52.257114
Carboniastraat,15,,,7416CE,Deventer,Deventer,Overijssel,VBO,6.174045,52.257336
Carboniastraat,16,,,7416CE,Deventer,Deventer,Overijssel,VBO,6.173732,52.257054
Carboniastraat,17,,,7416CE,Deventer,Deventer,Overijssel,VBO,6.174035,52.257287
Thom Thomassenstraat,1,,,7416CG,Deventer,Deventer,Overijssel,VBO,6.175110,52.257935
Thom Thomassenstraat,2,,,7416CG,Deventer,Deventer,Overijssel,VBO,6.174806,52.257949
Thom Thomassenstraat,3,,,7416CG,Deventer,Deventer,Overijssel,VBO,6.175091,52.257888
Thom Thomassenstraat,4,,,7416CG,Deventer,Deventer,Overijssel,VBO,6.174800,52.257897
Thom Thomassenstraat,5,,,7416CG,Deventer,Deventer,Overijssel,VBO,6.175084,52.257840
Thom Thomassenstraat,6,,,7416CG,Deventer,Deventer,Overijssel,VBO,6.174846,52.257455
Thom Thomassenstraat,7,,,7416CG,Deventer,Deventer,Overijssel,VBO,6.175081,52.257787
Thom Thomassenstraat,9,,,7416CG,Deventer,Deventer,Overijssel,VBO,6.175071,52.257743
Thom Thomassenstraat,11,,,7416CG,Deventer,Deventer,Overijssel,VBO,6.175062,52.257691
Thom Thomassenstraat,13,,,7416CG,Deventer,Deventer,Overijssel,VBO,6.175051,52.257642
Thom Thomassenstraat,15,,,7416CG,Deventer,Deventer,Overijssel,VBO,6.175089,52.257557
Thom Thomassenstraat,17,,,7416CG,Deventer,Deventer,Overijssel,VBO,6.175112,52.257510
Nico Bolkesteinlaan,1,T,,7416SB,Deventer,Deventer,Overijssel,VBO,6.179793,52.265299
Nico Bolkesteinlaan,1,,,7416SB,Deventer,Deventer,Overijssel,VBO,6.180612,52.261448
Nico Bolkesteinlaan,65,,,7416SE,Deventer,Deventer,Overijssel,VBO,6.189826,52.261801
Nico Bolkesteinlaan,75,,,7416SE,Deventer,Deventer,Overijssel,VBO,6.192068,52.261574
Nico Bolkesteinlaan,85,G,1,7416SE,Deventer,Deventer,Overijssel,VBO,6.194051,52.260592
Nico Bolkesteinlaan,85,,,7416SE,Deventer,Deventer,Overijssel,VBO,6.193848,52.260595
Nico Bolkesteinlaan,2,T,,7416SG,Deventer,Deventer,Overijssel,VBO,6.190639,52.259395
Nico Bolkesteinlaan,2,,,7416SG,Deventer,Deventer,Overijssel,VBO,6.190518,52.259503
Nico Bolkesteinlaan,4,T,,7416SG,Deventer,Deventer,Overijssel,VBO,6.192843,52.259177
Nico Bolkesteinlaan,4,,,7416SG,Deventer,Deventer,Overijssel,VBO,6.192339,52.259292
Nico Bolkesteinlaan,6,,,7416SG,Deventer,Deventer,Overijssel,VBO,6.190945,52.258730
Nico Bolkesteinlaan,8,,,7416SG,Deventer,Deventer,Overijssel,VBO,6.193280,52.257539
Nico Bolkesteinlaan,10,,,7416SG,Deventer,Deventer,Overijssel,VBO,6.193901,52.257588
Nico Bolkesteinlaan,12,,,7416SG,Deventer,Deventer,Overijssel,VBO,6.190187,52.258014
Nico Bolkesteinlaan,20,,,7416SG,Deventer,Deventer,Overijssel,VBO,6.197602,52.261433
Nico Bolkesteinlaan,22,,,7416SG,Deventer,Deventer,Overijssel,VBO,6.197823,52.261521
Severdinkstraat,1,,,7416SH,Deventer,Deventer,Overijssel,VBO,6.184726,52.259794
Severdinkstraat,3,,,7416SH,Deventer,Deventer,Overijssel,VBO,6.184681,52.259750
Severdinkstraat,5,,,7416SH,Deventer,Deventer,Overijssel,VBO,6.184562,52.259634
Severdinkstraat,7,,,7416SH,Deventer,Deventer,Overijssel,VBO,6.184502,52.259580
Severdinkstraat,9,,,7416SH,Deventer,Deventer,Overijssel,VBO,6.184354,52.259482
Severdinkstraat,11,,,7416SH,Deventer,Deventer,Overijssel,VBO,6.184309,52.259429
Severdinkstraat,13,,,7416SH,Deventer,Deventer,Overijssel,VBO,6.184220,52.259357
Severdinkstraat,15,,,7416SH,Deventer,Deventer,Overijssel,VBO,6.184160,52.259304
Severdinkstraat,17,,,7416SH,Deventer,Deventer,Overijssel,VBO,6.184027,52.259224
Severdinkstraat,19,,,7416SH,Deventer,Deventer,Overijssel,VBO,6.183997,52.259161
Severdinkstraat,21,,,7416SH,Deventer,Deventer,Overijssel,VBO,6.183892,52.259054
Severdinkstraat,23,,,7416SH,Deventer,Deventer,Overijssel,VBO,6.183833,52.258992
Severdinkstraat,2,,,7416SJ,Deventer,Deventer,Overijssel,VBO,6.184479,52.259904
Severdinkstraat,4,,,7416SJ,Deventer,Deventer,Overijssel,VBO,6.184419,52.259850
Severdinkstraat,6,,,7416SJ,Deventer,Deventer,Overijssel,VBO,6.184300,52.259743
Severdinkstraat,8,,,7416SJ,Deventer,Deventer,Overijssel,VBO,6.184211,52.259690
Severdinkstraat,10,,,7416SJ,Deventer,Deventer,Overijssel,VBO,6.184122,52.259592
Severdinkstraat,12,,,7416SJ,Deventer,Deventer,Overijssel,VBO,6.184047,52.259529
Severdinkstraat,14,,,7416SJ,Deventer,Deventer,Overijssel,VBO,6.183958,52.259458
Severdinkstraat,16,,,7416SJ,Deventer,Deventer,Overijssel,VBO,6.183898,52.259396
Severdinkstraat,18,,,7416SJ,Deventer,Deventer,Overijssel,VBO,6.183809,52.259315
Severdinkstraat,20,,,7416SJ,Deventer,Deventer,Overijssel,VBO,6.183735,52.259280
Severdinkstraat,22,,,7416SJ,Deventer,Deventer,Overijssel,VBO,6.183631,52.259173
Severdinkstraat,24,,,7416SJ,Deventer,Deventer,Overijssel,VBO,6.183557,52.259119
Severdinkstraat,26,,,7416SJ,Deventer,Deventer,Overijssel,VBO,6.183423,52.259012
Barinkstraat,1,,,7416SK,Deventer,Deventer,Overijssel,VBO,6.185118,52.259630
Barinkstraat,3,,,7416SK,Deventer,Deventer,Overijssel,VBO,6.185074,52.259585
Barinkstraat,5,,,7416SK,Deventer,Deventer,Overijssel,VBO,6.184999,52.259487
Barinkstraat,7,,,7416SK,Deventer,Deventer,Overijssel,VBO,6.184880,52.259425
Barinkstraat,9,,,7416SK,Deventer,Deventer,Overijssel,VBO,6.184776,52.259327
Barinkstraat,11,,,7416SK,Deventer,Deventer,Overijssel,VBO,6.184702,52.259273
Barinkstraat,13,,,7416SK,Deventer,Deventer,Overijssel,VBO,6.184627,52.259193
Barinkstraat,15,,,7416SK,Deventer,Deventer,Overijssel,VBO,6.184553,52.259140
Barinkstraat,17,,,7416SK,Deventer,Deventer,Overijssel,VBO,6.184478,52.259059
Barinkstraat,19,,,7416SK,Deventer,Deventer,Overijssel,VBO,6.184404,52.258997
Barinkstraat,21,,,7416SK,Deventer,Deventer,Overijssel,VBO,6.184256,52.258890
Barinkstraat,23,,,7416SK,Deventer,Deventer,Overijssel,VBO,6.184196,52.258836
Barinkstraat,25,,,7416SK,Deventer,Deventer,Overijssel,VBO,6.184092,52.258747
Rielerkolkweg,1,,,7416SL,Deventer,Deventer,Overijssel,VBO,6.184877,52.258717
Rielerkolkweg,2,,,7416SL,Deventer,Deventer,Overijssel,VBO,6.185118,52.258694
Rielerkolkweg,3,,,7416SL,Deventer,Deventer,Overijssel,VBO,6.185329,52.258624
Rielerkolkweg,4,,,7416SL,Deventer,Deventer,Overijssel,VBO,6.185526,52.258523
Rielerkolkweg,5,,,7416SL,Deventer,Deventer,Overijssel,VBO,6.185693,52.258412
Rielerkolkweg,6,,,7416SL,Deventer,Deventer,Overijssel,VBO,6.185875,52.258295
Warmboldinkstraat,1,,,7416SR,Deventer,Deventer,Overijssel,VBO,6.184013,52.260069
Warmboldinkstraat,3,,,7416SR,Deventer,Deventer,Overijssel,VBO,6.183983,52.260033
Warmboldinkstraat,5,,,7416SR,Deventer,Deventer,Overijssel,VBO,6.183924,52.259989
Warmboldinkstraat,7,,,7416SR,Deventer,Deventer,Overijssel,VBO,6.183864,52.259944
Warmboldinkstraat,9,,,7416SR,Deventer,Deventer,Overijssel,VBO,6.183820,52.259908
Warmboldinkstraat,11,,,7416SR,Deventer,Deventer,Overijssel,VBO,6.183775,52.259864
Vriezenbeltstraat,2,,,7416SV,Deventer,Deventer,Overijssel,VBO,6.185777,52.259599
Vriezenbeltstraat,4,,,7416SV,Deventer,Deventer,Overijssel,VBO,6.185851,52.259625
Vriezenbeltstraat,6,,,7416SV,Deventer,Deventer,Overijssel,VBO,6.185910,52.259652
Vriezenbeltstraat,8,,,7416SV,Deventer,Deventer,Overijssel,VBO,6.185983,52.259678
Vriezenbeltstraat,10,,,7416SV,Deventer,Deventer,Overijssel,VBO,6.186043,52.259714
Vriezenbeltstraat,12,,,7416SV,Deventer,Deventer,Overijssel,VBO,6.186116,52.259740
Vriezenbeltstraat,14,,,7416SV,Deventer,Deventer,Overijssel,VBO,6.186190,52.259767
Vriezenbeltstraat,16,,,7416SV,Deventer,Deventer,Overijssel,VBO,6.186698,52.259731
Vriezenbeltstraat,18,,,7416SV,Deventer,Deventer,Overijssel,VBO,6.186921,52.259693
Vriezenbeltstraat,20,,,7416SV,Deventer,Deventer,Overijssel,VBO,6.187141,52.259667
Vriezenbeltstraat,22,,,7416SV,Deventer,Deventer,Overijssel,VBO,6.187353,52.259621
Vriezenbeltstraat,24,,,7416SV,Deventer,Deventer,Overijssel,VBO,6.187575,52.259588
Vriezenbeltstraat,26,,,7416SV,Deventer,Deventer,Overijssel,VBO,6.187811,52.259538
Vriezenbeltstraat,28,,,7416SV,Deventer,Deventer,Overijssel,VBO,6.188034,52.259500
Parallelweg,22,,,7416WB,Deventer,Deventer,Overijssel,VBO,6.176133,52.257596
Parallelweg,23,,,7416WB,Deventer,Deventer,Overijssel,VBO,6.176265,52.257630
Parallelweg,24,,,7416WB,Deventer,Deventer,Overijssel,VBO,6.176326,52.257641
Parallelweg,25,,,7416WB,Deventer,Deventer,Overijssel,VBO,6.176395,52.257656
Parallelweg,26,,,7416WB,Deventer,Deventer,Overijssel,VBO,6.176459,52.257671
Parallelweg,27,,,7416WB,Deventer,Deventer,Overijssel,VBO,6.176529,52.257692
Parallelweg,28,,,7416WB,Deventer,Deventer,Overijssel,VBO,6.176795,52.257746
Parallelweg,29,,,7416WB,Deventer,Deventer,Overijssel,VBO,6.176856,52.257758
Parallelweg,30,,,7416WB,Deventer,Deventer,Overijssel,VBO,6.176928,52.257781
Parallelweg,31,,,7416WB,Deventer,Deventer,Overijssel,VBO,6.176998,52.257791
Parallelweg,32,,,7416WB,Deventer,Deventer,Overijssel,VBO,6.177068,52.257806
Parallelweg,33,,,7416WB,Deventer,Deventer,Overijssel,VBO,6.177131,52.257820
Parallelweg,34,,,7416WB,Deventer,Deventer,Overijssel,VBO,6.177210,52.257837
Parallelweg,42,,,7416WC,Deventer,Deventer,Overijssel,VBO,6.178196,52.258029
Parallelweg,43,,,7416WC,Deventer,Deventer,Overijssel,VBO,6.178264,52.258040
Parallelweg,44,,,7416WC,Deventer,Deventer,Overijssel,VBO,6.178342,52.258050
Parallelweg,45,,,7416WC,Deventer,Deventer,Overijssel,VBO,6.178411,52.258066
Parallelweg,46,,,7416WC,Deventer,Deventer,Overijssel,VBO,6.178485,52.258075
Parallelweg,47,,,7416WC,Deventer,Deventer,Overijssel,VBO,6.178543,52.258083
Parallelweg,48,,,7416WC,Deventer,Deventer,Overijssel,VBO,6.178610,52.258091
Parallelweg,49,,,7416WC,Deventer,Deventer,Overijssel,VBO,6.178676,52.258100
Oude Holterweg,1,G,1,7416WD,Deventer,Deventer,Overijssel,VBO,6.173989,52.258390
Oude Holterweg,3,G,1,7416WD,Deventer,Deventer,Overijssel,VBO,6.174104,52.258381
Oude Holterweg,5,,,7416WD,Deventer,Deventer,Overijssel,VBO,6.174213,52.258391
Oude Holterweg,7,,,7416WD,Deventer,Deventer,Overijssel,VBO,6.174290,52.258385
Oude Holterweg,9,,,7416WD,Deventer,Deventer,Overijssel,VBO,6.174379,52.258375
Oude Holterweg,11,,,7416WD,Deventer,Deventer,Overijssel,VBO,6.174461,52.258369
Oude Holterweg,13,,,7416WD,Deventer,Deventer,Overijssel,VBO,6.174549,52.258363
Oude Holterweg,15,,,7416WD,Deventer,Deventer,Overijssel,VBO,6.174630,52.258357
Oude Holterweg,17,,,7416WD,Deventer,Deventer,Overijssel,VBO,6.175193,52.258304
Oude Holterweg,19,,,7416WD,Deventer,Deventer,Overijssel,VBO,6.175296,52.258303
Oude Holterweg,21,,,7416WD,Deventer,Deventer,Overijssel,VBO,6.175369,52.258302
Oude Holterweg,23,,,7416WD,Deventer,Deventer,Overijssel,VBO,6.175457,52.258293
Oude Holterweg,25,,,7416WD,Deventer,Deventer,Overijssel,VBO,6.175544,52.258283
Oude Holterweg,27,,,7416WD,Deventer,Deventer,Overijssel,VBO,6.175632,52.258274
Oude Holterweg,29,,,7416WE,Deventer,Deventer,Overijssel,VBO,6.175969,52.258253
Oude Holterweg,31,,,7416WE,Deventer,Deventer,Overijssel,VBO,6.176042,52.258262
Oude Holterweg,33,,,7416WE,Deventer,Deventer,Overijssel,VBO,6.176130,52.258270
Oude Holterweg,35,,,7416WE,Deventer,Deventer,Overijssel,VBO,6.176174,52.258279
Oude Holterweg,37,,,7416WE,Deventer,Deventer,Overijssel,VBO,6.176248,52.258296
Oude Holterweg,39,,,7416WE,Deventer,Deventer,Overijssel,VBO,6.176321,52.258301
Oude Holterweg,41,,,7416WE,Deventer,Deventer,Overijssel,VBO,6.176521,52.258245
Oude Holterweg,43,,,7416WE,Deventer,Deventer,Overijssel,VBO,6.176553,52.258196
Oude Holterweg,45,,,7416WE,Deventer,Deventer,Overijssel,VBO,6.176567,52.258151
Oude Holterweg,47,,,7416WE,Deventer,Deventer,Overijssel,VBO,6.176610,52.258096
Oude Holterweg,49,,,7416WE,Deventer,Deventer,Overijssel,VBO,6.176639,52.258042
Oude Holterweg,51,,,7416WE,Deventer,Deventer,Overijssel,VBO,6.176667,52.257979
Oude Holterweg,53,,,7416WE,Deventer,Deventer,Overijssel,VBO,6.176695,52.257916
Oude Holterweg,2,,,7416WG,Deventer,Deventer,Overijssel,VBO,6.174529,52.258151
Oude Holterweg,4,,,7416WG,Deventer,Deventer,Overijssel,VBO,6.174605,52.258143
Oude Holterweg,6,,,7416WG,Deventer,Deventer,Overijssel,VBO,6.174688,52.258135
Oude Holterweg,8,,,7416WG,Deventer,Deventer,Overijssel,VBO,6.174763,52.258129
Oude Holterweg,10,,,7416WG,Deventer,Deventer,Overijssel,VBO,6.174840,52.258125
Oude Holterweg,12,A,,7416WG,Deventer,Deventer,Overijssel,VBO,6.175238,52.258090
Oude Holterweg,12,B,,7416WG,Deventer,Deventer,Overijssel,VBO,6.175319,52.258081
Oude Holterweg,12,,,7416WG,Deventer,Deventer,Overijssel,VBO,6.175157,52.258097
Oude Holterweg,14,T,,7416WG,Deventer,Deventer,Overijssel,VBO,6.175029,52.258126
Oude Holterweg,14,,,7416WG,Deventer,Deventer,Overijssel,VBO,6.175437,52.258065
Oude Holterweg,16,,,7416WG,Deventer,Deventer,Overijssel,VBO,6.175524,52.258056
Oude Holterweg,18,,,7416WG,Deventer,Deventer,Overijssel,VBO,6.175599,52.258049
Oude Holterweg,20,,,7416WG,Deventer,Deventer,Overijssel,VBO,6.175684,52.258047
Oude Holterweg,22,,,7416WG,Deventer,Deventer,Overijssel,VBO,6.175921,52.258034
Oude Holterweg,24,,,7416WG,Deventer,Deventer,Overijssel,VBO,6.176005,52.258030
Oude Holterweg,26,,,7416WG,Deventer,Deventer,Overijssel,VBO,6.176091,52.258019
Oude Holterweg,28,,,7416WG,Deventer,Deventer,Overijssel,VBO,6.176184,52.258009
Oude Holterweg,30,,,7416WG,Deventer,Deventer,Overijssel,VBO,6.176359,52.257990
Oude Holterweg,32,,,7416WG,Deventer,Deventer,Overijssel,VBO,6.176373,52.257936
Oude Holterweg,34,,,7416WG,Deventer,Deventer,Overijssel,VBO,6.176402,52.257891
Oude Holterweg,36,,,7416WG,Deventer,Deventer,Overijssel,VBO,6.176430,52.257846
2e Vetkampdwarsstraat,1,,,7416WH,Deventer,Deventer,Overijssel,VBO,6.172822,52.259200
2e Vetkampdwarsstraat,2,,,7416WH,Deventer,Deventer,Overijssel,VBO,6.172715,52.258967
2e Vetkampdwarsstraat,3,,,7416WH,Deventer,Deventer,Overijssel,VBO,6.172859,52.259166
2e Vetkampdwarsstraat,4,,,7416WH,Deventer,Deventer,Overijssel,VBO,6.172744,52.258940
2e Vetkampdwarsstraat,5,,,7416WH,Deventer,Deventer,Overijssel,VBO,6.172906,52.259123
2e Vetkampdwarsstraat,6,,,7416WH,Deventer,Deventer,Overijssel,VBO,6.172787,52.258895
2e Vetkampdwarsstraat,7,,,7416WH,Deventer,Deventer,Overijssel,VBO,6.172951,52.259073
2e Vetkampdwarsstraat,8,,,7416WH,Deventer,Deventer,Overijssel,VBO,6.172830,52.258868
2e Vetkampdwarsstraat,9,,,7416WH,Deventer,Deventer,Overijssel,VBO,6.172994,52.259037
2e Vetkampdwarsstraat,10,,,7416WH,Deventer,Deventer,Overijssel,VBO,6.172874,52.258831
2e Vetkampdwarsstraat,11,,,7416WH,Deventer,Deventer,Overijssel,VBO,6.173067,52.259001
2e Vetkampdwarsstraat,12,,,7416WH,Deventer,Deventer,Overijssel,VBO,6.172910,52.258795
2e Vetkampdwarsstraat,13,,,7416WH,Deventer,Deventer,Overijssel,VBO,6.173110,52.258938
2e Vetkampdwarsstraat,14,,,7416WH,Deventer,Deventer,Overijssel,VBO,6.172975,52.258759
2e Vetkampdwarsstraat,15,,,7416WH,Deventer,Deventer,Overijssel,VBO,6.173153,52.258910
2e Vetkampdwarsstraat,16,,,7416WH,Deventer,Deventer,Overijssel,VBO,6.173030,52.258702
2e Vetkampdwarsstraat,17,,,7416WH,Deventer,Deventer,Overijssel,VBO,6.173211,52.258865
2e Vetkampdwarsstraat,18,,,7416WH,Deventer,Deventer,Overijssel,VBO,6.173090,52.258668
2e Vetkampdwarsstraat,19,,,7416WH,Deventer,Deventer,Overijssel,VBO,6.173254,52.258829
2e Vetkampdwarsstraat,20,,,7416WH,Deventer,Deventer,Overijssel,VBO,6.173119,52.258623
1e Vetkampdwarsstraat,1,,,7416WJ,Deventer,Deventer,Overijssel,VBO,6.172317,52.258817
1e Vetkampdwarsstraat,2,,,7416WJ,Deventer,Deventer,Overijssel,VBO,6.172095,52.258711
1e Vetkampdwarsstraat,3,,,7416WJ,Deventer,Deventer,Overijssel,VBO,6.172360,52.258772
1e Vetkampdwarsstraat,4,,,7416WJ,Deventer,Deventer,Overijssel,VBO,6.172138,52.258674
1e Vetkampdwarsstraat,5,,,7416WJ,Deventer,Deventer,Overijssel,VBO,6.172403,52.258736
1e Vetkampdwarsstraat,6,,,7416WJ,Deventer,Deventer,Overijssel,VBO,6.172167,52.258629
1e Vetkampdwarsstraat,7,,,7416WJ,Deventer,Deventer,Overijssel,VBO,6.172447,52.258699
1e Vetkampdwarsstraat,8,,,7416WJ,Deventer,Deventer,Overijssel,VBO,6.172210,52.258602
1e Vetkampdwarsstraat,9,,,7416WJ,Deventer,Deventer,Overijssel,VBO,6.172490,52.258663
1e Vetkampdwarsstraat,10,,,7416WJ,Deventer,Deventer,Overijssel,VBO,6.172268,52.258557
1e Vetkampdwarsstraat,11,,,7416WJ,Deventer,Deventer,Overijssel,VBO,6.172518,52.258627
1e Vetkampdwarsstraat,13,,,7416WJ,Deventer,Deventer,Overijssel,VBO,6.172562,52.258591
Vetkampstraat,1,A,,7416WK,Deventer,Deventer,Overijssel,VBO,6.172179,52.259481
Vetkampstraat,1,T,1,7416WK,Deventer,Deventer,Overijssel,VBO,6.172643,52.259326
Vetkampstraat,1,T,3,7416WK,Deventer,Deventer,Overijssel,VBO,6.173137,52.261776
Vetkampstraat,1,,,7416WK,Deventer,Deventer,Overijssel,VBO,6.171956,52.259998
Vetkampstraat,2,,,7416WK,Deventer,Deventer,Overijssel,VBO,6.171789,52.258767
Vetkampstraat,4,,,7416WK,Deventer,Deventer,Overijssel,VBO,6.171833,52.258802
Vetkampstraat,6,,,7416WK,Deventer,Deventer,Overijssel,VBO,6.171892,52.258811
Vetkampstraat,8,,,7416WK,Deventer,Deventer,Overijssel,VBO,6.171966,52.258846
Vetkampstraat,10,,,7416WK,Deventer,Deventer,Overijssel,VBO,6.172158,52.258926
Vetkampstraat,12,,,7416WK,Deventer,Deventer,Overijssel,VBO,6.172217,52.258961
Vetkampstraat,14,,,7416WK,Deventer,Deventer,Overijssel,VBO,6.172276,52.258979
Vetkampstraat,16,,,7416WK,Deventer,Deventer,Overijssel,VBO,6.172335,52.258997
Vetkampstraat,18,,,7416WK,Deventer,Deventer,Overijssel,VBO,6.172438,52.259032
Vetkampstraat,20,,,7416WK,Deventer,Deventer,Overijssel,VBO,6.172482,52.259059
Vetkampstraat,22,,,7416WK,Deventer,Deventer,Overijssel,VBO,6.172541,52.259085
Vetkampstraat,24,,,7416WK,Deventer,Deventer,Overijssel,VBO,6.172600,52.259112
Vetkampstraat,26,,,7416WL,Deventer,Deventer,Overijssel,VBO,6.173501,52.259519
Vetkampstraat,28,,,7416WL,Deventer,Deventer,Overijssel,VBO,6.173545,52.259537
Vetkampstraat,30,,,7416WL,Deventer,Deventer,Overijssel,VBO,6.173604,52.259572
Vetkampstraat,32,,,7416WL,Deventer,Deventer,Overijssel,VBO,6.173664,52.259608
Vetkampstraat,34,,,7416WL,Deventer,Deventer,Overijssel,VBO,6.173708,52.259635
Vetkampstraat,36,,,7416WL,Deventer,Deventer,Overijssel,VBO,6.173767,52.259670
Vetkampstraat,38,,,7416WL,Deventer,Deventer,Overijssel,VBO,6.173885,52.259678
Vetkampstraat,40,,,7416WL,Deventer,Deventer,Overijssel,VBO,6.173929,52.259696
Vetkampstraat,42,,,7416WL,Deventer,Deventer,Overijssel,VBO,6.173988,52.259732
Vetkampstraat,44,,,7416WL,Deventer,Deventer,Overijssel,VBO,6.174047,52.259758
Vetkampstraat,46,,,7416WL,Deventer,Deventer,Overijssel,VBO,6.174106,52.259785
Vetkampstraat,48,,,7416WL,Deventer,Deventer,Overijssel,VBO,6.174151,52.259811
Vetkampstraat,50,,,7416WL,Deventer,Deventer,Overijssel,VBO,6.174167,52.259901
Vetkampstraat,52,,,7416WL,Deventer,Deventer,Overijssel,VBO,6.174197,52.259928
Vetkampstraat,54,,,7416WL,Deventer,Deventer,Overijssel,VBO,6.174241,52.259955
Vetkampstraat,56,,,7416WL,Deventer,Deventer,Overijssel,VBO,6.174300,52.259990
Vetkampstraat,58,,,7416WL,Deventer,Deventer,Overijssel,VBO,6.174359,52.260026
Vetkampstraat,60,,,7416WL,Deventer,Deventer,Overijssel,VBO,6.174404,52.260052
Ramelestraat,2,,,7416WV,Deventer,Deventer,Overijssel,VBO,6.179996,52.259134
Ramelestraat,6,A,,7416WV,Deventer,Deventer,Overijssel,VBO,6.180611,52.258772
Ramelestraat,6,B,,7416WV,Deventer,Deventer,Overijssel,VBO,6.180570,52.258640
Ramelestraat,6,C,,7416WV,Deventer,Deventer,Overijssel,VBO,6.180582,52.258581
Ramelestraat,6,D,,7416WV,Deventer,Deventer,Overijssel,VBO,6.180380,52.258558
Ramelestraat,6,E,,7416WV,Deventer,Deventer,Overijssel,VBO,6.180300,52.258607
Ramelestraat,6,F,,7416WV,Deventer,Deventer,Overijssel,VBO,6.180233,52.258654
Ramelestraat,6,G,,7416WV,Deventer,Deventer,Overijssel,VBO,6.180160,52.258697
Ramelestraat,6,H,,7416WV,Deventer,Deventer,Overijssel,VBO,6.180087,52.258743
Ramelestraat,6,K,,7416WV,Deventer,Deventer,Overijssel,VBO,6.180203,52.258766
Ramelestraat,6,L,,7416WV,Deventer,Deventer,Overijssel,VBO,6.180330,52.258786
Ramelestraat,6,M,,7416WV,Deventer,Deventer,Overijssel,VBO,6.180443,52.258801
Ramelestraat,6,T,,7416WV,Deventer,Deventer,Overijssel,VBO,6.180367,52.259294
Ramelestraat,6,,,7416WV,Deventer,Deventer,Overijssel,VBO,6.180425,52.258900
Ramelestraat,8,,,7416WV,Deventer,Deventer,Overijssel,VBO,6.180330,52.258990
Ramelestraat,10,,,7416WV,Deventer,Deventer,Overijssel,VBO,6.180672,52.259166
Ramelestraat,12,,,7416WV,Deventer,Deventer,Overijssel,VBO,6.180745,52.259165
Ramelestraat,14,,,7416WV,Deventer,Deventer,Overijssel,VBO,6.180848,52.259173
Ramelestraat,16,,,7416WV,Deventer,Deventer,Overijssel,VBO,6.180921,52.259182
Ramelestraat,18,,,7416WV,Deventer,Deventer,Overijssel,VBO,6.181258,52.259198
Ramelestraat,20,,,7416WV,Deventer,Deventer,Overijssel,VBO,6.181332,52.259197
Ramelestraat,22,,,7416WV,Deventer,Deventer,Overijssel,VBO,6.181420,52.259206
Ramelestraat,24,,,7416WV,Deventer,Deventer,Overijssel,VBO,6.181508,52.259214
Ramelestraat,26,,,7416WV,Deventer,Deventer,Overijssel,VBO,6.181581,52.259213
Ramelestraat,28,,,7416WV,Deventer,Deventer,Overijssel,VBO,6.181669,52.259222
Ramelestraat,30,,,7416WV,Deventer,Deventer,Overijssel,VBO,6.181757,52.259230
Ramelestraat,32,,,7416WV,Deventer,Deventer,Overijssel,VBO,6.181845,52.259239
Ramelestraat,34,G,1,7416WV,Deventer,Deventer,Overijssel,VBO,6.182430,52.259445
Ramelestraat,36,,,7416WV,Deventer,Deventer,Overijssel,VBO,6.182566,52.259441
Ramelestraat,38,,,7416WV,Deventer,Deventer,Overijssel,VBO,6.182654,52.259431
Ramelestraat,40,,,7416WV,Deventer,Deventer,Overijssel,VBO,6.182742,52.259430
Ramelestraat,42,,,7416WV,Deventer,Deventer,Overijssel,VBO,6.182844,52.259430
Ramelestraat,9,,,7416WX,Deventer,Deventer,Overijssel,VBO,6.180591,52.259544
Ramelestraat,11,,,7416WX,Deventer,Deventer,Overijssel,VBO,6.180679,52.259552
Ramelestraat,13,,,7416WX,Deventer,Deventer,Overijssel,VBO,6.180767,52.259569
Ramelestraat,15,,,7416WX,Deventer,Deventer,Overijssel,VBO,6.180855,52.259578
Ramelestraat,17,,,7416WX,Deventer,Deventer,Overijssel,VBO,6.180943,52.259586
Ramelestraat,19,,,7416WX,Deventer,Deventer,Overijssel,VBO,6.181031,52.259595
Ramelestraat,21,,,7416WX,Deventer,Deventer,Overijssel,VBO,6.181119,52.259612
Ramelestraat,23,,,7416WX,Deventer,Deventer,Overijssel,VBO,6.181207,52.259620
Ramelestraat,25,,,7416WX,Deventer,Deventer,Overijssel,VBO,6.181310,52.259629
Ramelestraat,27,,,7416WX,Deventer,Deventer,Overijssel,VBO,6.181457,52.259646
Ramelestraat,29,,,7416WX,Deventer,Deventer,Overijssel,VBO,6.181560,52.259663
Ramelestraat,31,,,7416WZ,Deventer,Deventer,Overijssel,VBO,6.181648,52.259662
Ramelestraat,33,,,7416WZ,Deventer,Deventer,Overijssel,VBO,6.181736,52.259671
Ramelestraat,35,,,7416WZ,Deventer,Deventer,Overijssel,VBO,6.181824,52.259679
Ramelestraat,37,,,7416WZ,Deventer,Deventer,Overijssel,VBO,6.181912,52.259688
Ramelestraat,39,,,7416WZ,Deventer,Deventer,Overijssel,VBO,6.182014,52.259696
Ramelestraat,41,,,7416WZ,Deventer,Deventer,Overijssel,VBO,6.182102,52.259695
Ramelestraat,43,,,7416WZ,Deventer,Deventer,Overijssel,VBO,6.182190,52.259704
Ramelestraat,45,,,7416WZ,Deventer,Deventer,Overijssel,VBO,6.182438,52.259703
Ramelestraat,47,,,7416WZ,Deventer,Deventer,Overijssel,VBO,6.182530,52.259702
Ramelestraat,49,,,7416WZ,Deventer,Deventer,Overijssel,VBO,6.182630,52.259701
Ramelestraat,51,,,7416WZ,Deventer,Deventer,Overijssel,VBO,6.182711,52.259697
Ramelestraat,53,,,7416WZ,Deventer,Deventer,Overijssel,VBO,6.182805,52.259700
Ramelestraat,55,,,7416WZ,Deventer,Deventer,Overijssel,VBO,6.182889,52.259697
Gooierstraat,1,,,7416XA,Deventer,Deventer,Overijssel,VBO,6.176387,52.258718
Gooierstraat,3,,,7416XA,Deventer,Deventer,Overijssel,VBO,6.176475,52.258738
Gooierstraat,5,,,7416XA,Deventer,Deventer,Overijssel,VBO,6.176551,52.258757
Gooierstraat,7,,,7416XA,Deventer,Deventer,Overijssel,VBO,6.176639,52.258776
Gooierstraat,9,,,7416XA,Deventer,Deventer,Overijssel,VBO,6.176905,52.259029
Gooierstraat,2,,,7416XC,Deventer,Deventer,Overijssel,VBO,6.175950,52.258422
Gooierstraat,4,,,7416XC,Deventer,Deventer,Overijssel,VBO,6.176012,52.258435
Gooierstraat,6,,,7416XC,Deventer,Deventer,Overijssel,VBO,6.176075,52.258445
Gooierstraat,8,,,7416XC,Deventer,Deventer,Overijssel,VBO,6.176138,52.258460
Gooierstraat,10,,,7416XC,Deventer,Deventer,Overijssel,VBO,6.176200,52.258474
Gooierstraat,12,,,7416XC,Deventer,Deventer,Overijssel,VBO,6.176264,52.258487
Gooierstraat,14,,,7416XC,Deventer,Deventer,Overijssel,VBO,6.176339,52.258496
Gooierstraat,16,,,7416XC,Deventer,Deventer,Overijssel,VBO,6.176424,52.258511
Gooierstraat,18,,,7416XC,Deventer,Deventer,Overijssel,VBO,6.176517,52.258542
Gooierstraat,20,,,7416XC,Deventer,Deventer,Overijssel,VBO,6.176588,52.258555
Gooierstraat,22,,,7416XC,Deventer,Deventer,Overijssel,VBO,6.176669,52.258571
Gooierstraat,24,,,7416XC,Deventer,Deventer,Overijssel,VBO,6.176744,52.258589
Gooierstraat,26,,,7416XC,Deventer,Deventer,Overijssel,VBO,6.177038,52.258668
Gooierstraat,28,,,7416XC,Deventer,Deventer,Overijssel,VBO,6.177107,52.258681
Gooierstraat,30,,,7416XC,Deventer,Deventer,Overijssel,VBO,6.177175,52.258697
Gooierstraat,32,,,7416XC,Deventer,Deventer,Overijssel,VBO,6.177243,52.258711
Gooierstraat,34,,,7416XC,Deventer,Deventer,Overijssel,VBO,6.177324,52.258723
Gooierstraat,36,,,7416XC,Deventer,Deventer,Overijssel,VBO,6.177376,52.258742
Gooierstraat,38,,,7416XC,Deventer,Deventer,Overijssel,VBO,6.177442,52.258756
Gooierstraat,40,,,7416XC,Deventer,Deventer,Overijssel,VBO,6.177516,52.258773
Gooierstraat,42,,,7416XD,Deventer,Deventer,Overijssel,VBO,6.178026,52.258856
Gooierstraat,44,,,7416XD,Deventer,Deventer,Overijssel,VBO,6.178097,52.258866
Gooierstraat,46,,,7416XD,Deventer,Deventer,Overijssel,VBO,6.178167,52.258873
Gooierstraat,48,,,7416XD,Deventer,Deventer,Overijssel,VBO,6.178238,52.258881
Gooierstraat,50,,,7416XD,Deventer,Deventer,Overijssel,VBO,6.178308,52.258890
Gooierstraat,52,,,7416XD,Deventer,Deventer,Overijssel,VBO,6.178384,52.258897
Gooierstraat,54,,,7416XD,Deventer,Deventer,Overijssel,VBO,6.178450,52.258905
Gooierstraat,56,,,7416XD,Deventer,Deventer,Overijssel,VBO,6.178500,52.258920
Averlostraat,2,,,7416XG,Deventer,Deventer,Overijssel,VBO,6.178511,52.258758
Averlostraat,3,,,7416XG,Deventer,Deventer,Overijssel,VBO,6.179086,52.258213
Averlostraat,4,,,7416XG,Deventer,Deventer,Overijssel,VBO,6.178525,52.258713
Averlostraat,6,,,7416XG,Deventer,Deventer,Overijssel,VBO,6.178539,52.258677
Averlostraat,8,,,7416XG,Deventer,Deventer,Overijssel,VBO,6.178538,52.258623
Averlostraat,10,,,7416XG,Deventer,Deventer,Overijssel,VBO,6.178552,52.258587
Averlostraat,12,,,7416XG,Deventer,Deventer,Overijssel,VBO,6.178566,52.258542
Averlostraat,14,,,7416XG,Deventer,Deventer,Overijssel,VBO,6.178565,52.258497
Averlostraat,16,,,7416XG,Deventer,Deventer,Overijssel,VBO,6.178579,52.258443
Averlostraat,18,,,7416XG,Deventer,Deventer,Overijssel,VBO,6.178593,52.258407
Averlostraat,20,,,7416XG,Deventer,Deventer,Overijssel,VBO,6.178592,52.258353
Averlostraat,22,,,7416XG,Deventer,Deventer,Overijssel,VBO,6.178606,52.258308
Averlostraat,24,,,7416XG,Deventer,Deventer,Overijssel,VBO,6.178605,52.258272
Randerstraat,1,,,7416XH,Deventer,Deventer,Overijssel,VBO,6.177780,52.258835
Randerstraat,3,,,7416XH,Deventer,Deventer,Overijssel,VBO,6.177795,52.258798
Randerstraat,5,,,7416XH,Deventer,Deventer,Overijssel,VBO,6.177823,52.258753
Randerstraat,7,,,7416XH,Deventer,Deventer,Overijssel,VBO,6.177837,52.258717
Randerstraat,9,,,7416XH,Deventer,Deventer,Overijssel,VBO,6.177851,52.258672
Randerstraat,11,,,7416XH,Deventer,Deventer,Overijssel,VBO,6.177879,52.258627
Randerstraat,13,,,7416XH,Deventer,Deventer,Overijssel,VBO,6.178025,52.258590
Randerstraat,15,,,7416XH,Deventer,Deventer,Overijssel,VBO,6.178039,52.258554
Randerstraat,17,,,7416XH,Deventer,Deventer,Overijssel,VBO,6.178068,52.258509
Randerstraat,19,,,7416XH,Deventer,Deventer,Overijssel,VBO,6.178082,52.258473
Randerstraat,21,,,7416XH,Deventer,Deventer,Overijssel,VBO,6.178096,52.258428
Randerstraat,23,,,7416XH,Deventer,Deventer,Overijssel,VBO,6.178109,52.258383
Randerstraat,25,,,7416XH,Deventer,Deventer,Overijssel,VBO,6.178123,52.258329
Randerstraat,27,,,7416XH,Deventer,Deventer,Overijssel,VBO,6.178152,52.258284
Randerstraat,29,,,7416XH,Deventer,Deventer,Overijssel,VBO,6.178166,52.258248
Randerstraat,31,,,7416XH,Deventer,Deventer,Overijssel,VBO,6.178194,52.258203
Randerstraat,2,,,7416XJ,Deventer,Deventer,Overijssel,VBO,6.177591,52.258581
Randerstraat,4,,,7416XJ,Deventer,Deventer,Overijssel,VBO,6.177599,52.258539
Randerstraat,6,,,7416XJ,Deventer,Deventer,Overijssel,VBO,6.177616,52.258501
Randerstraat,8,,,7416XJ,Deventer,Deventer,Overijssel,VBO,6.177631,52.258458
Randerstraat,10,,,7416XJ,Deventer,Deventer,Overijssel,VBO,6.177656,52.258413
Randerstraat,12,,,7416XJ,Deventer,Deventer,Overijssel,VBO,6.177670,52.258368
Randerstraat,14,,,7416XJ,Deventer,Deventer,Overijssel,VBO,6.177698,52.258332
Randerstraat,16,,,7416XJ,Deventer,Deventer,Overijssel,VBO,6.177712,52.258287
Randerstraat,18,,,7416XJ,Deventer,Deventer,Overijssel,VBO,6.177829,52.258241
Randerstraat,20,,,7416XJ,Deventer,Deventer,Overijssel,VBO,6.177839,52.258207
Randerstraat,22,,,7416XJ,Deventer,Deventer,Overijssel,VBO,6.177871,52.258160
Randerstraat,24,,,7416XJ,Deventer,Deventer,Overijssel,VBO,6.177885,52.258115
Randerstraat,26,,,7416XJ,Deventer,Deventer,Overijssel,VBO,6.177898,52.258077
Randerstraat,28,,,7416XJ,Deventer,Deventer,Overijssel,VBO,6.177913,52.258034
Randerstraat,30,,,7416XJ,Deventer,Deventer,Overijssel,VBO,6.177941,52.257989
Randerstraat,32,,,7416XJ,Deventer,Deventer,Overijssel,VBO,6.177955,52.257953
Tjoenerstraat,1,,,7416XK,Deventer,Deventer,Overijssel,VBO,6.175074,52.260650
Tjoenerstraat,3,,,7416XK,Deventer,Deventer,Overijssel,VBO,6.175146,52.260587
Tjoenerstraat,5,,,7416XK,Deventer,Deventer,Overijssel,VBO,6.175261,52.260505
Tjoenerstraat,7,,,7416XK,Deventer,Deventer,Overijssel,VBO,6.175348,52.260451
Tjoenerstraat,9,,,7416XK,Deventer,Deventer,Overijssel,VBO,6.175479,52.260369
Tjoenerstraat,11,,,7416XK,Deventer,Deventer,Overijssel,VBO,6.175537,52.260324
Tjoenerstraat,13,,,7416XK,Deventer,Deventer,Overijssel,VBO,6.175667,52.260224
Tjoenerstraat,15,,,7416XK,Deventer,Deventer,Overijssel,VBO,6.175739,52.260187
Tjoenerstraat,17,,,7416XK,Deventer,Deventer,Overijssel,VBO,6.175869,52.260097
Tjoenerstraat,19,,,7416XK,Deventer,Deventer,Overijssel,VBO,6.175956,52.260042
Tjoenerstraat,41,,,7416XL,Deventer,Deventer,Overijssel,VBO,6.177130,52.258506
Tjoenerstraat,43,,,7416XL,Deventer,Deventer,Overijssel,VBO,6.177159,52.258470
Tjoenerstraat,45,,,7416XL,Deventer,Deventer,Overijssel,VBO,6.177187,52.258434
Tjoenerstraat,47,,,7416XL,Deventer,Deventer,Overijssel,VBO,6.177201,52.258389
Tjoenerstraat,49,,,7416XL,Deventer,Deventer,Overijssel,VBO,6.177230,52.258344
Tjoenerstraat,51,,,7416XL,Deventer,Deventer,Overijssel,VBO,6.177258,52.258299
Tjoenerstraat,53,,,7416XL,Deventer,Deventer,Overijssel,VBO,6.177287,52.258263
Tjoenerstraat,55,,,7416XL,Deventer,Deventer,Overijssel,VBO,6.177315,52.258217
Tjoenerstraat,57,,,7416XL,Deventer,Deventer,Overijssel,VBO,6.177373,52.258172
Tjoenerstraat,59,,,7416XL,Deventer,Deventer,Overijssel,VBO,6.177402,52.258136
Tjoenerstraat,61,,,7416XL,Deventer,Deventer,Overijssel,VBO,6.177416,52.258091
Tjoenerstraat,63,,,7416XL,Deventer,Deventer,Overijssel,VBO,6.177444,52.258046
Tjoenerstraat,65,,,7416XL,Deventer,Deventer,Overijssel,VBO,6.177473,52.258010
Tjoenerstraat,67,,,7416XL,Deventer,Deventer,Overijssel,VBO,6.177487,52.257965
Tjoenerstraat,69,,,7416XL,Deventer,Deventer,Overijssel,VBO,6.177501,52.257929
Tjoenerstraat,71,,,7416XL,Deventer,Deventer,Overijssel,VBO,6.177529,52.257883
Tjoenerstraat,2,,,7416XM,Deventer,Deventer,Overijssel,VBO,6.174864,52.260373
Tjoenerstraat,4,,,7416XM,Deventer,Deventer,Overijssel,VBO,6.174907,52.260337
Tjoenerstraat,6,,,7416XM,Deventer,Deventer,Overijssel,VBO,6.174965,52.260300
Tjoenerstraat,8,,,7416XM,Deventer,Deventer,Overijssel,VBO,6.175008,52.260273
Tjoenerstraat,10,,,7416XM,Deventer,Deventer,Overijssel,VBO,6.175081,52.260219
Tjoenerstraat,12,,,7416XM,Deventer,Deventer,Overijssel,VBO,6.175153,52.260182
Tjoenerstraat,14,,,7416XM,Deventer,Deventer,Overijssel,VBO,6.175211,52.260146
Tjoenerstraat,16,,,7416XM,Deventer,Deventer,Overijssel,VBO,6.175255,52.260119
Tjoenerstraat,18,,,7416XM,Deventer,Deventer,Overijssel,VBO,6.175327,52.260064
Tjoenerstraat,20,,,7416XM,Deventer,Deventer,Overijssel,VBO,6.175385,52.260028
Tjoenerstraat,22,,,7416XM,Deventer,Deventer,Overijssel,VBO,6.175443,52.260001
Tjoenerstraat,24,,,7416XM,Deventer,Deventer,Overijssel,VBO,6.175515,52.259946
Tjoenerstraat,26,,,7416XM,Deventer,Deventer,Overijssel,VBO,6.175588,52.259892
Tjoenerstraat,28,,,7416XM,Deventer,Deventer,Overijssel,VBO,6.175645,52.259855
Tjoenerstraat,30,,,7416XM,Deventer,Deventer,Overijssel,VBO,6.175703,52.259810
Tjoenerstraat,32,,,7416XM,Deventer,Deventer,Overijssel,VBO,6.175747,52.259774
Tjoenerstraat,34,,,7416XM,Deventer,Deventer,Overijssel,VBO,6.175819,52.259737
Tjoenerstraat,36,,,7416XM,Deventer,Deventer,Overijssel,VBO,6.175877,52.259701
Tjoenerstraat,38,,,7416XN,Deventer,Deventer,Overijssel,VBO,6.176454,52.259220
Tjoenerstraat,40,,,7416XN,Deventer,Deventer,Overijssel,VBO,6.176474,52.259181
Tjoenerstraat,42,,,7416XN,Deventer,Deventer,Overijssel,VBO,6.176494,52.259138
Tjoenerstraat,44,,,7416XN,Deventer,Deventer,Overijssel,VBO,6.176516,52.259093
Tjoenerstraat,46,,,7416XN,Deventer,Deventer,Overijssel,VBO,6.176528,52.259055
Tjoenerstraat,48,,,7416XN,Deventer,Deventer,Overijssel,VBO,6.176550,52.259008
Tjoenerstraat,50,,,7416XN,Deventer,Deventer,Overijssel,VBO,6.176552,52.258960
Tjoenerstraat,52,,,7416XN,Deventer,Deventer,Overijssel,VBO,6.176588,52.258920
Tjoenerstraat,54,,,7416XN,Deventer,Deventer,Overijssel,VBO,6.176807,52.258446
Tjoenerstraat,56,,,7416XN,Deventer,Deventer,Overijssel,VBO,6.176850,52.258409
Tjoenerstraat,58,,,7416XN,Deventer,Deventer,Overijssel,VBO,6.176864,52.258364
Tjoenerstraat,60,,,7416XN,Deventer,Deventer,Overijssel,VBO,6.176904,52.258311
Tjoenerstraat,62,,,7416XN,Deventer,Deventer,Overijssel,VBO,6.176942,52.258243
Tjoenerstraat,64,,,7416XN,Deventer,Deventer,Overijssel,VBO,6.176968,52.258203
Tjoenerstraat,66,,,7416XN,Deventer,Deventer,Overijssel,VBO,6.176995,52.258160
Tjoenerstraat,68,,,7416XN,Deventer,Deventer,Overijssel,VBO,6.177023,52.258116
Tjoenerstraat,70,,,7416XN,Deventer,Deventer,Overijssel,VBO,6.177064,52.258066
Tjoenerstraat,72,,,7416XN,Deventer,Deventer,Overijssel,VBO,6.177090,52.258022
Frieswijkstraat,1,,,7416XP,Deventer,Deventer,Overijssel,VBO,6.176042,52.259089
Frieswijkstraat,2,,,7416XP,Deventer,Deventer,Overijssel,VBO,6.175858,52.258962
Frieswijkstraat,3,,,7416XP,Deventer,Deventer,Overijssel,VBO,6.176071,52.259062
Frieswijkstraat,5,,,7416XP,Deventer,Deventer,Overijssel,VBO,6.176099,52.259026
Frieswijkstraat,7,,,7416XP,Deventer,Deventer,Overijssel,VBO,6.176128,52.258989
Frieswijkstraat,9,,,7416XP,Deventer,Deventer,Overijssel,VBO,6.176142,52.258953
Frieswijkstraat,11,,,7416XP,Deventer,Deventer,Overijssel,VBO,6.176200,52.258908
Frieswijkstraat,13,,,7416XP,Deventer,Deventer,Overijssel,VBO,6.176229,52.258881
Frieswijkstraat,15,,,7416XP,Deventer,Deventer,Overijssel,VBO,6.176272,52.258836
Hof van Colmschate,1,,,7416XR,Deventer,Deventer,Overijssel,VBO,6.173382,52.259421
Hof van Colmschate,3,,,7416XR,Deventer,Deventer,Overijssel,VBO,6.173483,52.259358
Hof van Colmschate,5,,,7416XR,Deventer,Deventer,Overijssel,VBO,6.173761,52.259311
Hof van Colmschate,7,,,7416XR,Deventer,Deventer,Overijssel,VBO,6.173864,52.259337
Hof van Colmschate,9,,,7416XR,Deventer,Deventer,Overijssel,VBO,6.173938,52.259364
Hof van Colmschate,11,,,7416XR,Deventer,Deventer,Overijssel,VBO,6.173997,52.259381
Hof van Colmschate,13,,,7416XR,Deventer,Deventer,Overijssel,VBO,6.174070,52.259399
Hof van Colmschate,15,,,7416XR,Deventer,Deventer,Overijssel,VBO,6.174129,52.259416
Hof van Colmschate,17,,,7416XR,Deventer,Deventer,Overijssel,VBO,6.174203,52.259443
Hof van Colmschate,19,,,7416XR,Deventer,Deventer,Overijssel,VBO,6.174262,52.259460
Hof van Colmschate,21,,,7416XR,Deventer,Deventer,Overijssel,VBO,6.174365,52.259504
Hof van Colmschate,23,,,7416XR,Deventer,Deventer,Overijssel,VBO,6.174409,52.259540
Hof van Colmschate,25,,,7416XR,Deventer,Deventer,Overijssel,VBO,6.174469,52.259567
Hof van Colmschate,27,,,7416XR,Deventer,Deventer,Overijssel,VBO,6.174513,52.259602
Hof van Colmschate,29,,,7416XR,Deventer,Deventer,Overijssel,VBO,6.174587,52.259638
Hof van Colmschate,31,,,7416XR,Deventer,Deventer,Overijssel,VBO,6.174632,52.259673
Hof van Colmschate,33,,,7416XR,Deventer,Deventer,Overijssel,VBO,6.174691,52.259700
Hof van Colmschate,35,,,7416XR,Deventer,Deventer,Overijssel,VBO,6.174735,52.259727
Hof van Colmschate,37,,,7416XR,Deventer,Deventer,Overijssel,VBO,6.174780,52.259762
Hof van Colmschate,39,,,7416XR,Deventer,Deventer,Overijssel,VBO,6.174839,52.259789
Hof van Colmschate,41,,,7416XR,Deventer,Deventer,Overijssel,VBO,6.174621,52.259916
Hof van Colmschate,43,,,7416XR,Deventer,Deventer,Overijssel,VBO,6.174563,52.259944
Hof van Colmschate,2,,,7416XS,Deventer,Deventer,Overijssel,VBO,6.173117,52.259342
Hof van Colmschate,4,,,7416XS,Deventer,Deventer,Overijssel,VBO,6.173160,52.259315
Hof van Colmschate,6,,,7416XS,Deventer,Deventer,Overijssel,VBO,6.173204,52.259279
Hof van Colmschate,8,,,7416XS,Deventer,Deventer,Overijssel,VBO,6.173262,52.259251
Hof van Colmschate,10,,,7416XS,Deventer,Deventer,Overijssel,VBO,6.173320,52.259224
Hof van Colmschate,12,,,7416XS,Deventer,Deventer,Overijssel,VBO,6.173378,52.259187
Hof van Colmschate,14,,,7416XS,Deventer,Deventer,Overijssel,VBO,6.173421,52.259160
Hof van Colmschate,16,,,7416XS,Deventer,Deventer,Overijssel,VBO,6.173479,52.259133
Hof van Colmschate,18,,,7416XS,Deventer,Deventer,Overijssel,VBO,6.173522,52.259061
Hof van Colmschate,20,,,7416XS,Deventer,Deventer,Overijssel,VBO,6.173552,52.259105
Hof van Colmschate,22,,,7416XS,Deventer,Deventer,Overijssel,VBO,6.173610,52.259051
Hof van Colmschate,24,,,7416XS,Deventer,Deventer,Overijssel,VBO,6.173640,52.259096
Hof van Colmschate,26,,,7416XS,Deventer,Deventer,Overijssel,VBO,6.173728,52.259086
Hof van Colmschate,28,,,7416XS,Deventer,Deventer,Overijssel,VBO,6.173787,52.259104
Hof van Colmschate,30,,,7416XS,Deventer,Deventer,Overijssel,VBO,6.173875,52.259130
Hof van Colmschate,32,,,7416XS,Deventer,Deventer,Overijssel,VBO,6.173934,52.259148
Hof van Colmschate,34,,,7416XS,Deventer,Deventer,Overijssel,VBO,6.174007,52.259165
Hof van Colmschate,36,,,7416XS,Deventer,Deventer,Overijssel,VBO,6.174066,52.259183
Hof van Colmschate,38,,,7416XS,Deventer,Deventer,Overijssel,VBO,6.174155,52.259209
Hof van Colmschate,40,,,7416XS,Deventer,Deventer,Overijssel,VBO,6.174228,52.259227
Hof van Colmschate,42,,,7416XS,Deventer,Deventer,Overijssel,VBO,6.174287,52.259253
Hof van Colmschate,44,,,7416XS,Deventer,Deventer,Overijssel,VBO,6.174346,52.259262
Hof van Colmschate,46,,,7416XS,Deventer,Deventer,Overijssel,VBO,6.174390,52.259280
Hof van Colmschate,48,,,7416XS,Deventer,Deventer,Overijssel,VBO,6.174464,52.259297
Hof van Colmschate,50,,,7416XT,Deventer,Deventer,Overijssel,VBO,6.174699,52.259367
Hof van Colmschate,52,,,7416XT,Deventer,Deventer,Overijssel,VBO,6.174744,52.259385
Hof van Colmschate,54,,,7416XT,Deventer,Deventer,Overijssel,VBO,6.174803,52.259412
Hof van Colmschate,56,,,7416XT,Deventer,Deventer,Overijssel,VBO,6.174876,52.259420
Hof van Colmschate,58,,,7416XT,Deventer,Deventer,Overijssel,VBO,6.174950,52.259447
Hof van Colmschate,60,,,7416XT,Deventer,Deventer,Overijssel,VBO,6.174999,52.259467
Hof van Colmschate,62,,,7416XT,Deventer,Deventer,Overijssel,VBO,6.175082,52.259482
Hof van Colmschate,64,,,7416XT,Deventer,Deventer,Overijssel,VBO,6.175141,52.259508
Hof van Colmschate,66,,,7416XT,Deventer,Deventer,Overijssel,VBO,6.175215,52.259553
Hof van Colmschate,68,,,7416XT,Deventer,Deventer,Overijssel,VBO,6.175277,52.259585
Hof van Colmschate,70,,,7416XT,Deventer,Deventer,Overijssel,VBO,6.175319,52.259615
Hof van Colmschate,72,,,7416XT,Deventer,Deventer,Overijssel,VBO,6.175363,52.259642
Hof van Colmschate,74,,,7416XT,Deventer,Deventer,Overijssel,VBO,6.175408,52.259668
Hof van Colmschate,76,,,7416XT,Deventer,Deventer,Overijssel,VBO,6.175467,52.259704
Hof van Colmschate,78,,,7416XT,Deventer,Deventer,Overijssel,VBO,6.175133,52.259841
Hof van Colmschate,80,,,7416XV,Deventer,Deventer,Overijssel,VBO,6.175089,52.259877
Hof van Colmschate,82,,,7416XV,Deventer,Deventer,Overijssel,VBO,6.175031,52.259913
Hof van Colmschate,84,,,7416XV,Deventer,Deventer,Overijssel,VBO,6.174988,52.259941
Hof van Colmschate,86,,,7416XV,Deventer,Deventer,Overijssel,VBO,6.174944,52.259968
Hof van Colmschate,88,,,7416XV,Deventer,Deventer,Overijssel,VBO,6.174886,52.259995
Hof van Colmschate,90,,,7416XV,Deventer,Deventer,Overijssel,VBO,6.174799,52.260041
Hof van Colmschate,92,,,7416XV,Deventer,Deventer,Overijssel,VBO,6.174756,52.260077
Hof van Colmschate,94,,,7416XV,Deventer,Deventer,Overijssel,VBO,6.174712,52.260104
Hof van Colmschate,96,,,7416XV,Deventer,Deventer,Overijssel,VBO,6.174669,52.260141
Hof van Colmschate,98,,,7416XV,Deventer,Deventer,Overijssel,VBO,6.174626,52.260168
Hof van Colmschate,100,,,7416XV,Deventer,Deventer,Overijssel,VBO,6.174568,52.260195
Wechelerstraat,1,,,7416XW,Deventer,Deventer,Overijssel,VBO,6.175202,52.258798
Wechelerstraat,2,,,7416XW,Deventer,Deventer,Overijssel,VBO,6.174886,52.258626
Wechelerstraat,3,,,7416XW,Deventer,Deventer,Overijssel,VBO,6.175200,52.258690
Wechelerstraat,4,,,7416XW,Deventer,Deventer,Overijssel,VBO,6.174891,52.258584
Wechelerstraat,5,,,7416XW,Deventer,Deventer,Overijssel,VBO,6.175199,52.258627
Wechelerstraat,6,,,7416XW,Deventer,Deventer,Overijssel,VBO,6.174891,52.258534
Wechelerstraat,7,,,7416XW,Deventer,Deventer,Overijssel,VBO,6.175183,52.258582
Wechelerstraat,8,,,7416XW,Deventer,Deventer,Overijssel,VBO,6.174887,52.258469
Wechelerstraat,9,,,7416XW,Deventer,Deventer,Overijssel,VBO,6.175183,52.258528
Wechelerstraat,10,,,7416XW,Deventer,Deventer,Overijssel,VBO,6.174893,52.258424
Wechelerstraat,11,,,7416XW,Deventer,Deventer,Overijssel,VBO,6.175182,52.258474
Wechelerstraat,12,,,7416XW,Deventer,Deventer,Overijssel,VBO,6.174887,52.258377
Wechelerstraat,13,,,7416XW,Deventer,Deventer,Overijssel,VBO,6.175210,52.258411
Wechelerstraat,14,,,7416XW,Deventer,Deventer,Overijssel,VBO,6.174895,52.258337
Oxerstraat,1,,,7416XX,Deventer,Deventer,Overijssel,VBO,6.176035,52.257857
Oxerstraat,2,A,,7416XX,Deventer,Deventer,Overijssel,VBO,6.175893,52.258907
Oxerstraat,2,,,7416XX,Deventer,Deventer,Overijssel,VBO,6.175921,52.258883
Oxerstraat,3,,,7416XX,Deventer,Deventer,Overijssel,VBO,6.176049,52.257812
Oxerstraat,4,,,7416XX,Deventer,Deventer,Overijssel,VBO,6.175804,52.258875
Oxerstraat,5,,,7416XX,Deventer,Deventer,Overijssel,VBO,6.176092,52.257758
Oxerstraat,6,,,7416XX,Deventer,Deventer,Overijssel,VBO,6.175745,52.258848
Oxerstraat,8,G,1,7416XX,Deventer,Deventer,Overijssel,VBO,6.175478,52.258872
Oxerstraat,8,,,7416XX,Deventer,Deventer,Overijssel,VBO,6.175657,52.258831
Oxerstraat,10,,,7416XX,Deventer,Deventer,Overijssel,VBO,6.175599,52.258736
Oxerstraat,12,,,7416XX,Deventer,Deventer,Overijssel,VBO,6.175608,52.258684
Oxerstraat,14,,,7416XX,Deventer,Deventer,Overijssel,VBO,6.175615,52.258633
Oxerstraat,16,,,7416XX,Deventer,Deventer,Overijssel,VBO,6.175623,52.258584
Oxerstraat,18,,,7416XX,Deventer,Deventer,Overijssel,VBO,6.175611,52.258522
Oxerstraat,20,,,7416XX,Deventer,Deventer,Overijssel,VBO,6.175606,52.258481
Oxerstraat,22,,,7416XX,Deventer,Deventer,Overijssel,VBO,6.175627,52.258426
Oxerstraat,24,,,7416XX,Deventer,Deventer,Overijssel,VBO,6.175634,52.258372
Oxerstraat,26,,,7416XX,Deventer,Deventer,Overijssel,VBO,6.175669,52.257888
Oxerstraat,28,,,7416XX,Deventer,Deventer,Overijssel,VBO,6.175697,52.257843
Oxerstraat,30,,,7416XX,Deventer,Deventer,Overijssel,VBO,6.175726,52.257795
Oxerstraat,32,,,7416XX,Deventer,Deventer,Overijssel,VBO,6.175759,52.257749
Oxerstraat,34,,,7416XX,Deventer,Deventer,Overijssel,VBO,6.175782,52.257706
Oxerstraat,36,,,7416XX,Deventer,Deventer,Overijssel,VBO,6.175812,52.257654
Rielerweg,1,,,7416ZA,Deventer,Deventer,Overijssel,VBO,6.166044,52.257451
Rielerweg,19,,,7416ZA,Deventer,Deventer,Overijssel,VBO,6.167143,52.257371
Rielerweg,21,,,7416ZA,Deventer,Deventer,Overijssel,VBO,6.167211,52.257358
Rielerweg,23,A,,7416ZA,Deventer,Deventer,Overijssel,VBO,6.167330,52.257356
Rielerweg,23,,,7416ZA,Deventer,Deventer,Overijssel,VBO,6.167393,52.257351
Rielerweg,37,,,7416ZA,Deventer,Deventer,Overijssel,VBO,6.168037,52.257296
Rielerweg,41,,,7416ZB,Deventer,Deventer,Overijssel,VBO,6.168223,52.257289
Rielerweg,43,,,7416ZB,Deventer,Deventer,Overijssel,VBO,6.168301,52.257292
Rielerweg,45,,,7416ZB,Deventer,Deventer,Overijssel,VBO,6.168388,52.257298
Rielerweg,47,,,7416ZB,Deventer,Deventer,Overijssel,VBO,6.168467,52.257306
Rielerweg,49,,,7416ZB,Deventer,Deventer,Overijssel,VBO,6.168603,52.257325
Rielerweg,51,,,7416ZB,Deventer,Deventer,Overijssel,VBO,6.168686,52.257336
Rielerweg,53,,,7416ZB,Deventer,Deventer,Overijssel,VBO,6.168759,52.257345
Rielerweg,55,,,7416ZB,Deventer,Deventer,Overijssel,VBO,6.168842,52.257359
Rielerweg,57,,,7416ZB,Deventer,Deventer,Overijssel,VBO,6.168918,52.257372
Rielerweg,59,,,7416ZB,Deventer,Deventer,Overijssel,VBO,6.168999,52.257386
Rielerweg,61,,,7416ZB,Deventer,Deventer,Overijssel,VBO,6.169063,52.257399
Rielerweg,65,,,7416ZB,Deventer,Deventer,Overijssel,VBO,6.169264,52.257434
Rielerweg,67,,,7416ZB,Deventer,Deventer,Overijssel,VBO,6.169400,52.257486
Rielerweg,69,,,7416ZB,Deventer,Deventer,Overijssel,VBO,6.169472,52.257510
Rielerweg,71,,,7416ZB,Deventer,Deventer,Overijssel,VBO,6.169542,52.257622
Rielerweg,73,,,7416ZB,Deventer,Deventer,Overijssel,VBO,6.169741,52.257810
Rielerweg,75,,,7416ZB,Deventer,Deventer,Overijssel,VBO,6.170146,52.257807
Rielerweg,77,,,7416ZB,Deventer,Deventer,Overijssel,VBO,6.170234,52.257842
Rielerweg,79,,,7416ZB,Deventer,Deventer,Overijssel,VBO,6.170308,52.257869
Rielerweg,81,,,7416ZB,Deventer,Deventer,Overijssel,VBO,6.170367,52.257895
Rielerweg,83,,,7416ZC,Deventer,Deventer,Overijssel,VBO,6.170621,52.257971
Rielerweg,85,,,7416ZC,Deventer,Deventer,Overijssel,VBO,6.170692,52.257992
Rielerweg,87,,,7416ZC,Deventer,Deventer,Overijssel,VBO,6.170762,52.258012
Rielerweg,89,,,7416ZC,Deventer,Deventer,Overijssel,VBO,6.170839,52.258036
Rielerweg,91,,,7416ZC,Deventer,Deventer,Overijssel,VBO,6.170905,52.258055
Rielerweg,93,,,7416ZC,Deventer,Deventer,Overijssel,VBO,6.170976,52.258076
Rielerweg,95,,,7416ZC,Deventer,Deventer,Overijssel,VBO,6.171199,52.258153
Rielerweg,117,,,7416ZD,Deventer,Deventer,Overijssel,VBO,6.173369,52.258702
Rielerweg,119,,,7416ZD,Deventer,Deventer,Overijssel,VBO,6.173443,52.258720
Rielerweg,121,,,7416ZD,Deventer,Deventer,Overijssel,VBO,6.173502,52.258728
Rielerweg,123,,,7416ZD,Deventer,Deventer,Overijssel,VBO,6.173575,52.258755
Rielerweg,125,,,7416ZD,Deventer,Deventer,Overijssel,VBO,6.173649,52.258772
Rielerweg,127,,,7416ZD,Deventer,Deventer,Overijssel,VBO,6.173708,52.258790
Rielerweg,129,,,7416ZD,Deventer,Deventer,Overijssel,VBO,6.173781,52.258807
Rielerweg,131,,,7416ZD,Deventer,Deventer,Overijssel,VBO,6.173855,52.258825
Rielerweg,133,,,7416ZD,Deventer,Deventer,Overijssel,VBO,6.173943,52.258851
Rielerweg,135,,,7416ZD,Deventer,Deventer,Overijssel,VBO,6.174017,52.258878
Rielerweg,137,,,7416ZD,Deventer,Deventer,Overijssel,VBO,6.174076,52.258895
Rielerweg,139,,,7416ZD,Deventer,Deventer,Overijssel,VBO,6.174164,52.258913
Rielerweg,141,,,7416ZD,Deventer,Deventer,Overijssel,VBO,6.174267,52.258939
Rielerweg,143,,,7416ZD,Deventer,Deventer,Overijssel,VBO,6.174326,52.258974
Rielerweg,145,,,7416ZD,Deventer,Deventer,Overijssel,VBO,6.174415,52.259001
Rielerweg,147,,,7416ZD,Deventer,Deventer,Overijssel,VBO,6.174488,52.259027
Rielerweg,149,,,7416ZD,Deventer,Deventer,Overijssel,VBO,6.174547,52.259045
Rielerweg,151,,,7416ZD,Deventer,Deventer,Overijssel,VBO,6.174636,52.259071
Rielerweg,153,,,7416ZE,Deventer,Deventer,Overijssel,VBO,6.174901,52.259168
Rielerweg,155,,,7416ZE,Deventer,Deventer,Overijssel,VBO,6.174960,52.259195
Rielerweg,157,,,7416ZE,Deventer,Deventer,Overijssel,VBO,6.175019,52.259221
Rielerweg,159,,,7416ZE,Deventer,Deventer,Overijssel,VBO,6.175108,52.259257
Rielerweg,161,,,7416ZE,Deventer,Deventer,Overijssel,VBO,6.175166,52.259274
Rielerweg,163,,,7416ZE,Deventer,Deventer,Overijssel,VBO,6.175255,52.259301
Rielerweg,165,,,7416ZE,Deventer,Deventer,Overijssel,VBO,6.175328,52.259327
Rielerweg,167,,,7416ZE,Deventer,Deventer,Overijssel,VBO,6.175388,52.259354
Rielerweg,169,,,7416ZE,Deventer,Deventer,Overijssel,VBO,6.175447,52.259380
Rielerweg,171,,,7416ZE,Deventer,Deventer,Overijssel,VBO,6.175520,52.259407
Rielerweg,173,,,7416ZE,Deventer,Deventer,Overijssel,VBO,6.175609,52.259424
Rielerweg,175,,,7416ZE,Deventer,Deventer,Overijssel,VBO,6.175668,52.259451
Rielerweg,177,,,7416ZE,Deventer,Deventer,Overijssel,VBO,6.175741,52.259486
Rielerweg,179,,,7416ZE,Deventer,Deventer,Overijssel,VBO,6.175845,52.259522
Rielerweg,181,,,7416ZE,Deventer,Deventer,Overijssel,VBO,6.175904,52.259548
Rielerweg,183,,,7416ZE,Deventer,Deventer,Overijssel,VBO,6.175963,52.259566
Rielerweg,185,,,7416ZE,Deventer,Deventer,Overijssel,VBO,6.176036,52.259592
Rielerweg,2,,,7416ZG,Deventer,Deventer,Overijssel,VBO,6.166006,52.257187
Rielerweg,4,,,7416ZG,Deventer,Deventer,Overijssel,VBO,6.166204,52.257242
Rielerweg,6,,,7416ZG,Deventer,Deventer,Overijssel,VBO,6.166931,52.257229
Rielerweg,8,,,7416ZG,Deventer,Deventer,Overijssel,VBO,6.166987,52.257229
Rielerweg,10,,,7416ZG,Deventer,Deventer,Overijssel,VBO,6.167063,52.257218
Rielerweg,12,T,,7416ZG,Deventer,Deventer,Overijssel,VBO,6.167192,52.257224
Rielerweg,12,,,7416ZG,Deventer,Deventer,Overijssel,VBO,6.167122,52.257217
Rielerweg,14,,,7416ZG,Deventer,Deventer,Overijssel,VBO,6.167246,52.257216
Rielerweg,16,,,7416ZG,Deventer,Deventer,Overijssel,VBO,6.167304,52.257215
Rielerweg,18,,,7416ZG,Deventer,Deventer,Overijssel,VBO,6.167383,52.257207
Rielerweg,20,,,7416ZG,Deventer,Deventer,Overijssel,VBO,6.167450,52.257200
Rielerweg,22,,,7416ZG,Deventer,Deventer,Overijssel,VBO,6.167521,52.257192
Rielerweg,24,,,7416ZG,Deventer,Deventer,Overijssel,VBO,6.167588,52.257183
Rielerweg,26,,,7416ZG,Deventer,Deventer,Overijssel,VBO,6.167655,52.257154
Rielerweg,28,,,7416ZG,Deventer,Deventer,Overijssel,VBO,6.167731,52.257146
Rielerweg,30,,,7416ZG,Deventer,Deventer,Overijssel,VBO,6.167806,52.257140
Rielerweg,32,,,7416ZG,Deventer,Deventer,Overijssel,VBO,6.167890,52.257128
Rielerweg,34,,,7416ZG,Deventer,Deventer,Overijssel,VBO,6.167977,52.257125
Rielerweg,36,,,7416ZG,Deventer,Deventer,Overijssel,VBO,6.168062,52.257121
Rielerweg,38,A,,7416ZG,Deventer,Deventer,Overijssel,VBO,6.168119,52.257135
Rielerweg,38,,,7416ZG,Deventer,Deventer,Overijssel,VBO,6.168205,52.257114
Rielerweg,40,,,7416ZG,Deventer,Deventer,Overijssel,VBO,6.168322,52.257114
Rielerweg,42,,,7416ZH,Deventer,Deventer,Overijssel,VBO,6.168530,52.257112
Rielerweg,44,A,,7416ZH,Deventer,Deventer,Overijssel,VBO,6.168603,52.257122
Rielerweg,44,,,7416ZH,Deventer,Deventer,Overijssel,VBO,6.168610,52.257097
Rielerweg,46,,,7416ZH,Deventer,Deventer,Overijssel,VBO,6.168691,52.257129
Rielerweg,48,,,7416ZH,Deventer,Deventer,Overijssel,VBO,6.168770,52.257134
Rielerweg,50,A,,7416ZH,Deventer,Deventer,Overijssel,VBO,6.168861,52.257098
Rielerweg,50,,,7416ZH,Deventer,Deventer,Overijssel,VBO,6.168845,52.257141
Rielerweg,50,,,7416ZH,Deventer,Deventer,Overijssel,VBO,6.168858,52.257142
Rielerweg,52,A,,7416ZH,Deventer,Deventer,Overijssel,VBO,6.168918,52.257130
Rielerweg,52,,,7416ZH,Deventer,Deventer,Overijssel,VBO,6.168952,52.257163
Rielerweg,54,,,7416ZH,Deventer,Deventer,Overijssel,VBO,6.169018,52.257171
Rielerweg,56,,,7416ZH,Deventer,Deventer,Overijssel,VBO,6.169113,52.257183
Rielerweg,58,,,7416ZH,Deventer,Deventer,Overijssel,VBO,6.169198,52.257202
Rielerweg,60,,,7416ZH,Deventer,Deventer,Overijssel,VBO,6.169262,52.257216
Rielerweg,62,,,7416ZH,Deventer,Deventer,Overijssel,VBO,6.169330,52.257228
Rielerweg,64,,,7416ZH,Deventer,Deventer,Overijssel,VBO,6.169417,52.257254
Rielerweg,66,,,7416ZH,Deventer,Deventer,Overijssel,VBO,6.169529,52.257282
Rielerweg,68,,,7416ZH,Deventer,Deventer,Overijssel,VBO,6.169613,52.257308
Rielerweg,70,,,7416ZJ,Deventer,Deventer,Overijssel,VBO,6.169809,52.257363
Rielerweg,72,,,7416ZJ,Deventer,Deventer,Overijssel,VBO,6.169867,52.257385
Rielerweg,74,,,7416ZJ,Deventer,Deventer,Overijssel,VBO,6.169940,52.257413
Rielerweg,76,,,7416ZJ,Deventer,Deventer,Overijssel,VBO,6.170050,52.257447
Rielerweg,78,,,7416ZJ,Deventer,Deventer,Overijssel,VBO,6.170109,52.257467
Rielerweg,80,,,7416ZJ,Deventer,Deventer,Overijssel,VBO,6.170196,52.257508
Rielerweg,82,A,,7416ZJ,Deventer,Deventer,Overijssel,VBO,6.170316,52.257568
Rielerweg,82,B,,7416ZJ,Deventer,Deventer,Overijssel,VBO,6.170329,52.257548
Rielerweg,82,C,,7416ZJ,Deventer,Deventer,Overijssel,VBO,6.170389,52.257506
Rielerweg,82,,,7416ZJ,Deventer,Deventer,Overijssel,VBO,6.170266,52.257532
Rielerweg,84,,,7416ZJ,Deventer,Deventer,Overijssel,VBO,6.170371,52.257536
Rielerweg,86,,,7416ZJ,Deventer,Deventer,Overijssel,VBO,6.170390,52.257602
Rielerweg,88,,,7416ZJ,Deventer,Deventer,Overijssel,VBO,6.170508,52.257623
Rielerweg,90,,,7416ZJ,Deventer,Deventer,Overijssel,VBO,6.170575,52.257644
Rielerweg,92,,,7416ZJ,Deventer,Deventer,Overijssel,VBO,6.170640,52.257670
Rielerweg,94,,,7416ZJ,Deventer,Deventer,Overijssel,VBO,6.170699,52.257693
Rielerweg,96,,,7416ZJ,Deventer,Deventer,Overijssel,VBO,6.170767,52.257718
Rielerweg,98,,,7416ZJ,Deventer,Deventer,Overijssel,VBO,6.170845,52.257744
Rielerweg,100,,,7416ZJ,Deventer,Deventer,Overijssel,VBO,6.170917,52.257772
Rielerweg,102,,,7416ZJ,Deventer,Deventer,Overijssel,VBO,6.171000,52.257794
Rielerweg,104,,,7416ZJ,Deventer,Deventer,Overijssel,VBO,6.171196,52.257810
Rielerweg,106,,,7416ZJ,Deventer,Deventer,Overijssel,VBO,6.171295,52.257804
Rielerweg,110,,,7416ZJ,Deventer,Deventer,Overijssel,VBO,6.172476,52.258135
Rielerweg,114,,,7416ZJ,Deventer,Deventer,Overijssel,VBO,6.173541,52.258460
Rielerweg,116,,,7416ZK,Deventer,Deventer,Overijssel,VBO,6.173747,52.258511
Rielerweg,118,,,7416ZK,Deventer,Deventer,Overijssel,VBO,6.173835,52.258510
Rielerweg,120,,,7416ZK,Deventer,Deventer,Overijssel,VBO,6.173894,52.258537
Rielerweg,122,,,7416ZK,Deventer,Deventer,Overijssel,VBO,6.173982,52.258572
Rielerweg,124,,,7416ZK,Deventer,Deventer,Overijssel,VBO,6.174085,52.258590
Rielerweg,126,,,7416ZK,Deventer,Deventer,Overijssel,VBO,6.174203,52.258625
Rielerweg,128,,,7416ZK,Deventer,Deventer,Overijssel,VBO,6.174276,52.258642
Rielerweg,130,,,7416ZK,Deventer,Deventer,Overijssel,VBO,6.174394,52.258668
Rielerweg,132,,,7416ZK,Deventer,Deventer,Overijssel,VBO,6.174483,52.258704
Rielerweg,134,,,7416ZK,Deventer,Deventer,Overijssel,VBO,6.174556,52.258730
Rielerweg,136,,,7416ZK,Deventer,Deventer,Overijssel,VBO,6.174639,52.258781
Rielerweg,138,,,7416ZK,Deventer,Deventer,Overijssel,VBO,6.174713,52.258802
Rielerweg,140,,,7416ZK,Deventer,Deventer,Overijssel,VBO,6.174792,52.258831
Rielerweg,142,,,7416ZK,Deventer,Deventer,Overijssel,VBO,6.174876,52.258852
Rielerweg,97,,,7416ZL,Deventer,Deventer,Overijssel,VBO,6.171276,52.258173
Rielerweg,99,,,7416ZL,Deventer,Deventer,Overijssel,VBO,6.171352,52.258192
Rielerweg,101,,,7416ZL,Deventer,Deventer,Overijssel,VBO,6.172148,52.258387
Rielerweg,103,,,7416ZL,Deventer,Deventer,Overijssel,VBO,6.172222,52.258404
Rielerweg,105,,,7416ZL,Deventer,Deventer,Overijssel,VBO,6.172301,52.258424
Rielerweg,107,,,7416ZL,Deventer,Deventer,Overijssel,VBO,6.172369,52.258439
Rielerweg,109,,,7416ZL,Deventer,Deventer,Overijssel,VBO,6.172615,52.258507
Rielerweg,111,,,7416ZL,Deventer,Deventer,Overijssel,VBO,6.172678,52.258527
Rielerweg,113,,,7416ZL,Deventer,Deventer,Overijssel,VBO,6.172766,52.258544
Rielerweg,115,,,7416ZL,Deventer,Deventer,Overijssel,VBO,6.172840,52.258562
Rielerweg,144,,,7416ZL,Deventer,Deventer,Overijssel,VBO,6.175072,52.258907
Rielerweg,146,,,7416ZL,Deventer,Deventer,Overijssel,VBO,6.175161,52.258942
Rielerweg,148,,,7416ZL,Deventer,Deventer,Overijssel,VBO,6.175249,52.258968
Rielerweg,150,,,7416ZL,Deventer,Deventer,Overijssel,VBO,6.175337,52.258995
Rielerweg,152,,,7416ZL,Deventer,Deventer,Overijssel,VBO,6.175440,52.259030
Rielerweg,154,,,7416ZL,Deventer,Deventer,Overijssel,VBO,6.175529,52.259056
Rielerweg,156,,,7416ZL,Deventer,Deventer,Overijssel,VBO,6.175617,52.259092
Rielerweg,158,,,7416ZL,Deventer,Deventer,Overijssel,VBO,6.175676,52.259118
Rielerweg,160,,,7416ZL,Deventer,Deventer,Overijssel,VBO,6.175879,52.259223
Rielerweg,162,,,7416ZL,Deventer,Deventer,Overijssel,VBO,6.175951,52.259253
Rielerweg,164,,,7416ZL,Deventer,Deventer,Overijssel,VBO,6.176056,52.259289
Rielerweg,166,,,7416ZL,Deventer,Deventer,Overijssel,VBO,6.176132,52.259312
Rielerweg,168,,,7416ZL,Deventer,Deventer,Overijssel,VBO,6.176222,52.259348
Rielerweg,170,,,7416ZL,Deventer,Deventer,Overijssel,VBO,6.176296,52.259375
Rielerweg,172,,,7416ZL,Deventer,Deventer,Overijssel,VBO,6.176370,52.259401
Rielerweg,174,,,7416ZM,Deventer,Deventer,Overijssel,VBO,6.179636,52.259379
Rielerweg,176,,,7416ZM,Deventer,Deventer,Overijssel,VBO,6.180305,52.259941
Rielerweg,232,,,7416ZM,Deventer,Deventer,Overijssel,VBO,6.180982,52.260143
Rielerweg,234,,,7416ZM,Deventer,Deventer,Overijssel,VBO,6.181160,52.260241
Rielerweg,238,A,,7416ZM,Deventer,Deventer,Overijssel,VBO,6.181349,52.260195
Rielerweg,238,,,7416ZM,Deventer,Deventer,Overijssel,VBO,6.181555,52.260247
Rielerweg,240,,,7416ZM,Deventer,Deventer,Overijssel,VBO,6.181643,52.260247
Rielerweg,242,,,7416ZM,Deventer,Deventer,Overijssel,VBO,6.181877,52.260182
Rielerweg,244,,,7416ZM,Deventer,Deventer,Overijssel,VBO,6.181979,52.260182
Rielerweg,246,,,7416ZM,Deventer,Deventer,Overijssel,VBO,6.182155,52.260180
Rielerweg,248,,,7416ZM,Deventer,Deventer,Overijssel,VBO,6.182272,52.260180
Rielerweg,254,,,7416ZM,Deventer,Deventer,Overijssel,VBO,6.182434,52.260223
Rielerweg,256,,,7416ZM,Deventer,Deventer,Overijssel,VBO,6.182507,52.260223
Rielerweg,258,,,7416ZM,Deventer,Deventer,Overijssel,VBO,6.182639,52.260222
Rielerweg,260,,,7416ZM,Deventer,Deventer,Overijssel,VBO,6.182785,52.260185
Rielerweg,262,,,7416ZM,Deventer,Deventer,Overijssel,VBO,6.182931,52.260175
Rielerweg,264,,,7416ZM,Deventer,Deventer,Overijssel,VBO,6.183612,52.259757
Rielerweg,266,,,7416ZM,Deventer,Deventer,Overijssel,VBO,6.183699,52.259721
Bekkumerstraat,3,,,7416ZN,Deventer,Deventer,Overijssel,VBO,6.183232,52.259742
Bekkumerstraat,5,,,7416ZN,Deventer,Deventer,Overijssel,VBO,6.183230,52.259679
Bekkumerstraat,7,,,7416ZN,Deventer,Deventer,Overijssel,VBO,6.183241,52.259517
Bekkumerstraat,9,,,7416ZN,Deventer,Deventer,Overijssel,VBO,6.183226,52.259445
Bekkumerstraat,11,,,7416ZN,Deventer,Deventer,Overijssel,VBO,6.184973,52.258058
Bekkumerstraat,13,,,7416ZN,Deventer,Deventer,Overijssel,STA,6.185962,52.257990
Bekkumerstraat,15,,,7416ZN,Deventer,Deventer,Overijssel,STA,6.185913,52.257886
Douwelerkolkweg,2,T,,7416ZN,Deventer,Deventer,Overijssel,VBO,6.195509,52.253681
Bekkumerstraat,8,,,7416ZP,Deventer,Deventer,Overijssel,VBO,6.182898,52.259960
Bekkumerstraat,10,,,7416ZP,Deventer,Deventer,Overijssel,VBO,6.182882,52.259870
Bekkumerstraat,12,,,7416ZP,Deventer,Deventer,Overijssel,VBO,6.182842,52.259277
Bekkumerstraat,14,,,7416ZP,Deventer,Deventer,Overijssel,VBO,6.182797,52.259232
Bekkumerstraat,16,,,7416ZP,Deventer,Deventer,Overijssel,VBO,6.182796,52.259178
Bekkumerstraat,18,,,7416ZP,Deventer,Deventer,Overijssel,VBO,6.182810,52.259124
Bekkumerstraat,20,,,7416ZP,Deventer,Deventer,Overijssel,VBO,6.182809,52.259070
Bekkumerstraat,22,,,7416ZP,Deventer,Deventer,Overijssel,VBO,6.182837,52.259016
Bekkumerstraat,24,,,7416ZP,Deventer,Deventer,Overijssel,VBO,6.182806,52.258945
Bekkumerstraat,26,,,7416ZP,Deventer,Deventer,Overijssel,VBO,6.182791,52.258873
Bekkumerstraat,28,,,7416ZP,Deventer,Deventer,Overijssel,VBO,6.183110,52.258709
Bekkumerstraat,30,,,7416ZP,Deventer,Deventer,Overijssel,VBO,6.183183,52.258681
Bekkumerstraat,32,,,7416ZP,Deventer,Deventer,Overijssel,VBO,6.183285,52.258654
Bekkumerstraat,34,,,7416ZP,Deventer,Deventer,Overijssel,VBO,6.183343,52.258635
Bekkumerstraat,36,,,7416ZP,Deventer,Deventer,Overijssel,VBO,6.183445,52.258617
Bekkumerstraat,38,,,7416ZP,Deventer,Deventer,Overijssel,VBO,6.183503,52.258589
Bekkumerstraat,40,,,7416ZR,Deventer,Deventer,Overijssel,VBO,6.183591,52.258562
Bekkumerstraat,42,,,7416ZR,Deventer,Deventer,Overijssel,VBO,6.183678,52.258543
Bekkumerstraat,44,,,7416ZR,Deventer,Deventer,Overijssel,VBO,6.183941,52.258479
Bekkumerstraat,46,,,7416ZR,Deventer,Deventer,Overijssel,VBO,6.183896,52.258425
Bekkumerstraat,48,,,7416ZR,Deventer,Deventer,Overijssel,VBO,6.183880,52.258380
Bekkumerstraat,50,,,7416ZR,Deventer,Deventer,Overijssel,VBO,6.183865,52.258326
Bekkumerstraat,52,,,7416ZR,Deventer,Deventer,Overijssel,VBO,6.183834,52.258264
Dortstraat,15,,,7416ZS,Deventer,Deventer,Overijssel,VBO,6.181462,52.258297
Dortstraat,17,,,7416ZS,Deventer,Deventer,Overijssel,VBO,6.181565,52.258297
Dortstraat,19,,,7416ZS,Deventer,Deventer,Overijssel,VBO,6.181653,52.258305
Dortstraat,21,,,7416ZS,Deventer,Deventer,Overijssel,VBO,6.181726,52.258305
Dortstraat,23,,,7416ZS,Deventer,Deventer,Overijssel,VBO,6.181814,52.258313
Dortstraat,25,,,7416ZS,Deventer,Deventer,Overijssel,VBO,6.181887,52.258322
Dortstraat,27,,,7416ZS,Deventer,Deventer,Overijssel,VBO,6.181960,52.258321
Dortstraat,29,,,7416ZS,Deventer,Deventer,Overijssel,VBO,6.182312,52.258337
Dortstraat,31,,,7416ZS,Deventer,Deventer,Overijssel,VBO,6.182385,52.258327
Dortstraat,33,,,7416ZS,Deventer,Deventer,Overijssel,VBO,6.182473,52.258327
Dortstraat,35,,,7416ZS,Deventer,Deventer,Overijssel,VBO,6.182547,52.258335
Dortstraat,37,,,7416ZS,Deventer,Deventer,Overijssel,VBO,6.182722,52.258334
Dortstraat,39,,,7416ZS,Deventer,Deventer,Overijssel,VBO,6.182810,52.258333
Dortstraat,41,,,7416ZS,Deventer,Deventer,Overijssel,VBO,6.182913,52.258324
Dortstraat,43,,,7416ZS,Deventer,Deventer,Overijssel,VBO,6.182986,52.258314
Dortstraat,45,,,7416ZS,Deventer,Deventer,Overijssel,VBO,6.183073,52.258314
Dortstraat,47,,,7416ZS,Deventer,Deventer,Overijssel,VBO,6.183176,52.258304
Dortstraat,49,,,7416ZS,Deventer,Deventer,Overijssel,VBO,6.183264,52.258303
Dortstraat,51,,,7416ZS,Deventer,Deventer,Overijssel,VBO,6.183337,52.258294
Dortstraat,53,,,7416ZS,Deventer,Deventer,Overijssel,VBO,6.183439,52.258293
Dortstraat,55,,,7416ZS,Deventer,Deventer,Overijssel,VBO,6.183513,52.258293
Harfsenstraat,1,,,7416ZT,Deventer,Deventer,Overijssel,VBO,6.182215,52.259443
Harfsenstraat,3,,,7416ZT,Deventer,Deventer,Overijssel,VBO,6.182229,52.259389
Harfsenstraat,5,,,7416ZT,Deventer,Deventer,Overijssel,VBO,6.182228,52.259344
Harfsenstraat,7,,,7416ZT,Deventer,Deventer,Overijssel,VBO,6.182227,52.259281
Harfsenstraat,9,,,7416ZT,Deventer,Deventer,Overijssel,VBO,6.182226,52.259236
Harfsenstraat,11,,,7416ZT,Deventer,Deventer,Overijssel,VBO,6.182225,52.259173
Harfsenstraat,13,,,7416ZT,Deventer,Deventer,Overijssel,VBO,6.182267,52.259101
Harfsenstraat,15,,,7416ZT,Deventer,Deventer,Overijssel,VBO,6.182267,52.259056
Harfsenstraat,17,,,7416ZT,Deventer,Deventer,Overijssel,VBO,6.182266,52.259002
Harfsenstraat,19,,,7416ZT,Deventer,Deventer,Overijssel,VBO,6.182279,52.258957
Harfsenstraat,21,,,7416ZT,Deventer,Deventer,Overijssel,VBO,6.182278,52.258903
Harfsenstraat,23,,,7416ZT,Deventer,Deventer,Overijssel,VBO,6.182277,52.258849
Harfsenstraat,25,,,7416ZT,Deventer,Deventer,Overijssel,VBO,6.182320,52.258768
Harfsenstraat,27,,,7416ZT,Deventer,Deventer,Overijssel,VBO,6.182319,52.258714
Harfsenstraat,29,,,7416ZT,Deventer,Deventer,Overijssel,VBO,6.182333,52.258660
Harfsenstraat,31,,,7416ZT,Deventer,Deventer,Overijssel,VBO,6.182332,52.258597
Harfsenstraat,33,,,7416ZT,Deventer,Deventer,Overijssel,VBO,6.182331,52.258543
Harfsenstraat,35,,,7416ZT,Deventer,Deventer,Overijssel,VBO,6.182330,52.258489
Harfsenstraat,2,G,1,7416ZV,Deventer,Deventer,Overijssel,VBO,6.181873,52.259140
Harfsenstraat,4,,,7416ZV,Deventer,Deventer,Overijssel,VBO,6.181842,52.259077
Harfsenstraat,6,,,7416ZV,Deventer,Deventer,Overijssel,VBO,6.181870,52.259014
Harfsenstraat,8,,,7416ZV,Deventer,Deventer,Overijssel,VBO,6.181884,52.258960
Harfsenstraat,10,,,7416ZV,Deventer,Deventer,Overijssel,VBO,6.181883,52.258906
Harfsenstraat,12,,,7416ZV,Deventer,Deventer,Overijssel,VBO,6.181897,52.258852
Harfsenstraat,14,,,7416ZV,Deventer,Deventer,Overijssel,VBO,6.181896,52.258807
Harfsenstraat,16,,,7416ZV,Deventer,Deventer,Overijssel,VBO,6.181895,52.258762
Harfsenstraat,18,,,7416ZV,Deventer,Deventer,Overijssel,VBO,6.181909,52.258708
Harfsenstraat,20,,,7416ZV,Deventer,Deventer,Overijssel,VBO,6.181922,52.258654
Harfsenstraat,22,,,7416ZV,Deventer,Deventer,Overijssel,VBO,6.181936,52.258609
Harfsenstraat,24,,,7416ZV,Deventer,Deventer,Overijssel,VBO,6.181950,52.258546
Harfsenstraat,26,,,7416ZV,Deventer,Deventer,Overijssel,VBO,6.181964,52.258501
Harfsenstraat,28,G,1,7416ZV,Deventer,Deventer,Overijssel,VBO,6.181992,52.258429
Eefdestraat,1,G,1,7416ZW,Deventer,Deventer,Overijssel,VBO,6.181242,52.259099
Eefdestraat,3,,,7416ZW,Deventer,Deventer,Overijssel,VBO,6.181285,52.259036
Eefdestraat,5,,,7416ZW,Deventer,Deventer,Overijssel,VBO,6.181299,52.258991
Eefdestraat,7,,,7416ZW,Deventer,Deventer,Overijssel,VBO,6.181312,52.258928
Eefdestraat,9,,,7416ZW,Deventer,Deventer,Overijssel,VBO,6.181340,52.258874
Eefdestraat,11,,,7416ZW,Deventer,Deventer,Overijssel,VBO,6.181340,52.258820
Eefdestraat,13,,,7416ZW,Deventer,Deventer,Overijssel,VBO,6.181368,52.258766
Eefdestraat,15,,,7416ZW,Deventer,Deventer,Overijssel,VBO,6.181367,52.258721
Eefdestraat,17,,,7416ZW,Deventer,Deventer,Overijssel,VBO,6.181396,52.258675
Eefdestraat,19,,,7416ZW,Deventer,Deventer,Overijssel,VBO,6.181409,52.258621
Eefdestraat,21,,,7416ZW,Deventer,Deventer,Overijssel,VBO,6.181423,52.258576
Eefdestraat,23,,,7416ZW,Deventer,Deventer,Overijssel,VBO,6.181437,52.258522
Eefdestraat,25,,,7416ZW,Deventer,Deventer,Overijssel,VBO,6.181450,52.258468
Eefdestraat,27,G,1,7416ZW,Deventer,Deventer,Overijssel,VBO,6.181434,52.258397
Eefdestraat,2,G,1,7416ZX,Deventer,Deventer,Overijssel,VBO,6.180978,52.259074
Eefdestraat,4,,,7416ZX,Deventer,Deventer,Overijssel,VBO,6.180947,52.258993
Eefdestraat,6,,,7416ZX,Deventer,Deventer,Overijssel,VBO,6.180976,52.258948
Eefdestraat,8,,,7416ZX,Deventer,Deventer,Overijssel,VBO,6.180989,52.258885
Eefdestraat,10,,,7416ZX,Deventer,Deventer,Overijssel,VBO,6.181003,52.258840
Eefdestraat,12,,,7416ZX,Deventer,Deventer,Overijssel,VBO,6.181002,52.258786
Eefdestraat,14,,,7416ZX,Deventer,Deventer,Overijssel,VBO,6.181045,52.258732
Eefdestraat,16,,,7416ZX,Deventer,Deventer,Overijssel,VBO,6.181073,52.258678
Eefdestraat,18,,,7416ZX,Deventer,Deventer,Overijssel,VBO,6.181087,52.258642
Eefdestraat,20,,,7416ZX,Deventer,Deventer,Overijssel,VBO,6.181086,52.258588
Eefdestraat,22,,,7416ZX,Deventer,Deventer,Overijssel,VBO,6.181100,52.258534
Eefdestraat,24,,,7416ZX,Deventer,Deventer,Overijssel,VBO,6.181114,52.258480
Eefdestraat,26,,,7416ZX,Deventer,Deventer,Overijssel,VBO,6.181128,52.258435
Eefdestraat,28,T,,7416ZX,Deventer,Deventer,Overijssel,VBO,6.180791,52.258411
Eefdestraat,28,,,7416ZX,Deventer,Deventer,Overijssel,VBO,6.180707,52.258259
