openbareruimtenaam,huisnummer,huisletter,huisnummertoevoeging,postcode,woonplaatsnaam,gemeentenaam,provincienaam,typeadresseerbaarobject,longitude,latitude
Holterweg,68,,,7422LC,Deventer,Deventer,Overijssel,VBO,6.214119,52.248501
Roessinksweg,1,,,7422LE,Deventer,Deventer,Overijssel,VBO,6.215407,52.245631
Roessinksweg,2,,,7422LE,Deventer,Deventer,Overijssel,VBO,6.215764,52.245248
Roessinksweg,3,,,7422LE,Deventer,Deventer,Overijssel,VBO,6.215470,52.245599
Roessinksweg,4,,,7422LE,Deventer,Deventer,Overijssel,VBO,6.215839,52.245272
Roessinksweg,5,,,7422LE,Deventer,Deventer,Overijssel,VBO,6.215528,52.245569
Roessinksweg,6,,,7422LE,Deventer,Deventer,Overijssel,VBO,6.215931,52.245295
Roessinksweg,7,,,7422LE,Deventer,Deventer,Overijssel,VBO,6.215588,52.245538
Roessinksweg,8,,,7422LE,Deventer,Deventer,Overijssel,VBO,6.216007,52.245315
Roessinksweg,9,A,,7422LE,Deventer,Deventer,Overijssel,VBO,6.215754,52.245532
Roessinksweg,9,,,7422LE,Deventer,Deventer,Overijssel,VBO,6.215698,52.245523
Roessinksweg,10,,,7422LE,Deventer,Deventer,Overijssel,VBO,6.216081,52.245341
Roessinksweg,11,,,7422LE,Deventer,Deventer,Overijssel,VBO,6.215831,52.245552
Roessinksweg,12,,,7422LE,Deventer,Deventer,Overijssel,VBO,6.216154,52.245359
Roessinksweg,13,,,7422LE,Deventer,Deventer,Overijssel,VBO,6.215896,52.245569
Roessinksweg,14,,,7422LE,Deventer,Deventer,Overijssel,VBO,6.216243,52.245392
Roessinksweg,15,,,7422LE,Deventer,Deventer,Overijssel,VBO,6.215971,52.245601
Roessinksweg,16,,,7422LE,Deventer,Deventer,Overijssel,VBO,6.216314,52.245414
Roessinksweg,17,,,7422LE,Deventer,Deventer,Overijssel,VBO,6.216037,52.245619
Roessinksweg,18,,,7422LE,Deventer,Deventer,Overijssel,VBO,6.216391,52.245436
Roessinksweg,19,,,7422LE,Deventer,Deventer,Overijssel,VBO,6.216105,52.245640
Roessinksweg,20,,,7422LE,Deventer,Deventer,Overijssel,VBO,6.216502,52.245445
Roessinksweg,21,,,7422LE,Deventer,Deventer,Overijssel,VBO,6.216174,52.245661
Roessinksweg,22,,,7422LE,Deventer,Deventer,Overijssel,VBO,6.216572,52.245464
Roessinksweg,23,,,7422LE,Deventer,Deventer,Overijssel,VBO,6.216246,52.245682
Roessinksweg,24,,,7422LE,Deventer,Deventer,Overijssel,VBO,6.216664,52.245462
Roessinksweg,25,,,7422LE,Deventer,Deventer,Overijssel,VBO,6.216455,52.245761
Roessinksweg,26,,,7422LE,Deventer,Deventer,Overijssel,VBO,6.216743,52.245490
Roessinksweg,27,,,7422LE,Deventer,Deventer,Overijssel,VBO,6.216499,52.245788
Roessinksweg,29,,,7422LE,Deventer,Deventer,Overijssel,VBO,6.216587,52.245814
Roessinksweg,30,,,7422LE,Deventer,Deventer,Overijssel,VBO,6.216911,52.245600
Roessinksweg,31,,,7422LE,Deventer,Deventer,Overijssel,VBO,6.216646,52.245841
Roessinksweg,32,,,7422LE,Deventer,Deventer,Overijssel,VBO,6.216972,52.245624
Roessinksweg,33,,,7422LE,Deventer,Deventer,Overijssel,VBO,6.216720,52.245858
Roessinksweg,34,,,7422LE,Deventer,Deventer,Overijssel,VBO,6.217037,52.245654
Roessinksweg,35,,,7422LE,Deventer,Deventer,Overijssel,VBO,6.216794,52.245876
Roessinksweg,36,,,7422LE,Deventer,Deventer,Overijssel,VBO,6.217099,52.245670
Roessinksweg,37,,,7422LE,Deventer,Deventer,Overijssel,VBO,6.216882,52.245884
Roessinksweg,38,,,7422LE,Deventer,Deventer,Overijssel,VBO,6.217160,52.245688
Roessinksweg,39,,,7422LE,Deventer,Deventer,Overijssel,VBO,6.217956,52.246210
Roessinksweg,41,,,7422LE,Deventer,Deventer,Overijssel,VBO,6.218268,52.246139
Roessinksweg,42,,,7422LE,Deventer,Deventer,Overijssel,VBO,6.217315,52.245738
Roessinksweg,43,,,7422LE,Deventer,Deventer,Overijssel,VBO,6.218372,52.246151
Roessinksweg,44,,,7422LE,Deventer,Deventer,Overijssel,VBO,6.217391,52.245701
Roessinksweg,45,,,7422LE,Deventer,Deventer,Overijssel,VBO,6.218462,52.246157
Roessinksweg,46,,,7422LE,Deventer,Deventer,Overijssel,VBO,6.217392,52.245671
Roessinksweg,47,,,7422LE,Deventer,Deventer,Overijssel,VBO,6.218549,52.246167
Roessinksweg,48,,,7422LE,Deventer,Deventer,Overijssel,VBO,6.217266,52.245716
Roessinksweg,49,,,7422LE,Deventer,Deventer,Overijssel,VBO,6.218644,52.246178
Roessinksweg,50,,,7422LE,Deventer,Deventer,Overijssel,VBO,6.217419,52.245604
Roessinksweg,51,,,7422LE,Deventer,Deventer,Overijssel,VBO,6.220245,52.246710
Roessinksweg,52,,,7422LE,Deventer,Deventer,Overijssel,VBO,6.217415,52.245564
Roessinksweg,54,,,7422LE,Deventer,Deventer,Overijssel,VBO,6.217419,52.245520
Roessinksweg,56,,,7422LE,Deventer,Deventer,Overijssel,VBO,6.217418,52.245476
Roessinksweg,58,,,7422LE,Deventer,Deventer,Overijssel,VBO,6.220243,52.246293
Roessinksweg,60,,,7422LE,Deventer,Deventer,Overijssel,VBO,6.220239,52.246351
Roessinksweg,62,,,7422LE,Deventer,Deventer,Overijssel,VBO,6.220255,52.246381
Roessinksweg,64,,,7422LE,Deventer,Deventer,Overijssel,VBO,6.220307,52.246405
Roessinksweg,66,,,7422LE,Deventer,Deventer,Overijssel,VBO,6.220355,52.246421
Roessinksweg,68,,,7422LE,Deventer,Deventer,Overijssel,VBO,6.220276,52.246444
Roessinksweg,70,A,,7422LE,Deventer,Deventer,Overijssel,VBO,6.220488,52.246464
Roessinksweg,70,B,,7422LE,Deventer,Deventer,Overijssel,VBO,6.220411,52.246476
Roessinksweg,70,C,,7422LE,Deventer,Deventer,Overijssel,VBO,6.220463,52.246487
Roessinksweg,70,D,,7422LE,Deventer,Deventer,Overijssel,VBO,6.220406,52.246502
Roessinksweg,70,,,7422LE,Deventer,Deventer,Overijssel,VBO,6.220435,52.246452
Roessinksweg,72,A,,7422LE,Deventer,Deventer,Overijssel,VBO,6.220531,52.246532
Roessinksweg,72,B,,7422LE,Deventer,Deventer,Overijssel,VBO,6.220606,52.246517
Roessinksweg,72,C,,7422LE,Deventer,Deventer,Overijssel,VBO,6.220563,52.246499
Roessinksweg,72,,,7422LE,Deventer,Deventer,Overijssel,VBO,6.220567,52.246552
Roessinksweg,80,,,7422LE,Deventer,Deventer,Overijssel,VBO,6.221350,52.246778
Salomonszegel,1,,,7422LH,Deventer,Deventer,Overijssel,VBO,6.218563,52.248166
Salomonszegel,11,,,7422LH,Deventer,Deventer,Overijssel,VBO,6.218355,52.247255
Salomonszegel,13,,,7422LH,Deventer,Deventer,Overijssel,VBO,6.218396,52.247196
Salomonszegel,15,,,7422LH,Deventer,Deventer,Overijssel,VBO,6.218238,52.247083
Salomonszegel,17,,,7422LH,Deventer,Deventer,Overijssel,VBO,6.218148,52.247083
Salomonszegel,19,,,7422LH,Deventer,Deventer,Overijssel,VBO,6.218062,52.247064
Salomonszegel,21,,,7422LH,Deventer,Deventer,Overijssel,VBO,6.217987,52.247064
Salomonszegel,23,,,7422LH,Deventer,Deventer,Overijssel,VBO,6.217904,52.247062
Salomonszegel,25,,,7422LH,Deventer,Deventer,Overijssel,VBO,6.217824,52.247067
Salomonszegel,27,,,7422LH,Deventer,Deventer,Overijssel,VBO,6.217735,52.247066
Salomonszegel,29,,,7422LH,Deventer,Deventer,Overijssel,VBO,6.217420,52.247089
Salomonszegel,31,,,7422LH,Deventer,Deventer,Overijssel,VBO,6.217341,52.247086
Salomonszegel,33,,,7422LH,Deventer,Deventer,Overijssel,VBO,6.217199,52.246972
Salomonszegel,35,,,7422LH,Deventer,Deventer,Overijssel,VBO,6.217163,52.246927
Salomonszegel,70,,,7422LJ,Deventer,Deventer,Overijssel,VBO,6.215977,52.246729
Salomonszegel,72,,,7422LJ,Deventer,Deventer,Overijssel,VBO,6.216047,52.246704
Salomonszegel,74,,,7422LJ,Deventer,Deventer,Overijssel,VBO,6.216117,52.246677
Salomonszegel,76,,,7422LJ,Deventer,Deventer,Overijssel,VBO,6.216181,52.246651
Salomonszegel,78,,,7422LJ,Deventer,Deventer,Overijssel,VBO,6.216243,52.246628
Salomonszegel,80,,,7422LJ,Deventer,Deventer,Overijssel,VBO,6.216333,52.246616
Salomonszegel,82,,,7422LJ,Deventer,Deventer,Overijssel,VBO,6.216405,52.246594
Salomonszegel,84,,,7422LJ,Deventer,Deventer,Overijssel,VBO,6.216466,52.246569
Salomonszegel,86,,,7422LJ,Deventer,Deventer,Overijssel,VBO,6.216529,52.246548
Salomonszegel,88,,,7422LJ,Deventer,Deventer,Overijssel,VBO,6.216740,52.246462
Salomonszegel,90,,,7422LJ,Deventer,Deventer,Overijssel,VBO,6.216842,52.246443
Salomonszegel,92,,,7422LJ,Deventer,Deventer,Overijssel,VBO,6.216900,52.246420
Salomonszegel,94,,,7422LJ,Deventer,Deventer,Overijssel,VBO,6.216977,52.246391
Salomonszegel,96,,,7422LJ,Deventer,Deventer,Overijssel,VBO,6.217007,52.246342
Salomonszegel,98,,,7422LJ,Deventer,Deventer,Overijssel,VBO,6.217108,52.246297
Salomonszegel,100,,,7422LJ,Deventer,Deventer,Overijssel,STA,6.217050,52.246068
Salomonszegel,102,,,7422LJ,Deventer,Deventer,Overijssel,STA,6.217125,52.245986
Salomonszegel,6,,,7422LK,Deventer,Deventer,Overijssel,VBO,6.218086,52.247628
Salomonszegel,8,,,7422LK,Deventer,Deventer,Overijssel,VBO,6.217468,52.247498
Salomonszegel,10,,,7422LK,Deventer,Deventer,Overijssel,VBO,6.217335,52.247418
Salomonszegel,12,,,7422LK,Deventer,Deventer,Overijssel,VBO,6.217172,52.247338
Flora,2,,,7422LL,Deventer,Deventer,Overijssel,VBO,6.217212,52.247877
Flora,4,,,7422LL,Deventer,Deventer,Overijssel,VBO,6.217255,52.247850
Flora,10,,,7422LL,Deventer,Deventer,Overijssel,VBO,6.217150,52.247716
Flora,12,,,7422LL,Deventer,Deventer,Overijssel,VBO,6.217091,52.247680
Flora,14,,,7422LL,Deventer,Deventer,Overijssel,VBO,6.216971,52.247661
Flora,18,,,7422LL,Deventer,Deventer,Overijssel,VBO,6.216813,52.247672
Flora,30,,,7422LL,Deventer,Deventer,Overijssel,VBO,6.216658,52.247685
Flora,32,,,7422LL,Deventer,Deventer,Overijssel,VBO,6.216554,52.247709
Flora,34,,,7422LL,Deventer,Deventer,Overijssel,VBO,6.216477,52.247746
Flora,36,,,7422LL,Deventer,Deventer,Overijssel,VBO,6.216370,52.247813
Flora,40,,,7422LL,Deventer,Deventer,Overijssel,VBO,6.216212,52.247847
Flora,42,,,7422LL,Deventer,Deventer,Overijssel,VBO,6.215922,52.247854
Flora,46,,,7422LL,Deventer,Deventer,Overijssel,VBO,6.215722,52.247861
Flora,50,,,7422LL,Deventer,Deventer,Overijssel,VBO,6.215589,52.247907
Flora,52,,,7422LL,Deventer,Deventer,Overijssel,VBO,6.215541,52.248027
Flora,54,,,7422LL,Deventer,Deventer,Overijssel,VBO,6.215472,52.248101
Flora,56,,,7422LL,Deventer,Deventer,Overijssel,VBO,6.214438,52.248364
Bieslook,1,,,7422LM,Deventer,Deventer,Overijssel,VBO,6.215860,52.246885
Bieslook,2,,,7422LM,Deventer,Deventer,Overijssel,VBO,6.215805,52.246839
Bieslook,3,,,7422LM,Deventer,Deventer,Overijssel,VBO,6.215757,52.246795
Bieslook,4,,,7422LM,Deventer,Deventer,Overijssel,VBO,6.215720,52.246748
Bieslook,5,,,7422LM,Deventer,Deventer,Overijssel,VBO,6.215783,52.246982
Bieslook,6,,,7422LM,Deventer,Deventer,Overijssel,VBO,6.215796,52.246996
Bieslook,7,,,7422LM,Deventer,Deventer,Overijssel,VBO,6.215819,52.247006
Bieslook,8,,,7422LM,Deventer,Deventer,Overijssel,VBO,6.215829,52.247017
Bieslook,9,,,7422LM,Deventer,Deventer,Overijssel,VBO,6.215849,52.247033
Bieslook,10,,,7422LM,Deventer,Deventer,Overijssel,VBO,6.215746,52.246993
Bieslook,11,,,7422LM,Deventer,Deventer,Overijssel,VBO,6.215760,52.247006
Bieslook,12,,,7422LM,Deventer,Deventer,Overijssel,VBO,6.215775,52.247015
Bieslook,13,,,7422LM,Deventer,Deventer,Overijssel,VBO,6.215775,52.247024
Bieslook,14,,,7422LM,Deventer,Deventer,Overijssel,VBO,6.215790,52.247033
Bieslook,15,,,7422LM,Deventer,Deventer,Overijssel,VBO,6.215805,52.247042
Bieslook,16,,,7422LM,Deventer,Deventer,Overijssel,VBO,6.215692,52.247014
Bieslook,17,,,7422LM,Deventer,Deventer,Overijssel,VBO,6.215702,52.247025
Bieslook,18,,,7422LM,Deventer,Deventer,Overijssel,VBO,6.215717,52.247034
Bieslook,19,,,7422LM,Deventer,Deventer,Overijssel,VBO,6.215732,52.247043
Bieslook,20,,,7422LM,Deventer,Deventer,Overijssel,VBO,6.215746,52.247051
Bieslook,21,,,7422LM,Deventer,Deventer,Overijssel,VBO,6.215761,52.247069
Bieslook,22,,,7422LM,Deventer,Deventer,Overijssel,VBO,6.215658,52.247034
Bieslook,23,,,7422LM,Deventer,Deventer,Overijssel,VBO,6.215673,52.247043
Bieslook,24,,,7422LM,Deventer,Deventer,Overijssel,VBO,6.215673,52.247052
Bieslook,25,,,7422LM,Deventer,Deventer,Overijssel,VBO,6.215688,52.247061
Bieslook,26,,,7422LM,Deventer,Deventer,Overijssel,VBO,6.215703,52.247070
Bieslook,27,,,7422LM,Deventer,Deventer,Overijssel,VBO,6.215718,52.247079
Bieslook,28,,,7422LM,Deventer,Deventer,Overijssel,VBO,6.215608,52.247050
Bieslook,29,,,7422LM,Deventer,Deventer,Overijssel,VBO,6.215627,52.247064
Bieslook,30,,,7422LM,Deventer,Deventer,Overijssel,VBO,6.215645,52.247079
Bieslook,31,,,7422LM,Deventer,Deventer,Overijssel,VBO,6.215659,52.247088
Bieslook,32,,,7422LM,Deventer,Deventer,Overijssel,VBO,6.215674,52.247097
Flora,1,,,7422LN,Deventer,Deventer,Overijssel,VBO,6.218158,52.247767
Flora,5,,,7422LN,Deventer,Deventer,Overijssel,VBO,6.217986,52.247773
Flora,7,,,7422LN,Deventer,Deventer,Overijssel,VBO,6.217875,52.247779
Flora,9,,,7422LN,Deventer,Deventer,Overijssel,VBO,6.217796,52.247783
Flora,11,,,7422LN,Deventer,Deventer,Overijssel,VBO,6.218160,52.247709
Flora,13,,,7422LN,Deventer,Deventer,Overijssel,VBO,6.218087,52.247709
Flora,15,,,7422LN,Deventer,Deventer,Overijssel,VBO,6.217985,52.247719
Flora,17,,,7422LN,Deventer,Deventer,Overijssel,VBO,6.217882,52.247720
Flora,19,,,7422LN,Deventer,Deventer,Overijssel,VBO,6.217794,52.247720
Flora,21,,,7422LN,Deventer,Deventer,Overijssel,VBO,6.218159,52.247655
Flora,23,,,7422LN,Deventer,Deventer,Overijssel,VBO,6.218086,52.247655
Flora,25,,,7422LN,Deventer,Deventer,Overijssel,VBO,6.217984,52.247665
Flora,27,,,7422LN,Deventer,Deventer,Overijssel,VBO,6.217881,52.247666
Flora,29,,,7422LN,Deventer,Deventer,Overijssel,VBO,6.217793,52.247666
Flora,31,,,7422LN,Deventer,Deventer,Overijssel,VBO,6.217706,52.247667
Flora,33,,,7422LN,Deventer,Deventer,Overijssel,VBO,6.217632,52.247631
Flora,35,,,7422LN,Deventer,Deventer,Overijssel,VBO,6.217558,52.247596
Flora,37,,,7422LN,Deventer,Deventer,Overijssel,VBO,6.217499,52.247560
Flora,39,,,7422LN,Deventer,Deventer,Overijssel,VBO,6.217410,52.247525
Flora,41,,,7422LN,Deventer,Deventer,Overijssel,VBO,6.217351,52.247481
Flora,43,,,7422LN,Deventer,Deventer,Overijssel,VBO,6.217277,52.247445
Flora,45,,,7422LN,Deventer,Deventer,Overijssel,VBO,6.217203,52.247401
Flora,47,,,7422LN,Deventer,Deventer,Overijssel,VBO,6.217114,52.247356
Flora,191,A,,7422LP,Deventer,Deventer,Overijssel,VBO,6.214561,52.247877
Flora,191,B,,7422LP,Deventer,Deventer,Overijssel,VBO,6.214602,52.247907
Flora,195,,,7422LP,Deventer,Deventer,Overijssel,VBO,6.214517,52.247851
Flora,201,,,7422LP,Deventer,Deventer,Overijssel,VBO,6.214314,52.247969
Flora,205,,,7422LP,Deventer,Deventer,Overijssel,VBO,6.214399,52.247798
Flora,207,,,7422LP,Deventer,Deventer,Overijssel,VBO,6.214355,52.247834
Flora,209,,,7422LP,Deventer,Deventer,Overijssel,VBO,6.214298,52.247880
Flora,211,,,7422LP,Deventer,Deventer,Overijssel,VBO,6.214240,52.247925
Flora,213,,,7422LP,Deventer,Deventer,Overijssel,VBO,6.214167,52.247961
Flora,215,,,7422LP,Deventer,Deventer,Overijssel,VBO,6.214339,52.247762
Flora,217,,,7422LP,Deventer,Deventer,Overijssel,VBO,6.214296,52.247799
Flora,219,,,7422LP,Deventer,Deventer,Overijssel,VBO,6.214238,52.247835
Flora,221,,,7422LP,Deventer,Deventer,Overijssel,VBO,6.214166,52.247880
Flora,223,,,7422LP,Deventer,Deventer,Overijssel,VBO,6.214123,52.247926
Flora,225,,,7422LP,Deventer,Deventer,Overijssel,VBO,6.214006,52.247962
Flora,227,,,7422LP,Deventer,Deventer,Overijssel,VBO,6.213918,52.247963
Flora,229,,,7422LP,Deventer,Deventer,Overijssel,VBO,6.213816,52.247964
Flora,231,,,7422LP,Deventer,Deventer,Overijssel,VBO,6.213714,52.247974
Flora,233,,,7422LP,Deventer,Deventer,Overijssel,VBO,6.213611,52.247974
Flora,235,,,7422LP,Deventer,Deventer,Overijssel,VBO,6.213523,52.247975
Flora,237,,,7422LP,Deventer,Deventer,Overijssel,VBO,6.213421,52.247976
Flora,239,,,7422LP,Deventer,Deventer,Overijssel,VBO,6.213318,52.247976
Flora,241,,,7422LP,Deventer,Deventer,Overijssel,VBO,6.213245,52.247977
Flora,243,,,7422LP,Deventer,Deventer,Overijssel,VBO,6.214008,52.248070
Flora,247,,,7422LP,Deventer,Deventer,Overijssel,VBO,6.213833,52.248072
Flora,251,,,7422LP,Deventer,Deventer,Overijssel,VBO,6.213628,52.248073
Flora,259,,,7422LP,Deventer,Deventer,Overijssel,VBO,6.213262,52.248085
Flora,261,,,7422LP,Deventer,Deventer,Overijssel,VBO,6.213320,52.248084
Flora,49,,,7422LR,Deventer,Deventer,Overijssel,VBO,6.217662,52.247712
Flora,51,,,7422LR,Deventer,Deventer,Overijssel,VBO,6.217588,52.247668
Flora,53,,,7422LR,Deventer,Deventer,Overijssel,VBO,6.217514,52.247623
Flora,55,,,7422LR,Deventer,Deventer,Overijssel,VBO,6.217440,52.247579
Flora,57,,,7422LR,Deventer,Deventer,Overijssel,VBO,6.217381,52.247543
Flora,59,,,7422LR,Deventer,Deventer,Overijssel,VBO,6.217307,52.247499
Flora,61,,,7422LR,Deventer,Deventer,Overijssel,VBO,6.217233,52.247472
Flora,63,,,7422LR,Deventer,Deventer,Overijssel,VBO,6.217159,52.247428
Flora,65,,,7422LR,Deventer,Deventer,Overijssel,VBO,6.217071,52.247384
Flora,67,,,7422LR,Deventer,Deventer,Overijssel,VBO,6.217575,52.247740
Flora,71,,,7422LR,Deventer,Deventer,Overijssel,VBO,6.217289,52.247577
Flora,73,,,7422LR,Deventer,Deventer,Overijssel,VBO,6.217368,52.247615
Flora,77,,,7422LR,Deventer,Deventer,Overijssel,VBO,6.217220,52.247544
Flora,79,,,7422LR,Deventer,Deventer,Overijssel,VBO,6.217161,52.247509
Flora,87,,,7422LS,Deventer,Deventer,Overijssel,VBO,6.216768,52.247476
Flora,93,,,7422LS,Deventer,Deventer,Overijssel,VBO,6.216643,52.247487
Flora,95,,,7422LS,Deventer,Deventer,Overijssel,VBO,6.216505,52.247498
Flora,99,,,7422LS,Deventer,Deventer,Overijssel,VBO,6.216329,52.247507
Flora,101,,,7422LS,Deventer,Deventer,Overijssel,VBO,6.216254,52.247513
Flora,103,,,7422LS,Deventer,Deventer,Overijssel,VBO,6.216099,52.247535
Flora,105,,,7422LS,Deventer,Deventer,Overijssel,VBO,6.216020,52.247546
Flora,109,,,7422LS,Deventer,Deventer,Overijssel,VBO,6.215889,52.247534
Flora,115,,,7422LS,Deventer,Deventer,Overijssel,VBO,6.215675,52.247597
Flora,119,,,7422LS,Deventer,Deventer,Overijssel,VBO,6.215552,52.247685
Flora,121,,,7422LS,Deventer,Deventer,Overijssel,VBO,6.215486,52.247731
Flora,123,,,7422LS,Deventer,Deventer,Overijssel,VBO,6.215417,52.247769
Flora,127,,,7422LS,Deventer,Deventer,Overijssel,VBO,6.215812,52.247420
Flora,129,,,7422LS,Deventer,Deventer,Overijssel,VBO,6.215754,52.247465
Flora,131,,,7422LS,Deventer,Deventer,Overijssel,VBO,6.215682,52.247510
Flora,133,,,7422LS,Deventer,Deventer,Overijssel,VBO,6.215624,52.247556
Flora,135,,,7422LS,Deventer,Deventer,Overijssel,VBO,6.215552,52.247601
Flora,137,,,7422LS,Deventer,Deventer,Overijssel,VBO,6.215494,52.247637
Flora,139,,,7422LS,Deventer,Deventer,Overijssel,VBO,6.215421,52.247683
Flora,141,,,7422LS,Deventer,Deventer,Overijssel,VBO,6.215378,52.247728
Flora,143,,,7422LS,Deventer,Deventer,Overijssel,VBO,6.215303,52.247782
Flora,145,,,7422LS,Deventer,Deventer,Overijssel,VBO,6.215753,52.247393
Flora,147,,,7422LS,Deventer,Deventer,Overijssel,VBO,6.215703,52.247441
Flora,149,,,7422LS,Deventer,Deventer,Overijssel,VBO,6.215637,52.247490
Flora,151,,,7422LS,Deventer,Deventer,Overijssel,VBO,6.215565,52.247529
Flora,153,,,7422LS,Deventer,Deventer,Overijssel,VBO,6.215493,52.247575
Flora,155,,,7422LS,Deventer,Deventer,Overijssel,VBO,6.215450,52.247620
Flora,157,,,7422LS,Deventer,Deventer,Overijssel,VBO,6.215359,52.247656
Flora,159,,,7422LS,Deventer,Deventer,Overijssel,VBO,6.215297,52.247695
Flora,161,,,7422LS,Deventer,Deventer,Overijssel,VBO,6.215236,52.247747
Flora,163,,,7422LS,Deventer,Deventer,Overijssel,VBO,6.215141,52.247779
Flora,165,,,7422LS,Deventer,Deventer,Overijssel,VBO,6.215061,52.247782
Flora,167,,,7422LS,Deventer,Deventer,Overijssel,VBO,6.214988,52.247784
Flora,169,,,7422LT,Deventer,Deventer,Overijssel,VBO,6.214895,52.247788
Flora,171,,,7422LT,Deventer,Deventer,Overijssel,VBO,6.214787,52.247792
Flora,173,,,7422LT,Deventer,Deventer,Overijssel,VBO,6.215165,52.247839
Flora,175,,,7422LT,Deventer,Deventer,Overijssel,VBO,6.215079,52.247842
Flora,177,,,7422LT,Deventer,Deventer,Overijssel,VBO,6.214987,52.247845
Flora,179,,,7422LT,Deventer,Deventer,Overijssel,VBO,6.214889,52.247847
Flora,181,,,7422LT,Deventer,Deventer,Overijssel,VBO,6.214780,52.247849
Flora,183,,,7422LT,Deventer,Deventer,Overijssel,VBO,6.215176,52.247891
Flora,185,,,7422LT,Deventer,Deventer,Overijssel,VBO,6.215103,52.247892
Flora,191,,,7422LT,Deventer,Deventer,Overijssel,VBO,6.214810,52.247894
Flora,193,,,7422LT,Deventer,Deventer,Overijssel,VBO,6.214407,52.247609
Daslook,2,,,7422LV,Deventer,Deventer,Overijssel,VBO,6.215660,52.247413
Daslook,4,,,7422LV,Deventer,Deventer,Overijssel,VBO,6.215521,52.247509
Daslook,6,,,7422LV,Deventer,Deventer,Overijssel,VBO,6.215419,52.247575
Daslook,8,,,7422LV,Deventer,Deventer,Overijssel,VBO,6.214752,52.247777
Piet van Donkplein,1,,,7422LW,Deventer,Deventer,Overijssel,VBO,6.213554,52.249655
Piet van Donkplein,12,,,7422LX,Deventer,Deventer,Overijssel,VBO,6.204284,52.249679
Akkerdistel,2,,,7422MA,Deventer,Deventer,Overijssel,VBO,6.216398,52.246377
Akkerdistel,4,,,7422MA,Deventer,Deventer,Overijssel,VBO,6.216357,52.246339
Akkerdistel,6,,,7422MA,Deventer,Deventer,Overijssel,VBO,6.216317,52.246295
Akkerdistel,10,,,7422MA,Deventer,Deventer,Overijssel,VBO,6.216161,52.246285
Akkerdistel,12,,,7422MA,Deventer,Deventer,Overijssel,VBO,6.216174,52.246245
Akkerdistel,14,,,7422MA,Deventer,Deventer,Overijssel,VBO,6.216075,52.246275
Akkerdistel,16,,,7422MA,Deventer,Deventer,Overijssel,VBO,6.216097,52.246234
Akkerdistel,18,,,7422MA,Deventer,Deventer,Overijssel,VBO,6.216001,52.246265
Akkerdistel,20,,,7422MA,Deventer,Deventer,Overijssel,VBO,6.216020,52.246222
Akkerdistel,22,,,7422MA,Deventer,Deventer,Overijssel,VBO,6.215922,52.246254
Akkerdistel,24,,,7422MA,Deventer,Deventer,Overijssel,VBO,6.215938,52.246213
Akkerdistel,26,,,7422MA,Deventer,Deventer,Overijssel,VBO,6.215848,52.246245
Akkerdistel,28,,,7422MA,Deventer,Deventer,Overijssel,VBO,6.215861,52.246200
Akkerdistel,30,,,7422MA,Deventer,Deventer,Overijssel,VBO,6.215769,52.246230
Akkerdistel,32,,,7422MA,Deventer,Deventer,Overijssel,VBO,6.215789,52.246190
Akkerdistel,34,,,7422MA,Deventer,Deventer,Overijssel,VBO,6.215703,52.246181
Akkerdistel,36,,,7422MA,Deventer,Deventer,Overijssel,VBO,6.215631,52.246171
Akkerdistel,38,,,7422MA,Deventer,Deventer,Overijssel,VBO,6.215551,52.246155
Akkerdistel,40,,,7422MA,Deventer,Deventer,Overijssel,VBO,6.215470,52.246149
Akkerdistel,42,,,7422MA,Deventer,Deventer,Overijssel,VBO,6.215391,52.246158
Akkerdistel,44,,,7422MA,Deventer,Deventer,Overijssel,VBO,6.215296,52.246019
Akkerdistel,46,,,7422MA,Deventer,Deventer,Overijssel,VBO,6.215213,52.246013
Akkerdistel,48,,,7422MA,Deventer,Deventer,Overijssel,VBO,6.215130,52.246003
Akkerdistel,50,,,7422MA,Deventer,Deventer,Overijssel,VBO,6.215039,52.246005
Akkerdistel,1,,,7422MB,Deventer,Deventer,Overijssel,VBO,6.216647,52.246321
Akkerdistel,3,,,7422MB,Deventer,Deventer,Overijssel,VBO,6.216602,52.246273
Akkerdistel,5,,,7422MB,Deventer,Deventer,Overijssel,VBO,6.216568,52.246227
Akkerdistel,7,,,7422MB,Deventer,Deventer,Overijssel,VBO,6.216526,52.246179
Akkerdistel,9,,,7422MB,Deventer,Deventer,Overijssel,VBO,6.216474,52.246136
Akkerdistel,11,,,7422MB,Deventer,Deventer,Overijssel,VBO,6.216405,52.246033
Akkerdistel,13,,,7422MB,Deventer,Deventer,Overijssel,VBO,6.216310,52.246021
Akkerdistel,15,,,7422MB,Deventer,Deventer,Overijssel,VBO,6.216229,52.246011
Akkerdistel,17,,,7422MB,Deventer,Deventer,Overijssel,VBO,6.216138,52.246002
Akkerdistel,19,,,7422MB,Deventer,Deventer,Overijssel,VBO,6.216052,52.245988
Akkerdistel,21,,,7422MB,Deventer,Deventer,Overijssel,VBO,6.215969,52.245977
Akkerdistel,23,,,7422MB,Deventer,Deventer,Overijssel,VBO,6.215875,52.245987
Akkerdistel,25,,,7422MB,Deventer,Deventer,Overijssel,VBO,6.215792,52.245977
Akkerdistel,27,,,7422MB,Deventer,Deventer,Overijssel,VBO,6.215706,52.245964
Akkerdistel,29,,,7422MB,Deventer,Deventer,Overijssel,VBO,6.215623,52.245954
Akkerdistel,31,,,7422MB,Deventer,Deventer,Overijssel,VBO,6.215412,52.245826
Akkerdistel,33,,,7422MB,Deventer,Deventer,Overijssel,VBO,6.215391,52.245782
Akkerdistel,35,,,7422MB,Deventer,Deventer,Overijssel,VBO,6.215353,52.245728
Akkerdistel,37,,,7422MB,Deventer,Deventer,Overijssel,VBO,6.215414,52.245706
Bitterzoet,1,,,7422ME,Deventer,Deventer,Overijssel,VBO,6.210483,52.247549
Bitterzoet,3,,,7422ME,Deventer,Deventer,Overijssel,VBO,6.210542,52.247583
Bitterzoet,5,,,7422ME,Deventer,Deventer,Overijssel,VBO,6.210585,52.247631
Bitterzoet,7,,,7422ME,Deventer,Deventer,Overijssel,VBO,6.210642,52.247676
Bitterzoet,9,,,7422ME,Deventer,Deventer,Overijssel,VBO,6.210693,52.247729
Bitterzoet,11,,,7422ME,Deventer,Deventer,Overijssel,VBO,6.210738,52.247756
Bonte salie,2,,,7422MH,Deventer,Deventer,Overijssel,VBO,6.209132,52.248173
Bonte salie,4,,,7422MH,Deventer,Deventer,Overijssel,VBO,6.209204,52.248176
Bonte salie,6,,,7422MH,Deventer,Deventer,Overijssel,VBO,6.209295,52.248182
Bonte salie,8,,,7422MH,Deventer,Deventer,Overijssel,VBO,6.209386,52.248177
Bonte salie,10,,,7422MH,Deventer,Deventer,Overijssel,VBO,6.209470,52.248178
Bonte salie,12,,,7422MH,Deventer,Deventer,Overijssel,VBO,6.209564,52.248176
Bonte salie,14,,,7422MH,Deventer,Deventer,Overijssel,VBO,6.209648,52.248177
Bonte salie,16,,,7422MH,Deventer,Deventer,Overijssel,VBO,6.209734,52.248180
Bonte salie,18,,,7422MH,Deventer,Deventer,Overijssel,VBO,6.209819,52.248179
Bonte salie,20,,,7422MH,Deventer,Deventer,Overijssel,VBO,6.209917,52.248176
Bonte salie,22,,,7422MH,Deventer,Deventer,Overijssel,VBO,6.210125,52.248103
Bonte salie,24,,,7422MH,Deventer,Deventer,Overijssel,VBO,6.210187,52.248067
Bonte salie,26,,,7422MH,Deventer,Deventer,Overijssel,VBO,6.210255,52.248034
Bonte salie,28,,,7422MH,Deventer,Deventer,Overijssel,VBO,6.210318,52.247993
Bonte salie,30,,,7422MH,Deventer,Deventer,Overijssel,VBO,6.210376,52.247960
Bonte salie,32,,,7422MH,Deventer,Deventer,Overijssel,VBO,6.210440,52.247926
Bonte salie,34,,,7422MH,Deventer,Deventer,Overijssel,VBO,6.210486,52.247896
Bonte salie,36,,,7422MH,Deventer,Deventer,Overijssel,VBO,6.211015,52.247684
Bonte salie,38,,,7422MH,Deventer,Deventer,Overijssel,VBO,6.211079,52.247662
Bonte salie,40,,,7422MH,Deventer,Deventer,Overijssel,VBO,6.211160,52.247626
Bonte salie,42,,,7422MH,Deventer,Deventer,Overijssel,VBO,6.211210,52.247608
Bonte salie,44,,,7422MH,Deventer,Deventer,Overijssel,VBO,6.211310,52.247571
Bonte salie,46,,,7422MH,Deventer,Deventer,Overijssel,VBO,6.211352,52.247551
Bonte salie,48,,,7422MH,Deventer,Deventer,Overijssel,VBO,6.211434,52.247510
Bonte salie,50,,,7422MH,Deventer,Deventer,Overijssel,VBO,6.211800,52.247622
Bonte salie,52,,,7422MH,Deventer,Deventer,Overijssel,VBO,6.211858,52.247599
Bonte salie,54,,,7422MH,Deventer,Deventer,Overijssel,VBO,6.211940,52.247568
Bonte salie,56,,,7422MH,Deventer,Deventer,Overijssel,VBO,6.211998,52.247541
Bonte salie,58,,,7422MH,Deventer,Deventer,Overijssel,VBO,6.212077,52.247511
Bonte salie,60,,,7422MH,Deventer,Deventer,Overijssel,VBO,6.212129,52.247479
Bonte salie,62,,,7422MH,Deventer,Deventer,Overijssel,VBO,6.212217,52.247447
Bonte salie,1,,,7422MJ,Deventer,Deventer,Overijssel,VBO,6.208892,52.247884
Bonte salie,3,,,7422MJ,Deventer,Deventer,Overijssel,VBO,6.208888,52.247938
Bonte salie,5,,,7422MJ,Deventer,Deventer,Overijssel,VBO,6.208888,52.247984
Bonte salie,7,,,7422MJ,Deventer,Deventer,Overijssel,VBO,6.208873,52.248041
Bonte salie,9,,,7422MJ,Deventer,Deventer,Overijssel,VBO,6.208866,52.248092
Bonte salie,11,,,7422MJ,Deventer,Deventer,Overijssel,VBO,6.208860,52.248147
Bonte salie,13,,,7422MJ,Deventer,Deventer,Overijssel,VBO,6.208889,52.248203
Bonte salie,15,,,7422MJ,Deventer,Deventer,Overijssel,VBO,6.208886,52.248241
Bonte salie,17,,,7422MJ,Deventer,Deventer,Overijssel,VBO,6.208870,52.248303
Bonte salie,19,,,7422MJ,Deventer,Deventer,Overijssel,VBO,6.208866,52.248346
Bonte salie,21,,,7422MJ,Deventer,Deventer,Overijssel,VBO,6.209034,52.248411
Bonte salie,23,,,7422MJ,Deventer,Deventer,Overijssel,VBO,6.209121,52.248416
Bonte salie,25,,,7422MJ,Deventer,Deventer,Overijssel,VBO,6.209202,52.248423
Bonte salie,27,,,7422MJ,Deventer,Deventer,Overijssel,VBO,6.209285,52.248427
Bonte salie,29,,,7422MJ,Deventer,Deventer,Overijssel,VBO,6.209375,52.248401
Bonte salie,31,,,7422MJ,Deventer,Deventer,Overijssel,VBO,6.209461,52.248408
Bonte salie,33,,,7422MJ,Deventer,Deventer,Overijssel,VBO,6.209547,52.248411
Bonte salie,35,,,7422MJ,Deventer,Deventer,Overijssel,VBO,6.209630,52.248417
Bonte salie,37,,,7422MJ,Deventer,Deventer,Overijssel,VBO,6.209912,52.248374
Bonte salie,39,,,7422MJ,Deventer,Deventer,Overijssel,VBO,6.209974,52.248405
Bonte salie,41,,,7422MJ,Deventer,Deventer,Overijssel,VBO,6.210023,52.248448
Bonte salie,43,,,7422MJ,Deventer,Deventer,Overijssel,VBO,6.210084,52.248490
Bonte salie,45,,,7422MJ,Deventer,Deventer,Overijssel,VBO,6.210133,52.248530
Bonte salie,47,,,7422MJ,Deventer,Deventer,Overijssel,VBO,6.210211,52.248569
Bonte salie,49,,,7422MK,Deventer,Deventer,Overijssel,VBO,6.210788,52.247960
Bonte salie,51,,,7422MK,Deventer,Deventer,Overijssel,VBO,6.210862,52.247931
Bonte salie,53,,,7422MK,Deventer,Deventer,Overijssel,VBO,6.210945,52.247903
Bonte salie,55,,,7422MK,Deventer,Deventer,Overijssel,VBO,6.211006,52.247880
Bonte salie,57,,,7422MK,Deventer,Deventer,Overijssel,VBO,6.211075,52.247851
Bonte salie,59,,,7422MK,Deventer,Deventer,Overijssel,VBO,6.211149,52.247820
Bonte salie,61,,,7422MK,Deventer,Deventer,Overijssel,VBO,6.211331,52.247779
Bonte salie,63,,,7422MK,Deventer,Deventer,Overijssel,VBO,6.211414,52.247781
Bonte salie,65,,,7422MK,Deventer,Deventer,Overijssel,VBO,6.211499,52.247782
Bonte salie,67,,,7422MK,Deventer,Deventer,Overijssel,VBO,6.211578,52.247790
Bonte salie,69,,,7422MK,Deventer,Deventer,Overijssel,VBO,6.211666,52.247791
Ereprijs,1,,,7422MN,Deventer,Deventer,Overijssel,VBO,6.212849,52.247351
Ereprijs,2,,,7422MN,Deventer,Deventer,Overijssel,VBO,6.212811,52.247122
Ereprijs,3,,,7422MN,Deventer,Deventer,Overijssel,VBO,6.212922,52.247322
Ereprijs,4,,,7422MN,Deventer,Deventer,Overijssel,VBO,6.212880,52.247088
Ereprijs,5,,,7422MN,Deventer,Deventer,Overijssel,VBO,6.213032,52.247273
Ereprijs,6,,,7422MN,Deventer,Deventer,Overijssel,VBO,6.213025,52.247020
Ereprijs,7,,,7422MN,Deventer,Deventer,Overijssel,VBO,6.213104,52.247232
Ereprijs,8,,,7422MN,Deventer,Deventer,Overijssel,VBO,6.213098,52.246991
Ereprijs,9,,,7422MN,Deventer,Deventer,Overijssel,VBO,6.213204,52.247186
Ereprijs,11,,,7422MN,Deventer,Deventer,Overijssel,VBO,6.213270,52.247156
Fonteinkruid,61,,,7422MS,Deventer,Deventer,Overijssel,VBO,6.214431,52.247485
Fonteinkruid,63,,,7422MS,Deventer,Deventer,Overijssel,VBO,6.214691,52.247392
Fonteinkruid,65,,,7422MS,Deventer,Deventer,Overijssel,VBO,6.214866,52.247264
Fonteinkruid,67,,,7422MS,Deventer,Deventer,Overijssel,VBO,6.215586,52.247089
Fonteinkruid,69,,,7422MS,Deventer,Deventer,Overijssel,VBO,6.215451,52.247044
Fonteinkruid,71,,,7422MS,Deventer,Deventer,Overijssel,VBO,6.215404,52.246997
Fonteinkruid,73,,,7422MS,Deventer,Deventer,Overijssel,VBO,6.215355,52.246960
Fonteinkruid,75,,,7422MS,Deventer,Deventer,Overijssel,VBO,6.215312,52.246924
Fonteinkruid,77,,,7422MS,Deventer,Deventer,Overijssel,VBO,6.215257,52.246866
Fonteinkruid,79,,,7422MS,Deventer,Deventer,Overijssel,VBO,6.215198,52.246821
Fonteinkruid,81,,,7422MT,Deventer,Deventer,Overijssel,VBO,6.215187,52.246721
Fonteinkruid,83,,,7422MT,Deventer,Deventer,Overijssel,VBO,6.215140,52.246679
Fonteinkruid,85,,,7422MT,Deventer,Deventer,Overijssel,VBO,6.215100,52.246637
Fonteinkruid,87,,,7422MT,Deventer,Deventer,Overijssel,VBO,6.215059,52.246594
Fonteinkruid,89,,,7422MT,Deventer,Deventer,Overijssel,VBO,6.215020,52.246556
Fonteinkruid,91,,,7422MT,Deventer,Deventer,Overijssel,VBO,6.214975,52.246517
Fonteinkruid,93,,,7422MT,Deventer,Deventer,Overijssel,VBO,6.214927,52.246476
Fonteinkruid,95,,,7422MT,Deventer,Deventer,Overijssel,VBO,6.214875,52.246391
Fonteinkruid,97,,,7422MT,Deventer,Deventer,Overijssel,VBO,6.214834,52.246350
Fonteinkruid,99,,,7422MT,Deventer,Deventer,Overijssel,VBO,6.214792,52.246310
Fonteinkruid,101,,,7422MT,Deventer,Deventer,Overijssel,VBO,6.214772,52.246260
Fonteinkruid,103,,,7422MT,Deventer,Deventer,Overijssel,VBO,6.214796,52.246202
Fonteinkruid,105,,,7422MT,Deventer,Deventer,Overijssel,VBO,6.214837,52.246163
Fonteinkruid,107,,,7422MT,Deventer,Deventer,Overijssel,VBO,6.214880,52.246127
Fonteinkruid,109,,,7422MT,Deventer,Deventer,Overijssel,VBO,6.214925,52.246079
Fonteinkruid,111,,,7422MT,Deventer,Deventer,Overijssel,VBO,6.214970,52.246041
Fonteinkruid,113,,,7422MT,Deventer,Deventer,Overijssel,VBO,6.214896,52.245750
Fonteinkruid,115,,,7422MT,Deventer,Deventer,Overijssel,VBO,6.214654,52.245789
Fonteinkruid,117,,,7422MT,Deventer,Deventer,Overijssel,VBO,6.214567,52.245784
Fonteinkruid,119,A,,7422MT,Deventer,Deventer,Overijssel,VBO,6.214298,52.245760
Fonteinkruid,119,,,7422MT,Deventer,Deventer,Overijssel,VBO,6.214380,52.245766
Fonteinkruid,121,,,7422MT,Deventer,Deventer,Overijssel,VBO,6.214107,52.245770
Fonteinkruid,123,,,7422MT,Deventer,Deventer,Overijssel,VBO,6.213952,52.245762
Fonteinkruid,125,,,7422MT,Deventer,Deventer,Overijssel,VBO,6.213732,52.245740
Fonteinkruid,127,,,7422MV,Deventer,Deventer,Overijssel,VBO,6.213391,52.245681
Fonteinkruid,129,,,7422MV,Deventer,Deventer,Overijssel,VBO,6.213352,52.245641
Fonteinkruid,131,,,7422MV,Deventer,Deventer,Overijssel,VBO,6.213302,52.245514
Fonteinkruid,133,,,7422MV,Deventer,Deventer,Overijssel,VBO,6.213240,52.245489
Fonteinkruid,135,,,7422MV,Deventer,Deventer,Overijssel,VBO,6.213030,52.245516
Fonteinkruid,137,,,7422MV,Deventer,Deventer,Overijssel,VBO,6.212973,52.245552
Fonteinkruid,139,,,7422MV,Deventer,Deventer,Overijssel,VBO,6.212999,52.245676
Fonteinkruid,141,,,7422MV,Deventer,Deventer,Overijssel,VBO,6.213024,52.245728
Fonteinkruid,2,,,7422MX,Deventer,Deventer,Overijssel,VBO,6.213030,52.247663
Fonteinkruid,4,,,7422MX,Deventer,Deventer,Overijssel,VBO,6.213126,52.247660
Fonteinkruid,6,,,7422MX,Deventer,Deventer,Overijssel,VBO,6.213318,52.247615
Fonteinkruid,8,,,7422MX,Deventer,Deventer,Overijssel,VBO,6.213398,52.247582
Fonteinkruid,10,,,7422MX,Deventer,Deventer,Overijssel,VBO,6.213498,52.247531
Fonteinkruid,12,T,,7422MX,Deventer,Deventer,Overijssel,VBO,6.213685,52.247393
Fonteinkruid,12,,,7422MX,Deventer,Deventer,Overijssel,VBO,6.213571,52.247501
Fonteinkruid,14,,,7422MX,Deventer,Deventer,Overijssel,VBO,6.214024,52.247246
Fonteinkruid,16,,,7422MX,Deventer,Deventer,Overijssel,VBO,6.213998,52.247223
Fonteinkruid,18,,,7422MX,Deventer,Deventer,Overijssel,VBO,6.213974,52.247209
Fonteinkruid,20,,,7422MX,Deventer,Deventer,Overijssel,VBO,6.213981,52.247164
Fonteinkruid,22,,,7422MX,Deventer,Deventer,Overijssel,VBO,6.213941,52.247143
Fonteinkruid,24,,,7422MX,Deventer,Deventer,Overijssel,VBO,6.213921,52.247104
Fonteinkruid,26,,,7422MX,Deventer,Deventer,Overijssel,VBO,6.213968,52.247076
Fonteinkruid,28,,,7422MX,Deventer,Deventer,Overijssel,VBO,6.214011,52.247052
Fonteinkruid,30,,,7422MX,Deventer,Deventer,Overijssel,VBO,6.214075,52.247069
Fonteinkruid,32,,,7422MX,Deventer,Deventer,Overijssel,VBO,6.214063,52.247090
Fonteinkruid,34,,,7422MX,Deventer,Deventer,Overijssel,VBO,6.214034,52.247099
Fonteinkruid,36,,,7422MX,Deventer,Deventer,Overijssel,VBO,6.214020,52.247117
Fonteinkruid,38,,,7422MX,Deventer,Deventer,Overijssel,VBO,6.213994,52.247141
Fonteinkruid,40,,,7422MX,Deventer,Deventer,Overijssel,VBO,6.214034,52.247159
Fonteinkruid,42,,,7422MX,Deventer,Deventer,Overijssel,VBO,6.214074,52.247138
Fonteinkruid,44,,,7422MX,Deventer,Deventer,Overijssel,VBO,6.214113,52.247119
Fonteinkruid,46,,,7422MX,Deventer,Deventer,Overijssel,VBO,6.214154,52.247098
Fonteinkruid,48,,,7422MX,Deventer,Deventer,Overijssel,VBO,6.214236,52.247100
Fonteinkruid,50,,,7422MX,Deventer,Deventer,Overijssel,VBO,6.214210,52.247121
Fonteinkruid,52,,,7422MX,Deventer,Deventer,Overijssel,VBO,6.214167,52.247122
Fonteinkruid,54,,,7422MX,Deventer,Deventer,Overijssel,VBO,6.214123,52.247144
Fonteinkruid,56,,,7422MX,Deventer,Deventer,Overijssel,VBO,6.214094,52.247162
Fonteinkruid,58,,,7422MX,Deventer,Deventer,Overijssel,VBO,6.214074,52.247188
Fonteinkruid,60,,,7422MX,Deventer,Deventer,Overijssel,VBO,6.214099,52.247211
Fonteinkruid,62,,,7422MX,Deventer,Deventer,Overijssel,VBO,6.214066,52.247225
Fonteinkruid,64,,,7422MX,Deventer,Deventer,Overijssel,VBO,6.214179,52.247153
Fonteinkruid,80,,,7422MZ,Deventer,Deventer,Overijssel,VBO,6.214618,52.246752
Fonteinkruid,82,,,7422MZ,Deventer,Deventer,Overijssel,VBO,6.214593,52.246583
Fonteinkruid,84,,,7422MZ,Deventer,Deventer,Overijssel,VBO,6.214604,52.246423
Fonteinkruid,86,,,7422MZ,Deventer,Deventer,Overijssel,VBO,6.214557,52.246379
Fonteinkruid,88,,,7422MZ,Deventer,Deventer,Overijssel,VBO,6.214513,52.246332
Fonteinkruid,90,,,7422MZ,Deventer,Deventer,Overijssel,VBO,6.214465,52.246291
Fonteinkruid,92,,,7422MZ,Deventer,Deventer,Overijssel,VBO,6.214409,52.246242
Fonteinkruid,94,,,7422MZ,Deventer,Deventer,Overijssel,VBO,6.214059,52.246341
Fonteinkruid,96,,,7422MZ,Deventer,Deventer,Overijssel,VBO,6.213984,52.246369
Fonteinkruid,98,,,7422MZ,Deventer,Deventer,Overijssel,VBO,6.213908,52.246398
Fonteinkruid,100,,,7422MZ,Deventer,Deventer,Overijssel,VBO,6.213833,52.246426
Fonteinkruid,102,,,7422MZ,Deventer,Deventer,Overijssel,VBO,6.213756,52.246455
Fonteinkruid,104,,,7422MZ,Deventer,Deventer,Overijssel,VBO,6.213786,52.246279
Fonteinkruid,106,,,7422MZ,Deventer,Deventer,Overijssel,VBO,6.213857,52.246248
Fonteinkruid,108,,,7422MZ,Deventer,Deventer,Overijssel,VBO,6.213929,52.246217
Fonteinkruid,110,,,7422MZ,Deventer,Deventer,Overijssel,VBO,6.214003,52.246187
Fonteinkruid,112,,,7422MZ,Deventer,Deventer,Overijssel,VBO,6.214076,52.246162
Fonteinkruid,114,,,7422MZ,Deventer,Deventer,Overijssel,VBO,6.214159,52.246134
Fonteinkruid,116,,,7422MZ,Deventer,Deventer,Overijssel,VBO,6.213948,52.245998
Fonteinkruid,118,,,7422MZ,Deventer,Deventer,Overijssel,VBO,6.213715,52.245916
Fonteinkruid,120,,,7422MZ,Deventer,Deventer,Overijssel,VBO,6.213376,52.245903
Fonteinkruid,122,,,7422MZ,Deventer,Deventer,Overijssel,VBO,6.213179,52.245905
Fonteinkruid,124,,,7422MZ,Deventer,Deventer,Overijssel,VBO,6.212989,52.245888
Fonteinkruid,126,,,7422MZ,Deventer,Deventer,Overijssel,VBO,6.212800,52.245880
Fonteinkruid,130,,,7422MZ,Deventer,Deventer,Overijssel,VBO,6.212343,52.245766
Gele lis,2,,,7422NA,Deventer,Deventer,Overijssel,VBO,6.212098,52.247753
Gele lis,4,,,7422NA,Deventer,Deventer,Overijssel,VBO,6.212110,52.247801
Gele lis,6,,,7422NA,Deventer,Deventer,Overijssel,VBO,6.212170,52.247898
Gele lis,8,,,7422NA,Deventer,Deventer,Overijssel,VBO,6.212191,52.247946
Gele lis,10,,,7422NA,Deventer,Deventer,Overijssel,VBO,6.212203,52.247993
Gele lis,12,,,7422NA,Deventer,Deventer,Overijssel,VBO,6.212219,52.248042
Gele lis,14,,,7422NA,Deventer,Deventer,Overijssel,VBO,6.212061,52.248180
Gele lis,16,,,7422NA,Deventer,Deventer,Overijssel,VBO,6.212038,52.248228
Gele lis,18,,,7422NA,Deventer,Deventer,Overijssel,VBO,6.212005,52.248272
Gele lis,20,,,7422NA,Deventer,Deventer,Overijssel,VBO,6.211958,52.248315
Gele lis,22,,,7422NA,Deventer,Deventer,Overijssel,VBO,6.211746,52.248430
Gele lis,24,,,7422NA,Deventer,Deventer,Overijssel,VBO,6.211663,52.248439
Gele lis,26,,,7422NA,Deventer,Deventer,Overijssel,VBO,6.211590,52.248460
Gele lis,28,,,7422NA,Deventer,Deventer,Overijssel,VBO,6.211515,52.248465
Gele lis,30,,,7422NA,Deventer,Deventer,Overijssel,VBO,6.211434,52.248472
Gele lis,32,,,7422NA,Deventer,Deventer,Overijssel,VBO,6.211267,52.248492
Gele lis,34,,,7422NA,Deventer,Deventer,Overijssel,VBO,6.211178,52.248501
Gele lis,36,,,7422NA,Deventer,Deventer,Overijssel,VBO,6.210992,52.248500
Gele lis,38,,,7422NA,Deventer,Deventer,Overijssel,VBO,6.210910,52.248496
Gele lis,40,,,7422NA,Deventer,Deventer,Overijssel,VBO,6.210738,52.248467
Gele lis,42,,,7422NA,Deventer,Deventer,Overijssel,VBO,6.210648,52.248446
Gele lis,1,,,7422NB,Deventer,Deventer,Overijssel,VBO,6.211926,52.248040
Gele lis,3,,,7422NB,Deventer,Deventer,Overijssel,VBO,6.211886,52.248086
Gele lis,5,,,7422NB,Deventer,Deventer,Overijssel,VBO,6.211810,52.248185
Gele lis,7,,,7422NB,Deventer,Deventer,Overijssel,VBO,6.211778,52.248234
Gele lis,9,,,7422NB,Deventer,Deventer,Overijssel,VBO,6.211568,52.248315
Gele lis,11,,,7422NB,Deventer,Deventer,Overijssel,VBO,6.211382,52.248333
Gele lis,13,,,7422NB,Deventer,Deventer,Overijssel,VBO,6.211302,52.248339
Gele lis,15,,,7422NB,Deventer,Deventer,Overijssel,VBO,6.211129,52.248354
Gele lis,17,,,7422NB,Deventer,Deventer,Overijssel,VBO,6.211036,52.248360
Grote ratelaar,20,,,7422ND,Deventer,Deventer,Overijssel,VBO,6.204397,52.247005
Grote ratelaar,22,,,7422ND,Deventer,Deventer,Overijssel,VBO,6.204526,52.247024
Grote ratelaar,24,,,7422ND,Deventer,Deventer,Overijssel,VBO,6.204607,52.247016
Grote ratelaar,26,,,7422ND,Deventer,Deventer,Overijssel,VBO,6.204824,52.246995
Grote ratelaar,28,,,7422ND,Deventer,Deventer,Overijssel,VBO,6.204895,52.246988
Grote ratelaar,30,,,7422ND,Deventer,Deventer,Overijssel,VBO,6.205059,52.246960
Grote ratelaar,32,,,7422ND,Deventer,Deventer,Overijssel,VBO,6.205139,52.246955
Grote ratelaar,34,,,7422ND,Deventer,Deventer,Overijssel,VBO,6.205310,52.246936
Grote ratelaar,36,,,7422ND,Deventer,Deventer,Overijssel,VBO,6.205382,52.246929
Grote ratelaar,38,,,7422ND,Deventer,Deventer,Overijssel,VBO,6.205543,52.246899
Grote ratelaar,40,,,7422ND,Deventer,Deventer,Overijssel,VBO,6.205623,52.246890
Grote ratelaar,42,,,7422ND,Deventer,Deventer,Overijssel,VBO,6.206040,52.246847
Grote ratelaar,44,,,7422ND,Deventer,Deventer,Overijssel,VBO,6.206126,52.246855
Grote ratelaar,46,,,7422ND,Deventer,Deventer,Overijssel,VBO,6.206205,52.246867
Grote ratelaar,48,,,7422ND,Deventer,Deventer,Overijssel,VBO,6.206285,52.246880
Grote ratelaar,50,,,7422ND,Deventer,Deventer,Overijssel,VBO,6.206366,52.246889
Grote ratelaar,52,,,7422NE,Deventer,Deventer,Overijssel,VBO,6.206454,52.246889
Grote ratelaar,54,,,7422NE,Deventer,Deventer,Overijssel,VBO,6.206531,52.246900
Grote ratelaar,56,,,7422NE,Deventer,Deventer,Overijssel,VBO,6.206608,52.246910
Grote ratelaar,58,,,7422NE,Deventer,Deventer,Overijssel,VBO,6.206695,52.246921
Grote ratelaar,60,,,7422NE,Deventer,Deventer,Overijssel,VBO,6.207288,52.246760
Grote ratelaar,62,,,7422NE,Deventer,Deventer,Overijssel,VBO,6.207366,52.246766
Grote ratelaar,64,,,7422NE,Deventer,Deventer,Overijssel,VBO,6.207459,52.246777
Grote ratelaar,102,,,7422NG,Deventer,Deventer,Overijssel,VBO,6.208834,52.247553
Grote ratelaar,104,,,7422NG,Deventer,Deventer,Overijssel,VBO,6.208914,52.247586
Grote ratelaar,106,,,7422NG,Deventer,Deventer,Overijssel,VBO,6.209161,52.247618
Grote ratelaar,108,,,7422NG,Deventer,Deventer,Overijssel,VBO,6.209259,52.247607
Grote ratelaar,110,,,7422NG,Deventer,Deventer,Overijssel,VBO,6.209692,52.247522
Grote ratelaar,112,,,7422NG,Deventer,Deventer,Overijssel,VBO,6.209776,52.247496
Grote ratelaar,114,,,7422NG,Deventer,Deventer,Overijssel,VBO,6.209915,52.247439
Grote ratelaar,116,,,7422NG,Deventer,Deventer,Overijssel,VBO,6.210001,52.247407
Grote ratelaar,118,,,7422NG,Deventer,Deventer,Overijssel,VBO,6.210139,52.247345
Grote ratelaar,120,,,7422NG,Deventer,Deventer,Overijssel,VBO,6.210220,52.247311
Grote ratelaar,122,,,7422NG,Deventer,Deventer,Overijssel,VBO,6.210404,52.247252
Grote ratelaar,124,,,7422NG,Deventer,Deventer,Overijssel,VBO,6.210478,52.247226
Grote ratelaar,126,,,7422NG,Deventer,Deventer,Overijssel,VBO,6.210611,52.247167
Grote ratelaar,128,,,7422NG,Deventer,Deventer,Overijssel,VBO,6.210679,52.247138
Grote ratelaar,140,,,7422NG,Deventer,Deventer,Overijssel,VBO,6.212447,52.247183
Grote ratelaar,142,,,7422NG,Deventer,Deventer,Overijssel,VBO,6.212518,52.247211
Grote ratelaar,47,,,7422NH,Deventer,Deventer,Overijssel,VBO,6.204023,52.247260
Grote ratelaar,49,,,7422NH,Deventer,Deventer,Overijssel,VBO,6.204105,52.247250
Grote ratelaar,51,,,7422NJ,Deventer,Deventer,Overijssel,VBO,6.204494,52.247225
Grote ratelaar,53,,,7422NJ,Deventer,Deventer,Overijssel,VBO,6.204580,52.247220
Grote ratelaar,55,,,7422NJ,Deventer,Deventer,Overijssel,VBO,6.204748,52.247220
Grote ratelaar,57,,,7422NJ,Deventer,Deventer,Overijssel,VBO,6.204830,52.247212
Grote ratelaar,59,,,7422NJ,Deventer,Deventer,Overijssel,VBO,6.204998,52.247199
Grote ratelaar,61,,,7422NJ,Deventer,Deventer,Overijssel,VBO,6.205074,52.247191
Grote ratelaar,63,,,7422NJ,Deventer,Deventer,Overijssel,VBO,6.205238,52.247160
Grote ratelaar,65,,,7422NJ,Deventer,Deventer,Overijssel,VBO,6.205315,52.247151
Grote ratelaar,67,,,7422NJ,Deventer,Deventer,Overijssel,VBO,6.205395,52.247141
Grote ratelaar,69,,,7422NJ,Deventer,Deventer,Overijssel,VBO,6.205479,52.247133
Grote ratelaar,75,,,7422NJ,Deventer,Deventer,Overijssel,VBO,6.206161,52.247126
Grote ratelaar,77,,,7422NJ,Deventer,Deventer,Overijssel,VBO,6.206241,52.247129
Grote ratelaar,79,,,7422NJ,Deventer,Deventer,Overijssel,VBO,6.206325,52.247119
Grote ratelaar,81,,,7422NJ,Deventer,Deventer,Overijssel,VBO,6.206404,52.247130
Grote ratelaar,83,,,7422NJ,Deventer,Deventer,Overijssel,VBO,6.206481,52.247139
Grote ratelaar,85,,,7422NJ,Deventer,Deventer,Overijssel,VBO,6.206561,52.247149
Grote ratelaar,87,,,7422NJ,Deventer,Deventer,Overijssel,VBO,6.206638,52.247161
Grote ratelaar,89,,,7422NJ,Deventer,Deventer,Overijssel,VBO,6.206872,52.247159
Grote ratelaar,91,,,7422NJ,Deventer,Deventer,Overijssel,VBO,6.206948,52.247141
Grote ratelaar,93,,,7422NJ,Deventer,Deventer,Overijssel,VBO,6.207009,52.247092
Grote ratelaar,95,,,7422NJ,Deventer,Deventer,Overijssel,VBO,6.207085,52.247074
Grote ratelaar,97,,,7422NJ,Deventer,Deventer,Overijssel,VBO,6.207159,52.247057
Grote ratelaar,99,,,7422NJ,Deventer,Deventer,Overijssel,VBO,6.207234,52.247038
Grote ratelaar,101,,,7422NJ,Deventer,Deventer,Overijssel,VBO,6.207373,52.247224
Grote ratelaar,103,,,7422NJ,Deventer,Deventer,Overijssel,VBO,6.207439,52.247319
Grote ratelaar,105,,,7422NJ,Deventer,Deventer,Overijssel,VBO,6.207467,52.247365
Grote ratelaar,107,,,7422NJ,Deventer,Deventer,Overijssel,VBO,6.208135,52.247574
Grote ratelaar,109,,,7422NJ,Deventer,Deventer,Overijssel,VBO,6.208264,52.247606
Grote ratelaar,111,,,7422NJ,Deventer,Deventer,Overijssel,VBO,6.208335,52.247633
Grote ratelaar,113,,,7422NJ,Deventer,Deventer,Overijssel,VBO,6.208488,52.247693
Grote ratelaar,115,,,7422NJ,Deventer,Deventer,Overijssel,VBO,6.208561,52.247723
Grote ratelaar,117,,,7422NK,Deventer,Deventer,Overijssel,VBO,6.209164,52.247891
Grote ratelaar,119,,,7422NK,Deventer,Deventer,Overijssel,VBO,6.209250,52.247877
Grote ratelaar,121,,,7422NK,Deventer,Deventer,Overijssel,VBO,6.209334,52.247862
Grote ratelaar,123,,,7422NK,Deventer,Deventer,Overijssel,VBO,6.209418,52.247848
Grote ratelaar,125,,,7422NK,Deventer,Deventer,Overijssel,VBO,6.209496,52.247836
Grote ratelaar,127,,,7422NK,Deventer,Deventer,Overijssel,VBO,6.209577,52.247823
Grote ratelaar,129,,,7422NK,Deventer,Deventer,Overijssel,VBO,6.209655,52.247813
Grote ratelaar,131,T,,7422NK,Deventer,Deventer,Overijssel,VBO,6.209817,52.247893
Grote ratelaar,131,,,7422NK,Deventer,Deventer,Overijssel,VBO,6.209816,52.247771
Grote ratelaar,133,,,7422NK,Deventer,Deventer,Overijssel,VBO,6.209890,52.247744
Grote ratelaar,135,,,7422NK,Deventer,Deventer,Overijssel,VBO,6.209964,52.247714
Grote ratelaar,137,,,7422NK,Deventer,Deventer,Overijssel,VBO,6.210038,52.247692
Grote ratelaar,139,,,7422NK,Deventer,Deventer,Overijssel,VBO,6.210106,52.247666
Grote ratelaar,141,,,7422NK,Deventer,Deventer,Overijssel,VBO,6.210177,52.247637
Grote ratelaar,143,,,7422NK,Deventer,Deventer,Overijssel,VBO,6.210728,52.247421
Grote ratelaar,145,,,7422NK,Deventer,Deventer,Overijssel,VBO,6.210795,52.247393
Grote ratelaar,147,,,7422NK,Deventer,Deventer,Overijssel,VBO,6.210867,52.247367
Grote ratelaar,149,,,7422NK,Deventer,Deventer,Overijssel,VBO,6.210938,52.247340
Grote ratelaar,151,,,7422NK,Deventer,Deventer,Overijssel,VBO,6.211004,52.247308
Grote ratelaar,153,,,7422NK,Deventer,Deventer,Overijssel,VBO,6.211071,52.247279
Grote ratelaar,155,,,7422NK,Deventer,Deventer,Overijssel,VBO,6.211210,52.247234
Grote ratelaar,157,,,7422NK,Deventer,Deventer,Overijssel,VBO,6.211294,52.247229
Grote ratelaar,159,,,7422NK,Deventer,Deventer,Overijssel,VBO,6.211382,52.247225
Grote ratelaar,161,,,7422NK,Deventer,Deventer,Overijssel,VBO,6.211464,52.247224
Grote ratelaar,163,,,7422NK,Deventer,Deventer,Overijssel,VBO,6.211545,52.247218
Grote ratelaar,165,,,7422NK,Deventer,Deventer,Overijssel,VBO,6.211627,52.247212
Grote ratelaar,167,,,7422NK,Deventer,Deventer,Overijssel,VBO,6.211772,52.247222
Grote ratelaar,169,,,7422NK,Deventer,Deventer,Overijssel,VBO,6.211852,52.247232
Grote ratelaar,171,,,7422NK,Deventer,Deventer,Overijssel,VBO,6.211943,52.247243
Grote ratelaar,175,,,7422NL,Deventer,Deventer,Overijssel,VBO,6.212455,52.247572
Grote ratelaar,177,,,7422NL,Deventer,Deventer,Overijssel,VBO,6.212497,52.247611
Grote ratelaar,179,,,7422NL,Deventer,Deventer,Overijssel,VBO,6.212538,52.247646
Grote ratelaar,181,,,7422NL,Deventer,Deventer,Overijssel,VBO,6.212584,52.247685
Grote ratelaar,183,,,7422NL,Deventer,Deventer,Overijssel,VBO,6.212676,52.247769
Grote ratelaar,185,,,7422NL,Deventer,Deventer,Overijssel,VBO,6.212715,52.247806
Grote ratelaar,187,,,7422NL,Deventer,Deventer,Overijssel,VBO,6.212758,52.247850
Grote ratelaar,189,,,7422NL,Deventer,Deventer,Overijssel,VBO,6.212841,52.247980
Grote ratelaar,191,,,7422NL,Deventer,Deventer,Overijssel,VBO,6.212853,52.248024
Klaproos,1,,,7422NM,Deventer,Deventer,Overijssel,VBO,6.212403,52.246883
Klaproos,2,,,7422NM,Deventer,Deventer,Overijssel,VBO,6.212094,52.246986
Klaproos,3,,,7422NM,Deventer,Deventer,Overijssel,VBO,6.212466,52.246853
Klaproos,4,,,7422NM,Deventer,Deventer,Overijssel,VBO,6.212119,52.246939
Klaproos,5,,,7422NM,Deventer,Deventer,Overijssel,VBO,6.212611,52.246784
Klaproos,6,,,7422NM,Deventer,Deventer,Overijssel,VBO,6.212163,52.246830
Klaproos,7,,,7422NM,Deventer,Deventer,Overijssel,VBO,6.212677,52.246750
Klaproos,8,,,7422NM,Deventer,Deventer,Overijssel,VBO,6.212192,52.246781
Klaproos,10,,,7422NM,Deventer,Deventer,Overijssel,VBO,6.212226,52.246672
Klaproos,12,,,7422NM,Deventer,Deventer,Overijssel,VBO,6.212247,52.246623
Guldenroede,1,,,7422NP,Deventer,Deventer,Overijssel,VBO,6.210703,52.245438
Guldenroede,2,,,7422NP,Deventer,Deventer,Overijssel,VBO,6.210268,52.245202
Guldenroede,3,,,7422NP,Deventer,Deventer,Overijssel,VBO,6.210666,52.245510
Guldenroede,4,,,7422NP,Deventer,Deventer,Overijssel,VBO,6.210365,52.245206
Guldenroede,5,,,7422NP,Deventer,Deventer,Overijssel,VBO,6.210663,52.245605
Guldenroede,6,,,7422NP,Deventer,Deventer,Overijssel,VBO,6.210535,52.245206
Guldenroede,7,,,7422NP,Deventer,Deventer,Overijssel,VBO,6.210634,52.245662
Guldenroede,8,,,7422NP,Deventer,Deventer,Overijssel,VBO,6.210610,52.245206
Guldenroede,10,,,7422NP,Deventer,Deventer,Overijssel,VBO,6.210781,52.245243
Guldenroede,12,,,7422NP,Deventer,Deventer,Overijssel,VBO,6.210848,52.245272
Guldenroede,14,,,7422NP,Deventer,Deventer,Overijssel,VBO,6.210943,52.245366
Guldenroede,16,,,7422NP,Deventer,Deventer,Overijssel,VBO,6.210972,52.245405
Guldenroede,18,,,7422NP,Deventer,Deventer,Overijssel,VBO,6.210979,52.245517
Guldenroede,20,,,7422NP,Deventer,Deventer,Overijssel,VBO,6.210953,52.245566
Guldenroede,22,,,7422NP,Deventer,Deventer,Overijssel,VBO,6.210910,52.245666
Guldenroede,24,,,7422NP,Deventer,Deventer,Overijssel,VBO,6.210895,52.245717
Eikvaren,1,,,7422NR,Deventer,Deventer,Overijssel,VBO,6.209471,52.245923
Eikvaren,3,,,7422NR,Deventer,Deventer,Overijssel,VBO,6.209492,52.245875
Eikvaren,5,,,7422NR,Deventer,Deventer,Overijssel,VBO,6.209562,52.245754
Eikvaren,7,,,7422NR,Deventer,Deventer,Overijssel,VBO,6.209590,52.245704
Eikvaren,9,,,7422NR,Deventer,Deventer,Overijssel,VBO,6.209930,52.245765
Eikvaren,11,,,7422NR,Deventer,Deventer,Overijssel,VBO,6.210015,52.245776
Eikvaren,13,,,7422NR,Deventer,Deventer,Overijssel,VBO,6.210218,52.245814
Eikvaren,15,,,7422NR,Deventer,Deventer,Overijssel,VBO,6.210306,52.245820
Eikvaren,17,,,7422NR,Deventer,Deventer,Overijssel,VBO,6.210516,52.245861
Eikvaren,19,,,7422NR,Deventer,Deventer,Overijssel,VBO,6.210611,52.245874
Eikvaren,41,,,7422NR,Deventer,Deventer,Overijssel,VBO,6.211607,52.245925
Speenkruid,2,,,7422NR,Deventer,Deventer,Overijssel,VBO,6.209571,52.246669
Speenkruid,4,,,7422NR,Deventer,Deventer,Overijssel,VBO,6.209527,52.246627
Speenkruid,6,,,7422NR,Deventer,Deventer,Overijssel,VBO,6.209484,52.246587
Eikvaren,2,,,7422NS,Deventer,Deventer,Overijssel,VBO,6.209212,52.245693
Eikvaren,4,,,7422NS,Deventer,Deventer,Overijssel,VBO,6.209257,52.245653
Eikvaren,6,,,7422NS,Deventer,Deventer,Overijssel,VBO,6.209309,52.245611
Eikvaren,8,,,7422NS,Deventer,Deventer,Overijssel,VBO,6.209354,52.245570
Eikvaren,10,,,7422NS,Deventer,Deventer,Overijssel,VBO,6.209477,52.245497
Eikvaren,12,,,7422NS,Deventer,Deventer,Overijssel,VBO,6.209556,52.245471
Eikvaren,14,,,7422NS,Deventer,Deventer,Overijssel,VBO,6.209621,52.245444
Eikvaren,16,,,7422NS,Deventer,Deventer,Overijssel,VBO,6.209699,52.245416
Eikvaren,18,,,7422NS,Deventer,Deventer,Overijssel,VBO,6.209770,52.245389
Eikvaren,20,,,7422NS,Deventer,Deventer,Overijssel,VBO,6.209969,52.245292
Eikvaren,22,,,7422NS,Deventer,Deventer,Overijssel,VBO,6.209960,52.245245
Eikvaren,24,,,7422NS,Deventer,Deventer,Overijssel,VBO,6.209945,52.245197
Eikvaren,26,,,7422NS,Deventer,Deventer,Overijssel,VBO,6.209951,52.245148
Eikvaren,28,,,7422NS,Deventer,Deventer,Overijssel,VBO,6.209935,52.245091
Eikvaren,30,,,7422NS,Deventer,Deventer,Overijssel,VBO,6.210227,52.245346
Eikvaren,32,,,7422NS,Deventer,Deventer,Overijssel,VBO,6.210199,52.245426
Eikvaren,34,,,7422NS,Deventer,Deventer,Overijssel,VBO,6.210139,52.245518
Eikvaren,36,,,7422NS,Deventer,Deventer,Overijssel,VBO,6.210120,52.245574
Speenkruid,1,,,7422NS,Deventer,Deventer,Overijssel,VBO,6.209809,52.246627
Speenkruid,3,,,7422NS,Deventer,Deventer,Overijssel,VBO,6.209765,52.246585
Speenkruid,5,,,7422NS,Deventer,Deventer,Overijssel,VBO,6.209720,52.246542
Boterbloem,1,,,7422NT,Deventer,Deventer,Overijssel,VBO,6.210947,52.247023
Boterbloem,2,,,7422NT,Deventer,Deventer,Overijssel,VBO,6.210583,52.246605
Boterbloem,3,,,7422NT,Deventer,Deventer,Overijssel,VBO,6.210912,52.246978
Boterbloem,4,,,7422NT,Deventer,Deventer,Overijssel,VBO,6.210595,52.246468
Boterbloem,5,,,7422NT,Deventer,Deventer,Overijssel,VBO,6.210885,52.246933
Boterbloem,6,,,7422NT,Deventer,Deventer,Overijssel,VBO,6.210591,52.246413
Boterbloem,7,,,7422NT,Deventer,Deventer,Overijssel,VBO,6.210854,52.246885
Boterbloem,9,,,7422NT,Deventer,Deventer,Overijssel,VBO,6.210816,52.246793
Boterbloem,11,,,7422NT,Deventer,Deventer,Overijssel,VBO,6.210809,52.246734
Boterbloem,13,,,7422NT,Deventer,Deventer,Overijssel,VBO,6.210806,52.246687
Boterbloem,15,,,7422NT,Deventer,Deventer,Overijssel,VBO,6.210801,52.246633
Boterbloem,17,,,7422NT,Deventer,Deventer,Overijssel,VBO,6.210800,52.246586
Boterbloem,19,,,7422NT,Deventer,Deventer,Overijssel,VBO,6.210804,52.246536
Boterbloem,21,,,7422NT,Deventer,Deventer,Overijssel,VBO,6.210811,52.246493
Dovenetel,1,,,7422NV,Deventer,Deventer,Overijssel,VBO,6.209273,52.247299
Dovenetel,2,,,7422NV,Deventer,Deventer,Overijssel,VBO,6.208619,52.247443
Dovenetel,3,,,7422NV,Deventer,Deventer,Overijssel,VBO,6.209355,52.247264
Dovenetel,4,,,7422NV,Deventer,Deventer,Overijssel,VBO,6.208670,52.247405
Dovenetel,5,,,7422NV,Deventer,Deventer,Overijssel,VBO,6.209481,52.247213
Dovenetel,6,,,7422NV,Deventer,Deventer,Overijssel,VBO,6.208754,52.247316
Dovenetel,7,,,7422NV,Deventer,Deventer,Overijssel,VBO,6.209564,52.247179
Dovenetel,8,,,7422NV,Deventer,Deventer,Overijssel,VBO,6.208805,52.247273
Dovenetel,9,,,7422NV,Deventer,Deventer,Overijssel,VBO,6.209859,52.247033
Dovenetel,10,,,7422NV,Deventer,Deventer,Overijssel,VBO,6.208971,52.247156
Dovenetel,11,,,7422NV,Deventer,Deventer,Overijssel,VBO,6.209943,52.247015
Dovenetel,12,,,7422NV,Deventer,Deventer,Overijssel,VBO,6.209046,52.247132
Dovenetel,13,,,7422NV,Deventer,Deventer,Overijssel,VBO,6.210085,52.246974
Dovenetel,14,,,7422NV,Deventer,Deventer,Overijssel,VBO,6.209178,52.247067
Dovenetel,15,,,7422NV,Deventer,Deventer,Overijssel,VBO,6.210165,52.246955
Dovenetel,16,,,7422NV,Deventer,Deventer,Overijssel,VBO,6.209247,52.247038
Dovenetel,17,,,7422NV,Deventer,Deventer,Overijssel,VBO,6.210312,52.246914
Dovenetel,18,,,7422NV,Deventer,Deventer,Overijssel,VBO,6.209521,52.246964
Dovenetel,19,,,7422NV,Deventer,Deventer,Overijssel,VBO,6.210402,52.246891
Dovenetel,20,,,7422NV,Deventer,Deventer,Overijssel,VBO,6.209606,52.246943
Dovenetel,22,,,7422NV,Deventer,Deventer,Overijssel,VBO,6.209673,52.246922
Dovenetel,24,,,7422NV,Deventer,Deventer,Overijssel,VBO,6.209752,52.246905
Dovenetel,26,,,7422NV,Deventer,Deventer,Overijssel,VBO,6.210150,52.246792
Dovenetel,28,,,7422NV,Deventer,Deventer,Overijssel,VBO,6.210272,52.246760
Dovenetel,30,,,7422NV,Deventer,Deventer,Overijssel,VBO,6.210362,52.246738
Dovenetel,32,,,7422NV,Deventer,Deventer,Overijssel,VBO,6.210535,52.246653
Bosanemoon,1,,,7422NW,Deventer,Deventer,Overijssel,VBO,6.211669,52.246904
Bosanemoon,2,,,7422NW,Deventer,Deventer,Overijssel,VBO,6.211417,52.246935
Bosanemoon,3,,,7422NW,Deventer,Deventer,Overijssel,VBO,6.211659,52.246856
Bosanemoon,4,,,7422NW,Deventer,Deventer,Overijssel,VBO,6.211402,52.246886
Bosanemoon,5,,,7422NW,Deventer,Deventer,Overijssel,VBO,6.211634,52.246760
Bosanemoon,6,,,7422NW,Deventer,Deventer,Overijssel,VBO,6.211392,52.246836
Bosanemoon,7,,,7422NW,Deventer,Deventer,Overijssel,VBO,6.211627,52.246713
Bosanemoon,8,,,7422NW,Deventer,Deventer,Overijssel,VBO,6.211381,52.246790
Bosanemoon,9,,,7422NW,Deventer,Deventer,Overijssel,VBO,6.211678,52.246595
Bosanemoon,10,,,7422NW,Deventer,Deventer,Overijssel,VBO,6.211367,52.246746
Bosanemoon,11,,,7422NW,Deventer,Deventer,Overijssel,VBO,6.211721,52.246559
Bosanemoon,12,,,7422NW,Deventer,Deventer,Overijssel,VBO,6.211357,52.246694
Bosanemoon,13,,,7422NW,Deventer,Deventer,Overijssel,VBO,6.211767,52.246520
Bosanemoon,14,,,7422NW,Deventer,Deventer,Overijssel,VBO,6.211343,52.246648
Bosanemoon,16,,,7422NW,Deventer,Deventer,Overijssel,VBO,6.211339,52.246600
Bosanemoon,18,,,7422NW,Deventer,Deventer,Overijssel,VBO,6.211357,52.246552
Bosanemoon,20,,,7422NW,Deventer,Deventer,Overijssel,VBO,6.211347,52.246504
Bosanemoon,22,,,7422NW,Deventer,Deventer,Overijssel,VBO,6.211338,52.246459
Bosanemoon,24,,,7422NW,Deventer,Deventer,Overijssel,VBO,6.211322,52.246406
Bosanemoon,26,,,7422NW,Deventer,Deventer,Overijssel,VBO,6.211304,52.246359
Bosanemoon,30,T,,7422NW,Deventer,Deventer,Overijssel,VBO,6.211839,52.246158
Bosanemoon,30,,,7422NW,Deventer,Deventer,Overijssel,VBO,6.211617,52.246029
Waterlelie,2,,,7422NX,Deventer,Deventer,Overijssel,VBO,6.212590,52.248182
Waterlelie,4,,,7422NX,Deventer,Deventer,Overijssel,VBO,6.212560,52.248224
Waterlelie,6,,,7422NX,Deventer,Deventer,Overijssel,VBO,6.212527,52.248300
Waterlelie,8,,,7422NX,Deventer,Deventer,Overijssel,VBO,6.212501,52.248339
Waterlelie,10,,,7422NX,Deventer,Deventer,Overijssel,VBO,6.212461,52.248382
Waterlelie,12,,,7422NX,Deventer,Deventer,Overijssel,VBO,6.212435,52.248419
Waterlelie,14,,,7422NX,Deventer,Deventer,Overijssel,VBO,6.212398,52.248469
Rolklaver,4,,,7422RA,Deventer,Deventer,Overijssel,VBO,6.205656,52.246658
Rolklaver,6,,,7422RA,Deventer,Deventer,Overijssel,VBO,6.205670,52.246603
Rolklaver,8,,,7422RA,Deventer,Deventer,Overijssel,VBO,6.205751,52.246515
Rolklaver,10,,,7422RA,Deventer,Deventer,Overijssel,VBO,6.205777,52.246470
Rolklaver,12,,,7422RA,Deventer,Deventer,Overijssel,VBO,6.205937,52.246237
Rolklaver,14,,,7422RA,Deventer,Deventer,Overijssel,VBO,6.205975,52.246192
Rolklaver,16,,,7422RA,Deventer,Deventer,Overijssel,VBO,6.206022,52.246147
Rolklaver,30,,,7422RA,Deventer,Deventer,Overijssel,VBO,6.206592,52.246136
Rolklaver,32,,,7422RA,Deventer,Deventer,Overijssel,VBO,6.206591,52.246082
Rolklaver,34,,,7422RA,Deventer,Deventer,Overijssel,VBO,6.206683,52.246072
Rolklaver,36,,,7422RA,Deventer,Deventer,Overijssel,VBO,6.206688,52.246132
Rolklaver,38,,,7422RA,Deventer,Deventer,Overijssel,VBO,6.206766,52.246071
Rolklaver,40,,,7422RA,Deventer,Deventer,Overijssel,VBO,6.206840,52.246062
Rolklaver,42,,,7422RA,Deventer,Deventer,Overijssel,VBO,6.206776,52.246129
Rolklaver,44,,,7422RA,Deventer,Deventer,Overijssel,VBO,6.206958,52.246115
Rolklaver,46,,,7422RA,Deventer,Deventer,Overijssel,VBO,6.206841,52.246125
Rolklaver,48,,,7422RB,Deventer,Deventer,Overijssel,VBO,6.207103,52.246060
Rolklaver,50,,,7422RB,Deventer,Deventer,Overijssel,VBO,6.207058,52.245962
Rolklaver,52,,,7422RB,Deventer,Deventer,Overijssel,VBO,6.207071,52.245917
Rolklaver,54,,,7422RB,Deventer,Deventer,Overijssel,VBO,6.207146,52.245979
Rolklaver,56,,,7422RB,Deventer,Deventer,Overijssel,VBO,6.207100,52.245871
Rolklaver,58,,,7422RB,Deventer,Deventer,Overijssel,VBO,6.207174,52.245934
Rolklaver,60,,,7422RB,Deventer,Deventer,Overijssel,VBO,6.207128,52.245808
Rolklaver,62,,,7422RB,Deventer,Deventer,Overijssel,VBO,6.207188,52.245880
Rolklaver,64,,,7422RB,Deventer,Deventer,Overijssel,VBO,6.207215,52.245781
Rolklaver,66,,,7422RB,Deventer,Deventer,Overijssel,VBO,6.207216,52.245817
Rolklaver,68,,,7422RB,Deventer,Deventer,Overijssel,VBO,6.207332,52.245771
Rolklaver,70,,,7422RB,Deventer,Deventer,Overijssel,VBO,6.207317,52.245717
Rolklaver,72,,,7422RB,Deventer,Deventer,Overijssel,VBO,6.207404,52.245708
Rolklaver,74,,,7422RB,Deventer,Deventer,Overijssel,VBO,6.207405,52.245770
Rolklaver,76,,,7422RB,Deventer,Deventer,Overijssel,VBO,6.207492,52.245707
Rolklaver,78,,,7422RB,Deventer,Deventer,Overijssel,VBO,6.207493,52.245770
Rolklaver,80,,,7422RB,Deventer,Deventer,Overijssel,VBO,6.207581,52.245760
Rolklaver,82,,,7422RB,Deventer,Deventer,Overijssel,VBO,6.207580,52.245706
Rolklaver,84,,,7422RB,Deventer,Deventer,Overijssel,VBO,6.207587,52.246084
Rolklaver,86,,,7422RB,Deventer,Deventer,Overijssel,VBO,6.207683,52.246084
Rolklaver,88,,,7422RB,Deventer,Deventer,Overijssel,VBO,6.207762,52.246074
Rolklaver,90,,,7422RB,Deventer,Deventer,Overijssel,VBO,6.207850,52.246073
Rolklaver,92,,,7422RB,Deventer,Deventer,Overijssel,VBO,6.208025,52.246009
Rolklaver,94,,,7422RB,Deventer,Deventer,Overijssel,VBO,6.208053,52.245973
Rolklaver,96,,,7422RB,Deventer,Deventer,Overijssel,VBO,6.208082,52.245919
Rolklaver,98,,,7422RB,Deventer,Deventer,Overijssel,VBO,6.208110,52.245873
Rolklaver,100,,,7422RB,Deventer,Deventer,Overijssel,VBO,6.208124,52.245828
Rolklaver,102,,,7422RC,Deventer,Deventer,Overijssel,VBO,6.208564,52.245734
Rolklaver,104,,,7422RC,Deventer,Deventer,Overijssel,VBO,6.208646,52.245729
Rolklaver,106,,,7422RC,Deventer,Deventer,Overijssel,VBO,6.208733,52.245724
Rolklaver,108,,,7422RC,Deventer,Deventer,Overijssel,VBO,6.208814,52.245720
Rolklaver,110,,,7422RC,Deventer,Deventer,Overijssel,VBO,6.208903,52.245717
Rolklaver,112,,,7422RC,Deventer,Deventer,Overijssel,VBO,6.209619,52.246110
Rolklaver,114,,,7422RC,Deventer,Deventer,Overijssel,VBO,6.209693,52.246134
Rolklaver,116,,,7422RC,Deventer,Deventer,Overijssel,VBO,6.209757,52.246158
Rolklaver,118,,,7422RC,Deventer,Deventer,Overijssel,VBO,6.209827,52.246186
Rolklaver,120,,,7422RC,Deventer,Deventer,Overijssel,VBO,6.209887,52.246213
Rolklaver,122,,,7422RC,Deventer,Deventer,Overijssel,VBO,6.209321,52.246243
Rolklaver,124,,,7422RC,Deventer,Deventer,Overijssel,VBO,6.209242,52.246275
Rolklaver,126,,,7422RC,Deventer,Deventer,Overijssel,VBO,6.209109,52.246334
Rolklaver,128,,,7422RC,Deventer,Deventer,Overijssel,VBO,6.209036,52.246361
Rolklaver,130,,,7422RC,Deventer,Deventer,Overijssel,VBO,6.208893,52.246477
Rolklaver,132,,,7422RC,Deventer,Deventer,Overijssel,VBO,6.208819,52.246510
Rolklaver,134,,,7422RC,Deventer,Deventer,Overijssel,VBO,6.208762,52.246534
Rolklaver,136,,,7422RC,Deventer,Deventer,Overijssel,VBO,6.208695,52.246565
Rolklaver,138,,,7422RC,Deventer,Deventer,Overijssel,VBO,6.208632,52.246589
Rolklaver,140,,,7422RC,Deventer,Deventer,Overijssel,VBO,6.208564,52.246617
Rolklaver,142,,,7422RC,Deventer,Deventer,Overijssel,VBO,6.208499,52.246642
Rolklaver,144,,,7422RC,Deventer,Deventer,Overijssel,VBO,6.208435,52.246669
Rolklaver,146,,,7422RC,Deventer,Deventer,Overijssel,VBO,6.208358,52.246701
Rolklaver,148,,,7422RC,Deventer,Deventer,Overijssel,VBO,6.208189,52.246724
Rolklaver,150,,,7422RC,Deventer,Deventer,Overijssel,VBO,6.208121,52.246757
Rolklaver,152,,,7422RC,Deventer,Deventer,Overijssel,VBO,6.207970,52.246856
Rolklaver,154,,,7422RC,Deventer,Deventer,Overijssel,VBO,6.207943,52.246900
Rolklaver,156,,,7422RC,Deventer,Deventer,Overijssel,VBO,6.207896,52.246953
Rolklaver,1,,,7422RD,Deventer,Deventer,Overijssel,VBO,6.205964,52.246582
Rolklaver,3,,,7422RD,Deventer,Deventer,Overijssel,VBO,6.205990,52.246534
Rolklaver,5,,,7422RD,Deventer,Deventer,Overijssel,VBO,6.206019,52.246486
Rolklaver,7,,,7422RD,Deventer,Deventer,Overijssel,VBO,6.206051,52.246438
Rolklaver,9,,,7422RD,Deventer,Deventer,Overijssel,VBO,6.206081,52.246389
Rolklaver,11,,,7422RD,Deventer,Deventer,Overijssel,VBO,6.206219,52.246296
Rolklaver,13,T,,7422RD,Deventer,Deventer,Overijssel,VBO,6.206408,52.246382
Rolklaver,13,,,7422RD,Deventer,Deventer,Overijssel,VBO,6.206318,52.246290
Rolklaver,15,,,7422RD,Deventer,Deventer,Overijssel,VBO,6.206482,52.246541
Rolklaver,17,,,7422RD,Deventer,Deventer,Overijssel,VBO,6.206483,52.246595
Rolklaver,19,,,7422RD,Deventer,Deventer,Overijssel,VBO,6.206556,52.246531
Rolklaver,21,,,7422RD,Deventer,Deventer,Overijssel,VBO,6.206571,52.246594
Rolklaver,23,,,7422RD,Deventer,Deventer,Overijssel,VBO,6.206672,52.246486
Rolklaver,25,,,7422RD,Deventer,Deventer,Overijssel,VBO,6.206760,52.246503
Rolklaver,27,,,7422RD,Deventer,Deventer,Overijssel,VBO,6.206700,52.246440
Rolklaver,29,,,7422RD,Deventer,Deventer,Overijssel,VBO,6.206788,52.246449
Rolklaver,31,,,7422RD,Deventer,Deventer,Overijssel,VBO,6.206743,52.246368
Rolklaver,33,,,7422RD,Deventer,Deventer,Overijssel,VBO,6.206856,52.246292
Rolklaver,35,,,7422RD,Deventer,Deventer,Overijssel,VBO,6.206992,52.246286
Rolklaver,37,,,7422RD,Deventer,Deventer,Overijssel,VBO,6.207006,52.246348
Rolklaver,39,,,7422RD,Deventer,Deventer,Overijssel,VBO,6.207074,52.246282
Rolklaver,41,,,7422RD,Deventer,Deventer,Overijssel,VBO,6.207094,52.246348
Rolklaver,43,,,7422RD,Deventer,Deventer,Overijssel,VBO,6.207159,52.246277
Rolklaver,45,,,7422RD,Deventer,Deventer,Overijssel,VBO,6.207172,52.246346
Rolklaver,47,,,7422RD,Deventer,Deventer,Overijssel,VBO,6.207239,52.246275
Rolklaver,49,,,7422RD,Deventer,Deventer,Overijssel,VBO,6.207242,52.246348
Rolklaver,51,,,7422RE,Deventer,Deventer,Overijssel,VBO,6.207667,52.246250
Rolklaver,53,,,7422RE,Deventer,Deventer,Overijssel,VBO,6.207752,52.246246
Rolklaver,55,,,7422RE,Deventer,Deventer,Overijssel,VBO,6.207833,52.246242
Rolklaver,57,,,7422RE,Deventer,Deventer,Overijssel,VBO,6.207914,52.246240
Rolklaver,59,G,1,7422RE,Deventer,Deventer,Overijssel,VBO,6.208102,52.246224
Rolklaver,59,G,2,7422RE,Deventer,Deventer,Overijssel,VBO,6.208222,52.246193
Rolklaver,59,G,3,7422RE,Deventer,Deventer,Overijssel,VBO,6.208271,52.246178
Rolklaver,59,,,7422RE,Deventer,Deventer,Overijssel,VBO,6.207994,52.246237
Rolklaver,61,,,7422RE,Deventer,Deventer,Overijssel,VBO,6.208309,52.246114
Rolklaver,63,,,7422RE,Deventer,Deventer,Overijssel,VBO,6.208349,52.246070
Rolklaver,65,,,7422RE,Deventer,Deventer,Overijssel,VBO,6.208376,52.246023
Rolklaver,67,,,7422RE,Deventer,Deventer,Overijssel,VBO,6.208408,52.245976
Rolklaver,69,,,7422RE,Deventer,Deventer,Overijssel,VBO,6.208441,52.245928
Rolklaver,71,,,7422RE,Deventer,Deventer,Overijssel,VBO,6.208970,52.245934
Rolklaver,73,,,7422RE,Deventer,Deventer,Overijssel,VBO,6.208951,52.245988
Rolklaver,75,,,7422RE,Deventer,Deventer,Overijssel,VBO,6.208916,52.246038
Rolklaver,77,,,7422RE,Deventer,Deventer,Overijssel,VBO,6.208886,52.246084
Rolklaver,79,,,7422RE,Deventer,Deventer,Overijssel,VBO,6.208851,52.246137
Rolklaver,81,,,7422RE,Deventer,Deventer,Overijssel,VBO,6.208827,52.246175
Rolklaver,83,,,7422RE,Deventer,Deventer,Overijssel,VBO,6.208679,52.246282
Rolklaver,85,,,7422RE,Deventer,Deventer,Overijssel,VBO,6.208619,52.246300
Rolklaver,87,,,7422RE,Deventer,Deventer,Overijssel,VBO,6.208556,52.246327
Rolklaver,89,,,7422RE,Deventer,Deventer,Overijssel,VBO,6.208480,52.246357
Rolklaver,91,,,7422RE,Deventer,Deventer,Overijssel,VBO,6.208409,52.246387
Rolklaver,93,,,7422RE,Deventer,Deventer,Overijssel,VBO,6.208354,52.246415
Rolklaver,95,,,7422RE,Deventer,Deventer,Overijssel,VBO,6.208273,52.246446
Rolklaver,97,,,7422RE,Deventer,Deventer,Overijssel,VBO,6.208210,52.246470
Rolklaver,99,,,7422RE,Deventer,Deventer,Overijssel,VBO,6.208122,52.246504
Rolklaver,101,,,7422RE,Deventer,Deventer,Overijssel,VBO,6.208056,52.246593
Rolklaver,103,,,7422RE,Deventer,Deventer,Overijssel,VBO,6.207979,52.246622
Rolklaver,105,,,7422RE,Deventer,Deventer,Overijssel,VBO,6.207907,52.246650
Rolklaver,107,,,7422RE,Deventer,Deventer,Overijssel,VBO,6.207849,52.246679
Rolklaver,109,,,7422RE,Deventer,Deventer,Overijssel,VBO,6.207772,52.246707
Rolklaver,111,,,7422RE,Deventer,Deventer,Overijssel,VBO,6.207689,52.246734
Rolklaver,113,,,7422RE,Deventer,Deventer,Overijssel,VBO,6.207607,52.246770
Korenbloem,1,,,7422RG,Deventer,Deventer,Overijssel,VBO,6.206615,52.245893
Korenbloem,3,,,7422RG,Deventer,Deventer,Overijssel,VBO,6.206644,52.245845
Korenbloem,5,,,7422RG,Deventer,Deventer,Overijssel,VBO,6.206675,52.245799
Korenbloem,7,,,7422RG,Deventer,Deventer,Overijssel,VBO,6.206706,52.245750
Korenbloem,9,,,7422RG,Deventer,Deventer,Overijssel,VBO,6.206736,52.245703
Korenbloem,11,,,7422RG,Deventer,Deventer,Overijssel,VBO,6.206842,52.245615
Korenbloem,13,,,7422RG,Deventer,Deventer,Overijssel,VBO,6.206916,52.245588
Korenbloem,15,,,7422RG,Deventer,Deventer,Overijssel,VBO,6.206988,52.245562
Korenbloem,17,,,7422RG,Deventer,Deventer,Overijssel,VBO,6.207061,52.245531
Korenbloem,19,,,7422RG,Deventer,Deventer,Overijssel,VBO,6.207127,52.245508
Korenbloem,21,,,7422RG,Deventer,Deventer,Overijssel,VBO,6.207294,52.245472
Korenbloem,23,,,7422RG,Deventer,Deventer,Overijssel,VBO,6.207383,52.245467
Korenbloem,25,,,7422RG,Deventer,Deventer,Overijssel,VBO,6.207464,52.245463
Korenbloem,27,,,7422RG,Deventer,Deventer,Overijssel,VBO,6.207545,52.245462
Korenbloem,29,,,7422RG,Deventer,Deventer,Overijssel,VBO,6.207620,52.245458
Korenbloem,31,,,7422RG,Deventer,Deventer,Overijssel,VBO,6.207780,52.245510
Korenbloem,33,,,7422RG,Deventer,Deventer,Overijssel,VBO,6.207847,52.245551
Korenbloem,35,,,7422RG,Deventer,Deventer,Overijssel,VBO,6.207897,52.245580
Korenbloem,37,,,7422RG,Deventer,Deventer,Overijssel,VBO,6.207975,52.245626
Korenbloem,39,,,7422RG,Deventer,Deventer,Overijssel,VBO,6.208023,52.245662
Korenbloem,41,,,7422RG,Deventer,Deventer,Overijssel,VBO,6.208092,52.245696
Korenbloem,2,,,7422RH,Deventer,Deventer,Overijssel,VBO,6.206210,52.246098
Korenbloem,4,,,7422RH,Deventer,Deventer,Overijssel,VBO,6.206251,52.246059
Korenbloem,6,,,7422RH,Deventer,Deventer,Overijssel,VBO,6.206293,52.246013
Korenbloem,12,,,7422RH,Deventer,Deventer,Overijssel,VBO,6.206020,52.245524
Korenbloem,14,,,7422RH,Deventer,Deventer,Overijssel,VBO,6.206114,52.245519
Korenbloem,16,,,7422RH,Deventer,Deventer,Overijssel,VBO,6.206281,52.245514
Korenbloem,18,,,7422RH,Deventer,Deventer,Overijssel,VBO,6.206384,52.245510
Korenbloem,20,,,7422RH,Deventer,Deventer,Overijssel,VBO,6.206682,52.245499
Korenbloem,22,,,7422RH,Deventer,Deventer,Overijssel,VBO,6.206757,52.245470
Korenbloem,24,,,7422RH,Deventer,Deventer,Overijssel,VBO,6.206897,52.245419
Korenbloem,26,,,7422RH,Deventer,Deventer,Overijssel,VBO,6.206970,52.245388
Korenbloem,28,,,7422RH,Deventer,Deventer,Overijssel,VBO,6.207111,52.245336
Korenbloem,30,,,7422RH,Deventer,Deventer,Overijssel,VBO,6.207180,52.245307
Korenbloem,32,,,7422RH,Deventer,Deventer,Overijssel,VBO,6.207297,52.245184
Korenbloem,34,,,7422RH,Deventer,Deventer,Overijssel,VBO,6.207322,52.245126
Korenbloem,42,,,7422RH,Deventer,Deventer,Overijssel,VBO,6.207974,52.245244
Korenbloem,44,,,7422RH,Deventer,Deventer,Overijssel,VBO,6.207979,52.245297
Korenbloem,46,,,7422RH,Deventer,Deventer,Overijssel,VBO,6.207983,52.245342
Korenbloem,48,,,7422RH,Deventer,Deventer,Overijssel,VBO,6.207979,52.245389
Korenbloem,50,,,7422RH,Deventer,Deventer,Overijssel,VBO,6.208068,52.245486
Korenbloem,52,,,7422RH,Deventer,Deventer,Overijssel,VBO,6.208136,52.245532
Korenbloem,54,,,7422RH,Deventer,Deventer,Overijssel,VBO,6.208209,52.245569
Korenbloem,56,,,7422RH,Deventer,Deventer,Overijssel,VBO,6.208256,52.245608
Korenbloem,58,,,7422RH,Deventer,Deventer,Overijssel,VBO,6.208329,52.245646
Korenbloem,60,,,7422RH,Deventer,Deventer,Overijssel,VBO,6.208375,52.245679
Zandviooltje,1,,,7422RJ,Deventer,Deventer,Overijssel,VBO,6.207397,52.246562
Zandviooltje,2,,,7422RJ,Deventer,Deventer,Overijssel,VBO,6.207004,52.246812
Zandviooltje,3,,,7422RJ,Deventer,Deventer,Overijssel,VBO,6.207426,52.246515
Zandviooltje,4,,,7422RJ,Deventer,Deventer,Overijssel,VBO,6.207040,52.246763
Zandviooltje,5,,,7422RJ,Deventer,Deventer,Overijssel,VBO,6.207457,52.246467
Zandviooltje,6,,,7422RJ,Deventer,Deventer,Overijssel,VBO,6.207070,52.246717
Zandviooltje,7,,,7422RJ,Deventer,Deventer,Overijssel,VBO,6.207488,52.246418
Zandviooltje,8,,,7422RJ,Deventer,Deventer,Overijssel,VBO,6.207102,52.246671
Zandviooltje,10,,,7422RJ,Deventer,Deventer,Overijssel,VBO,6.207130,52.246622
Zandviooltje,12,,,7422RJ,Deventer,Deventer,Overijssel,VBO,6.207162,52.246575
Zandviooltje,14,,,7422RJ,Deventer,Deventer,Overijssel,VBO,6.207190,52.246528
Zandviooltje,16,,,7422RJ,Deventer,Deventer,Overijssel,VBO,6.207218,52.246478
Zenegroen,1,,,7422RK,Deventer,Deventer,Overijssel,VBO,6.209127,52.245112
Zenegroen,2,,,7422RK,Deventer,Deventer,Overijssel,VBO,6.208972,52.245195
Zenegroen,3,,,7422RK,Deventer,Deventer,Overijssel,VBO,6.209210,52.245111
Zenegroen,4,,,7422RK,Deventer,Deventer,Overijssel,VBO,6.208889,52.245201
Zenegroen,5,,,7422RK,Deventer,Deventer,Overijssel,VBO,6.209291,52.245108
Zenegroen,6,,,7422RK,Deventer,Deventer,Overijssel,VBO,6.208804,52.245205
Zenegroen,7,,,7422RK,Deventer,Deventer,Overijssel,VBO,6.209372,52.245105
Zenegroen,8,,,7422RK,Deventer,Deventer,Overijssel,VBO,6.208721,52.245208
Zenegroen,9,,,7422RK,Deventer,Deventer,Overijssel,VBO,6.209458,52.245103
Zenegroen,10,,,7422RK,Deventer,Deventer,Overijssel,VBO,6.208642,52.245210
Zenegroen,11,,,7422RK,Deventer,Deventer,Overijssel,VBO,6.209537,52.245100
Zenegroen,12,,,7422RK,Deventer,Deventer,Overijssel,VBO,6.208555,52.245212
Zenegroen,13,,,7422RK,Deventer,Deventer,Overijssel,VBO,6.209623,52.245097
Zenegroen,14,,,7422RK,Deventer,Deventer,Overijssel,VBO,6.208469,52.245214
Zenegroen,16,,,7422RK,Deventer,Deventer,Overijssel,VBO,6.208391,52.245217
Zenegroen,18,,,7422RK,Deventer,Deventer,Overijssel,VBO,6.208300,52.245221
Roessinkspad,1,T,,7422RL,Deventer,Deventer,Overijssel,VBO,6.215063,52.245326
Roessinkspad,4,T,,7422RL,Deventer,Deventer,Overijssel,VBO,6.211527,52.244773
Roessinkspad,4,,,7422RL,Deventer,Deventer,Overijssel,VBO,6.211103,52.244898
Hondsdraf,1,,,7422RM,Deventer,Deventer,Overijssel,VBO,6.205443,52.246142
Hondsdraf,2,,,7422RM,Deventer,Deventer,Overijssel,VBO,6.205325,52.246424
Hondsdraf,3,,,7422RM,Deventer,Deventer,Overijssel,VBO,6.205486,52.246103
Hondsdraf,4,,,7422RM,Deventer,Deventer,Overijssel,VBO,6.205244,52.246431
Hondsdraf,5,,,7422RM,Deventer,Deventer,Overijssel,VBO,6.205591,52.246023
Hondsdraf,6,,,7422RM,Deventer,Deventer,Overijssel,VBO,6.205083,52.246471
Hondsdraf,7,,,7422RM,Deventer,Deventer,Overijssel,VBO,6.205636,52.245985
Hondsdraf,8,,,7422RM,Deventer,Deventer,Overijssel,VBO,6.205028,52.246519
Hondsdraf,9,,,7422RM,Deventer,Deventer,Overijssel,VBO,6.205734,52.245902
Hondsdraf,10,,,7422RM,Deventer,Deventer,Overijssel,VBO,6.204927,52.246602
Hondsdraf,11,,,7422RM,Deventer,Deventer,Overijssel,VBO,6.205784,52.245861
Hondsdraf,12,,,7422RM,Deventer,Deventer,Overijssel,VBO,6.204866,52.246645
Hondsdraf,13,,,7422RM,Deventer,Deventer,Overijssel,VBO,6.205956,52.245814
Hondsdraf,14,,,7422RM,Deventer,Deventer,Overijssel,VBO,6.204766,52.246728
Hondsdraf,15,,,7422RM,Deventer,Deventer,Overijssel,VBO,6.206037,52.245813
Hondsdraf,16,,,7422RM,Deventer,Deventer,Overijssel,VBO,6.204706,52.246778
Hondsdraf,17,,,7422RM,Deventer,Deventer,Overijssel,VBO,6.206199,52.245801
Roessinkspad,100,,,7422RZ,Deventer,Deventer,Overijssel,STA,6.213584,52.244718
Roessinkspad,102,,,7422RZ,Deventer,Deventer,Overijssel,STA,6.213578,52.244636
Bereklauw,2,,,7422SB,Deventer,Deventer,Overijssel,VBO,6.206036,52.247955
Bereklauw,4,,,7422SB,Deventer,Deventer,Overijssel,VBO,6.206118,52.247970
Bereklauw,6,,,7422SB,Deventer,Deventer,Overijssel,VBO,6.206195,52.247991
Bereklauw,8,,,7422SB,Deventer,Deventer,Overijssel,VBO,6.206272,52.248009
Bereklauw,10,,,7422SB,Deventer,Deventer,Overijssel,VBO,6.206348,52.248027
Bereklauw,12,,,7422SB,Deventer,Deventer,Overijssel,VBO,6.206428,52.248045
Bereklauw,14,,,7422SB,Deventer,Deventer,Overijssel,VBO,6.206505,52.248065
Bereklauw,16,,,7422SB,Deventer,Deventer,Overijssel,VBO,6.206588,52.248089
Bereklauw,18,,,7422SB,Deventer,Deventer,Overijssel,VBO,6.206677,52.248088
Bereklauw,20,,,7422SB,Deventer,Deventer,Overijssel,VBO,6.206749,52.248106
Bereklauw,22,,,7422SB,Deventer,Deventer,Overijssel,VBO,6.206827,52.248128
Bereklauw,24,,,7422SB,Deventer,Deventer,Overijssel,VBO,6.206907,52.248148
Bereklauw,26,,,7422SB,Deventer,Deventer,Overijssel,VBO,6.206979,52.248167
Bereklauw,28,,,7422SB,Deventer,Deventer,Overijssel,VBO,6.207058,52.248184
Bereklauw,30,,,7422SB,Deventer,Deventer,Overijssel,VBO,6.207138,52.248201
Bereklauw,32,,,7422SB,Deventer,Deventer,Overijssel,VBO,6.207328,52.248257
Bereklauw,34,,,7422SB,Deventer,Deventer,Overijssel,VBO,6.207418,52.248253
Bereklauw,36,,,7422SB,Deventer,Deventer,Overijssel,VBO,6.207494,52.248249
Bereklauw,38,,,7422SB,Deventer,Deventer,Overijssel,VBO,6.207576,52.248244
Bereklauw,40,,,7422SB,Deventer,Deventer,Overijssel,VBO,6.207662,52.248239
Bereklauw,42,,,7422SB,Deventer,Deventer,Overijssel,VBO,6.207745,52.248234
Bereklauw,44,,,7422SC,Deventer,Deventer,Overijssel,VBO,6.207871,52.248295
Bereklauw,46,,,7422SC,Deventer,Deventer,Overijssel,VBO,6.207897,52.248347
Bereklauw,48,,,7422SC,Deventer,Deventer,Overijssel,VBO,6.207916,52.248397
Bereklauw,50,,,7422SC,Deventer,Deventer,Overijssel,VBO,6.207940,52.248442
Bereklauw,52,,,7422SC,Deventer,Deventer,Overijssel,VBO,6.207961,52.248494
Bereklauw,54,,,7422SC,Deventer,Deventer,Overijssel,VBO,6.207982,52.248542
Bereklauw,56,,,7422SC,Deventer,Deventer,Overijssel,VBO,6.207999,52.248591
Bereklauw,58,,,7422SC,Deventer,Deventer,Overijssel,VBO,6.208308,52.248684
Bereklauw,60,,,7422SC,Deventer,Deventer,Overijssel,VBO,6.208233,52.248688
Bereklauw,62,,,7422SC,Deventer,Deventer,Overijssel,VBO,6.208149,52.248693
Bereklauw,64,,,7422SC,Deventer,Deventer,Overijssel,VBO,6.208068,52.248695
Bereklauw,66,,,7422SC,Deventer,Deventer,Overijssel,VBO,6.207985,52.248701
Bereklauw,68,,,7422SC,Deventer,Deventer,Overijssel,VBO,6.207903,52.248705
Bereklauw,70,,,7422SC,Deventer,Deventer,Overijssel,VBO,6.207818,52.248712
Bereklauw,1,,,7422SE,Deventer,Deventer,Overijssel,VBO,6.205433,52.247847
Bereklauw,3,,,7422SE,Deventer,Deventer,Overijssel,VBO,6.205435,52.247902
Bereklauw,5,,,7422SE,Deventer,Deventer,Overijssel,VBO,6.205455,52.247950
Bereklauw,7,,,7422SE,Deventer,Deventer,Overijssel,VBO,6.205457,52.247994
Bereklauw,9,,,7422SE,Deventer,Deventer,Overijssel,VBO,6.205469,52.248042
Bereklauw,11,,,7422SE,Deventer,Deventer,Overijssel,VBO,6.205623,52.248073
Bereklauw,13,,,7422SE,Deventer,Deventer,Overijssel,VBO,6.205692,52.248088
Bereklauw,15,,,7422SE,Deventer,Deventer,Overijssel,VBO,6.205770,52.248105
Bereklauw,17,,,7422SE,Deventer,Deventer,Overijssel,VBO,6.205845,52.248116
Bereklauw,19,,,7422SE,Deventer,Deventer,Overijssel,VBO,6.205922,52.248134
Bereklauw,21,,,7422SE,Deventer,Deventer,Overijssel,VBO,6.205998,52.248145
Bereklauw,31,,,7422SE,Deventer,Deventer,Overijssel,VBO,6.206780,52.248360
Bereklauw,33,,,7422SG,Deventer,Deventer,Overijssel,VBO,6.206866,52.248374
Bereklauw,35,,,7422SG,Deventer,Deventer,Overijssel,VBO,6.206946,52.248387
Bereklauw,37,,,7422SG,Deventer,Deventer,Overijssel,VBO,6.207026,52.248397
Bereklauw,39,,,7422SG,Deventer,Deventer,Overijssel,VBO,6.207107,52.248411
Bereklauw,41,,,7422SG,Deventer,Deventer,Overijssel,VBO,6.207186,52.248425
Bereklauw,43,,,7422SG,Deventer,Deventer,Overijssel,VBO,6.207269,52.248435
Bereklauw,45,,,7422SG,Deventer,Deventer,Overijssel,VBO,6.207565,52.248455
Bereklauw,47,,,7422SG,Deventer,Deventer,Overijssel,VBO,6.207574,52.248495
Bereklauw,49,,,7422SG,Deventer,Deventer,Overijssel,VBO,6.207574,52.248544
Bereklauw,51,,,7422SG,Deventer,Deventer,Overijssel,VBO,6.207582,52.248595
Bereklauw,53,,,7422SG,Deventer,Deventer,Overijssel,VBO,6.207592,52.248649
Bereklauw,55,,,7422SG,Deventer,Deventer,Overijssel,VBO,6.207285,52.248703
Bereklauw,57,,,7422SG,Deventer,Deventer,Overijssel,VBO,6.207202,52.248705
Bereklauw,59,,,7422SG,Deventer,Deventer,Overijssel,VBO,6.207114,52.248711
Bereklauw,61,,,7422SG,Deventer,Deventer,Overijssel,VBO,6.207003,52.248760
Bereklauw,63,,,7422SG,Deventer,Deventer,Overijssel,VBO,6.206951,52.248796
Bereklauw,65,,,7422SG,Deventer,Deventer,Overijssel,VBO,6.206895,52.248840
Teunisbloem,1,,,7422SH,Deventer,Deventer,Overijssel,VBO,6.206353,52.247727
Teunisbloem,3,,,7422SH,Deventer,Deventer,Overijssel,VBO,6.206443,52.247731
Teunisbloem,5,,,7422SH,Deventer,Deventer,Overijssel,VBO,6.206521,52.247733
Teunisbloem,7,,,7422SH,Deventer,Deventer,Overijssel,VBO,6.206610,52.247734
Teunisbloem,9,,,7422SH,Deventer,Deventer,Overijssel,VBO,6.206691,52.247737
Teunisbloem,11,,,7422SH,Deventer,Deventer,Overijssel,VBO,6.206779,52.247743
Teunisbloem,13,,,7422SH,Deventer,Deventer,Overijssel,VBO,6.206933,52.247786
Teunisbloem,15,,,7422SH,Deventer,Deventer,Overijssel,VBO,6.207006,52.247822
Teunisbloem,17,,,7422SH,Deventer,Deventer,Overijssel,VBO,6.207063,52.247848
Teunisbloem,19,,,7422SH,Deventer,Deventer,Overijssel,VBO,6.207128,52.247882
Teunisbloem,21,,,7422SH,Deventer,Deventer,Overijssel,VBO,6.207200,52.247915
Teunisbloem,23,,,7422SH,Deventer,Deventer,Overijssel,VBO,6.207367,52.247938
Teunisbloem,25,,,7422SH,Deventer,Deventer,Overijssel,VBO,6.207447,52.247919
Teunisbloem,27,,,7422SH,Deventer,Deventer,Overijssel,VBO,6.207524,52.247901
Teunisbloem,29,,,7422SH,Deventer,Deventer,Overijssel,VBO,6.207600,52.247885
Teunisbloem,31,,,7422SH,Deventer,Deventer,Overijssel,VBO,6.207677,52.247867
Teunisbloem,2,,,7422SJ,Deventer,Deventer,Overijssel,VBO,6.206375,52.247575
Teunisbloem,4,,,7422SJ,Deventer,Deventer,Overijssel,VBO,6.206449,52.247578
Teunisbloem,6,,,7422SJ,Deventer,Deventer,Overijssel,VBO,6.206614,52.247580
Teunisbloem,8,,,7422SJ,Deventer,Deventer,Overijssel,VBO,6.206701,52.247584
Teunisbloem,10,,,7422SJ,Deventer,Deventer,Overijssel,VBO,6.206871,52.247573
Teunisbloem,12,,,7422SJ,Deventer,Deventer,Overijssel,VBO,6.206947,52.247577
Teunisbloem,14,,,7422SJ,Deventer,Deventer,Overijssel,VBO,6.207111,52.247582
Teunisbloem,16,,,7422SJ,Deventer,Deventer,Overijssel,VBO,6.207198,52.247587
Teunisbloem,18,,,7422SJ,Deventer,Deventer,Overijssel,VBO,6.207400,52.247589
Teunisbloem,20,,,7422SJ,Deventer,Deventer,Overijssel,VBO,6.207428,52.247638
Teunisbloem,22,,,7422SJ,Deventer,Deventer,Overijssel,VBO,6.207457,52.247686
Teunisbloem,24,,,7422SJ,Deventer,Deventer,Overijssel,VBO,6.207491,52.247734
Duizendblad,1,A,,7422SK,Deventer,Deventer,Overijssel,VBO,6.206295,52.248201
Duizendblad,1,B,,7422SK,Deventer,Deventer,Overijssel,VBO,6.206273,52.248248
Duizendblad,1,C,,7422SK,Deventer,Deventer,Overijssel,VBO,6.206243,52.248298
Duizendblad,1,,,7422SK,Deventer,Deventer,Overijssel,VBO,6.206209,52.248365
Duizendblad,2,,,7422SK,Deventer,Deventer,Overijssel,VBO,6.206492,52.248324
Duizendblad,3,,,7422SK,Deventer,Deventer,Overijssel,VBO,6.206190,52.248406
Duizendblad,4,,,7422SK,Deventer,Deventer,Overijssel,VBO,6.206475,52.248369
Duizendblad,5,,,7422SK,Deventer,Deventer,Overijssel,VBO,6.206163,52.248458
Duizendblad,6,,,7422SK,Deventer,Deventer,Overijssel,VBO,6.206451,52.248420
Duizendblad,7,,,7422SK,Deventer,Deventer,Overijssel,VBO,6.206144,52.248503
Duizendblad,8,,,7422SK,Deventer,Deventer,Overijssel,VBO,6.206429,52.248471
Duizendblad,9,,,7422SK,Deventer,Deventer,Overijssel,VBO,6.206114,52.248552
Duizendblad,10,,,7422SK,Deventer,Deventer,Overijssel,VBO,6.206409,52.248523
Duizendblad,11,,,7422SK,Deventer,Deventer,Overijssel,VBO,6.206087,52.248601
Duizendblad,13,,,7422SK,Deventer,Deventer,Overijssel,VBO,6.205828,52.248438
Duizendblad,15,,,7422SK,Deventer,Deventer,Overijssel,VBO,6.205750,52.248422
Duizendblad,17,,,7422SK,Deventer,Deventer,Overijssel,VBO,6.205677,52.248407
Duizendblad,19,,,7422SK,Deventer,Deventer,Overijssel,VBO,6.205601,52.248391
Duizendblad,21,,,7422SK,Deventer,Deventer,Overijssel,VBO,6.205510,52.248373
Duizendblad,23,,,7422SK,Deventer,Deventer,Overijssel,VBO,6.205392,52.248319
Duizendblad,25,,,7422SK,Deventer,Deventer,Overijssel,VBO,6.205312,52.248302
Duizendblad,27,,,7422SK,Deventer,Deventer,Overijssel,VBO,6.205237,52.248291
Duizendblad,29,,,7422SK,Deventer,Deventer,Overijssel,VBO,6.205164,52.248278
Sleutelbloem,2,,,7422SL,Deventer,Deventer,Overijssel,VBO,6.204499,52.247475
Sleutelbloem,4,,,7422SL,Deventer,Deventer,Overijssel,VBO,6.204515,52.247524
Sleutelbloem,6,,,7422SL,Deventer,Deventer,Overijssel,VBO,6.204732,52.248084
Sleutelbloem,8,,,7422SL,Deventer,Deventer,Overijssel,VBO,6.204748,52.248129
Sleutelbloem,10,,,7422SL,Deventer,Deventer,Overijssel,VBO,6.204757,52.248177
Sleutelbloem,12,,,7422SL,Deventer,Deventer,Overijssel,VBO,6.204770,52.248226
Sleutelbloem,14,,,7422SL,Deventer,Deventer,Overijssel,VBO,6.204781,52.248273
Sleutelbloem,16,,,7422SL,Deventer,Deventer,Overijssel,VBO,6.204791,52.248320
Sleutelbloem,18,T,,7422SL,Deventer,Deventer,Overijssel,VBO,6.204543,52.248573
Sleutelbloem,18,,,7422SL,Deventer,Deventer,Overijssel,VBO,6.204444,52.248512
Sleutelbloem,24,,,7422SL,Deventer,Deventer,Overijssel,VBO,6.204161,52.248403
Sleutelbloem,26,,,7422SL,Deventer,Deventer,Overijssel,VBO,6.204106,52.248446
Sleutelbloem,28,,,7422SL,Deventer,Deventer,Overijssel,VBO,6.204009,52.248525
Sleutelbloem,30,,,7422SL,Deventer,Deventer,Overijssel,VBO,6.203935,52.248565
Sleutelbloem,32,,,7422SL,Deventer,Deventer,Overijssel,VBO,6.203780,52.248607
Sleutelbloem,34,,,7422SL,Deventer,Deventer,Overijssel,VBO,6.203692,52.248615
Sleutelbloem,36,,,7422SL,Deventer,Deventer,Overijssel,VBO,6.203804,52.248939
Sleutelbloem,38,,,7422SL,Deventer,Deventer,Overijssel,VBO,6.204110,52.248920
Sleutelbloem,40,,,7422SL,Deventer,Deventer,Overijssel,VBO,6.204391,52.248922
Sleutelbloem,1,,,7422SM,Deventer,Deventer,Overijssel,VBO,6.204233,52.247488
Sleutelbloem,3,,,7422SM,Deventer,Deventer,Overijssel,VBO,6.204241,52.247538
Sleutelbloem,5,,,7422SM,Deventer,Deventer,Overijssel,VBO,6.204254,52.247583
Sleutelbloem,7,,,7422SM,Deventer,Deventer,Overijssel,VBO,6.204267,52.247629
Sleutelbloem,9,,,7422SM,Deventer,Deventer,Overijssel,VBO,6.204278,52.247676
Sleutelbloem,11,,,7422SM,Deventer,Deventer,Overijssel,VBO,6.204374,52.248056
Sleutelbloem,13,,,7422SM,Deventer,Deventer,Overijssel,VBO,6.204394,52.248111
Sleutelbloem,15,,,7422SM,Deventer,Deventer,Overijssel,VBO,6.204106,52.248214
Sleutelbloem,17,,,7422SM,Deventer,Deventer,Overijssel,VBO,6.204041,52.248263
Sleutelbloem,19,,,7422SM,Deventer,Deventer,Overijssel,VBO,6.203957,52.248344
Sleutelbloem,21,,,7422SM,Deventer,Deventer,Overijssel,VBO,6.203881,52.248390
Sleutelbloem,23,,,7422SM,Deventer,Deventer,Overijssel,VBO,6.203435,52.248430
Sleutelbloem,25,,,7422SM,Deventer,Deventer,Overijssel,VBO,6.203372,52.248476
Sleutelbloem,27,,,7422SM,Deventer,Deventer,Overijssel,VBO,6.203340,52.248586
Sleutelbloem,29,,,7422SM,Deventer,Deventer,Overijssel,VBO,6.203357,52.248640
Sleutelbloem,31,,,7422SM,Deventer,Deventer,Overijssel,VBO,6.203376,52.248745
Sleutelbloem,33,,,7422SM,Deventer,Deventer,Overijssel,VBO,6.203416,52.248888
Sleutelbloem,35,,,7422SM,Deventer,Deventer,Overijssel,VBO,6.204925,52.248865
Sleutelbloem,37,,,7422SM,Deventer,Deventer,Overijssel,VBO,6.205142,52.248875
Sleutelbloem,39,,,7422SM,Deventer,Deventer,Overijssel,VBO,6.205378,52.249015
Weegbree,2,,,7422SN,Deventer,Deventer,Overijssel,VBO,6.206148,52.247346
Weegbree,4,,,7422SN,Deventer,Deventer,Overijssel,VBO,6.206157,52.247392
Weegbree,6,,,7422SN,Deventer,Deventer,Overijssel,VBO,6.206010,52.247601
Weegbree,8,,,7422SN,Deventer,Deventer,Overijssel,VBO,6.205968,52.247640
Weegbree,10,,,7422SN,Deventer,Deventer,Overijssel,VBO,6.205920,52.247684
Weegbree,12,,,7422SN,Deventer,Deventer,Overijssel,VBO,6.205871,52.247724
Weegbree,14,,,7422SN,Deventer,Deventer,Overijssel,VBO,6.205817,52.247766
Weegbree,16,,,7422SN,Deventer,Deventer,Overijssel,VBO,6.205089,52.247865
Weegbree,18,,,7422SN,Deventer,Deventer,Overijssel,VBO,6.205007,52.247870
Weegbree,20,,,7422SN,Deventer,Deventer,Overijssel,VBO,6.204930,52.247877
Weegbree,22,,,7422SN,Deventer,Deventer,Overijssel,VBO,6.204857,52.247880
Weegbree,24,,,7422SN,Deventer,Deventer,Overijssel,VBO,6.204771,52.247890
Weegbree,26,,,7422SN,Deventer,Deventer,Overijssel,VBO,6.204696,52.247899
Weegbree,1,,,7422SP,Deventer,Deventer,Overijssel,VBO,6.205836,52.247158
Weegbree,3,,,7422SP,Deventer,Deventer,Overijssel,VBO,6.205853,52.247202
Weegbree,5,,,7422SP,Deventer,Deventer,Overijssel,VBO,6.205864,52.247252
Weegbree,7,,,7422SP,Deventer,Deventer,Overijssel,VBO,6.205875,52.247301
Weegbree,11,,,7422SP,Deventer,Deventer,Overijssel,VBO,6.205813,52.247496
Weegbree,13,,,7422SP,Deventer,Deventer,Overijssel,VBO,6.205765,52.247536
Weegbree,15,,,7422SP,Deventer,Deventer,Overijssel,VBO,6.205668,52.247621
Weegbree,17,,,7422SP,Deventer,Deventer,Overijssel,VBO,6.205620,52.247656
Weegbree,19,,,7422SP,Deventer,Deventer,Overijssel,VBO,6.205324,52.247680
Weegbree,21,,,7422SP,Deventer,Deventer,Overijssel,VBO,6.205246,52.247678
Weegbree,23,,,7422SP,Deventer,Deventer,Overijssel,VBO,6.205072,52.247676
Weegbree,25,,,7422SP,Deventer,Deventer,Overijssel,VBO,6.204991,52.247676
Weegbree,27,,,7422SP,Deventer,Deventer,Overijssel,VBO,6.204824,52.247673
Weegbree,29,,,7422SP,Deventer,Deventer,Overijssel,VBO,6.204740,52.247673
Kamille,2,,,7422SR,Deventer,Deventer,Overijssel,VBO,6.204210,52.247876
Kamille,4,,,7422SR,Deventer,Deventer,Overijssel,VBO,6.204130,52.247885
Kamille,6,,,7422SR,Deventer,Deventer,Overijssel,VBO,6.203942,52.247918
Kamille,8,,,7422SR,Deventer,Deventer,Overijssel,VBO,6.203876,52.247948
Kamille,10,,,7422SR,Deventer,Deventer,Overijssel,VBO,6.203728,52.248034
Kamille,12,,,7422SR,Deventer,Deventer,Overijssel,VBO,6.203694,52.248075
Kamille,14,,,7422SR,Deventer,Deventer,Overijssel,VBO,6.203532,52.248229
Kamille,16,,,7422SR,Deventer,Deventer,Overijssel,VBO,6.203460,52.248197
Kamille,18,,,7422SR,Deventer,Deventer,Overijssel,VBO,6.203320,52.248131
Kamille,20,,,7422SR,Deventer,Deventer,Overijssel,VBO,6.203343,52.248018
Kamille,22,,,7422SR,Deventer,Deventer,Overijssel,VBO,6.203335,52.247961
Kamille,24,,,7422SR,Deventer,Deventer,Overijssel,VBO,6.203402,52.247845
Kamille,26,,,7422SR,Deventer,Deventer,Overijssel,VBO,6.203393,52.247793
Kamille,1,,,7422ST,Deventer,Deventer,Overijssel,VBO,6.203924,52.247766
Kamille,3,,,7422ST,Deventer,Deventer,Overijssel,VBO,6.203845,52.247776
Kamille,5,,,7422ST,Deventer,Deventer,Overijssel,VBO,6.203768,52.247782
Kamille,7,,,7422ST,Deventer,Deventer,Overijssel,VBO,6.203689,52.247789
Kamille,9,,,7422ST,Deventer,Deventer,Overijssel,VBO,6.203730,52.247572
Kamille,11,,,7422ST,Deventer,Deventer,Overijssel,VBO,6.203710,52.247523
Kamille,13,,,7422ST,Deventer,Deventer,Overijssel,VBO,6.203747,52.247370
Kamille,15,,,7422ST,Deventer,Deventer,Overijssel,VBO,6.203802,52.247326
Kattestaart,2,,,7422SV,Deventer,Deventer,Overijssel,VBO,6.204822,52.248569
Kattestaart,4,,,7422SV,Deventer,Deventer,Overijssel,VBO,6.204897,52.248578
Kattestaart,6,,,7422SV,Deventer,Deventer,Overijssel,VBO,6.204979,52.248593
Kattestaart,8,,,7422SV,Deventer,Deventer,Overijssel,VBO,6.205054,52.248609
Kattestaart,10,,,7422SV,Deventer,Deventer,Overijssel,VBO,6.205166,52.248640
Kattestaart,12,,,7422SV,Deventer,Deventer,Overijssel,VBO,6.205241,52.248646
Kattestaart,14,,,7422SV,Deventer,Deventer,Overijssel,VBO,6.205306,52.248691
Kattestaart,16,,,7422SV,Deventer,Deventer,Overijssel,VBO,6.205387,52.248705
Kattestaart,18,,,7422SV,Deventer,Deventer,Overijssel,VBO,6.205514,52.248862
Kattestaart,20,,,7422SV,Deventer,Deventer,Overijssel,VBO,6.205587,52.248858
Kattestaart,22,,,7422SV,Deventer,Deventer,Overijssel,VBO,6.205675,52.248890
Kattestaart,24,,,7422SV,Deventer,Deventer,Overijssel,VBO,6.205748,52.248886
Kattestaart,26,,,7422SV,Deventer,Deventer,Overijssel,VBO,6.205897,52.248876
Kattestaart,28,,,7422SV,Deventer,Deventer,Overijssel,VBO,6.205967,52.248876
Kattestaart,30,,,7422SV,Deventer,Deventer,Overijssel,VBO,6.206055,52.248846
Kattestaart,32,,,7422SV,Deventer,Deventer,Overijssel,VBO,6.206130,52.248840
Kattestaart,34,,,7422SV,Deventer,Deventer,Overijssel,VBO,6.206217,52.248840
