openbareruimtenaam,huisnummer,huisletter,huisnummertoevoeging,postcode,woonplaatsnaam,gemeentenaam,provincienaam,typeadresseerbaarobject,longitude,latitude
Veldhuisweg,1,,,7495MA,Ambt Delden,Hof van Twente,Overijssel,VBO,6.636517,52.244824
Veldhuisweg,2,,,7495MA,Ambt Delden,Hof van Twente,Overijssel,VBO,6.637398,52.240734
Veldhuisweg,3,,,7495MA,Ambt Delden,Hof van Twente,Overijssel,VBO,6.638993,52.243809
Veldhuisweg,5,,,7495MA,Ambt Delden,Hof van Twente,Overijssel,VBO,6.638997,52.243729
Veldhuisweg,7,,,7495MA,Ambt Delden,Hof van Twente,Overijssel,VBO,6.640843,52.243484
Veldhuisweg,9,,,7495MA,Ambt Delden,Hof van Twente,Overijssel,VBO,6.640897,52.243566
Veldhuisweg,11,,,7495MA,Ambt Delden,Hof van Twente,Overijssel,VBO,6.646792,52.240517
Veldhuisweg,13,,,7495MA,Ambt Delden,Hof van Twente,Overijssel,VBO,6.647014,52.240569
Weth. Goselinkstraat,20,a,,7495NZ,Ambt Delden,Hof van Twente,Overijssel,VBO,6.635442,52.217438
Weth. Goselinkstraat,20,,,7495NZ,Ambt Delden,Hof van Twente,Overijssel,VBO,6.635741,52.217147
Weth. Goselinkstraat,22,,,7495NZ,Ambt Delden,Hof van Twente,Overijssel,VBO,6.637267,52.219369
W.-B.-Scheidingsweg,5,,,7495PA,Ambt Delden,Hof van Twente,Overijssel,VBO,6.648330,52.215728
W.-B.-Scheidingsweg,7,a,,7495PA,Ambt Delden,Hof van Twente,Overijssel,VBO,6.650441,52.216874
W.-B.-Scheidingsweg,7,,,7495PA,Ambt Delden,Hof van Twente,Overijssel,VBO,6.650636,52.217051
Kwartierdorpsweg,1,,,7495PB,Ambt Delden,Hof van Twente,Overijssel,VBO,6.643033,52.223524
Kwartierdorpsweg,2,,,7495PB,Ambt Delden,Hof van Twente,Overijssel,VBO,6.642505,52.222227
Kwartierdorpsweg,4,,,7495PB,Ambt Delden,Hof van Twente,Overijssel,VBO,6.639657,52.222121
Sloezenweg,1,a,,7495PC,Ambt Delden,Hof van Twente,Overijssel,VBO,6.632696,52.223930
Sloezenweg,1,,,7495PC,Ambt Delden,Hof van Twente,Overijssel,VBO,6.632622,52.223886
Sloezenweg,2,a,,7495PC,Ambt Delden,Hof van Twente,Overijssel,VBO,6.632745,52.223343
Sloezenweg,2,,,7495PC,Ambt Delden,Hof van Twente,Overijssel,VBO,6.632695,52.223246
Sloezenweg,3,,,7495PC,Ambt Delden,Hof van Twente,Overijssel,VBO,6.634271,52.224749
Sloezenweg,4,a,,7495PC,Ambt Delden,Hof van Twente,Overijssel,VBO,6.634577,52.222317
Sloezenweg,4,,,7495PC,Ambt Delden,Hof van Twente,Overijssel,VBO,6.634688,52.222408
Sloezenweg,5,,TR,7495PC,Ambt Delden,Hof van Twente,Overijssel,VBO,6.637130,52.225756
Sloezenweg,5,,,7495PC,Ambt Delden,Hof van Twente,Overijssel,VBO,6.636551,52.225660
Sloezenweg,6,a,,7495PC,Ambt Delden,Hof van Twente,Overijssel,VBO,6.637320,52.224021
Sloezenweg,6,,,7495PC,Ambt Delden,Hof van Twente,Overijssel,VBO,6.637411,52.223996
Sloezenweg,7,,,7495PC,Ambt Delden,Hof van Twente,Overijssel,VBO,6.640192,52.227122
Sloezenweg,8,,,7495PC,Ambt Delden,Hof van Twente,Overijssel,VBO,6.640209,52.226664
Ulkenweg,1,,,7495PD,Ambt Delden,Hof van Twente,Overijssel,VBO,6.629979,52.226188
Ulkenweg,2,,,7495PD,Ambt Delden,Hof van Twente,Overijssel,VBO,6.637010,52.230023
Ulkenweg,3,,,7495PD,Ambt Delden,Hof van Twente,Overijssel,VBO,6.629905,52.226161
Ulkenweg,5,,,7495PD,Ambt Delden,Hof van Twente,Overijssel,VBO,6.643141,52.235648
Schoneveldsweg,1,,,7495PE,Ambt Delden,Hof van Twente,Overijssel,VBO,6.645969,52.237278
Schoneveldsweg,2,,,7495PE,Ambt Delden,Hof van Twente,Overijssel,VBO,6.645252,52.235468
Schoneveldsweg,3,,,7495PE,Ambt Delden,Hof van Twente,Overijssel,VBO,6.646244,52.236137
Schoneveldsweg,4,,,7495PE,Ambt Delden,Hof van Twente,Overijssel,VBO,6.646110,52.235554
Schoneveldsweg,5,,,7495PE,Ambt Delden,Hof van Twente,Overijssel,VBO,6.653059,52.235731
Schoneveldsweg,7,a,,7495PE,Ambt Delden,Hof van Twente,Overijssel,VBO,6.652228,52.234658
Schoneveldsweg,7,,,7495PE,Ambt Delden,Hof van Twente,Overijssel,VBO,6.652393,52.234588
Schoneveldsweg,8,a,,7495PE,Ambt Delden,Hof van Twente,Overijssel,VBO,6.653759,52.232766
Schoneveldsweg,8,b,,7495PE,Ambt Delden,Hof van Twente,Overijssel,VBO,6.652373,52.232302
Schoneveldsweg,8,,TR,7495PE,Ambt Delden,Hof van Twente,Overijssel,VBO,6.653403,52.232787
Schoneveldsweg,8,,,7495PE,Ambt Delden,Hof van Twente,Overijssel,VBO,6.652463,52.232222
Schoneveldsweg,9,,,7495PE,Ambt Delden,Hof van Twente,Overijssel,VBO,6.653664,52.234511
Schoneveldsweg,11,,,7495PE,Ambt Delden,Hof van Twente,Overijssel,VBO,6.655885,52.233310
Schoneveldsweg,12,,,7495PE,Ambt Delden,Hof van Twente,Overijssel,VBO,6.659793,52.229178
Schoneveldsweg,13,,,7495PE,Ambt Delden,Hof van Twente,Overijssel,VBO,6.657196,52.233610
Schoneveldsweg,14,,,7495PE,Ambt Delden,Hof van Twente,Overijssel,VBO,6.665237,52.226081
Schoneveldsweg,15,,,7495PE,Ambt Delden,Hof van Twente,Overijssel,VBO,6.657107,52.233557
Schoneveldsweg,21,,,7495PE,Ambt Delden,Hof van Twente,Overijssel,VBO,6.655196,52.232760
Schoneveldsweg,23,,,7495PE,Ambt Delden,Hof van Twente,Overijssel,VBO,6.656508,52.232063
Schoneveldsweg,25,a,,7495PE,Ambt Delden,Hof van Twente,Overijssel,VBO,6.660914,52.229318
Schoneveldsweg,25,,,7495PE,Ambt Delden,Hof van Twente,Overijssel,VBO,6.657529,52.231413
Schoneveldsweg,27,,,7495PE,Ambt Delden,Hof van Twente,Overijssel,VBO,6.661959,52.228678
Schoneveldsweg,29,,,7495PE,Ambt Delden,Hof van Twente,Overijssel,VBO,6.663828,52.227489
Schoneveldsweg,35,,,7495PE,Ambt Delden,Hof van Twente,Overijssel,VBO,6.665825,52.226164
Kieftenweg,1,,,7495PG,Ambt Delden,Hof van Twente,Overijssel,VBO,6.640056,52.228005
Kieftenweg,2,a,,7495PG,Ambt Delden,Hof van Twente,Overijssel,VBO,6.660816,52.224669
Kieftenweg,2,b,,7495PG,Ambt Delden,Hof van Twente,Overijssel,VBO,6.664162,52.224843
Kieftenweg,2,,,7495PG,Ambt Delden,Hof van Twente,Overijssel,VBO,6.658944,52.225591
Beldsweg,1,a,,7495PH,Ambt Delden,Hof van Twente,Overijssel,VBO,6.686799,52.247303
Beldsweg,1,b,,7495PH,Ambt Delden,Hof van Twente,Overijssel,VBO,6.686724,52.247723
Beldsweg,1,,,7495PH,Ambt Delden,Hof van Twente,Overijssel,VBO,6.686880,52.247356
Beldsweg,3,a,,7495PH,Ambt Delden,Hof van Twente,Overijssel,VBO,6.683570,52.247161
Beldsweg,5,a,,7495PH,Ambt Delden,Hof van Twente,Overijssel,VBO,6.679156,52.243927
Beldsweg,5,,,7495PH,Ambt Delden,Hof van Twente,Overijssel,VBO,6.679250,52.243772
Beldsweg,7,a,,7495PH,Ambt Delden,Hof van Twente,Overijssel,VBO,6.674692,52.241432
Beldsweg,9,a,,7495PH,Ambt Delden,Hof van Twente,Overijssel,VBO,6.670402,52.238671
Beldsweg,9,,TR,7495PH,Ambt Delden,Hof van Twente,Overijssel,VBO,6.667403,52.236891
Beldsweg,9,,,7495PH,Ambt Delden,Hof van Twente,Overijssel,VBO,6.670102,52.238469
Beldsweg,11,a,,7495PH,Ambt Delden,Hof van Twente,Overijssel,VBO,6.665990,52.234468
Beldsweg,11,,,7495PH,Ambt Delden,Hof van Twente,Overijssel,VBO,6.667096,52.235238
Beldsweg,13,a,,7495PH,Ambt Delden,Hof van Twente,Overijssel,VBO,6.667741,52.232723
Beldsweg,13,,,7495PH,Ambt Delden,Hof van Twente,Overijssel,VBO,6.667517,52.232564
Beldsweg,15,,,7495PH,Ambt Delden,Hof van Twente,Overijssel,VBO,6.665832,52.231504
Beldsweg,17,,,7495PH,Ambt Delden,Hof van Twente,Overijssel,VBO,6.665545,52.231201
Beldsweg,19,,,7495PH,Ambt Delden,Hof van Twente,Overijssel,VBO,6.657804,52.228750
Beldsweg,21,,,7495PH,Ambt Delden,Hof van Twente,Overijssel,VBO,6.654979,52.226686
Beldsweg,23,a,,7495PH,Ambt Delden,Hof van Twente,Overijssel,VBO,6.652708,52.225074
Beldsweg,23,b,,7495PH,Ambt Delden,Hof van Twente,Overijssel,VBO,6.651346,52.224010
Beldsweg,23,,,7495PH,Ambt Delden,Hof van Twente,Overijssel,VBO,6.653485,52.225632
Beldsweg,25,,,7495PH,Ambt Delden,Hof van Twente,Overijssel,VBO,6.646540,52.220473
Beldsweg,27,a,,7495PH,Ambt Delden,Hof van Twente,Overijssel,VBO,6.644648,52.218509
Beldsweg,27,,,7495PH,Ambt Delden,Hof van Twente,Overijssel,VBO,6.644818,52.218318
Beldsweg,29,a,,7495PH,Ambt Delden,Hof van Twente,Overijssel,VBO,6.646758,52.215878
Beldsweg,29,,,7495PH,Ambt Delden,Hof van Twente,Overijssel,VBO,6.645913,52.215646
Beldsweg,2,,,7495PJ,Ambt Delden,Hof van Twente,Overijssel,VBO,6.680331,52.245341
Beldsweg,4,,,7495PJ,Ambt Delden,Hof van Twente,Overijssel,VBO,6.674532,52.243805
Beldsweg,6,a,,7495PJ,Ambt Delden,Hof van Twente,Overijssel,VBO,6.674190,52.242631
Beldsweg,6,,,7495PJ,Ambt Delden,Hof van Twente,Overijssel,VBO,6.674261,52.242540
Beldsweg,8,,,7495PJ,Ambt Delden,Hof van Twente,Overijssel,VBO,6.673108,52.242148
Beldsweg,10,,,7495PJ,Ambt Delden,Hof van Twente,Overijssel,VBO,6.667948,52.240946
Beldsweg,12,,,7495PJ,Ambt Delden,Hof van Twente,Overijssel,VBO,6.668055,52.240100
Beldsweg,14,a,,7495PJ,Ambt Delden,Hof van Twente,Overijssel,VBO,6.652647,52.226019
Beldsweg,14,b,,7495PJ,Ambt Delden,Hof van Twente,Overijssel,VBO,6.652324,52.225688
Beldsweg,14,,,7495PJ,Ambt Delden,Hof van Twente,Overijssel,VBO,6.665107,52.235314
Beldsweg,16,a,,7495PJ,Ambt Delden,Hof van Twente,Overijssel,VBO,6.650193,52.224148
Beldsweg,16,,,7495PJ,Ambt Delden,Hof van Twente,Overijssel,VBO,6.650266,52.224112
Beldsweg,18,,,7495PJ,Ambt Delden,Hof van Twente,Overijssel,VBO,6.648850,52.223219
Beldsweg,20,a,,7495PJ,Ambt Delden,Hof van Twente,Overijssel,VBO,6.644524,52.219746
Beldsweg,20,,,7495PJ,Ambt Delden,Hof van Twente,Overijssel,VBO,6.644754,52.219658
Beldsweg,22,,,7495PJ,Ambt Delden,Hof van Twente,Overijssel,VBO,6.643066,52.217941
Haarweg,1,b,,7495PK,Ambt Delden,Hof van Twente,Overijssel,VBO,6.683455,52.243482
Haarweg,1,,,7495PK,Ambt Delden,Hof van Twente,Overijssel,VBO,6.682823,52.243903
Haarweg,2,a,,7495PK,Ambt Delden,Hof van Twente,Overijssel,VBO,6.683104,52.242304
Haarweg,2,,,7495PK,Ambt Delden,Hof van Twente,Overijssel,VBO,6.683184,52.242227
Haarweg,3,,,7495PK,Ambt Delden,Hof van Twente,Overijssel,VBO,6.684431,52.241800
Haarweg,4,a,,7495PK,Ambt Delden,Hof van Twente,Overijssel,VBO,6.684067,52.241363
Haarweg,4,,BIJ,7495PK,Ambt Delden,Hof van Twente,Overijssel,VBO,6.684357,52.241284
Haarweg,4,,,7495PK,Ambt Delden,Hof van Twente,Overijssel,VBO,6.683943,52.241391
Haarweg,5,,,7495PK,Ambt Delden,Hof van Twente,Overijssel,VBO,6.685470,52.240781
Nijlandsweg,2,a,,7495PL,Ambt Delden,Hof van Twente,Overijssel,VBO,6.689378,52.249294
Nijlandsweg,2,,,7495PL,Ambt Delden,Hof van Twente,Overijssel,VBO,6.688779,52.249788
Nijlandsweg,4,,,7495PL,Ambt Delden,Hof van Twente,Overijssel,VBO,6.690387,52.248489
Nijlandsweg,6,,,7495PL,Ambt Delden,Hof van Twente,Overijssel,VBO,6.690698,52.248415
Nijlandsweg,8,,,7495PL,Ambt Delden,Hof van Twente,Overijssel,VBO,6.711883,52.238241
Bentelosestraat,60,,TR,7495PM,Ambt Delden,Hof van Twente,Overijssel,VBO,6.696214,52.245300
Bentelosestraat,60,,,7495PM,Ambt Delden,Hof van Twente,Overijssel,VBO,6.699541,52.250702
Bentelosestraat,73,,,7495PM,Ambt Delden,Hof van Twente,Overijssel,VBO,6.691665,52.241306
Bentelosestraat,75,a,,7495PM,Ambt Delden,Hof van Twente,Overijssel,VBO,6.692053,52.241581
Bentelosestraat,75,,,7495PM,Ambt Delden,Hof van Twente,Overijssel,VBO,6.691573,52.242161
Bentelosestraat,77,a,,7495PM,Ambt Delden,Hof van Twente,Overijssel,VBO,6.691738,52.243814
Bentelosestraat,77,,,7495PM,Ambt Delden,Hof van Twente,Overijssel,VBO,6.691629,52.244093
Bentelosestraat,79,,,7495PM,Ambt Delden,Hof van Twente,Overijssel,VBO,6.691913,52.245771
Bentelosestraat,81,,,7495PM,Ambt Delden,Hof van Twente,Overijssel,VBO,6.695910,52.247758
Schuttenweg,1,,,7495PN,Ambt Delden,Hof van Twente,Overijssel,VBO,6.701410,52.250502
Schuttenweg,3,a,,7495PN,Ambt Delden,Hof van Twente,Overijssel,VBO,6.701747,52.249627
Schuttenweg,3,,,7495PN,Ambt Delden,Hof van Twente,Overijssel,VBO,6.701503,52.250168
Schuttenweg,5,,,7495PN,Ambt Delden,Hof van Twente,Overijssel,VBO,6.701891,52.248941
Schuttenweg,7,,,7495PN,Ambt Delden,Hof van Twente,Overijssel,VBO,6.702329,52.247399
Schuttenweg,9,,,7495PN,Ambt Delden,Hof van Twente,Overijssel,VBO,6.702487,52.246822
Kanaaldijk,2,a,,7495PP,Ambt Delden,Hof van Twente,Overijssel,VBO,6.704798,52.251669
Kanaaldijk,2,b,,7495PP,Ambt Delden,Hof van Twente,Overijssel,VBO,6.704960,52.251685
Kanaaldijk,2,c,,7495PP,Ambt Delden,Hof van Twente,Overijssel,VBO,6.703792,52.250393
Kanaaldijk,2,,,7495PP,Ambt Delden,Hof van Twente,Overijssel,VBO,6.702291,52.251580
Kanaaldijk,4,,,7495PP,Ambt Delden,Hof van Twente,Overijssel,VBO,6.706834,52.251682
Kanaaldijk,6,a,,7495PP,Ambt Delden,Hof van Twente,Overijssel,VBO,6.707625,52.251682
Kanaaldijk,8,,,7495PP,Ambt Delden,Hof van Twente,Overijssel,VBO,6.711550,52.251665
Kloetenweg,1,a,,7495PP,Ambt Delden,Hof van Twente,Overijssel,VBO,6.706479,52.251352
Kloetenweg,1,,,7495PP,Ambt Delden,Hof van Twente,Overijssel,VBO,6.707527,52.246901
Kloetenweg,3,,,7495PP,Ambt Delden,Hof van Twente,Overijssel,VBO,6.708190,52.245090
Kloetenweg,5,,,7495PP,Ambt Delden,Hof van Twente,Overijssel,VBO,6.709215,52.243616
Kanaal ZZ,2,,,7495PR,Ambt Delden,Hof van Twente,Overijssel,VBO,6.628088,52.231888
Kanaal ZZ,4,,,7495PR,Ambt Delden,Hof van Twente,Overijssel,VBO,6.649570,52.237764
Kanaal ZZ,6,a,,7495PR,Ambt Delden,Hof van Twente,Overijssel,VBO,6.652094,52.236946
Kanaal ZZ,6,,,7495PR,Ambt Delden,Hof van Twente,Overijssel,VBO,6.651554,52.237527
Kanaal ZZ,8,,,7495PR,Ambt Delden,Hof van Twente,Overijssel,VBO,6.661116,52.238098
Kanaal ZZ,10,,,7495PR,Ambt Delden,Hof van Twente,Overijssel,VBO,6.668010,52.242303
Dekkersveldweg,2,,,7495PS,Ambt Delden,Hof van Twente,Overijssel,VBO,6.715067,52.250763
Dekkersveldweg,4,,,7495PS,Ambt Delden,Hof van Twente,Overijssel,VBO,6.714339,52.250897
Flierweg,1,a,,7495PT,Ambt Delden,Hof van Twente,Overijssel,VBO,6.718882,52.250513
Flierweg,1,b,,7495PT,Ambt Delden,Hof van Twente,Overijssel,VBO,6.719858,52.250942
Flierweg,1,c,,7495PT,Ambt Delden,Hof van Twente,Overijssel,VBO,6.719871,52.251079
Flierweg,1,,,7495PT,Ambt Delden,Hof van Twente,Overijssel,VBO,6.718869,52.250549
Flierweg,2,,,7495PT,Ambt Delden,Hof van Twente,Overijssel,VBO,6.718208,52.250970
Flierweg,4,,,7495PT,Ambt Delden,Hof van Twente,Overijssel,VBO,6.718206,52.250916
Peppelendijk,1,,,7495PV,Ambt Delden,Hof van Twente,Overijssel,VBO,6.721756,52.251586
Peppelendijk,3,,,7495PV,Ambt Delden,Hof van Twente,Overijssel,VBO,6.721916,52.251072
Oelerweg,2,a,,7495PW,Ambt Delden,Hof van Twente,Overijssel,VBO,6.720653,52.249676
Oelerweg,2,,,7495PW,Ambt Delden,Hof van Twente,Overijssel,VBO,6.720398,52.249759
Oelerweg,4,a,,7495PW,Ambt Delden,Hof van Twente,Overijssel,VBO,6.714872,52.246529
Oelerweg,4,,,7495PW,Ambt Delden,Hof van Twente,Overijssel,VBO,6.720472,52.249785
Oelerweg,6,,,7495PW,Ambt Delden,Hof van Twente,Overijssel,VBO,6.708879,52.246547
Oelerweg,8,,,7495PW,Ambt Delden,Hof van Twente,Overijssel,VBO,6.708266,52.247232
Oelerweg,10,,,7495PW,Ambt Delden,Hof van Twente,Overijssel,VBO,6.707923,52.247202
Torendijk,1,,,7495PX,Ambt Delden,Hof van Twente,Overijssel,VBO,6.711918,52.249494
Torendijk,2,a,,7495PX,Ambt Delden,Hof van Twente,Overijssel,VBO,6.709096,52.251469
Torendijk,2,,,7495PX,Ambt Delden,Hof van Twente,Overijssel,VBO,6.709388,52.251348
Torendijk,4,a,,7495PX,Ambt Delden,Hof van Twente,Overijssel,VBO,6.707912,52.250661
Torendijk,4,b,,7495PX,Ambt Delden,Hof van Twente,Overijssel,VBO,6.708080,52.249618
Torendijk,4,,,7495PX,Ambt Delden,Hof van Twente,Overijssel,VBO,6.709811,52.250615
Torendijk,6,,,7495PX,Ambt Delden,Hof van Twente,Overijssel,VBO,6.709841,52.249374
Torendijk,7,,,7495PX,Ambt Delden,Hof van Twente,Overijssel,VBO,6.711704,52.247623
Torendijk,8,,,7495PX,Ambt Delden,Hof van Twente,Overijssel,VBO,6.709838,52.249266
Torendijk,10,,,7495PX,Ambt Delden,Hof van Twente,Overijssel,VBO,6.708660,52.248560
Torendijk,12,,,7495PX,Ambt Delden,Hof van Twente,Overijssel,VBO,6.710693,52.247521
Torendijk,13,,,7495PX,Ambt Delden,Hof van Twente,Overijssel,VBO,6.717228,52.240980
Torendijk,14,,,7495PX,Ambt Delden,Hof van Twente,Overijssel,VBO,6.712007,52.243247
Torendijk,16,,,7495PX,Ambt Delden,Hof van Twente,Overijssel,VBO,6.713063,52.239797
Torendijk,18,,,7495PX,Ambt Delden,Hof van Twente,Overijssel,VBO,6.712348,52.235510
Torendijk,20,,,7495PX,Ambt Delden,Hof van Twente,Overijssel,VBO,6.713844,52.234707
Meenhuisweg,4,,,7495PZ,Ambt Delden,Hof van Twente,Overijssel,VBO,6.678031,52.250355
Platenkampsweg,1,a,,7495RA,Ambt Delden,Hof van Twente,Overijssel,VBO,6.687654,52.241342
Platenkampsweg,1,,,7495RA,Ambt Delden,Hof van Twente,Overijssel,VBO,6.688075,52.241452
Platenkampsweg,7,,,7495RA,Ambt Delden,Hof van Twente,Overijssel,VBO,6.706911,52.237964
Hagmolenweg,1,,,7495RB,Ambt Delden,Hof van Twente,Overijssel,VBO,6.669680,52.237026
Hagmolenweg,4,,,7495RB,Ambt Delden,Hof van Twente,Overijssel,VBO,6.673620,52.234538
Hagmolenweg,5,,,7495RB,Ambt Delden,Hof van Twente,Overijssel,VBO,6.674881,52.235639
Hagmolenweg,6,,,7495RB,Ambt Delden,Hof van Twente,Overijssel,VBO,6.675109,52.233902
Hagmolenweg,8,,,7495RB,Ambt Delden,Hof van Twente,Overijssel,VBO,6.677634,52.232825
Hagmolenweg,9,,,7495RB,Ambt Delden,Hof van Twente,Overijssel,VBO,6.672427,52.238353
Hagmolenweg,10,,,7495RB,Ambt Delden,Hof van Twente,Overijssel,VBO,6.677550,52.232733
Hagmolenweg,12,,,7495RB,Ambt Delden,Hof van Twente,Overijssel,VBO,6.678059,52.232638
Hagmolenweg,13,a,,7495RB,Ambt Delden,Hof van Twente,Overijssel,VBO,6.677144,52.233906
Hagmolenweg,13,b,,7495RB,Ambt Delden,Hof van Twente,Overijssel,VBO,6.677259,52.234095
Hagmolenweg,13,,,7495RB,Ambt Delden,Hof van Twente,Overijssel,VBO,6.676745,52.233758
Hagmolenweg,14,a,,7495RB,Ambt Delden,Hof van Twente,Overijssel,VBO,6.677879,52.232382
Hagmolenweg,14,,,7495RB,Ambt Delden,Hof van Twente,Overijssel,VBO,6.678158,52.232502
Hagmolenweg,15,,,7495RB,Ambt Delden,Hof van Twente,Overijssel,VBO,6.678621,52.234861
Hagmolenweg,16,,,7495RB,Ambt Delden,Hof van Twente,Overijssel,VBO,6.677702,52.231941
Hagmolenweg,17,,,7495RB,Ambt Delden,Hof van Twente,Overijssel,VBO,6.677544,52.233560
Hagmolenweg,19,,,7495RB,Ambt Delden,Hof van Twente,Overijssel,VBO,6.677994,52.233421
Sluisstraat,50,,,7495RC,Ambt Delden,Hof van Twente,Overijssel,VBO,6.672911,52.247004
Sluisstraat,51,,,7495RC,Ambt Delden,Hof van Twente,Overijssel,VBO,6.677470,52.246164
Sluisstraat,52,,,7495RC,Ambt Delden,Hof van Twente,Overijssel,VBO,6.662883,52.243535
Sluisstraat,53,,,7495RC,Ambt Delden,Hof van Twente,Overijssel,VBO,6.678005,52.246418
Langenhorsterweg,1,a,,7495RD,Ambt Delden,Hof van Twente,Overijssel,VBO,6.671974,52.277191
Langenhorsterweg,1,,,7495RD,Ambt Delden,Hof van Twente,Overijssel,VBO,6.671972,52.277287
Langenhorsterweg,2,a,,7495RD,Ambt Delden,Hof van Twente,Overijssel,VBO,6.670655,52.280485
Langenhorsterweg,2,b,,7495RD,Ambt Delden,Hof van Twente,Overijssel,VBO,6.670325,52.281112
Langenhorsterweg,2,,,7495RD,Ambt Delden,Hof van Twente,Overijssel,VBO,6.670571,52.281270
Langenhorsterweg,4,a,,7495RD,Ambt Delden,Hof van Twente,Overijssel,VBO,6.668049,52.280055
Langenhorsterweg,4,,,7495RD,Ambt Delden,Hof van Twente,Overijssel,VBO,6.667872,52.280030
Langenhorsterweg,6,a,,7495RD,Ambt Delden,Hof van Twente,Overijssel,VBO,6.667729,52.277172
Langenhorsterweg,6,b,,7495RD,Ambt Delden,Hof van Twente,Overijssel,VBO,6.668328,52.277411
Langenhorsterweg,6,,,7495RD,Ambt Delden,Hof van Twente,Overijssel,VBO,6.668413,52.277267
Langenhorsterweg,8,,,7495RD,Ambt Delden,Hof van Twente,Overijssel,VBO,6.670594,52.268040
Langenhorsterweg,10,,,7495RD,Ambt Delden,Hof van Twente,Overijssel,VBO,6.670427,52.267993
Langenhorsterweg,12,,,7495RD,Ambt Delden,Hof van Twente,Overijssel,VBO,6.672449,52.262425
Langenhorsterweg,14,a,,7495RD,Ambt Delden,Hof van Twente,Overijssel,VBO,6.671519,52.260156
Langenhorsterweg,14,,,7495RD,Ambt Delden,Hof van Twente,Overijssel,VBO,6.672522,52.261417
Langenhorsterweg,16,a,,7495RD,Ambt Delden,Hof van Twente,Overijssel,VBO,6.672970,52.260190
Langenhorsterweg,16,b,,7495RD,Ambt Delden,Hof van Twente,Overijssel,VBO,6.672935,52.260275
Langenhorsterweg,16,d,,7495RD,Ambt Delden,Hof van Twente,Overijssel,VBO,6.671086,52.259701
Langenhorsterweg,16,,,7495RD,Ambt Delden,Hof van Twente,Overijssel,VBO,6.672625,52.259884
Langenhorsterweg,18,a,,7495RD,Ambt Delden,Hof van Twente,Overijssel,VBO,6.671487,52.259174
Langenhorsterweg,18,b,,7495RD,Ambt Delden,Hof van Twente,Overijssel,VBO,6.673360,52.259494
Langenhorsterweg,18,,,7495RD,Ambt Delden,Hof van Twente,Overijssel,VBO,6.673342,52.259368
Langenhorsterweg,20,a,,7495RD,Ambt Delden,Hof van Twente,Overijssel,VBO,6.673507,52.258830
Langenhorsterweg,20,,,7495RD,Ambt Delden,Hof van Twente,Overijssel,VBO,6.673380,52.258802
Wicherinksweg,2,,,7495RE,Ambt Delden,Hof van Twente,Overijssel,VBO,6.681185,52.263103
Molenweg,1,a,,7495RG,Ambt Delden,Hof van Twente,Overijssel,VBO,6.668795,52.250704
Molenweg,1,b,,7495RG,Ambt Delden,Hof van Twente,Overijssel,VBO,6.669467,52.250218
Molenweg,1,,,7495RG,Ambt Delden,Hof van Twente,Overijssel,VBO,6.668890,52.250810
Molenweg,2,,,7495RG,Ambt Delden,Hof van Twente,Overijssel,VBO,6.672377,52.251325
Molenweg,3,,,7495RG,Ambt Delden,Hof van Twente,Overijssel,VBO,6.672444,52.252142
Rijksweg,5,,,7495RH,Ambt Delden,Hof van Twente,Overijssel,VBO,6.644869,52.250183
Rijksweg,7,,,7495RH,Ambt Delden,Hof van Twente,Overijssel,VBO,6.643255,52.250586
Rijksweg,9,a,,7495RH,Ambt Delden,Hof van Twente,Overijssel,VBO,6.641402,52.253939
Rijksweg,9,,,7495RH,Ambt Delden,Hof van Twente,Overijssel,VBO,6.641306,52.253942
Rijksweg,11,a,,7495RH,Ambt Delden,Hof van Twente,Overijssel,VBO,6.655013,52.256169
Rijksweg,11,b,,7495RH,Ambt Delden,Hof van Twente,Overijssel,VBO,6.655638,52.256284
Rijksweg,11,,,7495RH,Ambt Delden,Hof van Twente,Overijssel,VBO,6.652112,52.255112
Rijksweg,13,,,7495RH,Ambt Delden,Hof van Twente,Overijssel,VBO,6.656208,52.254933
Rijksweg,15,,,7495RH,Ambt Delden,Hof van Twente,Overijssel,VBO,6.658904,52.254446
Rijksweg,17,,,7495RH,Ambt Delden,Hof van Twente,Overijssel,VBO,6.659081,52.254471
Rijksweg,2,,,7495RJ,Ambt Delden,Hof van Twente,Overijssel,VBO,6.623372,52.239704
Rijksweg,4,,,7495RJ,Ambt Delden,Hof van Twente,Overijssel,VBO,6.626734,52.236891
Rijksweg,6,,,7495RJ,Ambt Delden,Hof van Twente,Overijssel,VBO,6.628421,52.236460
Rijksweg,8,,,7495RJ,Ambt Delden,Hof van Twente,Overijssel,VBO,6.632018,52.238912
Rijksweg,10,,,7495RJ,Ambt Delden,Hof van Twente,Overijssel,VBO,6.635055,52.244884
Rijksweg,12,a,,7495RJ,Ambt Delden,Hof van Twente,Overijssel,VBO,6.644894,52.247432
Rijksweg,12,,,7495RJ,Ambt Delden,Hof van Twente,Overijssel,VBO,6.644085,52.248843
Rijksweg,14,,TR,7495RJ,Ambt Delden,Hof van Twente,Overijssel,VBO,6.646228,52.250228
Rijksweg,14,,,7495RJ,Ambt Delden,Hof van Twente,Overijssel,VBO,6.646167,52.249998
Rijksweg,16,,,7495RJ,Ambt Delden,Hof van Twente,Overijssel,VBO,6.648406,52.250954
Rijksweg,18,,,7495RJ,Ambt Delden,Hof van Twente,Overijssel,VBO,6.654372,52.252688
Rijksweg,20,,,7495RJ,Ambt Delden,Hof van Twente,Overijssel,VBO,6.656670,52.252133
Rijksweg,22,,,7495RJ,Ambt Delden,Hof van Twente,Overijssel,VBO,6.657445,52.253113
Rijksweg,24,a,,7495RJ,Ambt Delden,Hof van Twente,Overijssel,VBO,6.658125,52.250547
Rijksweg,24,,,7495RJ,Ambt Delden,Hof van Twente,Overijssel,VBO,6.658042,52.250599
Rijksweg,26,,,7495RJ,Ambt Delden,Hof van Twente,Overijssel,VBO,6.658973,52.251721
Rijksweg,28,a,,7495RJ,Ambt Delden,Hof van Twente,Overijssel,VBO,6.663809,52.254393
Rijksweg,28,b,,7495RJ,Ambt Delden,Hof van Twente,Overijssel,VBO,6.663286,52.254678
Rijksweg,28,,,7495RJ,Ambt Delden,Hof van Twente,Overijssel,VBO,6.663706,52.254358
Rijksweg,30,a,,7495RJ,Ambt Delden,Hof van Twente,Overijssel,VBO,6.665864,52.252292
Rijksweg,30,,,7495RJ,Ambt Delden,Hof van Twente,Overijssel,VBO,6.665972,52.252266
Dorreweg,1,,,7495RK,Ambt Delden,Hof van Twente,Overijssel,VBO,6.643698,52.233619
Dorreweg,2,a,,7495RK,Ambt Delden,Hof van Twente,Overijssel,VBO,6.648157,52.224071
Dorreweg,3,,TR,7495RK,Ambt Delden,Hof van Twente,Overijssel,VBO,6.645058,52.231152
Dorreweg,3,,,7495RK,Ambt Delden,Hof van Twente,Overijssel,VBO,6.645740,52.231014
Dorreweg,4,,,7495RK,Ambt Delden,Hof van Twente,Overijssel,VBO,6.648303,52.219926
Dorreweg,6,,,7495RK,Ambt Delden,Hof van Twente,Overijssel,VBO,6.647871,52.217593
Tankinksweg,1,a,,7495RL,Ambt Delden,Hof van Twente,Overijssel,VBO,6.648935,52.247407
Tankinksweg,1,,,7495RL,Ambt Delden,Hof van Twente,Overijssel,VBO,6.648400,52.248671
Tankinksweg,3,a,,7495RL,Ambt Delden,Hof van Twente,Overijssel,VBO,6.649013,52.246013
Tankinksweg,3,,,7495RL,Ambt Delden,Hof van Twente,Overijssel,VBO,6.649058,52.246106
Tankinksweg,4,a,,7495RL,Ambt Delden,Hof van Twente,Overijssel,VBO,6.647069,52.248444
Tankinksweg,4,,,7495RL,Ambt Delden,Hof van Twente,Overijssel,VBO,6.646835,52.248528
Tankinksweg,5,a,,7495RL,Ambt Delden,Hof van Twente,Overijssel,VBO,6.647936,52.243660
Tankinksweg,5,,,7495RL,Ambt Delden,Hof van Twente,Overijssel,VBO,6.647213,52.243328
Tankinksweg,6,a,,7495RL,Ambt Delden,Hof van Twente,Overijssel,VBO,6.648951,52.246752
Tankinksweg,6,,,7495RL,Ambt Delden,Hof van Twente,Overijssel,VBO,6.648745,52.246823
Tankinksweg,7,,,7495RL,Ambt Delden,Hof van Twente,Overijssel,VBO,6.649040,52.241824
Tankinksweg,8,a,,7495RL,Ambt Delden,Hof van Twente,Overijssel,VBO,6.646766,52.243708
Tankinksweg,8,,,7495RL,Ambt Delden,Hof van Twente,Overijssel,VBO,6.646865,52.243600
Tankinksweg,9,,,7495RL,Ambt Delden,Hof van Twente,Overijssel,VBO,6.648155,52.241563
Tankinksweg,10,,,7495RL,Ambt Delden,Hof van Twente,Overijssel,VBO,6.645666,52.242615
Tankinksweg,12,,,7495RL,Ambt Delden,Hof van Twente,Overijssel,VBO,6.645679,52.242561
Rikkerinksweg,1,,,7495RM,Ambt Delden,Hof van Twente,Overijssel,VBO,6.610609,52.275019
Rikkerinksweg,2,,,7495RM,Ambt Delden,Hof van Twente,Overijssel,VBO,6.612373,52.269931
Rikkerinksweg,3,,,7495RM,Ambt Delden,Hof van Twente,Overijssel,VBO,6.612039,52.272197
Rikkerinksweg,4,,,7495RM,Ambt Delden,Hof van Twente,Overijssel,VBO,6.633625,52.262311
Rikkerinksweg,5,a,,7495RM,Ambt Delden,Hof van Twente,Overijssel,VBO,6.633554,52.266431
Rikkerinksweg,5,,,7495RM,Ambt Delden,Hof van Twente,Overijssel,VBO,6.633358,52.266419
Rikkerinksweg,6,,,7495RM,Ambt Delden,Hof van Twente,Overijssel,VBO,6.643389,52.261542
Rikkerinksweg,8,,,7495RM,Ambt Delden,Hof van Twente,Overijssel,VBO,6.643698,52.261593
Rikkerinksweg,10,,,7495RM,Ambt Delden,Hof van Twente,Overijssel,VBO,6.643916,52.261537
Kappelhofsweg,2,a,,7495RN,Ambt Delden,Hof van Twente,Overijssel,VBO,6.666367,52.266006
Kappelhofsweg,2,b,,7495RN,Ambt Delden,Hof van Twente,Overijssel,VBO,6.665638,52.266553
Kappelhofsweg,2,c,,7495RN,Ambt Delden,Hof van Twente,Overijssel,VBO,6.665526,52.266035
Kappelhofsweg,2,d,,7495RN,Ambt Delden,Hof van Twente,Overijssel,VBO,6.665690,52.265991
Kappelhofsweg,2,,,7495RN,Ambt Delden,Hof van Twente,Overijssel,VBO,6.666309,52.265925
Kappelhofsweg,3,,,7495RN,Ambt Delden,Hof van Twente,Overijssel,VBO,6.662199,52.256451
Kappelhofsweg,4,,,7495RN,Ambt Delden,Hof van Twente,Overijssel,VBO,6.667226,52.265137
Kappelhofsweg,5,,,7495RN,Ambt Delden,Hof van Twente,Overijssel,VBO,6.661576,52.255181
Kappelhofsweg,6,,,7495RN,Ambt Delden,Hof van Twente,Overijssel,VBO,6.666889,52.265218
Kappelhofsweg,7,,,7495RN,Ambt Delden,Hof van Twente,Overijssel,VBO,6.661622,52.255234
Kappelhofsweg,8,a,,7495RN,Ambt Delden,Hof van Twente,Overijssel,VBO,6.667852,52.264057
Kappelhofsweg,8,b,,7495RN,Ambt Delden,Hof van Twente,Overijssel,VBO,6.667152,52.263148
Kappelhofsweg,10,,,7495RN,Ambt Delden,Hof van Twente,Overijssel,VBO,6.665613,52.262616
Kappelhofsweg,12,,,7495RN,Ambt Delden,Hof van Twente,Overijssel,VBO,6.665234,52.261173
Kappelhofsweg,14,a,,7495RN,Ambt Delden,Hof van Twente,Overijssel,VBO,6.664088,52.260994
Kappelhofsweg,14,b,,7495RN,Ambt Delden,Hof van Twente,Overijssel,VBO,6.664509,52.262230
Kappelhofsweg,14,,,7495RN,Ambt Delden,Hof van Twente,Overijssel,VBO,6.664348,52.261425
Kappelhofsweg,16,a,,7495RN,Ambt Delden,Hof van Twente,Overijssel,VBO,6.663264,52.259248
Kappelhofsweg,18,,,7495RN,Ambt Delden,Hof van Twente,Overijssel,VBO,6.662268,52.257349
Kappelhofsweg,20,,,7495RN,Ambt Delden,Hof van Twente,Overijssel,VBO,6.662012,52.257109
Kappelhofsweg,22,,,7495RN,Ambt Delden,Hof van Twente,Overijssel,VBO,6.660292,52.255339
Kappelhofsweg,26,,TR,7495RN,Ambt Delden,Hof van Twente,Overijssel,VBO,6.660166,52.254928
Kappelhofsweg,26,,,7495RN,Ambt Delden,Hof van Twente,Overijssel,VBO,6.660189,52.254809
Rijssenseweg,1,a,,7495RP,Ambt Delden,Hof van Twente,Overijssel,VBO,6.636507,52.277507
Rijssenseweg,1,f,,7495RP,Ambt Delden,Hof van Twente,Overijssel,VBO,6.636304,52.275800
Rijssenseweg,1,,,7495RP,Ambt Delden,Hof van Twente,Overijssel,VBO,6.636395,52.277508
Rijssenseweg,2,,,7495RP,Ambt Delden,Hof van Twente,Overijssel,VBO,6.638046,52.273671
Rijssenseweg,3,a,,7495RP,Ambt Delden,Hof van Twente,Overijssel,VBO,6.637921,52.274436
Rijssenseweg,3,,,7495RP,Ambt Delden,Hof van Twente,Overijssel,VBO,6.637909,52.274535
Rijssenseweg,4,,,7495RP,Ambt Delden,Hof van Twente,Overijssel,VBO,6.642073,52.273062
Rijssenseweg,5,a,,7495RP,Ambt Delden,Hof van Twente,Overijssel,VBO,6.651229,52.273952
Rijssenseweg,5,,,7495RP,Ambt Delden,Hof van Twente,Overijssel,VBO,6.651475,52.273923
Rijssenseweg,6,a,,7495RP,Ambt Delden,Hof van Twente,Overijssel,VBO,6.651532,52.271801
Rijssenseweg,6,,,7495RP,Ambt Delden,Hof van Twente,Overijssel,VBO,6.648012,52.271147
Rijssenseweg,7,,,7495RP,Ambt Delden,Hof van Twente,Overijssel,VBO,6.666003,52.272095
Rijssenseweg,8,a,,7495RP,Ambt Delden,Hof van Twente,Overijssel,VBO,6.652178,52.271629
Rijssenseweg,8,,,7495RP,Ambt Delden,Hof van Twente,Overijssel,VBO,6.652213,52.271542
Rijssenseweg,9,,,7495RP,Ambt Delden,Hof van Twente,Overijssel,VBO,6.686060,52.267013
Rijssenseweg,10,,,7495RP,Ambt Delden,Hof van Twente,Overijssel,VBO,6.657063,52.269477
Rijssenseweg,11,,,7495RP,Ambt Delden,Hof van Twente,Overijssel,VBO,6.693777,52.266371
Rijssenseweg,12,,,7495RP,Ambt Delden,Hof van Twente,Overijssel,VBO,6.658689,52.267667
Rijssenseweg,14,,,7495RP,Ambt Delden,Hof van Twente,Overijssel,VBO,6.664609,52.268982
Rijssenseweg,16,,,7495RP,Ambt Delden,Hof van Twente,Overijssel,VBO,6.665524,52.268702
Rijssenseweg,18,,,7495RP,Ambt Delden,Hof van Twente,Overijssel,VBO,6.669907,52.268781
Koerdamsweg,2,,,7495RR,Ambt Delden,Hof van Twente,Overijssel,VBO,6.630839,52.270628
Koerdamsweg,4,a,,7495RR,Ambt Delden,Hof van Twente,Overijssel,VBO,6.619263,52.272571
Demmersweg,1,a,,7495RS,Ambt Delden,Hof van Twente,Overijssel,VBO,6.634489,52.273924
Demmersweg,1,,,7495RS,Ambt Delden,Hof van Twente,Overijssel,VBO,6.634608,52.273878
Demmersweg,2,,,7495RS,Ambt Delden,Hof van Twente,Overijssel,VBO,6.633923,52.271916
Demmersweg,3,a,TR,7495RS,Ambt Delden,Hof van Twente,Overijssel,VBO,6.636181,52.270106
Demmersweg,3,,,7495RS,Ambt Delden,Hof van Twente,Overijssel,VBO,6.634712,52.269751
Demmersweg,4,,,7495RS,Ambt Delden,Hof van Twente,Overijssel,VBO,6.636589,52.270315
Demmersweg,5,,,7495RS,Ambt Delden,Hof van Twente,Overijssel,VBO,6.635047,52.270197
Demmersweg,6,,,7495RS,Ambt Delden,Hof van Twente,Overijssel,VBO,6.637425,52.269821
Seppenwooldsweg,3,,,7495RT,Ambt Delden,Hof van Twente,Overijssel,VBO,6.641120,52.267319
Bollenweg,1,a,,7495RV,Ambt Delden,Hof van Twente,Overijssel,VBO,6.635250,52.261260
Bollenweg,1,b,,7495RV,Ambt Delden,Hof van Twente,Overijssel,VBO,6.633456,52.259901
Bollenweg,1,,,7495RV,Ambt Delden,Hof van Twente,Overijssel,VBO,6.633330,52.259858
Bollenweg,2,a,,7495RV,Ambt Delden,Hof van Twente,Overijssel,VBO,6.632092,52.259900
Bollenweg,2,,,7495RV,Ambt Delden,Hof van Twente,Overijssel,VBO,6.631225,52.259740
Bollenweg,3,,,7495RV,Ambt Delden,Hof van Twente,Overijssel,VBO,6.636713,52.258084
Bollenweg,4,a,,7495RV,Ambt Delden,Hof van Twente,Overijssel,VBO,6.629435,52.251894
Bollenweg,5,a,,7495RV,Ambt Delden,Hof van Twente,Overijssel,VBO,6.635844,52.255797
Bollenweg,5,,,7495RV,Ambt Delden,Hof van Twente,Overijssel,VBO,6.636491,52.255963
Bollenweg,6,,,7495RV,Ambt Delden,Hof van Twente,Overijssel,VBO,6.631767,52.250888
Bollenweg,7,a,,7495RV,Ambt Delden,Hof van Twente,Overijssel,VBO,6.630448,52.258191
Bollenweg,7,,,7495RV,Ambt Delden,Hof van Twente,Overijssel,VBO,6.631510,52.258459
Bollenweg,9,a,,7495RV,Ambt Delden,Hof van Twente,Overijssel,VBO,6.629422,52.255542
Bollenweg,9,b,,7495RV,Ambt Delden,Hof van Twente,Overijssel,VBO,6.629516,52.255244
Bollenweg,9,,,7495RV,Ambt Delden,Hof van Twente,Overijssel,VBO,6.629306,52.255588
Bollenweg,10,,,7495RV,Ambt Delden,Hof van Twente,Overijssel,VBO,6.628439,52.249718
Bollenweg,11,,,7495RV,Ambt Delden,Hof van Twente,Overijssel,VBO,6.632758,52.253853
Bollenweg,13,a,,7495RV,Ambt Delden,Hof van Twente,Overijssel,VBO,6.632971,52.252233
Bollenweg,13,,,7495RV,Ambt Delden,Hof van Twente,Overijssel,VBO,6.632802,52.252306
Bollenweg,14,a,,7495RV,Ambt Delden,Hof van Twente,Overijssel,VBO,6.634093,52.247037
Bollenweg,14,,,7495RV,Ambt Delden,Hof van Twente,Overijssel,VBO,6.634045,52.246981
Bollenweg,15,a,,7495RV,Ambt Delden,Hof van Twente,Overijssel,VBO,6.633974,52.250730
Bollenweg,15,,,7495RV,Ambt Delden,Hof van Twente,Overijssel,VBO,6.633882,52.250596
Bollenweg,16,a,,7495RV,Ambt Delden,Hof van Twente,Overijssel,VBO,6.633707,52.246406
Bollenweg,16,,,7495RV,Ambt Delden,Hof van Twente,Overijssel,VBO,6.634003,52.246659
Bollenweg,17,a,,7495RV,Ambt Delden,Hof van Twente,Overijssel,VBO,6.638851,52.250750
Bollenweg,17,,,7495RV,Ambt Delden,Hof van Twente,Overijssel,VBO,6.636592,52.250073
Bollenweg,19,a,,7495RV,Ambt Delden,Hof van Twente,Overijssel,VBO,6.635007,52.248037
Bollenweg,19,,,7495RV,Ambt Delden,Hof van Twente,Overijssel,VBO,6.635082,52.247971
Bollenweg,21,,,7495RV,Ambt Delden,Hof van Twente,Overijssel,VBO,6.634269,52.248192
Mossendamsweg,2,a,,7495RW,Ambt Delden,Hof van Twente,Overijssel,VBO,6.615916,52.249407
Mossendamsweg,2,b,,7495RW,Ambt Delden,Hof van Twente,Overijssel,VBO,6.616942,52.249397
Mossendamsweg,2,c,,7495RW,Ambt Delden,Hof van Twente,Overijssel,VBO,6.617387,52.249914
Mossendamsweg,2,,,7495RW,Ambt Delden,Hof van Twente,Overijssel,VBO,6.613244,52.249331
Mossendamsweg,4,a,,7495RW,Ambt Delden,Hof van Twente,Overijssel,VBO,6.621826,52.249748
Mossendamsweg,4,b,,7495RW,Ambt Delden,Hof van Twente,Overijssel,VBO,6.621254,52.250450
Mossendamsweg,4,,,7495RW,Ambt Delden,Hof van Twente,Overijssel,VBO,6.617206,52.249983
Mossendamsweg,6,,,7495RW,Ambt Delden,Hof van Twente,Overijssel,VBO,6.619785,52.251364
Mossendamsweg,8,,,7495RW,Ambt Delden,Hof van Twente,Overijssel,VBO,6.620608,52.252497
Rouwelerweg,1,,,7495RX,Ambt Delden,Hof van Twente,Overijssel,VBO,6.612172,52.250382
Rouwelerweg,2,,,7495RX,Ambt Delden,Hof van Twente,Overijssel,VBO,6.613647,52.253423
Rouwelerweg,3,,,7495RX,Ambt Delden,Hof van Twente,Overijssel,VBO,6.616865,52.253255
Hoffmeijerweg,1,a,,7495RZ,Ambt Delden,Hof van Twente,Overijssel,VBO,6.647504,52.262453
Hoffmeijerweg,1,,,7495RZ,Ambt Delden,Hof van Twente,Overijssel,VBO,6.652753,52.260624
Hoffmeijerweg,2,,,7495RZ,Ambt Delden,Hof van Twente,Overijssel,VBO,6.649400,52.260687
Hoffmeijerweg,3,,,7495RZ,Ambt Delden,Hof van Twente,Overijssel,VBO,6.655508,52.262716
Hoffmeijerweg,4,a,,7495RZ,Ambt Delden,Hof van Twente,Overijssel,VBO,6.649731,52.258409
Hoffmeijerweg,4,,,7495RZ,Ambt Delden,Hof van Twente,Overijssel,VBO,6.649729,52.258337
Hoffmeijerweg,5,,,7495RZ,Ambt Delden,Hof van Twente,Overijssel,VBO,6.661024,52.259412
Hoffmeijerweg,6,,,7495RZ,Ambt Delden,Hof van Twente,Overijssel,VBO,6.649672,52.257358
Hoffmeijerweg,7,,,7495RZ,Ambt Delden,Hof van Twente,Overijssel,VBO,6.665427,52.258681
Hoffmeijerweg,8,,,7495RZ,Ambt Delden,Hof van Twente,Overijssel,VBO,6.654807,52.259721
Hoffmeijerweg,9,,,7495RZ,Ambt Delden,Hof van Twente,Overijssel,VBO,6.669369,52.258234
Hoffmeijerweg,10,,,7495RZ,Ambt Delden,Hof van Twente,Overijssel,VBO,6.659404,52.257449
Hoffmeijerweg,12,,,7495RZ,Ambt Delden,Hof van Twente,Overijssel,VBO,6.660249,52.258953
Hoffmeijerweg,16,a,,7495RZ,Ambt Delden,Hof van Twente,Overijssel,VBO,6.664138,52.258198
Hoffmeijerweg,16,,,7495RZ,Ambt Delden,Hof van Twente,Overijssel,VBO,6.664356,52.258136
Hoffmeijerweg,18,,,7495RZ,Ambt Delden,Hof van Twente,Overijssel,VBO,6.665871,52.257328
Oude Postweg,3,,,7495SB,Ambt Delden,Hof van Twente,Overijssel,VBO,6.618120,52.238294
Oude Postweg,5,,,7495SB,Ambt Delden,Hof van Twente,Overijssel,VBO,6.618229,52.238508
Oude Postweg,7,,,7495SB,Ambt Delden,Hof van Twente,Overijssel,VBO,6.616640,52.240889
Oude Postweg,9,,,7495SB,Ambt Delden,Hof van Twente,Overijssel,VBO,6.616646,52.241644
Oude Postweg,11,a,,7495SB,Ambt Delden,Hof van Twente,Overijssel,VBO,6.616376,52.242977
Oude Postweg,11,,,7495SB,Ambt Delden,Hof van Twente,Overijssel,VBO,6.616766,52.242811
Oude Postweg,13,,,7495SB,Ambt Delden,Hof van Twente,Overijssel,VBO,6.618682,52.238486
Oude Postweg,15,,,7495SB,Ambt Delden,Hof van Twente,Overijssel,VBO,6.620192,52.240524
Oude Postweg,17,,,7495SB,Ambt Delden,Hof van Twente,Overijssel,VBO,6.623337,52.241601
Oude Postweg,19,,,7495SB,Ambt Delden,Hof van Twente,Overijssel,VBO,6.621103,52.242370
Oude Postweg,21,,,7495SB,Ambt Delden,Hof van Twente,Overijssel,VBO,6.622722,52.242677
Oude Postweg,23,,,7495SB,Ambt Delden,Hof van Twente,Overijssel,VBO,6.622782,52.242730
Oude Postweg,25,,,7495SB,Ambt Delden,Hof van Twente,Overijssel,VBO,6.623832,52.243088
Oude Postweg,27,a,,7495SB,Ambt Delden,Hof van Twente,Overijssel,VBO,6.624975,52.242831
Oude Postweg,27,,,7495SB,Ambt Delden,Hof van Twente,Overijssel,VBO,6.625142,52.242814
Oude Postweg,29,a,TR,7495SB,Ambt Delden,Hof van Twente,Overijssel,VBO,6.626879,52.244347
Oude Postweg,29,,,7495SB,Ambt Delden,Hof van Twente,Overijssel,VBO,6.625456,52.243035
Oude Postweg,31,,,7495SB,Ambt Delden,Hof van Twente,Overijssel,VBO,6.628872,52.245804
Oude Postweg,33,,,7495SB,Ambt Delden,Hof van Twente,Overijssel,VBO,6.630843,52.247194
Oude Postweg,35,,,7495SB,Ambt Delden,Hof van Twente,Overijssel,VBO,6.629641,52.248178
Oude Postweg,2,,,7495SC,Ambt Delden,Hof van Twente,Overijssel,VBO,6.623004,52.240688
Oude Postweg,4,a,,7495SC,Ambt Delden,Hof van Twente,Overijssel,VBO,6.628101,52.244308
Oude Postweg,4,,,7495SC,Ambt Delden,Hof van Twente,Overijssel,VBO,6.628864,52.244995
Oude Postweg,6,b,,7495SC,Ambt Delden,Hof van Twente,Overijssel,VBO,6.629657,52.245454
Oude Postweg,6,,,7495SC,Ambt Delden,Hof van Twente,Overijssel,VBO,6.629193,52.245270
Oude Postweg,8,,,7495SC,Ambt Delden,Hof van Twente,Overijssel,VBO,6.630103,52.245854
Oude Postweg,10,,,7495SC,Ambt Delden,Hof van Twente,Overijssel,VBO,6.630134,52.245916
Oude Postweg,12,,,7495SC,Ambt Delden,Hof van Twente,Overijssel,VBO,6.630224,52.245996
Oude Postweg,14,,,7495SC,Ambt Delden,Hof van Twente,Overijssel,VBO,6.630299,52.246040
Oude Postweg,16,,,7495SC,Ambt Delden,Hof van Twente,Overijssel,VBO,6.630360,52.246147
Oude Postweg,18,,,7495SC,Ambt Delden,Hof van Twente,Overijssel,VBO,6.630494,52.246236
Oude Postweg,20,,,7495SC,Ambt Delden,Hof van Twente,Overijssel,VBO,6.630569,52.246280
Oude Postweg,22,,,7495SC,Ambt Delden,Hof van Twente,Overijssel,VBO,6.630706,52.246378
Oude Postweg,24,,,7495SC,Ambt Delden,Hof van Twente,Overijssel,VBO,6.630748,52.246413
Twickelerweg,1,a,,7495SE,Ambt Delden,Hof van Twente,Overijssel,VBO,6.600146,52.256841
Twickelerweg,1,,,7495SE,Ambt Delden,Hof van Twente,Overijssel,VBO,6.600296,52.256753
Twickelerweg,2,,,7495SE,Ambt Delden,Hof van Twente,Overijssel,VBO,6.597373,52.257645
Twickelerweg,3,a,,7495SE,Ambt Delden,Hof van Twente,Overijssel,VBO,6.601571,52.256366
Twickelerweg,3,,,7495SE,Ambt Delden,Hof van Twente,Overijssel,VBO,6.601177,52.256437
Twickelerweg,4,,,7495SE,Ambt Delden,Hof van Twente,Overijssel,VBO,6.597779,52.257479
Twickelerweg,5,a,,7495SE,Ambt Delden,Hof van Twente,Overijssel,VBO,6.602868,52.255264
Twickelerweg,5,,,7495SE,Ambt Delden,Hof van Twente,Overijssel,VBO,6.602978,52.255340
Twickelerweg,7,,,7495SE,Ambt Delden,Hof van Twente,Overijssel,VBO,6.605619,52.252275
Twickelerweg,9,a,,7495SE,Ambt Delden,Hof van Twente,Overijssel,VBO,6.607893,52.249641
Twickelerweg,9,,,7495SE,Ambt Delden,Hof van Twente,Overijssel,VBO,6.607841,52.249696
Twickelerweg,11,,,7495SE,Ambt Delden,Hof van Twente,Overijssel,VBO,6.608655,52.248735
Twickelerweg,13,,,7495SE,Ambt Delden,Hof van Twente,Overijssel,VBO,6.609794,52.247540
Twickelerweg,15,,,7495SE,Ambt Delden,Hof van Twente,Overijssel,VBO,6.610655,52.247405
Twickelerweg,17,,,7495SE,Ambt Delden,Hof van Twente,Overijssel,VBO,6.613044,52.247488
Twickelerweg,19,a,,7495SE,Ambt Delden,Hof van Twente,Overijssel,VBO,6.616024,52.246539
Twickelerweg,19,,,7495SE,Ambt Delden,Hof van Twente,Overijssel,VBO,6.615869,52.246563
Twickelerweg,21,a,,7495SE,Ambt Delden,Hof van Twente,Overijssel,VBO,6.620609,52.245692
Twickelerweg,21,,,7495SE,Ambt Delden,Hof van Twente,Overijssel,VBO,6.623282,52.247013
Twickelerweg,23,,,7495SE,Ambt Delden,Hof van Twente,Overijssel,VBO,6.623198,52.245984
Twickelerweg,25,,,7495SE,Ambt Delden,Hof van Twente,Overijssel,VBO,6.623742,52.245651
Hagenweg,2,,,7495SH,Ambt Delden,Hof van Twente,Overijssel,VBO,6.640273,52.280900
Hagenweg,4,,,7495SH,Ambt Delden,Hof van Twente,Overijssel,VBO,6.637487,52.281937
Potsweg,1,,,7495SH,Ambt Delden,Hof van Twente,Overijssel,VBO,6.606194,52.256718
Spenkelinksweg,3,,,7495SJ,Ambt Delden,Hof van Twente,Overijssel,VBO,6.621223,52.254081
Spenkelinksweg,4,a,,7495SJ,Ambt Delden,Hof van Twente,Overijssel,VBO,6.623552,52.252107
Spenkelinksweg,4,,,7495SJ,Ambt Delden,Hof van Twente,Overijssel,VBO,6.623617,52.252218
Spenkelinksweg,6,a,,7495SJ,Ambt Delden,Hof van Twente,Overijssel,VBO,6.624545,52.253480
Spenkelinksweg,6,,TR,7495SJ,Ambt Delden,Hof van Twente,Overijssel,VBO,6.622526,52.253272
Spenkelinksweg,6,,,7495SJ,Ambt Delden,Hof van Twente,Overijssel,VBO,6.624386,52.253536
Spenkelinksweg,8,,,7495SJ,Ambt Delden,Hof van Twente,Overijssel,VBO,6.623793,52.253812
Rapperdsweg,1,a,,7495SK,Ambt Delden,Hof van Twente,Overijssel,VBO,6.608971,52.256465
Rapperdsweg,1,b,,7495SK,Ambt Delden,Hof van Twente,Overijssel,VBO,6.607978,52.256411
Rapperdsweg,1,,,7495SK,Ambt Delden,Hof van Twente,Overijssel,VBO,6.618898,52.257926
Rapperdsweg,2,a,,7495SK,Ambt Delden,Hof van Twente,Overijssel,VBO,6.618524,52.255219
Rapperdsweg,2,,,7495SK,Ambt Delden,Hof van Twente,Overijssel,VBO,6.618539,52.255548
Rapperdsweg,3,a,,7495SK,Ambt Delden,Hof van Twente,Overijssel,VBO,6.621687,52.256018
Rapperdsweg,3,,TR,7495SK,Ambt Delden,Hof van Twente,Overijssel,VBO,6.620574,52.256063
Rapperdsweg,3,,,7495SK,Ambt Delden,Hof van Twente,Overijssel,VBO,6.620571,52.256443
Rapperdsweg,4,,,7495SK,Ambt Delden,Hof van Twente,Overijssel,VBO,6.622270,52.254870
Rapperdsweg,5,,,7495SK,Ambt Delden,Hof van Twente,Overijssel,VBO,6.625833,52.256065
Rapperdsweg,6,,,7495SK,Ambt Delden,Hof van Twente,Overijssel,VBO,6.622757,52.255000
Rapperdsweg,7,,,7495SK,Ambt Delden,Hof van Twente,Overijssel,VBO,6.626647,52.255840
Rapperdsweg,9,,,7495SK,Ambt Delden,Hof van Twente,Overijssel,VBO,6.627262,52.255843
Dieckertsweg,1,,,7495SL,Ambt Delden,Hof van Twente,Overijssel,VBO,6.620940,52.265545
Dieckertsweg,2,a,,7495SL,Ambt Delden,Hof van Twente,Overijssel,VBO,6.617746,52.262360
Dieckertsweg,2,,,7495SL,Ambt Delden,Hof van Twente,Overijssel,VBO,6.617999,52.261980
Dieckertsweg,3,,,7495SL,Ambt Delden,Hof van Twente,Overijssel,VBO,6.621256,52.262665
Dieckertsweg,4,,TR,7495SL,Ambt Delden,Hof van Twente,Overijssel,VBO,6.622130,52.261225
Dieckertsweg,4,,,7495SL,Ambt Delden,Hof van Twente,Overijssel,VBO,6.621751,52.261519
Dieckertsweg,6,,,7495SL,Ambt Delden,Hof van Twente,Overijssel,VBO,6.623837,52.260670
Teemkersweg,1,,,7495SM,Ambt Delden,Hof van Twente,Overijssel,VBO,6.607636,52.258423
Zomerweg,3,a,,7495SN,Ambt Delden,Hof van Twente,Overijssel,VBO,6.603346,52.257008
Zomerweg,3,,,7495SN,Ambt Delden,Hof van Twente,Overijssel,VBO,6.603537,52.257033
Zomerweg,5,,,7495SN,Ambt Delden,Hof van Twente,Overijssel,VBO,6.611798,52.264481
Zomerweg,7,a,,7495SN,Ambt Delden,Hof van Twente,Overijssel,VBO,6.610626,52.267293
Zomerweg,7,,,7495SN,Ambt Delden,Hof van Twente,Overijssel,VBO,6.613455,52.268545
Zomerweg,9,,,7495SN,Ambt Delden,Hof van Twente,Overijssel,VBO,6.614400,52.268507
Zomerweg,11,,,7495SN,Ambt Delden,Hof van Twente,Overijssel,VBO,6.633778,52.285564
Zomerweg,4,a,,7495SP,Ambt Delden,Hof van Twente,Overijssel,VBO,6.614416,52.262327
Zomerweg,4,,,7495SP,Ambt Delden,Hof van Twente,Overijssel,VBO,6.614376,52.261784
Zomerweg,6,a,,7495SP,Ambt Delden,Hof van Twente,Overijssel,VBO,6.616491,52.267290
Zomerweg,6,b,,7495SP,Ambt Delden,Hof van Twente,Overijssel,VBO,6.616825,52.267523
Zomerweg,6,c,,7495SP,Ambt Delden,Hof van Twente,Overijssel,VBO,6.617179,52.267804
Zomerweg,6,,,7495SP,Ambt Delden,Hof van Twente,Overijssel,VBO,6.612874,52.264173
Zomerweg,8,a,,7495SP,Ambt Delden,Hof van Twente,Overijssel,VBO,6.627686,52.274202
Zomerweg,8,,,7495SP,Ambt Delden,Hof van Twente,Overijssel,VBO,6.628067,52.273659
Zomerweg,10,,,7495SP,Ambt Delden,Hof van Twente,Overijssel,VBO,6.635231,52.280328
Zomerweg,12,,,7495SP,Ambt Delden,Hof van Twente,Overijssel,VBO,6.635418,52.280515
Proodsweg,1,a,,7495SR,Ambt Delden,Hof van Twente,Overijssel,VBO,6.629261,52.287552
Proodsweg,1,,,7495SR,Ambt Delden,Hof van Twente,Overijssel,VBO,6.628463,52.287830
Proodsweg,2,,,7495SR,Ambt Delden,Hof van Twente,Overijssel,VBO,6.632569,52.287931
Proodsweg,3,,,7495SR,Ambt Delden,Hof van Twente,Overijssel,VBO,6.633698,52.288988
Proodsweg,7,,,7495SR,Ambt Delden,Hof van Twente,Overijssel,VBO,6.635055,52.289810
Proodsweg,9,,,7495SR,Ambt Delden,Hof van Twente,Overijssel,VBO,6.634880,52.289821
Hagenweg,1,,,7495SX,Ambt Delden,Hof van Twente,Overijssel,VBO,6.640436,52.280071
Welbergsweg,1,,,7495SZ,Ambt Delden,Hof van Twente,Overijssel,VBO,6.646109,52.284165
Welbergsweg,2,,,7495SZ,Ambt Delden,Hof van Twente,Overijssel,VBO,6.652286,52.284294
Welbergsweg,3,,,7495SZ,Ambt Delden,Hof van Twente,Overijssel,VBO,6.654162,52.286394
Welbergsweg,4,,,7495SZ,Ambt Delden,Hof van Twente,Overijssel,VBO,6.665535,52.284361
Welbergsweg,5,,,7495SZ,Ambt Delden,Hof van Twente,Overijssel,VBO,6.669068,52.284394
Welbergsweg,6,,,7495SZ,Ambt Delden,Hof van Twente,Overijssel,VBO,6.666176,52.283212
Welbergsweg,7,,,7495SZ,Ambt Delden,Hof van Twente,Overijssel,VBO,6.669969,52.284627
Welbergsweg,8,,,7495SZ,Ambt Delden,Hof van Twente,Overijssel,VBO,6.668655,52.283787
Welbergsweg,9,,,7495SZ,Ambt Delden,Hof van Twente,Overijssel,VBO,6.670637,52.284413
Welbergsweg,10,,,7495SZ,Ambt Delden,Hof van Twente,Overijssel,VBO,6.670138,52.283888
Welbergsweg,11,,,7495SZ,Ambt Delden,Hof van Twente,Overijssel,VBO,6.670960,52.284428
Welbergsweg,12,,,7495SZ,Ambt Delden,Hof van Twente,Overijssel,VBO,6.671048,52.283941
Werninksweg,2,,,7495TA,Ambt Delden,Hof van Twente,Overijssel,VBO,6.645187,52.280058
Imminksweg,1,a,,7495TB,Ambt Delden,Hof van Twente,Overijssel,VBO,6.646245,52.275704
Imminksweg,1,,,7495TB,Ambt Delden,Hof van Twente,Overijssel,VBO,6.646223,52.275750
Schoolstraat,1,a,,7495TC,Ambt Delden,Hof van Twente,Overijssel,VBO,6.648602,52.281537
Schoolstraat,1,,,7495TC,Ambt Delden,Hof van Twente,Overijssel,VBO,6.648646,52.281621
Schoolstraat,2,a,,7495TC,Ambt Delden,Hof van Twente,Overijssel,VBO,6.665186,52.276319
Schoolstraat,2,b,,7495TC,Ambt Delden,Hof van Twente,Overijssel,VBO,6.665510,52.276379
Schoolstraat,2,c,,7495TC,Ambt Delden,Hof van Twente,Overijssel,VBO,6.665850,52.276474
Schoolstraat,2,,,7495TC,Ambt Delden,Hof van Twente,Overijssel,VBO,6.658930,52.276282
Schoolstraat,3,a,,7495TC,Ambt Delden,Hof van Twente,Overijssel,VBO,6.650453,52.278400
Schoolstraat,3,,,7495TC,Ambt Delden,Hof van Twente,Overijssel,VBO,6.650506,52.278238
Schoolstraat,4,,,7495TC,Ambt Delden,Hof van Twente,Overijssel,VBO,6.666325,52.276694
Schoolstraat,5,,TR,7495TC,Ambt Delden,Hof van Twente,Overijssel,VBO,6.650996,52.277909
Schoolstraat,5,,,7495TC,Ambt Delden,Hof van Twente,Overijssel,VBO,6.650905,52.278091
Schoolstraat,6,,,7495TC,Ambt Delden,Hof van Twente,Overijssel,VBO,6.666443,52.276692
Schoolstraat,7,,,7495TC,Ambt Delden,Hof van Twente,Overijssel,VBO,6.653378,52.278499
Schoolstraat,8,,,7495TC,Ambt Delden,Hof van Twente,Overijssel,VBO,6.666695,52.276824
Schoolstraat,9,a,,7495TC,Ambt Delden,Hof van Twente,Overijssel,VBO,6.659955,52.276852
Schoolstraat,9,,,7495TC,Ambt Delden,Hof van Twente,Overijssel,VBO,6.659966,52.276726
Schoolstraat,10,,,7495TC,Ambt Delden,Hof van Twente,Overijssel,VBO,6.666813,52.276823
Schoolstraat,11,,,7495TC,Ambt Delden,Hof van Twente,Overijssel,VBO,6.660534,52.277628
Schoolstraat,12,,,7495TC,Ambt Delden,Hof van Twente,Overijssel,VBO,6.667347,52.277042
Schoolstraat,14,,,7495TC,Ambt Delden,Hof van Twente,Overijssel,VBO,6.667479,52.277059
Warmtinklaan,1,,,7495TD,Ambt Delden,Hof van Twente,Overijssel,VBO,6.660699,52.275685
Warmtinklaan,2,,,7495TD,Ambt Delden,Hof van Twente,Overijssel,VBO,6.658548,52.274420
Warmtinklaan,3,,,7495TD,Ambt Delden,Hof van Twente,Overijssel,VBO,6.659774,52.276153
Warmtinklaan,4,,,7495TD,Ambt Delden,Hof van Twente,Overijssel,VBO,6.658678,52.273190
Warmtinklaan,6,,,7495TD,Ambt Delden,Hof van Twente,Overijssel,VBO,6.657474,52.272582
Zuivelstraat,1,,,7495TE,Ambt Delden,Hof van Twente,Overijssel,VBO,6.667456,52.276789
Zuivelstraat,2,,,7495TE,Ambt Delden,Hof van Twente,Overijssel,VBO,6.666952,52.276570
Zuivelstraat,3,,,7495TE,Ambt Delden,Hof van Twente,Overijssel,VBO,6.667469,52.276717
Zuivelstraat,4,,,7495TE,Ambt Delden,Hof van Twente,Overijssel,VBO,6.666993,52.276480
Zuivelstraat,5,,,7495TE,Ambt Delden,Hof van Twente,Overijssel,VBO,6.667654,52.276535
Almelosestraat,5,,,7495TG,Ambt Delden,Hof van Twente,Overijssel,VBO,6.669265,52.292239
Almelosestraat,7,,,7495TG,Ambt Delden,Hof van Twente,Overijssel,VBO,6.666309,52.290384
Almelosestraat,9,,,7495TG,Ambt Delden,Hof van Twente,Overijssel,VBO,6.668177,52.290615
Almelosestraat,11,,BUNK,7495TG,Ambt Delden,Hof van Twente,Overijssel,VBO,6.668576,52.291039
Almelosestraat,13,a,,7495TG,Ambt Delden,Hof van Twente,Overijssel,VBO,6.674489,52.292937
Almelosestraat,13,,,7495TG,Ambt Delden,Hof van Twente,Overijssel,VBO,6.674759,52.293150
Almelosestraat,15,,,7495TG,Ambt Delden,Hof van Twente,Overijssel,VBO,6.671282,52.290509
Almelosestraat,17,a,,7495TG,Ambt Delden,Hof van Twente,Overijssel,VBO,6.675075,52.289887
Almelosestraat,17,,,7495TG,Ambt Delden,Hof van Twente,Overijssel,VBO,6.674608,52.289449
Almelosestraat,19,,,7495TG,Ambt Delden,Hof van Twente,Overijssel,VBO,6.670693,52.286875
Almelosestraat,21,,,7495TG,Ambt Delden,Hof van Twente,Overijssel,VBO,6.671510,52.285231
Almelosestraat,25,,,7495TG,Ambt Delden,Hof van Twente,Overijssel,VBO,6.675349,52.281620
Almelosestraat,27,a,,7495TG,Ambt Delden,Hof van Twente,Overijssel,VBO,6.687945,52.273964
Almelosestraat,27,,,7495TG,Ambt Delden,Hof van Twente,Overijssel,VBO,6.687871,52.273843
Almelosestraat,29,a,,7495TG,Ambt Delden,Hof van Twente,Overijssel,VBO,6.692072,52.274165
Almelosestraat,29,,,7495TG,Ambt Delden,Hof van Twente,Overijssel,VBO,6.691798,52.274339
Almelosestraat,31,,,7495TG,Ambt Delden,Hof van Twente,Overijssel,VBO,6.696567,52.272048
Almelosestraat,10,,,7495TH,Ambt Delden,Hof van Twente,Overijssel,VBO,6.665310,52.289792
Almelosestraat,12,a,stoe,7495TH,Ambt Delden,Hof van Twente,Overijssel,VBO,6.664247,52.289986
Almelosestraat,12,,,7495TH,Ambt Delden,Hof van Twente,Overijssel,VBO,6.664690,52.289655
Almelosestraat,14,,,7495TH,Ambt Delden,Hof van Twente,Overijssel,VBO,6.663980,52.287910
Almelosestraat,16,,,7495TH,Ambt Delden,Hof van Twente,Overijssel,VBO,6.664406,52.287923
Almelosestraat,18,,,7495TH,Ambt Delden,Hof van Twente,Overijssel,VBO,6.666469,52.287299
Almelosestraat,20,,TR,7495TH,Ambt Delden,Hof van Twente,Overijssel,VBO,6.669588,52.286641
Almelosestraat,20,,,7495TH,Ambt Delden,Hof van Twente,Overijssel,VBO,6.670243,52.286008
Almelosestraat,22,a,,7495TH,Ambt Delden,Hof van Twente,Overijssel,VBO,6.670719,52.284866
Almelosestraat,22,,,7495TH,Ambt Delden,Hof van Twente,Overijssel,VBO,6.671003,52.284904
Almelosestraat,24,,,7495TH,Ambt Delden,Hof van Twente,Overijssel,VBO,6.672487,52.282002
Almelosestraat,26,a,,7495TH,Ambt Delden,Hof van Twente,Overijssel,VBO,6.674855,52.276736
Almelosestraat,26,,CAMP,7495TH,Ambt Delden,Hof van Twente,Overijssel,VBO,6.675420,52.277049
Almelosestraat,26,,,7495TH,Ambt Delden,Hof van Twente,Overijssel,VBO,6.674843,52.276826
Almelosestraat,28,,,7495TH,Ambt Delden,Hof van Twente,Overijssel,VBO,6.685406,52.272216
Almelosestraat,32,,,7495TH,Ambt Delden,Hof van Twente,Overijssel,VBO,6.690265,52.268531
Almelosestraat,34,,,7495TH,Ambt Delden,Hof van Twente,Overijssel,VBO,6.693704,52.267387
Krudersweg,1,a,,7495TJ,Ambt Delden,Hof van Twente,Overijssel,VBO,6.678058,52.286322
Krudersweg,1,,,7495TJ,Ambt Delden,Hof van Twente,Overijssel,VBO,6.680712,52.288141
Krudersweg,2,,,7495TJ,Ambt Delden,Hof van Twente,Overijssel,VBO,6.680487,52.285960
Krudersweg,3,a,,7495TJ,Ambt Delden,Hof van Twente,Overijssel,VBO,6.677165,52.286874
Krudersweg,3,b,,7495TJ,Ambt Delden,Hof van Twente,Overijssel,VBO,6.676340,52.286956
Krudersweg,3,,,7495TJ,Ambt Delden,Hof van Twente,Overijssel,VBO,6.676958,52.286086
Krudersweg,4,,,7495TJ,Ambt Delden,Hof van Twente,Overijssel,VBO,6.681552,52.286308
Krudersweg,5,,,7495TJ,Ambt Delden,Hof van Twente,Overijssel,VBO,6.676057,52.285341
Krudersweg,6,,,7495TJ,Ambt Delden,Hof van Twente,Overijssel,VBO,6.684941,52.286900
Krudersweg,7,,,7495TJ,Ambt Delden,Hof van Twente,Overijssel,VBO,6.675449,52.285190
Krudersweg,8,,,7495TJ,Ambt Delden,Hof van Twente,Overijssel,VBO,6.686610,52.286324
Krudersweg,9,,,7495TJ,Ambt Delden,Hof van Twente,Overijssel,VBO,6.675671,52.285515
Krudersweg,10,,,7495TJ,Ambt Delden,Hof van Twente,Overijssel,VBO,6.684816,52.287647
Krudersweg,11,,,7495TJ,Ambt Delden,Hof van Twente,Overijssel,VBO,6.674127,52.284986
Krudersweg,12,,,7495TJ,Ambt Delden,Hof van Twente,Overijssel,VBO,6.691154,52.288845
Blokstegenweg,1,a,,7495TK,Ambt Delden,Hof van Twente,Overijssel,VBO,6.684363,52.296298
Blokstegenweg,1,b,,7495TK,Ambt Delden,Hof van Twente,Overijssel,VBO,6.683709,52.295997
Blokstegenweg,1,c,,7495TK,Ambt Delden,Hof van Twente,Overijssel,VBO,6.683647,52.296497
Blokstegenweg,1,e,,7495TK,Ambt Delden,Hof van Twente,Overijssel,VBO,6.709292,52.298898
Blokstegenweg,1,,,7495TK,Ambt Delden,Hof van Twente,Overijssel,VBO,6.684269,52.296231
Blokstegenweg,2,,,7495TK,Ambt Delden,Hof van Twente,Overijssel,VBO,6.684949,52.295214
Blokstegenweg,3,a,,7495TK,Ambt Delden,Hof van Twente,Overijssel,VBO,6.711662,52.299585
Blokstegenweg,3,,,7495TK,Ambt Delden,Hof van Twente,Overijssel,VBO,6.712103,52.299236
Blokstegenweg,4,,,7495TK,Ambt Delden,Hof van Twente,Overijssel,VBO,6.691197,52.296305
Blokstegenweg,5,a,,7495TK,Ambt Delden,Hof van Twente,Overijssel,VBO,6.716329,52.299378
Blokstegenweg,5,,,7495TK,Ambt Delden,Hof van Twente,Overijssel,VBO,6.715228,52.299300
Blokstegenweg,6,,,7495TK,Ambt Delden,Hof van Twente,Overijssel,VBO,6.691797,52.296262
Grote Looweg,2,,,7495TL,Ambt Delden,Hof van Twente,Overijssel,VBO,6.668608,52.297055
Grote Looweg,4,,TR,7495TL,Ambt Delden,Hof van Twente,Overijssel,VBO,6.677265,52.295408
Grote Looweg,4,,,7495TL,Ambt Delden,Hof van Twente,Overijssel,VBO,6.677965,52.295401
Grote Looweg,5,,,7495TL,Ambt Delden,Hof van Twente,Overijssel,VBO,6.679503,52.300011
Grote Looweg,7,,,7495TL,Ambt Delden,Hof van Twente,Overijssel,VBO,6.681201,52.298896
Grote Looweg,9,,,7495TL,Ambt Delden,Hof van Twente,Overijssel,VBO,6.682144,52.298544
Grote Looweg,11,,,7495TL,Ambt Delden,Hof van Twente,Overijssel,VBO,6.684327,52.294502
Grote Looweg,13,,,7495TL,Ambt Delden,Hof van Twente,Overijssel,VBO,6.688401,52.292453
Stovelerweg,1,,,7495TM,Ambt Delden,Hof van Twente,Overijssel,VBO,6.683921,52.302686
Stovelerweg,2,,,7495TM,Ambt Delden,Hof van Twente,Overijssel,VBO,6.674336,52.300822
Stovelerweg,3,,,7495TM,Ambt Delden,Hof van Twente,Overijssel,VBO,6.681207,52.304127
Stovelerweg,4,a,,7495TM,Ambt Delden,Hof van Twente,Overijssel,VBO,6.671120,52.298098
Stovelerweg,4,,,7495TM,Ambt Delden,Hof van Twente,Overijssel,VBO,6.671370,52.298122
Benninkstraat,1,,,7495TP,Ambt Delden,Hof van Twente,Overijssel,VBO,6.666553,52.276449
Benninkstraat,3,,,7495TP,Ambt Delden,Hof van Twente,Overijssel,VBO,6.666580,52.276376
Oude Veenweg,1,,,7495TS,Ambt Delden,Hof van Twente,Overijssel,VBO,6.692818,52.306552
Oude Veenweg,2,,,7495TS,Ambt Delden,Hof van Twente,Overijssel,VBO,6.699233,52.307817
Oude Veenweg,3,,,7495TS,Ambt Delden,Hof van Twente,Overijssel,VBO,6.693977,52.308058
Oude Veenweg,5,,,7495TS,Ambt Delden,Hof van Twente,Overijssel,VBO,6.694063,52.308012
Oude Veenweg,7,,,7495TS,Ambt Delden,Hof van Twente,Overijssel,VBO,6.690188,52.306247
Kuipersweg,1,a,,7495TV,Ambt Delden,Hof van Twente,Overijssel,VBO,6.711792,52.303563
Kuipersweg,3,,,7495TV,Ambt Delden,Hof van Twente,Overijssel,VBO,6.712387,52.302681
Kuipersweg,4,,,7495TV,Ambt Delden,Hof van Twente,Overijssel,VBO,6.710980,52.302404
Kuipersweg,5,a,,7495TV,Ambt Delden,Hof van Twente,Overijssel,VBO,6.713462,52.300552
Kuipersweg,5,,,7495TV,Ambt Delden,Hof van Twente,Overijssel,VBO,6.713236,52.301363
Kuipersweg,6,,,7495TV,Ambt Delden,Hof van Twente,Overijssel,VBO,6.711194,52.301394
Kuipersweg,7,,,7495TV,Ambt Delden,Hof van Twente,Overijssel,VBO,6.713834,52.299756
Kuipersweg,8,,,7495TV,Ambt Delden,Hof van Twente,Overijssel,VBO,6.711180,52.301533
Kuipersweg,9,,,7495TV,Ambt Delden,Hof van Twente,Overijssel,VBO,6.714012,52.299436
Secr. Engelbertinkstraat,1,a,,7495TW,Ambt Delden,Hof van Twente,Overijssel,VBO,6.714979,52.298359
Secr. Engelbertinkstraat,1,,,7495TW,Ambt Delden,Hof van Twente,Overijssel,VBO,6.715456,52.296655
Secr. Engelbertinkstraat,2,,,7495TW,Ambt Delden,Hof van Twente,Overijssel,VBO,6.713715,52.298248
Secr. Engelbertinkstraat,3,,,7495TW,Ambt Delden,Hof van Twente,Overijssel,VBO,6.715765,52.295690
Secr. Engelbertinkstraat,4,,,7495TW,Ambt Delden,Hof van Twente,Overijssel,VBO,6.714024,52.297786
Secr. Engelbertinkstraat,5,,TR,7495TW,Ambt Delden,Hof van Twente,Overijssel,VBO,6.714349,52.293693
Secr. Engelbertinkstraat,5,,,7495TW,Ambt Delden,Hof van Twente,Overijssel,VBO,6.715104,52.294187
Secr. Engelbertinkstraat,6,,,7495TW,Ambt Delden,Hof van Twente,Overijssel,VBO,6.714062,52.297578
Secr. Engelbertinkstraat,7,,,7495TW,Ambt Delden,Hof van Twente,Overijssel,VBO,6.709027,52.290462
Secr. Engelbertinkstraat,8,,,7495TW,Ambt Delden,Hof van Twente,Overijssel,VBO,6.714216,52.297352
Secr. Engelbertinkstraat,9,,,7495TW,Ambt Delden,Hof van Twente,Overijssel,VBO,6.712632,52.289663
Secr. Engelbertinkstraat,10,a,,7495TW,Ambt Delden,Hof van Twente,Overijssel,VBO,6.713656,52.297090
Secr. Engelbertinkstraat,10,,,7495TW,Ambt Delden,Hof van Twente,Overijssel,VBO,6.714255,52.297163
Secr. Engelbertinkstraat,12,,,7495TW,Ambt Delden,Hof van Twente,Overijssel,VBO,6.714396,52.296973
Secr. Engelbertinkstraat,14,,,7495TW,Ambt Delden,Hof van Twente,Overijssel,VBO,6.714464,52.296810
Secr. Engelbertinkstraat,16,,,7495TW,Ambt Delden,Hof van Twente,Overijssel,VBO,6.714615,52.296476
Secr. Engelbertinkstraat,18,,,7495TW,Ambt Delden,Hof van Twente,Overijssel,VBO,6.714333,52.296335
Secr. Engelbertinkstraat,20,,,7495TW,Ambt Delden,Hof van Twente,Overijssel,VBO,6.714817,52.295862
Secr. Engelbertinkstraat,22,,,7495TW,Ambt Delden,Hof van Twente,Overijssel,VBO,6.714540,52.295910
Secr. Engelbertinkstraat,24,,,7495TW,Ambt Delden,Hof van Twente,Overijssel,VBO,6.714293,52.295976
Bruggenweg,2,,,7495TX,Ambt Delden,Hof van Twente,Overijssel,VBO,6.717607,52.297485
Graasweg,1,,,7495VA,Ambt Delden,Hof van Twente,Overijssel,VBO,6.716833,52.295147
Graasweg,2,a,,7495VA,Ambt Delden,Hof van Twente,Overijssel,VBO,6.718778,52.294478
Graasweg,2,,,7495VA,Ambt Delden,Hof van Twente,Overijssel,VBO,6.721736,52.293888
Graasweg,3,,,7495VA,Ambt Delden,Hof van Twente,Overijssel,VBO,6.718678,52.295540
Graasweg,5,,,7495VA,Ambt Delden,Hof van Twente,Overijssel,VBO,6.721243,52.295538
Meijerinkveldkampsweg,1,,,7495VB,Ambt Delden,Hof van Twente,Overijssel,VBO,6.714300,52.291329
Meijerinkveldkampsweg,2,,,7495VB,Ambt Delden,Hof van Twente,Overijssel,VBO,6.717372,52.291114
Meijerinkveldkampsweg,3,,,7495VB,Ambt Delden,Hof van Twente,Overijssel,VBO,6.718365,52.292433
Meijerinkveldkampsweg,4,,,7495VB,Ambt Delden,Hof van Twente,Overijssel,VBO,6.715330,52.289118
Meijerinkveldkampsweg,5,a,,7495VB,Ambt Delden,Hof van Twente,Overijssel,VBO,6.724109,52.288457
Meijerinkveldkampsweg,5,,,7495VB,Ambt Delden,Hof van Twente,Overijssel,VBO,6.724067,52.288522
Meijerinkveldkampsweg,6,,,7495VB,Ambt Delden,Hof van Twente,Overijssel,VBO,6.715142,52.288605
Meijerinkveldkampsweg,8,,,7495VB,Ambt Delden,Hof van Twente,Overijssel,VBO,6.714832,52.288024
Meijerinkveldkampsweg,10,a,,7495VB,Ambt Delden,Hof van Twente,Overijssel,VBO,6.715339,52.287684
Meijerinkveldkampsweg,10,,,7495VB,Ambt Delden,Hof van Twente,Overijssel,VBO,6.715684,52.287610
Arkmansweg,1,,,7495VE,Ambt Delden,Hof van Twente,Overijssel,VBO,6.709282,52.295859
Arkmansweg,2,,,7495VE,Ambt Delden,Hof van Twente,Overijssel,VBO,6.706914,52.296319
Twickelerlaan,1,a,,7495VG,Ambt Delden,Hof van Twente,Overijssel,VBO,6.715019,52.266390
Twickelerlaan,1,b,,7495VG,Ambt Delden,Hof van Twente,Overijssel,VBO,6.715899,52.266852
Twickelerlaan,3,,,7495VG,Ambt Delden,Hof van Twente,Overijssel,VBO,6.716120,52.266618
Twickelerlaan,6,,,7495VG,Ambt Delden,Hof van Twente,Overijssel,VBO,6.716666,52.267509
Twickelerlaan,7,,,7495VG,Ambt Delden,Hof van Twente,Overijssel,VBO,6.714474,52.268858
Twickelerlaan,8,,,7495VG,Ambt Delden,Hof van Twente,Overijssel,VBO,6.717078,52.268061
Twickelerlaan,9,,,7495VG,Ambt Delden,Hof van Twente,Overijssel,VBO,6.712906,52.270616
Twickelerlaan,10,,,7495VG,Ambt Delden,Hof van Twente,Overijssel,VBO,6.716545,52.268355
Twickelerlaan,11,,,7495VG,Ambt Delden,Hof van Twente,Overijssel,VBO,6.711830,52.270576
Twickelerlaan,13,,,7495VG,Ambt Delden,Hof van Twente,Overijssel,VBO,6.711948,52.271466
Twickelerlaan,14,,TR,7495VG,Ambt Delden,Hof van Twente,Overijssel,VBO,6.710513,52.274154
Twickelerlaan,14,,,7495VG,Ambt Delden,Hof van Twente,Overijssel,VBO,6.711396,52.273069
Twickelerlaan,15,,,7495VG,Ambt Delden,Hof van Twente,Overijssel,VBO,6.707964,52.272946
Twickelerlaan,16,,TR,7495VG,Ambt Delden,Hof van Twente,Overijssel,VBO,6.705141,52.280001
Twickelerlaan,16,,,7495VG,Ambt Delden,Hof van Twente,Overijssel,VBO,6.707294,52.277546
Twickelerlaan,17,,,7495VG,Ambt Delden,Hof van Twente,Overijssel,VBO,6.709880,52.273814
Twickelerlaan,18,,,7495VG,Ambt Delden,Hof van Twente,Overijssel,VBO,6.706588,52.280422
Twickelerlaan,19,,,7495VG,Ambt Delden,Hof van Twente,Overijssel,VBO,6.708073,52.274176
Twickelerlaan,21,a,,7495VG,Ambt Delden,Hof van Twente,Overijssel,VBO,6.695106,52.279183
Twickelerlaan,21,,,7495VG,Ambt Delden,Hof van Twente,Overijssel,VBO,6.695384,52.279248
Twickelerlaan,23,,,7495VG,Ambt Delden,Hof van Twente,Overijssel,VBO,6.701516,52.283337
Dashaarsweg,1,,,7495VH,Ambt Delden,Hof van Twente,Overijssel,VBO,6.686567,52.281345
Dashaarsweg,2,,,7495VH,Ambt Delden,Hof van Twente,Overijssel,VBO,6.694653,52.282226
Dashaarsweg,4,,,7495VH,Ambt Delden,Hof van Twente,Overijssel,VBO,6.695054,52.282365
Lage Eschweg,1,a,TR,7495VJ,Ambt Delden,Hof van Twente,Overijssel,VBO,6.689035,52.277206
Lage Eschweg,1,a,,7495VJ,Ambt Delden,Hof van Twente,Overijssel,VBO,6.684705,52.276808
Lage Eschweg,2,,,7495VJ,Ambt Delden,Hof van Twente,Overijssel,VBO,6.691437,52.275997
Lage Eschweg,3,,,7495VJ,Ambt Delden,Hof van Twente,Overijssel,VBO,6.694336,52.276926
Lage Eschweg,4,a,,7495VJ,Ambt Delden,Hof van Twente,Overijssel,VBO,6.693474,52.275654
Lage Eschweg,4,,,7495VJ,Ambt Delden,Hof van Twente,Overijssel,VBO,6.693431,52.275781
Lage Eschweg,6,,,7495VJ,Ambt Delden,Hof van Twente,Overijssel,VBO,6.694600,52.273939
Noordmolen,1,a,,7495VK,Ambt Delden,Hof van Twente,Overijssel,VBO,6.713381,52.278148
Noordmolen,1,,,7495VK,Ambt Delden,Hof van Twente,Overijssel,VBO,6.713285,52.278202
Noordmolen,3,,,7495VK,Ambt Delden,Hof van Twente,Overijssel,VBO,6.713271,52.279430
Noordmolen,5,,,7495VK,Ambt Delden,Hof van Twente,Overijssel,VBO,6.715980,52.277444
Noordmolen,7,,,7495VK,Ambt Delden,Hof van Twente,Overijssel,VBO,6.717532,52.278321
Noordmolen,9,,,7495VK,Ambt Delden,Hof van Twente,Overijssel,VBO,6.719376,52.278750
Bornsestraat,1,,,7495VL,Ambt Delden,Hof van Twente,Overijssel,VBO,6.708512,52.269200
Bornsestraat,2,,,7495VL,Ambt Delden,Hof van Twente,Overijssel,VBO,6.728721,52.279561
Bornsestraat,3,,,7495VL,Ambt Delden,Hof van Twente,Overijssel,VBO,6.710631,52.270507
Bornsestraat,5,,,7495VL,Ambt Delden,Hof van Twente,Overijssel,VBO,6.719030,52.275986
Bornsestraat,7,,,7495VL,Ambt Delden,Hof van Twente,Overijssel,VBO,6.726765,52.282730
Bornsevoetpad,1,,,7495VM,Ambt Delden,Hof van Twente,Overijssel,VBO,6.730912,52.272510
Bornsevoetpad,2,,,7495VM,Ambt Delden,Hof van Twente,Overijssel,VBO,6.729291,52.271249
Bornsevoetpad,3,,,7495VM,Ambt Delden,Hof van Twente,Overijssel,VBO,6.731001,52.272551
Bornsevoetpad,4,,,7495VM,Ambt Delden,Hof van Twente,Overijssel,VBO,6.729395,52.271302
Bornsevoetpad,5,,,7495VM,Ambt Delden,Hof van Twente,Overijssel,VBO,6.728828,52.271499
Bornsevoetpad,7,,,7495VM,Ambt Delden,Hof van Twente,Overijssel,VBO,6.717832,52.268784
Schievenweg,1,,,7495VN,Ambt Delden,Hof van Twente,Overijssel,VBO,6.699800,52.304650
Schievenweg,3,,,7495VN,Ambt Delden,Hof van Twente,Overijssel,VBO,6.706259,52.294016
Burenweg,91,,,7495VP,Ambt Delden,Hof van Twente,Overijssel,VBO,6.745141,52.279257
Hamsweg,9,,,7495VR,Ambt Delden,Hof van Twente,Overijssel,VBO,6.747927,52.273589
Spiekerweg,20,,,7495VS,Ambt Delden,Hof van Twente,Overijssel,VBO,6.743103,52.276341
Petzoldweg,1,,,7495VT,Ambt Delden,Hof van Twente,Overijssel,VBO,6.740297,52.266494
Petzoldweg,2,,,7495VT,Ambt Delden,Hof van Twente,Overijssel,VBO,6.743839,52.266364
Petzoldweg,11,,,7495VT,Ambt Delden,Hof van Twente,Overijssel,VBO,6.737802,52.269256
Petzoldweg,15,,,7495VT,Ambt Delden,Hof van Twente,Overijssel,VBO,6.737573,52.270867
Voetpad van Delden naar Borne,26,,,7495VV,Ambt Delden,Hof van Twente,Overijssel,VBO,6.736849,52.279361
Veldweg,1,,,7495VX,Ambt Delden,Hof van Twente,Overijssel,VBO,6.733885,52.288000
Veldweg,5,a,,7495VX,Ambt Delden,Hof van Twente,Overijssel,VBO,6.734148,52.284153
Veldweg,5,,,7495VX,Ambt Delden,Hof van Twente,Overijssel,VBO,6.734231,52.284072
Zonnig Spoor,2,,,7495VZ,Ambt Delden,Hof van Twente,Overijssel,VBO,6.733635,52.288175
Zonnig Spoor,5,,,7495VZ,Ambt Delden,Hof van Twente,Overijssel,VBO,6.733618,52.288563
Holtkampsweg,1,,,7495WD,Ambt Delden,Hof van Twente,Overijssel,VBO,6.642656,52.288507
Holtkampsweg,2,,,7495WD,Ambt Delden,Hof van Twente,Overijssel,VBO,6.645660,52.287468
Holtkampsweg,4,a,,7495WD,Ambt Delden,Hof van Twente,Overijssel,VBO,6.646153,52.289342
Holtkampsweg,4,,,7495WD,Ambt Delden,Hof van Twente,Overijssel,VBO,6.646275,52.289262
Holtkampsweg,6,,,7495WD,Ambt Delden,Hof van Twente,Overijssel,VBO,6.652944,52.289997
Holtkampsweg,8,,,7495WD,Ambt Delden,Hof van Twente,Overijssel,VBO,6.652772,52.289100
Holtkampsweg,10,,,7495WD,Ambt Delden,Hof van Twente,Overijssel,VBO,6.660496,52.292649
Holtkampsweg,12,,TR,7495WD,Ambt Delden,Hof van Twente,Overijssel,VBO,6.661677,52.292670
Holtkampsweg,12,,,7495WD,Ambt Delden,Hof van Twente,Overijssel,VBO,6.661840,52.292481
Holtkampsweg,14,,,7495WD,Ambt Delden,Hof van Twente,Overijssel,VBO,6.660914,52.293426
Dekkersweg,3,,,7495WJ,Ambt Delden,Hof van Twente,Overijssel,VBO,6.745293,52.253538
Dekkersweg,7,,,7495WJ,Ambt Delden,Hof van Twente,Overijssel,VBO,6.743654,52.255993
Deldenerstraat,529,,,7495WK,Ambt Delden,Hof van Twente,Overijssel,VBO,6.746507,52.263538
Deldenerstraat,573,,,7495WK,Ambt Delden,Hof van Twente,Overijssel,VBO,6.737077,52.264185
Genselerweg,25,,,7495WL,Ambt Delden,Hof van Twente,Overijssel,VBO,6.750517,52.260543
Genselerweg,29,,,7495WL,Ambt Delden,Hof van Twente,Overijssel,VBO,6.750533,52.259821
Genselerweg,31,,,7495WL,Ambt Delden,Hof van Twente,Overijssel,VBO,6.750661,52.259786
Genselerweg,45,,,7495WL,Ambt Delden,Hof van Twente,Overijssel,VBO,6.748114,52.260544
Kalkboerweg,15,,,7495WN,Ambt Delden,Hof van Twente,Overijssel,VBO,6.741958,52.263724
Kalkboerweg,17,,,7495WN,Ambt Delden,Hof van Twente,Overijssel,VBO,6.741877,52.263695
Kanaaldijk,38,,,7495WP,Ambt Delden,Hof van Twente,Overijssel,VBO,6.738551,52.252429
Kanaaldijk,40,,,7495WP,Ambt Delden,Hof van Twente,Overijssel,VBO,6.738622,52.252356
Kanaaldijk,44,a,,7495WP,Ambt Delden,Hof van Twente,Overijssel,VBO,6.732979,52.253474
Kanaaldijk,44,,,7495WP,Ambt Delden,Hof van Twente,Overijssel,VBO,6.733063,52.253058
Loofrietweg,12,,,7495WR,Ambt Delden,Hof van Twente,Overijssel,VBO,6.746383,52.259009
Loofrietweg,13,,,7495WR,Ambt Delden,Hof van Twente,Overijssel,VBO,6.746911,52.259039
Loofrietweg,15,,,7495WR,Ambt Delden,Hof van Twente,Overijssel,VBO,6.746861,52.258841
Loofrietweg,38,,,7495WR,Ambt Delden,Hof van Twente,Overijssel,VBO,6.750573,52.254385
Loofrietweg,40,a,,7495WR,Ambt Delden,Hof van Twente,Overijssel,VBO,6.751590,52.255453
Loofrietweg,40,b,,7495WR,Ambt Delden,Hof van Twente,Overijssel,VBO,6.749577,52.256716
Loofrietweg,40,,,7495WR,Ambt Delden,Hof van Twente,Overijssel,VBO,6.750737,52.254011
Barloseweg,4,,,7495XX,Ambt Delden,Hof van Twente,Overijssel,VBO,6.604836,52.265189
