openbareruimtenaam,huisnummer,huisletter,huisnummertoevoeging,postcode,woonplaatsnaam,gemeentenaam,provincienaam,typeadresseerbaarobject,longitude,latitude
Pastoor Eppinkstraat,8,,,7554MA,Hengelo,Hengelo,Overijssel,VBO,6.746125,52.212622
Pastoor Eppinkstraat,10,,,7554MA,Hengelo,Hengelo,Overijssel,VBO,6.745859,52.212614
Pastoor Eppinkstraat,12,,,7554MA,Hengelo,Hengelo,Overijssel,VBO,6.745684,52.212634
Pastoor Eppinkstraat,14,,,7554MA,Hengelo,Hengelo,Overijssel,VBO,6.745526,52.212645
Pastoor Eppinkstraat,16,,,7554MA,Hengelo,Hengelo,Overijssel,VBO,6.745323,52.212669
Pastoor Eppinkstraat,18,,,7554MA,Hengelo,Hengelo,Overijssel,VBO,6.745115,52.212627
Pastoor Eppinkstraat,20,,,7554MA,Hengelo,Hengelo,Overijssel,VBO,6.744922,52.212538
Pastoor Eppinkstraat,22,,,7554MA,Hengelo,Hengelo,Overijssel,VBO,6.744825,52.212520
Pastoor Eppinkstraat,24,,,7554MA,Hengelo,Hengelo,Overijssel,VBO,6.744650,52.212488
Pastoor Eppinkstraat,26,,,7554MA,Hengelo,Hengelo,Overijssel,VBO,6.744550,52.212493
Pastoor Eppinkstraat,28,,,7554MA,Hengelo,Hengelo,Overijssel,VBO,6.744364,52.212513
Pastoor Eppinkstraat,30,,,7554MA,Hengelo,Hengelo,Overijssel,VBO,6.744274,52.212316
Pastoor Eppinkstraat,32,,,7554MA,Hengelo,Hengelo,Overijssel,VBO,6.744629,52.212281
Pastoor Eppinkstraat,34,,,7554MA,Hengelo,Hengelo,Overijssel,VBO,6.744600,52.212157
Pastoor Eppinkstraat,36,,,7554MA,Hengelo,Hengelo,Overijssel,VBO,6.744578,52.212062
Pastoor Eppinkstraat,38,,,7554MA,Hengelo,Hengelo,Overijssel,VBO,6.744564,52.212009
Pastoor Eppinkstraat,40,,,7554MA,Hengelo,Hengelo,Overijssel,VBO,6.744535,52.211898
Pastoor Eppinkstraat,42,,,7554MA,Hengelo,Hengelo,Overijssel,VBO,6.744522,52.211843
Pastoor Eppinkstraat,44,,,7554MA,Hengelo,Hengelo,Overijssel,VBO,6.744334,52.211720
Pastoor Eppinkstraat,46,,,7554MA,Hengelo,Hengelo,Overijssel,VBO,6.744263,52.211557
Pastoor Eppinkstraat,15,,,7554MB,Hengelo,Hengelo,Overijssel,VBO,6.745660,52.212444
Pastoor Eppinkstraat,19,,,7554MB,Hengelo,Hengelo,Overijssel,VBO,6.745075,52.212363
Pastoor Eppinkstraat,21,,,7554MB,Hengelo,Hengelo,Overijssel,VBO,6.745058,52.212310
Pastoor Eppinkstraat,23,,,7554MB,Hengelo,Hengelo,Overijssel,VBO,6.745050,52.212260
Pastoor Eppinkstraat,25,,,7554MB,Hengelo,Hengelo,Overijssel,VBO,6.745038,52.212216
Pastoor Eppinkstraat,27,,,7554MB,Hengelo,Hengelo,Overijssel,VBO,6.744913,52.212131
Pastoor Eppinkstraat,29,,,7554MB,Hengelo,Hengelo,Overijssel,VBO,6.744899,52.212081
Pastoor Eppinkstraat,31,,,7554MB,Hengelo,Hengelo,Overijssel,VBO,6.744874,52.211974
Pastoor Eppinkstraat,33,,,7554MB,Hengelo,Hengelo,Overijssel,VBO,6.744861,52.211921
Pastoor Eppinkstraat,35,,,7554MB,Hengelo,Hengelo,Overijssel,VBO,6.744877,52.211796
Pastoor Eppinkstraat,37,,,7554MB,Hengelo,Hengelo,Overijssel,VBO,6.744864,52.211747
Pastoor Eppinkstraat,43,,,7554MB,Hengelo,Hengelo,Overijssel,VBO,6.745157,52.211561
Pastoor Eppinkstraat,45,,,7554MB,Hengelo,Hengelo,Overijssel,VBO,6.744875,52.211575
Pastoor Eppinkstraat,47,,,7554MB,Hengelo,Hengelo,Overijssel,VBO,6.744798,52.211582
Pastoor Eppinkstraat,49,,,7554MB,Hengelo,Hengelo,Overijssel,VBO,6.744719,52.211589
Pastoor Eppinkstraat,51,,,7554MB,Hengelo,Hengelo,Overijssel,VBO,6.744637,52.211597
Pastoor Eppinkstraat,48,,,7554MC,Hengelo,Hengelo,Overijssel,VBO,6.744270,52.211414
Pastoor Eppinkstraat,50,,,7554MC,Hengelo,Hengelo,Overijssel,VBO,6.744237,52.211279
Pastoor Eppinkstraat,54,,,7554MC,Hengelo,Hengelo,Overijssel,VBO,6.744193,52.211135
Pastoor Eppinkstraat,56,,,7554MC,Hengelo,Hengelo,Overijssel,VBO,6.744276,52.210992
Pastoor Eppinkstraat,58,,,7554MC,Hengelo,Hengelo,Overijssel,VBO,6.744251,52.210875
Pastoor Eppinkstraat,60,,,7554MC,Hengelo,Hengelo,Overijssel,VBO,6.744164,52.210762
Pastoor Eppinkstraat,64,,,7554MC,Hengelo,Hengelo,Overijssel,VBO,6.744714,52.210412
Pastoor Eppinkstraat,68,,,7554MC,Hengelo,Hengelo,Overijssel,VBO,6.745084,52.210541
Pastoor Eppinkstraat,70,,,7554MC,Hengelo,Hengelo,Overijssel,VBO,6.745282,52.210612
Pastoor Eppinkstraat,74,,,7554MC,Hengelo,Hengelo,Overijssel,VBO,6.745570,52.210719
Pastoor Eppinkstraat,76,,,7554MC,Hengelo,Hengelo,Overijssel,VBO,6.745652,52.210765
Pastoor Eppinkstraat,78,,,7554MC,Hengelo,Hengelo,Overijssel,VBO,6.745713,52.210968
Meester Verbernestraat,2,,,7554MD,Hengelo,Hengelo,Overijssel,VBO,6.746265,52.212045
Meester Verbernestraat,3,,,7554MD,Hengelo,Hengelo,Overijssel,VBO,6.745698,52.211598
Meester Verbernestraat,4,,,7554MD,Hengelo,Hengelo,Overijssel,VBO,6.745917,52.211960
Meester Verbernestraat,5,,,7554MD,Hengelo,Hengelo,Overijssel,VBO,6.745815,52.211555
Meester Verbernestraat,6,,,7554MD,Hengelo,Hengelo,Overijssel,VBO,6.745789,52.211902
Meester Verbernestraat,7,,,7554MD,Hengelo,Hengelo,Overijssel,VBO,6.745991,52.211449
Meester Verbernestraat,8,,,7554MD,Hengelo,Hengelo,Overijssel,VBO,6.745636,52.211826
Meester Verbernestraat,9,,,7554MD,Hengelo,Hengelo,Overijssel,VBO,6.746105,52.211310
Meester Verbernestraat,10,,,7554MD,Hengelo,Hengelo,Overijssel,VBO,6.745553,52.211790
Meester Verbernestraat,11,,,7554MD,Hengelo,Hengelo,Overijssel,VBO,6.746150,52.211245
Meester Verbernestraat,12,,,7554MD,Hengelo,Hengelo,Overijssel,VBO,6.745282,52.211707
Meester Verbernestraat,28,,,7554MD,Hengelo,Hengelo,Overijssel,VBO,6.745230,52.211457
Meester Verbernestraat,30,,,7554MD,Hengelo,Hengelo,Overijssel,VBO,6.745199,52.211336
Meester Verbernestraat,32,,,7554MD,Hengelo,Hengelo,Overijssel,VBO,6.745203,52.211275
Meester Verbernestraat,34,,,7554MD,Hengelo,Hengelo,Overijssel,VBO,6.745317,52.211148
Meester Verbernestraat,40,,,7554MD,Hengelo,Hengelo,Overijssel,VBO,6.745871,52.210988
Meester Verbernestraat,42,,,7554MD,Hengelo,Hengelo,Overijssel,VBO,6.746041,52.210982
Meester Verbernestraat,44,,,7554MD,Hengelo,Hengelo,Overijssel,VBO,6.746266,52.211029
Meester Verbernestraat,46,,,7554MD,Hengelo,Hengelo,Overijssel,VBO,6.746449,52.211101
Meester Verbernestraat,48,,,7554MD,Hengelo,Hengelo,Overijssel,VBO,6.746692,52.211194
Meester Verbernestraat,50,,,7554MD,Hengelo,Hengelo,Overijssel,VBO,6.746853,52.211285
Pastoor Eppinkstraat,53,,,7554ME,Hengelo,Hengelo,Overijssel,VBO,6.744585,52.211374
Pastoor Eppinkstraat,55,,,7554ME,Hengelo,Hengelo,Overijssel,VBO,6.744570,52.211317
Pastoor Eppinkstraat,57,,,7554ME,Hengelo,Hengelo,Overijssel,VBO,6.744575,52.211185
Pastoor Eppinkstraat,63,,,7554ME,Hengelo,Hengelo,Overijssel,VBO,6.744668,52.210986
Pastoor Eppinkstraat,67,,,7554ME,Hengelo,Hengelo,Overijssel,VBO,6.744643,52.210785
Pastoor Eppinkstraat,69,,,7554ME,Hengelo,Hengelo,Overijssel,VBO,6.744769,52.210646
Pastoor Eppinkstraat,73,,,7554ME,Hengelo,Hengelo,Overijssel,VBO,6.745078,52.210746
Pastoor Eppinkstraat,75,,,7554ME,Hengelo,Hengelo,Overijssel,VBO,6.745152,52.210774
Pastoor Eppinkstraat,77,,,7554ME,Hengelo,Hengelo,Overijssel,VBO,6.745383,52.210948
Pastoor Eppinkstraat,79,,,7554ME,Hengelo,Hengelo,Overijssel,VBO,6.745349,52.211086
Pastoor Geertmanstraat,2,,,7554MG,Hengelo,Hengelo,Overijssel,VBO,6.746329,52.212412
Pastoor Geertmanstraat,4,,,7554MG,Hengelo,Hengelo,Overijssel,VBO,6.746327,52.212288
Pastoor Geertmanstraat,6,,,7554MG,Hengelo,Hengelo,Overijssel,VBO,6.746317,52.212178
Pastoor Geertmanstraat,10,,,7554MG,Hengelo,Hengelo,Overijssel,VBO,6.746306,52.211856
Pastoor Geertmanstraat,12,,,7554MG,Hengelo,Hengelo,Overijssel,VBO,6.746339,52.211744
Pastoor Geertmanstraat,14,,,7554MG,Hengelo,Hengelo,Overijssel,VBO,6.746418,52.211675
Pastoor Geertmanstraat,16,,,7554MG,Hengelo,Hengelo,Overijssel,VBO,6.746592,52.211600
Pastoor Geertmanstraat,18,,,7554MG,Hengelo,Hengelo,Overijssel,VBO,6.746786,52.211535
Pastoor Geertmanstraat,20,,,7554MG,Hengelo,Hengelo,Overijssel,VBO,6.747105,52.211428
Pastoor Geertmanstraat,22,,,7554MG,Hengelo,Hengelo,Overijssel,VBO,6.747340,52.211296
Platinastraat,2,,,7554NA,Hengelo,Hengelo,Overijssel,VBO,6.764602,52.243056
Platinastraat,4,,,7554NA,Hengelo,Hengelo,Overijssel,VBO,6.764591,52.243017
Platinastraat,50,,,7554NA,Hengelo,Hengelo,Overijssel,VBO,6.762564,52.244023
Platinastraat,100,,,7554NB,Hengelo,Hengelo,Overijssel,VBO,6.761045,52.245226
Platinastraat,110,,,7554NB,Hengelo,Hengelo,Overijssel,VBO,6.760581,52.246001
Platinastraat,25,,,7554NC,Hengelo,Hengelo,Overijssel,VBO,6.761833,52.242967
Platinastraat,27,,,7554NC,Hengelo,Hengelo,Overijssel,VBO,6.761749,52.243032
Platinastraat,35,,,7554NC,Hengelo,Hengelo,Overijssel,VBO,6.761387,52.243213
Platinastraat,37,,,7554NC,Hengelo,Hengelo,Overijssel,VBO,6.761302,52.243210
Platinastraat,41,,,7554NC,Hengelo,Hengelo,Overijssel,VBO,6.761192,52.243346
Platinastraat,47,,,7554NC,Hengelo,Hengelo,Overijssel,VBO,6.761027,52.243492
Platinastraat,53,,,7554NC,Hengelo,Hengelo,Overijssel,VBO,6.760828,52.243643
Platinastraat,59,,,7554NC,Hengelo,Hengelo,Overijssel,VBO,6.759413,52.244795
Platinastraat,111,,,7554NC,Hengelo,Hengelo,Overijssel,VBO,6.763985,52.249198
Goudstraat,20,,,7554ND,Hengelo,Hengelo,Overijssel,VBO,6.761635,52.241685
Goudstraat,50,,,7554ND,Hengelo,Hengelo,Overijssel,VBO,6.760302,52.242337
Goudstraat,70,,,7554NE,Hengelo,Hengelo,Overijssel,VBO,6.759950,52.242830
Goudstraat,3,,,7554NG,Hengelo,Hengelo,Overijssel,VBO,6.763449,52.241750
Goudstraat,7,,,7554NG,Hengelo,Hengelo,Overijssel,VBO,6.763150,52.241019
Goudstraat,9,,,7554NG,Hengelo,Hengelo,Overijssel,VBO,6.762718,52.241360
Goudstraat,15,,,7554NG,Hengelo,Hengelo,Overijssel,VBO,6.762923,52.241514
Goudstraat,19,,,7554NG,Hengelo,Hengelo,Overijssel,VBO,6.763113,52.241590
Goudstraat,23,,,7554NG,Hengelo,Hengelo,Overijssel,VBO,6.763407,52.241352
Goudstraat,31,,,7554NG,Hengelo,Hengelo,Overijssel,VBO,6.762022,52.241022
Goudstraat,65,,,7554NG,Hengelo,Hengelo,Overijssel,VBO,6.759829,52.243913
Zilverstraat,10,,,7554NH,Hengelo,Hengelo,Overijssel,VBO,6.764767,52.243680
Zilverstraat,26,,,7554NH,Hengelo,Hengelo,Overijssel,VBO,6.764247,52.244087
Zilverstraat,28,,,7554NH,Hengelo,Hengelo,Overijssel,VBO,6.764189,52.244142
Zilverstraat,30,,,7554NH,Hengelo,Hengelo,Overijssel,VBO,6.764515,52.244273
Zilverstraat,5,,,7554NK,Hengelo,Hengelo,Overijssel,VBO,6.763291,52.243410
Zilverstraat,7,,,7554NK,Hengelo,Hengelo,Overijssel,VBO,6.763752,52.243702
Zilverstraat,9,,,7554NK,Hengelo,Hengelo,Overijssel,VBO,6.763339,52.243739
Aquamarijnstraat,5,,,7554NM,Hengelo,Hengelo,Overijssel,VBO,6.765107,52.240208
Aquamarijnstraat,7,,,7554NM,Hengelo,Hengelo,Overijssel,VBO,6.765709,52.239649
Aquamarijnstraat,25,,,7554NM,Hengelo,Hengelo,Overijssel,VBO,6.765849,52.239439
Aquamarijnstraat,29,,,7554NM,Hengelo,Hengelo,Overijssel,VBO,6.765950,52.239376
Aquamarijnstraat,33,,,7554NM,Hengelo,Hengelo,Overijssel,VBO,6.765980,52.239265
Aquamarijnstraat,39,,,7554NM,Hengelo,Hengelo,Overijssel,VBO,6.765962,52.239176
Aquamarijnstraat,55,,,7554NN,Hengelo,Hengelo,Overijssel,VBO,6.766336,52.238428
Aquamarijnstraat,61,,,7554NN,Hengelo,Hengelo,Overijssel,VBO,6.765977,52.238178
Aquamarijnstraat,75,,,7554NN,Hengelo,Hengelo,Overijssel,VBO,6.766248,52.237483
Aquamarijnstraat,95,,,7554NN,Hengelo,Hengelo,Overijssel,VBO,6.766609,52.236971
Aquamarijnstraat,97,,,7554NN,Hengelo,Hengelo,Overijssel,VBO,6.766728,52.236932
Aquamarijnstraat,105,,,7554NN,Hengelo,Hengelo,Overijssel,VBO,6.766942,52.236830
Aquamarijnstraat,121,,,7554NP,Hengelo,Hengelo,Overijssel,VBO,6.767341,52.236590
Aquamarijnstraat,125,,,7554NP,Hengelo,Hengelo,Overijssel,VBO,6.767515,52.236559
Aquamarijnstraat,129,,,7554NP,Hengelo,Hengelo,Overijssel,VBO,6.767674,52.236616
Aquamarijnstraat,135,,,7554NP,Hengelo,Hengelo,Overijssel,VBO,6.767848,52.236670
Aquamarijnstraat,139,,,7554NP,Hengelo,Hengelo,Overijssel,VBO,6.768022,52.236744
Aquamarijnstraat,143,,,7554NP,Hengelo,Hengelo,Overijssel,VBO,6.768196,52.236793
Aquamarijnstraat,147,,,7554NP,Hengelo,Hengelo,Overijssel,VBO,6.768183,52.236895
Aquamarijnstraat,149,,,7554NP,Hengelo,Hengelo,Overijssel,VBO,6.767920,52.237133
Aquamarijnstraat,155,,,7554NP,Hengelo,Hengelo,Overijssel,VBO,6.767710,52.237354
Aquamarijnstraat,161,,,7554NP,Hengelo,Hengelo,Overijssel,VBO,6.767695,52.237473
Aquamarijnstraat,167,,,7554NP,Hengelo,Hengelo,Overijssel,VBO,6.767415,52.237700
Aquamarijnstraat,175,,,7554NR,Hengelo,Hengelo,Overijssel,VBO,6.767162,52.237859
Aquamarijnstraat,187,,,7554NR,Hengelo,Hengelo,Overijssel,VBO,6.766926,52.238034
Aquamarijnstraat,207,,,7554NR,Hengelo,Hengelo,Overijssel,VBO,6.765938,52.238852
Aquamarijnstraat,211,,,7554NR,Hengelo,Hengelo,Overijssel,VBO,6.766102,52.238814
Aquamarijnstraat,20,,,7554NS,Hengelo,Hengelo,Overijssel,VBO,6.765000,52.239583
Aquamarijnstraat,24,,,7554NS,Hengelo,Hengelo,Overijssel,VBO,6.764835,52.239529
Aquamarijnstraat,50,,,7554NS,Hengelo,Hengelo,Overijssel,VBO,6.767740,52.236148
Aquamarijnstraat,80,,,7554NT,Hengelo,Hengelo,Overijssel,VBO,6.768632,52.237156
Aquamarijnstraat,102,,,7554NT,Hengelo,Hengelo,Overijssel,VBO,6.768293,52.237600
Aquamarijnstraat,104,,,7554NT,Hengelo,Hengelo,Overijssel,VBO,6.768182,52.237673
Aquamarijnstraat,106,,,7554NT,Hengelo,Hengelo,Overijssel,VBO,6.767982,52.237877
Aquamarijnstraat,114,,,7554NT,Hengelo,Hengelo,Overijssel,VBO,6.767718,52.238053
Aquamarijnstraat,118,,,7554NT,Hengelo,Hengelo,Overijssel,VBO,6.767404,52.238297
Aquamarijnstraat,120,,,7554NT,Hengelo,Hengelo,Overijssel,VBO,6.767198,52.238493
Aquamarijnstraat,122,,,7554NT,Hengelo,Hengelo,Overijssel,VBO,6.767307,52.238589
Wullenweg,240,,,7554NZ,Hengelo,Hengelo,Overijssel,VBO,6.763467,52.235654
Wullenweg,255,,,7554NZ,Hengelo,Hengelo,Overijssel,VBO,6.766094,52.233864
Wullenweg,301,,,7554NZ,Hengelo,Hengelo,Overijssel,VBO,6.763004,52.234381
Appelhof,2,,,7554PA,Hengelo,Hengelo,Overijssel,VBO,6.740201,52.209784
Appelhof,4,,,7554PA,Hengelo,Hengelo,Overijssel,VBO,6.740300,52.209746
Appelhof,6,,,7554PA,Hengelo,Hengelo,Overijssel,VBO,6.740407,52.209706
Appelhof,8,,,7554PA,Hengelo,Hengelo,Overijssel,VBO,6.740507,52.209667
Appelhof,10,,,7554PA,Hengelo,Hengelo,Overijssel,VBO,6.740605,52.209630
Appelhof,12,,,7554PA,Hengelo,Hengelo,Overijssel,VBO,6.740703,52.209591
Appelhof,14,,,7554PA,Hengelo,Hengelo,Overijssel,VBO,6.740231,52.209813
Appelhof,16,,,7554PA,Hengelo,Hengelo,Overijssel,VBO,6.740330,52.209777
Appelhof,18,,,7554PA,Hengelo,Hengelo,Overijssel,VBO,6.740438,52.209735
Appelhof,20,,,7554PA,Hengelo,Hengelo,Overijssel,VBO,6.740538,52.209698
Appelhof,22,,,7554PA,Hengelo,Hengelo,Overijssel,VBO,6.740635,52.209660
Appelhof,24,,,7554PA,Hengelo,Hengelo,Overijssel,VBO,6.740736,52.209621
Appelhof,26,,,7554PA,Hengelo,Hengelo,Overijssel,VBO,6.740569,52.209727
Appelhof,28,,,7554PA,Hengelo,Hengelo,Overijssel,VBO,6.740663,52.209692
Appelhof,30,,,7554PA,Hengelo,Hengelo,Overijssel,VBO,6.740767,52.209653
Haaksbergerstraat,49,,,7554PA,Hengelo,Hengelo,Overijssel,VBO,6.767163,52.247893
Haaksbergerstraat,51,,,7554PA,Hengelo,Hengelo,Overijssel,VBO,6.767123,52.247012
Haaksbergerstraat,101,,,7554PA,Hengelo,Hengelo,Overijssel,VBO,6.766630,52.244565
Haaksbergerstraat,123,,,7554PA,Hengelo,Hengelo,Overijssel,VBO,6.761435,52.234245
Haaksbergerstraat,127,,,7554PA,Hengelo,Hengelo,Overijssel,VBO,6.759997,52.231678
Haaksbergerstraat,131,,,7554PA,Hengelo,Hengelo,Overijssel,VBO,6.759697,52.231191
Haaksbergerstraat,147,,,7554PA,Hengelo,Hengelo,Overijssel,VBO,6.752736,52.225049
Haaksbergerstraat,161,,,7554PA,Hengelo,Hengelo,Overijssel,VBO,6.745658,52.217953
Haaksbergerstraat,163,,,7554PA,Hengelo,Hengelo,Overijssel,VBO,6.746055,52.217874
Haaksbergerstraat,169,,,7554PA,Hengelo,Hengelo,Overijssel,VBO,6.744913,52.217001
Haaksbergerstraat,171,,,7554PA,Hengelo,Hengelo,Overijssel,VBO,6.744885,52.216792
Haaksbergerstraat,179,,,7554PA,Hengelo,Hengelo,Overijssel,VBO,6.742449,52.212500
Haaksbergerstraat,181,,,7554PA,Hengelo,Hengelo,Overijssel,VBO,6.741880,52.212411
Haaksbergerstraat,185,,,7554PA,Hengelo,Hengelo,Overijssel,VBO,6.741082,52.210316
Haaksbergerstraat,187,,,7554PA,Hengelo,Hengelo,Overijssel,VBO,6.741327,52.210009
Haaksbergerstraat,191,A,,7554PA,Hengelo,Hengelo,Overijssel,VBO,6.739550,52.209383
Haaksbergerstraat,191,,,7554PA,Hengelo,Hengelo,Overijssel,VBO,6.739734,52.209521
Haaksbergerstraat,193,,,7554PA,Hengelo,Hengelo,Overijssel,VBO,6.739488,52.209287
Haaksbergerstraat,195,,,7554PA,Hengelo,Hengelo,Overijssel,VBO,6.739286,52.209129
Haaksbergerstraat,197,,,7554PA,Hengelo,Hengelo,Overijssel,VBO,6.739792,52.208659
Haaksbergerstraat,199,A,,7554PA,Hengelo,Hengelo,Overijssel,VBO,6.739168,52.208668
Haaksbergerstraat,199,,,7554PA,Hengelo,Hengelo,Overijssel,VBO,6.738961,52.208749
Haaksbergerstraat,205,,,7554PA,Hengelo,Hengelo,Overijssel,VBO,6.738429,52.207861
Haaksbergerstraat,50,,,7554PB,Hengelo,Hengelo,Overijssel,VBO,6.767163,52.250869
Haaksbergerstraat,124,,,7554PB,Hengelo,Hengelo,Overijssel,VBO,6.760297,52.234029
Haaksbergerstraat,128,,,7554PB,Hengelo,Hengelo,Overijssel,VBO,6.759976,52.232590
Haaksbergerstraat,130,,,7554PB,Hengelo,Hengelo,Overijssel,VBO,6.758785,52.231443
Haaksbergerstraat,140,,,7554PB,Hengelo,Hengelo,Overijssel,VBO,6.752782,52.227487
Haaksbergerstraat,146,A,,7554PB,Hengelo,Hengelo,Overijssel,VBO,6.750169,52.225402
Haaksbergerstraat,146,,,7554PB,Hengelo,Hengelo,Overijssel,VBO,6.750035,52.225449
Haaksbergerstraat,148,,,7554PB,Hengelo,Hengelo,Overijssel,VBO,6.749816,52.225190
Haaksbergerstraat,166,,,7554PB,Hengelo,Hengelo,Overijssel,VBO,6.742930,52.215032
Esmanvoetpad,11,,,7554PC,Hengelo,Hengelo,Overijssel,VBO,6.755979,52.235158
Bellersweg,7,,,7554PD,Hengelo,Hengelo,Overijssel,VBO,6.762444,52.230515
Bellersweg,8,,,7554PD,Hengelo,Hengelo,Overijssel,VBO,6.761694,52.229298
Bellersweg,10,,,7554PD,Hengelo,Hengelo,Overijssel,VBO,6.761826,52.229235
Bellersweg,10,,,7554PD,Hengelo,Hengelo,Overijssel,VBO,6.762546,52.229440
Bellersweg,11,,,7554PD,Hengelo,Hengelo,Overijssel,VBO,6.764630,52.228995
Bellersweg,13,,,7554PD,Hengelo,Hengelo,Overijssel,VBO,6.765259,52.228845
Bellersweg,14,,,7554PD,Hengelo,Hengelo,Overijssel,VBO,6.763731,52.227163
Bellersweg,15,,,7554PD,Hengelo,Hengelo,Overijssel,VBO,6.764676,52.229275
Bellersweg,15,,,7554PD,Hengelo,Hengelo,Overijssel,VBO,6.765219,52.228993
Potsenweg,2,,,7554PE,Hengelo,Hengelo,Overijssel,VBO,6.746024,52.236100
Potsenweg,4,,,7554PE,Hengelo,Hengelo,Overijssel,VBO,6.745767,52.236687
Potsenweg,6,,,7554PE,Hengelo,Hengelo,Overijssel,VBO,6.745283,52.234684
Sluitersdijk,3,,,7554PG,Hengelo,Hengelo,Overijssel,VBO,6.727211,52.244265
Sluitersdijk,24,,,7554PG,Hengelo,Hengelo,Overijssel,VBO,6.741332,52.232974
Sluitersdijk,26,,,7554PG,Hengelo,Hengelo,Overijssel,VBO,6.741540,52.231184
Sluitersdijk,29,,,7554PG,Hengelo,Hengelo,Overijssel,VBO,6.750757,52.229709
Sluitersdijk,32,,,7554PG,Hengelo,Hengelo,Overijssel,VBO,6.752166,52.228014
Sluitersdijk,35,,,7554PG,Hengelo,Hengelo,Overijssel,VBO,6.757644,52.226321
Sluitersdijk,36,,,7554PG,Hengelo,Hengelo,Overijssel,VBO,6.759401,52.222974
Sluitersdijk,38,D,PB4,7554PG,Hengelo,Hengelo,Overijssel,VBO,6.758674,52.221358
Sluitersdijk,38,D,TRB,7554PG,Hengelo,Hengelo,Overijssel,VBO,6.758136,52.221492
Sluitersdijk,38,,,7554PG,Hengelo,Hengelo,Overijssel,VBO,6.759510,52.222899
Sluitersdijk,40,,,7554PG,Hengelo,Hengelo,Overijssel,VBO,6.760817,52.221894
Sluitersdijk,42,,,7554PG,Hengelo,Hengelo,Overijssel,VBO,6.761118,52.221489
Sluitersdijk,43,,,7554PG,Hengelo,Hengelo,Overijssel,VBO,6.762103,52.222862
Geurdsweg,4,,,7554PH,Hengelo,Hengelo,Overijssel,VBO,6.744300,52.240898
Geurdsweg,14,,,7554PH,Hengelo,Hengelo,Overijssel,VBO,6.751696,52.237199
Geurdsweg,20,,,7554PH,Hengelo,Hengelo,Overijssel,VBO,6.751494,52.236964
Geurdsweg,21,,,7554PH,Hengelo,Hengelo,Overijssel,VBO,6.751198,52.236574
Geurdsweg,24,,,7554PH,Hengelo,Hengelo,Overijssel,VBO,6.748730,52.235637
Geurdsweg,25,,,7554PH,Hengelo,Hengelo,Overijssel,VBO,6.749321,52.234984
Geurdsweg,27,,,7554PH,Hengelo,Hengelo,Overijssel,VBO,6.749256,52.234548
Geurdsweg,31,,,7554PH,Hengelo,Hengelo,Overijssel,VBO,6.747665,52.231519
Geurdsweg,34,,,7554PH,Hengelo,Hengelo,Overijssel,VBO,6.745652,52.230341
Geurdsweg,36,,,7554PH,Hengelo,Hengelo,Overijssel,VBO,6.743723,52.230234
Geurdsweg,38,,,7554PH,Hengelo,Hengelo,Overijssel,VBO,6.743924,52.229529
Geurdsweg,40,,,7554PH,Hengelo,Hengelo,Overijssel,VBO,6.745955,52.228899
Geurdsweg,48,,,7554PH,Hengelo,Hengelo,Overijssel,VBO,6.744647,52.226702
Geurdsweg,52,,,7554PH,Hengelo,Hengelo,Overijssel,VBO,6.742907,52.224395
Geurdsweg,54,,,7554PH,Hengelo,Hengelo,Overijssel,VBO,6.743175,52.224304
Geurdsweg,56,,,7554PH,Hengelo,Hengelo,Overijssel,VBO,6.741584,52.223471
Geurdsweg,63,,,7554PH,Hengelo,Hengelo,Overijssel,VBO,6.743643,52.221097
Geurdsweg,64,,,7554PH,Hengelo,Hengelo,Overijssel,VBO,6.741653,52.219723
Geurdsweg,66,,,7554PH,Hengelo,Hengelo,Overijssel,VBO,6.741688,52.218346
Wolfkaterweg,3,A,,7554PJ,Hengelo,Hengelo,Overijssel,VBO,6.708585,52.221132
Wolfkaterweg,3,,,7554PJ,Hengelo,Hengelo,Overijssel,VBO,6.708487,52.221151
Wolfkaterweg,5,A,,7554PJ,Hengelo,Hengelo,Overijssel,VBO,6.709616,52.220887
Wolfkaterweg,5,,,7554PJ,Hengelo,Hengelo,Overijssel,VBO,6.710345,52.220789
Wolfkaterweg,7,,,7554PJ,Hengelo,Hengelo,Overijssel,VBO,6.712025,52.220505
Wolfkaterweg,17,,,7554PJ,Hengelo,Hengelo,Overijssel,VBO,6.722125,52.218875
Wolfkaterweg,19,,,7554PJ,Hengelo,Hengelo,Overijssel,VBO,6.722801,52.218478
Wolfkaterweg,21,,,7554PJ,Hengelo,Hengelo,Overijssel,VBO,6.723712,52.218448
Wolfkaterweg,27,,,7554PJ,Hengelo,Hengelo,Overijssel,VBO,6.728981,52.218117
Wolfkaterweg,31,,,7554PJ,Hengelo,Hengelo,Overijssel,VBO,6.733316,52.217704
Wolfkaterweg,37,,,7554PK,Hengelo,Hengelo,Overijssel,VBO,6.737741,52.217327
Wolfkaterweg,39,A,,7554PK,Hengelo,Hengelo,Overijssel,VBO,6.738973,52.217577
Wolfkaterweg,39,B,,7554PK,Hengelo,Hengelo,Overijssel,VBO,6.739327,52.217076
Wolfkaterweg,51,,,7554PK,Hengelo,Hengelo,Overijssel,VBO,6.748164,52.213565
Wolfkaterweg,53,A,,7554PK,Hengelo,Hengelo,Overijssel,VBO,6.748574,52.212940
Wolfkaterweg,53,,,7554PK,Hengelo,Hengelo,Overijssel,VBO,6.748902,52.212958
Wolfkaterweg,55,A,,7554PK,Hengelo,Hengelo,Overijssel,VBO,6.751760,52.211306
Wolfkaterweg,55,B,,7554PK,Hengelo,Hengelo,Overijssel,VBO,6.752230,52.210971
Wolfkaterweg,55,C,,7554PK,Hengelo,Hengelo,Overijssel,VBO,6.752847,52.210370
Wolfkaterweg,55,D,,7554PK,Hengelo,Hengelo,Overijssel,VBO,6.753433,52.209595
Wolfkaterweg,55,,,7554PK,Hengelo,Hengelo,Overijssel,VBO,6.750408,52.211907
Wolfkaterweg,57,A,,7554PK,Hengelo,Hengelo,Overijssel,VBO,6.754420,52.208745
Wolfkaterweg,57,B,,7554PK,Hengelo,Hengelo,Overijssel,VBO,6.754658,52.208348
Wolfkaterweg,57,,,7554PK,Hengelo,Hengelo,Overijssel,VBO,6.753529,52.209479
Wolfkaterweg,59,A,,7554PK,Hengelo,Hengelo,Overijssel,VBO,6.759758,52.207107
Wolfkaterweg,59,D,,7554PK,Hengelo,Hengelo,Overijssel,VBO,6.755551,52.207368
Wolfkaterweg,59,,,7554PK,Hengelo,Hengelo,Overijssel,VBO,6.754901,52.208115
Wolfkaterweg,61,A,,7554PK,Hengelo,Hengelo,Overijssel,VBO,6.760025,52.207847
Wolfkaterweg,61,,,7554PK,Hengelo,Hengelo,Overijssel,VBO,6.759977,52.207787
Wolfkaterweg,63,A,,7554PK,Hengelo,Hengelo,Overijssel,VBO,6.757033,52.206178
Wolfkaterweg,63,,,7554PK,Hengelo,Hengelo,Overijssel,VBO,6.756635,52.206422
Wolfkaterweg,65,A,,7554PK,Hengelo,Hengelo,Overijssel,VBO,6.762234,52.206429
Wolfkaterweg,65,,,7554PK,Hengelo,Hengelo,Overijssel,VBO,6.761696,52.206987
Wolfkaterweg,67,,,7554PK,Hengelo,Hengelo,Overijssel,VBO,6.763242,52.206071
Wolfkaterweg,69,,,7554PK,Hengelo,Hengelo,Overijssel,VBO,6.758119,52.204540
Wolfkaterweg,71,,,7554PL,Hengelo,Hengelo,Overijssel,VBO,6.759099,52.203699
Wolfkaterweg,73,,,7554PL,Hengelo,Hengelo,Overijssel,VBO,6.759654,52.202881
Wolfkaterweg,75,,,7554PL,Hengelo,Hengelo,Overijssel,VBO,6.764783,52.202252
Wolfkaterweg,77,,,7554PL,Hengelo,Hengelo,Overijssel,VBO,6.761273,52.201293
Wolfkaterweg,79,,,7554PL,Hengelo,Hengelo,Overijssel,VBO,6.761916,52.200309
Wolfkaterweg,85,,,7554PL,Hengelo,Hengelo,Overijssel,VBO,6.764805,52.198518
Wolfkaterweg,2,,,7554PM,Hengelo,Hengelo,Overijssel,VBO,6.704325,52.219447
Wolfkaterweg,4,,,7554PM,Hengelo,Hengelo,Overijssel,VBO,6.706124,52.221041
Wolfkaterweg,6,,,7554PM,Hengelo,Hengelo,Overijssel,VBO,6.707566,52.220846
Wolfkaterweg,22,,,7554PM,Hengelo,Hengelo,Overijssel,VBO,6.728204,52.217317
Wolfkaterweg,24,,,7554PM,Hengelo,Hengelo,Overijssel,VBO,6.728884,52.217150
Wolfkaterweg,32,,,7554PM,Hengelo,Hengelo,Overijssel,VBO,6.737309,52.216862
Wolfkaterweg,34,,R001,7554PM,Hengelo,Hengelo,Overijssel,VBO,6.738589,52.216758
Wolfkaterweg,34,,R002,7554PM,Hengelo,Hengelo,Overijssel,VBO,6.738749,52.216620
Wolfkaterweg,34,,R003,7554PM,Hengelo,Hengelo,Overijssel,VBO,6.738798,52.216436
Wolfkaterweg,34,,R004,7554PM,Hengelo,Hengelo,Overijssel,VBO,6.739137,52.216480
Wolfkaterweg,34,,R005,7554PM,Hengelo,Hengelo,Overijssel,VBO,6.739171,52.216619
Wolfkaterweg,34,,R006,7554PM,Hengelo,Hengelo,Overijssel,VBO,6.739435,52.216685
Wolfkaterweg,34,,R007,7554PM,Hengelo,Hengelo,Overijssel,VBO,6.739683,52.216640
Wolfkaterweg,34,,R008,7554PM,Hengelo,Hengelo,Overijssel,VBO,6.739731,52.216502
Wolfkaterweg,34,,R009,7554PM,Hengelo,Hengelo,Overijssel,VBO,6.739601,52.216352
Wolfkaterweg,34,,R010,7554PM,Hengelo,Hengelo,Overijssel,VBO,6.739380,52.216346
Wolfkaterweg,34,,R011,7554PM,Hengelo,Hengelo,Overijssel,VBO,6.739245,52.216105
Wolfkaterweg,34,,R012,7554PM,Hengelo,Hengelo,Overijssel,VBO,6.739488,52.216083
Wolfkaterweg,34,,R013,7554PM,Hengelo,Hengelo,Overijssel,VBO,6.739769,52.216056
Wolfkaterweg,34,,R014,7554PM,Hengelo,Hengelo,Overijssel,VBO,6.740047,52.216065
Wolfkaterweg,34,,R015,7554PM,Hengelo,Hengelo,Overijssel,VBO,6.740024,52.216245
Wolfkaterweg,34,,R016,7554PM,Hengelo,Hengelo,Overijssel,VBO,6.740116,52.216369
Wolfkaterweg,34,,R017,7554PM,Hengelo,Hengelo,Overijssel,VBO,6.740349,52.216402
Wolfkaterweg,34,,R018,7554PM,Hengelo,Hengelo,Overijssel,VBO,6.740537,52.216303
Wolfkaterweg,34,,R019,7554PM,Hengelo,Hengelo,Overijssel,VBO,6.740516,52.216159
Wolfkaterweg,34,,R020,7554PM,Hengelo,Hengelo,Overijssel,VBO,6.740360,52.216030
Wolfkaterweg,34,,R021,7554PM,Hengelo,Hengelo,Overijssel,VBO,6.740717,52.215987
Wolfkaterweg,34,,R022,7554PM,Hengelo,Hengelo,Overijssel,VBO,6.740966,52.216057
Wolfkaterweg,34,,R023,7554PM,Hengelo,Hengelo,Overijssel,VBO,6.741194,52.215970
Wolfkaterweg,34,,R024,7554PM,Hengelo,Hengelo,Overijssel,VBO,6.741227,52.215834
Wolfkaterweg,34,,R025,7554PM,Hengelo,Hengelo,Overijssel,VBO,6.741060,52.215733
Wolfkaterweg,34,,R026,7554PM,Hengelo,Hengelo,Overijssel,VBO,6.741103,52.215541
Wolfkaterweg,34,,R027,7554PM,Hengelo,Hengelo,Overijssel,VBO,6.741140,52.215403
Wolfkaterweg,34,,R028,7554PM,Hengelo,Hengelo,Overijssel,VBO,6.740932,52.215324
Wolfkaterweg,34,,R029,7554PM,Hengelo,Hengelo,Overijssel,VBO,6.740680,52.215345
Wolfkaterweg,34,,R030,7554PM,Hengelo,Hengelo,Overijssel,VBO,6.740628,52.215545
Wolfkaterweg,34,,R031,7554PM,Hengelo,Hengelo,Overijssel,VBO,6.740691,52.215727
Wolfkaterweg,34,,R032,7554PM,Hengelo,Hengelo,Overijssel,VBO,6.740387,52.215759
Wolfkaterweg,34,,R033,7554PM,Hengelo,Hengelo,Overijssel,VBO,6.740079,52.215786
Wolfkaterweg,34,,R034,7554PM,Hengelo,Hengelo,Overijssel,VBO,6.739722,52.215820
Wolfkaterweg,34,,R035,7554PM,Hengelo,Hengelo,Overijssel,VBO,6.739304,52.215864
Wolfkaterweg,34,,,7554PM,Hengelo,Hengelo,Overijssel,VBO,6.738217,52.216358
Wolfkaterweg,36,,,7554PM,Hengelo,Hengelo,Overijssel,VBO,6.739501,52.215387
Wolfkaterweg,40,,,7554PM,Hengelo,Hengelo,Overijssel,VBO,6.741890,52.215722
Wolfkaterweg,46,,,7554PM,Hengelo,Hengelo,Overijssel,VBO,6.746793,52.213271
Wolfkaterweg,48,A,,7554PM,Hengelo,Hengelo,Overijssel,VBO,6.748341,52.212465
Wolfkaterweg,48,,,7554PM,Hengelo,Hengelo,Overijssel,VBO,6.748291,52.212491
Wolfkaterweg,50,,,7554PM,Hengelo,Hengelo,Overijssel,VBO,6.748635,52.212324
Wolfkaterweg,54,,,7554PM,Hengelo,Hengelo,Overijssel,VBO,6.751524,52.210852
Wolfkaterweg,56,,,7554PM,Hengelo,Hengelo,Overijssel,VBO,6.751899,52.210569
Wolfkaterweg,58,,,7554PM,Hengelo,Hengelo,Overijssel,VBO,6.753223,52.208889
Wolfkaterweg,60,,,7554PN,Hengelo,Hengelo,Overijssel,VBO,6.753930,52.208321
Wolfkaterweg,62,,,7554PN,Hengelo,Hengelo,Overijssel,VBO,6.755224,52.206877
Wolfkaterweg,64,,,7554PN,Hengelo,Hengelo,Overijssel,VBO,6.757744,52.204121
Wolfkaterweg,66,,,7554PN,Hengelo,Hengelo,Overijssel,VBO,6.758030,52.203742
Wolfkaterweg,68,,,7554PN,Hengelo,Hengelo,Overijssel,VBO,6.758389,52.203321
Wolfkaterweg,70,,,7554PN,Hengelo,Hengelo,Overijssel,VBO,6.759114,52.202718
Wolfkaterweg,72,,,7554PN,Hengelo,Hengelo,Overijssel,VBO,6.759348,52.202255
Wolfkaterweg,76,,,7554PN,Hengelo,Hengelo,Overijssel,VBO,6.751644,52.197866
Wolfkaterweg,80,,,7554PN,Hengelo,Hengelo,Overijssel,VBO,6.756440,52.195406
Wolfkaterweg,82,,,7554PN,Hengelo,Hengelo,Overijssel,VBO,6.756483,52.195435
Wolfkaterweg,90,,,7554PN,Hengelo,Hengelo,Overijssel,VBO,6.765952,52.193772
Wolfkaterweg,92,,,7554PN,Hengelo,Hengelo,Overijssel,VBO,6.764432,52.192866
Kemerinksweg,7,A,,7554PP,Hengelo,Hengelo,Overijssel,VBO,6.753532,52.206111
Kemerinksweg,7,,,7554PP,Hengelo,Hengelo,Overijssel,VBO,6.753411,52.206019
Kemerinksweg,18,,,7554PP,Hengelo,Hengelo,Overijssel,VBO,6.750941,52.205179
Kemerinksweg,22,,,7554PP,Hengelo,Hengelo,Overijssel,VBO,6.749538,52.202314
Kemerinksweg,24,,,7554PP,Hengelo,Hengelo,Overijssel,VBO,6.749561,52.202345
Kerkpad,1,,,7554PR,Hengelo,Hengelo,Overijssel,VBO,6.748506,52.207757
Kerkpad,2,,,7554PR,Hengelo,Hengelo,Overijssel,VBO,6.742909,52.210761
Kerkpad,4,,,7554PR,Hengelo,Hengelo,Overijssel,VBO,6.742972,52.210709
Kerkpad,5,,,7554PR,Hengelo,Hengelo,Overijssel,VBO,6.743540,52.210153
Kerkpad,6,,,7554PR,Hengelo,Hengelo,Overijssel,VBO,6.746069,52.209750
Kerkpad,7,,,7554PR,Hengelo,Hengelo,Overijssel,VBO,6.743465,52.210099
Kerkpad,8,,,7554PR,Hengelo,Hengelo,Overijssel,VBO,6.746521,52.209551
Kerkpad,9,,,7554PR,Hengelo,Hengelo,Overijssel,VBO,6.743128,52.210128
Kerkpad,15,,,7554PR,Hengelo,Hengelo,Overijssel,VBO,6.743937,52.209783
Ganzenbosdijk,6,,,7554PS,Hengelo,Hengelo,Overijssel,VBO,6.755214,52.212190
Ganzenbosdijk,9,,,7554PS,Hengelo,Hengelo,Overijssel,VBO,6.758023,52.211627
Ganzenbosdijk,10,,,7554PS,Hengelo,Hengelo,Overijssel,VBO,6.756388,52.211779
Ganzenbosdijk,11,,,7554PS,Hengelo,Hengelo,Overijssel,VBO,6.758695,52.211389
Ganzenbosdijk,12,,,7554PS,Hengelo,Hengelo,Overijssel,VBO,6.757419,52.211447
Eetgerinksweg,2,,,7554PT,Hengelo,Hengelo,Overijssel,VBO,6.749416,52.212575
Eetgerinksweg,15,A,,7554PT,Hengelo,Hengelo,Overijssel,VBO,6.750587,52.213201
Eetgerinksweg,15,B,,7554PT,Hengelo,Hengelo,Overijssel,VBO,6.751192,52.213223
Eetgerinksweg,15,,,7554PT,Hengelo,Hengelo,Overijssel,VBO,6.750429,52.213082
Eetgerinksweg,17,,,7554PT,Hengelo,Hengelo,Overijssel,VBO,6.751758,52.213331
Eetgerinksweg,25,,,7554PT,Hengelo,Hengelo,Overijssel,VBO,6.754224,52.213764
Beckumerkerkweg,2,,,7554PV,Hengelo,Hengelo,Overijssel,VBO,6.743176,52.214034
Beckumerkerkweg,3,,,7554PV,Hengelo,Hengelo,Overijssel,VBO,6.743602,52.214263
Beckumerkerkweg,13,,,7554PV,Hengelo,Hengelo,Overijssel,VBO,6.743421,52.211450
Beckumerkerkweg,15,,,7554PV,Hengelo,Hengelo,Overijssel,VBO,6.743162,52.211301
Beckumerkerkweg,17,,,7554PV,Hengelo,Hengelo,Overijssel,VBO,6.743032,52.211076
Beckumerkerkweg,20,A,,7554PV,Hengelo,Hengelo,Overijssel,VBO,6.742444,52.210935
Beckumerkerkweg,20,,,7554PV,Hengelo,Hengelo,Overijssel,VBO,6.742586,52.211177
Beckumerkerkweg,24,,,7554PV,Hengelo,Hengelo,Overijssel,VBO,6.742228,52.210753
Beckumerkerkweg,27,,,7554PV,Hengelo,Hengelo,Overijssel,VBO,6.742218,52.210180
Altenavoetpad,19,,,7554PW,Hengelo,Hengelo,Overijssel,VBO,6.741130,52.201352
Altenavoetpad,21,,,7554PW,Hengelo,Hengelo,Overijssel,VBO,6.745539,52.201009
Loninkvoetpad,10,,,7554PW,Hengelo,Hengelo,Overijssel,VBO,6.731604,52.212877
Loninkvoetpad,14,,,7554PW,Hengelo,Hengelo,Overijssel,VBO,6.729322,52.214195
Loninkvoetpad,16,,,7554PW,Hengelo,Hengelo,Overijssel,VBO,6.729332,52.214057
Loninkvoetpad,20,,,7554PW,Hengelo,Hengelo,Overijssel,VBO,6.723333,52.216898
Beckumerschoolweg,1,,,7554PX,Hengelo,Hengelo,Overijssel,VBO,6.741521,52.213055
Beckumerschoolweg,3,,,7554PX,Hengelo,Hengelo,Overijssel,VBO,6.741438,52.213075
Beckumerschoolweg,5,,,7554PX,Hengelo,Hengelo,Overijssel,VBO,6.741110,52.212916
Beckumerschoolweg,7,,,7554PX,Hengelo,Hengelo,Overijssel,VBO,6.741031,52.212907
Beckumerschoolweg,15,,,7554PX,Hengelo,Hengelo,Overijssel,VBO,6.740188,52.212920
Beckumerschoolweg,17,,,7554PX,Hengelo,Hengelo,Overijssel,VBO,6.740095,52.212925
Beckumerschoolweg,29,,,7554PX,Hengelo,Hengelo,Overijssel,VBO,6.739622,52.212779
Beckumerschoolweg,31,,,7554PX,Hengelo,Hengelo,Overijssel,VBO,6.739433,52.212645
Beckumerschoolweg,33,,,7554PX,Hengelo,Hengelo,Overijssel,VBO,6.739359,52.212610
Beckumerschoolweg,35,,,7554PX,Hengelo,Hengelo,Overijssel,VBO,6.739243,52.212546
Beckumerschoolweg,37,,,7554PX,Hengelo,Hengelo,Overijssel,VBO,6.739185,52.212511
Beckumerschoolweg,39,,,7554PX,Hengelo,Hengelo,Overijssel,VBO,6.739034,52.212440
Beckumerschoolweg,41,,,7554PX,Hengelo,Hengelo,Overijssel,VBO,6.739004,52.212182
Beckumerschoolweg,45,,,7554PX,Hengelo,Hengelo,Overijssel,VBO,6.739116,52.212015
Beckumerschoolweg,47,,,7554PX,Hengelo,Hengelo,Overijssel,VBO,6.739255,52.211919
Beckumerschoolweg,49,,,7554PX,Hengelo,Hengelo,Overijssel,VBO,6.739654,52.211827
Beckumerschoolweg,51,A,,7554PX,Hengelo,Hengelo,Overijssel,VBO,6.739816,52.211549
Beckumerschoolweg,53,,,7554PX,Hengelo,Hengelo,Overijssel,VBO,6.739922,52.211431
Beckumerschoolweg,57,,,7554PX,Hengelo,Hengelo,Overijssel,VBO,6.739907,52.211185
Beckumerschoolweg,59,,,7554PX,Hengelo,Hengelo,Overijssel,VBO,6.739954,52.211191
Beckumerschoolweg,61,,,7554PX,Hengelo,Hengelo,Overijssel,VBO,6.740005,52.211194
Beckumerschoolweg,63,,,7554PX,Hengelo,Hengelo,Overijssel,VBO,6.740014,52.211104
Beckumerschoolweg,65,,,7554PX,Hengelo,Hengelo,Overijssel,VBO,6.740045,52.211056
Beckumerschoolweg,67,,,7554PX,Hengelo,Hengelo,Overijssel,VBO,6.740094,52.211015
Beckumerschoolweg,69,,,7554PX,Hengelo,Hengelo,Overijssel,VBO,6.740118,52.210965
Beckumerschoolweg,71,,,7554PX,Hengelo,Hengelo,Overijssel,VBO,6.740155,52.210917
Beckumerschoolweg,20,,,7554PZ,Hengelo,Hengelo,Overijssel,VBO,6.741584,52.213701
Beckumerschoolweg,22,,,7554PZ,Hengelo,Hengelo,Overijssel,VBO,6.741284,52.213581
Beckumerschoolweg,24,,,7554PZ,Hengelo,Hengelo,Overijssel,VBO,6.740958,52.213441
Beckumerschoolweg,26,A,,7554PZ,Hengelo,Hengelo,Overijssel,VBO,6.740637,52.213297
Beckumerschoolweg,26,,,7554PZ,Hengelo,Hengelo,Overijssel,VBO,6.740794,52.213317
Beckumerschoolweg,28,,,7554PZ,Hengelo,Hengelo,Overijssel,VBO,6.740381,52.213187
Beckumerschoolweg,30,,,7554PZ,Hengelo,Hengelo,Overijssel,VBO,6.740013,52.213179
Beckumerschoolweg,32,,,7554PZ,Hengelo,Hengelo,Overijssel,VBO,6.739685,52.213124
Beckumerschoolweg,34,A,,7554PZ,Hengelo,Hengelo,Overijssel,VBO,6.739167,52.212962
Beckumerschoolweg,34,,,7554PZ,Hengelo,Hengelo,Overijssel,VBO,6.739390,52.213013
Beckumerschoolweg,36,A,,7554PZ,Hengelo,Hengelo,Overijssel,VBO,6.738696,52.212798
Beckumerschoolweg,36,,,7554PZ,Hengelo,Hengelo,Overijssel,VBO,6.738953,52.212886
Beckumerschoolweg,38,,,7554PZ,Hengelo,Hengelo,Overijssel,VBO,6.738497,52.212361
Beckumerschoolweg,50,,,7554PZ,Hengelo,Hengelo,Overijssel,VBO,6.739176,52.211537
Beckumerschoolweg,52,,,7554PZ,Hengelo,Hengelo,Overijssel,VBO,6.739225,52.211482
Beckumerschoolweg,54,,,7554PZ,Hengelo,Hengelo,Overijssel,VBO,6.739317,52.211378
Beckumerschoolweg,56,,,7554PZ,Hengelo,Hengelo,Overijssel,VBO,6.739368,52.211321
Beckumerschoolweg,58,,,7554PZ,Hengelo,Hengelo,Overijssel,VBO,6.739465,52.211219
Beckumerschoolweg,60,,,7554PZ,Hengelo,Hengelo,Overijssel,VBO,6.739577,52.211092
Beckumerschoolweg,62,,,7554PZ,Hengelo,Hengelo,Overijssel,VBO,6.739684,52.210976
Beckumerschoolweg,64,,,7554PZ,Hengelo,Hengelo,Overijssel,VBO,6.739797,52.210847
Beckumerschoolweg,66,,,7554PZ,Hengelo,Hengelo,Overijssel,VBO,6.739855,52.210781
Rotersweg,8,,,7554RA,Hengelo,Hengelo,Overijssel,VBO,6.735787,52.212161
Rotersweg,14,,,7554RA,Hengelo,Hengelo,Overijssel,VBO,6.732694,52.213581
Rotersweg,20,,,7554RA,Hengelo,Hengelo,Overijssel,VBO,6.728842,52.210134
Rotersweg,21,,,7554RA,Hengelo,Hengelo,Overijssel,VBO,6.731645,52.209622
Rotersweg,23,,,7554RA,Hengelo,Hengelo,Overijssel,VBO,6.731062,52.209292
Rotersweg,24,,,7554RA,Hengelo,Hengelo,Overijssel,VBO,6.727327,52.211673
Rotersweg,26,,,7554RA,Hengelo,Hengelo,Overijssel,VBO,6.723476,52.211031
Rotersweg,28,,,7554RA,Hengelo,Hengelo,Overijssel,VBO,6.723735,52.211520
Rotersweg,30,,,7554RA,Hengelo,Hengelo,Overijssel,VBO,6.723650,52.211634
Rotersweg,32,,,7554RA,Hengelo,Hengelo,Overijssel,VBO,6.727950,52.209129
Rotersweg,34,,,7554RA,Hengelo,Hengelo,Overijssel,VBO,6.727492,52.208447
Rotersweg,36,,,7554RA,Hengelo,Hengelo,Overijssel,VBO,6.727208,52.208050
Rotersweg,44,,,7554RA,Hengelo,Hengelo,Overijssel,VBO,6.727176,52.204990
Bentelerweg,19,,,7554RB,Hengelo,Hengelo,Overijssel,VBO,6.721210,52.207536
Bentelerweg,21,A,,7554RB,Hengelo,Hengelo,Overijssel,VBO,6.717498,52.207968
Bentelerweg,21,B,,7554RB,Hengelo,Hengelo,Overijssel,VBO,6.718194,52.207982
Bentelerweg,21,,,7554RB,Hengelo,Hengelo,Overijssel,VBO,6.718940,52.207758
Bentelerweg,22,,,7554RB,Hengelo,Hengelo,Overijssel,VBO,6.720533,52.208033
Bentelerweg,23,,,7554RB,Hengelo,Hengelo,Overijssel,VBO,6.715687,52.208232
Bentelerweg,27,,,7554RB,Hengelo,Hengelo,Overijssel,VBO,6.713136,52.208709
Bentelerweg,31,,,7554RB,Hengelo,Hengelo,Overijssel,VBO,6.711220,52.208937
Huttenveldsweg,10,,,7554RC,Hengelo,Hengelo,Overijssel,VBO,6.707427,52.217960
Huttenveldsweg,14,,,7554RC,Hengelo,Hengelo,Overijssel,VBO,6.703944,52.216455
Huttenveldsweg,18,,,7554RC,Hengelo,Hengelo,Overijssel,VBO,6.706254,52.214063
Huttenveldsweg,26,,,7554RC,Hengelo,Hengelo,Overijssel,VBO,6.710265,52.213037
Huttenveldsweg,31,,,7554RC,Hengelo,Hengelo,Overijssel,VBO,6.713145,52.212680
Deldenerdijk,10,,,7554RD,Hengelo,Hengelo,Overijssel,VBO,6.723060,52.246927
Deldenerdijk,50,,,7554RD,Hengelo,Hengelo,Overijssel,VBO,6.731412,52.232062
Deldenerdijk,53,,,7554RD,Hengelo,Hengelo,Overijssel,VBO,6.736861,52.229851
Deldenerdijk,55,,,7554RD,Hengelo,Hengelo,Overijssel,VBO,6.736348,52.229929
Deldenerdijk,58,,,7554RD,Hengelo,Hengelo,Overijssel,VBO,6.733146,52.226445
Deldenerdijk,59,,,7554RD,Hengelo,Hengelo,Overijssel,VBO,6.735741,52.226687
Deldenerdijk,60,,,7554RD,Hengelo,Hengelo,Overijssel,VBO,6.734758,52.225072
Deldenerdijk,61,,,7554RD,Hengelo,Hengelo,Overijssel,VBO,6.736042,52.225714
Deldenerdijk,62,,,7554RD,Hengelo,Hengelo,Overijssel,VBO,6.735043,52.224683
Deldenerdijk,63,A,,7554RD,Hengelo,Hengelo,Overijssel,VBO,6.736708,52.225983
Deldenerdijk,63,,,7554RD,Hengelo,Hengelo,Overijssel,VBO,6.735732,52.225997
Deldenerdijk,70,,,7554RD,Hengelo,Hengelo,Overijssel,VBO,6.737756,52.220592
Deldenerdijk,71,,,7554RD,Hengelo,Hengelo,Overijssel,VBO,6.742186,52.217511
Deldenerdijk,73,,,7554RD,Hengelo,Hengelo,Overijssel,VBO,6.742396,52.217198
Deldenerdijk,80,,,7554RD,Hengelo,Hengelo,Overijssel,VBO,6.742088,52.216293
Koksweg,10,,,7554RE,Hengelo,Hengelo,Overijssel,VBO,6.727054,52.249146
Oelersteeg,20,,,7554RG,Hengelo,Hengelo,Overijssel,VBO,6.733116,52.246255
Oelersteeg,23,,,7554RG,Hengelo,Hengelo,Overijssel,VBO,6.735967,52.245210
Oelersteeg,24,,,7554RG,Hengelo,Hengelo,Overijssel,VBO,6.737807,52.239793
Oelersteeg,33,,,7554RG,Hengelo,Hengelo,Overijssel,VBO,6.746049,52.242695
Oelersteeg,36,,,7554RG,Hengelo,Hengelo,Overijssel,VBO,6.748897,52.241992
Nijhuisbinnenweg,1,,,7554RH,Hengelo,Hengelo,Overijssel,VBO,6.728887,52.251102
Nijhuisbinnenweg,14,,,7554RH,Hengelo,Hengelo,Overijssel,VBO,6.746034,52.248399
Nijhuisbinnenweg,16,,,7554RH,Hengelo,Hengelo,Overijssel,VBO,6.747803,52.249168
Albersdijk,16,,,7554RJ,Hengelo,Hengelo,Overijssel,VBO,6.750348,52.244002
Albersdijk,20,,,7554RJ,Hengelo,Hengelo,Overijssel,VBO,6.753425,52.243051
Albersdijk,21,,,7554RJ,Hengelo,Hengelo,Overijssel,VBO,6.754654,52.242940
Vöckersweg,3,,,7554RK,Hengelo,Hengelo,Overijssel,VBO,6.760375,52.248165
Vöckersweg,5,,,7554RK,Hengelo,Hengelo,Overijssel,VBO,6.758989,52.248637
Vöckersweg,6,,,7554RK,Hengelo,Hengelo,Overijssel,VBO,6.751856,52.249371
Vöckersweg,8,,,7554RK,Hengelo,Hengelo,Overijssel,VBO,6.751750,52.248883
Vöckersweg,10,A,,7554RK,Hengelo,Hengelo,Overijssel,VBO,6.751687,52.247945
Vöckersweg,10,,,7554RK,Hengelo,Hengelo,Overijssel,VBO,6.751588,52.247929
Vöckersweg,15,,,7554RK,Hengelo,Hengelo,Overijssel,VBO,6.752965,52.247188
Vöckersweg,16,,,7554RK,Hengelo,Hengelo,Overijssel,VBO,6.753170,52.246391
Vöckersweg,18,,,7554RK,Hengelo,Hengelo,Overijssel,VBO,6.752420,52.245702
Vöckersweg,19,,,7554RK,Hengelo,Hengelo,Overijssel,VBO,6.754158,52.246427
Vöckersweg,20,,,7554RK,Hengelo,Hengelo,Overijssel,VBO,6.750964,52.245690
Vöckersweg,23,,,7554RK,Hengelo,Hengelo,Overijssel,VBO,6.753683,52.245346
Vöckersweg,24,,,7554RK,Hengelo,Hengelo,Overijssel,VBO,6.752773,52.244079
Vöckersweg,25,,,7554RK,Hengelo,Hengelo,Overijssel,VBO,6.753358,52.245417
Vöckersweg,26,,,7554RK,Hengelo,Hengelo,Overijssel,VBO,6.752992,52.243600
Vöckersweg,27,,,7554RK,Hengelo,Hengelo,Overijssel,VBO,6.753484,52.244351
Olde Meulenweg,2,,,7554RL,Hengelo,Hengelo,Overijssel,VBO,6.755886,52.241498
Olde Meulenweg,4,,,7554RL,Hengelo,Hengelo,Overijssel,VBO,6.756498,52.240697
Olde Meulenweg,5,,,7554RL,Hengelo,Hengelo,Overijssel,VBO,6.757804,52.240086
Olde Meulenweg,7,,,7554RL,Hengelo,Hengelo,Overijssel,VBO,6.757936,52.240001
Olde Meulenweg,8,,,7554RL,Hengelo,Hengelo,Overijssel,VBO,6.758770,52.239128
Olde Meulenweg,10,,,7554RL,Hengelo,Hengelo,Overijssel,VBO,6.759289,52.239085
Olde Meulenweg,16,,,7554RL,Hengelo,Hengelo,Overijssel,VBO,6.760451,52.236356
Fabelenweg,61,,,7554RM,Hengelo,Hengelo,Overijssel,VBO,6.771882,52.237100
Steenzoutweg,2,,,7554RN,Hengelo,Hengelo,Overijssel,VBO,6.789807,52.245197
Steenzoutweg,9,,,7554RN,Hengelo,Hengelo,Overijssel,VBO,6.790793,52.244157
Steenzoutweg,15,,,7554RN,Hengelo,Hengelo,Overijssel,VBO,6.790204,52.244040
Zuidelijke Havenweg,1,,,7554RR,Hengelo,Hengelo,Overijssel,VBO,6.782623,52.245871
Zuidelijke Havenweg,2,,,7554RR,Hengelo,Hengelo,Overijssel,VBO,6.784536,52.245420
Zuidelijke Havenweg,3,,,7554RR,Hengelo,Hengelo,Overijssel,VBO,6.781012,52.246025
Zuidelijke Havenweg,4,,,7554RR,Hengelo,Hengelo,Overijssel,VBO,6.783780,52.246354
Zuidelijke Havenweg,20,,,7554RR,Hengelo,Hengelo,Overijssel,VBO,6.781624,52.247578
Zuidelijke Havenweg,30,,,7554RR,Hengelo,Hengelo,Overijssel,VBO,6.778690,52.246966
Zuidelijke Havenweg,40,,,7554RR,Hengelo,Hengelo,Overijssel,VBO,6.772381,52.246779
Boortorenweg,7,,,7554RS,Hengelo,Hengelo,Overijssel,VBO,6.790049,52.246401
Boortorenweg,15,,,7554RS,Hengelo,Hengelo,Overijssel,VBO,6.791084,52.247032
Boortorenweg,18,A,,7554RS,Hengelo,Hengelo,Overijssel,VBO,6.791190,52.244111
Boortorenweg,20,,,7554RS,Hengelo,Hengelo,Overijssel,VBO,6.792551,52.244448
Boortorenweg,25,,,7554RS,Hengelo,Hengelo,Overijssel,VBO,6.792275,52.245336
Boortorenweg,42,,,7554RS,Hengelo,Hengelo,Overijssel,VBO,6.805763,52.244414
Boortorenweg,44,,,7554RS,Hengelo,Hengelo,Overijssel,VBO,6.805835,52.244406
Boldershoekweg,51,,,7554RT,Hengelo,Hengelo,Overijssel,VBO,6.788027,52.235417
Bruninksweg,5,,,7554RW,Hengelo,Hengelo,Overijssel,VBO,6.806822,52.233957
Bruninksweg,11,,,7554RW,Hengelo,Hengelo,Overijssel,VBO,6.803681,52.234509
Bruninksweg,14,,,7554RW,Hengelo,Hengelo,Overijssel,VBO,6.794470,52.235656
Mensinkweg,24,,,7554RX,Hengelo,Hengelo,Overijssel,VBO,6.799578,52.243573
Mensinkweg,25,,,7554RX,Hengelo,Hengelo,Overijssel,VBO,6.802298,52.243315
Mensinkweg,33,,,7554RX,Hengelo,Hengelo,Overijssel,VBO,6.801035,52.242103
Mensinkweg,46,,,7554RX,Hengelo,Hengelo,Overijssel,VBO,6.799813,52.241373
Mensinkweg,80,,,7554RX,Hengelo,Hengelo,Overijssel,VBO,6.803564,52.234900
Rougoorweg,30,,,7554RZ,Hengelo,Hengelo,Overijssel,VBO,6.794501,52.242313
Rougoorweg,31,,,7554RZ,Hengelo,Hengelo,Overijssel,VBO,6.795262,52.243867
Rougoorweg,40,,,7554RZ,Hengelo,Hengelo,Overijssel,VBO,6.798714,52.241829
Rougoorweg,50,,,7554RZ,Hengelo,Hengelo,Overijssel,VBO,6.804181,52.240634
Rougoorweg,60,,,7554RZ,Hengelo,Hengelo,Overijssel,VBO,6.805499,52.239593
Rougoorweg,70,,,7554RZ,Hengelo,Hengelo,Overijssel,VBO,6.807410,52.240140
Rougoorweg,73,,,7554RZ,Hengelo,Hengelo,Overijssel,VBO,6.803991,52.243149
Boekelose Veldweg,21,,,7554SB,Hengelo,Hengelo,Overijssel,VBO,6.796452,52.240313
Haimersweg,240,,,7554SC,Hengelo,Hengelo,Overijssel,VBO,6.811614,52.230315
Twekkelerweg,315,,,7554SC,Hengelo,Hengelo,Overijssel,VBO,6.804821,52.245781
Twekkelerweg,317,,,7554SC,Hengelo,Hengelo,Overijssel,VBO,6.804936,52.245765
Twekkelerweg,319,,,7554SC,Hengelo,Hengelo,Overijssel,VBO,6.805038,52.245754
Twekkelerweg,323,,,7554SC,Hengelo,Hengelo,Overijssel,VBO,6.806640,52.245029
Twekkelerweg,325,,,7554SC,Hengelo,Hengelo,Overijssel,VBO,6.806972,52.245015
Twekkelerweg,327,A,,7554SC,Hengelo,Hengelo,Overijssel,VBO,6.807071,52.244891
Twekkelerweg,327,B,,7554SC,Hengelo,Hengelo,Overijssel,VBO,6.807352,52.244724
Twekkelerweg,327,C,,7554SC,Hengelo,Hengelo,Overijssel,VBO,6.807598,52.244503
Twekkelerweg,327,,,7554SC,Hengelo,Hengelo,Overijssel,VBO,6.807909,52.244293
Twekkelerweg,329,,,7554SC,Hengelo,Hengelo,Overijssel,VBO,6.809779,52.243225
Twekkelerweg,331,,,7554SC,Hengelo,Hengelo,Overijssel,VBO,6.810089,52.243204
Twekkelerweg,333,,R003,7554SC,Hengelo,Hengelo,Overijssel,VBO,6.810421,52.243354
Twekkelerweg,333,,R005,7554SC,Hengelo,Hengelo,Overijssel,VBO,6.810692,52.243471
Twekkelerweg,333,,R015,7554SC,Hengelo,Hengelo,Overijssel,VBO,6.811219,52.243121
Twekkelerweg,333,,R016,7554SC,Hengelo,Hengelo,Overijssel,VBO,6.811161,52.243026
Twekkelerweg,333,,R023,7554SC,Hengelo,Hengelo,Overijssel,VBO,6.810350,52.242654
Twekkelerweg,333,,R031,7554SC,Hengelo,Hengelo,Overijssel,VBO,6.811449,52.242865
Twekkelerweg,333,,R037,7554SC,Hengelo,Hengelo,Overijssel,VBO,6.811689,52.243282
Twekkelerweg,333,,R042,7554SC,Hengelo,Hengelo,Overijssel,VBO,6.811291,52.243596
Twekkelerweg,333,,R043,7554SC,Hengelo,Hengelo,Overijssel,VBO,6.811445,52.243613
Twekkelerweg,333,,R045,7554SC,Hengelo,Hengelo,Overijssel,VBO,6.811221,52.243768
Twekkelerweg,333,,R046,7554SC,Hengelo,Hengelo,Overijssel,VBO,6.811067,52.243714
Twekkelerweg,333,,R050,7554SC,Hengelo,Hengelo,Overijssel,VBO,6.811856,52.243946
Twekkelerweg,333,,R056,7554SC,Hengelo,Hengelo,Overijssel,VBO,6.812127,52.244240
Twekkelerweg,333,,R065,7554SC,Hengelo,Hengelo,Overijssel,VBO,6.811670,52.244202
Twekkelerweg,333,,R078,7554SC,Hengelo,Hengelo,Overijssel,VBO,6.810898,52.244072
Twekkelerweg,333,,R092,7554SC,Hengelo,Hengelo,Overijssel,VBO,6.810644,52.244300
Twekkelerweg,333,,R094,7554SC,Hengelo,Hengelo,Overijssel,VBO,6.810094,52.244163
Twekkelerweg,333,,R096,7554SC,Hengelo,Hengelo,Overijssel,VBO,6.810001,52.244240
Twekkelerweg,333,,,7554SC,Hengelo,Hengelo,Overijssel,VBO,6.810214,52.243015
Twekkelerweg,337,,,7554SC,Hengelo,Hengelo,Overijssel,VBO,6.810371,52.241883
Twekkelerweg,347,,,7554SC,Hengelo,Hengelo,Overijssel,VBO,6.810525,52.236452
Twekkelerweg,351,,,7554SC,Hengelo,Hengelo,Overijssel,VBO,6.809985,52.234358
Twekkelerweg,353,,,7554SC,Hengelo,Hengelo,Overijssel,VBO,6.810431,52.234063
Twekkelerweg,355,,,7554SC,Hengelo,Hengelo,Overijssel,VBO,6.810748,52.234145
Twekkelerweg,359,,,7554SC,Hengelo,Hengelo,Overijssel,VBO,6.813140,52.231149
Twekkelerweg,350,,,7554SE,Hengelo,Hengelo,Overijssel,VBO,6.808148,52.235257
Twekkelerweg,352,,,7554SE,Hengelo,Hengelo,Overijssel,VBO,6.808316,52.234719
Twekkelerweg,356,A,,7554SE,Hengelo,Hengelo,Overijssel,VBO,6.809544,52.232430
Twekkelerweg,356,,,7554SE,Hengelo,Hengelo,Overijssel,VBO,6.809604,52.232499
Twekkelerweg,360,,,7554SE,Hengelo,Hengelo,Overijssel,VBO,6.811600,52.230979
Enschedese Havenweg,15,,,7554SG,Hengelo,Hengelo,Overijssel,VBO,6.812990,52.242773
Enschedese Havenweg,30,,,7554SG,Hengelo,Hengelo,Overijssel,VBO,6.816569,52.241111
Enschedese Havenweg,34,,,7554SG,Hengelo,Hengelo,Overijssel,VBO,6.817263,52.241100
Enschedese Havenweg,36,,,7554SG,Hengelo,Hengelo,Overijssel,VBO,6.817346,52.241085
Baardinksweg,30,,,7554SH,Hengelo,Hengelo,Overijssel,VBO,6.816682,52.240356
Eekendiekske,5,,,7554SJ,Hengelo,Hengelo,Overijssel,VBO,6.748508,52.211183
Borgelinkstraat,1,,,7554SK,Hengelo,Hengelo,Overijssel,VBO,6.740563,52.212983
Borgelinkstraat,2,,,7554SK,Hengelo,Hengelo,Overijssel,VBO,6.740202,52.212696
Borgelinkstraat,3,,,7554SK,Hengelo,Hengelo,Overijssel,VBO,6.740572,52.212937
Borgelinkstraat,4,,,7554SK,Hengelo,Hengelo,Overijssel,VBO,6.740243,52.212556
Borgelinkstraat,5,,,7554SK,Hengelo,Hengelo,Overijssel,VBO,6.740601,52.212835
Borgelinkstraat,6,,,7554SK,Hengelo,Hengelo,Overijssel,VBO,6.740166,52.212429
Borgelinkstraat,7,,,7554SK,Hengelo,Hengelo,Overijssel,VBO,6.740613,52.212790
Borgelinkstraat,8,,,7554SK,Hengelo,Hengelo,Overijssel,VBO,6.740561,52.212244
Borgelinkstraat,9,,,7554SK,Hengelo,Hengelo,Overijssel,VBO,6.740588,52.212681
Borgelinkstraat,10,,,7554SK,Hengelo,Hengelo,Overijssel,VBO,6.740760,52.212200
Borgelinkstraat,11,,,7554SK,Hengelo,Hengelo,Overijssel,VBO,6.740610,52.212638
Borgelinkstraat,12,,,7554SK,Hengelo,Hengelo,Overijssel,VBO,6.740853,52.212181
Borgelinkstraat,13,,,7554SK,Hengelo,Hengelo,Overijssel,VBO,6.740668,52.212433
Borgelinkstraat,15,,,7554SK,Hengelo,Hengelo,Overijssel,VBO,6.740739,52.212414
Borgelinkstraat,17,,,7554SK,Hengelo,Hengelo,Overijssel,VBO,6.740923,52.212411
Borgelinkstraat,19,,,7554SK,Hengelo,Hengelo,Overijssel,VBO,6.740992,52.212395
Meester van Manenstraat,1,,,7554SL,Hengelo,Hengelo,Overijssel,VBO,6.740401,52.212081
Meester van Manenstraat,2,,,7554SL,Hengelo,Hengelo,Overijssel,VBO,6.740088,52.212289
Meester van Manenstraat,3,,,7554SL,Hengelo,Hengelo,Overijssel,VBO,6.740323,52.211968
Meester van Manenstraat,4,,,7554SL,Hengelo,Hengelo,Overijssel,VBO,6.740048,52.212173
Meester van Manenstraat,5,,,7554SL,Hengelo,Hengelo,Overijssel,VBO,6.740261,52.211910
Meester van Manenstraat,6,,,7554SL,Hengelo,Hengelo,Overijssel,VBO,6.739963,52.212058
Meester van Manenstraat,7,,,7554SL,Hengelo,Hengelo,Overijssel,VBO,6.740179,52.211793
Meester van Manenstraat,8,,,7554SL,Hengelo,Hengelo,Overijssel,VBO,6.739950,52.211971
Meester van Manenstraat,9,,,7554SL,Hengelo,Hengelo,Overijssel,VBO,6.740123,52.211745
Meester van Manenstraat,10,,,7554SL,Hengelo,Hengelo,Overijssel,VBO,6.739936,52.211926
Laarhuisweg,12,,,7554SM,Hengelo,Hengelo,Overijssel,VBO,6.749829,52.207627
Engelbertsweg,1,,,7554SN,Hengelo,Hengelo,Overijssel,VBO,6.749764,52.214551
Engelbertsweg,3,,,7554SN,Hengelo,Hengelo,Overijssel,VBO,6.750031,52.214855
Engelbertsweg,4,,,7554SN,Hengelo,Hengelo,Overijssel,VBO,6.749597,52.213544
Engelbertsweg,7,,,7554SN,Hengelo,Hengelo,Overijssel,VBO,6.750248,52.215019
Engelbertsweg,8,,,7554SN,Hengelo,Hengelo,Overijssel,VBO,6.752943,52.216914
Engelbertsweg,10,,,7554SN,Hengelo,Hengelo,Overijssel,VBO,6.753106,52.217200
Engelbertsweg,11,,,7554SN,Hengelo,Hengelo,Overijssel,VBO,6.750527,52.215336
Engelbertsweg,15,,,7554SN,Hengelo,Hengelo,Overijssel,VBO,6.750673,52.215551
Engelbertsweg,29,A,,7554SN,Hengelo,Hengelo,Overijssel,VBO,6.752876,52.217543
Engelbertsweg,29,,,7554SN,Hengelo,Hengelo,Overijssel,VBO,6.752819,52.217486
Engelbertsweg,35,,,7554SN,Hengelo,Hengelo,Overijssel,VBO,6.753438,52.218101
Flierveldsweg,8,,,7554SP,Hengelo,Hengelo,Overijssel,VBO,6.720286,52.246613
Flierveldsweg,26,,,7554SP,Hengelo,Hengelo,Overijssel,VBO,6.724033,52.236815
Flierveldsweg,34,,,7554SP,Hengelo,Hengelo,Overijssel,VBO,6.724981,52.234775
Flierveldsweg,40,,,7554SP,Hengelo,Hengelo,Overijssel,VBO,6.725305,52.232700
Flierveldsweg,41,,,7554SP,Hengelo,Hengelo,Overijssel,VBO,6.726739,52.231115
Oelerschoolpad,2,,,7554SR,Hengelo,Hengelo,Overijssel,VBO,6.730972,52.249711
Oelerschoolpad,8,,,7554SR,Hengelo,Hengelo,Overijssel,VBO,6.734113,52.248157
Oelerschoolpad,14,,,7554SR,Hengelo,Hengelo,Overijssel,VBO,6.737800,52.246800
Holmersweg,10,,,7554ST,Hengelo,Hengelo,Overijssel,VBO,6.797720,52.240170
Schoolbeekweg,36,,,7554SV,Hengelo,Hengelo,Overijssel,VBO,6.806483,52.243123
Schoolbeekweg,38,,,7554SV,Hengelo,Hengelo,Overijssel,VBO,6.806896,52.242821
Schoolbeekweg,44,,,7554SV,Hengelo,Hengelo,Overijssel,VBO,6.807143,52.242320
Schoolbeekweg,46,,,7554SV,Hengelo,Hengelo,Overijssel,VBO,6.807047,52.242187
Schoolbeekweg,48,,,7554SV,Hengelo,Hengelo,Overijssel,VBO,6.807024,52.242092
Pastoor Ossestraat,4,,,7554SW,Hengelo,Hengelo,Overijssel,VBO,6.741721,52.213001
Pastoor Ossestraat,8,,,7554SW,Hengelo,Hengelo,Overijssel,VBO,6.741592,52.212784
Pastoor Ossestraat,10,,,7554SW,Hengelo,Hengelo,Overijssel,VBO,6.741481,52.212644
Pastoor Ossestraat,12,,,7554SW,Hengelo,Hengelo,Overijssel,VBO,6.741384,52.212497
Pastoor Ossestraat,14,,,7554SW,Hengelo,Hengelo,Overijssel,VBO,6.741318,52.212350
Pastoor Ossestraat,16,,,7554SW,Hengelo,Hengelo,Overijssel,VBO,6.741184,52.212089
Pastoor Ossestraat,18,,,7554SW,Hengelo,Hengelo,Overijssel,VBO,6.741136,52.212032
Pastoor Ossestraat,22,,,7554SW,Hengelo,Hengelo,Overijssel,VBO,6.741025,52.211856
Pastoor Ossestraat,26,,,7554SW,Hengelo,Hengelo,Overijssel,VBO,6.740940,52.211715
Pastoor Ossestraat,30,,,7554SW,Hengelo,Hengelo,Overijssel,VBO,6.740829,52.211554
Pastoor Ossestraat,34,,,7554SW,Hengelo,Hengelo,Overijssel,VBO,6.740628,52.211310
Pastoor Ossestraat,36,,,7554SW,Hengelo,Hengelo,Overijssel,VBO,6.740562,52.211168
Pastoor Ossestraat,40,,,7554SW,Hengelo,Hengelo,Overijssel,VBO,6.740330,52.210756
Pastoor Ossestraat,44,,,7554SW,Hengelo,Hengelo,Overijssel,VBO,6.740029,52.210435
Pastoor Ossestraat,46,,,7554SW,Hengelo,Hengelo,Overijssel,VBO,6.739965,52.210360
Torendijk,19,,,7554SX,Hengelo,Hengelo,Overijssel,VBO,6.713508,52.228040
Torendijk,21,,,7554SX,Hengelo,Hengelo,Overijssel,VBO,6.721035,52.222227
3e Flierveldsdwarsweg,12,,,7554SZ,Hengelo,Hengelo,Overijssel,VBO,6.722702,52.234276
Diamantstraat,1,A,,7554TA,Hengelo,Hengelo,Overijssel,VBO,6.766420,52.243094
Diamantstraat,1,B,,7554TA,Hengelo,Hengelo,Overijssel,VBO,6.766488,52.243299
Diamantstraat,1,C,,7554TA,Hengelo,Hengelo,Overijssel,VBO,6.766553,52.243485
Diamantstraat,1,D,,7554TA,Hengelo,Hengelo,Overijssel,VBO,6.767006,52.243510
Diamantstraat,1,E,,7554TA,Hengelo,Hengelo,Overijssel,VBO,6.767402,52.243399
Diamantstraat,1,F,,7554TA,Hengelo,Hengelo,Overijssel,VBO,6.767350,52.243209
Diamantstraat,1,G,,7554TA,Hengelo,Hengelo,Overijssel,VBO,6.767290,52.243014
Diamantstraat,1,H,,7554TA,Hengelo,Hengelo,Overijssel,VBO,6.766850,52.242993
Diamantstraat,2,,,7554TA,Hengelo,Hengelo,Overijssel,VBO,6.766324,52.241928
Diamantstraat,3,,,7554TA,Hengelo,Hengelo,Overijssel,VBO,6.767168,52.242731
Diamantstraat,4,,,7554TA,Hengelo,Hengelo,Overijssel,VBO,6.768855,52.241665
Diamantstraat,5,,,7554TA,Hengelo,Hengelo,Overijssel,VBO,6.768179,52.243073
Diamantstraat,8,,,7554TA,Hengelo,Hengelo,Overijssel,VBO,6.770342,52.240203
Diamantstraat,9,,,7554TA,Hengelo,Hengelo,Overijssel,VBO,6.770954,52.242202
Diamantstraat,11,,,7554TA,Hengelo,Hengelo,Overijssel,VBO,6.772036,52.242035
Diamantstraat,13,,,7554TA,Hengelo,Hengelo,Overijssel,VBO,6.773208,52.241915
Diamantstraat,14,,,7554TA,Hengelo,Hengelo,Overijssel,VBO,6.772598,52.241240
Diamantstraat,18,,,7554TA,Hengelo,Hengelo,Overijssel,VBO,6.774140,52.240953
Diamantstraat,20,,,7554TA,Hengelo,Hengelo,Overijssel,VBO,6.776476,52.240407
Diamantstraat,26,,,7554TA,Hengelo,Hengelo,Overijssel,VBO,6.779082,52.240548
Diamantstraat,29,,,7554TA,Hengelo,Hengelo,Overijssel,VBO,6.781049,52.241302
Diamantstraat,30,,,7554TA,Hengelo,Hengelo,Overijssel,VBO,6.780005,52.240292
Diamantstraat,31,,,7554TA,Hengelo,Hengelo,Overijssel,VBO,6.781540,52.241028
Diamantstraat,33,,,7554TA,Hengelo,Hengelo,Overijssel,VBO,6.782338,52.240939
Diamantstraat,38,,,7554TA,Hengelo,Hengelo,Overijssel,VBO,6.783345,52.240015
Diamantstraat,44,,,7554TA,Hengelo,Hengelo,Overijssel,VBO,6.784362,52.239757
Robijnstraat,2,,,7554TB,Hengelo,Hengelo,Overijssel,VBO,6.769844,52.242703
Robijnstraat,6,,,7554TB,Hengelo,Hengelo,Overijssel,VBO,6.770173,52.244339
Robijnstraat,10,,,7554TB,Hengelo,Hengelo,Overijssel,VBO,6.770482,52.244628
Robijnstraat,12,,,7554TB,Hengelo,Hengelo,Overijssel,VBO,6.771104,52.244984
Robijnstraat,16,,,7554TB,Hengelo,Hengelo,Overijssel,VBO,6.771410,52.244940
Robijnstraat,20,,,7554TB,Hengelo,Hengelo,Overijssel,VBO,6.772082,52.244883
Robijnstraat,22,,,7554TB,Hengelo,Hengelo,Overijssel,VBO,6.772885,52.244669
Robijnstraat,24,,,7554TB,Hengelo,Hengelo,Overijssel,VBO,6.773303,52.244583
Robijnstraat,30,,,7554TB,Hengelo,Hengelo,Overijssel,VBO,6.775232,52.244428
Robijnstraat,34,,,7554TB,Hengelo,Hengelo,Overijssel,VBO,6.775527,52.244347
Robijnstraat,36,,,7554TB,Hengelo,Hengelo,Overijssel,VBO,6.775949,52.244227
Barnsteenstraat,1,,,7554TC,Hengelo,Hengelo,Overijssel,VBO,6.769296,52.245047
Barnsteenstraat,15,,,7554TC,Hengelo,Hengelo,Overijssel,VBO,6.766891,52.244000
Smaragdstraat,1,,,7554TD,Hengelo,Hengelo,Overijssel,VBO,6.771579,52.243068
Smaragdstraat,3,A,,7554TD,Hengelo,Hengelo,Overijssel,VBO,6.771845,52.243760
Smaragdstraat,3,,,7554TD,Hengelo,Hengelo,Overijssel,VBO,6.771782,52.243535
Smaragdstraat,6,,,7554TD,Hengelo,Hengelo,Overijssel,VBO,6.772323,52.243128
Smaragdstraat,7,,,7554TD,Hengelo,Hengelo,Overijssel,VBO,6.772127,52.243971
Smaragdstraat,8,,,7554TD,Hengelo,Hengelo,Overijssel,VBO,6.772441,52.243251
Smaragdstraat,9,,,7554TD,Hengelo,Hengelo,Overijssel,VBO,6.772167,52.244217
Smaragdstraat,11,,,7554TD,Hengelo,Hengelo,Overijssel,VBO,6.772064,52.244273
Smaragdstraat,12,,,7554TD,Hengelo,Hengelo,Overijssel,VBO,6.772602,52.243760
Smaragdstraat,14,,,7554TD,Hengelo,Hengelo,Overijssel,VBO,6.772821,52.243979
Smaragdstraat,16,,,7554TD,Hengelo,Hengelo,Overijssel,VBO,6.772854,52.244064
Smaragdstraat,17,,,7554TD,Hengelo,Hengelo,Overijssel,VBO,6.772248,52.244477
Smaragdstraat,20,,,7554TD,Hengelo,Hengelo,Overijssel,VBO,6.772764,52.244402
Smaragdstraat,22,,,7554TD,Hengelo,Hengelo,Overijssel,VBO,6.773025,52.244464
Saffierstraat,5,A,,7554TE,Hengelo,Hengelo,Overijssel,VBO,6.774046,52.244217
Saffierstraat,5,,,7554TE,Hengelo,Hengelo,Overijssel,VBO,6.774072,52.244314
Saffierstraat,11,,,7554TE,Hengelo,Hengelo,Overijssel,VBO,6.774163,52.244481
Saffierstraat,4,,,7554TG,Hengelo,Hengelo,Overijssel,VBO,6.773991,52.242084
Saffierstraat,8,,,7554TG,Hengelo,Hengelo,Overijssel,VBO,6.774067,52.242606
Saffierstraat,14,,,7554TG,Hengelo,Hengelo,Overijssel,VBO,6.774325,52.243127
Saffierstraat,16,,2,7554TG,Hengelo,Hengelo,Overijssel,VBO,6.774301,52.243492
Saffierstraat,16,,4,7554TG,Hengelo,Hengelo,Overijssel,VBO,6.774502,52.243549
Saffierstraat,16,,,7554TG,Hengelo,Hengelo,Overijssel,VBO,6.774480,52.243423
Saffierstraat,18,,,7554TG,Hengelo,Hengelo,Overijssel,VBO,6.774378,52.243610
Saffierstraat,22,,,7554TG,Hengelo,Hengelo,Overijssel,VBO,6.774468,52.243921
Saffierstraat,24,,,7554TG,Hengelo,Hengelo,Overijssel,VBO,6.774630,52.244221
Topaasstraat,6,A,,7554TH,Hengelo,Hengelo,Overijssel,VBO,6.777477,52.240535
Topaasstraat,6,,,7554TH,Hengelo,Hengelo,Overijssel,VBO,6.777310,52.240616
Topaasstraat,8,,,7554TH,Hengelo,Hengelo,Overijssel,VBO,6.777957,52.240193
Topaasstraat,10,A,,7554TH,Hengelo,Hengelo,Overijssel,VBO,6.777508,52.240026
Topaasstraat,10,B,,7554TH,Hengelo,Hengelo,Overijssel,VBO,6.777719,52.239988
Topaasstraat,10,C,,7554TH,Hengelo,Hengelo,Overijssel,VBO,6.777216,52.239961
Topaasstraat,10,D,,7554TH,Hengelo,Hengelo,Overijssel,VBO,6.777173,52.240273
Topaasstraat,10,E,,7554TH,Hengelo,Hengelo,Overijssel,VBO,6.777627,52.239914
Topaasstraat,10,,,7554TH,Hengelo,Hengelo,Overijssel,VBO,6.777705,52.239835
Topaasstraat,12,,,7554TH,Hengelo,Hengelo,Overijssel,VBO,6.777359,52.239634
Topaasstraat,14,,,7554TH,Hengelo,Hengelo,Overijssel,VBO,6.777449,52.239494
Topaasstraat,18,,,7554TH,Hengelo,Hengelo,Overijssel,VBO,6.777454,52.238960
Topaasstraat,24,,,7554TH,Hengelo,Hengelo,Overijssel,VBO,6.777203,52.238266
Topaasstraat,26,,,7554TH,Hengelo,Hengelo,Overijssel,VBO,6.779758,52.237587
Topaasstraat,28,,,7554TH,Hengelo,Hengelo,Overijssel,VBO,6.779733,52.237814
Topaasstraat,30,,,7554TH,Hengelo,Hengelo,Overijssel,VBO,6.779826,52.237960
Topaasstraat,32,,,7554TH,Hengelo,Hengelo,Overijssel,VBO,6.779944,52.238342
Topaasstraat,34,A,,7554TH,Hengelo,Hengelo,Overijssel,VBO,6.780024,52.238524
Topaasstraat,34,,,7554TH,Hengelo,Hengelo,Overijssel,VBO,6.780049,52.238608
Topaasstraat,40,,,7554TH,Hengelo,Hengelo,Overijssel,VBO,6.780151,52.238903
Topaasstraat,46,,,7554TH,Hengelo,Hengelo,Overijssel,VBO,6.780308,52.239347
Topaasstraat,50,,,7554TH,Hengelo,Hengelo,Overijssel,VBO,6.780330,52.239718
Topaasstraat,1,,,7554TJ,Hengelo,Hengelo,Overijssel,VBO,6.778781,52.239954
Topaasstraat,5,,,7554TJ,Hengelo,Hengelo,Overijssel,VBO,6.778482,52.239987
Topaasstraat,7,,,7554TJ,Hengelo,Hengelo,Overijssel,VBO,6.778214,52.239646
Topaasstraat,11,,,7554TJ,Hengelo,Hengelo,Overijssel,VBO,6.778111,52.239039
Topaasstraat,17,,,7554TJ,Hengelo,Hengelo,Overijssel,VBO,6.777828,52.238596
Topaasstraat,19,,,7554TJ,Hengelo,Hengelo,Overijssel,VBO,6.777782,52.238450
Topaasstraat,21,,,7554TJ,Hengelo,Hengelo,Overijssel,VBO,6.777695,52.238193
Topaasstraat,23,,,7554TJ,Hengelo,Hengelo,Overijssel,VBO,6.778132,52.237965
Topaasstraat,27,,,7554TJ,Hengelo,Hengelo,Overijssel,VBO,6.778570,52.237844
Topaasstraat,29,,,7554TJ,Hengelo,Hengelo,Overijssel,VBO,6.779178,52.237932
Topaasstraat,31,,,7554TJ,Hengelo,Hengelo,Overijssel,VBO,6.779364,52.238270
Topaasstraat,35,,,7554TJ,Hengelo,Hengelo,Overijssel,VBO,6.779440,52.238644
Topaasstraat,39,,,7554TJ,Hengelo,Hengelo,Overijssel,VBO,6.779482,52.238946
Topaasstraat,45,,,7554TJ,Hengelo,Hengelo,Overijssel,VBO,6.779596,52.239242
Robijnstraat,1,,11,7554TK,Hengelo,Hengelo,Overijssel,VBO,6.769067,52.242685
Robijnstraat,1,,21,7554TK,Hengelo,Hengelo,Overijssel,VBO,6.769161,52.243013
Robijnstraat,3,,,7554TK,Hengelo,Hengelo,Overijssel,VBO,6.769481,52.243492
Robijnstraat,7,,,7554TK,Hengelo,Hengelo,Overijssel,VBO,6.769549,52.243671
Robijnstraat,11,,,7554TK,Hengelo,Hengelo,Overijssel,VBO,6.769704,52.243907
Robijnstraat,41,,,7554TK,Hengelo,Hengelo,Overijssel,VBO,6.775647,52.245500
Parelstraat,1,,21,7554TL,Hengelo,Hengelo,Overijssel,VBO,6.782958,52.239711
Parelstraat,1,,,7554TL,Hengelo,Hengelo,Overijssel,VBO,6.782997,52.239751
Parelstraat,3,,,7554TL,Hengelo,Hengelo,Overijssel,VBO,6.782820,52.239474
Parelstraat,5,,,7554TL,Hengelo,Hengelo,Overijssel,VBO,6.782528,52.238970
Parelstraat,9,,,7554TL,Hengelo,Hengelo,Overijssel,VBO,6.782197,52.238601
Parelstraat,13,,,7554TL,Hengelo,Hengelo,Overijssel,VBO,6.782116,52.238254
Parelstraat,15,,,7554TL,Hengelo,Hengelo,Overijssel,VBO,6.781977,52.238079
Parelstraat,17,,,7554TL,Hengelo,Hengelo,Overijssel,VBO,6.782497,52.237978
Parelstraat,19,,,7554TL,Hengelo,Hengelo,Overijssel,VBO,6.783294,52.237904
Parelstraat,21,,,7554TL,Hengelo,Hengelo,Overijssel,VBO,6.782189,52.237630
Parelstraat,33,,,7554TL,Hengelo,Hengelo,Overijssel,VBO,6.780503,52.237866
Parelstraat,2,,,7554TM,Hengelo,Hengelo,Overijssel,VBO,6.782583,52.240124
Parelstraat,6,,,7554TM,Hengelo,Hengelo,Overijssel,VBO,6.781932,52.239286
Parelstraat,12,,,7554TM,Hengelo,Hengelo,Overijssel,VBO,6.781602,52.238947
Parelstraat,14,,,7554TM,Hengelo,Hengelo,Overijssel,VBO,6.781656,52.238606
Parelstraat,16,,,7554TM,Hengelo,Hengelo,Overijssel,VBO,6.781326,52.238190
Parelstraat,20,,,7554TM,Hengelo,Hengelo,Overijssel,VBO,6.780966,52.238246
Parelstraat,24,,,7554TM,Hengelo,Hengelo,Overijssel,VBO,6.780454,52.238282
Granaatstraat,15,,,7554TN,Hengelo,Hengelo,Overijssel,VBO,6.771023,52.238293
Granaatstraat,21,,,7554TN,Hengelo,Hengelo,Overijssel,VBO,6.771996,52.239060
Granaatstraat,25,,,7554TN,Hengelo,Hengelo,Overijssel,VBO,6.772174,52.239810
Granaatstraat,29,,,7554TN,Hengelo,Hengelo,Overijssel,VBO,6.771839,52.240006
Granaatstraat,31,,,7554TN,Hengelo,Hengelo,Overijssel,VBO,6.772360,52.240183
Granaatstraat,35,,,7554TN,Hengelo,Hengelo,Overijssel,VBO,6.772422,52.240478
Granaatstraat,51,,,7554TN,Hengelo,Hengelo,Overijssel,VBO,6.773394,52.239622
Granaatstraat,55,,,7554TN,Hengelo,Hengelo,Overijssel,VBO,6.773390,52.239820
Granaatstraat,59,,,7554TN,Hengelo,Hengelo,Overijssel,VBO,6.773422,52.240275
Onyxstraat,4,,,7554TP,Hengelo,Hengelo,Overijssel,VBO,6.780425,52.241479
Onyxstraat,10,,,7554TP,Hengelo,Hengelo,Overijssel,VBO,6.780609,52.241656
Onyxstraat,12,,,7554TP,Hengelo,Hengelo,Overijssel,VBO,6.781118,52.241859
Onyxstraat,20,,,7554TP,Hengelo,Hengelo,Overijssel,VBO,6.780901,52.243362
Onyxstraat,25,,,7554TP,Hengelo,Hengelo,Overijssel,VBO,6.780277,52.243770
Granaatstraat,6,,,7554TR,Hengelo,Hengelo,Overijssel,VBO,6.768741,52.240900
Granaatstraat,16,,,7554TR,Hengelo,Hengelo,Overijssel,VBO,6.768314,52.239363
Granaatstraat,20,,,7554TR,Hengelo,Hengelo,Overijssel,VBO,6.769450,52.238646
Granaatstraat,22,,10,7554TR,Hengelo,Hengelo,Overijssel,VBO,6.769858,52.238026
Granaatstraat,22,,6,7554TR,Hengelo,Hengelo,Overijssel,VBO,6.770161,52.238207
Granaatstraat,22,,,7554TR,Hengelo,Hengelo,Overijssel,VBO,6.769918,52.238389
Granaatstraat,24,,,7554TR,Hengelo,Hengelo,Overijssel,VBO,6.770448,52.237940
Granaatstraat,28,,4,7554TR,Hengelo,Hengelo,Overijssel,VBO,6.770610,52.237484
Granaatstraat,28,,6,7554TR,Hengelo,Hengelo,Overijssel,VBO,6.770465,52.237399
Granaatstraat,28,,,7554TR,Hengelo,Hengelo,Overijssel,VBO,6.770765,52.237576
Granaatstraat,36,,,7554TR,Hengelo,Hengelo,Overijssel,VBO,6.771370,52.237717
Granaatstraat,38,,,7554TR,Hengelo,Hengelo,Overijssel,VBO,6.771400,52.237934
Granaatstraat,46,,,7554TR,Hengelo,Hengelo,Overijssel,VBO,6.771920,52.238270
Granaatstraat,50,,,7554TR,Hengelo,Hengelo,Overijssel,VBO,6.772317,52.238434
Granaatstraat,52,,,7554TR,Hengelo,Hengelo,Overijssel,VBO,6.773567,52.238908
Granaatstraat,54,,,7554TR,Hengelo,Hengelo,Overijssel,VBO,6.772506,52.238852
Granaatstraat,60,,,7554TR,Hengelo,Hengelo,Overijssel,VBO,6.772842,52.239301
Granaatstraat,62,,,7554TR,Hengelo,Hengelo,Overijssel,VBO,6.773228,52.239228
Granaatstraat,66,,,7554TR,Hengelo,Hengelo,Overijssel,VBO,6.773655,52.239206
Granaatstraat,68,,,7554TR,Hengelo,Hengelo,Overijssel,VBO,6.773925,52.239424
Granaatstraat,78,,,7554TR,Hengelo,Hengelo,Overijssel,VBO,6.774079,52.239795
Opaalstraat,2,,,7554TS,Hengelo,Hengelo,Overijssel,VBO,6.776442,52.241913
Opaalstraat,3,,,7554TS,Hengelo,Hengelo,Overijssel,VBO,6.775675,52.242003
Opaalstraat,5,,,7554TS,Hengelo,Hengelo,Overijssel,VBO,6.775700,52.242068
Opaalstraat,7,,,7554TS,Hengelo,Hengelo,Overijssel,VBO,6.775725,52.242142
Opaalstraat,9,,,7554TS,Hengelo,Hengelo,Overijssel,VBO,6.775744,52.242211
Opaalstraat,10,,,7554TS,Hengelo,Hengelo,Overijssel,VBO,6.776726,52.243157
Opaalstraat,11,,,7554TS,Hengelo,Hengelo,Overijssel,VBO,6.775758,52.242274
Opaalstraat,13,,,7554TS,Hengelo,Hengelo,Overijssel,VBO,6.775776,52.242347
Opaalstraat,14,,,7554TS,Hengelo,Hengelo,Overijssel,VBO,6.776780,52.243305
Opaalstraat,15,,1,7554TS,Hengelo,Hengelo,Overijssel,VBO,6.775807,52.242495
Opaalstraat,15,,,7554TS,Hengelo,Hengelo,Overijssel,VBO,6.775780,52.242422
Opaalstraat,17,,,7554TS,Hengelo,Hengelo,Overijssel,VBO,6.775823,52.242574
Opaalstraat,18,,,7554TS,Hengelo,Hengelo,Overijssel,VBO,6.776838,52.243458
Opaalstraat,19,,,7554TS,Hengelo,Hengelo,Overijssel,VBO,6.775874,52.242746
Opaalstraat,22,,,7554TS,Hengelo,Hengelo,Overijssel,VBO,6.777113,52.244081
Opaalstraat,31,,,7554TS,Hengelo,Hengelo,Overijssel,VBO,6.775647,52.245500
Opaalstraat,34,,,7554TS,Hengelo,Hengelo,Overijssel,VBO,6.777231,52.244907
Opaalstraat,39,,,7554TS,Hengelo,Hengelo,Overijssel,VBO,6.774648,52.247456
Opaalstraat,42,,,7554TS,Hengelo,Hengelo,Overijssel,VBO,6.777373,52.245554
Opaalstraat,50,,,7554TS,Hengelo,Hengelo,Overijssel,VBO,6.777618,52.245901
Opaalstraat,60,,,7554TS,Hengelo,Hengelo,Overijssel,VBO,6.777699,52.246286
Zirkoonstraat,3,,,7554TT,Hengelo,Hengelo,Overijssel,VBO,6.785162,52.240644
Zirkoonstraat,4,,,7554TT,Hengelo,Hengelo,Overijssel,VBO,6.786511,52.241139
Zirkoonstraat,7,,,7554TT,Hengelo,Hengelo,Overijssel,VBO,6.785931,52.241858
Zirkoonstraat,9,,,7554TT,Hengelo,Hengelo,Overijssel,VBO,6.786076,52.242491
Zirkoonstraat,10,,2,7554TT,Hengelo,Hengelo,Overijssel,VBO,6.787083,52.242636
Zirkoonstraat,10,,4,7554TT,Hengelo,Hengelo,Overijssel,VBO,6.787063,52.242579
Zirkoonstraat,10,,8,7554TT,Hengelo,Hengelo,Overijssel,VBO,6.787416,52.242606
Zirkoonstraat,14,,,7554TT,Hengelo,Hengelo,Overijssel,VBO,6.787298,52.243147
Zirkoonstraat,15,,,7554TT,Hengelo,Hengelo,Overijssel,VBO,6.785131,52.242599
Zirkoonstraat,16,,,7554TT,Hengelo,Hengelo,Overijssel,VBO,6.785939,52.242861
Zirkoonstraat,20,,,7554TT,Hengelo,Hengelo,Overijssel,VBO,6.785532,52.242924
Amarilstraat,4,,,7554TV,Hengelo,Hengelo,Overijssel,VBO,6.768345,52.241450
Amarilstraat,5,,,7554TV,Hengelo,Hengelo,Overijssel,VBO,6.767816,52.241205
Amarilstraat,6,,10,7554TV,Hengelo,Hengelo,Overijssel,VBO,6.767954,52.241600
Amarilstraat,6,,12,7554TV,Hengelo,Hengelo,Overijssel,VBO,6.767753,52.241664
Amarilstraat,6,,4,7554TV,Hengelo,Hengelo,Overijssel,VBO,6.767944,52.241649
Amarilstraat,10,,,7554TV,Hengelo,Hengelo,Overijssel,VBO,6.767572,52.241696
Amarilstraat,11,,,7554TV,Hengelo,Hengelo,Overijssel,VBO,6.766654,52.241117
Amarilstraat,12,,,7554TV,Hengelo,Hengelo,Overijssel,VBO,6.767378,52.241711
Amarilstraat,13,,,7554TV,Hengelo,Hengelo,Overijssel,VBO,6.766926,52.240678
Amarilstraat,14,,,7554TV,Hengelo,Hengelo,Overijssel,VBO,6.767206,52.241777
Amarilstraat,15,,,7554TV,Hengelo,Hengelo,Overijssel,VBO,6.767244,52.240871
Amarilstraat,16,,,7554TV,Hengelo,Hengelo,Overijssel,VBO,6.765891,52.241172
Amarilstraat,18,,,7554TV,Hengelo,Hengelo,Overijssel,VBO,6.765781,52.241257
Amarilstraat,19,,,7554TV,Hengelo,Hengelo,Overijssel,VBO,6.768140,52.240409
Amarilstraat,20,,,7554TV,Hengelo,Hengelo,Overijssel,VBO,6.765747,52.241377
Amarilstraat,21,,,7554TV,Hengelo,Hengelo,Overijssel,VBO,6.768538,52.240303
Amarilstraat,22,,,7554TV,Hengelo,Hengelo,Overijssel,VBO,6.765589,52.241385
Amarilstraat,26,,,7554TV,Hengelo,Hengelo,Overijssel,VBO,6.765841,52.241149
Amarilstraat,28,,,7554TV,Hengelo,Hengelo,Overijssel,VBO,6.765731,52.241237
Amarilstraat,30,,,7554TV,Hengelo,Hengelo,Overijssel,VBO,6.765755,52.241412
Amarilstraat,32,,,7554TV,Hengelo,Hengelo,Overijssel,VBO,6.765755,52.241412
Amarilstraat,34,,,7554TV,Hengelo,Hengelo,Overijssel,VBO,6.765766,52.241347
Amarilstraat,36,,,7554TV,Hengelo,Hengelo,Overijssel,VBO,6.765752,52.241280
Amarilstraat,38,,,7554TV,Hengelo,Hengelo,Overijssel,VBO,6.767558,52.240305
Amarilstraat,40,,,7554TV,Hengelo,Hengelo,Overijssel,VBO,6.767825,52.240129
Spinelstraat,3,,,7554TW,Hengelo,Hengelo,Overijssel,VBO,6.779527,52.246255
Spinelstraat,15,,,7554TW,Hengelo,Hengelo,Overijssel,VBO,6.779542,52.245801
Spinelstraat,18,,,7554TW,Hengelo,Hengelo,Overijssel,VBO,6.778801,52.246262
Spinelstraat,20,,,7554TW,Hengelo,Hengelo,Overijssel,VBO,6.778896,52.245818
Spinelstraat,22,,,7554TW,Hengelo,Hengelo,Overijssel,VBO,6.778845,52.245624
Spinelstraat,28,,,7554TW,Hengelo,Hengelo,Overijssel,VBO,6.778788,52.245410
Spinelstraat,30,,,7554TW,Hengelo,Hengelo,Overijssel,VBO,6.778695,52.245069
Spinelstraat,37,,,7554TW,Hengelo,Hengelo,Overijssel,VBO,6.779307,52.245162
Spinelstraat,39,,,7554TW,Hengelo,Hengelo,Overijssel,VBO,6.779205,52.244810
Spinelstraat,40,,,7554TW,Hengelo,Hengelo,Overijssel,VBO,6.778457,52.244774
Spinelstraat,45,,,7554TW,Hengelo,Hengelo,Overijssel,VBO,6.778954,52.244452
Spinelstraat,50,,,7554TW,Hengelo,Hengelo,Overijssel,VBO,6.778377,52.244560
Toermalijnstraat,2,,,7554TX,Hengelo,Hengelo,Overijssel,VBO,6.783307,52.240780
Toermalijnstraat,4,,,7554TX,Hengelo,Hengelo,Overijssel,VBO,6.783508,52.241470
Toermalijnstraat,5,,,7554TX,Hengelo,Hengelo,Overijssel,VBO,6.782082,52.241327
Toermalijnstraat,6,,2,7554TX,Hengelo,Hengelo,Overijssel,VBO,6.784190,52.241960
Toermalijnstraat,8,,,7554TX,Hengelo,Hengelo,Overijssel,VBO,6.784591,52.242057
Toermalijnstraat,9,,,7554TX,Hengelo,Hengelo,Overijssel,VBO,6.783123,52.241946
Toermalijnstraat,13,,,7554TX,Hengelo,Hengelo,Overijssel,VBO,6.783290,52.242247
Toermalijnstraat,15,,,7554TX,Hengelo,Hengelo,Overijssel,VBO,6.784232,52.242663
Toermalijnstraat,16,,,7554TX,Hengelo,Hengelo,Overijssel,VBO,6.780239,52.244262
Toermalijnstraat,18,,,7554TX,Hengelo,Hengelo,Overijssel,VBO,6.779648,52.244256
Toermalijnstraat,22,,,7554TX,Hengelo,Hengelo,Overijssel,VBO,6.777564,52.244501
Toermalijnstraat,24,,,7554TX,Hengelo,Hengelo,Overijssel,VBO,6.777357,52.244525
Toermalijnstraat,26,,,7554TX,Hengelo,Hengelo,Overijssel,VBO,6.777137,52.244548
Toermalijnstraat,27,,,7554TX,Hengelo,Hengelo,Overijssel,VBO,6.779433,52.243859
Toermalijnstraat,35,,,7554TX,Hengelo,Hengelo,Overijssel,VBO,6.779024,52.243934
Toermalijnstraat,45,,,7554TX,Hengelo,Hengelo,Overijssel,VBO,6.778529,52.243982
Jadestraat,14,,,7554TZ,Hengelo,Hengelo,Overijssel,VBO,6.783351,52.244607
Jadestraat,15,,,7554TZ,Hengelo,Hengelo,Overijssel,VBO,6.784237,52.244613
