openbareruimtenaam,huisnummer,huisletter,huisnummertoevoeging,postcode,woonplaatsnaam,gemeentenaam,provincienaam,typeadresseerbaarobject,longitude,latitude
Meester Nijkrakeweg,1,,,7561AA,Deurningen,Dinkelland,Overijssel,VBO,6.832633,52.299990
Meester Nijkrakeweg,2,,,7561AA,Deurningen,Dinkelland,Overijssel,VBO,6.832877,52.300284
Meester Nijkrakeweg,3,,,7561AA,Deurningen,Dinkelland,Overijssel,VBO,6.832476,52.300136
Meester Nijkrakeweg,4,,,7561AA,Deurningen,Dinkelland,Overijssel,VBO,6.832834,52.300320
Meester Nijkrakeweg,5,A,,7561AA,Deurningen,Dinkelland,Overijssel,VBO,6.831987,52.300430
Meester Nijkrakeweg,5,,,7561AA,Deurningen,Dinkelland,Overijssel,VBO,6.832100,52.300293
Meester Nijkrakeweg,6,,,7561AA,Deurningen,Dinkelland,Overijssel,VBO,6.832676,52.300412
Meester Nijkrakeweg,8,,,7561AA,Deurningen,Dinkelland,Overijssel,VBO,6.832633,52.300449
Meester Nijkrakeweg,10,,,7561AA,Deurningen,Dinkelland,Overijssel,VBO,6.832474,52.300523
Meester Nijkrakeweg,12,,,7561AA,Deurningen,Dinkelland,Overijssel,VBO,6.832286,52.300606
Meester Nijkrakeweg,14,A,,7561AA,Deurningen,Dinkelland,Overijssel,VBO,6.832086,52.301228
Meester Nijkrakeweg,14,,,7561AA,Deurningen,Dinkelland,Overijssel,VBO,6.832098,52.300671
Hoofdstraat,1,,,7561AB,Deurningen,Dinkelland,Overijssel,VBO,6.838429,52.303281
Hoofdstraat,3,A,,7561AB,Deurningen,Dinkelland,Overijssel,VBO,6.838000,52.302262
Hoofdstraat,3,,,7561AB,Deurningen,Dinkelland,Overijssel,VBO,6.838079,52.302440
Hoofdstraat,5,A,,7561AB,Deurningen,Dinkelland,Overijssel,VBO,6.837452,52.301208
Hoofdstraat,5,,,7561AB,Deurningen,Dinkelland,Overijssel,VBO,6.837541,52.301234
Hoofdstraat,7,,,7561AB,Deurningen,Dinkelland,Overijssel,VBO,6.836446,52.300465
Hoofdstraat,9,,,7561AB,Deurningen,Dinkelland,Overijssel,VBO,6.836216,52.300630
Hoofdstraat,11,,,7561AB,Deurningen,Dinkelland,Overijssel,VBO,6.835441,52.300244
Hoofdstraat,13,,,7561AB,Deurningen,Dinkelland,Overijssel,VBO,6.835204,52.300166
Hoofdstraat,15,,,7561AB,Deurningen,Dinkelland,Overijssel,VBO,6.834997,52.300105
Hoofdstraat,17,,,7561AB,Deurningen,Dinkelland,Overijssel,VBO,6.834553,52.299985
Hoofdstraat,19,,,7561AB,Deurningen,Dinkelland,Overijssel,VBO,6.834365,52.300059
Hoofdstraat,21,,,7561AB,Deurningen,Dinkelland,Overijssel,VBO,6.834247,52.300042
Hoofdstraat,23,,,7561AB,Deurningen,Dinkelland,Overijssel,VBO,6.833967,52.300010
Hoofdstraat,25,A,,7561AB,Deurningen,Dinkelland,Overijssel,VBO,6.833466,52.299926
Hoofdstraat,25,,TRAF,7561AB,Deurningen,Dinkelland,Overijssel,VBO,6.833343,52.299757
Hoofdstraat,25,,,7561AB,Deurningen,Dinkelland,Overijssel,VBO,6.833555,52.299952
Hoofdstraat,27,,,7561AB,Deurningen,Dinkelland,Overijssel,VBO,6.833738,52.299725
Hoofdstraat,29,,,7561AB,Deurningen,Dinkelland,Overijssel,VBO,6.833206,52.299588
Hoofdstraat,2,,,7561AC,Deurningen,Dinkelland,Overijssel,VBO,6.837673,52.303938
Hoofdstraat,4,,,7561AC,Deurningen,Dinkelland,Overijssel,VBO,6.837584,52.303912
Hoofdstraat,6,,,7561AC,Deurningen,Dinkelland,Overijssel,VBO,6.837719,52.303533
Hoofdstraat,10,,,7561AC,Deurningen,Dinkelland,Overijssel,VBO,6.837552,52.303364
Hoofdstraat,12,,,7561AC,Deurningen,Dinkelland,Overijssel,VBO,6.837634,52.303183
Hoofdstraat,14,,,7561AC,Deurningen,Dinkelland,Overijssel,VBO,6.837554,52.302986
Hoofdstraat,20,,,7561AC,Deurningen,Dinkelland,Overijssel,VBO,6.837480,52.302511
Hoofdstraat,22,,,7561AC,Deurningen,Dinkelland,Overijssel,VBO,6.837431,52.302359
Hoofdstraat,24,,,7561AC,Deurningen,Dinkelland,Overijssel,VBO,6.837157,52.302038
Hoofdstraat,26,,,7561AC,Deurningen,Dinkelland,Overijssel,VBO,6.837147,52.301751
Hoofdstraat,28,,,7561AC,Deurningen,Dinkelland,Overijssel,VBO,6.836960,52.301393
Hoofdstraat,30,,,7561AC,Deurningen,Dinkelland,Overijssel,VBO,6.836960,52.301393
Hoofdstraat,32,A,,7561AC,Deurningen,Dinkelland,Overijssel,VBO,6.836658,52.301128
Hoofdstraat,32,B,,7561AC,Deurningen,Dinkelland,Overijssel,VBO,6.836658,52.301128
Hoofdstraat,32,C,,7561AC,Deurningen,Dinkelland,Overijssel,VBO,6.836658,52.301128
Hoofdstraat,32,D,,7561AC,Deurningen,Dinkelland,Overijssel,VBO,6.836658,52.301128
Hoofdstraat,32,E,,7561AC,Deurningen,Dinkelland,Overijssel,VBO,6.836658,52.301128
Hoofdstraat,32,,,7561AC,Deurningen,Dinkelland,Overijssel,VBO,6.836896,52.301250
Hoofdstraat,38,,,7561AC,Deurningen,Dinkelland,Overijssel,VBO,6.835798,52.300850
Hoofdstraat,40,,,7561AC,Deurningen,Dinkelland,Overijssel,VBO,6.835294,52.300668
Hoofdstraat,42,,,7561AC,Deurningen,Dinkelland,Overijssel,VBO,6.835115,52.300580
Hoofdstraat,44,,,7561AC,Deurningen,Dinkelland,Overijssel,VBO,6.834922,52.300502
Hoofdstraat,48,,,7561AC,Deurningen,Dinkelland,Overijssel,VBO,6.834286,52.300321
Hoofdstraat,52,,,7561AC,Deurningen,Dinkelland,Overijssel,VBO,6.833850,52.300443
Hoofdstraat,56,,,7561AC,Deurningen,Dinkelland,Overijssel,VBO,6.833326,52.300117
Hoofdstraat,58,,,7561AC,Deurningen,Dinkelland,Overijssel,VBO,6.833222,52.300082
Hoofdstraat,60,,,7561AC,Deurningen,Dinkelland,Overijssel,VBO,6.832365,52.299868
Sint Plechelmusplein,1,,,7561AD,Deurningen,Dinkelland,Overijssel,VBO,6.837495,52.301171
Sint Plechelmusplein,3,,,7561AD,Deurningen,Dinkelland,Overijssel,VBO,6.837584,52.301188
Sint Plechelmusplein,5,,,7561AD,Deurningen,Dinkelland,Overijssel,VBO,6.838216,52.300803
Sint Plechelmusplein,9,,,7561AD,Deurningen,Dinkelland,Overijssel,VBO,6.838092,52.300607
Sint Plechelmusplein,21,,,7561AD,Deurningen,Dinkelland,Overijssel,VBO,6.836830,52.300559
Sint Plechelmusplein,23,,,7561AD,Deurningen,Dinkelland,Overijssel,VBO,6.836684,52.300597
Pastoor Teussestraat,1,,,7561AE,Deurningen,Dinkelland,Overijssel,VBO,6.837234,52.300347
Pastoor Teussestraat,2,,,7561AE,Deurningen,Dinkelland,Overijssel,VBO,6.836866,52.300307
Pastoor Teussestraat,4,,,7561AE,Deurningen,Dinkelland,Overijssel,VBO,6.836864,52.300244
Pastoor Teussestraat,5,,,7561AE,Deurningen,Dinkelland,Overijssel,VBO,6.837184,52.300177
Pastoor Teussestraat,6,,,7561AE,Deurningen,Dinkelland,Overijssel,VBO,6.836860,52.300136
Pastoor Teussestraat,7,,,7561AE,Deurningen,Dinkelland,Overijssel,VBO,6.837195,52.300078
Pastoor Teussestraat,8,,,7561AE,Deurningen,Dinkelland,Overijssel,VBO,6.836886,52.300019
Pastoor Teussestraat,10,,,7561AE,Deurningen,Dinkelland,Overijssel,VBO,6.836884,52.299956
Wilthuisstraat,3,,,7561AG,Deurningen,Dinkelland,Overijssel,VBO,6.835983,52.300210
Wilthuisstraat,5,,,7561AG,Deurningen,Dinkelland,Overijssel,VBO,6.836111,52.300083
Wilthuisstraat,7,,,7561AG,Deurningen,Dinkelland,Overijssel,VBO,6.836195,52.299983
Wilthuisstraat,9,,,7561AG,Deurningen,Dinkelland,Overijssel,VBO,6.836295,52.299883
Wilthuisstraat,11,,,7561AG,Deurningen,Dinkelland,Overijssel,VBO,6.836423,52.299773
Wilthuisstraat,13,,,7561AG,Deurningen,Dinkelland,Overijssel,VBO,6.836597,52.299717
Wilthuisstraat,15,,,7561AG,Deurningen,Dinkelland,Overijssel,VBO,6.836788,52.299715
Wilthuisstraat,17,,,7561AG,Deurningen,Dinkelland,Overijssel,VBO,6.836890,52.299713
Wilthuisstraat,19,,,7561AG,Deurningen,Dinkelland,Overijssel,VBO,6.837198,52.299710
Wilthuisstraat,21,,,7561AG,Deurningen,Dinkelland,Overijssel,VBO,6.837301,52.299708
Wilthuisstraat,23,,,7561AG,Deurningen,Dinkelland,Overijssel,VBO,6.837505,52.299688
Wilthuisstraat,25,,,7561AG,Deurningen,Dinkelland,Overijssel,VBO,6.837693,52.299614
Wilthuisstraat,27,,,7561AG,Deurningen,Dinkelland,Overijssel,VBO,6.837807,52.299513
Wilthuisstraat,29,,,7561AG,Deurningen,Dinkelland,Overijssel,VBO,6.837874,52.299297
Wilthuisstraat,31,,,7561AG,Deurningen,Dinkelland,Overijssel,VBO,6.837887,52.299243
Wilthuisstraat,33,,,7561AG,Deurningen,Dinkelland,Overijssel,VBO,6.837912,52.299117
Wilthuisstraat,35,,,7561AG,Deurningen,Dinkelland,Overijssel,VBO,6.837962,52.298873
Wilthuisstraat,37,,,7561AG,Deurningen,Dinkelland,Overijssel,VBO,6.837961,52.298819
Wilthuisstraat,39,,,7561AG,Deurningen,Dinkelland,Overijssel,VBO,6.837987,52.298720
Wilthuisstraat,41,,,7561AG,Deurningen,Dinkelland,Overijssel,VBO,6.838000,52.298666
Wilthuisstraat,47,,,7561AG,Deurningen,Dinkelland,Overijssel,VBO,6.838011,52.298567
Wilthuisstraat,49,,,7561AG,Deurningen,Dinkelland,Overijssel,VBO,6.838035,52.298405
Wilthuisstraat,51,,,7561AG,Deurningen,Dinkelland,Overijssel,VBO,6.837942,52.298235
Wilthuisstraat,2,,,7561AH,Deurningen,Dinkelland,Overijssel,VBO,6.835633,52.299973
Wilthuisstraat,4,,,7561AH,Deurningen,Dinkelland,Overijssel,VBO,6.835811,52.299897
Wilthuisstraat,6,,,7561AH,Deurningen,Dinkelland,Overijssel,VBO,6.835854,52.299852
Wilthuisstraat,8,,,7561AH,Deurningen,Dinkelland,Overijssel,VBO,6.835968,52.299752
Wilthuisstraat,10,,,7561AH,Deurningen,Dinkelland,Overijssel,VBO,6.836082,52.299651
Wilthuisstraat,12,,,7561AH,Deurningen,Dinkelland,Overijssel,VBO,6.836154,52.299606
Wilthuisstraat,14,,,7561AH,Deurningen,Dinkelland,Overijssel,VBO,6.836313,52.299532
Wilthuisstraat,16,,,7561AH,Deurningen,Dinkelland,Overijssel,VBO,6.836531,52.299484
Wilthuisstraat,18,,,7561AH,Deurningen,Dinkelland,Overijssel,VBO,6.836618,52.299465
Wilthuisstraat,20,,,7561AH,Deurningen,Dinkelland,Overijssel,VBO,6.836823,52.299463
Wilthuisstraat,22,,,7561AH,Deurningen,Dinkelland,Overijssel,VBO,6.837014,52.299460
Wilthuisstraat,24,,,7561AH,Deurningen,Dinkelland,Overijssel,VBO,6.837102,52.299459
Wilthuisstraat,26,A,,7561AH,Deurningen,Dinkelland,Overijssel,VBO,6.837475,52.299203
Wilthuisstraat,26,,,7561AH,Deurningen,Dinkelland,Overijssel,VBO,6.837379,52.299411
Wilthuisstraat,28,,,7561AH,Deurningen,Dinkelland,Overijssel,VBO,6.837500,52.299086
Wilthuisstraat,30,,,7561AH,Deurningen,Dinkelland,Overijssel,VBO,6.837551,52.298851
Wilthuisstraat,32,,,7561AH,Deurningen,Dinkelland,Overijssel,VBO,6.837577,52.298743
Wilthuisstraat,34,,,7561AH,Deurningen,Dinkelland,Overijssel,VBO,6.837588,52.298617
Wilthuisstraat,36,,,7561AH,Deurningen,Dinkelland,Overijssel,VBO,6.837599,52.298509
Wilthuisstraat,38,,,7561AH,Deurningen,Dinkelland,Overijssel,VBO,6.837549,52.298339
Wilthuisstraat,40,,,7561AH,Deurningen,Dinkelland,Overijssel,VBO,6.837397,52.298170
Pastoor Gloerichstraat,1,,,7561AJ,Deurningen,Dinkelland,Overijssel,VBO,6.840180,52.301210
Pastoor Gloerichstraat,3,,,7561AJ,Deurningen,Dinkelland,Overijssel,VBO,6.840205,52.301102
Pastoor Gloerichstraat,5,,,7561AJ,Deurningen,Dinkelland,Overijssel,VBO,6.840172,52.300994
Pastoor Gloerichstraat,7,,,7561AJ,Deurningen,Dinkelland,Overijssel,VBO,6.840125,52.300887
Pastoor Gloerichstraat,9,,,7561AJ,Deurningen,Dinkelland,Overijssel,VBO,6.840092,52.300771
Pastoor Gloerichstraat,11,,,7561AJ,Deurningen,Dinkelland,Overijssel,VBO,6.840099,52.300555
Pastoor Gloerichstraat,13,,,7561AJ,Deurningen,Dinkelland,Overijssel,VBO,6.840097,52.300492
Pastoor Gloerichstraat,15,,,7561AJ,Deurningen,Dinkelland,Overijssel,VBO,6.840065,52.300385
Pastoor Gloerichstraat,17,,,7561AJ,Deurningen,Dinkelland,Overijssel,VBO,6.840048,52.300322
Pastoor Gloerichstraat,19,,,7561AJ,Deurningen,Dinkelland,Overijssel,VBO,6.840015,52.300214
Pastoor Gloerichstraat,25,,,7561AJ,Deurningen,Dinkelland,Overijssel,VBO,6.840026,52.300106
Pastoor Gloerichstraat,27,,,7561AJ,Deurningen,Dinkelland,Overijssel,VBO,6.840024,52.300052
Pastoor Gloerichstraat,29,,,7561AJ,Deurningen,Dinkelland,Overijssel,VBO,6.839992,52.299954
Pastoor Gloerichstraat,31,,,7561AJ,Deurningen,Dinkelland,Overijssel,VBO,6.839961,52.299900
Pastoor Gloerichstraat,33,,,7561AJ,Deurningen,Dinkelland,Overijssel,VBO,6.839880,52.299668
Pastoor Gloerichstraat,35,,,7561AJ,Deurningen,Dinkelland,Overijssel,VBO,6.839848,52.299605
Pastoor Gloerichstraat,37,,,7561AJ,Deurningen,Dinkelland,Overijssel,VBO,6.839816,52.299507
Pastoor Gloerichstraat,39,,,7561AJ,Deurningen,Dinkelland,Overijssel,VBO,6.839800,52.299453
Pastoor Gloerichstraat,41,,,7561AK,Deurningen,Dinkelland,Overijssel,VBO,6.839690,52.299239
Pastoor Gloerichstraat,43,,,7561AK,Deurningen,Dinkelland,Overijssel,VBO,6.839715,52.299112
Pastoor Gloerichstraat,45,,,7561AK,Deurningen,Dinkelland,Overijssel,VBO,6.839712,52.299014
Pastoor Gloerichstraat,47,,,7561AK,Deurningen,Dinkelland,Overijssel,VBO,6.839474,52.298927
Pastoor Gloerichstraat,49,,,7561AK,Deurningen,Dinkelland,Overijssel,VBO,6.839284,52.298920
Pastoor Gloerichstraat,51,,,7561AK,Deurningen,Dinkelland,Overijssel,VBO,6.839078,52.298922
Pastoor Gloerichstraat,55,,,7561AK,Deurningen,Dinkelland,Overijssel,VBO,6.838829,52.298908
Pastoor Gloerichstraat,57,,,7561AK,Deurningen,Dinkelland,Overijssel,VBO,6.838652,52.298892
Pastoor Gloerichstraat,59,,,7561AK,Deurningen,Dinkelland,Overijssel,VBO,6.838417,52.298886
Pastoor Gloerichstraat,65,,TRAF,7561AK,Deurningen,Dinkelland,Overijssel,VBO,6.837162,52.298613
Pastoor Gloerichstraat,65,,,7561AK,Deurningen,Dinkelland,Overijssel,VBO,6.837080,52.298794
Pastoor Gloerichstraat,67,,,7561AK,Deurningen,Dinkelland,Overijssel,VBO,6.836993,52.298813
Pastoor Gloerichstraat,69,,,7561AK,Deurningen,Dinkelland,Overijssel,VBO,6.836816,52.298779
Pastoor Gloerichstraat,71,,,7561AK,Deurningen,Dinkelland,Overijssel,VBO,6.836713,52.298772
Pastoor Gloerichstraat,73,,,7561AK,Deurningen,Dinkelland,Overijssel,VBO,6.836492,52.298738
Pastoor Gloerichstraat,75,,,7561AK,Deurningen,Dinkelland,Overijssel,VBO,6.836432,52.298694
Pastoor Gloerichstraat,2,,,7561AL,Deurningen,Dinkelland,Overijssel,VBO,6.839682,52.301252
Pastoor Gloerichstraat,4,,,7561AL,Deurningen,Dinkelland,Overijssel,VBO,6.839666,52.301198
Pastoor Gloerichstraat,6,,,7561AL,Deurningen,Dinkelland,Overijssel,VBO,6.839648,52.301109
Pastoor Gloerichstraat,8,,,7561AL,Deurningen,Dinkelland,Overijssel,VBO,6.839661,52.301055
Pastoor Gloerichstraat,10,,,7561AL,Deurningen,Dinkelland,Overijssel,VBO,6.839643,52.300956
Pastoor Gloerichstraat,12,,,7561AL,Deurningen,Dinkelland,Overijssel,VBO,6.839642,52.300902
Pastoor Gloerichstraat,14,,,7561AL,Deurningen,Dinkelland,Overijssel,VBO,6.839653,52.300803
Pastoor Gloerichstraat,16,,,7561AL,Deurningen,Dinkelland,Overijssel,VBO,6.839651,52.300749
Pastoor Gloerichstraat,18,,,7561AL,Deurningen,Dinkelland,Overijssel,VBO,6.839648,52.300659
Pastoor Gloerichstraat,20,,,7561AL,Deurningen,Dinkelland,Overijssel,VBO,6.839632,52.300597
Pastoor Gloerichstraat,22,,,7561AL,Deurningen,Dinkelland,Overijssel,VBO,6.839628,52.300498
Pastoor Gloerichstraat,24,,,7561AL,Deurningen,Dinkelland,Overijssel,VBO,6.839627,52.300453
Pastoor Gloerichstraat,26,,,7561AL,Deurningen,Dinkelland,Overijssel,VBO,6.839609,52.300354
Pastoor Gloerichstraat,28,,,7561AL,Deurningen,Dinkelland,Overijssel,VBO,6.839593,52.300300
Pastoor Gloerichstraat,30,,,7561AL,Deurningen,Dinkelland,Overijssel,VBO,6.839560,52.300211
Pastoor Gloerichstraat,32,,,7561AL,Deurningen,Dinkelland,Overijssel,VBO,6.839544,52.300157
Pastoor Gloerichstraat,34,,,7561AM,Deurningen,Dinkelland,Overijssel,VBO,6.839398,52.299728
Pastoor Gloerichstraat,36,,,7561AM,Deurningen,Dinkelland,Overijssel,VBO,6.839350,52.299620
Pastoor Gloerichstraat,38,,,7561AM,Deurningen,Dinkelland,Overijssel,VBO,6.839332,52.299504
Pastoor Gloerichstraat,40,,,7561AM,Deurningen,Dinkelland,Overijssel,VBO,6.839252,52.299289
Pastoor Gloerichstraat,42,,,7561AM,Deurningen,Dinkelland,Overijssel,VBO,6.839044,52.299229
Pastoor Gloerichstraat,44,,,7561AM,Deurningen,Dinkelland,Overijssel,VBO,6.838942,52.299221
Pastoor Gloerichstraat,46,,,7561AM,Deurningen,Dinkelland,Overijssel,VBO,6.838794,52.299205
Pastoor Gloerichstraat,48,,,7561AM,Deurningen,Dinkelland,Overijssel,VBO,6.838706,52.299197
Pastoor Gloerichstraat,50,,,7561AM,Deurningen,Dinkelland,Overijssel,VBO,6.838545,52.299190
Pastoor Gloerichstraat,52,,,7561AM,Deurningen,Dinkelland,Overijssel,VBO,6.838442,52.299182
Pastoor Gloerichstraat,54,,,7561AM,Deurningen,Dinkelland,Overijssel,VBO,6.838266,52.299175
Pastoor Gloerichstraat,58,,,7561AM,Deurningen,Dinkelland,Overijssel,VBO,6.837060,52.299082
Pastoor Gloerichstraat,60,,,7561AM,Deurningen,Dinkelland,Overijssel,VBO,6.836957,52.299056
Pastoor Gloerichstraat,62,,,7561AM,Deurningen,Dinkelland,Overijssel,VBO,6.836810,52.299049
Pastoor Gloerichstraat,64,,,7561AM,Deurningen,Dinkelland,Overijssel,VBO,6.836722,52.299050
Pastoor Gloerichstraat,66,,,7561AM,Deurningen,Dinkelland,Overijssel,VBO,6.836575,52.299043
Pastoor Gloerichstraat,68,,,7561AM,Deurningen,Dinkelland,Overijssel,VBO,6.836472,52.299035
Pastoor Gloerichstraat,70,,,7561AM,Deurningen,Dinkelland,Overijssel,VBO,6.836281,52.299011
Pastoor Gloerichstraat,72,,,7561AM,Deurningen,Dinkelland,Overijssel,VBO,6.836178,52.299003
Pastoor Gloerichstraat,74,,,7561AM,Deurningen,Dinkelland,Overijssel,VBO,6.836031,52.298978
Pastoor Gloerichstraat,76,,,7561AM,Deurningen,Dinkelland,Overijssel,VBO,6.835942,52.298961
Industriestraat,61,c,,7561AN,Tubbergen,Tubbergen,Overijssel,VBO,6.786454,52.403148
Vliegveldstraat,1,,,7561AN,Deurningen,Dinkelland,Overijssel,VBO,6.834045,52.299676
Vliegveldstraat,3,,,7561AN,Deurningen,Dinkelland,Overijssel,VBO,6.834263,52.299629
Vliegveldstraat,5,,,7561AN,Deurningen,Dinkelland,Overijssel,VBO,6.834466,52.299563
Vliegveldstraat,7,,,7561AN,Deurningen,Dinkelland,Overijssel,VBO,6.834640,52.299489
Vliegveldstraat,9,,,7561AN,Deurningen,Dinkelland,Overijssel,VBO,6.834856,52.299388
Vliegveldstraat,11,,,7561AN,Deurningen,Dinkelland,Overijssel,VBO,6.834986,52.299305
Vliegveldstraat,13,,,7561AN,Deurningen,Dinkelland,Overijssel,VBO,6.835144,52.299204
Vliegveldstraat,17,,,7561AN,Deurningen,Dinkelland,Overijssel,VBO,6.835358,52.299049
Vliegveldstraat,19,,,7561AN,Deurningen,Dinkelland,Overijssel,VBO,6.835501,52.298939
Vliegveldstraat,21,,,7561AN,Deurningen,Dinkelland,Overijssel,VBO,6.835559,52.298894
Vliegveldstraat,23,,,7561AN,Deurningen,Dinkelland,Overijssel,VBO,6.835717,52.298820
Vliegveldstraat,25,,,7561AN,Deurningen,Dinkelland,Overijssel,VBO,6.835842,52.298603
Vliegveldstraat,27,,,7561AN,Deurningen,Dinkelland,Overijssel,VBO,6.836147,52.298491
Vliegveldstraat,29,,,7561AN,Deurningen,Dinkelland,Overijssel,VBO,6.836406,52.298362
Vliegveldstraat,31,,,7561AN,Deurningen,Dinkelland,Overijssel,VBO,6.836596,52.298333
Vliegveldstraat,33,,,7561AN,Deurningen,Dinkelland,Overijssel,VBO,6.836769,52.298259
Vliegveldstraat,35,,,7561AN,Deurningen,Dinkelland,Overijssel,VBO,6.836944,52.298212
Vliegveldstraat,37,,,7561AN,Deurningen,Dinkelland,Overijssel,VBO,6.837118,52.298165
Vliegveldstraat,39,A,,7561AN,Deurningen,Dinkelland,Overijssel,VBO,6.838036,52.297991
Vliegveldstraat,39,,,7561AN,Deurningen,Dinkelland,Overijssel,VBO,6.837905,52.298002
Vliegveldstraat,41,,,7561AN,Deurningen,Dinkelland,Overijssel,VBO,6.838279,52.297782
Vliegveldstraat,43,A,,7561AN,Deurningen,Dinkelland,Overijssel,VBO,6.838682,52.297552
Vliegveldstraat,43,,,7561AN,Deurningen,Dinkelland,Overijssel,VBO,6.838737,52.297444
Ossendijk,1,,,7561AP,Deurningen,Dinkelland,Overijssel,VBO,6.830478,52.300466
Ossendijk,2,A,,7561AP,Deurningen,Dinkelland,Overijssel,VBO,6.831222,52.301239
Ossendijk,2,,,7561AP,Deurningen,Dinkelland,Overijssel,VBO,6.831089,52.301232
Ossendijk,3,,,7561AP,Deurningen,Dinkelland,Overijssel,VBO,6.829703,52.301437
Ossendijk,4,,,7561AP,Deurningen,Dinkelland,Overijssel,VBO,6.831128,52.301519
Ossendijk,5,,,7561AP,Deurningen,Dinkelland,Overijssel,VBO,6.828924,52.301833
Ossendijk,6,,,7561AP,Deurningen,Dinkelland,Overijssel,VBO,6.829032,52.302452
Scholtendijk,1,,,7561AR,Deurningen,Dinkelland,Overijssel,VBO,6.836448,52.301436
Scholtendijk,4,,,7561AR,Deurningen,Dinkelland,Overijssel,VBO,6.836841,52.301799
Scholtendijk,6,,,7561AR,Deurningen,Dinkelland,Overijssel,VBO,6.836606,52.301784
Scholtendijk,7,,,7561AR,Deurningen,Dinkelland,Overijssel,VBO,6.836125,52.301431
Scholtendijk,8,,,7561AR,Deurningen,Dinkelland,Overijssel,VBO,6.836342,52.301779
Scholtendijk,9,,,7561AR,Deurningen,Dinkelland,Overijssel,VBO,6.835904,52.301406
Scholtendijk,10,,,7561AR,Deurningen,Dinkelland,Overijssel,VBO,6.836121,52.301763
Scholtendijk,11,,,7561AR,Deurningen,Dinkelland,Overijssel,VBO,6.835683,52.301364
Scholtendijk,12,,,7561AR,Deurningen,Dinkelland,Overijssel,VBO,6.835901,52.301748
Scholtendijk,13,,,7561AR,Deurningen,Dinkelland,Overijssel,VBO,6.835476,52.301313
Scholtendijk,14,,,7561AR,Deurningen,Dinkelland,Overijssel,VBO,6.835680,52.301733
Scholtendijk,16,,,7561AR,Deurningen,Dinkelland,Overijssel,VBO,6.835415,52.301700
Scholtendijk,18,,,7561AR,Deurningen,Dinkelland,Overijssel,VBO,6.835210,52.301694
Scholtendijk,20,,,7561AR,Deurningen,Dinkelland,Overijssel,VBO,6.834850,52.301446
Scholtendijk,22,,,7561AR,Deurningen,Dinkelland,Overijssel,VBO,6.834503,52.301145
Pastoor Havinkstraat,1,,,7561AS,Deurningen,Dinkelland,Overijssel,VBO,6.837386,52.300085
Pastoor Havinkstraat,3,,,7561AS,Deurningen,Dinkelland,Overijssel,VBO,6.837533,52.300083
Pastoor Havinkstraat,5,,,7561AS,Deurningen,Dinkelland,Overijssel,VBO,6.837526,52.300317
Pastoor Havinkstraat,7,,,7561AS,Deurningen,Dinkelland,Overijssel,VBO,6.837790,52.300314
Pastoor Havinkstraat,9,,,7561AS,Deurningen,Dinkelland,Overijssel,VBO,6.837782,52.300089
Pastoor Havinkstraat,11,,,7561AS,Deurningen,Dinkelland,Overijssel,VBO,6.837899,52.300088
Pastoor Havinkstraat,13,,,7561AS,Deurningen,Dinkelland,Overijssel,VBO,6.838091,52.300103
Pastoor Havinkstraat,15,,,7561AS,Deurningen,Dinkelland,Overijssel,VBO,6.838310,52.300083
Pastoor Havinkstraat,17,,,7561AS,Deurningen,Dinkelland,Overijssel,VBO,6.838500,52.300080
Pastoor Havinkstraat,19,,,7561AS,Deurningen,Dinkelland,Overijssel,VBO,6.838705,52.300069
Pastoor Havinkstraat,21,,,7561AS,Deurningen,Dinkelland,Overijssel,VBO,6.838895,52.300048
Pastoor Havinkstraat,23,,,7561AS,Deurningen,Dinkelland,Overijssel,VBO,6.839085,52.300037
Pastoor Havinkstraat,25,,,7561AS,Deurningen,Dinkelland,Overijssel,VBO,6.839304,52.299998
Pastoor Havinkstraat,27,,,7561AS,Deurningen,Dinkelland,Overijssel,VBO,6.839509,52.299978
Pastoor Havinkstraat,35,,,7561AS,Deurningen,Dinkelland,Overijssel,VBO,6.840414,52.299850
Pastoor Havinkstraat,37,,,7561AS,Deurningen,Dinkelland,Overijssel,VBO,6.840430,52.299913
Pastoor Havinkstraat,39,,,7561AS,Deurningen,Dinkelland,Overijssel,VBO,6.840478,52.300020
Pastoor Havinkstraat,41,,,7561AS,Deurningen,Dinkelland,Overijssel,VBO,6.840494,52.300074
Pastoor Havinkstraat,43,,,7561AS,Deurningen,Dinkelland,Overijssel,VBO,6.840498,52.300181
Pastoor Havinkstraat,45,,,7561AS,Deurningen,Dinkelland,Overijssel,VBO,6.840515,52.300244
Pastoor Havinkstraat,47,,,7561AS,Deurningen,Dinkelland,Overijssel,VBO,6.840518,52.300343
Pastoor Havinkstraat,49,,,7561AS,Deurningen,Dinkelland,Overijssel,VBO,6.840520,52.300397
Pastoor Havinkstraat,51,,,7561AS,Deurningen,Dinkelland,Overijssel,VBO,6.840537,52.300487
Pastoor Havinkstraat,53,,,7561AS,Deurningen,Dinkelland,Overijssel,VBO,6.840539,52.300550
Vliegveldstraat,2,A,,7561AT,Deurningen,Dinkelland,Overijssel,VBO,6.834782,52.298894
Vliegveldstraat,2,,,7561AT,Deurningen,Dinkelland,Overijssel,VBO,6.834011,52.299101
Vliegveldstraat,4,A,,7561AT,Deurningen,Dinkelland,Overijssel,VBO,6.837677,52.296854
Vliegveldstraat,4,,,7561AT,Deurningen,Dinkelland,Overijssel,VBO,6.837870,52.297391
Vliegveldstraat,6,,,7561AT,Deurningen,Dinkelland,Overijssel,VBO,6.839746,52.295588
Pastoor Havinkstraat,2,,,7561AV,Deurningen,Dinkelland,Overijssel,VBO,6.838155,52.299824
Pastoor Havinkstraat,4,,,7561AV,Deurningen,Dinkelland,Overijssel,VBO,6.838257,52.299822
Pastoor Havinkstraat,6,,,7561AV,Deurningen,Dinkelland,Overijssel,VBO,6.838418,52.299812
Pastoor Havinkstraat,8,,,7561AV,Deurningen,Dinkelland,Overijssel,VBO,6.838521,52.299801
Pastoor Havinkstraat,10,,,7561AV,Deurningen,Dinkelland,Overijssel,VBO,6.838355,52.299677
Pastoor Havinkstraat,12,,,7561AV,Deurningen,Dinkelland,Overijssel,VBO,6.838339,52.299615
Pastoor Havinkstraat,14,,,7561AV,Deurningen,Dinkelland,Overijssel,VBO,6.838601,52.299576
Pastoor Havinkstraat,16,,,7561AV,Deurningen,Dinkelland,Overijssel,VBO,6.838704,52.299574
Pastoor Havinkstraat,18,,,7561AV,Deurningen,Dinkelland,Overijssel,VBO,6.838866,52.299590
Pastoor Havinkstraat,20,,,7561AV,Deurningen,Dinkelland,Overijssel,VBO,6.838968,52.299589
Pastoor Havinkstraat,22,,,7561AV,Deurningen,Dinkelland,Overijssel,VBO,6.838958,52.299733
Pastoor Havinkstraat,24,,,7561AV,Deurningen,Dinkelland,Overijssel,VBO,6.838975,52.299796
Pastoor Havinkstraat,26,,,7561AV,Deurningen,Dinkelland,Overijssel,VBO,6.840200,52.299592
Pastoor Havinkstraat,28,,,7561AV,Deurningen,Dinkelland,Overijssel,VBO,6.840302,52.299582
Pastoor Havinkstraat,30,,,7561AV,Deurningen,Dinkelland,Overijssel,VBO,6.840462,52.299544
Pastoor Havinkstraat,32,,,7561AV,Deurningen,Dinkelland,Overijssel,VBO,6.840565,52.299533
Pastoor Havinkstraat,38,,CLUB,7561AV,Deurningen,Dinkelland,Overijssel,VBO,6.841456,52.300772
Eschgaarde,2,,,7561BA,Deurningen,Dinkelland,Overijssel,VBO,6.835125,52.302692
Eschgaarde,4,,,7561BA,Deurningen,Dinkelland,Overijssel,VBO,6.835153,52.302629
Eschgaarde,6,,,7561BA,Deurningen,Dinkelland,Overijssel,VBO,6.835178,52.302521
Eschgaarde,8,,,7561BA,Deurningen,Dinkelland,Overijssel,VBO,6.835191,52.302449
Eschgaarde,10,A,,7561BA,Deurningen,Dinkelland,Overijssel,VBO,6.835376,52.302294
Eschgaarde,10,,,7561BA,Deurningen,Dinkelland,Overijssel,VBO,6.835288,52.302295
Eschgaarde,12,,,7561BA,Deurningen,Dinkelland,Overijssel,VBO,6.835464,52.302302
Eschgaarde,14,,,7561BA,Deurningen,Dinkelland,Overijssel,VBO,6.835567,52.302309
Eschgaarde,16,,,7561BA,Deurningen,Dinkelland,Overijssel,VBO,6.835655,52.302308
Eschgaarde,18,,,7561BA,Deurningen,Dinkelland,Overijssel,VBO,6.835758,52.302298
Eschgaarde,20,,,7561BA,Deurningen,Dinkelland,Overijssel,VBO,6.835963,52.302296
Eschgaarde,22,,,7561BA,Deurningen,Dinkelland,Overijssel,VBO,6.836036,52.302295
Eschgaarde,24,,,7561BA,Deurningen,Dinkelland,Overijssel,VBO,6.836211,52.302266
Eschgaarde,26,,,7561BA,Deurningen,Dinkelland,Overijssel,VBO,6.836299,52.302265
Eschgaarde,28,,,7561BA,Deurningen,Dinkelland,Overijssel,VBO,6.836475,52.302253
Eschgaarde,30,,,7561BA,Deurningen,Dinkelland,Overijssel,VBO,6.836563,52.302261
Eschgaarde,32,,,7561BA,Deurningen,Dinkelland,Overijssel,VBO,6.836935,52.302428
Eschgaarde,34,,,7561BA,Deurningen,Dinkelland,Overijssel,VBO,6.836907,52.302482
Eschgaarde,36,,,7561BA,Deurningen,Dinkelland,Overijssel,VBO,6.836955,52.302589
Eschgaarde,1,,,7561BB,Deurningen,Dinkelland,Overijssel,VBO,6.835524,52.302777
Eschgaarde,3,,,7561BB,Deurningen,Dinkelland,Overijssel,VBO,6.835552,52.302732
Eschgaarde,5,,,7561BB,Deurningen,Dinkelland,Overijssel,VBO,6.835578,52.302624
Eschgaarde,7,,,7561BB,Deurningen,Dinkelland,Overijssel,VBO,6.835590,52.302570
Eschgaarde,9,,,7561BB,Deurningen,Dinkelland,Overijssel,VBO,6.835940,52.302503
Eschgaarde,11,,,7561BB,Deurningen,Dinkelland,Overijssel,VBO,6.836013,52.302502
Eschgaarde,13,,,7561BB,Deurningen,Dinkelland,Overijssel,VBO,6.836087,52.302501
Eschgaarde,15,,,7561BB,Deurningen,Dinkelland,Overijssel,VBO,6.836175,52.302500
Eschgaarde,17,,,7561BB,Deurningen,Dinkelland,Overijssel,VBO,6.836249,52.302517
Eschgaarde,19,,,7561BB,Deurningen,Dinkelland,Overijssel,VBO,6.836322,52.302516
Eschgaarde,21,,,7561BB,Deurningen,Dinkelland,Overijssel,VBO,6.836395,52.302506
Eschgaarde,23,,,7561BB,Deurningen,Dinkelland,Overijssel,VBO,6.836372,52.302695
Eschgaarde,25,,,7561BB,Deurningen,Dinkelland,Overijssel,VBO,6.836436,52.302874
Molemansstraat,17,,,7561BC,Deurningen,Dinkelland,Overijssel,VBO,6.834121,52.302911
Molemansstraat,21,,,7561BC,Deurningen,Dinkelland,Overijssel,VBO,6.834656,52.303157
Molemansstraat,23,,,7561BC,Deurningen,Dinkelland,Overijssel,VBO,6.835009,52.303188
Molemansstraat,25,,,7561BC,Deurningen,Dinkelland,Overijssel,VBO,6.834926,52.303333
Molemansstraat,27,,,7561BC,Deurningen,Dinkelland,Overijssel,VBO,6.835355,52.303445
Molemansstraat,29,,,7561BC,Deurningen,Dinkelland,Overijssel,VBO,6.835394,52.303282
Molemansstraat,31,,,7561BC,Deurningen,Dinkelland,Overijssel,VBO,6.835895,52.303357
Molemansstraat,33,,,7561BC,Deurningen,Dinkelland,Overijssel,VBO,6.835986,52.303464
Molemansstraat,35,,,7561BC,Deurningen,Dinkelland,Overijssel,VBO,6.835991,52.303599
Molemansstraat,37,,,7561BC,Deurningen,Dinkelland,Overijssel,VBO,6.836577,52.303609
Molemansstraat,39,,,7561BC,Deurningen,Dinkelland,Overijssel,VBO,6.836693,52.303563
Molemansstraat,41,,,7561BC,Deurningen,Dinkelland,Overijssel,VBO,6.836807,52.303463
Molemansstraat,43,,,7561BC,Deurningen,Dinkelland,Overijssel,VBO,6.836832,52.303310
Molemansstraat,45,,,7561BC,Deurningen,Dinkelland,Overijssel,VBO,6.837030,52.303092
Molemansstraat,49,,,7561BC,Deurningen,Dinkelland,Overijssel,VBO,6.837294,52.303097
Molemansstraat,1,,,7561BD,Deurningen,Dinkelland,Overijssel,VBO,6.835112,52.300940
Molemansstraat,2,,,7561BD,Deurningen,Dinkelland,Overijssel,VBO,6.835717,52.301067
Molemansstraat,3,,,7561BD,Deurningen,Dinkelland,Overijssel,VBO,6.834597,52.301773
Molemansstraat,5,,,7561BD,Deurningen,Dinkelland,Overijssel,VBO,6.834554,52.301818
Molemansstraat,7,,,7561BD,Deurningen,Dinkelland,Overijssel,VBO,6.834455,52.301919
Molemansstraat,8,,,7561BD,Deurningen,Dinkelland,Overijssel,VBO,6.834733,52.302356
Molemansstraat,9,,,7561BD,Deurningen,Dinkelland,Overijssel,VBO,6.834427,52.301964
Molemansstraat,10,,,7561BD,Deurningen,Dinkelland,Overijssel,VBO,6.834720,52.302410
Molemansstraat,11,,,7561BD,Deurningen,Dinkelland,Overijssel,VBO,6.834328,52.302073
Molemansstraat,12,,,7561BD,Deurningen,Dinkelland,Overijssel,VBO,6.834665,52.302509
Molemansstraat,13,,,7561BD,Deurningen,Dinkelland,Overijssel,VBO,6.834285,52.302118
Molemansstraat,14,,,7561BD,Deurningen,Dinkelland,Overijssel,VBO,6.834637,52.302564
Molemansstraat,15,,,7561BD,Deurningen,Dinkelland,Overijssel,VBO,6.834003,52.302454
Molemansstraat,16,,,7561BD,Deurningen,Dinkelland,Overijssel,VBO,6.834627,52.302690
Molemansstraat,18,,,7561BE,Deurningen,Dinkelland,Overijssel,VBO,6.834734,52.302850
Molemansstraat,20,,,7561BE,Deurningen,Dinkelland,Overijssel,VBO,6.834868,52.302902
Molemansstraat,22,,,7561BE,Deurningen,Dinkelland,Overijssel,VBO,6.835045,52.302927
Molemansstraat,24,,,7561BE,Deurningen,Dinkelland,Overijssel,VBO,6.835427,52.302958
Molemansstraat,26,,,7561BE,Deurningen,Dinkelland,Overijssel,VBO,6.835487,52.302985
Molemansstraat,28,,,7561BE,Deurningen,Dinkelland,Overijssel,VBO,6.835647,52.302956
Molemansstraat,30,,,7561BE,Deurningen,Dinkelland,Overijssel,VBO,6.835868,52.302998
Molemansstraat,32,,,7561BE,Deurningen,Dinkelland,Overijssel,VBO,6.836135,52.303076
Molemansstraat,34,,,7561BE,Deurningen,Dinkelland,Overijssel,VBO,6.836223,52.303083
Molemansstraat,36,,,7561BE,Deurningen,Dinkelland,Overijssel,VBO,6.836516,52.303071
Molemansstraat,38,,,7561BE,Deurningen,Dinkelland,Overijssel,VBO,6.836558,52.303016
Molemansstraat,48,,,7561BE,Deurningen,Dinkelland,Overijssel,VBO,6.836899,52.302689
Molemansstraat,50,,,7561BE,Deurningen,Dinkelland,Overijssel,VBO,6.837149,52.302695
Molemansstraat,52,,,7561BE,Deurningen,Dinkelland,Overijssel,VBO,6.837266,52.302684
Molemansstraat,54,,,7561BE,Deurningen,Dinkelland,Overijssel,VBO,6.837516,52.302699
Korte Bos,2,,,7561BG,Deurningen,Dinkelland,Overijssel,VBO,6.839830,52.302167
Korte Bos,4,,,7561BG,Deurningen,Dinkelland,Overijssel,VBO,6.839918,52.302166
Korte Bos,6,,,7561BG,Deurningen,Dinkelland,Overijssel,VBO,6.840078,52.302137
Korte Bos,8,,,7561BG,Deurningen,Dinkelland,Overijssel,VBO,6.840328,52.302170
Korte Bos,10,,,7561BG,Deurningen,Dinkelland,Overijssel,VBO,6.840435,52.302304
Korte Bos,12,,,7561BG,Deurningen,Dinkelland,Overijssel,VBO,6.840466,52.302357
Korte Bos,14,,,7561BG,Deurningen,Dinkelland,Overijssel,VBO,6.840558,52.302455
Korte Bos,16,,,7561BG,Deurningen,Dinkelland,Overijssel,VBO,6.840603,52.302508
Bekkenhof,1,,,7561BH,Deurningen,Dinkelland,Overijssel,VBO,6.832575,52.301834
Bekkenhof,2,,,7561BH,Deurningen,Dinkelland,Overijssel,VBO,6.833653,52.301155
Bekkenhof,4,,,7561BH,Deurningen,Dinkelland,Overijssel,VBO,6.833479,52.301229
Bekkenhof,5,,,7561BH,Deurningen,Dinkelland,Overijssel,VBO,6.832861,52.302046
Bekkenhof,6,,,7561BH,Deurningen,Dinkelland,Overijssel,VBO,6.833320,52.301294
Bekkenhof,7,,,7561BH,Deurningen,Dinkelland,Overijssel,VBO,6.833097,52.302097
Bekkenhof,8,,,7561BH,Deurningen,Dinkelland,Overijssel,VBO,6.833133,52.301386
Bekkenhof,10,,,7561BH,Deurningen,Dinkelland,Overijssel,VBO,6.832990,52.301523
Bekkenhof,11,,,7561BH,Deurningen,Dinkelland,Overijssel,VBO,6.833362,52.302144
Bekkenhof,12,,,7561BH,Deurningen,Dinkelland,Overijssel,VBO,6.832922,52.301677
Bekkenhof,14,,,7561BH,Deurningen,Dinkelland,Overijssel,VBO,6.833075,52.301873
Bekkenhof,15,,,7561BH,Deurningen,Dinkelland,Overijssel,VBO,6.833602,52.302139
Bekkenhof,16,,,7561BH,Deurningen,Dinkelland,Overijssel,VBO,6.833266,52.301897
Bekkenhof,17,,,7561BH,Deurningen,Dinkelland,Overijssel,VBO,6.833752,52.301963
Bekkenhof,18,,,7561BH,Deurningen,Dinkelland,Overijssel,VBO,6.833526,52.301750
Bekkenhof,19,,,7561BH,Deurningen,Dinkelland,Overijssel,VBO,6.833780,52.301909
Bekkenhof,20,,,7561BH,Deurningen,Dinkelland,Overijssel,VBO,6.833553,52.301696
Bekkenhof,21,,,7561BH,Deurningen,Dinkelland,Overijssel,VBO,6.833850,52.301809
Bekkenhof,22,,,7561BH,Deurningen,Dinkelland,Overijssel,VBO,6.833652,52.301578
Bekkenhof,23,,,7561BH,Deurningen,Dinkelland,Overijssel,VBO,6.833892,52.301755
Bekkenhof,24,,,7561BH,Deurningen,Dinkelland,Overijssel,VBO,6.833840,52.301495
Bekkenhof,25,,,7561BH,Deurningen,Dinkelland,Overijssel,VBO,6.834081,52.301680
Bekkenhof,26,,,7561BH,Deurningen,Dinkelland,Overijssel,VBO,6.833941,52.301457
Bekkenhof,27,,,7561BH,Deurningen,Dinkelland,Overijssel,VBO,6.834167,52.301643
Overeshof,1,,,7561BJ,Deurningen,Dinkelland,Overijssel,VBO,6.840499,52.302024
Overeshof,3,,,7561BJ,Deurningen,Dinkelland,Overijssel,VBO,6.840531,52.302087
Overeshof,5,,,7561BJ,Deurningen,Dinkelland,Overijssel,VBO,6.840605,52.302113
Overeshof,7,,,7561BJ,Deurningen,Dinkelland,Overijssel,VBO,6.840722,52.302102
Overeshof,9,,,7561BJ,Deurningen,Dinkelland,Overijssel,VBO,6.840825,52.302101
Overeshof,11,,,7561BJ,Deurningen,Dinkelland,Overijssel,VBO,6.840912,52.302091
Overeshof,13,,,7561BJ,Deurningen,Dinkelland,Overijssel,VBO,6.841000,52.302099
Overeshof,15,,,7561BJ,Deurningen,Dinkelland,Overijssel,VBO,6.841058,52.302071
Overeshof,17,,,7561BJ,Deurningen,Dinkelland,Overijssel,VBO,6.841056,52.302008
Overeshof,2,,,7561BK,Deurningen,Dinkelland,Overijssel,VBO,6.840258,52.301811
Overeshof,4,,,7561BK,Deurningen,Dinkelland,Overijssel,VBO,6.840346,52.301810
Overeshof,6,,TRAF,7561BK,Deurningen,Dinkelland,Overijssel,VBO,6.840638,52.301771
Overeshof,12,,,7561BK,Deurningen,Dinkelland,Overijssel,VBO,6.840858,52.301768
Overeshof,14,,,7561BK,Deurningen,Dinkelland,Overijssel,VBO,6.840931,52.301767
Overeshof,16,,,7561BK,Deurningen,Dinkelland,Overijssel,VBO,6.841034,52.301775
Overeshof,18,,,7561BK,Deurningen,Dinkelland,Overijssel,VBO,6.841107,52.301774
't Haarboer,1,,,7561BL,Deurningen,Dinkelland,Overijssel,VBO,6.838778,52.304077
't Haarboer,2,,,7561BL,Deurningen,Dinkelland,Overijssel,VBO,6.838734,52.303646
't Haarboer,4,,,7561BL,Deurningen,Dinkelland,Overijssel,VBO,6.839165,52.303811
't Haarboer,6,,,7561BL,Deurningen,Dinkelland,Overijssel,VBO,6.839542,52.303817
Koehorstmaat,1,,,7561BM,Deurningen,Dinkelland,Overijssel,VBO,6.838981,52.303113
Koehorstmaat,2,,,7561BM,Deurningen,Dinkelland,Overijssel,VBO,6.839044,52.302797
Koehorstmaat,4,,,7561BM,Deurningen,Dinkelland,Overijssel,VBO,6.840526,52.303282
Koehorstmaat,5,,,7561BM,Deurningen,Dinkelland,Overijssel,VBO,6.839799,52.303315
Koehorstmaat,7,,,7561BM,Deurningen,Dinkelland,Overijssel,VBO,6.839942,52.303569
Koehorstmaat,8,A,,7561BM,Deurningen,Dinkelland,Overijssel,VBO,6.840656,52.303658
Koehorstmaat,8,,,7561BM,Deurningen,Dinkelland,Overijssel,VBO,6.840622,52.303533
Koehorstmaat,11,,,7561BM,Deurningen,Dinkelland,Overijssel,VBO,6.841222,52.303939
Koehorstmaat,12,,,7561BM,Deurningen,Dinkelland,Overijssel,VBO,6.841599,52.303359
Reefsmaat,1,,,7561BP,Deurningen,Dinkelland,Overijssel,VBO,6.839147,52.301915
Reefsmaat,3,,,7561BP,Deurningen,Dinkelland,Overijssel,VBO,6.839402,52.302101
Reefsmaat,5,,,7561BP,Deurningen,Dinkelland,Overijssel,VBO,6.839405,52.302172
Reefsmaat,7,,,7561BP,Deurningen,Dinkelland,Overijssel,VBO,6.839437,52.302271
Reefsmaat,9,,,7561BP,Deurningen,Dinkelland,Overijssel,VBO,6.839471,52.302396
Reefsmaat,2,,,7561BR,Deurningen,Dinkelland,Overijssel,VBO,6.839801,52.301727
Reefsmaat,4,,,7561BR,Deurningen,Dinkelland,Overijssel,VBO,6.839817,52.301790
Reefsmaat,6,,,7561BR,Deurningen,Dinkelland,Overijssel,VBO,6.839923,52.301887
Veldzijde,1,,,7561BT,Deurningen,Dinkelland,Overijssel,VBO,6.838227,52.302924
Veldzijde,3,A,,7561BT,Deurningen,Dinkelland,Overijssel,VBO,6.839008,52.302676
Veldzijde,3,,,7561BT,Deurningen,Dinkelland,Overijssel,VBO,6.839011,52.302708
Veldzijde,5,,,7561BT,Deurningen,Dinkelland,Overijssel,VBO,6.839450,52.302666
Veldzijde,7,,,7561BT,Deurningen,Dinkelland,Overijssel,VBO,6.839643,52.302727
Veldzijde,9,,,7561BT,Deurningen,Dinkelland,Overijssel,VBO,6.839821,52.302788
Veldzijde,11,,,7561BT,Deurningen,Dinkelland,Overijssel,VBO,6.840175,52.302855
Veldzijde,15,,,7561BT,Deurningen,Dinkelland,Overijssel,VBO,6.840467,52.302816
Veldzijde,17,,,7561BT,Deurningen,Dinkelland,Overijssel,VBO,6.840699,52.302759
Veldzijde,19,,,7561BT,Deurningen,Dinkelland,Overijssel,VBO,6.840874,52.302712
Veldzijde,21,,,7561BT,Deurningen,Dinkelland,Overijssel,VBO,6.841077,52.302646
Veldzijde,23,,,7561BT,Deurningen,Dinkelland,Overijssel,VBO,6.841338,52.302571
Veldzijde,31,,,7561BT,Deurningen,Dinkelland,Overijssel,VBO,6.841903,52.302349
Veldzijde,33,,,7561BT,Deurningen,Dinkelland,Overijssel,VBO,6.841960,52.302285
Veldzijde,35,,,7561BT,Deurningen,Dinkelland,Overijssel,VBO,6.842027,52.302104
Veldzijde,37,,,7561BT,Deurningen,Dinkelland,Overijssel,VBO,6.842037,52.301951
Veldzijde,39,,,7561BT,Deurningen,Dinkelland,Overijssel,VBO,6.841988,52.301799
Veldzijde,41,,,7561BT,Deurningen,Dinkelland,Overijssel,VBO,6.841983,52.301664
Veldzijde,2,,,7561BV,Deurningen,Dinkelland,Overijssel,VBO,6.838130,52.302656
Veldzijde,4,A,,7561BV,Deurningen,Dinkelland,Overijssel,VBO,6.838651,52.302451
Veldzijde,4,,,7561BV,Deurningen,Dinkelland,Overijssel,VBO,6.838479,52.302570
Veldzijde,6,,,7561BV,Deurningen,Dinkelland,Overijssel,VBO,6.838871,52.302440
Veldzijde,8,,,7561BV,Deurningen,Dinkelland,Overijssel,VBO,6.839090,52.302419
Veldzijde,12,,,7561BV,Deurningen,Dinkelland,Overijssel,VBO,6.840863,52.302388
Veldzijde,14,,,7561BV,Deurningen,Dinkelland,Overijssel,VBO,6.840936,52.302369
Veldzijde,16,,,7561BV,Deurningen,Dinkelland,Overijssel,VBO,6.841110,52.302322
Veldzijde,18,,,7561BV,Deurningen,Dinkelland,Overijssel,VBO,6.841198,52.302303
Veldzijde,20,,,7561BV,Deurningen,Dinkelland,Overijssel,VBO,6.841372,52.302238
Veldzijde,22,,,7561BV,Deurningen,Dinkelland,Overijssel,VBO,6.841560,52.302164
Veldzijde,24,,,7561BV,Deurningen,Dinkelland,Overijssel,VBO,6.841556,52.302038
Veldzijde,26,,,7561BV,Deurningen,Dinkelland,Overijssel,VBO,6.841519,52.301805
Veldzijde,28,,,7561BV,Deurningen,Dinkelland,Overijssel,VBO,6.841502,52.301742
Veldzijde,30,,,7561BV,Deurningen,Dinkelland,Overijssel,VBO,6.841454,52.301617
Withagsmedenweg,1,,,7561PA,Deurningen,Dinkelland,Overijssel,VBO,6.825903,52.312675
Withagsmedenweg,2,,,7561PA,Deurningen,Dinkelland,Overijssel,VBO,6.828107,52.312810
Withagsmedenweg,4,A,,7561PA,Deurningen,Dinkelland,Overijssel,VBO,6.825247,52.314157
Withagsmedenweg,4,B,,7561PA,Deurningen,Dinkelland,Overijssel,VBO,6.825235,52.314256
Withagsmedenweg,4,,,7561PA,Deurningen,Dinkelland,Overijssel,VBO,6.825725,52.314421
Withagsmedenweg,6,A,,7561PA,Deurningen,Dinkelland,Overijssel,VBO,6.818173,52.313101
Withagsmedenweg,6,,,7561PA,Deurningen,Dinkelland,Overijssel,VBO,6.817781,52.313223
Withagsmedenweg,8,,,7561PA,Deurningen,Dinkelland,Overijssel,VBO,6.813176,52.313683
Saterslostraat,2,,,7561PB,Deurningen,Dinkelland,Overijssel,VBO,6.832953,52.305335
Saterslostraat,3,,,7561PB,Deurningen,Dinkelland,Overijssel,VBO,6.834309,52.307781
Saterslostraat,4,A,,7561PB,Deurningen,Dinkelland,Overijssel,VBO,6.832522,52.305619
Saterslostraat,4,,,7561PB,Deurningen,Dinkelland,Overijssel,VBO,6.832461,52.305548
Saterslostraat,5,,,7561PB,Deurningen,Dinkelland,Overijssel,VBO,6.834632,52.308254
Saterslostraat,6,,,7561PB,Deurningen,Dinkelland,Overijssel,VBO,6.834043,52.306832
Saterslostraat,7,A,,7561PB,Deurningen,Dinkelland,Overijssel,VBO,6.834404,52.309811
Saterslostraat,7,,,7561PB,Deurningen,Dinkelland,Overijssel,VBO,6.834163,52.309176
Saterslostraat,8,,,7561PB,Deurningen,Dinkelland,Overijssel,VBO,6.835414,52.307956
Saterslostraat,9,A,,7561PB,Deurningen,Dinkelland,Overijssel,VBO,6.834060,52.310499
Saterslostraat,9,,,7561PB,Deurningen,Dinkelland,Overijssel,VBO,6.834179,52.310551
Saterslostraat,10,A,,7561PB,Deurningen,Dinkelland,Overijssel,VBO,6.835108,52.310702
Saterslostraat,10,,,7561PB,Deurningen,Dinkelland,Overijssel,VBO,6.835106,52.310639
Saterslostraat,11,,,7561PB,Deurningen,Dinkelland,Overijssel,VBO,6.832825,52.312671
Saterslostraat,13,A,,7561PB,Deurningen,Dinkelland,Overijssel,VBO,6.832487,52.312902
Saterslostraat,13,,,7561PB,Deurningen,Dinkelland,Overijssel,VBO,6.832393,52.312892
Saterslostraat,14,,,7561PB,Deurningen,Dinkelland,Overijssel,VBO,6.830074,52.318287
Saterslostraat,15,,,7561PB,Deurningen,Dinkelland,Overijssel,VBO,6.830354,52.316953
Saterslostraat,17,,,7561PB,Deurningen,Dinkelland,Overijssel,VBO,6.828466,52.318891
Gammelkeresweg,2,A,,7561PC,Deurningen,Dinkelland,Overijssel,VBO,6.837404,52.309163
Gammelkeresweg,2,,,7561PC,Deurningen,Dinkelland,Overijssel,VBO,6.837287,52.309165
Gammelkeresweg,3,A,,7561PC,Deurningen,Dinkelland,Overijssel,VBO,6.841408,52.310508
Gammelkeresweg,3,,,7561PC,Deurningen,Dinkelland,Overijssel,VBO,6.840974,52.310711
Gammelkeresweg,4,,,7561PC,Deurningen,Dinkelland,Overijssel,VBO,6.847111,52.311786
Gammelkeresweg,5,,,7561PC,Deurningen,Dinkelland,Overijssel,VBO,6.841684,52.311781
Gammelkeresweg,5,,,7561PC,Deurningen,Dinkelland,Overijssel,VBO,6.841954,52.311930
Gammelkeresweg,6,,,7561PC,Deurningen,Dinkelland,Overijssel,VBO,6.844993,52.312045
Gammelkeresweg,7,A,,7561PC,Deurningen,Dinkelland,Overijssel,VBO,6.843048,52.314469
Gammelkeresweg,7,,,7561PC,Deurningen,Dinkelland,Overijssel,VBO,6.842944,52.314426
Gammelkeresweg,8,,SCHU,7561PC,Deurningen,Dinkelland,Overijssel,VBO,6.842693,52.312595
Gammelkeresweg,8,,,7561PC,Deurningen,Dinkelland,Overijssel,VBO,6.844778,52.312219
Gammelkeresweg,10,A,,7561PC,Deurningen,Dinkelland,Overijssel,VBO,6.846529,52.314184
Gammelkeresweg,10,,TRAF,7561PC,Deurningen,Dinkelland,Overijssel,VBO,6.845127,52.314812
Gammelkeresweg,10,,,7561PC,Deurningen,Dinkelland,Overijssel,VBO,6.846792,52.314145
Gammelkeresweg,11,A,,7561PC,Deurningen,Dinkelland,Overijssel,VBO,6.845569,52.317099
Gammelkeresweg,11,,,7561PC,Deurningen,Dinkelland,Overijssel,VBO,6.845531,52.316830
Gammelkeresweg,12,,,7561PC,Deurningen,Dinkelland,Overijssel,VBO,6.845679,52.315279
Gammelkeresweg,13,,,7561PC,Deurningen,Dinkelland,Overijssel,VBO,6.850891,52.318364
Gammelkeresweg,14,,,7561PC,Deurningen,Dinkelland,Overijssel,VBO,6.846299,52.316533
Gammelkeresweg,15,,,7561PC,Deurningen,Dinkelland,Overijssel,VBO,6.852652,52.318378
Gammelkeresweg,18,A,,7561PC,Deurningen,Dinkelland,Overijssel,VBO,6.853779,52.317420
Gammelkeresweg,18,,,7561PC,Deurningen,Dinkelland,Overijssel,VBO,6.853779,52.317420
Handijksweg,2,,,7561PD,Deurningen,Dinkelland,Overijssel,VBO,6.845716,52.320666
Handijksweg,4,A,,7561PD,Deurningen,Dinkelland,Overijssel,VBO,6.843555,52.318760
Handijksweg,4,,,7561PD,Deurningen,Dinkelland,Overijssel,VBO,6.843537,52.318643
Handijksweg,6,,TRAF,7561PD,Deurningen,Dinkelland,Overijssel,VBO,6.843438,52.320101
Handijksweg,6,,,7561PD,Deurningen,Dinkelland,Overijssel,VBO,6.843141,52.319997
Handijksweg,8,,,7561PD,Deurningen,Dinkelland,Overijssel,VBO,6.842431,52.321596
Handijksweg,12,,,7561PD,Deurningen,Dinkelland,Overijssel,VBO,6.846669,52.320654
Grootsweg,2,,,7561PE,Deurningen,Dinkelland,Overijssel,VBO,6.850584,52.314385
Postweg,1,A,,7561PG,Deurningen,Dinkelland,Overijssel,VBO,6.854285,52.322061
Postweg,1,,,7561PG,Deurningen,Dinkelland,Overijssel,VBO,6.854403,52.322087
Postweg,2,,,7561PG,Deurningen,Dinkelland,Overijssel,VBO,6.853056,52.323056
Postweg,4,,,7561PG,Deurningen,Dinkelland,Overijssel,VBO,6.850470,52.323394
Gammelkerstraat,2,A,,7561PH,Deurningen,Dinkelland,Overijssel,VBO,6.857839,52.321834
Gammelkerstraat,2,,TRAF,7561PH,Deurningen,Dinkelland,Overijssel,VBO,6.858352,52.322190
Gammelkerstraat,2,,,7561PH,Deurningen,Dinkelland,Overijssel,VBO,6.857813,52.321855
Gammelkerstraat,3,,,7561PH,Deurningen,Dinkelland,Overijssel,VBO,6.872930,52.321190
Gammelkerstraat,4,,,7561PH,Deurningen,Dinkelland,Overijssel,VBO,6.861859,52.321329
Gammelkerstraat,5,,,7561PH,Deurningen,Dinkelland,Overijssel,VBO,6.879629,52.319757
Gammelkerstraat,6,,,7561PH,Deurningen,Dinkelland,Overijssel,VBO,6.866441,52.319734
Gammelkerstraat,7,A,,7561PH,Deurningen,Dinkelland,Overijssel,VBO,6.879802,52.319647
Gammelkerstraat,7,,,7561PH,Deurningen,Dinkelland,Overijssel,VBO,6.879834,52.319728
Gammelkerstraat,8,,,7561PH,Deurningen,Dinkelland,Overijssel,VBO,6.869772,52.318884
Gammelkerstraat,9,,,7561PH,Deurningen,Dinkelland,Overijssel,VBO,6.881458,52.319177
Gammelkerstraat,10,A,,7561PH,Deurningen,Dinkelland,Overijssel,VBO,6.872128,52.314324
Gammelkerstraat,10,,,7561PH,Deurningen,Dinkelland,Overijssel,VBO,6.872205,52.314421
Gammelkerstraat,11,A,,7561PH,Deurningen,Dinkelland,Overijssel,VBO,6.883218,52.321348
Gammelkerstraat,11,,,7561PH,Deurningen,Dinkelland,Overijssel,VBO,6.883041,52.321323
Gammelkerstraat,12,,,7561PH,Deurningen,Dinkelland,Overijssel,VBO,6.873955,52.314579
Gammelkerstraat,14,,,7561PH,Deurningen,Dinkelland,Overijssel,VBO,6.874233,52.314549
Oude Deurningerstraat,3,,,7561PJ,Deurningen,Dinkelland,Overijssel,VBO,6.859228,52.321182
Oude Deurningerstraat,4,A,,7561PJ,Deurningen,Dinkelland,Overijssel,VBO,6.862815,52.324499
Oude Deurningerstraat,4,,,7561PJ,Deurningen,Dinkelland,Overijssel,VBO,6.862947,52.324488
Oude Deurningerstraat,6,A,,7561PJ,Deurningen,Dinkelland,Overijssel,VBO,6.860772,52.323041
Oude Deurningerstraat,6,,,7561PJ,Deurningen,Dinkelland,Overijssel,VBO,6.860697,52.322997
Oude Deurningerstraat,8,,,7561PJ,Deurningen,Dinkelland,Overijssel,VBO,6.861012,52.322768
Deurningerstraat,13,,,7561PK,Deurningen,Dinkelland,Overijssel,VBO,6.857847,52.319788
Deurningerstraat,14,,,7561PK,Deurningen,Dinkelland,Overijssel,VBO,6.855674,52.321046
Deurningerstraat,15,,,7561PK,Deurningen,Dinkelland,Overijssel,VBO,6.857963,52.319750
Deurningerstraat,16,,,7561PK,Deurningen,Dinkelland,Overijssel,VBO,6.855735,52.320245
Deurningerstraat,17,,,7561PK,Deurningen,Dinkelland,Overijssel,VBO,6.861152,52.313715
Deurningerstraat,18,,,7561PK,Deurningen,Dinkelland,Overijssel,VBO,6.855943,52.319874
Deurningerstraat,20,,,7561PK,Deurningen,Dinkelland,Overijssel,VBO,6.859249,52.314736
Deurningerstraat,22,,,7561PK,Deurningen,Dinkelland,Overijssel,VBO,6.859731,52.313786
Deurningerstraat,24,,,7561PK,Deurningen,Dinkelland,Overijssel,VBO,6.858093,52.308620
Wismanweg,7,,,7561PL,Deurningen,Dinkelland,Overijssel,VBO,6.853449,52.312318
Wismanweg,9,,TRAF,7561PL,Deurningen,Dinkelland,Overijssel,VBO,6.857972,52.310698
Wismanweg,9,,,7561PL,Deurningen,Dinkelland,Overijssel,VBO,6.857080,52.310790
Wismanweg,11,,,7561PL,Deurningen,Dinkelland,Overijssel,VBO,6.858727,52.310922
Wismanweg,13,A,,7561PL,Deurningen,Dinkelland,Overijssel,VBO,6.860376,52.311118
Wismanweg,13,,,7561PL,Deurningen,Dinkelland,Overijssel,VBO,6.860243,52.311101
Haveldweg,2,,,7561PM,Deurningen,Dinkelland,Overijssel,VBO,6.849507,52.305733
Spekhorstweg,1,A,,7561PM,Deurningen,Dinkelland,Overijssel,VBO,6.865917,52.310599
Spekhorstweg,1,,,7561PM,Deurningen,Dinkelland,Overijssel,VBO,6.865900,52.310527
Spekhorstweg,3,,,7561PM,Deurningen,Dinkelland,Overijssel,VBO,6.867991,52.310789
Haveldweg,3,A,,7561PN,Deurningen,Dinkelland,Overijssel,VBO,6.851793,52.307458
Haveldweg,3,,,7561PN,Deurningen,Dinkelland,Overijssel,VBO,6.851705,52.307459
Viekboerweg,2,,,7561PN,Deurningen,Dinkelland,Overijssel,VBO,6.868669,52.312201
Oldenzaalsedijk,1,,,7561PP,Deurningen,Dinkelland,Overijssel,VBO,6.860727,52.305333
Oldenzaalsedijk,2,,TRAF,7561PP,Deurningen,Dinkelland,Overijssel,VBO,6.853289,52.304806
Oldenzaalsedijk,2,,,7561PP,Deurningen,Dinkelland,Overijssel,VBO,6.854529,52.304601
Oldenzaalsedijk,4,,,7561PP,Deurningen,Dinkelland,Overijssel,VBO,6.855042,52.304604
Oldenzaalsedijk,6,,,7561PP,Deurningen,Dinkelland,Overijssel,VBO,6.855336,52.304627
Oldenzaalsedijk,8,,,7561PP,Deurningen,Dinkelland,Overijssel,VBO,6.855001,52.302034
Oldenzaalsedijk,10,,,7561PP,Deurningen,Dinkelland,Overijssel,VBO,6.858946,52.303818
Kerkweg,17,,,7561PS,Deurningen,Dinkelland,Overijssel,VBO,6.840306,52.301505
Kerkweg,19,,,7561PS,Deurningen,Dinkelland,Overijssel,VBO,6.840468,52.301521
Kerkweg,21,,,7561PS,Deurningen,Dinkelland,Overijssel,VBO,6.840556,52.301520
Kerkweg,23,,,7561PS,Deurningen,Dinkelland,Overijssel,VBO,6.840644,52.301519
Kerkweg,25,,,7561PS,Deurningen,Dinkelland,Overijssel,VBO,6.840852,52.301588
Kerkweg,27,,,7561PS,Deurningen,Dinkelland,Overijssel,VBO,6.840925,52.301578
Kerkweg,29,,,7561PS,Deurningen,Dinkelland,Overijssel,VBO,6.841014,52.301604
Kerkweg,31,,,7561PS,Deurningen,Dinkelland,Overijssel,VBO,6.841101,52.301603
Kerkweg,37,,,7561PS,Deurningen,Dinkelland,Overijssel,VBO,6.843695,52.301553
Kerkweg,41,A,,7561PS,Deurningen,Dinkelland,Overijssel,VBO,6.847660,52.302610
Kerkweg,41,,,7561PS,Deurningen,Dinkelland,Overijssel,VBO,6.847614,52.302566
Kerkweg,45,,,7561PS,Deurningen,Dinkelland,Overijssel,VBO,6.849994,52.300927
Kerkweg,49,A,,7561PS,Deurningen,Dinkelland,Overijssel,VBO,6.859278,52.298891
Kerkweg,49,,,7561PS,Deurningen,Dinkelland,Overijssel,VBO,6.859158,52.298896
Kerkweg,1,A,,7561PT,Deurningen,Dinkelland,Overijssel,VBO,6.838962,52.301630
Kerkweg,1,B,,7561PT,Deurningen,Dinkelland,Overijssel,VBO,6.839035,52.301629
Kerkweg,1,,,7561PT,Deurningen,Dinkelland,Overijssel,VBO,6.838201,52.301684
Kerkweg,2,,,7561PT,Deurningen,Dinkelland,Overijssel,VBO,6.837501,52.301369
Kerkweg,3,A,,7561PT,Deurningen,Dinkelland,Overijssel,VBO,6.839269,52.301608
Kerkweg,3,B,,7561PT,Deurningen,Dinkelland,Overijssel,VBO,6.839342,52.301607
Kerkweg,3,,,7561PT,Deurningen,Dinkelland,Overijssel,VBO,6.839181,52.301618
Kerkweg,4,,,7561PT,Deurningen,Dinkelland,Overijssel,VBO,6.837823,52.301329
Kerkweg,5,,,7561PT,Deurningen,Dinkelland,Overijssel,VBO,6.839691,52.301531
Kerkweg,6,,,7561PT,Deurningen,Dinkelland,Overijssel,VBO,6.837999,52.301345
Kerkweg,7,,,7561PT,Deurningen,Dinkelland,Overijssel,VBO,6.839794,52.301529
Kerkweg,8,,,7561PT,Deurningen,Dinkelland,Overijssel,VBO,6.838190,52.301351
Kerkweg,9,,,7561PT,Deurningen,Dinkelland,Overijssel,VBO,6.839882,52.301537
Kerkweg,11,,,7561PT,Deurningen,Dinkelland,Overijssel,VBO,6.839970,52.301527
Kerkweg,12,,,7561PT,Deurningen,Dinkelland,Overijssel,VBO,6.840804,52.301032
Kerkweg,13,,,7561PT,Deurningen,Dinkelland,Overijssel,VBO,6.840073,52.301526
Kerkweg,14,A,,7561PT,Deurningen,Dinkelland,Overijssel,VBO,6.841260,52.301039
Kerkweg,14,,,7561PT,Deurningen,Dinkelland,Overijssel,VBO,6.841195,52.301204
Kerkweg,15,,,7561PT,Deurningen,Dinkelland,Overijssel,VBO,6.840219,52.301506
Kerkweg,16,A,,7561PT,Deurningen,Dinkelland,Overijssel,VBO,6.857993,52.298661
Kerkweg,16,,,7561PT,Deurningen,Dinkelland,Overijssel,VBO,6.857904,52.298697
Kerkweg,18,A,,7561PT,Deurningen,Dinkelland,Overijssel,VBO,6.859758,52.297795
Kerkweg,18,,,7561PT,Deurningen,Dinkelland,Overijssel,VBO,6.859889,52.297757
Kerkweg,20,,TRAF,7561PT,Deurningen,Dinkelland,Overijssel,VBO,6.861702,52.297177
Kerkweg,20,,,7561PT,Deurningen,Dinkelland,Overijssel,VBO,6.861013,52.297168
Kerkweg,22,,,7561PT,Deurningen,Dinkelland,Overijssel,VBO,6.863900,52.297141
Kerkweg,24,A,,7561PT,Deurningen,Dinkelland,Overijssel,VBO,6.875061,52.295473
Kerkweg,24,,,7561PT,Deurningen,Dinkelland,Overijssel,VBO,6.875029,52.295410
Kerkweg,26,,,7561PT,Deurningen,Dinkelland,Overijssel,VBO,6.876700,52.295839
Deurningeresweg,4,A,,7561PW,Deurningen,Dinkelland,Overijssel,VBO,6.859924,52.295707
Deurningeresweg,4,,,7561PW,Deurningen,Dinkelland,Overijssel,VBO,6.859866,52.295735
Wiefferweg,2,,,7561PX,Deurningen,Dinkelland,Overijssel,VBO,6.851015,52.303872
Wiefferweg,3,A,,7561PX,Deurningen,Dinkelland,Overijssel,VBO,6.852128,52.297602
Wiefferweg,3,,,7561PX,Deurningen,Dinkelland,Overijssel,VBO,6.852126,52.297548
Wiefferweg,4,A,,7561PX,Deurningen,Dinkelland,Overijssel,VBO,6.850963,52.302731
Wiefferweg,4,,TRAF,7561PX,Deurningen,Dinkelland,Overijssel,VBO,6.851288,52.302799
Wiefferweg,4,,,7561PX,Deurningen,Dinkelland,Overijssel,VBO,6.850876,52.302768
Wiefferweg,6,A,,7561PX,Deurningen,Dinkelland,Overijssel,VBO,6.849133,52.302385
Wiefferweg,6,,,7561PX,Deurningen,Dinkelland,Overijssel,VBO,6.849161,52.302340
Wiefferweg,10,,,7561PX,Deurningen,Dinkelland,Overijssel,VBO,6.847942,52.291128
Wiefferweg,12,,,7561PX,Deurningen,Dinkelland,Overijssel,VBO,6.848194,52.290765
Jonkmansweg,1,A,,7561PZ,Deurningen,Dinkelland,Overijssel,VBO,6.860834,52.289116
Jonkmansweg,1,,,7561PZ,Deurningen,Dinkelland,Overijssel,VBO,6.860955,52.288782
Jonkmansweg,2,,,7561PZ,Deurningen,Dinkelland,Overijssel,VBO,6.861626,52.289133
Jonkmansweg,3,,,7561PZ,Deurningen,Dinkelland,Overijssel,VBO,6.860717,52.289558
Jonkmansweg,4,Z,,7561PZ,Deurningen,Dinkelland,Overijssel,VBO,6.862579,52.292672
Jonkmansweg,4,,,7561PZ,Deurningen,Dinkelland,Overijssel,VBO,6.863989,52.291872
Jonkmansweg,5,A,,7561PZ,Deurningen,Dinkelland,Overijssel,VBO,6.860530,52.290989
Jonkmansweg,5,,,7561PZ,Deurningen,Dinkelland,Overijssel,VBO,6.860801,52.290761
Jonkmansweg,7,,,7561PZ,Deurningen,Dinkelland,Overijssel,VBO,6.864161,52.294836
Bornsedijk,1,,,7561RA,Deurningen,Dinkelland,Overijssel,VBO,6.828556,52.302692
Bornsedijk,2,A,,7561RA,Deurningen,Dinkelland,Overijssel,VBO,6.831032,52.303516
Bornsedijk,2,,,7561RA,Deurningen,Dinkelland,Overijssel,VBO,6.832658,52.303478
Bornsedijk,3,,,7561RA,Deurningen,Dinkelland,Overijssel,VBO,6.826664,52.302229
Bornsedijk,4,A,,7561RA,Deurningen,Dinkelland,Overijssel,VBO,6.829517,52.303381
Bornsedijk,4,,,7561RA,Deurningen,Dinkelland,Overijssel,VBO,6.829506,52.303480
Bornsedijk,6,,,7561RA,Deurningen,Dinkelland,Overijssel,VBO,6.829060,52.303306
Bornsedijk,7,,,7561RA,Deurningen,Dinkelland,Overijssel,VBO,6.825386,52.302155
Bornsedijk,8,,,7561RA,Deurningen,Dinkelland,Overijssel,VBO,6.827736,52.303169
Bornsedijk,9,,,7561RA,Deurningen,Dinkelland,Overijssel,VBO,6.824110,52.301218
Bornsedijk,10,,TRAF,7561RA,Deurningen,Dinkelland,Overijssel,VBO,6.827439,52.303056
Bornsedijk,10,,,7561RA,Deurningen,Dinkelland,Overijssel,VBO,6.827332,52.302931
Bornsedijk,12,,,7561RA,Deurningen,Dinkelland,Overijssel,VBO,6.827008,52.302890
Bornsedijk,14,,,7561RA,Deurningen,Dinkelland,Overijssel,VBO,6.826627,52.302877
Bornsedijk,16,A,,7561RA,Deurningen,Dinkelland,Overijssel,VBO,6.822734,52.302205
Bornsedijk,16,,,7561RA,Deurningen,Dinkelland,Overijssel,VBO,6.822746,52.302115
Bornsedijk,18,,,7561RA,Deurningen,Dinkelland,Overijssel,VBO,6.821782,52.301785
Bornsedijk,20,A,,7561RA,Deurningen,Dinkelland,Overijssel,VBO,6.820844,52.301788
Bornsedijk,20,,,7561RA,Deurningen,Dinkelland,Overijssel,VBO,6.820960,52.301768
Hogeveldsweg,1,A,,7561RB,Deurningen,Dinkelland,Overijssel,VBO,6.826171,52.297426
Hogeveldsweg,1,,,7561RB,Deurningen,Dinkelland,Overijssel,VBO,6.826753,52.297266
Hogeveldsweg,2,A,,7561RB,Deurningen,Dinkelland,Overijssel,VBO,6.825056,52.297844
Hogeveldsweg,2,,,7561RB,Deurningen,Dinkelland,Overijssel,VBO,6.825039,52.297782
Hogeveldsweg,3,A,,7561RB,Deurningen,Dinkelland,Overijssel,VBO,6.824822,52.297407
Hogeveldsweg,3,,,7561RB,Deurningen,Dinkelland,Overijssel,VBO,6.826055,52.297446
Hogeveldsweg,4,A,,7561RB,Deurningen,Dinkelland,Overijssel,VBO,6.823916,52.297939
Hogeveldsweg,4,,,7561RB,Deurningen,Dinkelland,Overijssel,VBO,6.823913,52.297849
Hogeveldsweg,6,,,7561RB,Deurningen,Dinkelland,Overijssel,VBO,6.823331,52.298009
Hogeveldsweg,8,A,,7561RB,Deurningen,Dinkelland,Overijssel,VBO,6.821883,52.298099
Hogeveldsweg,8,,,7561RB,Deurningen,Dinkelland,Overijssel,VBO,6.821880,52.298000
Hogeveldsweg,10,,,7561RB,Deurningen,Dinkelland,Overijssel,VBO,6.820618,52.299355
Hogeveldsweg,12,,,7561RB,Deurningen,Dinkelland,Overijssel,VBO,6.819753,52.300811
Busscherweg,1,,TRAF,7561RC,Deurningen,Dinkelland,Overijssel,VBO,6.823581,52.297125
Hartermedenweg,2,,,7561RE,Deurningen,Dinkelland,Overijssel,VBO,6.825865,52.306967
Hartermedenweg,4,,,7561RE,Deurningen,Dinkelland,Overijssel,VBO,6.825613,52.306890
Borgdijk,1,,,7561RG,Deurningen,Dinkelland,Overijssel,VBO,6.835461,52.294535
Borgdijk,2,,,7561RG,Deurningen,Dinkelland,Overijssel,VBO,6.831316,52.296033
Borgdijk,3,,TRAF,7561RG,Deurningen,Dinkelland,Overijssel,VBO,6.836235,52.293546
Borgdijk,3,,,7561RG,Deurningen,Dinkelland,Overijssel,VBO,6.835953,52.294350
Hasseloseschoolweg,1,,,7561RH,Deurningen,Dinkelland,Overijssel,VBO,6.839376,52.293229
Oldenzaalsestraat,580,,TRAF,7561RL,Deurningen,Dinkelland,Overijssel,VBO,6.850761,52.283686
Oldenzaalsestraat,580,,,7561RL,Deurningen,Dinkelland,Overijssel,VBO,6.851920,52.282845
Beldhuismolenweg,2,B,,7561RM,Deurningen,Dinkelland,Overijssel,VBO,6.862404,52.307263
Deurningerstraat,21,,,7561RN,Deurningen,Dinkelland,Overijssel,VBO,6.855243,52.305348
Deurningerstraat,23,,,7561RN,Deurningen,Dinkelland,Overijssel,VBO,6.855169,52.305322
Deurningerstraat,25,,,7561RN,Deurningen,Dinkelland,Overijssel,VBO,6.852543,52.303080
Deurningerstraat,27,A,,7561RN,Deurningen,Dinkelland,Overijssel,VBO,6.852041,52.304740
Deurningerstraat,27,,,7561RN,Deurningen,Dinkelland,Overijssel,VBO,6.851953,52.304750
Deurningerstraat,29,A,,7561RN,Deurningen,Dinkelland,Overijssel,VBO,6.849183,52.304344
Deurningerstraat,29,,,7561RN,Deurningen,Dinkelland,Overijssel,VBO,6.849068,52.304408
Deurningerstraat,31,,,7561RN,Deurningen,Dinkelland,Overijssel,VBO,6.846899,52.304004
Deurningerstraat,35,,,7561RN,Deurningen,Dinkelland,Overijssel,VBO,6.842371,52.304563
Deurningerstraat,37,,,7561RN,Deurningen,Dinkelland,Overijssel,VBO,6.842298,52.304564
Deurningerstraat,39,,,7561RN,Deurningen,Dinkelland,Overijssel,VBO,6.841594,52.304546
Deurningerstraat,41,,,7561RN,Deurningen,Dinkelland,Overijssel,VBO,6.841006,52.304499
Deurningerstraat,43,,,7561RN,Deurningen,Dinkelland,Overijssel,VBO,6.840641,52.304557
Deurningerstraat,45,,,7561RN,Deurningen,Dinkelland,Overijssel,VBO,6.840540,52.304172
Deurningerstraat,47,,,7561RN,Deurningen,Dinkelland,Overijssel,VBO,6.832061,52.298658
Deurningerstraat,49,,,7561RN,Deurningen,Dinkelland,Overijssel,VBO,6.830751,52.294422
Hasselose-esweg,1,,,7561RN,Deurningen,Dinkelland,Overijssel,VBO,6.844223,52.293502
Deurningerstraat,26,,,7561RP,Deurningen,Dinkelland,Overijssel,VBO,6.856663,52.306606
Deurningerstraat,28,,,7561RP,Deurningen,Dinkelland,Overijssel,VBO,6.856036,52.306273
Deurningerstraat,30,,,7561RP,Deurningen,Dinkelland,Overijssel,VBO,6.855323,52.305985
Deurningerstraat,32,,SCHU,7561RP,Deurningen,Dinkelland,Overijssel,VBO,6.853551,52.308731
Deurningerstraat,32,,,7561RP,Deurningen,Dinkelland,Overijssel,VBO,6.854156,52.307510
Deurningerstraat,34,,,7561RP,Deurningen,Dinkelland,Overijssel,VBO,6.851657,52.305096
Deurningerstraat,36,,,7561RP,Deurningen,Dinkelland,Overijssel,VBO,6.851103,52.305201
Deurningerstraat,38,,,7561RP,Deurningen,Dinkelland,Overijssel,VBO,6.850692,52.305206
Deurningerstraat,40,,,7561RP,Deurningen,Dinkelland,Overijssel,VBO,6.850223,52.305194
Deurningerstraat,42,,TRAF,7561RP,Deurningen,Dinkelland,Overijssel,VBO,6.846177,52.305253
Deurningerstraat,42,,,7561RP,Deurningen,Dinkelland,Overijssel,VBO,6.846532,52.305339
Deurningerstraat,44,,,7561RP,Deurningen,Dinkelland,Overijssel,VBO,6.846098,52.305083
Deurningerstraat,46,,,7561RP,Deurningen,Dinkelland,Overijssel,VBO,6.845239,52.306604
Deurningerstraat,48,A,,7561RP,Deurningen,Dinkelland,Overijssel,VBO,6.844884,52.306051
Deurningerstraat,48,B,,7561RP,Deurningen,Dinkelland,Overijssel,VBO,6.844886,52.306123
Deurningerstraat,48,,,7561RP,Deurningen,Dinkelland,Overijssel,VBO,6.844598,52.306720
Deurningerstraat,50,,,7561RP,Deurningen,Dinkelland,Overijssel,VBO,6.844559,52.305093
Deurningerstraat,52,,,7561RP,Deurningen,Dinkelland,Overijssel,VBO,6.843985,52.305029
Deurningerstraat,54,,,7561RP,Deurningen,Dinkelland,Overijssel,VBO,6.843660,52.305392
Deurningerstraat,56,,,7561RP,Deurningen,Dinkelland,Overijssel,VBO,6.837337,52.304427
Deurningerstraat,58,,,7561RP,Deurningen,Dinkelland,Overijssel,VBO,6.833820,52.304030
Deurningerstraat,60,,,7561RP,Deurningen,Dinkelland,Overijssel,VBO,6.833163,52.303669
Deurningerstraat,62,,,7561RP,Deurningen,Dinkelland,Overijssel,VBO,6.831257,52.298722
Deurningerstraat,64,,,7561RP,Deurningen,Dinkelland,Overijssel,VBO,6.831030,52.298509
Deurningerstraat,66,A,,7561RP,Deurningen,Dinkelland,Overijssel,VBO,6.830095,52.297253
Deurningerstraat,66,,,7561RP,Deurningen,Dinkelland,Overijssel,VBO,6.830048,52.297163
Molemansdijk,1,,,7561RP,Deurningen,Dinkelland,Overijssel,VBO,6.830645,52.302900
Koehorsterweg,1,A,,7561RR,Deurningen,Dinkelland,Overijssel,VBO,6.838804,52.306683
Koehorsterweg,1,,,7561RR,Deurningen,Dinkelland,Overijssel,VBO,6.838701,52.306658
Koehorsterweg,2,A,,7561RR,Deurningen,Dinkelland,Overijssel,VBO,6.839987,52.305644
Koehorsterweg,2,,,7561RR,Deurningen,Dinkelland,Overijssel,VBO,6.839854,52.305610
Strootsweg,2,,,7561RS,Deurningen,Dinkelland,Overijssel,VBO,6.854367,52.289053
Hengelosestraat,6,A,,7561RT,Deurningen,Dinkelland,Overijssel,VBO,6.854625,52.284878
Hengelosestraat,6,,,7561RT,Deurningen,Dinkelland,Overijssel,VBO,6.853282,52.285048
Hengelosestraat,8,A,,7561RT,Deurningen,Dinkelland,Overijssel,VBO,6.854359,52.285259
Hengelosestraat,8,,,7561RT,Deurningen,Dinkelland,Overijssel,VBO,6.854167,52.285190
Vliegveldstraat,8,,,7561RV,Deurningen,Dinkelland,Overijssel,VBO,6.844357,52.292682
Vliegveldstraat,10,,TRAF,7561RV,Deurningen,Dinkelland,Overijssel,VBO,6.845129,52.292969
Vliegveldstraat,10,,,7561RV,Deurningen,Dinkelland,Overijssel,VBO,6.844282,52.292180
Vliegveldstraat,20,,,7561RV,Deurningen,Dinkelland,Overijssel,VBO,6.852398,52.284016
Vliegveldstraat,22,,,7561RV,Deurningen,Dinkelland,Overijssel,VBO,6.856521,52.281924
Vliegveldstraat,24,,,7561RV,Deurningen,Dinkelland,Overijssel,VBO,6.855468,52.281551
Vliegveldstraat,45,,,7561RV,Deurningen,Dinkelland,Overijssel,VBO,6.847363,52.293157
Vliegveldstraat,47,,,7561RV,Deurningen,Dinkelland,Overijssel,VBO,6.849448,52.290009
Vliegveldstraat,49,,,7561RV,Deurningen,Dinkelland,Overijssel,VBO,6.853301,52.288715
Vliegveldstraat,51,,,7561RV,Deurningen,Dinkelland,Overijssel,VBO,6.853409,52.288894
Vliegveldstraat,53,,,7561RV,Deurningen,Dinkelland,Overijssel,VBO,6.851320,52.286879
Sniedersveldweg,3,,,7561RW,Deurningen,Dinkelland,Overijssel,VBO,6.873647,52.274249
Nieuwe Grensweg,2,,,7561RX,Deurningen,Dinkelland,Overijssel,VBO,6.848684,52.275352
Nieuwe Grensweg,13,A,,7561RX,Deurningen,Dinkelland,Overijssel,VBO,6.851628,52.275366
Nieuwe Grensweg,13,,,7561RX,Deurningen,Dinkelland,Overijssel,VBO,6.851251,52.275446
Vlijertsdijk,1,A,,7561RZ,Deurningen,Dinkelland,Overijssel,VBO,6.827179,52.307239
Vlijertsdijk,1,B,,7561RZ,Deurningen,Dinkelland,Overijssel,VBO,6.827108,52.307312
Vlijertsdijk,1,,,7561RZ,Deurningen,Dinkelland,Overijssel,VBO,6.831270,52.305877
Vlijertsdijk,2,,,7561RZ,Deurningen,Dinkelland,Overijssel,VBO,6.830488,52.306641
Vlijertsdijk,3,A,,7561RZ,Deurningen,Dinkelland,Overijssel,VBO,6.825994,52.307808
Vlijertsdijk,3,,TRAF,7561RZ,Deurningen,Dinkelland,Overijssel,VBO,6.826557,52.307525
Vlijertsdijk,3,,,7561RZ,Deurningen,Dinkelland,Overijssel,VBO,6.826080,52.307776
Vlijertsdijk,4,,,7561RZ,Deurningen,Dinkelland,Overijssel,VBO,6.828564,52.307914
Vlijertsdijk,5,A,,7561RZ,Deurningen,Dinkelland,Overijssel,VBO,6.824889,52.308085
Vlijertsdijk,5,,,7561RZ,Deurningen,Dinkelland,Overijssel,VBO,6.824934,52.308129
Vlijertsdijk,6,,,7561RZ,Deurningen,Dinkelland,Overijssel,VBO,6.825788,52.308209
Strootsweg,3,,,7561SB,Deurningen,Dinkelland,Overijssel,VBO,6.860193,52.289672
Oosterveldweg,1,,,7561SC,Deurningen,Dinkelland,Overijssel,VBO,6.865016,52.283517
Hengelosestraat,1,,TRAF,7561SE,Deurningen,Dinkelland,Overijssel,VBO,6.852655,52.285586
Hengelosestraat,3,Z,,7561SE,Deurningen,Dinkelland,Overijssel,VBO,6.856821,52.287440
Hengelosestraat,7,A,,7561SE,Deurningen,Dinkelland,Overijssel,VBO,6.863986,52.290452
Hengelosestraat,7,,,7561SE,Deurningen,Dinkelland,Overijssel,VBO,6.863941,52.290434
Hengelosestraat,9,A,,7561SE,Deurningen,Dinkelland,Overijssel,VBO,6.877760,52.294648
Hengelosestraat,9,,,7561SE,Deurningen,Dinkelland,Overijssel,VBO,6.869853,52.291880
Hengelosestraat,11,,TRAF,7561SE,Deurningen,Dinkelland,Overijssel,VBO,6.879353,52.294079
Hengelosestraat,11,,,7561SE,Deurningen,Dinkelland,Overijssel,VBO,6.877777,52.294728
Hengelosestraat,10,,TRAF,7561SG,Deurningen,Dinkelland,Overijssel,VBO,6.863752,52.288693
Hengelosestraat,10,,,7561SG,Deurningen,Dinkelland,Overijssel,VBO,6.862408,52.288386
Hengelosestraat,20,,TRAF,7561SG,Deurningen,Dinkelland,Overijssel,VBO,6.883392,52.293426
Hengelosestraat,20,,,7561SG,Deurningen,Dinkelland,Overijssel,VBO,6.883098,52.293843
Oude Postweg,1,,,7561SH,Deurningen,Dinkelland,Overijssel,VBO,6.869983,52.287869
Oude Postweg,3,,,7561SH,Deurningen,Dinkelland,Overijssel,VBO,6.870300,52.287685
Oude Postweg,5,,,7561SH,Deurningen,Dinkelland,Overijssel,VBO,6.871334,52.287492
Oude Postweg,7,,,7561SH,Deurningen,Dinkelland,Overijssel,VBO,6.874546,52.286661
Oude Postweg,9,,,7561SH,Deurningen,Dinkelland,Overijssel,VBO,6.875079,52.286843
Oude Postweg,11,A,,7561SH,Deurningen,Dinkelland,Overijssel,VBO,6.882335,52.291210
Oude Postweg,11,,,7561SH,Deurningen,Dinkelland,Overijssel,VBO,6.882171,52.291113
Oude Postweg,13,,,7561SH,Deurningen,Dinkelland,Overijssel,VBO,6.883221,52.287468
Oude Postweg,15,,,7561SH,Deurningen,Dinkelland,Overijssel,VBO,6.884678,52.287207
Oude Postweg,17,,,7561SH,Deurningen,Dinkelland,Overijssel,VBO,6.888972,52.289786
Oude Postweg,19,,,7561SH,Deurningen,Dinkelland,Overijssel,VBO,6.889238,52.289837
Oude Postweg,2,A,,7561SJ,Deurningen,Dinkelland,Overijssel,VBO,6.870563,52.284158
Oude Postweg,2,,,7561SJ,Deurningen,Dinkelland,Overijssel,VBO,6.870447,52.284178
Oude Postweg,4,A,,7561SJ,Deurningen,Dinkelland,Overijssel,VBO,6.877396,52.286427
Oude Postweg,4,,,7561SJ,Deurningen,Dinkelland,Overijssel,VBO,6.877218,52.286349
Oude Postweg,8,,,7561SJ,Deurningen,Dinkelland,Overijssel,VBO,6.894416,52.288647
Oude Postweg,10,,,7561SJ,Deurningen,Dinkelland,Overijssel,VBO,6.894532,52.288610
Oude Postweg,12,,,7561SJ,Deurningen,Dinkelland,Overijssel,VBO,6.895373,52.287907
Oude Postweg,14,,,7561SJ,Deurningen,Dinkelland,Overijssel,VBO,6.896449,52.286347
Oude Postweg,16,,,7561SJ,Deurningen,Dinkelland,Overijssel,VBO,6.896552,52.286355
Zandsteenweg,6,,SCHU,7561SK,Deurningen,Dinkelland,Overijssel,VBO,6.885397,52.293320
Zandsteenweg,6,,,7561SK,Deurningen,Dinkelland,Overijssel,VBO,6.886570,52.292882
het Beuvink,2,A,,7561SN,Deurningen,Dinkelland,Overijssel,VBO,6.876044,52.289384
het Beuvink,2,,,7561SN,Deurningen,Dinkelland,Overijssel,VBO,6.876130,52.289329
het Beuvink,4,,,7561SN,Deurningen,Dinkelland,Overijssel,VBO,6.877195,52.290052
het Beuvink,6,,,7561SN,Deurningen,Dinkelland,Overijssel,VBO,6.877036,52.290099
Knollerveldweg,1,A,STAL,7561SV,Deurningen,Dinkelland,Overijssel,VBO,6.874942,52.281865
Rijksweg A1,1,,,7561VA,Deurningen,Dinkelland,Overijssel,VBO,6.851319,52.281054
Rijksweg A1,2,,,7561VA,Deurningen,Dinkelland,Overijssel,VBO,6.861242,52.286405
