openbareruimtenaam,huisnummer,huisletter,huisnummertoevoeging,postcode,woonplaatsnaam,gemeentenaam,provincienaam,typeadresseerbaarobject,longitude,latitude
Viekboerweg,4,a,,7562PB,Deurningen,Oldenzaal,Overijssel,VBO,6.875996,52.310237
Viekboerweg,4,,,7562PB,Deurningen,Oldenzaal,Overijssel,VBO,6.875921,52.310270
Beldhuismolenweg,4,,,7562PC,Deurningen,Oldenzaal,Overijssel,VBO,6.865020,52.306632
Beldhuismolenweg,6,,,7562PC,Deurningen,Oldenzaal,Overijssel,VBO,6.866996,52.306597
Beldhuismolenweg,8,a,R1,7562PC,Deurningen,Oldenzaal,Overijssel,VBO,6.872279,52.306088
Beldhuismolenweg,8,a,R10,7562PC,Deurningen,Oldenzaal,Overijssel,VBO,6.871801,52.306301
Beldhuismolenweg,8,a,R11,7562PC,Deurningen,Oldenzaal,Overijssel,VBO,6.872508,52.306942
Beldhuismolenweg,8,a,R12,7562PC,Deurningen,Oldenzaal,Overijssel,VBO,6.872178,52.306964
Beldhuismolenweg,8,a,R13,7562PC,Deurningen,Oldenzaal,Overijssel,VBO,6.871837,52.306986
Beldhuismolenweg,8,a,R14,7562PC,Deurningen,Oldenzaal,Overijssel,VBO,6.871483,52.307020
Beldhuismolenweg,8,a,R14a,7562PC,Deurningen,Oldenzaal,Overijssel,VBO,6.871513,52.306787
Beldhuismolenweg,8,a,R14b,7562PC,Deurningen,Oldenzaal,Overijssel,VBO,6.871452,52.306543
Beldhuismolenweg,8,a,R14c,7562PC,Deurningen,Oldenzaal,Overijssel,VBO,6.871914,52.306564
Beldhuismolenweg,8,a,R15,7562PC,Deurningen,Oldenzaal,Overijssel,VBO,6.871078,52.307419
Beldhuismolenweg,8,a,R16,7562PC,Deurningen,Oldenzaal,Overijssel,VBO,6.870631,52.307382
Beldhuismolenweg,8,a,R17,7562PC,Deurningen,Oldenzaal,Overijssel,VBO,6.871102,52.307634
Beldhuismolenweg,8,a,R18,7562PC,Deurningen,Oldenzaal,Overijssel,VBO,6.870586,52.307644
Beldhuismolenweg,8,a,R19,7562PC,Deurningen,Oldenzaal,Overijssel,VBO,6.871150,52.307838
Beldhuismolenweg,8,a,R2,7562PC,Deurningen,Oldenzaal,Overijssel,VBO,6.872665,52.305837
Beldhuismolenweg,8,a,R20,7562PC,Deurningen,Oldenzaal,Overijssel,VBO,6.870640,52.307921
Beldhuismolenweg,8,a,R21,7562PC,Deurningen,Oldenzaal,Overijssel,VBO,6.871054,52.308067
Beldhuismolenweg,8,a,R22,7562PC,Deurningen,Oldenzaal,Overijssel,VBO,6.870734,52.308181
Beldhuismolenweg,8,a,R23,7562PC,Deurningen,Oldenzaal,Overijssel,VBO,6.871196,52.308302
Beldhuismolenweg,8,a,R24,7562PC,Deurningen,Oldenzaal,Overijssel,VBO,6.870859,52.308416
Beldhuismolenweg,8,a,R25,7562PC,Deurningen,Oldenzaal,Overijssel,VBO,6.870141,52.307341
Beldhuismolenweg,8,a,R26,7562PC,Deurningen,Oldenzaal,Overijssel,VBO,6.869868,52.307501
Beldhuismolenweg,8,a,R27,7562PC,Deurningen,Oldenzaal,Overijssel,VBO,6.870287,52.307548
Beldhuismolenweg,8,a,R28,7562PC,Deurningen,Oldenzaal,Overijssel,VBO,6.869751,52.307778
Beldhuismolenweg,8,a,R29,7562PC,Deurningen,Oldenzaal,Overijssel,VBO,6.870280,52.307747
Beldhuismolenweg,8,a,R3,7562PC,Deurningen,Oldenzaal,Overijssel,VBO,6.872954,52.305696
Beldhuismolenweg,8,a,R30,7562PC,Deurningen,Oldenzaal,Overijssel,VBO,6.869794,52.307987
Beldhuismolenweg,8,a,R31,7562PC,Deurningen,Oldenzaal,Overijssel,VBO,6.870283,52.307961
Beldhuismolenweg,8,a,R32,7562PC,Deurningen,Oldenzaal,Overijssel,VBO,6.869889,52.308272
Beldhuismolenweg,8,a,R33,7562PC,Deurningen,Oldenzaal,Overijssel,VBO,6.870346,52.308261
Beldhuismolenweg,8,a,R34,7562PC,Deurningen,Oldenzaal,Overijssel,VBO,6.869923,52.308486
Beldhuismolenweg,8,a,R35,7562PC,Deurningen,Oldenzaal,Overijssel,VBO,6.870454,52.308523
Beldhuismolenweg,8,a,R37,7562PC,Deurningen,Oldenzaal,Overijssel,VBO,6.869517,52.307624
Beldhuismolenweg,8,a,R38,7562PC,Deurningen,Oldenzaal,Overijssel,VBO,6.868980,52.307694
Beldhuismolenweg,8,a,R39,7562PC,Deurningen,Oldenzaal,Overijssel,VBO,6.869308,52.307814
Beldhuismolenweg,8,a,R4,7562PC,Deurningen,Oldenzaal,Overijssel,VBO,6.873087,52.305887
Beldhuismolenweg,8,a,R40,7562PC,Deurningen,Oldenzaal,Overijssel,VBO,6.868997,52.308043
Beldhuismolenweg,8,a,R41,7562PC,Deurningen,Oldenzaal,Overijssel,VBO,6.869445,52.308024
Beldhuismolenweg,8,a,R42,7562PC,Deurningen,Oldenzaal,Overijssel,VBO,6.869077,52.308301
Beldhuismolenweg,8,a,R43,7562PC,Deurningen,Oldenzaal,Overijssel,VBO,6.869561,52.308394
Beldhuismolenweg,8,a,R44,7562PC,Deurningen,Oldenzaal,Overijssel,VBO,6.869074,52.308601
Beldhuismolenweg,8,a,R45,7562PC,Deurningen,Oldenzaal,Overijssel,VBO,6.869632,52.308638
Beldhuismolenweg,8,a,R46,7562PC,Deurningen,Oldenzaal,Overijssel,VBO,6.869158,52.308836
Beldhuismolenweg,8,a,R47,7562PC,Deurningen,Oldenzaal,Overijssel,VBO,6.869234,52.309158
Beldhuismolenweg,8,a,R48,7562PC,Deurningen,Oldenzaal,Overijssel,VBO,6.869312,52.309376
Beldhuismolenweg,8,a,R49,7562PC,Deurningen,Oldenzaal,Overijssel,VBO,6.868666,52.307830
Beldhuismolenweg,8,a,R5,7562PC,Deurningen,Oldenzaal,Overijssel,VBO,6.873179,52.306083
Beldhuismolenweg,8,a,R50,7562PC,Deurningen,Oldenzaal,Overijssel,VBO,6.868367,52.307892
Beldhuismolenweg,8,a,R51,7562PC,Deurningen,Oldenzaal,Overijssel,VBO,6.868642,52.308062
Beldhuismolenweg,8,a,R52,7562PC,Deurningen,Oldenzaal,Overijssel,VBO,6.869276,52.309648
Beldhuismolenweg,8,a,R53,7562PC,Deurningen,Oldenzaal,Overijssel,VBO,6.868700,52.308322
Beldhuismolenweg,8,a,R6,7562PC,Deurningen,Oldenzaal,Overijssel,VBO,6.873288,52.306269
Beldhuismolenweg,8,a,R7,7562PC,Deurningen,Oldenzaal,Overijssel,VBO,6.872915,52.306275
Beldhuismolenweg,8,a,R8,7562PC,Deurningen,Oldenzaal,Overijssel,VBO,6.872604,52.306318
Beldhuismolenweg,8,a,R9,7562PC,Deurningen,Oldenzaal,Overijssel,VBO,6.872144,52.306352
Beldhuismolenweg,8,a,,7562PC,Deurningen,Oldenzaal,Overijssel,VBO,6.870327,52.306677
Beldhuismolenweg,8,b,,7562PC,Deurningen,Oldenzaal,Overijssel,VBO,6.869690,52.306584
Beldhuismolenweg,8,c,,7562PC,Deurningen,Oldenzaal,Overijssel,VBO,6.871228,52.306254
Beldhuismolenweg,8,,,7562PC,Deurningen,Oldenzaal,Overijssel,VBO,6.869912,52.306009
Beldhuismolenweg,9,,TR,7562PC,Deurningen,Oldenzaal,Overijssel,VBO,6.870868,52.306118
Oldenzaalsedijk,3,a,TR,7562PD,Deurningen,Oldenzaal,Overijssel,VBO,6.863115,52.304834
Oldenzaalsedijk,3,a,,7562PD,Deurningen,Oldenzaal,Overijssel,VBO,6.862668,52.304917
Oldenzaalsedijk,3,,,7562PD,Deurningen,Oldenzaal,Overijssel,VBO,6.862531,52.304925
Oldenzaalsedijk,5,a,,7562PD,Deurningen,Oldenzaal,Overijssel,VBO,6.863280,52.306295
Oldenzaalsedijk,5,,,7562PD,Deurningen,Oldenzaal,Overijssel,VBO,6.863307,52.306228
Oldenzaalsedijk,7,,,7562PD,Deurningen,Oldenzaal,Overijssel,VBO,6.869423,52.304397
Oldenzaalsedijk,14,,,7562PD,Deurningen,Oldenzaal,Overijssel,VBO,6.863522,52.304320
Oldenzaalsedijk,15,,,7562PD,Deurningen,Oldenzaal,Overijssel,VBO,6.880956,52.307369
Oldenzaalsedijk,18,a,,7562PD,Deurningen,Oldenzaal,Overijssel,VBO,6.881277,52.303664
Oldenzaalsedijk,18,,,7562PD,Deurningen,Oldenzaal,Overijssel,VBO,6.881383,52.303622
Oldenzaalsedijk,20,,,7562PD,Deurningen,Oldenzaal,Overijssel,VBO,6.882115,52.304281
Oldenzaalsedijk,22,,,7562PD,Deurningen,Oldenzaal,Overijssel,VBO,6.881379,52.305676
Wierinksweg,2,a,,7562PE,Deurningen,Oldenzaal,Overijssel,VBO,6.865609,52.299310
Wierinksweg,2,,,7562PE,Deurningen,Oldenzaal,Overijssel,VBO,6.865460,52.298602
Wierinksweg,4,,,7562PE,Deurningen,Oldenzaal,Overijssel,VBO,6.866142,52.300109
Wierinksweg,6,a,TR,7562PE,Deurningen,Oldenzaal,Overijssel,VBO,6.865671,52.300491
Wierinksweg,6,,,7562PE,Deurningen,Oldenzaal,Overijssel,VBO,6.866220,52.300169
Wierinksweg,8,,,7562PE,Deurningen,Oldenzaal,Overijssel,VBO,6.868924,52.300356
Wierinksweg,10,a,,7562PE,Deurningen,Oldenzaal,Overijssel,VBO,6.867627,52.301252
Wierinksweg,10,,,7562PE,Deurningen,Oldenzaal,Overijssel,VBO,6.867542,52.301322
Kerkweg,53,,,7562PG,Deurningen,Oldenzaal,Overijssel,VBO,6.875251,52.298054
Kerkweg,55,,,7562PG,Deurningen,Oldenzaal,Overijssel,VBO,6.875564,52.296682
Hulsbeekweg,1,,TR,7562PH,Deurningen,Oldenzaal,Overijssel,VBO,6.878256,52.301103
Hulsbeekweg,2,,,7562PH,Deurningen,Oldenzaal,Overijssel,VBO,6.876757,52.299697
Hulsbeekweg,3,,,7562PH,Deurningen,Oldenzaal,Overijssel,VBO,6.873971,52.301165
Hulsbeekweg,4,,,7562PH,Deurningen,Oldenzaal,Overijssel,VBO,6.876617,52.299700
Reininksweg,1,b,,7562PJ,Deurningen,Oldenzaal,Overijssel,VBO,6.882376,52.296992
Reininksweg,1,c,,7562PJ,Deurningen,Oldenzaal,Overijssel,VBO,6.883210,52.296857
Reininksweg,1,,,7562PJ,Deurningen,Oldenzaal,Overijssel,VBO,6.878541,52.297996
Reininksweg,2,b,TR,7562PJ,Deurningen,Oldenzaal,Overijssel,VBO,6.884232,52.297083
Reininksweg,2,,,7562PJ,Deurningen,Oldenzaal,Overijssel,VBO,6.884768,52.296950
Reininksweg,3,,,7562PJ,Deurningen,Oldenzaal,Overijssel,VBO,6.877120,52.302345
Reininksweg,4,,,7562PJ,Deurningen,Oldenzaal,Overijssel,VBO,6.883948,52.297122
Reininksweg,5,a,,7562PJ,Deurningen,Oldenzaal,Overijssel,VBO,6.877320,52.302756
Reininksweg,5,,,7562PJ,Deurningen,Oldenzaal,Overijssel,VBO,6.877428,52.302786
Reininksweg,6,,,7562PJ,Deurningen,Oldenzaal,Overijssel,VBO,6.883372,52.297413
Reininksweg,7,,,7562PJ,Deurningen,Oldenzaal,Overijssel,VBO,6.875557,52.303343
Reininksweg,8,,,7562PJ,Deurningen,Oldenzaal,Overijssel,VBO,6.881833,52.298292
Reininksweg,10,,,7562PJ,Deurningen,Oldenzaal,Overijssel,VBO,6.880813,52.299299
Reininksweg,12,a,,7562PJ,Deurningen,Oldenzaal,Overijssel,VBO,6.879707,52.301149
Reininksweg,12,,,7562PJ,Deurningen,Oldenzaal,Overijssel,VBO,6.879532,52.301005
Reininksweg,14,,,7562PJ,Deurningen,Oldenzaal,Overijssel,VBO,6.878017,52.302939
Reininksweg,16,a,,7562PJ,Deurningen,Oldenzaal,Overijssel,VBO,6.877289,52.303916
Reininksweg,16,,,7562PJ,Deurningen,Oldenzaal,Overijssel,VBO,6.877146,52.303926
Hengelosestraat,230,,,7562PK,Deurningen,Oldenzaal,Overijssel,VBO,6.890236,52.299413
Hengelosestraat,232,,,7562PK,Deurningen,Oldenzaal,Overijssel,VBO,6.887031,52.298193
Hengelosestraat,240,,,7562PK,Deurningen,Oldenzaal,Overijssel,VBO,6.884495,52.296765
Hengelosestraat,244,,,7562PK,Deurningen,Oldenzaal,Overijssel,VBO,6.882330,52.296418
Hengelosestraat,246,,,7562PK,Deurningen,Oldenzaal,Overijssel,VBO,6.882180,52.296241
Hengelosestraat,248,,,7562PK,Deurningen,Oldenzaal,Overijssel,VBO,6.882116,52.296176
Hengelosestraat,250,a,TR,7562PK,Deurningen,Oldenzaal,Overijssel,VBO,6.881206,52.296111
Hengelosestraat,250,,,7562PK,Deurningen,Oldenzaal,Overijssel,VBO,6.880752,52.295529
Hengelosestraat,252,,,7562PK,Deurningen,Oldenzaal,Overijssel,VBO,6.880913,52.295429
Hengelosestraat,254,,,7562PK,Deurningen,Oldenzaal,Overijssel,VBO,6.879646,52.295613
Hengelosestraat,199,,,7562RA,Deurningen,Oldenzaal,Overijssel,VBO,6.893550,52.299670
Hengelosestraat,201,,,7562RA,Deurningen,Oldenzaal,Overijssel,VBO,6.893511,52.299621
Hengelosestraat,203,a,,7562RA,Deurningen,Oldenzaal,Overijssel,VBO,6.893348,52.299351
Hengelosestraat,203,,,7562RA,Deurningen,Oldenzaal,Overijssel,VBO,6.893213,52.299474
Hengelosestraat,205,,,7562RA,Deurningen,Oldenzaal,Overijssel,VBO,6.893124,52.299472
Hengelosestraat,207,,,7562RA,Deurningen,Oldenzaal,Overijssel,VBO,6.892449,52.298924
Hengelosestraat,209,,,7562RA,Deurningen,Oldenzaal,Overijssel,VBO,6.892107,52.299118
Hengelosestraat,213,,,7562RA,Deurningen,Oldenzaal,Overijssel,VBO,6.891528,52.298517
Hengelosestraat,215,,,7562RA,Deurningen,Oldenzaal,Overijssel,VBO,6.889985,52.297586
Hengelosestraat,217,,,7562RA,Deurningen,Oldenzaal,Overijssel,VBO,6.889925,52.297858
Hengelosestraat,219,,,7562RA,Deurningen,Oldenzaal,Overijssel,VBO,6.889318,52.297589
Hengelosestraat,221,,,7562RA,Deurningen,Oldenzaal,Overijssel,VBO,6.888921,52.297598
Hengelosestraat,223,,,7562RA,Deurningen,Oldenzaal,Overijssel,VBO,6.887813,52.297543
Hengelosestraat,225,,,7562RA,Deurningen,Oldenzaal,Overijssel,VBO,6.887768,52.297503
Hengelosestraat,227,,,7562RA,Deurningen,Oldenzaal,Overijssel,VBO,6.884372,52.296143
Kattenveenweg,1,,,7562RB,Deurningen,Oldenzaal,Overijssel,VBO,6.886677,52.296827
Kattenveenweg,2,,,7562RB,Deurningen,Oldenzaal,Overijssel,VBO,6.885840,52.296268
Kattenveenweg,3,,,7562RB,Deurningen,Oldenzaal,Overijssel,VBO,6.888618,52.296410
Zandsteenweg,10,,TL,7562RC,Deurningen,Oldenzaal,Overijssel,VBO,6.887765,52.293969
Zandsteenweg,11,,,7562RC,Deurningen,Oldenzaal,Overijssel,VBO,6.899447,52.293093
Oude Postweg,20,,,7562RD,Deurningen,Oldenzaal,Overijssel,VBO,6.909905,52.288063
Oude Postweg,22,,,7562RD,Deurningen,Oldenzaal,Overijssel,VBO,6.911047,52.288002
Oude Postweg,24,,,7562RD,Deurningen,Oldenzaal,Overijssel,VBO,6.913263,52.288716
Oude Postweg,25,,,7562RD,Deurningen,Oldenzaal,Overijssel,VBO,6.914142,52.289665
Oude Postweg,26,,,7562RD,Deurningen,Oldenzaal,Overijssel,VBO,6.914954,52.287967
Visschedijkweg,1,,,7562RE,Deurningen,Oldenzaal,Overijssel,VBO,6.900226,52.291275
Visschedijkweg,3,,,7562RE,Deurningen,Oldenzaal,Overijssel,VBO,6.902143,52.292080
Duivelsdijk,127,,,7562RG,Deurningen,Oldenzaal,Overijssel,VBO,6.917839,52.285581
Noordergrensweg,1,,TR,7562RH,Oldenzaal,Oldenzaal,Overijssel,VBO,6.928766,52.283808
Noordergrensweg,2,,,7562RH,Deurningen,Oldenzaal,Overijssel,VBO,6.917082,52.285679
Ledeboerweg,18,a,,7562RJ,Deurningen,Oldenzaal,Overijssel,VBO,6.907714,52.288367
Ledeboerweg,18,,,7562RJ,Deurningen,Oldenzaal,Overijssel,VBO,6.907608,52.288349
