openbareruimtenaam,huisnummer,huisletter,huisnummertoevoeging,postcode,woonplaatsnaam,gemeentenaam,provincienaam,typeadresseerbaarobject,longitude,latitude
Enschedesestraat,35,,,7574AA,Oldenzaal,Oldenzaal,Overijssel,VBO,6.930772,52.302598
Enschedesestraat,37,,,7574AA,Oldenzaal,Oldenzaal,Overijssel,VBO,6.930790,52.302463
Enschedesestraat,39,,,7574AA,Oldenzaal,Oldenzaal,Overijssel,VBO,6.930856,52.302306
Enschedesestraat,43,,,7574AA,Oldenzaal,Oldenzaal,Overijssel,VBO,6.930814,52.302165
Enschedesestraat,45,,,7574AA,Oldenzaal,Oldenzaal,Overijssel,VBO,6.930826,52.302102
Enschedesestraat,47,,,7574AA,Oldenzaal,Oldenzaal,Overijssel,VBO,6.930867,52.301993
Enschedesestraat,49,,,7574AA,Oldenzaal,Oldenzaal,Overijssel,VBO,6.930879,52.301939
Enschedesestraat,51,,,7574AA,Oldenzaal,Oldenzaal,Overijssel,VBO,6.930934,52.301813
Enschedesestraat,53,,,7574AA,Oldenzaal,Oldenzaal,Overijssel,VBO,6.930961,52.301767
Enschedesestraat,55,,,7574AA,Oldenzaal,Oldenzaal,Overijssel,VBO,6.931016,52.301650
Enschedesestraat,57,,,7574AA,Oldenzaal,Oldenzaal,Overijssel,VBO,6.931058,52.301595
Enschedesestraat,89,,,7574AA,Oldenzaal,Oldenzaal,Overijssel,VBO,6.931128,52.301486
Enschedesestraat,91,,,7574AA,Oldenzaal,Oldenzaal,Overijssel,VBO,6.931155,52.301432
Enschedesestraat,93,,,7574AA,Oldenzaal,Oldenzaal,Overijssel,VBO,6.931223,52.301287
Enschedesestraat,95,,,7574AA,Oldenzaal,Oldenzaal,Overijssel,VBO,6.931334,52.301088
Enschedesestraat,97,,,7574AA,Oldenzaal,Oldenzaal,Overijssel,VBO,6.931459,52.300907
Enschedesestraat,99,,,7574AB,Oldenzaal,Oldenzaal,Overijssel,VBO,6.931500,52.300798
Enschedesestraat,107,,,7574AB,Oldenzaal,Oldenzaal,Overijssel,VBO,6.931657,52.300452
Enschedesestraat,113,,,7574AB,Oldenzaal,Oldenzaal,Overijssel,VBO,6.931788,52.300237
Enschedesestraat,115,,,7574AB,Oldenzaal,Oldenzaal,Overijssel,VBO,6.931681,52.300122
Enschedesestraat,117,,,7574AB,Oldenzaal,Oldenzaal,Overijssel,VBO,6.931782,52.300067
Enschedesestraat,119,,,7574AB,Oldenzaal,Oldenzaal,Overijssel,VBO,6.931744,52.299998
Enschedesestraat,121,,,7574AB,Oldenzaal,Oldenzaal,Overijssel,VBO,6.931719,52.299933
Enschedesestraat,123,a,,7574AB,Oldenzaal,Oldenzaal,Overijssel,VBO,6.931716,52.299837
Enschedesestraat,123,,,7574AB,Oldenzaal,Oldenzaal,Overijssel,VBO,6.931699,52.299789
Enschedesestraat,125,,,7574AB,Oldenzaal,Oldenzaal,Overijssel,VBO,6.931699,52.299729
Enschedesestraat,127,a,,7574AB,Oldenzaal,Oldenzaal,Overijssel,VBO,6.931692,52.299633
Enschedesestraat,127,,,7574AB,Oldenzaal,Oldenzaal,Overijssel,VBO,6.931696,52.299681
Enschedesestraat,129,,,7574AB,Oldenzaal,Oldenzaal,Overijssel,VBO,6.931702,52.299555
Enschedesestraat,131,,,7574AB,Oldenzaal,Oldenzaal,Overijssel,VBO,6.931804,52.299463
Enschedesestraat,133,,,7574AB,Oldenzaal,Oldenzaal,Overijssel,VBO,6.931792,52.299399
Enschedesestraat,135,a,,7574AB,Oldenzaal,Oldenzaal,Overijssel,VBO,6.931694,52.299232
Enschedesestraat,135,,,7574AB,Oldenzaal,Oldenzaal,Overijssel,VBO,6.931694,52.299232
Enschedesestraat,137,,,7574AB,Oldenzaal,Oldenzaal,Overijssel,VBO,6.931617,52.299116
Enschedesestraat,141,,,7574AB,Oldenzaal,Oldenzaal,Overijssel,VBO,6.931613,52.298999
Enschedesestraat,143,,,7574AB,Oldenzaal,Oldenzaal,Overijssel,VBO,6.931597,52.298945
Enschedesestraat,145,a,,7574AC,Oldenzaal,Oldenzaal,Overijssel,VBO,6.931652,52.298731
Enschedesestraat,145,,,7574AC,Oldenzaal,Oldenzaal,Overijssel,VBO,6.931556,52.298785
Enschedesestraat,147,,,7574AC,Oldenzaal,Oldenzaal,Overijssel,VBO,6.931541,52.298731
Enschedesestraat,149,,,7574AC,Oldenzaal,Oldenzaal,Overijssel,VBO,6.931557,52.298649
Enschedesestraat,151,,,7574AC,Oldenzaal,Oldenzaal,Overijssel,VBO,6.931540,52.298596
Enschedesestraat,153,,,7574AC,Oldenzaal,Oldenzaal,Overijssel,VBO,6.931524,52.298542
Enschedesestraat,155,,,7574AC,Oldenzaal,Oldenzaal,Overijssel,VBO,6.931551,52.298479
Enschedesestraat,157,,,7574AC,Oldenzaal,Oldenzaal,Overijssel,VBO,6.931533,52.298380
Enschedesestraat,159,,,7574AC,Oldenzaal,Oldenzaal,Overijssel,VBO,6.931456,52.298282
Enschedesestraat,163,,,7574AC,Oldenzaal,Oldenzaal,Overijssel,VBO,6.931421,52.298112
Lossersestraat,2,a,,7574AE,Oldenzaal,Oldenzaal,Overijssel,VBO,6.930811,52.292204
Lossersestraat,2,,,7574AE,Oldenzaal,Oldenzaal,Overijssel,VBO,6.930715,52.292217
Burgemeester Wallerstraat,231,,,7574AJ,Oldenzaal,Oldenzaal,Overijssel,VBO,6.936724,52.295478
Burgemeester Wallerstraat,41,,,7574AK,Oldenzaal,Oldenzaal,Overijssel,VBO,6.932931,52.302774
Burgemeester Wallerstraat,43,,,7574AK,Oldenzaal,Oldenzaal,Overijssel,VBO,6.932973,52.302798
Burgemeester Wallerstraat,45,,,7574AK,Oldenzaal,Oldenzaal,Overijssel,VBO,6.933022,52.302793
Burgemeester Wallerstraat,47,,,7574AK,Oldenzaal,Oldenzaal,Overijssel,VBO,6.933021,52.302714
Burgemeester Wallerstraat,49,,,7574AK,Oldenzaal,Oldenzaal,Overijssel,VBO,6.933065,52.302740
Burgemeester Wallerstraat,51,,,7574AK,Oldenzaal,Oldenzaal,Overijssel,VBO,6.933094,52.302752
Burgemeester Wallerstraat,53,,,7574AK,Oldenzaal,Oldenzaal,Overijssel,VBO,6.933088,52.302669
Burgemeester Wallerstraat,55,,,7574AK,Oldenzaal,Oldenzaal,Overijssel,VBO,6.933132,52.302696
Burgemeester Wallerstraat,57,,,7574AK,Oldenzaal,Oldenzaal,Overijssel,VBO,6.933161,52.302703
Burgemeester Wallerstraat,59,,,7574AK,Oldenzaal,Oldenzaal,Overijssel,VBO,6.933178,52.302611
Burgemeester Wallerstraat,61,,,7574AK,Oldenzaal,Oldenzaal,Overijssel,VBO,6.933213,52.302636
Burgemeester Wallerstraat,63,,,7574AK,Oldenzaal,Oldenzaal,Overijssel,VBO,6.933250,52.302649
Burgemeester Wallerstraat,65,,,7574AK,Oldenzaal,Oldenzaal,Overijssel,VBO,6.933244,52.302565
Burgemeester Wallerstraat,67,,,7574AK,Oldenzaal,Oldenzaal,Overijssel,VBO,6.933280,52.302591
Burgemeester Wallerstraat,69,,,7574AK,Oldenzaal,Oldenzaal,Overijssel,VBO,6.933327,52.302586
Burgemeester Wallerstraat,71,,,7574AK,Oldenzaal,Oldenzaal,Overijssel,VBO,6.933348,52.302497
Burgemeester Wallerstraat,73,,,7574AK,Oldenzaal,Oldenzaal,Overijssel,VBO,6.933376,52.302517
Burgemeester Wallerstraat,75,,,7574AK,Oldenzaal,Oldenzaal,Overijssel,VBO,6.933411,52.302539
Burgemeester Wallerstraat,77,,,7574AL,Oldenzaal,Oldenzaal,Overijssel,VBO,6.933407,52.302451
Burgemeester Wallerstraat,79,,,7574AL,Oldenzaal,Oldenzaal,Overijssel,VBO,6.933439,52.302473
Burgemeester Wallerstraat,81,,,7574AL,Oldenzaal,Oldenzaal,Overijssel,VBO,6.933479,52.302493
Burgemeester Wallerstraat,83,,,7574AL,Oldenzaal,Oldenzaal,Overijssel,VBO,6.933495,52.302390
Burgemeester Wallerstraat,85,,,7574AL,Oldenzaal,Oldenzaal,Overijssel,VBO,6.933526,52.302410
Burgemeester Wallerstraat,87,,,7574AL,Oldenzaal,Oldenzaal,Overijssel,VBO,6.933557,52.302442
Burgemeester Wallerstraat,89,,,7574AL,Oldenzaal,Oldenzaal,Overijssel,VBO,6.933564,52.302344
Burgemeester Wallerstraat,91,,,7574AL,Oldenzaal,Oldenzaal,Overijssel,VBO,6.933606,52.302365
Burgemeester Wallerstraat,93,,,7574AL,Oldenzaal,Oldenzaal,Overijssel,VBO,6.933630,52.302379
Burgemeester Wallerstraat,95,,,7574AL,Oldenzaal,Oldenzaal,Overijssel,VBO,6.933651,52.302285
Burgemeester Wallerstraat,97,,,7574AL,Oldenzaal,Oldenzaal,Overijssel,VBO,6.933691,52.302308
Burgemeester Wallerstraat,99,,,7574AL,Oldenzaal,Oldenzaal,Overijssel,VBO,6.933726,52.302327
Burgemeester Wallerstraat,103,a,GR1,7574AL,Oldenzaal,Oldenzaal,Overijssel,VBO,6.933898,52.302373
Burgemeester Wallerstraat,103,a,GR2,7574AL,Oldenzaal,Oldenzaal,Overijssel,VBO,6.933924,52.302345
Burgemeester Wallerstraat,103,a,GR3,7574AL,Oldenzaal,Oldenzaal,Overijssel,VBO,6.933951,52.302317
Burgemeester Wallerstraat,103,a,GR4,7574AL,Oldenzaal,Oldenzaal,Overijssel,VBO,6.933983,52.302290
Burgemeester Wallerstraat,103,,,7574AL,Oldenzaal,Oldenzaal,Overijssel,VBO,6.933805,52.302179
Burgemeester Wallerstraat,105,,,7574AL,Oldenzaal,Oldenzaal,Overijssel,VBO,6.933726,52.302264
Burgemeester Wallerstraat,107,,,7574AL,Oldenzaal,Oldenzaal,Overijssel,VBO,6.933822,52.302209
Burgemeester Wallerstraat,109,,,7574AL,Oldenzaal,Oldenzaal,Overijssel,VBO,6.933783,52.302268
Burgemeester Wallerstraat,111,,,7574AL,Oldenzaal,Oldenzaal,Overijssel,VBO,6.933854,52.302216
Burgemeester Wallerstraat,115,,,7574AL,Oldenzaal,Oldenzaal,Overijssel,VBO,6.934988,52.301707
Burgemeester Wallerstraat,119,,,7574AL,Oldenzaal,Oldenzaal,Overijssel,VBO,6.935054,52.301000
Burgemeester Wallerstraat,121,,,7574AL,Oldenzaal,Oldenzaal,Overijssel,VBO,6.935204,52.300976
Burgemeester Wallerstraat,125,,,7574AM,Oldenzaal,Oldenzaal,Overijssel,VBO,6.935384,52.300966
Burgemeester Wallerstraat,127,,,7574AM,Oldenzaal,Oldenzaal,Overijssel,VBO,6.935622,52.300963
Burgemeester Wallerstraat,133,,,7574AM,Oldenzaal,Oldenzaal,Overijssel,VBO,6.935743,52.300847
Burgemeester Wallerstraat,135,,,7574AM,Oldenzaal,Oldenzaal,Overijssel,VBO,6.935916,52.300786
Burgemeester Wallerstraat,137,,,7574AM,Oldenzaal,Oldenzaal,Overijssel,VBO,6.936072,52.300757
Burgemeester Wallerstraat,139,,,7574AM,Oldenzaal,Oldenzaal,Overijssel,VBO,6.935825,52.300744
Burgemeester Wallerstraat,141,,,7574AM,Oldenzaal,Oldenzaal,Overijssel,VBO,6.935739,52.300707
Burgemeester Wallerstraat,143,,,7574AM,Oldenzaal,Oldenzaal,Overijssel,VBO,6.935834,52.300632
Burgemeester Wallerstraat,145,,,7574AM,Oldenzaal,Oldenzaal,Overijssel,VBO,6.935766,52.300594
Burgemeester Wallerstraat,147,,,7574AM,Oldenzaal,Oldenzaal,Overijssel,VBO,6.935658,52.300668
Burgemeester Wallerstraat,149,,,7574AM,Oldenzaal,Oldenzaal,Overijssel,VBO,6.935576,52.300629
Burgemeester Wallerstraat,155,,,7574AN,Oldenzaal,Oldenzaal,Overijssel,VBO,6.935490,52.300588
Burgemeester Wallerstraat,157,,,7574AN,Oldenzaal,Oldenzaal,Overijssel,VBO,6.935409,52.300549
Burgemeester Wallerstraat,159,,,7574AN,Oldenzaal,Oldenzaal,Overijssel,VBO,6.935504,52.300475
Burgemeester Wallerstraat,161,,,7574AN,Oldenzaal,Oldenzaal,Overijssel,VBO,6.935417,52.300432
Burgemeester Wallerstraat,163,,,7574AN,Oldenzaal,Oldenzaal,Overijssel,VBO,6.935321,52.300511
Burgemeester Wallerstraat,165,,,7574AN,Oldenzaal,Oldenzaal,Overijssel,VBO,6.935232,52.300475
Burgemeester Wallerstraat,167,,,7574AN,Oldenzaal,Oldenzaal,Overijssel,VBO,6.935318,52.300391
Burgemeester Wallerstraat,177,,TR,7574AN,Oldenzaal,Oldenzaal,Overijssel,VBO,6.935470,52.299953
Burgemeester Wallerstraat,179,,,7574AN,Oldenzaal,Oldenzaal,Overijssel,VBO,6.935654,52.299665
Burgemeester Wallerstraat,181,,,7574AN,Oldenzaal,Oldenzaal,Overijssel,VBO,6.935736,52.299502
Burgemeester Wallerstraat,183,,,7574AN,Oldenzaal,Oldenzaal,Overijssel,VBO,6.935776,52.299394
Burgemeester Wallerstraat,185,,,7574AP,Oldenzaal,Oldenzaal,Overijssel,VBO,6.935832,52.299303
Burgemeester Wallerstraat,187,,,7574AP,Oldenzaal,Oldenzaal,Overijssel,VBO,6.935872,52.299204
Burgemeester Wallerstraat,189,,,7574AP,Oldenzaal,Oldenzaal,Overijssel,VBO,6.935900,52.299150
Burgemeester Wallerstraat,191,,,7574AP,Oldenzaal,Oldenzaal,Overijssel,VBO,6.935940,52.299050
Burgemeester Wallerstraat,193,,,7574AP,Oldenzaal,Oldenzaal,Overijssel,VBO,6.935953,52.298996
Burgemeester Wallerstraat,195,,,7574AP,Oldenzaal,Oldenzaal,Overijssel,VBO,6.936008,52.298906
Burgemeester Wallerstraat,197,,,7574AP,Oldenzaal,Oldenzaal,Overijssel,VBO,6.936048,52.298779
Burgemeester Wallerstraat,199,,,7574AP,Oldenzaal,Oldenzaal,Overijssel,VBO,6.936186,52.298526
Burgemeester Wallerstraat,18,,,7574AR,Oldenzaal,Oldenzaal,Overijssel,VBO,6.932216,52.302857
Burgemeester Wallerstraat,20,,,7574AR,Oldenzaal,Oldenzaal,Overijssel,VBO,6.932244,52.302802
Burgemeester Wallerstraat,22,,,7574AR,Oldenzaal,Oldenzaal,Overijssel,VBO,6.932271,52.302739
Burgemeester Wallerstraat,24,,,7574AR,Oldenzaal,Oldenzaal,Overijssel,VBO,6.932284,52.302685
Burgemeester Wallerstraat,26,,,7574AR,Oldenzaal,Oldenzaal,Overijssel,VBO,6.932311,52.302622
Burgemeester Wallerstraat,28,,,7574AR,Oldenzaal,Oldenzaal,Overijssel,VBO,6.932777,52.302463
Burgemeester Wallerstraat,30,,,7574AR,Oldenzaal,Oldenzaal,Overijssel,VBO,6.932740,52.302441
Burgemeester Wallerstraat,32,,,7574AR,Oldenzaal,Oldenzaal,Overijssel,VBO,6.932700,52.302417
Burgemeester Wallerstraat,34,,,7574AR,Oldenzaal,Oldenzaal,Overijssel,VBO,6.932872,52.302397
Burgemeester Wallerstraat,36,,,7574AR,Oldenzaal,Oldenzaal,Overijssel,VBO,6.932839,52.302379
Burgemeester Wallerstraat,38,,,7574AR,Oldenzaal,Oldenzaal,Overijssel,VBO,6.932796,52.302357
Burgemeester Wallerstraat,40,,,7574AS,Oldenzaal,Oldenzaal,Overijssel,VBO,6.932947,52.302354
Burgemeester Wallerstraat,42,,,7574AS,Oldenzaal,Oldenzaal,Overijssel,VBO,6.932906,52.302335
Burgemeester Wallerstraat,44,,,7574AS,Oldenzaal,Oldenzaal,Overijssel,VBO,6.932871,52.302309
Burgemeester Wallerstraat,46,,,7574AS,Oldenzaal,Oldenzaal,Overijssel,VBO,6.933037,52.302287
Burgemeester Wallerstraat,48,,,7574AS,Oldenzaal,Oldenzaal,Overijssel,VBO,6.932992,52.302269
Burgemeester Wallerstraat,50,,,7574AS,Oldenzaal,Oldenzaal,Overijssel,VBO,6.932959,52.302249
Burgemeester Wallerstraat,52,,,7574AS,Oldenzaal,Oldenzaal,Overijssel,VBO,6.933107,52.302242
Burgemeester Wallerstraat,54,,,7574AS,Oldenzaal,Oldenzaal,Overijssel,VBO,6.933073,52.302221
Burgemeester Wallerstraat,56,,,7574AS,Oldenzaal,Oldenzaal,Overijssel,VBO,6.933040,52.302199
Burgemeester Wallerstraat,58,,,7574AS,Oldenzaal,Oldenzaal,Overijssel,VBO,6.933201,52.302179
Burgemeester Wallerstraat,60,,,7574AS,Oldenzaal,Oldenzaal,Overijssel,VBO,6.933163,52.302159
Burgemeester Wallerstraat,62,,,7574AS,Oldenzaal,Oldenzaal,Overijssel,VBO,6.933128,52.302136
Burgemeester Wallerstraat,64,,,7574AT,Oldenzaal,Oldenzaal,Overijssel,VBO,6.933269,52.302130
Burgemeester Wallerstraat,66,,,7574AT,Oldenzaal,Oldenzaal,Overijssel,VBO,6.933230,52.302106
Burgemeester Wallerstraat,68,,,7574AT,Oldenzaal,Oldenzaal,Overijssel,VBO,6.933195,52.302085
Burgemeester Wallerstraat,70,,,7574AT,Oldenzaal,Oldenzaal,Overijssel,VBO,6.933359,52.302069
Burgemeester Wallerstraat,72,,,7574AT,Oldenzaal,Oldenzaal,Overijssel,VBO,6.933324,52.302047
Burgemeester Wallerstraat,74,,,7574AT,Oldenzaal,Oldenzaal,Overijssel,VBO,6.933285,52.302027
Burgemeester Wallerstraat,76,a,,7574AT,Oldenzaal,Oldenzaal,Overijssel,VBO,6.933503,52.301937
Burgemeester Wallerstraat,76,b,,7574AT,Oldenzaal,Oldenzaal,Overijssel,VBO,6.933540,52.301905
Burgemeester Wallerstraat,76,,,7574AT,Oldenzaal,Oldenzaal,Overijssel,VBO,6.933589,52.301878
Burgemeester Wallerstraat,78,a,,7574AT,Oldenzaal,Oldenzaal,Overijssel,VBO,6.933742,52.301623
Burgemeester Wallerstraat,78,,,7574AT,Oldenzaal,Oldenzaal,Overijssel,VBO,6.933757,52.301614
Burgemeester Wallerstraat,80,,,7574AT,Oldenzaal,Oldenzaal,Overijssel,VBO,6.933989,52.301548
Burgemeester Wallerstraat,88,,,7574AT,Oldenzaal,Oldenzaal,Overijssel,VBO,6.934603,52.300817
Burgemeester Wallerstraat,92,,,7574AT,Oldenzaal,Oldenzaal,Overijssel,VBO,6.934786,52.300000
Burgemeester Wallerstraat,94,,,7574AV,Oldenzaal,Oldenzaal,Overijssel,VBO,6.934828,52.299946
Burgemeester Wallerstraat,96,,,7574AV,Oldenzaal,Oldenzaal,Overijssel,VBO,6.934869,52.299855
Burgemeester Wallerstraat,98,,,7574AV,Oldenzaal,Oldenzaal,Overijssel,VBO,6.934924,52.299756
Burgemeester Wallerstraat,100,,,7574AV,Oldenzaal,Oldenzaal,Overijssel,VBO,6.935199,52.299653
Burgemeester Wallerstraat,102,,,7574AV,Oldenzaal,Oldenzaal,Overijssel,VBO,6.935194,52.299528
Burgemeester Wallerstraat,104,,,7574AV,Oldenzaal,Oldenzaal,Overijssel,VBO,6.935207,52.299464
Burgemeester Wallerstraat,106,,,7574AV,Oldenzaal,Oldenzaal,Overijssel,VBO,6.935223,52.299310
Burgemeester Wallerstraat,108,,,7574AV,Oldenzaal,Oldenzaal,Overijssel,VBO,6.935402,52.299174
Burgemeester Wallerstraat,110,,,7574AV,Oldenzaal,Oldenzaal,Overijssel,VBO,6.935443,52.299084
Burgemeester Wallerstraat,112,,,7574AV,Oldenzaal,Oldenzaal,Overijssel,VBO,6.935498,52.298975
Burgemeester Wallerstraat,114,,,7574AV,Oldenzaal,Oldenzaal,Overijssel,VBO,6.935452,52.298922
Burgemeester Wallerstraat,116,,,7574AV,Oldenzaal,Oldenzaal,Overijssel,VBO,6.935552,52.298840
Burgemeester Wallerstraat,118,,,7574AV,Oldenzaal,Oldenzaal,Overijssel,VBO,6.935604,52.298776
Burgemeester Wallerstraat,120,,,7574AV,Oldenzaal,Oldenzaal,Overijssel,VBO,6.935606,52.298704
Burgemeester Wallerstraat,122,,,7574AV,Oldenzaal,Oldenzaal,Overijssel,VBO,6.935633,52.298650
Burgemeester Wallerstraat,124,,,7574AV,Oldenzaal,Oldenzaal,Overijssel,VBO,6.935660,52.298596
Burgemeester Wallerstraat,126,,,7574AV,Oldenzaal,Oldenzaal,Overijssel,VBO,6.935552,52.298435
Burgemeester Wallerstraat,130,,,7574AV,Oldenzaal,Oldenzaal,Overijssel,VBO,6.935768,52.297884
Burgemeester Wallerstraat,132,,,7574AW,Oldenzaal,Oldenzaal,Overijssel,VBO,6.935703,52.297714
Burgemeester Wallerstraat,134,,,7574AW,Oldenzaal,Oldenzaal,Overijssel,VBO,6.935624,52.297553
Burgemeester Wallerstraat,136,,,7574AW,Oldenzaal,Oldenzaal,Overijssel,VBO,6.935589,52.297401
Burgemeester Wallerstraat,138,,,7574AW,Oldenzaal,Oldenzaal,Overijssel,VBO,6.935512,52.297294
Burgemeester Wallerstraat,140,,,7574AW,Oldenzaal,Oldenzaal,Overijssel,VBO,6.935464,52.297169
Burgemeester Wallerstraat,142,,,7574AW,Oldenzaal,Oldenzaal,Overijssel,VBO,6.935474,52.297043
Burgemeester Wallerstraat,144,,,7574AW,Oldenzaal,Oldenzaal,Overijssel,VBO,6.935382,52.296927
Burgemeester Wallerstraat,146,,,7574AW,Oldenzaal,Oldenzaal,Overijssel,VBO,6.935365,52.296865
Burgemeester Wallerstraat,148,,,7574AW,Oldenzaal,Oldenzaal,Overijssel,VBO,6.935375,52.296730
Burgemeester Wallerstraat,150,,,7574AW,Oldenzaal,Oldenzaal,Overijssel,VBO,6.935311,52.296578
Burgemeester Wallerstraat,152,,,7574AW,Oldenzaal,Oldenzaal,Overijssel,VBO,6.935248,52.296426
Burgemeester Wallerstraat,154,,,7574AW,Oldenzaal,Oldenzaal,Overijssel,VBO,6.935228,52.296273
Burgemeester Wallerstraat,156,,,7574AW,Oldenzaal,Oldenzaal,Overijssel,VBO,6.935163,52.296112
Burgemeester Wallerstraat,158,,,7574AW,Oldenzaal,Oldenzaal,Overijssel,VBO,6.935114,52.295960
Burgemeester Wallerstraat,160,,,7574AX,Oldenzaal,Oldenzaal,Overijssel,VBO,6.934951,52.295486
Burgemeester Wallerstraat,162,,,7574AX,Oldenzaal,Oldenzaal,Overijssel,VBO,6.934902,52.295351
Burgemeester Wallerstraat,164,,,7574AX,Oldenzaal,Oldenzaal,Overijssel,VBO,6.934839,52.295226
Burgemeester Wallerstraat,166,,,7574AX,Oldenzaal,Oldenzaal,Overijssel,VBO,6.934776,52.295092
Burgemeester Wallerstraat,168,,,7574AX,Oldenzaal,Oldenzaal,Overijssel,VBO,6.934728,52.294976
Burgemeester Wallerstraat,170,,,7574AX,Oldenzaal,Oldenzaal,Overijssel,VBO,6.934606,52.294843
Burgemeester Wallerstraat,172,,,7574AX,Oldenzaal,Oldenzaal,Overijssel,VBO,6.934470,52.294719
Burgemeester Wallerstraat,174,,,7574AX,Oldenzaal,Oldenzaal,Overijssel,VBO,6.934407,52.294594
Burgemeester Wallerstraat,176,a,,7574AX,Oldenzaal,Oldenzaal,Overijssel,VBO,6.934068,52.294122
Burgemeester Wallerstraat,176,,,7574AX,Oldenzaal,Oldenzaal,Overijssel,VBO,6.934308,52.294449
Burgemeester Wallerstraat,178,,,7574AX,Oldenzaal,Oldenzaal,Overijssel,VBO,6.933903,52.294034
Burgemeester Wallerstraat,180,,,7574AX,Oldenzaal,Oldenzaal,Overijssel,VBO,6.933841,52.293927
Burgemeester Wallerstraat,182,,,7574AX,Oldenzaal,Oldenzaal,Overijssel,VBO,6.933749,52.293820
Burgemeester Wallerstraat,184,,,7574AX,Oldenzaal,Oldenzaal,Overijssel,VBO,6.933658,52.293723
Burgemeester Wallerstraat,186,,,7574AX,Oldenzaal,Oldenzaal,Overijssel,VBO,6.933520,52.293536
Burgemeester Storkstraat,1,,,7574AZ,Oldenzaal,Oldenzaal,Overijssel,VBO,6.932659,52.301673
Burgemeester Storkstraat,2,,,7574AZ,Oldenzaal,Oldenzaal,Overijssel,VBO,6.932929,52.301436
Burgemeester Storkstraat,4,,,7574AZ,Oldenzaal,Oldenzaal,Overijssel,VBO,6.933160,52.301506
Uiverstraat,3,,,7574BA,Oldenzaal,Oldenzaal,Overijssel,VBO,6.935567,52.300125
Uiverstraat,5,,,7574BA,Oldenzaal,Oldenzaal,Overijssel,VBO,6.935814,52.300059
Uiverstraat,7,,,7574BA,Oldenzaal,Oldenzaal,Overijssel,VBO,6.935944,52.300012
Uiverstraat,9,,,7574BA,Oldenzaal,Oldenzaal,Overijssel,VBO,6.936104,52.299974
Uiverstraat,11,,,7574BA,Oldenzaal,Oldenzaal,Overijssel,VBO,6.936192,52.299955
Uiverstraat,13,,,7574BA,Oldenzaal,Oldenzaal,Overijssel,VBO,6.936322,52.299899
Uiverstraat,15,,,7574BA,Oldenzaal,Oldenzaal,Overijssel,VBO,6.936423,52.299871
Uiverstraat,17,,,7574BA,Oldenzaal,Oldenzaal,Overijssel,VBO,6.936656,52.299814
Uiverstraat,19,,,7574BA,Oldenzaal,Oldenzaal,Overijssel,VBO,6.936728,52.299786
Uiverstraat,21,,,7574BA,Oldenzaal,Oldenzaal,Overijssel,VBO,6.936947,52.299738
Uiverstraat,23,,,7574BA,Oldenzaal,Oldenzaal,Overijssel,VBO,6.937149,52.299664
Uiverstraat,25,,,7574BA,Oldenzaal,Oldenzaal,Overijssel,VBO,6.937280,52.299644
Uiverstraat,27,,,7574BA,Oldenzaal,Oldenzaal,Overijssel,VBO,6.937351,52.299571
Uiverstraat,29,,,7574BA,Oldenzaal,Oldenzaal,Overijssel,VBO,6.937497,52.299560
Uiverstraat,31,,,7574BA,Oldenzaal,Oldenzaal,Overijssel,VBO,6.937584,52.299532
Uiverstraat,33,,,7574BA,Oldenzaal,Oldenzaal,Overijssel,VBO,6.937713,52.299441
Uiverstraat,35,,,7574BA,Oldenzaal,Oldenzaal,Overijssel,VBO,6.937844,52.299394
Uiverstraat,37,,,7574BA,Oldenzaal,Oldenzaal,Overijssel,VBO,6.937989,52.299356
Uiverstraat,39,,,7574BA,Oldenzaal,Oldenzaal,Overijssel,VBO,6.938146,52.299246
Uiverstraat,8,,,7574BB,Oldenzaal,Oldenzaal,Overijssel,VBO,6.936210,52.299649
Uiverstraat,10,,,7574BB,Oldenzaal,Oldenzaal,Overijssel,VBO,6.936283,52.299630
Uiverstraat,12,,,7574BB,Oldenzaal,Oldenzaal,Overijssel,VBO,6.936413,52.299583
Uiverstraat,14,,,7574BB,Oldenzaal,Oldenzaal,Overijssel,VBO,6.936500,52.299555
Uiverstraat,16,,,7574BB,Oldenzaal,Oldenzaal,Overijssel,VBO,6.936616,52.299518
Uiverstraat,18,,,7574BB,Oldenzaal,Oldenzaal,Overijssel,VBO,6.936703,52.299490
Uiverstraat,20,,,7574BB,Oldenzaal,Oldenzaal,Overijssel,VBO,6.936834,52.299461
Uiverstraat,26,,,7574BB,Oldenzaal,Oldenzaal,Overijssel,VBO,6.937023,52.299396
Uiverstraat,28,,,7574BB,Oldenzaal,Oldenzaal,Overijssel,VBO,6.937168,52.299349
Uiverstraat,30,,,7574BB,Oldenzaal,Oldenzaal,Overijssel,VBO,6.937371,52.299283
Uiverstraat,32,,,7574BB,Oldenzaal,Oldenzaal,Overijssel,VBO,6.937533,52.299221
Havikstraat,2,,,7574BD,Oldenzaal,Oldenzaal,Overijssel,VBO,6.935517,52.300359
Reigerstraat,5,,,7574BD,Oldenzaal,Oldenzaal,Overijssel,VBO,6.936412,52.300797
Reigerstraat,7,,,7574BD,Oldenzaal,Oldenzaal,Overijssel,VBO,6.936499,52.300769
Reigerstraat,9,,,7574BD,Oldenzaal,Oldenzaal,Overijssel,VBO,6.936586,52.300750
Reigerstraat,11,,,7574BD,Oldenzaal,Oldenzaal,Overijssel,VBO,6.936745,52.300685
Reigerstraat,15,a,,7574BD,Oldenzaal,Oldenzaal,Overijssel,VBO,6.937083,52.300721
Reigerstraat,15,,,7574BD,Oldenzaal,Oldenzaal,Overijssel,VBO,6.936997,52.300612
Reigerstraat,17,,,7574BD,Oldenzaal,Oldenzaal,Overijssel,VBO,6.937138,52.300590
Reigerstraat,21,a,,7574BD,Oldenzaal,Oldenzaal,Overijssel,VBO,6.937552,52.300530
Reigerstraat,21,,,7574BD,Oldenzaal,Oldenzaal,Overijssel,VBO,6.937499,52.300463
Reigerstraat,2,,,7574BE,Oldenzaal,Oldenzaal,Overijssel,VBO,6.935021,52.301066
Reigerstraat,4,,,7574BE,Oldenzaal,Oldenzaal,Overijssel,VBO,6.935222,52.301056
Reigerstraat,6,,,7574BE,Oldenzaal,Oldenzaal,Overijssel,VBO,6.935335,52.301053
Reigerstraat,8,,,7574BE,Oldenzaal,Oldenzaal,Overijssel,VBO,6.935451,52.301046
Reigerstraat,10,,,7574BE,Oldenzaal,Oldenzaal,Overijssel,VBO,6.935567,52.301045
Reigerstraat,12,,,7574BE,Oldenzaal,Oldenzaal,Overijssel,VBO,6.935693,52.301039
Reigerstraat,20,,,7574BE,Oldenzaal,Oldenzaal,Overijssel,VBO,6.937259,52.300273
Reigerstraat,22,,GR1,7574BE,Oldenzaal,Oldenzaal,Overijssel,VBO,6.937014,52.300034
Reigerstraat,22,,GR2,7574BE,Oldenzaal,Oldenzaal,Overijssel,VBO,6.937042,52.299985
Reigerstraat,22,,GR3,7574BE,Oldenzaal,Oldenzaal,Overijssel,VBO,6.937105,52.300009
Reigerstraat,22,,GR4,7574BE,Oldenzaal,Oldenzaal,Overijssel,VBO,6.937119,52.299964
Reigerstraat,24,,,7574BE,Oldenzaal,Oldenzaal,Overijssel,VBO,6.937265,52.300049
Reigerstraat,26,,,7574BE,Oldenzaal,Oldenzaal,Overijssel,VBO,6.937367,52.300020
Reigerstraat,28,,,7574BE,Oldenzaal,Oldenzaal,Overijssel,VBO,6.937454,52.299992
Reigerstraat,30,,,7574BE,Oldenzaal,Oldenzaal,Overijssel,VBO,6.937526,52.299964
Reigerstraat,32,,,7574BG,Oldenzaal,Oldenzaal,Overijssel,VBO,6.937599,52.299945
Reigerstraat,34,,,7574BG,Oldenzaal,Oldenzaal,Overijssel,VBO,6.937686,52.299917
Reigerstraat,36,,,7574BG,Oldenzaal,Oldenzaal,Overijssel,VBO,6.937773,52.299898
Reigerstraat,38,,,7574BG,Oldenzaal,Oldenzaal,Overijssel,VBO,6.937846,52.299870
Reigerstraat,40,,,7574BG,Oldenzaal,Oldenzaal,Overijssel,VBO,6.937976,52.299833
Reigerstraat,42,,,7574BG,Oldenzaal,Oldenzaal,Overijssel,VBO,6.938049,52.299805
Reigerstraat,44,,,7574BG,Oldenzaal,Oldenzaal,Overijssel,VBO,6.938150,52.299776
Reigerstraat,46,,,7574BG,Oldenzaal,Oldenzaal,Overijssel,VBO,6.938223,52.299758
Reigerstraat,48,,,7574BG,Oldenzaal,Oldenzaal,Overijssel,VBO,6.938295,52.299730
Reigerstraat,50,,,7574BG,Oldenzaal,Oldenzaal,Overijssel,VBO,6.938382,52.299701
Reigerstraat,52,,,7574BG,Oldenzaal,Oldenzaal,Overijssel,VBO,6.938455,52.299683
Reigerstraat,54,,,7574BG,Oldenzaal,Oldenzaal,Overijssel,VBO,6.938542,52.299654
Valkenstraat,1,,,7574BH,Oldenzaal,Oldenzaal,Overijssel,VBO,6.939204,52.299727
Valkenstraat,2,,,7574BH,Oldenzaal,Oldenzaal,Overijssel,VBO,6.939296,52.299833
Valkenstraat,3,,,7574BH,Oldenzaal,Oldenzaal,Overijssel,VBO,6.939342,52.299896
Kraanvogelstraat,1,,,7574BJ,Oldenzaal,Oldenzaal,Overijssel,VBO,6.938855,52.299812
Kraanvogelstraat,2,,,7574BJ,Oldenzaal,Oldenzaal,Overijssel,VBO,6.938902,52.299883
Kraanvogelstraat,3,,,7574BJ,Oldenzaal,Oldenzaal,Overijssel,VBO,6.938948,52.299937
Kraanvogelstraat,4,,,7574BJ,Oldenzaal,Oldenzaal,Overijssel,VBO,6.939008,52.299999
Adelaarstraat,1,,,7574BK,Oldenzaal,Oldenzaal,Overijssel,VBO,6.938493,52.299925
Adelaarstraat,2,,,7574BK,Oldenzaal,Oldenzaal,Overijssel,VBO,6.938553,52.299987
Adelaarstraat,3,,,7574BK,Oldenzaal,Oldenzaal,Overijssel,VBO,6.938599,52.300040
Adelaarstraat,4,,,7574BK,Oldenzaal,Oldenzaal,Overijssel,VBO,6.938645,52.300103
Pelikaanstraat,1,,,7574BL,Oldenzaal,Oldenzaal,Overijssel,VBO,6.938130,52.300028
Pelikaanstraat,3,,,7574BL,Oldenzaal,Oldenzaal,Overijssel,VBO,6.938190,52.300082
Pelikaanstraat,5,,,7574BL,Oldenzaal,Oldenzaal,Overijssel,VBO,6.938221,52.300126
Pelikaanstraat,7,,,7574BL,Oldenzaal,Oldenzaal,Overijssel,VBO,6.938267,52.300170
Pelikaanstraat,9,,,7574BL,Oldenzaal,Oldenzaal,Overijssel,VBO,6.938312,52.300224
Pelikaanstraat,11,,,7574BL,Oldenzaal,Oldenzaal,Overijssel,VBO,6.938344,52.300277
Pelikaanstraat,13,,,7574BL,Oldenzaal,Oldenzaal,Overijssel,VBO,6.938374,52.300322
Pelikaanstraat,15,,,7574BL,Oldenzaal,Oldenzaal,Overijssel,VBO,6.938536,52.300338
Pelikaanstraat,17,,,7574BL,Oldenzaal,Oldenzaal,Overijssel,VBO,6.938638,52.300309
Pelikaanstraat,19,,,7574BL,Oldenzaal,Oldenzaal,Overijssel,VBO,6.938711,52.300290
Pelikaanstraat,21,,,7574BL,Oldenzaal,Oldenzaal,Overijssel,VBO,6.938798,52.300262
Pelikaanstraat,23,,,7574BL,Oldenzaal,Oldenzaal,Overijssel,VBO,6.938943,52.300216
Pelikaanstraat,25,,,7574BL,Oldenzaal,Oldenzaal,Overijssel,VBO,6.939015,52.300188
Pelikaanstraat,27,,,7574BL,Oldenzaal,Oldenzaal,Overijssel,VBO,6.939088,52.300169
Pelikaanstraat,29,,,7574BL,Oldenzaal,Oldenzaal,Overijssel,VBO,6.939160,52.300141
Pelikaanstraat,31,,,7574BL,Oldenzaal,Oldenzaal,Overijssel,VBO,6.939247,52.300113
Pelikaanstraat,33,,,7574BL,Oldenzaal,Oldenzaal,Overijssel,VBO,6.939334,52.300094
Pelikaanstraat,35,,,7574BL,Oldenzaal,Oldenzaal,Overijssel,VBO,6.939407,52.300066
Pelikaanstraat,37,,,7574BL,Oldenzaal,Oldenzaal,Overijssel,VBO,6.939494,52.300046
Pelikaanstraat,39,,,7574BL,Oldenzaal,Oldenzaal,Overijssel,VBO,6.939668,52.299990
Pelikaanstraat,41,,,7574BL,Oldenzaal,Oldenzaal,Overijssel,VBO,6.939900,52.299924
Gruttostraat,2,,,7574BM,Oldenzaal,Oldenzaal,Overijssel,VBO,6.937738,52.300150
Gruttostraat,4,,,7574BM,Oldenzaal,Oldenzaal,Overijssel,VBO,6.937784,52.300195
Gruttostraat,6,,,7574BM,Oldenzaal,Oldenzaal,Overijssel,VBO,6.937829,52.300248
Gruttostraat,8,,,7574BM,Oldenzaal,Oldenzaal,Overijssel,VBO,6.937861,52.300302
Gruttostraat,10,,,7574BM,Oldenzaal,Oldenzaal,Overijssel,VBO,6.937891,52.300346
Gruttostraat,12,,,7574BM,Oldenzaal,Oldenzaal,Overijssel,VBO,6.937939,52.300453
Gruttostraat,14,,,7574BM,Oldenzaal,Oldenzaal,Overijssel,VBO,6.937985,52.300507
Gruttostraat,16,,,7574BM,Oldenzaal,Oldenzaal,Overijssel,VBO,6.938016,52.300551
Gruttostraat,18,,,7574BM,Oldenzaal,Oldenzaal,Overijssel,VBO,6.938062,52.300605
Gruttostraat,20,,,7574BM,Oldenzaal,Oldenzaal,Overijssel,VBO,6.938093,52.300649
Gruttostraat,22,,,7574BM,Oldenzaal,Oldenzaal,Overijssel,VBO,6.938139,52.300702
Gruttostraat,24,,,7574BM,Oldenzaal,Oldenzaal,Overijssel,VBO,6.938184,52.300747
Gruttostraat,25,,,7574BM,Oldenzaal,Oldenzaal,Overijssel,VBO,6.937730,52.300762
Gruttostraat,26,,,7574BM,Oldenzaal,Oldenzaal,Overijssel,VBO,6.938230,52.300800
Gruttostraat,27,,,7574BM,Oldenzaal,Oldenzaal,Overijssel,VBO,6.937761,52.300815
Gruttostraat,29,,,7574BM,Oldenzaal,Oldenzaal,Overijssel,VBO,6.937794,52.300905
Meeuwenstraat,1,,,7574BN,Oldenzaal,Oldenzaal,Overijssel,VBO,6.938065,52.301117
Meeuwenstraat,3,,,7574BN,Oldenzaal,Oldenzaal,Overijssel,VBO,6.938152,52.301089
Meeuwenstraat,5,,,7574BN,Oldenzaal,Oldenzaal,Overijssel,VBO,6.938239,52.301070
Meeuwenstraat,7,,,7574BN,Oldenzaal,Oldenzaal,Overijssel,VBO,6.938312,52.301042
Meeuwenstraat,9,,,7574BN,Oldenzaal,Oldenzaal,Overijssel,VBO,6.938399,52.301023
Meeuwenstraat,11,,,7574BN,Oldenzaal,Oldenzaal,Overijssel,VBO,6.938471,52.300995
Meeuwenstraat,13,,,7574BN,Oldenzaal,Oldenzaal,Overijssel,VBO,6.938544,52.300967
Meeuwenstraat,15,,,7574BN,Oldenzaal,Oldenzaal,Overijssel,VBO,6.938616,52.300939
Meeuwenstraat,17,,,7574BN,Oldenzaal,Oldenzaal,Overijssel,VBO,6.938761,52.300901
Meeuwenstraat,19,,,7574BN,Oldenzaal,Oldenzaal,Overijssel,VBO,6.938848,52.300873
Meeuwenstraat,21,,,7574BN,Oldenzaal,Oldenzaal,Overijssel,VBO,6.938921,52.300854
Meeuwenstraat,23,,,7574BN,Oldenzaal,Oldenzaal,Overijssel,VBO,6.939008,52.300835
Meeuwenstraat,25,,,7574BN,Oldenzaal,Oldenzaal,Overijssel,VBO,6.939081,52.300807
Meeuwenstraat,27,,,7574BN,Oldenzaal,Oldenzaal,Overijssel,VBO,6.939168,52.300779
Meeuwenstraat,29,,,7574BN,Oldenzaal,Oldenzaal,Overijssel,VBO,6.939255,52.300760
Meeuwenstraat,31,,,7574BN,Oldenzaal,Oldenzaal,Overijssel,VBO,6.939327,52.300732
Meeuwenstraat,33,,,7574BN,Oldenzaal,Oldenzaal,Overijssel,VBO,6.939458,52.300694
Meeuwenstraat,35,,,7574BN,Oldenzaal,Oldenzaal,Overijssel,VBO,6.939560,52.300666
Meeuwenstraat,37,,,7574BN,Oldenzaal,Oldenzaal,Overijssel,VBO,6.939809,52.300760
Meeuwenstraat,39,,,7574BN,Oldenzaal,Oldenzaal,Overijssel,VBO,6.939877,52.300788
Meeuwenstraat,41,,,7574BN,Oldenzaal,Oldenzaal,Overijssel,VBO,6.939961,52.300813
Meeuwenstraat,43,,,7574BN,Oldenzaal,Oldenzaal,Overijssel,VBO,6.940005,52.300831
Meeuwenstraat,45,,,7574BN,Oldenzaal,Oldenzaal,Overijssel,VBO,6.940094,52.300866
Meeuwenstraat,2,a,TR,7574BP,Oldenzaal,Oldenzaal,Overijssel,VBO,6.936859,52.301020
Meeuwenstraat,2,,,7574BP,Oldenzaal,Oldenzaal,Overijssel,VBO,6.937109,52.300966
Meeuwenstraat,6,,,7574BP,Oldenzaal,Oldenzaal,Overijssel,VBO,6.937591,52.300988
Meeuwenstraat,8,,GR1,7574BP,Oldenzaal,Oldenzaal,Overijssel,VBO,6.938279,52.300481
Meeuwenstraat,8,,GR2,7574BP,Oldenzaal,Oldenzaal,Overijssel,VBO,6.938299,52.300438
Meeuwenstraat,8,,GR3,7574BP,Oldenzaal,Oldenzaal,Overijssel,VBO,6.938360,52.300460
Meeuwenstraat,8,,GR4,7574BP,Oldenzaal,Oldenzaal,Overijssel,VBO,6.938378,52.300417
Meeuwenstraat,8,,GR5,7574BP,Oldenzaal,Oldenzaal,Overijssel,VBO,6.938442,52.300437
Meeuwenstraat,8,,GR6,7574BP,Oldenzaal,Oldenzaal,Overijssel,VBO,6.938458,52.300390
Meeuwenstraat,10,,,7574BP,Oldenzaal,Oldenzaal,Overijssel,VBO,6.938491,52.300716
Meeuwenstraat,12,,,7574BP,Oldenzaal,Oldenzaal,Overijssel,VBO,6.938578,52.300688
Meeuwenstraat,14,,,7574BP,Oldenzaal,Oldenzaal,Overijssel,VBO,6.938650,52.300660
Meeuwenstraat,16,,,7574BP,Oldenzaal,Oldenzaal,Overijssel,VBO,6.938737,52.300632
Meeuwenstraat,18,,,7574BP,Oldenzaal,Oldenzaal,Overijssel,VBO,6.938824,52.300604
Meeuwenstraat,20,,,7574BP,Oldenzaal,Oldenzaal,Overijssel,VBO,6.938897,52.300585
Meeuwenstraat,22,,,7574BP,Oldenzaal,Oldenzaal,Overijssel,VBO,6.938984,52.300566
Meeuwenstraat,24,,,7574BP,Oldenzaal,Oldenzaal,Overijssel,VBO,6.939071,52.300537
Meeuwenstraat,26,,,7574BP,Oldenzaal,Oldenzaal,Overijssel,VBO,6.939202,52.300500
Meeuwenstraat,28,,,7574BP,Oldenzaal,Oldenzaal,Overijssel,VBO,6.939274,52.300472
Meeuwenstraat,30,,,7574BP,Oldenzaal,Oldenzaal,Overijssel,VBO,6.939361,52.300444
Meeuwenstraat,32,,,7574BP,Oldenzaal,Oldenzaal,Overijssel,VBO,6.939448,52.300425
Meeuwenstraat,34,,,7574BP,Oldenzaal,Oldenzaal,Overijssel,VBO,6.939741,52.300394
Meeuwenstraat,38,,,7574BP,Oldenzaal,Oldenzaal,Overijssel,VBO,6.939887,52.300503
Meeuwenstraat,40,,,7574BP,Oldenzaal,Oldenzaal,Overijssel,VBO,6.940144,52.300604
Buizerdstraat,2,,,7574BR,Oldenzaal,Oldenzaal,Overijssel,VBO,6.938295,52.301402
Buizerdstraat,4,,,7574BR,Oldenzaal,Oldenzaal,Overijssel,VBO,6.938397,52.301373
Buizerdstraat,6,,,7574BR,Oldenzaal,Oldenzaal,Overijssel,VBO,6.938484,52.301354
Buizerdstraat,8,,,7574BR,Oldenzaal,Oldenzaal,Overijssel,VBO,6.938571,52.301326
Buizerdstraat,10,,,7574BR,Oldenzaal,Oldenzaal,Overijssel,VBO,6.938629,52.301305
Buizerdstraat,12,,,7574BR,Oldenzaal,Oldenzaal,Overijssel,VBO,6.938728,52.301274
Buizerdstraat,14,,,7574BR,Oldenzaal,Oldenzaal,Overijssel,VBO,6.938774,52.301260
Buizerdstraat,16,,,7574BR,Oldenzaal,Oldenzaal,Overijssel,VBO,6.938875,52.301232
Buizerdstraat,18,,,7574BR,Oldenzaal,Oldenzaal,Overijssel,VBO,6.938991,52.301186
Buizerdstraat,20,,,7574BR,Oldenzaal,Oldenzaal,Overijssel,VBO,6.939078,52.301167
Buizerdstraat,22,,,7574BR,Oldenzaal,Oldenzaal,Overijssel,VBO,6.939165,52.301138
Buizerdstraat,24,,,7574BR,Oldenzaal,Oldenzaal,Overijssel,VBO,6.939253,52.301119
Buizerdstraat,26,,,7574BR,Oldenzaal,Oldenzaal,Overijssel,VBO,6.939325,52.301091
Buizerdstraat,28,,,7574BR,Oldenzaal,Oldenzaal,Overijssel,VBO,6.939412,52.301072
Buizerdstraat,30,,,7574BR,Oldenzaal,Oldenzaal,Overijssel,VBO,6.939619,52.301106
Buizerdstraat,32,,,7574BR,Oldenzaal,Oldenzaal,Overijssel,VBO,6.939693,52.301132
Buizerdstraat,34,,,7574BR,Oldenzaal,Oldenzaal,Overijssel,VBO,6.939768,52.301167
Kievitstraat,1,,,7574BS,Oldenzaal,Oldenzaal,Overijssel,VBO,6.937673,52.301230
Kievitstraat,2,,,7574BS,Oldenzaal,Oldenzaal,Overijssel,VBO,6.937690,52.301284
Kievitstraat,3,,,7574BS,Oldenzaal,Oldenzaal,Overijssel,VBO,6.937706,52.301328
Kievitstraat,4,,,7574BS,Oldenzaal,Oldenzaal,Overijssel,VBO,6.937722,52.301382
Kievitstraat,5,,,7574BS,Oldenzaal,Oldenzaal,Overijssel,VBO,6.937754,52.301436
Kievitstraat,6,,,7574BS,Oldenzaal,Oldenzaal,Overijssel,VBO,6.937770,52.301480
Kievitstraat,7,,,7574BS,Oldenzaal,Oldenzaal,Overijssel,VBO,6.937801,52.301534
Spechtstraat,1,,,7574BT,Oldenzaal,Oldenzaal,Overijssel,VBO,6.937308,52.301262
Spechtstraat,2,,,7574BT,Oldenzaal,Oldenzaal,Overijssel,VBO,6.937309,52.301316
Spechtstraat,3,,,7574BT,Oldenzaal,Oldenzaal,Overijssel,VBO,6.937311,52.301361
Spechtstraat,4,,,7574BT,Oldenzaal,Oldenzaal,Overijssel,VBO,6.937313,52.301414
Spechtstraat,5,,,7574BT,Oldenzaal,Oldenzaal,Overijssel,VBO,6.937314,52.301459
Spechtstraat,6,,,7574BT,Oldenzaal,Oldenzaal,Overijssel,VBO,6.937316,52.301513
Spechtstraat,7,,,7574BT,Oldenzaal,Oldenzaal,Overijssel,VBO,6.937333,52.301567
Meerkolstraat,1,,,7574BV,Oldenzaal,Oldenzaal,Overijssel,VBO,6.936940,52.301240
Meerkolstraat,2,,,7574BV,Oldenzaal,Oldenzaal,Overijssel,VBO,6.936927,52.301285
Meerkolstraat,3,,,7574BV,Oldenzaal,Oldenzaal,Overijssel,VBO,6.936929,52.301348
Meerkolstraat,4,,,7574BV,Oldenzaal,Oldenzaal,Overijssel,VBO,6.936902,52.301393
Meerkolstraat,5,,,7574BV,Oldenzaal,Oldenzaal,Overijssel,VBO,6.936903,52.301447
Meerkolstraat,6,,,7574BV,Oldenzaal,Oldenzaal,Overijssel,VBO,6.936891,52.301501
Meerkolstraat,7,,,7574BV,Oldenzaal,Oldenzaal,Overijssel,VBO,6.936878,52.301546
Eksterstraat,1,,,7574BW,Oldenzaal,Oldenzaal,Overijssel,VBO,6.936601,52.301181
Eksterstraat,2,,,7574BW,Oldenzaal,Oldenzaal,Overijssel,VBO,6.936559,52.301236
Eksterstraat,3,,,7574BW,Oldenzaal,Oldenzaal,Overijssel,VBO,6.936545,52.301272
Eksterstraat,4,,,7574BW,Oldenzaal,Oldenzaal,Overijssel,VBO,6.936518,52.301326
Eksterstraat,5,,,7574BW,Oldenzaal,Oldenzaal,Overijssel,VBO,6.936490,52.301371
Eksterstraat,6,,,7574BW,Oldenzaal,Oldenzaal,Overijssel,VBO,6.936463,52.301417
Eksterstraat,7,,,7574BW,Oldenzaal,Oldenzaal,Overijssel,VBO,6.936435,52.301462
IJsvogelstraat,1,,TR,7574BX,Oldenzaal,Oldenzaal,Overijssel,VBO,6.935855,52.301435
Sperwerstraat,1,,,7574BX,Oldenzaal,Oldenzaal,Overijssel,VBO,6.936259,52.301060
Sperwerstraat,2,,,7574BX,Oldenzaal,Oldenzaal,Overijssel,VBO,6.936217,52.301105
Sperwerstraat,3,,,7574BX,Oldenzaal,Oldenzaal,Overijssel,VBO,6.936175,52.301160
Sperwerstraat,4,,,7574BX,Oldenzaal,Oldenzaal,Overijssel,VBO,6.936133,52.301205
Sperwerstraat,5,,,7574BX,Oldenzaal,Oldenzaal,Overijssel,VBO,6.936090,52.301242
Sperwerstraat,6,,,7574BX,Oldenzaal,Oldenzaal,Overijssel,VBO,6.936047,52.301287
Sperwerstraat,7,,,7574BX,Oldenzaal,Oldenzaal,Overijssel,VBO,6.936020,52.301333
Stakenkamplaan,1,,,7574CA,Oldenzaal,Oldenzaal,Overijssel,VBO,6.934064,52.302014
Stakenkamplaan,3,,,7574CA,Oldenzaal,Oldenzaal,Overijssel,VBO,6.934157,52.302049
Stakenkamplaan,5,,,7574CA,Oldenzaal,Oldenzaal,Overijssel,VBO,6.934225,52.302086
Stakenkamplaan,7,,,7574CA,Oldenzaal,Oldenzaal,Overijssel,VBO,6.934316,52.302117
Stakenkamplaan,9,,,7574CA,Oldenzaal,Oldenzaal,Overijssel,VBO,6.934391,52.302146
Stakenkamplaan,11,,,7574CA,Oldenzaal,Oldenzaal,Overijssel,VBO,6.934476,52.302185
Stakenkamplaan,13,,,7574CA,Oldenzaal,Oldenzaal,Overijssel,VBO,6.934774,52.302282
Stakenkamplaan,15,,,7574CA,Oldenzaal,Oldenzaal,Overijssel,VBO,6.934856,52.302314
Stakenkamplaan,17,,,7574CA,Oldenzaal,Oldenzaal,Overijssel,VBO,6.934948,52.302350
Stakenkamplaan,19,,,7574CA,Oldenzaal,Oldenzaal,Overijssel,VBO,6.935027,52.302375
Stakenkamplaan,21,,,7574CA,Oldenzaal,Oldenzaal,Overijssel,VBO,6.935101,52.302404
Stakenkamplaan,23,,,7574CA,Oldenzaal,Oldenzaal,Overijssel,VBO,6.935179,52.302440
Stakenkamplaan,25,,,7574CA,Oldenzaal,Oldenzaal,Overijssel,VBO,6.935475,52.302535
Stakenkamplaan,27,,,7574CA,Oldenzaal,Oldenzaal,Overijssel,VBO,6.935564,52.302561
Stakenkamplaan,29,,,7574CA,Oldenzaal,Oldenzaal,Overijssel,VBO,6.935634,52.302603
Stakenkamplaan,31,,,7574CA,Oldenzaal,Oldenzaal,Overijssel,VBO,6.935711,52.302634
Stakenkamplaan,33,,,7574CA,Oldenzaal,Oldenzaal,Overijssel,VBO,6.935788,52.302668
Stakenkamplaan,35,,,7574CA,Oldenzaal,Oldenzaal,Overijssel,VBO,6.935868,52.302699
Stakenkamplaan,37,,,7574CB,Oldenzaal,Oldenzaal,Overijssel,VBO,6.936163,52.302817
Stakenkamplaan,39,,,7574CB,Oldenzaal,Oldenzaal,Overijssel,VBO,6.936265,52.302838
Stakenkamplaan,41,,,7574CB,Oldenzaal,Oldenzaal,Overijssel,VBO,6.936381,52.302865
Stakenkamplaan,43,,,7574CB,Oldenzaal,Oldenzaal,Overijssel,VBO,6.936441,52.302891
Stakenkamplaan,45,,,7574CB,Oldenzaal,Oldenzaal,Overijssel,VBO,6.936515,52.302917
Stakenkamplaan,47,,,7574CB,Oldenzaal,Oldenzaal,Overijssel,VBO,6.936574,52.302943
Stakenkamplaan,49,,,7574CB,Oldenzaal,Oldenzaal,Overijssel,VBO,6.936856,52.303038
Stakenkamplaan,51,,,7574CB,Oldenzaal,Oldenzaal,Overijssel,VBO,6.936946,52.303073
Stakenkamplaan,53,,,7574CB,Oldenzaal,Oldenzaal,Overijssel,VBO,6.937020,52.303099
Stakenkamplaan,55,,,7574CB,Oldenzaal,Oldenzaal,Overijssel,VBO,6.937094,52.303125
Stakenkamplaan,57,,,7574CB,Oldenzaal,Oldenzaal,Overijssel,VBO,6.937184,52.303169
Stakenkamplaan,59,,,7574CB,Oldenzaal,Oldenzaal,Overijssel,VBO,6.937257,52.303186
Stakenkamplaan,61,,,7574CB,Oldenzaal,Oldenzaal,Overijssel,VBO,6.937347,52.303221
Stakenkamplaan,63,,,7574CB,Oldenzaal,Oldenzaal,Overijssel,VBO,6.937421,52.303247
Stakenkamplaan,2,,,7574CC,Oldenzaal,Oldenzaal,Overijssel,VBO,6.936535,52.302488
Stakenkamplaan,4,,,7574CC,Oldenzaal,Oldenzaal,Overijssel,VBO,6.936615,52.302517
Stakenkamplaan,6,,,7574CC,Oldenzaal,Oldenzaal,Overijssel,VBO,6.936689,52.302550
Stakenkamplaan,8,,,7574CC,Oldenzaal,Oldenzaal,Overijssel,VBO,6.936761,52.302579
Stakenkamplaan,10,,,7574CC,Oldenzaal,Oldenzaal,Overijssel,VBO,6.936929,52.302635
Stakenkamplaan,12,,,7574CC,Oldenzaal,Oldenzaal,Overijssel,VBO,6.937007,52.302658
Stakenkamplaan,14,,,7574CC,Oldenzaal,Oldenzaal,Overijssel,VBO,6.937092,52.302685
Stakenkamplaan,16,,,7574CC,Oldenzaal,Oldenzaal,Overijssel,VBO,6.937165,52.302721
Stakenkamplaan,18,,,7574CC,Oldenzaal,Oldenzaal,Overijssel,VBO,6.937308,52.302779
Stakenkamplaan,20,,,7574CC,Oldenzaal,Oldenzaal,Overijssel,VBO,6.937414,52.302817
Stakenkamplaan,22,,,7574CC,Oldenzaal,Oldenzaal,Overijssel,VBO,6.937503,52.302842
Stakenkamplaan,24,,,7574CC,Oldenzaal,Oldenzaal,Overijssel,VBO,6.937572,52.302867
Nachtegaalstraat,1,,,7574CD,Oldenzaal,Oldenzaal,Overijssel,VBO,6.936400,52.303117
Nachtegaalstraat,3,,,7574CD,Oldenzaal,Oldenzaal,Overijssel,VBO,6.936362,52.303153
Nachtegaalstraat,5,,,7574CD,Oldenzaal,Oldenzaal,Overijssel,VBO,6.936262,52.303244
Nachtegaalstraat,7,,,7574CD,Oldenzaal,Oldenzaal,Overijssel,VBO,6.936234,52.303280
Nachtegaalstraat,9,,,7574CD,Oldenzaal,Oldenzaal,Overijssel,VBO,6.936135,52.303372
Nachtegaalstraat,11,,,7574CD,Oldenzaal,Oldenzaal,Overijssel,VBO,6.936107,52.303417
Nachtegaalstraat,13,,,7574CD,Oldenzaal,Oldenzaal,Overijssel,VBO,6.935978,52.303508
Nachtegaalstraat,15,,,7574CD,Oldenzaal,Oldenzaal,Overijssel,VBO,6.935936,52.303563
Nachtegaalstraat,17,,,7574CD,Oldenzaal,Oldenzaal,Overijssel,VBO,6.935894,52.303608
Nachtegaalstraat,19,,,7574CD,Oldenzaal,Oldenzaal,Overijssel,VBO,6.935866,52.303654
Nachtegaalstraat,2,,,7574CE,Oldenzaal,Oldenzaal,Overijssel,VBO,6.936701,52.303220
Nachtegaalstraat,4,,,7574CE,Oldenzaal,Oldenzaal,Overijssel,VBO,6.936645,52.303275
Nachtegaalstraat,6,,,7574CE,Oldenzaal,Oldenzaal,Overijssel,VBO,6.936588,52.303321
Nachtegaalstraat,8,,,7574CE,Oldenzaal,Oldenzaal,Overijssel,VBO,6.936546,52.303375
Nachtegaalstraat,10,,,7574CE,Oldenzaal,Oldenzaal,Overijssel,VBO,6.936503,52.303421
Nachtegaalstraat,12,,,7574CE,Oldenzaal,Oldenzaal,Overijssel,VBO,6.936446,52.303466
Nachtegaalstraat,14,,,7574CE,Oldenzaal,Oldenzaal,Overijssel,VBO,6.936404,52.303512
Nachtegaalstraat,16,,,7574CE,Oldenzaal,Oldenzaal,Overijssel,VBO,6.936361,52.303557
Nachtegaalstraat,18,,,7574CE,Oldenzaal,Oldenzaal,Overijssel,VBO,6.936319,52.303612
Nachtegaalstraat,20,,,7574CE,Oldenzaal,Oldenzaal,Overijssel,VBO,6.936262,52.303649
Nachtegaalstraat,22,,,7574CE,Oldenzaal,Oldenzaal,Overijssel,VBO,6.936219,52.303694
Merelstraat,1,,,7574CG,Oldenzaal,Oldenzaal,Overijssel,VBO,6.935691,52.302854
Merelstraat,3,,,7574CG,Oldenzaal,Oldenzaal,Overijssel,VBO,6.935635,52.302902
Merelstraat,5,,,7574CG,Oldenzaal,Oldenzaal,Overijssel,VBO,6.935564,52.302993
Merelstraat,7,,,7574CG,Oldenzaal,Oldenzaal,Overijssel,VBO,6.935536,52.303029
Merelstraat,9,,,7574CG,Oldenzaal,Oldenzaal,Overijssel,VBO,6.935437,52.303129
Merelstraat,11,,,7574CG,Oldenzaal,Oldenzaal,Overijssel,VBO,6.935409,52.303156
Merelstraat,13,,,7574CG,Oldenzaal,Oldenzaal,Overijssel,VBO,6.935324,52.303247
Merelstraat,15,,,7574CG,Oldenzaal,Oldenzaal,Overijssel,VBO,6.935267,52.303293
Merelstraat,17,,,7574CG,Oldenzaal,Oldenzaal,Overijssel,VBO,6.935060,52.303486
Merelstraat,19,,,7574CG,Oldenzaal,Oldenzaal,Overijssel,VBO,6.935025,52.303535
Merelstraat,2,,,7574CH,Oldenzaal,Oldenzaal,Overijssel,VBO,6.936003,52.302969
Merelstraat,4,,,7574CH,Oldenzaal,Oldenzaal,Overijssel,VBO,6.935975,52.303005
Merelstraat,6,,,7574CH,Oldenzaal,Oldenzaal,Overijssel,VBO,6.935936,52.303067
Merelstraat,8,,,7574CH,Oldenzaal,Oldenzaal,Overijssel,VBO,6.935891,52.303108
Merelstraat,10,,,7574CH,Oldenzaal,Oldenzaal,Overijssel,VBO,6.935839,52.303146
Merelstraat,12,,,7574CH,Oldenzaal,Oldenzaal,Overijssel,VBO,6.935805,52.303223
Merelstraat,14,,,7574CH,Oldenzaal,Oldenzaal,Overijssel,VBO,6.935752,52.303267
Merelstraat,16,,,7574CH,Oldenzaal,Oldenzaal,Overijssel,VBO,6.935683,52.303305
Merelstraat,18,,,7574CH,Oldenzaal,Oldenzaal,Overijssel,VBO,6.935645,52.303356
Merelstraat,20,,,7574CH,Oldenzaal,Oldenzaal,Overijssel,VBO,6.935598,52.303464
Merelstraat,22,,,7574CH,Oldenzaal,Oldenzaal,Overijssel,VBO,6.935597,52.303504
Merelstraat,24,,,7574CH,Oldenzaal,Oldenzaal,Overijssel,VBO,6.935543,52.303546
Merelstraat,26,,,7574CH,Oldenzaal,Oldenzaal,Overijssel,VBO,6.935522,52.303606
Lijsterstraat,1,,,7574CJ,Oldenzaal,Oldenzaal,Overijssel,VBO,6.934979,52.302596
Lijsterstraat,3,,,7574CJ,Oldenzaal,Oldenzaal,Overijssel,VBO,6.934965,52.302632
Lijsterstraat,5,,,7574CJ,Oldenzaal,Oldenzaal,Overijssel,VBO,6.934866,52.302723
Lijsterstraat,7,,,7574CJ,Oldenzaal,Oldenzaal,Overijssel,VBO,6.934838,52.302777
Lijsterstraat,9,,,7574CJ,Oldenzaal,Oldenzaal,Overijssel,VBO,6.934709,52.302860
Lijsterstraat,11,,,7574CJ,Oldenzaal,Oldenzaal,Overijssel,VBO,6.934706,52.302905
Lijsterstraat,13,,,7574CJ,Oldenzaal,Oldenzaal,Overijssel,VBO,6.934611,52.302978
Lijsterstraat,15,,,7574CJ,Oldenzaal,Oldenzaal,Overijssel,VBO,6.934583,52.303023
Lijsterstraat,17,,,7574CJ,Oldenzaal,Oldenzaal,Overijssel,VBO,6.934484,52.303115
Lijsterstraat,19,,,7574CJ,Oldenzaal,Oldenzaal,Overijssel,VBO,6.934442,52.303178
Lijsterstraat,25,,,7574CJ,Oldenzaal,Oldenzaal,Overijssel,VBO,6.934270,52.303338
Lijsterstraat,27,,,7574CJ,Oldenzaal,Oldenzaal,Overijssel,VBO,6.934244,52.303387
Lijsterstraat,2,,,7574CK,Oldenzaal,Oldenzaal,Overijssel,VBO,6.935305,52.302708
Lijsterstraat,4,,,7574CK,Oldenzaal,Oldenzaal,Overijssel,VBO,6.935258,52.302754
Lijsterstraat,6,,,7574CK,Oldenzaal,Oldenzaal,Overijssel,VBO,6.935215,52.302804
Lijsterstraat,8,,,7574CK,Oldenzaal,Oldenzaal,Overijssel,VBO,6.935175,52.302850
Lijsterstraat,10,,,7574CK,Oldenzaal,Oldenzaal,Overijssel,VBO,6.935132,52.302900
Lijsterstraat,12,,,7574CK,Oldenzaal,Oldenzaal,Overijssel,VBO,6.935072,52.302943
Lijsterstraat,14,,,7574CK,Oldenzaal,Oldenzaal,Overijssel,VBO,6.935024,52.302993
Lijsterstraat,16,,,7574CK,Oldenzaal,Oldenzaal,Overijssel,VBO,6.934983,52.303041
Lijsterstraat,18,,,7574CK,Oldenzaal,Oldenzaal,Overijssel,VBO,6.934939,52.303093
Lijsterstraat,20,,,7574CK,Oldenzaal,Oldenzaal,Overijssel,VBO,6.934898,52.303132
Lijsterstraat,22,,,7574CK,Oldenzaal,Oldenzaal,Overijssel,VBO,6.934858,52.303183
Lijsterstraat,24,,,7574CK,Oldenzaal,Oldenzaal,Overijssel,VBO,6.934808,52.303230
Lijsterstraat,30,,,7574CK,Oldenzaal,Oldenzaal,Overijssel,VBO,6.934728,52.303408
Lijsterstraat,32,,,7574CK,Oldenzaal,Oldenzaal,Overijssel,VBO,6.934676,52.303474
Leeuwerikstraat,1,,,7574CL,Oldenzaal,Oldenzaal,Overijssel,VBO,6.934294,52.302333
Leeuwerikstraat,3,,,7574CL,Oldenzaal,Oldenzaal,Overijssel,VBO,6.934267,52.302381
Leeuwerikstraat,5,,,7574CL,Oldenzaal,Oldenzaal,Overijssel,VBO,6.934164,52.302465
Leeuwerikstraat,7,,,7574CL,Oldenzaal,Oldenzaal,Overijssel,VBO,6.934154,52.302517
Leeuwerikstraat,9,,,7574CL,Oldenzaal,Oldenzaal,Overijssel,VBO,6.934037,52.302609
Leeuwerikstraat,11,,,7574CL,Oldenzaal,Oldenzaal,Overijssel,VBO,6.934019,52.302662
Leeuwerikstraat,13,,,7574CL,Oldenzaal,Oldenzaal,Overijssel,VBO,6.933915,52.302729
Leeuwerikstraat,15,,,7574CL,Oldenzaal,Oldenzaal,Overijssel,VBO,6.933877,52.302777
Leeuwerikstraat,17,,,7574CL,Oldenzaal,Oldenzaal,Overijssel,VBO,6.933789,52.302873
Leeuwerikstraat,19,,,7574CL,Oldenzaal,Oldenzaal,Overijssel,VBO,6.933741,52.302916
Leeuwerikstraat,21,,,7574CL,Oldenzaal,Oldenzaal,Overijssel,VBO,6.933586,52.303012
Leeuwerikstraat,23,,,7574CL,Oldenzaal,Oldenzaal,Overijssel,VBO,6.933565,52.303069
Leeuwerikstraat,25,,,7574CL,Oldenzaal,Oldenzaal,Overijssel,VBO,6.933528,52.303118
Leeuwerikstraat,27,,,7574CL,Oldenzaal,Oldenzaal,Overijssel,VBO,6.933501,52.303174
Leeuwerikstraat,2,,,7574CM,Oldenzaal,Oldenzaal,Overijssel,VBO,6.934621,52.302439
Leeuwerikstraat,4,,,7574CM,Oldenzaal,Oldenzaal,Overijssel,VBO,6.934589,52.302500
Leeuwerikstraat,6,,,7574CM,Oldenzaal,Oldenzaal,Overijssel,VBO,6.934528,52.302550
Leeuwerikstraat,8,,,7574CM,Oldenzaal,Oldenzaal,Overijssel,VBO,6.934483,52.302597
Leeuwerikstraat,10,,,7574CM,Oldenzaal,Oldenzaal,Overijssel,VBO,6.934432,52.302639
Leeuwerikstraat,12,,,7574CM,Oldenzaal,Oldenzaal,Overijssel,VBO,6.934385,52.302692
Leeuwerikstraat,14,,,7574CM,Oldenzaal,Oldenzaal,Overijssel,VBO,6.934338,52.302741
Leeuwerikstraat,16,,,7574CM,Oldenzaal,Oldenzaal,Overijssel,VBO,6.934296,52.302784
Leeuwerikstraat,18,,,7574CM,Oldenzaal,Oldenzaal,Overijssel,VBO,6.934244,52.302829
Leeuwerikstraat,20,,,7574CM,Oldenzaal,Oldenzaal,Overijssel,VBO,6.934201,52.302882
Leeuwerikstraat,22,,,7574CM,Oldenzaal,Oldenzaal,Overijssel,VBO,6.934125,52.302921
Leeuwerikstraat,24,,,7574CM,Oldenzaal,Oldenzaal,Overijssel,VBO,6.934068,52.302976
Leeuwerikstraat,26,,,7574CM,Oldenzaal,Oldenzaal,Overijssel,VBO,6.934040,52.303003
Leeuwerikstraat,28,,,7574CM,Oldenzaal,Oldenzaal,Overijssel,VBO,6.934012,52.303049
Leeuwerikstraat,34,,,7574CM,Oldenzaal,Oldenzaal,Overijssel,VBO,6.933913,52.303242
Leeuwerikstraat,36,,,7574CM,Oldenzaal,Oldenzaal,Overijssel,VBO,6.933870,52.303302
Oude Lossersestraat,2,,,7574DA,Oldenzaal,Oldenzaal,Overijssel,VBO,6.931548,52.297650
Oude Lossersestraat,4,,,7574DA,Oldenzaal,Oldenzaal,Overijssel,VBO,6.931508,52.297650
Oude Lossersestraat,6,,,7574DA,Oldenzaal,Oldenzaal,Overijssel,VBO,6.931443,52.297655
Oude Lossersestraat,8,,,7574DA,Oldenzaal,Oldenzaal,Overijssel,VBO,6.931537,52.297564
Oude Lossersestraat,10,,,7574DA,Oldenzaal,Oldenzaal,Overijssel,VBO,6.931498,52.297572
Oude Lossersestraat,12,,,7574DA,Oldenzaal,Oldenzaal,Overijssel,VBO,6.931430,52.297577
Oude Lossersestraat,14,,,7574DA,Oldenzaal,Oldenzaal,Overijssel,VBO,6.931530,52.297512
Oude Lossersestraat,16,,,7574DA,Oldenzaal,Oldenzaal,Overijssel,VBO,6.931483,52.297510
Oude Lossersestraat,18,,,7574DA,Oldenzaal,Oldenzaal,Overijssel,VBO,6.931419,52.297518
Oude Lossersestraat,20,,,7574DA,Oldenzaal,Oldenzaal,Overijssel,VBO,6.931522,52.297431
Oude Lossersestraat,22,,,7574DA,Oldenzaal,Oldenzaal,Overijssel,VBO,6.931482,52.297439
Oude Lossersestraat,24,,,7574DA,Oldenzaal,Oldenzaal,Overijssel,VBO,6.931430,52.297441
Oude Lossersestraat,26,,,7574DA,Oldenzaal,Oldenzaal,Overijssel,VBO,6.931539,52.297383
Oude Lossersestraat,28,,,7574DA,Oldenzaal,Oldenzaal,Overijssel,VBO,6.931469,52.297382
Oude Lossersestraat,30,,,7574DA,Oldenzaal,Oldenzaal,Overijssel,VBO,6.931428,52.297388
Oude Lossersestraat,32,,,7574DA,Oldenzaal,Oldenzaal,Overijssel,VBO,6.931529,52.297302
Oude Lossersestraat,34,,,7574DA,Oldenzaal,Oldenzaal,Overijssel,VBO,6.931481,52.297303
Oude Lossersestraat,36,,,7574DA,Oldenzaal,Oldenzaal,Overijssel,VBO,6.931426,52.297295
Oude Lossersestraat,38,,,7574DB,Oldenzaal,Oldenzaal,Overijssel,VBO,6.931401,52.297139
Oude Lossersestraat,40,,,7574DB,Oldenzaal,Oldenzaal,Overijssel,VBO,6.931355,52.297138
Oude Lossersestraat,42,,,7574DB,Oldenzaal,Oldenzaal,Overijssel,VBO,6.931307,52.297136
Oude Lossersestraat,44,,,7574DB,Oldenzaal,Oldenzaal,Overijssel,VBO,6.931402,52.297065
Oude Lossersestraat,46,,,7574DB,Oldenzaal,Oldenzaal,Overijssel,VBO,6.931355,52.297066
Oude Lossersestraat,48,,,7574DB,Oldenzaal,Oldenzaal,Overijssel,VBO,6.931292,52.297065
Oude Lossersestraat,50,,,7574DB,Oldenzaal,Oldenzaal,Overijssel,VBO,6.931401,52.296995
Oude Lossersestraat,52,,,7574DB,Oldenzaal,Oldenzaal,Overijssel,VBO,6.931336,52.296997
Oude Lossersestraat,54,,,7574DB,Oldenzaal,Oldenzaal,Overijssel,VBO,6.931283,52.297005
Oude Lossersestraat,56,,,7574DB,Oldenzaal,Oldenzaal,Overijssel,VBO,6.931392,52.296918
Oude Lossersestraat,58,,,7574DB,Oldenzaal,Oldenzaal,Overijssel,VBO,6.931335,52.296921
Oude Lossersestraat,60,,,7574DB,Oldenzaal,Oldenzaal,Overijssel,VBO,6.931289,52.296924
Oude Lossersestraat,62,,,7574DB,Oldenzaal,Oldenzaal,Overijssel,VBO,6.931387,52.296868
Oude Lossersestraat,64,,,7574DB,Oldenzaal,Oldenzaal,Overijssel,VBO,6.931344,52.296869
Oude Lossersestraat,66,,,7574DB,Oldenzaal,Oldenzaal,Overijssel,VBO,6.931288,52.296866
Oude Lossersestraat,68,,,7574DB,Oldenzaal,Oldenzaal,Overijssel,VBO,6.931387,52.296787
Oude Lossersestraat,70,,,7574DB,Oldenzaal,Oldenzaal,Overijssel,VBO,6.931338,52.296785
Oude Lossersestraat,72,,,7574DB,Oldenzaal,Oldenzaal,Overijssel,VBO,6.931293,52.296786
Oude Lossersestraat,74,,,7574DC,Oldenzaal,Oldenzaal,Overijssel,VBO,6.931256,52.296626
Oude Lossersestraat,76,,,7574DC,Oldenzaal,Oldenzaal,Overijssel,VBO,6.931204,52.296628
Oude Lossersestraat,78,,,7574DC,Oldenzaal,Oldenzaal,Overijssel,VBO,6.931146,52.296632
Oude Lossersestraat,80,,,7574DC,Oldenzaal,Oldenzaal,Overijssel,VBO,6.931249,52.296547
Oude Lossersestraat,82,,,7574DC,Oldenzaal,Oldenzaal,Overijssel,VBO,6.931188,52.296549
Oude Lossersestraat,84,,,7574DC,Oldenzaal,Oldenzaal,Overijssel,VBO,6.931144,52.296548
Oude Lossersestraat,86,,,7574DC,Oldenzaal,Oldenzaal,Overijssel,VBO,6.931262,52.296492
Oude Lossersestraat,88,,,7574DC,Oldenzaal,Oldenzaal,Overijssel,VBO,6.931210,52.296498
Oude Lossersestraat,90,,,7574DC,Oldenzaal,Oldenzaal,Overijssel,VBO,6.931163,52.296494
Oude Lossersestraat,92,,,7574DC,Oldenzaal,Oldenzaal,Overijssel,VBO,6.931255,52.296406
Oude Lossersestraat,94,,,7574DC,Oldenzaal,Oldenzaal,Overijssel,VBO,6.931186,52.296407
Oude Lossersestraat,96,,,7574DC,Oldenzaal,Oldenzaal,Overijssel,VBO,6.931141,52.296411
Oude Lossersestraat,98,,,7574DC,Oldenzaal,Oldenzaal,Overijssel,VBO,6.931259,52.296353
Oude Lossersestraat,100,,,7574DC,Oldenzaal,Oldenzaal,Overijssel,VBO,6.931211,52.296354
Oude Lossersestraat,102,,,7574DC,Oldenzaal,Oldenzaal,Overijssel,VBO,6.931159,52.296358
Oude Lossersestraat,104,,,7574DC,Oldenzaal,Oldenzaal,Overijssel,VBO,6.931247,52.296268
Oude Lossersestraat,106,,,7574DC,Oldenzaal,Oldenzaal,Overijssel,VBO,6.931212,52.296270
Oude Lossersestraat,108,,,7574DC,Oldenzaal,Oldenzaal,Overijssel,VBO,6.931151,52.296272
Oude Lossersestraat,110,,,7574DD,Oldenzaal,Oldenzaal,Overijssel,VBO,6.931120,52.296111
Oude Lossersestraat,112,,,7574DD,Oldenzaal,Oldenzaal,Overijssel,VBO,6.931070,52.296116
Oude Lossersestraat,114,,,7574DD,Oldenzaal,Oldenzaal,Overijssel,VBO,6.931007,52.296117
Oude Lossersestraat,116,,,7574DD,Oldenzaal,Oldenzaal,Overijssel,VBO,6.931123,52.296024
Oude Lossersestraat,118,,,7574DD,Oldenzaal,Oldenzaal,Overijssel,VBO,6.931067,52.296028
Oude Lossersestraat,120,,,7574DD,Oldenzaal,Oldenzaal,Overijssel,VBO,6.931008,52.296025
Oude Lossersestraat,122,,,7574DD,Oldenzaal,Oldenzaal,Overijssel,VBO,6.931104,52.295964
Oude Lossersestraat,124,,,7574DD,Oldenzaal,Oldenzaal,Overijssel,VBO,6.931045,52.295968
Oude Lossersestraat,126,,,7574DD,Oldenzaal,Oldenzaal,Overijssel,VBO,6.931010,52.295970
Oude Lossersestraat,128,,,7574DD,Oldenzaal,Oldenzaal,Overijssel,VBO,6.931108,52.295894
Oude Lossersestraat,130,,,7574DD,Oldenzaal,Oldenzaal,Overijssel,VBO,6.931051,52.295888
Oude Lossersestraat,132,,,7574DD,Oldenzaal,Oldenzaal,Overijssel,VBO,6.930998,52.295894
Oude Lossersestraat,134,,,7574DD,Oldenzaal,Oldenzaal,Overijssel,VBO,6.931118,52.295831
Oude Lossersestraat,136,,,7574DD,Oldenzaal,Oldenzaal,Overijssel,VBO,6.931062,52.295837
Oude Lossersestraat,138,,,7574DD,Oldenzaal,Oldenzaal,Overijssel,VBO,6.930999,52.295839
Oude Lossersestraat,140,,,7574DD,Oldenzaal,Oldenzaal,Overijssel,VBO,6.931100,52.295752
Oude Lossersestraat,142,,,7574DD,Oldenzaal,Oldenzaal,Overijssel,VBO,6.931049,52.295751
Oude Lossersestraat,144,a,TR,7574DD,Oldenzaal,Oldenzaal,Overijssel,VBO,6.931195,52.295493
Oude Lossersestraat,144,,,7574DD,Oldenzaal,Oldenzaal,Overijssel,VBO,6.931005,52.295759
Oude Lossersestraat,150,,,7574DD,Oldenzaal,Oldenzaal,Overijssel,VBO,6.932263,52.293651
Oude Lossersestraat,9,,,7574DE,Oldenzaal,Oldenzaal,Overijssel,VBO,6.931691,52.295348
Oude Lossersestraat,11,,,7574DE,Oldenzaal,Oldenzaal,Overijssel,VBO,6.931790,52.295239
Oude Lossersestraat,13,a,,7574DE,Oldenzaal,Oldenzaal,Overijssel,VBO,6.931976,52.295102
Oude Lossersestraat,13,,,7574DE,Oldenzaal,Oldenzaal,Overijssel,VBO,6.931919,52.295157
Oude Lossersestraat,15,,,7574DE,Oldenzaal,Oldenzaal,Overijssel,VBO,6.932002,52.295012
Oude Lossersestraat,17,,,7574DE,Oldenzaal,Oldenzaal,Overijssel,VBO,6.932074,52.294975
Oude Lossersestraat,19,,,7574DE,Oldenzaal,Oldenzaal,Overijssel,VBO,6.932101,52.294912
Oude Lossersestraat,21,,,7574DE,Oldenzaal,Oldenzaal,Overijssel,VBO,6.932143,52.294857
Oude Lossersestraat,23,,,7574DE,Oldenzaal,Oldenzaal,Overijssel,VBO,6.932273,52.294784
Oude Lossersestraat,25,,,7574DE,Oldenzaal,Oldenzaal,Overijssel,VBO,6.932385,52.294647
Oude Lossersestraat,29,,,7574DE,Oldenzaal,Oldenzaal,Overijssel,VBO,6.932585,52.294483
Oude Lossersestraat,31,,,7574DE,Oldenzaal,Oldenzaal,Overijssel,VBO,6.932656,52.294410
Oude Lossersestraat,33,,,7574DE,Oldenzaal,Oldenzaal,Overijssel,VBO,6.932734,52.294298
Oude Lossersestraat,35,,,7574DE,Oldenzaal,Oldenzaal,Overijssel,VBO,6.932782,52.294238
Oude Lossersestraat,37,,,7574DE,Oldenzaal,Oldenzaal,Overijssel,VBO,6.932850,52.294093
Oude Lossersestraat,39,,,7574DE,Oldenzaal,Oldenzaal,Overijssel,VBO,6.932963,52.293983
Oude Lossersestraat,41,,,7574DE,Oldenzaal,Oldenzaal,Overijssel,VBO,6.933032,52.293839
Oude Lossersestraat,43,,,7574DE,Oldenzaal,Oldenzaal,Overijssel,VBO,6.933131,52.293739
Enschedesestraat,175,,,7574PA,Oldenzaal,Oldenzaal,Overijssel,VBO,6.931082,52.294691
Enschedesestraat,195,,,7574PA,Oldenzaal,Oldenzaal,Overijssel,VBO,6.930884,52.293220
Duivelsdijk,21,,,7574PB,Oldenzaal,Oldenzaal,Overijssel,VBO,6.936193,52.285315
Duivelsdijk,25,,,7574PB,Oldenzaal,Oldenzaal,Overijssel,VBO,6.935483,52.286355
Duivelsdijk,31,,,7574PB,Oldenzaal,Oldenzaal,Overijssel,VBO,6.934941,52.286362
Duivelsdijk,33,,,7574PB,Oldenzaal,Oldenzaal,Overijssel,VBO,6.934838,52.286363
Duivelsdijk,35,,,7574PB,Oldenzaal,Oldenzaal,Overijssel,VBO,6.934618,52.286339
Duivelsdijk,37,,,7574PB,Oldenzaal,Oldenzaal,Overijssel,VBO,6.934513,52.286277
Duivelsdijk,55,,,7574PB,Oldenzaal,Oldenzaal,Overijssel,VBO,6.932563,52.286276
Duivelsdijk,65,,,7574PB,Oldenzaal,Oldenzaal,Overijssel,VBO,6.930673,52.286301
Duivelsdijk,77,,,7574PB,Oldenzaal,Oldenzaal,Overijssel,VBO,6.930607,52.284396
Duivelsdijk,79,,,7574PB,Oldenzaal,Oldenzaal,Overijssel,VBO,6.930654,52.284229
Duivelsdijk,81,,,7574PB,Oldenzaal,Oldenzaal,Overijssel,VBO,6.930278,52.283873
Wiggersbosweg,10,,,7574PC,Oldenzaal,Oldenzaal,Overijssel,VBO,6.937355,52.287085
Postweg,1,a,,7574PD,Oldenzaal,Oldenzaal,Overijssel,VBO,6.936509,52.291201
Postweg,1,a,,7574PD,Oldenzaal,Oldenzaal,Overijssel,VBO,6.936683,52.291065
Postweg,1,,,7574PD,Oldenzaal,Oldenzaal,Overijssel,VBO,6.939908,52.290533
Postweg,2,,,7574PD,Oldenzaal,Oldenzaal,Overijssel,VBO,6.935802,52.290463
Postweg,3,a,TR,7574PD,Oldenzaal,Oldenzaal,Overijssel,VBO,6.935708,52.289811
Postweg,3,,,7574PD,Oldenzaal,Oldenzaal,Overijssel,VBO,6.941806,52.291143
Postweg,4,a,,7574PD,Oldenzaal,Oldenzaal,Overijssel,VBO,6.935105,52.290176
Postweg,4,b,,7574PD,Oldenzaal,Oldenzaal,Overijssel,VBO,6.934658,52.290153
Postweg,4,,,7574PD,Oldenzaal,Oldenzaal,Overijssel,VBO,6.935476,52.290186
Postweg,5,,,7574PD,Oldenzaal,Oldenzaal,Overijssel,VBO,6.935534,52.289509
Postweg,6,,,7574PD,Oldenzaal,Oldenzaal,Overijssel,VBO,6.934127,52.289914
Postweg,9,,,7574PD,Oldenzaal,Oldenzaal,Overijssel,VBO,6.933300,52.289332
Postweg,15,,,7574PD,Oldenzaal,Oldenzaal,Overijssel,VBO,6.932399,52.289137
Postweg,16,,,7574PD,Oldenzaal,Oldenzaal,Overijssel,VBO,6.932234,52.289452
Postweg,18,,,7574PD,Oldenzaal,Oldenzaal,Overijssel,VBO,6.932087,52.289446
Postweg,19,,,7574PD,Oldenzaal,Oldenzaal,Overijssel,VBO,6.932061,52.289105
Postweg,23,,,7574PD,Oldenzaal,Oldenzaal,Overijssel,VBO,6.931590,52.289048
Postweg,25,,,7574PD,Oldenzaal,Oldenzaal,Overijssel,VBO,6.931384,52.289042
Postweg,30,,,7574PD,Oldenzaal,Oldenzaal,Overijssel,VBO,6.931110,52.289809
Postweg,32,,,7574PD,Oldenzaal,Oldenzaal,Overijssel,VBO,6.931101,52.290130
Postweg,34,,,7574PD,Oldenzaal,Oldenzaal,Overijssel,VBO,6.931091,52.290320
Postweg,42,,,7574PD,Oldenzaal,Oldenzaal,Overijssel,VBO,6.931143,52.290951
Postweg,44,,,7574PD,Oldenzaal,Oldenzaal,Overijssel,VBO,6.930889,52.291251
Postweg,46,,,7574PD,Oldenzaal,Oldenzaal,Overijssel,VBO,6.930673,52.291353
Postweg,54,,TR,7574PD,Oldenzaal,Oldenzaal,Overijssel,VBO,6.931068,52.291876
Lossersestraat,158,,,7574PE,Oldenzaal,Oldenzaal,Overijssel,VBO,6.933416,52.292656
Lossersestraat,160,,,7574PE,Oldenzaal,Oldenzaal,Overijssel,VBO,6.933543,52.292538
Lossersestraat,166,,,7574PE,Oldenzaal,Oldenzaal,Overijssel,VBO,6.933571,52.292492
Lossersestraat,168,,,7574PE,Oldenzaal,Oldenzaal,Overijssel,VBO,6.933640,52.292375
Lossersestraat,170,,,7574PE,Oldenzaal,Oldenzaal,Overijssel,VBO,6.933932,52.292317
Lossersestraat,172,,,7574PE,Oldenzaal,Oldenzaal,Overijssel,VBO,6.934046,52.292234
Lossersestraat,174,,,7574PE,Oldenzaal,Oldenzaal,Overijssel,VBO,6.934074,52.292189
Lossersestraat,178,,,7574PE,Oldenzaal,Oldenzaal,Overijssel,VBO,6.934200,52.291946
Lossersestraat,182,,,7574PE,Oldenzaal,Oldenzaal,Overijssel,VBO,6.934451,52.291663
Lossersestraat,184,,,7574PE,Oldenzaal,Oldenzaal,Overijssel,VBO,6.934807,52.291361
Lossersestraat,186,,,7574PE,Oldenzaal,Oldenzaal,Overijssel,VBO,6.935005,52.291134
Lossersestraat,188,,,7574PE,Oldenzaal,Oldenzaal,Overijssel,VBO,6.935280,52.291032
Lossersestraat,190,,,7574PE,Oldenzaal,Oldenzaal,Overijssel,VBO,6.935351,52.290968
Lossersestraat,192,,,7574PE,Oldenzaal,Oldenzaal,Overijssel,VBO,6.935436,52.290895
Lossersestraat,194,,,7574PE,Oldenzaal,Oldenzaal,Overijssel,VBO,6.935507,52.290840
Lossersestraat,198,,,7574PE,Oldenzaal,Oldenzaal,Overijssel,VBO,6.936054,52.290105
Schapendijk,1,,,7574PG,Oldenzaal,Oldenzaal,Overijssel,VBO,6.945217,52.301859
Schapendijk,4,,,7574PG,Oldenzaal,Oldenzaal,Overijssel,VBO,6.943422,52.302503
Schapendijk,6,,,7574PG,Oldenzaal,Oldenzaal,Overijssel,VBO,6.943149,52.302255
Schapendijk,9,,,7574PG,Oldenzaal,Oldenzaal,Overijssel,VBO,6.943808,52.302228
Schapendijk,11,,,7574PG,Oldenzaal,Oldenzaal,Overijssel,VBO,6.943638,52.301988
Schapendijk,13,,,7574PG,Oldenzaal,Oldenzaal,Overijssel,VBO,6.943529,52.301791
Schapendijk,15,,,7574PG,Oldenzaal,Oldenzaal,Overijssel,VBO,6.944041,52.301123
Schapendijk,16,,,7574PG,Oldenzaal,Oldenzaal,Overijssel,VBO,6.942277,52.301214
Schapendijk,18,,,7574PG,Oldenzaal,Oldenzaal,Overijssel,VBO,6.942097,52.301109
Schapendijk,20,,,7574PG,Oldenzaal,Oldenzaal,Overijssel,VBO,6.941917,52.301003
Schapendijk,21,,,7574PG,Oldenzaal,Oldenzaal,Overijssel,VBO,6.942069,52.300741
Schapendijk,22,,,7574PG,Oldenzaal,Oldenzaal,Overijssel,VBO,6.941708,52.300889
Schapendijk,23,,TR,7574PG,Oldenzaal,Oldenzaal,Overijssel,VBO,6.938191,52.298925
Schapendijk,24,,,7574PG,Oldenzaal,Oldenzaal,Overijssel,VBO,6.941513,52.300775
Schapendijk,26,,,7574PG,Oldenzaal,Oldenzaal,Overijssel,VBO,6.941231,52.300653
Schapendijk,28,,,7574PG,Oldenzaal,Oldenzaal,Overijssel,VBO,6.940976,52.300503
Schapendijk,30,,,7574PG,Oldenzaal,Oldenzaal,Overijssel,VBO,6.940258,52.300081
Schapendijk,34,,,7574PG,Oldenzaal,Oldenzaal,Overijssel,VBO,6.938962,52.299505
Schapendijk,35,,,7574PG,Oldenzaal,Oldenzaal,Overijssel,VBO,6.938391,52.298883
Schapendijk,36,,,7574PG,Oldenzaal,Oldenzaal,Overijssel,VBO,6.938783,52.299436
Schapendijk,37,a,,7574PG,Oldenzaal,Oldenzaal,Overijssel,VBO,6.938308,52.298321
Schapendijk,37,,,7574PG,Oldenzaal,Oldenzaal,Overijssel,VBO,6.939194,52.298503
Schapendijk,38,,,7574PG,Oldenzaal,Oldenzaal,Overijssel,VBO,6.938605,52.299366
Schapendijk,39,,,7574PG,Oldenzaal,Oldenzaal,Overijssel,VBO,6.941555,52.297989
Schapendijk,40,,,7574PG,Oldenzaal,Oldenzaal,Overijssel,VBO,6.938367,52.299279
Schapendijk,41,,,7574PG,Oldenzaal,Oldenzaal,Overijssel,VBO,6.938536,52.297592
Schapendijk,42,,,7574PG,Oldenzaal,Oldenzaal,Overijssel,VBO,6.937878,52.299115
Schapendijk,43,,,7574PG,Oldenzaal,Oldenzaal,Overijssel,VBO,6.940500,52.297225
Schapendijk,46,,,7574PG,Oldenzaal,Oldenzaal,Overijssel,VBO,6.937416,52.298896
Schapendijk,48,,,7574PG,Oldenzaal,Oldenzaal,Overijssel,VBO,6.937178,52.298809
Schapendijk,49,,,7574PG,Oldenzaal,Oldenzaal,Overijssel,VBO,6.936559,52.298287
Schapendijk,50,,,7574PG,Oldenzaal,Oldenzaal,Overijssel,VBO,6.936954,52.298704
Schapendijk,52,,,7574PG,Oldenzaal,Oldenzaal,Overijssel,VBO,6.936673,52.298609
Schapendijk,53,,,7574PG,Oldenzaal,Oldenzaal,Overijssel,VBO,6.936306,52.298192
Schapendijk,54,,,7574PG,Oldenzaal,Oldenzaal,Overijssel,VBO,6.936451,52.298567
Koppelboerweg,42,,,7574PH,Oldenzaal,Oldenzaal,Overijssel,VBO,6.949171,52.308800
Koppelboerweg,44,,,7574PH,Oldenzaal,Oldenzaal,Overijssel,VBO,6.947168,52.308126
Koppelboerweg,46,,,7574PH,Oldenzaal,Oldenzaal,Overijssel,VBO,6.949446,52.307448
Koppelboerweg,48,,,7574PH,Oldenzaal,Oldenzaal,Overijssel,VBO,6.946113,52.306072
Lossers Voetpad,10,,,7574PJ,Oldenzaal,Oldenzaal,Overijssel,VBO,6.941415,52.299056
Kwartelstraat,1,,,7574TA,Oldenzaal,Oldenzaal,Overijssel,VBO,6.938091,52.303553
Kwartelstraat,3,,,7574TA,Oldenzaal,Oldenzaal,Overijssel,VBO,6.938035,52.303607
Kwartelstraat,5,,,7574TA,Oldenzaal,Oldenzaal,Overijssel,VBO,6.937977,52.303644
Kwartelstraat,7,,,7574TA,Oldenzaal,Oldenzaal,Overijssel,VBO,6.937935,52.303699
Kwartelstraat,9,,,7574TA,Oldenzaal,Oldenzaal,Overijssel,VBO,6.937878,52.303753
Kwartelstraat,11,,,7574TA,Oldenzaal,Oldenzaal,Overijssel,VBO,6.937821,52.303799
Kwartelstraat,13,,,7574TA,Oldenzaal,Oldenzaal,Overijssel,VBO,6.937764,52.303845
Kwartelstraat,15,,,7574TA,Oldenzaal,Oldenzaal,Overijssel,VBO,6.937708,52.303899
Stakenbeek,2,,,7574TA,Oldenzaal,Oldenzaal,Overijssel,VBO,6.937267,52.303887
Stakenbeek,4,,,7574TA,Oldenzaal,Oldenzaal,Overijssel,VBO,6.937356,52.303922
Stakenbeek,6,,,7574TA,Oldenzaal,Oldenzaal,Overijssel,VBO,6.937446,52.303957
Stakenbeek,8,,,7574TA,Oldenzaal,Oldenzaal,Overijssel,VBO,6.937520,52.303983
Stakenbeek,10,,,7574TA,Oldenzaal,Oldenzaal,Overijssel,VBO,6.937788,52.304096
Stakenbeek,12,,,7574TA,Oldenzaal,Oldenzaal,Overijssel,VBO,6.937862,52.304131
Stakenbeek,14,,,7574TA,Oldenzaal,Oldenzaal,Overijssel,VBO,6.937951,52.304157
Stakenbeek,16,,,7574TA,Oldenzaal,Oldenzaal,Overijssel,VBO,6.938026,52.304192
Spreeuwenstraat,1,,,7574TB,Oldenzaal,Oldenzaal,Overijssel,VBO,6.938570,52.303807
Spreeuwenstraat,3,,,7574TB,Oldenzaal,Oldenzaal,Overijssel,VBO,6.938513,52.303862
Spreeuwenstraat,5,,,7574TB,Oldenzaal,Oldenzaal,Overijssel,VBO,6.938456,52.303907
Spreeuwenstraat,7,,,7574TB,Oldenzaal,Oldenzaal,Overijssel,VBO,6.938399,52.303953
Spreeuwenstraat,9,,,7574TB,Oldenzaal,Oldenzaal,Overijssel,VBO,6.938342,52.304008
Spreeuwenstraat,11,,,7574TB,Oldenzaal,Oldenzaal,Overijssel,VBO,6.938285,52.304054
Spreeuwenstraat,13,,,7574TB,Oldenzaal,Oldenzaal,Overijssel,VBO,6.938242,52.304099
Mezenstraat,1,,,7574TC,Oldenzaal,Oldenzaal,Overijssel,VBO,6.938756,52.304110
Mezenstraat,3,,,7574TC,Oldenzaal,Oldenzaal,Overijssel,VBO,6.938714,52.304156
Mezenstraat,5,,,7574TC,Oldenzaal,Oldenzaal,Overijssel,VBO,6.938656,52.304192
Mezenstraat,7,,,7574TC,Oldenzaal,Oldenzaal,Overijssel,VBO,6.938600,52.304247
Mussenstraat,1,,,7574TD,Oldenzaal,Oldenzaal,Overijssel,VBO,6.939128,52.304258
Mussenstraat,3,,,7574TD,Oldenzaal,Oldenzaal,Overijssel,VBO,6.939085,52.304304
Mussenstraat,5,,,7574TD,Oldenzaal,Oldenzaal,Overijssel,VBO,6.939028,52.304349
Mussenstraat,7,,,7574TD,Oldenzaal,Oldenzaal,Overijssel,VBO,6.938971,52.304395
Zwaluwstraat,1,,,7574TE,Oldenzaal,Oldenzaal,Overijssel,VBO,6.939485,52.304406
Zwaluwstraat,3,,,7574TE,Oldenzaal,Oldenzaal,Overijssel,VBO,6.939428,52.304461
Zwaluwstraat,5,,,7574TE,Oldenzaal,Oldenzaal,Overijssel,VBO,6.939371,52.304498
Zwaluwstraat,7,,,7574TE,Oldenzaal,Oldenzaal,Overijssel,VBO,6.939328,52.304543
Putterstraat,1,,,7574TG,Oldenzaal,Oldenzaal,Overijssel,VBO,6.939872,52.304563
Putterstraat,3,,,7574TG,Oldenzaal,Oldenzaal,Overijssel,VBO,6.939814,52.304600
Putterstraat,5,,,7574TG,Oldenzaal,Oldenzaal,Overijssel,VBO,6.939758,52.304663
Putterstraat,7,,,7574TG,Oldenzaal,Oldenzaal,Overijssel,VBO,6.939701,52.304700
Bloemenkamplaan,24,,,7574TH,Oldenzaal,Oldenzaal,Overijssel,VBO,6.940799,52.304618
Bloemenkamplaan,26,,,7574TH,Oldenzaal,Oldenzaal,Overijssel,VBO,6.940889,52.304642
Bloemenkamplaan,28,,,7574TH,Oldenzaal,Oldenzaal,Overijssel,VBO,6.940954,52.304684
Bloemenkamplaan,30,,,7574TH,Oldenzaal,Oldenzaal,Overijssel,VBO,6.941036,52.304708
Bloemenkamplaan,32,,,7574TH,Oldenzaal,Oldenzaal,Overijssel,VBO,6.941081,52.304754
Bloemenkamplaan,34,,,7574TH,Oldenzaal,Oldenzaal,Overijssel,VBO,6.941165,52.304773
Bloemenkamplaan,36,,,7574TH,Oldenzaal,Oldenzaal,Overijssel,VBO,6.941249,52.304810
Bloemenkamplaan,38,,,7574TH,Oldenzaal,Oldenzaal,Overijssel,VBO,6.941292,52.304853
Bloemenkamplaan,40,,,7574TH,Oldenzaal,Oldenzaal,Overijssel,VBO,6.941488,52.304910
Bloemenkamplaan,42,,,7574TH,Oldenzaal,Oldenzaal,Overijssel,VBO,6.941570,52.304930
Bloemenkamplaan,44,,,7574TH,Oldenzaal,Oldenzaal,Overijssel,VBO,6.941628,52.304980
Bloemenkamplaan,46,,,7574TH,Oldenzaal,Oldenzaal,Overijssel,VBO,6.941707,52.304992
Bloemenkamplaan,48,,,7574TH,Oldenzaal,Oldenzaal,Overijssel,VBO,6.941769,52.305044
Bloemenkamplaan,2,,,7574TJ,Oldenzaal,Oldenzaal,Overijssel,VBO,6.938618,52.303528
Bloemenkamplaan,4,,,7574TJ,Oldenzaal,Oldenzaal,Overijssel,VBO,6.938768,52.303598
Bloemenkamplaan,6,,,7574TJ,Oldenzaal,Oldenzaal,Overijssel,VBO,6.938902,52.303668
Bloemenkamplaan,8,,,7574TJ,Oldenzaal,Oldenzaal,Overijssel,VBO,6.938962,52.303703
Bloemenkamplaan,10,,,7574TJ,Oldenzaal,Oldenzaal,Overijssel,VBO,6.939111,52.303782
Bloemenkamplaan,12,,,7574TJ,Oldenzaal,Oldenzaal,Overijssel,VBO,6.939335,52.303887
Bloemenkamplaan,14,,,7574TJ,Oldenzaal,Oldenzaal,Overijssel,VBO,6.939470,52.303975
Bloemenkamplaan,16,,,7574TJ,Oldenzaal,Oldenzaal,Overijssel,VBO,6.939649,52.304063
Bloemenkamplaan,18,,,7574TJ,Oldenzaal,Oldenzaal,Overijssel,VBO,6.939798,52.304142
Bloemenkamplaan,20,,,7574TJ,Oldenzaal,Oldenzaal,Overijssel,VBO,6.939888,52.304176
Bloemenkamplaan,101,,,7574TK,Oldenzaal,Oldenzaal,Overijssel,VBO,6.940955,52.305038
Bloemenkamplaan,103,,,7574TK,Oldenzaal,Oldenzaal,Overijssel,VBO,6.940931,52.305061
Bloemenkamplaan,105,,,7574TK,Oldenzaal,Oldenzaal,Overijssel,VBO,6.940913,52.305092
Bloemenkamplaan,107,,,7574TK,Oldenzaal,Oldenzaal,Overijssel,VBO,6.941071,52.305074
Bloemenkamplaan,109,,,7574TK,Oldenzaal,Oldenzaal,Overijssel,VBO,6.941047,52.305098
Bloemenkamplaan,111,,,7574TK,Oldenzaal,Oldenzaal,Overijssel,VBO,6.941019,52.305127
Bloemenkamplaan,113,,,7574TK,Oldenzaal,Oldenzaal,Overijssel,VBO,6.941150,52.305113
Bloemenkamplaan,115,,,7574TK,Oldenzaal,Oldenzaal,Overijssel,VBO,6.941123,52.305139
Bloemenkamplaan,117,,,7574TK,Oldenzaal,Oldenzaal,Overijssel,VBO,6.941102,52.305166
Bloemenkamplaan,119,,,7574TK,Oldenzaal,Oldenzaal,Overijssel,VBO,6.941253,52.305153
Bloemenkamplaan,121,,,7574TK,Oldenzaal,Oldenzaal,Overijssel,VBO,6.941225,52.305181
Bloemenkamplaan,123,,,7574TK,Oldenzaal,Oldenzaal,Overijssel,VBO,6.941191,52.305206
Bloemenkamplaan,125,,,7574TK,Oldenzaal,Oldenzaal,Overijssel,VBO,6.941337,52.305190
Bloemenkamplaan,127,,,7574TK,Oldenzaal,Oldenzaal,Overijssel,VBO,6.941309,52.305214
Bloemenkamplaan,129,,,7574TK,Oldenzaal,Oldenzaal,Overijssel,VBO,6.941279,52.305242
Bloemenkamplaan,131,,,7574TK,Oldenzaal,Oldenzaal,Overijssel,VBO,6.941438,52.305234
Bloemenkamplaan,133,,,7574TK,Oldenzaal,Oldenzaal,Overijssel,VBO,6.941410,52.305259
Bloemenkamplaan,135,,,7574TK,Oldenzaal,Oldenzaal,Overijssel,VBO,6.941375,52.305282
Bloemenkamplaan,65,,,7574TL,Oldenzaal,Oldenzaal,Overijssel,VBO,6.940196,52.304677
Bloemenkamplaan,67,,,7574TL,Oldenzaal,Oldenzaal,Overijssel,VBO,6.940168,52.304703
Bloemenkamplaan,69,,,7574TL,Oldenzaal,Oldenzaal,Overijssel,VBO,6.940141,52.304730
Bloemenkamplaan,71,,,7574TL,Oldenzaal,Oldenzaal,Overijssel,VBO,6.940296,52.304719
Bloemenkamplaan,73,,,7574TL,Oldenzaal,Oldenzaal,Overijssel,VBO,6.940275,52.304741
Bloemenkamplaan,75,,,7574TL,Oldenzaal,Oldenzaal,Overijssel,VBO,6.940247,52.304771
Bloemenkamplaan,77,,,7574TL,Oldenzaal,Oldenzaal,Overijssel,VBO,6.940377,52.304754
Bloemenkamplaan,79,,,7574TL,Oldenzaal,Oldenzaal,Overijssel,VBO,6.940353,52.304776
Bloemenkamplaan,81,,,7574TL,Oldenzaal,Oldenzaal,Overijssel,VBO,6.940334,52.304800
Bloemenkamplaan,83,,,7574TL,Oldenzaal,Oldenzaal,Overijssel,VBO,6.940482,52.304795
Bloemenkamplaan,85,,,7574TL,Oldenzaal,Oldenzaal,Overijssel,VBO,6.940464,52.304819
Bloemenkamplaan,87,,,7574TL,Oldenzaal,Oldenzaal,Overijssel,VBO,6.940432,52.304845
Bloemenkamplaan,89,,,7574TL,Oldenzaal,Oldenzaal,Overijssel,VBO,6.940563,52.304830
Bloemenkamplaan,91,,,7574TL,Oldenzaal,Oldenzaal,Overijssel,VBO,6.940535,52.304853
Bloemenkamplaan,93,,,7574TL,Oldenzaal,Oldenzaal,Overijssel,VBO,6.940513,52.304884
Bloemenkamplaan,95,,,7574TL,Oldenzaal,Oldenzaal,Overijssel,VBO,6.940667,52.304874
Bloemenkamplaan,97,,,7574TL,Oldenzaal,Oldenzaal,Overijssel,VBO,6.940647,52.304901
Bloemenkamplaan,99,,,7574TL,Oldenzaal,Oldenzaal,Overijssel,VBO,6.940608,52.304924
Gerard Terborchstraat,1,,,7574TN,Oldenzaal,Oldenzaal,Overijssel,VBO,6.940220,52.303585
Gerard Terborchstraat,3,,,7574TN,Oldenzaal,Oldenzaal,Overijssel,VBO,6.940266,52.303539
Gerard Terborchstraat,5,,,7574TN,Oldenzaal,Oldenzaal,Overijssel,VBO,6.940313,52.303488
Gerard Terborchstraat,7,,,7574TN,Oldenzaal,Oldenzaal,Overijssel,VBO,6.940377,52.303450
Gerard Terborchstraat,9,,,7574TN,Oldenzaal,Oldenzaal,Overijssel,VBO,6.940426,52.303404
Gerard Terborchstraat,11,,,7574TN,Oldenzaal,Oldenzaal,Overijssel,VBO,6.940484,52.303236
Gerard Terborchstraat,13,,,7574TN,Oldenzaal,Oldenzaal,Overijssel,VBO,6.940386,52.303214
Gerard Terborchstraat,15,,,7574TN,Oldenzaal,Oldenzaal,Overijssel,VBO,6.940320,52.303189
Gerard Terborchstraat,17,,,7574TN,Oldenzaal,Oldenzaal,Overijssel,VBO,6.940243,52.303163
Gerard Terborchstraat,19,,,7574TN,Oldenzaal,Oldenzaal,Overijssel,VBO,6.940196,52.303116
Gerard Terborchstraat,21,,,7574TN,Oldenzaal,Oldenzaal,Overijssel,VBO,6.940123,52.303079
Govert Flinckstraat,1,,,7574TP,Oldenzaal,Oldenzaal,Overijssel,VBO,6.939410,52.303517
Govert Flinckstraat,3,,,7574TP,Oldenzaal,Oldenzaal,Overijssel,VBO,6.939470,52.303553
Govert Flinckstraat,5,,,7574TP,Oldenzaal,Oldenzaal,Overijssel,VBO,6.939543,52.303561
Govert Flinckstraat,7,,,7574TP,Oldenzaal,Oldenzaal,Overijssel,VBO,6.939616,52.303611
Govert Flinckstraat,9,,,7574TP,Oldenzaal,Oldenzaal,Overijssel,VBO,6.939680,52.303648
Govert Flinckstraat,11,,,7574TP,Oldenzaal,Oldenzaal,Overijssel,VBO,6.939763,52.303675
Govert Flinckstraat,13,,,7574TP,Oldenzaal,Oldenzaal,Overijssel,VBO,6.939822,52.303705
Govert Flinckstraat,15,,,7574TP,Oldenzaal,Oldenzaal,Overijssel,VBO,6.939886,52.303732
Govert Flinckstraat,17,,,7574TP,Oldenzaal,Oldenzaal,Overijssel,VBO,6.939959,52.303766
Govert Flinckstraat,19,,,7574TP,Oldenzaal,Oldenzaal,Overijssel,VBO,6.940028,52.303791
Govert Flinckstraat,25,,,7574TP,Oldenzaal,Oldenzaal,Overijssel,VBO,6.940257,52.303839
Ruisdaelstraat,4,,,7574TR,Oldenzaal,Oldenzaal,Overijssel,VBO,6.939376,52.303392
Ruisdaelstraat,6,,,7574TR,Oldenzaal,Oldenzaal,Overijssel,VBO,6.939419,52.303364
Ruisdaelstraat,8,,,7574TR,Oldenzaal,Oldenzaal,Overijssel,VBO,6.939474,52.303265
Ruisdaelstraat,10,,,7574TR,Oldenzaal,Oldenzaal,Overijssel,VBO,6.939531,52.303219
Ruisdaelstraat,12,,,7574TR,Oldenzaal,Oldenzaal,Overijssel,VBO,6.939574,52.303183
Ruisdaelstraat,14,,,7574TR,Oldenzaal,Oldenzaal,Overijssel,VBO,6.939602,52.303128
Ruisdaelstraat,16,,,7574TR,Oldenzaal,Oldenzaal,Overijssel,VBO,6.939693,52.303104
Ruisdaelstraat,18,,,7574TR,Oldenzaal,Oldenzaal,Overijssel,VBO,6.939715,52.303038
Ruisdaelstraat,20,,,7574TR,Oldenzaal,Oldenzaal,Overijssel,VBO,6.939788,52.303002
Ruisdaelstraat,22,,,7574TR,Oldenzaal,Oldenzaal,Overijssel,VBO,6.939836,52.302965
Ruisdaelstraat,24,,,7574TR,Oldenzaal,Oldenzaal,Overijssel,VBO,6.939880,52.302921
Ruisdaelstraat,26,,,7574TR,Oldenzaal,Oldenzaal,Overijssel,VBO,6.939930,52.302875
Ruisdaelstraat,28,,,7574TR,Oldenzaal,Oldenzaal,Overijssel,VBO,6.939981,52.302820
Frans Halsstraat,38,,,7574TT,Oldenzaal,Oldenzaal,Overijssel,VBO,6.938745,52.302813
Frans Halsstraat,40,,,7574TT,Oldenzaal,Oldenzaal,Overijssel,VBO,6.938724,52.302788
Frans Halsstraat,42,,,7574TT,Oldenzaal,Oldenzaal,Overijssel,VBO,6.938709,52.302757
Frans Halsstraat,44,,,7574TT,Oldenzaal,Oldenzaal,Overijssel,VBO,6.938873,52.302773
Frans Halsstraat,46,,,7574TT,Oldenzaal,Oldenzaal,Overijssel,VBO,6.938884,52.302753
Frans Halsstraat,48,,,7574TT,Oldenzaal,Oldenzaal,Overijssel,VBO,6.938852,52.302726
Frans Halsstraat,50,,,7574TT,Oldenzaal,Oldenzaal,Overijssel,VBO,6.938927,52.302500
Frans Halsstraat,52,,,7574TT,Oldenzaal,Oldenzaal,Overijssel,VBO,6.938910,52.302474
Frans Halsstraat,54,,,7574TT,Oldenzaal,Oldenzaal,Overijssel,VBO,6.938888,52.302447
Frans Halsstraat,56,,,7574TT,Oldenzaal,Oldenzaal,Overijssel,VBO,6.939060,52.302465
Frans Halsstraat,58,,,7574TT,Oldenzaal,Oldenzaal,Overijssel,VBO,6.939029,52.302437
Frans Halsstraat,60,,,7574TT,Oldenzaal,Oldenzaal,Overijssel,VBO,6.939016,52.302406
Frans Halsstraat,62,,,7574TT,Oldenzaal,Oldenzaal,Overijssel,VBO,6.939159,52.302432
Frans Halsstraat,64,,,7574TT,Oldenzaal,Oldenzaal,Overijssel,VBO,6.939138,52.302405
Frans Halsstraat,66,,,7574TT,Oldenzaal,Oldenzaal,Overijssel,VBO,6.939116,52.302381
Frans Halsstraat,68,,,7574TT,Oldenzaal,Oldenzaal,Overijssel,VBO,6.939280,52.302396
Frans Halsstraat,70,,,7574TT,Oldenzaal,Oldenzaal,Overijssel,VBO,6.939261,52.302369
Frans Halsstraat,72,,,7574TT,Oldenzaal,Oldenzaal,Overijssel,VBO,6.939250,52.302336
Frans Halsstraat,2,,,7574TV,Oldenzaal,Oldenzaal,Overijssel,VBO,6.938117,52.303253
Frans Halsstraat,4,,,7574TV,Oldenzaal,Oldenzaal,Overijssel,VBO,6.938094,52.303227
Frans Halsstraat,6,,,7574TV,Oldenzaal,Oldenzaal,Overijssel,VBO,6.938071,52.303200
Frans Halsstraat,8,,,7574TV,Oldenzaal,Oldenzaal,Overijssel,VBO,6.938241,52.303223
Frans Halsstraat,10,,,7574TV,Oldenzaal,Oldenzaal,Overijssel,VBO,6.938222,52.303196
Frans Halsstraat,12,,,7574TV,Oldenzaal,Oldenzaal,Overijssel,VBO,6.938188,52.303168
Frans Halsstraat,14,,,7574TV,Oldenzaal,Oldenzaal,Overijssel,VBO,6.938336,52.303186
Frans Halsstraat,16,,,7574TV,Oldenzaal,Oldenzaal,Overijssel,VBO,6.938319,52.303162
Frans Halsstraat,18,,,7574TV,Oldenzaal,Oldenzaal,Overijssel,VBO,6.938301,52.303133
Frans Halsstraat,20,,,7574TV,Oldenzaal,Oldenzaal,Overijssel,VBO,6.938463,52.303152
Frans Halsstraat,22,,,7574TV,Oldenzaal,Oldenzaal,Overijssel,VBO,6.938444,52.303126
Frans Halsstraat,24,,,7574TV,Oldenzaal,Oldenzaal,Overijssel,VBO,6.938428,52.303095
Frans Halsstraat,26,,,7574TV,Oldenzaal,Oldenzaal,Overijssel,VBO,6.938521,52.302881
Frans Halsstraat,28,,,7574TV,Oldenzaal,Oldenzaal,Overijssel,VBO,6.938500,52.302853
Frans Halsstraat,30,,,7574TV,Oldenzaal,Oldenzaal,Overijssel,VBO,6.938480,52.302825
Frans Halsstraat,32,,,7574TV,Oldenzaal,Oldenzaal,Overijssel,VBO,6.938652,52.302842
Frans Halsstraat,34,,,7574TV,Oldenzaal,Oldenzaal,Overijssel,VBO,6.938632,52.302815
Frans Halsstraat,36,,,7574TV,Oldenzaal,Oldenzaal,Overijssel,VBO,6.938608,52.302786
C. Trooststraat,1,,GR1,7574TW,Oldenzaal,Oldenzaal,Overijssel,VBO,6.939007,52.303441
C. Trooststraat,1,,GR10,7574TW,Oldenzaal,Oldenzaal,Overijssel,VBO,6.939282,52.303465
C. Trooststraat,1,,GR11,7574TW,Oldenzaal,Oldenzaal,Overijssel,VBO,6.939268,52.303429
C. Trooststraat,1,,GR12,7574TW,Oldenzaal,Oldenzaal,Overijssel,VBO,6.939214,52.303435
C. Trooststraat,1,,GR13,7574TW,Oldenzaal,Oldenzaal,Overijssel,VBO,6.939202,52.303394
C. Trooststraat,1,,GR14,7574TW,Oldenzaal,Oldenzaal,Overijssel,VBO,6.939142,52.303406
C. Trooststraat,1,,GR15,7574TW,Oldenzaal,Oldenzaal,Overijssel,VBO,6.939134,52.303368
C. Trooststraat,1,,GR2,7574TW,Oldenzaal,Oldenzaal,Overijssel,VBO,6.939049,52.303490
C. Trooststraat,1,,GR3,7574TW,Oldenzaal,Oldenzaal,Overijssel,VBO,6.939060,52.303528
C. Trooststraat,1,,GR4,7574TW,Oldenzaal,Oldenzaal,Overijssel,VBO,6.939116,52.303521
C. Trooststraat,1,,GR5,7574TW,Oldenzaal,Oldenzaal,Overijssel,VBO,6.939127,52.303557
C. Trooststraat,1,,GR6,7574TW,Oldenzaal,Oldenzaal,Overijssel,VBO,6.939189,52.303553
C. Trooststraat,1,,GR7,7574TW,Oldenzaal,Oldenzaal,Overijssel,VBO,6.939237,52.303545
C. Trooststraat,1,,GR8,7574TW,Oldenzaal,Oldenzaal,Overijssel,VBO,6.939259,52.303525
C. Trooststraat,1,,GR9,7574TW,Oldenzaal,Oldenzaal,Overijssel,VBO,6.939298,52.303512
Frans Halsstraat,1,,,7574TW,Oldenzaal,Oldenzaal,Overijssel,VBO,6.938774,52.303373
Frans Halsstraat,3,,,7574TW,Oldenzaal,Oldenzaal,Overijssel,VBO,6.938832,52.303336
Frans Halsstraat,5,,,7574TW,Oldenzaal,Oldenzaal,Overijssel,VBO,6.938874,52.303291
Frans Halsstraat,7,,,7574TW,Oldenzaal,Oldenzaal,Overijssel,VBO,6.938916,52.303245
Frans Halsstraat,9,,,7574TW,Oldenzaal,Oldenzaal,Overijssel,VBO,6.938974,52.303199
Frans Halsstraat,11,,,7574TW,Oldenzaal,Oldenzaal,Overijssel,VBO,6.939088,52.303108
Frans Halsstraat,13,,,7574TW,Oldenzaal,Oldenzaal,Overijssel,VBO,6.939113,52.303054
Frans Halsstraat,15,,,7574TW,Oldenzaal,Oldenzaal,Overijssel,VBO,6.939185,52.303012
Frans Halsstraat,17,,,7574TW,Oldenzaal,Oldenzaal,Overijssel,VBO,6.939234,52.302966
Frans Halsstraat,19,,,7574TW,Oldenzaal,Oldenzaal,Overijssel,VBO,6.939272,52.302931
Frans Halsstraat,21,,,7574TW,Oldenzaal,Oldenzaal,Overijssel,VBO,6.939329,52.302880
Frans Halsstraat,23,,,7574TW,Oldenzaal,Oldenzaal,Overijssel,VBO,6.939428,52.302783
Frans Halsstraat,25,,,7574TW,Oldenzaal,Oldenzaal,Overijssel,VBO,6.939462,52.302740
Frans Halsstraat,27,,,7574TW,Oldenzaal,Oldenzaal,Overijssel,VBO,6.939528,52.302707
Frans Halsstraat,29,,,7574TW,Oldenzaal,Oldenzaal,Overijssel,VBO,6.939566,52.302658
Helmichstraat,30,,,7574TX,Oldenzaal,Oldenzaal,Overijssel,VBO,6.936855,52.303816
Helmichstraat,32,,,7574TX,Oldenzaal,Oldenzaal,Overijssel,VBO,6.936894,52.303703
Helmichstraat,34,,,7574TX,Oldenzaal,Oldenzaal,Overijssel,VBO,6.937008,52.303612
Helmichstraat,36,,,7574TX,Oldenzaal,Oldenzaal,Overijssel,VBO,6.937136,52.303493
Helmichstraat,38,,,7574TX,Oldenzaal,Oldenzaal,Overijssel,VBO,6.937179,52.303448
Helmichstraat,40,a,,7574TX,Oldenzaal,Oldenzaal,Overijssel,VBO,6.937869,52.302679
Helmichstraat,40,b,,7574TX,Oldenzaal,Oldenzaal,Overijssel,VBO,6.937920,52.302629
Helmichstraat,40,c,,7574TX,Oldenzaal,Oldenzaal,Overijssel,VBO,6.937967,52.302579
Helmichstraat,40,,,7574TX,Oldenzaal,Oldenzaal,Overijssel,VBO,6.937813,52.302713
Helmichstraat,42,a,,7574TX,Oldenzaal,Oldenzaal,Overijssel,VBO,6.938678,52.301957
Helmichstraat,42,b,,7574TX,Oldenzaal,Oldenzaal,Overijssel,VBO,6.938855,52.302017
Helmichstraat,42,,,7574TX,Oldenzaal,Oldenzaal,Overijssel,VBO,6.938524,52.302091
Helmichstraat,44,,,7574TX,Oldenzaal,Oldenzaal,Overijssel,VBO,6.938753,52.301751
Helmichstraat,58,,,7574TX,Oldenzaal,Oldenzaal,Overijssel,VBO,6.940342,52.300413
Helmichstraat,60,,,7574TX,Oldenzaal,Oldenzaal,Overijssel,VBO,6.940527,52.300240
Helmichstraat,77,,,7574TZ,Oldenzaal,Oldenzaal,Overijssel,VBO,6.939570,52.301807
Helmichstraat,79,,,7574TZ,Oldenzaal,Oldenzaal,Overijssel,VBO,6.939627,52.301762
Helmichstraat,81,,,7574TZ,Oldenzaal,Oldenzaal,Overijssel,VBO,6.939727,52.301670
Helmichstraat,83,,,7574TZ,Oldenzaal,Oldenzaal,Overijssel,VBO,6.939769,52.301625
Helmichstraat,85,,,7574TZ,Oldenzaal,Oldenzaal,Overijssel,VBO,6.939853,52.301525
Helmichstraat,87,,,7574TZ,Oldenzaal,Oldenzaal,Overijssel,VBO,6.939896,52.301488
Helmichstraat,89,,,7574TZ,Oldenzaal,Oldenzaal,Overijssel,VBO,6.939953,52.301443
Helmichstraat,91,,,7574TZ,Oldenzaal,Oldenzaal,Overijssel,VBO,6.940038,52.301343
Helmichstraat,93,,,7574TZ,Oldenzaal,Oldenzaal,Overijssel,VBO,6.940095,52.301297
Helmichstraat,97,,,7574TZ,Oldenzaal,Oldenzaal,Overijssel,VBO,6.940223,52.301179
Helmichstraat,99,,,7574TZ,Oldenzaal,Oldenzaal,Overijssel,VBO,6.940849,52.300640
Boerskottenlaan,48,,,7574VA,Oldenzaal,Oldenzaal,Overijssel,VBO,6.942088,52.305028
Boerskottenlaan,50,,,7574VA,Oldenzaal,Oldenzaal,Overijssel,VBO,6.942245,52.304927
Boerskottenlaan,52,,,7574VA,Oldenzaal,Oldenzaal,Overijssel,VBO,6.942329,52.304809
Boerskottenlaan,54,,,7574VA,Oldenzaal,Oldenzaal,Overijssel,VBO,6.942386,52.304764
Boerskottenlaan,56,,,7574VA,Oldenzaal,Oldenzaal,Overijssel,VBO,6.942500,52.304672
Boerskottenlaan,58,,,7574VA,Oldenzaal,Oldenzaal,Overijssel,VBO,6.942585,52.304563
Boerskottenlaan,60,,,7574VA,Oldenzaal,Oldenzaal,Overijssel,VBO,6.942627,52.304518
Boerskottenlaan,62,,,7574VA,Oldenzaal,Oldenzaal,Overijssel,VBO,6.942817,52.304428
Boerskottenlaan,64,,,7574VA,Oldenzaal,Oldenzaal,Overijssel,VBO,6.942897,52.304272
Boerskottenlaan,66,,,7574VA,Oldenzaal,Oldenzaal,Overijssel,VBO,6.943025,52.304171
Boerskottenlaan,68,,,7574VA,Oldenzaal,Oldenzaal,Overijssel,VBO,6.943110,52.304080
Boerskottenlaan,70,,,7574VA,Oldenzaal,Oldenzaal,Overijssel,VBO,6.943138,52.304044
Boerskottenlaan,72,,,7574VA,Oldenzaal,Oldenzaal,Overijssel,VBO,6.943208,52.303944
Boerskottenlaan,74,,,7574VA,Oldenzaal,Oldenzaal,Overijssel,VBO,6.943279,52.303880
Boerskottenlaan,76,,,7574VA,Oldenzaal,Oldenzaal,Overijssel,VBO,6.943378,52.303771
Boerskottenlaan,78,,,7574VA,Oldenzaal,Oldenzaal,Overijssel,VBO,6.943448,52.303689
Boerskottenlaan,80,,,7574VA,Oldenzaal,Oldenzaal,Overijssel,VBO,6.943760,52.303379
Boerskottenlaan,84,,,7574VA,Oldenzaal,Oldenzaal,Overijssel,VBO,6.943871,52.303180
Boerskottenlaan,86,,,7574VA,Oldenzaal,Oldenzaal,Overijssel,VBO,6.944014,52.303097
Boerskottenlaan,88,,,7574VA,Oldenzaal,Oldenzaal,Overijssel,VBO,6.944056,52.303043
Boerskottenlaan,16,,,7574VB,Oldenzaal,Oldenzaal,Overijssel,VBO,6.940870,52.306217
Boerskottenlaan,20,a,,7574VB,Oldenzaal,Oldenzaal,Overijssel,VBO,6.940504,52.305927
Boerskottenlaan,20,,,7574VB,Oldenzaal,Oldenzaal,Overijssel,VBO,6.940561,52.305821
Boerskottenlaan,22,,,7574VB,Oldenzaal,Oldenzaal,Overijssel,VBO,6.940675,52.305721
Boerskottenlaan,24,,,7574VB,Oldenzaal,Oldenzaal,Overijssel,VBO,6.940923,52.306122
Boerskottenlaan,26,,,7574VB,Oldenzaal,Oldenzaal,Overijssel,VBO,6.940965,52.306068
Boerskottenlaan,28,,,7574VB,Oldenzaal,Oldenzaal,Overijssel,VBO,6.941080,52.305985
Boerskottenlaan,30,,,7574VB,Oldenzaal,Oldenzaal,Overijssel,VBO,6.941122,52.305940
Boerskottenlaan,31,,,7574VB,Oldenzaal,Oldenzaal,Overijssel,VBO,6.941318,52.306513
Boerskottenlaan,32,,,7574VB,Oldenzaal,Oldenzaal,Overijssel,VBO,6.941222,52.305858
Boerskottenlaan,33,,,7574VB,Oldenzaal,Oldenzaal,Overijssel,VBO,6.941778,52.306506
Boerskottenlaan,34,,,7574VB,Oldenzaal,Oldenzaal,Overijssel,VBO,6.941279,52.305812
Boerskottenlaan,35,,,7574VB,Oldenzaal,Oldenzaal,Overijssel,VBO,6.942464,52.306448
Boerskottenlaan,36,,,7574VB,Oldenzaal,Oldenzaal,Overijssel,VBO,6.941350,52.305730
Boerskottenlaan,38,,,7574VB,Oldenzaal,Oldenzaal,Overijssel,VBO,6.941392,52.305685
Boerskottenlaan,39,,,7574VB,Oldenzaal,Oldenzaal,Overijssel,VBO,6.942845,52.305306
Boerskottenlaan,40,,,7574VB,Oldenzaal,Oldenzaal,Overijssel,VBO,6.941506,52.305584
Boerskottenlaan,43,,,7574VB,Oldenzaal,Oldenzaal,Overijssel,VBO,6.943002,52.304765
Boerskottenlaan,45,,,7574VB,Oldenzaal,Oldenzaal,Overijssel,VBO,6.943075,52.304529
Boerskottenlaan,46,,,7574VB,Oldenzaal,Oldenzaal,Overijssel,VBO,6.942003,52.305128
Boerskottenlaan,47,,,7574VB,Oldenzaal,Oldenzaal,Overijssel,VBO,6.943196,52.304429
Boerskottenlaan,49,,,7574VB,Oldenzaal,Oldenzaal,Overijssel,VBO,6.943415,52.304328
Boerskottenlaan,55,,,7574VB,Oldenzaal,Oldenzaal,Overijssel,VBO,6.944458,52.303631
Boerskottenlaan,57,,,7574VB,Oldenzaal,Oldenzaal,Overijssel,VBO,6.946155,52.303674
Albert Cuypstraat,1,,,7574VC,Oldenzaal,Oldenzaal,Overijssel,VBO,6.941008,52.304341
Albert Cuypstraat,2,,,7574VC,Oldenzaal,Oldenzaal,Overijssel,VBO,6.941363,52.304031
Albert Cuypstraat,3,,,7574VC,Oldenzaal,Oldenzaal,Overijssel,VBO,6.941112,52.304376
Albert Cuypstraat,4,,,7574VC,Oldenzaal,Oldenzaal,Overijssel,VBO,6.941424,52.304062
Albert Cuypstraat,5,,,7574VC,Oldenzaal,Oldenzaal,Overijssel,VBO,6.941186,52.304393
Albert Cuypstraat,6,,,7574VC,Oldenzaal,Oldenzaal,Overijssel,VBO,6.941511,52.304076
Albert Cuypstraat,7,,,7574VC,Oldenzaal,Oldenzaal,Overijssel,VBO,6.941257,52.304418
Albert Cuypstraat,8,,,7574VC,Oldenzaal,Oldenzaal,Overijssel,VBO,6.941550,52.304133
Albert Cuypstraat,9,,,7574VC,Oldenzaal,Oldenzaal,Overijssel,VBO,6.941327,52.304435
Albert Cuypstraat,10,,,7574VC,Oldenzaal,Oldenzaal,Overijssel,VBO,6.941626,52.304161
Albert Cuypstraat,11,,,7574VC,Oldenzaal,Oldenzaal,Overijssel,VBO,6.941407,52.304469
Albert Cuypstraat,12,,,7574VC,Oldenzaal,Oldenzaal,Overijssel,VBO,6.941720,52.304158
Albert Cuypstraat,13,,,7574VC,Oldenzaal,Oldenzaal,Overijssel,VBO,6.941467,52.304504
Albert Cuypstraat,14,,,7574VC,Oldenzaal,Oldenzaal,Overijssel,VBO,6.941780,52.304214
Albert Cuypstraat,15,,,7574VC,Oldenzaal,Oldenzaal,Overijssel,VBO,6.941558,52.304528
Albert Cuypstraat,16,,,7574VC,Oldenzaal,Oldenzaal,Overijssel,VBO,6.941847,52.304251
Albert Cuypstraat,17,,,7574VC,Oldenzaal,Oldenzaal,Overijssel,VBO,6.941849,52.304578
Albert Cuypstraat,19,,,7574VC,Oldenzaal,Oldenzaal,Overijssel,VBO,6.941878,52.304518
Albert Cuypstraat,21,,,7574VC,Oldenzaal,Oldenzaal,Overijssel,VBO,6.941965,52.304484
Albert Cuypstraat,23,,,7574VC,Oldenzaal,Oldenzaal,Overijssel,VBO,6.941976,52.304428
Albert Cuypstraat,25,,,7574VC,Oldenzaal,Oldenzaal,Overijssel,VBO,6.942057,52.304392
van Ostadestraat,1,,,7574VD,Oldenzaal,Oldenzaal,Overijssel,VBO,6.941605,52.303803
van Ostadestraat,2,,,7574VD,Oldenzaal,Oldenzaal,Overijssel,VBO,6.942108,52.303518
van Ostadestraat,3,,,7574VD,Oldenzaal,Oldenzaal,Overijssel,VBO,6.941656,52.303847
van Ostadestraat,4,,,7574VD,Oldenzaal,Oldenzaal,Overijssel,VBO,6.942195,52.303545
van Ostadestraat,5,,,7574VD,Oldenzaal,Oldenzaal,Overijssel,VBO,6.941735,52.303870
van Ostadestraat,6,,,7574VD,Oldenzaal,Oldenzaal,Overijssel,VBO,6.942265,52.303576
van Ostadestraat,7,,,7574VD,Oldenzaal,Oldenzaal,Overijssel,VBO,6.941802,52.303894
van Ostadestraat,8,,,7574VD,Oldenzaal,Oldenzaal,Overijssel,VBO,6.942342,52.303612
van Ostadestraat,9,,,7574VD,Oldenzaal,Oldenzaal,Overijssel,VBO,6.941886,52.303916
van Ostadestraat,10,,,7574VD,Oldenzaal,Oldenzaal,Overijssel,VBO,6.942420,52.303631
van Ostadestraat,11,,,7574VD,Oldenzaal,Oldenzaal,Overijssel,VBO,6.941965,52.303934
van Ostadestraat,12,,,7574VD,Oldenzaal,Oldenzaal,Overijssel,VBO,6.942484,52.303659
van Ostadestraat,13,,,7574VD,Oldenzaal,Oldenzaal,Overijssel,VBO,6.942063,52.303956
van Ostadestraat,14,,,7574VD,Oldenzaal,Oldenzaal,Overijssel,VBO,6.942558,52.303688
van Ostadestraat,15,,,7574VD,Oldenzaal,Oldenzaal,Overijssel,VBO,6.942124,52.303976
van Ostadestraat,16,,,7574VD,Oldenzaal,Oldenzaal,Overijssel,VBO,6.942624,52.303719
van Ostadestraat,17,,,7574VD,Oldenzaal,Oldenzaal,Overijssel,VBO,6.942432,52.304046
van Ostadestraat,19,,,7574VD,Oldenzaal,Oldenzaal,Overijssel,VBO,6.942488,52.304000
van Ostadestraat,21,,,7574VD,Oldenzaal,Oldenzaal,Overijssel,VBO,6.942514,52.303954
van Ostadestraat,23,,,7574VD,Oldenzaal,Oldenzaal,Overijssel,VBO,6.942545,52.303895
van Ostadestraat,25,,,7574VD,Oldenzaal,Oldenzaal,Overijssel,VBO,6.942593,52.303852
Ferdinand Bolstraat,2,,,7574VE,Oldenzaal,Oldenzaal,Overijssel,VBO,6.940112,52.304317
Ferdinand Bolstraat,4,,,7574VE,Oldenzaal,Oldenzaal,Overijssel,VBO,6.940155,52.304281
Ferdinand Bolstraat,6,,,7574VE,Oldenzaal,Oldenzaal,Overijssel,VBO,6.940212,52.304235
Ferdinand Bolstraat,8,,,7574VE,Oldenzaal,Oldenzaal,Overijssel,VBO,6.940269,52.304189
Ferdinand Bolstraat,10,,,7574VE,Oldenzaal,Oldenzaal,Overijssel,VBO,6.940310,52.304108
Ferdinand Bolstraat,12,,,7574VE,Oldenzaal,Oldenzaal,Overijssel,VBO,6.940383,52.304080
Ferdinand Bolstraat,14,,,7574VE,Oldenzaal,Oldenzaal,Overijssel,VBO,6.940425,52.304025
Ferdinand Bolstraat,16,,,7574VE,Oldenzaal,Oldenzaal,Overijssel,VBO,6.940468,52.303989
Ferdinand Bolstraat,18,,,7574VE,Oldenzaal,Oldenzaal,Overijssel,VBO,6.940540,52.303952
Ferdinand Bolstraat,20,,,7574VE,Oldenzaal,Oldenzaal,Overijssel,VBO,6.940671,52.303780
Ferdinand Bolstraat,22,,,7574VE,Oldenzaal,Oldenzaal,Overijssel,VBO,6.940738,52.303725
Ferdinand Bolstraat,24,,,7574VE,Oldenzaal,Oldenzaal,Overijssel,VBO,6.940782,52.303692
Ferdinand Bolstraat,26,,,7574VE,Oldenzaal,Oldenzaal,Overijssel,VBO,6.940829,52.303647
Ferdinand Bolstraat,28,,,7574VE,Oldenzaal,Oldenzaal,Overijssel,VBO,6.940899,52.303615
Ferdinand Bolstraat,30,,,7574VE,Oldenzaal,Oldenzaal,Overijssel,VBO,6.940956,52.303570
Ferdinand Bolstraat,32,,,7574VE,Oldenzaal,Oldenzaal,Overijssel,VBO,6.941005,52.303517
Ferdinand Bolstraat,34,,,7574VE,Oldenzaal,Oldenzaal,Overijssel,VBO,6.941004,52.303455
Ferdinand Bolstraat,36,,,7574VE,Oldenzaal,Oldenzaal,Overijssel,VBO,6.941063,52.303411
Ferdinand Bolstraat,38,,,7574VE,Oldenzaal,Oldenzaal,Overijssel,VBO,6.941092,52.303373
Ferdinand Bolstraat,40,,,7574VE,Oldenzaal,Oldenzaal,Overijssel,VBO,6.941141,52.303321
Ferdinand Bolstraat,1,,,7574VG,Oldenzaal,Oldenzaal,Overijssel,VBO,6.940499,52.304474
Ferdinand Bolstraat,3,,,7574VG,Oldenzaal,Oldenzaal,Overijssel,VBO,6.940557,52.304443
Ferdinand Bolstraat,5,,,7574VG,Oldenzaal,Oldenzaal,Overijssel,VBO,6.940601,52.304393
Ferdinand Bolstraat,7,,,7574VG,Oldenzaal,Oldenzaal,Overijssel,VBO,6.940642,52.304364
Ferdinand Bolstraat,9,,,7574VG,Oldenzaal,Oldenzaal,Overijssel,VBO,6.940674,52.304302
Ferdinand Bolstraat,11,,,7574VG,Oldenzaal,Oldenzaal,Overijssel,VBO,6.940732,52.304246
Ferdinand Bolstraat,13,,,7574VG,Oldenzaal,Oldenzaal,Overijssel,VBO,6.941078,52.303937
Ferdinand Bolstraat,15,,,7574VG,Oldenzaal,Oldenzaal,Overijssel,VBO,6.941139,52.303890
Ferdinand Bolstraat,17,,,7574VG,Oldenzaal,Oldenzaal,Overijssel,VBO,6.941181,52.303854
Ferdinand Bolstraat,19,,,7574VG,Oldenzaal,Oldenzaal,Overijssel,VBO,6.941238,52.303808
Ferdinand Bolstraat,21,,,7574VG,Oldenzaal,Oldenzaal,Overijssel,VBO,6.941282,52.303759
Ferdinand Bolstraat,23,,,7574VG,Oldenzaal,Oldenzaal,Overijssel,VBO,6.941329,52.303704
Ferdinand Bolstraat,25,,,7574VG,Oldenzaal,Oldenzaal,Overijssel,VBO,6.941722,52.303379
Ferdinand Bolstraat,27,,,7574VG,Oldenzaal,Oldenzaal,Overijssel,VBO,6.941764,52.303325
Ferdinand Bolstraat,29,a,,7574VG,Oldenzaal,Oldenzaal,Overijssel,VBO,6.941863,52.303206
Ferdinand Bolstraat,29,b,,7574VG,Oldenzaal,Oldenzaal,Overijssel,VBO,6.941921,52.303167
Ferdinand Bolstraat,29,,,7574VG,Oldenzaal,Oldenzaal,Overijssel,VBO,6.941810,52.303279
Ferdinand Bolstraat,31,,,7574VG,Oldenzaal,Oldenzaal,Overijssel,VBO,6.942006,52.303115
Ferdinand Bolstraat,33,,,7574VG,Oldenzaal,Oldenzaal,Overijssel,VBO,6.941726,52.303387
Ferdinand Bolstraat,35,,,7574VG,Oldenzaal,Oldenzaal,Overijssel,VBO,6.941775,52.303329
Ferdinand Bolstraat,37,,,7574VG,Oldenzaal,Oldenzaal,Overijssel,VBO,6.941821,52.303278
Ferdinand Bolstraat,39,,,7574VG,Oldenzaal,Oldenzaal,Overijssel,VBO,6.941881,52.303225
Ferdinand Bolstraat,41,,,7574VG,Oldenzaal,Oldenzaal,Overijssel,VBO,6.941938,52.303178
Ferdinand Bolstraat,43,a,,7574VG,Oldenzaal,Oldenzaal,Overijssel,VBO,6.942045,52.303074
Ferdinand Bolstraat,43,,,7574VG,Oldenzaal,Oldenzaal,Overijssel,VBO,6.941985,52.303117
Pieter de Hooghstraat,2,,,7574VH,Oldenzaal,Oldenzaal,Overijssel,VBO,6.941748,52.302704
Pieter de Hooghstraat,4,,,7574VH,Oldenzaal,Oldenzaal,Overijssel,VBO,6.941774,52.302679
Pieter de Hooghstraat,6,,,7574VH,Oldenzaal,Oldenzaal,Overijssel,VBO,6.941793,52.302652
Pieter de Hooghstraat,8,,,7574VH,Oldenzaal,Oldenzaal,Overijssel,VBO,6.941857,52.302746
Pieter de Hooghstraat,10,,,7574VH,Oldenzaal,Oldenzaal,Overijssel,VBO,6.941883,52.302718
Pieter de Hooghstraat,12,,,7574VH,Oldenzaal,Oldenzaal,Overijssel,VBO,6.941908,52.302691
Pieter de Hooghstraat,14,,,7574VH,Oldenzaal,Oldenzaal,Overijssel,VBO,6.941937,52.302777
Pieter de Hooghstraat,16,,,7574VH,Oldenzaal,Oldenzaal,Overijssel,VBO,6.941964,52.302750
Pieter de Hooghstraat,18,,,7574VH,Oldenzaal,Oldenzaal,Overijssel,VBO,6.941992,52.302728
Pieter de Hooghstraat,20,,,7574VH,Oldenzaal,Oldenzaal,Overijssel,VBO,6.942043,52.302824
Pieter de Hooghstraat,22,,,7574VH,Oldenzaal,Oldenzaal,Overijssel,VBO,6.942064,52.302798
Pieter de Hooghstraat,24,,,7574VH,Oldenzaal,Oldenzaal,Overijssel,VBO,6.942094,52.302770
Pieter de Hooghstraat,26,,,7574VH,Oldenzaal,Oldenzaal,Overijssel,VBO,6.942616,52.302945
Pieter de Hooghstraat,28,,,7574VH,Oldenzaal,Oldenzaal,Overijssel,VBO,6.942765,52.303006
Pieter de Hooghstraat,30,,,7574VH,Oldenzaal,Oldenzaal,Overijssel,VBO,6.942839,52.303032
Pieter de Hooghstraat,32,,,7574VH,Oldenzaal,Oldenzaal,Overijssel,VBO,6.943062,52.303119
Pieter de Hooghstraat,34,,,7574VH,Oldenzaal,Oldenzaal,Overijssel,VBO,6.943285,52.303197
Pieter de Hooghstraat,1,,,7574VJ,Oldenzaal,Oldenzaal,Overijssel,VBO,6.942420,52.303208
Pieter de Hooghstraat,3,,,7574VJ,Oldenzaal,Oldenzaal,Overijssel,VBO,6.942494,52.303234
Pieter de Hooghstraat,5,,,7574VJ,Oldenzaal,Oldenzaal,Overijssel,VBO,6.942642,52.303286
Pieter de Hooghstraat,7,,,7574VJ,Oldenzaal,Oldenzaal,Overijssel,VBO,6.942702,52.303321
Pieter de Hooghstraat,9,,,7574VJ,Oldenzaal,Oldenzaal,Overijssel,VBO,6.942851,52.303373
Pieter de Hooghstraat,11,,,7574VJ,Oldenzaal,Oldenzaal,Overijssel,VBO,6.942910,52.303399
Pieter de Hooghstraat,13,,,7574VJ,Oldenzaal,Oldenzaal,Overijssel,VBO,6.943045,52.303461
Pieter de Hooghstraat,15,,,7574VJ,Oldenzaal,Oldenzaal,Overijssel,VBO,6.943119,52.303487
Adriaan Brouwerstraat,1,,,7574VK,Oldenzaal,Oldenzaal,Overijssel,VBO,6.942407,52.302831
Adriaan Brouwerstraat,3,,,7574VK,Oldenzaal,Oldenzaal,Overijssel,VBO,6.942449,52.302785
Adriaan Brouwerstraat,5,,,7574VK,Oldenzaal,Oldenzaal,Overijssel,VBO,6.942506,52.302740
Adriaan Brouwerstraat,7,,,7574VK,Oldenzaal,Oldenzaal,Overijssel,VBO,6.942548,52.302694
Adriaan Brouwerstraat,9,,,7574VK,Oldenzaal,Oldenzaal,Overijssel,VBO,6.942591,52.302658
Adriaan Brouwerstraat,11,,,7574VK,Oldenzaal,Oldenzaal,Overijssel,VBO,6.942634,52.302612
Adriaan Brouwerstraat,13,,,7574VK,Oldenzaal,Oldenzaal,Overijssel,VBO,6.942691,52.302566
Adriaan Brouwerstraat,15,,,7574VK,Oldenzaal,Oldenzaal,Overijssel,VBO,6.942733,52.302512
Adriaan Brouwerstraat,19,,,7574VK,Oldenzaal,Oldenzaal,Overijssel,VBO,6.943049,52.302346
van der Helststraat,2,,,7574VK,Oldenzaal,Oldenzaal,Overijssel,VBO,6.942010,52.302465
van der Helststraat,4,,,7574VK,Oldenzaal,Oldenzaal,Overijssel,VBO,6.942026,52.302441
van der Helststraat,6,,,7574VK,Oldenzaal,Oldenzaal,Overijssel,VBO,6.942059,52.302418
van der Helststraat,8,,,7574VK,Oldenzaal,Oldenzaal,Overijssel,VBO,6.942116,52.302508
van der Helststraat,10,,,7574VK,Oldenzaal,Oldenzaal,Overijssel,VBO,6.942139,52.302481
van der Helststraat,12,,,7574VK,Oldenzaal,Oldenzaal,Overijssel,VBO,6.942168,52.302452
van der Helststraat,14,,,7574VK,Oldenzaal,Oldenzaal,Overijssel,VBO,6.942192,52.302537
van der Helststraat,16,,,7574VK,Oldenzaal,Oldenzaal,Overijssel,VBO,6.942213,52.302512
van der Helststraat,18,,,7574VK,Oldenzaal,Oldenzaal,Overijssel,VBO,6.942246,52.302487
van der Helststraat,20,,,7574VK,Oldenzaal,Oldenzaal,Overijssel,VBO,6.942303,52.302584
van der Helststraat,22,,,7574VK,Oldenzaal,Oldenzaal,Overijssel,VBO,6.942317,52.302555
van der Helststraat,24,,,7574VK,Oldenzaal,Oldenzaal,Overijssel,VBO,6.942342,52.302524
van Mierisstraat,1,,,7574VL,Oldenzaal,Oldenzaal,Overijssel,VBO,6.943015,52.302616
van Mierisstraat,3,,,7574VL,Oldenzaal,Oldenzaal,Overijssel,VBO,6.943179,52.302686
van Mierisstraat,5,,,7574VL,Oldenzaal,Oldenzaal,Overijssel,VBO,6.943268,52.302730
van Mierisstraat,7,,,7574VL,Oldenzaal,Oldenzaal,Overijssel,VBO,6.943403,52.302800
van Mierisstraat,9,,,7574VL,Oldenzaal,Oldenzaal,Overijssel,VBO,6.943477,52.302835
van Mierisstraat,11,,,7574VL,Oldenzaal,Oldenzaal,Overijssel,VBO,6.943640,52.302877
van Mierisstraat,13,,,7574VL,Oldenzaal,Oldenzaal,Overijssel,VBO,6.943714,52.302912
Nicolaas Maesstraat,2,,,7574VM,Oldenzaal,Oldenzaal,Overijssel,VBO,6.942297,52.302200
Nicolaas Maesstraat,4,,,7574VM,Oldenzaal,Oldenzaal,Overijssel,VBO,6.942314,52.302173
Nicolaas Maesstraat,6,,,7574VM,Oldenzaal,Oldenzaal,Overijssel,VBO,6.942346,52.302152
Nicolaas Maesstraat,8,,,7574VM,Oldenzaal,Oldenzaal,Overijssel,VBO,6.942404,52.302244
Nicolaas Maesstraat,10,,,7574VM,Oldenzaal,Oldenzaal,Overijssel,VBO,6.942427,52.302214
Nicolaas Maesstraat,12,,,7574VM,Oldenzaal,Oldenzaal,Overijssel,VBO,6.942457,52.302191
Nicolaas Maesstraat,14,,,7574VM,Oldenzaal,Oldenzaal,Overijssel,VBO,6.942478,52.302275
Nicolaas Maesstraat,16,,,7574VM,Oldenzaal,Oldenzaal,Overijssel,VBO,6.942498,52.302249
Nicolaas Maesstraat,18,,,7574VM,Oldenzaal,Oldenzaal,Overijssel,VBO,6.942535,52.302225
Nicolaas Maesstraat,20,,,7574VM,Oldenzaal,Oldenzaal,Overijssel,VBO,6.942590,52.302320
Nicolaas Maesstraat,22,,,7574VM,Oldenzaal,Oldenzaal,Overijssel,VBO,6.942610,52.302293
Nicolaas Maesstraat,24,,,7574VM,Oldenzaal,Oldenzaal,Overijssel,VBO,6.942633,52.302270
Aert van der Neerstraat,2,,,7574VN,Oldenzaal,Oldenzaal,Overijssel,VBO,6.942574,52.301944
Aert van der Neerstraat,4,,,7574VN,Oldenzaal,Oldenzaal,Overijssel,VBO,6.942595,52.301917
Aert van der Neerstraat,6,,,7574VN,Oldenzaal,Oldenzaal,Overijssel,VBO,6.942627,52.301895
Aert van der Neerstraat,8,,,7574VN,Oldenzaal,Oldenzaal,Overijssel,VBO,6.942681,52.301989
Aert van der Neerstraat,10,,,7574VN,Oldenzaal,Oldenzaal,Overijssel,VBO,6.942708,52.301956
Aert van der Neerstraat,12,,,7574VN,Oldenzaal,Oldenzaal,Overijssel,VBO,6.942736,52.301931
Aert van der Neerstraat,14,,,7574VN,Oldenzaal,Oldenzaal,Overijssel,VBO,6.942761,52.302018
Aert van der Neerstraat,16,,,7574VN,Oldenzaal,Oldenzaal,Overijssel,VBO,6.942782,52.301992
Aert van der Neerstraat,18,,,7574VN,Oldenzaal,Oldenzaal,Overijssel,VBO,6.942823,52.301969
Aert van der Neerstraat,20,,,7574VN,Oldenzaal,Oldenzaal,Overijssel,VBO,6.942868,52.302064
Aert van der Neerstraat,22,,,7574VN,Oldenzaal,Oldenzaal,Overijssel,VBO,6.942892,52.302034
Aert van der Neerstraat,24,,,7574VN,Oldenzaal,Oldenzaal,Overijssel,VBO,6.942913,52.302010
Hobbemastraat,2,,,7574VP,Oldenzaal,Oldenzaal,Overijssel,VBO,6.941170,52.302694
Hobbemastraat,4,,,7574VP,Oldenzaal,Oldenzaal,Overijssel,VBO,6.941227,52.302649
Hobbemastraat,6,,,7574VP,Oldenzaal,Oldenzaal,Overijssel,VBO,6.941269,52.302594
Hobbemastraat,8,,,7574VP,Oldenzaal,Oldenzaal,Overijssel,VBO,6.941312,52.302558
Hobbemastraat,10,,,7574VP,Oldenzaal,Oldenzaal,Overijssel,VBO,6.941369,52.302512
Hobbemastraat,12,,,7574VP,Oldenzaal,Oldenzaal,Overijssel,VBO,6.941411,52.302457
Hobbemastraat,14,,,7574VP,Oldenzaal,Oldenzaal,Overijssel,VBO,6.941496,52.302366
Hobbemastraat,16,,,7574VP,Oldenzaal,Oldenzaal,Overijssel,VBO,6.941538,52.302312
Hobbemastraat,18,,,7574VP,Oldenzaal,Oldenzaal,Overijssel,VBO,6.941581,52.302275
Hobbemastraat,20,,,7574VP,Oldenzaal,Oldenzaal,Overijssel,VBO,6.941638,52.302230
Hobbemastraat,22,,,7574VP,Oldenzaal,Oldenzaal,Overijssel,VBO,6.941680,52.302184
Hobbemastraat,24,,,7574VP,Oldenzaal,Oldenzaal,Overijssel,VBO,6.941723,52.302139
Hobbemastraat,26,,,7574VP,Oldenzaal,Oldenzaal,Overijssel,VBO,6.941765,52.302102
Hobbemastraat,28,,,7574VP,Oldenzaal,Oldenzaal,Overijssel,VBO,6.941822,52.302047
Hobbemastraat,30,,,7574VP,Oldenzaal,Oldenzaal,Overijssel,VBO,6.941936,52.301965
Hobbemastraat,32,,,7574VP,Oldenzaal,Oldenzaal,Overijssel,VBO,6.941979,52.301920
Hobbemastraat,34,,,7574VP,Oldenzaal,Oldenzaal,Overijssel,VBO,6.942036,52.301874
Rembrandtstraat,2,,,7574VR,Oldenzaal,Oldenzaal,Overijssel,VBO,6.939400,52.301962
Rembrandtstraat,4,,,7574VR,Oldenzaal,Oldenzaal,Overijssel,VBO,6.939459,52.301989
Rembrandtstraat,6,,,7574VR,Oldenzaal,Oldenzaal,Overijssel,VBO,6.939533,52.302015
Rembrandtstraat,8,,,7574VR,Oldenzaal,Oldenzaal,Overijssel,VBO,6.939593,52.302041
Rembrandtstraat,10,,,7574VR,Oldenzaal,Oldenzaal,Overijssel,VBO,6.939682,52.302076
Rembrandtstraat,12,,,7574VR,Oldenzaal,Oldenzaal,Overijssel,VBO,6.939756,52.302102
Rembrandtstraat,14,,,7574VR,Oldenzaal,Oldenzaal,Overijssel,VBO,6.939816,52.302128
Rembrandtstraat,16,,,7574VR,Oldenzaal,Oldenzaal,Overijssel,VBO,6.939890,52.302145
Rembrandtstraat,18,,,7574VR,Oldenzaal,Oldenzaal,Overijssel,VBO,6.939949,52.302171
Rembrandtstraat,20,,,7574VR,Oldenzaal,Oldenzaal,Overijssel,VBO,6.940039,52.302206
Rembrandtstraat,22,,,7574VR,Oldenzaal,Oldenzaal,Overijssel,VBO,6.940098,52.302241
Rembrandtstraat,24,,,7574VR,Oldenzaal,Oldenzaal,Overijssel,VBO,6.940159,52.302285
Rembrandtstraat,26,,,7574VR,Oldenzaal,Oldenzaal,Overijssel,VBO,6.940219,52.302320
Rembrandtstraat,28,,,7574VR,Oldenzaal,Oldenzaal,Overijssel,VBO,6.940293,52.302346
Rembrandtstraat,30,,,7574VR,Oldenzaal,Oldenzaal,Overijssel,VBO,6.940367,52.302372
Rembrandtstraat,32,,,7574VR,Oldenzaal,Oldenzaal,Overijssel,VBO,6.940456,52.302398
Rembrandtstraat,34,,,7574VR,Oldenzaal,Oldenzaal,Overijssel,VBO,6.940709,52.302503
Rembrandtstraat,36,,,7574VR,Oldenzaal,Oldenzaal,Overijssel,VBO,6.940783,52.302537
Rembrandtstraat,38,,,7574VR,Oldenzaal,Oldenzaal,Overijssel,VBO,6.940858,52.302563
Rembrandtstraat,40,,,7574VR,Oldenzaal,Oldenzaal,Overijssel,VBO,6.940932,52.302589
Rembrandtstraat,1,,,7574VS,Oldenzaal,Oldenzaal,Overijssel,VBO,6.939697,52.302507
Rembrandtstraat,3,,,7574VS,Oldenzaal,Oldenzaal,Overijssel,VBO,6.939784,52.302533
Rembrandtstraat,5,,,7574VS,Oldenzaal,Oldenzaal,Overijssel,VBO,6.939850,52.302566
Rembrandtstraat,7,,,7574VS,Oldenzaal,Oldenzaal,Overijssel,VBO,6.939906,52.302594
Rembrandtstraat,9,,,7574VS,Oldenzaal,Oldenzaal,Overijssel,VBO,6.939980,52.302629
Rembrandtstraat,11,,,7574VS,Oldenzaal,Oldenzaal,Overijssel,VBO,6.940040,52.302655
Rembrandtstraat,13,,,7574VS,Oldenzaal,Oldenzaal,Overijssel,VBO,6.940148,52.302699
Rembrandtstraat,15,,,7574VS,Oldenzaal,Oldenzaal,Overijssel,VBO,6.940414,52.302819
Rembrandtstraat,17,,,7574VS,Oldenzaal,Oldenzaal,Overijssel,VBO,6.940500,52.302820
Rembrandtstraat,19,,,7574VS,Oldenzaal,Oldenzaal,Overijssel,VBO,6.940589,52.302855
Rembrandtstraat,21,,,7574VS,Oldenzaal,Oldenzaal,Overijssel,VBO,6.940649,52.302890
Rembrandtstraat,23,,,7574VS,Oldenzaal,Oldenzaal,Overijssel,VBO,6.940724,52.302925
Rembrandtstraat,25,,,7574VS,Oldenzaal,Oldenzaal,Overijssel,VBO,6.940767,52.302958
Rembrandtstraat,27,,,7574VS,Oldenzaal,Oldenzaal,Overijssel,VBO,6.940912,52.303003
Rembrandtstraat,29,,,7574VS,Oldenzaal,Oldenzaal,Overijssel,VBO,6.940981,52.303042
Rembrandtstraat,31,,,7574VS,Oldenzaal,Oldenzaal,Overijssel,VBO,6.941051,52.303082
Rembrandtstraat,33,,,7574VS,Oldenzaal,Oldenzaal,Overijssel,VBO,6.941124,52.303105
Rembrandtstraat,35,,,7574VS,Oldenzaal,Oldenzaal,Overijssel,VBO,6.941222,52.303111
Rembrandtstraat,37,,,7574VS,Oldenzaal,Oldenzaal,Overijssel,VBO,6.941259,52.303151
Jan Vermeerstraat,1,,,7574VT,Oldenzaal,Oldenzaal,Overijssel,VBO,6.940880,52.302365
Jan Vermeerstraat,2,,TR,7574VT,Oldenzaal,Oldenzaal,Overijssel,VBO,6.940675,52.302257
Jan Vermeerstraat,3,,,7574VT,Oldenzaal,Oldenzaal,Overijssel,VBO,6.940937,52.302320
Jan Vermeerstraat,5,,,7574VT,Oldenzaal,Oldenzaal,Overijssel,VBO,6.940979,52.302274
Jan Vermeerstraat,7,,,7574VT,Oldenzaal,Oldenzaal,Overijssel,VBO,6.941036,52.302220
Jan Vermeerstraat,9,,,7574VT,Oldenzaal,Oldenzaal,Overijssel,VBO,6.941079,52.302183
Jan Vermeerstraat,11,,,7574VT,Oldenzaal,Oldenzaal,Overijssel,VBO,6.941136,52.302137
Jan Vermeerstraat,13,,,7574VT,Oldenzaal,Oldenzaal,Overijssel,VBO,6.941193,52.302101
Jan Vermeerstraat,15,,,7574VT,Oldenzaal,Oldenzaal,Overijssel,VBO,6.941236,52.302055
Jan Vermeerstraat,17,,,7574VT,Oldenzaal,Oldenzaal,Overijssel,VBO,6.941278,52.302019
Jan Vermeerstraat,19,,GR1,7574VT,Oldenzaal,Oldenzaal,Overijssel,VBO,6.941513,52.302039
Jan Vermeerstraat,19,,GR10,7574VT,Oldenzaal,Oldenzaal,Overijssel,VBO,6.941735,52.301833
Jan Vermeerstraat,19,,GR11,7574VT,Oldenzaal,Oldenzaal,Overijssel,VBO,6.941757,52.301812
Jan Vermeerstraat,19,,GR12,7574VT,Oldenzaal,Oldenzaal,Overijssel,VBO,6.941614,52.301754
Jan Vermeerstraat,19,,GR13,7574VT,Oldenzaal,Oldenzaal,Overijssel,VBO,6.941592,52.301776
Jan Vermeerstraat,19,,GR14,7574VT,Oldenzaal,Oldenzaal,Overijssel,VBO,6.941564,52.301801
Jan Vermeerstraat,19,,GR15,7574VT,Oldenzaal,Oldenzaal,Overijssel,VBO,6.941539,52.301824
Jan Vermeerstraat,19,,GR16,7574VT,Oldenzaal,Oldenzaal,Overijssel,VBO,6.941519,52.301847
Jan Vermeerstraat,19,,GR17,7574VT,Oldenzaal,Oldenzaal,Overijssel,VBO,6.941492,52.301870
Jan Vermeerstraat,19,,GR18,7574VT,Oldenzaal,Oldenzaal,Overijssel,VBO,6.941466,52.301892
Jan Vermeerstraat,19,,GR19,7574VT,Oldenzaal,Oldenzaal,Overijssel,VBO,6.941439,52.301913
Jan Vermeerstraat,19,,GR2,7574VT,Oldenzaal,Oldenzaal,Overijssel,VBO,6.941537,52.302015
Jan Vermeerstraat,19,,GR20,7574VT,Oldenzaal,Oldenzaal,Overijssel,VBO,6.941419,52.301938
Jan Vermeerstraat,19,,GR3,7574VT,Oldenzaal,Oldenzaal,Overijssel,VBO,6.941563,52.301993
Jan Vermeerstraat,19,,GR4,7574VT,Oldenzaal,Oldenzaal,Overijssel,VBO,6.941583,52.301969
Jan Vermeerstraat,19,,GR5,7574VT,Oldenzaal,Oldenzaal,Overijssel,VBO,6.941611,52.301947
Jan Vermeerstraat,19,,GR6,7574VT,Oldenzaal,Oldenzaal,Overijssel,VBO,6.941634,52.301924
Jan Vermeerstraat,19,,GR7,7574VT,Oldenzaal,Oldenzaal,Overijssel,VBO,6.941660,52.301900
Jan Vermeerstraat,19,,GR8,7574VT,Oldenzaal,Oldenzaal,Overijssel,VBO,6.941686,52.301880
Jan Vermeerstraat,19,,GR9,7574VT,Oldenzaal,Oldenzaal,Overijssel,VBO,6.941709,52.301856
Fabritiusstraat,1,,,7574VV,Oldenzaal,Oldenzaal,Overijssel,VBO,6.940277,52.301897
Fabritiusstraat,3,,,7574VV,Oldenzaal,Oldenzaal,Overijssel,VBO,6.940337,52.301923
Fabritiusstraat,5,,,7574VV,Oldenzaal,Oldenzaal,Overijssel,VBO,6.940426,52.301949
Fabritiusstraat,7,,,7574VV,Oldenzaal,Oldenzaal,Overijssel,VBO,6.940500,52.301984
Fabritiusstraat,9,,,7574VV,Oldenzaal,Oldenzaal,Overijssel,VBO,6.940574,52.302010
Fabritiusstraat,11,,,7574VV,Oldenzaal,Oldenzaal,Overijssel,VBO,6.940634,52.302045
Fabritiusstraat,13,,,7574VV,Oldenzaal,Oldenzaal,Overijssel,VBO,6.940708,52.302071
Fabritiusstraat,15,,,7574VV,Oldenzaal,Oldenzaal,Overijssel,VBO,6.940783,52.302097
Gerard Doustraat,2,,,7574VW,Oldenzaal,Oldenzaal,Overijssel,VBO,6.940825,52.301620
Gerard Doustraat,4,,,7574VW,Oldenzaal,Oldenzaal,Overijssel,VBO,6.940913,52.301646
Gerard Doustraat,6,,,7574VW,Oldenzaal,Oldenzaal,Overijssel,VBO,6.940988,52.301681
Gerard Doustraat,8,,,7574VW,Oldenzaal,Oldenzaal,Overijssel,VBO,6.941062,52.301707
Gerard Doustraat,10,,,7574VW,Oldenzaal,Oldenzaal,Overijssel,VBO,6.941136,52.301733
Gerard Doustraat,12,,,7574VW,Oldenzaal,Oldenzaal,Overijssel,VBO,6.941211,52.301768
Gerard Doustraat,14,,,7574VW,Oldenzaal,Oldenzaal,Overijssel,VBO,6.941285,52.301794
Gerard Doustraat,16,,,7574VW,Oldenzaal,Oldenzaal,Overijssel,VBO,6.941345,52.301820
Paulus Potterstraat,2,,,7574VX,Oldenzaal,Oldenzaal,Overijssel,VBO,6.940315,52.301726
Paulus Potterstraat,4,,,7574VX,Oldenzaal,Oldenzaal,Overijssel,VBO,6.940358,52.301689
Paulus Potterstraat,6,,,7574VX,Oldenzaal,Oldenzaal,Overijssel,VBO,6.940415,52.301643
Paulus Potterstraat,8,,,7574VX,Oldenzaal,Oldenzaal,Overijssel,VBO,6.940472,52.301598
Paulus Potterstraat,10,,,7574VX,Oldenzaal,Oldenzaal,Overijssel,VBO,6.940514,52.301552
Paulus Potterstraat,12,,,7574VX,Oldenzaal,Oldenzaal,Overijssel,VBO,6.940556,52.301489
Paulus Potterstraat,14,,,7574VX,Oldenzaal,Oldenzaal,Overijssel,VBO,6.940613,52.301443
Paulus Potterstraat,16,,,7574VX,Oldenzaal,Oldenzaal,Overijssel,VBO,6.940670,52.301397
Paulus Potterstraat,18,,,7574VX,Oldenzaal,Oldenzaal,Overijssel,VBO,6.940713,52.301352
Jan Steenstraat,1,,,7574VZ,Oldenzaal,Oldenzaal,Overijssel,VBO,6.940407,52.301014
Jan Steenstraat,2,,,7574VZ,Oldenzaal,Oldenzaal,Overijssel,VBO,6.940666,52.300849
Jan Steenstraat,3,,,7574VZ,Oldenzaal,Oldenzaal,Overijssel,VBO,6.940496,52.301040
Jan Steenstraat,4,,,7574VZ,Oldenzaal,Oldenzaal,Overijssel,VBO,6.940933,52.300953
Jan Steenstraat,5,,,7574VZ,Oldenzaal,Oldenzaal,Overijssel,VBO,6.940586,52.301075
Jan Steenstraat,6,,,7574VZ,Oldenzaal,Oldenzaal,Overijssel,VBO,6.941216,52.301067
Jan Steenstraat,7,,,7574VZ,Oldenzaal,Oldenzaal,Overijssel,VBO,6.940675,52.301110
Jan Steenstraat,8,,,7574VZ,Oldenzaal,Oldenzaal,Overijssel,VBO,6.941438,52.301136
Jan Steenstraat,9,,,7574VZ,Oldenzaal,Oldenzaal,Overijssel,VBO,6.940734,52.301136
Jan Steenstraat,10,,,7574VZ,Oldenzaal,Oldenzaal,Overijssel,VBO,6.941691,52.301240
Jan Steenstraat,11,,,7574VZ,Oldenzaal,Oldenzaal,Overijssel,VBO,6.940824,52.301180
Jan Steenstraat,12,,,7574VZ,Oldenzaal,Oldenzaal,Overijssel,VBO,6.941944,52.301345
Jan Steenstraat,13,,,7574VZ,Oldenzaal,Oldenzaal,Overijssel,VBO,6.940898,52.301215
Jan Steenstraat,17,,,7574VZ,Oldenzaal,Oldenzaal,Overijssel,VBO,6.941151,52.301310
Jan Steenstraat,19,,,7574VZ,Oldenzaal,Oldenzaal,Overijssel,VBO,6.941240,52.301345
Jan Steenstraat,21,,,7574VZ,Oldenzaal,Oldenzaal,Overijssel,VBO,6.941314,52.301371
Jan Steenstraat,23,,,7574VZ,Oldenzaal,Oldenzaal,Overijssel,VBO,6.941389,52.301406
Jan Steenstraat,25,,,7574VZ,Oldenzaal,Oldenzaal,Overijssel,VBO,6.941463,52.301432
Jan Steenstraat,27,,,7574VZ,Oldenzaal,Oldenzaal,Overijssel,VBO,6.941523,52.301458
Jan Steenstraat,29,,,7574VZ,Oldenzaal,Oldenzaal,Overijssel,VBO,6.941612,52.301493
Jan Steenstraat,31,,,7574VZ,Oldenzaal,Oldenzaal,Overijssel,VBO,6.941686,52.301519
Jan Steenstraat,33,,,7574VZ,Oldenzaal,Oldenzaal,Overijssel,VBO,6.941820,52.301580
Jan Steenstraat,35,,,7574VZ,Oldenzaal,Oldenzaal,Overijssel,VBO,6.941895,52.301615
Jan Steenstraat,37,,,7574VZ,Oldenzaal,Oldenzaal,Overijssel,VBO,6.941969,52.301641
Jan Steenstraat,39,,,7574VZ,Oldenzaal,Oldenzaal,Overijssel,VBO,6.942043,52.301667
Jan Steenstraat,41,,,7574VZ,Oldenzaal,Oldenzaal,Overijssel,VBO,6.942118,52.301702
Jan Steenstraat,43,,,7574VZ,Oldenzaal,Oldenzaal,Overijssel,VBO,6.942207,52.301737
Richtersmaatstraat,2,,,7574XB,Oldenzaal,Oldenzaal,Overijssel,VBO,6.932033,52.295479
Richtersmaatstraat,4,,,7574XB,Oldenzaal,Oldenzaal,Overijssel,VBO,6.932283,52.295512
Richtersmaatstraat,12,,,7574XB,Oldenzaal,Oldenzaal,Overijssel,VBO,6.932654,52.295633
Richtersmaatstraat,14,,,7574XB,Oldenzaal,Oldenzaal,Overijssel,VBO,6.932759,52.295703
Richtersmaatstraat,18,,,7574XB,Oldenzaal,Oldenzaal,Overijssel,VBO,6.932997,52.295781
Richtersmaatstraat,20,,,7574XB,Oldenzaal,Oldenzaal,Overijssel,VBO,6.933203,52.295823
Richtersmaatstraat,22,,,7574XB,Oldenzaal,Oldenzaal,Overijssel,VBO,6.933351,52.295866
Richtersmaatstraat,24,,,7574XB,Oldenzaal,Oldenzaal,Overijssel,VBO,6.933587,52.295881
Richtersmaatstraat,26,,,7574XB,Oldenzaal,Oldenzaal,Overijssel,VBO,6.933703,52.295871
Richtersmaatstraat,28,,,7574XB,Oldenzaal,Oldenzaal,Overijssel,VBO,6.933863,52.295832
Richtersmaatstraat,30,,,7574XB,Oldenzaal,Oldenzaal,Overijssel,VBO,6.933951,52.295822
Richtersmaatstraat,32,,,7574XB,Oldenzaal,Oldenzaal,Overijssel,VBO,6.934054,52.295821
Richtersmaatstraat,34,,,7574XB,Oldenzaal,Oldenzaal,Overijssel,VBO,6.934812,52.295712
Richtersmaatstraat,36,,,7574XB,Oldenzaal,Oldenzaal,Overijssel,VBO,6.935031,52.295682
Richtersmaatstraat,11,,,7574XC,Oldenzaal,Oldenzaal,Overijssel,VBO,6.932471,52.295842
Richtersmaatstraat,13,,,7574XC,Oldenzaal,Oldenzaal,Overijssel,VBO,6.932618,52.295867
Richtersmaatstraat,15,,,7574XC,Oldenzaal,Oldenzaal,Overijssel,VBO,6.932752,52.295919
Richtersmaatstraat,17,,,7574XC,Oldenzaal,Oldenzaal,Overijssel,VBO,6.932884,52.295926
Richtersmaatstraat,19,,,7574XC,Oldenzaal,Oldenzaal,Overijssel,VBO,6.933034,52.296005
Richtersmaatstraat,21,,,7574XC,Oldenzaal,Oldenzaal,Overijssel,VBO,6.933225,52.296039
J.H. Molkenboerstraat,40,,,7574XD,Oldenzaal,Oldenzaal,Overijssel,VBO,6.933825,52.296827
J.H. Molkenboerstraat,42,,,7574XD,Oldenzaal,Oldenzaal,Overijssel,VBO,6.933930,52.296488
J.H. Molkenboerstraat,60,,GR1,7574XD,Oldenzaal,Oldenzaal,Overijssel,VBO,6.933170,52.295581
J.H. Molkenboerstraat,60,,GR10,7574XD,Oldenzaal,Oldenzaal,Overijssel,VBO,6.933524,52.295395
J.H. Molkenboerstraat,60,,GR11,7574XD,Oldenzaal,Oldenzaal,Overijssel,VBO,6.933586,52.295415
J.H. Molkenboerstraat,60,,GR12,7574XD,Oldenzaal,Oldenzaal,Overijssel,VBO,6.933546,52.295447
J.H. Molkenboerstraat,60,,GR13,7574XD,Oldenzaal,Oldenzaal,Overijssel,VBO,6.933609,52.295467
J.H. Molkenboerstraat,60,,GR14,7574XD,Oldenzaal,Oldenzaal,Overijssel,VBO,6.933565,52.295501
J.H. Molkenboerstraat,60,,GR15,7574XD,Oldenzaal,Oldenzaal,Overijssel,VBO,6.933631,52.295518
J.H. Molkenboerstraat,60,,GR16,7574XD,Oldenzaal,Oldenzaal,Overijssel,VBO,6.933593,52.295552
J.H. Molkenboerstraat,60,,GR17,7574XD,Oldenzaal,Oldenzaal,Overijssel,VBO,6.933656,52.295570
J.H. Molkenboerstraat,60,,GR18,7574XD,Oldenzaal,Oldenzaal,Overijssel,VBO,6.933609,52.295606
J.H. Molkenboerstraat,60,,GR2,7574XD,Oldenzaal,Oldenzaal,Overijssel,VBO,6.933150,52.295544
J.H. Molkenboerstraat,60,,GR3,7574XD,Oldenzaal,Oldenzaal,Overijssel,VBO,6.933212,52.295531
J.H. Molkenboerstraat,60,,GR4,7574XD,Oldenzaal,Oldenzaal,Overijssel,VBO,6.933189,52.295492
J.H. Molkenboerstraat,60,,GR5,7574XD,Oldenzaal,Oldenzaal,Overijssel,VBO,6.933255,52.295484
J.H. Molkenboerstraat,60,,GR6,7574XD,Oldenzaal,Oldenzaal,Overijssel,VBO,6.933226,52.295443
J.H. Molkenboerstraat,60,,GR7,7574XD,Oldenzaal,Oldenzaal,Overijssel,VBO,6.933293,52.295436
J.H. Molkenboerstraat,60,,GR8,7574XD,Oldenzaal,Oldenzaal,Overijssel,VBO,6.933267,52.295396
J.H. Molkenboerstraat,60,,GR9,7574XD,Oldenzaal,Oldenzaal,Overijssel,VBO,6.933559,52.295361
J.H. Molkenboerstraat,62,,,7574XD,Oldenzaal,Oldenzaal,Overijssel,VBO,6.933912,52.295544
J.H. Molkenboerstraat,64,,,7574XD,Oldenzaal,Oldenzaal,Overijssel,VBO,6.933914,52.295476
J.H. Molkenboerstraat,66,,,7574XD,Oldenzaal,Oldenzaal,Overijssel,VBO,6.933889,52.295433
J.H. Molkenboerstraat,68,,,7574XD,Oldenzaal,Oldenzaal,Overijssel,VBO,6.933871,52.295374
J.H. Molkenboerstraat,70,,,7574XD,Oldenzaal,Oldenzaal,Overijssel,VBO,6.933849,52.295330
J.H. Molkenboerstraat,72,,,7574XD,Oldenzaal,Oldenzaal,Overijssel,VBO,6.933800,52.295243
J.H. Molkenboerstraat,74,,,7574XD,Oldenzaal,Oldenzaal,Overijssel,VBO,6.933769,52.295198
J.H. Molkenboerstraat,76,,,7574XD,Oldenzaal,Oldenzaal,Overijssel,VBO,6.933756,52.295149
J.H. Molkenboerstraat,78,,,7574XD,Oldenzaal,Oldenzaal,Overijssel,VBO,6.933711,52.295093
J.H. Molkenboerstraat,80,,,7574XD,Oldenzaal,Oldenzaal,Overijssel,VBO,6.933673,52.295044
J.H. Molkenboerstraat,82,,,7574XD,Oldenzaal,Oldenzaal,Overijssel,VBO,6.933639,52.294993
J.H. Molkenboerstraat,2,,,7574XE,Oldenzaal,Oldenzaal,Overijssel,VBO,6.934442,52.297722
J.H. Molkenboerstraat,4,,,7574XE,Oldenzaal,Oldenzaal,Overijssel,VBO,6.934456,52.297666
J.H. Molkenboerstraat,6,,,7574XE,Oldenzaal,Oldenzaal,Overijssel,VBO,6.934454,52.297620
J.H. Molkenboerstraat,8,,,7574XE,Oldenzaal,Oldenzaal,Overijssel,VBO,6.934479,52.297574
J.H. Molkenboerstraat,10,,,7574XE,Oldenzaal,Oldenzaal,Overijssel,VBO,6.934489,52.297514
J.H. Molkenboerstraat,12,,,7574XE,Oldenzaal,Oldenzaal,Overijssel,VBO,6.934428,52.297317
J.H. Molkenboerstraat,14,,,7574XE,Oldenzaal,Oldenzaal,Overijssel,VBO,6.934426,52.297263
J.H. Molkenboerstraat,16,,,7574XE,Oldenzaal,Oldenzaal,Overijssel,VBO,6.934410,52.297210
J.H. Molkenboerstraat,18,,,7574XE,Oldenzaal,Oldenzaal,Overijssel,VBO,6.934415,52.297159
J.H. Molkenboerstraat,20,,,7574XE,Oldenzaal,Oldenzaal,Overijssel,VBO,6.934391,52.297102
J.H. Molkenboerstraat,22,,,7574XE,Oldenzaal,Oldenzaal,Overijssel,VBO,6.934390,52.297048
J.H. Molkenboerstraat,24,,,7574XE,Oldenzaal,Oldenzaal,Overijssel,VBO,6.934391,52.297005
J.H. Molkenboerstraat,26,,,7574XE,Oldenzaal,Oldenzaal,Overijssel,VBO,6.934375,52.296948
J.H. Molkenboerstraat,28,,,7574XE,Oldenzaal,Oldenzaal,Overijssel,VBO,6.934351,52.296756
J.H. Molkenboerstraat,30,,,7574XE,Oldenzaal,Oldenzaal,Overijssel,VBO,6.934251,52.296770
J.H. Molkenboerstraat,32,,,7574XE,Oldenzaal,Oldenzaal,Overijssel,VBO,6.934163,52.296775
J.H. Molkenboerstraat,34,,,7574XE,Oldenzaal,Oldenzaal,Overijssel,VBO,6.934073,52.296783
J.H. Molkenboerstraat,36,,,7574XE,Oldenzaal,Oldenzaal,Overijssel,VBO,6.933990,52.296797
J.H. Molkenboerstraat,38,,,7574XE,Oldenzaal,Oldenzaal,Overijssel,VBO,6.933912,52.296808
J.H. Molkenboerstraat,57,,,7574XG,Oldenzaal,Oldenzaal,Overijssel,VBO,6.934448,52.295780
J.H. Molkenboerstraat,59,,,7574XG,Oldenzaal,Oldenzaal,Overijssel,VBO,6.934415,52.295663
J.H. Molkenboerstraat,61,,,7574XG,Oldenzaal,Oldenzaal,Overijssel,VBO,6.934382,52.295556
J.H. Molkenboerstraat,63,,,7574XG,Oldenzaal,Oldenzaal,Overijssel,VBO,6.934319,52.295431
J.H. Molkenboerstraat,65,,,7574XG,Oldenzaal,Oldenzaal,Overijssel,VBO,6.934269,52.295279
J.H. Molkenboerstraat,69,,,7574XG,Oldenzaal,Oldenzaal,Overijssel,VBO,6.934206,52.295154
J.H. Molkenboerstraat,71,,,7574XG,Oldenzaal,Oldenzaal,Overijssel,VBO,6.934143,52.295029
J.H. Molkenboerstraat,73,,,7574XG,Oldenzaal,Oldenzaal,Overijssel,VBO,6.934097,52.294975
J.H. Molkenboerstraat,75,,,7574XG,Oldenzaal,Oldenzaal,Overijssel,VBO,6.934006,52.294869
J.H. Molkenboerstraat,77,,,7574XG,Oldenzaal,Oldenzaal,Overijssel,VBO,6.933975,52.294815
J.H. Molkenboerstraat,79,,,7574XG,Oldenzaal,Oldenzaal,Overijssel,VBO,6.933886,52.294734
J.H. Molkenboerstraat,81,,,7574XG,Oldenzaal,Oldenzaal,Overijssel,VBO,6.933823,52.294664
J.H. Molkenboerstraat,83,,,7574XG,Oldenzaal,Oldenzaal,Overijssel,VBO,6.933761,52.294566
J.H. Molkenboerstraat,29,,,7574XH,Oldenzaal,Oldenzaal,Overijssel,VBO,6.934789,52.296737
J.H. Molkenboerstraat,31,,,7574XH,Oldenzaal,Oldenzaal,Overijssel,VBO,6.934773,52.296684
J.H. Molkenboerstraat,33,,,7574XH,Oldenzaal,Oldenzaal,Overijssel,VBO,6.934740,52.296594
J.H. Molkenboerstraat,35,,,7574XH,Oldenzaal,Oldenzaal,Overijssel,VBO,6.934724,52.296540
J.H. Molkenboerstraat,37,,,7574XH,Oldenzaal,Oldenzaal,Overijssel,VBO,6.934706,52.296451
J.H. Molkenboerstraat,39,,,7574XH,Oldenzaal,Oldenzaal,Overijssel,VBO,6.934689,52.296397
J.H. Molkenboerstraat,41,,,7574XH,Oldenzaal,Oldenzaal,Overijssel,VBO,6.934657,52.296307
J.H. Molkenboerstraat,43,,,7574XH,Oldenzaal,Oldenzaal,Overijssel,VBO,6.934640,52.296254
J.H. Molkenboerstraat,45,,,7574XH,Oldenzaal,Oldenzaal,Overijssel,VBO,6.934608,52.296173
J.H. Molkenboerstraat,47,,,7574XH,Oldenzaal,Oldenzaal,Overijssel,VBO,6.934577,52.296120
J.H. Molkenboerstraat,49,,,7574XH,Oldenzaal,Oldenzaal,Overijssel,VBO,6.934544,52.296021
J.H. Molkenboerstraat,1,a,GR1,7574XJ,Oldenzaal,Oldenzaal,Overijssel,VBO,6.935321,52.297828
J.H. Molkenboerstraat,1,a,GR2,7574XJ,Oldenzaal,Oldenzaal,Overijssel,VBO,6.935361,52.297796
J.H. Molkenboerstraat,1,a,GR3,7574XJ,Oldenzaal,Oldenzaal,Overijssel,VBO,6.935307,52.297774
J.H. Molkenboerstraat,1,a,GR4,7574XJ,Oldenzaal,Oldenzaal,Overijssel,VBO,6.935351,52.297740
J.H. Molkenboerstraat,1,a,GR5,7574XJ,Oldenzaal,Oldenzaal,Overijssel,VBO,6.935289,52.297721
J.H. Molkenboerstraat,1,a,GR6,7574XJ,Oldenzaal,Oldenzaal,Overijssel,VBO,6.935330,52.297690
J.H. Molkenboerstraat,1,a,GR7,7574XJ,Oldenzaal,Oldenzaal,Overijssel,VBO,6.935271,52.297670
J.H. Molkenboerstraat,1,a,GR8,7574XJ,Oldenzaal,Oldenzaal,Overijssel,VBO,6.935315,52.297634
J.H. Molkenboerstraat,1,,,7574XJ,Oldenzaal,Oldenzaal,Overijssel,VBO,6.934897,52.297734
J.H. Molkenboerstraat,3,,,7574XJ,Oldenzaal,Oldenzaal,Overijssel,VBO,6.934910,52.297680
J.H. Molkenboerstraat,5,,,7574XJ,Oldenzaal,Oldenzaal,Overijssel,VBO,6.934908,52.297617
J.H. Molkenboerstraat,7,,,7574XJ,Oldenzaal,Oldenzaal,Overijssel,VBO,6.934906,52.297554
J.H. Molkenboerstraat,9,,,7574XJ,Oldenzaal,Oldenzaal,Overijssel,VBO,6.934931,52.297437
J.H. Molkenboerstraat,11,,,7574XJ,Oldenzaal,Oldenzaal,Overijssel,VBO,6.934929,52.297383
J.H. Molkenboerstraat,13,,,7574XJ,Oldenzaal,Oldenzaal,Overijssel,VBO,6.934927,52.297329
J.H. Molkenboerstraat,15,,,7574XJ,Oldenzaal,Oldenzaal,Overijssel,VBO,6.934925,52.297266
J.H. Molkenboerstraat,17,,,7574XJ,Oldenzaal,Oldenzaal,Overijssel,VBO,6.934922,52.297176
J.H. Molkenboerstraat,19,,,7574XJ,Oldenzaal,Oldenzaal,Overijssel,VBO,6.934919,52.297104
J.H. Molkenboerstraat,21,,,7574XJ,Oldenzaal,Oldenzaal,Overijssel,VBO,6.934902,52.297023
J.H. Molkenboerstraat,23,,,7574XJ,Oldenzaal,Oldenzaal,Overijssel,VBO,6.934885,52.296961
J.H. Molkenboerstraat,25,,,7574XJ,Oldenzaal,Oldenzaal,Overijssel,VBO,6.934912,52.296889
J.H. Molkenboerstraat,27,,,7574XJ,Oldenzaal,Oldenzaal,Overijssel,VBO,6.934822,52.296827
S.I. Zwartzstraat,2,,,7574XK,Oldenzaal,Oldenzaal,Overijssel,VBO,6.932968,52.297530
S.I. Zwartzstraat,4,,,7574XK,Oldenzaal,Oldenzaal,Overijssel,VBO,6.932998,52.297485
S.I. Zwartzstraat,6,,,7574XK,Oldenzaal,Oldenzaal,Overijssel,VBO,6.933011,52.297427
S.I. Zwartzstraat,8,,,7574XK,Oldenzaal,Oldenzaal,Overijssel,VBO,6.933026,52.297370
S.I. Zwartzstraat,10,a,GR1,7574XK,Oldenzaal,Oldenzaal,Overijssel,VBO,6.933038,52.297249
S.I. Zwartzstraat,10,a,GR10,7574XK,Oldenzaal,Oldenzaal,Overijssel,VBO,6.932644,52.297248
S.I. Zwartzstraat,10,a,GR11,7574XK,Oldenzaal,Oldenzaal,Overijssel,VBO,6.932613,52.297208
S.I. Zwartzstraat,10,a,GR12,7574XK,Oldenzaal,Oldenzaal,Overijssel,VBO,6.932601,52.297128
S.I. Zwartzstraat,10,a,GR13,7574XK,Oldenzaal,Oldenzaal,Overijssel,VBO,6.932645,52.297093
S.I. Zwartzstraat,10,a,GR14,7574XK,Oldenzaal,Oldenzaal,Overijssel,VBO,6.932688,52.297125
S.I. Zwartzstraat,10,a,GR15,7574XK,Oldenzaal,Oldenzaal,Overijssel,VBO,6.932731,52.297082
S.I. Zwartzstraat,10,a,GR16,7574XK,Oldenzaal,Oldenzaal,Overijssel,VBO,6.932775,52.297121
S.I. Zwartzstraat,10,a,GR17,7574XK,Oldenzaal,Oldenzaal,Overijssel,VBO,6.932843,52.297081
S.I. Zwartzstraat,10,a,GR18,7574XK,Oldenzaal,Oldenzaal,Overijssel,VBO,6.932887,52.297123
S.I. Zwartzstraat,10,a,GR19,7574XK,Oldenzaal,Oldenzaal,Overijssel,VBO,6.932929,52.297085
S.I. Zwartzstraat,10,a,GR2,7574XK,Oldenzaal,Oldenzaal,Overijssel,VBO,6.932983,52.297281
S.I. Zwartzstraat,10,a,GR20,7574XK,Oldenzaal,Oldenzaal,Overijssel,VBO,6.932969,52.297123
S.I. Zwartzstraat,10,a,GR21,7574XK,Oldenzaal,Oldenzaal,Overijssel,VBO,6.933016,52.297087
S.I. Zwartzstraat,10,a,GR22,7574XK,Oldenzaal,Oldenzaal,Overijssel,VBO,6.933058,52.297128
S.I. Zwartzstraat,10,a,GR3,7574XK,Oldenzaal,Oldenzaal,Overijssel,VBO,6.932951,52.297243
S.I. Zwartzstraat,10,a,GR4,7574XK,Oldenzaal,Oldenzaal,Overijssel,VBO,6.932899,52.297274
S.I. Zwartzstraat,10,a,GR5,7574XK,Oldenzaal,Oldenzaal,Overijssel,VBO,6.932864,52.297234
S.I. Zwartzstraat,10,a,GR6,7574XK,Oldenzaal,Oldenzaal,Overijssel,VBO,6.932810,52.297267
S.I. Zwartzstraat,10,a,GR7,7574XK,Oldenzaal,Oldenzaal,Overijssel,VBO,6.932778,52.297224
S.I. Zwartzstraat,10,a,GR8,7574XK,Oldenzaal,Oldenzaal,Overijssel,VBO,6.932731,52.297258
S.I. Zwartzstraat,10,a,GR9,7574XK,Oldenzaal,Oldenzaal,Overijssel,VBO,6.932694,52.297217
S.I. Zwartzstraat,10,a,TR,7574XK,Oldenzaal,Oldenzaal,Overijssel,VBO,6.933079,52.297259
S.I. Zwartzstraat,10,,,7574XK,Oldenzaal,Oldenzaal,Overijssel,VBO,6.933038,52.297323
S.I. Zwartzstraat,12,,,7574XK,Oldenzaal,Oldenzaal,Overijssel,VBO,6.933066,52.297051
S.I. Zwartzstraat,14,,,7574XK,Oldenzaal,Oldenzaal,Overijssel,VBO,6.933072,52.296996
S.I. Zwartzstraat,16,,,7574XK,Oldenzaal,Oldenzaal,Overijssel,VBO,6.933064,52.296939
S.I. Zwartzstraat,18,,,7574XK,Oldenzaal,Oldenzaal,Overijssel,VBO,6.933082,52.296891
S.I. Zwartzstraat,20,,,7574XK,Oldenzaal,Oldenzaal,Overijssel,VBO,6.933080,52.296833
S.I. Zwartzstraat,22,,,7574XK,Oldenzaal,Oldenzaal,Overijssel,VBO,6.933084,52.296785
S.I. Zwartzstraat,24,,,7574XK,Oldenzaal,Oldenzaal,Overijssel,VBO,6.933083,52.296724
S.I. Zwartzstraat,26,,,7574XK,Oldenzaal,Oldenzaal,Overijssel,VBO,6.933097,52.296681
S.I. Zwartzstraat,28,,,7574XK,Oldenzaal,Oldenzaal,Overijssel,VBO,6.933085,52.296572
S.I. Zwartzstraat,30,,,7574XK,Oldenzaal,Oldenzaal,Overijssel,VBO,6.933094,52.296523
S.I. Zwartzstraat,32,,,7574XK,Oldenzaal,Oldenzaal,Overijssel,VBO,6.933105,52.296465
S.I. Zwartzstraat,34,,,7574XK,Oldenzaal,Oldenzaal,Overijssel,VBO,6.933106,52.296411
S.I. Zwartzstraat,36,,,7574XK,Oldenzaal,Oldenzaal,Overijssel,VBO,6.933101,52.296364
S.I. Zwartzstraat,38,,,7574XK,Oldenzaal,Oldenzaal,Overijssel,VBO,6.933115,52.296306
S.I. Zwartzstraat,40,,,7574XK,Oldenzaal,Oldenzaal,Overijssel,VBO,6.933111,52.296257
S.I. Zwartzstraat,3,,,7574XL,Oldenzaal,Oldenzaal,Overijssel,VBO,6.933487,52.297226
S.I. Zwartzstraat,5,,,7574XL,Oldenzaal,Oldenzaal,Overijssel,VBO,6.933490,52.297170
S.I. Zwartzstraat,7,,,7574XL,Oldenzaal,Oldenzaal,Overijssel,VBO,6.933492,52.297109
S.I. Zwartzstraat,9,,,7574XL,Oldenzaal,Oldenzaal,Overijssel,VBO,6.933502,52.297059
S.I. Zwartzstraat,11,,,7574XL,Oldenzaal,Oldenzaal,Overijssel,VBO,6.933494,52.297006
S.I. Zwartzstraat,13,,,7574XL,Oldenzaal,Oldenzaal,Overijssel,VBO,6.933500,52.296940
S.I. Zwartzstraat,15,,,7574XL,Oldenzaal,Oldenzaal,Overijssel,VBO,6.933526,52.296904
S.I. Zwartzstraat,17,,,7574XL,Oldenzaal,Oldenzaal,Overijssel,VBO,6.933513,52.296851
Dellenbeekstraat,76,,,7574XM,Oldenzaal,Oldenzaal,Overijssel,VBO,6.933003,52.294691
Dellenbeekstraat,78,,,7574XM,Oldenzaal,Oldenzaal,Overijssel,VBO,6.933044,52.294640
Dellenbeekstraat,80,,,7574XM,Oldenzaal,Oldenzaal,Overijssel,VBO,6.933080,52.294596
Dellenbeekstraat,82,,,7574XM,Oldenzaal,Oldenzaal,Overijssel,VBO,6.933124,52.294544
Dellenbeekstraat,84,,,7574XM,Oldenzaal,Oldenzaal,Overijssel,VBO,6.933167,52.294493
Dellenbeekstraat,86,,,7574XM,Oldenzaal,Oldenzaal,Overijssel,VBO,6.933210,52.294445
Dellenbeekstraat,88,,,7574XM,Oldenzaal,Oldenzaal,Overijssel,VBO,6.933317,52.294372
Dellenbeekstraat,90,,,7574XM,Oldenzaal,Oldenzaal,Overijssel,VBO,6.933387,52.294347
Dellenbeekstraat,92,,,7574XM,Oldenzaal,Oldenzaal,Overijssel,VBO,6.933459,52.294319
Dellenbeekstraat,94,,,7574XM,Oldenzaal,Oldenzaal,Overijssel,VBO,6.933531,52.294300
Dellenbeekstraat,96,,,7574XM,Oldenzaal,Oldenzaal,Overijssel,VBO,6.933639,52.294266
Dellenbeekstraat,98,,,7574XM,Oldenzaal,Oldenzaal,Overijssel,VBO,6.933690,52.294235
Dellenbeekstraat,52,,,7574XN,Oldenzaal,Oldenzaal,Overijssel,VBO,6.932468,52.295321
Dellenbeekstraat,54,,,7574XN,Oldenzaal,Oldenzaal,Overijssel,VBO,6.932480,52.295266
Dellenbeekstraat,56,,,7574XN,Oldenzaal,Oldenzaal,Overijssel,VBO,6.932508,52.295221
Dellenbeekstraat,58,,,7574XN,Oldenzaal,Oldenzaal,Overijssel,VBO,6.932571,52.295180
Dellenbeekstraat,60,,,7574XN,Oldenzaal,Oldenzaal,Overijssel,VBO,6.932619,52.295134
Dellenbeekstraat,62,,,7574XN,Oldenzaal,Oldenzaal,Overijssel,VBO,6.932668,52.295081
Dellenbeekstraat,64,,,7574XN,Oldenzaal,Oldenzaal,Overijssel,VBO,6.932739,52.295003
Dellenbeekstraat,66,,,7574XN,Oldenzaal,Oldenzaal,Overijssel,VBO,6.932775,52.294953
Dellenbeekstraat,68,,,7574XN,Oldenzaal,Oldenzaal,Overijssel,VBO,6.932819,52.294904
Dellenbeekstraat,70,,,7574XN,Oldenzaal,Oldenzaal,Overijssel,VBO,6.932859,52.294863
Dellenbeekstraat,72,,,7574XN,Oldenzaal,Oldenzaal,Overijssel,VBO,6.932899,52.294818
Dellenbeekstraat,74,,,7574XN,Oldenzaal,Oldenzaal,Overijssel,VBO,6.932941,52.294772
Dellenbeekstraat,30,,,7574XP,Oldenzaal,Oldenzaal,Overijssel,VBO,6.931866,52.296567
Dellenbeekstraat,32,,,7574XP,Oldenzaal,Oldenzaal,Overijssel,VBO,6.931798,52.296574
Dellenbeekstraat,34,,,7574XP,Oldenzaal,Oldenzaal,Overijssel,VBO,6.931974,52.296316
Dellenbeekstraat,36,,,7574XP,Oldenzaal,Oldenzaal,Overijssel,VBO,6.931887,52.296326
Dellenbeekstraat,38,,,7574XP,Oldenzaal,Oldenzaal,Overijssel,VBO,6.931828,52.296327
Dellenbeekstraat,40,,,7574XP,Oldenzaal,Oldenzaal,Overijssel,VBO,6.931725,52.296328
Dellenbeekstraat,42,,,7574XP,Oldenzaal,Oldenzaal,Overijssel,VBO,6.931922,52.296092
Dellenbeekstraat,44,,,7574XP,Oldenzaal,Oldenzaal,Overijssel,VBO,6.931835,52.296093
Dellenbeekstraat,46,,,7574XP,Oldenzaal,Oldenzaal,Overijssel,VBO,6.931732,52.296103
Dellenbeekstraat,48,,,7574XP,Oldenzaal,Oldenzaal,Overijssel,VBO,6.931659,52.296113
Dellenbeekstraat,2,,,7574XR,Oldenzaal,Oldenzaal,Overijssel,VBO,6.932258,52.297310
Dellenbeekstraat,4,,,7574XR,Oldenzaal,Oldenzaal,Overijssel,VBO,6.932170,52.297320
Dellenbeekstraat,6,,,7574XR,Oldenzaal,Oldenzaal,Overijssel,VBO,6.932083,52.297330
Dellenbeekstraat,8,,,7574XR,Oldenzaal,Oldenzaal,Overijssel,VBO,6.932025,52.297340
Dellenbeekstraat,10,,,7574XR,Oldenzaal,Oldenzaal,Overijssel,VBO,6.932190,52.297050
Dellenbeekstraat,12,,,7574XR,Oldenzaal,Oldenzaal,Overijssel,VBO,6.932103,52.297069
Dellenbeekstraat,14,,,7574XR,Oldenzaal,Oldenzaal,Overijssel,VBO,6.932030,52.297070
Dellenbeekstraat,16,,,7574XR,Oldenzaal,Oldenzaal,Overijssel,VBO,6.931942,52.297089
Dellenbeekstraat,18,,,7574XR,Oldenzaal,Oldenzaal,Overijssel,VBO,6.932109,52.296817
Dellenbeekstraat,20,,,7574XR,Oldenzaal,Oldenzaal,Overijssel,VBO,6.932035,52.296809
Dellenbeekstraat,22,,,7574XR,Oldenzaal,Oldenzaal,Overijssel,VBO,6.931948,52.296828
Dellenbeekstraat,24,,,7574XR,Oldenzaal,Oldenzaal,Overijssel,VBO,6.931862,52.296831
Dellenbeekstraat,26,,,7574XR,Oldenzaal,Oldenzaal,Overijssel,VBO,6.932042,52.296575
Dellenbeekstraat,28,,,7574XR,Oldenzaal,Oldenzaal,Overijssel,VBO,6.931969,52.296594
Dellenbeekstraat,47,,,7574XS,Oldenzaal,Oldenzaal,Overijssel,VBO,6.932838,52.295432
Dellenbeekstraat,49,,,7574XS,Oldenzaal,Oldenzaal,Overijssel,VBO,6.932880,52.295387
Dellenbeekstraat,51,,,7574XS,Oldenzaal,Oldenzaal,Overijssel,VBO,6.932922,52.295332
Dellenbeekstraat,53,,,7574XS,Oldenzaal,Oldenzaal,Overijssel,VBO,6.932974,52.295304
Dellenbeekstraat,55,,,7574XS,Oldenzaal,Oldenzaal,Overijssel,VBO,6.933017,52.295252
Dellenbeekstraat,57,,,7574XS,Oldenzaal,Oldenzaal,Overijssel,VBO,6.933081,52.295179
Dellenbeekstraat,59,,,7574XS,Oldenzaal,Oldenzaal,Overijssel,VBO,6.933131,52.295132
Dellenbeekstraat,61,,,7574XS,Oldenzaal,Oldenzaal,Overijssel,VBO,6.933169,52.295078
Dellenbeekstraat,63,,,7574XS,Oldenzaal,Oldenzaal,Overijssel,VBO,6.933205,52.295023
Dellenbeekstraat,65,,,7574XS,Oldenzaal,Oldenzaal,Overijssel,VBO,6.933248,52.294987
Dellenbeekstraat,67,,,7574XS,Oldenzaal,Oldenzaal,Overijssel,VBO,6.933362,52.294877
Dellenbeekstraat,69,,,7574XS,Oldenzaal,Oldenzaal,Overijssel,VBO,6.933430,52.294851
Dellenbeekstraat,71,,,7574XS,Oldenzaal,Oldenzaal,Overijssel,VBO,6.933511,52.294824
Dellenbeekstraat,1,,,7574XT,Oldenzaal,Oldenzaal,Overijssel,VBO,6.932560,52.297484
Dellenbeekstraat,3,,,7574XT,Oldenzaal,Oldenzaal,Overijssel,VBO,6.932573,52.297431
Dellenbeekstraat,5,,,7574XT,Oldenzaal,Oldenzaal,Overijssel,VBO,6.932591,52.297384
Dellenbeekstraat,7,,,7574XT,Oldenzaal,Oldenzaal,Overijssel,VBO,6.932611,52.297336
Dellenbeekstraat,9,,,7574XT,Oldenzaal,Oldenzaal,Overijssel,VBO,6.932607,52.297285
Dellenbeekstraat,11,,,7574XT,Oldenzaal,Oldenzaal,Overijssel,VBO,6.932584,52.297057
Dellenbeekstraat,13,,,7574XT,Oldenzaal,Oldenzaal,Overijssel,VBO,6.932577,52.297009
Dellenbeekstraat,15,,,7574XT,Oldenzaal,Oldenzaal,Overijssel,VBO,6.932568,52.296958
Dellenbeekstraat,17,,,7574XT,Oldenzaal,Oldenzaal,Overijssel,VBO,6.932555,52.296902
Dellenbeekstraat,19,,,7574XT,Oldenzaal,Oldenzaal,Overijssel,VBO,6.932540,52.296845
Dellenbeekstraat,21,,,7574XT,Oldenzaal,Oldenzaal,Overijssel,VBO,6.932527,52.296793
Dellenbeekstraat,23,,,7574XT,Oldenzaal,Oldenzaal,Overijssel,VBO,6.932503,52.296741
Dellenbeekstraat,25,,,7574XT,Oldenzaal,Oldenzaal,Overijssel,VBO,6.932505,52.296687
Dellenbeekstraat,27,,,7574XT,Oldenzaal,Oldenzaal,Overijssel,VBO,6.932478,52.296627
Dellenbeekstraat,29,,,7574XT,Oldenzaal,Oldenzaal,Overijssel,VBO,6.932450,52.296541
Dellenbeekstraat,31,,,7574XT,Oldenzaal,Oldenzaal,Overijssel,VBO,6.932444,52.296487
Dellenbeekstraat,33,,,7574XT,Oldenzaal,Oldenzaal,Overijssel,VBO,6.932429,52.296433
Dellenbeekstraat,35,,,7574XT,Oldenzaal,Oldenzaal,Overijssel,VBO,6.932413,52.296384
Dellenbeekstraat,37,,,7574XT,Oldenzaal,Oldenzaal,Overijssel,VBO,6.932408,52.296335
Dellenbeekstraat,39,,,7574XT,Oldenzaal,Oldenzaal,Overijssel,VBO,6.932394,52.296283
Dellenbeekstraat,41,,,7574XT,Oldenzaal,Oldenzaal,Overijssel,VBO,6.932379,52.296235
Dellenbeekstraat,43,,,7574XT,Oldenzaal,Oldenzaal,Overijssel,VBO,6.932365,52.296178
Dellenbeekstraat,45,,,7574XT,Oldenzaal,Oldenzaal,Overijssel,VBO,6.932346,52.296123
Tichelstraat,2,,,7574XV,Oldenzaal,Oldenzaal,Overijssel,VBO,6.933411,52.297605
Tichelstraat,4,,,7574XV,Oldenzaal,Oldenzaal,Overijssel,VBO,6.933419,52.297559
Tichelstraat,6,,,7574XV,Oldenzaal,Oldenzaal,Overijssel,VBO,6.933435,52.297507
Tichelstraat,8,,,7574XV,Oldenzaal,Oldenzaal,Overijssel,VBO,6.933452,52.297455
Tichelstraat,10,,,7574XV,Oldenzaal,Oldenzaal,Overijssel,VBO,6.933449,52.297402
Tichelstraat,12,,,7574XV,Oldenzaal,Oldenzaal,Overijssel,VBO,6.933735,52.297632
Tichelstraat,14,,,7574XV,Oldenzaal,Oldenzaal,Overijssel,VBO,6.933766,52.297590
Tichelstraat,16,,,7574XV,Oldenzaal,Oldenzaal,Overijssel,VBO,6.933776,52.297542
Tichelstraat,18,,,7574XV,Oldenzaal,Oldenzaal,Overijssel,VBO,6.933789,52.297490
Tichelstraat,20,,,7574XV,Oldenzaal,Oldenzaal,Overijssel,VBO,6.933815,52.297451
Tichelstraat,22,,,7574XV,Oldenzaal,Oldenzaal,Overijssel,VBO,6.934103,52.297675
Tichelstraat,24,,,7574XV,Oldenzaal,Oldenzaal,Overijssel,VBO,6.934116,52.297627
Tichelstraat,26,,,7574XV,Oldenzaal,Oldenzaal,Overijssel,VBO,6.934132,52.297581
Tichelstraat,28,,,7574XV,Oldenzaal,Oldenzaal,Overijssel,VBO,6.934148,52.297531
Tichelstraat,30,,,7574XV,Oldenzaal,Oldenzaal,Overijssel,VBO,6.934160,52.297482
Tichelstraat,73,,,7574XW,Oldenzaal,Oldenzaal,Overijssel,VBO,6.933819,52.297931
Tichelstraat,75,,,7574XW,Oldenzaal,Oldenzaal,Overijssel,VBO,6.933807,52.297961
Tichelstraat,77,,,7574XW,Oldenzaal,Oldenzaal,Overijssel,VBO,6.933797,52.297995
Tichelstraat,79,,,7574XW,Oldenzaal,Oldenzaal,Overijssel,VBO,6.933952,52.297944
Tichelstraat,81,,,7574XW,Oldenzaal,Oldenzaal,Overijssel,VBO,6.933943,52.297975
Tichelstraat,83,,,7574XW,Oldenzaal,Oldenzaal,Overijssel,VBO,6.933933,52.298005
Tichelstraat,85,,,7574XW,Oldenzaal,Oldenzaal,Overijssel,VBO,6.934038,52.297957
Tichelstraat,87,,,7574XW,Oldenzaal,Oldenzaal,Overijssel,VBO,6.934032,52.297989
Tichelstraat,89,,,7574XW,Oldenzaal,Oldenzaal,Overijssel,VBO,6.934021,52.298019
Tichelstraat,91,,,7574XW,Oldenzaal,Oldenzaal,Overijssel,VBO,6.934162,52.297972
Tichelstraat,93,,,7574XW,Oldenzaal,Oldenzaal,Overijssel,VBO,6.934154,52.298000
Tichelstraat,95,,,7574XW,Oldenzaal,Oldenzaal,Overijssel,VBO,6.934145,52.298030
Tichelstraat,97,,,7574XW,Oldenzaal,Oldenzaal,Overijssel,VBO,6.934258,52.297981
Tichelstraat,99,,,7574XW,Oldenzaal,Oldenzaal,Overijssel,VBO,6.934252,52.298009
Tichelstraat,101,,,7574XW,Oldenzaal,Oldenzaal,Overijssel,VBO,6.934239,52.298039
Tichelstraat,103,,,7574XW,Oldenzaal,Oldenzaal,Overijssel,VBO,6.934392,52.297993
Tichelstraat,105,,,7574XW,Oldenzaal,Oldenzaal,Overijssel,VBO,6.934384,52.298020
Tichelstraat,107,,,7574XW,Oldenzaal,Oldenzaal,Overijssel,VBO,6.934377,52.298049
Tichelstraat,37,,,7574XX,Oldenzaal,Oldenzaal,Overijssel,VBO,6.932906,52.297834
Tichelstraat,39,,,7574XX,Oldenzaal,Oldenzaal,Overijssel,VBO,6.932894,52.297860
Tichelstraat,41,,,7574XX,Oldenzaal,Oldenzaal,Overijssel,VBO,6.932895,52.297895
Tichelstraat,43,,,7574XX,Oldenzaal,Oldenzaal,Overijssel,VBO,6.933039,52.297847
Tichelstraat,45,,,7574XX,Oldenzaal,Oldenzaal,Overijssel,VBO,6.933032,52.297874
Tichelstraat,47,,,7574XX,Oldenzaal,Oldenzaal,Overijssel,VBO,6.933027,52.297910
Tichelstraat,49,,,7574XX,Oldenzaal,Oldenzaal,Overijssel,VBO,6.933124,52.297859
Tichelstraat,51,,,7574XX,Oldenzaal,Oldenzaal,Overijssel,VBO,6.933119,52.297888
Tichelstraat,53,,,7574XX,Oldenzaal,Oldenzaal,Overijssel,VBO,6.933113,52.297917
Tichelstraat,55,,,7574XX,Oldenzaal,Oldenzaal,Overijssel,VBO,6.933256,52.297877
Tichelstraat,57,,,7574XX,Oldenzaal,Oldenzaal,Overijssel,VBO,6.933250,52.297909
Tichelstraat,59,,,7574XX,Oldenzaal,Oldenzaal,Overijssel,VBO,6.933240,52.297933
Tichelstraat,61,,,7574XX,Oldenzaal,Oldenzaal,Overijssel,VBO,6.933347,52.297883
Tichelstraat,63,,,7574XX,Oldenzaal,Oldenzaal,Overijssel,VBO,6.933329,52.297912
Tichelstraat,65,,,7574XX,Oldenzaal,Oldenzaal,Overijssel,VBO,6.933326,52.297944
Tichelstraat,67,,,7574XX,Oldenzaal,Oldenzaal,Overijssel,VBO,6.933472,52.297896
Tichelstraat,69,,,7574XX,Oldenzaal,Oldenzaal,Overijssel,VBO,6.933467,52.297923
Tichelstraat,71,,,7574XX,Oldenzaal,Oldenzaal,Overijssel,VBO,6.933456,52.297955
Tichelstraat,1,,,7574XZ,Oldenzaal,Oldenzaal,Overijssel,VBO,6.932001,52.297736
Tichelstraat,3,,,7574XZ,Oldenzaal,Oldenzaal,Overijssel,VBO,6.931993,52.297772
Tichelstraat,5,,,7574XZ,Oldenzaal,Oldenzaal,Overijssel,VBO,6.931984,52.297805
Tichelstraat,7,,,7574XZ,Oldenzaal,Oldenzaal,Overijssel,VBO,6.932134,52.297750
Tichelstraat,9,,,7574XZ,Oldenzaal,Oldenzaal,Overijssel,VBO,6.932123,52.297784
Tichelstraat,11,,,7574XZ,Oldenzaal,Oldenzaal,Overijssel,VBO,6.932116,52.297821
Tichelstraat,13,,,7574XZ,Oldenzaal,Oldenzaal,Overijssel,VBO,6.932221,52.297757
Tichelstraat,15,,,7574XZ,Oldenzaal,Oldenzaal,Overijssel,VBO,6.932210,52.297787
Tichelstraat,17,,,7574XZ,Oldenzaal,Oldenzaal,Overijssel,VBO,6.932208,52.297823
Tichelstraat,19,,,7574XZ,Oldenzaal,Oldenzaal,Overijssel,VBO,6.932357,52.297774
Tichelstraat,21,,,7574XZ,Oldenzaal,Oldenzaal,Overijssel,VBO,6.932345,52.297810
Tichelstraat,23,,,7574XZ,Oldenzaal,Oldenzaal,Overijssel,VBO,6.932334,52.297838
Tichelstraat,25,,,7574XZ,Oldenzaal,Oldenzaal,Overijssel,VBO,6.932446,52.297782
Tichelstraat,27,,,7574XZ,Oldenzaal,Oldenzaal,Overijssel,VBO,6.932435,52.297813
Tichelstraat,29,,,7574XZ,Oldenzaal,Oldenzaal,Overijssel,VBO,6.932430,52.297847
Tichelstraat,31,,,7574XZ,Oldenzaal,Oldenzaal,Overijssel,VBO,6.932572,52.297800
Tichelstraat,33,,,7574XZ,Oldenzaal,Oldenzaal,Overijssel,VBO,6.932565,52.297833
Tichelstraat,35,,,7574XZ,Oldenzaal,Oldenzaal,Overijssel,VBO,6.932552,52.297864
Burgemeester Eekhoutstraat,38,,,7574ZA,Oldenzaal,Oldenzaal,Overijssel,VBO,6.934310,52.298982
Burgemeester Eekhoutstraat,40,,,7574ZA,Oldenzaal,Oldenzaal,Overijssel,VBO,6.934377,52.298792
Burgemeester Eekhoutstraat,42,,,7574ZA,Oldenzaal,Oldenzaal,Overijssel,VBO,6.934375,52.298738
Burgemeester Eekhoutstraat,44,,,7574ZA,Oldenzaal,Oldenzaal,Overijssel,VBO,6.934358,52.298676
Burgemeester Eekhoutstraat,46,,,7574ZA,Oldenzaal,Oldenzaal,Overijssel,VBO,6.934401,52.298628
Burgemeester Eekhoutstraat,48,,,7574ZA,Oldenzaal,Oldenzaal,Overijssel,VBO,6.934384,52.298567
Burgemeester Eekhoutstraat,50,,,7574ZA,Oldenzaal,Oldenzaal,Overijssel,VBO,6.934397,52.298513
Burgemeester Eekhoutstraat,2,,,7574ZB,Oldenzaal,Oldenzaal,Overijssel,VBO,6.932903,52.299827
Burgemeester Eekhoutstraat,4,,,7574ZB,Oldenzaal,Oldenzaal,Overijssel,VBO,6.933005,52.299826
Burgemeester Eekhoutstraat,6,,,7574ZB,Oldenzaal,Oldenzaal,Overijssel,VBO,6.933082,52.299825
Burgemeester Eekhoutstraat,8,,,7574ZB,Oldenzaal,Oldenzaal,Overijssel,VBO,6.933169,52.299830
Burgemeester Eekhoutstraat,10,,,7574ZB,Oldenzaal,Oldenzaal,Overijssel,VBO,6.933258,52.299829
Burgemeester Eekhoutstraat,12,,,7574ZB,Oldenzaal,Oldenzaal,Overijssel,VBO,6.933338,52.299824
Burgemeester Eekhoutstraat,14,,,7574ZB,Oldenzaal,Oldenzaal,Overijssel,VBO,6.933442,52.299828
Burgemeester Eekhoutstraat,16,,,7574ZB,Oldenzaal,Oldenzaal,Overijssel,VBO,6.933526,52.299826
Burgemeester Eekhoutstraat,18,,,7574ZB,Oldenzaal,Oldenzaal,Overijssel,VBO,6.933663,52.299772
Burgemeester Eekhoutstraat,20,,,7574ZB,Oldenzaal,Oldenzaal,Overijssel,VBO,6.933765,52.299753
Burgemeester Eekhoutstraat,22,,,7574ZB,Oldenzaal,Oldenzaal,Overijssel,VBO,6.933925,52.299697
Burgemeester Eekhoutstraat,24,,,7574ZB,Oldenzaal,Oldenzaal,Overijssel,VBO,6.933982,52.299651
Burgemeester Eekhoutstraat,26,,,7574ZB,Oldenzaal,Oldenzaal,Overijssel,VBO,6.934039,52.299606
Burgemeester Eekhoutstraat,28,,,7574ZB,Oldenzaal,Oldenzaal,Overijssel,VBO,6.934096,52.299560
Burgemeester Eekhoutstraat,30,,,7574ZB,Oldenzaal,Oldenzaal,Overijssel,VBO,6.934153,52.299505
Burgemeester Eekhoutstraat,32,,,7574ZB,Oldenzaal,Oldenzaal,Overijssel,VBO,6.934195,52.299460
Burgemeester Eekhoutstraat,34,a,,7574ZB,Oldenzaal,Oldenzaal,Overijssel,VBO,6.934244,52.299180
Burgemeester Eekhoutstraat,34,,,7574ZB,Oldenzaal,Oldenzaal,Overijssel,VBO,6.934232,52.299261
Burgemeester Eekhoutstraat,36,,,7574ZB,Oldenzaal,Oldenzaal,Overijssel,VBO,6.934313,52.299063
Burgemeester Eekhoutstraat,43,,,7574ZC,Oldenzaal,Oldenzaal,Overijssel,VBO,6.934744,52.299219
Burgemeester Eekhoutstraat,45,,,7574ZC,Oldenzaal,Oldenzaal,Overijssel,VBO,6.934757,52.299165
Burgemeester Eekhoutstraat,47,,,7574ZC,Oldenzaal,Oldenzaal,Overijssel,VBO,6.934755,52.299111
Burgemeester Eekhoutstraat,49,,,7574ZC,Oldenzaal,Oldenzaal,Overijssel,VBO,6.934752,52.299048
Burgemeester Eekhoutstraat,51,,,7574ZC,Oldenzaal,Oldenzaal,Overijssel,VBO,6.934765,52.298994
Burgemeester Eekhoutstraat,53,,,7574ZC,Oldenzaal,Oldenzaal,Overijssel,VBO,6.934764,52.298949
Burgemeester Eekhoutstraat,55,,,7574ZC,Oldenzaal,Oldenzaal,Overijssel,VBO,6.934776,52.298886
Burgemeester Eekhoutstraat,57,,,7574ZC,Oldenzaal,Oldenzaal,Overijssel,VBO,6.934773,52.298787
Burgemeester Eekhoutstraat,59,,,7574ZC,Oldenzaal,Oldenzaal,Overijssel,VBO,6.934771,52.298733
Burgemeester Eekhoutstraat,61,,,7574ZC,Oldenzaal,Oldenzaal,Overijssel,VBO,6.934784,52.298679
Burgemeester Eekhoutstraat,63,,,7574ZC,Oldenzaal,Oldenzaal,Overijssel,VBO,6.934782,52.298625
Burgemeester Eekhoutstraat,65,,,7574ZC,Oldenzaal,Oldenzaal,Overijssel,VBO,6.934794,52.298571
Burgemeester Eekhoutstraat,67,,,7574ZC,Oldenzaal,Oldenzaal,Overijssel,VBO,6.934793,52.298517
Burgemeester Eekhoutstraat,1,,,7574ZD,Oldenzaal,Oldenzaal,Overijssel,VBO,6.933219,52.300066
Burgemeester Eekhoutstraat,3,,,7574ZD,Oldenzaal,Oldenzaal,Overijssel,VBO,6.933334,52.300069
Burgemeester Eekhoutstraat,5,,,7574ZD,Oldenzaal,Oldenzaal,Overijssel,VBO,6.933407,52.300066
Burgemeester Eekhoutstraat,7,,,7574ZD,Oldenzaal,Oldenzaal,Overijssel,VBO,6.933506,52.300071
Burgemeester Eekhoutstraat,9,,,7574ZD,Oldenzaal,Oldenzaal,Overijssel,VBO,6.933596,52.300074
Burgemeester Eekhoutstraat,11,,,7574ZD,Oldenzaal,Oldenzaal,Overijssel,VBO,6.933684,52.300078
Burgemeester Eekhoutstraat,13,,,7574ZD,Oldenzaal,Oldenzaal,Overijssel,VBO,6.933775,52.300076
Burgemeester Eekhoutstraat,15,,,7574ZD,Oldenzaal,Oldenzaal,Overijssel,VBO,6.933922,52.300034
Burgemeester Eekhoutstraat,17,,,7574ZD,Oldenzaal,Oldenzaal,Overijssel,VBO,6.934009,52.300003
Burgemeester Eekhoutstraat,19,,,7574ZD,Oldenzaal,Oldenzaal,Overijssel,VBO,6.934132,52.299942
Burgemeester Eekhoutstraat,21,,,7574ZD,Oldenzaal,Oldenzaal,Overijssel,VBO,6.934196,52.299918
Burgemeester Eekhoutstraat,23,,,7574ZD,Oldenzaal,Oldenzaal,Overijssel,VBO,6.934311,52.299798
Burgemeester Eekhoutstraat,25,,,7574ZD,Oldenzaal,Oldenzaal,Overijssel,VBO,6.934369,52.299752
Burgemeester Eekhoutstraat,27,,,7574ZD,Oldenzaal,Oldenzaal,Overijssel,VBO,6.934436,52.299704
Burgemeester Eekhoutstraat,29,,,7574ZD,Oldenzaal,Oldenzaal,Overijssel,VBO,6.934481,52.299664
Burgemeester Eekhoutstraat,31,,,7574ZD,Oldenzaal,Oldenzaal,Overijssel,VBO,6.934551,52.299590
Burgemeester Eekhoutstraat,33,,,7574ZD,Oldenzaal,Oldenzaal,Overijssel,VBO,6.934594,52.299553
Burgemeester Eekhoutstraat,35,,,7574ZD,Oldenzaal,Oldenzaal,Overijssel,VBO,6.934648,52.299487
Burgemeester Eekhoutstraat,37,,,7574ZD,Oldenzaal,Oldenzaal,Overijssel,VBO,6.934679,52.299453
Burgemeester Eekhoutstraat,41,,,7574ZD,Oldenzaal,Oldenzaal,Overijssel,VBO,6.934731,52.299282
J.H. Nieuwenhuisstraat,48,,,7574ZE,Oldenzaal,Oldenzaal,Overijssel,VBO,6.934876,52.297959
J.H. Nieuwenhuisstraat,50,,,7574ZE,Oldenzaal,Oldenzaal,Overijssel,VBO,6.935126,52.297973
J.H. Nieuwenhuisstraat,52,,,7574ZE,Oldenzaal,Oldenzaal,Overijssel,VBO,6.935243,52.297981
J.H. Nieuwenhuisstraat,54,,,7574ZE,Oldenzaal,Oldenzaal,Overijssel,VBO,6.935478,52.297996
J.H. Nieuwenhuisstraat,37,,,7574ZG,Oldenzaal,Oldenzaal,Overijssel,VBO,6.934022,52.298284
J.H. Nieuwenhuisstraat,39,,,7574ZG,Oldenzaal,Oldenzaal,Overijssel,VBO,6.934096,52.298292
J.H. Nieuwenhuisstraat,41,,,7574ZG,Oldenzaal,Oldenzaal,Overijssel,VBO,6.934199,52.298300
J.H. Nieuwenhuisstraat,43,,,7574ZG,Oldenzaal,Oldenzaal,Overijssel,VBO,6.934272,52.298308
J.H. Nieuwenhuisstraat,45,,,7574ZG,Oldenzaal,Oldenzaal,Overijssel,VBO,6.934375,52.298316
J.H. Nieuwenhuisstraat,47,,,7574ZG,Oldenzaal,Oldenzaal,Overijssel,VBO,6.934845,52.298346
J.H. Nieuwenhuisstraat,49,,,7574ZG,Oldenzaal,Oldenzaal,Overijssel,VBO,6.934963,52.298362
J.H. Nieuwenhuisstraat,51,,,7574ZG,Oldenzaal,Oldenzaal,Overijssel,VBO,6.935051,52.298361
J.H. Nieuwenhuisstraat,53,,,7574ZG,Oldenzaal,Oldenzaal,Overijssel,VBO,6.935125,52.298378
J.H. Nieuwenhuisstraat,55,,,7574ZG,Oldenzaal,Oldenzaal,Overijssel,VBO,6.935224,52.298368
J.H. Nieuwenhuisstraat,57,,,7574ZG,Oldenzaal,Oldenzaal,Overijssel,VBO,6.935330,52.298384
J.H. Nieuwenhuisstraat,1,,,7574ZH,Oldenzaal,Oldenzaal,Overijssel,VBO,6.931918,52.298060
J.H. Nieuwenhuisstraat,3,,,7574ZH,Oldenzaal,Oldenzaal,Overijssel,VBO,6.932021,52.298068
J.H. Nieuwenhuisstraat,5,,,7574ZH,Oldenzaal,Oldenzaal,Overijssel,VBO,6.932109,52.298085
J.H. Nieuwenhuisstraat,7,,,7574ZH,Oldenzaal,Oldenzaal,Overijssel,VBO,6.932197,52.298093
J.H. Nieuwenhuisstraat,9,,,7574ZH,Oldenzaal,Oldenzaal,Overijssel,VBO,6.932286,52.298100
J.H. Nieuwenhuisstraat,11,,,7574ZH,Oldenzaal,Oldenzaal,Overijssel,VBO,6.932359,52.298108
J.H. Nieuwenhuisstraat,13,,,7574ZH,Oldenzaal,Oldenzaal,Overijssel,VBO,6.932462,52.298125
J.H. Nieuwenhuisstraat,17,,,7574ZH,Oldenzaal,Oldenzaal,Overijssel,VBO,6.932904,52.298173
J.H. Nieuwenhuisstraat,19,,,7574ZH,Oldenzaal,Oldenzaal,Overijssel,VBO,6.933007,52.298181
J.H. Nieuwenhuisstraat,21,,,7574ZH,Oldenzaal,Oldenzaal,Overijssel,VBO,6.933213,52.298205
J.H. Nieuwenhuisstraat,23,,,7574ZH,Oldenzaal,Oldenzaal,Overijssel,VBO,6.933301,52.298213
J.H. Nieuwenhuisstraat,25,,,7574ZH,Oldenzaal,Oldenzaal,Overijssel,VBO,6.933389,52.298221
J.H. Nieuwenhuisstraat,27,,,7574ZH,Oldenzaal,Oldenzaal,Overijssel,VBO,6.933478,52.298229
J.H. Nieuwenhuisstraat,29,,,7574ZH,Oldenzaal,Oldenzaal,Overijssel,VBO,6.933566,52.298236
J.H. Nieuwenhuisstraat,31,,,7574ZH,Oldenzaal,Oldenzaal,Overijssel,VBO,6.933654,52.298244
J.H. Nieuwenhuisstraat,33,,,7574ZH,Oldenzaal,Oldenzaal,Overijssel,VBO,6.933831,52.298269
J.H. Nieuwenhuisstraat,35,,,7574ZH,Oldenzaal,Oldenzaal,Overijssel,VBO,6.933919,52.298277
Burgemeester Essinkstraat,2,a,,7574ZJ,Oldenzaal,Oldenzaal,Overijssel,VBO,6.931624,52.298794
Burgemeester Essinkstraat,2,,,7574ZJ,Oldenzaal,Oldenzaal,Overijssel,VBO,6.931667,52.298789
Burgemeester Essinkstraat,6,,,7574ZJ,Oldenzaal,Oldenzaal,Overijssel,VBO,6.932118,52.298750
Burgemeester Essinkstraat,14,,,7574ZJ,Oldenzaal,Oldenzaal,Overijssel,VBO,6.933013,52.298774
Burgemeester Essinkstraat,16,,,7574ZJ,Oldenzaal,Oldenzaal,Overijssel,VBO,6.933174,52.298781
Burgemeester Essinkstraat,18,,,7574ZJ,Oldenzaal,Oldenzaal,Overijssel,VBO,6.933365,52.298778
Burgemeester Essinkstraat,20,,,7574ZJ,Oldenzaal,Oldenzaal,Overijssel,VBO,6.933467,52.298777
Burgemeester Essinkstraat,22,,,7574ZJ,Oldenzaal,Oldenzaal,Overijssel,VBO,6.933541,52.298785
Burgemeester Essinkstraat,24,,,7574ZJ,Oldenzaal,Oldenzaal,Overijssel,VBO,6.933644,52.298784
Burgemeester Essinkstraat,26,,,7574ZJ,Oldenzaal,Oldenzaal,Overijssel,VBO,6.933732,52.298783
Burgemeester Essinkstraat,28,,,7574ZJ,Oldenzaal,Oldenzaal,Overijssel,VBO,6.933820,52.298790
Burgemeester Essinkstraat,30,,,7574ZJ,Oldenzaal,Oldenzaal,Overijssel,VBO,6.933908,52.298789
Burgemeester Essinkstraat,32,,,7574ZJ,Oldenzaal,Oldenzaal,Overijssel,VBO,6.934010,52.298788
Burgemeester Essinkstraat,34,,GR1,7574ZJ,Oldenzaal,Oldenzaal,Overijssel,VBO,6.933373,52.298472
Burgemeester Essinkstraat,34,,GR10,7574ZJ,Oldenzaal,Oldenzaal,Overijssel,VBO,6.933774,52.298458
Burgemeester Essinkstraat,34,,GR11,7574ZJ,Oldenzaal,Oldenzaal,Overijssel,VBO,6.933839,52.298499
Burgemeester Essinkstraat,34,,GR12,7574ZJ,Oldenzaal,Oldenzaal,Overijssel,VBO,6.933893,52.298464
Burgemeester Essinkstraat,34,,GR13,7574ZJ,Oldenzaal,Oldenzaal,Overijssel,VBO,6.933932,52.298502
Burgemeester Essinkstraat,34,,GR14,7574ZJ,Oldenzaal,Oldenzaal,Overijssel,VBO,6.933979,52.298472
Burgemeester Essinkstraat,34,,GR15,7574ZJ,Oldenzaal,Oldenzaal,Overijssel,VBO,6.934018,52.298510
Burgemeester Essinkstraat,34,,GR16,7574ZJ,Oldenzaal,Oldenzaal,Overijssel,VBO,6.934067,52.298476
Burgemeester Essinkstraat,34,,GR17,7574ZJ,Oldenzaal,Oldenzaal,Overijssel,VBO,6.934105,52.298514
Burgemeester Essinkstraat,34,,GR18,7574ZJ,Oldenzaal,Oldenzaal,Overijssel,VBO,6.934150,52.298481
Burgemeester Essinkstraat,34,,GR2,7574ZJ,Oldenzaal,Oldenzaal,Overijssel,VBO,6.933422,52.298438
Burgemeester Essinkstraat,34,,GR3,7574ZJ,Oldenzaal,Oldenzaal,Overijssel,VBO,6.933458,52.298475
Burgemeester Essinkstraat,34,,GR4,7574ZJ,Oldenzaal,Oldenzaal,Overijssel,VBO,6.933511,52.298444
Burgemeester Essinkstraat,34,,GR5,7574ZJ,Oldenzaal,Oldenzaal,Overijssel,VBO,6.933550,52.298480
Burgemeester Essinkstraat,34,,GR6,7574ZJ,Oldenzaal,Oldenzaal,Overijssel,VBO,6.933599,52.298450
Burgemeester Essinkstraat,34,,GR7,7574ZJ,Oldenzaal,Oldenzaal,Overijssel,VBO,6.933639,52.298488
Burgemeester Essinkstraat,34,,GR8,7574ZJ,Oldenzaal,Oldenzaal,Overijssel,VBO,6.933687,52.298456
Burgemeester Essinkstraat,34,,GR9,7574ZJ,Oldenzaal,Oldenzaal,Overijssel,VBO,6.933721,52.298492
Burgemeester Peese Binkhorststraat,7,,,7574ZL,Oldenzaal,Oldenzaal,Overijssel,VBO,6.933109,52.299420
Burgemeester Peese Binkhorststraat,9,,,7574ZL,Oldenzaal,Oldenzaal,Overijssel,VBO,6.933343,52.299417
Burgemeester Peese Binkhorststraat,13,,,7574ZL,Oldenzaal,Oldenzaal,Overijssel,VBO,6.933534,52.299423
Burgemeester Peese Binkhorststraat,15,,,7574ZL,Oldenzaal,Oldenzaal,Overijssel,VBO,6.933622,52.299422
Burgemeester Peese Binkhorststraat,17,,,7574ZL,Oldenzaal,Oldenzaal,Overijssel,VBO,6.933828,52.299438
Mariastraat,2,a,,7574ZM,Oldenzaal,Oldenzaal,Overijssel,VBO,6.932047,52.300522
Mariastraat,2,,,7574ZM,Oldenzaal,Oldenzaal,Overijssel,VBO,6.931938,52.300507
Mariastraat,4,,,7574ZM,Oldenzaal,Oldenzaal,Overijssel,VBO,6.932239,52.300564
Mariastraat,6,,,7574ZM,Oldenzaal,Oldenzaal,Overijssel,VBO,6.932328,52.300581
Mariastraat,10,,,7574ZM,Oldenzaal,Oldenzaal,Overijssel,VBO,6.932739,52.300602
Mariastraat,12,,,7574ZM,Oldenzaal,Oldenzaal,Overijssel,VBO,6.932990,52.300653
Mariastraat,14,,,7574ZM,Oldenzaal,Oldenzaal,Overijssel,VBO,6.933093,52.300652
Mariastraat,16,,,7574ZM,Oldenzaal,Oldenzaal,Overijssel,VBO,6.933399,52.300594
Mariastraat,18,,,7574ZM,Oldenzaal,Oldenzaal,Overijssel,VBO,6.933572,52.300529
Mariastraat,20,,,7574ZM,Oldenzaal,Oldenzaal,Overijssel,VBO,6.933660,52.300509
Mariastraat,22,,,7574ZM,Oldenzaal,Oldenzaal,Overijssel,VBO,6.933805,52.300472
Mariastraat,26,,,7574ZM,Oldenzaal,Oldenzaal,Overijssel,VBO,6.933964,52.300398
Mariastraat,28,,,7574ZM,Oldenzaal,Oldenzaal,Overijssel,VBO,6.934036,52.300379
Mariastraat,30,a,,7574ZM,Oldenzaal,Oldenzaal,Overijssel,VBO,6.934253,52.300286
Mariastraat,30,,,7574ZM,Oldenzaal,Oldenzaal,Overijssel,VBO,6.934167,52.300350
Mariastraat,32,,,7574ZM,Oldenzaal,Oldenzaal,Overijssel,VBO,6.934370,52.300266
Mariastraat,34,,,7574ZM,Oldenzaal,Oldenzaal,Overijssel,VBO,6.934573,52.300210
Mariastraat,1,,,7574ZN,Oldenzaal,Oldenzaal,Overijssel,VBO,6.931527,52.300744
Mariastraat,3,,,7574ZN,Oldenzaal,Oldenzaal,Overijssel,VBO,6.931866,52.300794
Mariastraat,5,,,7574ZN,Oldenzaal,Oldenzaal,Overijssel,VBO,6.931969,52.300810
Mariastraat,9,,,7574ZN,Oldenzaal,Oldenzaal,Overijssel,VBO,6.932162,52.300862
Mariastraat,11,,,7574ZN,Oldenzaal,Oldenzaal,Overijssel,VBO,6.932604,52.300919
Mariastraat,13,,,7574ZN,Oldenzaal,Oldenzaal,Overijssel,VBO,6.932707,52.300935
Mariastraat,15,,,7574ZN,Oldenzaal,Oldenzaal,Overijssel,VBO,6.933062,52.301039
Mariastraat,17,,,7574ZN,Oldenzaal,Oldenzaal,Overijssel,VBO,6.933800,52.300949
Mariastraat,19,,,7574ZN,Oldenzaal,Oldenzaal,Overijssel,VBO,6.933331,52.301179
Mariastraat,21,,,7574ZN,Oldenzaal,Oldenzaal,Overijssel,VBO,6.933406,52.301223
Mariastraat,23,,,7574ZN,Oldenzaal,Oldenzaal,Overijssel,VBO,6.933451,52.301258
Mariastraat,25,,,7574ZN,Oldenzaal,Oldenzaal,Overijssel,VBO,6.933586,52.301328
Mariastraat,29,,,7574ZN,Oldenzaal,Oldenzaal,Overijssel,VBO,6.933750,52.301416
Mariastraat,31,,,7574ZN,Oldenzaal,Oldenzaal,Overijssel,VBO,6.933809,52.301442
P.J. Geldermanstraat,90,,,7574ZP,Oldenzaal,Oldenzaal,Overijssel,VBO,6.932529,52.298780
P.J. Geldermanstraat,92,,,7574ZP,Oldenzaal,Oldenzaal,Overijssel,VBO,6.932526,52.298700
P.J. Geldermanstraat,94,,,7574ZP,Oldenzaal,Oldenzaal,Overijssel,VBO,6.932553,52.298618
P.J. Geldermanstraat,96,,,7574ZP,Oldenzaal,Oldenzaal,Overijssel,VBO,6.932505,52.298502
P.J. Geldermanstraat,98,,,7574ZP,Oldenzaal,Oldenzaal,Overijssel,VBO,6.932503,52.298448
P.J. Geldermanstraat,100,,,7574ZP,Oldenzaal,Oldenzaal,Overijssel,VBO,6.932487,52.298403
P.J. Geldermanstraat,102,,,7574ZP,Oldenzaal,Oldenzaal,Overijssel,VBO,6.932497,52.298340
P.J. Geldermanstraat,44,,,7574ZR,Oldenzaal,Oldenzaal,Overijssel,VBO,6.932429,52.300308
P.J. Geldermanstraat,46,,,7574ZR,Oldenzaal,Oldenzaal,Overijssel,VBO,6.932440,52.300242
P.J. Geldermanstraat,48,,,7574ZR,Oldenzaal,Oldenzaal,Overijssel,VBO,6.932432,52.300193
P.J. Geldermanstraat,50,,,7574ZR,Oldenzaal,Oldenzaal,Overijssel,VBO,6.932427,52.300049
P.J. Geldermanstraat,56,,,7574ZR,Oldenzaal,Oldenzaal,Overijssel,VBO,6.932453,52.299950
P.J. Geldermanstraat,58,,,7574ZR,Oldenzaal,Oldenzaal,Overijssel,VBO,6.932466,52.299905
P.J. Geldermanstraat,60,,,7574ZR,Oldenzaal,Oldenzaal,Overijssel,VBO,6.932504,52.299826
P.J. Geldermanstraat,62,,,7574ZR,Oldenzaal,Oldenzaal,Overijssel,VBO,6.932490,52.299761
P.J. Geldermanstraat,64,,,7574ZR,Oldenzaal,Oldenzaal,Overijssel,VBO,6.932516,52.299716
P.J. Geldermanstraat,66,,,7574ZR,Oldenzaal,Oldenzaal,Overijssel,VBO,6.932518,52.299668
P.J. Geldermanstraat,68,,,7574ZR,Oldenzaal,Oldenzaal,Overijssel,VBO,6.932542,52.299572
P.J. Geldermanstraat,70,,,7574ZR,Oldenzaal,Oldenzaal,Overijssel,VBO,6.932550,52.299518
P.J. Geldermanstraat,72,,,7574ZR,Oldenzaal,Oldenzaal,Overijssel,VBO,6.932553,52.299459
P.J. Geldermanstraat,74,,,7574ZR,Oldenzaal,Oldenzaal,Overijssel,VBO,6.932536,52.299401
P.J. Geldermanstraat,76,,,7574ZR,Oldenzaal,Oldenzaal,Overijssel,VBO,6.932560,52.299256
P.J. Geldermanstraat,80,,,7574ZR,Oldenzaal,Oldenzaal,Overijssel,VBO,6.932557,52.299158
P.J. Geldermanstraat,82,,,7574ZR,Oldenzaal,Oldenzaal,Overijssel,VBO,6.932553,52.299059
P.J. Geldermanstraat,84,,,7574ZR,Oldenzaal,Oldenzaal,Overijssel,VBO,6.932552,52.299005
P.J. Geldermanstraat,86,,,7574ZR,Oldenzaal,Oldenzaal,Overijssel,VBO,6.932550,52.298951
P.J. Geldermanstraat,2,,GR1,7574ZS,Oldenzaal,Oldenzaal,Overijssel,VBO,6.931166,52.302686
P.J. Geldermanstraat,2,,GR10,7574ZS,Oldenzaal,Oldenzaal,Overijssel,VBO,6.931271,52.302438
P.J. Geldermanstraat,2,,GR2,7574ZS,Oldenzaal,Oldenzaal,Overijssel,VBO,6.931129,52.302649
P.J. Geldermanstraat,2,,GR3,7574ZS,Oldenzaal,Oldenzaal,Overijssel,VBO,6.931197,52.302632
P.J. Geldermanstraat,2,,GR4,7574ZS,Oldenzaal,Oldenzaal,Overijssel,VBO,6.931158,52.302596
P.J. Geldermanstraat,2,,GR5,7574ZS,Oldenzaal,Oldenzaal,Overijssel,VBO,6.931217,52.302579
P.J. Geldermanstraat,2,,GR6,7574ZS,Oldenzaal,Oldenzaal,Overijssel,VBO,6.931177,52.302543
P.J. Geldermanstraat,2,,GR7,7574ZS,Oldenzaal,Oldenzaal,Overijssel,VBO,6.931243,52.302527
P.J. Geldermanstraat,2,,GR8,7574ZS,Oldenzaal,Oldenzaal,Overijssel,VBO,6.931201,52.302492
P.J. Geldermanstraat,2,,GR9,7574ZS,Oldenzaal,Oldenzaal,Overijssel,VBO,6.931272,52.302470
P.J. Geldermanstraat,4,,,7574ZS,Oldenzaal,Oldenzaal,Overijssel,VBO,6.931525,52.302380
P.J. Geldermanstraat,6,,,7574ZS,Oldenzaal,Oldenzaal,Overijssel,VBO,6.931523,52.302326
P.J. Geldermanstraat,8,,,7574ZS,Oldenzaal,Oldenzaal,Overijssel,VBO,6.931549,52.302227
P.J. Geldermanstraat,10,,,7574ZS,Oldenzaal,Oldenzaal,Overijssel,VBO,6.931532,52.302164
P.J. Geldermanstraat,12,,,7574ZS,Oldenzaal,Oldenzaal,Overijssel,VBO,6.931588,52.302074
P.J. Geldermanstraat,14,,,7574ZS,Oldenzaal,Oldenzaal,Overijssel,VBO,6.931615,52.302019
P.J. Geldermanstraat,16,,,7574ZS,Oldenzaal,Oldenzaal,Overijssel,VBO,6.931643,52.301965
P.J. Geldermanstraat,18,,,7574ZS,Oldenzaal,Oldenzaal,Overijssel,VBO,6.931699,52.301883
P.J. Geldermanstraat,20,,,7574ZS,Oldenzaal,Oldenzaal,Overijssel,VBO,6.931726,52.301838
P.J. Geldermanstraat,22,,,7574ZS,Oldenzaal,Oldenzaal,Overijssel,VBO,6.931782,52.301757
P.J. Geldermanstraat,24,,,7574ZS,Oldenzaal,Oldenzaal,Overijssel,VBO,6.931810,52.301702
P.J. Geldermanstraat,26,,,7574ZS,Oldenzaal,Oldenzaal,Overijssel,VBO,6.931865,52.301612
P.J. Geldermanstraat,28,,,7574ZS,Oldenzaal,Oldenzaal,Overijssel,VBO,6.931893,52.301566
P.J. Geldermanstraat,30,,,7574ZS,Oldenzaal,Oldenzaal,Overijssel,VBO,6.931949,52.301485
P.J. Geldermanstraat,32,,,7574ZS,Oldenzaal,Oldenzaal,Overijssel,VBO,6.931976,52.301430
P.J. Geldermanstraat,42,,,7574ZS,Oldenzaal,Oldenzaal,Overijssel,VBO,6.932393,52.300355
P.J. Geldermanstraat,29,,,7574ZT,Oldenzaal,Oldenzaal,Overijssel,VBO,6.932805,52.300377
P.J. Geldermanstraat,31,,,7574ZT,Oldenzaal,Oldenzaal,Overijssel,VBO,6.932827,52.300320
P.J. Geldermanstraat,33,,,7574ZT,Oldenzaal,Oldenzaal,Overijssel,VBO,6.932834,52.300274
P.J. Geldermanstraat,35,,,7574ZT,Oldenzaal,Oldenzaal,Overijssel,VBO,6.932836,52.300217
P.J. Geldermanstraat,37,,,7574ZT,Oldenzaal,Oldenzaal,Overijssel,VBO,6.932846,52.300165
P.J. Geldermanstraat,39,,,7574ZT,Oldenzaal,Oldenzaal,Overijssel,VBO,6.932853,52.300108
P.J. Geldermanstraat,41,,,7574ZT,Oldenzaal,Oldenzaal,Overijssel,VBO,6.932863,52.300070
P.J. Geldermanstraat,43,,,7574ZT,Oldenzaal,Oldenzaal,Overijssel,VBO,6.932947,52.299413
P.J. Geldermanstraat,57,,,7574ZT,Oldenzaal,Oldenzaal,Overijssel,VBO,6.932953,52.298748
P.J. Geldermanstraat,63,,,7574ZT,Oldenzaal,Oldenzaal,Overijssel,VBO,6.932901,52.298506
P.J. Geldermanstraat,65,,,7574ZT,Oldenzaal,Oldenzaal,Overijssel,VBO,6.932899,52.298452
P.J. Geldermanstraat,67,,,7574ZT,Oldenzaal,Oldenzaal,Overijssel,VBO,6.932897,52.298398
P.J. Geldermanstraat,1,a,TR,7574ZV,Oldenzaal,Oldenzaal,Overijssel,VBO,6.931975,52.302385
P.J. Geldermanstraat,1,a,,7574ZV,Oldenzaal,Oldenzaal,Overijssel,VBO,6.932154,52.302327
P.J. Geldermanstraat,1,b,,7574ZV,Oldenzaal,Oldenzaal,Overijssel,VBO,6.931945,52.302222
P.J. Geldermanstraat,1,c,,7574ZV,Oldenzaal,Oldenzaal,Overijssel,VBO,6.931958,52.302168
P.J. Geldermanstraat,1,,,7574ZV,Oldenzaal,Oldenzaal,Overijssel,VBO,6.932243,52.302344
P.J. Geldermanstraat,3,,,7574ZV,Oldenzaal,Oldenzaal,Overijssel,VBO,6.932042,52.302050
P.J. Geldermanstraat,5,,,7574ZV,Oldenzaal,Oldenzaal,Overijssel,VBO,6.932054,52.301996
P.J. Geldermanstraat,7,,,7574ZV,Oldenzaal,Oldenzaal,Overijssel,VBO,6.932125,52.301914
P.J. Geldermanstraat,9,,,7574ZV,Oldenzaal,Oldenzaal,Overijssel,VBO,6.932138,52.301860
P.J. Geldermanstraat,11,,,7574ZV,Oldenzaal,Oldenzaal,Overijssel,VBO,6.932193,52.301769
P.J. Geldermanstraat,13,,,7574ZV,Oldenzaal,Oldenzaal,Overijssel,VBO,6.932221,52.301715
P.J. Geldermanstraat,15,,,7574ZV,Oldenzaal,Oldenzaal,Overijssel,VBO,6.932248,52.301661
P.J. Geldermanstraat,17,,,7574ZV,Oldenzaal,Oldenzaal,Overijssel,VBO,6.932318,52.301570
P.J. Geldermanstraat,19,,,7574ZV,Oldenzaal,Oldenzaal,Overijssel,VBO,6.932346,52.301515
P.J. Geldermanstraat,21,,,7574ZV,Oldenzaal,Oldenzaal,Overijssel,VBO,6.932442,52.301334
P.J. Geldermanstraat,23,,,7574ZV,Oldenzaal,Oldenzaal,Overijssel,VBO,6.932510,52.301181
P.J. Geldermanstraat,25,,,7574ZV,Oldenzaal,Oldenzaal,Overijssel,VBO,6.932523,52.301136
Burgemeester Tegelstraat,1,,,7574ZX,Oldenzaal,Oldenzaal,Overijssel,VBO,6.931928,52.302573
Burgemeester Tegelstraat,3,,,7574ZX,Oldenzaal,Oldenzaal,Overijssel,VBO,6.931900,52.302627
Burgemeester Tegelstraat,5,,,7574ZX,Oldenzaal,Oldenzaal,Overijssel,VBO,6.931873,52.302681
Burgemeester Tegelstraat,7,,,7574ZX,Oldenzaal,Oldenzaal,Overijssel,VBO,6.931846,52.302745
Burgemeester Tegelstraat,9,,,7574ZX,Oldenzaal,Oldenzaal,Overijssel,VBO,6.931818,52.302799
J.W. Racerstraat,1,,,7574ZZ,Oldenzaal,Oldenzaal,Overijssel,VBO,6.931529,52.302497
J.W. Racerstraat,3,,,7574ZZ,Oldenzaal,Oldenzaal,Overijssel,VBO,6.931502,52.302560
J.W. Racerstraat,5,,,7574ZZ,Oldenzaal,Oldenzaal,Overijssel,VBO,6.931475,52.302624
J.W. Racerstraat,7,,,7574ZZ,Oldenzaal,Oldenzaal,Overijssel,VBO,6.931448,52.302678
J.W. Racerstraat,9,,,7574ZZ,Oldenzaal,Oldenzaal,Overijssel,VBO,6.931421,52.302741
