openbareruimtenaam,huisnummer,huisletter,huisnummertoevoeging,postcode,woonplaatsnaam,gemeentenaam,provincienaam,typeadresseerbaarobject,longitude,latitude
Wilgenstraat,50,,,7611AB,Aadorp,Almelo,Overijssel,VBO,6.631608,52.379723
Wilgenstraat,52,,,7611AB,Aadorp,Almelo,Overijssel,VBO,6.631650,52.379659
Wilgenstraat,54,,,7611AB,Aadorp,Almelo,Overijssel,VBO,6.631707,52.379569
Wilgenstraat,56,,,7611AB,Aadorp,Almelo,Overijssel,VBO,6.631734,52.379506
Wilgenstraat,58,,,7611AB,Aadorp,Almelo,Overijssel,VBO,6.631817,52.379334
Wilgenstraat,62,,,7611AB,Aadorp,Almelo,Overijssel,VBO,6.633678,52.378110
Wilgenstraat,66,a,,7611AB,Aadorp,Almelo,Overijssel,VBO,6.634808,52.375492
Wilgenstraat,66,b,,7611AB,Aadorp,Almelo,Overijssel,VBO,6.633328,52.375588
Wilgenstraat,66,,,7611AB,Aadorp,Almelo,Overijssel,VBO,6.634698,52.375779
Wilgenstraat,68,,,7611AB,Aadorp,Almelo,Overijssel,VBO,6.634737,52.375034
Wilgenstraat,72,,,7611AB,Aadorp,Almelo,Overijssel,VBO,6.635034,52.375166
Wilgenstraat,5,,,7611AC,Aadorp,Almelo,Overijssel,VBO,6.630198,52.382344
Wilgenstraat,7,,,7611AC,Aadorp,Almelo,Overijssel,VBO,6.630182,52.382300
Wilgenstraat,9,a,,7611AC,Aadorp,Almelo,Overijssel,VBO,6.630813,52.381736
Wilgenstraat,9,,,7611AC,Aadorp,Almelo,Overijssel,VBO,6.630486,52.382135
Wilgenstraat,11,a,,7611AC,Aadorp,Almelo,Overijssel,VBO,6.631011,52.381464
Wilgenstraat,11,b,,7611AC,Aadorp,Almelo,Overijssel,VBO,6.631081,52.381364
Wilgenstraat,11,,,7611AC,Aadorp,Almelo,Overijssel,VBO,6.630882,52.381609
Wilgenstraat,13,a,,7611AC,Aadorp,Almelo,Overijssel,VBO,6.631310,52.381146
Wilgenstraat,13,,,7611AC,Aadorp,Almelo,Overijssel,VBO,6.631181,52.381255
Wilgenstraat,15,,,7611AC,Aadorp,Almelo,Overijssel,VBO,6.631467,52.380992
Wilgenstraat,17,a,,7611AC,Aadorp,Almelo,Overijssel,VBO,6.631594,52.380811
Wilgenstraat,17,,,7611AC,Aadorp,Almelo,Overijssel,VBO,6.631495,52.380946
Wilgenstraat,19,,,7611AC,Aadorp,Almelo,Overijssel,VBO,6.631782,52.380674
Wilgenstraat,21,,,7611AC,Aadorp,Almelo,Overijssel,VBO,6.631837,52.380538
Wilgenstraat,23,,,7611AC,Aadorp,Almelo,Overijssel,VBO,6.631921,52.380394
Wilgenstraat,25,,,7611AC,Aadorp,Almelo,Overijssel,VBO,6.631975,52.380240
Wilgenstraat,27,,,7611AC,Aadorp,Almelo,Overijssel,VBO,6.632030,52.380114
Wilgenstraat,29,,,7611AC,Aadorp,Almelo,Overijssel,VBO,6.632069,52.379934
Wilgenstraat,31,,,7611AD,Aadorp,Almelo,Overijssel,VBO,6.632212,52.379779
Wilgenstraat,33,,,7611AD,Aadorp,Almelo,Overijssel,VBO,6.632222,52.379626
Wilgenstraat,35,,,7611AD,Aadorp,Almelo,Overijssel,VBO,6.632336,52.379490
Wilgenstraat,37,,,7611AD,Aadorp,Almelo,Overijssel,VBO,6.632420,52.379364
Wilgenstraat,39,,,7611AD,Aadorp,Almelo,Overijssel,VBO,6.632490,52.379219
Wilgenstraat,43,,,7611AD,Aadorp,Almelo,Overijssel,VBO,6.632734,52.379028
Wilgenstraat,45,,,7611AD,Aadorp,Almelo,Overijssel,VBO,6.632955,52.379053
Wilgenstraat,47,,,7611AD,Aadorp,Almelo,Overijssel,VBO,6.635282,52.375612
Wilgenstraat,49,,,7611AD,Aadorp,Almelo,Overijssel,VBO,6.635519,52.375187
Wilgenstraat,51,,,7611AD,Aadorp,Almelo,Overijssel,VBO,6.635858,52.374698
Wilgenstraat,53,,,7611AD,Aadorp,Almelo,Overijssel,VBO,6.636082,52.374310
Wilgenstraat,6,,,7611AE,Aadorp,Almelo,Overijssel,VBO,6.629852,52.382042
Wilgenstraat,8,,,7611AE,Aadorp,Almelo,Overijssel,VBO,6.629937,52.381952
Wilgenstraat,10,,,7611AE,Aadorp,Almelo,Overijssel,VBO,6.629951,52.381906
Wilgenstraat,12,,,7611AE,Aadorp,Almelo,Overijssel,VBO,6.630064,52.381770
Wilgenstraat,14,,,7611AE,Aadorp,Almelo,Overijssel,VBO,6.630136,52.381698
Wilgenstraat,16,,,7611AG,Aadorp,Almelo,Overijssel,VBO,6.630293,52.381543
Wilgenstraat,18,,,7611AG,Aadorp,Almelo,Overijssel,VBO,6.630378,52.381417
Wilgenstraat,20,,,7611AG,Aadorp,Almelo,Overijssel,VBO,6.630507,52.381307
Wilgenstraat,22,,,7611AG,Aadorp,Almelo,Overijssel,VBO,6.630664,52.381144
Wilgenstraat,24,,,7611AG,Aadorp,Almelo,Overijssel,VBO,6.630690,52.381027
Wilgenstraat,26,,,7611AG,Aadorp,Almelo,Overijssel,VBO,6.630791,52.380963
Wilgenstraat,28,,,7611AG,Aadorp,Almelo,Overijssel,VBO,6.630862,52.380890
Wilgenstraat,30,,,7611AG,Aadorp,Almelo,Overijssel,VBO,6.630918,52.380773
Wilgenstraat,32,,,7611AG,Aadorp,Almelo,Overijssel,VBO,6.631047,52.380673
Wilgenstraat,38,,,7611AG,Aadorp,Almelo,Overijssel,VBO,6.631189,52.380509
Wilgenstraat,42,,,7611AG,Aadorp,Almelo,Overijssel,VBO,6.631484,52.380021
Wilgenstraat,44,,,7611AG,Aadorp,Almelo,Overijssel,VBO,6.631498,52.379976
Wilgenstraat,46,,,7611AG,Aadorp,Almelo,Overijssel,VBO,6.631553,52.379867
Wilgenstraat,48,,,7611AG,Aadorp,Almelo,Overijssel,VBO,6.631581,52.379804
Kastanjelaan,3,,,7611AH,Aadorp,Almelo,Overijssel,VBO,6.628071,52.377720
Kastanjelaan,5,,,7611AH,Aadorp,Almelo,Overijssel,VBO,6.628337,52.377798
Kastanjelaan,7,,,7611AH,Aadorp,Almelo,Overijssel,VBO,6.628486,52.377850
Kastanjelaan,11,,,7611AH,Aadorp,Almelo,Overijssel,VBO,6.628753,52.377937
Kastanjelaan,15,a,,7611AH,Aadorp,Almelo,Overijssel,VBO,6.629287,52.378147
Kastanjelaan,15,b,,7611AH,Aadorp,Almelo,Overijssel,VBO,6.629508,52.378181
Kastanjelaan,15,,,7611AH,Aadorp,Almelo,Overijssel,VBO,6.628976,52.378034
Kastanjelaan,17,a,,7611AH,Aadorp,Almelo,Overijssel,VBO,6.629910,52.378356
Kastanjelaan,17,,,7611AH,Aadorp,Almelo,Overijssel,VBO,6.629613,52.378243
Kastanjelaan,19,a,,7611AH,Aadorp,Almelo,Overijssel,VBO,6.630341,52.378532
Kastanjelaan,19,,,7611AH,Aadorp,Almelo,Overijssel,VBO,6.630148,52.378480
Kastanjelaan,21,a,,7611AH,Aadorp,Almelo,Overijssel,VBO,6.630714,52.378600
Kastanjelaan,21,,,7611AH,Aadorp,Almelo,Overijssel,VBO,6.630571,52.378532
Kastanjelaan,23,a,,7611AH,Aadorp,Almelo,Overijssel,VBO,6.630993,52.378741
Kastanjelaan,23,,,7611AH,Aadorp,Almelo,Overijssel,VBO,6.630879,52.378649
Kastanjelaan,25,a,,7611AH,Aadorp,Almelo,Overijssel,VBO,6.631363,52.378854
Kastanjelaan,25,,,7611AH,Aadorp,Almelo,Overijssel,VBO,6.631201,52.378810
Kastanjelaan,27,,,7611AH,Aadorp,Almelo,Overijssel,VBO,6.631555,52.378896
Kastanjelaan,29,,,7611AH,Aadorp,Almelo,Overijssel,VBO,6.631719,52.378985
Kastanjelaan,31,,,7611AH,Aadorp,Almelo,Overijssel,VBO,6.631912,52.379054
Kastanjelaan,2,,,7611AJ,Aadorp,Almelo,Overijssel,VBO,6.627968,52.377208
Kastanjelaan,4,a,,7611AJ,Aadorp,Almelo,Overijssel,VBO,6.628296,52.377358
Kastanjelaan,4,,,7611AJ,Aadorp,Almelo,Overijssel,VBO,6.628132,52.377279
Kastanjelaan,6,,,7611AJ,Aadorp,Almelo,Overijssel,VBO,6.628489,52.377437
Kastanjelaan,8,,,7611AJ,Aadorp,Almelo,Overijssel,VBO,6.628682,52.377497
Kastanjelaan,10,,,7611AJ,Aadorp,Almelo,Overijssel,VBO,6.628874,52.377558
Kastanjelaan,12,,,7611AJ,Aadorp,Almelo,Overijssel,VBO,6.629095,52.377592
Kastanjelaan,14,,,7611AJ,Aadorp,Almelo,Overijssel,VBO,6.629364,52.377751
Kastanjelaan,16,,,7611AJ,Aadorp,Almelo,Overijssel,VBO,6.629631,52.377847
Kastanjelaan,18,,,7611AJ,Aadorp,Almelo,Overijssel,VBO,6.629898,52.377925
Kastanjelaan,22,,,7611AJ,Aadorp,Almelo,Overijssel,VBO,6.630120,52.377995
Kastanjelaan,24,,,7611AJ,Aadorp,Almelo,Overijssel,VBO,6.630298,52.378065
Kastanjelaan,26,,,7611AJ,Aadorp,Almelo,Overijssel,VBO,6.630477,52.378135
Kastanjelaan,28,,,7611AJ,Aadorp,Almelo,Overijssel,VBO,6.630565,52.378161
Kastanjelaan,30,,,7611AK,Aadorp,Almelo,Overijssel,VBO,6.630714,52.378222
Kastanjelaan,32,,,7611AK,Aadorp,Almelo,Overijssel,VBO,6.630788,52.378257
Kastanjelaan,34,,,7611AK,Aadorp,Almelo,Overijssel,VBO,6.630877,52.378283
Kastanjelaan,36,,,7611AK,Aadorp,Almelo,Overijssel,VBO,6.630966,52.378309
Kastanjelaan,38,,,7611AK,Aadorp,Almelo,Overijssel,VBO,6.631100,52.378362
Kastanjelaan,40,,,7611AK,Aadorp,Almelo,Overijssel,VBO,6.631218,52.378388
Kastanjelaan,42,,,7611AK,Aadorp,Almelo,Overijssel,VBO,6.631307,52.378423
Kastanjelaan,44,,,7611AK,Aadorp,Almelo,Overijssel,VBO,6.631381,52.378449
Kastanjelaan,46,,,7611AK,Aadorp,Almelo,Overijssel,VBO,6.631500,52.378502
Kastanjelaan,48,,,7611AK,Aadorp,Almelo,Overijssel,VBO,6.631590,52.378546
Kastanjelaan,50,,,7611AK,Aadorp,Almelo,Overijssel,VBO,6.631679,52.378572
Kastanjelaan,52,,,7611AK,Aadorp,Almelo,Overijssel,VBO,6.631752,52.378589
Kastanjelaan,54,,,7611AK,Aadorp,Almelo,Overijssel,VBO,6.632019,52.378658
Kastanjelaan,56,,,7611AK,Aadorp,Almelo,Overijssel,VBO,6.632241,52.378709
Berkenlaan,1,,,7611AL,Aadorp,Almelo,Overijssel,VBO,6.627055,52.378171
Berkenlaan,3,,,7611AL,Aadorp,Almelo,Overijssel,VBO,6.627173,52.378178
Berkenlaan,5,a,,7611AL,Aadorp,Almelo,Overijssel,VBO,6.627441,52.378301
Berkenlaan,5,,,7611AL,Aadorp,Almelo,Overijssel,VBO,6.627366,52.378266
Berkenlaan,7,,,7611AL,Aadorp,Almelo,Overijssel,VBO,6.627576,52.378417
Berkenlaan,9,,,7611AL,Aadorp,Almelo,Overijssel,VBO,6.627815,52.378531
Berkenlaan,11,,,7611AL,Aadorp,Almelo,Overijssel,VBO,6.627964,52.378638
Berkenlaan,13,,,7611AL,Aadorp,Almelo,Overijssel,VBO,6.628158,52.378734
Berkenlaan,15,,,7611AL,Aadorp,Almelo,Overijssel,VBO,6.628336,52.378813
Berkenlaan,17,,,7611AL,Aadorp,Almelo,Overijssel,VBO,6.628501,52.378920
Berkenlaan,29,,,7611AL,Aadorp,Almelo,Overijssel,VBO,6.629200,52.379245
Berkenlaan,31,,,7611AL,Aadorp,Almelo,Overijssel,VBO,6.629365,52.379351
Berkenlaan,35,,,7611AL,Aadorp,Almelo,Overijssel,VBO,6.629678,52.379518
Berkenlaan,39,,,7611AL,Aadorp,Almelo,Overijssel,VBO,6.630006,52.379686
Berkenlaan,41,,,7611AL,Aadorp,Almelo,Overijssel,VBO,6.630199,52.379765
Berkenlaan,43,,,7611AL,Aadorp,Almelo,Overijssel,VBO,6.630378,52.379853
Berkenlaan,45,a,,7611AL,Aadorp,Almelo,Overijssel,VBO,6.630651,52.379969
Berkenlaan,45,,,7611AL,Aadorp,Almelo,Overijssel,VBO,6.630579,52.379926
Berkenlaan,47,,,7611AL,Aadorp,Almelo,Overijssel,VBO,6.630824,52.380055
Berkenlaan,49,,,7611AL,Aadorp,Almelo,Overijssel,VBO,6.631063,52.380196
Berkenlaan,51,,,7611AL,Aadorp,Almelo,Overijssel,VBO,6.631317,52.380328
Berkenlaan,2,a,,7611AM,Aadorp,Almelo,Overijssel,VBO,6.627654,52.378039
Berkenlaan,2,,,7611AM,Aadorp,Almelo,Overijssel,VBO,6.627476,52.377986
Berkenlaan,4,,,7611AM,Aadorp,Almelo,Overijssel,VBO,6.627788,52.378100
Berkenlaan,6,,,7611AM,Aadorp,Almelo,Overijssel,VBO,6.627937,52.378197
Berkenlaan,8,,,7611AM,Aadorp,Almelo,Overijssel,VBO,6.628012,52.378224
Berkenlaan,10,,,7611AM,Aadorp,Almelo,Overijssel,VBO,6.628176,52.378321
Berkenlaan,12,,,7611AM,Aadorp,Almelo,Overijssel,VBO,6.628265,52.378365
Berkenlaan,14,,,7611AM,Aadorp,Almelo,Overijssel,VBO,6.628385,52.378444
Berkenlaan,16,,,7611AM,Aadorp,Almelo,Overijssel,VBO,6.628489,52.378488
Berkenlaan,18,,,7611AM,Aadorp,Almelo,Overijssel,VBO,6.628609,52.378568
Berkenlaan,20,,,7611AM,Aadorp,Almelo,Overijssel,VBO,6.628698,52.378612
Berkenlaan,22,,,7611AM,Aadorp,Almelo,Overijssel,VBO,6.628862,52.378709
Berkenlaan,24,,,7611AM,Aadorp,Almelo,Overijssel,VBO,6.628936,52.378735
Berkenlaan,26,,,7611AM,Aadorp,Almelo,Overijssel,VBO,6.629010,52.378752
Berkenlaan,28,,,7611AM,Aadorp,Almelo,Overijssel,VBO,6.629056,52.378797
Berkenlaan,30,,,7611AM,Aadorp,Almelo,Overijssel,VBO,6.629190,52.378876
Berkenlaan,32,,,7611AM,Aadorp,Almelo,Overijssel,VBO,6.629294,52.378902
Berkenlaan,34,,,7611AM,Aadorp,Almelo,Overijssel,VBO,6.629353,52.378938
Berkenlaan,36,a,,7611AN,Aadorp,Almelo,Overijssel,VBO,6.629547,52.379025
Berkenlaan,36,b,,7611AN,Aadorp,Almelo,Overijssel,VBO,6.629622,52.379079
Berkenlaan,36,,,7611AN,Aadorp,Almelo,Overijssel,VBO,6.629413,52.378964
Berkenlaan,38,a,,7611AN,Aadorp,Almelo,Overijssel,VBO,6.629845,52.379184
Berkenlaan,38,,,7611AN,Aadorp,Almelo,Overijssel,VBO,6.629756,52.379149
Berkenlaan,40,,,7611AN,Aadorp,Almelo,Overijssel,VBO,6.629950,52.379264
Berkenlaan,42,,,7611AN,Aadorp,Almelo,Overijssel,VBO,6.630025,52.379299
Berkenlaan,44,,,7611AN,Aadorp,Almelo,Overijssel,VBO,6.630188,52.379369
Berkenlaan,46,,,7611AN,Aadorp,Almelo,Overijssel,VBO,6.630248,52.379405
Berkenlaan,48,,,7611AN,Aadorp,Almelo,Overijssel,VBO,6.630367,52.379475
Berkenlaan,50,,,7611AN,Aadorp,Almelo,Overijssel,VBO,6.630441,52.379501
Berkenlaan,52,,,7611AN,Aadorp,Almelo,Overijssel,VBO,6.630576,52.379581
Berkenlaan,54,,,7611AN,Aadorp,Almelo,Overijssel,VBO,6.630650,52.379616
Berkenlaan,56,,,7611AN,Aadorp,Almelo,Overijssel,VBO,6.630829,52.379695
Berkenlaan,58,,,7611AN,Aadorp,Almelo,Overijssel,VBO,6.630859,52.379722
Berkenlaan,60,,,7611AN,Aadorp,Almelo,Overijssel,VBO,6.630993,52.379783
Berkenlaan,62,,,7611AN,Aadorp,Almelo,Overijssel,VBO,6.631067,52.379827
Acacialaan,1,,,7611AP,Aadorp,Almelo,Overijssel,VBO,6.628033,52.380578
Acacialaan,7,,,7611AP,Aadorp,Almelo,Overijssel,VBO,6.629111,52.379201
Acacialaan,2,,,7611AR,Aadorp,Almelo,Overijssel,VBO,6.628881,52.381486
Acacialaan,4,,,7611AR,Aadorp,Almelo,Overijssel,VBO,6.628807,52.381442
Acacialaan,6,,,7611AR,Aadorp,Almelo,Overijssel,VBO,6.628643,52.381372
Acacialaan,8,,,7611AR,Aadorp,Almelo,Overijssel,VBO,6.628583,52.381337
Acacialaan,10,,,7611AR,Aadorp,Almelo,Overijssel,VBO,6.628405,52.381258
Acacialaan,12,,,7611AR,Aadorp,Almelo,Overijssel,VBO,6.628331,52.381231
Acacialaan,14,,,7611AR,Aadorp,Almelo,Overijssel,VBO,6.628196,52.381125
Acacialaan,16,,,7611AR,Aadorp,Almelo,Overijssel,VBO,6.628121,52.381081
Acacialaan,18,,,7611AR,Aadorp,Almelo,Overijssel,VBO,6.627927,52.380993
Acacialaan,20,,,7611AR,Aadorp,Almelo,Overijssel,VBO,6.627853,52.380967
Acacialaan,22,,,7611AR,Aadorp,Almelo,Overijssel,VBO,6.627718,52.380860
Acacialaan,24,,,7611AR,Aadorp,Almelo,Overijssel,VBO,6.627629,52.380816
Acacialaan,26,,,7611AR,Aadorp,Almelo,Overijssel,VBO,6.627450,52.380737
Acacialaan,28,,,7611AR,Aadorp,Almelo,Overijssel,VBO,6.627376,52.380693
Acacialaan,30,,,7611AR,Aadorp,Almelo,Overijssel,VBO,6.627227,52.380632
Acacialaan,32,,,7611AR,Aadorp,Almelo,Overijssel,VBO,6.627153,52.380597
Acacialaan,36,,,7611AR,Aadorp,Almelo,Overijssel,VBO,6.627323,52.380370
Acacialaan,38,,,7611AR,Aadorp,Almelo,Overijssel,VBO,6.627480,52.380216
Acacialaan,40,,,7611AR,Aadorp,Almelo,Overijssel,VBO,6.627622,52.380052
Acacialaan,42,,,7611AR,Aadorp,Almelo,Overijssel,VBO,6.627794,52.379898
Acacialaan,44,,,7611AR,Aadorp,Almelo,Overijssel,VBO,6.627907,52.379744
Acacialaan,46,,traf,7611AR,Aadorp,Almelo,Overijssel,VBO,6.629030,52.379453
Acacialaan,46,,,7611AR,Aadorp,Almelo,Overijssel,VBO,6.628465,52.379217
Acacialaan,48,,,7611AR,Aadorp,Almelo,Overijssel,VBO,6.628739,52.379016
Beukenlaan,1,,,7611AS,Aadorp,Almelo,Overijssel,VBO,6.628765,52.381011
Beukenlaan,3,,,7611AS,Aadorp,Almelo,Overijssel,VBO,6.628850,52.380884
Beukenlaan,5,,,7611AS,Aadorp,Almelo,Overijssel,VBO,6.628890,52.380740
Beukenlaan,7,,,7611AS,Aadorp,Almelo,Overijssel,VBO,6.629063,52.380639
Beukenlaan,9,,,7611AS,Aadorp,Almelo,Overijssel,VBO,6.628985,52.380469
Beukenlaan,11,,,7611AS,Aadorp,Almelo,Overijssel,VBO,6.628792,52.380391
Beukenlaan,13,,,7611AS,Aadorp,Almelo,Overijssel,VBO,6.628611,52.380240
Beukenlaan,15,,,7611AS,Aadorp,Almelo,Overijssel,VBO,6.628755,52.380121
Beukenlaan,17,,,7611AS,Aadorp,Almelo,Overijssel,VBO,6.628869,52.380012
Heuveltjeslaan,5,,,7611AT,Aadorp,Almelo,Overijssel,VBO,6.634282,52.379218
Heuveltjeslaan,5,,,7611AT,Aadorp,Almelo,Overijssel,VBO,6.633807,52.380107
Eikenlaan,1,,,7611AV,Aadorp,Almelo,Overijssel,VBO,6.628942,52.382070
Eikenlaan,3,,,7611AV,Aadorp,Almelo,Overijssel,VBO,6.628970,52.382025
Eikenlaan,5,,,7611AV,Aadorp,Almelo,Overijssel,VBO,6.628998,52.381988
Eikenlaan,7,,,7611AV,Aadorp,Almelo,Overijssel,VBO,6.629041,52.381952
Eikenlaan,9,,,7611AV,Aadorp,Almelo,Overijssel,VBO,6.629127,52.381861
Eikenlaan,11,,,7611AV,Aadorp,Almelo,Overijssel,VBO,6.629155,52.381807
Eikenlaan,13,,,7611AV,Aadorp,Almelo,Overijssel,VBO,6.629226,52.381743
Eikenlaan,15,,,7611AV,Aadorp,Almelo,Overijssel,VBO,6.629255,52.381707
Eikenlaan,17,,,7611AV,Aadorp,Almelo,Overijssel,VBO,6.629340,52.381616
Eikenlaan,19,,,7611AV,Aadorp,Almelo,Overijssel,VBO,6.629383,52.381562
Eikenlaan,21,,,7611AV,Aadorp,Almelo,Overijssel,VBO,6.629426,52.381516
Eikenlaan,23,,,7611AV,Aadorp,Almelo,Overijssel,VBO,6.629439,52.381480
Eikenlaan,25,a,,7611AV,Aadorp,Almelo,Overijssel,VBO,6.629599,52.381407
Eikenlaan,25,b,,7611AV,Aadorp,Almelo,Overijssel,VBO,6.629613,52.381389
Eikenlaan,25,c,,7611AV,Aadorp,Almelo,Overijssel,VBO,6.629671,52.381352
Eikenlaan,25,d,,7611AV,Aadorp,Almelo,Overijssel,VBO,6.629685,52.381334
Eikenlaan,25,e,,7611AV,Aadorp,Almelo,Overijssel,VBO,6.629714,52.381307
Eikenlaan,25,,,7611AV,Aadorp,Almelo,Overijssel,VBO,6.629585,52.381425
Eikenlaan,27,,,7611AV,Aadorp,Almelo,Overijssel,VBO,6.629711,52.381217
Eikenlaan,29,,,7611AV,Aadorp,Almelo,Overijssel,VBO,6.629754,52.381163
Eikenlaan,31,,,7611AV,Aadorp,Almelo,Overijssel,VBO,6.629782,52.381126
Eikenlaan,33,,,7611AV,Aadorp,Almelo,Overijssel,VBO,6.629839,52.381081
Eikenlaan,35,,,7611AV,Aadorp,Almelo,Overijssel,VBO,6.629939,52.380981
Eikenlaan,37,,,7611AV,Aadorp,Almelo,Overijssel,VBO,6.629953,52.380945
Eikenlaan,39,,,7611AV,Aadorp,Almelo,Overijssel,VBO,6.629996,52.380899
Eikenlaan,41,,,7611AV,Aadorp,Almelo,Overijssel,VBO,6.630053,52.380854
Eikenlaan,43,,,7611AV,Aadorp,Almelo,Overijssel,VBO,6.630139,52.380754
Eikenlaan,45,,,7611AW,Aadorp,Almelo,Overijssel,VBO,6.630167,52.380700
Eikenlaan,47,,,7611AW,Aadorp,Almelo,Overijssel,VBO,6.630209,52.380645
Eikenlaan,49,,,7611AW,Aadorp,Almelo,Overijssel,VBO,6.630266,52.380591
Eikenlaan,51,,,7611AW,Aadorp,Almelo,Overijssel,VBO,6.630213,52.380250
Eikenlaan,53,,,7611AW,Aadorp,Almelo,Overijssel,VBO,6.630139,52.380224
Eikenlaan,55,,,7611AW,Aadorp,Almelo,Overijssel,VBO,6.630003,52.380117
Eikenlaan,57,,,7611AW,Aadorp,Almelo,Overijssel,VBO,6.629915,52.380091
Eikenlaan,59,,,7611AW,Aadorp,Almelo,Overijssel,VBO,6.629779,52.379985
Eikenlaan,61,,,7611AW,Aadorp,Almelo,Overijssel,VBO,6.629705,52.379959
Eikenlaan,63,,,7611AW,Aadorp,Almelo,Overijssel,VBO,6.629468,52.379889
Eikenlaan,65,,,7611AW,Aadorp,Almelo,Overijssel,VBO,6.629394,52.379863
Eikenlaan,67,,,7611AW,Aadorp,Almelo,Overijssel,VBO,6.629231,52.379793
Eikenlaan,69,,,7611AW,Aadorp,Almelo,Overijssel,VBO,6.629156,52.379767
Eikenlaan,71,,,7611AW,Aadorp,Almelo,Overijssel,VBO,6.629021,52.379660
Eikenlaan,73,,,7611AW,Aadorp,Almelo,Overijssel,VBO,6.628947,52.379634
Eikenlaan,75,,,7611AW,Aadorp,Almelo,Overijssel,VBO,6.628769,52.379582
Eikenlaan,77,,,7611AW,Aadorp,Almelo,Overijssel,VBO,6.628665,52.379547
Eikenlaan,79,,,7611AW,Aadorp,Almelo,Overijssel,VBO,6.628279,52.379389
Eikenlaan,81,,,7611AW,Aadorp,Almelo,Overijssel,VBO,6.628026,52.379275
Eikenlaan,83,,,7611AW,Aadorp,Almelo,Overijssel,VBO,6.627804,52.379197
Eikenlaan,85,,,7611AW,Aadorp,Almelo,Overijssel,VBO,6.627567,52.379118
Eikenlaan,87,,,7611AW,Aadorp,Almelo,Overijssel,VBO,6.627329,52.379040
Eikenlaan,89,,,7611AW,Aadorp,Almelo,Overijssel,VBO,6.627317,52.378581
Eikenlaan,2,,,7611AX,Aadorp,Almelo,Overijssel,VBO,6.629136,52.381151
Eikenlaan,4,,,7611AX,Aadorp,Almelo,Overijssel,VBO,6.629223,52.381096
Eikenlaan,6,,,7611AX,Aadorp,Almelo,Overijssel,VBO,6.629322,52.380978
Eikenlaan,8,,,7611AX,Aadorp,Almelo,Overijssel,VBO,6.629422,52.380860
Eikenlaan,10,,,7611AX,Aadorp,Almelo,Overijssel,VBO,6.629550,52.380706
Eikenlaan,12,,,7611AX,Aadorp,Almelo,Overijssel,VBO,6.629663,52.380552
Eikenlaan,14,,,7611AX,Aadorp,Almelo,Overijssel,VBO,6.629553,52.380311
Eikenlaan,16,,,7611AX,Aadorp,Almelo,Overijssel,VBO,6.629330,52.380187
Eikenlaan,22,,,7611AX,Aadorp,Almelo,Overijssel,VBO,6.627668,52.379611
Eikenlaan,24,,,7611AX,Aadorp,Almelo,Overijssel,VBO,6.627445,52.379488
Eikenlaan,26,,,7611AX,Aadorp,Almelo,Overijssel,VBO,6.627222,52.379400
Eikenlaan,28,,,7611AX,Aadorp,Almelo,Overijssel,VBO,6.626998,52.379286
Eikenlaan,30,,,7611AX,Aadorp,Almelo,Overijssel,VBO,6.626790,52.379171
Aadijk,8,,,7611AZ,Aadorp,Almelo,Overijssel,VBO,6.635114,52.373816
Aadijk,14,,,7611AZ,Aadorp,Almelo,Overijssel,VBO,6.636574,52.374556
Kerkweg,1,,,7611BA,Aadorp,Almelo,Overijssel,VBO,6.624833,52.379587
Kerkweg,2,,,7611BA,Aadorp,Almelo,Overijssel,VBO,6.625149,52.379341
Kerkweg,3,a,,7611BA,Aadorp,Almelo,Overijssel,VBO,6.625294,52.379798
Kerkweg,3,,,7611BA,Aadorp,Almelo,Overijssel,VBO,6.625250,52.379790
Kerkweg,5,,,7611BA,Aadorp,Almelo,Overijssel,VBO,6.625444,52.379886
Kerkweg,6,,,7611BA,Aadorp,Almelo,Overijssel,VBO,6.625537,52.379553
Kerkweg,7,,,7611BA,Aadorp,Almelo,Overijssel,VBO,6.625608,52.379975
Kerkweg,8,a,,7611BA,Aadorp,Almelo,Overijssel,VBO,6.626012,52.379710
Kerkweg,8,,,7611BA,Aadorp,Almelo,Overijssel,VBO,6.625804,52.379649
Kerkweg,9,,,7611BA,Aadorp,Almelo,Overijssel,VBO,6.625831,52.380080
Kerkweg,10,,,7611BA,Aadorp,Almelo,Overijssel,VBO,6.626088,52.379826
Kerkweg,11,,,7611BA,Aadorp,Almelo,Overijssel,VBO,6.626099,52.380221
Kerkweg,12,,,7611BA,Aadorp,Almelo,Overijssel,VBO,6.626267,52.379923
Kerkweg,13,,,7611BA,Aadorp,Almelo,Overijssel,VBO,6.626397,52.380353
Kerkweg,14,a,,7611BA,Aadorp,Almelo,Overijssel,VBO,6.626594,52.380054
Kerkweg,14,,,7611BA,Aadorp,Almelo,Overijssel,VBO,6.626460,52.379984
Kerkweg,15,,,7611BA,Aadorp,Almelo,Overijssel,VBO,6.626124,52.380571
Kerkweg,16,,,7611BA,Aadorp,Almelo,Overijssel,VBO,6.626818,52.380178
Kerkweg,18,,,7611BA,Aadorp,Almelo,Overijssel,VBO,6.626996,52.380257
Kerkweg,20,,,7611BA,Aadorp,Almelo,Overijssel,VBO,6.626886,52.380500
Kerkweg,22,,,7611BA,Aadorp,Almelo,Overijssel,VBO,6.626741,52.380601
Kerkweg,28,,,7611BA,Aadorp,Almelo,Overijssel,VBO,6.626541,52.380783
Peppellaan,1,,,7611BB,Aadorp,Almelo,Overijssel,VBO,6.623884,52.380316
Peppellaan,5,,,7611BB,Aadorp,Almelo,Overijssel,VBO,6.624300,52.380492
Peppellaan,7,,,7611BB,Aadorp,Almelo,Overijssel,VBO,6.624538,52.380579
Peppellaan,9,a,,7611BB,Aadorp,Almelo,Overijssel,VBO,6.624909,52.380719
Peppellaan,9,,,7611BB,Aadorp,Almelo,Overijssel,VBO,6.624805,52.380702
Peppellaan,11,,,7611BB,Aadorp,Almelo,Overijssel,VBO,6.625043,52.380798
Peppellaan,13,,,7611BB,Aadorp,Almelo,Overijssel,VBO,6.625118,52.380834
Peppellaan,15,,,7611BB,Aadorp,Almelo,Overijssel,VBO,6.625445,52.380992
Peppellaan,17,,,7611BB,Aadorp,Almelo,Overijssel,VBO,6.625802,52.381141
Peppellaan,19,,,7611BB,Aadorp,Almelo,Overijssel,VBO,6.626098,52.381228
Peppellaan,21,,,7611BB,Aadorp,Almelo,Overijssel,VBO,6.626351,52.381360
Peppellaan,23,,,7611BB,Aadorp,Almelo,Overijssel,VBO,6.626441,52.381404
Peppellaan,25,,,7611BB,Aadorp,Almelo,Overijssel,VBO,6.626678,52.381500
Peppellaan,27,,,7611BB,Aadorp,Almelo,Overijssel,VBO,6.627021,52.381668
Peppellaan,29,,,7611BB,Aadorp,Almelo,Overijssel,VBO,6.627304,52.381817
Peppellaan,31,,,7611BB,Aadorp,Almelo,Overijssel,VBO,6.627676,52.381975
Peppellaan,33,a,,7611BB,Aadorp,Almelo,Overijssel,VBO,6.628048,52.382142
Peppellaan,33,,,7611BB,Aadorp,Almelo,Overijssel,VBO,6.627973,52.382098
Peppellaan,35,a,,7611BB,Aadorp,Almelo,Overijssel,VBO,6.628493,52.382290
Peppellaan,35,,,7611BB,Aadorp,Almelo,Overijssel,VBO,6.628374,52.382265
Peppellaan,37,,,7611BB,Aadorp,Almelo,Overijssel,VBO,6.628731,52.382396
Peppellaan,39,a,,7611BB,Aadorp,Almelo,Overijssel,VBO,6.629236,52.382624
Peppellaan,39,,,7611BB,Aadorp,Almelo,Overijssel,VBO,6.629028,52.382536
Peppellaan,41,,,7611BB,Aadorp,Almelo,Overijssel,VBO,6.629474,52.382702
Peppellaan,4,,,7611BC,Aadorp,Almelo,Overijssel,VBO,6.624186,52.380079
Peppellaan,6,,,7611BC,Aadorp,Almelo,Overijssel,VBO,6.624527,52.380202
Peppellaan,10,a,,7611BC,Aadorp,Almelo,Overijssel,VBO,6.625300,52.380544
Peppellaan,10,,,7611BC,Aadorp,Almelo,Overijssel,VBO,6.625136,52.380447
Peppellaan,12,a,,7611BC,Aadorp,Almelo,Overijssel,VBO,6.625731,52.380710
Peppellaan,12,,,7611BC,Aadorp,Almelo,Overijssel,VBO,6.625508,52.380632
Peppellaan,14,,,7611BC,Aadorp,Almelo,Overijssel,VBO,6.625895,52.380798
Peppellaan,16,,,7611BC,Aadorp,Almelo,Overijssel,VBO,6.626281,52.380956
Peppellaan,18,a,,7611BC,Aadorp,Almelo,Overijssel,VBO,6.626696,52.381087
Peppellaan,18,,,7611BC,Aadorp,Almelo,Overijssel,VBO,6.626607,52.381043
Peppellaan,20,,,7611BC,Aadorp,Almelo,Overijssel,VBO,6.626920,52.381210
Peppellaan,22,,,7611BC,Aadorp,Almelo,Overijssel,VBO,6.627187,52.381315
Peppellaan,24,a,,7611BC,Aadorp,Almelo,Overijssel,VBO,6.627664,52.381535
Peppellaan,24,,,7611BC,Aadorp,Almelo,Overijssel,VBO,6.627543,52.381437
Peppellaan,26,,,7611BC,Aadorp,Almelo,Overijssel,VBO,6.627930,52.381622
Peppellaan,28,,,7611BC,Aadorp,Almelo,Overijssel,VBO,6.627990,52.381648
Peppellaan,30,,,7611BC,Aadorp,Almelo,Overijssel,VBO,6.628183,52.381727
Peppellaan,32,a,,7611BC,Aadorp,Almelo,Overijssel,VBO,6.628511,52.381895
Peppellaan,32,,,7611BC,Aadorp,Almelo,Overijssel,VBO,6.628376,52.381815
Peppellaan,36,,,7611BC,Aadorp,Almelo,Overijssel,VBO,6.629566,52.382342
Peppellaan,38,,,7611BC,Aadorp,Almelo,Overijssel,VBO,6.630410,52.382567
Albardastraat,1,,,7611BD,Aadorp,Almelo,Overijssel,VBO,6.621927,52.381784
Albardastraat,2,,,7611BD,Aadorp,Almelo,Overijssel,VBO,6.622099,52.381629
Albardastraat,3,,,7611BD,Aadorp,Almelo,Overijssel,VBO,6.622329,52.381447
Albardastraat,5,,,7611BD,Aadorp,Almelo,Overijssel,VBO,6.622847,52.381055
Albardastraat,8,,,7611BD,Aadorp,Almelo,Overijssel,VBO,6.623303,52.380719
Albardastraat,12,a,,7611BD,Aadorp,Almelo,Overijssel,VBO,6.624532,52.379842
Albardastraat,12,,,7611BD,Aadorp,Almelo,Overijssel,VBO,6.624474,52.379870
Albardastraat,13,,,7611BD,Aadorp,Almelo,Overijssel,VBO,6.624646,52.379724
Albardastraat,14,,,7611BD,Aadorp,Almelo,Overijssel,VBO,6.626102,52.379268
Albardastraat,16,,,7611BD,Aadorp,Almelo,Overijssel,VBO,6.626014,52.378766
Albardastraat,20,,,7611BD,Aadorp,Almelo,Overijssel,VBO,6.626637,52.378427
Albardastraat,21,,,7611BD,Aadorp,Almelo,Overijssel,VBO,6.626665,52.378399
Albardastraat,24,,,7611BD,Aadorp,Almelo,Overijssel,VBO,6.626847,52.378056
Albardastraat,25,,,7611BD,Aadorp,Almelo,Overijssel,VBO,6.627224,52.377881
Albardastraat,27,,,7611BD,Aadorp,Almelo,Overijssel,VBO,6.627424,52.377681
Albardastraat,26,,,7611BE,Aadorp,Almelo,Overijssel,VBO,6.627396,52.377736
Albardastraat,28,,,7611BE,Aadorp,Almelo,Overijssel,VBO,6.627596,52.377554
Albardastraat,29,,,7611BE,Aadorp,Almelo,Overijssel,VBO,6.627669,52.377526
Albardastraat,31,,,7611BE,Aadorp,Almelo,Overijssel,VBO,6.628344,52.376971
Albardastraat,33,,,7611BE,Aadorp,Almelo,Overijssel,VBO,6.629056,52.377242
Albardastraat,34,,,7611BE,Aadorp,Almelo,Overijssel,VBO,6.628501,52.376834
Albardastraat,35,,,7611BE,Aadorp,Almelo,Overijssel,VBO,6.628732,52.376679
Albardastraat,36,,,7611BE,Aadorp,Almelo,Overijssel,VBO,6.629063,52.376442
Albardastraat,37,,,7611BE,Aadorp,Almelo,Overijssel,VBO,6.629149,52.376342
Albardastraat,38,,,7611BE,Aadorp,Almelo,Overijssel,VBO,6.629752,52.375850
Albardastraat,41,,,7611BE,Aadorp,Almelo,Overijssel,VBO,6.629939,52.375740
Albardastraat,42,,,7611BE,Aadorp,Almelo,Overijssel,VBO,6.630068,52.375622
Albardastraat,43,,,7611BE,Aadorp,Almelo,Overijssel,VBO,6.630126,52.375577
Albardastraat,44,,traf,7611BE,Aadorp,Almelo,Overijssel,VBO,6.630254,52.375450
Albardastraat,44,,,7611BE,Aadorp,Almelo,Overijssel,VBO,6.630727,52.375363
Albardastraat,46,,,7611BE,Aadorp,Almelo,Overijssel,VBO,6.631986,52.374344
Molenhoek,1,,,7611BG,Aadorp,Almelo,Overijssel,VBO,6.629450,52.376087
Molenhoek,2,,,7611BG,Aadorp,Almelo,Overijssel,VBO,6.630486,52.376382
Molenhoek,3,,,7611BG,Aadorp,Almelo,Overijssel,VBO,6.629643,52.376175
Molenhoek,4,,,7611BG,Aadorp,Almelo,Overijssel,VBO,6.630517,52.376436
Molenhoek,5,,,7611BG,Aadorp,Almelo,Overijssel,VBO,6.629837,52.376263
Molenhoek,6,,,7611BG,Aadorp,Almelo,Overijssel,VBO,6.630533,52.376480
Molenhoek,7,,,7611BG,Aadorp,Almelo,Overijssel,VBO,6.629972,52.376369
Molenhoek,8,,,7611BG,Aadorp,Almelo,Overijssel,VBO,6.630549,52.376525
Molenhoek,9,,,7611BG,Aadorp,Almelo,Overijssel,VBO,6.630046,52.376396
Molenhoek,10,,,7611BG,Aadorp,Almelo,Overijssel,VBO,6.630656,52.376668
Molenhoek,11,,,7611BG,Aadorp,Almelo,Overijssel,VBO,6.630366,52.376824
Molenhoek,12,,,7611BG,Aadorp,Almelo,Overijssel,VBO,6.630730,52.376703
Molenhoek,13,,,7611BG,Aadorp,Almelo,Overijssel,VBO,6.630440,52.376841
Molenhoek,14,,,7611BG,Aadorp,Almelo,Overijssel,VBO,6.630923,52.376755
Molenhoek,15,,,7611BG,Aadorp,Almelo,Overijssel,VBO,6.630514,52.376867
Molenhoek,17,,,7611BG,Aadorp,Almelo,Overijssel,VBO,6.630589,52.376902
Molenhoek,19,,,7611BG,Aadorp,Almelo,Overijssel,VBO,6.630812,52.376990
Molenhoek,21,,,7611BG,Aadorp,Almelo,Overijssel,VBO,6.630871,52.377025
Kerkhofsweg,1,,,7611BH,Aadorp,Almelo,Overijssel,VBO,6.624780,52.372954
Bruglaan,1,a,,7611BJ,Aadorp,Almelo,Overijssel,VBO,6.628647,52.374163
Bruglaan,3,a,,7611BJ,Aadorp,Almelo,Overijssel,VBO,6.627843,52.373785
Bruglaan,3,,,7611BJ,Aadorp,Almelo,Overijssel,VBO,6.628378,52.374013
Bruglaan,5,a,,7611BJ,Aadorp,Almelo,Overijssel,VBO,6.627472,52.373636
Bruglaan,5,,,7611BJ,Aadorp,Almelo,Overijssel,VBO,6.627591,52.373707
Bruglaan,7,a,,7611BJ,Aadorp,Almelo,Overijssel,VBO,6.627070,52.373461
Bruglaan,7,b,,7611BJ,Aadorp,Almelo,Overijssel,VBO,6.626936,52.373390
Bruglaan,7,,,7611BJ,Aadorp,Almelo,Overijssel,VBO,6.627249,52.373549
Bruglaan,9,,,7611BJ,Aadorp,Almelo,Overijssel,VBO,6.626756,52.373248
Bruglaan,11,,,7611BJ,Aadorp,Almelo,Overijssel,VBO,6.626505,52.373179
Bruglaan,13,,,7611BJ,Aadorp,Almelo,Overijssel,VBO,6.626251,52.373056
Bruglaan,15,,,7611BJ,Aadorp,Almelo,Overijssel,VBO,6.625344,52.372643
Bruglaan,17,,,7611BJ,Aadorp,Almelo,Overijssel,VBO,6.625105,52.372483
Bruglaan,19,a,,7611BJ,Aadorp,Almelo,Overijssel,VBO,6.624642,52.372261
Bruglaan,19,,,7611BJ,Aadorp,Almelo,Overijssel,VBO,6.624893,52.372279
Bruglaan,21,,,7611BJ,Aadorp,Almelo,Overijssel,VBO,6.624464,52.372167
Bruglaan,23,,,7611BJ,Aadorp,Almelo,Overijssel,VBO,6.624257,52.372097
Bruglaan,25,a,,7611BJ,Aadorp,Almelo,Overijssel,VBO,6.623989,52.371956
Bruglaan,25,b,,7611BJ,Aadorp,Almelo,Overijssel,VBO,6.623765,52.371810
Bruglaan,25,,,7611BJ,Aadorp,Almelo,Overijssel,VBO,6.624182,52.372062
Bruglaan,27,,,7611BJ,Aadorp,Almelo,Overijssel,VBO,6.623481,52.371646
Bruglaan,29,a,,7611BK,Aadorp,Almelo,Overijssel,VBO,6.622776,52.371271
Bruglaan,29,,,7611BK,Aadorp,Almelo,Overijssel,VBO,6.623005,52.371445
Bruglaan,31,,,7611BK,Aadorp,Almelo,Overijssel,VBO,6.622436,52.371046
Bruglaan,33,,,7611BK,Aadorp,Almelo,Overijssel,VBO,6.622120,52.370780
Bruglaan,35,a,,7611BK,Aadorp,Almelo,Overijssel,VBO,6.621679,52.370236
Bruglaan,35,,,7611BK,Aadorp,Almelo,Overijssel,VBO,6.621916,52.370315
Bruglaan,4,,,7611BL,Aadorp,Almelo,Overijssel,VBO,6.628679,52.374783
Bruglaan,6,,,7611BL,Aadorp,Almelo,Overijssel,VBO,6.628515,52.374695
Bruglaan,8,,,7611BL,Aadorp,Almelo,Overijssel,VBO,6.628262,52.374581
Bruglaan,10,,,7611BL,Aadorp,Almelo,Overijssel,VBO,6.628088,52.374407
Bruglaan,12,,,7611BL,Aadorp,Almelo,Overijssel,VBO,6.627873,52.374333
Bruglaan,14,,,7611BL,Aadorp,Almelo,Overijssel,VBO,6.627723,52.374218
Bruglaan,16,,,7611BL,Aadorp,Almelo,Overijssel,VBO,6.627472,52.374166
Bruglaan,18,,,7611BL,Aadorp,Almelo,Overijssel,VBO,6.627354,52.374141
Bruglaan,20,,,7611BL,Aadorp,Almelo,Overijssel,VBO,6.627173,52.373972
Bruglaan,22,,,7611BL,Aadorp,Almelo,Overijssel,VBO,6.627084,52.373937
Bruglaan,24,,,7611BM,Aadorp,Almelo,Overijssel,VBO,6.626818,52.373877
Bruglaan,26,,,7611BM,Aadorp,Almelo,Overijssel,VBO,6.626741,52.373752
Bruglaan,28,,,7611BM,Aadorp,Almelo,Overijssel,VBO,6.626503,52.373646
Bruglaan,32,,,7611BM,Aadorp,Almelo,Overijssel,VBO,6.626146,52.373497
Bruglaan,34,,,7611BM,Aadorp,Almelo,Overijssel,VBO,6.626072,52.373453
Bruglaan,36,,,7611BM,Aadorp,Almelo,Overijssel,VBO,6.625817,52.373285
Bruglaan,38,,,7611BM,Aadorp,Almelo,Overijssel,VBO,6.625536,52.373207
Bruglaan,40,,,7611BM,Aadorp,Almelo,Overijssel,VBO,6.625313,52.373101
Bruglaan,42,,,7611BM,Aadorp,Almelo,Overijssel,VBO,6.624923,52.372827
Bruglaan,44,,,7611BM,Aadorp,Almelo,Overijssel,VBO,6.624790,52.372774
Bruglaan,46,,,7611BM,Aadorp,Almelo,Overijssel,VBO,6.624656,52.372713
Bruglaan,48,,,7611BM,Aadorp,Almelo,Overijssel,VBO,6.624360,52.372644
Bruglaan,50,,,7611BM,Aadorp,Almelo,Overijssel,VBO,6.624018,52.372486
Bruglaan,52,,,7611BM,Aadorp,Almelo,Overijssel,VBO,6.623690,52.372318
Bruglaan,54,,,7611BM,Aadorp,Almelo,Overijssel,VBO,6.623347,52.372124
Bruglaan,56,,,7611BM,Aadorp,Almelo,Overijssel,VBO,6.623139,52.372046
Rondweg,1,,,7611BN,Aadorp,Almelo,Overijssel,VBO,6.629109,52.374410
Rondweg,3,a,,7611BN,Aadorp,Almelo,Overijssel,VBO,6.629454,52.374137
Rondweg,3,,,7611BN,Aadorp,Almelo,Overijssel,VBO,6.629312,52.374327
Rondweg,5,a,,7611BN,Aadorp,Almelo,Overijssel,VBO,6.629727,52.373918
Rondweg,5,b,,7611BN,Aadorp,Almelo,Overijssel,VBO,6.629827,52.373809
Rondweg,5,,,7611BN,Aadorp,Almelo,Overijssel,VBO,6.629613,52.374054
Rondweg,7,a,,7611BN,Aadorp,Almelo,Overijssel,VBO,6.630143,52.373572
Rondweg,7,,,7611BN,Aadorp,Almelo,Overijssel,VBO,6.630044,52.373699
Rondweg,9,,,7611BN,Aadorp,Almelo,Overijssel,VBO,6.630317,52.373489
Rondweg,11,,,7611BN,Aadorp,Almelo,Overijssel,VBO,6.630446,52.373389
Rondweg,13,,,7611BN,Aadorp,Almelo,Overijssel,VBO,6.630560,52.373244
Rondweg,15,,,7611BN,Aadorp,Almelo,Overijssel,VBO,6.630704,52.373144
Rondweg,19,,,7611BN,Aadorp,Almelo,Overijssel,VBO,6.631005,52.372898
Rondweg,21,,,7611BN,Aadorp,Almelo,Overijssel,VBO,6.631503,52.372335
Rondweg,23,,,7611BN,Aadorp,Almelo,Overijssel,VBO,6.631265,52.372194
Rondweg,25,,,7611BN,Aadorp,Almelo,Overijssel,VBO,6.631026,52.372062
Rondweg,29,,,7611BN,Aadorp,Almelo,Overijssel,VBO,6.630786,52.371885
Rondweg,31,,,7611BN,Aadorp,Almelo,Overijssel,VBO,6.630548,52.371779
Rondweg,33,,,7611BN,Aadorp,Almelo,Overijssel,VBO,6.630383,52.371673
Rondweg,35,,,7611BN,Aadorp,Almelo,Overijssel,VBO,6.630191,52.371621
Rondweg,37,,,7611BN,Aadorp,Almelo,Overijssel,VBO,6.629865,52.371470
Rondweg,39,,,7611BN,Aadorp,Almelo,Overijssel,VBO,6.629742,52.371311
Rondweg,41,,,7611BN,Aadorp,Almelo,Overijssel,VBO,6.629579,52.371250
Rondweg,2,,,7611BP,Aadorp,Almelo,Overijssel,VBO,6.628977,52.373899
Rondweg,4,,,7611BP,Aadorp,Almelo,Overijssel,VBO,6.629163,52.373726
Rondweg,6,,,7611BP,Aadorp,Almelo,Overijssel,VBO,6.629293,52.373626
Rondweg,8,,,7611BP,Aadorp,Almelo,Overijssel,VBO,6.629452,52.373534
Rondweg,12,,,7611BP,Aadorp,Almelo,Overijssel,VBO,6.629551,52.373417
Rondweg,14,,,7611BP,Aadorp,Almelo,Overijssel,VBO,6.629798,52.373315
Rondweg,16,,,7611BP,Aadorp,Almelo,Overijssel,VBO,6.630012,52.373088
Rondweg,18,a,,7611BP,Aadorp,Almelo,Overijssel,VBO,6.630429,52.372778
Rondweg,18,b,,7611BP,Aadorp,Almelo,Overijssel,VBO,6.630602,52.372659
Rondweg,18,,,7611BP,Aadorp,Almelo,Overijssel,VBO,6.630141,52.372970
Rondweg,20,a,,7611BP,Aadorp,Almelo,Overijssel,VBO,6.630742,52.372397
Rondweg,20,,,7611BP,Aadorp,Almelo,Overijssel,VBO,6.630862,52.372486
Rondweg,22,a,,7611BP,Aadorp,Almelo,Overijssel,VBO,6.630310,52.372213
Rondweg,24,,,7611BP,Aadorp,Almelo,Overijssel,VBO,6.629653,52.371807
Rondweg,26,,,7611BP,Aadorp,Almelo,Overijssel,VBO,6.629417,52.371755
Rondweg,28,,,7611BP,Aadorp,Almelo,Overijssel,VBO,6.629296,52.371657
Rondweg,30,,,7611BP,Aadorp,Almelo,Overijssel,VBO,6.629118,52.371578
Rondweg,32,,,7611BP,Aadorp,Almelo,Overijssel,VBO,6.628983,52.371472
Meidoornlaan,1,,,7611BR,Aadorp,Almelo,Overijssel,VBO,6.626883,52.372546
Meidoornlaan,2,,,7611BR,Aadorp,Almelo,Overijssel,VBO,6.627173,52.372399
Meidoornlaan,4,,,7611BR,Aadorp,Almelo,Overijssel,VBO,6.627442,52.372567
Meidoornlaan,6,,,7611BR,Aadorp,Almelo,Overijssel,VBO,6.627663,52.372609
Meidoornlaan,7,,,7611BR,Aadorp,Almelo,Overijssel,VBO,6.627260,52.372874
Meidoornlaan,8,,,7611BR,Aadorp,Almelo,Overijssel,VBO,6.627799,52.372734
Meidoornlaan,9,,,7611BR,Aadorp,Almelo,Overijssel,VBO,6.627497,52.372962
Meidoornlaan,11,,,7611BR,Aadorp,Almelo,Overijssel,VBO,6.627706,52.373067
Meidoornlaan,13,,,7611BR,Aadorp,Almelo,Overijssel,VBO,6.627899,52.373155
Dennenlaan,3,,,7611BS,Aadorp,Almelo,Overijssel,VBO,6.628488,52.373733
Dennenlaan,5,a,,7611BS,Aadorp,Almelo,Overijssel,VBO,6.628579,52.373328
Dennenlaan,5,b,,7611BS,Aadorp,Almelo,Overijssel,VBO,6.628693,52.373192
Dennenlaan,5,,,7611BS,Aadorp,Almelo,Overijssel,VBO,6.628526,52.373517
Dennenlaan,7,,,7611BS,Aadorp,Almelo,Overijssel,VBO,6.628792,52.373056
Dennenlaan,9,,,7611BS,Aadorp,Almelo,Overijssel,VBO,6.628921,52.372956
Dennenlaan,11,,,7611BS,Aadorp,Almelo,Overijssel,VBO,6.629007,52.372856
Dennenlaan,13,,,7611BS,Aadorp,Almelo,Overijssel,VBO,6.629180,52.372746
Dennenlaan,15,,,7611BS,Aadorp,Almelo,Overijssel,VBO,6.629352,52.372592
Dennenlaan,17,,,7611BS,Aadorp,Almelo,Overijssel,VBO,6.629685,52.372426
Dennenlaan,19,,,7611BS,Aadorp,Almelo,Overijssel,VBO,6.629841,52.372227
Dennenlaan,21,,,7611BS,Aadorp,Almelo,Overijssel,VBO,6.630013,52.372090
Dennenlaan,4,a,,7611BT,Aadorp,Almelo,Overijssel,VBO,6.628012,52.373505
Dennenlaan,4,,,7611BT,Aadorp,Almelo,Overijssel,VBO,6.627984,52.373568
Dennenlaan,6,,,7611BT,Aadorp,Almelo,Overijssel,VBO,6.628021,52.373316
Dennenlaan,8,,,7611BT,Aadorp,Almelo,Overijssel,VBO,6.628171,52.372910
Dennenlaan,10,a,,7611BT,Aadorp,Almelo,Overijssel,VBO,6.628403,52.372781
Dennenlaan,10,,,7611BT,Aadorp,Almelo,Overijssel,VBO,6.628287,52.372837
Dennenlaan,12,,,7611BT,Aadorp,Almelo,Overijssel,VBO,6.628509,52.372675
Dennenlaan,14,,,7611BT,Aadorp,Almelo,Overijssel,VBO,6.628572,52.372622
Dennenlaan,20,,,7611BT,Aadorp,Almelo,Overijssel,VBO,6.628717,52.372482
Dennenlaan,24,,,7611BT,Aadorp,Almelo,Overijssel,VBO,6.628975,52.372254
Dennenlaan,26,,,7611BT,Aadorp,Almelo,Overijssel,VBO,6.629205,52.372081
Gravenweg,1,,,7611BV,Aadorp,Almelo,Overijssel,VBO,6.626684,52.372763
Gravenweg,3,,,7611BV,Aadorp,Almelo,Overijssel,VBO,6.626828,52.372672
Gravenweg,5,,,7611BV,Aadorp,Almelo,Overijssel,VBO,6.627288,52.372326
Gravenweg,7,,,7611BV,Aadorp,Almelo,Overijssel,VBO,6.627431,52.372180
Gravenweg,9,,,7611BV,Aadorp,Almelo,Overijssel,VBO,6.627617,52.371981
Gravenweg,11,,,7611BV,Aadorp,Almelo,Overijssel,VBO,6.627731,52.371881
Gravenweg,13,,,7611BV,Aadorp,Almelo,Overijssel,VBO,6.627874,52.371753
Gravenweg,15,,,7611BV,Aadorp,Almelo,Overijssel,VBO,6.628090,52.371598
Gravenweg,17,,,7611BV,Aadorp,Almelo,Overijssel,VBO,6.628220,52.371507
Gravenweg,19,,,7611BV,Aadorp,Almelo,Overijssel,VBO,6.628379,52.371424
Gravenweg,21,,,7611BV,Aadorp,Almelo,Overijssel,VBO,6.629116,52.371003
Gravenweg,25,,,7611BV,Aadorp,Almelo,Overijssel,VBO,6.629241,52.370732
Gravenweg,2,,,7611BW,Aadorp,Almelo,Overijssel,VBO,6.625731,52.372836
Gravenweg,4,,,7611BW,Aadorp,Almelo,Overijssel,VBO,6.625932,52.372664
Gravenweg,6,,,7611BW,Aadorp,Almelo,Overijssel,VBO,6.626091,52.372581
Gravenweg,8,,,7611BW,Aadorp,Almelo,Overijssel,VBO,6.626429,52.372056
Gravenweg,10,,,7611BW,Aadorp,Almelo,Overijssel,VBO,6.627264,52.371445
Gravenweg,12,,,7611BW,Aadorp,Almelo,Overijssel,VBO,6.627666,52.371108
Gravenweg,14,,,7611BW,Aadorp,Almelo,Overijssel,VBO,6.628646,52.370451
Gravenweg,20,,,7611BW,Aadorp,Almelo,Overijssel,VBO,6.628840,52.370053
Bruglaan,58,,,7611BX,Aadorp,Almelo,Overijssel,VBO,6.622900,52.371904
Bruglaan,60,,,7611BX,Aadorp,Almelo,Overijssel,VBO,6.622635,52.371853
Bruglaan,66,,,7611BX,Aadorp,Almelo,Overijssel,VBO,6.621950,52.371519
Bruglaan,68,,,7611BX,Aadorp,Almelo,Overijssel,VBO,6.621770,52.371395
Bruglaan,70,,,7611BX,Aadorp,Almelo,Overijssel,VBO,6.621578,52.371370
Bruglaan,72,,,7611BX,Aadorp,Almelo,Overijssel,VBO,6.621265,52.371202
Bruglaan,86,,,7611BX,Aadorp,Almelo,Overijssel,VBO,6.620340,52.370673
Vijverlaan,1,,,7611BZ,Aadorp,Almelo,Overijssel,VBO,6.630482,52.376220
Vijverlaan,2,,,7611BZ,Aadorp,Almelo,Overijssel,VBO,6.630139,52.376062
Vijverlaan,3,,,7611BZ,Aadorp,Almelo,Overijssel,VBO,6.630539,52.376184
Vijverlaan,4,,,7611BZ,Aadorp,Almelo,Overijssel,VBO,6.630183,52.376035
Vijverlaan,5,,,7611BZ,Aadorp,Almelo,Overijssel,VBO,6.630837,52.376315
Vijverlaan,6,,,7611BZ,Aadorp,Almelo,Overijssel,VBO,6.630226,52.375998
Vijverlaan,7,,,7611BZ,Aadorp,Almelo,Overijssel,VBO,6.630971,52.376395
Vijverlaan,8,,,7611BZ,Aadorp,Almelo,Overijssel,VBO,6.630269,52.375962
Vijverlaan,9,,,7611BZ,Aadorp,Almelo,Overijssel,VBO,6.631031,52.376421
Vijverlaan,10,,,7611BZ,Aadorp,Almelo,Overijssel,VBO,6.630384,52.375880
Vijverlaan,11,,,7611BZ,Aadorp,Almelo,Overijssel,VBO,6.631107,52.376528
Vijverlaan,12,,,7611BZ,Aadorp,Almelo,Overijssel,VBO,6.630412,52.375843
Vijverlaan,13,,,7611BZ,Aadorp,Almelo,Overijssel,VBO,6.630704,52.377332
Vijverlaan,14,,,7611BZ,Aadorp,Almelo,Overijssel,VBO,6.630455,52.375798
Vijverlaan,15,,,7611BZ,Aadorp,Almelo,Overijssel,VBO,6.630629,52.377297
Vijverlaan,16,,,7611BZ,Aadorp,Almelo,Overijssel,VBO,6.630527,52.375761
Vijverlaan,17,,,7611BZ,Aadorp,Almelo,Overijssel,VBO,6.630466,52.377218
Vijverlaan,18,,,7611BZ,Aadorp,Almelo,Overijssel,VBO,6.630709,52.375948
Vijverlaan,19,,,7611BZ,Aadorp,Almelo,Overijssel,VBO,6.630362,52.377183
Vijverlaan,20,,,7611BZ,Aadorp,Almelo,Overijssel,VBO,6.630798,52.375992
Vijverlaan,21,,,7611BZ,Aadorp,Almelo,Overijssel,VBO,6.630241,52.377077
Vijverlaan,22,,,7611BZ,Aadorp,Almelo,Overijssel,VBO,6.630962,52.376071
Vijverlaan,23,,,7611BZ,Aadorp,Almelo,Overijssel,VBO,6.630137,52.377042
Vijverlaan,24,,,7611BZ,Aadorp,Almelo,Overijssel,VBO,6.631036,52.376098
Vijverlaan,25,,,7611BZ,Aadorp,Almelo,Overijssel,VBO,6.629793,52.377333
Vijverlaan,26,,,7611BZ,Aadorp,Almelo,Overijssel,VBO,6.631185,52.376168
Vijverlaan,27,,,7611BZ,Aadorp,Almelo,Overijssel,VBO,6.629882,52.377359
Vijverlaan,28,,,7611BZ,Aadorp,Almelo,Overijssel,VBO,6.631363,52.376238
Vijverlaan,29,,,7611BZ,Aadorp,Almelo,Overijssel,VBO,6.630103,52.377402
Vijverlaan,30,,,7611BZ,Aadorp,Almelo,Overijssel,VBO,6.631646,52.376370
Vijverlaan,31,,,7611BZ,Aadorp,Almelo,Overijssel,VBO,6.630178,52.377428
Vijverlaan,32,,,7611BZ,Aadorp,Almelo,Overijssel,VBO,6.631536,52.376632
Vijverlaan,33,,,7611BZ,Aadorp,Almelo,Overijssel,VBO,6.630356,52.377498
Vijverlaan,34,,,7611BZ,Aadorp,Almelo,Overijssel,VBO,6.631451,52.376758
Vijverlaan,35,,,7611BZ,Aadorp,Almelo,Overijssel,VBO,6.630430,52.377533
Vijverlaan,36,,,7611BZ,Aadorp,Almelo,Overijssel,VBO,6.631367,52.376903
Vijverlaan,37,,,7611BZ,Aadorp,Almelo,Overijssel,VBO,6.630594,52.377612
Vijverlaan,38,,,7611BZ,Aadorp,Almelo,Overijssel,VBO,6.631328,52.377065
Vijverlaan,39,,,7611BZ,Aadorp,Almelo,Overijssel,VBO,6.630713,52.377647
Vijverlaan,40,,,7611BZ,Aadorp,Almelo,Overijssel,VBO,6.631244,52.377210
Vijverlaan,41,,,7611BZ,Aadorp,Almelo,Overijssel,VBO,6.630891,52.377726
Vijverlaan,42,,,7611BZ,Aadorp,Almelo,Overijssel,VBO,6.631189,52.377363
Vijverlaan,43,,,7611BZ,Aadorp,Almelo,Overijssel,VBO,6.631069,52.377805
Vijverlaan,44,,,7611BZ,Aadorp,Almelo,Overijssel,VBO,6.631150,52.377543
Weteringshoek,3,,,7611CA,Aadorp,Almelo,Overijssel,VBO,6.623712,52.380921
Weteringshoek,5,,,7611CA,Aadorp,Almelo,Overijssel,VBO,6.623545,52.381027
Weteringshoek,7,,,7611CA,Aadorp,Almelo,Overijssel,VBO,6.623496,52.381077
Weteringshoek,9,,,7611CA,Aadorp,Almelo,Overijssel,VBO,6.623369,52.381185
Weteringshoek,11,,,7611CA,Aadorp,Almelo,Overijssel,VBO,6.623297,52.381232
Weteringshoek,13,,,7611CA,Aadorp,Almelo,Overijssel,VBO,6.623152,52.381329
Weteringshoek,15,,,7611CA,Aadorp,Almelo,Overijssel,VBO,6.622707,52.381179
Weteringshoek,2,,,7611CB,Aadorp,Almelo,Overijssel,VBO,6.623523,52.380536
Weteringshoek,10,,,7611CB,Aadorp,Almelo,Overijssel,VBO,6.623940,52.381040
Weteringshoek,12,,,7611CB,Aadorp,Almelo,Overijssel,VBO,6.623842,52.381166
Weteringshoek,14,,,7611CB,Aadorp,Almelo,Overijssel,VBO,6.623782,52.381212
Weteringshoek,16,,,7611CB,Aadorp,Almelo,Overijssel,VBO,6.623561,52.381325
Parallelweg,4,,,7611DB,Aadorp,Almelo,Overijssel,VBO,6.628376,52.374975
Iepenweg Zuid,1,a,,7611KZ,Aadorp,Almelo,Overijssel,VBO,6.621551,52.371908
Iepenweg Zuid,1,,,7611KZ,Aadorp,Almelo,Overijssel,VBO,6.621131,52.372165
Iepenweg Zuid,2,,,7611KZ,Aadorp,Almelo,Overijssel,VBO,6.622287,52.372018
Iepenweg Zuid,4,,,7611KZ,Aadorp,Almelo,Overijssel,VBO,6.622014,52.372237
Sluisweg,2,,,7611PJ,Aadorp,Almelo,Overijssel,VBO,6.633481,52.372153
