openbareruimtenaam,huisnummer,huisletter,huisnummertoevoeging,postcode,woonplaatsnaam,gemeentenaam,provincienaam,typeadresseerbaarobject,longitude,latitude
Almeloseweg,95,a,,7615NA,Harbrinkhoek,Tubbergen,Overijssel,VBO,6.740580,52.390470
Almeloseweg,95,,,7615NA,Harbrinkhoek,Tubbergen,Overijssel,VBO,6.740676,52.390473
Almeloseweg,97,,,7615NA,Harbrinkhoek,Tubbergen,Overijssel,VBO,6.738489,52.389763
Almeloseweg,99,,,7615NA,Harbrinkhoek,Tubbergen,Overijssel,VBO,6.736664,52.389160
Almeloseweg,101,,,7615NA,Harbrinkhoek,Tubbergen,Overijssel,VBO,6.734006,52.388092
Almeloseweg,103,a,,7615NA,Harbrinkhoek,Tubbergen,Overijssel,VBO,6.732026,52.387433
Almeloseweg,103,,,7615NA,Harbrinkhoek,Tubbergen,Overijssel,VBO,6.732035,52.387369
Almeloseweg,105,,,7615NA,Harbrinkhoek,Tubbergen,Overijssel,VBO,6.731117,52.387073
Almeloseweg,107,a,,7615NA,Harbrinkhoek,Tubbergen,Overijssel,VBO,6.730264,52.386662
Almeloseweg,107,,,7615NA,Harbrinkhoek,Tubbergen,Overijssel,VBO,6.730168,52.386624
Almeloseweg,113,,,7615NA,Harbrinkhoek,Tubbergen,Overijssel,VBO,6.725927,52.385501
Almeloseweg,115,,,7615NA,Harbrinkhoek,Tubbergen,Overijssel,VBO,6.725362,52.385368
Almeloseweg,119,,,7615NA,Harbrinkhoek,Tubbergen,Overijssel,VBO,6.724595,52.385197
Almeloseweg,121,,,7615NA,Harbrinkhoek,Tubbergen,Overijssel,VBO,6.724282,52.385118
Almeloseweg,127,,,7615NA,Harbrinkhoek,Tubbergen,Overijssel,VBO,6.722741,52.384809
Almeloseweg,133,,,7615NA,Harbrinkhoek,Tubbergen,Overijssel,VBO,6.721510,52.384493
Almeloseweg,135,,,7615NA,Harbrinkhoek,Tubbergen,Overijssel,VBO,6.721331,52.384470
Almeloseweg,137,,,7615NA,Harbrinkhoek,Tubbergen,Overijssel,VBO,6.721135,52.383689
Almeloseweg,139,,,7615NA,Harbrinkhoek,Tubbergen,Overijssel,VBO,6.720701,52.384310
Almeloseweg,141,,,7615NA,Harbrinkhoek,Tubbergen,Overijssel,VBO,6.720356,52.384215
Almeloseweg,143,,,7615NA,Harbrinkhoek,Tubbergen,Overijssel,VBO,6.720110,52.384203
Almeloseweg,145,a,,7615NA,Harbrinkhoek,Tubbergen,Overijssel,VBO,6.719850,52.384261
Almeloseweg,145,b,,7615NA,Harbrinkhoek,Tubbergen,Overijssel,VBO,6.719874,52.384199
Almeloseweg,145,,,7615NA,Harbrinkhoek,Tubbergen,Overijssel,VBO,6.719693,52.384125
Almeloseweg,147,,,7615NA,Harbrinkhoek,Tubbergen,Overijssel,VBO,6.719943,52.384089
Almeloseweg,149,,,7615NA,Harbrinkhoek,Tubbergen,Overijssel,VBO,6.719794,52.383656
Almeloseweg,159,,,7615NA,Harbrinkhoek,Tubbergen,Overijssel,VBO,6.717811,52.383731
Almeloseweg,169,,,7615NA,Harbrinkhoek,Tubbergen,Overijssel,VBO,6.714652,52.382689
Almeloseweg,171,,,7615NA,Harbrinkhoek,Tubbergen,Overijssel,VBO,6.713910,52.382791
Almeloseweg,173,,,7615NA,Harbrinkhoek,Tubbergen,Overijssel,VBO,6.713813,52.382768
Almeloseweg,175,a,,7615NA,Harbrinkhoek,Tubbergen,Overijssel,VBO,6.713022,52.382093
Almeloseweg,175,,,7615NA,Harbrinkhoek,Tubbergen,Overijssel,VBO,6.713523,52.382212
Almeloseweg,177,,,7615NA,Harbrinkhoek,Tubbergen,Overijssel,VBO,6.712207,52.382113
Almeloseweg,181,a,,7615NA,Harbrinkhoek,Tubbergen,Overijssel,VBO,6.710586,52.379885
Almeloseweg,181,,,7615NA,Harbrinkhoek,Tubbergen,Overijssel,VBO,6.710805,52.379876
Weversweg,1,a,,7615NA,Harbrinkhoek,Tubbergen,Overijssel,VBO,6.740728,52.389121
Weversweg,1,,,7615NA,Harbrinkhoek,Tubbergen,Overijssel,VBO,6.739595,52.389953
Almeloseweg,96,a,,7615NB,Harbrinkhoek,Tubbergen,Overijssel,VBO,6.739081,52.390496
Almeloseweg,96,,,7615NB,Harbrinkhoek,Tubbergen,Overijssel,VBO,6.739198,52.390534
Almeloseweg,98,,,7615NB,Harbrinkhoek,Tubbergen,Overijssel,VBO,6.737047,52.389749
Almeloseweg,100,a,,7615NB,Harbrinkhoek,Tubbergen,Overijssel,VBO,6.733950,52.388815
Almeloseweg,100,,,7615NB,Harbrinkhoek,Tubbergen,Overijssel,VBO,6.734054,52.388772
Almeloseweg,110,a,,7615NB,Harbrinkhoek,Tubbergen,Overijssel,VBO,6.727182,52.387791
Almeloseweg,110,,,7615NB,Harbrinkhoek,Tubbergen,Overijssel,VBO,6.727071,52.387736
Almeloseweg,146,,,7615NB,Harbrinkhoek,Tubbergen,Overijssel,VBO,6.718172,52.384116
Almeloseweg,150,,,7615NB,Harbrinkhoek,Tubbergen,Overijssel,VBO,6.716677,52.383790
Almeloseweg,152,,,7615NB,Harbrinkhoek,Tubbergen,Overijssel,VBO,6.716439,52.383721
Almeloseweg,154,,,7615NB,Harbrinkhoek,Tubbergen,Overijssel,VBO,6.716251,52.383674
Almeloseweg,156,,,7615NB,Harbrinkhoek,Tubbergen,Overijssel,VBO,6.716004,52.383621
Almeloseweg,158,,,7615NB,Harbrinkhoek,Tubbergen,Overijssel,VBO,6.715686,52.383538
Almeloseweg,160,,,7615NB,Harbrinkhoek,Tubbergen,Overijssel,VBO,6.715603,52.383521
Almeloseweg,162,,,7615NB,Harbrinkhoek,Tubbergen,Overijssel,VBO,6.715355,52.383464
Almeloseweg,164,,,7615NB,Harbrinkhoek,Tubbergen,Overijssel,VBO,6.715274,52.383448
Almeloseweg,166,,,7615NB,Harbrinkhoek,Tubbergen,Overijssel,VBO,6.715024,52.383388
Almeloseweg,168,,,7615NB,Harbrinkhoek,Tubbergen,Overijssel,VBO,6.714938,52.383370
Almeloseweg,170,,,7615NB,Harbrinkhoek,Tubbergen,Overijssel,VBO,6.713824,52.383199
Almeloseweg,174,a,,7615NB,Harbrinkhoek,Tubbergen,Overijssel,VBO,6.712837,52.382929
Almeloseweg,174,,,7615NB,Harbrinkhoek,Tubbergen,Overijssel,VBO,6.712963,52.382948
Almeloseweg,180,,,7615NB,Harbrinkhoek,Tubbergen,Overijssel,VBO,6.711521,52.382407
Hagweg,3,,,7615NB,Harbrinkhoek,Tubbergen,Overijssel,VBO,6.729108,52.385584
Achterlandsweg,4,a,,7615NC,Harbrinkhoek,Tubbergen,Overijssel,VBO,6.731148,52.387872
Achterlandsweg,4,,,7615NC,Harbrinkhoek,Tubbergen,Overijssel,VBO,6.731104,52.387797
Achterlandsweg,5,a,,7615NC,Harbrinkhoek,Tubbergen,Overijssel,VBO,6.731683,52.390154
Achterlandsweg,5,,,7615NC,Harbrinkhoek,Tubbergen,Overijssel,VBO,6.731715,52.390227
Achterlandsweg,9,,,7615NC,Harbrinkhoek,Tubbergen,Overijssel,VBO,6.732625,52.391519
Rundervoortsweg,3,a,,7615ND,Harbrinkhoek,Tubbergen,Overijssel,VBO,6.726766,52.391371
Rundervoortsweg,3,,,7615ND,Harbrinkhoek,Tubbergen,Overijssel,VBO,6.726766,52.391467
Rundervoortsweg,4,a,,7615ND,Harbrinkhoek,Tubbergen,Overijssel,VBO,6.725040,52.390945
Rundervoortsweg,4,,,7615ND,Harbrinkhoek,Tubbergen,Overijssel,VBO,6.725157,52.390998
Veeneggeweg,1,,,7615NE,Harbrinkhoek,Tubbergen,Overijssel,VBO,6.725667,52.395770
Voshaarsweg,1,,,7615NG,Harbrinkhoek,Tubbergen,Overijssel,VBO,6.721547,52.394415
Voshaarsweg,2,,,7615NG,Harbrinkhoek,Tubbergen,Overijssel,VBO,6.722271,52.395260
Voshaarsweg,3,a,,7615NG,Harbrinkhoek,Tubbergen,Overijssel,VBO,6.720355,52.394771
Voshaarsweg,3,,,7615NG,Harbrinkhoek,Tubbergen,Overijssel,VBO,6.720304,52.394663
Voshaarsweg,5,a,,7615NG,Harbrinkhoek,Tubbergen,Overijssel,VBO,6.717797,52.395233
Voshaarsweg,5,,,7615NG,Harbrinkhoek,Tubbergen,Overijssel,VBO,6.717985,52.395234
Voshaarsweg,7,,,7615NG,Harbrinkhoek,Tubbergen,Overijssel,VBO,6.716442,52.395191
Voshaarsweg,9,,,7615NG,Harbrinkhoek,Tubbergen,Overijssel,VBO,6.714695,52.395157
Voshaarsweg,11,,,7615NG,Harbrinkhoek,Tubbergen,Overijssel,VBO,6.710814,52.394962
Voshaarsweg,13,a,,7615NG,Harbrinkhoek,Tubbergen,Overijssel,VBO,6.709429,52.394478
Voshaarsweg,13,,,7615NG,Harbrinkhoek,Tubbergen,Overijssel,VBO,6.709596,52.394442
Voshaarsweg,15,,,7615NG,Harbrinkhoek,Tubbergen,Overijssel,VBO,6.710906,52.393924
Voshaarsweg,17,,,7615NG,Harbrinkhoek,Tubbergen,Overijssel,VBO,6.710567,52.392663
Patersweg,1,,,7615NH,Harbrinkhoek,Tubbergen,Overijssel,VBO,6.708801,52.389422
Patersweg,2,a,,7615NH,Harbrinkhoek,Tubbergen,Overijssel,VBO,6.708732,52.390871
Patersweg,2,,,7615NH,Harbrinkhoek,Tubbergen,Overijssel,VBO,6.708870,52.390844
Patersweg,4,,,7615NH,Harbrinkhoek,Tubbergen,Overijssel,VBO,6.707402,52.391603
Patersweg,6,,,7615NH,Harbrinkhoek,Tubbergen,Overijssel,VBO,6.702717,52.392174
Patersweg,8,,,7615NH,Harbrinkhoek,Tubbergen,Overijssel,VBO,6.702692,52.392572
Patersweg,9,,,7615NH,Harbrinkhoek,Tubbergen,Overijssel,VBO,6.701714,52.391000
Slagenweg,4,,,7615NJ,Harbrinkhoek,Tubbergen,Overijssel,VBO,6.707274,52.384306
Slagenweg,6,a,,7615NJ,Harbrinkhoek,Tubbergen,Overijssel,VBO,6.707192,52.385229
Slagenweg,6,,,7615NJ,Harbrinkhoek,Tubbergen,Overijssel,VBO,6.707191,52.385159
Slagenweg,11,,,7615NJ,Harbrinkhoek,Tubbergen,Overijssel,VBO,6.706573,52.382841
Slagenweg,13,a,,7615NJ,Harbrinkhoek,Tubbergen,Overijssel,VBO,6.706865,52.383619
Slagenweg,14,,,7615NJ,Harbrinkhoek,Tubbergen,Overijssel,VBO,6.705926,52.387246
Slagenweg,15,,,7615NJ,Harbrinkhoek,Tubbergen,Overijssel,VBO,6.703779,52.388100
Slagenweg,16,a,,7615NJ,Harbrinkhoek,Tubbergen,Overijssel,VBO,6.706024,52.390108
Slagenweg,16,,,7615NJ,Harbrinkhoek,Tubbergen,Overijssel,VBO,6.706105,52.390060
Slagenweg,17,a,,7615NJ,Harbrinkhoek,Tubbergen,Overijssel,VBO,6.703164,52.388330
Slagenweg,17,,,7615NJ,Harbrinkhoek,Tubbergen,Overijssel,VBO,6.703268,52.388402
Slagenweg,19,,,7615NJ,Harbrinkhoek,Tubbergen,Overijssel,VBO,6.702550,52.389366
Slagenweg,20,a,,7615NJ,Harbrinkhoek,Tubbergen,Overijssel,VBO,6.702080,52.390757
Slagenweg,20,,,7615NJ,Harbrinkhoek,Tubbergen,Overijssel,VBO,6.702130,52.390705
Slagenweg,21,a,,7615NJ,Harbrinkhoek,Tubbergen,Overijssel,VBO,6.700586,52.391579
Slagenweg,21,,,7615NJ,Harbrinkhoek,Tubbergen,Overijssel,VBO,6.700512,52.391533
Dannenkampsweg,1,,,7615NK,Harbrinkhoek,Tubbergen,Overijssel,VBO,6.718986,52.387298
Dannenkampsweg,3,,,7615NK,Harbrinkhoek,Tubbergen,Overijssel,VBO,6.719113,52.386747
Dannenkampsweg,5,,,7615NK,Harbrinkhoek,Tubbergen,Overijssel,VBO,6.719021,52.386755
Dannenkampsweg,7,,,7615NK,Harbrinkhoek,Tubbergen,Overijssel,VBO,6.718916,52.386760
Dannenkampsweg,9,,,7615NK,Harbrinkhoek,Tubbergen,Overijssel,VBO,6.718838,52.386766
Dannenkampsweg,11,,,7615NK,Harbrinkhoek,Tubbergen,Overijssel,VBO,6.718670,52.386775
Dannenkampsweg,13,,,7615NK,Harbrinkhoek,Tubbergen,Overijssel,VBO,6.718585,52.386783
Dannenkampsweg,15,,,7615NK,Harbrinkhoek,Tubbergen,Overijssel,VBO,6.718478,52.386789
Dannenkampsweg,17,,,7615NK,Harbrinkhoek,Tubbergen,Overijssel,VBO,6.718403,52.386793
Dannenkampsweg,19,,,7615NK,Harbrinkhoek,Tubbergen,Overijssel,VBO,6.718215,52.386803
Dannenkampsweg,21,,,7615NK,Harbrinkhoek,Tubbergen,Overijssel,VBO,6.718133,52.386807
Dannenkampsweg,23,,,7615NK,Harbrinkhoek,Tubbergen,Overijssel,VBO,6.717861,52.386817
Dannenkampsweg,25,,,7615NK,Harbrinkhoek,Tubbergen,Overijssel,VBO,6.717573,52.386839
Dannenkampsweg,27,,,7615NK,Harbrinkhoek,Tubbergen,Overijssel,VBO,6.717290,52.386858
Dannenkampsweg,29,,,7615NK,Harbrinkhoek,Tubbergen,Overijssel,VBO,6.717074,52.386871
Dannenkampsweg,31,a,,7615NK,Harbrinkhoek,Tubbergen,Overijssel,VBO,6.716937,52.386878
Dannenkampsweg,31,,,7615NK,Harbrinkhoek,Tubbergen,Overijssel,VBO,6.717015,52.386873
Dannenkampsweg,33,,,7615NK,Harbrinkhoek,Tubbergen,Overijssel,VBO,6.715305,52.386942
Dannenkampsweg,34,,,7615NK,Harbrinkhoek,Tubbergen,Overijssel,VBO,6.712683,52.387430
Dannenkampsweg,35,,,7615NK,Harbrinkhoek,Tubbergen,Overijssel,VBO,6.713703,52.386990
Dannenkampsweg,36,,,7615NK,Harbrinkhoek,Tubbergen,Overijssel,VBO,6.711868,52.387595
Dannenkampsweg,37,a,,7615NK,Harbrinkhoek,Tubbergen,Overijssel,VBO,6.710070,52.387336
Dannenkampsweg,37,,,7615NK,Harbrinkhoek,Tubbergen,Overijssel,VBO,6.710032,52.387346
Walboersweg,7,a,,7615NL,Harbrinkhoek,Tubbergen,Overijssel,VBO,6.715234,52.389879
Walboersweg,7,b,,7615NL,Harbrinkhoek,Tubbergen,Overijssel,VBO,6.714827,52.389712
Walboersweg,7,,,7615NL,Harbrinkhoek,Tubbergen,Overijssel,VBO,6.715355,52.389843
Walboersweg,9,,,7615NL,Harbrinkhoek,Tubbergen,Overijssel,VBO,6.714898,52.390376
Walboersweg,16,,,7615NL,Harbrinkhoek,Tubbergen,Overijssel,VBO,6.713141,52.384151
Walboersweg,18,,,7615NL,Harbrinkhoek,Tubbergen,Overijssel,VBO,6.713218,52.384310
Walboersweg,20,,,7615NL,Harbrinkhoek,Tubbergen,Overijssel,VBO,6.713325,52.384482
Walboersweg,22,,,7615NL,Harbrinkhoek,Tubbergen,Overijssel,VBO,6.713477,52.384572
Walboersweg,25,,,7615NL,Harbrinkhoek,Tubbergen,Overijssel,VBO,6.713167,52.385070
Walboersweg,28,,,7615NL,Harbrinkhoek,Tubbergen,Overijssel,VBO,6.714944,52.386063
Walboersweg,30,,,7615NL,Harbrinkhoek,Tubbergen,Overijssel,VBO,6.715067,52.386191
Leuvinksveldweg,2,,,7615NM,Harbrinkhoek,Tubbergen,Overijssel,VBO,6.707458,52.385883
Leuvinksveldweg,3,,,7615NM,Harbrinkhoek,Tubbergen,Overijssel,VBO,6.706800,52.386162
Leuvinksveldweg,5,a,,7615NM,Harbrinkhoek,Tubbergen,Overijssel,VBO,6.707040,52.387052
Leuvinksveldweg,5,,,7615NM,Harbrinkhoek,Tubbergen,Overijssel,VBO,6.707053,52.386996
Broekweg,2,a,,7615NN,Harbrinkhoek,Tubbergen,Overijssel,VBO,6.703894,52.384145
Broekweg,2,,,7615NN,Harbrinkhoek,Tubbergen,Overijssel,VBO,6.703958,52.384067
Haarbrinksweg,71,,,7615NN,Harbrinkhoek,Tubbergen,Overijssel,VBO,6.726681,52.395410
Haarbrinksweg,73,,,7615NN,Harbrinkhoek,Tubbergen,Overijssel,VBO,6.725793,52.394499
Haarbrinksweg,75,,,7615NN,Harbrinkhoek,Tubbergen,Overijssel,VBO,6.724792,52.393193
Haarbrinksweg,77,a,,7615NN,Harbrinkhoek,Tubbergen,Overijssel,VBO,6.724563,52.392271
Haarbrinksweg,77,,,7615NN,Harbrinkhoek,Tubbergen,Overijssel,VBO,6.724552,52.392326
Haarbrinksweg,79,,,7615NN,Harbrinkhoek,Tubbergen,Overijssel,VBO,6.723587,52.390598
Haarbrinksweg,83,,,7615NN,Harbrinkhoek,Tubbergen,Overijssel,VBO,6.722412,52.388963
Haarbrinksweg,85,,,7615NN,Harbrinkhoek,Tubbergen,Overijssel,VBO,6.722062,52.388287
Haarbrinksweg,87,,,7615NN,Harbrinkhoek,Tubbergen,Overijssel,VBO,6.721494,52.387507
Haarbrinksweg,97,,,7615NN,Harbrinkhoek,Tubbergen,Overijssel,VBO,6.720403,52.386623
Haarbrinksweg,99,,,7615NN,Harbrinkhoek,Tubbergen,Overijssel,VBO,6.720248,52.386535
Haarbrinksweg,101,,,7615NN,Harbrinkhoek,Tubbergen,Overijssel,VBO,6.720069,52.386488
Haarbrinksweg,105,a,,7615NN,Harbrinkhoek,Tubbergen,Overijssel,VBO,6.719695,52.386238
Haarbrinksweg,105,,,7615NN,Harbrinkhoek,Tubbergen,Overijssel,VBO,6.719788,52.386299
Haarbrinksweg,107,,,7615NN,Harbrinkhoek,Tubbergen,Overijssel,VBO,6.719577,52.386092
Haarbrinksweg,109,,,7615NN,Harbrinkhoek,Tubbergen,Overijssel,VBO,6.719452,52.386018
Haarbrinksweg,111,a,,7615NN,Harbrinkhoek,Tubbergen,Overijssel,VBO,6.719432,52.385846
Haarbrinksweg,111,,,7615NN,Harbrinkhoek,Tubbergen,Overijssel,VBO,6.719382,52.385905
Haarbrinksweg,127,,,7615NN,Harbrinkhoek,Tubbergen,Overijssel,VBO,6.717025,52.384570
Haarbrinksweg,129,,,7615NN,Harbrinkhoek,Tubbergen,Overijssel,VBO,6.716925,52.384427
Haarbrinksweg,131,,,7615NN,Harbrinkhoek,Tubbergen,Overijssel,VBO,6.716209,52.384105
Haarbrinksweg,133,,,7615NN,Harbrinkhoek,Tubbergen,Overijssel,VBO,6.716024,52.383986
Haarbrinksweg,72,a,,7615NP,Harbrinkhoek,Tubbergen,Overijssel,VBO,6.724495,52.395647
Haarbrinksweg,72,,,7615NP,Harbrinkhoek,Tubbergen,Overijssel,VBO,6.724466,52.395584
Haarbrinksweg,74,a,,7615NP,Harbrinkhoek,Tubbergen,Overijssel,VBO,6.724588,52.394385
Haarbrinksweg,74,,,7615NP,Harbrinkhoek,Tubbergen,Overijssel,VBO,6.724630,52.394300
Haarbrinksweg,76,,,7615NP,Harbrinkhoek,Tubbergen,Overijssel,VBO,6.722859,52.393083
Haarbrinksweg,82,,,7615NP,Harbrinkhoek,Tubbergen,Overijssel,VBO,6.722320,52.389860
Haarbrinksweg,84,,,7615NP,Harbrinkhoek,Tubbergen,Overijssel,VBO,6.721821,52.389593
Haarbrinksweg,96,,,7615NP,Harbrinkhoek,Tubbergen,Overijssel,VBO,6.719898,52.386996
Haarbrinksweg,100,,,7615NP,Harbrinkhoek,Tubbergen,Overijssel,VBO,6.719360,52.386574
Haarbrinksweg,108,a,,7615NP,Harbrinkhoek,Tubbergen,Overijssel,VBO,6.718987,52.386312
Haarbrinksweg,108,,,7615NP,Harbrinkhoek,Tubbergen,Overijssel,VBO,6.719008,52.386253
Haarbrinksweg,110,,,7615NP,Harbrinkhoek,Tubbergen,Overijssel,VBO,6.718392,52.386069
Haarbrinksweg,114,,,7615NP,Harbrinkhoek,Tubbergen,Overijssel,VBO,6.718160,52.385820
Haarbrinksweg,124,,,7615NP,Harbrinkhoek,Tubbergen,Overijssel,VBO,6.716830,52.384977
Haarbrinksweg,126,,,7615NP,Harbrinkhoek,Tubbergen,Overijssel,VBO,6.716619,52.384898
Haarbrinksweg,128,a,,7615NP,Harbrinkhoek,Tubbergen,Overijssel,VBO,6.716129,52.384547
Haarbrinksweg,128,,,7615NP,Harbrinkhoek,Tubbergen,Overijssel,VBO,6.716524,52.384663
Haarbrinksweg,130,,,7615NP,Harbrinkhoek,Tubbergen,Overijssel,VBO,6.715976,52.384459
Haarbrinksweg,132,,,7615NP,Harbrinkhoek,Tubbergen,Overijssel,VBO,6.715734,52.384297
Haarbrinksweg,134,,,7615NP,Harbrinkhoek,Tubbergen,Overijssel,VBO,6.715515,52.384142
Haarbrinksweg,136,,,7615NP,Harbrinkhoek,Tubbergen,Overijssel,VBO,6.715231,52.383980
Haarbrinksweg,138,,,7615NP,Harbrinkhoek,Tubbergen,Overijssel,VBO,6.714806,52.383795
Haarbrinksweg,140,,,7615NP,Harbrinkhoek,Tubbergen,Overijssel,VBO,6.714895,52.383653
Haarbrinksweg,142,,,7615NP,Harbrinkhoek,Tubbergen,Overijssel,VBO,6.714932,52.383604
De Populier,2,,,7615NR,Harbrinkhoek,Tubbergen,Overijssel,VBO,6.717531,52.384127
De Populier,4,,,7615NR,Harbrinkhoek,Tubbergen,Overijssel,VBO,6.717305,52.384325
Kardinaal de Jongstraat,1,,,7615NR,Harbrinkhoek,Tubbergen,Overijssel,VBO,6.724051,52.385762
Kardinaal de Jongstraat,3,,,7615NR,Harbrinkhoek,Tubbergen,Overijssel,VBO,6.723781,52.385668
Kardinaal de Jongstraat,5,,,7615NR,Harbrinkhoek,Tubbergen,Overijssel,VBO,6.723675,52.385645
Kardinaal de Jongstraat,7,,,7615NR,Harbrinkhoek,Tubbergen,Overijssel,VBO,6.723482,52.385598
Kardinaal de Jongstraat,9,,,7615NR,Harbrinkhoek,Tubbergen,Overijssel,VBO,6.723380,52.385575
Kardinaal de Jongstraat,11,,,7615NR,Harbrinkhoek,Tubbergen,Overijssel,VBO,6.723178,52.385526
Kardinaal de Jongstraat,13,,,7615NR,Harbrinkhoek,Tubbergen,Overijssel,VBO,6.723106,52.385506
Kardinaal de Jongstraat,15,,,7615NR,Harbrinkhoek,Tubbergen,Overijssel,VBO,6.722887,52.385457
Kardinaal de Jongstraat,17,,,7615NR,Harbrinkhoek,Tubbergen,Overijssel,VBO,6.722802,52.385439
Kardinaal de Jongstraat,19,,,7615NR,Harbrinkhoek,Tubbergen,Overijssel,VBO,6.722599,52.385386
Kardinaal de Jongstraat,21,,,7615NR,Harbrinkhoek,Tubbergen,Overijssel,VBO,6.722410,52.385352
Kardinaal de Jongstraat,23,,,7615NR,Harbrinkhoek,Tubbergen,Overijssel,VBO,6.722286,52.385326
Kardinaal de Jongstraat,25,,,7615NR,Harbrinkhoek,Tubbergen,Overijssel,VBO,6.722050,52.385257
Kardinaal de Jongstraat,27,,,7615NR,Harbrinkhoek,Tubbergen,Overijssel,VBO,6.721849,52.385199
Kardinaal de Jongstraat,29,,,7615NR,Harbrinkhoek,Tubbergen,Overijssel,VBO,6.721618,52.385163
Kardinaal de Jongstraat,31,,,7615NR,Harbrinkhoek,Tubbergen,Overijssel,VBO,6.721386,52.385089
Kardinaal de Jongstraat,33,,,7615NR,Harbrinkhoek,Tubbergen,Overijssel,VBO,6.721097,52.385007
De Populier,1,,,7615NS,Harbrinkhoek,Tubbergen,Overijssel,VBO,6.717036,52.383943
De Populier,3,,,7615NS,Harbrinkhoek,Tubbergen,Overijssel,VBO,6.716896,52.384046
De Populier,5,,,7615NS,Harbrinkhoek,Tubbergen,Overijssel,VBO,6.716715,52.384131
De Populier,7,,,7615NS,Harbrinkhoek,Tubbergen,Overijssel,VBO,6.716545,52.384241
Kardinaal de Jongstraat,4,,,7615NS,Harbrinkhoek,Tubbergen,Overijssel,VBO,6.723486,52.385897
Kardinaal de Jongstraat,6,,,7615NS,Harbrinkhoek,Tubbergen,Overijssel,VBO,6.723265,52.385846
Kardinaal de Jongstraat,8,,,7615NS,Harbrinkhoek,Tubbergen,Overijssel,VBO,6.723158,52.385822
Kardinaal de Jongstraat,10,,,7615NS,Harbrinkhoek,Tubbergen,Overijssel,VBO,6.722998,52.385784
Kardinaal de Jongstraat,12,,,7615NS,Harbrinkhoek,Tubbergen,Overijssel,VBO,6.722898,52.385760
Kardinaal de Jongstraat,16,,,7615NS,Harbrinkhoek,Tubbergen,Overijssel,VBO,6.722197,52.385583
Kardinaal de Jongstraat,18,,,7615NS,Harbrinkhoek,Tubbergen,Overijssel,VBO,6.721941,52.385520
Kardinaal de Jongstraat,20,a,,7615NS,Harbrinkhoek,Tubbergen,Overijssel,VBO,6.721760,52.385510
Kardinaal de Jongstraat,20,,,7615NS,Harbrinkhoek,Tubbergen,Overijssel,VBO,6.721725,52.385460
Kardinaal de Jongstraat,22,,,7615NS,Harbrinkhoek,Tubbergen,Overijssel,VBO,6.721506,52.385447
Kardinaal de Jongstraat,24,,,7615NS,Harbrinkhoek,Tubbergen,Overijssel,VBO,6.721307,52.385440
Kardinaal de Jongstraat,26,,,7615NS,Harbrinkhoek,Tubbergen,Overijssel,VBO,6.721217,52.385461
Kardinaal de Jongstraat,28,,,7615NS,Harbrinkhoek,Tubbergen,Overijssel,VBO,6.720928,52.385458
Bremstraat,2,,,7615NT,Harbrinkhoek,Tubbergen,Overijssel,VBO,6.719893,52.385075
Bremstraat,4,,,7615NT,Harbrinkhoek,Tubbergen,Overijssel,VBO,6.719686,52.385199
Bremstraat,5,,,7615NT,Harbrinkhoek,Tubbergen,Overijssel,VBO,6.719202,52.385134
Bremstraat,6,,,7615NT,Harbrinkhoek,Tubbergen,Overijssel,VBO,6.719545,52.385273
Bremstraat,7,,,7615NT,Harbrinkhoek,Tubbergen,Overijssel,VBO,6.719139,52.385170
Frielinkstraat,1,,,7615NV,Harbrinkhoek,Tubbergen,Overijssel,VBO,6.721084,52.386300
Frielinkstraat,2,,,7615NV,Harbrinkhoek,Tubbergen,Overijssel,VBO,6.720742,52.386569
Frielinkstraat,3,,,7615NV,Harbrinkhoek,Tubbergen,Overijssel,VBO,6.721083,52.386249
Frielinkstraat,4,a,,7615NV,Harbrinkhoek,Tubbergen,Overijssel,VBO,6.720736,52.386380
Frielinkstraat,4,,,7615NV,Harbrinkhoek,Tubbergen,Overijssel,VBO,6.720753,52.386442
Frielinkstraat,5,,,7615NV,Harbrinkhoek,Tubbergen,Overijssel,VBO,6.721076,52.386191
Frielinkstraat,6,a,,7615NV,Harbrinkhoek,Tubbergen,Overijssel,VBO,6.720693,52.386214
Frielinkstraat,6,b,,7615NV,Harbrinkhoek,Tubbergen,Overijssel,VBO,6.720707,52.386268
Frielinkstraat,6,,,7615NV,Harbrinkhoek,Tubbergen,Overijssel,VBO,6.720627,52.386086
Frielinkstraat,7,,,7615NV,Harbrinkhoek,Tubbergen,Overijssel,VBO,6.721065,52.386140
Frielinkstraat,8,,,7615NV,Harbrinkhoek,Tubbergen,Overijssel,VBO,6.720093,52.386084
Frielinkstraat,9,,,7615NV,Harbrinkhoek,Tubbergen,Overijssel,VBO,6.721054,52.386009
Frielinkstraat,10,,,7615NV,Harbrinkhoek,Tubbergen,Overijssel,VBO,6.720587,52.385938
Frielinkstraat,11,,,7615NV,Harbrinkhoek,Tubbergen,Overijssel,VBO,6.721034,52.385874
Frielinkstraat,12,,,7615NV,Harbrinkhoek,Tubbergen,Overijssel,VBO,6.720612,52.385766
Frielinkstraat,13,,,7615NV,Harbrinkhoek,Tubbergen,Overijssel,VBO,6.721009,52.385735
Frielinkstraat,18,,,7615NV,Harbrinkhoek,Tubbergen,Overijssel,VBO,6.720550,52.385396
Frielinkstraat,20,,,7615NV,Harbrinkhoek,Tubbergen,Overijssel,VBO,6.720518,52.385247
Jannes Brouwerstraat,3,,,7615NW,Harbrinkhoek,Tubbergen,Overijssel,VBO,6.724692,52.385849
Jannes Brouwerstraat,5,,,7615NW,Harbrinkhoek,Tubbergen,Overijssel,VBO,6.724504,52.385882
Jannes Brouwerstraat,7,,,7615NW,Harbrinkhoek,Tubbergen,Overijssel,VBO,6.724345,52.385930
Jannes Brouwerstraat,9,,,7615NW,Harbrinkhoek,Tubbergen,Overijssel,VBO,6.724130,52.385950
Jannes Brouwerstraat,11,,,7615NW,Harbrinkhoek,Tubbergen,Overijssel,VBO,6.723747,52.386040
Jannes Brouwerstraat,13,,,7615NW,Harbrinkhoek,Tubbergen,Overijssel,VBO,6.723524,52.386066
Jannes Brouwerstraat,15,a,,7615NW,Harbrinkhoek,Tubbergen,Overijssel,VBO,6.723330,52.386026
Jannes Brouwerstraat,15,,,7615NW,Harbrinkhoek,Tubbergen,Overijssel,VBO,6.723321,52.386089
Jannes Brouwerstraat,17,,,7615NW,Harbrinkhoek,Tubbergen,Overijssel,VBO,6.723126,52.386125
Jannes Brouwerstraat,19,,,7615NW,Harbrinkhoek,Tubbergen,Overijssel,VBO,6.722914,52.386169
Jannes Brouwerstraat,21,a,,7615NW,Harbrinkhoek,Tubbergen,Overijssel,VBO,6.722754,52.386151
Jannes Brouwerstraat,21,,,7615NW,Harbrinkhoek,Tubbergen,Overijssel,VBO,6.722743,52.386208
Jannes Brouwerstraat,23,,,7615NW,Harbrinkhoek,Tubbergen,Overijssel,VBO,6.722562,52.386224
Jannes Brouwerstraat,25,,,7615NW,Harbrinkhoek,Tubbergen,Overijssel,VBO,6.722335,52.386274
Jannes Brouwerstraat,27,,,7615NW,Harbrinkhoek,Tubbergen,Overijssel,VBO,6.721642,52.386421
Jannes Brouwerstraat,29,,,7615NW,Harbrinkhoek,Tubbergen,Overijssel,VBO,6.721563,52.386438
Jannes Brouwerstraat,31,,,7615NW,Harbrinkhoek,Tubbergen,Overijssel,VBO,6.721474,52.386456
Jannes Brouwerstraat,33,,,7615NW,Harbrinkhoek,Tubbergen,Overijssel,VBO,6.721388,52.386471
Jannes Brouwerstraat,35,,,7615NW,Harbrinkhoek,Tubbergen,Overijssel,VBO,6.721212,52.386499
Jannes Brouwerstraat,37,,,7615NW,Harbrinkhoek,Tubbergen,Overijssel,VBO,6.721141,52.386507
Jannes Brouwerstraat,4,a,,7615NX,Harbrinkhoek,Tubbergen,Overijssel,VBO,6.724883,52.386162
Jannes Brouwerstraat,4,,,7615NX,Harbrinkhoek,Tubbergen,Overijssel,VBO,6.724896,52.386227
Jannes Brouwerstraat,36,a,,7615NX,Harbrinkhoek,Tubbergen,Overijssel,VBO,6.721815,52.387090
Jannes Brouwerstraat,36,,,7615NX,Harbrinkhoek,Tubbergen,Overijssel,VBO,6.721680,52.387041
Kemerinkstraat,1,,,7615NZ,Harbrinkhoek,Tubbergen,Overijssel,VBO,6.718505,52.384733
Kemerinkstraat,2,,,7615NZ,Harbrinkhoek,Tubbergen,Overijssel,VBO,6.718971,52.384833
Kemerinkstraat,3,,,7615NZ,Harbrinkhoek,Tubbergen,Overijssel,VBO,6.718362,52.384848
Kemerinkstraat,4,,,7615NZ,Harbrinkhoek,Tubbergen,Overijssel,VBO,6.718834,52.384907
Kemerinkstraat,6,,,7615NZ,Harbrinkhoek,Tubbergen,Overijssel,VBO,6.718770,52.384940
Kemerinkstraat,8,,,7615NZ,Harbrinkhoek,Tubbergen,Overijssel,VBO,6.718645,52.385023
Pastoor Eshuisstraat,1,,,7615PA,Harbrinkhoek,Tubbergen,Overijssel,VBO,6.720574,52.385519
Pastoor Eshuisstraat,3,,,7615PA,Harbrinkhoek,Tubbergen,Overijssel,VBO,6.720272,52.385536
Pastoor Eshuisstraat,5,,,7615PA,Harbrinkhoek,Tubbergen,Overijssel,VBO,6.720176,52.385540
Pastoor Eshuisstraat,7,,,7615PA,Harbrinkhoek,Tubbergen,Overijssel,VBO,6.720034,52.385550
Pastoor Eshuisstraat,9,,,7615PA,Harbrinkhoek,Tubbergen,Overijssel,VBO,6.719938,52.385557
Pastoor Eshuisstraat,11,,,7615PA,Harbrinkhoek,Tubbergen,Overijssel,VBO,6.719785,52.385573
Pastoor Eshuisstraat,13,,,7615PA,Harbrinkhoek,Tubbergen,Overijssel,VBO,6.719703,52.385579
Pastoor Eshuisstraat,15,,,7615PA,Harbrinkhoek,Tubbergen,Overijssel,VBO,6.719509,52.385577
Pastoor Eshuisstraat,17,,,7615PA,Harbrinkhoek,Tubbergen,Overijssel,VBO,6.719453,52.385528
Pastoor Eshuisstraat,19,,,7615PA,Harbrinkhoek,Tubbergen,Overijssel,VBO,6.719325,52.385470
Pastoor Eshuisstraat,21,,,7615PA,Harbrinkhoek,Tubbergen,Overijssel,VBO,6.719295,52.385426
Pastoor Eshuisstraat,23,,,7615PA,Harbrinkhoek,Tubbergen,Overijssel,VBO,6.719004,52.385258
Pastoor Eshuisstraat,36,,,7615PA,Harbrinkhoek,Tubbergen,Overijssel,VBO,6.717763,52.384870
Pastoor Eshuisstraat,2,,,7615PB,Harbrinkhoek,Tubbergen,Overijssel,VBO,6.720306,52.385782
Pastoor Eshuisstraat,4,,,7615PB,Harbrinkhoek,Tubbergen,Overijssel,VBO,6.720105,52.385795
Pastoor Eshuisstraat,6,,,7615PB,Harbrinkhoek,Tubbergen,Overijssel,VBO,6.719919,52.385810
Pastoor Eshuisstraat,8,,,7615PB,Harbrinkhoek,Tubbergen,Overijssel,VBO,6.719709,52.385828
Pastoor Eshuisstraat,10,,,7615PB,Harbrinkhoek,Tubbergen,Overijssel,VBO,6.719227,52.385709
Pastoor Eshuisstraat,12,,,7615PB,Harbrinkhoek,Tubbergen,Overijssel,VBO,6.719164,52.385672
Pastoor Eshuisstraat,14,,,7615PB,Harbrinkhoek,Tubbergen,Overijssel,VBO,6.719032,52.385581
Pastoor Eshuisstraat,16,,,7615PB,Harbrinkhoek,Tubbergen,Overijssel,VBO,6.718969,52.385539
Pastoor Eshuisstraat,18,,,7615PB,Harbrinkhoek,Tubbergen,Overijssel,VBO,6.718821,52.385451
Pastoor Eshuisstraat,20,,,7615PB,Harbrinkhoek,Tubbergen,Overijssel,VBO,6.718762,52.385416
Pastoor Eshuisstraat,22,,,7615PB,Harbrinkhoek,Tubbergen,Overijssel,VBO,6.718614,52.385327
Pastoor Eshuisstraat,24,,,7615PB,Harbrinkhoek,Tubbergen,Overijssel,VBO,6.718559,52.385290
Pastoor Eshuisstraat,26,,,7615PB,Harbrinkhoek,Tubbergen,Overijssel,VBO,6.718412,52.385202
Pastoor Eshuisstraat,28,,,7615PB,Harbrinkhoek,Tubbergen,Overijssel,VBO,6.718344,52.385162
Pastoor Eshuisstraat,30,,,7615PB,Harbrinkhoek,Tubbergen,Overijssel,VBO,6.718205,52.385079
Pastoor Eshuisstraat,32,,,7615PB,Harbrinkhoek,Tubbergen,Overijssel,VBO,6.718134,52.385038
Pastoor Eshuisstraat,34,,,7615PB,Harbrinkhoek,Tubbergen,Overijssel,VBO,6.717925,52.384950
Kottestraat,1,,,7615PC,Harbrinkhoek,Tubbergen,Overijssel,VBO,6.720513,52.384908
Kottestraat,2,,,7615PC,Harbrinkhoek,Tubbergen,Overijssel,VBO,6.720315,52.385136
Kottestraat,3,,,7615PC,Harbrinkhoek,Tubbergen,Overijssel,VBO,6.720312,52.384860
Kottestraat,4,,,7615PC,Harbrinkhoek,Tubbergen,Overijssel,VBO,6.720154,52.385090
Kottestraat,5,,,7615PC,Harbrinkhoek,Tubbergen,Overijssel,VBO,6.720135,52.384801
Kottestraat,7,,,7615PC,Harbrinkhoek,Tubbergen,Overijssel,VBO,6.719960,52.384762
Kottestraat,9,,,7615PC,Harbrinkhoek,Tubbergen,Overijssel,VBO,6.719749,52.384716
Kottestraat,10,,,7615PC,Harbrinkhoek,Tubbergen,Overijssel,VBO,6.719488,52.384944
Kottestraat,11,,,7615PC,Harbrinkhoek,Tubbergen,Overijssel,VBO,6.719562,52.384672
Kottestraat,12,,,7615PC,Harbrinkhoek,Tubbergen,Overijssel,VBO,6.719268,52.384899
Kottestraat,13,,,7615PC,Harbrinkhoek,Tubbergen,Overijssel,VBO,6.719377,52.384626
Kottestraat,15,,,7615PC,Harbrinkhoek,Tubbergen,Overijssel,VBO,6.719250,52.384595
Kottestraat,17,,,7615PC,Harbrinkhoek,Tubbergen,Overijssel,VBO,6.719035,52.384533
Kottestraat,19,,,7615PC,Harbrinkhoek,Tubbergen,Overijssel,VBO,6.718796,52.384495
Kottestraat,21,,,7615PC,Harbrinkhoek,Tubbergen,Overijssel,VBO,6.718690,52.384471
Kottestraat,25,,,7615PC,Harbrinkhoek,Tubbergen,Overijssel,VBO,6.718467,52.384421
Kottestraat,27,,,7615PC,Harbrinkhoek,Tubbergen,Overijssel,VBO,6.718284,52.384388
Kottestraat,31,,,7615PC,Harbrinkhoek,Tubbergen,Overijssel,VBO,6.717978,52.384414
Kottestraat,33,,,7615PC,Harbrinkhoek,Tubbergen,Overijssel,VBO,6.717725,52.384502
Kottestraat,35,,,7615PC,Harbrinkhoek,Tubbergen,Overijssel,VBO,6.717417,52.384623
Schoolveldstraat,2,,,7615PD,Harbrinkhoek,Tubbergen,Overijssel,VBO,6.721750,52.386242
Schoolveldstraat,3,,,7615PD,Harbrinkhoek,Tubbergen,Overijssel,VBO,6.722243,52.386230
Schoolveldstraat,4,,,7615PD,Harbrinkhoek,Tubbergen,Overijssel,VBO,6.721844,52.386129
Schoolveldstraat,5,,,7615PD,Harbrinkhoek,Tubbergen,Overijssel,VBO,6.722342,52.386114
Schoolveldstraat,6,,,7615PD,Harbrinkhoek,Tubbergen,Overijssel,VBO,6.721915,52.386000
Schoolveldstraat,7,,,7615PD,Harbrinkhoek,Tubbergen,Overijssel,VBO,6.722433,52.386005
Schoolveldstraat,8,,,7615PD,Harbrinkhoek,Tubbergen,Overijssel,VBO,6.722003,52.385878
Schoolveldstraat,9,,,7615PD,Harbrinkhoek,Tubbergen,Overijssel,VBO,6.722491,52.385895
Schoolveldstraat,10,,,7615PD,Harbrinkhoek,Tubbergen,Overijssel,VBO,6.722125,52.385774
Schoolveldstraat,11,,,7615PD,Harbrinkhoek,Tubbergen,Overijssel,VBO,6.722579,52.385771
Schoolveldstraat,13,,,7615PD,Harbrinkhoek,Tubbergen,Overijssel,VBO,6.722613,52.385714
Kroezenweg,2,,,7615PE,Harbrinkhoek,Tubbergen,Overijssel,VBO,6.728651,52.393774
Kroezenweg,4,,,7615PE,Harbrinkhoek,Tubbergen,Overijssel,VBO,6.728808,52.393740
Achterhoeksweg,13,,,7615PG,Harbrinkhoek,Tubbergen,Overijssel,VBO,6.699397,52.390883
Oude Almeloseweg,10,,,7615PH,Harbrinkhoek,Tubbergen,Overijssel,VBO,6.733225,52.385783
Oude Almeloseweg,11,,,7615PH,Harbrinkhoek,Tubbergen,Overijssel,VBO,6.729273,52.384177
Oude Almeloseweg,21,a,,7615PH,Harbrinkhoek,Tubbergen,Overijssel,VBO,6.720910,52.378146
Oude Almeloseweg,21,,,7615PH,Harbrinkhoek,Tubbergen,Overijssel,VBO,6.720908,52.378089
Oude Almeloseweg,24,,,7615PH,Harbrinkhoek,Tubbergen,Overijssel,VBO,6.718514,52.378546
Oude Almeloseweg,25,a,,7615PH,Harbrinkhoek,Tubbergen,Overijssel,VBO,6.716564,52.377177
Oude Almeloseweg,25,,,7615PH,Harbrinkhoek,Tubbergen,Overijssel,VBO,6.716419,52.377085
Markgravenweg,8,a,,7615PJ,Harbrinkhoek,Tubbergen,Overijssel,VBO,6.729004,52.378395
Markgravenweg,8,,,7615PJ,Harbrinkhoek,Tubbergen,Overijssel,VBO,6.729146,52.378391
Klösseweg,2,,,7615PK,Harbrinkhoek,Tubbergen,Overijssel,VBO,6.724876,52.378344
Klösseweg,4,,,7615PK,Harbrinkhoek,Tubbergen,Overijssel,VBO,6.724055,52.378140
Klösseweg,5,,,7615PK,Harbrinkhoek,Tubbergen,Overijssel,VBO,6.724499,52.378021
Klösseweg,6,,,7615PK,Harbrinkhoek,Tubbergen,Overijssel,VBO,6.723214,52.377558
Klösseweg,7,a,,7615PK,Harbrinkhoek,Tubbergen,Overijssel,VBO,6.724551,52.377216
Klösseweg,7,,,7615PK,Harbrinkhoek,Tubbergen,Overijssel,VBO,6.724591,52.377137
Klösseweg,8,a,,7615PK,Harbrinkhoek,Tubbergen,Overijssel,VBO,6.722650,52.376954
Klösseweg,8,b,,7615PK,Harbrinkhoek,Tubbergen,Overijssel,VBO,6.721850,52.376735
Klösseweg,8,,,7615PK,Harbrinkhoek,Tubbergen,Overijssel,VBO,6.722624,52.376998
Klösseweg,10,,,7615PK,Harbrinkhoek,Tubbergen,Overijssel,VBO,6.721363,52.376609
Klösseweg,11,a,,7615PK,Harbrinkhoek,Tubbergen,Overijssel,VBO,6.721185,52.376254
Klösseweg,11,,,7615PK,Harbrinkhoek,Tubbergen,Overijssel,VBO,6.721044,52.376208
Klösseweg,12,,,7615PK,Harbrinkhoek,Tubbergen,Overijssel,VBO,6.720602,52.376465
Klösseweg,13,,,7615PK,Harbrinkhoek,Tubbergen,Overijssel,VBO,6.720391,52.375991
Klösseweg,15,,,7615PK,Harbrinkhoek,Tubbergen,Overijssel,VBO,6.720180,52.375939
Klösseweg,16,a,,7615PK,Harbrinkhoek,Tubbergen,Overijssel,VBO,6.719775,52.376219
Klösseweg,16,,,7615PK,Harbrinkhoek,Tubbergen,Overijssel,VBO,6.719866,52.376254
Klösseweg,17,,,7615PK,Harbrinkhoek,Tubbergen,Overijssel,VBO,6.719963,52.375889
Klösseweg,19,a,,7615PK,Harbrinkhoek,Tubbergen,Overijssel,VBO,6.719717,52.375819
Klösseweg,19,,,7615PK,Harbrinkhoek,Tubbergen,Overijssel,VBO,6.719790,52.375800
Klösseweg,21,,,7615PK,Harbrinkhoek,Tubbergen,Overijssel,VBO,6.719533,52.375784
Klösseweg,22,a,,7615PK,Harbrinkhoek,Tubbergen,Overijssel,VBO,6.718966,52.376056
Klösseweg,22,,,7615PK,Harbrinkhoek,Tubbergen,Overijssel,VBO,6.719121,52.376093
Klösseweg,23,,,7615PK,Harbrinkhoek,Tubbergen,Overijssel,VBO,6.719230,52.375707
Klösseweg,26,a,,7615PK,Harbrinkhoek,Tubbergen,Overijssel,VBO,6.718374,52.375923
Klösseweg,26,,,7615PK,Harbrinkhoek,Tubbergen,Overijssel,VBO,6.718489,52.375946
Ootmarsumseweg,6,,,7615PL,Harbrinkhoek,Tubbergen,Overijssel,VBO,6.716535,52.375459
Ootmarsumseweg,8,,,7615PL,Harbrinkhoek,Tubbergen,Overijssel,VBO,6.717244,52.375299
Ootmarsumseweg,12,,,7615PL,Harbrinkhoek,Tubbergen,Overijssel,VBO,6.717736,52.374861
Ootmarsumseweg,14,a,,7615PL,Harbrinkhoek,Tubbergen,Overijssel,VBO,6.720835,52.374196
Ootmarsumseweg,14,,,7615PL,Harbrinkhoek,Tubbergen,Overijssel,VBO,6.720856,52.374274
Ootmarsumseweg,15,,,7615PL,Harbrinkhoek,Tubbergen,Overijssel,VBO,6.720791,52.375031
Ootmarsumseweg,17,a,,7615PL,Harbrinkhoek,Tubbergen,Overijssel,VBO,6.721501,52.375045
Ootmarsumseweg,17,,,7615PL,Harbrinkhoek,Tubbergen,Overijssel,VBO,6.721624,52.375074
Ootmarsumseweg,18,,,7615PL,Harbrinkhoek,Tubbergen,Overijssel,VBO,6.722184,52.374310
Ootmarsumseweg,19,,,7615PL,Harbrinkhoek,Tubbergen,Overijssel,VBO,6.722400,52.375027
Ootmarsumseweg,21,,,7615PL,Harbrinkhoek,Tubbergen,Overijssel,VBO,6.722935,52.374753
Ootmarsumseweg,22,,,7615PL,Harbrinkhoek,Tubbergen,Overijssel,VBO,6.723204,52.373837
Ootmarsumseweg,23,a,,7615PL,Harbrinkhoek,Tubbergen,Overijssel,VBO,6.724115,52.374502
Ootmarsumseweg,23,,,7615PL,Harbrinkhoek,Tubbergen,Overijssel,VBO,6.724002,52.374517
Ootmarsumseweg,24,,,7615PL,Harbrinkhoek,Tubbergen,Overijssel,VBO,6.724173,52.373986
Ootmarsumseweg,25,,,7615PL,Harbrinkhoek,Tubbergen,Overijssel,VBO,6.726012,52.374443
Schietbaanweg,3,,,7615PM,Harbrinkhoek,Tubbergen,Overijssel,VBO,6.712890,52.373832
Mekkelenbergweg,3,,,7615PN,Harbrinkhoek,Tubbergen,Overijssel,VBO,6.716892,52.375002
Mekkelenbergweg,5,,,7615PN,Harbrinkhoek,Tubbergen,Overijssel,VBO,6.717057,52.374750
Mekkelenbergweg,7,a,,7615PN,Harbrinkhoek,Tubbergen,Overijssel,VBO,6.717145,52.374589
Mekkelenbergweg,7,,,7615PN,Harbrinkhoek,Tubbergen,Overijssel,VBO,6.717215,52.374558
Mekkelenbergweg,17,,,7615PN,Harbrinkhoek,Tubbergen,Overijssel,VBO,6.717455,52.374183
Mekkelenbergweg,21,,,7615PN,Harbrinkhoek,Tubbergen,Overijssel,VBO,6.717768,52.373841
Mekkelenbergweg,23,,,7615PN,Harbrinkhoek,Tubbergen,Overijssel,VBO,6.717975,52.373589
Mekkelenbergweg,25,,,7615PN,Harbrinkhoek,Tubbergen,Overijssel,VBO,6.718353,52.373093
Mekkelenbergweg,27,,,7615PN,Harbrinkhoek,Tubbergen,Overijssel,VBO,6.718869,52.372655
Mekkelenbergweg,29,,,7615PN,Harbrinkhoek,Tubbergen,Overijssel,VBO,6.718937,52.372257
Mekkelenbergweg,31,a,,7615PN,Harbrinkhoek,Tubbergen,Overijssel,VBO,6.719854,52.372127
Mekkelenbergweg,31,,,7615PN,Harbrinkhoek,Tubbergen,Overijssel,VBO,6.719749,52.372128
Mekkelenbergweg,33,,,7615PN,Harbrinkhoek,Tubbergen,Overijssel,VBO,6.719155,52.372031
Mekkelenbergweg,35,,,7615PN,Harbrinkhoek,Tubbergen,Overijssel,VBO,6.719448,52.372090
Mekkelenbergweg,6,,,7615PP,Harbrinkhoek,Tubbergen,Overijssel,VBO,6.716510,52.374541
Mekkelenbergweg,8,,,7615PP,Harbrinkhoek,Tubbergen,Overijssel,VBO,6.716550,52.374487
Mekkelenbergweg,10,,,7615PP,Harbrinkhoek,Tubbergen,Overijssel,VBO,6.714259,52.372937
Mekkelenbergweg,12,,,7615PP,Harbrinkhoek,Tubbergen,Overijssel,VBO,6.716695,52.374279
Mekkelenbergweg,14,,,7615PP,Harbrinkhoek,Tubbergen,Overijssel,VBO,6.716775,52.373910
Mekkelenbergweg,20,a,,7615PP,Harbrinkhoek,Tubbergen,Overijssel,VBO,6.717310,52.373400
Mekkelenbergweg,20,,,7615PP,Harbrinkhoek,Tubbergen,Overijssel,VBO,6.717241,52.373445
Mekkelenbergweg,22,,,7615PP,Harbrinkhoek,Tubbergen,Overijssel,VBO,6.717267,52.372961
Mekkelenbergweg,24,,,7615PP,Harbrinkhoek,Tubbergen,Overijssel,VBO,6.715514,52.372149
Mekkelenbergweg,26,a,,7615PP,Harbrinkhoek,Tubbergen,Overijssel,VBO,6.717853,52.372547
Mekkelenbergweg,26,,,7615PP,Harbrinkhoek,Tubbergen,Overijssel,VBO,6.717800,52.372611
Mekkelenbergweg,28,,,7615PP,Harbrinkhoek,Tubbergen,Overijssel,VBO,6.718149,52.372137
Mekkelenbergweg,30,a,,7615PP,Harbrinkhoek,Tubbergen,Overijssel,VBO,6.718432,52.371843
Mekkelenbergweg,30,,,7615PP,Harbrinkhoek,Tubbergen,Overijssel,VBO,6.718436,52.371935
Mekkelenbergweg,36,,,7615PP,Harbrinkhoek,Tubbergen,Overijssel,VBO,6.719567,52.370557
Mekkelenbergweg,38,a,,7615PP,Harbrinkhoek,Tubbergen,Overijssel,VBO,6.720065,52.370197
Mekkelenbergweg,38,,,7615PP,Harbrinkhoek,Tubbergen,Overijssel,VBO,6.720042,52.370245
Mekkelenbergweg,40,a,,7615PP,Harbrinkhoek,Tubbergen,Overijssel,VBO,6.720192,52.369937
Mekkelenbergweg,40,,,7615PP,Harbrinkhoek,Tubbergen,Overijssel,VBO,6.720196,52.370032
Mekkelenbergweg,50,,,7615PP,Harbrinkhoek,Tubbergen,Overijssel,VBO,6.721916,52.368429
Mekkelenbergweg,54,a,,7615PP,Harbrinkhoek,Tubbergen,Overijssel,VBO,6.721886,52.368224
Mekkelenbergweg,54,,,7615PP,Harbrinkhoek,Tubbergen,Overijssel,VBO,6.722071,52.368224
Gravendijk,22,,,7615PR,Harbrinkhoek,Tubbergen,Overijssel,VBO,6.722549,52.367999
Gravendijk,26,,,7615PR,Harbrinkhoek,Tubbergen,Overijssel,VBO,6.719644,52.367185
Gravendijk,28,a,,7615PR,Harbrinkhoek,Tubbergen,Overijssel,VBO,6.717884,52.367119
Gravendijk,28,,,7615PR,Harbrinkhoek,Tubbergen,Overijssel,VBO,6.717696,52.367066
Kanaal N.Z.,1,,,7615PS,Harbrinkhoek,Tubbergen,Overijssel,VBO,6.716100,52.367720
Kanaal N.Z.,3,,,7615PS,Harbrinkhoek,Tubbergen,Overijssel,VBO,6.715885,52.367842
Demmersweg,7,,,7615PT,Harbrinkhoek,Tubbergen,Overijssel,VBO,6.701353,52.385571
Peuversweg,1,,,7615PV,Harbrinkhoek,Tubbergen,Overijssel,VBO,6.714172,52.382650
Peuversweg,2,a,,7615PV,Harbrinkhoek,Tubbergen,Overijssel,VBO,6.715630,52.381392
Peuversweg,2,a,,7615PV,Harbrinkhoek,Tubbergen,Overijssel,VBO,6.715995,52.381378
Peuversweg,2,,,7615PV,Harbrinkhoek,Tubbergen,Overijssel,VBO,6.715742,52.381333
Peuversweg,2,,,7615PV,Harbrinkhoek,Tubbergen,Overijssel,VBO,6.716061,52.381441
Peuversweg,3,,,7615PV,Harbrinkhoek,Tubbergen,Overijssel,VBO,6.719218,52.382248
Peuversweg,4,,,7615PV,Harbrinkhoek,Tubbergen,Overijssel,VBO,6.714310,52.382030
Peuversweg,5,a,,7615PV,Harbrinkhoek,Tubbergen,Overijssel,VBO,6.718178,52.380553
Peuversweg,5,,,7615PV,Harbrinkhoek,Tubbergen,Overijssel,VBO,6.718419,52.380488
Walboersweg,32,,,7615PW,Harbrinkhoek,Tubbergen,Overijssel,VBO,6.715230,52.386377
Walboersweg,34,,,7615PW,Harbrinkhoek,Tubbergen,Overijssel,VBO,6.715368,52.386513
Walboersweg,36,,,7615PW,Harbrinkhoek,Tubbergen,Overijssel,VBO,6.715487,52.386624
Walboersweg,38,,,7615PW,Harbrinkhoek,Tubbergen,Overijssel,VBO,6.715614,52.386739
Walboersweg,40,,,7615PW,Harbrinkhoek,Tubbergen,Overijssel,VBO,6.715734,52.386850
Walboersweg,42,,,7615PW,Harbrinkhoek,Tubbergen,Overijssel,VBO,6.715932,52.386940
Walboersweg,62,,,7615PW,Harbrinkhoek,Tubbergen,Overijssel,VBO,6.717362,52.388799
Walboersweg,64,,,7615PW,Harbrinkhoek,Tubbergen,Overijssel,VBO,6.717370,52.388877
Walboersweg,80,a,,7615PW,Harbrinkhoek,Tubbergen,Overijssel,VBO,6.715935,52.392247
Walboersweg,80,,,7615PW,Harbrinkhoek,Tubbergen,Overijssel,VBO,6.715812,52.392247
Noordegraafsingel,16,,,7615PX,Harbrinkhoek,Tubbergen,Overijssel,VBO,6.722606,52.381083
Noordegraafsingel,16,,,7615PX,Harbrinkhoek,Tubbergen,Overijssel,VBO,6.723060,52.381941
Noordegraafsingel,17,a,,7615PX,Harbrinkhoek,Tubbergen,Overijssel,VBO,6.722895,52.379698
Noordegraafsingel,17,,,7615PX,Harbrinkhoek,Tubbergen,Overijssel,VBO,6.722815,52.379639
Noordegraafsingel,18,,,7615PX,Harbrinkhoek,Tubbergen,Overijssel,VBO,6.721024,52.381018
De Krön,1,,,7615PZ,Harbrinkhoek,Tubbergen,Overijssel,VBO,6.716188,52.383183
De Krön,2,,,7615PZ,Harbrinkhoek,Tubbergen,Overijssel,VBO,6.717121,52.383259
De Krön,3,,,7615PZ,Harbrinkhoek,Tubbergen,Overijssel,VBO,6.716539,52.383114
De Krön,4,a,,7615PZ,Harbrinkhoek,Tubbergen,Overijssel,VBO,6.717348,52.382849
De Krön,4,b,,7615PZ,Harbrinkhoek,Tubbergen,Overijssel,VBO,6.717244,52.382996
De Krön,4,c,,7615PZ,Harbrinkhoek,Tubbergen,Overijssel,VBO,6.717616,52.382918
De Krön,4,d,,7615PZ,Harbrinkhoek,Tubbergen,Overijssel,VBO,6.717493,52.382885
De Krön,4,e,,7615PZ,Harbrinkhoek,Tubbergen,Overijssel,VBO,6.717447,52.383048
De Krön,5,,,7615PZ,Harbrinkhoek,Tubbergen,Overijssel,VBO,6.716737,52.382747
De Krön,6,a,,7615PZ,Harbrinkhoek,Tubbergen,Overijssel,VBO,6.717649,52.382574
De Krön,6,,,7615PZ,Harbrinkhoek,Tubbergen,Overijssel,VBO,6.717592,52.382662
De Krön,7,,,7615PZ,Harbrinkhoek,Tubbergen,Overijssel,VBO,6.717065,52.382360
De Krön,8,,,7615PZ,Harbrinkhoek,Tubbergen,Overijssel,VBO,6.717889,52.382231
De Krön,11,,,7615PZ,Harbrinkhoek,Tubbergen,Overijssel,VBO,6.717325,52.381901
Breemösstraat,1,,,7615RA,Harbrinkhoek,Tubbergen,Overijssel,VBO,6.717186,52.385926
Breemösstraat,2,,,7615RA,Harbrinkhoek,Tubbergen,Overijssel,VBO,6.717807,52.385568
Breemösstraat,3,,,7615RA,Harbrinkhoek,Tubbergen,Overijssel,VBO,6.717251,52.386041
Breemösstraat,4,,,7615RA,Harbrinkhoek,Tubbergen,Overijssel,VBO,6.717664,52.385768
Breemösstraat,5,,,7615RA,Harbrinkhoek,Tubbergen,Overijssel,VBO,6.717260,52.386099
Breemösstraat,6,,,7615RA,Harbrinkhoek,Tubbergen,Overijssel,VBO,6.717695,52.385963
Breemösstraat,7,,,7615RA,Harbrinkhoek,Tubbergen,Overijssel,VBO,6.716999,52.386202
Breemösstraat,9,,,7615RA,Harbrinkhoek,Tubbergen,Overijssel,VBO,6.716936,52.386247
Breemösstraat,10,,,7615RA,Harbrinkhoek,Tubbergen,Overijssel,VBO,6.717221,52.386521
Breemösstraat,11,,,7615RA,Harbrinkhoek,Tubbergen,Overijssel,VBO,6.716921,52.386316
Breemösstraat,12,,,7615RA,Harbrinkhoek,Tubbergen,Overijssel,VBO,6.717151,52.386564
Breemösstraat,13,,,7615RA,Harbrinkhoek,Tubbergen,Overijssel,VBO,6.716845,52.386359
Breemösstraat,14,,,7615RA,Harbrinkhoek,Tubbergen,Overijssel,VBO,6.716896,52.386663
Breemösstraat,16,,,7615RA,Harbrinkhoek,Tubbergen,Overijssel,VBO,6.716908,52.386720
Breemösstraat,17,,,7615RA,Harbrinkhoek,Tubbergen,Overijssel,VBO,6.716487,52.386745
Breemösstraat,19,,,7615RA,Harbrinkhoek,Tubbergen,Overijssel,VBO,6.716498,52.386879
Eikenhof,1,,,7615RB,Harbrinkhoek,Tubbergen,Overijssel,VBO,6.717225,52.385676
Eikenhof,3,,,7615RB,Harbrinkhoek,Tubbergen,Overijssel,VBO,6.717129,52.385686
Eikenhof,4,,,7615RB,Harbrinkhoek,Tubbergen,Overijssel,VBO,6.716812,52.385976
Eikenhof,5,,,7615RB,Harbrinkhoek,Tubbergen,Overijssel,VBO,6.716950,52.385691
Eikenhof,6,,,7615RB,Harbrinkhoek,Tubbergen,Overijssel,VBO,6.716627,52.386040
Eikenhof,7,,,7615RB,Harbrinkhoek,Tubbergen,Overijssel,VBO,6.716855,52.385717
Eikenhof,8,,,7615RB,Harbrinkhoek,Tubbergen,Overijssel,VBO,6.716565,52.386084
Eikenhof,9,,,7615RB,Harbrinkhoek,Tubbergen,Overijssel,VBO,6.716745,52.385742
Elzenhof,1,,,7615RC,Harbrinkhoek,Tubbergen,Overijssel,VBO,6.716605,52.386424
Elzenhof,2,,,7615RC,Harbrinkhoek,Tubbergen,Overijssel,VBO,6.716475,52.386690
Elzenhof,3,,,7615RC,Harbrinkhoek,Tubbergen,Overijssel,VBO,6.716368,52.386408
Elzenhof,4,,,7615RC,Harbrinkhoek,Tubbergen,Overijssel,VBO,6.716134,52.386614
Elzenhof,5,,,7615RC,Harbrinkhoek,Tubbergen,Overijssel,VBO,6.716318,52.386256
Elzenhof,6,,,7615RC,Harbrinkhoek,Tubbergen,Overijssel,VBO,6.716084,52.386567
Elzenhof,7,,,7615RC,Harbrinkhoek,Tubbergen,Overijssel,VBO,6.716228,52.386114
Elzenhof,8,,,7615RC,Harbrinkhoek,Tubbergen,Overijssel,VBO,6.715980,52.386540
Elzenhof,10,,,7615RC,Harbrinkhoek,Tubbergen,Overijssel,VBO,6.715927,52.386494
Elzenhof,11,,,7615RC,Harbrinkhoek,Tubbergen,Overijssel,VBO,6.715848,52.385852
Elzenhof,12,,,7615RC,Harbrinkhoek,Tubbergen,Overijssel,VBO,6.715838,52.386394
Elzenhof,13,,,7615RC,Harbrinkhoek,Tubbergen,Overijssel,VBO,6.715628,52.385648
Elzenhof,14,,,7615RC,Harbrinkhoek,Tubbergen,Overijssel,VBO,6.715783,52.386339
Elzenhof,15,,,7615RC,Harbrinkhoek,Tubbergen,Overijssel,VBO,6.715432,52.385641
Elzenhof,16,,,7615RC,Harbrinkhoek,Tubbergen,Overijssel,VBO,6.715693,52.386212
Elzenhof,17,,,7615RC,Harbrinkhoek,Tubbergen,Overijssel,VBO,6.715190,52.385613
Elzenhof,18,,,7615RC,Harbrinkhoek,Tubbergen,Overijssel,VBO,6.715588,52.386053
Elzenhof,19,,,7615RC,Harbrinkhoek,Tubbergen,Overijssel,VBO,6.714927,52.385632
Elzenhof,20,,,7615RC,Harbrinkhoek,Tubbergen,Overijssel,VBO,6.715536,52.386009
Elzenhof,22,,,7615RC,Harbrinkhoek,Tubbergen,Overijssel,VBO,6.715263,52.385865
Berkenhof,1,,,7615RD,Harbrinkhoek,Tubbergen,Overijssel,VBO,6.717462,52.386365
Berkenhof,2,,,7615RD,Harbrinkhoek,Tubbergen,Overijssel,VBO,6.717791,52.386129
Berkenhof,3,,,7615RD,Harbrinkhoek,Tubbergen,Overijssel,VBO,6.717527,52.386404
Berkenhof,4,,,7615RD,Harbrinkhoek,Tubbergen,Overijssel,VBO,6.717866,52.386277
Berkenhof,5,,,7615RD,Harbrinkhoek,Tubbergen,Overijssel,VBO,6.717698,52.386484
Berkenhof,6,,,7615RD,Harbrinkhoek,Tubbergen,Overijssel,VBO,6.717926,52.386313
Berkenhof,7,,,7615RD,Harbrinkhoek,Tubbergen,Overijssel,VBO,6.717756,52.386521
Berkenhof,8,,,7615RD,Harbrinkhoek,Tubbergen,Overijssel,VBO,6.718131,52.386427
Berkenhof,10,,,7615RD,Harbrinkhoek,Tubbergen,Overijssel,VBO,6.718147,52.386477
Wilgenhof,1,,,7615RE,Harbrinkhoek,Tubbergen,Overijssel,VBO,6.717198,52.385174
Wilgenhof,3,,,7615RE,Harbrinkhoek,Tubbergen,Overijssel,VBO,6.717057,52.385257
Wilgenhof,7,,,7615RE,Harbrinkhoek,Tubbergen,Overijssel,VBO,6.716810,52.385387
Wilgenhof,9,,,7615RE,Harbrinkhoek,Tubbergen,Overijssel,VBO,6.716717,52.385405
Wilgenhof,11,,,7615RE,Harbrinkhoek,Tubbergen,Overijssel,VBO,6.716445,52.385391
Wilgenhof,13,,,7615RE,Harbrinkhoek,Tubbergen,Overijssel,VBO,6.716286,52.385323
Wilgenhof,15,,,7615RE,Harbrinkhoek,Tubbergen,Overijssel,VBO,6.716232,52.385290
Wilgenhof,17,,,7615RE,Harbrinkhoek,Tubbergen,Overijssel,VBO,6.716093,52.385201
Wilgenhof,19,,,7615RE,Harbrinkhoek,Tubbergen,Overijssel,VBO,6.716040,52.385167
Wilgenhof,21,,,7615RE,Harbrinkhoek,Tubbergen,Overijssel,VBO,6.715872,52.385051
Wilgenhof,23,,,7615RE,Harbrinkhoek,Tubbergen,Overijssel,VBO,6.715652,52.384921
Wilgenhof,25,,,7615RE,Harbrinkhoek,Tubbergen,Overijssel,VBO,6.715400,52.384875
Wilgenhof,27,,,7615RE,Harbrinkhoek,Tubbergen,Overijssel,VBO,6.715218,52.384780
Wilgenhof,29,,,7615RE,Harbrinkhoek,Tubbergen,Overijssel,VBO,6.715076,52.384684
Wilgenhof,33,,,7615RE,Harbrinkhoek,Tubbergen,Overijssel,VBO,6.714668,52.384785
Wilgenhof,35,,,7615RE,Harbrinkhoek,Tubbergen,Overijssel,VBO,6.714481,52.384894
Wilgenhof,37,,,7615RE,Harbrinkhoek,Tubbergen,Overijssel,VBO,6.714331,52.384984
Wilgenhof,39,,,7615RE,Harbrinkhoek,Tubbergen,Overijssel,VBO,6.714150,52.385071
Wilgenhof,41,,,7615RE,Harbrinkhoek,Tubbergen,Overijssel,VBO,6.713949,52.385158
Wilgenhof,43,,,7615RE,Harbrinkhoek,Tubbergen,Overijssel,VBO,6.714131,52.385379
Wilgenhof,45,,,7615RE,Harbrinkhoek,Tubbergen,Overijssel,VBO,6.714327,52.385451
Wilgenhof,47,,,7615RE,Harbrinkhoek,Tubbergen,Overijssel,VBO,6.714550,52.385594
Wilgenhof,49,,,7615RE,Harbrinkhoek,Tubbergen,Overijssel,VBO,6.714535,52.385742
Wilgenhof,2,,,7615RG,Harbrinkhoek,Tubbergen,Overijssel,VBO,6.716048,52.385753
Wilgenhof,4,,,7615RG,Harbrinkhoek,Tubbergen,Overijssel,VBO,6.716095,52.385708
Wilgenhof,6,,,7615RG,Harbrinkhoek,Tubbergen,Overijssel,VBO,6.716167,52.385673
Wilgenhof,8,,,7615RG,Harbrinkhoek,Tubbergen,Overijssel,VBO,6.716227,52.385626
Wilgenhof,10,,,7615RG,Harbrinkhoek,Tubbergen,Overijssel,VBO,6.715949,52.385480
Wilgenhof,12,,,7615RG,Harbrinkhoek,Tubbergen,Overijssel,VBO,6.715891,52.385444
Wilgenhof,14,,,7615RG,Harbrinkhoek,Tubbergen,Overijssel,VBO,6.715707,52.385335
Wilgenhof,16,,,7615RG,Harbrinkhoek,Tubbergen,Overijssel,VBO,6.715544,52.385230
Wilgenhof,18,,,7615RG,Harbrinkhoek,Tubbergen,Overijssel,VBO,6.715188,52.385154
Wilgenhof,20,,,7615RG,Harbrinkhoek,Tubbergen,Overijssel,VBO,6.714924,52.385215
Wilgenhof,22,,,7615RG,Harbrinkhoek,Tubbergen,Overijssel,VBO,6.714764,52.385307
Wilgenhof,24,,,7615RG,Harbrinkhoek,Tubbergen,Overijssel,VBO,6.714709,52.385345
Wilgenhof,26,,,7615RG,Harbrinkhoek,Tubbergen,Overijssel,VBO,6.714947,52.385899
De Hazelaar,1,,,7615RH,Harbrinkhoek,Tubbergen,Overijssel,VBO,6.714946,52.384556
De Hazelaar,2,,,7615RH,Harbrinkhoek,Tubbergen,Overijssel,VBO,6.714391,52.384578
De Hazelaar,3,,,7615RH,Harbrinkhoek,Tubbergen,Overijssel,VBO,6.714743,52.384395
De Hazelaar,4,,,7615RH,Harbrinkhoek,Tubbergen,Overijssel,VBO,6.714230,52.384477
De Hazelaar,5,,,7615RH,Harbrinkhoek,Tubbergen,Overijssel,VBO,6.714552,52.384288
De Hazelaar,6,,,7615RH,Harbrinkhoek,Tubbergen,Overijssel,VBO,6.713933,52.384304
De Hazelaar,7,,,7615RH,Harbrinkhoek,Tubbergen,Overijssel,VBO,6.714299,52.384113
De Hazelaar,8,,,7615RH,Harbrinkhoek,Tubbergen,Overijssel,VBO,6.713809,52.384201
De Hazelaar,9,,,7615RH,Harbrinkhoek,Tubbergen,Overijssel,VBO,6.714211,52.383893
De Hazelaar,10,,,7615RH,Harbrinkhoek,Tubbergen,Overijssel,VBO,6.713763,52.384148
De Hazelaar,12,,,7615RH,Harbrinkhoek,Tubbergen,Overijssel,VBO,6.713678,52.384026
De Hazelaar,14,,,7615RH,Harbrinkhoek,Tubbergen,Overijssel,VBO,6.713363,52.383948
De Hazelaar,15,,,7615RH,Harbrinkhoek,Tubbergen,Overijssel,VBO,6.713751,52.383758
De Hazelaar,16,,,7615RH,Harbrinkhoek,Tubbergen,Overijssel,VBO,6.713030,52.383906
De Hazelaar,17,,,7615RH,Harbrinkhoek,Tubbergen,Overijssel,VBO,6.713526,52.383707
De Hazelaar,19,,,7615RH,Harbrinkhoek,Tubbergen,Overijssel,VBO,6.713427,52.383691
De Hazelaar,21,,,7615RH,Harbrinkhoek,Tubbergen,Overijssel,VBO,6.713194,52.383627
De Hazelaar,23,,,7615RH,Harbrinkhoek,Tubbergen,Overijssel,VBO,6.712896,52.383652
De Lijsterbes,2,,,7615RJ,Harbrinkhoek,Tubbergen,Overijssel,VBO,6.713964,52.384656
De Lijsterbes,4,,,7615RJ,Harbrinkhoek,Tubbergen,Overijssel,VBO,6.713793,52.384761
De Lijsterbes,6,,,7615RJ,Harbrinkhoek,Tubbergen,Overijssel,VBO,6.713733,52.384800
De Lijsterbes,8,,,7615RJ,Harbrinkhoek,Tubbergen,Overijssel,VBO,6.713550,52.384910
De Iep,3,,,7615RK,Harbrinkhoek,Tubbergen,Overijssel,VBO,6.714508,52.383338
De Iep,5,,,7615RK,Harbrinkhoek,Tubbergen,Overijssel,VBO,6.714423,52.383488
De Iep,7,,,7615RK,Harbrinkhoek,Tubbergen,Overijssel,VBO,6.714391,52.383536
De Iep,9,,,7615RK,Harbrinkhoek,Tubbergen,Overijssel,VBO,6.714306,52.383674
De Iep,11,,,7615RK,Harbrinkhoek,Tubbergen,Overijssel,VBO,6.714276,52.383724
Klaproos,1,,,7615RL,Harbrinkhoek,Tubbergen,Overijssel,VBO,6.712891,52.384825
Klaproos,3,,,7615RL,Harbrinkhoek,Tubbergen,Overijssel,VBO,6.712683,52.384915
Klaproos,4,,,7615RL,Harbrinkhoek,Tubbergen,Overijssel,VBO,6.712934,52.385134
Klaproos,5,,,7615RL,Harbrinkhoek,Tubbergen,Overijssel,VBO,6.712432,52.385007
Klaproos,6,,,7615RL,Harbrinkhoek,Tubbergen,Overijssel,VBO,6.712650,52.385215
Klaproos,7,,,7615RL,Harbrinkhoek,Tubbergen,Overijssel,VBO,6.712184,52.384807
Klaproos,9,,,7615RL,Harbrinkhoek,Tubbergen,Overijssel,VBO,6.712150,52.384756
Klaproos,10,,,7615RL,Harbrinkhoek,Tubbergen,Overijssel,VBO,6.711623,52.384808
Klaproos,11,,,7615RL,Harbrinkhoek,Tubbergen,Overijssel,VBO,6.712069,52.384668
Klaproos,12,,,7615RL,Harbrinkhoek,Tubbergen,Overijssel,VBO,6.711522,52.384646
Klaproos,13,,,7615RL,Harbrinkhoek,Tubbergen,Overijssel,VBO,6.712034,52.384614
Klaproos,14,,,7615RL,Harbrinkhoek,Tubbergen,Overijssel,VBO,6.711486,52.384595
Klaproos,15,a,,7615RL,Harbrinkhoek,Tubbergen,Overijssel,VBO,6.711886,52.384366
Klaproos,15,b,,7615RL,Harbrinkhoek,Tubbergen,Overijssel,VBO,6.711827,52.384378
Klaproos,15,c,,7615RL,Harbrinkhoek,Tubbergen,Overijssel,VBO,6.711850,52.384337
Klaproos,15,d,,7615RL,Harbrinkhoek,Tubbergen,Overijssel,VBO,6.711827,52.384312
Klaproos,15,e,,7615RL,Harbrinkhoek,Tubbergen,Overijssel,VBO,6.711813,52.384274
Klaproos,15,,,7615RL,Harbrinkhoek,Tubbergen,Overijssel,VBO,6.711872,52.384389
Klaproos,16,,,7615RL,Harbrinkhoek,Tubbergen,Overijssel,VBO,6.711461,52.384535
Klaproos,17,,,7615RL,Harbrinkhoek,Tubbergen,Overijssel,VBO,6.712115,52.384248
Klaproos,18,,,7615RL,Harbrinkhoek,Tubbergen,Overijssel,VBO,6.711431,52.384488
Klaproos,19,,,7615RL,Harbrinkhoek,Tubbergen,Overijssel,VBO,6.712353,52.384226
Klaproos,21,,,7615RL,Harbrinkhoek,Tubbergen,Overijssel,VBO,6.712536,52.384476
Klaproos,23,,,7615RL,Harbrinkhoek,Tubbergen,Overijssel,VBO,6.712652,52.384611
Klimop,1,,,7615RM,Harbrinkhoek,Tubbergen,Overijssel,VBO,6.711872,52.385045
Klimop,2,,,7615RM,Harbrinkhoek,Tubbergen,Overijssel,VBO,6.710711,52.385044
Klimop,3,,,7615RM,Harbrinkhoek,Tubbergen,Overijssel,VBO,6.711637,52.385122
Klimop,4,,,7615RM,Harbrinkhoek,Tubbergen,Overijssel,VBO,6.710663,52.384988
Klimop,5,,,7615RM,Harbrinkhoek,Tubbergen,Overijssel,VBO,6.711367,52.385183
Klimop,6,,,7615RM,Harbrinkhoek,Tubbergen,Overijssel,VBO,6.710602,52.384907
Klimop,7,,,7615RM,Harbrinkhoek,Tubbergen,Overijssel,VBO,6.711179,52.384981
Klimop,8,,,7615RM,Harbrinkhoek,Tubbergen,Overijssel,VBO,6.710542,52.384847
Klimop,9,,,7615RM,Harbrinkhoek,Tubbergen,Overijssel,VBO,6.711135,52.384871
Klimop,10,,,7615RM,Harbrinkhoek,Tubbergen,Overijssel,VBO,6.710504,52.384752
Klimop,11,,,7615RM,Harbrinkhoek,Tubbergen,Overijssel,VBO,6.711107,52.384821
Klimop,12,,,7615RM,Harbrinkhoek,Tubbergen,Overijssel,VBO,6.710482,52.384696
Klimop,13,a,,7615RM,Harbrinkhoek,Tubbergen,Overijssel,VBO,6.711034,52.384721
Klimop,13,,,7615RM,Harbrinkhoek,Tubbergen,Overijssel,VBO,6.711071,52.384776
Klimop,15,,,7615RM,Harbrinkhoek,Tubbergen,Overijssel,VBO,6.710961,52.384614
Klimop,17,,,7615RM,Harbrinkhoek,Tubbergen,Overijssel,VBO,6.710831,52.384416
Klimop,19,,,7615RM,Harbrinkhoek,Tubbergen,Overijssel,VBO,6.711092,52.384380
Klimop,21,,,7615RM,Harbrinkhoek,Tubbergen,Overijssel,VBO,6.711300,52.384321
Klaver,1,,,7615RN,Harbrinkhoek,Tubbergen,Overijssel,VBO,6.710962,52.385246
Klaver,3,,,7615RN,Harbrinkhoek,Tubbergen,Overijssel,VBO,6.710748,52.385282
Klaver,5,,,7615RN,Harbrinkhoek,Tubbergen,Overijssel,VBO,6.710536,52.385319
Klaver,7,,,7615RN,Harbrinkhoek,Tubbergen,Overijssel,VBO,6.710347,52.385324
Klaver,11,,,7615RN,Harbrinkhoek,Tubbergen,Overijssel,VBO,6.710112,52.385011
Klaver,13,,,7615RN,Harbrinkhoek,Tubbergen,Overijssel,VBO,6.710085,52.384947
Klaver,15,,,7615RN,Harbrinkhoek,Tubbergen,Overijssel,VBO,6.710048,52.384798
Klaver,17,,,7615RN,Harbrinkhoek,Tubbergen,Overijssel,VBO,6.709811,52.384588
Klaver,19,,,7615RN,Harbrinkhoek,Tubbergen,Overijssel,VBO,6.710024,52.384551
Klaver,21,,,7615RN,Harbrinkhoek,Tubbergen,Overijssel,VBO,6.710134,52.384535
