openbareruimtenaam,huisnummer,huisletter,huisnummertoevoeging,postcode,woonplaatsnaam,gemeentenaam,provincienaam,typeadresseerbaarobject,longitude,latitude
Hesselerweg,9,,,7623AC,Borne,Borne,Overijssel,VBO,6.782222,52.298511
Hesselerweg,11,,,7623AC,Borne,Borne,Overijssel,VBO,6.783926,52.299551
Mekkelhorstweg,5,,,7623AE,Borne,Borne,Overijssel,VBO,6.775940,52.298782
Deurningerweg,35,,,7623AG,Borne,Borne,Overijssel,VBO,6.775283,52.300282
Deurningerweg,37,,,7623AG,Borne,Borne,Overijssel,VBO,6.777401,52.300392
Deurningerweg,39,,,7623AG,Borne,Borne,Overijssel,VBO,6.779087,52.300489
Deurningerweg,51,,,7623AG,Borne,Borne,Overijssel,VBO,6.784308,52.300041
Deurningerweg,36,,,7623AH,Borne,Borne,Overijssel,VBO,6.777230,52.299711
Deurningerweg,40,,,7623AH,Borne,Borne,Overijssel,VBO,6.779932,52.299850
Deurningerweg,42,a,,7623AH,Borne,Borne,Overijssel,VBO,6.781142,52.299428
Deurningerweg,42,,,7623AH,Borne,Borne,Overijssel,VBO,6.780708,52.299814
Deurningerweg,44,,,7623AH,Borne,Borne,Overijssel,VBO,6.781328,52.299932
Deurningerweg,50,,,7623AH,Borne,Borne,Overijssel,VBO,6.782747,52.299826
Bongerdsweg,2,,,7623AJ,Borne,Borne,Overijssel,VBO,6.770419,52.299313
Bongerdsweg,5,,,7623AJ,Borne,Borne,Overijssel,VBO,6.769904,52.298907
Bongerdsweg,7,,,7623AJ,Borne,Borne,Overijssel,VBO,6.770183,52.298931
2e Hemmelhorst,2,,,7623AK,Borne,Borne,Overijssel,VBO,6.775543,52.302958
Hemmelhorst,3,a,,7623AL,Borne,Borne,Overijssel,VBO,6.770923,52.304139
Hemmelhorst,3,,,7623AL,Borne,Borne,Overijssel,VBO,6.770969,52.303937
Hemmelhorst,4,a,,7623AL,Borne,Borne,Overijssel,VBO,6.771549,52.303548
Hemmelhorst,8,,,7623AL,Borne,Borne,Overijssel,VBO,6.788962,52.305994
Hemmelhorst,9,a,,7623AL,Borne,Borne,Overijssel,VBO,6.775352,52.304362
Hemmelhorst,10,,,7623AL,Borne,Borne,Overijssel,VBO,6.790435,52.306220
Hemmelhorst,12,,,7623AL,Borne,Borne,Overijssel,VBO,6.791432,52.306404
Hemmelhorst,13,a,,7623AL,Borne,Borne,Overijssel,VBO,6.781293,52.305262
Hemmelhorst,13,b,,7623AL,Borne,Borne,Overijssel,VBO,6.786389,52.306008
Hemmelhorst,13,,,7623AL,Borne,Borne,Overijssel,VBO,6.781628,52.305304
Hemmelhorst,18,,,7623AL,Borne,Borne,Overijssel,VBO,6.792909,52.306646
4e Hemmelhorst,1,,,7623AM,Borne,Borne,Overijssel,VBO,6.783396,52.307432
Piepersveldweg,1,,,7623AP,Borne,Borne,Overijssel,VBO,6.768873,52.306534
Piepersveldweg,5,a,,7623AP,Borne,Borne,Overijssel,VBO,6.772727,52.306929
Piepersveldweg,5,,,7623AP,Borne,Borne,Overijssel,VBO,6.771283,52.306461
Bornsedijk,55,,,7623AR,Borne,Borne,Overijssel,VBO,6.791432,52.300451
5e Hemmelhorst,2,,,7623AS,Borne,Borne,Overijssel,VBO,6.793209,52.308425
5e Hemmelhorst,4,,,7623AS,Borne,Borne,Overijssel,VBO,6.792259,52.309188
Erve Wieldijk,1,,,7623AT,Borne,Borne,Overijssel,VBO,6.762848,52.303705
Erve Wieldijk,2,,,7623AT,Borne,Borne,Overijssel,VBO,6.762868,52.304046
Erve Wieldijk,3,,,7623AT,Borne,Borne,Overijssel,VBO,6.763306,52.304172
Erve Wieldijk,9,,,7623AT,Borne,Borne,Overijssel,VBO,6.765975,52.305272
Piepersveldweg,12,,,7623AV,Borne,Borne,Overijssel,VBO,6.777151,52.307401
H.F. Roetgerinklaan,1,,,7623AX,Borne,Borne,Overijssel,VBO,6.772529,52.299529
H.F. Roetgerinklaan,3,,,7623AX,Borne,Borne,Overijssel,VBO,6.772904,52.299557
H.F. Roetgerinklaan,5,,,7623AX,Borne,Borne,Overijssel,VBO,6.773283,52.299724
Paardebloem,1,,,7623CA,Borne,Borne,Overijssel,VBO,6.762844,52.309075
Paardebloem,3,,,7623CA,Borne,Borne,Overijssel,VBO,6.762741,52.309085
Paardebloem,5,,,7623CA,Borne,Borne,Overijssel,VBO,6.762552,52.309114
Paardebloem,7,,,7623CA,Borne,Borne,Overijssel,VBO,6.762435,52.309134
Paardebloem,9,,,7623CA,Borne,Borne,Overijssel,VBO,6.762215,52.309136
Paardebloem,11,,,7623CA,Borne,Borne,Overijssel,VBO,6.762127,52.309146
Paardebloem,13,,,7623CA,Borne,Borne,Overijssel,VBO,6.761908,52.309185
Paardebloem,15,,,7623CA,Borne,Borne,Overijssel,VBO,6.761836,52.309203
Paardebloem,17,,,7623CA,Borne,Borne,Overijssel,VBO,6.761663,52.309313
Paardebloem,19,,,7623CA,Borne,Borne,Overijssel,VBO,6.761575,52.309323
Paardebloem,2,,,7623CB,Borne,Borne,Overijssel,VBO,6.762081,52.309551
Paardebloem,4,,,7623CB,Borne,Borne,Overijssel,VBO,6.762008,52.309570
Paardebloem,6,,,7623CB,Borne,Borne,Overijssel,VBO,6.761936,52.309589
Paardebloem,8,,,7623CB,Borne,Borne,Overijssel,VBO,6.761862,52.309590
Paardebloem,10,,,7623CB,Borne,Borne,Overijssel,VBO,6.761656,52.309556
Paardebloem,12,,,7623CB,Borne,Borne,Overijssel,VBO,6.761598,52.309575
Paardebloem,14,,,7623CB,Borne,Borne,Overijssel,VBO,6.761525,52.309585
Boterbloem,2,,,7623CC,Borne,Borne,Overijssel,VBO,6.762472,52.309394
Boterbloem,4,,,7623CC,Borne,Borne,Overijssel,VBO,6.762520,52.309519
Boterbloem,6,,,7623CC,Borne,Borne,Overijssel,VBO,6.762568,52.309653
Boterbloem,8,,,7623CC,Borne,Borne,Overijssel,VBO,6.762645,52.309760
Boterbloem,10,,,7623CC,Borne,Borne,Overijssel,VBO,6.762648,52.309850
Boterbloem,12,,,7623CC,Borne,Borne,Overijssel,VBO,6.762694,52.309939
Boterbloem,14,,,7623CC,Borne,Borne,Overijssel,VBO,6.762682,52.310012
Boterbloem,16,,,7623CC,Borne,Borne,Overijssel,VBO,6.762685,52.310119
Boterbloem,18,,,7623CC,Borne,Borne,Overijssel,VBO,6.762688,52.310200
Boterbloem,20,,,7623CC,Borne,Borne,Overijssel,VBO,6.762691,52.310290
Boterbloem,22,,,7623CC,Borne,Borne,Overijssel,VBO,6.762708,52.310389
Boterbloem,1,,,7623CD,Borne,Borne,Overijssel,VBO,6.762205,52.309774
Boterbloem,3,,,7623CD,Borne,Borne,Overijssel,VBO,6.762221,52.309819
Boterbloem,5,,,7623CD,Borne,Borne,Overijssel,VBO,6.762252,52.309864
Boterbloem,7,,,7623CD,Borne,Borne,Overijssel,VBO,6.762243,52.310035
Boterbloem,9,,,7623CD,Borne,Borne,Overijssel,VBO,6.762259,52.310088
Boterbloem,11,,,7623CD,Borne,Borne,Overijssel,VBO,6.762262,52.310187
Boterbloem,13,,,7623CD,Borne,Borne,Overijssel,VBO,6.762249,52.310232
Boterbloem,15,,,7623CD,Borne,Borne,Overijssel,VBO,6.762236,52.310277
Boterbloem,17,,,7623CD,Borne,Borne,Overijssel,VBO,6.762223,52.310331
Boterbloem,19,,,7623CD,Borne,Borne,Overijssel,VBO,6.762253,52.310376
Boterbloem,21,,,7623CD,Borne,Borne,Overijssel,VBO,6.762233,52.310495
Boterbloem,23,,,7623CD,Borne,Borne,Overijssel,VBO,6.762283,52.310542
Zevenblad,2,,,7623CG,Borne,Borne,Overijssel,VBO,6.760713,52.310367
Zevenblad,4,,,7623CG,Borne,Borne,Overijssel,VBO,6.760715,52.310412
Zevenblad,6,,,7623CG,Borne,Borne,Overijssel,VBO,6.760717,52.310480
Zevenblad,8,,,7623CG,Borne,Borne,Overijssel,VBO,6.760662,52.310601
Zevenblad,10,,,7623CG,Borne,Borne,Overijssel,VBO,6.760663,52.310655
Zevenblad,12,,,7623CG,Borne,Borne,Overijssel,VBO,6.760635,52.310692
Zevenblad,14,,,7623CG,Borne,Borne,Overijssel,VBO,6.760298,52.310695
Zevenblad,16,,,7623CG,Borne,Borne,Overijssel,VBO,6.760281,52.310633
Zevenblad,18,,,7623CG,Borne,Borne,Overijssel,VBO,6.760308,52.310551
Zevenblad,20,,,7623CG,Borne,Borne,Overijssel,VBO,6.760321,52.310497
Zevenblad,22,,,7623CG,Borne,Borne,Overijssel,VBO,6.760334,52.310434
Zevenblad,24,,,7623CG,Borne,Borne,Overijssel,VBO,6.760318,52.310329
Zevenblad,26,,,7623CG,Borne,Borne,Overijssel,VBO,6.759861,52.310305
Zevenblad,28,,,7623CG,Borne,Borne,Overijssel,VBO,6.759877,52.310368
Zevenblad,30,,,7623CG,Borne,Borne,Overijssel,VBO,6.759879,52.310431
Zevenblad,32,,,7623CG,Borne,Borne,Overijssel,VBO,6.759854,52.310525
Zevenblad,34,,,7623CG,Borne,Borne,Overijssel,VBO,6.759824,52.310619
Zevenblad,36,,,7623CG,Borne,Borne,Overijssel,VBO,6.759801,52.310676
Zevenblad,38,,,7623CG,Borne,Borne,Overijssel,VBO,6.759429,52.310647
Zevenblad,40,,,7623CG,Borne,Borne,Overijssel,VBO,6.759443,52.310553
Zevenblad,42,,,7623CG,Borne,Borne,Overijssel,VBO,6.759456,52.310489
Zevenblad,44,,,7623CG,Borne,Borne,Overijssel,VBO,6.759468,52.310426
Zevenblad,46,,,7623CG,Borne,Borne,Overijssel,VBO,6.759481,52.310354
Zevenblad,48,,,7623CG,Borne,Borne,Overijssel,VBO,6.759477,52.310259
Zevenblad,1,,,7623CH,Borne,Borne,Overijssel,VBO,6.760882,52.310131
Zevenblad,3,,,7623CH,Borne,Borne,Overijssel,VBO,6.760779,52.310133
Zevenblad,5,,,7623CH,Borne,Borne,Overijssel,VBO,6.760618,52.310125
Zevenblad,7,,,7623CH,Borne,Borne,Overijssel,VBO,6.760544,52.310108
Zevenblad,9,,,7623CH,Borne,Borne,Overijssel,VBO,6.760368,52.310101
Zevenblad,11,,,7623CH,Borne,Borne,Overijssel,VBO,6.760265,52.310094
Zevenblad,13,,,7623CH,Borne,Borne,Overijssel,VBO,6.760088,52.310078
Zevenblad,15,,,7623CH,Borne,Borne,Overijssel,VBO,6.760000,52.310061
Zevenblad,17,,,7623CH,Borne,Borne,Overijssel,VBO,6.760050,52.309790
Zevenblad,19,,,7623CH,Borne,Borne,Overijssel,VBO,6.760153,52.309798
Zevenblad,21,,,7623CH,Borne,Borne,Overijssel,VBO,6.760359,52.309823
Zevenblad,23,,,7623CH,Borne,Borne,Overijssel,VBO,6.760462,52.309831
Zevenblad,25,,,7623CH,Borne,Borne,Overijssel,VBO,6.760594,52.309847
Zevenblad,27,,,7623CH,Borne,Borne,Overijssel,VBO,6.760668,52.309855
Zevenblad,29,,,7623CH,Borne,Borne,Overijssel,VBO,6.760116,52.309556
Zevenblad,31,,,7623CH,Borne,Borne,Overijssel,VBO,6.760146,52.309425
Zevenblad,33,,,7623CH,Borne,Borne,Overijssel,VBO,6.759926,52.309278
Zevenblad,35,,,7623CH,Borne,Borne,Overijssel,VBO,6.759731,52.309240
Zevenblad,37,,,7623CH,Borne,Borne,Overijssel,VBO,6.759645,52.309217
Zevenblad,39,,,7623CH,Borne,Borne,Overijssel,VBO,6.759487,52.309132
Zevenblad,41,,,7623CH,Borne,Borne,Overijssel,VBO,6.759384,52.309115
Zevenblad,43,,,7623CH,Borne,Borne,Overijssel,VBO,6.758985,52.309021
Zevenblad,45,,,7623CH,Borne,Borne,Overijssel,VBO,6.758898,52.309040
Zevenblad,47,,,7623CH,Borne,Borne,Overijssel,VBO,6.758750,52.308997
Zevenblad,49,,,7623CH,Borne,Borne,Overijssel,VBO,6.758603,52.308980
Zevenblad,50,,,7623CJ,Borne,Borne,Overijssel,VBO,6.759560,52.310066
Zevenblad,52,,,7623CJ,Borne,Borne,Overijssel,VBO,6.759559,52.310021
Zevenblad,54,,,7623CJ,Borne,Borne,Overijssel,VBO,6.759599,52.309922
Zevenblad,56,,,7623CJ,Borne,Borne,Overijssel,VBO,6.759612,52.309858
Zevenblad,58,,,7623CJ,Borne,Borne,Overijssel,VBO,6.759638,52.309750
Zevenblad,60,,,7623CJ,Borne,Borne,Overijssel,VBO,6.759622,52.309697
Zevenblad,62,,,7623CJ,Borne,Borne,Overijssel,VBO,6.759662,52.309570
Zevenblad,64,,,7623CJ,Borne,Borne,Overijssel,VBO,6.759616,52.309499
Zevenblad,66,,,7623CJ,Borne,Borne,Overijssel,VBO,6.759482,52.309455
Zevenblad,68,,,7623CJ,Borne,Borne,Overijssel,VBO,6.759363,52.309403
Zevenblad,70,,,7623CJ,Borne,Borne,Overijssel,VBO,6.759186,52.309351
Zevenblad,72,,,7623CJ,Borne,Borne,Overijssel,VBO,6.759083,52.309334
Zevenblad,74,,,7623CJ,Borne,Borne,Overijssel,VBO,6.758905,52.309291
Zevenblad,76,,,7623CJ,Borne,Borne,Overijssel,VBO,6.758817,52.309274
Zevenblad,78,,,7623CJ,Borne,Borne,Overijssel,VBO,6.758390,52.309225
Zevenblad,80,,,7623CJ,Borne,Borne,Overijssel,VBO,6.758227,52.309182
Zevenblad,82,,,7623CJ,Borne,Borne,Overijssel,VBO,6.758050,52.309131
Zevenblad,86,,,7623CJ,Borne,Borne,Overijssel,VBO,6.757754,52.309062
Zevenblad,88,,,7623CJ,Borne,Borne,Overijssel,VBO,6.757712,52.309107
Zevenblad,90,,,7623CJ,Borne,Borne,Overijssel,VBO,6.757567,52.309172
Zevenblad,92,,,7623CJ,Borne,Borne,Overijssel,VBO,6.757510,52.309209
Zevenblad,94,,,7623CJ,Borne,Borne,Overijssel,VBO,6.757365,52.309282
Zevenblad,96,,,7623CJ,Borne,Borne,Overijssel,VBO,6.757323,52.309328
Zevenblad,98,,,7623CJ,Borne,Borne,Overijssel,VBO,6.757178,52.309401
Zevenblad,100,,,7623CJ,Borne,Borne,Overijssel,VBO,6.757121,52.309438
Hoefblad,2,,,7623CK,Borne,Borne,Overijssel,VBO,6.759067,52.310233
Hoefblad,4,,,7623CK,Borne,Borne,Overijssel,VBO,6.759068,52.310287
Hoefblad,6,,,7623CK,Borne,Borne,Overijssel,VBO,6.759056,52.310359
Hoefblad,8,,,7623CK,Borne,Borne,Overijssel,VBO,6.759009,52.310463
Hoefblad,10,,,7623CK,Borne,Borne,Overijssel,VBO,6.759000,52.310552
Hoefblad,12,,,7623CK,Borne,Borne,Overijssel,VBO,6.758999,52.310602
Hoefblad,14,,,7623CK,Borne,Borne,Overijssel,VBO,6.757704,52.310267
Hoefblad,16,,,7623CK,Borne,Borne,Overijssel,VBO,6.757803,52.310149
Hoefblad,18,,,7623CK,Borne,Borne,Overijssel,VBO,6.757902,52.310040
Hoefblad,20,,,7623CK,Borne,Borne,Overijssel,VBO,6.758016,52.309931
Hoefblad,22,,,7623CK,Borne,Borne,Overijssel,VBO,6.757542,52.309784
Hoefblad,24,,,7623CK,Borne,Borne,Overijssel,VBO,6.757443,52.309902
Hoefblad,26,,,7623CK,Borne,Borne,Overijssel,VBO,6.757344,52.310002
Hoefblad,28,,,7623CK,Borne,Borne,Overijssel,VBO,6.757259,52.310119
Hoefblad,1,,,7623CL,Borne,Borne,Overijssel,VBO,6.759178,52.310043
Hoefblad,3,,,7623CL,Borne,Borne,Overijssel,VBO,6.759191,52.309998
Hoefblad,5,,,7623CL,Borne,Borne,Overijssel,VBO,6.759216,52.309863
Hoefblad,7,,,7623CL,Borne,Borne,Overijssel,VBO,6.759285,52.309700
Hoefblad,9,,,7623CL,Borne,Borne,Overijssel,VBO,6.759239,52.309638
Hoefblad,11,,,7623CL,Borne,Borne,Overijssel,VBO,6.758973,52.309596
Hoefblad,13,,,7623CL,Borne,Borne,Overijssel,VBO,6.758767,52.309554
Hoefblad,15,,,7623CL,Borne,Borne,Overijssel,VBO,6.758664,52.309537
Hoefblad,17,,,7623CL,Borne,Borne,Overijssel,VBO,6.758280,52.309469
Hoefblad,19,,,7623CL,Borne,Borne,Overijssel,VBO,6.758178,52.309480
Hoefblad,21,,,7623CL,Borne,Borne,Overijssel,VBO,6.758029,52.309400
Hoefblad,23,,,7623CL,Borne,Borne,Overijssel,VBO,6.757796,52.309448
Hoefblad,25,,,7623CL,Borne,Borne,Overijssel,VBO,6.757711,52.309539
Hoefblad,27,,,7623CL,Borne,Borne,Overijssel,VBO,6.757639,52.309594
Pinksterbloem,2,,,7623CM,Borne,Borne,Overijssel,VBO,6.763212,52.309115
Pinksterbloem,4,,,7623CM,Borne,Borne,Overijssel,VBO,6.763303,52.309231
Pinksterbloem,6,,,7623CM,Borne,Borne,Overijssel,VBO,6.763321,52.309348
Pinksterbloem,7,,,7623CM,Borne,Borne,Overijssel,VBO,6.762895,52.309326
Pinksterbloem,8,,,7623CM,Borne,Borne,Overijssel,VBO,6.763586,52.309381
Pinksterbloem,9,,,7623CM,Borne,Borne,Overijssel,VBO,6.762944,52.309460
Pinksterbloem,10,,,7623CM,Borne,Borne,Overijssel,VBO,6.764140,52.309752
Pinksterbloem,11,,,7623CM,Borne,Borne,Overijssel,VBO,6.763006,52.309585
Pinksterbloem,12,,,7623CM,Borne,Borne,Overijssel,VBO,6.764130,52.309878
Pinksterbloem,13,,,7623CM,Borne,Borne,Overijssel,VBO,6.763388,52.309590
Pinksterbloem,14,,,7623CM,Borne,Borne,Overijssel,VBO,6.764118,52.309986
Pinksterbloem,15,,,7623CM,Borne,Borne,Overijssel,VBO,6.763490,52.309598
Pinksterbloem,16,,,7623CM,Borne,Borne,Overijssel,VBO,6.764078,52.310094
Pinksterbloem,17,,,7623CM,Borne,Borne,Overijssel,VBO,6.763784,52.309603
Pinksterbloem,18,,,7623CM,Borne,Borne,Overijssel,VBO,6.764067,52.310211
Pinksterbloem,19,,,7623CM,Borne,Borne,Overijssel,VBO,6.763743,52.309694
Pinksterbloem,20,,,7623CM,Borne,Borne,Overijssel,VBO,6.764042,52.310355
Pinksterbloem,21,,,7623CM,Borne,Borne,Overijssel,VBO,6.763775,52.309774
Pinksterbloem,22,,,7623CM,Borne,Borne,Overijssel,VBO,6.764003,52.310518
Pinksterbloem,23,,,7623CM,Borne,Borne,Overijssel,VBO,6.763734,52.309891
Pinksterbloem,24,,,7623CM,Borne,Borne,Overijssel,VBO,6.763978,52.310653
Pinksterbloem,25,,,7623CM,Borne,Borne,Overijssel,VBO,6.763721,52.309937
Pinksterbloem,26,,,7623CM,Borne,Borne,Overijssel,VBO,6.763628,52.310729
Pinksterbloem,27,,,7623CM,Borne,Borne,Overijssel,VBO,6.763412,52.309895
Pinksterbloem,28,,,7623CM,Borne,Borne,Overijssel,VBO,6.763526,52.310730
Pinksterbloem,29,,,7623CM,Borne,Borne,Overijssel,VBO,6.763323,52.309887
Pinksterbloem,30,,,7623CM,Borne,Borne,Overijssel,VBO,6.763320,52.310723
Pinksterbloem,32,,,7623CM,Borne,Borne,Overijssel,VBO,6.763217,52.310724
Pinksterbloem,34,,,7623CM,Borne,Borne,Overijssel,VBO,6.763041,52.310717
Pinksterbloem,31,,,7623CN,Borne,Borne,Overijssel,VBO,6.763169,52.310096
Pinksterbloem,33,,,7623CN,Borne,Borne,Overijssel,VBO,6.763301,52.310121
Pinksterbloem,35,,,7623CN,Borne,Borne,Overijssel,VBO,6.763389,52.310111
Pinksterbloem,37,,,7623CN,Borne,Borne,Overijssel,VBO,6.763683,52.310135
Pinksterbloem,39,,,7623CN,Borne,Borne,Overijssel,VBO,6.763671,52.310207
Pinksterbloem,41,,,7623CN,Borne,Borne,Overijssel,VBO,6.763673,52.310279
Pinksterbloem,43,,,7623CN,Borne,Borne,Overijssel,VBO,6.763632,52.310378
Pinksterbloem,45,,,7623CN,Borne,Borne,Overijssel,VBO,6.763634,52.310441
Pinksterbloem,47,,,7623CN,Borne,Borne,Overijssel,VBO,6.763577,52.310513
Pinksterbloem,49,,,7623CN,Borne,Borne,Overijssel,VBO,6.763312,52.310481
Pinksterbloem,51,,,7623CN,Borne,Borne,Overijssel,VBO,6.763209,52.310464
Pinksterbloem,53,,,7623CN,Borne,Borne,Overijssel,VBO,6.763092,52.310465
Pinksterbloem,55,,,7623CN,Borne,Borne,Overijssel,VBO,6.762686,52.310617
Pinksterbloem,57,,,7623CN,Borne,Borne,Overijssel,VBO,6.762678,52.310673
Pinksterbloem,59,,,7623CN,Borne,Borne,Overijssel,VBO,6.762655,52.310724
Pinksterbloem,61,,,7623CN,Borne,Borne,Overijssel,VBO,6.762624,52.310773
Hoefblad,30,,,7623CP,Borne,Borne,Overijssel,VBO,6.756918,52.310007
Hoefblad,32,,,7623CP,Borne,Borne,Overijssel,VBO,6.756960,52.309943
Hoefblad,34,,,7623CP,Borne,Borne,Overijssel,VBO,6.757032,52.309879
Hoefblad,36,,,7623CP,Borne,Borne,Overijssel,VBO,6.757103,52.309798
Hoefblad,38,,,7623CP,Borne,Borne,Overijssel,VBO,6.757159,52.309734
Hoefblad,40,,,7623CP,Borne,Borne,Overijssel,VBO,6.757187,52.309671
Hoefblad,42,,,7623CP,Borne,Borne,Overijssel,VBO,6.756757,52.309541
Hoefblad,44,,,7623CP,Borne,Borne,Overijssel,VBO,6.756715,52.309586
Hoefblad,46,,,7623CP,Borne,Borne,Overijssel,VBO,6.756659,52.309686
Hoefblad,48,,,7623CP,Borne,Borne,Overijssel,VBO,6.756602,52.309723
Hoefblad,50,,,7623CP,Borne,Borne,Overijssel,VBO,6.756560,52.309804
Hoefblad,52,,,7623CP,Borne,Borne,Overijssel,VBO,6.756488,52.309850
Hoefblad,54,a,,7623CP,Borne,Borne,Overijssel,VBO,6.755852,52.309677
Hoefblad,54,,,7623CP,Borne,Borne,Overijssel,VBO,6.756176,52.309719
Hoefblad,56,,,7623CP,Borne,Borne,Overijssel,VBO,6.756219,52.309673
Hoefblad,58,,,7623CP,Borne,Borne,Overijssel,VBO,6.756319,52.309591
Hoefblad,60,,,7623CP,Borne,Borne,Overijssel,VBO,6.756346,52.309528
Hoefblad,62,,,7623CP,Borne,Borne,Overijssel,VBO,6.756460,52.309419
Zevenblad,51,,,7623CR,Borne,Borne,Overijssel,VBO,6.758499,52.308955
Zevenblad,53,,,7623CR,Borne,Borne,Overijssel,VBO,6.758396,52.308929
Zevenblad,55,,,7623CR,Borne,Borne,Overijssel,VBO,6.758248,52.308903
Zevenblad,57,,,7623CR,Borne,Borne,Overijssel,VBO,6.758129,52.308851
Zevenblad,61,,,7623CR,Borne,Borne,Overijssel,VBO,6.757936,52.308763
Zevenblad,63,,,7623CR,Borne,Borne,Overijssel,VBO,6.757833,52.308747
Zevenblad,65,,,7623CR,Borne,Borne,Overijssel,VBO,6.757585,52.308785
Zevenblad,67,,,7623CR,Borne,Borne,Overijssel,VBO,6.757527,52.308831
Zevenblad,69,,,7623CR,Borne,Borne,Overijssel,VBO,6.757441,52.308886
Zevenblad,71,,,7623CR,Borne,Borne,Overijssel,VBO,6.757355,52.308941
Zevenblad,73,,,7623CR,Borne,Borne,Overijssel,VBO,6.757239,52.309005
Zevenblad,75,,,7623CR,Borne,Borne,Overijssel,VBO,6.757153,52.309051
Zevenblad,77,,,7623CR,Borne,Borne,Overijssel,VBO,6.757067,52.309106
Zevenblad,79,,,7623CR,Borne,Borne,Overijssel,VBO,6.756995,52.309152
Zevenblad,81,,,7623CR,Borne,Borne,Overijssel,VBO,6.756865,52.309216
Zevenblad,83,,,7623CR,Borne,Borne,Overijssel,VBO,6.756792,52.309253
Oostermaat,1,a,,7623CS,Borne,Borne,Overijssel,VBO,6.747185,52.309479
Oostermaat,1,c,,7623CS,Borne,Borne,Overijssel,VBO,6.747238,52.309409
Oostermaat,1,,,7623CS,Borne,Borne,Overijssel,VBO,6.747077,52.309574
Oostermaat,2,a,,7623CS,Borne,Borne,Overijssel,VBO,6.746667,52.309105
Oostermaat,2,,,7623CS,Borne,Borne,Overijssel,VBO,6.746161,52.309268
Oostermaat,3,,,7623CS,Borne,Borne,Overijssel,VBO,6.747130,52.309093
Oostermaat,5,,,7623CS,Borne,Borne,Overijssel,VBO,6.747336,52.308841
Oostermaat,7,,,7623CS,Borne,Borne,Overijssel,VBO,6.747801,52.308701
Oostermaat,8,,,7623CS,Borne,Borne,Overijssel,VBO,6.749207,52.308190
Oostermaat,9,b,,7623CS,Borne,Borne,Overijssel,VBO,6.748277,52.308521
Oostermaat,9,,,7623CS,Borne,Borne,Overijssel,VBO,6.748199,52.308592
Oostermaat,11,,,7623CS,Borne,Borne,Overijssel,VBO,6.748731,52.308429
Stroom-Eschlaan,2,,,7623CT,Borne,Borne,Overijssel,VBO,6.757571,52.308429
Stroom-Eschlaan,4,,,7623CT,Borne,Borne,Overijssel,VBO,6.757495,52.308425
Stroom-Eschlaan,6,,,7623CT,Borne,Borne,Overijssel,VBO,6.757525,52.308445
Stroom-Eschlaan,8,,,7623CT,Borne,Borne,Overijssel,VBO,6.757460,52.308464
Stroom-Eschlaan,10,,,7623CT,Borne,Borne,Overijssel,VBO,6.757402,52.308496
Stroom-Eschlaan,12,,,7623CT,Borne,Borne,Overijssel,VBO,6.757341,52.308528
Stroom-Eschlaan,14,,,7623CT,Borne,Borne,Overijssel,VBO,6.757290,52.308564
Stroom-Eschlaan,16,,,7623CT,Borne,Borne,Overijssel,VBO,6.757235,52.308596
Stroom-Eschlaan,18,,,7623CT,Borne,Borne,Overijssel,VBO,6.757148,52.308616
Stroom-Eschlaan,20,,,7623CT,Borne,Borne,Overijssel,VBO,6.757091,52.308651
Stroom-Eschlaan,22,,,7623CT,Borne,Borne,Overijssel,VBO,6.757038,52.308684
Stroom-Eschlaan,24,,,7623CT,Borne,Borne,Overijssel,VBO,6.756904,52.308745
Stroom-Eschlaan,26,,,7623CT,Borne,Borne,Overijssel,VBO,6.756808,52.308802
Stroom-Eschlaan,28,,,7623CT,Borne,Borne,Overijssel,VBO,6.756752,52.308862
Stroom-Eschlaan,30,,,7623CT,Borne,Borne,Overijssel,VBO,6.756663,52.308926
Stroom-Eschlaan,32,,,7623CT,Borne,Borne,Overijssel,VBO,6.756562,52.308978
Stroom-Eschlaan,34,,,7623CT,Borne,Borne,Overijssel,VBO,6.756455,52.309037
Stroom-Eschlaan,36,,,7623CT,Borne,Borne,Overijssel,VBO,6.756147,52.309245
Stroom-Eschlaan,38,,,7623CT,Borne,Borne,Overijssel,VBO,6.755950,52.309348
Stroom-Eschlaan,40,,,7623CT,Borne,Borne,Overijssel,VBO,6.755806,52.309439
Stroom-Eschlaan,42,,,7623CT,Borne,Borne,Overijssel,VBO,6.755657,52.309521
Stroom-Eschlaan,44,,,7623CT,Borne,Borne,Overijssel,VBO,6.755118,52.309735
Stroom-Eschlaan,46,,,7623CT,Borne,Borne,Overijssel,VBO,6.754954,52.309744
Stroom-Eschlaan,48,,,7623CT,Borne,Borne,Overijssel,VBO,6.754874,52.309751
Stroom-Eschlaan,50,,,7623CT,Borne,Borne,Overijssel,VBO,6.754708,52.309764
Stroom-Eschlaan,52,,,7623CT,Borne,Borne,Overijssel,VBO,6.754638,52.309773
Stroom-Eschlaan,54,,,7623CT,Borne,Borne,Overijssel,VBO,6.754504,52.309826
Stroom-Eschlaan,56,,,7623CT,Borne,Borne,Overijssel,VBO,6.754390,52.309831
Stroom-Eschlaan,58,,,7623CT,Borne,Borne,Overijssel,VBO,6.754219,52.309841
Stroom-Eschlaan,60,,,7623CT,Borne,Borne,Overijssel,VBO,6.754142,52.309837
Stroom-Eschlaan,62,,,7623CT,Borne,Borne,Overijssel,VBO,6.753978,52.309890
Stroom-Eschlaan,64,,,7623CT,Borne,Borne,Overijssel,VBO,6.753913,52.309919
Stroom-Eschlaan,66,,,7623CT,Borne,Borne,Overijssel,VBO,6.753766,52.309974
Stroom-Eschlaan,68,,,7623CT,Borne,Borne,Overijssel,VBO,6.753698,52.309997
Stroom-Eschlaan,70,,,7623CT,Borne,Borne,Overijssel,VBO,6.753564,52.310052
Stroom-Eschlaan,72,,,7623CT,Borne,Borne,Overijssel,VBO,6.753491,52.310077
Stroom-Eschlaan,74,,,7623CT,Borne,Borne,Overijssel,VBO,6.753350,52.310133
Stroom-Eschlaan,76,,,7623CT,Borne,Borne,Overijssel,VBO,6.753280,52.310158
Stroom-Eschlaan,78,,,7623CT,Borne,Borne,Overijssel,VBO,6.753137,52.310209
Stroom-Eschlaan,80,,,7623CT,Borne,Borne,Overijssel,VBO,6.752530,52.310360
Stroom-Eschlaan,82,,,7623CT,Borne,Borne,Overijssel,VBO,6.752356,52.310386
Stroom-Eschlaan,9,,,7623CV,Borne,Borne,Overijssel,VBO,6.756288,52.308615
Stroom-Eschlaan,11,,,7623CV,Borne,Borne,Overijssel,VBO,6.756249,52.308660
Stroom-Eschlaan,13,,,7623CV,Borne,Borne,Overijssel,VBO,6.756196,52.308698
Stroom-Eschlaan,15,,,7623CV,Borne,Borne,Overijssel,VBO,6.756121,52.308728
Stroom-Eschlaan,17,,,7623CV,Borne,Borne,Overijssel,VBO,6.756029,52.308810
Stroom-Eschlaan,19,,,7623CV,Borne,Borne,Overijssel,VBO,6.755972,52.308850
Stroom-Eschlaan,21,,,7623CV,Borne,Borne,Overijssel,VBO,6.755942,52.308899
Stroom-Eschlaan,23,,,7623CV,Borne,Borne,Overijssel,VBO,6.755883,52.308933
Stroom-Eschlaan,25,,,7623CV,Borne,Borne,Overijssel,VBO,6.755824,52.308969
Stroom-Eschlaan,27,,,7623CV,Borne,Borne,Overijssel,VBO,6.755743,52.308991
Stroom-Eschlaan,29,,,7623CV,Borne,Borne,Overijssel,VBO,6.755620,52.309068
Stroom-Eschlaan,31,,,7623CV,Borne,Borne,Overijssel,VBO,6.755561,52.309131
Stroom-Eschlaan,33,,,7623CV,Borne,Borne,Overijssel,VBO,6.755473,52.309205
Stroom-Eschlaan,35,,,7623CV,Borne,Borne,Overijssel,VBO,6.755412,52.309242
Stroom-Eschlaan,37,,,7623CV,Borne,Borne,Overijssel,VBO,6.755275,52.309337
Stroom-Eschlaan,39,,,7623CV,Borne,Borne,Overijssel,VBO,6.755169,52.309357
Stroom-Eschlaan,41,,,7623CV,Borne,Borne,Overijssel,VBO,6.754998,52.309424
Stroom-Eschlaan,43,,,7623CV,Borne,Borne,Overijssel,VBO,6.754890,52.309438
Stroom-Eschlaan,45,,,7623CV,Borne,Borne,Overijssel,VBO,6.754716,52.309450
Stroom-Eschlaan,47,,,7623CV,Borne,Borne,Overijssel,VBO,6.754627,52.309462
Stroom-Eschlaan,49,,,7623CW,Borne,Borne,Overijssel,VBO,6.754438,52.309446
Stroom-Eschlaan,51,,,7623CW,Borne,Borne,Overijssel,VBO,6.754320,52.309458
Stroom-Eschlaan,53,,,7623CW,Borne,Borne,Overijssel,VBO,6.754187,52.309484
Stroom-Eschlaan,55,,,7623CW,Borne,Borne,Overijssel,VBO,6.754091,52.309499
Stroom-Eschlaan,57,,,7623CW,Borne,Borne,Overijssel,VBO,6.753770,52.309596
Stroom-Eschlaan,59,,,7623CW,Borne,Borne,Overijssel,VBO,6.753626,52.309648
Stroom-Eschlaan,61,,,7623CW,Borne,Borne,Overijssel,VBO,6.753534,52.309710
Stroom-Eschlaan,63,,,7623CW,Borne,Borne,Overijssel,VBO,6.753400,52.309752
Stroom-Eschlaan,65,,,7623CW,Borne,Borne,Overijssel,VBO,6.753287,52.309801
Stroom-Eschlaan,67,,,7623CW,Borne,Borne,Overijssel,VBO,6.753149,52.309853
Stroom-Eschlaan,69,,,7623CW,Borne,Borne,Overijssel,VBO,6.753028,52.309901
Stroom-Eschlaan,71,,,7623CW,Borne,Borne,Overijssel,VBO,6.752915,52.309946
Stroom-Eschlaan,73,,,7623CW,Borne,Borne,Overijssel,VBO,6.752759,52.309983
Stroom-Eschlaan,75,,,7623CW,Borne,Borne,Overijssel,VBO,6.752624,52.310005
Stroom-Eschlaan,77,,,7623CW,Borne,Borne,Overijssel,VBO,6.752312,52.310074
Stroom-Eschlaan,79,,,7623CW,Borne,Borne,Overijssel,VBO,6.752122,52.310102
Stroom-Eschlaan,81,,,7623CW,Borne,Borne,Overijssel,VBO,6.751947,52.310152
Stroom-Eschlaan,83,,,7623CW,Borne,Borne,Overijssel,VBO,6.751864,52.310163
Stroom-Eschlaan,85,,,7623CW,Borne,Borne,Overijssel,VBO,6.751669,52.310192
Stroom-Eschlaan,87,,,7623CW,Borne,Borne,Overijssel,VBO,6.751579,52.310208
Stroom-Eschlaan,89,,,7623CW,Borne,Borne,Overijssel,VBO,6.751393,52.310239
Stroom-Eschlaan,91,,,7623CW,Borne,Borne,Overijssel,VBO,6.751308,52.310251
Stroom-Eschlaan,93,,,7623CW,Borne,Borne,Overijssel,VBO,6.751068,52.310273
Stroom-Eschlaan,95,,,7623CW,Borne,Borne,Overijssel,VBO,6.750991,52.310264
Stroom-Eschlaan,97,,,7623CW,Borne,Borne,Overijssel,VBO,6.750775,52.310193
Stroom-Eschlaan,99,,,7623CW,Borne,Borne,Overijssel,VBO,6.750712,52.310158
Stroom-Eschlaan,84,,,7623CX,Borne,Borne,Overijssel,VBO,6.752267,52.310401
Stroom-Eschlaan,86,,,7623CX,Borne,Borne,Overijssel,VBO,6.752101,52.310427
Stroom-Eschlaan,88,,,7623CX,Borne,Borne,Overijssel,VBO,6.752013,52.310440
Stroom-Eschlaan,90,,,7623CX,Borne,Borne,Overijssel,VBO,6.751819,52.310471
Stroom-Eschlaan,92,,,7623CX,Borne,Borne,Overijssel,VBO,6.751731,52.310482
Stroom-Eschlaan,94,,,7623CX,Borne,Borne,Overijssel,VBO,6.751568,52.310508
Stroom-Eschlaan,96,,,7623CX,Borne,Borne,Overijssel,VBO,6.751472,52.310519
Stroom-Eschlaan,98,,,7623CX,Borne,Borne,Overijssel,VBO,6.751310,52.310554
Stroom-Eschlaan,102,,,7623CX,Borne,Borne,Overijssel,VBO,6.750346,52.310366
Stroom-Eschlaan,104,,,7623CX,Borne,Borne,Overijssel,VBO,6.750281,52.310337
Stroom-Eschlaan,106,,,7623CX,Borne,Borne,Overijssel,VBO,6.750135,52.310261
Stroom-Eschlaan,108,,,7623CX,Borne,Borne,Overijssel,VBO,6.750064,52.310239
Stroom-Eschlaan,110,,,7623CX,Borne,Borne,Overijssel,VBO,6.749875,52.310197
Stroom-Eschlaan,112,,,7623CX,Borne,Borne,Overijssel,VBO,6.749795,52.310187
Stroom-Eschlaan,114,,,7623CX,Borne,Borne,Overijssel,VBO,6.749643,52.310161
Stroom-Eschlaan,116,,,7623CX,Borne,Borne,Overijssel,VBO,6.749559,52.310152
Stroom-Eschlaan,118,,,7623CX,Borne,Borne,Overijssel,VBO,6.749394,52.310129
Stroom-Eschlaan,120,,,7623CX,Borne,Borne,Overijssel,VBO,6.749312,52.310118
Stroom-Eschlaan,122,,,7623CX,Borne,Borne,Overijssel,VBO,6.749166,52.310095
Stroom-Eschlaan,124,,,7623CX,Borne,Borne,Overijssel,VBO,6.749074,52.310084
Stroom-Eschlaan,126,,,7623CX,Borne,Borne,Overijssel,VBO,6.748909,52.310067
Stroom-Eschlaan,128,,,7623CX,Borne,Borne,Overijssel,VBO,6.748838,52.310054
Stroom-Eschlaan,130,,,7623CX,Borne,Borne,Overijssel,VBO,6.748640,52.310041
Stroom-Eschlaan,132,,,7623CX,Borne,Borne,Overijssel,VBO,6.748559,52.310043
Stroom-Eschlaan,134,,,7623CX,Borne,Borne,Overijssel,VBO,6.748375,52.310051
Stroom-Eschlaan,136,,,7623CX,Borne,Borne,Overijssel,VBO,6.748299,52.310057
Stroom-Eschlaan,138,,,7623CX,Borne,Borne,Overijssel,VBO,6.748125,52.310076
Stroom-Eschlaan,101,,,7623CZ,Borne,Borne,Overijssel,VBO,6.750562,52.310083
Stroom-Eschlaan,103,,,7623CZ,Borne,Borne,Overijssel,VBO,6.750422,52.310011
Stroom-Eschlaan,105,,,7623CZ,Borne,Borne,Overijssel,VBO,6.750039,52.309925
Stroom-Eschlaan,107,,,7623CZ,Borne,Borne,Overijssel,VBO,6.749870,52.309921
Stroom-Eschlaan,109,,,7623CZ,Borne,Borne,Overijssel,VBO,6.749786,52.309908
Stroom-Eschlaan,111,,,7623CZ,Borne,Borne,Overijssel,VBO,6.749619,52.309886
Stroom-Eschlaan,113,,,7623CZ,Borne,Borne,Overijssel,VBO,6.749545,52.309875
Stroom-Eschlaan,115,,,7623CZ,Borne,Borne,Overijssel,VBO,6.749379,52.309856
Stroom-Eschlaan,117,,,7623CZ,Borne,Borne,Overijssel,VBO,6.749292,52.309842
Stroom-Eschlaan,119,,,7623CZ,Borne,Borne,Overijssel,VBO,6.749126,52.309817
Stroom-Eschlaan,121,,,7623CZ,Borne,Borne,Overijssel,VBO,6.749050,52.309808
Stroom-Eschlaan,123,,,7623CZ,Borne,Borne,Overijssel,VBO,6.748483,52.309713
Stroom-Eschlaan,125,,,7623CZ,Borne,Borne,Overijssel,VBO,6.748288,52.309710
Stroom-Eschlaan,127,,,7623CZ,Borne,Borne,Overijssel,VBO,6.748078,52.309679
Stroom-Eschlaan,129,,,7623CZ,Borne,Borne,Overijssel,VBO,6.747899,52.309655
Stroom-Eschlaan,131,,,7623CZ,Borne,Borne,Overijssel,VBO,6.747704,52.309636
Weerselosestraat,2,,,7623DA,Borne,Borne,Overijssel,VBO,6.760425,52.304792
Weerselosestraat,4,,,7623DA,Borne,Borne,Overijssel,VBO,6.760427,52.304863
Weerselosestraat,6,,,7623DA,Borne,Borne,Overijssel,VBO,6.760386,52.304937
Weerselosestraat,8,,,7623DA,Borne,Borne,Overijssel,VBO,6.760375,52.305008
Weerselosestraat,10,,,7623DA,Borne,Borne,Overijssel,VBO,6.760379,52.305057
Weerselosestraat,12,,,7623DA,Borne,Borne,Overijssel,VBO,6.759824,52.305308
Weerselosestraat,14,,,7623DA,Borne,Borne,Overijssel,VBO,6.759735,52.305291
Weerselosestraat,16,,,7623DA,Borne,Borne,Overijssel,VBO,6.759662,52.305292
Weerselosestraat,18,,,7623DA,Borne,Borne,Overijssel,VBO,6.759588,52.305283
Weerselosestraat,20,,,7623DA,Borne,Borne,Overijssel,VBO,6.759500,52.305275
Weerselosestraat,22,,,7623DA,Borne,Borne,Overijssel,VBO,6.759412,52.305267
Weerselosestraat,24,,,7623DA,Borne,Borne,Overijssel,VBO,6.759338,52.305268
Weerselosestraat,26,,,7623DA,Borne,Borne,Overijssel,VBO,6.759250,52.305269
Weerselosestraat,28,,,7623DA,Borne,Borne,Overijssel,VBO,6.759177,52.305279
Weerselosestraat,30,,,7623DA,Borne,Borne,Overijssel,VBO,6.759090,52.305289
Weerselosestraat,32,,,7623DA,Borne,Borne,Overijssel,VBO,6.758705,52.305177
Weerselosestraat,34,,,7623DA,Borne,Borne,Overijssel,VBO,6.758631,52.305151
Weerselosestraat,36,,,7623DA,Borne,Borne,Overijssel,VBO,6.758586,52.305115
Weerselosestraat,38,,,7623DA,Borne,Borne,Overijssel,VBO,6.758526,52.305080
Weerselosestraat,40,,,7623DA,Borne,Borne,Overijssel,VBO,6.758279,52.305164
Weerselosestraat,42,,,7623DA,Borne,Borne,Overijssel,VBO,6.758178,52.305210
Weerselosestraat,44,,,7623DA,Borne,Borne,Overijssel,VBO,6.758120,52.305229
Weerselosestraat,46,,,7623DA,Borne,Borne,Overijssel,VBO,6.758047,52.305238
Weerselosestraat,48,,,7623DA,Borne,Borne,Overijssel,VBO,6.757945,52.305258
Weerselosestraat,50,,,7623DA,Borne,Borne,Overijssel,VBO,6.757873,52.305285
Weerselosestraat,52,,,7623DB,Borne,Borne,Overijssel,VBO,6.757829,52.305313
Weerselosestraat,54,,,7623DB,Borne,Borne,Overijssel,VBO,6.757757,52.305341
Weerselosestraat,56,,,7623DB,Borne,Borne,Overijssel,VBO,6.757453,52.305461
Weerselosestraat,58,,,7623DB,Borne,Borne,Overijssel,VBO,6.757394,52.305471
Weerselosestraat,60,,,7623DB,Borne,Borne,Overijssel,VBO,6.757322,52.305498
Weerselosestraat,62,,,7623DB,Borne,Borne,Overijssel,VBO,6.757264,52.305517
Weerselosestraat,64,,,7623DB,Borne,Borne,Overijssel,VBO,6.757177,52.305545
Weerselosestraat,66,,,7623DB,Borne,Borne,Overijssel,VBO,6.757104,52.305564
Weerselosestraat,68,,,7623DB,Borne,Borne,Overijssel,VBO,6.757046,52.305592
Weerselosestraat,70,,,7623DB,Borne,Borne,Overijssel,VBO,6.756974,52.305637
Weerselosestraat,72,,,7623DB,Borne,Borne,Overijssel,VBO,6.756889,52.305737
Weerselosestraat,74,,,7623DB,Borne,Borne,Overijssel,VBO,6.756847,52.305801
Weerselosestraat,76,,,7623DB,Borne,Borne,Overijssel,VBO,6.756834,52.305837
Weerselosestraat,78,,,7623DB,Borne,Borne,Overijssel,VBO,6.756850,52.305890
Weerselosestraat,80,,,7623DB,Borne,Borne,Overijssel,VBO,6.756851,52.305935
Weerselosestraat,82,,,7623DB,Borne,Borne,Overijssel,VBO,6.756838,52.305989
Weerselosestraat,84,,,7623DB,Borne,Borne,Overijssel,VBO,6.756854,52.306025
Weerselosestraat,86,,,7623DB,Borne,Borne,Overijssel,VBO,6.756829,52.306142
Weerselosestraat,88,,,7623DB,Borne,Borne,Overijssel,VBO,6.756874,52.306205
Weerselosestraat,90,,,7623DB,Borne,Borne,Overijssel,VBO,6.756861,52.306259
Weerselosestraat,92,,,7623DB,Borne,Borne,Overijssel,VBO,6.756833,52.306295
Weerselosestraat,94,,,7623DC,Borne,Borne,Overijssel,VBO,6.757478,52.306764
Weerselosestraat,96,,,7623DC,Borne,Borne,Overijssel,VBO,6.757510,52.306827
Weerselosestraat,98,,,7623DC,Borne,Borne,Overijssel,VBO,6.757526,52.306871
Weerselosestraat,100,,,7623DC,Borne,Borne,Overijssel,VBO,6.757541,52.306907
Weerselosestraat,102,,,7623DC,Borne,Borne,Overijssel,VBO,6.757558,52.306961
Weerselosestraat,104,,,7623DC,Borne,Borne,Overijssel,VBO,6.757545,52.307024
Weerselosestraat,106,,,7623DC,Borne,Borne,Overijssel,VBO,6.757561,52.307069
Weerselosestraat,108,,,7623DC,Borne,Borne,Overijssel,VBO,6.757577,52.307114
Weerselosestraat,110,,,7623DC,Borne,Borne,Overijssel,VBO,6.757593,52.307167
Weerselosestraat,112,,,7623DC,Borne,Borne,Overijssel,VBO,6.757595,52.307212
Weerselosestraat,114,,,7623DC,Borne,Borne,Overijssel,VBO,6.757761,52.307857
Weerselosestraat,116,,,7623DC,Borne,Borne,Overijssel,VBO,6.757763,52.307920
Weerselosestraat,118,,,7623DC,Borne,Borne,Overijssel,VBO,6.757764,52.307947
Weerselosestraat,120,,,7623DC,Borne,Borne,Overijssel,VBO,6.757765,52.307992
Weerselosestraat,122,,,7623DC,Borne,Borne,Overijssel,VBO,6.757767,52.308028
Weerselosestraat,124,,,7623DC,Borne,Borne,Overijssel,VBO,6.757782,52.308064
Weerselosestraat,126,,,7623DC,Borne,Borne,Overijssel,VBO,6.757798,52.308100
Weerselosestraat,128,,,7623DC,Borne,Borne,Overijssel,VBO,6.757814,52.308135
Weerselosestraat,130,,,7623DC,Borne,Borne,Overijssel,VBO,6.757800,52.308163
Weerselosestraat,132,,,7623DC,Borne,Borne,Overijssel,VBO,6.757845,52.308180
Weerselosestraat,134,,,7623DC,Borne,Borne,Overijssel,VBO,6.757859,52.308180
Weerselosestraat,136,,,7623DC,Borne,Borne,Overijssel,VBO,6.757903,52.308170
Weerselosestraat,138,,,7623DC,Borne,Borne,Overijssel,VBO,6.757947,52.308161
Weerselosestraat,140,,,7623DD,Borne,Borne,Overijssel,VBO,6.758095,52.308213
Weerselosestraat,142,,,7623DD,Borne,Borne,Overijssel,VBO,6.758155,52.308248
Weerselosestraat,144,,,7623DD,Borne,Borne,Overijssel,VBO,6.758213,52.308248
Weerselosestraat,146,,,7623DD,Borne,Borne,Overijssel,VBO,6.758273,52.308274
Weerselosestraat,148,,,7623DD,Borne,Borne,Overijssel,VBO,6.758361,52.308291
Weerselosestraat,150,,,7623DD,Borne,Borne,Overijssel,VBO,6.758655,52.308314
Weerselosestraat,152,,,7623DD,Borne,Borne,Overijssel,VBO,6.758759,52.308349
Weerselosestraat,154,,,7623DD,Borne,Borne,Overijssel,VBO,6.758849,52.308411
Weerselosestraat,156,,,7623DD,Borne,Borne,Overijssel,VBO,6.758967,52.308428
Weerselosestraat,158,,,7623DD,Borne,Borne,Overijssel,VBO,6.759085,52.308471
Weerselosestraat,160,,,7623DD,Borne,Borne,Overijssel,VBO,6.759204,52.308497
Weerselosestraat,162,,,7623DD,Borne,Borne,Overijssel,VBO,6.759321,52.308514
Weerselosestraat,164,,,7623DD,Borne,Borne,Overijssel,VBO,6.759440,52.308548
Weerselosestraat,166,,,7623DD,Borne,Borne,Overijssel,VBO,6.759543,52.308565
Weerselosestraat,168,,,7623DD,Borne,Borne,Overijssel,VBO,6.759661,52.308581
Weerselosestraat,170,,,7623DD,Borne,Borne,Overijssel,VBO,6.759779,52.308616
Weerselosestraat,172,,,7623DD,Borne,Borne,Overijssel,VBO,6.759897,52.308633
Weerselosestraat,174,,,7623DD,Borne,Borne,Overijssel,VBO,6.760015,52.308649
Weerselosestraat,176,,,7623DD,Borne,Borne,Overijssel,VBO,6.760089,52.308693
Weerselosestraat,178,,,7623DD,Borne,Borne,Overijssel,VBO,6.760276,52.308556
Weerselosestraat,180,,,7623DD,Borne,Borne,Overijssel,VBO,6.760408,52.308546
Baardgras,2,a,,7623DE,Borne,Borne,Overijssel,VBO,6.757877,52.307197
Baardgras,2,,,7623DE,Borne,Borne,Overijssel,VBO,6.758091,52.307126
Baardgras,4,,,7623DE,Borne,Borne,Overijssel,VBO,6.758075,52.307090
Baardgras,6,,,7623DE,Borne,Borne,Overijssel,VBO,6.758073,52.307045
Baardgras,8,,,7623DE,Borne,Borne,Overijssel,VBO,6.758086,52.306991
Baardgras,10,,,7623DE,Borne,Borne,Overijssel,VBO,6.758071,52.306955
Baardgras,12,,,7623DE,Borne,Borne,Overijssel,VBO,6.758054,52.306883
Baardgras,14,,,7623DE,Borne,Borne,Overijssel,VBO,6.758067,52.306847
Baardgras,16,,,7623DE,Borne,Borne,Overijssel,VBO,6.758036,52.306794
Baardgras,18,,,7623DE,Borne,Borne,Overijssel,VBO,6.758050,52.306748
Baardgras,20,,,7623DE,Borne,Borne,Overijssel,VBO,6.758063,52.306694
Pampagras,2,,,7623DJ,Borne,Borne,Overijssel,VBO,6.757230,52.306309
Pampagras,4,,,7623DJ,Borne,Borne,Overijssel,VBO,6.757332,52.306307
Pampagras,6,,,7623DJ,Borne,Borne,Overijssel,VBO,6.757557,52.306467
Pampagras,8,,,7623DJ,Borne,Borne,Overijssel,VBO,6.757588,52.306520
Pampagras,10,,,7623DJ,Borne,Borne,Overijssel,VBO,6.758291,52.306476
Pampagras,12,,,7623DJ,Borne,Borne,Overijssel,VBO,6.758393,52.306475
Pampagras,14,,,7623DJ,Borne,Borne,Overijssel,VBO,6.758526,52.306500
Pampagras,16,,,7623DJ,Borne,Borne,Overijssel,VBO,6.758628,52.306490
Pampagras,18,,,7623DJ,Borne,Borne,Overijssel,VBO,6.758761,52.306515
Pampagras,20,,,7623DJ,Borne,Borne,Overijssel,VBO,6.758864,52.306514
Pampagras,22,,,7623DJ,Borne,Borne,Overijssel,VBO,6.758996,52.306540
Pampagras,24,,,7623DJ,Borne,Borne,Overijssel,VBO,6.759099,52.306539
Pampagras,26,,,7623DJ,Borne,Borne,Overijssel,VBO,6.759217,52.306564
Doddegras,1,,,7623DK,Borne,Borne,Overijssel,VBO,6.757650,52.305683
Doddegras,3,,,7623DK,Borne,Borne,Overijssel,VBO,6.757563,52.305711
Doddegras,5,,,7623DK,Borne,Borne,Overijssel,VBO,6.757388,52.305740
Doddegras,7,,,7623DK,Borne,Borne,Overijssel,VBO,6.757334,52.305885
Doddegras,9,,,7623DK,Borne,Borne,Overijssel,VBO,6.757335,52.305939
Doddegras,11,,,7623DK,Borne,Borne,Overijssel,VBO,6.757310,52.306056
Doddegras,13,,,7623DK,Borne,Borne,Overijssel,VBO,6.757311,52.306110
Doddegras,15,,,7623DK,Borne,Borne,Overijssel,VBO,6.757536,52.306260
Doddegras,17,,,7623DK,Borne,Borne,Overijssel,VBO,6.757624,52.306259
Doddegras,19,,,7623DK,Borne,Borne,Overijssel,VBO,6.758005,52.306246
Doddegras,21,,,7623DK,Borne,Borne,Overijssel,VBO,6.758007,52.306300
Doddegras,23,,,7623DK,Borne,Borne,Overijssel,VBO,6.758040,52.306425
Doddegras,25,,,7623DK,Borne,Borne,Overijssel,VBO,6.758041,52.306479
Doddegras,27,,,7623DK,Borne,Borne,Overijssel,VBO,6.759016,52.306225
Doddegras,29,,,7623DK,Borne,Borne,Overijssel,VBO,6.759088,52.306170
Doddegras,31,,,7623DK,Borne,Borne,Overijssel,VBO,6.759159,52.306097
Doddegras,33,,,7623DK,Borne,Borne,Overijssel,VBO,6.759186,52.306016
Doddegras,35,,,7623DK,Borne,Borne,Overijssel,VBO,6.759256,52.305934
Doddegras,37,,,7623DK,Borne,Borne,Overijssel,VBO,6.759254,52.305872
Doddegras,39,,,7623DK,Borne,Borne,Overijssel,VBO,6.759502,52.305806
Doddegras,41,,,7623DK,Borne,Borne,Overijssel,VBO,6.759515,52.305752
Doddegras,2,,,7623DL,Borne,Borne,Overijssel,VBO,6.758094,52.305795
Doddegras,4,,,7623DL,Borne,Borne,Overijssel,VBO,6.758096,52.305867
Doddegras,6,,,7623DL,Borne,Borne,Overijssel,VBO,6.758055,52.305984
Doddegras,8,a,,7623DL,Borne,Borne,Overijssel,VBO,6.758312,52.306107
Doddegras,8,,,7623DL,Borne,Borne,Overijssel,VBO,6.758072,52.306056
Doddegras,10,,,7623DL,Borne,Borne,Overijssel,VBO,6.758615,52.306059
Doddegras,12,,,7623DL,Borne,Borne,Overijssel,VBO,6.758612,52.305951
Doddegras,14,,,7623DL,Borne,Borne,Overijssel,VBO,6.758609,52.305879
Doddegras,16,,,7623DL,Borne,Borne,Overijssel,VBO,6.758591,52.305771
Doddegras,18,,,7623DL,Borne,Borne,Overijssel,VBO,6.759082,52.305523
Doddegras,20,,,7623DL,Borne,Borne,Overijssel,VBO,6.759170,52.305522
Doddegras,22,,,7623DL,Borne,Borne,Overijssel,VBO,6.759259,52.305530
Doddegras,24,,,7623DL,Borne,Borne,Overijssel,VBO,6.759332,52.305529
Doddegras,26,,,7623DL,Borne,Borne,Overijssel,VBO,6.759406,52.305555
Doddegras,28,,,7623DL,Borne,Borne,Overijssel,VBO,6.759479,52.305554
Doddegras,30,,,7623DL,Borne,Borne,Overijssel,VBO,6.759553,52.305554
Doddegras,32,,,7623DL,Borne,Borne,Overijssel,VBO,6.759655,52.305552
Doddegras,34,,,7623DL,Borne,Borne,Overijssel,VBO,6.759728,52.305551
Doddegras,36,,,7623DL,Borne,Borne,Overijssel,VBO,6.759787,52.305542
Kamgras,1,,,7623DM,Borne,Borne,Overijssel,VBO,6.758780,52.308088
Kamgras,3,,,7623DM,Borne,Borne,Overijssel,VBO,6.758898,52.308096
Kamgras,5,,,7623DM,Borne,Borne,Overijssel,VBO,6.759016,52.308113
Kamgras,7,,,7623DM,Borne,Borne,Overijssel,VBO,6.759119,52.308147
Kamgras,9,,,7623DM,Borne,Borne,Overijssel,VBO,6.759252,52.308173
Kamgras,11,,,7623DM,Borne,Borne,Overijssel,VBO,6.759370,52.308189
Kamgras,13,,,7623DM,Borne,Borne,Overijssel,VBO,6.759473,52.308215
Kamgras,15,,,7623DM,Borne,Borne,Overijssel,VBO,6.759562,52.308232
Kamgras,17,,,7623DM,Borne,Borne,Overijssel,VBO,6.759796,52.308211
Kamgras,19,,,7623DM,Borne,Borne,Overijssel,VBO,6.760028,52.308119
Kamgras,21,,,7623DM,Borne,Borne,Overijssel,VBO,6.760148,52.308207
Kamgras,23,,,7623DM,Borne,Borne,Overijssel,VBO,6.760224,52.308287
Kamgras,25,,,7623DM,Borne,Borne,Overijssel,VBO,6.760254,52.308332
Kamgras,2,,,7623DN,Borne,Borne,Overijssel,VBO,6.758506,52.308004
Kamgras,4,,,7623DN,Borne,Borne,Overijssel,VBO,6.758415,52.307987
Kamgras,6,,,7623DN,Borne,Borne,Overijssel,VBO,6.758306,52.307914
Kamgras,8,,,7623DN,Borne,Borne,Overijssel,VBO,6.758275,52.307869
Kamgras,10,a,,7623DN,Borne,Borne,Overijssel,VBO,6.758272,52.307780
Kamgras,10,,,7623DN,Borne,Borne,Overijssel,VBO,6.758273,52.307816
Kamgras,12,,,7623DN,Borne,Borne,Overijssel,VBO,6.759155,52.307868
Kamgras,14,,,7623DN,Borne,Borne,Overijssel,VBO,6.759142,52.307922
Kamgras,16,,,7623DN,Borne,Borne,Overijssel,VBO,6.759774,52.307960
Kamgras,18,,,7623DN,Borne,Borne,Overijssel,VBO,6.759845,52.307914
Kamgras,20,,,7623DN,Borne,Borne,Overijssel,VBO,6.759976,52.307859
Kamgras,22,,,7623DN,Borne,Borne,Overijssel,VBO,6.760078,52.307849
Fioringras,1,,,7623DR,Borne,Borne,Overijssel,VBO,6.757770,52.307843
Fioringras,2,a,,7623DR,Borne,Borne,Overijssel,VBO,6.757885,52.307647
Fioringras,2,,,7623DR,Borne,Borne,Overijssel,VBO,6.757956,52.307514
Fioringras,3,,,7623DR,Borne,Borne,Overijssel,VBO,6.757778,52.307873
Fioringras,4,,,7623DR,Borne,Borne,Overijssel,VBO,6.758628,52.307434
Fioringras,5,,,7623DR,Borne,Borne,Overijssel,VBO,6.757800,52.307907
Fioringras,7,,,7623DR,Borne,Borne,Overijssel,VBO,6.757823,52.307835
Fioringras,9,,,7623DR,Borne,Borne,Overijssel,VBO,6.757835,52.307866
Fioringras,11,,,7623DR,Borne,Borne,Overijssel,VBO,6.757838,52.307900
Fioringras,13,,,7623DR,Borne,Borne,Overijssel,VBO,6.757863,52.307831
Fioringras,15,,,7623DR,Borne,Borne,Overijssel,VBO,6.757877,52.307890
Fioringras,17,,,7623DR,Borne,Borne,Overijssel,VBO,6.757913,52.307825
Fioringras,19,,,7623DR,Borne,Borne,Overijssel,VBO,6.757935,52.307889
Fioringras,21,,,7623DR,Borne,Borne,Overijssel,VBO,6.757966,52.307822
Fioringras,23,,,7623DR,Borne,Borne,Overijssel,VBO,6.757986,52.307881
Fioringras,25,,,7623DR,Borne,Borne,Overijssel,VBO,6.759269,52.307777
Fioringras,27,,,7623DR,Borne,Borne,Overijssel,VBO,6.759342,52.307749
Fioringras,29,,,7623DR,Borne,Borne,Overijssel,VBO,6.759486,52.307685
Fioringras,31,,,7623DR,Borne,Borne,Overijssel,VBO,6.759544,52.307657
Fioringras,33,,,7623DR,Borne,Borne,Overijssel,VBO,6.759704,52.307601
Fioringras,35,,,7623DR,Borne,Borne,Overijssel,VBO,6.759776,52.307573
Parelgras,1,,,7623DS,Borne,Borne,Overijssel,VBO,6.758652,52.305366
Parelgras,3,,,7623DS,Borne,Borne,Overijssel,VBO,6.758639,52.305420
Parelgras,5,,,7623DS,Borne,Borne,Overijssel,VBO,6.758641,52.305465
Parelgras,7,,,7623DS,Borne,Borne,Overijssel,VBO,6.758657,52.305519
Parelgras,9,,,7623DS,Borne,Borne,Overijssel,VBO,6.758644,52.305564
Parelgras,11,,,7623DS,Borne,Borne,Overijssel,VBO,6.758689,52.305617
Parelgras,13,,,7623DS,Borne,Borne,Overijssel,VBO,6.758367,52.305612
Parelgras,15,,,7623DS,Borne,Borne,Overijssel,VBO,6.758293,52.305604
Parelgras,17,,,7623DS,Borne,Borne,Overijssel,VBO,6.758220,52.305605
Parelgras,19,,,7623DS,Borne,Borne,Overijssel,VBO,6.758132,52.305606
Parelgras,21,,,7623DS,Borne,Borne,Overijssel,VBO,6.758058,52.305607
Parelgras,23,,,7623DS,Borne,Borne,Overijssel,VBO,6.757971,52.305617
Weerselosestraat,184,,,7623DT,Borne,Borne,Overijssel,VBO,6.761042,52.309031
Weerselosestraat,186,,,7623DT,Borne,Borne,Overijssel,VBO,6.761055,52.309087
Weerselosestraat,188,,,7623DT,Borne,Borne,Overijssel,VBO,6.761076,52.309137
Weerselosestraat,190,,,7623DT,Borne,Borne,Overijssel,VBO,6.761208,52.309292
Weerselosestraat,192,,,7623DT,Borne,Borne,Overijssel,VBO,6.761224,52.309345
Weerselosestraat,194,,,7623DT,Borne,Borne,Overijssel,VBO,6.761576,52.309827
Weerselosestraat,196,,,7623DT,Borne,Borne,Overijssel,VBO,6.761607,52.309853
Weerselosestraat,198,,,7623DT,Borne,Borne,Overijssel,VBO,6.761657,52.309906
Weerselosestraat,200,,,7623DT,Borne,Borne,Overijssel,VBO,6.761668,52.309954
Weerselosestraat,202,,,7623DT,Borne,Borne,Overijssel,VBO,6.761747,52.310130
Weerselosestraat,204,,,7623DT,Borne,Borne,Overijssel,VBO,6.761748,52.310166
Weerselosestraat,206,,,7623DT,Borne,Borne,Overijssel,VBO,6.761734,52.310193
Weerselosestraat,208,,,7623DT,Borne,Borne,Overijssel,VBO,6.761733,52.310259
Weerselosestraat,210,,,7623DT,Borne,Borne,Overijssel,VBO,6.761739,52.310355
Weerselosestraat,212,,,7623DT,Borne,Borne,Overijssel,VBO,6.761755,52.310400
Weerselosestraat,214,,,7623DT,Borne,Borne,Overijssel,VBO,6.761742,52.310445
Weerselosestraat,216,,,7623DT,Borne,Borne,Overijssel,VBO,6.761745,52.310511
Weerselosestraat,218,,,7623DT,Borne,Borne,Overijssel,VBO,6.761747,52.310555
Weerselosestraat,220,,,7623DT,Borne,Borne,Overijssel,VBO,6.761764,52.310669
Weerselosestraat,222,,,7623DT,Borne,Borne,Overijssel,VBO,6.761780,52.310723
Weerselosestraat,224,,,7623DT,Borne,Borne,Overijssel,VBO,6.761975,52.310856
Weerselosestraat,226,,,7623DT,Borne,Borne,Overijssel,VBO,6.762054,52.310863
Weerselosestraat,228,,,7623DT,Borne,Borne,Overijssel,VBO,6.762108,52.310908
Weerselosestraat,230,,,7623DT,Borne,Borne,Overijssel,VBO,6.762314,52.310924
Weerselosestraat,232,,,7623DT,Borne,Borne,Overijssel,VBO,6.762418,52.310958
Weerselosestraat,234,,,7623DT,Borne,Borne,Overijssel,VBO,6.762492,52.310985
Weerselosestraat,236,,,7623DV,Borne,Borne,Overijssel,VBO,6.762845,52.311007
Weerselosestraat,238,,,7623DV,Borne,Borne,Overijssel,VBO,6.762978,52.311042
Weerselosestraat,240,,,7623DV,Borne,Borne,Overijssel,VBO,6.763096,52.311058
Weerselosestraat,242,,,7623DV,Borne,Borne,Overijssel,VBO,6.763287,52.311074
Weerselosestraat,244,,,7623DV,Borne,Borne,Overijssel,VBO,6.763404,52.311073
Weerselosestraat,246,,,7623DV,Borne,Borne,Overijssel,VBO,6.763595,52.311071
Weerselosestraat,248,,,7623DV,Borne,Borne,Overijssel,VBO,6.763711,52.311042
Weerselosestraat,250,,,7623DV,Borne,Borne,Overijssel,VBO,6.763886,52.311004
Weerselosestraat,252,,,7623DV,Borne,Borne,Overijssel,VBO,6.763973,52.310976
Weerselosestraat,254,,,7623DV,Borne,Borne,Overijssel,VBO,6.764072,52.310867
Weerselosestraat,209,,,7623DW,Borne,Borne,Overijssel,VBO,6.757646,52.308398
Weerselosestraat,211,,,7623DW,Borne,Borne,Overijssel,VBO,6.757603,52.308410
Weerselosestraat,213,,,7623DW,Borne,Borne,Overijssel,VBO,6.757613,52.308431
Weerselosestraat,215,,,7623DW,Borne,Borne,Overijssel,VBO,6.757718,52.308416
Weerselosestraat,217,,,7623DW,Borne,Borne,Overijssel,VBO,6.757775,52.308438
Weerselosestraat,219,,,7623DW,Borne,Borne,Overijssel,VBO,6.757850,52.308447
Weerselosestraat,221,,,7623DW,Borne,Borne,Overijssel,VBO,6.757932,52.308468
Weerselosestraat,223,,,7623DW,Borne,Borne,Overijssel,VBO,6.758001,52.308502
Weerselosestraat,225,,,7623DW,Borne,Borne,Overijssel,VBO,6.758240,52.308643
Weerselosestraat,227,,,7623DW,Borne,Borne,Overijssel,VBO,6.758372,52.308632
Weerselosestraat,229,,,7623DW,Borne,Borne,Overijssel,VBO,6.758490,52.308658
Weerselosestraat,231,,,7623DW,Borne,Borne,Overijssel,VBO,6.758623,52.308692
Weerselosestraat,233,,,7623DW,Borne,Borne,Overijssel,VBO,6.758741,52.308718
Weerselosestraat,235,,,7623DW,Borne,Borne,Overijssel,VBO,6.758874,52.308752
Weerselosestraat,237,,,7623DW,Borne,Borne,Overijssel,VBO,6.759007,52.308769
Weerselosestraat,239,,,7623DW,Borne,Borne,Overijssel,VBO,6.759081,52.308813
Weerselosestraat,241,,,7623DW,Borne,Borne,Overijssel,VBO,6.759509,52.308898
Weerselosestraat,243,,,7623DW,Borne,Borne,Overijssel,VBO,6.759626,52.308896
Weerselosestraat,245,,,7623DW,Borne,Borne,Overijssel,VBO,6.759775,52.308949
Weerselosestraat,247,,,7623DW,Borne,Borne,Overijssel,VBO,6.759878,52.308956
Weerselosestraat,249,,,7623DW,Borne,Borne,Overijssel,VBO,6.760028,52.309081
Dorsvloer,2,,,7623DX,Borne,Borne,Overijssel,VBO,6.756266,52.307884
Dorsvloer,4,,,7623DX,Borne,Borne,Overijssel,VBO,6.756132,52.307804
Dorsvloer,6,,,7623DX,Borne,Borne,Overijssel,VBO,6.756057,52.307751
Dorsvloer,8,,,7623DX,Borne,Borne,Overijssel,VBO,6.755908,52.307681
Dorsvloer,25,a,,7623DX,Borne,Borne,Overijssel,VBO,6.755400,52.307604
Dorsvloer,25,,,7623DX,Borne,Borne,Overijssel,VBO,6.755416,52.307426
Dorsvloer,27,,,7623DX,Borne,Borne,Overijssel,VBO,6.755188,52.307645
Weerselosestraat,251,,,7623DZ,Borne,Borne,Overijssel,VBO,6.760146,52.309088
Weerselosestraat,253,,,7623DZ,Borne,Borne,Overijssel,VBO,6.760294,52.309131
Weerselosestraat,255,,,7623DZ,Borne,Borne,Overijssel,VBO,6.760398,52.309175
Weerselosestraat,257,,,7623DZ,Borne,Borne,Overijssel,VBO,6.760502,52.309237
Weerselosestraat,259,,,7623DZ,Borne,Borne,Overijssel,VBO,6.760577,52.309290
Weerselosestraat,261,,,7623DZ,Borne,Borne,Overijssel,VBO,6.760683,52.309406
Weerselosestraat,263,,,7623DZ,Borne,Borne,Overijssel,VBO,6.760729,52.309450
Weerselosestraat,265,,,7623DZ,Borne,Borne,Overijssel,VBO,6.760775,52.309530
Weerselosestraat,267,,,7623DZ,Borne,Borne,Overijssel,VBO,6.760835,52.309575
Weerselosestraat,269,,,7623DZ,Borne,Borne,Overijssel,VBO,6.760927,52.309681
Weerselosestraat,271,,,7623DZ,Borne,Borne,Overijssel,VBO,6.760958,52.309753
Weerselosestraat,273,,,7623DZ,Borne,Borne,Overijssel,VBO,6.761063,52.309824
Weerselosestraat,275,,,7623DZ,Borne,Borne,Overijssel,VBO,6.761123,52.309877
Weerselosestraat,277,,,7623DZ,Borne,Borne,Overijssel,VBO,6.761185,52.309966
Weerselosestraat,279,,,7623DZ,Borne,Borne,Overijssel,VBO,6.761217,52.310056
Weerselosestraat,281,,,7623DZ,Borne,Borne,Overijssel,VBO,6.761263,52.310136
Weerselosestraat,283,,,7623DZ,Borne,Borne,Overijssel,VBO,6.761236,52.310190
Weerselosestraat,285,,,7623DZ,Borne,Borne,Overijssel,VBO,6.761257,52.310406
Weerselosestraat,287,,,7623DZ,Borne,Borne,Overijssel,VBO,6.761273,52.310450
Weerselosestraat,289,,,7623DZ,Borne,Borne,Overijssel,VBO,6.761244,52.310523
Weerselosestraat,291,,,7623DZ,Borne,Borne,Overijssel,VBO,6.761293,52.310630
Weerselosestraat,293,,,7623DZ,Borne,Borne,Overijssel,VBO,6.761248,52.310701
Weerselosestraat,295,,,7623DZ,Borne,Borne,Overijssel,VBO,6.761260,52.310759
Zwenkgras,1,,,7623EA,Borne,Borne,Overijssel,VBO,6.761169,52.308052
Zwenkgras,3,,,7623EA,Borne,Borne,Overijssel,VBO,6.761109,52.307989
Zwenkgras,5,,,7623EA,Borne,Borne,Overijssel,VBO,6.761135,52.307899
Zwenkgras,7,,,7623EA,Borne,Borne,Overijssel,VBO,6.761133,52.307827
Zwenkgras,9,,,7623EA,Borne,Borne,Overijssel,VBO,6.761130,52.307737
Zwenkgras,11,,,7623EA,Borne,Borne,Overijssel,VBO,6.761172,52.307665
Zwenkgras,13,,,7623EA,Borne,Borne,Overijssel,VBO,6.761510,52.307688
Zwenkgras,15,,,7623EA,Borne,Borne,Overijssel,VBO,6.761612,52.307669
Zwenkgras,17,,,7623EA,Borne,Borne,Overijssel,VBO,6.761803,52.307667
Zwenkgras,19,,,7623EA,Borne,Borne,Overijssel,VBO,6.761877,52.307684
Zwenkgras,21,,,7623EA,Borne,Borne,Overijssel,VBO,6.762023,52.307673
Zwenkgras,23,,,7623EA,Borne,Borne,Overijssel,VBO,6.762126,52.307672
Zwenkgras,2,,,7623EB,Borne,Borne,Overijssel,VBO,6.761352,52.308274
Zwenkgras,4,,,7623EB,Borne,Borne,Overijssel,VBO,6.761279,52.308275
Zwenkgras,6,,,7623EB,Borne,Borne,Overijssel,VBO,6.761104,52.308295
Zwenkgras,8,,,7623EB,Borne,Borne,Overijssel,VBO,6.761001,52.308296
Zwenkgras,10,,,7623EB,Borne,Borne,Overijssel,VBO,6.760854,52.308298
Zwenkgras,12,,,7623EB,Borne,Borne,Overijssel,VBO,6.760781,52.308299
Zwenkgras,14,,,7623EB,Borne,Borne,Overijssel,VBO,6.760715,52.308057
Zwenkgras,16,,,7623EB,Borne,Borne,Overijssel,VBO,6.760742,52.307967
Zwenkgras,18,,,7623EB,Borne,Borne,Overijssel,VBO,6.760740,52.307904
Zwenkgras,20,,,7623EB,Borne,Borne,Overijssel,VBO,6.760576,52.307816
Zwenkgras,22,,,7623EB,Borne,Borne,Overijssel,VBO,6.760559,52.307753
Zwenkgras,24,,,7623EB,Borne,Borne,Overijssel,VBO,6.760438,52.307647
Zwenkgras,26,,,7623EB,Borne,Borne,Overijssel,VBO,6.760451,52.307593
Zwenkgras,28,,,7623EB,Borne,Borne,Overijssel,VBO,6.760464,52.307520
Zwenkgras,30,,,7623EB,Borne,Borne,Overijssel,VBO,6.760476,52.307439
Zwenkgras,32,,,7623EB,Borne,Borne,Overijssel,VBO,6.760473,52.307359
Zwenkgras,34,,,7623EB,Borne,Borne,Overijssel,VBO,6.760442,52.307305
Zwenkgras,36,,,7623EB,Borne,Borne,Overijssel,VBO,6.760798,52.307436
Zwenkgras,38,,,7623EB,Borne,Borne,Overijssel,VBO,6.760916,52.307452
Zwenkgras,40,,,7623EB,Borne,Borne,Overijssel,VBO,6.761048,52.307451
Zwenkgras,42,,,7623EB,Borne,Borne,Overijssel,VBO,6.761180,52.307458
Zwenkgras,44,,,7623EB,Borne,Borne,Overijssel,VBO,6.761268,52.307457
Zwenkgras,46,,,7623EB,Borne,Borne,Overijssel,VBO,6.761415,52.307446
Zwenkgras,48,,,7623EB,Borne,Borne,Overijssel,VBO,6.761532,52.307445
Zwenkgras,50,,,7623EB,Borne,Borne,Overijssel,VBO,6.761620,52.307444
Buntgras,1,,,7623EC,Borne,Borne,Overijssel,VBO,6.761734,52.308288
Buntgras,3,,,7623EC,Borne,Borne,Overijssel,VBO,6.761808,52.308305
Buntgras,5,,,7623EC,Borne,Borne,Overijssel,VBO,6.761881,52.308304
Buntgras,7,,,7623EC,Borne,Borne,Overijssel,VBO,6.761984,52.308312
Buntgras,9,,,7623EC,Borne,Borne,Overijssel,VBO,6.762042,52.308302
Buntgras,11,,,7623EC,Borne,Borne,Overijssel,VBO,6.762130,52.308292
Buntgras,13,,,7623EC,Borne,Borne,Overijssel,VBO,6.762289,52.308218
Buntgras,15,,,7623EC,Borne,Borne,Overijssel,VBO,6.762378,52.308235
Buntgras,17,,,7623EC,Borne,Borne,Overijssel,VBO,6.762451,52.308225
Buntgras,19,,,7623EC,Borne,Borne,Overijssel,VBO,6.762539,52.308224
Buntgras,21,,,7623EC,Borne,Borne,Overijssel,VBO,6.762627,52.308223
Buntgras,23,a,,7623EC,Borne,Borne,Overijssel,VBO,6.762760,52.308332
Buntgras,23,,,7623EC,Borne,Borne,Overijssel,VBO,6.762700,52.308214
Buntgras,2,,,7623ED,Borne,Borne,Overijssel,VBO,6.761521,52.308030
Buntgras,4,,,7623ED,Borne,Borne,Overijssel,VBO,6.761609,52.308046
Buntgras,6,,,7623ED,Borne,Borne,Overijssel,VBO,6.761785,52.308026
Buntgras,8,,,7623ED,Borne,Borne,Overijssel,VBO,6.761858,52.308035
Buntgras,10,,,7623ED,Borne,Borne,Overijssel,VBO,6.761990,52.308015
Buntgras,12,,,7623ED,Borne,Borne,Overijssel,VBO,6.762135,52.307977
Helmgras,14,,,7623EG,Borne,Borne,Overijssel,VBO,6.760818,52.308541
Helmgras,16,,,7623EG,Borne,Borne,Overijssel,VBO,6.760936,52.308558
Helmgras,18,,,7623EG,Borne,Borne,Overijssel,VBO,6.761082,52.308556
Helmgras,20,,,7623EG,Borne,Borne,Overijssel,VBO,6.761200,52.308555
Helmgras,22,,,7623EG,Borne,Borne,Overijssel,VBO,6.761365,52.308573
Vingergras,1,,,7623EJ,Borne,Borne,Overijssel,VBO,6.760719,52.304875
Vingergras,2,,,7623EJ,Borne,Borne,Overijssel,VBO,6.761832,52.304826
Vingergras,3,,,7623EJ,Borne,Borne,Overijssel,VBO,6.760984,52.304908
Vingergras,4,,,7623EJ,Borne,Borne,Overijssel,VBO,6.761851,52.304960
Vingergras,5,,,7623EJ,Borne,Borne,Overijssel,VBO,6.761395,52.304912
Vingergras,6,,,7623EJ,Borne,Borne,Overijssel,VBO,6.761840,52.305077
Vingergras,8,,,7623EJ,Borne,Borne,Overijssel,VBO,6.761830,52.305221
Vingergras,10,,,7623EJ,Borne,Borne,Overijssel,VBO,6.761832,52.305293
Blauwgras,1,,,7623EK,Borne,Borne,Overijssel,VBO,6.760768,52.305485
Blauwgras,2,,,7623EK,Borne,Borne,Overijssel,VBO,6.760493,52.305147
Blauwgras,3,,,7623EK,Borne,Borne,Overijssel,VBO,6.760841,52.305494
Blauwgras,4,,,7623EK,Borne,Borne,Overijssel,VBO,6.760567,52.305173
Blauwgras,5,,,7623EK,Borne,Borne,Overijssel,VBO,6.760929,52.305493
Blauwgras,6,,,7623EK,Borne,Borne,Overijssel,VBO,6.760627,52.305208
Blauwgras,7,,,7623EK,Borne,Borne,Overijssel,VBO,6.761017,52.305483
Blauwgras,8,,,7623EK,Borne,Borne,Overijssel,VBO,6.760833,52.305242
Blauwgras,9,,,7623EK,Borne,Borne,Overijssel,VBO,6.761120,52.305517
Blauwgras,10,,,7623EK,Borne,Borne,Overijssel,VBO,6.760916,52.305241
Blauwgras,11,,,7623EK,Borne,Borne,Overijssel,VBO,6.761194,52.305516
Blauwgras,12,,,7623EK,Borne,Borne,Overijssel,VBO,6.761009,52.305240
Blauwgras,13,,,7623EK,Borne,Borne,Overijssel,VBO,6.761267,52.305516
Blauwgras,14,,,7623EK,Borne,Borne,Overijssel,VBO,6.761170,52.305238
Blauwgras,15,,,7623EK,Borne,Borne,Overijssel,VBO,6.761340,52.305515
Blauwgras,16,,,7623EK,Borne,Borne,Overijssel,VBO,6.761259,52.305246
Blauwgras,17,,,7623EK,Borne,Borne,Overijssel,VBO,6.761532,52.305557
Blauwgras,18,,,7623EK,Borne,Borne,Overijssel,VBO,6.761390,52.305236
Blauwgras,19,,,7623EK,Borne,Borne,Overijssel,VBO,6.761592,52.305602
Blauwgras,20,,,7623EK,Borne,Borne,Overijssel,VBO,6.761508,52.305243
Blauwgras,21,,,7623EK,Borne,Borne,Overijssel,VBO,6.761666,52.305628
Blauwgras,23,,,7623EK,Borne,Borne,Overijssel,VBO,6.761755,52.305645
Blauwgras,24,,,7623EK,Borne,Borne,Overijssel,VBO,6.762040,52.305390
Blauwgras,25,,,7623EK,Borne,Borne,Overijssel,VBO,6.761843,52.305662
Blauwgras,26,,,7623EK,Borne,Borne,Overijssel,VBO,6.762189,52.305469
Blauwgras,27,,,7623EK,Borne,Borne,Overijssel,VBO,6.761903,52.305697
Blauwgras,28,,,7623EK,Borne,Borne,Overijssel,VBO,6.762353,52.305530
Blauwgras,29,,,7623EK,Borne,Borne,Overijssel,VBO,6.761963,52.305732
Blauwgras,31,,,7623EK,Borne,Borne,Overijssel,VBO,6.762037,52.305749
Blauwgras,33,,,7623EK,Borne,Borne,Overijssel,VBO,6.762097,52.305785
Blauwgras,35,,,7623EK,Borne,Borne,Overijssel,VBO,6.762185,52.305793
Trilgras,1,,,7623EM,Borne,Borne,Overijssel,VBO,6.762999,52.305576
Trilgras,2,,,7623EM,Borne,Borne,Overijssel,VBO,6.762508,52.305339
Trilgras,3,,,7623EM,Borne,Borne,Overijssel,VBO,6.762936,52.305442
Trilgras,4,,,7623EM,Borne,Borne,Overijssel,VBO,6.762401,52.305206
Trilgras,6,,,7623EM,Borne,Borne,Overijssel,VBO,6.762397,52.305062
Trilgras,8,,,7623EM,Borne,Borne,Overijssel,VBO,6.762421,52.304909
Kweekgras,2,,,7623EP,Borne,Borne,Overijssel,VBO,6.762831,52.305839
Kweekgras,3,,,7623EP,Borne,Borne,Overijssel,VBO,6.763218,52.305996
Kweekgras,4,,,7623EP,Borne,Borne,Overijssel,VBO,6.763076,52.305701
Kweekgras,5,,,7623EP,Borne,Borne,Overijssel,VBO,6.763495,52.305975
Raaigras,2,,,7623ER,Borne,Borne,Overijssel,VBO,6.760636,52.305981
Raaigras,4,,,7623ER,Borne,Borne,Overijssel,VBO,6.760579,52.306027
Raaigras,6,,,7623ER,Borne,Borne,Overijssel,VBO,6.760494,52.306118
Raaigras,8,,,7623ER,Borne,Borne,Overijssel,VBO,6.760437,52.306172
Raaigras,10,,,7623ER,Borne,Borne,Overijssel,VBO,6.760366,52.306263
Raaigras,12,,,7623ER,Borne,Borne,Overijssel,VBO,6.760338,52.306308
Raaigras,14,,,7623ER,Borne,Borne,Overijssel,VBO,6.760152,52.306445
Raaigras,16,,,7623ER,Borne,Borne,Overijssel,VBO,6.760242,52.306498
Raaigras,18,,,7623ER,Borne,Borne,Overijssel,VBO,6.760375,52.306542
Raaigras,20,,,7623ER,Borne,Borne,Overijssel,VBO,6.760449,52.306568
Raaigras,22,,,7623ER,Borne,Borne,Overijssel,VBO,6.760582,52.306602
Raaigras,24,,,7623ER,Borne,Borne,Overijssel,VBO,6.760671,52.306628
Raaigras,26,,,7623ER,Borne,Borne,Overijssel,VBO,6.760811,52.306420
Raaigras,28,,,7623ER,Borne,Borne,Overijssel,VBO,6.760883,52.306383
Raaigras,30,,,7623ER,Borne,Borne,Overijssel,VBO,6.760954,52.306301
Raaigras,32,,,7623ER,Borne,Borne,Overijssel,VBO,6.760996,52.306238
Raaigras,34,,,7623ER,Borne,Borne,Overijssel,VBO,6.761082,52.306165
Raaigras,36,,,7623ER,Borne,Borne,Overijssel,VBO,6.761109,52.306102
Zwenkgras,52,,,7623ES,Borne,Borne,Overijssel,VBO,6.761825,52.307442
Zwenkgras,54,,,7623ES,Borne,Borne,Overijssel,VBO,6.761928,52.307458
Zwenkgras,56,,,7623ES,Borne,Borne,Overijssel,VBO,6.762088,52.307412
Zwenkgras,58,,,7623ES,Borne,Borne,Overijssel,VBO,6.762191,52.307410
Zwenkgras,60,,,7623ES,Borne,Borne,Overijssel,VBO,6.762352,52.307418
Zwenkgras,62,,,7623ES,Borne,Borne,Overijssel,VBO,6.762426,52.307417
Zwenkgras,64,,,7623ES,Borne,Borne,Overijssel,VBO,6.762616,52.307415
Zwenkgras,66,,,7623ES,Borne,Borne,Overijssel,VBO,6.762704,52.307405
Zwenkgras,70,,,7623ES,Borne,Borne,Overijssel,VBO,6.762548,52.307595
Zwenkgras,72,,,7623ES,Borne,Borne,Overijssel,VBO,6.762521,52.307649
Zwenkgras,74,,,7623ES,Borne,Borne,Overijssel,VBO,6.762524,52.307757
Zwenkgras,76,,,7623ES,Borne,Borne,Overijssel,VBO,6.762511,52.307811
Zwenkgras,78,,,7623ES,Borne,Borne,Overijssel,VBO,6.762529,52.307928
Zwenkgras,80,,,7623ES,Borne,Borne,Overijssel,VBO,6.762546,52.307982
Raaigras,1,,,7623ET,Borne,Borne,Overijssel,VBO,6.760309,52.305347
Raaigras,3,,,7623ET,Borne,Borne,Overijssel,VBO,6.760281,52.305410
Raaigras,5,,,7623ET,Borne,Borne,Overijssel,VBO,6.760314,52.305509
Raaigras,7,,,7623ET,Borne,Borne,Overijssel,VBO,6.760301,52.305572
Raaigras,9,,,7623ET,Borne,Borne,Overijssel,VBO,6.760319,52.305679
Raaigras,11,,,7623ET,Borne,Borne,Overijssel,VBO,6.760306,52.305743
Raaigras,13,,,7623ET,Borne,Borne,Overijssel,VBO,6.760179,52.305888
Raaigras,15,,,7623ET,Borne,Borne,Overijssel,VBO,6.760180,52.305942
Raaigras,17,,,7623ET,Borne,Borne,Overijssel,VBO,6.760081,52.306033
Raaigras,19,,,7623ET,Borne,Borne,Overijssel,VBO,6.760038,52.306087
Raaigras,21,,,7623ET,Borne,Borne,Overijssel,VBO,6.759967,52.306169
Raaigras,23,,,7623ET,Borne,Borne,Overijssel,VBO,6.759896,52.306224
Raaigras,25,,,7623ET,Borne,Borne,Overijssel,VBO,6.759825,52.306305
Raaigras,27,,,7623ET,Borne,Borne,Overijssel,VBO,6.759768,52.306351
Raaigras,29,,,7623ET,Borne,Borne,Overijssel,VBO,6.759640,52.306496
Raaigras,31,,,7623ET,Borne,Borne,Overijssel,VBO,6.759672,52.306568
Raaigras,33,,,7623ET,Borne,Borne,Overijssel,VBO,6.759704,52.306657
Raaigras,35,,,7623ET,Borne,Borne,Overijssel,VBO,6.759735,52.306711
Raaigras,37,,,7623ET,Borne,Borne,Overijssel,VBO,6.759767,52.306800
Raaigras,39,,,7623ET,Borne,Borne,Overijssel,VBO,6.759799,52.306881
Raaigras,41,,,7623ET,Borne,Borne,Overijssel,VBO,6.759816,52.306962
Raaigras,43,,,7623ET,Borne,Borne,Overijssel,VBO,6.759877,52.307033
Raaigras,45,,,7623ET,Borne,Borne,Overijssel,VBO,6.759894,52.307105
Raaigras,47,,,7623ET,Borne,Borne,Overijssel,VBO,6.759910,52.307167
Raaigras,49,,,7623ET,Borne,Borne,Overijssel,VBO,6.760257,52.307010
Raaigras,51,,,7623EV,Borne,Borne,Overijssel,VBO,6.760375,52.307009
Raaigras,53,,,7623EV,Borne,Borne,Overijssel,VBO,6.760521,52.307007
Raaigras,55,,,7623EV,Borne,Borne,Overijssel,VBO,6.760610,52.307015
Raaigras,57,,,7623EV,Borne,Borne,Overijssel,VBO,6.761009,52.307119
Raaigras,59,,,7623EV,Borne,Borne,Overijssel,VBO,6.760993,52.307074
Raaigras,61,,,7623EV,Borne,Borne,Overijssel,VBO,6.760975,52.306966
Raaigras,63,,,7623EV,Borne,Borne,Overijssel,VBO,6.761002,52.306894
Raaigras,65,,,7623EV,Borne,Borne,Overijssel,VBO,6.761057,52.306785
Raaigras,67,,,7623EV,Borne,Borne,Overijssel,VBO,6.761070,52.306731
Vedergras,7,,,7623EW,Borne,Borne,Overijssel,VBO,6.761436,52.306727
Vedergras,9,,,7623EW,Borne,Borne,Overijssel,VBO,6.761467,52.306781
Vedergras,11,,,7623EW,Borne,Borne,Overijssel,VBO,6.761456,52.306898
Vedergras,13,,,7623EW,Borne,Borne,Overijssel,VBO,6.761484,52.306959
Vedergras,15,,,7623EW,Borne,Borne,Overijssel,VBO,6.761499,52.307066
Vedergras,17,,,7623EW,Borne,Borne,Overijssel,VBO,6.761501,52.307126
Vedergras,19,,,7623EW,Borne,Borne,Overijssel,VBO,6.761753,52.307020
Vedergras,21,,,7623EW,Borne,Borne,Overijssel,VBO,6.761841,52.307010
Vedergras,23,,,7623EW,Borne,Borne,Overijssel,VBO,6.761914,52.306991
Vedergras,25,,,7623EW,Borne,Borne,Overijssel,VBO,6.762017,52.306990
Vedergras,27,,,7623EW,Borne,Borne,Overijssel,VBO,6.762104,52.306980
Vedergras,29,,,7623EW,Borne,Borne,Overijssel,VBO,6.762353,52.306959
Vedergras,31,,,7623EW,Borne,Borne,Overijssel,VBO,6.762426,52.306949
Vedergras,33,,,7623EW,Borne,Borne,Overijssel,VBO,6.762499,52.306939
Vedergras,35,,,7623EW,Borne,Borne,Overijssel,VBO,6.762617,52.306956
Vedergras,37,,,7623EW,Borne,Borne,Overijssel,VBO,6.762689,52.306937
Vedergras,39,,,7623EW,Borne,Borne,Overijssel,VBO,6.763073,52.306996
Vedergras,41,,,7623EW,Borne,Borne,Overijssel,VBO,6.763071,52.306951
Vedergras,43,,,7623EW,Borne,Borne,Overijssel,VBO,6.763038,52.306843
Vedergras,45,,,7623EW,Borne,Borne,Overijssel,VBO,6.763022,52.306790
Vedergras,47,,,7623EW,Borne,Borne,Overijssel,VBO,6.762990,52.306700
Vedergras,49,,,7623EW,Borne,Borne,Overijssel,VBO,6.762988,52.306637
Vedergras,51,,,7623EW,Borne,Borne,Overijssel,VBO,6.762955,52.306521
Vedergras,2,,,7623EX,Borne,Borne,Overijssel,VBO,6.760792,52.305800
Vedergras,4,,,7623EX,Borne,Borne,Overijssel,VBO,6.760895,52.305799
Vedergras,6,,,7623EX,Borne,Borne,Overijssel,VBO,6.760969,52.305834
Vedergras,8,,,7623EX,Borne,Borne,Overijssel,VBO,6.761057,52.305824
Vedergras,10,,,7623EX,Borne,Borne,Overijssel,VBO,6.761130,52.305841
Vedergras,12,,,7623EX,Borne,Borne,Overijssel,VBO,6.761293,52.305875
Vedergras,14,,,7623EX,Borne,Borne,Overijssel,VBO,6.761378,52.305902
Vedergras,16,,,7623EX,Borne,Borne,Overijssel,VBO,6.761452,52.305927
Vedergras,18,,,7623EX,Borne,Borne,Overijssel,VBO,6.761500,52.305944
Vedergras,20,,,7623EX,Borne,Borne,Overijssel,VBO,6.761589,52.305979
Vedergras,22,a,,7623EX,Borne,Borne,Overijssel,VBO,6.761911,52.305919
Vedergras,22,,,7623EX,Borne,Borne,Overijssel,VBO,6.761678,52.306014
Vedergras,24,,,7623EX,Borne,Borne,Overijssel,VBO,6.761814,52.306120
Vedergras,26,,,7623EX,Borne,Borne,Overijssel,VBO,6.761830,52.306165
Vedergras,28,,,7623EX,Borne,Borne,Overijssel,VBO,6.761861,52.306228
Vedergras,30,,,7623EX,Borne,Borne,Overijssel,VBO,6.761877,52.306282
Vedergras,32,,,7623EX,Borne,Borne,Overijssel,VBO,6.761835,52.306327
Vedergras,34,,,7623EX,Borne,Borne,Overijssel,VBO,6.761880,52.306380
Vedergras,36,,,7623EX,Borne,Borne,Overijssel,VBO,6.761882,52.306425
Vedergras,38,,,7623EX,Borne,Borne,Overijssel,VBO,6.761898,52.306479
Vedergras,40,,,7623EX,Borne,Borne,Overijssel,VBO,6.761885,52.306542
Vedergras,42,,,7623EX,Borne,Borne,Overijssel,VBO,6.761935,52.306721
Vedergras,44,,,7623EX,Borne,Borne,Overijssel,VBO,6.762052,52.306729
Vedergras,46,,,7623EX,Borne,Borne,Overijssel,VBO,6.762213,52.306709
Vedergras,48,,,7623EX,Borne,Borne,Overijssel,VBO,6.762300,52.306681
Vedergras,50,,,7623EX,Borne,Borne,Overijssel,VBO,6.762447,52.306679
Vedergras,52,,,7623EZ,Borne,Borne,Overijssel,VBO,6.762534,52.306660
Vedergras,54,,,7623EZ,Borne,Borne,Overijssel,VBO,6.762440,52.306455
Vedergras,56,,,7623EZ,Borne,Borne,Overijssel,VBO,6.762424,52.306419
Vedergras,58,,,7623EZ,Borne,Borne,Overijssel,VBO,6.762393,52.306356
Vedergras,60,,,7623EZ,Borne,Borne,Overijssel,VBO,6.762391,52.306312
Vedergras,62,,,7623EZ,Borne,Borne,Overijssel,VBO,6.762375,52.306249
Vedergras,64,,,7623EZ,Borne,Borne,Overijssel,VBO,6.762388,52.306204
Vedergras,66,,,7623EZ,Borne,Borne,Overijssel,VBO,6.762386,52.306150
Vedergras,68,,,7623EZ,Borne,Borne,Overijssel,VBO,6.762370,52.306105
Vedergras,70,,,7623EZ,Borne,Borne,Overijssel,VBO,6.762369,52.306051
Vedergras,72,,,7623EZ,Borne,Borne,Overijssel,VBO,6.762353,52.306006
Vedergras,74,,,7623EZ,Borne,Borne,Overijssel,VBO,6.762351,52.305943
Struisgras,2,,,7623GA,Borne,Borne,Overijssel,VBO,6.763891,52.306914
Struisgras,4,,,7623GA,Borne,Borne,Overijssel,VBO,6.764008,52.306913
Struisgras,6,,,7623GA,Borne,Borne,Overijssel,VBO,6.764184,52.306911
Struisgras,8,,,7623GA,Borne,Borne,Overijssel,VBO,6.764302,52.306910
Struisgras,10,,,7623GA,Borne,Borne,Overijssel,VBO,6.764463,52.306917
Struisgras,12,,,7623GA,Borne,Borne,Overijssel,VBO,6.764595,52.306915
Struisgras,14,,,7623GA,Borne,Borne,Overijssel,VBO,6.764771,52.306904
Struisgras,16,,,7623GA,Borne,Borne,Overijssel,VBO,6.764859,52.306903
Struisgras,18,,,7623GA,Borne,Borne,Overijssel,VBO,6.765079,52.306909
Struisgras,20,,,7623GA,Borne,Borne,Overijssel,VBO,6.765167,52.306917
Struisgras,22,,,7623GA,Borne,Borne,Overijssel,VBO,6.765345,52.306969
Struisgras,24,,,7623GA,Borne,Borne,Overijssel,VBO,6.765537,52.307012
Struisgras,26,,,7623GA,Borne,Borne,Overijssel,VBO,6.765307,52.307167
Struisgras,28,,,7623GA,Borne,Borne,Overijssel,VBO,6.765294,52.307222
Struisgras,30,,,7623GA,Borne,Borne,Overijssel,VBO,6.765238,52.307303
Struisgras,32,,,7623GA,Borne,Borne,Overijssel,VBO,6.765180,52.307349
Struisgras,34,,,7623GA,Borne,Borne,Overijssel,VBO,6.765110,52.307439
Struisgras,36,,,7623GA,Borne,Borne,Overijssel,VBO,6.765096,52.307476
Struisgras,38,,,7623GA,Borne,Borne,Overijssel,VBO,6.764894,52.307559
Struisgras,40,,,7623GA,Borne,Borne,Overijssel,VBO,6.764791,52.307560
Struisgras,42,,,7623GA,Borne,Borne,Overijssel,VBO,6.764708,52.307558
Struisgras,44,,,7623GA,Borne,Borne,Overijssel,VBO,6.764580,52.307562
Struisgras,46,,,7623GA,Borne,Borne,Overijssel,VBO,6.764454,52.307564
Struisgras,48,,,7623GA,Borne,Borne,Overijssel,VBO,6.764322,52.307556
Struisgras,50,,,7623GA,Borne,Borne,Overijssel,VBO,6.764249,52.307575
Struisgras,52,,,7623GA,Borne,Borne,Overijssel,VBO,6.764058,52.307578
Struisgras,54,,,7623GA,Borne,Borne,Overijssel,VBO,6.763970,52.307579
Struisgras,56,,,7623GA,Borne,Borne,Overijssel,VBO,6.763765,52.307581
Struisgras,58,,,7623GA,Borne,Borne,Overijssel,VBO,6.763663,52.307582
Struisgras,1,,,7623GB,Borne,Borne,Overijssel,VBO,6.763513,52.306550
Struisgras,3,,,7623GB,Borne,Borne,Overijssel,VBO,6.763530,52.306622
Struisgras,5,,,7623GB,Borne,Borne,Overijssel,VBO,6.763533,52.306712
Struisgras,7,,,7623GB,Borne,Borne,Overijssel,VBO,6.763535,52.306784
Struisgras,9,,,7623GB,Borne,Borne,Overijssel,VBO,6.763538,52.306873
Struisgras,11,,,7623GB,Borne,Borne,Overijssel,VBO,6.763525,52.306928
Struisgras,13,,,7623GB,Borne,Borne,Overijssel,VBO,6.764470,52.307150
Struisgras,15,,,7623GB,Borne,Borne,Overijssel,VBO,6.764532,52.307230
Struisgras,17,,,7623GB,Borne,Borne,Overijssel,VBO,6.764506,52.307339
Struisgras,19,,,7623GB,Borne,Borne,Overijssel,VBO,6.764197,52.307315
Struisgras,21,,,7623GB,Borne,Borne,Overijssel,VBO,6.764079,52.307299
Struisgras,23,,,7623GB,Borne,Borne,Overijssel,VBO,6.763933,52.307309
Struisgras,25,,,7623GB,Borne,Borne,Overijssel,VBO,6.763772,52.307320
Struisgras,27,,,7623GB,Borne,Borne,Overijssel,VBO,6.763610,52.307304
Struisgras,29,,,7623GB,Borne,Borne,Overijssel,VBO,6.763478,52.307306
Struisgras,31,,,7623GB,Borne,Borne,Overijssel,VBO,6.763138,52.307202
Struisgras,33,,,7623GB,Borne,Borne,Overijssel,VBO,6.763183,52.307255
Struisgras,35,,,7623GB,Borne,Borne,Overijssel,VBO,6.763186,52.307345
Struisgras,37,,,7623GB,Borne,Borne,Overijssel,VBO,6.763188,52.307399
Struisgras,39,,,7623GB,Borne,Borne,Overijssel,VBO,6.763190,52.307489
Struisgras,41,,,7623GB,Borne,Borne,Overijssel,VBO,6.763251,52.307551
Struisgras,43,,,7623GB,Borne,Borne,Overijssel,VBO,6.763267,52.307639
Struisgras,45,,,7623GB,Borne,Borne,Overijssel,VBO,6.763325,52.307698
Struisgras,47,,,7623GB,Borne,Borne,Overijssel,VBO,6.763331,52.307775
Struisgras,49,,,7623GB,Borne,Borne,Overijssel,VBO,6.763319,52.307847
Struisgras,51,,,7623GB,Borne,Borne,Overijssel,VBO,6.763322,52.307937
Struisgras,53,,,7623GB,Borne,Borne,Overijssel,VBO,6.763309,52.307991
Struisgras,55,,,7623GB,Borne,Borne,Overijssel,VBO,6.763340,52.308071
Struisgras,57,,,7623GB,Borne,Borne,Overijssel,VBO,6.763313,52.308126
Reukgras,1,,,7623GE,Borne,Borne,Overijssel,VBO,6.766639,52.307565
Reukgras,2,,,7623GE,Borne,Borne,Overijssel,VBO,6.766351,52.307254
Reukgras,3,,,7623GE,Borne,Borne,Overijssel,VBO,6.766555,52.307683
Reukgras,4,,,7623GE,Borne,Borne,Overijssel,VBO,6.766558,52.307315
Reukgras,5,,,7623GE,Borne,Borne,Overijssel,VBO,6.766426,52.307784
Reukgras,6,,,7623GE,Borne,Borne,Overijssel,VBO,6.766794,52.307375
Reukgras,7,,,7623GE,Borne,Borne,Overijssel,VBO,6.766342,52.307910
Reukgras,8,,,7623GE,Borne,Borne,Overijssel,VBO,6.767142,52.307245
Reukgras,9,,,7623GE,Borne,Borne,Overijssel,VBO,6.766080,52.307976
Reukgras,10,,,7623GE,Borne,Borne,Overijssel,VBO,6.766679,52.307907
Reukgras,12,,,7623GE,Borne,Borne,Overijssel,VBO,6.766900,52.307958
Blauwgras,30,,,7623GK,Borne,Borne,Overijssel,VBO,6.762768,52.305678
Blauwgras,32,,,7623GK,Borne,Borne,Overijssel,VBO,6.762985,52.306071
Blauwgras,34,,,7623GK,Borne,Borne,Overijssel,VBO,6.763196,52.306248
Blauwgras,36,,,7623GK,Borne,Borne,Overijssel,VBO,6.763490,52.306263
Blauwgras,38,,,7623GK,Borne,Borne,Overijssel,VBO,6.763753,52.306251
Blauwgras,40,,,7623GK,Borne,Borne,Overijssel,VBO,6.764223,52.306254
Blauwgras,42,,,7623GK,Borne,Borne,Overijssel,VBO,6.765352,52.306259
Blauwgras,44,,,7623GK,Borne,Borne,Overijssel,VBO,6.765589,52.306328
Blauwgras,46,,,7623GK,Borne,Borne,Overijssel,VBO,6.765768,52.306434
Blauwgras,48,,,7623GK,Borne,Borne,Overijssel,VBO,6.766006,52.306530
Blauwgras,50,,,7623GK,Borne,Borne,Overijssel,VBO,6.766229,52.306653
Blauwgras,52,,,7623GK,Borne,Borne,Overijssel,VBO,6.766378,52.306732
Blauwgras,54,,,7623GK,Borne,Borne,Overijssel,VBO,6.766780,52.306926
Blauwgras,56,,,7623GK,Borne,Borne,Overijssel,VBO,6.766521,52.307063
Blauwgras,58,,,7623GL,Borne,Borne,Overijssel,VBO,6.766211,52.307463
Blauwgras,60,,,7623GL,Borne,Borne,Overijssel,VBO,6.766141,52.307571
Blauwgras,62,,,7623GL,Borne,Borne,Overijssel,VBO,6.766041,52.307680
Blauwgras,64,,,7623GL,Borne,Borne,Overijssel,VBO,6.765972,52.307807
Blauwgras,66,,,7623GL,Borne,Borne,Overijssel,VBO,6.765874,52.307961
Blauwgras,68,,,7623GL,Borne,Borne,Overijssel,VBO,6.765554,52.308054
Blauwgras,70,,,7623GL,Borne,Borne,Overijssel,VBO,6.765277,52.308094
Blauwgras,72,,,7623GL,Borne,Borne,Overijssel,VBO,6.765057,52.308096
Blauwgras,74,,,7623GL,Borne,Borne,Overijssel,VBO,6.764793,52.308099
Blauwgras,76,,,7623GL,Borne,Borne,Overijssel,VBO,6.764573,52.308102
Blauwgras,78,,,7623GL,Borne,Borne,Overijssel,VBO,6.764294,52.308087
Blauwgras,80,,,7623GL,Borne,Borne,Overijssel,VBO,6.764296,52.308141
Blauwgras,82,,,7623GL,Borne,Borne,Overijssel,VBO,6.764270,52.308267
Blauwgras,41,,,7623GM,Borne,Borne,Overijssel,VBO,6.763822,52.306574
Blauwgras,43,,,7623GM,Borne,Borne,Overijssel,VBO,6.764013,52.306580
Blauwgras,45,,,7623GM,Borne,Borne,Overijssel,VBO,6.764130,52.306561
Blauwgras,47,,,7623GM,Borne,Borne,Overijssel,VBO,6.764305,52.306559
Blauwgras,49,,,7623GM,Borne,Borne,Overijssel,VBO,6.764466,52.306548
Blauwgras,51,,,7623GM,Borne,Borne,Overijssel,VBO,6.764569,52.306547
Blauwgras,53,,,7623GM,Borne,Borne,Overijssel,VBO,6.764759,52.306536
Blauwgras,55,,,7623GM,Borne,Borne,Overijssel,VBO,6.764848,52.306544
Blauwgras,57,,,7623GM,Borne,Borne,Overijssel,VBO,6.765068,52.306550
Blauwgras,59,,,7623GM,Borne,Borne,Overijssel,VBO,6.765274,52.306593
Blauwgras,61,,,7623GM,Borne,Borne,Overijssel,VBO,6.765377,52.306609
Blauwgras,63,,,7623GM,Borne,Borne,Overijssel,VBO,6.765585,52.306688
Blauwgras,65,,,7623GM,Borne,Borne,Overijssel,VBO,6.765659,52.306714
Blauwgras,67,,,7623GM,Borne,Borne,Overijssel,VBO,6.765823,52.306793
Blauwgras,69,,,7623GM,Borne,Borne,Overijssel,VBO,6.765883,52.306828
Blauwgras,71,,,7623GM,Borne,Borne,Overijssel,VBO,6.766092,52.306961
Blauwgras,73,,,7623GM,Borne,Borne,Overijssel,VBO,6.765995,52.307123
Blauwgras,75,,,7623GM,Borne,Borne,Overijssel,VBO,6.765952,52.307169
Blauwgras,77,,,7623GN,Borne,Borne,Overijssel,VBO,6.765825,52.307332
Blauwgras,79,,,7623GN,Borne,Borne,Overijssel,VBO,6.765783,52.307378
Blauwgras,81,,,7623GN,Borne,Borne,Overijssel,VBO,6.765713,52.307495
Blauwgras,83,,,7623GN,Borne,Borne,Overijssel,VBO,6.765685,52.307550
Blauwgras,85,,,7623GN,Borne,Borne,Overijssel,VBO,6.765601,52.307667
Blauwgras,87,,,7623GN,Borne,Borne,Overijssel,VBO,6.765573,52.307713
Blauwgras,89,,,7623GN,Borne,Borne,Overijssel,VBO,6.765297,52.307806
Blauwgras,91,,,7623GN,Borne,Borne,Overijssel,VBO,6.765180,52.307807
Blauwgras,93,,,7623GN,Borne,Borne,Overijssel,VBO,6.764960,52.307810
Blauwgras,95,,,7623GN,Borne,Borne,Overijssel,VBO,6.764858,52.307811
Blauwgras,97,,,7623GN,Borne,Borne,Overijssel,VBO,6.764652,52.307813
Blauwgras,99,,,7623GN,Borne,Borne,Overijssel,VBO,6.764564,52.307814
Blauwgras,101,,,7623GN,Borne,Borne,Overijssel,VBO,6.764403,52.307816
Blauwgras,103,,,7623GN,Borne,Borne,Overijssel,VBO,6.764213,52.307818
Blauwgras,105,,,7623GN,Borne,Borne,Overijssel,VBO,6.764066,52.307820
Blauwgras,107,,,7623GN,Borne,Borne,Overijssel,VBO,6.763963,52.307821
Blauwgras,109,,,7623GN,Borne,Borne,Overijssel,VBO,6.763758,52.307824
Blauwgras,111,,,7623GN,Borne,Borne,Overijssel,VBO,6.763685,52.307825
Blauwgras,113,,,7623GP,Borne,Borne,Overijssel,VBO,6.762665,52.308502
Blauwgras,115,,,7623GP,Borne,Borne,Overijssel,VBO,6.762576,52.308494
Blauwgras,117,,,7623GP,Borne,Borne,Overijssel,VBO,6.762503,52.308495
Blauwgras,119,,,7623GP,Borne,Borne,Overijssel,VBO,6.762415,52.308505
Blauwgras,121,,,7623GP,Borne,Borne,Overijssel,VBO,6.762342,52.308514
Blauwgras,123,,,7623GP,Borne,Borne,Overijssel,VBO,6.762254,52.308515
Blauwgras,125,,,7623GP,Borne,Borne,Overijssel,VBO,6.762166,52.308516
Blauwgras,127,,,7623GP,Borne,Borne,Overijssel,VBO,6.762093,52.308526
Blauwgras,129,,,7623GP,Borne,Borne,Overijssel,VBO,6.761964,52.308600
Blauwgras,131,,,7623GP,Borne,Borne,Overijssel,VBO,6.761876,52.308601
Blauwgras,133,,,7623GP,Borne,Borne,Overijssel,VBO,6.761802,52.308593
Blauwgras,135,,,7623GP,Borne,Borne,Overijssel,VBO,6.761700,52.308612
Blauwgras,84,,,7623GR,Borne,Borne,Overijssel,VBO,6.764023,52.308315
Blauwgras,86,,,7623GR,Borne,Borne,Overijssel,VBO,6.763943,52.308109
Blauwgras,88,,,7623GR,Borne,Borne,Overijssel,VBO,6.763886,52.308155
Blauwgras,90,,,7623GR,Borne,Borne,Overijssel,VBO,6.763799,52.308210
Blauwgras,94,,,7623GR,Borne,Borne,Overijssel,STA,6.763701,52.308371
Blauwgras,96,,,7623GR,Borne,Borne,Overijssel,STA,6.763584,52.308442
Blauwgras,98,,,7623GR,Borne,Borne,Overijssel,STA,6.763481,52.308513
Blauwgras,100,,,7623GR,Borne,Borne,Overijssel,STA,6.763375,52.308588
Blauwgras,102,,,7623GR,Borne,Borne,Overijssel,VBO,6.762688,52.308771
Blauwgras,104,,,7623GR,Borne,Borne,Overijssel,VBO,6.762629,52.308790
Blauwgras,106,,,7623GR,Borne,Borne,Overijssel,VBO,6.762556,52.308800
Blauwgras,108,,,7623GR,Borne,Borne,Overijssel,VBO,6.762469,52.308810
Blauwgras,110,,,7623GR,Borne,Borne,Overijssel,VBO,6.762337,52.308820
Blauwgras,112,,,7623GR,Borne,Borne,Overijssel,VBO,6.762265,52.308848
Blauwgras,114,,,7623GR,Borne,Borne,Overijssel,VBO,6.762206,52.308858
Blauwgras,116,,,7623GR,Borne,Borne,Overijssel,VBO,6.762119,52.308868
Blauwgras,118,,,7623GR,Borne,Borne,Overijssel,VBO,6.761928,52.308870
Blauwgras,120,,,7623GR,Borne,Borne,Overijssel,VBO,6.761870,52.308897
Blauwgras,122,,,7623GR,Borne,Borne,Overijssel,VBO,6.761812,52.308916
Blauwgras,124,,,7623GR,Borne,Borne,Overijssel,VBO,6.761739,52.308926
Blauwgras,126,,,7623GR,Borne,Borne,Overijssel,VBO,6.761593,52.308955
Blauwgras,128,,,7623GR,Borne,Borne,Overijssel,VBO,6.761491,52.308965
Blauwgras,130,,,7623GR,Borne,Borne,Overijssel,VBO,6.761418,52.308984
Blauwgras,132,,,7623GR,Borne,Borne,Overijssel,VBO,6.761290,52.309013
Koolzaad,1,,,7623HA,Borne,Borne,Overijssel,VBO,6.753953,52.308953
Koolzaad,2,,,7623HA,Borne,Borne,Overijssel,VBO,6.753530,52.309030
Koolzaad,3,,,7623HA,Borne,Borne,Overijssel,VBO,6.753934,52.308828
Koolzaad,4,,,7623HA,Borne,Borne,Overijssel,VBO,6.753513,52.308967
Koolzaad,5,,,7623HA,Borne,Borne,Overijssel,VBO,6.753872,52.308711
Koolzaad,6,,,7623HA,Borne,Borne,Overijssel,VBO,6.753393,52.308870
Koolzaad,7,,,7623HA,Borne,Borne,Overijssel,VBO,6.753386,52.308627
Koolzaad,8,,,7623HA,Borne,Borne,Overijssel,VBO,6.752954,52.308911
Koolzaad,9,,,7623HA,Borne,Borne,Overijssel,VBO,6.753167,52.308675
Koolzaad,10,,,7623HA,Borne,Borne,Overijssel,VBO,6.753003,52.309063
Koolzaad,11,,,7623HA,Borne,Borne,Overijssel,VBO,6.752948,52.308704
Koolzaad,12,,,7623HA,Borne,Borne,Overijssel,VBO,6.753051,52.309197
Koolzaad,13,,,7623HA,Borne,Borne,Overijssel,VBO,6.752744,52.308733
Koolzaad,14,,,7623HA,Borne,Borne,Overijssel,VBO,6.753100,52.309359
Koolzaad,15,,,7623HA,Borne,Borne,Overijssel,VBO,6.752570,52.308807
Koolzaad,16,,,7623HA,Borne,Borne,Overijssel,VBO,6.753030,52.309476
Koolzaad,17,,,7623HA,Borne,Borne,Overijssel,VBO,6.752413,52.308935
Koolzaad,18,,,7623HA,Borne,Borne,Overijssel,VBO,6.752843,52.309568
Koolzaad,19,,,7623HA,Borne,Borne,Overijssel,VBO,6.752269,52.309045
Koolzaad,20,,,7623HA,Borne,Borne,Overijssel,VBO,6.752654,52.309624
Koolzaad,21,,,7623HA,Borne,Borne,Overijssel,VBO,6.752405,52.309160
Koolzaad,22,,,7623HA,Borne,Borne,Overijssel,VBO,6.752422,52.309708
Koolzaad,23,,,7623HA,Borne,Borne,Overijssel,VBO,6.752453,52.309294
Koolzaad,25,,,7623HA,Borne,Borne,Overijssel,VBO,6.752501,52.309419
Boekweit,1,,,7623HB,Borne,Borne,Overijssel,VBO,6.754062,52.309177
Boekweit,3,,,7623HB,Borne,Borne,Overijssel,VBO,6.754164,52.309158
Boekweit,5,,,7623HB,Borne,Borne,Overijssel,VBO,6.754340,52.309129
Boekweit,7,,,7623HB,Borne,Borne,Overijssel,VBO,6.754442,52.309118
Boekweit,9,,,7623HB,Borne,Borne,Overijssel,VBO,6.754646,52.309071
Boekweit,11,,,7623HB,Borne,Borne,Overijssel,VBO,6.754822,52.309078
Boekweit,13,,,7623HB,Borne,Borne,Overijssel,VBO,6.755229,52.308489
Boekweit,15,,,7623HB,Borne,Borne,Overijssel,VBO,6.755140,52.308463
Boekweit,17,,,7623HB,Borne,Borne,Overijssel,VBO,6.755021,52.308402
Boekweit,19,,,7623HB,Borne,Borne,Overijssel,VBO,6.754918,52.308376
Boekweit,21,,,7623HB,Borne,Borne,Overijssel,VBO,6.755320,52.308101
Boekweit,23,,,7623HB,Borne,Borne,Overijssel,VBO,6.755380,52.308164
Boekweit,25,,,7623HB,Borne,Borne,Overijssel,VBO,6.755499,52.308216
Boekweit,27,,,7623HB,Borne,Borne,Overijssel,VBO,6.755545,52.308270
Boekweit,29,,,7623HB,Borne,Borne,Overijssel,VBO,6.755770,52.308420
Boekweit,31,,,7623HB,Borne,Borne,Overijssel,VBO,6.755887,52.308427
Boekweit,33,,,7623HB,Borne,Borne,Overijssel,VBO,6.755932,52.308472
Boekweit,35,,,7623HB,Borne,Borne,Overijssel,VBO,6.755949,52.308517
Boekweit,2,,,7623HC,Borne,Borne,Overijssel,VBO,6.753687,52.309370
Boekweit,4,,,7623HC,Borne,Borne,Overijssel,VBO,6.753671,52.309316
Boekweit,6,,,7623HC,Borne,Borne,Overijssel,VBO,6.753565,52.309200
Boekweit,8,,,7623HC,Borne,Borne,Overijssel,VBO,6.753548,52.309147
Boekweit,10,,,7623HC,Borne,Borne,Overijssel,VBO,6.754464,52.308893
Boekweit,12,,,7623HC,Borne,Borne,Overijssel,VBO,6.754403,52.308804
Boekweit,14,,,7623HC,Borne,Borne,Overijssel,VBO,6.754444,52.308714
Boekweit,16,,,7623HC,Borne,Borne,Overijssel,VBO,6.754383,52.308643
Boekweit,18,,,7623HC,Borne,Borne,Overijssel,VBO,6.754306,52.308509
Boekweit,20,,,7623HC,Borne,Borne,Overijssel,VBO,6.754333,52.308427
Boekweit,22,,,7623HC,Borne,Borne,Overijssel,VBO,6.754447,52.308336
Boekweit,24,,,7623HC,Borne,Borne,Overijssel,VBO,6.754548,52.308290
Boekweit,26,,,7623HC,Borne,Borne,Overijssel,VBO,6.754693,52.308235
Boekweit,28,a,,7623HC,Borne,Borne,Overijssel,VBO,6.754908,52.308052
Boekweit,28,b,,7623HC,Borne,Borne,Overijssel,VBO,6.755008,52.307970
Boekweit,28,c,,7623HC,Borne,Borne,Overijssel,VBO,6.755108,52.307879
Boekweit,28,,,7623HC,Borne,Borne,Overijssel,VBO,6.754751,52.308207
Boekweit,30,,,7623HC,Borne,Borne,Overijssel,VBO,6.755593,52.307927
Boekweit,32,,,7623HC,Borne,Borne,Overijssel,VBO,6.755697,52.307980
Boekweit,34,,,7623HC,Borne,Borne,Overijssel,VBO,6.755802,52.308051
Boekweit,36,,,7623HC,Borne,Borne,Overijssel,VBO,6.755906,52.308104
Boekweit,38,,,7623HC,Borne,Borne,Overijssel,VBO,6.756040,52.308156
Boekweit,40,,,7623HC,Borne,Borne,Overijssel,VBO,6.756115,52.308209
Boekweit,42,,,7623HC,Borne,Borne,Overijssel,VBO,6.756219,52.308253
De Wanne,1,,,7623HD,Borne,Borne,Overijssel,VBO,6.756313,52.307263
De Wanne,2,,,7623HD,Borne,Borne,Overijssel,VBO,6.756340,52.307336
De Wanne,3,,,7623HD,Borne,Borne,Overijssel,VBO,6.756413,52.307383
De Wanne,4,,,7623HD,Borne,Borne,Overijssel,VBO,6.756475,52.307408
De Wanne,5,,,7623HD,Borne,Borne,Overijssel,VBO,6.756549,52.307429
De Wanne,6,,,7623HD,Borne,Borne,Overijssel,VBO,6.756644,52.307416
De Wanne,7,a,,7623HD,Borne,Borne,Overijssel,VBO,6.756761,52.307383
De Wanne,7,,,7623HD,Borne,Borne,Overijssel,VBO,6.756717,52.307407
De Wanne,8,,,7623HD,Borne,Borne,Overijssel,VBO,6.756835,52.307389
De Wanne,9,,,7623HD,Borne,Borne,Overijssel,VBO,6.756891,52.307384
De Wanne,10,,,7623HD,Borne,Borne,Overijssel,VBO,6.756960,52.307373
De Wanne,11,,,7623HD,Borne,Borne,Overijssel,VBO,6.757007,52.307343
De Wanne,12,,,7623HD,Borne,Borne,Overijssel,VBO,6.757072,52.307293
De Wanne,13,,,7623HD,Borne,Borne,Overijssel,VBO,6.757096,52.307252
De Wanne,14,,,7623HD,Borne,Borne,Overijssel,VBO,6.757084,52.307201
De Wanne,15,,,7623HD,Borne,Borne,Overijssel,VBO,6.757049,52.307164
De Wanne,16,,,7623HD,Borne,Borne,Overijssel,VBO,6.757030,52.307114
De Wanne,17,,,7623HD,Borne,Borne,Overijssel,VBO,6.757020,52.307088
De Wanne,18,,,7623HD,Borne,Borne,Overijssel,VBO,6.757021,52.307055
De Wanne,19,,,7623HD,Borne,Borne,Overijssel,VBO,6.757009,52.307022
De Wanne,20,,,7623HD,Borne,Borne,Overijssel,VBO,6.756987,52.306990
De Wanne,21,,,7623HD,Borne,Borne,Overijssel,VBO,6.756933,52.306964
De Wanne,22,,,7623HD,Borne,Borne,Overijssel,VBO,6.756848,52.306937
De Wanne,23,,,7623HD,Borne,Borne,Overijssel,VBO,6.756684,52.306934
De Wanne,24,,,7623HD,Borne,Borne,Overijssel,VBO,6.756560,52.306944
De Wanne,25,,,7623HD,Borne,Borne,Overijssel,VBO,6.756476,52.306954
De Wanne,26,,,7623HD,Borne,Borne,Overijssel,VBO,6.756396,52.306978
De Wanne,27,,,7623HD,Borne,Borne,Overijssel,VBO,6.756327,52.307020
De Wanne,28,,,7623HD,Borne,Borne,Overijssel,VBO,6.756279,52.307048
De Wanne,29,,,7623HD,Borne,Borne,Overijssel,VBO,6.756267,52.307096
De Wanne,30,,,7623HD,Borne,Borne,Overijssel,VBO,6.756275,52.307134
De Wanne,31,,,7623HE,Borne,Borne,Overijssel,VBO,6.756302,52.307308
De Wanne,32,,,7623HE,Borne,Borne,Overijssel,VBO,6.756348,52.307363
De Wanne,33,,,7623HE,Borne,Borne,Overijssel,VBO,6.756402,52.307399
De Wanne,34,,,7623HE,Borne,Borne,Overijssel,VBO,6.756476,52.307428
De Wanne,35,,,7623HE,Borne,Borne,Overijssel,VBO,6.756576,52.307436
De Wanne,36,,,7623HE,Borne,Borne,Overijssel,VBO,6.756678,52.307426
De Wanne,37,,,7623HE,Borne,Borne,Overijssel,VBO,6.756802,52.307409
De Wanne,38,,,7623HE,Borne,Borne,Overijssel,VBO,6.756920,52.307398
De Wanne,39,,,7623HE,Borne,Borne,Overijssel,VBO,6.757029,52.307345
De Wanne,40,,,7623HE,Borne,Borne,Overijssel,VBO,6.757080,52.307299
De Wanne,41,,,7623HE,Borne,Borne,Overijssel,VBO,6.757107,52.307233
De Wanne,42,,,7623HE,Borne,Borne,Overijssel,VBO,6.757094,52.307175
De Wanne,43,,,7623HE,Borne,Borne,Overijssel,VBO,6.757046,52.307076
De Wanne,44,,,7623HE,Borne,Borne,Overijssel,VBO,6.757041,52.307027
De Wanne,45,,,7623HE,Borne,Borne,Overijssel,VBO,6.757008,52.306980
De Wanne,46,,,7623HE,Borne,Borne,Overijssel,VBO,6.756927,52.306943
De Wanne,47,,,7623HE,Borne,Borne,Overijssel,VBO,6.756856,52.306915
De Wanne,48,,,7623HE,Borne,Borne,Overijssel,VBO,6.756749,52.306906
De Wanne,49,,,7623HE,Borne,Borne,Overijssel,VBO,6.756608,52.306919
De Wanne,50,,,7623HE,Borne,Borne,Overijssel,VBO,6.756510,52.306932
De Wanne,51,,,7623HE,Borne,Borne,Overijssel,VBO,6.756392,52.306955
De Wanne,52,,,7623HE,Borne,Borne,Overijssel,VBO,6.756296,52.307001
De Wanne,53,,,7623HE,Borne,Borne,Overijssel,VBO,6.756256,52.307067
De Wanne,54,,,7623HE,Borne,Borne,Overijssel,VBO,6.756249,52.307145
De Wanne,55,,,7623HG,Borne,Borne,Overijssel,VBO,6.756287,52.307312
De Wanne,56,,,7623HG,Borne,Borne,Overijssel,VBO,6.756345,52.307374
De Wanne,57,,,7623HG,Borne,Borne,Overijssel,VBO,6.756406,52.307410
De Wanne,58,,,7623HG,Borne,Borne,Overijssel,VBO,6.756469,52.307432
De Wanne,59,,,7623HG,Borne,Borne,Overijssel,VBO,6.756599,52.307443
De Wanne,60,,,7623HG,Borne,Borne,Overijssel,VBO,6.756702,52.307438
De Wanne,61,,,7623HG,Borne,Borne,Overijssel,VBO,6.756822,52.307423
De Wanne,62,,,7623HG,Borne,Borne,Overijssel,VBO,6.756934,52.307403
De Wanne,63,,,7623HG,Borne,Borne,Overijssel,VBO,6.757040,52.307354
De Wanne,64,,,7623HG,Borne,Borne,Overijssel,VBO,6.757104,52.307304
De Wanne,65,,,7623HG,Borne,Borne,Overijssel,VBO,6.757128,52.307239
De Wanne,66,,,7623HG,Borne,Borne,Overijssel,VBO,6.757121,52.307182
De Wanne,67,,,7623HG,Borne,Borne,Overijssel,VBO,6.757067,52.307084
De Wanne,68,,,7623HG,Borne,Borne,Overijssel,VBO,6.757055,52.307039
De Wanne,69,,,7623HG,Borne,Borne,Overijssel,VBO,6.757038,52.306997
De Wanne,70,,,7623HG,Borne,Borne,Overijssel,VBO,6.756973,52.306954
De Wanne,71,,,7623HG,Borne,Borne,Overijssel,VBO,6.756888,52.306911
De Wanne,72,,,7623HG,Borne,Borne,Overijssel,VBO,6.756796,52.306892
De Wanne,73,,,7623HG,Borne,Borne,Overijssel,VBO,6.756638,52.306905
De Wanne,74,,,7623HG,Borne,Borne,Overijssel,VBO,6.756484,52.306922
De Wanne,75,,,7623HG,Borne,Borne,Overijssel,VBO,6.756356,52.306953
De Wanne,76,,,7623HG,Borne,Borne,Overijssel,VBO,6.756279,52.307003
De Wanne,77,,,7623HG,Borne,Borne,Overijssel,VBO,6.756239,52.307068
De Wanne,78,,,7623HG,Borne,Borne,Overijssel,VBO,6.756222,52.307151
De Wanne,79,,,7623HH,Borne,Borne,Overijssel,VBO,6.756234,52.307314
De Wanne,80,,,7623HH,Borne,Borne,Overijssel,VBO,6.756297,52.307378
De Wanne,81,,,7623HH,Borne,Borne,Overijssel,VBO,6.756364,52.307427
De Wanne,82,,,7623HH,Borne,Borne,Overijssel,VBO,6.756448,52.307458
De Wanne,83,,,7623HH,Borne,Borne,Overijssel,VBO,6.756550,52.307470
De Wanne,84,,,7623HH,Borne,Borne,Overijssel,VBO,6.756650,52.307467
De Wanne,85,,,7623HH,Borne,Borne,Overijssel,VBO,6.756784,52.307448
De Wanne,86,,,7623HH,Borne,Borne,Overijssel,VBO,6.756952,52.307419
De Wanne,87,,,7623HH,Borne,Borne,Overijssel,VBO,6.757073,52.307373
De Wanne,88,,,7623HH,Borne,Borne,Overijssel,VBO,6.757155,52.307276
De Wanne,89,,,7623HH,Borne,Borne,Overijssel,VBO,6.757174,52.307196
De Wanne,90,,,7623HH,Borne,Borne,Overijssel,VBO,6.757110,52.307053
De Wanne,91,,,7623HH,Borne,Borne,Overijssel,VBO,6.757092,52.307010
De Wanne,92,,,7623HH,Borne,Borne,Overijssel,VBO,6.757028,52.306961
De Wanne,93,,,7623HH,Borne,Borne,Overijssel,VBO,6.756951,52.306903
De Wanne,94,,,7623HH,Borne,Borne,Overijssel,VBO,6.756795,52.306870
De Wanne,95,,,7623HH,Borne,Borne,Overijssel,VBO,6.756597,52.306890
De Wanne,96,,,7623HH,Borne,Borne,Overijssel,VBO,6.756445,52.306911
De Wanne,97,,,7623HH,Borne,Borne,Overijssel,VBO,6.756313,52.306947
De Wanne,98,,,7623HH,Borne,Borne,Overijssel,VBO,6.756230,52.307004
De Wanne,99,,,7623HH,Borne,Borne,Overijssel,VBO,6.756194,52.307071
De Wanne,100,,,7623HH,Borne,Borne,Overijssel,VBO,6.756177,52.307161
Gerst,2,,,7623HJ,Borne,Borne,Overijssel,VBO,6.755554,52.308575
Gerst,4,,,7623HJ,Borne,Borne,Overijssel,VBO,6.755482,52.308612
Gerst,6,,,7623HJ,Borne,Borne,Overijssel,VBO,6.755352,52.308685
Gerst,8,,,7623HJ,Borne,Borne,Overijssel,VBO,6.755295,52.308740
Gerst,10,,,7623HJ,Borne,Borne,Overijssel,VBO,6.755224,52.308804
Gerst,12,,,7623HJ,Borne,Borne,Overijssel,VBO,6.755124,52.308886
Gerst,14,,,7623HJ,Borne,Borne,Overijssel,VBO,6.755010,52.309004
Haver,1,,,7623HK,Borne,Borne,Overijssel,VBO,6.754475,52.307815
Haver,2,,,7623HK,Borne,Borne,Overijssel,VBO,6.754542,52.308057
Haver,3,,,7623HK,Borne,Borne,Overijssel,VBO,6.754575,52.307724
Haver,4,,,7623HK,Borne,Borne,Overijssel,VBO,6.754304,52.307978
Haver,5,,,7623HK,Borne,Borne,Overijssel,VBO,6.754690,52.307641
Haver,6,,,7623HK,Borne,Borne,Overijssel,VBO,6.754132,52.308097
Haver,8,,,7623HK,Borne,Borne,Overijssel,VBO,6.753944,52.308198
Haver,10,,,7623HK,Borne,Borne,Overijssel,VBO,6.753815,52.308299
Haver,12,,,7623HK,Borne,Borne,Overijssel,VBO,6.753791,52.308470
Haver,14,,,7623HK,Borne,Borne,Overijssel,VBO,6.753795,52.308578
Tarwe,1,,,7623HL,Borne,Borne,Overijssel,VBO,6.750842,52.308405
Tarwe,2,,,7623HL,Borne,Borne,Overijssel,VBO,6.750172,52.308574
Tarwe,3,,,7623HL,Borne,Borne,Overijssel,VBO,6.751165,52.308437
Tarwe,4,,,7623HL,Borne,Borne,Overijssel,VBO,6.750271,52.308456
Tarwe,5,,,7623HL,Borne,Borne,Overijssel,VBO,6.751330,52.308534
Tarwe,6,,,7623HL,Borne,Borne,Overijssel,VBO,6.750356,52.308348
Tarwe,7,,,7623HL,Borne,Borne,Overijssel,VBO,6.751538,52.308622
Tarwe,9,,,7623HL,Borne,Borne,Overijssel,VBO,6.751835,52.308744
Rogge,8,,,7623HM,Borne,Borne,Overijssel,VBO,6.748470,52.309502
Rogge,10,,,7623HM,Borne,Borne,Overijssel,VBO,6.748554,52.309357
Rogge,12,,,7623HM,Borne,Borne,Overijssel,VBO,6.748729,52.309328
Rogge,14,,,7623HM,Borne,Borne,Overijssel,VBO,6.748888,52.309263
Rogge,16,,,7623HM,Borne,Borne,Overijssel,VBO,6.748946,52.309218
Rogge,18,,,7623HM,Borne,Borne,Overijssel,VBO,6.749047,52.309163
Rogge,20,,,7623HM,Borne,Borne,Overijssel,VBO,6.749105,52.309162
Rogge,22,,,7623HM,Borne,Borne,Overijssel,VBO,6.749205,52.309080
Rogge,24,,,7623HM,Borne,Borne,Overijssel,VBO,6.749322,52.309070
Rogge,26,,,7623HM,Borne,Borne,Overijssel,VBO,6.749467,52.309014
Rogge,28,,,7623HM,Borne,Borne,Overijssel,VBO,6.749539,52.308968
Rogge,30,,,7623HM,Borne,Borne,Overijssel,VBO,6.749655,52.308931
Rogge,32,,,7623HM,Borne,Borne,Overijssel,VBO,6.749757,52.308894
Rogge,34,,,7623HM,Borne,Borne,Overijssel,VBO,6.749902,52.308829
Rogge,36,,,7623HM,Borne,Borne,Overijssel,VBO,6.749959,52.308775
Rogge,38,,,7623HM,Borne,Borne,Overijssel,VBO,6.750073,52.308674
Rogge,40,,,7623HM,Borne,Borne,Overijssel,VBO,6.750613,52.308605
Rogge,42,,,7623HM,Borne,Borne,Overijssel,VBO,6.750822,52.308720
Rogge,44,,,7623HM,Borne,Borne,Overijssel,VBO,6.751089,52.308816
Rogge,46,,,7623HM,Borne,Borne,Overijssel,VBO,6.751327,52.308964
Rogge,48,,,7623HM,Borne,Borne,Overijssel,VBO,6.751590,52.308900
Rogge,50,,,7623HN,Borne,Borne,Overijssel,VBO,6.752072,52.309775
Rogge,52,,,7623HN,Borne,Borne,Overijssel,VBO,6.751955,52.309794
Rogge,54,,,7623HN,Borne,Borne,Overijssel,VBO,6.751780,52.309814
Rogge,56,,,7623HN,Borne,Borne,Overijssel,VBO,6.751678,52.309833
Rogge,58,,,7623HN,Borne,Borne,Overijssel,VBO,6.751503,52.309889
Rogge,60,,,7623HN,Borne,Borne,Overijssel,VBO,6.751401,52.309900
Rogge,62,,,7623HN,Borne,Borne,Overijssel,VBO,6.751168,52.309947
Rogge,64,,,7623HN,Borne,Borne,Overijssel,VBO,6.751065,52.309930
Rogge,66,,,7623HN,Borne,Borne,Overijssel,VBO,6.750885,52.309816
Rogge,68,,,7623HN,Borne,Borne,Overijssel,VBO,6.750796,52.309781
Rogge,1,,,7623HP,Borne,Borne,Overijssel,VBO,6.749067,52.309645
Rogge,3,,,7623HP,Borne,Borne,Overijssel,VBO,6.749014,52.309523
Rogge,5,,,7623HP,Borne,Borne,Overijssel,VBO,6.749071,52.309495
Rogge,7,,,7623HP,Borne,Borne,Overijssel,VBO,6.749187,52.309449
Rogge,9,,,7623HP,Borne,Borne,Overijssel,VBO,6.749260,52.309412
Rogge,11,,,7623HP,Borne,Borne,Overijssel,VBO,6.750375,52.308968
Rogge,13,,,7623HP,Borne,Borne,Overijssel,VBO,6.750505,52.308885
Rogge,15,,,7623HP,Borne,Borne,Overijssel,VBO,6.750700,52.309027
Rogge,17,,,7623HP,Borne,Borne,Overijssel,VBO,6.750877,52.309070
Rogge,19,,,7623HP,Borne,Borne,Overijssel,VBO,6.751012,52.309158
Rogge,21,,,7623HP,Borne,Borne,Overijssel,VBO,6.751293,52.309263
Rogge,23,,,7623HP,Borne,Borne,Overijssel,VBO,6.751482,52.309197
Rogge,25,,,7623HP,Borne,Borne,Overijssel,VBO,6.751657,52.309169
Rogge,27,,,7623HP,Borne,Borne,Overijssel,VBO,6.751815,52.309535
Rogge,29,,,7623HP,Borne,Borne,Overijssel,VBO,6.751610,52.309556
Rogge,31,,,7623HP,Borne,Borne,Overijssel,VBO,6.751450,52.309584
Rogge,33,,,7623HP,Borne,Borne,Overijssel,VBO,6.751231,52.309623
Rogge,35,,,7623HP,Borne,Borne,Overijssel,VBO,6.751023,52.309544
Rogge,37,,,7623HP,Borne,Borne,Overijssel,VBO,6.750964,52.309518
Vlas,1,,,7623HR,Borne,Borne,Overijssel,VBO,6.749417,52.309284
Vlas,2,,,7623HR,Borne,Borne,Overijssel,VBO,6.750128,52.309051
Vlas,3,,,7623HR,Borne,Borne,Overijssel,VBO,6.749477,52.309346
Vlas,4,,,7623HR,Borne,Borne,Overijssel,VBO,6.750278,52.309148
Vlas,5,,,7623HR,Borne,Borne,Overijssel,VBO,6.749583,52.309435
Vlas,6,,,7623HR,Borne,Borne,Overijssel,VBO,6.750456,52.309227
Vlas,7,,,7623HR,Borne,Borne,Overijssel,VBO,6.749702,52.309497
Vlas,8,,,7623HR,Borne,Borne,Overijssel,VBO,6.750620,52.309306
Vlas,9,,,7623HR,Borne,Borne,Overijssel,VBO,6.749879,52.309540
Vlas,10,,,7623HR,Borne,Borne,Overijssel,VBO,6.750769,52.309368
Vlas,11,,,7623HR,Borne,Borne,Overijssel,VBO,6.749997,52.309547
Vlas,13,,,7623HR,Borne,Borne,Overijssel,VBO,6.750144,52.309554
Vlas,15,,,7623HR,Borne,Borne,Overijssel,VBO,6.750247,52.309571
Vlas,17,,,7623HR,Borne,Borne,Overijssel,VBO,6.750410,52.309614
Vlas,19,,,7623HR,Borne,Borne,Overijssel,VBO,6.750484,52.309658
De Dorsmolen,1,,,7623HS,Borne,Borne,Overijssel,VBO,6.756504,52.307877
De Dorsmolen,5,,,7623HS,Borne,Borne,Overijssel,VBO,6.756866,52.307799
De Dorsmolen,6,,,7623HS,Borne,Borne,Overijssel,VBO,6.756953,52.307834
De Dorsmolen,7,,,7623HS,Borne,Borne,Overijssel,VBO,6.757140,52.307774
De Dorsmolen,8,a,,7623HS,Borne,Borne,Overijssel,VBO,6.756591,52.308437
De Dorsmolen,8,,,7623HS,Borne,Borne,Overijssel,VBO,6.756547,52.308438
De Dorsmolen,9,,,7623HS,Borne,Borne,Overijssel,VBO,6.756636,52.308446
De Dorsmolen,10,,,7623HS,Borne,Borne,Overijssel,VBO,6.756665,52.308445
De Dorsmolen,11,,,7623HS,Borne,Borne,Overijssel,VBO,6.756694,52.308445
De Dorsmolen,12,,,7623HS,Borne,Borne,Overijssel,VBO,6.756738,52.308427
De Dorsmolen,13,,,7623HS,Borne,Borne,Overijssel,VBO,6.756782,52.308426
De Dorsmolen,14,,,7623HS,Borne,Borne,Overijssel,VBO,6.756811,52.308417
De Dorsmolen,15,,,7623HS,Borne,Borne,Overijssel,VBO,6.756854,52.308407
De Dorsmolen,16,,,7623HS,Borne,Borne,Overijssel,VBO,6.756869,52.308398
De Dorsmolen,17,,,7623HS,Borne,Borne,Overijssel,VBO,6.756898,52.308389
De Dorsmolen,18,,,7623HS,Borne,Borne,Overijssel,VBO,6.756941,52.308370
De Dorsmolen,19,,,7623HS,Borne,Borne,Overijssel,VBO,6.756970,52.308352
De Dorsmolen,20,,,7623HS,Borne,Borne,Overijssel,VBO,6.756984,52.308343
De Dorsmolen,21,,,7623HS,Borne,Borne,Overijssel,VBO,6.757013,52.308325
De Dorsmolen,22,,,7623HS,Borne,Borne,Overijssel,VBO,6.757057,52.308306
De Dorsmolen,23,,,7623HS,Borne,Borne,Overijssel,VBO,6.757085,52.308288
De Dorsmolen,24,,,7623HS,Borne,Borne,Overijssel,VBO,6.757114,52.308260
De Dorsmolen,25,,,7623HS,Borne,Borne,Overijssel,VBO,6.757143,52.308242
De Dorsmolen,26,,,7623HS,Borne,Borne,Overijssel,VBO,6.757171,52.308224
De Dorsmolen,27,,,7623HS,Borne,Borne,Overijssel,VBO,6.757200,52.308206
De Dorsmolen,28,,,7623HS,Borne,Borne,Overijssel,VBO,6.757229,52.308178
De Dorsmolen,29,,,7623HS,Borne,Borne,Overijssel,VBO,6.757243,52.308160
De Dorsmolen,30,,,7623HS,Borne,Borne,Overijssel,VBO,6.757227,52.308133
De Dorsmolen,31,,,7623HS,Borne,Borne,Overijssel,VBO,6.757241,52.308115
De Dorsmolen,32,,,7623HS,Borne,Borne,Overijssel,VBO,6.757226,52.308088
De Dorsmolen,33,,,7623HS,Borne,Borne,Overijssel,VBO,6.757210,52.308053
De Dorsmolen,34,,,7623HS,Borne,Borne,Overijssel,VBO,6.757195,52.308035
De Dorsmolen,35,,,7623HS,Borne,Borne,Overijssel,VBO,6.757194,52.308008
De Dorsmolen,36,,,7623HS,Borne,Borne,Overijssel,VBO,6.757179,52.307981
De Dorsmolen,37,,,7623HS,Borne,Borne,Overijssel,VBO,6.757149,52.307972
De Dorsmolen,38,,,7623HS,Borne,Borne,Overijssel,VBO,6.757134,52.307955
De Dorsmolen,39,,,7623HT,Borne,Borne,Overijssel,VBO,6.756958,52.307948
De Dorsmolen,40,,,7623HT,Borne,Borne,Overijssel,VBO,6.756914,52.307966
De Dorsmolen,41,,,7623HT,Borne,Borne,Overijssel,VBO,6.756856,52.307976
De Dorsmolen,42,,,7623HT,Borne,Borne,Overijssel,VBO,6.756826,52.307976
De Dorsmolen,43,,,7623HT,Borne,Borne,Overijssel,VBO,6.756783,52.307986
De Dorsmolen,44,,,7623HT,Borne,Borne,Overijssel,VBO,6.756753,52.307986
De Dorsmolen,45,,,7623HT,Borne,Borne,Overijssel,VBO,6.756724,52.307995
De Dorsmolen,46,,,7623HT,Borne,Borne,Overijssel,VBO,6.756680,52.307996
De Dorsmolen,47,,,7623HT,Borne,Borne,Overijssel,VBO,6.756637,52.308005
De Dorsmolen,48,,,7623HT,Borne,Borne,Overijssel,VBO,6.756608,52.308015
De Dorsmolen,49,,,7623HT,Borne,Borne,Overijssel,VBO,6.756564,52.308015
De Dorsmolen,50,,,7623HT,Borne,Borne,Overijssel,VBO,6.756520,52.308025
De Dorsmolen,51,,,7623HT,Borne,Borne,Overijssel,VBO,6.756504,52.307998
De Dorsmolen,52,,,7623HT,Borne,Borne,Overijssel,VBO,6.756504,52.307971
De Dorsmolen,53,,,7623HT,Borne,Borne,Overijssel,VBO,6.756532,52.307953
De Dorsmolen,54,,,7623HT,Borne,Borne,Overijssel,VBO,6.756591,52.307952
De Dorsmolen,55,,,7623HT,Borne,Borne,Overijssel,VBO,6.756649,52.307942
De Dorsmolen,56,,,7623HT,Borne,Borne,Overijssel,VBO,6.756708,52.307933
De Dorsmolen,57,,,7623HT,Borne,Borne,Overijssel,VBO,6.756781,52.307923
De Dorsmolen,58,,,7623HT,Borne,Borne,Overijssel,VBO,6.756839,52.307904
De Dorsmolen,59,,,7623HT,Borne,Borne,Overijssel,VBO,6.756838,52.307877
De Dorsmolen,60,,,7623HT,Borne,Borne,Overijssel,VBO,6.756794,52.307878
De Dorsmolen,61,,,7623HT,Borne,Borne,Overijssel,VBO,6.756765,52.307896
De Dorsmolen,62,,,7623HT,Borne,Borne,Overijssel,VBO,6.756736,52.307905
De Dorsmolen,63,,,7623HT,Borne,Borne,Overijssel,VBO,6.756678,52.307915
De Dorsmolen,64,,,7623HT,Borne,Borne,Overijssel,VBO,6.756634,52.307915
De Dorsmolen,65,,,7623HT,Borne,Borne,Overijssel,VBO,6.756590,52.307916
De Dorsmolen,66,,,7623HT,Borne,Borne,Overijssel,VBO,6.756546,52.307925
De Dorsmolen,67,,,7623HT,Borne,Borne,Overijssel,VBO,6.756502,52.307926
De Dorsmolen,68,,,7623HT,Borne,Borne,Overijssel,VBO,6.756575,52.307907
De Dorsmolen,69,,,7623HT,Borne,Borne,Overijssel,VBO,6.756619,52.307898
De Dorsmolen,70,,,7623HT,Borne,Borne,Overijssel,VBO,6.756692,52.307897
De Dorsmolen,71,,,7623HT,Borne,Borne,Overijssel,VBO,6.756736,52.307887
De Dorsmolen,72,,,7623HT,Borne,Borne,Overijssel,VBO,6.756559,52.307871
Erve Stroomboer,2,,,7623JA,Borne,Borne,Overijssel,VBO,6.748052,52.311161
Erve Stroomboer,4,,,7623JA,Borne,Borne,Overijssel,VBO,6.748144,52.311285
Erve Stroomboer,6,,,7623JA,Borne,Borne,Overijssel,VBO,6.748264,52.311374
Erve Stroomboer,8,,,7623JA,Borne,Borne,Overijssel,VBO,6.748568,52.311245
Erve Stroomboer,10,,,7623JA,Borne,Borne,Overijssel,VBO,6.748655,52.311235
Erve Stroomboer,12,,,7623JA,Borne,Borne,Overijssel,VBO,6.748845,52.311205
Erve Stroomboer,14,,,7623JA,Borne,Borne,Overijssel,VBO,6.748948,52.311195
Erve Stroomboer,16,,,7623JA,Borne,Borne,Overijssel,VBO,6.749138,52.311175
Erve Stroomboer,18,,,7623JA,Borne,Borne,Overijssel,VBO,6.749226,52.311183
Erve Stroomboer,20,,,7623JA,Borne,Borne,Overijssel,VBO,6.749417,52.311208
Erve Stroomboer,22,,,7623JA,Borne,Borne,Overijssel,VBO,6.749520,52.311216
Erve Stroomboer,24,,,7623JA,Borne,Borne,Overijssel,VBO,6.749698,52.311268
Erve Stroomboer,26,,,7623JA,Borne,Borne,Overijssel,VBO,6.750009,52.311390
Erve Stroomboer,28,,,7623JA,Borne,Borne,Overijssel,VBO,6.750173,52.311460
Erve Stroomboer,30,,,7623JA,Borne,Borne,Overijssel,VBO,6.750276,52.311486
Erve Stroomboer,32,,,7623JA,Borne,Borne,Overijssel,VBO,6.750468,52.311528
Erve Stroomboer,34,,,7623JA,Borne,Borne,Overijssel,VBO,6.750586,52.311545
Erve Stroomboer,36,,,7623JA,Borne,Borne,Overijssel,VBO,6.750762,52.311543
Erve Stroomboer,38,,,7623JA,Borne,Borne,Overijssel,VBO,6.750967,52.311541
Erve Stroomboer,40,,,7623JA,Borne,Borne,Overijssel,VBO,6.751172,52.311511
Erve Stroomboer,42,,,7623JA,Borne,Borne,Overijssel,VBO,6.751259,52.311492
Erve Stroomboer,44,,,7623JA,Borne,Borne,Overijssel,VBO,6.751462,52.311409
Erve Stroomboer,46,,,7623JA,Borne,Borne,Overijssel,VBO,6.751519,52.311363
Erve Stroomboer,48,,,7623JA,Borne,Borne,Overijssel,VBO,6.751573,52.311219
Erve Stroomboer,50,,,7623JB,Borne,Borne,Overijssel,VBO,6.751345,52.310952
Erve Stroomboer,52,,,7623JB,Borne,Borne,Overijssel,VBO,6.751276,52.311070
Erve Stroomboer,54,,,7623JB,Borne,Borne,Overijssel,VBO,6.751204,52.311115
Erve Stroomboer,56,,,7623JB,Borne,Borne,Overijssel,VBO,6.751045,52.311198
Erve Stroomboer,58,,,7623JB,Borne,Borne,Overijssel,VBO,6.750957,52.311217
Erve Stroomboer,60,,,7623JB,Borne,Borne,Overijssel,VBO,6.750753,52.311246
Erve Stroomboer,62,,,7623JB,Borne,Borne,Overijssel,VBO,6.750650,52.311248
Erve Stroomboer,64,,,7623JB,Borne,Borne,Overijssel,VBO,6.750459,52.311223
Erve Stroomboer,66,,,7623JB,Borne,Borne,Overijssel,VBO,6.750235,52.311091
Erve Stroomboer,68,,,7623JB,Borne,Borne,Overijssel,VBO,6.750100,52.310993
Erve Stroomboer,70,,,7623JB,Borne,Borne,Overijssel,VBO,6.750040,52.310967
Erve Stroomboer,72,,,7623JB,Borne,Borne,Overijssel,VBO,6.749906,52.310888
Erve Stroomboer,74,,,7623JB,Borne,Borne,Overijssel,VBO,6.749817,52.310862
Erve Stroomboer,76,,,7623JB,Borne,Borne,Overijssel,VBO,6.749668,52.310791
Erve Stroomboer,78,,,7623JB,Borne,Borne,Overijssel,VBO,6.749594,52.310765
Erve Stroomboer,80,,,7623JB,Borne,Borne,Overijssel,VBO,6.749417,52.310722
Erve Stroomboer,82,,,7623JB,Borne,Borne,Overijssel,VBO,6.749329,52.310705
Erve Stroomboer,84,,,7623JB,Borne,Borne,Overijssel,VBO,6.748961,52.310674
Erve Stroomboer,86,,,7623JB,Borne,Borne,Overijssel,VBO,6.748890,52.310755
Erve Stroomboer,88,,,7623JB,Borne,Borne,Overijssel,VBO,6.748789,52.310820
Erve Stroomboer,90,,,7623JB,Borne,Borne,Overijssel,VBO,6.748659,52.310857
Erve Stroomboer,92,,,7623JB,Borne,Borne,Overijssel,VBO,6.748527,52.310885
Erve Stroomboer,94,,,7623JB,Borne,Borne,Overijssel,VBO,6.748381,52.310887
Erve Stroomboer,96,,,7623JB,Borne,Borne,Overijssel,VBO,6.748248,52.310871
Erve Stroomboer,98,,,7623JB,Borne,Borne,Overijssel,VBO,6.748115,52.310836
Erve Stroomboer,1,,,7623JC,Borne,Borne,Overijssel,VBO,6.747738,52.310005
Erve Stroomboer,3,,,7623JC,Borne,Borne,Overijssel,VBO,6.747653,52.310123
Erve Stroomboer,5,,,7623JC,Borne,Borne,Overijssel,VBO,6.747640,52.310177
Erve Stroomboer,7,,,7623JC,Borne,Borne,Overijssel,VBO,6.747630,52.310312
Erve Stroomboer,9,,,7623JC,Borne,Borne,Overijssel,VBO,6.747617,52.310366
Erve Stroomboer,11,,,7623JC,Borne,Borne,Overijssel,VBO,6.747651,52.310509
Erve Stroomboer,13,,,7623JC,Borne,Borne,Overijssel,VBO,6.747759,52.310688
Erve Stroomboer,15,,,7623JC,Borne,Borne,Overijssel,VBO,6.747663,52.310904
Erve Stroomboer,17,,,7623JC,Borne,Borne,Overijssel,VBO,6.748479,52.311713
Erve Stroomboer,19,,,7623JC,Borne,Borne,Overijssel,VBO,6.748817,52.311736
Erve Stroomboer,21,,,7623JC,Borne,Borne,Overijssel,VBO,6.749126,52.311768
Erve Stroomboer,23,,,7623JC,Borne,Borne,Overijssel,VBO,6.749373,52.311667
Erve Stroomboer,25,,,7623JC,Borne,Borne,Overijssel,VBO,6.749695,52.311645
Erve Stroomboer,27,,,7623JC,Borne,Borne,Overijssel,VBO,6.749990,52.311714
Erve Stroomboer,29,,,7623JC,Borne,Borne,Overijssel,VBO,6.750270,52.311746
Erve Stroomboer,31,,,7623JC,Borne,Borne,Overijssel,VBO,6.750580,52.311806
Erve Stroomboer,33,,,7623JC,Borne,Borne,Overijssel,VBO,6.750799,52.311776
Erve Stroomboer,35,,,7623JC,Borne,Borne,Overijssel,VBO,6.751092,52.311764
Erve Stroomboer,37,,,7623JC,Borne,Borne,Overijssel,VBO,6.751355,52.311752
Erve Stroomboer,39,,,7623JC,Borne,Borne,Overijssel,VBO,6.751514,52.311678
Erve Stroomboer,41,,,7623JC,Borne,Borne,Overijssel,VBO,6.751746,52.311594
Erve Stroomboer,43,,,7623JC,Borne,Borne,Overijssel,VBO,6.751933,52.311457
Erve Stroomboer,45,,,7623JC,Borne,Borne,Overijssel,VBO,6.751957,52.311286
Erve Stroomboer,47,,,7623JC,Borne,Borne,Overijssel,VBO,6.751968,52.311169
Erve Stroomboer,49,,,7623JC,Borne,Borne,Overijssel,VBO,6.752171,52.310628
Erve Stroomboer,51,,,7623JC,Borne,Borne,Overijssel,VBO,6.751821,52.310686
Erve Stroomboer,53,,,7623JC,Borne,Borne,Overijssel,VBO,6.751845,52.310982
Erve Stroomboer,55,,,7623JC,Borne,Borne,Overijssel,VBO,6.751710,52.310885
Erve Stroomboer,57,,,7623JC,Borne,Borne,Overijssel,VBO,6.751694,52.310831
Erve Stroomboer,59,,,7623JC,Borne,Borne,Overijssel,VBO,6.751427,52.310762
Erve Stroomboer,61,a,,7623JC,Borne,Borne,Overijssel,VBO,6.750616,52.310860
Erve Stroomboer,61,,,7623JC,Borne,Borne,Overijssel,VBO,6.751396,52.310700
Erve Stroomboer,63,,,7623JC,Borne,Borne,Overijssel,VBO,6.749956,52.310617
Erve Stroomboer,65,,,7623JC,Borne,Borne,Overijssel,VBO,6.749853,52.310583
Erve Stroomboer,67,,,7623JC,Borne,Borne,Overijssel,VBO,6.749734,52.310548
Erve Stroomboer,69,,,7623JC,Borne,Borne,Overijssel,VBO,6.749616,52.310513
Erve Stroomboer,71,,,7623JC,Borne,Borne,Overijssel,VBO,6.749498,52.310479
Erve Stroomboer,73,,,7623JC,Borne,Borne,Overijssel,VBO,6.749365,52.310453
Erve Stroomboer,75,,,7623JC,Borne,Borne,Overijssel,VBO,6.749247,52.310428
Erve Stroomboer,77,,,7623JC,Borne,Borne,Overijssel,VBO,6.749114,52.310411
Erve Stroomboer,79,,,7623JC,Borne,Borne,Overijssel,VBO,6.748982,52.310404
Erve Stroomboer,81,,,7623JC,Borne,Borne,Overijssel,VBO,6.748850,52.310405
Erve Stroomboer,83,,,7623JC,Borne,Borne,Overijssel,VBO,6.748718,52.310398
Erve Stroomboer,85,,,7623JC,Borne,Borne,Overijssel,VBO,6.748601,52.310399
Erve Stroomboer,87,,,7623JC,Borne,Borne,Overijssel,VBO,6.748469,52.310428
Erve Stroomboer,89,,,7623JC,Borne,Borne,Overijssel,VBO,6.748353,52.310447
Erve Stroomboer,91,,,7623JC,Borne,Borne,Overijssel,VBO,6.748236,52.310466
Erve Stroomboer,93,,,7623JC,Borne,Borne,Overijssel,VBO,6.748120,52.310513
Hedeveldsweg,1,,,7623JD,Borne,Borne,Overijssel,VBO,6.752535,52.310534
Hedeveldsweg,3,,,7623JD,Borne,Borne,Overijssel,VBO,6.752551,52.310587
Hedeveldsweg,4,,,7623JD,Borne,Borne,Overijssel,VBO,6.752947,52.311041
Hedeveldsweg,5,,,7623JD,Borne,Borne,Overijssel,VBO,6.752482,52.310705
Hedeveldsweg,6,,,7623JD,Borne,Borne,Overijssel,VBO,6.753054,52.311184
Hedeveldsweg,7,,,7623JD,Borne,Borne,Overijssel,VBO,6.752498,52.310759
Hedeveldsweg,9,,,7623JD,Borne,Borne,Overijssel,VBO,6.752429,52.310894
Hedeveldsweg,14,a,,7623JD,Borne,Borne,Overijssel,VBO,6.758003,52.312357
Hedeveldsweg,14,,,7623JD,Borne,Borne,Overijssel,VBO,6.757354,52.311771
Erve Jenneboer,2,a,,7623JE,Borne,Borne,Overijssel,VBO,6.753366,52.310380
Erve Jenneboer,2,,,7623JE,Borne,Borne,Overijssel,VBO,6.753069,52.310240
Erve Jenneboer,4,,,7623JE,Borne,Borne,Overijssel,VBO,6.753470,52.310433
Erve Jenneboer,6,,,7623JE,Borne,Borne,Overijssel,VBO,6.753574,52.310459
Erve Jenneboer,8,,,7623JE,Borne,Borne,Overijssel,VBO,6.753648,52.310485
Erve Jenneboer,10,,,7623JE,Borne,Borne,Overijssel,VBO,6.753963,52.310706
Erve Jenneboer,12,,,7623JE,Borne,Borne,Overijssel,VBO,6.754056,52.310867
Erve Jenneboer,14,,,7623JE,Borne,Borne,Overijssel,VBO,6.754057,52.310921
Erve Jenneboer,16,,,7623JE,Borne,Borne,Overijssel,VBO,6.753961,52.311128
Erve Jenneboer,18,,,7623JE,Borne,Borne,Overijssel,VBO,6.754036,52.311164
Erve Jenneboer,20,,,7623JE,Borne,Borne,Overijssel,VBO,6.754242,52.311215
Erve Jenneboer,22,,,7623JE,Borne,Borne,Overijssel,VBO,6.754330,52.311214
Erve Jenneboer,24,,,7623JE,Borne,Borne,Overijssel,VBO,6.754564,52.311184
Erve Jenneboer,26,,,7623JE,Borne,Borne,Overijssel,VBO,6.754651,52.311147
Erve Jenneboer,28,,,7623JE,Borne,Borne,Overijssel,VBO,6.754766,52.311065
Erve Jenneboer,30,,,7623JE,Borne,Borne,Overijssel,VBO,6.754838,52.311028
Erve Jenneboer,32,,,7623JE,Borne,Borne,Overijssel,VBO,6.754953,52.310955
Erve Jenneboer,34,,,7623JE,Borne,Borne,Overijssel,VBO,6.755025,52.310918
Erve Jenneboer,36,,,7623JE,Borne,Borne,Overijssel,VBO,6.755214,52.310844
Erve Jenneboer,38,,,7623JE,Borne,Borne,Overijssel,VBO,6.755330,52.310798
Erve Jenneboer,40,,,7623JE,Borne,Borne,Overijssel,VBO,6.755491,52.310805
Erve Jenneboer,42,,,7623JE,Borne,Borne,Overijssel,VBO,6.755667,52.310812
Erve Jenneboer,44,,,7623JE,Borne,Borne,Overijssel,VBO,6.755888,52.310836
Erve Jenneboer,46,,,7623JE,Borne,Borne,Overijssel,VBO,6.756019,52.310799
Erve Jenneboer,48,,,7623JE,Borne,Borne,Overijssel,VBO,6.756164,52.310743
Erve Jenneboer,50,,,7623JE,Borne,Borne,Overijssel,VBO,6.756323,52.310661
Erve Jenneboer,52,,,7623JE,Borne,Borne,Overijssel,VBO,6.756200,52.310482
Erve Jenneboer,54,,,7623JE,Borne,Borne,Overijssel,VBO,6.756007,52.310422
Erve Jenneboer,56,,,7623JE,Borne,Borne,Overijssel,VBO,6.755831,52.310424
Erve Jenneboer,58,,,7623JE,Borne,Borne,Overijssel,VBO,6.755715,52.310461
Erve Jenneboer,60,,,7623JE,Borne,Borne,Overijssel,VBO,6.755569,52.310472
Erve Jenneboer,62,,,7623JE,Borne,Borne,Overijssel,VBO,6.755421,52.310419
Erve Jenneboer,64,,,7623JE,Borne,Borne,Overijssel,VBO,6.755242,52.310350
Erve Jenneboer,66,,,7623JE,Borne,Borne,Overijssel,VBO,6.755140,52.310351
Erve Jenneboer,68,,,7623JE,Borne,Borne,Overijssel,VBO,6.754964,52.310344
Erve Jenneboer,70,,,7623JE,Borne,Borne,Overijssel,VBO,6.754861,52.310354
Erve Jenneboer,72,,,7623JE,Borne,Borne,Overijssel,VBO,6.754701,52.310374
Erve Jenneboer,74,,,7623JE,Borne,Borne,Overijssel,VBO,6.754598,52.310384
Erve Jenneboer,76,,,7623JE,Borne,Borne,Overijssel,VBO,6.754438,52.310422
Erve Jenneboer,78,,,7623JE,Borne,Borne,Overijssel,VBO,6.754351,52.310441
Erve Jenneboer,80,,,7623JE,Borne,Borne,Overijssel,VBO,6.754191,52.310506
Erve Jenneboer,82,,,7623JE,Borne,Borne,Overijssel,VBO,6.754119,52.310533
Erve Jenneboer,84,,,7623JE,Borne,Borne,Overijssel,VBO,6.754005,52.310651
Erve Jenneboer,1,,,7623JG,Borne,Borne,Overijssel,VBO,6.753005,52.310564
Erve Jenneboer,3,,,7623JG,Borne,Borne,Overijssel,VBO,6.753198,52.310625
Erve Jenneboer,5,,,7623JG,Borne,Borne,Overijssel,VBO,6.753465,52.310739
Erve Jenneboer,7,,,7623JG,Borne,Borne,Overijssel,VBO,6.753426,52.310910
Erve Jenneboer,9,,,7623JG,Borne,Borne,Overijssel,VBO,6.753688,52.311311
Erve Jenneboer,11,,,7623JG,Borne,Borne,Overijssel,VBO,6.753910,52.311381
Erve Jenneboer,13,,,7623JG,Borne,Borne,Overijssel,VBO,6.754236,52.311485
Erve Jenneboer,15,,,7623JG,Borne,Borne,Overijssel,VBO,6.754655,52.311759
Erve Jenneboer,17,,,7623JG,Borne,Borne,Overijssel,VBO,6.754644,52.311399
Erve Jenneboer,19,,,7623JG,Borne,Borne,Overijssel,VBO,6.754907,52.311351
Erve Jenneboer,21,,,7623JG,Borne,Borne,Overijssel,VBO,6.755064,52.311215
Erve Jenneboer,23,,,7623JG,Borne,Borne,Overijssel,VBO,6.755374,52.311274
Erve Jenneboer,25,,,7623JG,Borne,Borne,Overijssel,VBO,6.755623,52.311271
Erve Jenneboer,27,,,7623JG,Borne,Borne,Overijssel,VBO,6.755886,52.311259
Erve Jenneboer,29,,,7623JG,Borne,Borne,Overijssel,VBO,6.756089,52.311167
Erve Jenneboer,31,,,7623JG,Borne,Borne,Overijssel,VBO,6.756233,52.311084
Erve Jenneboer,33,,,7623JG,Borne,Borne,Overijssel,VBO,6.756391,52.310974
Erve Jenneboer,35,,,7623JG,Borne,Borne,Overijssel,VBO,6.756564,52.310892
Erve Jenneboer,37,,,7623JG,Borne,Borne,Overijssel,VBO,6.756693,52.310782
Erve Jenneboer,39,,,7623JG,Borne,Borne,Overijssel,VBO,6.756832,52.310547
Erve Jenneboer,41,,,7623JG,Borne,Borne,Overijssel,VBO,6.757054,52.310598
Erve Jenneboer,43,,,7623JG,Borne,Borne,Overijssel,VBO,6.757232,52.310677
Erve Jenneboer,49,,,7623JG,Borne,Borne,Overijssel,VBO,6.757490,52.310476
Erve Jenneboer,51,,,7623JG,Borne,Borne,Overijssel,VBO,6.757357,52.310442
Erve Jenneboer,53,,,7623JG,Borne,Borne,Overijssel,VBO,6.757179,52.310381
Erve Jenneboer,55,,,7623JG,Borne,Borne,Overijssel,VBO,6.757001,52.310320
Erve Jenneboer,57,,,7623JH,Borne,Borne,Overijssel,VBO,6.756763,52.310188
Erve Jenneboer,59,,,7623JH,Borne,Borne,Overijssel,VBO,6.756720,52.310243
Erve Jenneboer,61,,,7623JH,Borne,Borne,Overijssel,VBO,6.756593,52.310397
Erve Jenneboer,63,,,7623JH,Borne,Borne,Overijssel,VBO,6.756147,52.310195
Erve Jenneboer,65,,,7623JH,Borne,Borne,Overijssel,VBO,6.756261,52.310077
Erve Jenneboer,67,,,7623JH,Borne,Borne,Overijssel,VBO,6.756303,52.310032
Erve Jenneboer,69,,,7623JH,Borne,Borne,Overijssel,VBO,6.756022,52.309936
Erve Jenneboer,71,,,7623JH,Borne,Borne,Overijssel,VBO,6.755964,52.309973
Erve Jenneboer,73,,,7623JH,Borne,Borne,Overijssel,VBO,6.755850,52.310091
Erve Jenneboer,75,,,7623JH,Borne,Borne,Overijssel,VBO,6.755599,52.310013
Erve Jenneboer,77,,,7623JH,Borne,Borne,Overijssel,VBO,6.755635,52.309770
Erve Jenneboer,79,,,7623JH,Borne,Borne,Overijssel,VBO,6.755194,52.309721
Erve Jenneboer,81,,,7623JH,Borne,Borne,Overijssel,VBO,6.755230,52.309936
Erve Jenneboer,83,,,7623JH,Borne,Borne,Overijssel,VBO,6.755145,52.310036
Erve Jenneboer,85,,,7623JH,Borne,Borne,Overijssel,VBO,6.755147,52.310099
Erve Jenneboer,87,,,7623JH,Borne,Borne,Overijssel,VBO,6.754868,52.310111
Erve Jenneboer,89,,,7623JH,Borne,Borne,Overijssel,VBO,6.754795,52.310121
Erve Jenneboer,91,,,7623JH,Borne,Borne,Overijssel,VBO,6.754678,52.310131
Erve Jenneboer,93,,,7623JH,Borne,Borne,Overijssel,VBO,6.754591,52.310141
Erve Jenneboer,95,,,7623JH,Borne,Borne,Overijssel,VBO,6.754488,52.310152
Erve Jenneboer,97,,,7623JH,Borne,Borne,Overijssel,VBO,6.754400,52.310153
Erve Jenneboer,99,,,7623JH,Borne,Borne,Overijssel,VBO,6.754240,52.310190
Erve Jenneboer,101,,,7623JH,Borne,Borne,Overijssel,VBO,6.754153,52.310218
Erve Jenneboer,103,,,7623JH,Borne,Borne,Overijssel,VBO,6.754066,52.310255
Erve Jenneboer,105,,,7623JH,Borne,Borne,Overijssel,VBO,6.753965,52.310292
Erve Jenneboer,107,,,7623JH,Borne,Borne,Overijssel,VBO,6.753892,52.310320
Erve Jenneboer,109,,,7623JH,Borne,Borne,Overijssel,VBO,6.753791,52.310348
Bellefleur,1,,,7623KA,Borne,Borne,Overijssel,VBO,6.764065,52.301684
Bellefleur,3,,,7623KA,Borne,Borne,Overijssel,VBO,6.764107,52.301574
Bellefleur,5,,,7623KA,Borne,Borne,Overijssel,VBO,6.764121,52.301514
Bellefleur,7,,,7623KA,Borne,Borne,Overijssel,VBO,6.764147,52.301407
Bellefleur,9,,,7623KA,Borne,Borne,Overijssel,VBO,6.764161,52.301352
Bellefleur,11,,,7623KA,Borne,Borne,Overijssel,VBO,6.764199,52.301234
Bellefleur,13,,,7623KA,Borne,Borne,Overijssel,VBO,6.764204,52.301187
Bellefleur,15,,,7623KA,Borne,Borne,Overijssel,VBO,6.764240,52.301060
Bellefleur,17,,,7623KA,Borne,Borne,Overijssel,VBO,6.764264,52.300995
Bellefleur,19,,,7623KA,Borne,Borne,Overijssel,VBO,6.764291,52.300885
Bellefleur,21,,,7623KA,Borne,Borne,Overijssel,VBO,6.764321,52.300772
Bellefleur,23,,,7623KA,Borne,Borne,Overijssel,VBO,6.764360,52.300676
Bellefleur,25,,,7623KA,Borne,Borne,Overijssel,VBO,6.764398,52.300554
Bellefleur,27,,,7623KA,Borne,Borne,Overijssel,VBO,6.764401,52.300502
Bellefleur,29,,,7623KA,Borne,Borne,Overijssel,VBO,6.764481,52.300370
Bellefleur,31,,,7623KA,Borne,Borne,Overijssel,VBO,6.764502,52.300311
Bellefleur,33,,,7623KA,Borne,Borne,Overijssel,VBO,6.764542,52.300195
Bellefleur,35,,,7623KA,Borne,Borne,Overijssel,VBO,6.764562,52.300080
Bellefleur,37,,,7623KA,Borne,Borne,Overijssel,VBO,6.764572,52.300028
Bellefleur,39,,,7623KA,Borne,Borne,Overijssel,VBO,6.764610,52.299917
Bellefleur,41,,,7623KA,Borne,Borne,Overijssel,VBO,6.764671,52.299802
Bellefleur,43,,,7623KA,Borne,Borne,Overijssel,VBO,6.764899,52.299208
Bellefleur,45,,,7623KA,Borne,Borne,Overijssel,VBO,6.764890,52.299102
Bellefleur,47,,,7623KA,Borne,Borne,Overijssel,VBO,6.764966,52.299019
Bongerd,1,,,7623KB,Borne,Borne,Overijssel,VBO,6.765109,52.302469
Bongerd,2,,,7623KB,Borne,Borne,Overijssel,VBO,6.764793,52.301775
Bongerd,3,,,7623KB,Borne,Borne,Overijssel,VBO,6.765115,52.302417
Bongerd,4,,,7623KB,Borne,Borne,Overijssel,VBO,6.764806,52.301727
Bongerd,5,,,7623KB,Borne,Borne,Overijssel,VBO,6.765129,52.302366
Bongerd,6,,,7623KB,Borne,Borne,Overijssel,VBO,6.764820,52.301673
Bongerd,7,,,7623KB,Borne,Borne,Overijssel,VBO,6.765147,52.302316
Bongerd,8,,,7623KB,Borne,Borne,Overijssel,VBO,6.764835,52.301626
Bongerd,9,,,7623KB,Borne,Borne,Overijssel,VBO,6.765169,52.302266
Bongerd,10,,,7623KB,Borne,Borne,Overijssel,VBO,6.764854,52.301574
Bongerd,11,,,7623KB,Borne,Borne,Overijssel,VBO,6.765183,52.302221
Bongerd,12,,,7623KB,Borne,Borne,Overijssel,VBO,6.764840,52.301481
Bongerd,13,,,7623KB,Borne,Borne,Overijssel,VBO,6.765204,52.302168
Bongerd,14,,,7623KB,Borne,Borne,Overijssel,VBO,6.764852,52.301431
Bongerd,15,,,7623KB,Borne,Borne,Overijssel,VBO,6.765209,52.302115
Bongerd,16,,,7623KB,Borne,Borne,Overijssel,VBO,6.764872,52.301373
Bongerd,17,,,7623KB,Borne,Borne,Overijssel,VBO,6.765277,52.301824
Bongerd,18,,,7623KB,Borne,Borne,Overijssel,VBO,6.764884,52.301324
Bongerd,19,,,7623KB,Borne,Borne,Overijssel,VBO,6.765298,52.301784
Bongerd,20,,,7623KB,Borne,Borne,Overijssel,VBO,6.764922,52.301258
Bongerd,21,,,7623KB,Borne,Borne,Overijssel,VBO,6.765309,52.301731
Bongerd,22,,,7623KB,Borne,Borne,Overijssel,VBO,6.764899,52.301126
Bongerd,23,,,7623KB,Borne,Borne,Overijssel,VBO,6.765321,52.301678
Bongerd,24,,,7623KB,Borne,Borne,Overijssel,VBO,6.764920,52.301076
Bongerd,25,,,7623KB,Borne,Borne,Overijssel,VBO,6.765328,52.301624
Bongerd,26,,,7623KB,Borne,Borne,Overijssel,VBO,6.764964,52.300966
Bongerd,27,,,7623KB,Borne,Borne,Overijssel,VBO,6.765398,52.301544
Bongerd,28,,,7623KB,Borne,Borne,Overijssel,VBO,6.764984,52.300913
Bongerd,29,,,7623KB,Borne,Borne,Overijssel,VBO,6.765412,52.301494
Bongerd,30,,,7623KB,Borne,Borne,Overijssel,VBO,6.765008,52.300804
Bongerd,31,,,7623KB,Borne,Borne,Overijssel,VBO,6.765426,52.301439
Bongerd,32,,,7623KB,Borne,Borne,Overijssel,VBO,6.765025,52.300749
Bongerd,33,,,7623KB,Borne,Borne,Overijssel,VBO,6.765443,52.301387
Bongerd,34,,,7623KB,Borne,Borne,Overijssel,VBO,6.765065,52.300634
Bongerd,35,,,7623KB,Borne,Borne,Overijssel,VBO,6.765463,52.301325
Bongerd,36,,,7623KB,Borne,Borne,Overijssel,VBO,6.765079,52.300587
Bongerd,37,,,7623KB,Borne,Borne,Overijssel,VBO,6.765487,52.301197
Bongerd,38,,,7623KB,Borne,Borne,Overijssel,VBO,6.765110,52.300449
Bongerd,39,,,7623KB,Borne,Borne,Overijssel,VBO,6.765546,52.301148
Bongerd,40,,,7623KB,Borne,Borne,Overijssel,VBO,6.765135,52.300395
Bongerd,41,,,7623KB,Borne,Borne,Overijssel,VBO,6.765577,52.301040
Bongerd,42,,,7623KB,Borne,Borne,Overijssel,VBO,6.765155,52.300343
Bongerd,43,,,7623KB,Borne,Borne,Overijssel,VBO,6.765629,52.300968
Bongerd,44,,,7623KB,Borne,Borne,Overijssel,VBO,6.765175,52.300289
Bongerd,45,,,7623KB,Borne,Borne,Overijssel,VBO,6.765626,52.300879
Bongerd,46,,,7623KB,Borne,Borne,Overijssel,VBO,6.765190,52.300233
Bongerd,47,,,7623KB,Borne,Borne,Overijssel,VBO,6.765650,52.300815
Bongerd,48,,,7623KB,Borne,Borne,Overijssel,VBO,6.765252,52.300153
Bongerd,49,,,7623KB,Borne,Borne,Overijssel,VBO,6.765680,52.300712
Bongerd,50,,,7623KB,Borne,Borne,Overijssel,VBO,6.765264,52.300102
Bongerd,51,,,7623KB,Borne,Borne,Overijssel,VBO,6.765660,52.300646
Bongerd,52,,,7623KB,Borne,Borne,Overijssel,VBO,6.765282,52.300052
Bongerd,53,,,7623KB,Borne,Borne,Overijssel,VBO,6.765704,52.300515
Bongerd,54,,,7623KB,Borne,Borne,Overijssel,VBO,6.765302,52.300003
Bongerd,55,,,7623KB,Borne,Borne,Overijssel,VBO,6.765722,52.300466
Bongerd,56,,,7623KB,Borne,Borne,Overijssel,VBO,6.765312,52.299947
Bongerd,57,,,7623KB,Borne,Borne,Overijssel,VBO,6.765734,52.300415
Bongerd,59,,,7623KB,Borne,Borne,Overijssel,VBO,6.765745,52.300363
Bongerd,61,,,7623KB,Borne,Borne,Overijssel,VBO,6.765764,52.300309
Bongerd,63,,,7623KB,Borne,Borne,Overijssel,VBO,6.765757,52.300221
Bongerd,65,,,7623KB,Borne,Borne,Overijssel,VBO,6.765779,52.300168
Bongerd,67,,,7623KB,Borne,Borne,Overijssel,VBO,6.765789,52.300116
Bongerd,69,,,7623KB,Borne,Borne,Overijssel,VBO,6.765802,52.300053
Oude Deurningerweg,2,,,7623KC,Borne,Borne,Overijssel,VBO,6.764750,52.299471
Oude Deurningerweg,4,,,7623KC,Borne,Borne,Overijssel,VBO,6.765025,52.299503
Oude Deurningerweg,6,,,7623KC,Borne,Borne,Overijssel,VBO,6.765349,52.299535
Oude Deurningerweg,8,,,7623KC,Borne,Borne,Overijssel,VBO,6.765499,52.299660
Oude Deurningerweg,10,,,7623KC,Borne,Borne,Overijssel,VBO,6.765802,52.299735
Oude Deurningerweg,12,,,7623KC,Borne,Borne,Overijssel,VBO,6.766061,52.299791
Oude Deurningerweg,14,,,7623KC,Borne,Borne,Overijssel,VBO,6.766292,52.299837
Oude Deurningerweg,16,,,7623KC,Borne,Borne,Overijssel,VBO,6.766557,52.299938
Oude Deurningerweg,18,,,7623KC,Borne,Borne,Overijssel,VBO,6.766925,52.300051
Oude Deurningerweg,20,,,7623KC,Borne,Borne,Overijssel,VBO,6.767141,52.300075
Oude Deurningerweg,22,,,7623KC,Borne,Borne,Overijssel,VBO,6.767414,52.300137
Oude Deurningerweg,24,,,7623KC,Borne,Borne,Overijssel,VBO,6.767787,52.300204
Oude Deurningerweg,26,,,7623KC,Borne,Borne,Overijssel,VBO,6.768220,52.300283
Oude Deurningerweg,28,,,7623KC,Borne,Borne,Overijssel,VBO,6.768580,52.300304
Oude Deurningerweg,30,,,7623KC,Borne,Borne,Overijssel,VBO,6.768897,52.300264
Oude Deurningerweg,32,,,7623KC,Borne,Borne,Overijssel,VBO,6.769198,52.300399
Oude Deurningerweg,34,,,7623KC,Borne,Borne,Overijssel,VBO,6.769452,52.300423
Oude Deurningerweg,36,,,7623KC,Borne,Borne,Overijssel,VBO,6.769686,52.300418
Oude Deurningerweg,38,,,7623KC,Borne,Borne,Overijssel,VBO,6.769973,52.300386
Mirabel,1,,,7623KD,Borne,Borne,Overijssel,VBO,6.764986,52.298750
Mirabel,3,,,7623KD,Borne,Borne,Overijssel,VBO,6.765222,52.298773
Mirabel,5,,,7623KD,Borne,Borne,Overijssel,VBO,6.765502,52.298806
Mirabel,7,,,7623KD,Borne,Borne,Overijssel,VBO,6.765731,52.298836
Mirabel,9,,,7623KD,Borne,Borne,Overijssel,VBO,6.766070,52.298870
Mirabel,11,,,7623KD,Borne,Borne,Overijssel,VBO,6.766348,52.298929
Mirabel,13,,,7623KD,Borne,Borne,Overijssel,VBO,6.766611,52.298940
Mirabel,15,,,7623KD,Borne,Borne,Overijssel,VBO,6.766833,52.298990
Mirabel,17,,,7623KD,Borne,Borne,Overijssel,VBO,6.767186,52.299016
Mirabel,19,,,7623KD,Borne,Borne,Overijssel,VBO,6.767496,52.299133
Mirabel,21,,,7623KD,Borne,Borne,Overijssel,VBO,6.767731,52.299198
Mirabel,23,,,7623KD,Borne,Borne,Overijssel,VBO,6.768005,52.299243
Mirabel,25,,,7623KD,Borne,Borne,Overijssel,VBO,6.768372,52.299338
Mirabel,27,,,7623KD,Borne,Borne,Overijssel,VBO,6.768706,52.299330
Mirabel,29,,,7623KD,Borne,Borne,Overijssel,VBO,6.768939,52.299349
Mirabel,31,,,7623KD,Borne,Borne,Overijssel,VBO,6.769060,52.299577
Mirabel,33,,,7623KD,Borne,Borne,Overijssel,VBO,6.769148,52.299712
Mirabel,35,,,7623KD,Borne,Borne,Overijssel,VBO,6.769274,52.299875
Mirabel,37,,,7623KD,Borne,Borne,Overijssel,VBO,6.769394,52.299969
Mirabel,39,,,7623KD,Borne,Borne,Overijssel,VBO,6.769633,52.300106
Groene Juffer,1,,,7623KE,Borne,Borne,Overijssel,VBO,6.765949,52.299494
Groene Juffer,2,,,7623KE,Borne,Borne,Overijssel,VBO,6.765520,52.299390
Groene Juffer,3,,,7623KE,Borne,Borne,Overijssel,VBO,6.765989,52.299317
Groene Juffer,4,,,7623KE,Borne,Borne,Overijssel,VBO,6.765518,52.299221
Groene Juffer,5,,,7623KE,Borne,Borne,Overijssel,VBO,6.766044,52.299151
Groene Juffer,6,,,7623KE,Borne,Borne,Overijssel,VBO,6.765591,52.299073
Roosjespeer,1,,,7623KG,Borne,Borne,Overijssel,VBO,6.767066,52.299780
Roosjespeer,2,,,7623KG,Borne,Borne,Overijssel,VBO,6.766592,52.299641
Roosjespeer,3,,,7623KG,Borne,Borne,Overijssel,VBO,6.767060,52.299609
Roosjespeer,4,,,7623KG,Borne,Borne,Overijssel,VBO,6.766626,52.299506
Roosjespeer,5,,,7623KG,Borne,Borne,Overijssel,VBO,6.767150,52.299458
Roosjespeer,6,,,7623KG,Borne,Borne,Overijssel,VBO,6.766691,52.299364
Roosjespeer,7,,,7623KG,Borne,Borne,Overijssel,VBO,6.767163,52.299309
Roosjespeer,8,,,7623KG,Borne,Borne,Overijssel,VBO,6.766740,52.299215
Suikerpeer,1,,,7623KH,Borne,Borne,Overijssel,VBO,6.768339,52.300037
Suikerpeer,2,,,7623KH,Borne,Borne,Overijssel,VBO,6.767908,52.299950
Suikerpeer,3,,,7623KH,Borne,Borne,Overijssel,VBO,6.768422,52.299903
Suikerpeer,4,,,7623KH,Borne,Borne,Overijssel,VBO,6.767881,52.299800
Suikerpeer,5,,,7623KH,Borne,Borne,Overijssel,VBO,6.768429,52.299750
Suikerpeer,6,,,7623KH,Borne,Borne,Overijssel,VBO,6.767917,52.299665
Suikerpeer,7,,,7623KH,Borne,Borne,Overijssel,VBO,6.768419,52.299616
Suikerpeer,8,,,7623KH,Borne,Borne,Overijssel,VBO,6.767987,52.299547
Mirabel,2,a,,7623KJ,Borne,Borne,Overijssel,VBO,6.767197,52.298757
Bornsche Beeklaan,1,,,7623KK,Borne,Borne,Overijssel,VBO,6.762911,52.303195
Bornsche Beeklaan,3,,,7623KK,Borne,Borne,Overijssel,VBO,6.763054,52.303077
Snoek,8,,,7623KL,Borne,Borne,Overijssel,VBO,6.766629,52.295309
Snoek,10,,,7623KL,Borne,Borne,Overijssel,VBO,6.766735,52.295317
Snoek,12,,,7623KL,Borne,Borne,Overijssel,VBO,6.766925,52.295346
Snoek,14,,,7623KL,Borne,Borne,Overijssel,VBO,6.767010,52.295356
Snoek,16,,,7623KL,Borne,Borne,Overijssel,VBO,6.767219,52.295357
Snoek,18,,,7623KL,Borne,Borne,Overijssel,VBO,6.767306,52.295395
Snoek,20,,,7623KL,Borne,Borne,Overijssel,VBO,6.767497,52.295423
Snoek,22,,,7623KL,Borne,Borne,Overijssel,VBO,6.767592,52.295428
Snoek,24,,,7623KL,Borne,Borne,Overijssel,VBO,6.767791,52.295451
Snoek,26,,,7623KL,Borne,Borne,Overijssel,VBO,6.767947,52.295431
Snoek,28,,,7623KL,Borne,Borne,Overijssel,VBO,6.768354,52.295516
Snoek,30,,,7623KL,Borne,Borne,Overijssel,VBO,6.768419,52.295371
Snoek,32,,,7623KL,Borne,Borne,Overijssel,VBO,6.768426,52.295234
Snoek,34,,,7623KL,Borne,Borne,Overijssel,VBO,6.768481,52.295099
Goudrenet,2,,,7623KM,Borne,Borne,Overijssel,VBO,6.765963,52.301906
Goudrenet,4,,,7623KM,Borne,Borne,Overijssel,VBO,6.765997,52.301801
Goudrenet,6,,,7623KM,Borne,Borne,Overijssel,VBO,6.766021,52.301742
Goudrenet,8,,,7623KM,Borne,Borne,Overijssel,VBO,6.766054,52.301627
Goudrenet,10,,,7623KM,Borne,Borne,Overijssel,VBO,6.766071,52.301570
Goudrenet,12,,,7623KM,Borne,Borne,Overijssel,VBO,6.766100,52.301457
Goudrenet,14,,,7623KM,Borne,Borne,Overijssel,VBO,6.766121,52.301400
Goudrenet,16,,,7623KM,Borne,Borne,Overijssel,VBO,6.766161,52.301271
Goudrenet,18,,,7623KM,Borne,Borne,Overijssel,VBO,6.766181,52.301214
Goudrenet,20,,,7623KM,Borne,Borne,Overijssel,VBO,6.766208,52.301116
Goudrenet,22,,,7623KM,Borne,Borne,Overijssel,VBO,6.766232,52.301048
Goudrenet,24,,,7623KM,Borne,Borne,Overijssel,VBO,6.766261,52.300942
Goudrenet,26,,,7623KM,Borne,Borne,Overijssel,VBO,6.766282,52.300885
Goudrenet,28,,,7623KM,Borne,Borne,Overijssel,VBO,6.766304,52.300779
Goudrenet,30,,,7623KM,Borne,Borne,Overijssel,VBO,6.766325,52.300720
Goudrenet,32,,,7623KM,Borne,Borne,Overijssel,VBO,6.766354,52.300586
Goudrenet,34,,,7623KM,Borne,Borne,Overijssel,VBO,6.766381,52.300525
Goudrenet,36,,,7623KM,Borne,Borne,Overijssel,VBO,6.766400,52.300423
Goudrenet,38,,,7623KM,Borne,Borne,Overijssel,VBO,6.766424,52.300364
Goudrenet,40,,,7623KM,Borne,Borne,Overijssel,VBO,6.766468,52.300250
Honingzoet,1,,,7623KN,Borne,Borne,Overijssel,VBO,6.765604,52.302179
Honingzoet,3,,,7623KN,Borne,Borne,Overijssel,VBO,6.765686,52.302192
Honingzoet,5,,,7623KN,Borne,Borne,Overijssel,VBO,6.765772,52.302187
Honingzoet,7,,,7623KN,Borne,Borne,Overijssel,VBO,6.765846,52.302217
Honingzoet,9,,,7623KN,Borne,Borne,Overijssel,VBO,6.765943,52.302211
Honingzoet,11,,,7623KN,Borne,Borne,Overijssel,VBO,6.766327,52.302287
Honingzoet,13,,,7623KN,Borne,Borne,Overijssel,VBO,6.766525,52.302299
Honingzoet,15,,,7623KN,Borne,Borne,Overijssel,VBO,6.766607,52.302317
Honingzoet,17,,,7623KN,Borne,Borne,Overijssel,VBO,6.766805,52.302329
Honingzoet,19,,,7623KN,Borne,Borne,Overijssel,VBO,6.766911,52.302356
Honingzoet,21,,,7623KN,Borne,Borne,Overijssel,VBO,6.767073,52.302351
Honingzoet,23,,,7623KN,Borne,Borne,Overijssel,VBO,6.767178,52.302349
Honingzoet,25,,,7623KN,Borne,Borne,Overijssel,VBO,6.767351,52.302344
Honingzoet,27,,,7623KN,Borne,Borne,Overijssel,VBO,6.767444,52.302341
Honingzoet,29,,,7623KN,Borne,Borne,Overijssel,VBO,6.767604,52.302322
Honingzoet,31,,,7623KN,Borne,Borne,Overijssel,VBO,6.767786,52.302294
Honingzoet,33,,,7623KN,Borne,Borne,Overijssel,VBO,6.768075,52.302229
Honingzoet,35,,,7623KN,Borne,Borne,Overijssel,VBO,6.768175,52.302204
Honingzoet,37,,,7623KN,Borne,Borne,Overijssel,VBO,6.768384,52.302159
Honingzoet,39,,,7623KN,Borne,Borne,Overijssel,VBO,6.768513,52.302124
Honingzoet,41,,,7623KN,Borne,Borne,Overijssel,VBO,6.768704,52.302046
Honingzoet,43,,,7623KN,Borne,Borne,Overijssel,VBO,6.768813,52.302009
Honingzoet,45,,,7623KN,Borne,Borne,Overijssel,VBO,6.769071,52.301917
Honingzoet,47,,,7623KN,Borne,Borne,Overijssel,VBO,6.769162,52.301868
Honingzoet,49,,,7623KN,Borne,Borne,Overijssel,VBO,6.769275,52.301761
Honingzoet,51,,,7623KN,Borne,Borne,Overijssel,VBO,6.769352,52.301696
Honingzoet,55,,,7623KN,Borne,Borne,Overijssel,VBO,6.769555,52.301476
Zeelt,2,,,7623KR,Borne,Borne,Overijssel,VBO,6.765629,52.296764
Zeelt,4,,,7623KR,Borne,Borne,Overijssel,VBO,6.765849,52.296770
Zeelt,6,,,7623KR,Borne,Borne,Overijssel,VBO,6.766143,52.296776
Zeelt,8,,,7623KR,Borne,Borne,Overijssel,VBO,6.766327,52.296839
Zeelt,10,,,7623KR,Borne,Borne,Overijssel,VBO,6.766614,52.296860
Zeelt,12,,,7623KR,Borne,Borne,Overijssel,VBO,6.766806,52.296885
Zeelt,14,,,7623KR,Borne,Borne,Overijssel,VBO,6.767056,52.296918
Zeelt,16,,,7623KR,Borne,Borne,Overijssel,VBO,6.767260,52.296955
Brasem,3,,,7623KS,Borne,Borne,Overijssel,VBO,6.765940,52.296400
Brasem,4,,,7623KS,Borne,Borne,Overijssel,VBO,6.766056,52.296070
Brasem,5,,,7623KS,Borne,Borne,Overijssel,VBO,6.766189,52.296408
Brasem,6,,,7623KS,Borne,Borne,Overijssel,VBO,6.766312,52.296082
Brasem,7,,,7623KS,Borne,Borne,Overijssel,VBO,6.766469,52.296439
Brasem,8,,,7623KS,Borne,Borne,Overijssel,VBO,6.766533,52.296115
Brasem,9,,,7623KS,Borne,Borne,Overijssel,VBO,6.766651,52.296469
Brasem,10,,,7623KS,Borne,Borne,Overijssel,VBO,6.766753,52.296121
Brasem,11,,,7623KS,Borne,Borne,Overijssel,VBO,6.766925,52.296479
Brasem,12,,,7623KS,Borne,Borne,Overijssel,VBO,6.767032,52.296145
Brasem,13,,,7623KS,Borne,Borne,Overijssel,VBO,6.767160,52.296494
Brasem,14,,,7623KS,Borne,Borne,Overijssel,VBO,6.767251,52.296186
Brasem,15,,,7623KS,Borne,Borne,Overijssel,VBO,6.767396,52.296536
Brasem,16,,,7623KS,Borne,Borne,Overijssel,VBO,6.767516,52.296252
Karper,3,,,7623KT,Borne,Borne,Overijssel,VBO,6.766189,52.295639
Karper,5,,,7623KT,Borne,Borne,Overijssel,VBO,6.766460,52.295670
Karper,7,,,7623KT,Borne,Borne,Overijssel,VBO,6.766681,52.295700
Karper,9,,,7623KT,Borne,Borne,Overijssel,VBO,6.766902,52.295734
Karper,11,,,7623KT,Borne,Borne,Overijssel,VBO,6.767130,52.295760
Karper,13,,,7623KT,Borne,Borne,Overijssel,VBO,6.767402,52.295781
Karper,15,,,7623KT,Borne,Borne,Overijssel,VBO,6.767593,52.295815
Baars,4,,,7623KV,Borne,Borne,Overijssel,VBO,6.765142,52.298236
Baars,6,,,7623KV,Borne,Borne,Overijssel,VBO,6.765354,52.298254
Baars,8,,,7623KV,Borne,Borne,Overijssel,VBO,6.765477,52.298273
Baars,10,,,7623KV,Borne,Borne,Overijssel,VBO,6.765670,52.298321
Baars,12,,,7623KV,Borne,Borne,Overijssel,VBO,6.765770,52.298330
Baars,14,,,7623KV,Borne,Borne,Overijssel,VBO,6.765983,52.298332
Baars,16,,,7623KV,Borne,Borne,Overijssel,VBO,6.766099,52.298345
Baars,22,,,7623KV,Borne,Borne,Overijssel,VBO,6.766551,52.298430
Baars,24,,,7623KV,Borne,Borne,Overijssel,VBO,6.766638,52.298445
Baars,26,,,7623KV,Borne,Borne,Overijssel,VBO,6.766718,52.298456
Baars,28,,,7623KV,Borne,Borne,Overijssel,VBO,6.766800,52.298456
Baars,30,,,7623KV,Borne,Borne,Overijssel,VBO,6.766891,52.298464
Baars,32,,,7623KV,Borne,Borne,Overijssel,VBO,6.766963,52.298482
Baars,34,,,7623KV,Borne,Borne,Overijssel,VBO,6.767126,52.298487
Baars,36,,,7623KV,Borne,Borne,Overijssel,VBO,6.767212,52.298492
Baars,38,,,7623KV,Borne,Borne,Overijssel,VBO,6.767298,52.298511
Baars,40,,,7623KV,Borne,Borne,Overijssel,VBO,6.767375,52.298513
Baars,42,,,7623KV,Borne,Borne,Overijssel,VBO,6.767455,52.298525
Baars,44,,,7623KV,Borne,Borne,Overijssel,VBO,6.767533,52.298539
Baars,46,,,7623KV,Borne,Borne,Overijssel,VBO,6.767669,52.298555
Baars,48,,,7623KV,Borne,Borne,Overijssel,VBO,6.767755,52.298564
Baars,50,,,7623KV,Borne,Borne,Overijssel,VBO,6.767930,52.298567
Baars,52,,,7623KV,Borne,Borne,Overijssel,VBO,6.768017,52.298578
Baars,54,,,7623KV,Borne,Borne,Overijssel,VBO,6.768190,52.298596
Baars,56,,,7623KV,Borne,Borne,Overijssel,VBO,6.768375,52.298614
Baars,58,,,7623KV,Borne,Borne,Overijssel,VBO,6.768695,52.298652
Baars,60,,,7623KV,Borne,Borne,Overijssel,VBO,6.768733,52.298502
Baars,62,,,7623KV,Borne,Borne,Overijssel,VBO,6.768781,52.298370
Baars,64,,,7623KV,Borne,Borne,Overijssel,VBO,6.768797,52.298220
Morel,2,,,7623KW,Borne,Borne,Overijssel,VBO,6.765109,52.302523
Morel,4,,,7623KW,Borne,Borne,Overijssel,VBO,6.765494,52.302545
Morel,6,,,7623KW,Borne,Borne,Overijssel,VBO,6.765580,52.302560
Morel,8,,,7623KW,Borne,Borne,Overijssel,VBO,6.765661,52.302550
Morel,10,,,7623KW,Borne,Borne,Overijssel,VBO,6.765739,52.302574
Morel,12,,,7623KW,Borne,Borne,Overijssel,VBO,6.765816,52.302595
Morel,14,,,7623KW,Borne,Borne,Overijssel,VBO,6.766269,52.302618
Morel,16,,,7623KW,Borne,Borne,Overijssel,VBO,6.766532,52.302618
Morel,18,,,7623KW,Borne,Borne,Overijssel,VBO,6.766735,52.302631
Morel,20,,,7623KW,Borne,Borne,Overijssel,VBO,6.767000,52.302655
Morel,22,,,7623KW,Borne,Borne,Overijssel,VBO,6.767285,52.302650
Morel,24,,,7623KW,Borne,Borne,Overijssel,VBO,6.767582,52.302646
Morel,26,,,7623KW,Borne,Borne,Overijssel,VBO,6.767857,52.302610
Morel,28,,,7623KW,Borne,Borne,Overijssel,VBO,6.768267,52.302571
Morel,32,,,7623KW,Borne,Borne,Overijssel,VBO,6.768774,52.302502
Morel,34,,,7623KW,Borne,Borne,Overijssel,VBO,6.769019,52.302460
Morel,36,,,7623KW,Borne,Borne,Overijssel,VBO,6.769285,52.302371
Morel,38,,,7623KW,Borne,Borne,Overijssel,VBO,6.769491,52.302309
Morel,40,,,7623KW,Borne,Borne,Overijssel,VBO,6.769735,52.302212
Morel,44,,,7623KW,Borne,Borne,Overijssel,VBO,6.770017,52.301983
Morel,48,,,7623KW,Borne,Borne,Overijssel,VBO,6.770284,52.301722
Morel,54,,,7623KW,Borne,Borne,Overijssel,VBO,6.770372,52.301516
Morel,56,,,7623KW,Borne,Borne,Overijssel,VBO,6.770427,52.301330
Morel,58,,,7623KW,Borne,Borne,Overijssel,VBO,6.770435,52.301196
Morel,60,,,7623KW,Borne,Borne,Overijssel,VBO,6.770370,52.301040
Morel,62,,,7623KW,Borne,Borne,Overijssel,VBO,6.770326,52.300892
Morel,64,,,7623KW,Borne,Borne,Overijssel,VBO,6.770255,52.300712
Voorn,1,,,7623KX,Borne,Borne,Overijssel,VBO,6.765469,52.297158
Voorn,5,,,7623KX,Borne,Borne,Overijssel,VBO,6.765795,52.297200
Voorn,7,,,7623KX,Borne,Borne,Overijssel,VBO,6.765886,52.297205
Voorn,17,,,7623KX,Borne,Borne,Overijssel,VBO,6.766654,52.297289
Voorn,19,,,7623KX,Borne,Borne,Overijssel,VBO,6.766752,52.297316
Voorn,21,,,7623KX,Borne,Borne,Overijssel,VBO,6.766874,52.297329
Voorn,23,,,7623KX,Borne,Borne,Overijssel,VBO,6.766951,52.297340
Voorn,25,,,7623KX,Borne,Borne,Overijssel,VBO,6.767035,52.297340
Voorn,27,,,7623KX,Borne,Borne,Overijssel,VBO,6.767122,52.297348
Voorn,29,,,7623KX,Borne,Borne,Overijssel,VBO,6.767204,52.297356
Voorn,31,,,7623KX,Borne,Borne,Overijssel,VBO,6.767291,52.297364
Voorn,33,,,7623KX,Borne,Borne,Overijssel,VBO,6.767447,52.297385
Voorn,35,,,7623KX,Borne,Borne,Overijssel,VBO,6.767531,52.297395
Voorn,37,,,7623KX,Borne,Borne,Overijssel,VBO,6.767611,52.297398
Voorn,39,,,7623KX,Borne,Borne,Overijssel,VBO,6.767702,52.297403
Voorn,41,,,7623KX,Borne,Borne,Overijssel,VBO,6.767776,52.297412
Voorn,43,,,7623KX,Borne,Borne,Overijssel,VBO,6.767864,52.297425
Voorn,45,,,7623KX,Borne,Borne,Overijssel,VBO,6.768012,52.297436
Voorn,47,,,7623KX,Borne,Borne,Overijssel,VBO,6.768091,52.297444
Voorn,49,,,7623KX,Borne,Borne,Overijssel,VBO,6.768265,52.297463
Voorn,51,,,7623KX,Borne,Borne,Overijssel,VBO,6.768349,52.297471
Voorn,53,,,7623KX,Borne,Borne,Overijssel,VBO,6.768515,52.297496
Voorn,55,,,7623KX,Borne,Borne,Overijssel,VBO,6.768767,52.297539
Voorn,57,,,7623KX,Borne,Borne,Overijssel,VBO,6.768760,52.297689
Voorn,59,,,7623KX,Borne,Borne,Overijssel,VBO,6.768796,52.297829
Voorn,61,,,7623KX,Borne,Borne,Overijssel,VBO,6.768831,52.297973
Honingzoet,2,,,7623KZ,Borne,Borne,Overijssel,VBO,6.766444,52.301932
Honingzoet,4,,,7623KZ,Borne,Borne,Overijssel,VBO,6.766627,52.301961
Honingzoet,6,,,7623KZ,Borne,Borne,Overijssel,VBO,6.766720,52.301967
Honingzoet,8,,,7623KZ,Borne,Borne,Overijssel,VBO,6.766914,52.301955
Honingzoet,10,,,7623KZ,Borne,Borne,Overijssel,VBO,6.767015,52.301963
Honingzoet,12,,,7623KZ,Borne,Borne,Overijssel,VBO,6.767209,52.301970
Honingzoet,14,,,7623KZ,Borne,Borne,Overijssel,VBO,6.767302,52.301962
Honingzoet,16,,,7623KZ,Borne,Borne,Overijssel,VBO,6.767499,52.301943
Honingzoet,18,,,7623KZ,Borne,Borne,Overijssel,VBO,6.767592,52.301937
Honingzoet,22,,,7623KZ,Borne,Borne,Overijssel,VBO,6.768007,52.301838
Honingzoet,24,,,7623KZ,Borne,Borne,Overijssel,VBO,6.768131,52.301800
Honingzoet,26,,,7623KZ,Borne,Borne,Overijssel,VBO,6.768281,52.301765
Honingzoet,28,,,7623KZ,Borne,Borne,Overijssel,VBO,6.768368,52.301733
Honingzoet,30,,,7623KZ,Borne,Borne,Overijssel,VBO,6.768489,52.301651
Honingzoet,32,,,7623KZ,Borne,Borne,Overijssel,VBO,6.768573,52.301596
Honingzoet,34,,,7623KZ,Borne,Borne,Overijssel,VBO,6.768681,52.301518
Honingzoet,36,,,7623KZ,Borne,Borne,Overijssel,VBO,6.768770,52.301458
Honingzoet,38,,,7623KZ,Borne,Borne,Overijssel,VBO,6.768912,52.301374
Honingzoet,40,,,7623KZ,Borne,Borne,Overijssel,VBO,6.768989,52.301263
Honingzoet,42,,,7623KZ,Borne,Borne,Overijssel,VBO,6.769165,52.301121
Honingzoet,44,,,7623KZ,Borne,Borne,Overijssel,VBO,6.769203,52.301063
Honingzoet,46,,,7623KZ,Borne,Borne,Overijssel,VBO,6.769211,52.300938
Honingzoet,48,,,7623KZ,Borne,Borne,Overijssel,VBO,6.769235,52.300872
Honingzoet,50,,,7623KZ,Borne,Borne,Overijssel,VBO,6.769237,52.300732
Meikers,2,,,7623LA,Borne,Borne,Overijssel,VBO,6.766609,52.301186
Meikers,4,,,7623LA,Borne,Borne,Overijssel,VBO,6.766716,52.301207
Meikers,6,,,7623LA,Borne,Borne,Overijssel,VBO,6.766832,52.301217
Meikers,8,,,7623LA,Borne,Borne,Overijssel,VBO,6.766974,52.301226
Meikers,10,,,7623LA,Borne,Borne,Overijssel,VBO,6.767114,52.301224
Meikers,12,,,7623LA,Borne,Borne,Overijssel,VBO,6.767250,52.301215
Meikers,14,,,7623LA,Borne,Borne,Overijssel,VBO,6.767471,52.301174
Meikers,16,,,7623LA,Borne,Borne,Overijssel,VBO,6.767595,52.301138
Meikers,18,,,7623LA,Borne,Borne,Overijssel,VBO,6.767702,52.301093
Meikers,20,,,7623LA,Borne,Borne,Overijssel,VBO,6.767814,52.301038
Meikers,22,,,7623LA,Borne,Borne,Overijssel,VBO,6.767905,52.300985
Meikers,24,,,7623LA,Borne,Borne,Overijssel,VBO,6.767995,52.300919
Meikers,26,,,7623LA,Borne,Borne,Overijssel,VBO,6.768093,52.300791
Meikers,28,,,7623LA,Borne,Borne,Overijssel,VBO,6.768160,52.300716
Meikers,30,,,7623LA,Borne,Borne,Overijssel,VBO,6.768200,52.300646
Meikers,32,,,7623LA,Borne,Borne,Overijssel,VBO,6.768218,52.300568
Meikers,1,,,7623LB,Borne,Borne,Overijssel,VBO,6.766580,52.301526
Meikers,3,,,7623LB,Borne,Borne,Overijssel,VBO,6.766777,52.301540
Meikers,5,,,7623LB,Borne,Borne,Overijssel,VBO,6.766870,52.301544
Meikers,7,,,7623LB,Borne,Borne,Overijssel,VBO,6.767076,52.301546
Meikers,9,,,7623LB,Borne,Borne,Overijssel,VBO,6.767173,52.301550
Buitensingel,57,,,7623MA,Borne,Borne,Overijssel,VBO,6.768817,52.292766
Buitensingel,61,,,7623MA,Borne,Borne,Overijssel,VBO,6.768954,52.292556
Buitensingel,75,,,7623MA,Borne,Borne,Overijssel,VBO,6.770266,52.292258
Buitensingel,77,,,7623MA,Borne,Borne,Overijssel,VBO,6.770466,52.292325
Binnensingel,2,,,7623MB,Borne,Borne,Overijssel,VBO,6.769705,52.293231
Binnensingel,3,,,7623MB,Borne,Borne,Overijssel,VBO,6.770062,52.293393
Binnensingel,4,,,7623MB,Borne,Borne,Overijssel,VBO,6.769536,52.293163
Binnensingel,5,,,7623MB,Borne,Borne,Overijssel,VBO,6.770189,52.293291
Binnensingel,7,,,7623MB,Borne,Borne,Overijssel,VBO,6.770327,52.293218
Binnensingel,9,,,7623MB,Borne,Borne,Overijssel,VBO,6.770574,52.293050
Binnensingel,11,,,7623MB,Borne,Borne,Overijssel,VBO,6.770699,52.292939
Binnensingel,13,,,7623MB,Borne,Borne,Overijssel,VBO,6.770772,52.292830
Binnensingel,15,,,7623MB,Borne,Borne,Overijssel,VBO,6.770899,52.292733
Binnensingel,17,,,7623MB,Borne,Borne,Overijssel,VBO,6.770967,52.292591
Binnensingel,20,,,7623MB,Borne,Borne,Overijssel,VBO,6.769987,52.292609
Binnensingel,21,,,7623MB,Borne,Borne,Overijssel,VBO,6.771083,52.292493
Binnensingel,22,,,7623MB,Borne,Borne,Overijssel,VBO,6.770210,52.292630
Binnensingel,24,,,7623MB,Borne,Borne,Overijssel,VBO,6.770417,52.292712
Hesselerbeek,1,,,7623MC,Borne,Borne,Overijssel,VBO,6.770428,52.294179
Hesselerbeek,3,,,7623MC,Borne,Borne,Overijssel,VBO,6.770521,52.294148
Hesselerbeek,4,,,7623MC,Borne,Borne,Overijssel,VBO,6.770122,52.293755
Hesselerbeek,5,,,7623MC,Borne,Borne,Overijssel,VBO,6.770702,52.294075
Hesselerbeek,6,,,7623MC,Borne,Borne,Overijssel,VBO,6.770284,52.293669
Hesselerbeek,7,,,7623MC,Borne,Borne,Overijssel,VBO,6.770794,52.294038
Hesselerbeek,8,,,7623MC,Borne,Borne,Overijssel,VBO,6.770586,52.293549
Hesselerbeek,9,,,7623MC,Borne,Borne,Overijssel,VBO,6.770964,52.293960
Hesselerbeek,10,,,7623MC,Borne,Borne,Overijssel,VBO,6.770765,52.293425
Hesselerbeek,11,,,7623MC,Borne,Borne,Overijssel,VBO,6.771047,52.293918
Hesselerbeek,12,,,7623MC,Borne,Borne,Overijssel,VBO,6.770969,52.293246
Hesselerbeek,13,,,7623MC,Borne,Borne,Overijssel,VBO,6.771174,52.293826
Hesselerbeek,14,,,7623MC,Borne,Borne,Overijssel,VBO,6.771115,52.293076
Hesselerbeek,16,,,7623MC,Borne,Borne,Overijssel,VBO,6.771260,52.293006
Hesselerbeek,18,,,7623MC,Borne,Borne,Overijssel,VBO,6.771342,52.292906
Hesselerbeek,20,,,7623MC,Borne,Borne,Overijssel,VBO,6.771437,52.292791
Hesselerbeek,22,,,7623MC,Borne,Borne,Overijssel,VBO,6.771568,52.292639
Hesselerbeek,27,,,7623MC,Borne,Borne,Overijssel,VBO,6.771463,52.293647
Hesselerbeek,29,,,7623MC,Borne,Borne,Overijssel,VBO,6.771596,52.293529
Hesselerbeek,31,,,7623MC,Borne,Borne,Overijssel,VBO,6.771664,52.293474
Hesselerbeek,33,,,7623MC,Borne,Borne,Overijssel,VBO,6.771764,52.293357
Hesselerbeek,35,,,7623MC,Borne,Borne,Overijssel,VBO,6.771820,52.293300
Hesselerbeek,37,,,7623MC,Borne,Borne,Overijssel,VBO,6.771877,52.293166
Hesselerbeek,39,,,7623MC,Borne,Borne,Overijssel,VBO,6.771917,52.293114
Hesselerbeek,41,,,7623MC,Borne,Borne,Overijssel,VBO,6.772066,52.293001
Hesselerbeek,43,,,7623MC,Borne,Borne,Overijssel,VBO,6.772098,52.292940
Bruggemaat,2,,,7623MD,Borne,Borne,Overijssel,VBO,6.770601,52.294451
Bruggemaat,4,,,7623MD,Borne,Borne,Overijssel,VBO,6.770680,52.294423
Bruggemaat,6,,,7623MD,Borne,Borne,Overijssel,VBO,6.770757,52.294398
Bruggemaat,8,,,7623MD,Borne,Borne,Overijssel,VBO,6.770835,52.294375
Bruggemaat,10,,,7623MD,Borne,Borne,Overijssel,VBO,6.770914,52.294336
Bruggemaat,12,,,7623MD,Borne,Borne,Overijssel,VBO,6.771247,52.294187
Bruggemaat,14,,,7623MD,Borne,Borne,Overijssel,VBO,6.771307,52.294140
Bruggemaat,16,,,7623MD,Borne,Borne,Overijssel,VBO,6.771366,52.294106
Bruggemaat,18,,,7623MD,Borne,Borne,Overijssel,VBO,6.771425,52.294073
Bruggemaat,20,,,7623MD,Borne,Borne,Overijssel,VBO,6.771494,52.294039
Bruggemaat,22,,,7623MD,Borne,Borne,Overijssel,VBO,6.771561,52.294002
Bruggemaat,24,,,7623MD,Borne,Borne,Overijssel,VBO,6.771766,52.293866
Bruggemaat,26,a,,7623MD,Borne,Borne,Overijssel,VBO,6.771854,52.293795
Bruggemaat,26,,,7623MD,Borne,Borne,Overijssel,VBO,6.771817,52.293832
Bruggemaat,28,,,7623MD,Borne,Borne,Overijssel,VBO,6.771921,52.293749
Bruggemaat,30,,,7623MD,Borne,Borne,Overijssel,VBO,6.771963,52.293710
Bruggemaat,32,,,7623MD,Borne,Borne,Overijssel,VBO,6.772007,52.293668
Bruggemaat,34,,,7623MD,Borne,Borne,Overijssel,VBO,6.772050,52.293629
Bruggemaat,36,,,7623MD,Borne,Borne,Overijssel,VBO,6.772094,52.293585
Bruggemaat,38,,,7623MD,Borne,Borne,Overijssel,VBO,6.772142,52.293549
Bruggemaat,40,,,7623MD,Borne,Borne,Overijssel,VBO,6.772348,52.293339
Bruggemaat,42,,,7623MD,Borne,Borne,Overijssel,VBO,6.772376,52.293296
Bruggemaat,44,,,7623MD,Borne,Borne,Overijssel,VBO,6.772402,52.293257
Bruggemaat,46,,,7623MD,Borne,Borne,Overijssel,VBO,6.772436,52.293217
Bruggemaat,48,,,7623MD,Borne,Borne,Overijssel,VBO,6.772458,52.293175
Bruggemaat,50,,,7623MD,Borne,Borne,Overijssel,VBO,6.772492,52.293140
Bruggemaat,52,,,7623MD,Borne,Borne,Overijssel,VBO,6.772519,52.293101
Bruggemaat,54,,,7623MD,Borne,Borne,Overijssel,VBO,6.772548,52.293058
Beekvoorde,1,,,7623ME,Borne,Borne,Overijssel,VBO,6.771328,52.295416
Beekvoorde,3,,,7623ME,Borne,Borne,Overijssel,VBO,6.771405,52.295388
Beekvoorde,5,,,7623ME,Borne,Borne,Overijssel,VBO,6.771498,52.295374
Beekvoorde,7,,,7623ME,Borne,Borne,Overijssel,VBO,6.771640,52.295312
Beekvoorde,8,,,7623ME,Borne,Borne,Overijssel,VBO,6.771745,52.294986
Beekvoorde,9,,,7623ME,Borne,Borne,Overijssel,VBO,6.771721,52.295292
Beekvoorde,10,,,7623ME,Borne,Borne,Overijssel,VBO,6.771820,52.294953
Beekvoorde,11,,,7623ME,Borne,Borne,Overijssel,VBO,6.771807,52.295269
Beekvoorde,12,,,7623ME,Borne,Borne,Overijssel,VBO,6.772032,52.294910
Beekvoorde,13,,,7623ME,Borne,Borne,Overijssel,VBO,6.771968,52.295215
Beekvoorde,14,,,7623ME,Borne,Borne,Overijssel,VBO,6.772121,52.294883
Beekvoorde,15,,,7623ME,Borne,Borne,Overijssel,VBO,6.772039,52.295190
Beekvoorde,16,,,7623ME,Borne,Borne,Overijssel,VBO,6.772262,52.294789
Beekvoorde,17,,,7623ME,Borne,Borne,Overijssel,VBO,6.772105,52.295148
Beekvoorde,18,,,7623ME,Borne,Borne,Overijssel,VBO,6.773349,52.294134
Beekvoorde,19,,,7623ME,Borne,Borne,Overijssel,VBO,6.772173,52.295119
Beekvoorde,20,,,7623ME,Borne,Borne,Overijssel,VBO,6.773421,52.294082
Beekvoorde,21,,,7623ME,Borne,Borne,Overijssel,VBO,6.772262,52.295088
Beekvoorde,22,,,7623ME,Borne,Borne,Overijssel,VBO,6.773558,52.293971
Beekvoorde,23,,,7623ME,Borne,Borne,Overijssel,VBO,6.772367,52.295032
Beekvoorde,24,,,7623ME,Borne,Borne,Overijssel,VBO,6.773619,52.293922
Beekvoorde,25,,,7623ME,Borne,Borne,Overijssel,VBO,6.772429,52.295006
Beekvoorde,26,,,7623ME,Borne,Borne,Overijssel,VBO,6.773850,52.293654
Beekvoorde,27,,,7623ME,Borne,Borne,Overijssel,VBO,6.772498,52.294975
Beekvoorde,28,,,7623ME,Borne,Borne,Overijssel,VBO,6.773910,52.293601
Beekvoorde,29,,,7623ME,Borne,Borne,Overijssel,VBO,6.772562,52.294944
Beekvoorde,31,,,7623ME,Borne,Borne,Overijssel,VBO,6.772624,52.294913
Beekvoorde,33,,,7623ME,Borne,Borne,Overijssel,VBO,6.772706,52.294857
Beekvoorde,35,,,7623ME,Borne,Borne,Overijssel,VBO,6.772771,52.294819
Beekvoorde,37,,,7623ME,Borne,Borne,Overijssel,VBO,6.772907,52.294788
Beekvoorde,39,,,7623ME,Borne,Borne,Overijssel,VBO,6.773081,52.294675
Beekvoorde,41,,,7623ME,Borne,Borne,Overijssel,VBO,6.773142,52.294640
Beekvoorde,43,,,7623ME,Borne,Borne,Overijssel,VBO,6.773206,52.294607
Beekvoorde,45,,,7623ME,Borne,Borne,Overijssel,VBO,6.773253,52.294564
Beekvoorde,47,,,7623ME,Borne,Borne,Overijssel,VBO,6.773532,52.294406
Beekvoorde,49,,,7623ME,Borne,Borne,Overijssel,VBO,6.773582,52.294364
Beekvoorde,51,,,7623ME,Borne,Borne,Overijssel,VBO,6.773635,52.294323
Beekvoorde,53,,,7623ME,Borne,Borne,Overijssel,VBO,6.773740,52.294238
Beekvoorde,55,,,7623ME,Borne,Borne,Overijssel,VBO,6.773799,52.294192
Beekvoorde,57,,,7623ME,Borne,Borne,Overijssel,VBO,6.773853,52.294155
Beekvoorde,59,,,7623ME,Borne,Borne,Overijssel,VBO,6.773900,52.294116
Vossenbeek,2,,,7623MG,Borne,Borne,Overijssel,VBO,6.771494,52.295667
Vossenbeek,4,,,7623MG,Borne,Borne,Overijssel,VBO,6.771613,52.295641
Vossenbeek,6,,,7623MG,Borne,Borne,Overijssel,VBO,6.771796,52.295576
Vossenbeek,8,,,7623MG,Borne,Borne,Overijssel,VBO,6.771902,52.295541
Vossenbeek,10,,,7623MG,Borne,Borne,Overijssel,VBO,6.772035,52.295503
Vossenbeek,12,,,7623MG,Borne,Borne,Overijssel,VBO,6.772162,52.295455
Vossenbeek,14,,,7623MG,Borne,Borne,Overijssel,VBO,6.772331,52.295415
Vossenbeek,16,,,7623MG,Borne,Borne,Overijssel,VBO,6.772420,52.295381
Vossenbeek,18,,,7623MG,Borne,Borne,Overijssel,VBO,6.772633,52.295281
Vossenbeek,20,,,7623MG,Borne,Borne,Overijssel,VBO,6.772722,52.295243
Vossenbeek,22,,,7623MG,Borne,Borne,Overijssel,VBO,6.772867,52.295165
Vossenbeek,24,,,7623MG,Borne,Borne,Overijssel,VBO,6.772964,52.295130
Vossenbeek,26,,,7623MG,Borne,Borne,Overijssel,VBO,6.773112,52.295063
Vossenbeek,28,,,7623MG,Borne,Borne,Overijssel,VBO,6.773192,52.295024
Vossenbeek,30,,,7623MG,Borne,Borne,Overijssel,VBO,6.773433,52.294880
Vossenbeek,32,,,7623MG,Borne,Borne,Overijssel,VBO,6.773507,52.294843
Vossenbeek,34,,,7623MG,Borne,Borne,Overijssel,VBO,6.773656,52.294749
Vossenbeek,36,,,7623MG,Borne,Borne,Overijssel,VBO,6.773720,52.294702
Vossenbeek,38,,,7623MG,Borne,Borne,Overijssel,VBO,6.773863,52.294606
Vossenbeek,40,,,7623MG,Borne,Borne,Overijssel,VBO,6.773924,52.294557
Vossenbeek,42,,,7623MG,Borne,Borne,Overijssel,VBO,6.774065,52.294460
Vossenbeek,44,,,7623MG,Borne,Borne,Overijssel,VBO,6.774116,52.294413
Vossenbeek,46,,,7623MG,Borne,Borne,Overijssel,VBO,6.774246,52.294309
Vossenbeek,48,,,7623MG,Borne,Borne,Overijssel,VBO,6.774301,52.294258
Vossenbeek,50,,,7623MG,Borne,Borne,Overijssel,VBO,6.774415,52.294146
Vossenbeek,52,,,7623MG,Borne,Borne,Overijssel,VBO,6.774472,52.294096
Vossenbeek,54,,,7623MG,Borne,Borne,Overijssel,VBO,6.774584,52.293988
Vossenbeek,56,,,7623MG,Borne,Borne,Overijssel,VBO,6.774626,52.293933
Dam,1,,,7623MH,Borne,Borne,Overijssel,VBO,6.772622,52.293470
Dam,2,,,7623MH,Borne,Borne,Overijssel,VBO,6.772814,52.293259
Dam,3,,,7623MH,Borne,Borne,Overijssel,VBO,6.772703,52.293491
Dam,5,,,7623MH,Borne,Borne,Overijssel,VBO,6.772763,52.293518
Dam,7,,,7623MH,Borne,Borne,Overijssel,VBO,6.773078,52.293642
Dam,8,,,7623MH,Borne,Borne,Overijssel,VBO,6.773197,52.293408
Dam,9,,,7623MH,Borne,Borne,Overijssel,VBO,6.773142,52.293672
Dam,10,,,7623MH,Borne,Borne,Overijssel,VBO,6.773295,52.293454
Dam,11,,,7623MH,Borne,Borne,Overijssel,VBO,6.773211,52.293700
Dam,12,,,7623MH,Borne,Borne,Overijssel,VBO,6.773455,52.293528
Dam,13,,,7623MH,Borne,Borne,Overijssel,VBO,6.773280,52.293729
Dam,14,,,7623MH,Borne,Borne,Overijssel,VBO,6.773561,52.293551
Dam,15,,,7623MH,Borne,Borne,Overijssel,VBO,6.773351,52.293754
Dam,17,,,7623MH,Borne,Borne,Overijssel,VBO,6.773417,52.293786
Sluis,1,,,7623MJ,Borne,Borne,Overijssel,VBO,6.772261,52.293936
Sluis,3,,,7623MJ,Borne,Borne,Overijssel,VBO,6.772337,52.293967
Sluis,5,,,7623MJ,Borne,Borne,Overijssel,VBO,6.772394,52.293999
Sluis,7,,,7623MJ,Borne,Borne,Overijssel,VBO,6.772455,52.294033
Sluis,9,,,7623MJ,Borne,Borne,Overijssel,VBO,6.772529,52.294080
Sluis,11,,,7623MJ,Borne,Borne,Overijssel,VBO,6.772705,52.294146
Sluis,12,,,7623MJ,Borne,Borne,Overijssel,VBO,6.772982,52.293975
Sluis,13,,,7623MJ,Borne,Borne,Overijssel,VBO,6.772773,52.294183
Sluis,14,,,7623MJ,Borne,Borne,Overijssel,VBO,6.773070,52.294026
Sluis,15,,,7623MJ,Borne,Borne,Overijssel,VBO,6.772835,52.294216
Sluis,17,,,7623MJ,Borne,Borne,Overijssel,VBO,6.772899,52.294248
Sluis,19,,,7623MJ,Borne,Borne,Overijssel,VBO,6.772965,52.294285
Sluis,21,,,7623MJ,Borne,Borne,Overijssel,VBO,6.773026,52.294319
Kolk,2,,,7623MK,Borne,Borne,Overijssel,VBO,6.771947,52.294131
Kolk,4,,,7623MK,Borne,Borne,Overijssel,VBO,6.772007,52.294163
Kolk,6,,,7623MK,Borne,Borne,Overijssel,VBO,6.772056,52.294196
Kolk,8,,,7623MK,Borne,Borne,Overijssel,VBO,6.772114,52.294226
Kolk,10,,,7623MK,Borne,Borne,Overijssel,VBO,6.772163,52.294257
Kolk,12,,,7623MK,Borne,Borne,Overijssel,VBO,6.772227,52.294290
Kolk,14,,,7623MK,Borne,Borne,Overijssel,VBO,6.772385,52.294380
Kolk,16,,,7623MK,Borne,Borne,Overijssel,VBO,6.772444,52.294412
Kolk,18,,,7623MK,Borne,Borne,Overijssel,VBO,6.772501,52.294448
Kolk,20,,,7623MK,Borne,Borne,Overijssel,VBO,6.772562,52.294476
Kolk,22,,,7623MK,Borne,Borne,Overijssel,VBO,6.772617,52.294511
Kolk,24,,,7623MK,Borne,Borne,Overijssel,VBO,6.772671,52.294544
Stuw,1,,,7623ML,Borne,Borne,Overijssel,VBO,6.770916,52.294608
Stuw,2,,,7623ML,Borne,Borne,Overijssel,VBO,6.771222,52.294464
Stuw,3,,,7623ML,Borne,Borne,Overijssel,VBO,6.770972,52.294668
Stuw,4,,,7623ML,Borne,Borne,Overijssel,VBO,6.771272,52.294511
Stuw,6,,,7623ML,Borne,Borne,Overijssel,VBO,6.771301,52.294553
Stuw,8,,,7623ML,Borne,Borne,Overijssel,VBO,6.771338,52.294597
Stuw,10,,,7623ML,Borne,Borne,Overijssel,VBO,6.771433,52.294698
Stuw,12,,,7623ML,Borne,Borne,Overijssel,VBO,6.771474,52.294747
Stuw,14,,,7623ML,Borne,Borne,Overijssel,VBO,6.771519,52.294786
Stuw,16,,,7623ML,Borne,Borne,Overijssel,VBO,6.771553,52.294834
Oeverlaan,1,,,7623MN,Borne,Borne,Overijssel,VBO,6.771179,52.295800
Oeverlaan,3,,,7623MN,Borne,Borne,Overijssel,VBO,6.771149,52.295752
Oeverlaan,5,,,7623MN,Borne,Borne,Overijssel,VBO,6.771126,52.295702
Oeverlaan,7,,,7623MN,Borne,Borne,Overijssel,VBO,6.771101,52.295657
Oeverlaan,9,,,7623MN,Borne,Borne,Overijssel,VBO,6.771072,52.295607
Oeverlaan,11,,,7623MN,Borne,Borne,Overijssel,VBO,6.771042,52.295562
Oeverlaan,13,,,7623MN,Borne,Borne,Overijssel,VBO,6.771005,52.295516
Oeverlaan,15,,,7623MN,Borne,Borne,Overijssel,VBO,6.770983,52.295469
Oeverlaan,17,,,7623MN,Borne,Borne,Overijssel,VBO,6.770871,52.295296
Oeverlaan,19,,,7623MN,Borne,Borne,Overijssel,VBO,6.770840,52.295250
Oeverlaan,21,,,7623MN,Borne,Borne,Overijssel,VBO,6.770810,52.295205
Oeverlaan,23,,,7623MN,Borne,Borne,Overijssel,VBO,6.770775,52.295156
Oeverlaan,25,,,7623MN,Borne,Borne,Overijssel,VBO,6.770742,52.295112
Oeverlaan,27,,,7623MN,Borne,Borne,Overijssel,VBO,6.770706,52.295065
Oeverlaan,29,,,7623MN,Borne,Borne,Overijssel,VBO,6.770659,52.295011
Oeverlaan,31,,,7623MN,Borne,Borne,Overijssel,VBO,6.770632,52.294964
Oeverlaan,33,,,7623MN,Borne,Borne,Overijssel,VBO,6.770601,52.294919
Oeverlaan,35,,,7623MN,Borne,Borne,Overijssel,VBO,6.770566,52.294873
Oeverlaan,37,,,7623MN,Borne,Borne,Overijssel,VBO,6.770531,52.294828
Oeverlaan,39,,,7623MN,Borne,Borne,Overijssel,VBO,6.770500,52.294782
Oeverlaan,41,,,7623MN,Borne,Borne,Overijssel,VBO,6.770467,52.294737
Oeverlaan,43,,,7623MN,Borne,Borne,Overijssel,VBO,6.770335,52.294569
Oeverlaan,45,,,7623MN,Borne,Borne,Overijssel,VBO,6.770296,52.294525
Oeverlaan,47,,,7623MN,Borne,Borne,Overijssel,VBO,6.770257,52.294480
Oeverlaan,49,,,7623MN,Borne,Borne,Overijssel,VBO,6.770227,52.294431
Oeverlaan,51,,,7623MN,Borne,Borne,Overijssel,VBO,6.770181,52.294389
Oeverlaan,53,,,7623MN,Borne,Borne,Overijssel,VBO,6.770144,52.294345
Oeverlaan,55,,,7623MN,Borne,Borne,Overijssel,VBO,6.770114,52.294300
Oeverlaan,57,,,7623MN,Borne,Borne,Overijssel,VBO,6.770078,52.294256
Oude Rietkamp,1,,,7623MP,Borne,Borne,Overijssel,VBO,6.772253,52.292757
Oude Rietkamp,21,,,7623MP,Borne,Borne,Overijssel,VBO,6.773538,52.293175
Oude Rietkamp,23,,,7623MP,Borne,Borne,Overijssel,VBO,6.773615,52.293212
Oude Rietkamp,25,,,7623MP,Borne,Borne,Overijssel,VBO,6.773776,52.293287
Oude Rietkamp,27,,,7623MP,Borne,Borne,Overijssel,VBO,6.773845,52.293323
Oude Rietkamp,29,,,7623MP,Borne,Borne,Overijssel,VBO,6.773994,52.293407
Oude Rietkamp,31,,,7623MP,Borne,Borne,Overijssel,VBO,6.774071,52.293442
Oude Rietkamp,33,,,7623MP,Borne,Borne,Overijssel,VBO,6.774361,52.293582
Oude Rietkamp,37,,,7623MP,Borne,Borne,Overijssel,VBO,6.774688,52.293715
Oude Rietkamp,39,,,7623MP,Borne,Borne,Overijssel,VBO,6.774799,52.293747
Het Reef,11,,,7623NA,Borne,Borne,Overijssel,VBO,6.767096,52.294268
Het Reef,13,,,7623NA,Borne,Borne,Overijssel,VBO,6.767182,52.294272
Het Reef,15,,,7623NA,Borne,Borne,Overijssel,VBO,6.767358,52.294287
Het Reef,17,,,7623NA,Borne,Borne,Overijssel,VBO,6.767447,52.294296
Het Reef,19,,,7623NA,Borne,Borne,Overijssel,VBO,6.767620,52.294312
Het Reef,21,,,7623NA,Borne,Borne,Overijssel,VBO,6.767701,52.294322
Het Reef,23,,,7623NA,Borne,Borne,Overijssel,VBO,6.767875,52.294344
Het Reef,25,,,7623NA,Borne,Borne,Overijssel,VBO,6.767964,52.294357
Het Reef,27,,,7623NA,Borne,Borne,Overijssel,VBO,6.768132,52.294371
Het Reef,29,,,7623NA,Borne,Borne,Overijssel,VBO,6.768226,52.294385
Het Reef,31,,,7623NA,Borne,Borne,Overijssel,VBO,6.768736,52.294444
Het Reef,33,,,7623NA,Borne,Borne,Overijssel,VBO,6.768675,52.294589
Het Reef,35,,,7623NA,Borne,Borne,Overijssel,VBO,6.768637,52.294724
Het Reef,37,,,7623NA,Borne,Borne,Overijssel,VBO,6.768591,52.294866
Viskorf,3,,,7623NB,Borne,Borne,Overijssel,VBO,6.766395,52.294902
Viskorf,5,,,7623NB,Borne,Borne,Overijssel,VBO,6.766494,52.294904
Viskorf,7,,,7623NB,Borne,Borne,Overijssel,VBO,6.766712,52.294928
Viskorf,8,,,7623NB,Borne,Borne,Overijssel,VBO,6.766807,52.294615
Viskorf,9,,,7623NB,Borne,Borne,Overijssel,VBO,6.766794,52.294936
Viskorf,10,,,7623NB,Borne,Borne,Overijssel,VBO,6.766885,52.294626
Viskorf,11,,,7623NB,Borne,Borne,Overijssel,VBO,6.767012,52.294967
Viskorf,12,,,7623NB,Borne,Borne,Overijssel,VBO,6.767103,52.294662
Viskorf,13,,,7623NB,Borne,Borne,Overijssel,VBO,6.767097,52.294971
Viskorf,14,,,7623NB,Borne,Borne,Overijssel,VBO,6.767189,52.294670
Viskorf,15,,,7623NB,Borne,Borne,Overijssel,VBO,6.767301,52.295025
Viskorf,16,,,7623NB,Borne,Borne,Overijssel,VBO,6.767408,52.294654
Viskorf,17,,,7623NB,Borne,Borne,Overijssel,VBO,6.767384,52.295037
Viskorf,18,,,7623NB,Borne,Borne,Overijssel,VBO,6.767495,52.294662
Viskorf,19,,,7623NB,Borne,Borne,Overijssel,VBO,6.767461,52.295044
Viskorf,20,,,7623NB,Borne,Borne,Overijssel,VBO,6.767577,52.294675
Viskorf,21,,,7623NB,Borne,Borne,Overijssel,VBO,6.767547,52.295053
Viskorf,22,,,7623NB,Borne,Borne,Overijssel,VBO,6.767663,52.294692
Viskorf,23,,,7623NB,Borne,Borne,Overijssel,VBO,6.767633,52.295064
Viskorf,24,,,7623NB,Borne,Borne,Overijssel,VBO,6.767740,52.294687
Viskorf,25,,,7623NB,Borne,Borne,Overijssel,VBO,6.767704,52.295073
Viskorf,26,,,7623NB,Borne,Borne,Overijssel,VBO,6.767822,52.294701
Viskorf,27,,,7623NB,Borne,Borne,Overijssel,VBO,6.767800,52.295071
Viskorf,28,,,7623NB,Borne,Borne,Overijssel,VBO,6.767893,52.294733
Viskorf,29,,,7623NB,Borne,Borne,Overijssel,VBO,6.767883,52.295078
Viskorf,30,,,7623NB,Borne,Borne,Overijssel,VBO,6.767987,52.294737
Viskorf,31,,,7623NB,Borne,Borne,Overijssel,VBO,6.767954,52.295094
Viskorf,32,,,7623NB,Borne,Borne,Overijssel,VBO,6.768064,52.294750
Viskorf,33,,,7623NB,Borne,Borne,Overijssel,VBO,6.768040,52.295103
Viskorf,34,,,7623NB,Borne,Borne,Overijssel,VBO,6.768148,52.294761
Aalscheer,1,,,7623NC,Borne,Borne,Overijssel,VBO,6.765267,52.297827
Aalscheer,3,,,7623NC,Borne,Borne,Overijssel,VBO,6.765455,52.297847
Aalscheer,5,,,7623NC,Borne,Borne,Overijssel,VBO,6.765646,52.297865
Aalscheer,7,,,7623NC,Borne,Borne,Overijssel,VBO,6.765732,52.297867
Aalscheer,9,,,7623NC,Borne,Borne,Overijssel,VBO,6.765900,52.297888
Aalscheer,11,,,7623NC,Borne,Borne,Overijssel,VBO,6.765990,52.297898
Aalscheer,13,,,7623NC,Borne,Borne,Overijssel,VBO,6.766160,52.297924
Aalscheer,15,,,7623NC,Borne,Borne,Overijssel,VBO,6.766243,52.297932
Aalscheer,17,,,7623NC,Borne,Borne,Overijssel,VBO,6.766412,52.297966
Aalscheer,19,,,7623NC,Borne,Borne,Overijssel,VBO,6.766496,52.297977
Aalscheer,23,,,7623NC,Borne,Borne,Overijssel,VBO,6.766653,52.298041
Aalscheer,25,,,7623NC,Borne,Borne,Overijssel,VBO,6.766750,52.298054
Aalscheer,27,,,7623NC,Borne,Borne,Overijssel,VBO,6.766843,52.298050
Aalscheer,29,,,7623NC,Borne,Borne,Overijssel,VBO,6.766921,52.298064
Aalscheer,31,,,7623NC,Borne,Borne,Overijssel,VBO,6.767004,52.298077
Aalscheer,33,,,7623NC,Borne,Borne,Overijssel,VBO,6.767338,52.298114
Aalscheer,35,,,7623NC,Borne,Borne,Overijssel,VBO,6.767428,52.298136
Aalscheer,37,,,7623NC,Borne,Borne,Overijssel,VBO,6.767520,52.298121
Aalscheer,39,,,7623NC,Borne,Borne,Overijssel,VBO,6.767606,52.298141
Aalscheer,41,,,7623NC,Borne,Borne,Overijssel,VBO,6.767688,52.298155
Aalscheer,43,,,7623NC,Borne,Borne,Overijssel,VBO,6.767778,52.298168
Aalscheer,45,,,7623NC,Borne,Borne,Overijssel,VBO,6.767955,52.298142
Aalscheer,47,,,7623NC,Borne,Borne,Overijssel,VBO,6.768045,52.298151
Aalscheer,49,,,7623NC,Borne,Borne,Overijssel,VBO,6.768219,52.298158
Aalscheer,51,,,7623NC,Borne,Borne,Overijssel,VBO,6.768301,52.298167
Aalscheer,53,,,7623NC,Borne,Borne,Overijssel,VBO,6.768476,52.298188
Aalscheer,4,,,7623ND,Borne,Borne,Overijssel,VBO,6.765346,52.297562
Aalscheer,6,,,7623ND,Borne,Borne,Overijssel,VBO,6.765573,52.297598
Aalscheer,8,,,7623ND,Borne,Borne,Overijssel,VBO,6.765683,52.297575
Aalscheer,10,,,7623ND,Borne,Borne,Overijssel,VBO,6.765820,52.297630
Aalscheer,12,,,7623ND,Borne,Borne,Overijssel,VBO,6.765908,52.297641
Aalscheer,14,,,7623ND,Borne,Borne,Overijssel,VBO,6.766080,52.297658
Aalscheer,16,,,7623ND,Borne,Borne,Overijssel,VBO,6.766166,52.297667
Aalscheer,18,,,7623ND,Borne,Borne,Overijssel,VBO,6.766339,52.297680
Aalscheer,20,,,7623ND,Borne,Borne,Overijssel,VBO,6.766428,52.297687
Aalscheer,22,,,7623ND,Borne,Borne,Overijssel,VBO,6.766612,52.297661
Aalscheer,24,,,7623ND,Borne,Borne,Overijssel,VBO,6.766706,52.297675
Aalscheer,26,,,7623ND,Borne,Borne,Overijssel,VBO,6.766794,52.297682
Aalscheer,28,,,7623ND,Borne,Borne,Overijssel,VBO,6.766879,52.297691
Aalscheer,30,,,7623ND,Borne,Borne,Overijssel,VBO,6.766966,52.297704
Aalscheer,32,,,7623ND,Borne,Borne,Overijssel,VBO,6.767046,52.297723
Aalscheer,34,,,7623ND,Borne,Borne,Overijssel,VBO,6.767383,52.297755
Aalscheer,36,,,7623ND,Borne,Borne,Overijssel,VBO,6.767472,52.297762
Aalscheer,38,,,7623ND,Borne,Borne,Overijssel,VBO,6.767556,52.297775
Aalscheer,40,,,7623ND,Borne,Borne,Overijssel,VBO,6.767649,52.297780
Aalscheer,42,,,7623ND,Borne,Borne,Overijssel,VBO,6.767736,52.297790
Aalscheer,44,,,7623ND,Borne,Borne,Overijssel,VBO,6.767877,52.297847
Aalscheer,46,,,7623ND,Borne,Borne,Overijssel,VBO,6.767959,52.297869
Aalscheer,48,,,7623ND,Borne,Borne,Overijssel,VBO,6.768146,52.297871
Aalscheer,50,,,7623ND,Borne,Borne,Overijssel,VBO,6.768233,52.297883
Aalscheer,52,,,7623ND,Borne,Borne,Overijssel,VBO,6.768397,52.297899
Aalscheer,54,,,7623ND,Borne,Borne,Overijssel,VBO,6.768478,52.297947
Winde,2,,,7623NE,Borne,Borne,Overijssel,VBO,6.767848,52.297044
Winde,4,,,7623NE,Borne,Borne,Overijssel,VBO,6.767944,52.296870
Winde,6,,,7623NE,Borne,Borne,Overijssel,VBO,6.767929,52.296740
Winde,8,,,7623NE,Borne,Borne,Overijssel,VBO,6.767958,52.296634
Winde,10,,,7623NE,Borne,Borne,Overijssel,VBO,6.767985,52.296538
Winde,12,,,7623NE,Borne,Borne,Overijssel,VBO,6.768028,52.296319
Winde,14,,,7623NE,Borne,Borne,Overijssel,VBO,6.768079,52.296215
Winde,16,,,7623NE,Borne,Borne,Overijssel,VBO,6.768113,52.296125
Winde,18,,,7623NE,Borne,Borne,Overijssel,VBO,6.768156,52.295996
Winde,20,,,7623NE,Borne,Borne,Overijssel,VBO,6.768251,52.295848
Tuinlaan,1,,,7623PB,Borne,Borne,Overijssel,VBO,6.771884,52.297272
Tuinlaan,3,,,7623PB,Borne,Borne,Overijssel,VBO,6.771846,52.297207
Tuinlaan,5,,,7623PB,Borne,Borne,Overijssel,VBO,6.771833,52.297153
Tuinlaan,7,,,7623PB,Borne,Borne,Overijssel,VBO,6.771801,52.297102
Tuinlaan,9,,,7623PB,Borne,Borne,Overijssel,VBO,6.771793,52.297049
Tuinlaan,11,,,7623PB,Borne,Borne,Overijssel,VBO,6.771775,52.296998
Tuinlaan,13,,,7623PB,Borne,Borne,Overijssel,VBO,6.771753,52.296942
Tuinlaan,15,,,7623PB,Borne,Borne,Overijssel,VBO,6.771732,52.296894
Tuinlaan,17,,,7623PB,Borne,Borne,Overijssel,VBO,6.771709,52.296844
Tuinlaan,19,,,7623PB,Borne,Borne,Overijssel,VBO,6.771700,52.296790
Tuinlaan,21,,,7623PB,Borne,Borne,Overijssel,VBO,6.771675,52.296734
Tuinlaan,23,,,7623PB,Borne,Borne,Overijssel,VBO,6.771606,52.296684
Tuinlaan,25,,,7623PB,Borne,Borne,Overijssel,VBO,6.771580,52.296623
Tuinlaan,27,,,7623PB,Borne,Borne,Overijssel,VBO,6.771529,52.296579
Tuinlaan,29,,,7623PB,Borne,Borne,Overijssel,VBO,6.771514,52.296526
Tuinlaan,31,,,7623PB,Borne,Borne,Overijssel,VBO,6.771491,52.296478
Tuinlaan,33,,,7623PB,Borne,Borne,Overijssel,VBO,6.771464,52.296432
Tuinlaan,35,,,7623PB,Borne,Borne,Overijssel,VBO,6.771494,52.296364
Tuinlaan,37,,,7623PB,Borne,Borne,Overijssel,VBO,6.771459,52.296312
Tuinlaan,39,,,7623PB,Borne,Borne,Overijssel,VBO,6.771430,52.296258
Tuinlaan,41,,,7623PB,Borne,Borne,Overijssel,VBO,6.771404,52.296202
Tuinlaan,43,,,7623PB,Borne,Borne,Overijssel,VBO,6.771823,52.296169
Tuinlaan,45,,,7623PB,Borne,Borne,Overijssel,VBO,6.771925,52.296161
Tuinlaan,47,,,7623PB,Borne,Borne,Overijssel,VBO,6.772097,52.296108
Tuinlaan,49,,,7623PB,Borne,Borne,Overijssel,VBO,6.772193,52.296093
Tuinlaan,51,,,7623PB,Borne,Borne,Overijssel,VBO,6.772378,52.296059
Tuinlaan,53,,,7623PB,Borne,Borne,Overijssel,VBO,6.772480,52.296042
Tuinlaan,55,a,,7623PB,Borne,Borne,Overijssel,VBO,6.772765,52.296005
Tuinlaan,55,,,7623PB,Borne,Borne,Overijssel,VBO,6.772667,52.296034
Tuinlaan,59,,,7623PB,Borne,Borne,Overijssel,VBO,6.773174,52.295908
Tuinlaan,61,,,7623PB,Borne,Borne,Overijssel,VBO,6.773461,52.295827
Tuinlaan,63,,,7623PB,Borne,Borne,Overijssel,VBO,6.773682,52.295764
Tuinlaan,69,a,,7623PC,Borne,Borne,Overijssel,VBO,6.774616,52.295569
Tuinlaan,69,,,7623PC,Borne,Borne,Overijssel,VBO,6.774516,52.295594
Tuinlaan,71,a,,7623PC,Borne,Borne,Overijssel,VBO,6.774858,52.295482
Tuinlaan,71,,,7623PC,Borne,Borne,Overijssel,VBO,6.774766,52.295510
Tuinlaan,73,a,,7623PC,Borne,Borne,Overijssel,VBO,6.775085,52.295368
Tuinlaan,73,,,7623PC,Borne,Borne,Overijssel,VBO,6.774995,52.295395
Tuinlaan,75,a,,7623PC,Borne,Borne,Overijssel,VBO,6.775324,52.295270
Tuinlaan,75,,,7623PC,Borne,Borne,Overijssel,VBO,6.775244,52.295305
Tuinlaan,87,,,7623PC,Borne,Borne,Overijssel,VBO,6.776241,52.295065
Tuinlaan,89,,,7623PC,Borne,Borne,Overijssel,VBO,6.776287,52.295126
Tuinlaan,95,,,7623PC,Borne,Borne,Overijssel,VBO,6.776599,52.295351
Tuinlaan,97,,,7623PC,Borne,Borne,Overijssel,VBO,6.776726,52.295485
Tuinlaan,99,,,7623PC,Borne,Borne,Overijssel,VBO,6.776848,52.295600
Tuinlaan,101,,,7623PC,Borne,Borne,Overijssel,VBO,6.776990,52.295727
Tuinlaan,103,,,7623PC,Borne,Borne,Overijssel,VBO,6.777164,52.295835
Tuinlaan,109,,,7623PD,Borne,Borne,Overijssel,VBO,6.777568,52.296225
Tuinlaan,111,,,7623PD,Borne,Borne,Overijssel,VBO,6.777689,52.296333
Tuinlaan,113,,,7623PD,Borne,Borne,Overijssel,VBO,6.777811,52.296432
Tuinlaan,115,,,7623PD,Borne,Borne,Overijssel,VBO,6.777939,52.296544
Tuinlaan,117,,,7623PD,Borne,Borne,Overijssel,VBO,6.778045,52.296655
Tuinlaan,119,,,7623PD,Borne,Borne,Overijssel,VBO,6.778182,52.296752
Tuinlaan,121,,,7623PD,Borne,Borne,Overijssel,VBO,6.778282,52.296861
Tuinlaan,123,,,7623PD,Borne,Borne,Overijssel,VBO,6.778400,52.296980
Tuinlaan,125,,,7623PD,Borne,Borne,Overijssel,VBO,6.778468,52.297025
Tuinlaan,133,,,7623PD,Borne,Borne,Overijssel,VBO,6.778433,52.297400
Tuinlaan,135,,,7623PD,Borne,Borne,Overijssel,VBO,6.778341,52.297433
Tuinlaan,137,,,7623PD,Borne,Borne,Overijssel,VBO,6.778180,52.297485
Tuinlaan,139,,,7623PD,Borne,Borne,Overijssel,VBO,6.778089,52.297512
Tuinlaan,141,,,7623PD,Borne,Borne,Overijssel,VBO,6.777904,52.297575
Tuinlaan,147,,,7623PD,Borne,Borne,Overijssel,VBO,6.777245,52.297797
Tuinlaan,149,,,7623PD,Borne,Borne,Overijssel,VBO,6.777006,52.297871
Tuinlaan,151,,,7623PD,Borne,Borne,Overijssel,VBO,6.776734,52.297923
Tuinlaan,153,,,7623PD,Borne,Borne,Overijssel,VBO,6.776546,52.297982
Tuinlaan,155,,,7623PD,Borne,Borne,Overijssel,VBO,6.776334,52.298024
Tuinlaan,157,,,7623PD,Borne,Borne,Overijssel,VBO,6.776235,52.298045
Tuinlaan,159,,,7623PD,Borne,Borne,Overijssel,VBO,6.776028,52.298095
Tuinlaan,161,,,7623PD,Borne,Borne,Overijssel,VBO,6.775921,52.298117
Tuinlaan,163,,,7623PD,Borne,Borne,Overijssel,VBO,6.775733,52.298197
Tuinlaan,165,,,7623PD,Borne,Borne,Overijssel,VBO,6.775636,52.298212
Tuinlaan,167,,,7623PD,Borne,Borne,Overijssel,VBO,6.775353,52.298232
Morel,30,,,7623PE,Borne,Borne,Overijssel,VBO,6.768524,52.302546
Tuinlaan,171,,,7623PE,Borne,Borne,Overijssel,VBO,6.774975,52.298313
Tuinlaan,175,,,7623PE,Borne,Borne,Overijssel,VBO,6.774560,52.298404
Tuinlaan,177,,,7623PE,Borne,Borne,Overijssel,VBO,6.774474,52.298414
Tuinlaan,179,a,,7623PE,Borne,Borne,Overijssel,VBO,6.774132,52.298461
Tuinlaan,179,,,7623PE,Borne,Borne,Overijssel,VBO,6.774222,52.298444
Tuinlaan,181,a,,7623PE,Borne,Borne,Overijssel,VBO,6.773795,52.298499
Tuinlaan,181,,,7623PE,Borne,Borne,Overijssel,VBO,6.773890,52.298491
Tuinlaan,183,,,7623PE,Borne,Borne,Overijssel,VBO,6.773587,52.298499
Tuinlaan,185,,,7623PE,Borne,Borne,Overijssel,VBO,6.773504,52.298505
Tuinlaan,187,,,7623PE,Borne,Borne,Overijssel,VBO,6.773333,52.298521
Tuinlaan,189,,,7623PE,Borne,Borne,Overijssel,VBO,6.773228,52.298528
Tuinlaan,191,,,7623PE,Borne,Borne,Overijssel,VBO,6.773035,52.298543
Tuinlaan,193,,,7623PE,Borne,Borne,Overijssel,VBO,6.772922,52.298549
Tuinlaan,195,,,7623PE,Borne,Borne,Overijssel,VBO,6.772736,52.298556
Tuinlaan,197,,,7623PE,Borne,Borne,Overijssel,VBO,6.772644,52.298564
Tuinlaan,199,,,7623PE,Borne,Borne,Overijssel,VBO,6.772201,52.298645
Tuinlaan,201,,,7623PE,Borne,Borne,Overijssel,VBO,6.772206,52.298588
Tuinlaan,203,,,7623PE,Borne,Borne,Overijssel,VBO,6.772181,52.298534
Tuinlaan,205,,,7623PE,Borne,Borne,Overijssel,VBO,6.772183,52.298472
Tuinlaan,207,,,7623PE,Borne,Borne,Overijssel,VBO,6.772173,52.298415
Tuinlaan,209,,,7623PE,Borne,Borne,Overijssel,VBO,6.772160,52.298365
Tuinlaan,211,,,7623PE,Borne,Borne,Overijssel,VBO,6.772151,52.298320
Tuinlaan,213,,,7623PE,Borne,Borne,Overijssel,VBO,6.772138,52.298265
Tuinlaan,215,,,7623PE,Borne,Borne,Overijssel,VBO,6.772124,52.298213
Tuinlaan,217,,,7623PE,Borne,Borne,Overijssel,VBO,6.772115,52.298156
Tuinlaan,219,,,7623PE,Borne,Borne,Overijssel,VBO,6.772101,52.298080
Tuinlaan,221,,,7623PE,Borne,Borne,Overijssel,VBO,6.772083,52.298028
Tuinlaan,223,,,7623PE,Borne,Borne,Overijssel,VBO,6.772067,52.297978
Tuinlaan,225,,,7623PE,Borne,Borne,Overijssel,VBO,6.772050,52.297931
Tuinlaan,227,,,7623PE,Borne,Borne,Overijssel,VBO,6.772048,52.297881
Tuinlaan,229,,,7623PE,Borne,Borne,Overijssel,VBO,6.772023,52.297827
Tuinlaan,231,,,7623PE,Borne,Borne,Overijssel,VBO,6.772002,52.297775
Tuinlaan,233,,,7623PE,Borne,Borne,Overijssel,VBO,6.772001,52.297722
Tuinlaan,235,,,7623PE,Borne,Borne,Overijssel,VBO,6.771984,52.297675
Tuinlaan,237,,,7623PE,Borne,Borne,Overijssel,VBO,6.771951,52.297618
Tuinlaan,239,,,7623PE,Borne,Borne,Overijssel,VBO,6.771938,52.297551
Lover,2,a,,7623PG,Borne,Borne,Overijssel,VBO,6.772413,52.297115
Lover,2,,,7623PG,Borne,Borne,Overijssel,VBO,6.772441,52.297163
Lover,4,,,7623PG,Borne,Borne,Overijssel,VBO,6.772372,52.297000
Lover,6,,,7623PG,Borne,Borne,Overijssel,VBO,6.772359,52.296949
Lover,8,,,7623PG,Borne,Borne,Overijssel,VBO,6.772313,52.296833
Lover,10,,,7623PG,Borne,Borne,Overijssel,VBO,6.772274,52.296782
Lover,12,,,7623PG,Borne,Borne,Overijssel,VBO,6.772198,52.296646
Lover,14,,,7623PG,Borne,Borne,Overijssel,VBO,6.772173,52.296590
Lover,16,,,7623PG,Borne,Borne,Overijssel,VBO,6.772070,52.296456
Lover,18,,,7623PG,Borne,Borne,Overijssel,VBO,6.772119,52.296406
Lover,20,,,7623PG,Borne,Borne,Overijssel,VBO,6.772353,52.296372
Lover,22,,,7623PG,Borne,Borne,Overijssel,VBO,6.772447,52.296360
Lover,24,a,,7623PG,Borne,Borne,Overijssel,VBO,6.772729,52.296314
Lover,24,,,7623PG,Borne,Borne,Overijssel,VBO,6.772659,52.296342
Lover,26,a,,7623PG,Borne,Borne,Overijssel,VBO,6.772975,52.296248
Lover,26,,,7623PG,Borne,Borne,Overijssel,VBO,6.772876,52.296260
Lover,28,a,,7623PG,Borne,Borne,Overijssel,VBO,6.773218,52.296207
Lover,28,,,7623PG,Borne,Borne,Overijssel,VBO,6.773142,52.296226
Lover,50,,,7623PH,Borne,Borne,Overijssel,VBO,6.774982,52.295781
Lover,52,,,7623PH,Borne,Borne,Overijssel,VBO,6.775044,52.295746
Lover,54,,,7623PH,Borne,Borne,Overijssel,VBO,6.775215,52.295699
Lover,56,,,7623PH,Borne,Borne,Overijssel,VBO,6.775284,52.295667
Lover,58,,,7623PH,Borne,Borne,Overijssel,VBO,6.775436,52.295586
Lover,116,,,7623PJ,Borne,Borne,Overijssel,VBO,6.777177,52.297440
Lover,118,,,7623PJ,Borne,Borne,Overijssel,VBO,6.777088,52.297443
Lover,120,,,7623PJ,Borne,Borne,Overijssel,VBO,6.776942,52.297515
Lover,122,,,7623PJ,Borne,Borne,Overijssel,VBO,6.776864,52.297541
Lover,124,,,7623PJ,Borne,Borne,Overijssel,VBO,6.776720,52.297598
Lover,126,,,7623PJ,Borne,Borne,Overijssel,VBO,6.776637,52.297623
Lover,128,,,7623PJ,Borne,Borne,Overijssel,VBO,6.776486,52.297671
Lover,130,,,7623PJ,Borne,Borne,Overijssel,VBO,6.776399,52.297669
Lover,132,,,7623PJ,Borne,Borne,Overijssel,VBO,6.776247,52.297702
Lover,134,,,7623PJ,Borne,Borne,Overijssel,VBO,6.776140,52.297727
Lover,136,,,7623PJ,Borne,Borne,Overijssel,VBO,6.776003,52.297758
Lover,138,,,7623PJ,Borne,Borne,Overijssel,VBO,6.775863,52.297805
Lover,146,,,7623PK,Borne,Borne,Overijssel,VBO,6.774810,52.297991
Lover,148,,,7623PK,Borne,Borne,Overijssel,VBO,6.774592,52.298076
Lover,150,,,7623PK,Borne,Borne,Overijssel,VBO,6.774356,52.298101
Lover,152,,,7623PK,Borne,Borne,Overijssel,VBO,6.774256,52.298138
Lover,154,,,7623PK,Borne,Borne,Overijssel,VBO,6.774024,52.298122
Lover,156,,,7623PK,Borne,Borne,Overijssel,VBO,6.773929,52.298127
Lover,158,,,7623PK,Borne,Borne,Overijssel,VBO,6.773705,52.298148
Lover,160,,,7623PK,Borne,Borne,Overijssel,VBO,6.773612,52.298149
Lover,162,a,,7623PK,Borne,Borne,Overijssel,VBO,6.773309,52.298197
Lover,162,,,7623PK,Borne,Borne,Overijssel,VBO,6.773406,52.298189
Lover,164,,,7623PK,Borne,Borne,Overijssel,VBO,6.773094,52.298253
Lover,166,,,7623PK,Borne,Borne,Overijssel,VBO,6.772983,52.298237
Lover,168,,,7623PK,Borne,Borne,Overijssel,VBO,6.772749,52.298274
Lover,170,,,7623PK,Borne,Borne,Overijssel,VBO,6.772673,52.298241
Lover,172,,,7623PK,Borne,Borne,Overijssel,VBO,6.772656,52.298095
Lover,174,a,,7623PK,Borne,Borne,Overijssel,VBO,6.772664,52.297893
Lover,174,,,7623PK,Borne,Borne,Overijssel,VBO,6.772631,52.298033
Lover,176,,,7623PK,Borne,Borne,Overijssel,VBO,6.772633,52.297840
Lover,178,,,7623PK,Borne,Borne,Overijssel,VBO,6.772595,52.297725
Lover,180,,,7623PK,Borne,Borne,Overijssel,VBO,6.772577,52.297674
Lover,182,,,7623PK,Borne,Borne,Overijssel,VBO,6.772553,52.297565
Lover,184,,,7623PK,Borne,Borne,Overijssel,VBO,6.772532,52.297509
Lover,1,,,7623PL,Borne,Borne,Overijssel,VBO,6.773002,52.297221
Lover,3,,,7623PL,Borne,Borne,Overijssel,VBO,6.772980,52.297154
Lover,5,,,7623PL,Borne,Borne,Overijssel,VBO,6.772951,52.297055
Lover,7,,,7623PL,Borne,Borne,Overijssel,VBO,6.772913,52.297003
Lover,9,,,7623PL,Borne,Borne,Overijssel,VBO,6.772892,52.296953
Lover,11,,,7623PL,Borne,Borne,Overijssel,VBO,6.772873,52.296902
Lover,13,,,7623PL,Borne,Borne,Overijssel,VBO,6.772855,52.296851
Lover,17,,,7623PL,Borne,Borne,Overijssel,VBO,6.772758,52.296655
Lover,19,,,7623PL,Borne,Borne,Overijssel,VBO,6.772841,52.296638
Lover,21,,,7623PL,Borne,Borne,Overijssel,VBO,6.772923,52.296622
Lover,23,,,7623PL,Borne,Borne,Overijssel,VBO,6.773008,52.296606
Lover,25,,,7623PL,Borne,Borne,Overijssel,VBO,6.773090,52.296590
Lover,29,,,7623PL,Borne,Borne,Overijssel,VBO,6.773271,52.296554
Lover,31,,,7623PL,Borne,Borne,Overijssel,VBO,6.773354,52.296533
Lover,33,,,7623PL,Borne,Borne,Overijssel,VBO,6.773514,52.296496
Lover,35,,,7623PL,Borne,Borne,Overijssel,VBO,6.773601,52.296486
Lover,37,,,7623PL,Borne,Borne,Overijssel,VBO,6.773772,52.296455
Lover,39,,,7623PL,Borne,Borne,Overijssel,VBO,6.773851,52.296429
Lover,41,,,7623PL,Borne,Borne,Overijssel,VBO,6.773926,52.296414
Lover,43,a,,7623PL,Borne,Borne,Overijssel,VBO,6.774069,52.296375
Lover,43,b,,7623PL,Borne,Borne,Overijssel,VBO,6.774177,52.296373
Lover,43,,,7623PL,Borne,Borne,Overijssel,VBO,6.774007,52.296397
Lover,45,a,,7623PL,Borne,Borne,Overijssel,VBO,6.774416,52.296308
Lover,45,,,7623PL,Borne,Borne,Overijssel,VBO,6.774328,52.296331
Lover,47,,,7623PL,Borne,Borne,Overijssel,VBO,6.774763,52.296203
Lover,49,,,7623PL,Borne,Borne,Overijssel,VBO,6.774842,52.296185
Lover,65,,,7623PL,Borne,Borne,Overijssel,VBO,6.775673,52.295907
Lover,67,,,7623PL,Borne,Borne,Overijssel,VBO,6.775740,52.295880
Lover,69,,,7623PL,Borne,Borne,Overijssel,VBO,6.775809,52.295853
Lover,71,,,7623PL,Borne,Borne,Overijssel,VBO,6.775877,52.295828
Lover,73,,,7623PL,Borne,Borne,Overijssel,VBO,6.776010,52.295979
Lover,75,,,7623PL,Borne,Borne,Overijssel,VBO,6.776052,52.296022
Lover,77,,,7623PL,Borne,Borne,Overijssel,VBO,6.776097,52.296067
Lover,79,,,7623PL,Borne,Borne,Overijssel,VBO,6.776148,52.296109
Lover,81,,,7623PL,Borne,Borne,Overijssel,VBO,6.776201,52.296152
Lover,83,,,7623PL,Borne,Borne,Overijssel,VBO,6.776239,52.296194
Lover,85,,,7623PL,Borne,Borne,Overijssel,VBO,6.776342,52.296280
Lover,87,,,7623PL,Borne,Borne,Overijssel,VBO,6.776392,52.296322
Lover,89,,,7623PM,Borne,Borne,Overijssel,VBO,6.776445,52.296370
Lover,91,,,7623PM,Borne,Borne,Overijssel,VBO,6.776517,52.296436
Lover,93,,,7623PM,Borne,Borne,Overijssel,VBO,6.776560,52.296482
Lover,95,,,7623PM,Borne,Borne,Overijssel,VBO,6.776609,52.296523
Lover,97,,,7623PM,Borne,Borne,Overijssel,VBO,6.776730,52.296629
Lover,99,,,7623PM,Borne,Borne,Overijssel,VBO,6.776774,52.296672
Lover,101,,,7623PM,Borne,Borne,Overijssel,VBO,6.776815,52.296717
Lover,103,,,7623PM,Borne,Borne,Overijssel,VBO,6.776870,52.296758
Lover,105,,,7623PM,Borne,Borne,Overijssel,VBO,6.776911,52.296801
Lover,107,,,7623PM,Borne,Borne,Overijssel,VBO,6.776969,52.296841
Lover,109,,,7623PM,Borne,Borne,Overijssel,VBO,6.777013,52.296886
Lover,111,,,7623PM,Borne,Borne,Overijssel,VBO,6.777240,52.297058
Lover,113,,,7623PM,Borne,Borne,Overijssel,VBO,6.777161,52.297088
Lover,115,,,7623PM,Borne,Borne,Overijssel,VBO,6.777078,52.297109
Lover,117,,,7623PM,Borne,Borne,Overijssel,VBO,6.777010,52.297136
Lover,119,,,7623PM,Borne,Borne,Overijssel,VBO,6.776940,52.297156
Lover,121,,,7623PM,Borne,Borne,Overijssel,VBO,6.776758,52.297199
Lover,123,,,7623PM,Borne,Borne,Overijssel,VBO,6.776671,52.297224
Lover,125,,,7623PM,Borne,Borne,Overijssel,VBO,6.776516,52.297279
Lover,127,,,7623PM,Borne,Borne,Overijssel,VBO,6.776438,52.297302
Lover,129,,,7623PM,Borne,Borne,Overijssel,VBO,6.776267,52.297350
Lover,131,,,7623PM,Borne,Borne,Overijssel,VBO,6.776192,52.297374
Lover,133,,,7623PM,Borne,Borne,Overijssel,VBO,6.776039,52.297428
Lover,135,,,7623PM,Borne,Borne,Overijssel,VBO,6.775958,52.297441
Lover,137,,,7623PM,Borne,Borne,Overijssel,VBO,6.775881,52.297455
Lover,139,,,7623PM,Borne,Borne,Overijssel,VBO,6.775804,52.297472
Lover,141,,,7623PM,Borne,Borne,Overijssel,VBO,6.775735,52.297490
Lover,143,,,7623PM,Borne,Borne,Overijssel,VBO,6.775660,52.297507
Lover,145,,,7623PM,Borne,Borne,Overijssel,VBO,6.775581,52.297527
Lover,147,a,,7623PM,Borne,Borne,Overijssel,VBO,6.775314,52.297588
Lover,147,,,7623PM,Borne,Borne,Overijssel,VBO,6.775401,52.297573
Lover,149,a,,7623PM,Borne,Borne,Overijssel,VBO,6.775060,52.297629
Lover,149,,,7623PM,Borne,Borne,Overijssel,VBO,6.775148,52.297608
Lover,151,,,7623PM,Borne,Borne,Overijssel,VBO,6.774604,52.297690
Lover,153,,,7623PM,Borne,Borne,Overijssel,VBO,6.774501,52.297699
Lover,155,,,7623PM,Borne,Borne,Overijssel,VBO,6.774388,52.297735
Lover,157,,,7623PM,Borne,Borne,Overijssel,VBO,6.774231,52.297757
Lover,159,,,7623PM,Borne,Borne,Overijssel,VBO,6.774137,52.297769
Lover,161,,,7623PM,Borne,Borne,Overijssel,VBO,6.773954,52.297769
Lover,163,,,7623PM,Borne,Borne,Overijssel,VBO,6.773803,52.297788
Lover,165,,,7623PM,Borne,Borne,Overijssel,VBO,6.773715,52.297853
Lover,167,,,7623PM,Borne,Borne,Overijssel,VBO,6.773584,52.297855
Lover,169,,,7623PM,Borne,Borne,Overijssel,VBO,6.773499,52.297861
Lover,171,,,7623PM,Borne,Borne,Overijssel,VBO,6.773417,52.297868
Lover,173,,,7623PM,Borne,Borne,Overijssel,VBO,6.773334,52.297876
Lover,175,,,7623PM,Borne,Borne,Overijssel,VBO,6.773252,52.297885
Lover,177,,,7623PM,Borne,Borne,Overijssel,VBO,6.773165,52.297890
Lover,181,,,7623PM,Borne,Borne,Overijssel,VBO,6.773142,52.297681
Lover,183,,,7623PM,Borne,Borne,Overijssel,VBO,6.773118,52.297631
Lover,185,,,7623PM,Borne,Borne,Overijssel,VBO,6.773103,52.297580
Lover,187,,,7623PM,Borne,Borne,Overijssel,VBO,6.773088,52.297529
Lover,189,,,7623PM,Borne,Borne,Overijssel,VBO,6.773079,52.297475
Lover,191,,,7623PM,Borne,Borne,Overijssel,VBO,6.773051,52.297373
Lover,193,,,7623PM,Borne,Borne,Overijssel,VBO,6.773032,52.297310
Rozenhof,2,,,7623PN,Borne,Borne,Overijssel,VBO,6.775001,52.296483
Rozenhof,4,,,7623PN,Borne,Borne,Overijssel,VBO,6.775074,52.296459
Rozenhof,6,,,7623PN,Borne,Borne,Overijssel,VBO,6.775132,52.296406
Rozenhof,8,,,7623PN,Borne,Borne,Overijssel,VBO,6.775217,52.296384
Rozenhof,10,,,7623PN,Borne,Borne,Overijssel,VBO,6.775425,52.296337
Rozenhof,12,,,7623PN,Borne,Borne,Overijssel,VBO,6.775494,52.296309
Rozenhof,14,,,7623PN,Borne,Borne,Overijssel,VBO,6.775553,52.296266
Rozenhof,16,,,7623PN,Borne,Borne,Overijssel,VBO,6.775650,52.296256
Rozenhof,18,,,7623PN,Borne,Borne,Overijssel,VBO,6.775729,52.296265
Rozenhof,20,,,7623PN,Borne,Borne,Overijssel,VBO,6.775808,52.296295
Rozenhof,22,,,7623PN,Borne,Borne,Overijssel,VBO,6.775846,52.296348
Rozenhof,24,,,7623PN,Borne,Borne,Overijssel,VBO,6.775894,52.296389
Rozenhof,26,,,7623PN,Borne,Borne,Overijssel,VBO,6.775946,52.296432
Rozenhof,28,,,7623PN,Borne,Borne,Overijssel,VBO,6.775994,52.296480
Rozenhof,30,,,7623PN,Borne,Borne,Overijssel,VBO,6.776067,52.296526
Rozenhof,32,,,7623PN,Borne,Borne,Overijssel,VBO,6.776137,52.296588
Rozenhof,34,,,7623PN,Borne,Borne,Overijssel,VBO,6.776184,52.296652
Rozenhof,36,,,7623PN,Borne,Borne,Overijssel,VBO,6.776239,52.296699
Rozenhof,38,,,7623PN,Borne,Borne,Overijssel,VBO,6.776280,52.296746
Rozenhof,40,,,7623PN,Borne,Borne,Overijssel,VBO,6.776333,52.296784
Rozenhof,42,,,7623PN,Borne,Borne,Overijssel,VBO,6.776397,52.296826
Rozenhof,44,,,7623PN,Borne,Borne,Overijssel,VBO,6.776416,52.296884
Rozenhof,46,,,7623PN,Borne,Borne,Overijssel,VBO,6.776396,52.296944
Rozenhof,48,,,7623PN,Borne,Borne,Overijssel,VBO,6.776332,52.296991
Rozenhof,50,,,7623PN,Borne,Borne,Overijssel,VBO,6.776245,52.297005
Rozenhof,52,,,7623PN,Borne,Borne,Overijssel,VBO,6.776176,52.297034
Rozenhof,54,,,7623PN,Borne,Borne,Overijssel,VBO,6.776099,52.297056
Rozenhof,56,,,7623PN,Borne,Borne,Overijssel,VBO,6.776019,52.297079
Rozenhof,58,,,7623PN,Borne,Borne,Overijssel,VBO,6.775958,52.297111
Rozenhof,60,,,7623PN,Borne,Borne,Overijssel,VBO,6.775746,52.297165
Rozenhof,62,,,7623PN,Borne,Borne,Overijssel,VBO,6.775661,52.297186
Rozenhof,64,,,7623PN,Borne,Borne,Overijssel,VBO,6.775509,52.297229
Rozenhof,66,,,7623PN,Borne,Borne,Overijssel,VBO,6.775417,52.297249
Rozenhof,68,,,7623PN,Borne,Borne,Overijssel,VBO,6.775260,52.297307
Rozenhof,70,,,7623PP,Borne,Borne,Overijssel,VBO,6.775171,52.297327
Rozenhof,72,,,7623PP,Borne,Borne,Overijssel,VBO,6.775079,52.297347
Rozenhof,74,,,7623PP,Borne,Borne,Overijssel,VBO,6.774976,52.297365
Rozenhof,76,,,7623PP,Borne,Borne,Overijssel,VBO,6.774896,52.297379
Rozenhof,78,,,7623PP,Borne,Borne,Overijssel,VBO,6.774493,52.297452
Rozenhof,80,,,7623PP,Borne,Borne,Overijssel,VBO,6.774402,52.297466
Rozenhof,82,,,7623PP,Borne,Borne,Overijssel,VBO,6.774302,52.297479
Rozenhof,84,,,7623PP,Borne,Borne,Overijssel,VBO,6.774202,52.297491
Rozenhof,86,,,7623PP,Borne,Borne,Overijssel,VBO,6.774021,52.297503
Rozenhof,88,,,7623PP,Borne,Borne,Overijssel,VBO,6.773936,52.297510
Rozenhof,90,,,7623PP,Borne,Borne,Overijssel,VBO,6.773851,52.297522
Rozenhof,92,,,7623PP,Borne,Borne,Overijssel,VBO,6.773773,52.297550
Rozenhof,94,,,7623PP,Borne,Borne,Overijssel,VBO,6.773687,52.297517
Rozenhof,96,,,7623PP,Borne,Borne,Overijssel,VBO,6.773599,52.297504
Rozenhof,98,,,7623PP,Borne,Borne,Overijssel,VBO,6.773543,52.297457
Rozenhof,100,,,7623PP,Borne,Borne,Overijssel,VBO,6.773545,52.297404
Rozenhof,102,,,7623PP,Borne,Borne,Overijssel,VBO,6.773536,52.297349
Rozenhof,104,,,7623PP,Borne,Borne,Overijssel,VBO,6.773524,52.297300
Rozenhof,106,,,7623PP,Borne,Borne,Overijssel,VBO,6.773478,52.297238
Rozenhof,108,,,7623PP,Borne,Borne,Overijssel,VBO,6.773457,52.297157
Rozenhof,110,,,7623PP,Borne,Borne,Overijssel,VBO,6.773440,52.297098
Rozenhof,112,,,7623PP,Borne,Borne,Overijssel,VBO,6.773423,52.297047
Rozenhof,114,,,7623PP,Borne,Borne,Overijssel,VBO,6.773404,52.296998
Rozenhof,116,,,7623PP,Borne,Borne,Overijssel,VBO,6.773367,52.296948
Rozenhof,118,,,7623PP,Borne,Borne,Overijssel,VBO,6.773371,52.296894
Rozenhof,120,,,7623PP,Borne,Borne,Overijssel,VBO,6.773422,52.296846
Rozenhof,122,,,7623PP,Borne,Borne,Overijssel,VBO,6.773497,52.296809
Rozenhof,124,,,7623PP,Borne,Borne,Overijssel,VBO,6.773590,52.296809
Rozenhof,126,,,7623PP,Borne,Borne,Overijssel,VBO,6.773666,52.296773
Rozenhof,128,,,7623PP,Borne,Borne,Overijssel,VBO,6.773853,52.296749
Rozenhof,130,,,7623PP,Borne,Borne,Overijssel,VBO,6.773938,52.296732
Rozenhof,132,,,7623PP,Borne,Borne,Overijssel,VBO,6.774116,52.296696
Rozenhof,134,,,7623PP,Borne,Borne,Overijssel,VBO,6.774193,52.296680
Rozenhof,136,,,7623PP,Borne,Borne,Overijssel,VBO,6.774375,52.296614
Rozenhof,138,,,7623PP,Borne,Borne,Overijssel,VBO,6.774454,52.296594
Rozenhof,140,,,7623PP,Borne,Borne,Overijssel,VBO,6.774535,52.296571
Rozenhof,142,,,7623PP,Borne,Borne,Overijssel,VBO,6.774618,52.296553
