openbareruimtenaam,huisnummer,huisletter,huisnummertoevoeging,postcode,woonplaatsnaam,gemeentenaam,provincienaam,typeadresseerbaarobject,longitude,latitude
Breesegge,1,,,7627LA,Bornerbroek,Almelo,Overijssel,VBO,6.626997,52.324107
Breesegge,3,,,7627LA,Bornerbroek,Almelo,Overijssel,VBO,6.626573,52.325188
Breesegge,4,,,7627LA,Bornerbroek,Almelo,Overijssel,VBO,6.619152,52.326327
Breesegge,7,,,7627LA,Bornerbroek,Almelo,Overijssel,VBO,6.627451,52.325098
Breesegge,9,,,7627LA,Bornerbroek,Almelo,Overijssel,VBO,6.619198,52.324807
Broekerveld,1,a,,7627LB,Bornerbroek,Almelo,Overijssel,VBO,6.621061,52.322163
Broekerveld,1,,,7627LB,Bornerbroek,Almelo,Overijssel,VBO,6.621148,52.322126
Zomerdijk,1,,,7627LC,Bornerbroek,Almelo,Overijssel,VBO,6.616824,52.320131
Zomerdijk,2,a,,7627LC,Bornerbroek,Almelo,Overijssel,VBO,6.625173,52.315486
Zomerdijk,2,,,7627LC,Bornerbroek,Almelo,Overijssel,VBO,6.625174,52.315531
Zomerdijk,4,a,,7627LC,Bornerbroek,Almelo,Overijssel,VBO,6.615174,52.322196
Zomerdijk,4,,,7627LC,Bornerbroek,Almelo,Overijssel,VBO,6.615268,52.322196
Hoeselderzijweg,1,,,7627LD,Bornerbroek,Almelo,Overijssel,VBO,6.618153,52.315173
Keursweg,1,,,7627LE,Bornerbroek,Almelo,Overijssel,VBO,6.609353,52.314087
Keursweg,2,a,,7627LE,Bornerbroek,Almelo,Overijssel,VBO,6.615612,52.314689
Keursweg,2,b,,7627LE,Bornerbroek,Almelo,Overijssel,VBO,6.613352,52.314432
Keursweg,2,c,,7627LE,Bornerbroek,Almelo,Overijssel,VBO,6.615630,52.314775
Keursweg,2,,,7627LE,Bornerbroek,Almelo,Overijssel,VBO,6.628118,52.313793
Keursweg,3,,,7627LE,Bornerbroek,Almelo,Overijssel,VBO,6.607552,52.313665
Keursweg,4,,,7627LE,Bornerbroek,Almelo,Overijssel,VBO,6.612924,52.314356
Keursweg,6,,,7627LE,Bornerbroek,Almelo,Overijssel,VBO,6.612094,52.316692
Keursweg,8,,,7627LE,Bornerbroek,Almelo,Overijssel,VBO,6.607888,52.314156
De Korenkamp,1,,,7627LG,Bornerbroek,Almelo,Overijssel,VBO,6.652990,52.309637
De Korenkamp,2,,,7627LG,Bornerbroek,Almelo,Overijssel,VBO,6.653360,52.309759
De Korenkamp,3,,,7627LG,Bornerbroek,Almelo,Overijssel,VBO,6.652833,52.309791
De Korenkamp,4,,,7627LG,Bornerbroek,Almelo,Overijssel,VBO,6.653204,52.309931
De Korenkamp,5,,,7627LG,Bornerbroek,Almelo,Overijssel,VBO,6.652662,52.309946
De Korenkamp,6,,,7627LG,Bornerbroek,Almelo,Overijssel,VBO,6.653075,52.310040
De Korenkamp,7,,,7627LG,Bornerbroek,Almelo,Overijssel,VBO,6.652473,52.310002
De Korenkamp,8,,,7627LG,Bornerbroek,Almelo,Overijssel,VBO,6.653166,52.310138
De Korenkamp,10,,,7627LG,Bornerbroek,Almelo,Overijssel,VBO,6.653257,52.310236
De Korenkamp,11,,,7627LG,Bornerbroek,Almelo,Overijssel,VBO,6.652744,52.310251
De Korenkamp,12,,,7627LG,Bornerbroek,Almelo,Overijssel,VBO,6.653318,52.310343
De Korenkamp,13,,,7627LG,Bornerbroek,Almelo,Overijssel,VBO,6.652849,52.310331
De Korenkamp,15,,,7627LG,Bornerbroek,Almelo,Overijssel,VBO,6.652898,52.310501
De Korenkamp,16,,,7627LG,Bornerbroek,Almelo,Overijssel,VBO,6.654149,52.310676
De Korenkamp,17,,,7627LG,Bornerbroek,Almelo,Overijssel,VBO,6.653061,52.310580
De Korenkamp,18,,,7627LG,Bornerbroek,Almelo,Overijssel,VBO,6.654253,52.310711
De Korenkamp,19,,,7627LG,Bornerbroek,Almelo,Overijssel,VBO,6.653212,52.310740
De Korenkamp,21,,,7627LG,Bornerbroek,Almelo,Overijssel,VBO,6.653462,52.310764
De Korenkamp,23,,,7627LG,Bornerbroek,Almelo,Overijssel,VBO,6.653640,52.310816
De Korenkamp,25,,,7627LG,Bornerbroek,Almelo,Overijssel,VBO,6.653832,52.310868
De Korenkamp,27,,,7627LG,Bornerbroek,Almelo,Overijssel,VBO,6.654025,52.310938
Kanaalweg,2,,,7627LH,Bornerbroek,Almelo,Overijssel,VBO,6.630695,52.312615
Kanaalweg,3,,,7627LH,Bornerbroek,Almelo,Overijssel,VBO,6.630120,52.303606
Kanaalweg,4,,,7627LH,Bornerbroek,Almelo,Overijssel,VBO,6.630495,52.312806
Kanaalweg,5,,,7627LH,Bornerbroek,Almelo,Overijssel,VBO,6.630354,52.304106
Kanaalweg,7,,,7627LH,Bornerbroek,Almelo,Overijssel,VBO,6.633595,52.306221
Kanaalweg,9,,,7627LH,Bornerbroek,Almelo,Overijssel,VBO,6.631363,52.310792
Kanaalweg,11,,,7627LH,Bornerbroek,Almelo,Overijssel,VBO,6.631502,52.311069
Worker Landen,10,a,,7627LJ,Bornerbroek,Almelo,Overijssel,VBO,6.654484,52.308791
Worker Landen,10,b,,7627LJ,Bornerbroek,Almelo,Overijssel,VBO,6.654551,52.308814
Worker Landen,10,c,,7627LJ,Bornerbroek,Almelo,Overijssel,VBO,6.654587,52.308876
Worker Landen,10,d,,7627LJ,Bornerbroek,Almelo,Overijssel,VBO,6.654584,52.308925
Worker Landen,10,,,7627LJ,Bornerbroek,Almelo,Overijssel,VBO,6.654563,52.308751
Worker Landen,11,,,7627LJ,Bornerbroek,Almelo,Overijssel,VBO,6.653511,52.308792
Worker Landen,12,,,7627LJ,Bornerbroek,Almelo,Overijssel,VBO,6.654331,52.308841
Worker Landen,14,,,7627LJ,Bornerbroek,Almelo,Overijssel,VBO,6.654230,52.308878
Worker Landen,15,,,7627LJ,Bornerbroek,Almelo,Overijssel,VBO,6.652704,52.309075
Worker Landen,16,a,,7627LJ,Bornerbroek,Almelo,Overijssel,VBO,6.653763,52.308972
Worker Landen,16,b,,7627LJ,Bornerbroek,Almelo,Overijssel,VBO,6.653502,52.309065
Worker Landen,16,c,,7627LJ,Bornerbroek,Almelo,Overijssel,VBO,6.653314,52.309148
Worker Landen,16,,,7627LJ,Bornerbroek,Almelo,Overijssel,VBO,6.654040,52.308907
Worker Landen,17,,,7627LJ,Bornerbroek,Almelo,Overijssel,VBO,6.652398,52.309169
Worker Landen,18,,,7627LJ,Bornerbroek,Almelo,Overijssel,VBO,6.648318,52.310864
Worker Landen,19,,,7627LJ,Bornerbroek,Almelo,Overijssel,VBO,6.651460,52.309357
Worker Landen,20,,,7627LJ,Bornerbroek,Almelo,Overijssel,VBO,6.637487,52.315267
Worker Landen,21,,,7627LJ,Bornerbroek,Almelo,Overijssel,VBO,6.651381,52.309392
Worker Landen,23,,,7627LJ,Bornerbroek,Almelo,Overijssel,VBO,6.649495,52.309980
Worker Landen,25,,,7627LJ,Bornerbroek,Almelo,Overijssel,VBO,6.648758,52.310168
Worker Landen,27,,,7627LJ,Bornerbroek,Almelo,Overijssel,VBO,6.648024,52.310505
Worker Landen,35,,,7627LJ,Bornerbroek,Almelo,Overijssel,VBO,6.642072,52.312880
Boerenbondsweg,1,,,7627LK,Bornerbroek,Almelo,Overijssel,VBO,6.652965,52.309251
Boerenbondsweg,2,,,7627LK,Bornerbroek,Almelo,Overijssel,VBO,6.653389,52.309228
Boerenbondsweg,3,,,7627LK,Bornerbroek,Almelo,Overijssel,VBO,6.652998,52.309376
Boerenbondsweg,4,,,7627LK,Bornerbroek,Almelo,Overijssel,VBO,6.653466,52.309353
Boerenbondsweg,5,,,7627LK,Bornerbroek,Almelo,Overijssel,VBO,6.653014,52.309439
Boerenbondsweg,6,,,7627LK,Bornerbroek,Almelo,Overijssel,VBO,6.653497,52.309416
Boerenbondsweg,8,,,7627LK,Bornerbroek,Almelo,Overijssel,VBO,6.653619,52.309585
Boerenbondsweg,10,,,7627LK,Bornerbroek,Almelo,Overijssel,VBO,6.653651,52.309666
Boerenbondsweg,12,,,7627LK,Bornerbroek,Almelo,Overijssel,VBO,6.653757,52.309764
Boerenbondsweg,14,,,7627LK,Bornerbroek,Almelo,Overijssel,VBO,6.653787,52.309808
Meijerskamp,1,,,7627LL,Bornerbroek,Almelo,Overijssel,VBO,6.654302,52.309848
Meijerskamp,2,,,7627LL,Bornerbroek,Almelo,Overijssel,VBO,6.653993,52.310336
Meijerskamp,3,,,7627LL,Bornerbroek,Almelo,Overijssel,VBO,6.654184,52.309849
Meijerskamp,4,,,7627LL,Bornerbroek,Almelo,Overijssel,VBO,6.653995,52.310408
Meijerskamp,5,,,7627LL,Bornerbroek,Almelo,Overijssel,VBO,6.653908,52.309924
Meijerskamp,6,,,7627LL,Bornerbroek,Almelo,Overijssel,VBO,6.653909,52.310490
Meijerskamp,7,,,7627LL,Bornerbroek,Almelo,Overijssel,VBO,6.653752,52.310114
Meijerskamp,8,,,7627LL,Bornerbroek,Almelo,Overijssel,VBO,6.653781,52.310608
Meijerskamp,9,,,7627LL,Bornerbroek,Almelo,Overijssel,VBO,6.653652,52.310214
Meijerskamp,11,,,7627LL,Bornerbroek,Almelo,Overijssel,VBO,6.653568,52.310341
Rammelhuiskamp,1,,,7627LM,Bornerbroek,Almelo,Overijssel,VBO,6.654546,52.309162
Rammelhuiskamp,2,,,7627LM,Bornerbroek,Almelo,Overijssel,VBO,6.654881,52.309086
Rammelhuiskamp,3,,,7627LM,Bornerbroek,Almelo,Overijssel,VBO,6.654547,52.309216
Rammelhuiskamp,4,,,7627LM,Bornerbroek,Almelo,Overijssel,VBO,6.654883,52.309149
Rammelhuiskamp,5,,,7627LM,Bornerbroek,Almelo,Overijssel,VBO,6.654564,52.309269
Rammelhuiskamp,6,,,7627LM,Bornerbroek,Almelo,Overijssel,VBO,6.654974,52.309265
Rammelhuiskamp,7,,,7627LM,Bornerbroek,Almelo,Overijssel,VBO,6.654569,52.309467
Rammelhuiskamp,8,a,,7627LM,Bornerbroek,Almelo,Overijssel,VBO,6.655243,52.309424
Rammelhuiskamp,8,,,7627LM,Bornerbroek,Almelo,Overijssel,VBO,6.654976,52.309337
Rammelhuiskamp,9,,,7627LM,Bornerbroek,Almelo,Overijssel,VBO,6.654542,52.309530
Rammelhuiskamp,10,,,7627LM,Bornerbroek,Almelo,Overijssel,VBO,6.654995,52.309481
Rammelhuiskamp,11,,,7627LM,Bornerbroek,Almelo,Overijssel,VBO,6.654559,52.309629
Rammelhuiskamp,12,,,7627LM,Bornerbroek,Almelo,Overijssel,VBO,6.654982,52.309526
Rammelhuiskamp,13,,,7627LM,Bornerbroek,Almelo,Overijssel,VBO,6.654547,52.309701
Rammelhuiskamp,14,,,7627LM,Bornerbroek,Almelo,Overijssel,VBO,6.654969,52.309580
Rammelhuiskamp,15,,,7627LM,Bornerbroek,Almelo,Overijssel,VBO,6.654536,52.309836
Rammelhuiskamp,16,a,,7627LM,Bornerbroek,Almelo,Overijssel,VBO,6.654989,52.309768
Rammelhuiskamp,16,,,7627LM,Bornerbroek,Almelo,Overijssel,VBO,6.654970,52.309643
Rammelhuiskamp,17,,,7627LM,Bornerbroek,Almelo,Overijssel,VBO,6.654408,52.310485
Rammelhuiskamp,19,,,7627LM,Bornerbroek,Almelo,Overijssel,VBO,6.654365,52.310530
Rammelhuiskamp,22,,,7627LM,Bornerbroek,Almelo,Overijssel,VBO,6.654992,52.309876
Rammelhuiskamp,24,,,7627LM,Bornerbroek,Almelo,Overijssel,VBO,6.654966,52.310011
Rammelhuiskamp,26,a,,7627LM,Bornerbroek,Almelo,Overijssel,VBO,6.654886,52.310282
Rammelhuiskamp,26,b,,7627LM,Bornerbroek,Almelo,Overijssel,VBO,6.654883,52.310192
Rammelhuiskamp,26,,,7627LM,Bornerbroek,Almelo,Overijssel,VBO,6.654968,52.310074
Rammelhuiskamp,28,,1,7627LM,Bornerbroek,Almelo,Overijssel,VBO,6.654733,52.310562
Rammelhuiskamp,28,,10,7627LM,Bornerbroek,Almelo,Overijssel,VBO,6.655025,52.310532
Rammelhuiskamp,28,,2,7627LM,Bornerbroek,Almelo,Overijssel,VBO,6.654761,52.310526
Rammelhuiskamp,28,,3,7627LM,Bornerbroek,Almelo,Overijssel,VBO,6.654789,52.310481
Rammelhuiskamp,28,,4,7627LM,Bornerbroek,Almelo,Overijssel,VBO,6.654817,52.310453
Rammelhuiskamp,28,,5,7627LM,Bornerbroek,Almelo,Overijssel,VBO,6.654911,52.310659
Rammelhuiskamp,28,,6,7627LM,Bornerbroek,Almelo,Overijssel,VBO,6.654925,52.310641
Rammelhuiskamp,28,,7,7627LM,Bornerbroek,Almelo,Overijssel,VBO,6.654968,52.310595
Rammelhuiskamp,28,,8,7627LM,Bornerbroek,Almelo,Overijssel,VBO,6.654983,52.310586
Rammelhuiskamp,28,,9,7627LM,Bornerbroek,Almelo,Overijssel,VBO,6.654996,52.310559
Rammelhuiskamp,30,,,7627LM,Bornerbroek,Almelo,Overijssel,VBO,6.654591,52.310743
Rammelhuiskamp,32,,,7627LM,Bornerbroek,Almelo,Overijssel,VBO,6.654463,52.310880
Rammelhuiskamp,34,,,7627LM,Bornerbroek,Almelo,Overijssel,VBO,6.654420,52.310925
Rammelhuiskamp,36,,,7627LM,Bornerbroek,Almelo,Overijssel,VBO,6.654351,52.311052
Broekmolen,1,,,7627LN,Bornerbroek,Almelo,Overijssel,VBO,6.654226,52.309264
Broekmolen,2,,,7627LN,Bornerbroek,Almelo,Overijssel,VBO,6.654321,52.309506
Broekmolen,3,,,7627LN,Bornerbroek,Almelo,Overijssel,VBO,6.654139,52.309292
Broekmolen,4,,,7627LN,Bornerbroek,Almelo,Overijssel,VBO,6.654190,52.309534
Broekmolen,5,,,7627LN,Bornerbroek,Almelo,Overijssel,VBO,6.654051,52.309302
Broekmolen,6,,,7627LN,Bornerbroek,Almelo,Overijssel,VBO,6.654029,52.309554
Broekmolen,7,,,7627LN,Bornerbroek,Almelo,Overijssel,VBO,6.653876,52.309331
Broekmolen,8,,,7627LN,Bornerbroek,Almelo,Overijssel,VBO,6.653927,52.309573
Broekmolen,9,,,7627LN,Bornerbroek,Almelo,Overijssel,VBO,6.653745,52.309350
Bakkershof,2,,,7627LP,Bornerbroek,Almelo,Overijssel,VBO,6.651922,52.309181
Bakkershof,4,,,7627LP,Bornerbroek,Almelo,Overijssel,VBO,6.651730,52.309156
Bakkershof,5,,,7627LP,Bornerbroek,Almelo,Overijssel,VBO,6.651941,52.308848
Bakkershof,6,,,7627LP,Bornerbroek,Almelo,Overijssel,VBO,6.651613,52.309157
Bakkershof,7,,,7627LP,Bornerbroek,Almelo,Overijssel,VBO,6.651809,52.308841
Bakkershof,8,,,7627LP,Bornerbroek,Almelo,Overijssel,VBO,6.651319,52.309124
Bakkershof,9,,,7627LP,Bornerbroek,Almelo,Overijssel,VBO,6.651649,52.308896
Bakkershof,10,,,7627LP,Bornerbroek,Almelo,Overijssel,VBO,6.651059,52.309262
Bakkershof,11,,,7627LP,Bornerbroek,Almelo,Overijssel,VBO,6.651503,52.308898
Bakkershof,12,,,7627LP,Bornerbroek,Almelo,Overijssel,VBO,6.651153,52.309486
Bakkershof,13,,,7627LP,Bornerbroek,Almelo,Overijssel,VBO,6.651341,52.308882
Bakkershof,15,,,7627LP,Bornerbroek,Almelo,Overijssel,VBO,6.651209,52.308883
Bakkershof,17,,,7627LP,Bornerbroek,Almelo,Overijssel,VBO,6.651046,52.308831
Bakkershof,19,,,7627LP,Bornerbroek,Almelo,Overijssel,VBO,6.650929,52.308832
Bakkershof,21,,,7627LP,Bornerbroek,Almelo,Overijssel,VBO,6.650561,52.308773
Bakkershof,23,,,7627LP,Bornerbroek,Almelo,Overijssel,VBO,6.650534,52.308881
Bakkershof,25,,,7627LR,Bornerbroek,Almelo,Overijssel,VBO,6.650537,52.308971
Bakkershof,27,,,7627LR,Bornerbroek,Almelo,Overijssel,VBO,6.650526,52.309115
Bakkershof,29,,,7627LR,Bornerbroek,Almelo,Overijssel,VBO,6.650633,52.309240
Bakkershof,31,,,7627LR,Bornerbroek,Almelo,Overijssel,VBO,6.650634,52.309294
Bakkershof,33,,,7627LR,Bornerbroek,Almelo,Overijssel,VBO,6.650579,52.309429
Bakkershof,35,,,7627LR,Bornerbroek,Almelo,Overijssel,VBO,6.650627,52.309572
Bakkershof,37,a,,7627LR,Bornerbroek,Almelo,Overijssel,VBO,6.650720,52.309680
Bakkershof,37,,,7627LR,Bornerbroek,Almelo,Overijssel,VBO,6.650713,52.309618
Molenveld,1,,,7627LR,Bornerbroek,Almelo,Overijssel,VBO,6.652152,52.309538
Molenveld,2,,,7627LR,Bornerbroek,Almelo,Overijssel,VBO,6.652603,52.309407
Molenveld,3,,,7627LR,Bornerbroek,Almelo,Overijssel,VBO,6.652286,52.309626
Molenveld,4,,,7627LR,Bornerbroek,Almelo,Overijssel,VBO,6.652723,52.309514
Molenveld,5,,,7627LR,Bornerbroek,Almelo,Overijssel,VBO,6.652377,52.309724
Entersestraat,5,,,7627LS,Bornerbroek,Almelo,Overijssel,VBO,6.653807,52.308433
Entersestraat,7,,,7627LS,Bornerbroek,Almelo,Overijssel,VBO,6.653631,52.308435
Entersestraat,9,,,7627LS,Bornerbroek,Almelo,Overijssel,VBO,6.653380,52.308383
Entersestraat,11,b,,7627LS,Bornerbroek,Almelo,Overijssel,VBO,6.653204,52.308385
Entersestraat,11,c,,7627LS,Bornerbroek,Almelo,Overijssel,VBO,6.653028,52.308387
Entersestraat,11,,,7627LS,Bornerbroek,Almelo,Overijssel,VBO,6.653234,52.308394
Entersestraat,13,,,7627LS,Bornerbroek,Almelo,Overijssel,VBO,6.652795,52.308426
Entersestraat,15,a,,7627LS,Bornerbroek,Almelo,Overijssel,VBO,6.652662,52.308391
Entersestraat,15,,,7627LS,Bornerbroek,Almelo,Overijssel,VBO,6.652605,52.308464
Entersestraat,17,,,7627LS,Bornerbroek,Almelo,Overijssel,VBO,6.652311,52.308440
Entersestraat,19,,,7627LS,Bornerbroek,Almelo,Overijssel,VBO,6.652223,52.308441
Entersestraat,21,,,7627LS,Bornerbroek,Almelo,Overijssel,VBO,6.652046,52.308407
Entersestraat,23,,,7627LS,Bornerbroek,Almelo,Overijssel,VBO,6.651943,52.308399
Entersestraat,25,,,7627LS,Bornerbroek,Almelo,Overijssel,VBO,6.651768,52.308419
Entersestraat,27,,,7627LT,Bornerbroek,Almelo,Overijssel,VBO,6.651460,52.308413
Entersestraat,29,,,7627LT,Bornerbroek,Almelo,Overijssel,VBO,6.651357,52.308414
Entersestraat,31,,,7627LT,Bornerbroek,Almelo,Overijssel,VBO,6.651152,52.308425
Entersestraat,33,,,7627LT,Bornerbroek,Almelo,Overijssel,VBO,6.651035,52.308426
Entersestraat,35,,,7627LT,Bornerbroek,Almelo,Overijssel,VBO,6.650947,52.308418
Entersestraat,37,,,7627LT,Bornerbroek,Almelo,Overijssel,VBO,6.650844,52.308419
Entersestraat,43,,,7627LT,Bornerbroek,Almelo,Overijssel,VBO,6.650447,52.308388
Entersestraat,45,a,,7627LT,Bornerbroek,Almelo,Overijssel,VBO,6.649890,52.308385
Entersestraat,45,b,,7627LT,Bornerbroek,Almelo,Overijssel,VBO,6.649833,52.308439
Entersestraat,45,,,7627LT,Bornerbroek,Almelo,Overijssel,VBO,6.649995,52.308438
Entersestraat,47,,,7627LT,Bornerbroek,Almelo,Overijssel,VBO,6.644815,52.308367
Entersestraat,2,a,,7627LV,Bornerbroek,Almelo,Overijssel,VBO,6.652776,52.308803
Entersestraat,2,c,traf,7627LV,Bornerbroek,Almelo,Overijssel,VBO,6.652296,52.308943
Entersestraat,2,,,7627LV,Bornerbroek,Almelo,Overijssel,VBO,6.653405,52.308734
Entersestraat,4,a,,7627LV,Bornerbroek,Almelo,Overijssel,VBO,6.647452,52.308761
Entersestraat,4,,,7627LV,Bornerbroek,Almelo,Overijssel,VBO,6.652381,52.308843
Entersestraat,6,a,,7627LV,Bornerbroek,Almelo,Overijssel,VBO,6.639230,52.310304
Entersestraat,6,,,7627LV,Bornerbroek,Almelo,Overijssel,VBO,6.639109,52.310406
Entersestraat,8,a,,7627LV,Bornerbroek,Almelo,Overijssel,VBO,6.626233,52.311448
Entersestraat,8,,,7627LV,Bornerbroek,Almelo,Overijssel,VBO,6.636359,52.310110
Entersestraat,10,a,,7627LV,Bornerbroek,Almelo,Overijssel,VBO,6.621481,52.309844
Entersestraat,10,b,,7627LV,Bornerbroek,Almelo,Overijssel,VBO,6.625730,52.311572
Entersestraat,10,,,7627LV,Bornerbroek,Almelo,Overijssel,VBO,6.625682,52.311721
Entersestraat,12,,,7627LV,Bornerbroek,Almelo,Overijssel,VBO,6.617687,52.308922
Entersestraat,49,,,7627LV,Bornerbroek,Almelo,Overijssel,VBO,6.638074,52.308528
Entersestraat,51,a,,7627LV,Bornerbroek,Almelo,Overijssel,VBO,6.628411,52.308037
Entersestraat,51,,,7627LV,Bornerbroek,Almelo,Overijssel,VBO,6.628137,52.307141
Entersestraat,53,a,,7627LV,Bornerbroek,Almelo,Overijssel,VBO,6.628536,52.309196
Entersestraat,53,,,7627LV,Bornerbroek,Almelo,Overijssel,VBO,6.628671,52.309183
Entersestraat,55,a,,7627LV,Bornerbroek,Almelo,Overijssel,VBO,6.616565,52.308143
Entersestraat,55,,,7627LV,Bornerbroek,Almelo,Overijssel,VBO,6.617152,52.308146
Velnerweg,1,,,7627LW,Bornerbroek,Almelo,Overijssel,VBO,6.619124,52.306291
Velnerweg,2,,,7627LW,Bornerbroek,Almelo,Overijssel,VBO,6.620719,52.308792
Velnerweg,3,,,7627LW,Bornerbroek,Almelo,Overijssel,VBO,6.618798,52.306169
Schipdamsweg,2,,,7627LX,Bornerbroek,Almelo,Overijssel,VBO,6.620589,52.307301
Schipdamsweg,4,,,7627LX,Bornerbroek,Almelo,Overijssel,VBO,6.620864,52.307010
Brooksplein,1,,,7627LZ,Bornerbroek,Almelo,Overijssel,VBO,6.655194,52.310296
Brooksplein,2,,,7627LZ,Bornerbroek,Almelo,Overijssel,VBO,6.655121,52.310828
De Mors,2,,,7627MA,Bornerbroek,Almelo,Overijssel,VBO,6.656927,52.311401
De Mors,4,,,7627MA,Bornerbroek,Almelo,Overijssel,VBO,6.656719,52.311323
De Mors,6,,,7627MA,Bornerbroek,Almelo,Overijssel,VBO,6.656674,52.311287
De Mors,8,,,7627MA,Bornerbroek,Almelo,Overijssel,VBO,6.656644,52.311261
De Mors,10,,,7627MA,Bornerbroek,Almelo,Overijssel,VBO,6.656570,52.311225
De Mors,12,,,7627MA,Bornerbroek,Almelo,Overijssel,VBO,6.656610,52.311072
De Mors,14,,,7627MA,Bornerbroek,Almelo,Overijssel,VBO,6.656608,52.311027
De Mors,16,,,7627MA,Bornerbroek,Almelo,Overijssel,VBO,6.656680,52.310955
De Mors,18,,,7627MA,Bornerbroek,Almelo,Overijssel,VBO,6.656678,52.310901
De Mors,20,,,7627MA,Bornerbroek,Almelo,Overijssel,VBO,6.656628,52.310686
De Mors,22,,,7627MA,Bornerbroek,Almelo,Overijssel,VBO,6.656948,52.310583
De Mors,24,,,7627MA,Bornerbroek,Almelo,Overijssel,VBO,6.657035,52.310546
De Mors,26,,,7627MA,Bornerbroek,Almelo,Overijssel,VBO,6.657135,52.310455
De Mors,30,,,7627MA,Bornerbroek,Almelo,Overijssel,VBO,6.658260,52.310830
De Mors,32,,,7627MB,Bornerbroek,Almelo,Overijssel,VBO,6.658277,52.310910
De Mors,34,,,7627MB,Bornerbroek,Almelo,Overijssel,VBO,6.658099,52.311344
De Mors,36,,,7627MB,Bornerbroek,Almelo,Overijssel,VBO,6.658071,52.311407
De Mors,38,,,7627MB,Bornerbroek,Almelo,Overijssel,VBO,6.658030,52.311497
De Mors,40,,,7627MB,Bornerbroek,Almelo,Overijssel,VBO,6.657988,52.311570
De Mors,42,,,7627MB,Bornerbroek,Almelo,Overijssel,VBO,6.657947,52.311696
De Mors,44,,,7627MB,Bornerbroek,Almelo,Overijssel,VBO,6.657863,52.311832
De Mors,46,,,7627MB,Bornerbroek,Almelo,Overijssel,VBO,6.657496,52.311800
De Mors,48,,,7627MB,Bornerbroek,Almelo,Overijssel,VBO,6.657592,52.311574
De Mors,52,,,7627MB,Bornerbroek,Almelo,Overijssel,VBO,6.657325,52.311478
De Mors,54,,,7627MB,Bornerbroek,Almelo,Overijssel,VBO,6.657282,52.311523
De Mors,56,,,7627MB,Bornerbroek,Almelo,Overijssel,VBO,6.657240,52.311569
De Mors,58,,,7627MB,Bornerbroek,Almelo,Overijssel,VBO,6.657197,52.311596
De Mors,60,,,7627MB,Bornerbroek,Almelo,Overijssel,VBO,6.657099,52.311768
De Mors,1,,,7627MC,Bornerbroek,Almelo,Overijssel,VBO,6.657671,52.311259
De Mors,3,,,7627MC,Bornerbroek,Almelo,Overijssel,VBO,6.657436,52.311243
De Mors,5,,,7627MC,Bornerbroek,Almelo,Overijssel,VBO,6.657347,52.311226
De Mors,7,,,7627MC,Bornerbroek,Almelo,Overijssel,VBO,6.657110,52.311139
De Mors,9,,,7627MC,Bornerbroek,Almelo,Overijssel,VBO,6.657035,52.311086
De Mors,11,,,7627MC,Bornerbroek,Almelo,Overijssel,VBO,6.657347,52.310696
De Mors,13,,,7627MC,Bornerbroek,Almelo,Overijssel,VBO,6.657406,52.310722
De Mors,15,,,7627MC,Bornerbroek,Almelo,Overijssel,VBO,6.657509,52.310739
De Mors,17,,,7627MC,Bornerbroek,Almelo,Overijssel,VBO,6.657583,52.310756
De Mors,19,,,7627MC,Bornerbroek,Almelo,Overijssel,VBO,6.657775,52.310799
De Mors,21,,,7627MC,Bornerbroek,Almelo,Overijssel,VBO,6.657893,52.310834
Meester Hodesstraat,2,,,7627MD,Bornerbroek,Almelo,Overijssel,VBO,6.657145,52.310311
Meester Hodesstraat,4,,,7627MD,Bornerbroek,Almelo,Overijssel,VBO,6.657172,52.310239
Meester Hodesstraat,6,,,7627MD,Bornerbroek,Almelo,Overijssel,VBO,6.657126,52.310141
Meester Hodesstraat,8,,,7627MD,Bornerbroek,Almelo,Overijssel,VBO,6.657168,52.310077
Meester Hodesstraat,10,,,7627MD,Bornerbroek,Almelo,Overijssel,VBO,6.657579,52.310091
Meester Hodesstraat,12,,,7627MD,Bornerbroek,Almelo,Overijssel,VBO,6.657696,52.310099
Meester Hodesstraat,14,,,7627MD,Bornerbroek,Almelo,Overijssel,VBO,6.657915,52.310060
Meester Hodesstraat,16,,,7627MD,Bornerbroek,Almelo,Overijssel,VBO,6.658209,52.310093
Meester Hodesstraat,18,,,7627MD,Bornerbroek,Almelo,Overijssel,VBO,6.658211,52.310147
Meester Hodesstraat,20,,,7627MD,Bornerbroek,Almelo,Overijssel,VBO,6.658273,52.310263
Meester Hodesstraat,22,,,7627MD,Bornerbroek,Almelo,Overijssel,VBO,6.658290,52.310353
Meester Hodesstraat,24,,,7627MD,Bornerbroek,Almelo,Overijssel,VBO,6.658264,52.310452
Meester Hodesstraat,26,,,7627MD,Bornerbroek,Almelo,Overijssel,VBO,6.658251,52.310515
Meester Hodesstraat,28,,,7627MD,Bornerbroek,Almelo,Overijssel,VBO,6.658225,52.310623
Meester Hodesstraat,30,,,7627MD,Bornerbroek,Almelo,Overijssel,VBO,6.658168,52.310687
Meester Hodesstraat,1,,,7627ME,Bornerbroek,Almelo,Overijssel,VBO,6.657546,52.310469
Meester Hodesstraat,3,,,7627ME,Bornerbroek,Almelo,Overijssel,VBO,6.657573,52.310406
Meester Hodesstraat,5,,,7627ME,Bornerbroek,Almelo,Overijssel,VBO,6.657555,52.310289
Meester Hodesstraat,7,,,7627ME,Bornerbroek,Almelo,Overijssel,VBO,6.657864,52.310313
Meester Hodesstraat,9,,,7627ME,Bornerbroek,Almelo,Overijssel,VBO,6.657880,52.310357
Meester Hodesstraat,11,,,7627ME,Bornerbroek,Almelo,Overijssel,VBO,6.657911,52.310420
Meester Hodesstraat,13,,,7627ME,Bornerbroek,Almelo,Overijssel,VBO,6.657913,52.310483
Sniedershof,1,,,7627MG,Bornerbroek,Almelo,Overijssel,VBO,6.656134,52.307257
Sniedershof,2,,,7627MG,Bornerbroek,Almelo,Overijssel,VBO,6.656031,52.307249
Sniedershof,3,,,7627MG,Bornerbroek,Almelo,Overijssel,VBO,6.655795,52.307207
Sniedershof,4,a,,7627MG,Bornerbroek,Almelo,Overijssel,VBO,6.655760,52.306983
Sniedershof,4,,,7627MG,Bornerbroek,Almelo,Overijssel,VBO,6.655604,52.307173
Sniedershof,5,,,7627MG,Bornerbroek,Almelo,Overijssel,VBO,6.655403,52.306816
Sniedershof,6,,,7627MG,Bornerbroek,Almelo,Overijssel,VBO,6.655109,52.306783
Sniedershof,7,,,7627MG,Bornerbroek,Almelo,Overijssel,VBO,6.655202,52.306971
Sniedershof,8,,,7627MG,Bornerbroek,Almelo,Overijssel,VBO,6.655177,52.307124
Sniedershof,9,,,7627MG,Bornerbroek,Almelo,Overijssel,VBO,6.655208,52.307186
Sniedershof,10,,,7627MG,Bornerbroek,Almelo,Overijssel,VBO,6.655197,52.307312
Sniedershof,11,,,7627MG,Bornerbroek,Almelo,Overijssel,VBO,6.655261,52.307509
Sniedershof,12,,,7627MG,Bornerbroek,Almelo,Overijssel,VBO,6.655952,52.307574
Krooshoopsweg,3,a,,7627NA,Bornerbroek,Almelo,Overijssel,VBO,6.625660,52.304630
Krooshoopsweg,3,,,7627NA,Bornerbroek,Almelo,Overijssel,VBO,6.625958,52.304719
Krooshoopsweg,4,,,7627NA,Bornerbroek,Almelo,Overijssel,VBO,6.625284,52.306335
Krooshoopsweg,5,,,7627NA,Bornerbroek,Almelo,Overijssel,VBO,6.623083,52.308380
De Hoge Dam,4,,,7627NB,Bornerbroek,Almelo,Overijssel,VBO,6.658444,52.308023
De Hoge Dam,6,,,7627NB,Bornerbroek,Almelo,Overijssel,VBO,6.658430,52.308050
De Hoge Dam,8,,,7627NB,Bornerbroek,Almelo,Overijssel,VBO,6.658431,52.308086
De Hoge Dam,10,,,7627NB,Bornerbroek,Almelo,Overijssel,VBO,6.658448,52.308176
De Hoge Dam,12,,,7627NB,Bornerbroek,Almelo,Overijssel,VBO,6.658259,52.308232
De Hoge Dam,14,,,7627NB,Bornerbroek,Almelo,Overijssel,VBO,6.658172,52.308269
Bokdamsweg,1,,,7627NC,Bornerbroek,Almelo,Overijssel,VBO,6.633830,52.301508
Bokdamsweg,2,a,,7627NC,Bornerbroek,Almelo,Overijssel,VBO,6.631711,52.302238
Bokdamsweg,2,,,7627NC,Bornerbroek,Almelo,Overijssel,VBO,6.631572,52.302191
Het Linschot,1,a,,7627ND,Bornerbroek,Almelo,Overijssel,VBO,6.637301,52.305525
Het Linschot,1,b,,7627ND,Bornerbroek,Almelo,Overijssel,VBO,6.637079,52.305703
Het Linschot,1,,,7627ND,Bornerbroek,Almelo,Overijssel,VBO,6.637177,52.305665
Het Linschot,2,a,,7627ND,Bornerbroek,Almelo,Overijssel,VBO,6.645366,52.300379
Het Linschot,2,b,,7627ND,Bornerbroek,Almelo,Overijssel,VBO,6.645151,52.300150
Het Linschot,2,,,7627ND,Bornerbroek,Almelo,Overijssel,VBO,6.645206,52.300426
Het Linschot,3,a,,7627ND,Bornerbroek,Almelo,Overijssel,VBO,6.636857,52.305925
Het Linschot,3,b,,7627ND,Bornerbroek,Almelo,Overijssel,VBO,6.636296,52.306491
Het Linschot,3,c,,7627ND,Bornerbroek,Almelo,Overijssel,VBO,6.636197,52.306565
Het Linschot,3,,,7627ND,Bornerbroek,Almelo,Overijssel,VBO,6.636728,52.306017
Het Linschot,4,,,7627ND,Bornerbroek,Almelo,Overijssel,VBO,6.642568,52.300966
Het Linschot,5,,,7627ND,Bornerbroek,Almelo,Overijssel,VBO,6.635746,52.307079
Het Linschot,6,,,7627ND,Bornerbroek,Almelo,Overijssel,VBO,6.642511,52.301030
Weersweg,1,,,7627NE,Bornerbroek,Almelo,Overijssel,VBO,6.645251,52.307693
Weersweg,2,,,7627NE,Bornerbroek,Almelo,Overijssel,VBO,6.637981,52.306273
Weersweg,3,,,7627NE,Bornerbroek,Almelo,Overijssel,VBO,6.640773,52.306459
Weersweg,6,,,7627NE,Bornerbroek,Almelo,Overijssel,VBO,6.643782,52.307662
Weersweg,8,,,7627NE,Bornerbroek,Almelo,Overijssel,VBO,6.644413,52.307744
Lange Voort,1,a,,7627NG,Bornerbroek,Almelo,Overijssel,VBO,6.646218,52.305592
Lange Voort,1,,,7627NG,Bornerbroek,Almelo,Overijssel,VBO,6.647608,52.304454
Lange Voort,2,a,,7627NG,Bornerbroek,Almelo,Overijssel,VBO,6.652851,52.308026
Lange Voort,2,,,7627NG,Bornerbroek,Almelo,Overijssel,VBO,6.653212,52.308160
Lange Voort,3,a,,7627NG,Bornerbroek,Almelo,Overijssel,VBO,6.643473,52.304983
Lange Voort,3,,,7627NG,Bornerbroek,Almelo,Overijssel,VBO,6.645913,52.305686
Lange Voort,5,,,7627NG,Bornerbroek,Almelo,Overijssel,VBO,6.645564,52.303199
Lange Voort,6,,,7627NG,Bornerbroek,Almelo,Overijssel,VBO,6.652133,52.307839
Lange Voort,7,,,7627NG,Bornerbroek,Almelo,Overijssel,VBO,6.644136,52.303017
Lange Voort,9,,,7627NG,Bornerbroek,Almelo,Overijssel,VBO,6.644194,52.302989
Lange Voort,10,,,7627NG,Bornerbroek,Almelo,Overijssel,VBO,6.649663,52.307111
Lange Voort,16,,,7627NG,Bornerbroek,Almelo,Overijssel,VBO,6.648834,52.306841
Lange Voort,18,,,7627NG,Bornerbroek,Almelo,Overijssel,VBO,6.647139,52.306544
Lange Voort,20,a,,7627NG,Bornerbroek,Almelo,Overijssel,VBO,6.646646,52.306199
Lange Voort,20,,,7627NG,Bornerbroek,Almelo,Overijssel,VBO,6.646705,52.306234
Lange Voort,24,a,,7627NG,Bornerbroek,Almelo,Overijssel,VBO,6.645325,52.305818
Lange Voort,24,,,7627NG,Bornerbroek,Almelo,Overijssel,VBO,6.645265,52.305907
Pepershaar,1,a,,7627NH,Bornerbroek,Almelo,Overijssel,VBO,6.650880,52.304518
Pepershaar,1,b,,7627NH,Bornerbroek,Almelo,Overijssel,VBO,6.650477,52.304792
Pepershaar,1,c,,7627NH,Bornerbroek,Almelo,Overijssel,VBO,6.653852,52.303901
Pepershaar,1,d,,7627NH,Bornerbroek,Almelo,Overijssel,VBO,6.654369,52.303748
Pepershaar,1,,,7627NH,Bornerbroek,Almelo,Overijssel,VBO,6.657312,52.302822
Pepershaar,2,a,,7627NH,Bornerbroek,Almelo,Overijssel,VBO,6.650451,52.305961
Pepershaar,2,b,,7627NH,Bornerbroek,Almelo,Overijssel,VBO,6.650031,52.305606
Pepershaar,2,,,7627NH,Bornerbroek,Almelo,Overijssel,VBO,6.650000,52.305552
Pepershaar,3,,,7627NH,Bornerbroek,Almelo,Overijssel,VBO,6.649625,52.305268
Pepershaar,5,a,,7627NH,Bornerbroek,Almelo,Overijssel,VBO,6.644089,52.307053
Pepershaar,5,,,7627NH,Bornerbroek,Almelo,Overijssel,VBO,6.645572,52.306588
Pepershaar,7,a,,7627NH,Bornerbroek,Almelo,Overijssel,VBO,6.643250,52.307970
Pepershaar,7,,,7627NH,Bornerbroek,Almelo,Overijssel,VBO,6.643277,52.307376
Pepershaar,9,,,7627NH,Bornerbroek,Almelo,Overijssel,VBO,6.643211,52.308168
Pepershaar,14,,,7627NH,Bornerbroek,Almelo,Overijssel,VBO,6.643880,52.308219
Bronweg,2,a,,7627NJ,Bornerbroek,Almelo,Overijssel,VBO,6.651913,52.303231
Bronweg,2,b,1,7627NJ,Bornerbroek,Almelo,Overijssel,VBO,6.653073,52.305192
Bronweg,2,b,,7627NJ,Bornerbroek,Almelo,Overijssel,VBO,6.653153,52.305272
Bronweg,2,c,,7627NJ,Bornerbroek,Almelo,Overijssel,VBO,6.652792,52.304749
Bronweg,2,d,,7627NJ,Bornerbroek,Almelo,Overijssel,VBO,6.651729,52.303558
Bronweg,2,,,7627NJ,Bornerbroek,Almelo,Overijssel,VBO,6.654174,52.306910
Bronweg,4,a,,7627NJ,Bornerbroek,Almelo,Overijssel,VBO,6.650177,52.301469
Bronweg,4,b,,7627NJ,Bornerbroek,Almelo,Overijssel,VBO,6.649902,52.302093
Bronweg,4,,,7627NJ,Bornerbroek,Almelo,Overijssel,VBO,6.649902,52.302119
Bronweg,6,,,7627NJ,Bornerbroek,Almelo,Overijssel,VBO,6.650643,52.301357
Bronweg,11,,,7627NJ,Bornerbroek,Almelo,Overijssel,VBO,6.653340,52.301044
Goorsedijk,2,,,7627NK,Bornerbroek,Almelo,Overijssel,VBO,6.654288,52.302162
Goorsedijk,6,,,7627NK,Bornerbroek,Almelo,Overijssel,VBO,6.651900,52.299168
Lohuisstraat,1,a,,7627NL,Bornerbroek,Almelo,Overijssel,VBO,6.655440,52.308119
Lohuisstraat,1,,,7627NL,Bornerbroek,Almelo,Overijssel,VBO,6.655486,52.308199
Lohuisstraat,10,,,7627NL,Bornerbroek,Almelo,Overijssel,VBO,6.654591,52.307651
Lohuisstraat,12,,traf,7627NL,Bornerbroek,Almelo,Overijssel,VBO,6.654541,52.307463
Lohuisstraat,14,,,7627NL,Bornerbroek,Almelo,Overijssel,VBO,6.654465,52.307338
Lohuisstraat,16,,,7627NL,Bornerbroek,Almelo,Overijssel,VBO,6.654492,52.307275
Lohuisstraat,17,,,7627NL,Bornerbroek,Almelo,Overijssel,VBO,6.655467,52.305997
Lohuisstraat,18,,,7627NL,Bornerbroek,Almelo,Overijssel,VBO,6.654401,52.307159
Lohuisstraat,19,,,7627NL,Bornerbroek,Almelo,Overijssel,VBO,6.655361,52.305863
Lohuisstraat,20,,,7627NL,Bornerbroek,Almelo,Overijssel,VBO,6.654588,52.306528
Lohuisstraat,22,,,7627NL,Bornerbroek,Almelo,Overijssel,VBO,6.654601,52.306465
Lohuisstraat,25,a,,7627NL,Bornerbroek,Almelo,Overijssel,VBO,6.656147,52.303104
Lohuisstraat,25,,,7627NL,Bornerbroek,Almelo,Overijssel,VBO,6.656135,52.303194
Lohuisstraat,27,a,,7627NL,Bornerbroek,Almelo,Overijssel,VBO,6.656767,52.300662
Lohuisstraat,27,,,7627NL,Bornerbroek,Almelo,Overijssel,VBO,6.656797,52.300679
Lohuisstraat,28,,,7627NL,Bornerbroek,Almelo,Overijssel,VBO,6.654771,52.305222
Lohuisstraat,30,,,7627NL,Bornerbroek,Almelo,Overijssel,VBO,6.655322,52.303482
Doodsweg,3,,,7627NM,Bornerbroek,Almelo,Overijssel,VBO,6.662122,52.299777
Stobbenhorst,1,,,7627NN,Bornerbroek,Almelo,Overijssel,VBO,6.682060,52.307740
Stobbenhorst,2,,,7627NN,Bornerbroek,Almelo,Overijssel,VBO,6.679490,52.307446
Stobbenhorst,5,,,7627NN,Bornerbroek,Almelo,Overijssel,VBO,6.682498,52.309704
Bolscher Landen,12,,,7627NP,Bornerbroek,Almelo,Overijssel,VBO,6.666531,52.315909
Bolscher Landen,20,,,7627NP,Bornerbroek,Almelo,Overijssel,VBO,6.668607,52.313666
Bolscher Landen,21,,,7627NP,Bornerbroek,Almelo,Overijssel,VBO,6.669491,52.313297
Bolscher Landen,22,,,7627NP,Bornerbroek,Almelo,Overijssel,VBO,6.668418,52.313192
Bolscher Landen,25,,,7627NP,Bornerbroek,Almelo,Overijssel,VBO,6.670243,52.311914
Bolscher Landen,26,,,7627NP,Bornerbroek,Almelo,Overijssel,VBO,6.672211,52.304405
Bolscher Landen,27,,,7627NP,Bornerbroek,Almelo,Overijssel,VBO,6.671031,52.311010
Bolscher Landen,29,,,7627NP,Bornerbroek,Almelo,Overijssel,VBO,6.670821,52.310577
Bolscher Landen,30,,,7627NP,Bornerbroek,Almelo,Overijssel,VBO,6.672303,52.302004
Bolscher Landen,31,,,7627NP,Bornerbroek,Almelo,Overijssel,VBO,6.672559,52.309354
Bolscher Landen,35,,,7627NP,Bornerbroek,Almelo,Overijssel,VBO,6.674262,52.306342
Bolscher Landen,39,,,7627NP,Bornerbroek,Almelo,Overijssel,VBO,6.673108,52.304467
Bolscher Landen,43,,,7627NP,Bornerbroek,Almelo,Overijssel,VBO,6.673090,52.303353
Bolscherdwarsweg,1,,,7627NR,Bornerbroek,Almelo,Overijssel,VBO,6.666109,52.310431
Bolscherdwarsweg,2,,,7627NR,Bornerbroek,Almelo,Overijssel,VBO,6.668684,52.310223
Bolscherdwarsweg,3,,,7627NR,Bornerbroek,Almelo,Overijssel,VBO,6.667098,52.310159
Bolscherdwarsweg,5,,,7627NR,Bornerbroek,Almelo,Overijssel,VBO,6.668307,52.308852
Bolscherdwarsweg,7,,,7627NR,Bornerbroek,Almelo,Overijssel,VBO,6.668913,52.308495
Bolscherdwarsweg,9,,,7627NR,Bornerbroek,Almelo,Overijssel,VBO,6.671235,52.309301
Bornsestraat,7,a,,7627NS,Bornerbroek,Almelo,Overijssel,VBO,6.678313,52.312329
Bornsestraat,7,,,7627NS,Bornerbroek,Almelo,Overijssel,VBO,6.679113,52.311799
Bornsestraat,9,,,7627NS,Bornerbroek,Almelo,Overijssel,VBO,6.672386,52.311712
Bornsestraat,13,,,7627NS,Bornerbroek,Almelo,Overijssel,VBO,6.662838,52.307868
Bornsestraat,21,,,7627NS,Bornerbroek,Almelo,Overijssel,VBO,6.657496,52.307198
Bornsestraat,23,,,7627NS,Bornerbroek,Almelo,Overijssel,VBO,6.657060,52.307328
Bornsestraat,25,,,7627NS,Bornerbroek,Almelo,Overijssel,VBO,6.656785,52.307448
Bornsestraat,27,,,7627NS,Bornerbroek,Almelo,Overijssel,VBO,6.656683,52.307485
Bornsestraat,29,,,7627NS,Bornerbroek,Almelo,Overijssel,VBO,6.656479,52.307523
Bornsestraat,31,,,7627NS,Bornerbroek,Almelo,Overijssel,VBO,6.656321,52.307651
Bornsestraat,33,,,7627NS,Bornerbroek,Almelo,Overijssel,VBO,6.655459,52.307768
Theresiahof,2,,,7627NS,Bornerbroek,Almelo,Overijssel,VBO,6.657616,52.308302
Theresiahof,4,,,7627NS,Bornerbroek,Almelo,Overijssel,VBO,6.657704,52.308310
Theresiahof,6,,,7627NS,Bornerbroek,Almelo,Overijssel,VBO,6.657632,52.308356
Theresiahof,8,,,7627NS,Bornerbroek,Almelo,Overijssel,VBO,6.657677,52.308382
Theresiahof,10,,,7627NS,Bornerbroek,Almelo,Overijssel,VBO,6.657707,52.308427
Theresiahof,12,,,7627NS,Bornerbroek,Almelo,Overijssel,VBO,6.657750,52.308423
Theresiahof,14,,,7627NS,Bornerbroek,Almelo,Overijssel,VBO,6.657795,52.308417
Theresiahof,16,,,7627NS,Bornerbroek,Almelo,Overijssel,VBO,6.657838,52.308389
Theresiahof,18,,,7627NS,Bornerbroek,Almelo,Overijssel,VBO,6.657837,52.308362
Theresiahof,20,,,7627NS,Bornerbroek,Almelo,Overijssel,VBO,6.657777,52.308368
Theresiahof,22,,,7627NS,Bornerbroek,Almelo,Overijssel,VBO,6.657763,52.308318
Theresiahof,24,,,7627NS,Bornerbroek,Almelo,Overijssel,VBO,6.657474,52.307980
Theresiahof,26,,,7627NS,Bornerbroek,Almelo,Overijssel,VBO,6.657762,52.308290
Bornsestraat,8,,,7627NT,Bornerbroek,Almelo,Overijssel,VBO,6.685304,52.314383
Bornsestraat,10,a,,7627NT,Bornerbroek,Almelo,Overijssel,VBO,6.683703,52.314311
Bornsestraat,10,b,,7627NT,Bornerbroek,Almelo,Overijssel,VBO,6.680464,52.314284
Bornsestraat,10,,,7627NT,Bornerbroek,Almelo,Overijssel,VBO,6.684345,52.314196
Bornsestraat,12,,,7627NT,Bornerbroek,Almelo,Overijssel,VBO,6.678921,52.314777
Bornsestraat,14,a,,7627NT,Bornerbroek,Almelo,Overijssel,VBO,6.678203,52.313292
Bornsestraat,14,,,7627NT,Bornerbroek,Almelo,Overijssel,VBO,6.678129,52.313284
Bornsestraat,16,a,,7627NT,Bornerbroek,Almelo,Overijssel,VBO,6.672686,52.313218
Bornsestraat,16,,,7627NT,Bornerbroek,Almelo,Overijssel,VBO,6.675027,52.312666
Bornsestraat,18,,,7627NT,Bornerbroek,Almelo,Overijssel,VBO,6.671142,52.312057
Bornsestraat,20,,,7627NT,Bornerbroek,Almelo,Overijssel,VBO,6.665343,52.311329
Bornsestraat,22,,,7627NT,Bornerbroek,Almelo,Overijssel,VBO,6.660004,52.310802
Bornsestraat,26,,,7627NT,Bornerbroek,Almelo,Overijssel,VBO,6.658434,52.307691
Bornsestraat,28,,,7627NT,Bornerbroek,Almelo,Overijssel,VBO,6.657904,52.307634
Bornsestraat,36,a,,7627NT,Bornerbroek,Almelo,Overijssel,VBO,6.656280,52.308271
Bornsestraat,36,,,7627NT,Bornerbroek,Almelo,Overijssel,VBO,6.656735,52.307772
Theresiahof,1,,,7627NT,Bornerbroek,Almelo,Overijssel,VBO,6.657348,52.307676
Theresiahof,3,,,7627NT,Bornerbroek,Almelo,Overijssel,VBO,6.657451,52.307665
Theresiahof,5,,,7627NT,Bornerbroek,Almelo,Overijssel,VBO,6.657553,52.307655
Theresiahof,7,,,7627NT,Bornerbroek,Almelo,Overijssel,VBO,6.657350,52.307738
Theresiahof,9,,,7627NT,Bornerbroek,Almelo,Overijssel,VBO,6.657467,52.307728
Theresiahof,11,,,7627NT,Bornerbroek,Almelo,Overijssel,VBO,6.657570,52.307727
Theresiahof,13,,,7627NT,Bornerbroek,Almelo,Overijssel,VBO,6.657352,52.307801
Theresiahof,15,,,7627NT,Bornerbroek,Almelo,Overijssel,VBO,6.657469,52.307791
Theresiahof,17,,,7627NT,Bornerbroek,Almelo,Overijssel,VBO,6.657601,52.307790
Theresiahof,19,,,7627NT,Bornerbroek,Almelo,Overijssel,VBO,6.657132,52.307786
Theresiahof,21,,,7627NT,Bornerbroek,Almelo,Overijssel,VBO,6.657133,52.307849
Theresiahof,23,,,7627NT,Bornerbroek,Almelo,Overijssel,VBO,6.657150,52.307902
Theresiahof,25,,,7627NT,Bornerbroek,Almelo,Overijssel,VBO,6.657267,52.307901
Theresiahof,27,,,7627NT,Bornerbroek,Almelo,Overijssel,VBO,6.657265,52.307838
Joostinksdijk,2,,,7627NV,Bornerbroek,Almelo,Overijssel,VBO,6.690553,52.316330
Joostinksdijk,4,,,7627NV,Bornerbroek,Almelo,Overijssel,VBO,6.689796,52.316024
Tusveld,1,a,,7627NV,Bornerbroek,Almelo,Overijssel,VBO,6.694302,52.315112
Tusveld,1,,,7627NV,Bornerbroek,Almelo,Overijssel,VBO,6.694434,52.315163
Tusveld,3,,,7627NV,Bornerbroek,Almelo,Overijssel,VBO,6.694006,52.319033
Tusveld,5,a,,7627NV,Bornerbroek,Almelo,Overijssel,VBO,6.693954,52.319790
Tusveld,5,,,7627NV,Bornerbroek,Almelo,Overijssel,VBO,6.693635,52.319873
Tusveld,7,,,7627NV,Bornerbroek,Almelo,Overijssel,VBO,6.692767,52.319775
Tusveld,9,,,7627NV,Bornerbroek,Almelo,Overijssel,VBO,6.691730,52.321455
Tusveld,11,,,7627NV,Bornerbroek,Almelo,Overijssel,VBO,6.690799,52.322197
Tusveld,13,a,,7627NV,Bornerbroek,Almelo,Overijssel,VBO,6.689598,52.322758
Tusveld,13,,,7627NV,Bornerbroek,Almelo,Overijssel,VBO,6.689643,52.322812
Tusveld,15,,,7627NV,Bornerbroek,Almelo,Overijssel,VBO,6.688487,52.323391
Tusveld,17,,,7627NV,Bornerbroek,Almelo,Overijssel,VBO,6.688144,52.323718
Tusveld,19,,,7627NV,Bornerbroek,Almelo,Overijssel,VBO,6.687456,52.324247
Tusveld,21,,,7627NV,Bornerbroek,Almelo,Overijssel,VBO,6.686061,52.325206
Doodsdwarsweg,4,a,,7627NW,Bornerbroek,Almelo,Overijssel,VBO,6.666040,52.300693
Doodsdwarsweg,4,,,7627NW,Bornerbroek,Almelo,Overijssel,VBO,6.666004,52.300574
Tusveld,61,,,7627NW,Bornerbroek,Almelo,Overijssel,VBO,6.680183,52.326897
Tusveld,63,,,7627NW,Bornerbroek,Almelo,Overijssel,VBO,6.680452,52.326544
Tusveld,65,,,7627NW,Bornerbroek,Almelo,Overijssel,VBO,6.682693,52.326439
Tusveld,67,,,7627NW,Bornerbroek,Almelo,Overijssel,VBO,6.684005,52.326667
Tusveld,69,a,,7627NW,Bornerbroek,Almelo,Overijssel,VBO,6.684204,52.327126
Tusveld,69,,,7627NW,Bornerbroek,Almelo,Overijssel,VBO,6.684318,52.327124
Tusveld,71,,,7627NW,Bornerbroek,Almelo,Overijssel,VBO,6.679981,52.328518
Tusveld,73,,,7627NW,Bornerbroek,Almelo,Overijssel,VBO,6.678722,52.328603
Tusveld,75,,,7627NW,Bornerbroek,Almelo,Overijssel,VBO,6.678634,52.328604
Tusveld,77,,,7627NW,Bornerbroek,Almelo,Overijssel,VBO,6.677473,52.328545
Tusveld,79,,,7627NW,Bornerbroek,Almelo,Overijssel,VBO,6.675208,52.327851
Tusveld,81,,,7627NW,Bornerbroek,Almelo,Overijssel,VBO,6.674030,52.327693
Tusveld,83,,,7627NW,Bornerbroek,Almelo,Overijssel,VBO,6.672902,52.326240
Tusveld,85,,,7627NW,Bornerbroek,Almelo,Overijssel,VBO,6.674871,52.328879
Tusveld,87,,,7627NW,Bornerbroek,Almelo,Overijssel,VBO,6.675339,52.329323
Tusveld,89,,,7627NW,Bornerbroek,Almelo,Overijssel,VBO,6.676543,52.329346
Tusveld,91,,,7627NW,Bornerbroek,Almelo,Overijssel,VBO,6.676401,52.329006
Tusveld,93,,,7627NW,Bornerbroek,Almelo,Overijssel,VBO,6.682146,52.329321
Tusveld,95,,,7627NW,Bornerbroek,Almelo,Overijssel,VBO,6.683100,52.329310
Tusveld,23,,,7627NX,Bornerbroek,Almelo,Overijssel,VBO,6.683972,52.323027
Tusveld,25,,,7627NX,Bornerbroek,Almelo,Overijssel,VBO,6.683572,52.323867
Tusveld,27,,,7627NX,Bornerbroek,Almelo,Overijssel,VBO,6.684630,52.323927
Tusveld,29,,,7627NX,Bornerbroek,Almelo,Overijssel,VBO,6.684956,52.324544
Tusveld,31,,,7627NX,Bornerbroek,Almelo,Overijssel,VBO,6.685165,52.326196
Tusveld,33,,,7627NX,Bornerbroek,Almelo,Overijssel,VBO,6.685080,52.326296
Tusveld,35,,,7627NX,Bornerbroek,Almelo,Overijssel,VBO,6.684451,52.326347
Tusveld,37,,,7627NX,Bornerbroek,Almelo,Overijssel,VBO,6.683684,52.326212
Tusveld,39,,,7627NX,Bornerbroek,Almelo,Overijssel,VBO,6.683300,52.326117
Tusveld,41,,,7627NX,Bornerbroek,Almelo,Overijssel,VBO,6.683063,52.326048
Tusveld,2,,,7627NZ,Bornerbroek,Almelo,Overijssel,VBO,6.698640,52.317013
Tusveld,4,,,7627NZ,Bornerbroek,Almelo,Overijssel,VBO,6.695399,52.317517
Tusveld,6,,,7627NZ,Bornerbroek,Almelo,Overijssel,VBO,6.695164,52.318005
Tusveld,8,a,,7627NZ,Bornerbroek,Almelo,Overijssel,VBO,6.694754,52.320014
Tusveld,10,,,7627NZ,Bornerbroek,Almelo,Overijssel,VBO,6.693701,52.320637
Tusveld,12,,,7627NZ,Bornerbroek,Almelo,Overijssel,VBO,6.693601,52.320710
Tusveld,14,a,,7627NZ,Bornerbroek,Almelo,Overijssel,VBO,6.692851,52.321167
Tusveld,14,,,7627NZ,Bornerbroek,Almelo,Overijssel,VBO,6.692937,52.321094
Tusveld,16,,,7627NZ,Bornerbroek,Almelo,Overijssel,VBO,6.691268,52.322281
Tusveld,18,,,7627NZ,Bornerbroek,Almelo,Overijssel,VBO,6.690882,52.322537
Tusveld,20,,,7627NZ,Bornerbroek,Almelo,Overijssel,VBO,6.691735,52.323121
Tusveld,22,,,7627NZ,Bornerbroek,Almelo,Overijssel,VBO,6.688527,52.324262
Tusveld,24,,,7627NZ,Bornerbroek,Almelo,Overijssel,VBO,6.688149,52.324374
Tusveld,26,,,7627NZ,Bornerbroek,Almelo,Overijssel,VBO,6.686528,52.325650
Tusveld,28,,,7627NZ,Bornerbroek,Almelo,Overijssel,VBO,6.687404,52.328508
Tusveld,30,,,7627NZ,Bornerbroek,Almelo,Overijssel,VBO,6.686227,52.329384
Tusveld,43,,,7627NZ,Bornerbroek,Almelo,Overijssel,VBO,6.681782,52.325891
Tusveld,45,,,7627NZ,Bornerbroek,Almelo,Overijssel,VBO,6.680232,52.325567
Tusveld,47,,,7627NZ,Bornerbroek,Almelo,Overijssel,VBO,6.677113,52.325259
Tusveld,49,,,7627NZ,Bornerbroek,Almelo,Overijssel,VBO,6.678745,52.325879
Tusveld,51,,,7627NZ,Bornerbroek,Almelo,Overijssel,VBO,6.678528,52.326502
Tusveld,53,,,7627NZ,Bornerbroek,Almelo,Overijssel,VBO,6.676858,52.326674
Tusveld,55,,,7627NZ,Bornerbroek,Almelo,Overijssel,VBO,6.677427,52.326973
Tusveld,57,,,7627NZ,Bornerbroek,Almelo,Overijssel,VBO,6.678179,52.327081
Tusveld,59,,,7627NZ,Bornerbroek,Almelo,Overijssel,VBO,6.680103,52.327186
Krikkenhaar,3,,,7627PA,Bornerbroek,Almelo,Overijssel,VBO,6.684867,52.320006
Krikkenhaar,7,,,7627PA,Bornerbroek,Almelo,Overijssel,VBO,6.683522,52.319643
Krikkenhaar,11,,,7627PA,Bornerbroek,Almelo,Overijssel,VBO,6.681714,52.318018
Krikkenhaar,17,,,7627PA,Bornerbroek,Almelo,Overijssel,VBO,6.680891,52.317946
Krikkenhaar,21,,,7627PA,Bornerbroek,Almelo,Overijssel,VBO,6.678352,52.317929
't Maatveld,3,,,7627PB,Bornerbroek,Almelo,Overijssel,VBO,6.681811,52.322862
't Maatveld,4,,,7627PB,Bornerbroek,Almelo,Overijssel,VBO,6.682132,52.325303
't Maatveld,8,,,7627PB,Bornerbroek,Almelo,Overijssel,VBO,6.680391,52.323974
Maatkampsweg,1,,,7627PC,Bornerbroek,Almelo,Overijssel,VBO,6.691044,52.323542
Maatkampsweg,3,,,7627PC,Bornerbroek,Almelo,Overijssel,VBO,6.687850,52.323191
Maatkampsweg,5,,,7627PC,Bornerbroek,Almelo,Overijssel,VBO,6.685831,52.321856
Maatkampsweg,6,,,7627PC,Bornerbroek,Almelo,Overijssel,VBO,6.679862,52.322407
Maatkampsweg,7,,,7627PC,Bornerbroek,Almelo,Overijssel,VBO,6.681336,52.320152
Maatkampsweg,8,,,7627PC,Bornerbroek,Almelo,Overijssel,VBO,6.676379,52.321690
Maatkampsweg,9,,,7627PC,Bornerbroek,Almelo,Overijssel,VBO,6.676762,52.320724
Maatkampsweg,11,,,7627PC,Bornerbroek,Almelo,Overijssel,VBO,6.675971,52.320274
Maatkampsweg,14,,,7627PC,Bornerbroek,Almelo,Overijssel,VBO,6.667079,52.314564
Maatkampsweg,15,,,7627PC,Bornerbroek,Almelo,Overijssel,VBO,6.670794,52.315234
Maatkampsweg,17,,,7627PC,Bornerbroek,Almelo,Overijssel,VBO,6.670316,52.314933
Maatkampsweg,19,,,7627PC,Bornerbroek,Almelo,Overijssel,VBO,6.666635,52.313909
Maatkampsweg,20,,,7627PC,Bornerbroek,Almelo,Overijssel,VBO,6.663885,52.313673
Maatkampsweg,22,,,7627PC,Bornerbroek,Almelo,Overijssel,VBO,6.663243,52.313778
Maatkampsweg,25,,,7627PC,Bornerbroek,Almelo,Overijssel,VBO,6.656699,52.311638
Maatkampsweg,27,,,7627PC,Bornerbroek,Almelo,Overijssel,VBO,6.656478,52.311604
Maatkampsweg,32,,,7627PC,Bornerbroek,Almelo,Overijssel,VBO,6.657713,52.312220
Maatkampsweg,34,,,7627PC,Bornerbroek,Almelo,Overijssel,VBO,6.657477,52.312178
Maatkampsweg,36,,,7627PC,Bornerbroek,Almelo,Overijssel,VBO,6.657359,52.312161
Maatkampsweg,38,,,7627PC,Bornerbroek,Almelo,Overijssel,VBO,6.657079,52.312092
Maatkampsweg,40,,,7627PC,Bornerbroek,Almelo,Overijssel,VBO,6.656372,52.311887
Maatkampsdwarsweg,1,a,,7627PD,Bornerbroek,Almelo,Overijssel,VBO,6.673626,52.320326
Maatkampsdwarsweg,1,,,7627PD,Bornerbroek,Almelo,Overijssel,VBO,6.673551,52.320282
Maatkampsdwarsweg,4,,,7627PD,Bornerbroek,Almelo,Overijssel,VBO,6.668610,52.322898
Maatkampsdwarsweg,8,a,,7627PD,Bornerbroek,Almelo,Overijssel,VBO,6.667620,52.320327
Maatkampsdwarsweg,8,,,7627PD,Bornerbroek,Almelo,Overijssel,VBO,6.667753,52.320278
Maatkampsdwarsweg,12,,,7627PD,Bornerbroek,Almelo,Overijssel,VBO,6.666199,52.320695
Ossendijk,3,a,,7627PE,Bornerbroek,Almelo,Overijssel,VBO,6.674028,52.316862
Ossendijk,3,,,7627PE,Bornerbroek,Almelo,Overijssel,VBO,6.673950,52.316839
Ossendijk,4,,,7627PE,Bornerbroek,Almelo,Overijssel,VBO,6.676211,52.316910
Krikkenven,2,,,7627PG,Bornerbroek,Almelo,Overijssel,VBO,6.678489,52.313559
Krikkenven,4,,,7627PG,Bornerbroek,Almelo,Overijssel,VBO,6.673551,52.315222
Krikkenven,5,,,7627PG,Bornerbroek,Almelo,Overijssel,VBO,6.676659,52.313651
Pastoor Ossestraat,3,,,7627PH,Bornerbroek,Almelo,Overijssel,VBO,6.655509,52.308990
Pastoor Ossestraat,5,a,,7627PH,Bornerbroek,Almelo,Overijssel,VBO,6.655587,52.309169
Pastoor Ossestraat,5,,,7627PH,Bornerbroek,Almelo,Overijssel,VBO,6.655601,52.309124
Pastoor Ossestraat,7,b,,7627PH,Bornerbroek,Almelo,Overijssel,VBO,6.655547,52.309295
Pastoor Ossestraat,7,,,7627PH,Bornerbroek,Almelo,Overijssel,VBO,6.655621,52.309339
Pastoor Ossestraat,9,a,,7627PH,Bornerbroek,Almelo,Overijssel,VBO,6.655495,52.309432
Pastoor Ossestraat,9,,,7627PH,Bornerbroek,Almelo,Overijssel,VBO,6.655610,52.309438
Pastoor Ossestraat,11,,,7627PH,Bornerbroek,Almelo,Overijssel,VBO,6.655524,52.309520
Pastoor Ossestraat,13,,,7627PJ,Bornerbroek,Almelo,Overijssel,VBO,6.655512,52.309619
Pastoor Ossestraat,15,a,,7627PJ,Bornerbroek,Almelo,Overijssel,VBO,6.655518,52.309835
Pastoor Ossestraat,15,,,7627PJ,Bornerbroek,Almelo,Overijssel,VBO,6.655472,52.309745
Pastoor Ossestraat,17,,,7627PJ,Bornerbroek,Almelo,Overijssel,VBO,6.655491,52.309889
Pastoor Ossestraat,19,a,,7627PJ,Bornerbroek,Almelo,Overijssel,VBO,6.655304,52.310026
Pastoor Ossestraat,19,b,,7627PJ,Bornerbroek,Almelo,Overijssel,VBO,6.655407,52.310033
Pastoor Ossestraat,19,,,7627PJ,Bornerbroek,Almelo,Overijssel,VBO,6.655453,52.310114
Pastoor Ossestraat,21,,,7627PJ,Bornerbroek,Almelo,Overijssel,VBO,6.655301,52.310969
Pastoor Ossestraat,23,,,7627PJ,Bornerbroek,Almelo,Overijssel,VBO,6.655235,52.311204
Pastoor Ossestraat,25,,,7627PJ,Bornerbroek,Almelo,Overijssel,VBO,6.655210,52.311366
Pastoor Ossestraat,27,,,7627PJ,Bornerbroek,Almelo,Overijssel,VBO,6.655204,52.311654
Pastoor Ossestraat,29,,,7627PJ,Bornerbroek,Almelo,Overijssel,VBO,6.655205,52.311699
Pastoor Ossestraat,31,,,7627PJ,Bornerbroek,Almelo,Overijssel,VBO,6.655194,52.311824
Pastoor Ossestraat,33,,,7627PJ,Bornerbroek,Almelo,Overijssel,VBO,6.655181,52.311870
Pastoor Ossestraat,35,,,7627PJ,Bornerbroek,Almelo,Overijssel,VBO,6.655184,52.311995
Pastoor Ossestraat,37,,,7627PJ,Bornerbroek,Almelo,Overijssel,VBO,6.655186,52.312067
Pastoor Ossestraat,39,,,7627PJ,Bornerbroek,Almelo,Overijssel,VBO,6.655160,52.312184
Pastoor Ossestraat,41,,,7627PK,Bornerbroek,Almelo,Overijssel,VBO,6.655147,52.312238
Pastoor Ossestraat,45,a,,7627PK,Bornerbroek,Almelo,Overijssel,VBO,6.654531,52.314285
Pastoor Ossestraat,45,,,7627PK,Bornerbroek,Almelo,Overijssel,VBO,6.654945,52.313391
Pastoor Ossestraat,2,a,,7627PL,Bornerbroek,Almelo,Overijssel,VBO,6.655734,52.308646
Pastoor Ossestraat,2,,,7627PL,Bornerbroek,Almelo,Overijssel,VBO,6.655703,52.308601
Pastoor Ossestraat,4,,,7627PL,Bornerbroek,Almelo,Overijssel,VBO,6.656146,52.309235
Pastoor Ossestraat,8,,,7627PL,Bornerbroek,Almelo,Overijssel,VBO,6.656481,52.309662
Pastoor Ossestraat,10,,,7627PL,Bornerbroek,Almelo,Overijssel,VBO,6.656068,52.310089
Pastoor Ossestraat,12,,,7627PL,Bornerbroek,Almelo,Overijssel,VBO,6.656001,52.310315
Pastoor Ossestraat,14,,,7627PL,Bornerbroek,Almelo,Overijssel,VBO,6.655947,52.310459
Pastoor Ossestraat,16,,,7627PL,Bornerbroek,Almelo,Overijssel,VBO,6.655934,52.310531
Pastoor Ossestraat,18,a,,7627PL,Bornerbroek,Almelo,Overijssel,VBO,6.655854,52.310820
Pastoor Ossestraat,18,,,7627PL,Bornerbroek,Almelo,Overijssel,VBO,6.655856,52.310883
Pastoor Ossestraat,22,,,7627PL,Bornerbroek,Almelo,Overijssel,VBO,6.655908,52.311143
Pastoor Ossestraat,26,,,7627PL,Bornerbroek,Almelo,Overijssel,VBO,6.655829,52.311467
Pastoor Ossestraat,30,,,7627PL,Bornerbroek,Almelo,Overijssel,VBO,6.655842,52.311934
Pastoor Ossestraat,32,a,,7627PM,Bornerbroek,Almelo,Overijssel,VBO,6.655825,52.312339
Pastoor Ossestraat,32,b,,7627PM,Bornerbroek,Almelo,Overijssel,VBO,6.655796,52.312488
Pastoor Ossestraat,32,c,,7627PM,Bornerbroek,Almelo,Overijssel,VBO,6.655789,52.312627
Pastoor Ossestraat,32,d,,7627PM,Bornerbroek,Almelo,Overijssel,VBO,6.655793,52.312780
Pastoor Ossestraat,32,,,7627PM,Bornerbroek,Almelo,Overijssel,VBO,6.655745,52.312133
Pastoor Ossestraat,36,,,7627PM,Bornerbroek,Almelo,Overijssel,VBO,6.655569,52.313672
Pastoor Ossestraat,44,a,,7627PM,Bornerbroek,Almelo,Overijssel,VBO,6.654975,52.323247
Pastoor Ossestraat,44,,,7627PM,Bornerbroek,Almelo,Overijssel,VBO,6.654909,52.323370
Pastoor Ossestraat,46,,,7627PM,Bornerbroek,Almelo,Overijssel,VBO,6.657042,52.327741
Pastoor Ossestraat,48,,,7627PM,Bornerbroek,Almelo,Overijssel,VBO,6.660315,52.326771
Pastoor Ossestraat,50,,,7627PM,Bornerbroek,Almelo,Overijssel,VBO,6.661717,52.325537
Pastoor Ossestraat,52,,,7627PM,Bornerbroek,Almelo,Overijssel,VBO,6.661217,52.325343
Zuivelhof,2,,,7627PN,Bornerbroek,Almelo,Overijssel,VBO,6.656640,52.310065
Zuivelhof,4,,,7627PN,Bornerbroek,Almelo,Overijssel,VBO,6.656597,52.310102
Zuivelhof,6,,,7627PN,Bornerbroek,Almelo,Overijssel,VBO,6.656615,52.310227
Zuivelhof,8,,,7627PN,Bornerbroek,Almelo,Overijssel,VBO,6.656646,52.310281
Zuivelhof,10,,,7627PN,Bornerbroek,Almelo,Overijssel,VBO,6.656503,52.310426
Meester Woolsstraat,1,,,7627PP,Bornerbroek,Almelo,Overijssel,VBO,6.655139,52.312454
Meester Woolsstraat,3,,,7627PP,Bornerbroek,Almelo,Overijssel,VBO,6.655021,52.312456
Meester Woolsstraat,5,,,7627PP,Bornerbroek,Almelo,Overijssel,VBO,6.654859,52.312439
Meester Woolsstraat,7,,,7627PP,Bornerbroek,Almelo,Overijssel,VBO,6.654757,52.312440
Meester Woolsstraat,9,,,7627PP,Bornerbroek,Almelo,Overijssel,VBO,6.654566,52.312424
Meester Woolsstraat,11,,,7627PP,Bornerbroek,Almelo,Overijssel,VBO,6.654463,52.312408
Meester Woolsstraat,13,,,7627PP,Bornerbroek,Almelo,Overijssel,VBO,6.654271,52.312383
Meester Woolsstraat,15,,,7627PP,Bornerbroek,Almelo,Overijssel,VBO,6.654168,52.312348
Muldersweg,2,,,7627PR,Bornerbroek,Almelo,Overijssel,VBO,6.649877,52.308978
Muldersweg,4,,,7627PR,Bornerbroek,Almelo,Overijssel,VBO,6.649976,52.309355
Muldersweg,6,,,7627PR,Bornerbroek,Almelo,Overijssel,VBO,6.649913,52.309706
Wolbes Landen,1,a,,7627PS,Bornerbroek,Almelo,Overijssel,VBO,6.653954,52.311559
Wolbes Landen,1,b,bedr,7627PS,Bornerbroek,Almelo,Overijssel,VBO,6.653462,52.311789
Wolbes Landen,1,b,huis,7627PS,Bornerbroek,Almelo,Overijssel,VBO,6.653890,52.311877
Wolbes Landen,1,c,,7627PS,Bornerbroek,Almelo,Overijssel,VBO,6.652794,52.311491
Wolbes Landen,1,d,,7627PS,Bornerbroek,Almelo,Overijssel,VBO,6.653040,52.311371
Wolbes Landen,1,e,,7627PS,Bornerbroek,Almelo,Overijssel,VBO,6.653420,52.311349
Wolbes Landen,1,f,,7627PS,Bornerbroek,Almelo,Overijssel,VBO,6.653689,52.312428
Wolbes Landen,1,g,,7627PS,Bornerbroek,Almelo,Overijssel,VBO,6.653608,52.312522
Wolbes Landen,1,k,,7627PS,Bornerbroek,Almelo,Overijssel,VBO,6.653235,52.313008
Wolbes Landen,1,l,,7627PS,Bornerbroek,Almelo,Overijssel,VBO,6.653125,52.313124
Wolbes Landen,3,a,,7627PS,Bornerbroek,Almelo,Overijssel,VBO,6.651480,52.314804
Wolbes Landen,3,b,,7627PS,Bornerbroek,Almelo,Overijssel,VBO,6.651125,52.315232
Wolbes Landen,5,,,7627PS,Bornerbroek,Almelo,Overijssel,VBO,6.649259,52.316113
Wolbes Landen,7,,,7627PS,Bornerbroek,Almelo,Overijssel,VBO,6.648692,52.316820
Wolbes Landen,9,a,,7627PS,Bornerbroek,Almelo,Overijssel,VBO,6.644054,52.319808
Wolbes Landen,9,,,7627PS,Bornerbroek,Almelo,Overijssel,VBO,6.644406,52.319292
Wolbes Landen,13,,,7627PS,Bornerbroek,Almelo,Overijssel,VBO,6.640116,52.321639
Wolbes Landen,15,,,7627PS,Bornerbroek,Almelo,Overijssel,VBO,6.638323,52.322036
Wolbes Landen,17,,,7627PS,Bornerbroek,Almelo,Overijssel,VBO,6.638109,52.321732
Wolbes Landen,4,,,7627PT,Bornerbroek,Almelo,Overijssel,VBO,6.654793,52.311649
Wolbes Landen,6,,,7627PT,Bornerbroek,Almelo,Overijssel,VBO,6.654765,52.311685
Wolbes Landen,8,,,7627PT,Bornerbroek,Almelo,Overijssel,VBO,6.654651,52.311803
Wolbes Landen,10,a,,7627PT,Bornerbroek,Almelo,Overijssel,VBO,6.654523,52.311967
Wolbes Landen,10,b,,7627PT,Bornerbroek,Almelo,Overijssel,VBO,6.654481,52.312021
Wolbes Landen,10,c,,7627PT,Bornerbroek,Almelo,Overijssel,VBO,6.654381,52.312130
Wolbes Landen,10,d,,7627PT,Bornerbroek,Almelo,Overijssel,VBO,6.654354,52.312184
Wolbes Landen,10,,,7627PT,Bornerbroek,Almelo,Overijssel,VBO,6.654623,52.311849
Wolbes Landen,12,,,7627PT,Bornerbroek,Almelo,Overijssel,VBO,6.653600,52.313028
Wolbes Landen,14,,,7627PT,Bornerbroek,Almelo,Overijssel,VBO,6.652637,52.314225
Wolbes Landen,16,a,,7627PT,Bornerbroek,Almelo,Overijssel,VBO,6.647139,52.317888
Wolbes Landen,16,,,7627PT,Bornerbroek,Almelo,Overijssel,VBO,6.647777,52.317639
Derksweg,1,a,,7627PV,Bornerbroek,Almelo,Overijssel,VBO,6.644276,52.322410
Derksweg,1,b,,7627PV,Bornerbroek,Almelo,Overijssel,VBO,6.644311,52.322476
Hoeselderdijk,5,,,7627PW,Bornerbroek,Almelo,Overijssel,VBO,6.627612,52.321438
Hoeselderdijk,7,,,7627PW,Bornerbroek,Almelo,Overijssel,VBO,6.625909,52.320333
Hoeselderdijk,9,,,7627PW,Bornerbroek,Almelo,Overijssel,VBO,6.623955,52.319158
Hoeselderdijk,11,,,7627PW,Bornerbroek,Almelo,Overijssel,VBO,6.618790,52.315922
Hoeselderdijk,12,a,,7627PW,Bornerbroek,Almelo,Overijssel,VBO,6.621498,52.318280
Hoeselderdijk,12,,,7627PW,Bornerbroek,Almelo,Overijssel,VBO,6.621619,52.318231
Hoeselderdijk,13,,,7627PW,Bornerbroek,Almelo,Overijssel,VBO,6.615126,52.311259
Hoeselderdijk,14,,,7627PW,Bornerbroek,Almelo,Overijssel,VBO,6.617480,52.318389
Keeriet,1,,,7627PX,Bornerbroek,Almelo,Overijssel,VBO,6.653566,52.312567
Keeriet,6,,,7627PX,Bornerbroek,Almelo,Overijssel,VBO,6.652799,52.313008
Keeriet,10,,,7627PX,Bornerbroek,Almelo,Overijssel,VBO,6.652365,52.312791
Keeriet,18,,,7627PX,Bornerbroek,Almelo,Overijssel,VBO,6.652161,52.312361
Keeriet,20,,,7627PX,Bornerbroek,Almelo,Overijssel,VBO,6.652346,52.312221
Keeriet,25,,,7627PX,Bornerbroek,Almelo,Overijssel,VBO,6.653728,52.312378
Schapendrift,2,,,7627RA,Bornerbroek,Almelo,Overijssel,VBO,6.656184,52.306960
Schapendrift,3,,,7627RA,Bornerbroek,Almelo,Overijssel,VBO,6.656803,52.307061
Schapendrift,5,,,7627RA,Bornerbroek,Almelo,Overijssel,VBO,6.656912,52.306763
Schapendrift,7,a,,7627RA,Bornerbroek,Almelo,Overijssel,VBO,6.657118,52.306276
Schapendrift,7,,,7627RA,Bornerbroek,Almelo,Overijssel,VBO,6.657036,52.306501
Schapendrift,9,,,7627RA,Bornerbroek,Almelo,Overijssel,VBO,6.657424,52.306210
Schapendrift,11,a,,7627RA,Bornerbroek,Almelo,Overijssel,VBO,6.658435,52.304131
Schapendrift,11,b,,7627RA,Bornerbroek,Almelo,Overijssel,VBO,6.658912,52.303902
Schapendrift,11,,,7627RA,Bornerbroek,Almelo,Overijssel,VBO,6.658377,52.304150
Schapendrift,13,,,7627RA,Bornerbroek,Almelo,Overijssel,VBO,6.659644,52.302842
Schapendrift,20,,,7627RA,Bornerbroek,Almelo,Overijssel,VBO,6.658075,52.303344
Schapendrift,22,,,7627RA,Bornerbroek,Almelo,Overijssel,VBO,6.658259,52.303118
Goordijk,1,,,7627RB,Bornerbroek,Almelo,Overijssel,VBO,6.628838,52.292878
Grasbroekweg,1,,,7627RC,Bornerbroek,Almelo,Overijssel,VBO,6.648132,52.295043
Grasbroekweg,3,,,7627RC,Bornerbroek,Almelo,Overijssel,VBO,6.656627,52.297814
Kooiweg,2,a,,7627RD,Bornerbroek,Almelo,Overijssel,VBO,6.689534,52.312584
Kooiweg,2,,,7627RD,Bornerbroek,Almelo,Overijssel,VBO,6.689373,52.312586
Kooiweg,4,,,7627RD,Bornerbroek,Almelo,Overijssel,VBO,6.690686,52.311861
Semmekrotsweg,2,a,,7627RE,Bornerbroek,Almelo,Overijssel,VBO,6.632127,52.301427
Semmekrotsweg,2,,,7627RE,Bornerbroek,Almelo,Overijssel,VBO,6.632241,52.301327
Semmekrotsweg,4,,,7627RE,Bornerbroek,Almelo,Overijssel,VBO,6.632585,52.301027
Slampsweg,2,,,7627RG,Bornerbroek,Almelo,Overijssel,VBO,6.633555,52.297996
Slampsweg,4,,,7627RG,Bornerbroek,Almelo,Overijssel,VBO,6.636746,52.295725
Slampsweg,6,,,7627RG,Bornerbroek,Almelo,Overijssel,VBO,6.637126,52.295667
Spooldersweg,1,a,,7627RH,Bornerbroek,Almelo,Overijssel,VBO,6.628980,52.292193
Spooldersweg,1,,,7627RH,Bornerbroek,Almelo,Overijssel,VBO,6.628864,52.292221
Grote Bavenkelsweg,1,,,7627RJ,Bornerbroek,Almelo,Overijssel,VBO,6.692106,52.322272
Grote Bavenkelsweg,3,,,7627RJ,Bornerbroek,Almelo,Overijssel,VBO,6.692124,52.322362
Grote Bavenkelsweg,5,,,7627RJ,Bornerbroek,Almelo,Overijssel,VBO,6.692509,52.323499
Grote Bavenkelsweg,7,a,,7627RJ,Bornerbroek,Almelo,Overijssel,VBO,6.693355,52.325827
Grote Bavenkelsweg,7,,,7627RJ,Bornerbroek,Almelo,Overijssel,VBO,6.693367,52.325233
Grote Bavenkelsweg,9,,,7627RJ,Bornerbroek,Almelo,Overijssel,VBO,6.693598,52.326085
Grote Bavenkelsweg,11,,,7627RJ,Bornerbroek,Almelo,Overijssel,VBO,6.694422,52.326669
Grote Bavenkelsweg,13,,,7627RJ,Bornerbroek,Almelo,Overijssel,VBO,6.694328,52.326985
Grote Bavenkelsweg,2,,,7627RK,Bornerbroek,Almelo,Overijssel,VBO,6.693415,52.322860
Grote Bavenkelsweg,4,,,7627RK,Bornerbroek,Almelo,Overijssel,VBO,6.693372,52.322914
Grote Bavenkelsweg,6,a,,7627RK,Bornerbroek,Almelo,Overijssel,VBO,6.694754,52.322998
Grote Bavenkelsweg,6,,,7627RK,Bornerbroek,Almelo,Overijssel,VBO,6.693723,52.322857
Grote Bavenkelsweg,8,,,7627RK,Bornerbroek,Almelo,Overijssel,VBO,6.693964,52.324076
Grote Bavenkelsweg,10,a,,7627RK,Bornerbroek,Almelo,Overijssel,VBO,6.695148,52.324423
Grote Bavenkelsweg,10,,,7627RK,Bornerbroek,Almelo,Overijssel,VBO,6.694554,52.324178
Grote Bavenkelsweg,12,a,,7627RK,Bornerbroek,Almelo,Overijssel,VBO,6.694541,52.324735
Grote Bavenkelsweg,12,b,,7627RK,Bornerbroek,Almelo,Overijssel,VBO,6.693845,52.324527
Grote Bavenkelsweg,12,,,7627RK,Bornerbroek,Almelo,Overijssel,VBO,6.696179,52.325077
Grote Bavenkelsweg,14,,,7627RK,Bornerbroek,Almelo,Overijssel,VBO,6.694902,52.326035
Zeilkerweg,3,a,,7627RL,Bornerbroek,Almelo,Overijssel,VBO,6.699098,52.323101
Zeilkerweg,3,,,7627RL,Bornerbroek,Almelo,Overijssel,VBO,6.699018,52.323029
Zeilkerweg,5,,,7627RL,Bornerbroek,Almelo,Overijssel,VBO,6.699132,52.322734
Hoonbrink,1,a,,7627SB,Bornerbroek,Almelo,Overijssel,VBO,6.656655,52.312068
Hoonbrink,1,b,,7627SB,Bornerbroek,Almelo,Overijssel,VBO,6.656716,52.311957
Hoonbrink,1,,,7627SB,Bornerbroek,Almelo,Overijssel,VBO,6.656539,52.312188
Hoonbrink,2,,,7627SB,Bornerbroek,Almelo,Overijssel,VBO,6.656787,52.312742
Hoonbrink,3,,,7627SB,Bornerbroek,Almelo,Overijssel,VBO,6.656511,52.312251
Hoonbrink,4,,,7627SB,Bornerbroek,Almelo,Overijssel,VBO,6.656756,52.312871
Hoonbrink,5,,,7627SB,Bornerbroek,Almelo,Overijssel,VBO,6.656486,52.312379
Hoonbrink,7,,,7627SB,Bornerbroek,Almelo,Overijssel,VBO,6.656453,52.312443
Hoonbrink,9,,,7627SB,Bornerbroek,Almelo,Overijssel,VBO,6.656344,52.312558
Hoonbrink,11,,,7627SB,Bornerbroek,Almelo,Overijssel,VBO,6.656316,52.312612
Hoonbrink,13,,,7627SB,Bornerbroek,Almelo,Overijssel,VBO,6.656247,52.312748
Hoonbrink,15,,,7627SB,Bornerbroek,Almelo,Overijssel,VBO,6.656234,52.312802
Moats,1,,,7627SC,Bornerbroek,Almelo,Overijssel,VBO,6.656828,52.312571
Moats,2,,,7627SC,Bornerbroek,Almelo,Overijssel,VBO,6.656954,52.312345
Moats,3,,,7627SC,Bornerbroek,Almelo,Overijssel,VBO,6.657050,52.312614
Moats,4,,,7627SC,Bornerbroek,Almelo,Overijssel,VBO,6.657175,52.312387
Moats,5,,,7627SC,Bornerbroek,Almelo,Overijssel,VBO,6.657257,52.312681
Moats,6,,,7627SC,Bornerbroek,Almelo,Overijssel,VBO,6.657397,52.312466
Moats,7,,,7627SC,Bornerbroek,Almelo,Overijssel,VBO,6.657521,52.312689
Moats,8,,,7627SC,Bornerbroek,Almelo,Overijssel,VBO,6.657619,52.312536
Wolbert,1,,,7627SE,Bornerbroek,Almelo,Overijssel,VBO,6.657263,52.312899
