openbareruimtenaam,huisnummer,huisletter,huisnummertoevoeging,postcode,woonplaatsnaam,gemeentenaam,provincienaam,typeadresseerbaarobject,longitude,latitude
Noordweg,4,,,7635LA,Lattrop-Breklenkamp,Dinkelland,Overijssel,VBO,6.984106,52.463754
Noordweg,8,,,7635LA,Lattrop-Breklenkamp,Dinkelland,Overijssel,VBO,6.988788,52.467062
Aaksbergweg,1,,,7635LB,Lattrop-Breklenkamp,Dinkelland,Overijssel,VBO,6.982891,52.461488
Aaksbergweg,6,,BEDR,7635LB,Lattrop-Breklenkamp,Dinkelland,Overijssel,VBO,6.988597,52.461797
Aaksbergweg,6,,,7635LB,Lattrop-Breklenkamp,Dinkelland,Overijssel,VBO,6.988532,52.461892
Rotmanweg,2,,,7635LC,Lattrop-Breklenkamp,Dinkelland,Overijssel,VBO,6.987030,52.455499
Rotmanweg,7,,,7635LC,Lattrop-Breklenkamp,Dinkelland,Overijssel,VBO,6.977063,52.462708
Rotmanweg,9,,,7635LC,Lattrop-Breklenkamp,Dinkelland,Overijssel,VBO,6.976811,52.463070
Schabosweg,3,,,7635LD,Lattrop-Breklenkamp,Dinkelland,Overijssel,VBO,6.984390,52.456550
Schabosweg,6,A,,7635LD,Lattrop-Breklenkamp,Dinkelland,Overijssel,VBO,6.987747,52.458240
Schabosweg,6,,,7635LD,Lattrop-Breklenkamp,Dinkelland,Overijssel,VBO,6.987929,52.457977
Schabosweg,8,,,7635LD,Lattrop-Breklenkamp,Dinkelland,Overijssel,VBO,6.988907,52.458970
Schabosweg,9,,,7635LD,Lattrop-Breklenkamp,Dinkelland,Overijssel,VBO,6.994473,52.459066
Brookmanweg,4,,,7635LE,Lattrop-Breklenkamp,Dinkelland,Overijssel,VBO,6.976794,52.454414
Brookmanweg,8,,,7635LE,Lattrop-Breklenkamp,Dinkelland,Overijssel,VBO,6.977445,52.454496
Lemsmatenweg,4,,,7635LG,Lattrop-Breklenkamp,Dinkelland,Overijssel,VBO,6.986829,52.452778
Lemsmatenweg,5,,,7635LG,Lattrop-Breklenkamp,Dinkelland,Overijssel,VBO,6.989281,52.454687
Lemsmatenweg,8,,,7635LG,Lattrop-Breklenkamp,Dinkelland,Overijssel,VBO,6.991273,52.452386
Kommiezendijk,4,,,7635LH,Lattrop-Breklenkamp,Dinkelland,Overijssel,VBO,7.000310,52.424253
Kommiezendijk,5,,,7635LH,Lattrop-Breklenkamp,Dinkelland,Overijssel,VBO,6.996391,52.425646
Kommiezendijk,8,,,7635LH,Lattrop-Breklenkamp,Dinkelland,Overijssel,VBO,6.999226,52.427980
Kommiezendijk,19,,,7635LH,Lattrop-Breklenkamp,Dinkelland,Overijssel,VBO,6.995943,52.450524
Kommiezendijk,21,,SCHU,7635LH,Lattrop-Breklenkamp,Dinkelland,Overijssel,VBO,6.997399,52.450927
Kommiezendijk,21,,,7635LH,Lattrop-Breklenkamp,Dinkelland,Overijssel,VBO,6.995835,52.451218
Hoofdstraat,2,,,7635LJ,Lattrop-Breklenkamp,Dinkelland,Overijssel,VBO,6.971873,52.431235
Hoofdstraat,3,,,7635LJ,Lattrop-Breklenkamp,Dinkelland,Overijssel,VBO,6.970468,52.431820
Hoofdstraat,5,,,7635LJ,Lattrop-Breklenkamp,Dinkelland,Overijssel,VBO,6.971410,52.438001
Hoofdstraat,6,,,7635LJ,Lattrop-Breklenkamp,Dinkelland,Overijssel,VBO,6.971745,52.432989
Hoofdstraat,7,A,,7635LJ,Lattrop-Breklenkamp,Dinkelland,Overijssel,VBO,6.973335,52.439198
Hoofdstraat,7,,,7635LJ,Lattrop-Breklenkamp,Dinkelland,Overijssel,VBO,6.972995,52.439139
Hoofdstraat,8,,,7635LJ,Lattrop-Breklenkamp,Dinkelland,Overijssel,VBO,6.971933,52.433715
Hoofdstraat,9,,,7635LJ,Lattrop-Breklenkamp,Dinkelland,Overijssel,VBO,6.975286,52.439864
Hoofdstraat,11,,,7635LJ,Lattrop-Breklenkamp,Dinkelland,Overijssel,VBO,6.976552,52.441545
Hoofdstraat,12,A,,7635LJ,Lattrop-Breklenkamp,Dinkelland,Overijssel,VBO,6.972029,52.434361
Hoofdstraat,12,,,7635LJ,Lattrop-Breklenkamp,Dinkelland,Overijssel,VBO,6.971972,52.434416
Hoofdstraat,14,,,7635LJ,Lattrop-Breklenkamp,Dinkelland,Overijssel,VBO,6.971801,52.435389
Hoofdstraat,15,,,7635LJ,Lattrop-Breklenkamp,Dinkelland,Overijssel,VBO,6.976346,52.446852
Hoofdstraat,18,,,7635LJ,Lattrop-Breklenkamp,Dinkelland,Overijssel,VBO,6.973895,52.437177
Hoofdstraat,20,,,7635LJ,Lattrop-Breklenkamp,Dinkelland,Overijssel,VBO,6.973673,52.437126
Hoofdstraat,21,,,7635LJ,Lattrop-Breklenkamp,Dinkelland,Overijssel,VBO,6.977633,52.449091
Hoofdstraat,23,,,7635LJ,Lattrop-Breklenkamp,Dinkelland,Overijssel,VBO,6.977912,52.449078
Hoofdstraat,24,,,7635LJ,Lattrop-Breklenkamp,Dinkelland,Overijssel,VBO,6.976966,52.439149
Hoofdstraat,26,,,7635LJ,Lattrop-Breklenkamp,Dinkelland,Overijssel,VBO,6.977602,52.440057
Hoofdstraat,27,,,7635LJ,Lattrop-Breklenkamp,Dinkelland,Overijssel,VBO,6.980059,52.451926
Hoofdstraat,28,,,7635LJ,Lattrop-Breklenkamp,Dinkelland,Overijssel,VBO,6.977781,52.440109
Hoofdstraat,29,,,7635LJ,Lattrop-Breklenkamp,Dinkelland,Overijssel,VBO,6.980236,52.451941
Hoofdstraat,32,,,7635LJ,Lattrop-Breklenkamp,Dinkelland,Overijssel,VBO,6.978504,52.448369
Hoofdstraat,34,,,7635LJ,Lattrop-Breklenkamp,Dinkelland,Overijssel,VBO,6.978729,52.448887
Seiseweg,4,,,7635LK,Lattrop-Breklenkamp,Dinkelland,Overijssel,VBO,6.982895,52.446503
Seiseweg,5,,,7635LK,Lattrop-Breklenkamp,Dinkelland,Overijssel,VBO,6.985102,52.447759
Vleierweg,3,,,7635LL,Lattrop-Breklenkamp,Dinkelland,Overijssel,VBO,6.980033,52.443018
Vleierweg,7,,,7635LL,Lattrop-Breklenkamp,Dinkelland,Overijssel,VBO,6.985533,52.443807
Vleierweg,15,,,7635LL,Lattrop-Breklenkamp,Dinkelland,Overijssel,VBO,6.992352,52.440766
Jonkershoesweg,1,,,7635LM,Lattrop-Breklenkamp,Dinkelland,Overijssel,VBO,6.970284,52.437773
Jonkershoesweg,2,,,7635LM,Lattrop-Breklenkamp,Dinkelland,Overijssel,VBO,6.971147,52.438049
Jonkershoesweg,4,,,7635LM,Lattrop-Breklenkamp,Dinkelland,Overijssel,VBO,6.968049,52.438639
Jonkershoesweg,5,,,7635LM,Lattrop-Breklenkamp,Dinkelland,Overijssel,VBO,6.964200,52.439589
Jonkershoesweg,7,,,7635LM,Lattrop-Breklenkamp,Dinkelland,Overijssel,VBO,6.963929,52.440653
Jonkershoesweg,9,A,,7635LM,Lattrop-Breklenkamp,Dinkelland,Overijssel,VBO,6.967064,52.443569
Jonkershoesweg,9,,,7635LM,Lattrop-Breklenkamp,Dinkelland,Overijssel,VBO,6.967046,52.443479
Jonkershoesweg,10,,,7635LM,Lattrop-Breklenkamp,Dinkelland,Overijssel,VBO,6.968200,52.441603
Jonkershoesweg,11,,,7635LM,Lattrop-Breklenkamp,Dinkelland,Overijssel,VBO,6.967925,52.445023
Jonkershoesweg,12,,TRAF,7635LM,Lattrop-Breklenkamp,Dinkelland,Overijssel,VBO,6.967115,52.442957
Jonkershoesweg,12,,,7635LM,Lattrop-Breklenkamp,Dinkelland,Overijssel,VBO,6.967407,52.442890
Jonkershoesweg,13,,,7635LM,Lattrop-Breklenkamp,Dinkelland,Overijssel,VBO,6.968449,52.444872
Jonkershoesweg,14,,,7635LM,Lattrop-Breklenkamp,Dinkelland,Overijssel,VBO,6.968865,52.444165
Jonkershoesweg,16,A,,7635LM,Lattrop-Breklenkamp,Dinkelland,Overijssel,VBO,6.972476,52.443533
Jonkershoesweg,16,,,7635LM,Lattrop-Breklenkamp,Dinkelland,Overijssel,VBO,6.972374,52.443570
Brekkelerveldweg,2,,,7635LN,Lattrop-Breklenkamp,Dinkelland,Overijssel,VBO,6.978728,52.438226
Brekkelerveldweg,6,,,7635LN,Lattrop-Breklenkamp,Dinkelland,Overijssel,VBO,6.982662,52.437203
Spiekweg,6,,,7635LP,Lattrop-Breklenkamp,Dinkelland,Overijssel,VBO,6.964689,52.433075
Spiekweg,7,,B1,7635LP,Lattrop-Breklenkamp,Dinkelland,Overijssel,VBO,6.962393,52.431379
Spiekweg,7,,B2,7635LP,Lattrop-Breklenkamp,Dinkelland,Overijssel,VBO,6.962777,52.431024
Spiekweg,7,,B3,7635LP,Lattrop-Breklenkamp,Dinkelland,Overijssel,VBO,6.962520,52.431225
Spiekweg,7,,B4,7635LP,Lattrop-Breklenkamp,Dinkelland,Overijssel,VBO,6.962538,52.430901
Spiekweg,7,,B44,7635LP,Lattrop-Breklenkamp,Dinkelland,Overijssel,VBO,6.961896,52.430631
Spiekweg,7,,B45,7635LP,Lattrop-Breklenkamp,Dinkelland,Overijssel,VBO,6.961867,52.430658
Spiekweg,7,,B46,7635LP,Lattrop-Breklenkamp,Dinkelland,Overijssel,VBO,6.962083,52.430943
Spiekweg,7,,B47,7635LP,Lattrop-Breklenkamp,Dinkelland,Overijssel,VBO,6.962041,52.430980
Spiekweg,7,,B48,7635LP,Lattrop-Breklenkamp,Dinkelland,Overijssel,VBO,6.961659,52.431003
Spiekweg,7,,B49,7635LP,Lattrop-Breklenkamp,Dinkelland,Overijssel,VBO,6.961601,52.431030
Spiekweg,7,,B5,7635LP,Lattrop-Breklenkamp,Dinkelland,Overijssel,VBO,6.962139,52.431257
Spiekweg,7,,B50,7635LP,Lattrop-Breklenkamp,Dinkelland,Overijssel,VBO,6.961255,52.430819
Spiekweg,7,,B51,7635LP,Lattrop-Breklenkamp,Dinkelland,Overijssel,VBO,6.961257,52.430864
Spiekweg,7,,B52,7635LP,Lattrop-Breklenkamp,Dinkelland,Overijssel,VBO,6.961784,52.430794
Spiekweg,7,,B53,7635LP,Lattrop-Breklenkamp,Dinkelland,Overijssel,VBO,6.961741,52.430831
Spiekweg,7,,B54,7635LP,Lattrop-Breklenkamp,Dinkelland,Overijssel,VBO,6.961466,52.430547
Spiekweg,7,,B55,7635LP,Lattrop-Breklenkamp,Dinkelland,Overijssel,VBO,6.961468,52.430601
Spiekweg,7,,B56,7635LP,Lattrop-Breklenkamp,Dinkelland,Overijssel,VBO,6.961068,52.430498
Spiekweg,7,,B57,7635LP,Lattrop-Breklenkamp,Dinkelland,Overijssel,VBO,6.961069,52.430543
Spiekweg,7,,B58,7635LP,Lattrop-Breklenkamp,Dinkelland,Overijssel,VBO,6.960656,52.430495
Spiekweg,7,,B59,7635LP,Lattrop-Breklenkamp,Dinkelland,Overijssel,VBO,6.960658,52.430548
Spiekweg,7,,B6,7635LP,Lattrop-Breklenkamp,Dinkelland,Overijssel,VBO,6.962268,52.430752
Spiekweg,7,,B60,7635LP,Lattrop-Breklenkamp,Dinkelland,Overijssel,VBO,6.960841,52.430744
Spiekweg,7,,B61,7635LP,Lattrop-Breklenkamp,Dinkelland,Overijssel,VBO,6.960843,52.430789
Spiekweg,7,,B62,7635LP,Lattrop-Breklenkamp,Dinkelland,Overijssel,VBO,6.960444,52.430758
Spiekweg,7,,B63,7635LP,Lattrop-Breklenkamp,Dinkelland,Overijssel,VBO,6.960428,52.430722
Spiekweg,7,,B64,7635LP,Lattrop-Breklenkamp,Dinkelland,Overijssel,VBO,6.960002,52.430737
Spiekweg,7,,B65,7635LP,Lattrop-Breklenkamp,Dinkelland,Overijssel,VBO,6.960001,52.430692
Spiekweg,7,,B66,7635LP,Lattrop-Breklenkamp,Dinkelland,Overijssel,VBO,6.960111,52.430475
Spiekweg,7,,B67,7635LP,Lattrop-Breklenkamp,Dinkelland,Overijssel,VBO,6.960112,52.430520
Spiekweg,7,,B68,7635LP,Lattrop-Breklenkamp,Dinkelland,Overijssel,VBO,6.960386,52.430345
Spiekweg,7,,B69,7635LP,Lattrop-Breklenkamp,Dinkelland,Overijssel,VBO,6.960388,52.430399
Spiekweg,7,,B7,7635LP,Lattrop-Breklenkamp,Dinkelland,Overijssel,VBO,6.961855,52.431135
Spiekweg,7,,,7635LP,Lattrop-Breklenkamp,Dinkelland,Overijssel,VBO,6.965280,52.431512
Spiekweg,8,,,7635LP,Lattrop-Breklenkamp,Dinkelland,Overijssel,VBO,6.964458,52.433204
Spiekweg,9,,,7635LP,Lattrop-Breklenkamp,Dinkelland,Overijssel,VBO,6.964511,52.431810
Spiekweg,12,,,7635LP,Lattrop-Breklenkamp,Dinkelland,Overijssel,VBO,6.960483,52.434326
Spiekweg,16,,,7635LP,Lattrop-Breklenkamp,Dinkelland,Overijssel,VBO,6.958310,52.427380
Spiekweg,18,,,7635LP,Lattrop-Breklenkamp,Dinkelland,Overijssel,VBO,6.958440,52.427324
Binnenbroekweg,4,A,,7635LR,Lattrop-Breklenkamp,Dinkelland,Overijssel,VBO,6.965827,52.428700
Binnenbroekweg,4,,,7635LR,Lattrop-Breklenkamp,Dinkelland,Overijssel,VBO,6.966280,52.428631
Binnenbroekweg,6,,,7635LR,Lattrop-Breklenkamp,Dinkelland,Overijssel,VBO,6.965314,52.428761
Eikweg,3,,,7635LS,Lattrop-Breklenkamp,Dinkelland,Overijssel,VBO,6.971805,52.429726
Eikweg,4,,,7635LS,Lattrop-Breklenkamp,Dinkelland,Overijssel,VBO,6.970616,52.429787
Eikweg,5,,,7635LS,Lattrop-Breklenkamp,Dinkelland,Overijssel,VBO,6.971356,52.429525
Eikweg,8,,,7635LS,Lattrop-Breklenkamp,Dinkelland,Overijssel,VBO,6.969313,52.427907
Eikweg,10,,,7635LS,Lattrop-Breklenkamp,Dinkelland,Overijssel,VBO,6.969368,52.427799
Ottershagenweg,28,,,7635LT,Lattrop-Breklenkamp,Dinkelland,Overijssel,VBO,6.966040,52.424364
Ottershagenweg,29,,,7635LT,Lattrop-Breklenkamp,Dinkelland,Overijssel,VBO,6.971607,52.427077
Ottershagenweg,30,,,7635LT,Lattrop-Breklenkamp,Dinkelland,Overijssel,VBO,6.969841,52.425401
Ottershagenweg,31,,,7635LT,Lattrop-Breklenkamp,Dinkelland,Overijssel,VBO,6.972048,52.427071
Ottershagenweg,33,,,7635LT,Lattrop-Breklenkamp,Dinkelland,Overijssel,VBO,6.973967,52.427297
Ottershagenweg,35,,,7635LT,Lattrop-Breklenkamp,Dinkelland,Overijssel,VBO,6.974421,52.427246
Ottershagenweg,37,,,7635LT,Lattrop-Breklenkamp,Dinkelland,Overijssel,VBO,6.974743,52.427205
Ottershagenweg,45,,,7635LT,Lattrop-Breklenkamp,Dinkelland,Overijssel,VBO,6.975731,52.427273
Ottershagenweg,47,,,7635LT,Lattrop-Breklenkamp,Dinkelland,Overijssel,VBO,6.976075,52.427026
Ottershagenweg,50,,,7635LT,Lattrop-Breklenkamp,Dinkelland,Overijssel,VBO,6.974921,52.426825
Ottershagenweg,52,,,7635LT,Lattrop-Breklenkamp,Dinkelland,Overijssel,VBO,6.975376,52.426810
Horstweg,4,,,7635LV,Lattrop-Breklenkamp,Dinkelland,Overijssel,VBO,6.969695,52.420918
Horstweg,8,,,7635LV,Lattrop-Breklenkamp,Dinkelland,Overijssel,VBO,6.969675,52.423219
Horstweg,12,,,7635LV,Lattrop-Breklenkamp,Dinkelland,Overijssel,VBO,6.966805,52.422880
Pastoor Brandtsstraat,1,,,7635LW,Lattrop-Breklenkamp,Dinkelland,Overijssel,VBO,6.976168,52.425505
Pastoor Brandtsstraat,3,,,7635LW,Lattrop-Breklenkamp,Dinkelland,Overijssel,VBO,6.976344,52.425494
Pastoor Brandtsstraat,4,,,7635LW,Lattrop-Breklenkamp,Dinkelland,Overijssel,VBO,6.976072,52.425303
Pastoor Brandtsstraat,5,,,7635LW,Lattrop-Breklenkamp,Dinkelland,Overijssel,VBO,6.976549,52.425482
Pastoor Brandtsstraat,6,,,7635LW,Lattrop-Breklenkamp,Dinkelland,Overijssel,VBO,6.976319,52.425207
Pastoor Brandtsstraat,7,,,7635LW,Lattrop-Breklenkamp,Dinkelland,Overijssel,VBO,6.976755,52.425497
Pastoor Brandtsstraat,8,,,7635LW,Lattrop-Breklenkamp,Dinkelland,Overijssel,VBO,6.976700,52.425193
Pastoor Brandtsstraat,9,,,7635LW,Lattrop-Breklenkamp,Dinkelland,Overijssel,VBO,6.976947,52.425504
Pastoor Brandtsstraat,10,,,7635LW,Lattrop-Breklenkamp,Dinkelland,Overijssel,VBO,6.976893,52.425226
Pastoor Brandtsstraat,11,,,7635LW,Lattrop-Breklenkamp,Dinkelland,Overijssel,VBO,6.977153,52.425510
Pastoor Brandtsstraat,12,,,7635LW,Lattrop-Breklenkamp,Dinkelland,Overijssel,VBO,6.976996,52.425225
Pastoor Brandtsstraat,13,,,7635LW,Lattrop-Breklenkamp,Dinkelland,Overijssel,VBO,6.977493,52.425559
Pastoor Brandtsstraat,14,,,7635LW,Lattrop-Breklenkamp,Dinkelland,Overijssel,VBO,6.977202,52.425240
Pastoor Brandtsstraat,16,,,7635LW,Lattrop-Breklenkamp,Dinkelland,Overijssel,VBO,6.977291,52.425248
Pastoor Brandtsstraat,18,,,7635LW,Lattrop-Breklenkamp,Dinkelland,Overijssel,VBO,6.977497,52.425254
Braakweg,9,A,,7635LX,Lattrop-Breklenkamp,Dinkelland,Overijssel,VBO,6.977129,52.419928
Braakweg,9,,,7635LX,Lattrop-Breklenkamp,Dinkelland,Overijssel,VBO,6.977460,52.419744
Braakweg,11,A,,7635LX,Lattrop-Breklenkamp,Dinkelland,Overijssel,VBO,6.979367,52.419197
Braakweg,11,,,7635LX,Lattrop-Breklenkamp,Dinkelland,Overijssel,VBO,6.979488,52.419285
Braakweg,12,,,7635LX,Lattrop-Breklenkamp,Dinkelland,Overijssel,VBO,6.980911,52.420848
Braakweg,13,,,7635LX,Lattrop-Breklenkamp,Dinkelland,Overijssel,VBO,6.978757,52.420230
Braakweg,15,,,7635LX,Lattrop-Breklenkamp,Dinkelland,Overijssel,VBO,6.983580,52.420659
Brandkolk,1,,,7635LZ,Lattrop-Breklenkamp,Dinkelland,Overijssel,VBO,6.976723,52.425012
Brandkolk,3,,,7635LZ,Lattrop-Breklenkamp,Dinkelland,Overijssel,VBO,6.976736,52.424958
Brandkolk,5,,,7635LZ,Lattrop-Breklenkamp,Dinkelland,Overijssel,VBO,6.976746,52.424832
Brandkolk,6,,,7635LZ,Lattrop-Breklenkamp,Dinkelland,Overijssel,VBO,6.976213,52.424714
Brandkolk,7,,,7635LZ,Lattrop-Breklenkamp,Dinkelland,Overijssel,VBO,6.976744,52.424778
Brandkolk,8,,,7635LZ,Lattrop-Breklenkamp,Dinkelland,Overijssel,VBO,6.976179,52.424588
Brandkolk,9,,,7635LZ,Lattrop-Breklenkamp,Dinkelland,Overijssel,VBO,6.976754,52.424643
Brandkolk,10,,,7635LZ,Lattrop-Breklenkamp,Dinkelland,Overijssel,VBO,6.976189,52.424462
Brandkolk,11,,,7635LZ,Lattrop-Breklenkamp,Dinkelland,Overijssel,VBO,6.977211,52.424682
Brandkolk,12,,,7635LZ,Lattrop-Breklenkamp,Dinkelland,Overijssel,VBO,6.976271,52.424281
Brandkolk,13,,,7635LZ,Lattrop-Breklenkamp,Dinkelland,Overijssel,VBO,6.977432,52.424679
Brandkolk,14,,,7635LZ,Lattrop-Breklenkamp,Dinkelland,Overijssel,VBO,6.976579,52.424277
Brandkolk,16,,,7635LZ,Lattrop-Breklenkamp,Dinkelland,Overijssel,VBO,6.976815,52.424292
Brandkolk,18,,,7635LZ,Lattrop-Breklenkamp,Dinkelland,Overijssel,VBO,6.977022,52.424316
Brandkolk,20,,,7635LZ,Lattrop-Breklenkamp,Dinkelland,Overijssel,VBO,6.977271,52.424304
Brandkolk,22,,,7635LZ,Lattrop-Breklenkamp,Dinkelland,Overijssel,VBO,6.977508,52.424337
Dorpsstraat,1,,,7635NA,Lattrop-Breklenkamp,Dinkelland,Overijssel,VBO,6.972254,52.418447
Dorpsstraat,3,,,7635NA,Lattrop-Breklenkamp,Dinkelland,Overijssel,VBO,6.972575,52.418794
Dorpsstraat,5,A,,7635NA,Lattrop-Breklenkamp,Dinkelland,Overijssel,VBO,6.971721,52.419165
Dorpsstraat,5,,,7635NA,Lattrop-Breklenkamp,Dinkelland,Overijssel,VBO,6.971781,52.419218
Dorpsstraat,7,,,7635NA,Lattrop-Breklenkamp,Dinkelland,Overijssel,VBO,6.970123,52.418071
Dorpsstraat,9,,,7635NA,Lattrop-Breklenkamp,Dinkelland,Overijssel,VBO,6.968913,52.417530
Dorpsstraat,11,,,7635NA,Lattrop-Breklenkamp,Dinkelland,Overijssel,VBO,6.968111,52.416480
Dorpsstraat,15,,,7635NA,Lattrop-Breklenkamp,Dinkelland,Overijssel,VBO,6.973103,52.422859
Dorpsstraat,23,,,7635NA,Lattrop-Breklenkamp,Dinkelland,Overijssel,VBO,6.975059,52.424927
Dorpsstraat,31,,,7635NA,Lattrop-Breklenkamp,Dinkelland,Overijssel,VBO,6.975281,52.425382
Dorpsstraat,33,,,7635NA,Lattrop-Breklenkamp,Dinkelland,Overijssel,VBO,6.975283,52.425427
Dorpsstraat,37,,,7635NA,Lattrop-Breklenkamp,Dinkelland,Overijssel,VBO,6.975289,52.425616
Dorpsstraat,39,,,7635NA,Lattrop-Breklenkamp,Dinkelland,Overijssel,VBO,6.975308,52.425715
Dorpsstraat,41,,,7635NA,Lattrop-Breklenkamp,Dinkelland,Overijssel,VBO,6.975326,52.425822
Dorpsstraat,43,,,7635NA,Lattrop-Breklenkamp,Dinkelland,Overijssel,VBO,6.975328,52.425876
Dorpsstraat,45,,,7635NA,Lattrop-Breklenkamp,Dinkelland,Overijssel,VBO,6.975361,52.425975
Dorpsstraat,47,,,7635NA,Lattrop-Breklenkamp,Dinkelland,Overijssel,VBO,6.975377,52.426019
Dorpsstraat,49,,,7635NA,Lattrop-Breklenkamp,Dinkelland,Overijssel,VBO,6.975381,52.426118
Dorpsstraat,51,A,,7635NA,Lattrop-Breklenkamp,Dinkelland,Overijssel,VBO,6.975474,52.426261
Dorpsstraat,51,,,7635NA,Lattrop-Breklenkamp,Dinkelland,Overijssel,VBO,6.975459,52.426234
Dorpsstraat,53,A,,7635NA,Lattrop-Breklenkamp,Dinkelland,Overijssel,VBO,6.975536,52.426350
Dorpsstraat,53,,,7635NA,Lattrop-Breklenkamp,Dinkelland,Overijssel,VBO,6.975505,52.426305
Dorpsstraat,55,,,7635NA,Lattrop-Breklenkamp,Dinkelland,Overijssel,VBO,6.975854,52.426588
Dorpsstraat,57,,,7635NA,Lattrop-Breklenkamp,Dinkelland,Overijssel,VBO,6.975931,52.426704
Dorpsstraat,59,,,7635NA,Lattrop-Breklenkamp,Dinkelland,Overijssel,VBO,6.975977,52.426748
Dorpsstraat,61,,,7635NB,Lattrop-Breklenkamp,Dinkelland,Overijssel,VBO,6.976250,52.426987
Dorpsstraat,65,,,7635NB,Lattrop-Breklenkamp,Dinkelland,Overijssel,VBO,6.976475,52.427101
Dorpsstraat,67,,,7635NB,Lattrop-Breklenkamp,Dinkelland,Overijssel,VBO,6.976521,52.427146
Dorpsstraat,69,,,7635NB,Lattrop-Breklenkamp,Dinkelland,Overijssel,VBO,6.976629,52.427306
Dorpsstraat,71,,,7635NB,Lattrop-Breklenkamp,Dinkelland,Overijssel,VBO,6.976587,52.427360
Dorpsstraat,73,,,7635NB,Lattrop-Breklenkamp,Dinkelland,Overijssel,VBO,6.976768,52.427484
Dorpsstraat,75,,,7635NB,Lattrop-Breklenkamp,Dinkelland,Overijssel,VBO,6.976834,52.427672
Dorpsstraat,85,,,7635NB,Lattrop-Breklenkamp,Dinkelland,Overijssel,VBO,6.976256,52.428381
Dorpsstraat,89,,,7635NB,Lattrop-Breklenkamp,Dinkelland,Overijssel,VBO,6.975791,52.428531
Dorpsstraat,91,,,7635NB,Lattrop-Breklenkamp,Dinkelland,Overijssel,VBO,6.975517,52.428696
Dorpsstraat,14,,,7635NC,Lattrop-Breklenkamp,Dinkelland,Overijssel,VBO,6.973409,52.422387
Dorpsstraat,18,,,7635NC,Lattrop-Breklenkamp,Dinkelland,Overijssel,VBO,6.975393,52.423170
Dorpsstraat,20,,,7635NC,Lattrop-Breklenkamp,Dinkelland,Overijssel,VBO,6.974671,52.423952
Dorpsstraat,24,,,7635NC,Lattrop-Breklenkamp,Dinkelland,Overijssel,VBO,6.975171,52.424377
Dorpsstraat,26,,,7635NC,Lattrop-Breklenkamp,Dinkelland,Overijssel,VBO,6.975362,52.424761
Dorpsstraat,32,,,7635NC,Lattrop-Breklenkamp,Dinkelland,Overijssel,VBO,6.976005,52.425058
Dorpsstraat,34,,,7635NC,Lattrop-Breklenkamp,Dinkelland,Overijssel,VBO,6.975816,52.425537
Dorpsstraat,36,,,7635NC,Lattrop-Breklenkamp,Dinkelland,Overijssel,VBO,6.975849,52.425644
Dorpsstraat,40,,,7635NC,Lattrop-Breklenkamp,Dinkelland,Overijssel,VBO,6.975860,52.425941
Dorpsstraat,42,,,7635NC,Lattrop-Breklenkamp,Dinkelland,Overijssel,VBO,6.975952,52.426057
Dorpsstraat,44,,,7635NC,Lattrop-Breklenkamp,Dinkelland,Overijssel,VBO,6.976045,52.426181
Dorpsstraat,46,,,7635NC,Lattrop-Breklenkamp,Dinkelland,Overijssel,VBO,6.976166,52.426287
Dorpsstraat,50,,,7635NC,Lattrop-Breklenkamp,Dinkelland,Overijssel,VBO,6.976333,52.426429
Dorpsstraat,64,A,,7635NC,Lattrop-Breklenkamp,Dinkelland,Overijssel,VBO,6.977476,52.427546
Dorpsstraat,64,,,7635NC,Lattrop-Breklenkamp,Dinkelland,Overijssel,VBO,6.977443,52.427448
Dorpsstraat,66,,BEGR,7635NC,Lattrop-Breklenkamp,Dinkelland,Overijssel,VBO,6.980131,52.428598
Dorpsstraat,66,,,7635NC,Lattrop-Breklenkamp,Dinkelland,Overijssel,VBO,6.977436,52.427664
Dorpsstraat,68,,,7635NC,Lattrop-Breklenkamp,Dinkelland,Overijssel,VBO,6.978645,52.428564
Dorpsstraat,70,,,7635ND,Lattrop-Breklenkamp,Dinkelland,Overijssel,VBO,6.977166,52.427928
Dorpsstraat,88,,,7635ND,Lattrop-Breklenkamp,Dinkelland,Overijssel,VBO,6.975686,52.429701
Dorpsstraat,92,,,7635ND,Lattrop-Breklenkamp,Dinkelland,Overijssel,VBO,6.975479,52.430090
Dorpsstraat,94,,,7635ND,Lattrop-Breklenkamp,Dinkelland,Overijssel,VBO,6.975356,52.430343
Disseroltweg,5,,,7635NE,Lattrop-Breklenkamp,Dinkelland,Overijssel,VBO,6.977130,52.426508
Disseroltweg,7,,,7635NE,Lattrop-Breklenkamp,Dinkelland,Overijssel,VBO,6.977361,52.426388
Disseroltweg,9,,CLUB,7635NE,Lattrop-Breklenkamp,Dinkelland,Overijssel,VBO,6.978382,52.426159
Disseroltweg,11,,,7635NE,Lattrop-Breklenkamp,Dinkelland,Overijssel,VBO,6.977722,52.426195
Disseroltweg,13,,,7635NE,Lattrop-Breklenkamp,Dinkelland,Overijssel,VBO,6.977850,52.426076
Disseroltweg,15,,,7635NE,Lattrop-Breklenkamp,Dinkelland,Overijssel,VBO,6.978037,52.425966
Disseroltweg,17,,,7635NE,Lattrop-Breklenkamp,Dinkelland,Overijssel,VBO,6.978362,52.425660
Disseroltweg,23,,,7635NE,Lattrop-Breklenkamp,Dinkelland,Overijssel,VBO,6.978507,52.425537
Disseroltweg,25,,,7635NE,Lattrop-Breklenkamp,Dinkelland,Overijssel,VBO,6.978605,52.425419
Disseroltweg,27,A,,7635NE,Lattrop-Breklenkamp,Dinkelland,Overijssel,VBO,6.978832,52.425173
Disseroltweg,27,,,7635NE,Lattrop-Breklenkamp,Dinkelland,Overijssel,VBO,6.978734,52.425327
Disseroltweg,29,A,,7635NE,Lattrop-Breklenkamp,Dinkelland,Overijssel,VBO,6.981191,52.425348
Disseroltweg,29,,,7635NE,Lattrop-Breklenkamp,Dinkelland,Overijssel,VBO,6.981888,52.425509
Disseroltweg,31,A,,7635NE,Lattrop-Breklenkamp,Dinkelland,Overijssel,VBO,6.981003,52.423773
Disseroltweg,31,,,7635NE,Lattrop-Breklenkamp,Dinkelland,Overijssel,VBO,6.980909,52.423802
Disseroltweg,35,,,7635NE,Lattrop-Breklenkamp,Dinkelland,Overijssel,VBO,6.981697,52.423480
Disseroltweg,37,,,7635NE,Lattrop-Breklenkamp,Dinkelland,Overijssel,VBO,6.981798,52.423416
Disseroltweg,45,,,7635NE,Lattrop-Breklenkamp,Dinkelland,Overijssel,VBO,6.982830,52.422683
Disseroltweg,51,,,7635NE,Lattrop-Breklenkamp,Dinkelland,Overijssel,VBO,6.987067,52.420729
Disseroltweg,2,,,7635NG,Lattrop-Breklenkamp,Dinkelland,Overijssel,VBO,6.976682,52.426316
Disseroltweg,4,,,7635NG,Lattrop-Breklenkamp,Dinkelland,Overijssel,VBO,6.976856,52.426260
Disseroltweg,6,,,7635NG,Lattrop-Breklenkamp,Dinkelland,Overijssel,VBO,6.977015,52.426186
Disseroltweg,8,,,7635NG,Lattrop-Breklenkamp,Dinkelland,Overijssel,VBO,6.977102,52.426140
Disseroltweg,10,,,7635NG,Lattrop-Breklenkamp,Dinkelland,Overijssel,VBO,6.977232,52.426066
Disseroltweg,12,,,7635NG,Lattrop-Breklenkamp,Dinkelland,Overijssel,VBO,6.977303,52.426011
Disseroltweg,14,,,7635NG,Lattrop-Breklenkamp,Dinkelland,Overijssel,VBO,6.977490,52.425892
Disseroltweg,18,,,7635NG,Lattrop-Breklenkamp,Dinkelland,Overijssel,VBO,6.977766,52.425781
Disseroltweg,24,,,7635NG,Lattrop-Breklenkamp,Dinkelland,Overijssel,VBO,6.977986,52.425364
Disseroltweg,26,,,7635NG,Lattrop-Breklenkamp,Dinkelland,Overijssel,VBO,6.978039,52.425220
Disseroltweg,28,,,7635NG,Lattrop-Breklenkamp,Dinkelland,Overijssel,VBO,6.978266,52.424965
Disseroltweg,30,,,7635NG,Lattrop-Breklenkamp,Dinkelland,Overijssel,VBO,6.978408,52.424828
Disseroltweg,32,,,7635NG,Lattrop-Breklenkamp,Dinkelland,Overijssel,VBO,6.980738,52.421758
Disseroltweg,34,,,7635NG,Lattrop-Breklenkamp,Dinkelland,Overijssel,VBO,6.980592,52.423414
Disseroltweg,38,,,7635NG,Lattrop-Breklenkamp,Dinkelland,Overijssel,VBO,6.981441,52.422495
Disseroltweg,50,,,7635NG,Lattrop-Breklenkamp,Dinkelland,Overijssel,VBO,6.985194,52.420161
Disseroltweg,52,,,7635NG,Lattrop-Breklenkamp,Dinkelland,Overijssel,VBO,6.986038,52.419494
Breemorsweg,2,,,7635NH,Lattrop-Breklenkamp,Dinkelland,Overijssel,VBO,6.984062,52.429948
Breemorsweg,5,,,7635NH,Lattrop-Breklenkamp,Dinkelland,Overijssel,VBO,6.986761,52.428940
Breemorsweg,6,,,7635NH,Lattrop-Breklenkamp,Dinkelland,Overijssel,VBO,6.983958,52.428286
Breemorsweg,7,,,7635NH,Lattrop-Breklenkamp,Dinkelland,Overijssel,VBO,6.988436,52.428891
Breemorsweg,12,,B01,7635NH,Lattrop-Breklenkamp,Dinkelland,Overijssel,VBO,6.992482,52.422472
Breemorsweg,12,,B02,7635NH,Lattrop-Breklenkamp,Dinkelland,Overijssel,VBO,6.992789,52.422414
Breemorsweg,12,,,7635NH,Lattrop-Breklenkamp,Dinkelland,Overijssel,VBO,6.991751,52.425017
Breemorsweg,14,,,7635NH,Lattrop-Breklenkamp,Dinkelland,Overijssel,VBO,6.992120,52.424661
Breemorsweg,16,,,7635NH,Lattrop-Breklenkamp,Dinkelland,Overijssel,VBO,6.993329,52.423521
Breemorsweg,17,,,7635NH,Lattrop-Breklenkamp,Dinkelland,Overijssel,VBO,6.995054,52.422428
Breemorsweg,19,,,7635NH,Lattrop-Breklenkamp,Dinkelland,Overijssel,VBO,6.995165,52.422256
Bergvennenweg,3,,,7635NJ,Lattrop-Breklenkamp,Dinkelland,Overijssel,VBO,6.975388,52.430819
Bergvennenweg,4,,TEL,7635NJ,Lattrop-Breklenkamp,Dinkelland,Overijssel,VBO,6.976280,52.430690
Bergvennenweg,5,,,7635NJ,Lattrop-Breklenkamp,Dinkelland,Overijssel,VBO,6.975480,52.430917
Bergvennenweg,7,,,7635NJ,Lattrop-Breklenkamp,Dinkelland,Overijssel,VBO,6.977716,52.431363
Bergvennenweg,11,,,7635NJ,Lattrop-Breklenkamp,Dinkelland,Overijssel,VBO,6.979958,52.432367
Bergvennenweg,13,,,7635NJ,Lattrop-Breklenkamp,Dinkelland,Overijssel,VBO,6.980698,52.432087
Bergvennenweg,15,,,7635NJ,Lattrop-Breklenkamp,Dinkelland,Overijssel,VBO,6.985067,52.433350
Bergvennenweg,19,,TRAF,7635NJ,Lattrop-Breklenkamp,Dinkelland,Overijssel,VBO,6.983787,52.430473
Bergvennenweg,19,,,7635NJ,Lattrop-Breklenkamp,Dinkelland,Overijssel,VBO,6.985548,52.430368
Bergvennenweg,23,,,7635NJ,Lattrop-Breklenkamp,Dinkelland,Overijssel,VBO,6.992894,52.430179
Bergvennenweg,25,,,7635NJ,Lattrop-Breklenkamp,Dinkelland,Overijssel,VBO,6.996986,52.430285
Bergvennenweg,35,,TRAF,7635NJ,Lattrop-Breklenkamp,Dinkelland,Overijssel,VBO,7.006955,52.424612
Bergvennenweg,35,,,7635NJ,Lattrop-Breklenkamp,Dinkelland,Overijssel,VBO,7.006405,52.424458
Bergvennenweg,39,,,7635NJ,Lattrop-Breklenkamp,Dinkelland,Overijssel,VBO,7.004976,52.423569
Bergvennenweg,41,,,7635NJ,Lattrop-Breklenkamp,Dinkelland,Overijssel,VBO,7.005430,52.423132
Frensdorferweg,22,,,7635NK,Lattrop-Breklenkamp,Dinkelland,Overijssel,VBO,6.965691,52.415002
Frensdorferweg,23,A,,7635NK,Lattrop-Breklenkamp,Dinkelland,Overijssel,VBO,6.974253,52.417225
Frensdorferweg,23,,,7635NK,Lattrop-Breklenkamp,Dinkelland,Overijssel,VBO,6.973949,52.416933
Frensdorferweg,25,,,7635NK,Lattrop-Breklenkamp,Dinkelland,Overijssel,VBO,6.975740,52.417277
Frensdorferweg,26,,,7635NK,Lattrop-Breklenkamp,Dinkelland,Overijssel,VBO,6.982942,52.417648
Frensdorferweg,31,,,7635NK,Lattrop-Breklenkamp,Dinkelland,Overijssel,VBO,6.984389,52.418626
Frensdorferweg,36,,,7635NK,Lattrop-Breklenkamp,Dinkelland,Overijssel,VBO,6.987705,52.419246
Frensdorferweg,37,,,7635NK,Lattrop-Breklenkamp,Dinkelland,Overijssel,VBO,6.988041,52.419997
Frensdorferweg,39,,,7635NK,Lattrop-Breklenkamp,Dinkelland,Overijssel,VBO,6.988301,52.419895
Frensdorferweg,41,,,7635NK,Lattrop-Breklenkamp,Dinkelland,Overijssel,VBO,6.989577,52.419805
Frensdorferweg,44,,,7635NK,Lattrop-Breklenkamp,Dinkelland,Overijssel,VBO,6.996986,52.418150
Frensdorferweg,45,,,7635NK,Lattrop-Breklenkamp,Dinkelland,Overijssel,VBO,6.991481,52.420409
Frensdorferweg,46,,,7635NK,Lattrop-Breklenkamp,Dinkelland,Overijssel,VBO,6.997047,52.417807
Frensdorferweg,47,,,7635NK,Lattrop-Breklenkamp,Dinkelland,Overijssel,VBO,6.991936,52.420394
Frensdorferweg,48,,,7635NK,Lattrop-Breklenkamp,Dinkelland,Overijssel,VBO,6.997277,52.416456
Frensdorferweg,51,,,7635NK,Lattrop-Breklenkamp,Dinkelland,Overijssel,VBO,7.006100,52.422934
Frensdorferweg,58,,CLUB,7635NK,Lattrop-Breklenkamp,Dinkelland,Overijssel,VBO,7.003264,52.422595
Esweg,8,,,7635NL,Lattrop-Breklenkamp,Dinkelland,Overijssel,VBO,6.981826,52.414418
Esweg,9,,,7635NL,Lattrop-Breklenkamp,Dinkelland,Overijssel,VBO,6.981286,52.415746
Esweg,12,A,,7635NL,Lattrop-Breklenkamp,Dinkelland,Overijssel,VBO,6.984357,52.416913
Esweg,12,,,7635NL,Lattrop-Breklenkamp,Dinkelland,Overijssel,VBO,6.984217,52.416900
Esweg,14,,,7635NL,Lattrop-Breklenkamp,Dinkelland,Overijssel,VBO,6.986367,52.416811
Esweg,16,,,7635NL,Lattrop-Breklenkamp,Dinkelland,Overijssel,VBO,6.986726,52.416994
Korenmorsweg,15,,,7635NM,Lattrop-Breklenkamp,Dinkelland,Overijssel,VBO,6.998351,52.412037
Korenmorsweg,16,,,7635NM,Lattrop-Breklenkamp,Dinkelland,Overijssel,VBO,6.995536,52.412219
Korenmorsweg,18,,,7635NM,Lattrop-Breklenkamp,Dinkelland,Overijssel,VBO,6.994585,52.412367
Korenmorsweg,19,,,7635NM,Lattrop-Breklenkamp,Dinkelland,Overijssel,VBO,6.992319,52.414321
Korenmorsweg,20,,,7635NM,Lattrop-Breklenkamp,Dinkelland,Overijssel,VBO,6.990494,52.413447
Korenmorsweg,22,,,7635NM,Lattrop-Breklenkamp,Dinkelland,Overijssel,VBO,6.989358,52.413732
Korenmorsweg,24,,,7635NM,Lattrop-Breklenkamp,Dinkelland,Overijssel,VBO,6.989272,52.413796
Korenmorsweg,30,,,7635NM,Lattrop-Breklenkamp,Dinkelland,Overijssel,VBO,6.986717,52.418774
Delengoorweg,9,,,7635NN,Lattrop-Breklenkamp,Dinkelland,Overijssel,VBO,7.014132,52.411443
Delengoorweg,10,,,7635NN,Lattrop-Breklenkamp,Dinkelland,Overijssel,VBO,7.023009,52.412598
Delengoorweg,12,,,7635NN,Lattrop-Breklenkamp,Dinkelland,Overijssel,VBO,7.023046,52.412795
Elsweg,2,,,7635NP,Lattrop-Breklenkamp,Dinkelland,Overijssel,VBO,7.006776,52.410888
Elsweg,4,,,7635NP,Lattrop-Breklenkamp,Dinkelland,Overijssel,VBO,7.007144,52.411296
Elsweg,7,,,7635NP,Lattrop-Breklenkamp,Dinkelland,Overijssel,VBO,7.006882,52.412963
Elsweg,8,,TRAF,7635NP,Lattrop-Breklenkamp,Dinkelland,Overijssel,VBO,7.008494,52.413238
Elsweg,8,,,7635NP,Lattrop-Breklenkamp,Dinkelland,Overijssel,VBO,7.009284,52.413937
Elsweg,9,,,7635NP,Lattrop-Breklenkamp,Dinkelland,Overijssel,VBO,7.007428,52.414637
Rammelbeekweg,21,,,7635NR,Lattrop-Breklenkamp,Dinkelland,Overijssel,VBO,7.017801,52.414476
Rammelbeekweg,23,,,7635NR,Lattrop-Breklenkamp,Dinkelland,Overijssel,VBO,7.017437,52.414580
Rammelbeekweg,24,,,7635NR,Lattrop-Breklenkamp,Dinkelland,Overijssel,VBO,7.014561,52.415914
Rammelbeekweg,25,,,7635NR,Lattrop-Breklenkamp,Dinkelland,Overijssel,VBO,7.013694,52.415521
Rammelbeekweg,26,,,7635NR,Lattrop-Breklenkamp,Dinkelland,Overijssel,VBO,7.014607,52.415976
Rammelbeekweg,29,,TRAF,7635NR,Lattrop-Breklenkamp,Dinkelland,Overijssel,VBO,7.003944,52.419062
Rammelbeekweg,29,,,7635NR,Lattrop-Breklenkamp,Dinkelland,Overijssel,VBO,7.007270,52.417551
Dennenweg,3,,SCHU,7635NS,Lattrop-Breklenkamp,Dinkelland,Overijssel,VBO,7.023561,52.415921
Dennenweg,4,,,7635NS,Lattrop-Breklenkamp,Dinkelland,Overijssel,VBO,7.024294,52.415546
Dennenweg,9,,,7635NS,Lattrop-Breklenkamp,Dinkelland,Overijssel,VBO,7.015039,52.418937
Dennenweg,10,,,7635NS,Lattrop-Breklenkamp,Dinkelland,Overijssel,VBO,7.015383,52.420289
Dennenweg,14,,,7635NS,Lattrop-Breklenkamp,Dinkelland,Overijssel,VBO,7.013203,52.421380
Kraakenhof,2,,,7635NT,Lattrop-Breklenkamp,Dinkelland,Overijssel,VBO,6.975278,52.427360
Kraakenhof,4,,,7635NT,Lattrop-Breklenkamp,Dinkelland,Overijssel,VBO,6.975269,52.427504
Kraakenhof,6,,,7635NT,Lattrop-Breklenkamp,Dinkelland,Overijssel,VBO,6.975330,52.427566
Kraakenhof,8,,,7635NT,Lattrop-Breklenkamp,Dinkelland,Overijssel,VBO,6.975319,52.427683
Kraakenhof,10,,,7635NT,Lattrop-Breklenkamp,Dinkelland,Overijssel,VBO,6.975321,52.427737
Kraakenhof,12,,,7635NT,Lattrop-Breklenkamp,Dinkelland,Overijssel,VBO,6.975241,52.427963
Kraakenhof,14,,,7635NT,Lattrop-Breklenkamp,Dinkelland,Overijssel,VBO,6.975128,52.428099
Kraakenhof,18,,,7635NT,Lattrop-Breklenkamp,Dinkelland,Overijssel,VBO,6.974897,52.428219
Kraakenhof,20,,,7635NT,Lattrop-Breklenkamp,Dinkelland,Overijssel,VBO,6.974840,52.428265
Kraakenhof,22,,,7635NT,Lattrop-Breklenkamp,Dinkelland,Overijssel,VBO,6.974741,52.428374
Kraakenhof,24,,,7635NT,Lattrop-Breklenkamp,Dinkelland,Overijssel,VBO,6.974699,52.428419
Kraakenhof,26,,,7635NT,Lattrop-Breklenkamp,Dinkelland,Overijssel,VBO,6.974558,52.428583
Kraakenhof,30,,,7635NT,Lattrop-Breklenkamp,Dinkelland,Overijssel,VBO,6.974295,52.428641
Kraakenhof,32,,,7635NT,Lattrop-Breklenkamp,Dinkelland,Overijssel,VBO,6.974078,52.428733
Kraakenhof,34,,,7635NT,Lattrop-Breklenkamp,Dinkelland,Overijssel,VBO,6.973814,52.428764
Kraakenhof,1,,,7635NV,Lattrop-Breklenkamp,Dinkelland,Overijssel,VBO,6.974853,52.427806
Kraakenhof,3,,,7635NV,Lattrop-Breklenkamp,Dinkelland,Overijssel,VBO,6.974810,52.427834
Kraakenhof,5,,,7635NV,Lattrop-Breklenkamp,Dinkelland,Overijssel,VBO,6.974738,52.427871
Kraakenhof,7,,,7635NV,Lattrop-Breklenkamp,Dinkelland,Overijssel,VBO,6.974639,52.427980
Kraakenhof,9,,,7635NV,Lattrop-Breklenkamp,Dinkelland,Overijssel,VBO,6.974510,52.428089
Kraakenhof,11,,,7635NV,Lattrop-Breklenkamp,Dinkelland,Overijssel,VBO,6.974382,52.428199
Kraakenhof,15,,,7635NV,Lattrop-Breklenkamp,Dinkelland,Overijssel,VBO,6.974240,52.427931
Kraakenhof,17,,,7635NV,Lattrop-Breklenkamp,Dinkelland,Overijssel,VBO,6.973875,52.427990
Kraakenhof,19,,,7635NV,Lattrop-Breklenkamp,Dinkelland,Overijssel,VBO,6.973895,52.428161
Kraakenhof,21,,,7635NV,Lattrop-Breklenkamp,Dinkelland,Overijssel,VBO,6.973989,52.428321
Kraakenhof,23,,,7635NV,Lattrop-Breklenkamp,Dinkelland,Overijssel,VBO,6.974052,52.428437
Kraakenhof,25,,,7635NV,Lattrop-Breklenkamp,Dinkelland,Overijssel,VBO,6.973614,52.428515
Hoonhorst,1,,,7635NW,Lattrop-Breklenkamp,Dinkelland,Overijssel,VBO,6.974707,52.424536
Hoonhorst,2,,MOLN,7635NW,Lattrop-Breklenkamp,Dinkelland,Overijssel,VBO,6.974752,52.425398
Hoonhorst,3,,,7635NW,Lattrop-Breklenkamp,Dinkelland,Overijssel,VBO,6.974549,52.424646
Hoonhorst,4,,,7635NW,Lattrop-Breklenkamp,Dinkelland,Overijssel,VBO,6.974687,52.425633
Hoonhorst,5,,,7635NW,Lattrop-Breklenkamp,Dinkelland,Overijssel,VBO,6.974436,52.424773
Hoonhorst,6,,,7635NW,Lattrop-Breklenkamp,Dinkelland,Overijssel,VBO,6.974768,52.425830
Hoonhorst,7,,,7635NW,Lattrop-Breklenkamp,Dinkelland,Overijssel,VBO,6.974323,52.424919
Hoonhorst,8,,,7635NW,Lattrop-Breklenkamp,Dinkelland,Overijssel,VBO,6.974774,52.426423
Hoonhorst,9,,,7635NW,Lattrop-Breklenkamp,Dinkelland,Overijssel,VBO,6.974226,52.425064
Hoonhorst,11,,,7635NW,Lattrop-Breklenkamp,Dinkelland,Overijssel,VBO,6.974187,52.425208
Hoonhorst,13,,,7635NW,Lattrop-Breklenkamp,Dinkelland,Overijssel,VBO,6.974156,52.425577
Hoonhorst,15,,,7635NW,Lattrop-Breklenkamp,Dinkelland,Overijssel,VBO,6.974190,52.425712
Hoonhorst,17,,,7635NW,Lattrop-Breklenkamp,Dinkelland,Overijssel,VBO,6.974254,52.425855
Hoonhorst,19,,,7635NW,Lattrop-Breklenkamp,Dinkelland,Overijssel,VBO,6.974332,52.425988
Hoonhorst,21,,,7635NW,Lattrop-Breklenkamp,Dinkelland,Overijssel,VBO,6.974440,52.426131
Hoonhorst,23,,,7635NW,Lattrop-Breklenkamp,Dinkelland,Overijssel,VBO,6.974224,52.426673
Hoonhorst,25,,,7635NW,Lattrop-Breklenkamp,Dinkelland,Overijssel,VBO,6.974242,52.426745
Hoonhorst,27,,,7635NW,Lattrop-Breklenkamp,Dinkelland,Overijssel,VBO,6.974275,52.426852
Hoonhorst,29,,,7635NW,Lattrop-Breklenkamp,Dinkelland,Overijssel,VBO,6.974307,52.426924
Molenhof,1,,,7635NX,Lattrop-Breklenkamp,Dinkelland,Overijssel,VBO,6.974274,52.426430
Molenhof,3,,,7635NX,Lattrop-Breklenkamp,Dinkelland,Overijssel,VBO,6.974034,52.426280
Molenhof,5,,,7635NX,Lattrop-Breklenkamp,Dinkelland,Overijssel,VBO,6.973911,52.426129
Molenhof,7,,,7635NX,Lattrop-Breklenkamp,Dinkelland,Overijssel,VBO,6.973802,52.425960
Molenhof,9,,,7635NX,Lattrop-Breklenkamp,Dinkelland,Overijssel,VBO,6.973737,52.425790
