openbareruimtenaam,huisnummer,huisletter,huisnummertoevoeging,postcode,woonplaatsnaam,gemeentenaam,provincienaam,typeadresseerbaarobject,longitude,latitude
Laagsestraat,17,,,7637PA,Oud Ootmarsum,Dinkelland,Overijssel,VBO,6.901448,52.413675
Laagsestraat,19,,WPL,7637PA,Oud Ootmarsum,Dinkelland,Overijssel,VBO,6.900936,52.414167
Laagsestraat,19,,,7637PA,Oud Ootmarsum,Dinkelland,Overijssel,VBO,6.901073,52.413878
Laagsestraat,21,,NABY,7637PA,Oud Ootmarsum,Dinkelland,Overijssel,VBO,6.903586,52.416003
Laagsestraat,21,,,7637PA,Oud Ootmarsum,Dinkelland,Overijssel,VBO,6.902340,52.415246
Laagsestraat,25,,,7637PA,Oud Ootmarsum,Dinkelland,Overijssel,VBO,6.904064,52.415367
Laagsestraat,27,,,7637PA,Oud Ootmarsum,Dinkelland,Overijssel,VBO,6.904173,52.415537
Laagsestraat,31,,,7637PA,Oud Ootmarsum,Dinkelland,Overijssel,VBO,6.907223,52.417026
Laagsestraat,33,,,7637PA,Oud Ootmarsum,Dinkelland,Overijssel,VBO,6.907336,52.417312
Laagsestraat,35,,,7637PA,Oud Ootmarsum,Dinkelland,Overijssel,VBO,6.908032,52.417896
Laagsestraat,37,,,7637PA,Oud Ootmarsum,Dinkelland,Overijssel,VBO,6.908093,52.417959
Laagsestraat,39,,,7637PA,Oud Ootmarsum,Dinkelland,Overijssel,VBO,6.909827,52.420498
Laagsestraat,43,,,7637PA,Oud Ootmarsum,Dinkelland,Overijssel,VBO,6.920450,52.431354
Laagsestraat,45,,,7637PA,Oud Ootmarsum,Dinkelland,Overijssel,VBO,6.920659,52.431433
Laagsestraat,16,,,7637PB,Oud Ootmarsum,Dinkelland,Overijssel,VBO,6.901846,52.413257
Laagsestraat,20,,,7637PB,Oud Ootmarsum,Dinkelland,Overijssel,VBO,6.901795,52.413500
Laagsestraat,22,,,7637PB,Oud Ootmarsum,Dinkelland,Overijssel,VBO,6.901871,52.413580
Laagsestraat,24,,,7637PB,Oud Ootmarsum,Dinkelland,Overijssel,VBO,6.901874,52.413652
Laagsestraat,26,,,7637PB,Oud Ootmarsum,Dinkelland,Overijssel,VBO,6.901862,52.413724
Laagsestraat,28,A,,7637PB,Oud Ootmarsum,Dinkelland,Overijssel,VBO,6.902280,52.413929
Laagsestraat,28,,,7637PB,Oud Ootmarsum,Dinkelland,Overijssel,VBO,6.902056,52.413829
Laagsestraat,30,,,7637PB,Oud Ootmarsum,Dinkelland,Overijssel,VBO,6.903736,52.414796
Laagsestraat,32,A,,7637PB,Oud Ootmarsum,Dinkelland,Overijssel,VBO,6.906967,52.414718
Laagsestraat,32,,,7637PB,Oud Ootmarsum,Dinkelland,Overijssel,VBO,6.905413,52.414838
Laagsestraat,34,,,7637PB,Oud Ootmarsum,Dinkelland,Overijssel,VBO,6.905441,52.415655
Laagsestraat,36,,,7637PB,Oud Ootmarsum,Dinkelland,Overijssel,VBO,6.905898,52.415686
Laagsestraat,38,,,7637PB,Oud Ootmarsum,Dinkelland,Overijssel,VBO,6.906360,52.415877
Laagsestraat,40,A,,7637PC,Oud Ootmarsum,Dinkelland,Overijssel,VBO,6.908586,52.416670
Laagsestraat,40,,,7637PC,Oud Ootmarsum,Dinkelland,Overijssel,VBO,6.907790,52.416425
Laagsestraat,42,,,7637PC,Oud Ootmarsum,Dinkelland,Overijssel,VBO,6.907609,52.416715
Laagsestraat,44,,,7637PC,Oud Ootmarsum,Dinkelland,Overijssel,VBO,6.907609,52.416715
Laagsestraat,46,,,7637PC,Oud Ootmarsum,Dinkelland,Overijssel,VBO,6.907897,52.416972
Laagsestraat,48,,,7637PC,Oud Ootmarsum,Dinkelland,Overijssel,VBO,6.908213,52.417175
Laagsestraat,50,,,7637PC,Oud Ootmarsum,Dinkelland,Overijssel,VBO,6.908336,52.417430
Laagsestraat,52,,,7637PC,Oud Ootmarsum,Dinkelland,Overijssel,VBO,6.908593,52.417530
Laagsestraat,54,,,7637PC,Oud Ootmarsum,Dinkelland,Overijssel,VBO,6.908671,52.417663
Laagsestraat,56,A,,7637PC,Oud Ootmarsum,Dinkelland,Overijssel,VBO,6.908914,52.417903
Laagsestraat,56,,,7637PC,Oud Ootmarsum,Dinkelland,Overijssel,VBO,6.908929,52.417903
Laagsestraat,58,,,7637PC,Oud Ootmarsum,Dinkelland,Overijssel,VBO,6.910110,52.419335
Laagsestraat,60,,,7637PC,Oud Ootmarsum,Dinkelland,Overijssel,VBO,6.910519,52.420516
Laagsestraat,62,,,7637PC,Oud Ootmarsum,Dinkelland,Overijssel,VBO,6.910851,52.420782
Laagsestraat,64,,,7637PC,Oud Ootmarsum,Dinkelland,Overijssel,VBO,6.912396,52.422532
Laagsestraat,66,,,7637PC,Oud Ootmarsum,Dinkelland,Overijssel,VBO,6.917236,52.427355
Laagsestraat,68,,,7637PC,Oud Ootmarsum,Dinkelland,Overijssel,VBO,6.918978,52.429189
Laagsestraat,70,,,7637PC,Oud Ootmarsum,Dinkelland,Overijssel,VBO,6.922464,52.432164
Laagsestraat,72,A,,7637PC,Oud Ootmarsum,Dinkelland,Overijssel,VBO,6.924787,52.433851
Laagsestraat,72,,,7637PC,Oud Ootmarsum,Dinkelland,Overijssel,VBO,6.924766,52.433663
de Mors,69,,,7637PD,Oud Ootmarsum,Dinkelland,Overijssel,VBO,6.927480,52.409384
Wiemselweg,11,,,7637PE,Oud Ootmarsum,Dinkelland,Overijssel,VBO,6.920341,52.412920
Wiemselweg,17,,,7637PE,Oud Ootmarsum,Dinkelland,Overijssel,VBO,6.910913,52.417014
Wiemselweg,19,,,7637PE,Oud Ootmarsum,Dinkelland,Overijssel,VBO,6.910505,52.417128
Wiemselweg,10,,,7637PG,Oud Ootmarsum,Dinkelland,Overijssel,VBO,6.930353,52.412097
Wiemselweg,12,A,,7637PG,Oud Ootmarsum,Dinkelland,Overijssel,VBO,6.918267,52.414967
Wiemselweg,12,,,7637PG,Oud Ootmarsum,Dinkelland,Overijssel,VBO,6.918388,52.414920
Wiemselweg,24,,,7637PG,Oud Ootmarsum,Dinkelland,Overijssel,VBO,6.914091,52.416236
Wiemselweg,26,,,7637PG,Oud Ootmarsum,Dinkelland,Overijssel,VBO,6.913975,52.416283
Heuvelweg,1,,,7637PH,Oud Ootmarsum,Dinkelland,Overijssel,VBO,6.906087,52.421634
Heuvelweg,2,,,7637PH,Oud Ootmarsum,Dinkelland,Overijssel,VBO,6.908093,52.421806
Nutterseweg,1,,,7637PJ,Oud Ootmarsum,Dinkelland,Overijssel,VBO,6.900067,52.413243
Nutterseweg,3,,,7637PJ,Oud Ootmarsum,Dinkelland,Overijssel,VBO,6.898922,52.413734
Nutterseweg,5,,,7637PJ,Oud Ootmarsum,Dinkelland,Overijssel,VBO,6.897281,52.416731
Nutterseweg,7,A,,7637PJ,Oud Ootmarsum,Dinkelland,Overijssel,VBO,6.895546,52.416888
Nutterseweg,7,,,7637PJ,Oud Ootmarsum,Dinkelland,Overijssel,VBO,6.895104,52.416695
Nutterseweg,9,,,7637PJ,Oud Ootmarsum,Dinkelland,Overijssel,VBO,6.890349,52.418410
Nutterseweg,2,,,7637PK,Oud Ootmarsum,Dinkelland,Overijssel,VBO,6.901071,52.413383
Nutterseweg,4,,,7637PK,Oud Ootmarsum,Dinkelland,Overijssel,VBO,6.900838,52.413458
Nutterseweg,6,,,7637PK,Oud Ootmarsum,Dinkelland,Overijssel,VBO,6.900028,52.413837
Nutterseweg,8,,,7637PK,Oud Ootmarsum,Dinkelland,Overijssel,VBO,6.899912,52.413883
Nutterseweg,10,,,7637PK,Oud Ootmarsum,Dinkelland,Overijssel,VBO,6.899966,52.414179
Nutterseweg,12,,,7637PK,Oud Ootmarsum,Dinkelland,Overijssel,VBO,6.897944,52.416524
Spölmanweg,1,,,7637PL,Oud Ootmarsum,Dinkelland,Overijssel,VBO,6.907130,52.418156
Spölmanweg,2,,,7637PL,Oud Ootmarsum,Dinkelland,Overijssel,VBO,6.906878,52.420257
Spölmanweg,3,,,7637PL,Oud Ootmarsum,Dinkelland,Overijssel,VBO,6.902085,52.418970
Spölmanweg,4,A,,7637PL,Oud Ootmarsum,Dinkelland,Overijssel,VBO,6.905513,52.418924
Spölmanweg,4,,,7637PL,Oud Ootmarsum,Dinkelland,Overijssel,VBO,6.905589,52.418832
Wittebergweg,1,,,7637PM,Oud Ootmarsum,Dinkelland,Overijssel,VBO,6.897745,52.417138
Wittebergweg,3,,,7637PM,Oud Ootmarsum,Dinkelland,Overijssel,VBO,6.898791,52.418941
Wittebergweg,5,,,7637PM,Oud Ootmarsum,Dinkelland,Overijssel,VBO,6.898428,52.419494
Wittebergweg,7,,,7637PM,Oud Ootmarsum,Dinkelland,Overijssel,VBO,6.893452,52.423678
Wittebergweg,9,,,7637PM,Oud Ootmarsum,Dinkelland,Overijssel,VBO,6.893143,52.423687
Wittebergweg,13,,,7637PM,Oud Ootmarsum,Dinkelland,Overijssel,VBO,6.892149,52.423510
Wittebergweg,2,,,7637PN,Oud Ootmarsum,Dinkelland,Overijssel,VBO,6.899919,52.417973
Blauweweg,1,,ZOHS,7637PP,Oud Ootmarsum,Dinkelland,Overijssel,VBO,6.893403,52.429104
Blauweweg,3,,ZOHS,7637PP,Oud Ootmarsum,Dinkelland,Overijssel,VBO,6.893656,52.430925
Blauweweg,4,,,7637PP,Oud Ootmarsum,Dinkelland,Overijssel,VBO,6.896872,52.432089
Goudkampsweg,6,,,7637PR,Oud Ootmarsum,Dinkelland,Overijssel,VBO,6.936888,52.431653
Goudkampsweg,8,,,7637PR,Oud Ootmarsum,Dinkelland,Overijssel,VBO,6.937017,52.431579
Goudkampsweg,9,,,7637PR,Oud Ootmarsum,Dinkelland,Overijssel,VBO,6.938691,52.432330
Goudkampsweg,10,,,7637PR,Oud Ootmarsum,Dinkelland,Overijssel,VBO,6.933290,52.430549
Goudkampsweg,11,A,,7637PR,Oud Ootmarsum,Dinkelland,Overijssel,VBO,6.938629,52.430569
Goudkampsweg,11,,,7637PR,Oud Ootmarsum,Dinkelland,Overijssel,VBO,6.938466,52.430527
Goudkampsweg,12,,,7637PR,Oud Ootmarsum,Dinkelland,Overijssel,VBO,6.932049,52.430817
Goudkampsweg,13,,,7637PR,Oud Ootmarsum,Dinkelland,Overijssel,VBO,6.936358,52.430401
Goudkampsweg,14,,,7637PR,Oud Ootmarsum,Dinkelland,Overijssel,VBO,6.933054,52.433483
Goudkampsweg,15,,,7637PR,Oud Ootmarsum,Dinkelland,Overijssel,VBO,6.925269,52.430798
Goudkampsweg,16,,,7637PR,Oud Ootmarsum,Dinkelland,Overijssel,VBO,6.932693,52.432409
Goudkampsweg,18,,,7637PR,Oud Ootmarsum,Dinkelland,Overijssel,VBO,6.929679,52.431145
Goudkampsweg,20,,,7637PR,Oud Ootmarsum,Dinkelland,Overijssel,VBO,6.928899,52.431973
Lippertsweg,7,,,7637PS,Oud Ootmarsum,Dinkelland,Overijssel,VBO,6.918530,52.433653
Lippertsweg,9,,,7637PS,Oud Ootmarsum,Dinkelland,Overijssel,VBO,6.908797,52.432466
Ottershagenweg,1,,,7637PT,Oud Ootmarsum,Dinkelland,Overijssel,VBO,6.910460,52.417946
Ottershagenweg,3,,,7637PT,Oud Ootmarsum,Dinkelland,Overijssel,VBO,6.919418,52.418532
Ottershagenweg,5,A,,7637PT,Oud Ootmarsum,Dinkelland,Overijssel,VBO,6.928359,52.419863
Ottershagenweg,5,,,7637PT,Oud Ootmarsum,Dinkelland,Overijssel,VBO,6.928335,52.420025
Ottershagenweg,7,A,,7637PT,Oud Ootmarsum,Dinkelland,Overijssel,VBO,6.935496,52.421289
Ottershagenweg,7,B,,7637PT,Oud Ootmarsum,Dinkelland,Overijssel,VBO,6.935495,52.421271
Ottershagenweg,7,,,7637PT,Oud Ootmarsum,Dinkelland,Overijssel,VBO,6.935539,52.421279
Ottershagenweg,2,A,,7637PV,Oud Ootmarsum,Dinkelland,Overijssel,VBO,6.909395,52.417669
Ottershagenweg,2,,,7637PV,Oud Ootmarsum,Dinkelland,Overijssel,VBO,6.909627,52.417630
Ottershagenweg,4,,,7637PV,Oud Ootmarsum,Dinkelland,Overijssel,VBO,6.913556,52.417771
Ottershagenweg,6,,,7637PV,Oud Ootmarsum,Dinkelland,Overijssel,VBO,6.922242,52.418989
Ottershagenweg,8,,,7637PV,Oud Ootmarsum,Dinkelland,Overijssel,VBO,6.922526,52.419112
Postelhoekweg,1,,,7637PW,Oud Ootmarsum,Dinkelland,Overijssel,VBO,6.922336,52.428894
Postelhoekweg,2,A,,7637PW,Oud Ootmarsum,Dinkelland,Overijssel,VBO,6.924406,52.428325
Postelhoekweg,2,,,7637PW,Oud Ootmarsum,Dinkelland,Overijssel,VBO,6.924534,52.428297
Postelhoekweg,3,,TRAF,7637PW,Oud Ootmarsum,Dinkelland,Overijssel,VBO,6.929004,52.427819
Postelhoekweg,3,,,7637PW,Oud Ootmarsum,Dinkelland,Overijssel,VBO,6.929488,52.427363
Postelhoekweg,5,,,7637PW,Oud Ootmarsum,Dinkelland,Overijssel,VBO,6.928790,52.422518
Springendal,1,A,,7637PX,Oud Ootmarsum,Dinkelland,Overijssel,VBO,6.918441,52.431093
Springendal,1,,,7637PX,Oud Ootmarsum,Dinkelland,Overijssel,VBO,6.917739,52.431192
Springendal,2,A,,7637PX,Oud Ootmarsum,Dinkelland,Overijssel,VBO,6.916105,52.431986
Springendal,2,,,7637PX,Oud Ootmarsum,Dinkelland,Overijssel,VBO,6.916096,52.432157
Springendal,3,,,7637PX,Oud Ootmarsum,Dinkelland,Overijssel,VBO,6.912015,52.432380
Springendal,6,,,7637PX,Oud Ootmarsum,Dinkelland,Overijssel,VBO,6.910634,52.431993
Springendal,7,,,7637PX,Oud Ootmarsum,Dinkelland,Overijssel,VBO,6.910890,52.432592
Uelserdijk,1,A,ZOHS,7637PZ,Oud Ootmarsum,Dinkelland,Overijssel,VBO,6.904849,52.429263
Uelserdijk,1,,CLUB,7637PZ,Oud Ootmarsum,Dinkelland,Overijssel,VBO,6.905079,52.429961
Uelserdijk,1,,TRAF,7637PZ,Oud Ootmarsum,Dinkelland,Overijssel,VBO,6.909686,52.421102
Uelserdijk,1,,,7637PZ,Oud Ootmarsum,Dinkelland,Overijssel,VBO,6.904724,52.431188
Uelserdijk,3,,,7637PZ,Oud Ootmarsum,Dinkelland,Overijssel,VBO,6.904420,52.431318
Uelserdijk,4,,,7637PZ,Oud Ootmarsum,Dinkelland,Overijssel,VBO,6.905691,52.430223
Uelserdijk,5,,,7637PZ,Oud Ootmarsum,Dinkelland,Overijssel,VBO,6.904635,52.432008
Uelserdijk,7,,,7637PZ,Oud Ootmarsum,Dinkelland,Overijssel,VBO,6.904625,52.432151
Uelserdijk,13,,TRAF,7637PZ,Oud Ootmarsum,Dinkelland,Overijssel,VBO,6.905212,52.429987
Baldersteeg,2,A,ZOHS,7637RA,Oud Ootmarsum,Dinkelland,Overijssel,VBO,6.903311,52.421714
Baldersteeg,2,,,7637RA,Oud Ootmarsum,Dinkelland,Overijssel,VBO,6.902895,52.419859
Baldersteeg,4,,,7637RA,Oud Ootmarsum,Dinkelland,Overijssel,VBO,6.902827,52.420031
Baldersteeg,6,,,7637RA,Oud Ootmarsum,Dinkelland,Overijssel,VBO,6.902461,52.420382
