openbareruimtenaam,huisnummer,huisletter,huisnummertoevoeging,postcode,woonplaatsnaam,gemeentenaam,provincienaam,typeadresseerbaarobject,longitude,latitude
Goudkampsweg,4,,,7662PA,Hezingen,Tubbergen,Overijssel,VBO,6.938465,52.433262
Goudkampsweg,5,a,,7662PA,Hezingen,Tubbergen,Overijssel,VBO,6.942284,52.435245
Goudkampsweg,5,,,7662PA,Hezingen,Tubbergen,Overijssel,VBO,6.942134,52.435280
Goudkampsweg,7,,,7662PA,Hezingen,Tubbergen,Overijssel,VBO,6.939317,52.433001
Goudkampsweg,14,,,7662PA,Hezingen,Tubbergen,Overijssel,VBO,6.933103,52.433702
Laagseweg,74,a,,7662PA,Hezingen,Tubbergen,Overijssel,VBO,6.925291,52.434600
Laagseweg,74,,,7662PA,Hezingen,Tubbergen,Overijssel,VBO,6.925244,52.434544
Laagseweg,76,,,7662PA,Hezingen,Tubbergen,Overijssel,VBO,6.927126,52.436429
Laagseweg,80,,,7662PA,Hezingen,Tubbergen,Overijssel,VBO,6.927791,52.436898
Laagseweg,85,,,7662PA,Hezingen,Tubbergen,Overijssel,VBO,6.927792,52.437768
Laagseweg,87,,,7662PA,Hezingen,Tubbergen,Overijssel,VBO,6.927874,52.437853
Hooidijk,41,a,,7662PB,Hezingen,Tubbergen,Overijssel,VBO,6.848997,52.440247
Hooidijk,41,,,7662PB,Hezingen,Tubbergen,Overijssel,VBO,6.849143,52.440253
Hooidijk,42,a,,7662PB,Hezingen,Tubbergen,Overijssel,VBO,6.850727,52.438979
Hooidijk,42,,,7662PB,Hezingen,Tubbergen,Overijssel,VBO,6.850604,52.438935
Hooidijk,49,,,7662PB,Hezingen,Tubbergen,Overijssel,VBO,6.856490,52.440026
Hooidijk,51,,,7662PB,Hezingen,Tubbergen,Overijssel,VBO,6.856893,52.440302
Hooidijk,52,a,,7662PB,Hezingen,Tubbergen,Overijssel,VBO,6.861797,52.435995
Hooidijk,52,,,7662PB,Hezingen,Tubbergen,Overijssel,VBO,6.861947,52.436056
Hooidijk,59,,,7662PB,Hezingen,Tubbergen,Overijssel,VBO,6.867785,52.438680
Hooidijk,60,a,,7662PB,Hezingen,Tubbergen,Overijssel,VBO,6.869255,52.437988
Hooidijk,60,,,7662PB,Hezingen,Tubbergen,Overijssel,VBO,6.869125,52.437917
Hooidijk,64,,,7662PB,Hezingen,Tubbergen,Overijssel,VBO,6.881444,52.438654
Hooidijk,66,,,7662PB,Hezingen,Tubbergen,Overijssel,VBO,6.882885,52.438856
Hooidijk,72,,,7662PB,Hezingen,Tubbergen,Overijssel,VBO,6.895185,52.436578
Hooidijk,74,,,7662PB,Hezingen,Tubbergen,Overijssel,VBO,6.902397,52.437378
Hooidijk,75,,,7662PB,Hezingen,Tubbergen,Overijssel,VBO,6.910760,52.437782
Hooidijk,79,,,7662PB,Hezingen,Tubbergen,Overijssel,VBO,6.914040,52.437693
Hooidijk,80,a,,7662PB,Hezingen,Tubbergen,Overijssel,VBO,6.915130,52.436912
Hooidijk,80,,,7662PB,Hezingen,Tubbergen,Overijssel,VBO,6.915120,52.437021
Hooidijk,82,,,7662PB,Hezingen,Tubbergen,Overijssel,VBO,6.917536,52.436438
Lippertsweg,5,,,7662PC,Hezingen,Tubbergen,Overijssel,VBO,6.914148,52.433949
Lippertsweg,6,,,7662PC,Hezingen,Tubbergen,Overijssel,VBO,6.912784,52.434341
Lippertsweg,8,,,7662PC,Hezingen,Tubbergen,Overijssel,VBO,6.911900,52.434267
Lippertsweg,10,a,,7662PC,Hezingen,Tubbergen,Overijssel,VBO,6.908367,52.433760
Lippertsweg,10,,,7662PC,Hezingen,Tubbergen,Overijssel,VBO,6.908323,52.433852
Bouwmansweg,5,a,,7662PD,Hezingen,Tubbergen,Overijssel,VBO,6.905382,52.434938
Bouwmansweg,5,,,7662PD,Hezingen,Tubbergen,Overijssel,VBO,6.905361,52.435026
Mosbeekweg,4,,,7662PE,Hezingen,Tubbergen,Overijssel,VBO,6.874739,52.435750
Mosbeekweg,6,,,7662PE,Hezingen,Tubbergen,Overijssel,VBO,6.876115,52.435756
Mosbeekweg,8,,,7662PE,Hezingen,Tubbergen,Overijssel,VBO,6.877182,52.435627
Mosbeekweg,10,,,7662PE,Hezingen,Tubbergen,Overijssel,VBO,6.880370,52.433905
Mosbeekweg,19,,,7662PE,Hezingen,Tubbergen,Overijssel,VBO,6.900679,52.435151
Mosbeekweg,21,,,7662PE,Hezingen,Tubbergen,Overijssel,VBO,6.901794,52.434919
Brandtorenweg,4,,,7662PG,Hezingen,Tubbergen,Overijssel,VBO,6.872062,52.439083
Sprengendalsweg,3,,,7662PG,Hezingen,Tubbergen,Overijssel,VBO,6.894442,52.437437
Brunninkhuisweg,1,,,7662PH,Hezingen,Tubbergen,Overijssel,VBO,6.893103,52.439679
Brunninkhuisweg,2,,,7662PH,Hezingen,Tubbergen,Overijssel,VBO,6.894270,52.440022
Brunninkhuisweg,3,,Z001,7662PH,Hezingen,Tubbergen,Overijssel,VBO,6.894670,52.442005
Brunninkhuisweg,3,,Z072,7662PH,Hezingen,Tubbergen,Overijssel,VBO,6.894686,52.440711
Brunninkhuisweg,3,,Z099,7662PH,Hezingen,Tubbergen,Overijssel,VBO,6.895778,52.441604
Brunninkhuisweg,3,,Z100,7662PH,Hezingen,Tubbergen,Overijssel,VBO,6.896512,52.441383
Brunninkhuisweg,3,,Z101,7662PH,Hezingen,Tubbergen,Overijssel,VBO,6.897444,52.440251
Brunninkhuisweg,3,,,7662PH,Hezingen,Tubbergen,Overijssel,VBO,6.894635,52.441871
Brunninkhuisweg,5,,,7662PH,Hezingen,Tubbergen,Overijssel,VBO,6.894316,52.441733
Schabosweg,3,,,7662PJ,Hezingen,Tubbergen,Overijssel,VBO,6.887505,52.445685
Schabosweg,4,,,7662PJ,Hezingen,Tubbergen,Overijssel,VBO,6.893760,52.444873
Schabosweg,5,,,7662PJ,Hezingen,Tubbergen,Overijssel,VBO,6.888665,52.443723
Schabosweg,6,,,7662PJ,Hezingen,Tubbergen,Overijssel,VBO,6.888832,52.446251
Vlasbeekweg,3,,,7662PL,Hezingen,Tubbergen,Overijssel,VBO,6.871348,52.446089
Vlasbeekweg,5,,,7662PL,Hezingen,Tubbergen,Overijssel,VBO,6.871945,52.446352
HÃ¶llweg,3,,,7662PN,Hezingen,Tubbergen,Overijssel,VBO,6.868720,52.436472
Schaapskooiweg,4,,,7662PP,Hezingen,Tubbergen,Overijssel,VBO,6.867448,52.440131
Schaapskooiweg,4,,,7662PP,Hezingen,Tubbergen,Overijssel,VBO,6.867474,52.440146
Schaapskooiweg,6,,,7662PP,Hezingen,Tubbergen,Overijssel,VBO,6.866846,52.441168
Schaapskooiweg,9,,,7662PP,Hezingen,Tubbergen,Overijssel,VBO,6.869303,52.443330
Schaapskooiweg,12,,,7662PP,Hezingen,Tubbergen,Overijssel,VBO,6.872077,52.443903
Maatmansweg,4,,,7662PR,Hezingen,Tubbergen,Overijssel,VBO,6.857891,52.440065
Maatmansweg,8,,,7662PR,Hezingen,Tubbergen,Overijssel,VBO,6.857171,52.440948
Maatmansweg,9,,,7662PR,Hezingen,Tubbergen,Overijssel,VBO,6.857793,52.442598
Maatmansweg,11,a,,7662PR,Hezingen,Tubbergen,Overijssel,VBO,6.858290,52.444936
Maatmansweg,11,,,7662PR,Hezingen,Tubbergen,Overijssel,VBO,6.858125,52.444925
Maatmansweg,13,,,7662PR,Hezingen,Tubbergen,Overijssel,VBO,6.858343,52.445355
Maatmansweg,14,,,7662PR,Hezingen,Tubbergen,Overijssel,VBO,6.862368,52.442482
Maatmansweg,15,,SCHU,7662PR,Hezingen,Tubbergen,Overijssel,VBO,6.862755,52.446602
Maatmansweg,15,,,7662PR,Hezingen,Tubbergen,Overijssel,VBO,6.863455,52.443826
Maatmansweg,17,,,7662PR,Hezingen,Tubbergen,Overijssel,VBO,6.863289,52.443687
Maatmansweg,19,,,7662PR,Hezingen,Tubbergen,Overijssel,VBO,6.862981,52.441861
Maatmansweg,20,,,7662PR,Hezingen,Tubbergen,Overijssel,VBO,6.860884,52.441093
Maatmansweg,21,a,,7662PR,Hezingen,Tubbergen,Overijssel,VBO,6.863135,52.441350
Maatmansweg,21,,,7662PR,Hezingen,Tubbergen,Overijssel,VBO,6.863102,52.441293
Maatmansweg,22,,,7662PR,Hezingen,Tubbergen,Overijssel,VBO,6.860818,52.440393
Pausweg,4,,,7662PS,Hezingen,Tubbergen,Overijssel,VBO,6.851064,52.441087
Pausweg,7,,,7662PS,Hezingen,Tubbergen,Overijssel,VBO,6.851073,52.444148
Pausweg,10,a,,7662PS,Hezingen,Tubbergen,Overijssel,VBO,6.853644,52.441992
Pausweg,10,,,7662PS,Hezingen,Tubbergen,Overijssel,VBO,6.853618,52.442076
Pausweg,13,,,7662PS,Hezingen,Tubbergen,Overijssel,VBO,6.854661,52.441832
Pausweg,15,a,,7662PS,Hezingen,Tubbergen,Overijssel,VBO,6.855904,52.441701
Pausweg,15,,,7662PS,Hezingen,Tubbergen,Overijssel,VBO,6.855950,52.441621
Braambergweg,3,a,,7662PT,Hezingen,Tubbergen,Overijssel,VBO,6.852831,52.435907
Braambergweg,3,,,7662PT,Hezingen,Tubbergen,Overijssel,VBO,6.852772,52.435970
Braambergweg,5,,,7662PT,Hezingen,Tubbergen,Overijssel,VBO,6.853997,52.435994
Braambergweg,9,a,,7662PT,Hezingen,Tubbergen,Overijssel,VBO,6.855011,52.433608
Braambergweg,9,,,7662PT,Hezingen,Tubbergen,Overijssel,VBO,6.855079,52.433686
Braambergweg,10,,,7662PT,Hezingen,Tubbergen,Overijssel,VBO,6.853999,52.432807
Braambergweg,11,,,7662PT,Hezingen,Tubbergen,Overijssel,VBO,6.854039,52.432178
Haambergweg,1,,,7662PV,Hezingen,Tubbergen,Overijssel,VBO,6.860659,52.433461
Oosterveldsweg,6,,,7662PW,Hezingen,Tubbergen,Overijssel,VBO,6.858111,52.428827
Oosterveldsweg,8,,,7662PW,Hezingen,Tubbergen,Overijssel,VBO,6.858526,52.428626
Oosterveldsweg,9,a,,7662PW,Hezingen,Tubbergen,Overijssel,VBO,6.858800,52.429118
Oosterveldsweg,9,b,,7662PW,Hezingen,Tubbergen,Overijssel,VBO,6.858556,52.429319
Oosterveldsweg,9,,,7662PW,Hezingen,Tubbergen,Overijssel,VBO,6.858800,52.429118
Oosterveldsweg,10,,,7662PW,Hezingen,Tubbergen,Overijssel,VBO,6.867500,52.429487
Oosterveldsweg,14,,,7662PW,Hezingen,Tubbergen,Overijssel,VBO,6.869355,52.430980
Blauweweg,13,,,7662PX,Hezingen,Tubbergen,Overijssel,VBO,6.896965,52.433131
