openbareruimtenaam,huisnummer,huisletter,huisnummertoevoeging,postcode,woonplaatsnaam,gemeentenaam,provincienaam,typeadresseerbaarobject,longitude,latitude
Philippus Robbenstraat,4,,,7665AA,Albergen,Tubbergen,Overijssel,VBO,6.763952,52.373453
Philippus Robbenstraat,6,a,,7665AA,Albergen,Tubbergen,Overijssel,VBO,6.764010,52.373301
Philippus Robbenstraat,6,b,,7665AA,Albergen,Tubbergen,Overijssel,VBO,6.764005,52.373263
Philippus Robbenstraat,6,,,7665AA,Albergen,Tubbergen,Overijssel,VBO,6.763996,52.373341
Philippus Robbenstraat,8,a,,7665AA,Albergen,Tubbergen,Overijssel,VBO,6.763838,52.373117
Philippus Robbenstraat,8,,,7665AA,Albergen,Tubbergen,Overijssel,VBO,6.763977,52.373138
Philippus Robbenstraat,9,,,7665AA,Albergen,Tubbergen,Overijssel,VBO,6.764623,52.373053
Philippus Robbenstraat,10,,,7665AA,Albergen,Tubbergen,Overijssel,VBO,6.763968,52.372996
Refterstraat,1,,,7665AB,Albergen,Tubbergen,Overijssel,VBO,6.765850,52.372429
Refterstraat,3,,,7665AB,Albergen,Tubbergen,Overijssel,VBO,6.765743,52.372151
Refterstraat,15,,,7665AB,Albergen,Tubbergen,Overijssel,VBO,6.766146,52.371187
Hobergenstraat,3,,,7665AC,Albergen,Tubbergen,Overijssel,VBO,6.762489,52.373041
Hobergenstraat,5,,,7665AC,Albergen,Tubbergen,Overijssel,VBO,6.762574,52.373028
Hobergenstraat,7,,,7665AC,Albergen,Tubbergen,Overijssel,VBO,6.762748,52.373007
Hobergenstraat,9,,,7665AC,Albergen,Tubbergen,Overijssel,VBO,6.762917,52.372983
Hobergenstraat,11,,,7665AC,Albergen,Tubbergen,Overijssel,VBO,6.763201,52.372965
Hobergenstraat,13,,,7665AC,Albergen,Tubbergen,Overijssel,VBO,6.763488,52.372962
Hobergenstraat,15,,,7665AC,Albergen,Tubbergen,Overijssel,VBO,6.763661,52.372974
Hobergenstraat,19,,,7665AC,Albergen,Tubbergen,Overijssel,VBO,6.765463,52.372843
Hobergenstraat,21,,,7665AC,Albergen,Tubbergen,Overijssel,VBO,6.765570,52.372833
Hobergenstraat,23,,,7665AC,Albergen,Tubbergen,Overijssel,VBO,6.765681,52.372851
Hobergenstraat,25,,,7665AC,Albergen,Tubbergen,Overijssel,VBO,6.765784,52.372842
Hobergenstraat,27,,,7665AC,Albergen,Tubbergen,Overijssel,VBO,6.765821,52.373013
Hobergenstraat,29,,,7665AC,Albergen,Tubbergen,Overijssel,VBO,6.765840,52.373076
Hobergenstraat,31,,,7665AC,Albergen,Tubbergen,Overijssel,VBO,6.765917,52.373133
Hobergenstraat,33,,,7665AC,Albergen,Tubbergen,Overijssel,VBO,6.766329,52.373090
Hobergenstraat,35,,,7665AC,Albergen,Tubbergen,Overijssel,VBO,6.766378,52.373022
Hobergenstraat,37,,,7665AC,Albergen,Tubbergen,Overijssel,VBO,6.766363,52.372961
Hobergenstraat,39,,,7665AC,Albergen,Tubbergen,Overijssel,VBO,6.766131,52.372802
Hobergenstraat,41,,,7665AC,Albergen,Tubbergen,Overijssel,VBO,6.766238,52.372792
Hobergenstraat,43,,,7665AC,Albergen,Tubbergen,Overijssel,VBO,6.766349,52.372811
Hobergenstraat,45,,,7665AD,Albergen,Tubbergen,Overijssel,VBO,6.766608,52.372754
Hobergenstraat,47,,,7665AD,Albergen,Tubbergen,Overijssel,VBO,6.766625,52.372824
Hobergenstraat,49,,,7665AD,Albergen,Tubbergen,Overijssel,VBO,6.766700,52.372876
Hobergenstraat,51,,,7665AD,Albergen,Tubbergen,Overijssel,VBO,6.766767,52.372977
Hobergenstraat,53,,,7665AD,Albergen,Tubbergen,Overijssel,VBO,6.766791,52.373053
Hobergenstraat,55,,,7665AD,Albergen,Tubbergen,Overijssel,VBO,6.767172,52.373014
Hobergenstraat,57,,,7665AD,Albergen,Tubbergen,Overijssel,VBO,6.767148,52.372943
Hobergenstraat,59,,,7665AD,Albergen,Tubbergen,Overijssel,VBO,6.766959,52.372729
Hobergenstraat,61,,,7665AD,Albergen,Tubbergen,Overijssel,VBO,6.767057,52.372722
Hobergenstraat,63,,,7665AD,Albergen,Tubbergen,Overijssel,VBO,6.767168,52.372742
Hobergenstraat,65,,,7665AD,Albergen,Tubbergen,Overijssel,VBO,6.767273,52.372734
Hobergenstraat,67,,,7665AD,Albergen,Tubbergen,Overijssel,VBO,6.767578,52.372687
Hobergenstraat,69,,,7665AD,Albergen,Tubbergen,Overijssel,VBO,6.767595,52.372756
Hobergenstraat,71,,,7665AD,Albergen,Tubbergen,Overijssel,VBO,6.767628,52.372879
Hobergenstraat,73,,,7665AD,Albergen,Tubbergen,Overijssel,VBO,6.767645,52.372940
Hobergenstraat,75,,,7665AD,Albergen,Tubbergen,Overijssel,VBO,6.768058,52.372921
Hobergenstraat,77,,,7665AD,Albergen,Tubbergen,Overijssel,VBO,6.768054,52.372790
Hobergenstraat,79,,,7665AD,Albergen,Tubbergen,Overijssel,VBO,6.768041,52.372649
Het Wissink,1,,,7665AE,Albergen,Tubbergen,Overijssel,VBO,6.761441,52.372003
Het Wissink,2,,,7665AE,Albergen,Tubbergen,Overijssel,VBO,6.761446,52.372070
Het Wissink,3,,,7665AE,Albergen,Tubbergen,Overijssel,VBO,6.761442,52.372135
Het Wissink,4,,,7665AE,Albergen,Tubbergen,Overijssel,VBO,6.761432,52.372200
Het Wissink,5,,,7665AE,Albergen,Tubbergen,Overijssel,VBO,6.761414,52.372268
Het Wissink,6,,,7665AE,Albergen,Tubbergen,Overijssel,VBO,6.761354,52.372002
Het Wissink,7,,,7665AE,Albergen,Tubbergen,Overijssel,VBO,6.761386,52.372070
Het Wissink,8,,,7665AE,Albergen,Tubbergen,Overijssel,VBO,6.761375,52.372134
Het Wissink,9,,,7665AE,Albergen,Tubbergen,Overijssel,VBO,6.761374,52.372198
Het Wissink,10,,,7665AE,Albergen,Tubbergen,Overijssel,VBO,6.761326,52.372265
Refterstraat,2,,,7665AG,Albergen,Tubbergen,Overijssel,VBO,6.765157,52.372296
Refterstraat,4,,,7665AG,Albergen,Tubbergen,Overijssel,VBO,6.765055,52.372306
Refterstraat,6,,,7665AG,Albergen,Tubbergen,Overijssel,VBO,6.764974,52.372315
Refterstraat,8,,,7665AG,Albergen,Tubbergen,Overijssel,VBO,6.764889,52.372323
Refterstraat,10,,,7665AG,Albergen,Tubbergen,Overijssel,VBO,6.764805,52.372330
Refterstraat,12,,,7665AG,Albergen,Tubbergen,Overijssel,VBO,6.764713,52.372339
Refterstraat,14,,,7665AG,Albergen,Tubbergen,Overijssel,VBO,6.765069,52.372064
Refterstraat,16,,,7665AG,Albergen,Tubbergen,Overijssel,VBO,6.764994,52.372075
Refterstraat,18,,,7665AG,Albergen,Tubbergen,Overijssel,VBO,6.764913,52.372087
Refterstraat,20,,,7665AG,Albergen,Tubbergen,Overijssel,VBO,6.764830,52.372101
Refterstraat,22,,,7665AG,Albergen,Tubbergen,Overijssel,VBO,6.764719,52.372111
Refterstraat,24,,,7665AG,Albergen,Tubbergen,Overijssel,VBO,6.764623,52.372120
Refterstraat,26,,,7665AG,Albergen,Tubbergen,Overijssel,VBO,6.764984,52.371773
Refterstraat,28,,,7665AG,Albergen,Tubbergen,Overijssel,VBO,6.764894,52.371783
Refterstraat,30,,,7665AG,Albergen,Tubbergen,Overijssel,VBO,6.764807,52.371796
Refterstraat,32,,,7665AG,Albergen,Tubbergen,Overijssel,VBO,6.764714,52.371807
Refterstraat,34,,,7665AG,Albergen,Tubbergen,Overijssel,VBO,6.764633,52.371819
Refterstraat,36,,,7665AG,Albergen,Tubbergen,Overijssel,VBO,6.764534,52.371833
Refterstraat,38,,,7665AG,Albergen,Tubbergen,Overijssel,VBO,6.764894,52.371550
Refterstraat,40,,,7665AG,Albergen,Tubbergen,Overijssel,VBO,6.764807,52.371567
Refterstraat,42,,,7665AG,Albergen,Tubbergen,Overijssel,VBO,6.764728,52.371581
Refterstraat,44,,,7665AG,Albergen,Tubbergen,Overijssel,VBO,6.764646,52.371597
Refterstraat,46,,,7665AG,Albergen,Tubbergen,Overijssel,VBO,6.764560,52.371609
Refterstraat,48,,,7665AG,Albergen,Tubbergen,Overijssel,VBO,6.764463,52.371626
Refterstraat,50,,,7665AG,Albergen,Tubbergen,Overijssel,VBO,6.765129,52.371385
Refterstraat,52,,,7665AG,Albergen,Tubbergen,Overijssel,VBO,6.765310,52.371301
Refterstraat,54,,,7665AG,Albergen,Tubbergen,Overijssel,VBO,6.765395,52.371285
Refterstraat,56,,,7665AG,Albergen,Tubbergen,Overijssel,VBO,6.765599,52.371205
Refterstraat,58,,,7665AG,Albergen,Tubbergen,Overijssel,VBO,6.765676,52.371186
Refterstraat,60,,,7665AG,Albergen,Tubbergen,Overijssel,VBO,6.765740,52.370912
Kapittelhuisstraat,2,,,7665AH,Albergen,Tubbergen,Overijssel,VBO,6.767860,52.372317
Kapittelhuisstraat,3,,,7665AH,Albergen,Tubbergen,Overijssel,VBO,6.768329,52.372137
Kapittelhuisstraat,4,,,7665AH,Albergen,Tubbergen,Overijssel,VBO,6.767841,52.372257
Kapittelhuisstraat,5,,,7665AH,Albergen,Tubbergen,Overijssel,VBO,6.768290,52.371992
Kapittelhuisstraat,6,,,7665AH,Albergen,Tubbergen,Overijssel,VBO,6.767805,52.372145
Kapittelhuisstraat,7,,,7665AH,Albergen,Tubbergen,Overijssel,VBO,6.768255,52.371857
Kapittelhuisstraat,8,,,7665AH,Albergen,Tubbergen,Overijssel,VBO,6.767789,52.372088
Kapittelhuisstraat,9,,,7665AH,Albergen,Tubbergen,Overijssel,VBO,6.768084,52.371718
Kapittelhuisstraat,10,,,7665AH,Albergen,Tubbergen,Overijssel,VBO,6.767751,52.371969
Kapittelhuisstraat,11,,,7665AH,Albergen,Tubbergen,Overijssel,VBO,6.767935,52.371585
Kapittelhuisstraat,12,,,7665AH,Albergen,Tubbergen,Overijssel,VBO,6.767445,52.371706
Kapittelhuisstraat,13,,,7665AH,Albergen,Tubbergen,Overijssel,VBO,6.767887,52.371456
Kapittelhuisstraat,14,,,7665AH,Albergen,Tubbergen,Overijssel,VBO,6.767401,52.371574
Kapittelhuisstraat,15,,,7665AH,Albergen,Tubbergen,Overijssel,VBO,6.767841,52.371316
Kapittelhuisstraat,16,,,7665AH,Albergen,Tubbergen,Overijssel,VBO,6.767378,52.371450
Hobergenstraat,4,a,,7665AJ,Albergen,Tubbergen,Overijssel,VBO,6.762394,52.372847
Hobergenstraat,4,,,7665AJ,Albergen,Tubbergen,Overijssel,VBO,6.762333,52.372881
Hobergenstraat,6,,,7665AJ,Albergen,Tubbergen,Overijssel,VBO,6.762607,52.372812
Hobergenstraat,10,,,7665AJ,Albergen,Tubbergen,Overijssel,VBO,6.763356,52.372743
Hobergenstraat,12,,,7665AJ,Albergen,Tubbergen,Overijssel,VBO,6.763444,52.372744
Hobergenstraat,14,,,7665AJ,Albergen,Tubbergen,Overijssel,VBO,6.763620,52.372756
Hobergenstraat,16,,,7665AJ,Albergen,Tubbergen,Overijssel,VBO,6.763814,52.372758
Hobergenstraat,20,,,7665AJ,Albergen,Tubbergen,Overijssel,VBO,6.764788,52.372614
Hobergenstraat,22,,,7665AJ,Albergen,Tubbergen,Overijssel,VBO,6.764987,52.372592
Hobergenstraat,24,a,,7665AJ,Albergen,Tubbergen,Overijssel,VBO,6.765115,52.372495
Hobergenstraat,24,,,7665AJ,Albergen,Tubbergen,Overijssel,VBO,6.765178,52.372575
Hobergenstraat,26,,,7665AJ,Albergen,Tubbergen,Overijssel,VBO,6.766031,52.372394
Hobergenstraat,28,,,7665AJ,Albergen,Tubbergen,Overijssel,VBO,6.766449,52.372436
Hobergenstraat,30,,,7665AJ,Albergen,Tubbergen,Overijssel,VBO,6.766649,52.372419
Hobergenstraat,32,,,7665AJ,Albergen,Tubbergen,Overijssel,VBO,6.766851,52.372400
Hobergenstraat,34,,,7665AJ,Albergen,Tubbergen,Overijssel,VBO,6.767061,52.372381
Hobergenstraat,36,,,7665AJ,Albergen,Tubbergen,Overijssel,VBO,6.767159,52.372374
Hobergenstraat,38,,,7665AJ,Albergen,Tubbergen,Overijssel,VBO,6.767391,52.372356
Hobergenstraat,40,,,7665AJ,Albergen,Tubbergen,Overijssel,VBO,6.767479,52.372345
Hobergenstraat,42,,,7665AJ,Albergen,Tubbergen,Overijssel,VBO,6.768410,52.372298
Hobergenstraat,44,,,7665AJ,Albergen,Tubbergen,Overijssel,VBO,6.768654,52.372326
Schultenstraat,3,,,7665AK,Albergen,Tubbergen,Overijssel,VBO,6.763252,52.372553
Schultenstraat,5,,,7665AK,Albergen,Tubbergen,Overijssel,VBO,6.763224,52.372502
Schultenstraat,7,,,7665AK,Albergen,Tubbergen,Overijssel,VBO,6.763186,52.372407
Schultenstraat,9,,,7665AK,Albergen,Tubbergen,Overijssel,VBO,6.763160,52.372356
Schultenstraat,11,,,7665AK,Albergen,Tubbergen,Overijssel,VBO,6.763117,52.372232
Schultenstraat,13,,,7665AK,Albergen,Tubbergen,Overijssel,VBO,6.763076,52.372114
Schultenstraat,15,,,7665AK,Albergen,Tubbergen,Overijssel,VBO,6.763024,52.371994
Schultenstraat,17,,,7665AK,Albergen,Tubbergen,Overijssel,VBO,6.762968,52.371877
Schultenstraat,19,,,7665AK,Albergen,Tubbergen,Overijssel,VBO,6.762919,52.371748
Schultenstraat,21,,,7665AK,Albergen,Tubbergen,Overijssel,VBO,6.762713,52.371661
Schultenstraat,23,,,7665AK,Albergen,Tubbergen,Overijssel,VBO,6.762516,52.371652
Schultenstraat,25,,,7665AK,Albergen,Tubbergen,Overijssel,VBO,6.762328,52.371637
Schultenstraat,27,,,7665AK,Albergen,Tubbergen,Overijssel,VBO,6.762118,52.371600
Schultenstraat,2,,,7665AL,Albergen,Tubbergen,Overijssel,VBO,6.762975,52.372776
Schultenstraat,4,,,7665AL,Albergen,Tubbergen,Overijssel,VBO,6.762961,52.372728
Schultenstraat,6,,,7665AL,Albergen,Tubbergen,Overijssel,VBO,6.762932,52.372673
Schultenstraat,8,,,7665AL,Albergen,Tubbergen,Overijssel,VBO,6.762911,52.372615
Schultenstraat,10,,,7665AL,Albergen,Tubbergen,Overijssel,VBO,6.762859,52.372512
Schultenstraat,12,,,7665AL,Albergen,Tubbergen,Overijssel,VBO,6.762841,52.372465
Schultenstraat,20,,,7665AL,Albergen,Tubbergen,Overijssel,VBO,6.762635,52.371947
Schultenstraat,22,,,7665AL,Albergen,Tubbergen,Overijssel,VBO,6.762465,52.371885
Schultenstraat,24,,,7665AL,Albergen,Tubbergen,Overijssel,VBO,6.762283,52.371860
Johannes van Lochemstraat,4,,,7665AM,Albergen,Tubbergen,Overijssel,VBO,6.762197,52.372313
Johannes van Lochemstraat,5,,,7665AM,Albergen,Tubbergen,Overijssel,VBO,6.762275,52.372545
Johannes van Lochemstraat,6,,,7665AM,Albergen,Tubbergen,Overijssel,VBO,6.762396,52.372304
Johannes van Lochemstraat,7,,,7665AM,Albergen,Tubbergen,Overijssel,VBO,6.762469,52.372510
Johannes van Lochemstraat,8,,,7665AM,Albergen,Tubbergen,Overijssel,VBO,6.762562,52.372284
Johannes van Lochemstraat,9,,,7665AM,Albergen,Tubbergen,Overijssel,VBO,6.762550,52.372500
Johannes van Lochemstraat,12,a,,7665AM,Albergen,Tubbergen,Overijssel,VBO,6.762690,52.372136
Johannes van Lochemstraat,12,,,7665AM,Albergen,Tubbergen,Overijssel,VBO,6.762701,52.372254
Hoofdstraat,17,,,7665AN,Albergen,Tubbergen,Overijssel,VBO,6.761096,52.372233
Hoofdstraat,19,,,7665AN,Albergen,Tubbergen,Overijssel,VBO,6.760885,52.372188
Hoofdstraat,21,a,,7665AN,Albergen,Tubbergen,Overijssel,VBO,6.760619,52.372019
Hoofdstraat,21,,,7665AN,Albergen,Tubbergen,Overijssel,VBO,6.760674,52.372132
Hoofdstraat,25,,,7665AN,Albergen,Tubbergen,Overijssel,VBO,6.760398,52.372077
Hoofdstraat,27,,,7665AN,Albergen,Tubbergen,Overijssel,VBO,6.760273,52.372069
Hoofdstraat,29,,,7665AN,Albergen,Tubbergen,Overijssel,VBO,6.760141,52.372036
Hoofdstraat,31,,,7665AN,Albergen,Tubbergen,Overijssel,VBO,6.759978,52.372005
Hoofdstraat,33,,,7665AN,Albergen,Tubbergen,Overijssel,VBO,6.760070,52.371802
Hoofdstraat,35,,,7665AN,Albergen,Tubbergen,Overijssel,VBO,6.759895,52.371994
Hoofdstraat,37,a,,7665AN,Albergen,Tubbergen,Overijssel,VBO,6.759721,52.371951
Hoofdstraat,37,,,7665AN,Albergen,Tubbergen,Overijssel,VBO,6.759847,52.371734
Hoofdstraat,39,,,7665AN,Albergen,Tubbergen,Overijssel,VBO,6.759471,52.371934
Hoofdstraat,41,,,7665AN,Albergen,Tubbergen,Overijssel,VBO,6.759308,52.371870
Hoofdstraat,43,,,7665AN,Albergen,Tubbergen,Overijssel,VBO,6.759035,52.371831
Hoofdstraat,45,,,7665AN,Albergen,Tubbergen,Overijssel,VBO,6.758828,52.371799
Hoofdstraat,47,a,,7665AN,Albergen,Tubbergen,Overijssel,VBO,6.758545,52.371779
Hoofdstraat,47,b,,7665AN,Albergen,Tubbergen,Overijssel,VBO,6.758626,52.371698
Hoofdstraat,47,,,7665AN,Albergen,Tubbergen,Overijssel,VBO,6.758618,52.371568
Hoofdstraat,51,a,,7665AN,Albergen,Tubbergen,Overijssel,VBO,6.757766,52.371621
Hoofdstraat,51,,,7665AN,Albergen,Tubbergen,Overijssel,VBO,6.757933,52.371617
Hoofdstraat,55,,,7665AN,Albergen,Tubbergen,Overijssel,VBO,6.757320,52.371463
Hoofdstraat,18,,,7665AP,Albergen,Tubbergen,Overijssel,VBO,6.760947,52.372516
Hoofdstraat,20,,,7665AP,Albergen,Tubbergen,Overijssel,VBO,6.760617,52.372531
Hoofdstraat,22,,,7665AP,Albergen,Tubbergen,Overijssel,VBO,6.760435,52.372398
Hoofdstraat,24,,,7665AP,Albergen,Tubbergen,Overijssel,VBO,6.760218,52.372403
Hoofdstraat,26,,,7665AP,Albergen,Tubbergen,Overijssel,VBO,6.760007,52.372340
Hoofdstraat,30,,,7665AP,Albergen,Tubbergen,Overijssel,VBO,6.759770,52.372277
Hoofdstraat,32,,,7665AP,Albergen,Tubbergen,Overijssel,VBO,6.759675,52.372264
Hoofdstraat,34,,,7665AP,Albergen,Tubbergen,Overijssel,VBO,6.759455,52.372284
Hoofdstraat,36,,,7665AP,Albergen,Tubbergen,Overijssel,VBO,6.759177,52.372246
Hoofdstraat,38,,,7665AP,Albergen,Tubbergen,Overijssel,VBO,6.758955,52.372205
Hoofdstraat,46,,,7665AP,Albergen,Tubbergen,Overijssel,VBO,6.758718,52.372170
Hoofdstraat,48,,,7665AP,Albergen,Tubbergen,Overijssel,VBO,6.758630,52.372155
Hoofdstraat,50,a,,7665AP,Albergen,Tubbergen,Overijssel,VBO,6.758223,52.372129
Hoofdstraat,50,,,7665AP,Albergen,Tubbergen,Overijssel,VBO,6.758401,52.372107
Hoofdstraat,54,,,7665AP,Albergen,Tubbergen,Overijssel,VBO,6.757805,52.371982
Hoofdstraat,56,,,7665AP,Albergen,Tubbergen,Overijssel,VBO,6.757536,52.371938
Hoofdstraat,58,,,7665AP,Albergen,Tubbergen,Overijssel,VBO,6.757086,52.371873
Floris Radewijnsstraat,1,,,7665AR,Albergen,Tubbergen,Overijssel,VBO,6.761022,52.370717
Floris Radewijnsstraat,3,,,7665AR,Albergen,Tubbergen,Overijssel,VBO,6.760828,52.370872
Floris Radewijnsstraat,5,,,7665AR,Albergen,Tubbergen,Overijssel,VBO,6.760701,52.370960
Floris Radewijnsstraat,7,,,7665AR,Albergen,Tubbergen,Overijssel,VBO,6.760567,52.371048
Floris Radewijnsstraat,9,,,7665AR,Albergen,Tubbergen,Overijssel,VBO,6.760424,52.371157
Floris Radewijnsstraat,11,,,7665AR,Albergen,Tubbergen,Overijssel,VBO,6.760369,52.371218
Floris Radewijnsstraat,13,,,7665AR,Albergen,Tubbergen,Overijssel,VBO,6.760269,52.371322
Floris Radewijnsstraat,17,,,7665AR,Albergen,Tubbergen,Overijssel,VBO,6.759728,52.371263
Floris Radewijnsstraat,27,,,7665AR,Albergen,Tubbergen,Overijssel,VBO,6.758785,52.371113
Floris Radewijnsstraat,2,,,7665AS,Albergen,Tubbergen,Overijssel,VBO,6.761242,52.370945
Floris Radewijnsstraat,4,,,7665AS,Albergen,Tubbergen,Overijssel,VBO,6.761001,52.371124
Floris Radewijnsstraat,6,,,7665AS,Albergen,Tubbergen,Overijssel,VBO,6.760855,52.371226
Floris Radewijnsstraat,8,,,7665AS,Albergen,Tubbergen,Overijssel,VBO,6.760764,52.371324
Floris Radewijnsstraat,10,,,7665AS,Albergen,Tubbergen,Overijssel,VBO,6.760673,52.371421
Floris Radewijnsstraat,12,,,7665AS,Albergen,Tubbergen,Overijssel,VBO,6.760568,52.371527
Floris Radewijnsstraat,14,,,7665AS,Albergen,Tubbergen,Overijssel,VBO,6.760340,52.371621
Floris Radewijnsstraat,16,,,7665AS,Albergen,Tubbergen,Overijssel,VBO,6.760151,52.371586
Floris Radewijnsstraat,18,,,7665AS,Albergen,Tubbergen,Overijssel,VBO,6.760055,52.371575
Floris Radewijnsstraat,20,,,7665AS,Albergen,Tubbergen,Overijssel,VBO,6.759884,52.371507
Floris Radewijnsstraat,22,,,7665AS,Albergen,Tubbergen,Overijssel,VBO,6.759788,52.371496
Floris Radewijnsstraat,24,,,7665AS,Albergen,Tubbergen,Overijssel,VBO,6.759631,52.371474
Floris Radewijnsstraat,26,,,7665AS,Albergen,Tubbergen,Overijssel,VBO,6.759536,52.371461
Floris Radewijnsstraat,28,,,7665AS,Albergen,Tubbergen,Overijssel,VBO,6.759350,52.371451
Floris Radewijnsstraat,30,,,7665AS,Albergen,Tubbergen,Overijssel,VBO,6.759168,52.371419
Floris Radewijnsstraat,32,,,7665AS,Albergen,Tubbergen,Overijssel,VBO,6.758978,52.371391
Floris Radewijnsstraat,34,,,7665AS,Albergen,Tubbergen,Overijssel,VBO,6.758867,52.371373
Floris Radewijnsstraat,36,,,7665AS,Albergen,Tubbergen,Overijssel,VBO,6.758648,52.371348
Hendrik Wetterstraat,1,,,7665AT,Albergen,Tubbergen,Overijssel,VBO,6.760119,52.370475
Hendrik Wetterstraat,2,,,7665AT,Albergen,Tubbergen,Overijssel,VBO,6.760381,52.370619
Hendrik Wetterstraat,3,,,7665AT,Albergen,Tubbergen,Overijssel,VBO,6.760066,52.370514
Hendrik Wetterstraat,4,,,7665AT,Albergen,Tubbergen,Overijssel,VBO,6.760324,52.370663
Hendrik Wetterstraat,5,,,7665AT,Albergen,Tubbergen,Overijssel,VBO,6.759954,52.370596
Hendrik Wetterstraat,6,,,7665AT,Albergen,Tubbergen,Overijssel,VBO,6.760223,52.370741
Hendrik Wetterstraat,7,,,7665AT,Albergen,Tubbergen,Overijssel,VBO,6.759911,52.370637
Hendrik Wetterstraat,8,,,7665AT,Albergen,Tubbergen,Overijssel,VBO,6.760164,52.370789
Hendrik Wetterstraat,9,,,7665AT,Albergen,Tubbergen,Overijssel,VBO,6.759794,52.370720
Hendrik Wetterstraat,10,,,7665AT,Albergen,Tubbergen,Overijssel,VBO,6.760070,52.370864
Hendrik Wetterstraat,11,,,7665AT,Albergen,Tubbergen,Overijssel,VBO,6.759751,52.370760
Hendrik Wetterstraat,12,,,7665AT,Albergen,Tubbergen,Overijssel,VBO,6.760018,52.370911
Hendrik Wetterstraat,13,,,7665AT,Albergen,Tubbergen,Overijssel,VBO,6.759637,52.370849
Hendrik Wetterstraat,14,,,7665AT,Albergen,Tubbergen,Overijssel,VBO,6.759914,52.370994
Hendrik Wetterstraat,15,,,7665AT,Albergen,Tubbergen,Overijssel,VBO,6.759580,52.370893
Hendrik Wetterstraat,16,,,7665AT,Albergen,Tubbergen,Overijssel,VBO,6.759859,52.371042
Hendrik Wetterstraat,17,,,7665AT,Albergen,Tubbergen,Overijssel,VBO,6.759530,52.370932
Hendrik Wetterstraat,18,,,7665AT,Albergen,Tubbergen,Overijssel,VBO,6.759794,52.371154
Hendrik Wetterstraat,19,,,7665AT,Albergen,Tubbergen,Overijssel,VBO,6.759480,52.370973
Hendrik Wetterstraat,21,,,7665AT,Albergen,Tubbergen,Overijssel,VBO,6.759372,52.371062
Hendrik Wetterstraat,23,,,7665AT,Albergen,Tubbergen,Overijssel,VBO,6.759337,52.371112
Hendrik Wetterstraat,25,,,7665AT,Albergen,Tubbergen,Overijssel,VBO,6.759294,52.371161
Hendrik Wetterstraat,27,,,7665AT,Albergen,Tubbergen,Overijssel,VBO,6.759264,52.371211
Geert Grootestraat,1,,,7665AV,Albergen,Tubbergen,Overijssel,VBO,6.759313,52.370069
Geert Grootestraat,2,,,7665AV,Albergen,Tubbergen,Overijssel,VBO,6.759642,52.370239
Geert Grootestraat,3,,,7665AV,Albergen,Tubbergen,Overijssel,VBO,6.759162,52.370179
Geert Grootestraat,4,,,7665AV,Albergen,Tubbergen,Overijssel,VBO,6.759577,52.370289
Geert Grootestraat,5,,,7665AV,Albergen,Tubbergen,Overijssel,VBO,6.759046,52.370285
Geert Grootestraat,6,,,7665AV,Albergen,Tubbergen,Overijssel,VBO,6.759494,52.370374
Geert Grootestraat,7,,,7665AV,Albergen,Tubbergen,Overijssel,VBO,6.758903,52.370403
Geert Grootestraat,8,,,7665AV,Albergen,Tubbergen,Overijssel,VBO,6.759427,52.370430
Geert Grootestraat,9,,,7665AV,Albergen,Tubbergen,Overijssel,VBO,6.758791,52.370514
Geert Grootestraat,10,,,7665AV,Albergen,Tubbergen,Overijssel,VBO,6.759330,52.370520
Geert Grootestraat,12,,,7665AV,Albergen,Tubbergen,Overijssel,VBO,6.759238,52.370606
Geert Grootestraat,14,,,7665AV,Albergen,Tubbergen,Overijssel,VBO,6.759159,52.370703
Geert Grootestraat,16,,,7665AV,Albergen,Tubbergen,Overijssel,VBO,6.759064,52.370800
Geert Grootestraat,18,,,7665AV,Albergen,Tubbergen,Overijssel,VBO,6.758967,52.370903
Geert Grootestraat,20,,,7665AV,Albergen,Tubbergen,Overijssel,VBO,6.758880,52.371015
Geert Grootestraat,23,,,7665AV,Albergen,Tubbergen,Overijssel,VBO,6.758274,52.370878
Geert Grootestraat,25,,,7665AV,Albergen,Tubbergen,Overijssel,VBO,6.758160,52.371225
Geert Grootestraat,27,a,,7665AV,Albergen,Tubbergen,Overijssel,VBO,6.757996,52.371429
Geert Grootestraat,27,,,7665AV,Albergen,Tubbergen,Overijssel,VBO,6.758097,52.371371
Hinvertsweg,1,,,7665AW,Albergen,Tubbergen,Overijssel,VBO,6.761314,52.370498
Hinvertsweg,3,,,7665AW,Albergen,Tubbergen,Overijssel,VBO,6.761174,52.370399
Hinvertsweg,5,,,7665AW,Albergen,Tubbergen,Overijssel,VBO,6.761023,52.370316
Hinvertsweg,7,,,7665AW,Albergen,Tubbergen,Overijssel,VBO,6.760857,52.370252
Hinvertsweg,9,,,7665AW,Albergen,Tubbergen,Overijssel,VBO,6.760779,52.370212
Hinvertsweg,17,,,7665AW,Albergen,Tubbergen,Overijssel,VBO,6.760173,52.369845
Hinvertsweg,19,,,7665AW,Albergen,Tubbergen,Overijssel,VBO,6.759537,52.369524
Hinvertsweg,23,,,7665AW,Albergen,Tubbergen,Overijssel,VBO,6.758584,52.369084
Hinvertsweg,25,,,7665AW,Albergen,Tubbergen,Overijssel,VBO,6.758287,52.368939
Hinvertsweg,35,,,7665AW,Albergen,Tubbergen,Overijssel,VBO,6.757813,52.368698
Hinvertsweg,4,,,7665AX,Albergen,Tubbergen,Overijssel,VBO,6.760888,52.370642
Hinvertsweg,6,,,7665AX,Albergen,Tubbergen,Overijssel,VBO,6.760736,52.370558
Hinvertsweg,8,,,7665AX,Albergen,Tubbergen,Overijssel,VBO,6.760584,52.370482
Hinvertsweg,10,,,7665AX,Albergen,Tubbergen,Overijssel,VBO,6.760292,52.370311
Hinvertsweg,12,,,7665AX,Albergen,Tubbergen,Overijssel,VBO,6.760148,52.370224
Hinvertsweg,14,,,7665AX,Albergen,Tubbergen,Overijssel,VBO,6.759997,52.370154
Hinvertsweg,16,,,7665AX,Albergen,Tubbergen,Overijssel,VBO,6.759854,52.370073
Hinvertsweg,18,,,7665AX,Albergen,Tubbergen,Overijssel,VBO,6.759539,52.369905
Hinvertsweg,24,,,7665AX,Albergen,Tubbergen,Overijssel,VBO,6.758840,52.369693
Hinvertsweg,26,,,7665AX,Albergen,Tubbergen,Overijssel,VBO,6.757972,52.369370
Calligrafiestraat,1,,,7665AZ,Albergen,Tubbergen,Overijssel,VBO,6.766791,52.371211
Calligrafiestraat,2,,,7665AZ,Albergen,Tubbergen,Overijssel,VBO,6.767346,52.371392
Calligrafiestraat,3,,,7665AZ,Albergen,Tubbergen,Overijssel,VBO,6.766698,52.371224
Calligrafiestraat,4,,,7665AZ,Albergen,Tubbergen,Overijssel,VBO,6.767016,52.371408
Calligrafiestraat,5,,,7665AZ,Albergen,Tubbergen,Overijssel,VBO,6.766578,52.371206
Calligrafiestraat,6,,,7665AZ,Albergen,Tubbergen,Overijssel,VBO,6.766923,52.371424
Calligrafiestraat,7,,,7665AZ,Albergen,Tubbergen,Overijssel,VBO,6.766492,52.371219
Calligrafiestraat,8,,,7665AZ,Albergen,Tubbergen,Overijssel,VBO,6.766850,52.371475
Calligrafiestraat,9,,,7665AZ,Albergen,Tubbergen,Overijssel,VBO,6.766230,52.371334
Calligrafiestraat,10,,,7665AZ,Albergen,Tubbergen,Overijssel,VBO,6.766754,52.371492
Calligrafiestraat,12,,,7665AZ,Albergen,Tubbergen,Overijssel,VBO,6.766573,52.371466
Calligrafiestraat,14,,,7665AZ,Albergen,Tubbergen,Overijssel,VBO,6.766485,52.371482
Calligrafiestraat,16,,,7665AZ,Albergen,Tubbergen,Overijssel,VBO,6.766199,52.371570
Calligrafiestraat,18,,,7665AZ,Albergen,Tubbergen,Overijssel,VBO,6.766220,52.371626
Calligrafiestraat,20,,,7665AZ,Albergen,Tubbergen,Overijssel,VBO,6.766186,52.371690
Calligrafiestraat,22,,,7665AZ,Albergen,Tubbergen,Overijssel,VBO,6.766212,52.371749
Calligrafiestraat,26,,,7665AZ,Albergen,Tubbergen,Overijssel,VBO,6.765917,52.371925
Librijestraat,1,,,7665BA,Albergen,Tubbergen,Overijssel,VBO,6.767144,52.371752
Librijestraat,2,,,7665BA,Albergen,Tubbergen,Overijssel,VBO,6.767406,52.371976
Librijestraat,3,,,7665BA,Albergen,Tubbergen,Overijssel,VBO,6.767044,52.371763
Librijestraat,4,,,7665BA,Albergen,Tubbergen,Overijssel,VBO,6.767304,52.371984
Librijestraat,5,,,7665BA,Albergen,Tubbergen,Overijssel,VBO,6.766938,52.371738
Librijestraat,6,,,7665BA,Albergen,Tubbergen,Overijssel,VBO,6.767144,52.372042
Librijestraat,7,,,7665BA,Albergen,Tubbergen,Overijssel,VBO,6.766845,52.371749
Librijestraat,8,,,7665BA,Albergen,Tubbergen,Overijssel,VBO,6.767048,52.372053
Librijestraat,9,,,7665BA,Albergen,Tubbergen,Overijssel,VBO,6.766667,52.371805
Librijestraat,10,,,7665BA,Albergen,Tubbergen,Overijssel,VBO,6.766963,52.372105
Librijestraat,11,,,7665BA,Albergen,Tubbergen,Overijssel,VBO,6.766579,52.371812
Librijestraat,12,,,7665BA,Albergen,Tubbergen,Overijssel,VBO,6.766870,52.372115
Librijestraat,14,,,7665BA,Albergen,Tubbergen,Overijssel,VBO,6.766524,52.372205
Librijestraat,16,,,7665BA,Albergen,Tubbergen,Overijssel,VBO,6.766501,52.372158
Librijestraat,18,,,7665BA,Albergen,Tubbergen,Overijssel,VBO,6.766436,52.372099
Librijestraat,20,,,7665BA,Albergen,Tubbergen,Overijssel,VBO,6.766412,52.372040
Kapittelhuisstraat,18,,,7665BB,Albergen,Tubbergen,Overijssel,VBO,6.767077,52.371125
Kapittelhuisstraat,20,,,7665BB,Albergen,Tubbergen,Overijssel,VBO,6.767054,52.371070
Kapittelhuisstraat,22,,,7665BB,Albergen,Tubbergen,Overijssel,VBO,6.766982,52.370949
Kapittelhuisstraat,24,,,7665BB,Albergen,Tubbergen,Overijssel,VBO,6.766924,52.370813
Kapittelhuisstraat,26,,,7665BB,Albergen,Tubbergen,Overijssel,VBO,6.766584,52.370861
Kapittelhuisstraat,28,,,7665BB,Albergen,Tubbergen,Overijssel,VBO,6.766502,52.370886
Kapittelhuisstraat,30,,,7665BB,Albergen,Tubbergen,Overijssel,VBO,6.766263,52.370923
Kapittelhuisstraat,32,,,7665BB,Albergen,Tubbergen,Overijssel,VBO,6.766183,52.370947
Kapittelhuisstraat,36,,,7665BB,Albergen,Tubbergen,Overijssel,VBO,6.765353,52.370954
Kapittelhuisstraat,38,,,7665BB,Albergen,Tubbergen,Overijssel,VBO,6.765058,52.371001
Kapittelhuisstraat,40,,,7665BB,Albergen,Tubbergen,Overijssel,VBO,6.764856,52.371117
Kapittelhuisstraat,42,,,7665BB,Albergen,Tubbergen,Overijssel,VBO,6.764618,52.371271
Kapittelhuisstraat,44,,,7665BB,Albergen,Tubbergen,Overijssel,VBO,6.764428,52.371295
Kapittelhuisstraat,46,,,7665BB,Albergen,Tubbergen,Overijssel,VBO,6.764340,52.371314
Kapittelhuisstraat,48,,,7665BB,Albergen,Tubbergen,Overijssel,VBO,6.764128,52.371326
Kapittelhuisstraat,50,,,7665BB,Albergen,Tubbergen,Overijssel,VBO,6.764038,52.371344
Kapittelhuisstraat,52,,,7665BB,Albergen,Tubbergen,Overijssel,VBO,6.763829,52.371382
Kapittelhuisstraat,54,,,7665BB,Albergen,Tubbergen,Overijssel,VBO,6.763746,52.371400
Kapittelhuisstraat,56,,,7665BB,Albergen,Tubbergen,Overijssel,VBO,6.763538,52.371417
Kapittelhuisstraat,58,,,7665BB,Albergen,Tubbergen,Overijssel,VBO,6.763443,52.371436
Kapittelhuisstraat,60,,,7665BB,Albergen,Tubbergen,Overijssel,VBO,6.763208,52.371461
Kapittelhuisstraat,62,,,7665BB,Albergen,Tubbergen,Overijssel,VBO,6.763003,52.371415
Kapittelhuisstraat,64,,,7665BB,Albergen,Tubbergen,Overijssel,VBO,6.762775,52.371390
Kapittelhuisstraat,66,,,7665BB,Albergen,Tubbergen,Overijssel,VBO,6.762557,52.371377
Kapittelhuisstraat,68,,,7665BB,Albergen,Tubbergen,Overijssel,VBO,6.762357,52.371320
Kapittelhuisstraat,17,,,7665BC,Albergen,Tubbergen,Overijssel,VBO,6.767672,52.371162
Kapittelhuisstraat,19,,,7665BC,Albergen,Tubbergen,Overijssel,VBO,6.767505,52.371049
Kapittelhuisstraat,21,,,7665BC,Albergen,Tubbergen,Overijssel,VBO,6.767434,52.370913
Kapittelhuisstraat,23,,,7665BC,Albergen,Tubbergen,Overijssel,VBO,6.767359,52.370770
Kapittelhuisstraat,25,,,7665BC,Albergen,Tubbergen,Overijssel,VBO,6.766992,52.370524
Kapittelhuisstraat,27,,,7665BC,Albergen,Tubbergen,Overijssel,VBO,6.766702,52.370536
Kapittelhuisstraat,29,,,7665BC,Albergen,Tubbergen,Overijssel,VBO,6.766478,52.370580
Kapittelhuisstraat,31,,,7665BC,Albergen,Tubbergen,Overijssel,VBO,6.766168,52.370613
Kapittelhuisstraat,33,,,7665BC,Albergen,Tubbergen,Overijssel,VBO,6.765887,52.370634
Kapittelhuisstraat,35,,,7665BC,Albergen,Tubbergen,Overijssel,VBO,6.764600,52.370875
Kapittelhuisstraat,37,,,7665BC,Albergen,Tubbergen,Overijssel,VBO,6.764382,52.370983
Kapittelhuisstraat,39,,,7665BC,Albergen,Tubbergen,Overijssel,VBO,6.764170,52.371023
Kapittelhuisstraat,41,,,7665BC,Albergen,Tubbergen,Overijssel,VBO,6.763952,52.371038
Kapittelhuisstraat,43,,,7665BC,Albergen,Tubbergen,Overijssel,VBO,6.763729,52.371105
Kapittelhuisstraat,45,,,7665BC,Albergen,Tubbergen,Overijssel,VBO,6.763503,52.371167
Kapittelhuisstraat,47,,,7665BC,Albergen,Tubbergen,Overijssel,VBO,6.763188,52.371131
Kapittelhuisstraat,53,,,7665BC,Albergen,Tubbergen,Overijssel,VBO,6.762700,52.370944
Kapittelhuisstraat,55,,,7665BC,Albergen,Tubbergen,Overijssel,VBO,6.762059,52.370737
Meidoorn,1,,,7665BD,Albergen,Tubbergen,Overijssel,VBO,6.767390,52.370450
Bennekerstraat,2,,,7665CA,Albergen,Tubbergen,Overijssel,VBO,6.760676,52.368892
Bennekerstraat,4,,,7665CA,Albergen,Tubbergen,Overijssel,VBO,6.760413,52.368959
Bennekerstraat,8,,,7665CA,Albergen,Tubbergen,Overijssel,VBO,6.759981,52.369062
Bennekerstraat,10,,,7665CA,Albergen,Tubbergen,Overijssel,VBO,6.759761,52.369091
Bennekerstraat,12,,,7665CA,Albergen,Tubbergen,Overijssel,VBO,6.759568,52.369131
Bennekerstraat,14,,,7665CA,Albergen,Tubbergen,Overijssel,VBO,6.759378,52.369187
Bennekerstraat,16,,,7665CA,Albergen,Tubbergen,Overijssel,VBO,6.759287,52.369208
Bennekerstraat,18,,,7665CA,Albergen,Tubbergen,Overijssel,VBO,6.759066,52.369308
Bennekerstraat,1,,,7665CB,Albergen,Tubbergen,Overijssel,VBO,6.760522,52.368635
Bennekerstraat,3,,,7665CB,Albergen,Tubbergen,Overijssel,VBO,6.760268,52.368696
Bennekerstraat,5,,,7665CB,Albergen,Tubbergen,Overijssel,VBO,6.759817,52.368818
Bennekerstraat,11,,,7665CB,Albergen,Tubbergen,Overijssel,VBO,6.759433,52.368845
Oude Schoolstraat,4,,,7665CC,Albergen,Tubbergen,Overijssel,VBO,6.760599,52.369154
Oude Schoolstraat,6,,,7665CC,Albergen,Tubbergen,Overijssel,VBO,6.760652,52.369201
Oude Schoolstraat,8,,,7665CC,Albergen,Tubbergen,Overijssel,VBO,6.760793,52.369312
Oude Schoolstraat,10,,,7665CC,Albergen,Tubbergen,Overijssel,VBO,6.760829,52.369368
Oude Schoolstraat,12,,,7665CC,Albergen,Tubbergen,Overijssel,VBO,6.760892,52.369500
Oude Schoolstraat,14,,,7665CC,Albergen,Tubbergen,Overijssel,VBO,6.760925,52.369630
Oude Schoolstraat,16,,,7665CC,Albergen,Tubbergen,Overijssel,VBO,6.761047,52.369780
Oude Schoolstraat,18,,,7665CC,Albergen,Tubbergen,Overijssel,VBO,6.761178,52.370031
Oude Schoolstraat,20,,,7665CC,Albergen,Tubbergen,Overijssel,VBO,6.760828,52.369915
Oude Schoolstraat,22,,,7665CC,Albergen,Tubbergen,Overijssel,VBO,6.760764,52.369947
Oude Schoolstraat,24,,,7665CC,Albergen,Tubbergen,Overijssel,VBO,6.760607,52.370028
Oude Schoolstraat,26,,,7665CC,Albergen,Tubbergen,Overijssel,VBO,6.760554,52.370065
Oude Schoolstraat,1,,,7665CD,Albergen,Tubbergen,Overijssel,VBO,6.760085,52.369039
Oude Schoolstraat,3,,,7665CD,Albergen,Tubbergen,Overijssel,VBO,6.760263,52.369279
Oude Schoolstraat,5,,,7665CD,Albergen,Tubbergen,Overijssel,VBO,6.760079,52.369344
Oude Schoolstraat,7,,,7665CD,Albergen,Tubbergen,Overijssel,VBO,6.759905,52.369411
Oude Schoolstraat,9,,,7665CD,Albergen,Tubbergen,Overijssel,VBO,6.759827,52.369443
Oude Schoolstraat,11,,,7665CD,Albergen,Tubbergen,Overijssel,VBO,6.759613,52.369489
Oude Schoolstraat,17,,,7665CD,Albergen,Tubbergen,Overijssel,VBO,6.760469,52.369535
Hulsbrookstraat,1,,,7665CE,Albergen,Tubbergen,Overijssel,VBO,6.759263,52.368750
Hulsbrookstraat,4,,,7665CE,Albergen,Tubbergen,Overijssel,VBO,6.758588,52.368607
Hulsbrookstraat,5,,,7665CE,Albergen,Tubbergen,Overijssel,VBO,6.759531,52.368487
Hulsbrookstraat,7,a,,7665CE,Albergen,Tubbergen,Overijssel,VBO,6.759274,52.368130
Hulsbrookstraat,7,,,7665CE,Albergen,Tubbergen,Overijssel,VBO,6.759347,52.368292
Hulsbrookstraat,10,,,7665CE,Albergen,Tubbergen,Overijssel,VBO,6.758521,52.368209
Hulsbrookstraat,11,,,7665CE,Albergen,Tubbergen,Overijssel,VBO,6.759124,52.367741
Hulsbrookstraat,14,,,7665CE,Albergen,Tubbergen,Overijssel,VBO,6.758819,52.367771
Het Midden,2,,,7665DA,Albergen,Tubbergen,Overijssel,VBO,6.763749,52.370374
Het Midden,4,,,7665DA,Albergen,Tubbergen,Overijssel,VBO,6.763651,52.370234
Het Midden,6,,,7665DA,Albergen,Tubbergen,Overijssel,VBO,6.763522,52.370030
Het Midden,8,,,7665DA,Albergen,Tubbergen,Overijssel,VBO,6.763432,52.370056
Het Midden,10,,,7665DA,Albergen,Tubbergen,Overijssel,VBO,6.763228,52.370064
Het Midden,12,,,7665DA,Albergen,Tubbergen,Overijssel,VBO,6.763154,52.370002
Het Midden,14,,,7665DA,Albergen,Tubbergen,Overijssel,VBO,6.762888,52.369878
Het Midden,16,,,7665DA,Albergen,Tubbergen,Overijssel,VBO,6.762693,52.369812
Het Midden,18,,,7665DA,Albergen,Tubbergen,Overijssel,VBO,6.762620,52.369789
Het Midden,3,,,7665DB,Albergen,Tubbergen,Overijssel,VBO,6.764013,52.370153
Het Midden,5,,,7665DB,Albergen,Tubbergen,Overijssel,VBO,6.763985,52.370112
Het Midden,7,,,7665DB,Albergen,Tubbergen,Overijssel,VBO,6.763955,52.370071
Het Midden,9,,,7665DB,Albergen,Tubbergen,Overijssel,VBO,6.763929,52.370026
Het Midden,11,,,7665DB,Albergen,Tubbergen,Overijssel,VBO,6.763898,52.369979
Het Midden,25,,,7665DB,Albergen,Tubbergen,Overijssel,VBO,6.763268,52.369710
Het Midden,27,,,7665DB,Albergen,Tubbergen,Overijssel,VBO,6.763201,52.369690
Het Midden,29,,,7665DB,Albergen,Tubbergen,Overijssel,VBO,6.763127,52.369671
Het Midden,31,,,7665DB,Albergen,Tubbergen,Overijssel,VBO,6.763063,52.369652
Het Midden,33,,,7665DB,Albergen,Tubbergen,Overijssel,VBO,6.762868,52.369609
Het Midden,35,,,7665DB,Albergen,Tubbergen,Overijssel,VBO,6.762855,52.369550
Het Midden,37,,,7665DB,Albergen,Tubbergen,Overijssel,VBO,6.762826,52.369493
Het Midden,39,,,7665DB,Albergen,Tubbergen,Overijssel,VBO,6.762806,52.369441
De Smeding,1,,,7665DC,Albergen,Tubbergen,Overijssel,VBO,6.762592,52.370818
De Smeding,3,,,7665DC,Albergen,Tubbergen,Overijssel,VBO,6.762562,52.370699
De Smeding,5,,,7665DC,Albergen,Tubbergen,Overijssel,VBO,6.762697,52.370538
De Smeding,7,,,7665DC,Albergen,Tubbergen,Overijssel,VBO,6.762729,52.370486
De Smeding,9,,,7665DC,Albergen,Tubbergen,Overijssel,VBO,6.762828,52.370365
De Smeding,11,,,7665DC,Albergen,Tubbergen,Overijssel,VBO,6.762863,52.370319
De Smeding,13,,,7665DC,Albergen,Tubbergen,Overijssel,VBO,6.763031,52.370218
De Smeding,15,,,7665DC,Albergen,Tubbergen,Overijssel,VBO,6.762683,52.370159
De Smeding,17,,,7665DC,Albergen,Tubbergen,Overijssel,VBO,6.762581,52.370135
De Smeding,19,,,7665DC,Albergen,Tubbergen,Overijssel,VBO,6.762389,52.370050
De Smeding,21,,,7665DC,Albergen,Tubbergen,Overijssel,VBO,6.762210,52.369999
De Smeding,23,,,7665DC,Albergen,Tubbergen,Overijssel,VBO,6.762011,52.369851
De Smeding,25,,,7665DC,Albergen,Tubbergen,Overijssel,VBO,6.761954,52.369686
De Venmoat,1,,,7665DE,Albergen,Tubbergen,Overijssel,VBO,6.763240,52.370957
De Venmoat,2,,,7665DE,Albergen,Tubbergen,Overijssel,VBO,6.763136,52.370548
De Venmoat,3,,,7665DE,Albergen,Tubbergen,Overijssel,VBO,6.763349,52.370774
De Venmoat,4,,,7665DE,Albergen,Tubbergen,Overijssel,VBO,6.763340,52.370473
De Venmoat,5,,,7665DE,Albergen,Tubbergen,Overijssel,VBO,6.763691,52.370635
De Venmoat,6,,,7665DE,Albergen,Tubbergen,Overijssel,VBO,6.763423,52.370451
De Venmoat,7,,,7665DE,Albergen,Tubbergen,Overijssel,VBO,6.763929,52.370592
De Venmoat,9,,,7665DE,Albergen,Tubbergen,Overijssel,VBO,6.764188,52.370586
De Venmoat,10,,,7665DE,Albergen,Tubbergen,Overijssel,VBO,6.764138,52.370311
De Venmoat,11,,,7665DE,Albergen,Tubbergen,Overijssel,VBO,6.764426,52.370610
De Venmoat,12,,,7665DE,Albergen,Tubbergen,Overijssel,VBO,6.764259,52.370359
De Venmoat,13,,,7665DE,Albergen,Tubbergen,Overijssel,VBO,6.764797,52.370670
De Venmoat,14,,,7665DE,Albergen,Tubbergen,Overijssel,VBO,6.764348,52.370368
De Venmoat,15,,,7665DE,Albergen,Tubbergen,Overijssel,VBO,6.764782,52.370721
De Venmoat,16,,,7665DE,Albergen,Tubbergen,Overijssel,VBO,6.764626,52.370328
De Weer,1,,,7665DG,Albergen,Tubbergen,Overijssel,VBO,6.765006,52.370484
De Weer,3,,,7665DG,Albergen,Tubbergen,Overijssel,VBO,6.765035,52.370434
De Weer,5,,,7665DG,Albergen,Tubbergen,Overijssel,VBO,6.765060,52.370382
De Weer,7,,,7665DG,Albergen,Tubbergen,Overijssel,VBO,6.765095,52.370325
De Weer,11,,,7665DG,Albergen,Tubbergen,Overijssel,VBO,6.765133,52.369842
De Weer,17,,,7665DG,Albergen,Tubbergen,Overijssel,VBO,6.764428,52.369484
De Weer,21,,,7665DG,Albergen,Tubbergen,Overijssel,VBO,6.763501,52.369428
De Weer,23,,,7665DG,Albergen,Tubbergen,Overijssel,VBO,6.763451,52.369475
De Weer,4,,,7665DH,Albergen,Tubbergen,Overijssel,VBO,6.764696,52.370304
De Weer,6,,,7665DH,Albergen,Tubbergen,Overijssel,VBO,6.764571,52.370119
De Weer,8,,,7665DH,Albergen,Tubbergen,Overijssel,VBO,6.764476,52.370141
De Weer,10,,,7665DH,Albergen,Tubbergen,Overijssel,VBO,6.764516,52.370072
De Weer,12,,,7665DH,Albergen,Tubbergen,Overijssel,VBO,6.764437,52.370090
De Weer,14,,,7665DH,Albergen,Tubbergen,Overijssel,VBO,6.764488,52.370020
De Weer,16,,,7665DH,Albergen,Tubbergen,Overijssel,VBO,6.764400,52.370043
De Weer,18,,,7665DH,Albergen,Tubbergen,Overijssel,VBO,6.764447,52.369971
De Weer,20,,,7665DH,Albergen,Tubbergen,Overijssel,VBO,6.764355,52.369993
De Weer,22,,,7665DH,Albergen,Tubbergen,Overijssel,VBO,6.764425,52.369903
De Weer,24,,,7665DH,Albergen,Tubbergen,Overijssel,VBO,6.764331,52.369924
De Weer,26,,,7665DH,Albergen,Tubbergen,Overijssel,VBO,6.764350,52.369799
De Weer,28,,,7665DH,Albergen,Tubbergen,Overijssel,VBO,6.764285,52.369763
De Weer,30,,,7665DH,Albergen,Tubbergen,Overijssel,VBO,6.764160,52.369680
De Weer,32,,,7665DH,Albergen,Tubbergen,Overijssel,VBO,6.764112,52.369641
De Weer,34,,,7665DH,Albergen,Tubbergen,Overijssel,VBO,6.763944,52.369565
De Weer,36,,,7665DH,Albergen,Tubbergen,Overijssel,VBO,6.763863,52.369541
De Weer,38,,,7665DH,Albergen,Tubbergen,Overijssel,VBO,6.763716,52.369719
De Weer,40,,,7665DH,Albergen,Tubbergen,Overijssel,VBO,6.763676,52.369776
De Weer,42,,,7665DH,Albergen,Tubbergen,Overijssel,VBO,6.763631,52.369826
Nijenhof,2,,,7665DJ,Albergen,Tubbergen,Overijssel,VBO,6.761850,52.369361
Nijenhof,3,,,7665DJ,Albergen,Tubbergen,Overijssel,VBO,6.762045,52.369024
Nijenhof,4,,,7665DJ,Albergen,Tubbergen,Overijssel,VBO,6.761833,52.369308
Nijenhof,5,,,7665DJ,Albergen,Tubbergen,Overijssel,VBO,6.762234,52.368963
Nijenhof,6,,,7665DJ,Albergen,Tubbergen,Overijssel,VBO,6.761772,52.369160
Nijenhof,7,,,7665DJ,Albergen,Tubbergen,Overijssel,VBO,6.762329,52.368947
Nijenhof,8,,,7665DJ,Albergen,Tubbergen,Overijssel,VBO,6.761690,52.369023
De Wagenmaker,3,,,7665DK,Albergen,Tubbergen,Overijssel,VBO,6.763070,52.368722
De Wagenmaker,4,,,7665DK,Albergen,Tubbergen,Overijssel,VBO,6.762659,52.368931
De Wagenmaker,5,,,7665DK,Albergen,Tubbergen,Overijssel,VBO,6.763108,52.368666
De Wagenmaker,6,,,7665DK,Albergen,Tubbergen,Overijssel,VBO,6.762844,52.368535
De Wagenmaker,7,,,7665DK,Albergen,Tubbergen,Overijssel,VBO,6.763357,52.368620
De Wagenmaker,8,,,7665DK,Albergen,Tubbergen,Overijssel,VBO,6.763094,52.368447
De Wagenmaker,9,,,7665DK,Albergen,Tubbergen,Overijssel,VBO,6.763568,52.368581
De Wagenmaker,10,,,7665DK,Albergen,Tubbergen,Overijssel,VBO,6.763375,52.368373
De Wagenmaker,12,,,7665DK,Albergen,Tubbergen,Overijssel,VBO,6.763653,52.368338
De Wagenmaker,14,,,7665DK,Albergen,Tubbergen,Overijssel,VBO,6.763869,52.368426
De Wagenmaker,16,,,7665DK,Albergen,Tubbergen,Overijssel,VBO,6.764099,52.368488
De Dijnsel,6,,,7665DL,Albergen,Tubbergen,Overijssel,VBO,6.762172,52.369344
De Dijnsel,8,,,7665DL,Albergen,Tubbergen,Overijssel,VBO,6.762406,52.369307
De Dijnsel,10,,,7665DL,Albergen,Tubbergen,Overijssel,VBO,6.762592,52.369157
De Dijnsel,12,,,7665DL,Albergen,Tubbergen,Overijssel,VBO,6.762644,52.369112
De Dijnsel,14,,,7665DL,Albergen,Tubbergen,Overijssel,VBO,6.763065,52.368938
De Dijnsel,16,,,7665DL,Albergen,Tubbergen,Overijssel,VBO,6.763256,52.368920
De Dijnsel,18,,,7665DL,Albergen,Tubbergen,Overijssel,VBO,6.763338,52.368909
De Dijnsel,20,,,7665DL,Albergen,Tubbergen,Overijssel,VBO,6.763520,52.368895
De Dijnsel,22,,,7665DL,Albergen,Tubbergen,Overijssel,VBO,6.763602,52.368889
De Dijnsel,24,,,7665DL,Albergen,Tubbergen,Overijssel,VBO,6.763795,52.368866
De Dijnsel,26,,,7665DL,Albergen,Tubbergen,Overijssel,VBO,6.764303,52.368920
De Dijnsel,28,,,7665DL,Albergen,Tubbergen,Overijssel,VBO,6.764559,52.368965
De Dijnsel,30,,,7665DL,Albergen,Tubbergen,Overijssel,VBO,6.764803,52.368941
De Dijnsel,32,,,7665DL,Albergen,Tubbergen,Overijssel,VBO,6.765024,52.368901
De Dijnsel,34,,,7665DL,Albergen,Tubbergen,Overijssel,VBO,6.765241,52.368873
De Dijnsel,36,,,7665DL,Albergen,Tubbergen,Overijssel,VBO,6.765682,52.368814
De Dijnsel,38,,,7665DL,Albergen,Tubbergen,Overijssel,VBO,6.765892,52.368861
De Dijnsel,40,,,7665DL,Albergen,Tubbergen,Overijssel,VBO,6.765972,52.368881
De Dijnsel,42,,,7665DL,Albergen,Tubbergen,Overijssel,VBO,6.766196,52.368931
De Dijnsel,44,,,7665DL,Albergen,Tubbergen,Overijssel,VBO,6.766411,52.368992
De Dijnsel,46,,,7665DL,Albergen,Tubbergen,Overijssel,VBO,6.766496,52.369012
De Dijnsel,48,,,7665DL,Albergen,Tubbergen,Overijssel,VBO,6.766713,52.369051
De Dijnsel,50,,,7665DL,Albergen,Tubbergen,Overijssel,VBO,6.766964,52.369081
De Dijnsel,52,,,7665DL,Albergen,Tubbergen,Overijssel,VBO,6.767051,52.369066
De Dijnsel,54,,,7665DL,Albergen,Tubbergen,Overijssel,VBO,6.767293,52.369065
De Dijnsel,56,,,7665DL,Albergen,Tubbergen,Overijssel,VBO,6.767805,52.369271
De Dijnsel,58,,,7665DL,Albergen,Tubbergen,Overijssel,VBO,6.768032,52.369394
De Dijnsel,60,,,7665DL,Albergen,Tubbergen,Overijssel,VBO,6.768233,52.369448
De Dijnsel,62,,,7665DL,Albergen,Tubbergen,Overijssel,VBO,6.768315,52.369476
De Dijnsel,64,,,7665DL,Albergen,Tubbergen,Overijssel,VBO,6.768524,52.369531
De Dijnsel,66,,,7665DL,Albergen,Tubbergen,Overijssel,VBO,6.768600,52.369563
De Dijnsel,3,,,7665DM,Albergen,Tubbergen,Overijssel,VBO,6.762314,52.369636
De Dijnsel,5,,,7665DM,Albergen,Tubbergen,Overijssel,VBO,6.762415,52.369628
De Dijnsel,7,,,7665DM,Albergen,Tubbergen,Overijssel,VBO,6.762945,52.369325
De Dijnsel,9,,,7665DM,Albergen,Tubbergen,Overijssel,VBO,6.762998,52.369281
De Dijnsel,11,,,7665DM,Albergen,Tubbergen,Overijssel,VBO,6.763198,52.369192
De Dijnsel,13,,,7665DM,Albergen,Tubbergen,Overijssel,VBO,6.763397,52.369154
De Dijnsel,15,,,7665DM,Albergen,Tubbergen,Overijssel,VBO,6.763473,52.369148
De Dijnsel,17,,,7665DM,Albergen,Tubbergen,Overijssel,VBO,6.763681,52.369155
De Dijnsel,23,,,7665DM,Albergen,Tubbergen,Overijssel,VBO,6.764845,52.369216
De Dijnsel,25,,,7665DM,Albergen,Tubbergen,Overijssel,VBO,6.765052,52.369181
De Dijnsel,27,,,7665DM,Albergen,Tubbergen,Overijssel,VBO,6.765293,52.369146
De Dijnsel,29,,,7665DM,Albergen,Tubbergen,Overijssel,VBO,6.765609,52.369127
De Dijnsel,31,,,7665DM,Albergen,Tubbergen,Overijssel,VBO,6.765692,52.369138
De Dijnsel,39,,,7665DM,Albergen,Tubbergen,Overijssel,VBO,6.766706,52.369392
De Dijnsel,41,,,7665DM,Albergen,Tubbergen,Overijssel,VBO,6.766896,52.369375
De Dijnsel,43,,,7665DM,Albergen,Tubbergen,Overijssel,VBO,6.766977,52.369373
De Dijnsel,45,,,7665DM,Albergen,Tubbergen,Overijssel,VBO,6.767283,52.369386
De Dijnsel,47,,,7665DM,Albergen,Tubbergen,Overijssel,VBO,6.767416,52.369479
De Dijnsel,49,,,7665DM,Albergen,Tubbergen,Overijssel,VBO,6.767913,52.369695
De Dijnsel,51,,,7665DM,Albergen,Tubbergen,Overijssel,VBO,6.768131,52.369754
De Hagen,21,,,7665DN,Albergen,Tubbergen,Overijssel,VBO,6.766675,52.369982
De Hagen,23,,,7665DN,Albergen,Tubbergen,Overijssel,VBO,6.766956,52.370023
De Hagen,25,,,7665DN,Albergen,Tubbergen,Overijssel,VBO,6.767175,52.369930
De Hagen,27,,,7665DN,Albergen,Tubbergen,Overijssel,VBO,6.767611,52.369829
De Hagen,2,,,7665DP,Albergen,Tubbergen,Overijssel,VBO,6.764678,52.369570
De Hagen,4,,,7665DP,Albergen,Tubbergen,Overijssel,VBO,6.764878,52.369520
De Hagen,6,,,7665DP,Albergen,Tubbergen,Overijssel,VBO,6.764950,52.369501
De Hagen,8,,,7665DP,Albergen,Tubbergen,Overijssel,VBO,6.765161,52.369476
De Hagen,10,,,7665DP,Albergen,Tubbergen,Overijssel,VBO,6.765396,52.369458
De Hagen,12,,,7665DP,Albergen,Tubbergen,Overijssel,VBO,6.765484,52.369472
De Hagen,14,,,7665DP,Albergen,Tubbergen,Overijssel,VBO,6.765686,52.369512
De Hagen,16,,,7665DP,Albergen,Tubbergen,Overijssel,VBO,6.765910,52.369551
De Hagen,18,,,7665DP,Albergen,Tubbergen,Overijssel,VBO,6.766329,52.369645
De Hagen,20,,,7665DP,Albergen,Tubbergen,Overijssel,VBO,6.766421,52.369660
De Hagen,22,,,7665DP,Albergen,Tubbergen,Overijssel,VBO,6.766632,52.369707
De Hagen,24,,,7665DP,Albergen,Tubbergen,Overijssel,VBO,6.766716,52.369724
De Hagen,26,,,7665DP,Albergen,Tubbergen,Overijssel,VBO,6.766971,52.369712
De Hagen,28,,,7665DP,Albergen,Tubbergen,Overijssel,VBO,6.767103,52.369663
De Hagen,30,,,7665DP,Albergen,Tubbergen,Overijssel,VBO,6.767173,52.369637
De Schoomaker,3,,,7665DR,Albergen,Tubbergen,Overijssel,VBO,6.764539,52.369332
De Schoomaker,5,,,7665DR,Albergen,Tubbergen,Overijssel,VBO,6.764589,52.369289
Het Wollegras,3,,,7665DS,Albergen,Tubbergen,Overijssel,VBO,6.766058,52.369280
Het Wollegras,4,,,7665DS,Albergen,Tubbergen,Overijssel,VBO,6.766406,52.369360
Het Wollegras,5,,,7665DS,Albergen,Tubbergen,Overijssel,VBO,6.766041,52.369334
Het Wollegras,6,,,7665DS,Albergen,Tubbergen,Overijssel,VBO,6.766374,52.369412
De Zonnedauw,3,,,7665DT,Albergen,Tubbergen,Overijssel,VBO,6.765798,52.368582
De Zonnedauw,4,,,7665DT,Albergen,Tubbergen,Overijssel,VBO,6.765278,52.368644
De Zonnedauw,5,,,7665DT,Albergen,Tubbergen,Overijssel,VBO,6.765928,52.368438
De Zonnedauw,6,,,7665DT,Albergen,Tubbergen,Overijssel,VBO,6.765366,52.368521
De Zonnedauw,7,,,7665DT,Albergen,Tubbergen,Overijssel,VBO,6.766252,52.368552
De Zonnedauw,8,,,7665DT,Albergen,Tubbergen,Overijssel,VBO,6.765465,52.368397
De Zonnedauw,9,,,7665DT,Albergen,Tubbergen,Overijssel,VBO,6.766441,52.368646
De Zonnedauw,10,,,7665DT,Albergen,Tubbergen,Overijssel,VBO,6.765553,52.368266
De Zonnedauw,11,,,7665DT,Albergen,Tubbergen,Overijssel,VBO,6.766696,52.368740
De Zonnedauw,12,,,7665DT,Albergen,Tubbergen,Overijssel,VBO,6.765601,52.368141
De Zonnedauw,13,,,7665DT,Albergen,Tubbergen,Overijssel,VBO,6.766952,52.368760
De Zonnedauw,14,,,7665DT,Albergen,Tubbergen,Overijssel,VBO,6.765972,52.368107
De Zonnedauw,15,,,7665DT,Albergen,Tubbergen,Overijssel,VBO,6.767315,52.368822
De Zonnedauw,16,,,7665DT,Albergen,Tubbergen,Overijssel,VBO,6.766142,52.368178
De Zonnedauw,17,,,7665DT,Albergen,Tubbergen,Overijssel,VBO,6.767328,52.368878
De Zonnedauw,18,,,7665DT,Albergen,Tubbergen,Overijssel,VBO,6.766389,52.368257
De Zonnedauw,20,,,7665DT,Albergen,Tubbergen,Overijssel,VBO,6.766597,52.368319
De Zonnedauw,22,,,7665DT,Albergen,Tubbergen,Overijssel,VBO,6.766812,52.368438
De Zonnedauw,24,,,7665DT,Albergen,Tubbergen,Overijssel,VBO,6.767102,52.368477
De Zonnedauw,26,,,7665DT,Albergen,Tubbergen,Overijssel,VBO,6.767309,52.368503
De Zonnedauw,34,,,7665DT,Albergen,Tubbergen,Overijssel,VBO,6.767821,52.368909
De Zonnedauw,36,,,7665DT,Albergen,Tubbergen,Overijssel,VBO,6.767800,52.369052
De Parnassia,3,,,7665DV,Albergen,Tubbergen,Overijssel,VBO,6.768145,52.368863
De Gagel,1,,,7665EA,Albergen,Tubbergen,Overijssel,VBO,6.767443,52.370225
De Gagel,3,,,7665EA,Albergen,Tubbergen,Overijssel,VBO,6.767831,52.370641
De Gagel,4,,,7665EA,Albergen,Tubbergen,Overijssel,VBO,6.767823,52.370024
De Gagel,5,,,7665EA,Albergen,Tubbergen,Overijssel,VBO,6.768020,52.370731
De Gagel,6,,,7665EA,Albergen,Tubbergen,Overijssel,VBO,6.767921,52.370190
De Gagel,7,,,7665EA,Albergen,Tubbergen,Overijssel,VBO,6.768375,52.370864
De Gagel,8,,,7665EA,Albergen,Tubbergen,Overijssel,VBO,6.768189,52.370492
De Gagel,10,,,7665EA,Albergen,Tubbergen,Overijssel,VBO,6.768424,52.370601
De Gagel,12,,,7665EA,Albergen,Tubbergen,Overijssel,VBO,6.768654,52.370662
De Gagel,14,,,7665EA,Albergen,Tubbergen,Overijssel,VBO,6.769018,52.370666
De Mösbrink,1,,,7665EB,Albergen,Tubbergen,Overijssel,VBO,6.769289,52.370286
De Mösbrink,2,,,7665EB,Albergen,Tubbergen,Overijssel,VBO,6.768868,52.370383
De Mösbrink,3,,,7665EB,Albergen,Tubbergen,Overijssel,VBO,6.769339,52.370243
De Mösbrink,4,,,7665EB,Albergen,Tubbergen,Overijssel,VBO,6.768782,52.370380
De Mösbrink,5,,,7665EB,Albergen,Tubbergen,Overijssel,VBO,6.769442,52.370108
De Mösbrink,6,,,7665EB,Albergen,Tubbergen,Overijssel,VBO,6.768602,52.370331
De Mösbrink,7,,,7665EB,Albergen,Tubbergen,Overijssel,VBO,6.769461,52.370046
De Mösbrink,8,,,7665EB,Albergen,Tubbergen,Overijssel,VBO,6.768537,52.370295
De Mösbrink,9,,,7665EB,Albergen,Tubbergen,Overijssel,VBO,6.769220,52.369758
De Mösbrink,10,,,7665EB,Albergen,Tubbergen,Overijssel,VBO,6.768367,52.370114
De Mösbrink,11,,,7665EB,Albergen,Tubbergen,Overijssel,VBO,6.769162,52.369737
De Mösbrink,12,,,7665EB,Albergen,Tubbergen,Overijssel,VBO,6.768359,52.370061
De Mösbrink,13,,,7665EB,Albergen,Tubbergen,Overijssel,VBO,6.768939,52.369682
De Mösbrink,14,,,7665EB,Albergen,Tubbergen,Overijssel,VBO,6.768424,52.369920
De Mösbrink,15,,,7665EB,Albergen,Tubbergen,Overijssel,VBO,6.768848,52.369688
De Mösbrink,16,,,7665EB,Albergen,Tubbergen,Overijssel,VBO,6.768479,52.369870
De Veenpluis,1,,,7665EC,Albergen,Tubbergen,Overijssel,VBO,6.769931,52.369404
De Veenpluis,2,,,7665EC,Albergen,Tubbergen,Overijssel,VBO,6.769535,52.369576
De Veenpluis,3,,,7665EC,Albergen,Tubbergen,Overijssel,VBO,6.770083,52.369299
De Veenpluis,4,,,7665EC,Albergen,Tubbergen,Overijssel,VBO,6.769307,52.369445
De Veenpluis,5,,,7665EC,Albergen,Tubbergen,Overijssel,VBO,6.769575,52.369229
De Veenpluis,6,,,7665EC,Albergen,Tubbergen,Overijssel,VBO,6.769046,52.369363
De Veenpluis,7,,,7665EC,Albergen,Tubbergen,Overijssel,VBO,6.769333,52.369163
De Veenpluis,8,,,7665EC,Albergen,Tubbergen,Overijssel,VBO,6.768814,52.369296
De Veenpluis,9,,,7665EC,Albergen,Tubbergen,Overijssel,VBO,6.769073,52.369093
De Veenpluis,10,,,7665EC,Albergen,Tubbergen,Overijssel,VBO,6.768579,52.369223
De Veenpluis,11,,,7665EC,Albergen,Tubbergen,Overijssel,VBO,6.768834,52.369003
De Veenpluis,12,,,7665EC,Albergen,Tubbergen,Overijssel,VBO,6.768368,52.369088
De Gentiaan,2,,,7665ED,Albergen,Tubbergen,Overijssel,VBO,6.769856,52.369972
De Gentiaan,4,,,7665ED,Albergen,Tubbergen,Overijssel,VBO,6.770129,52.369864
De Gentiaan,6,,,7665ED,Albergen,Tubbergen,Overijssel,VBO,6.770494,52.369797
De Gentiaan,8,,,7665ED,Albergen,Tubbergen,Overijssel,VBO,6.770843,52.369869
De Gentiaan,10,,,7665ED,Albergen,Tubbergen,Overijssel,VBO,6.771051,52.370014
De Tormentil,1,,,7665EE,Albergen,Tubbergen,Overijssel,VBO,6.769320,52.370991
De Tormentil,2,,,7665EE,Albergen,Tubbergen,Overijssel,VBO,6.769467,52.370523
De Tormentil,3,,,7665EE,Albergen,Tubbergen,Overijssel,VBO,6.769550,52.371114
De Tormentil,4,,,7665EE,Albergen,Tubbergen,Overijssel,VBO,6.769602,52.370698
De Tormentil,5,,,7665EE,Albergen,Tubbergen,Overijssel,VBO,6.769675,52.371334
De Tormentil,6,,,7665EE,Albergen,Tubbergen,Overijssel,VBO,6.769837,52.370830
De Tormentil,8,a,,7665EE,Albergen,Tubbergen,Overijssel,VBO,6.770098,52.371040
De Tormentil,8,,,7665EE,Albergen,Tubbergen,Overijssel,VBO,6.770037,52.370971
De Zegge,1,,,7665EG,Albergen,Tubbergen,Overijssel,VBO,6.768425,52.371042
De Zegge,2,,,7665EG,Albergen,Tubbergen,Overijssel,VBO,6.768886,52.371050
De Zegge,3,,,7665EG,Albergen,Tubbergen,Overijssel,VBO,6.768511,52.371192
De Zegge,4,,,7665EG,Albergen,Tubbergen,Overijssel,VBO,6.769080,52.371245
De Zegge,5,,,7665EG,Albergen,Tubbergen,Overijssel,VBO,6.768616,52.371321
De Zegge,6,,,7665EG,Albergen,Tubbergen,Overijssel,VBO,6.769177,52.371399
De Zegge,7,,,7665EG,Albergen,Tubbergen,Overijssel,VBO,6.768710,52.371469
De Zegge,8,,,7665EG,Albergen,Tubbergen,Overijssel,VBO,6.769337,52.371587
De Zegge,9,,,7665EG,Albergen,Tubbergen,Overijssel,VBO,6.768735,52.371649
De Zegge,10,,,7665EG,Albergen,Tubbergen,Overijssel,VBO,6.769188,52.371771
De Zegge,11,,,7665EG,Albergen,Tubbergen,Overijssel,VBO,6.768830,52.371777
Korenmolen,1,,,7665EH,Albergen,Tubbergen,Overijssel,VBO,6.768748,52.367247
Korenmolen,3,,,7665EH,Albergen,Tubbergen,Overijssel,VBO,6.768988,52.367313
Korenmolen,5,,,7665EH,Albergen,Tubbergen,Overijssel,VBO,6.769212,52.367383
Korenmolen,9,,,7665EH,Albergen,Tubbergen,Overijssel,VBO,6.770115,52.367712
Korenmolen,11,,,7665EH,Albergen,Tubbergen,Overijssel,VBO,6.769946,52.367864
Korenmolen,13,,,7665EH,Albergen,Tubbergen,Overijssel,VBO,6.769913,52.367921
Korenmolen,17,,,7665EH,Albergen,Tubbergen,Overijssel,VBO,6.769577,52.368382
Korenmolen,19,,,7665EH,Albergen,Tubbergen,Overijssel,VBO,6.769534,52.368442
Korenmolen,21,,,7665EH,Albergen,Tubbergen,Overijssel,VBO,6.769342,52.368675
Korenmolen,23,,,7665EH,Albergen,Tubbergen,Overijssel,VBO,6.769016,52.368576
Korenmolen,25,,,7665EH,Albergen,Tubbergen,Overijssel,VBO,6.768770,52.368503
Rosmolen,4,,,7665EJ,Albergen,Tubbergen,Overijssel,VBO,6.768467,52.367521
Rosmolen,6,,,7665EJ,Albergen,Tubbergen,Overijssel,VBO,6.768729,52.367615
Rosmolen,8,,,7665EJ,Albergen,Tubbergen,Overijssel,VBO,6.768977,52.367685
Rosmolen,10,,,7665EJ,Albergen,Tubbergen,Overijssel,VBO,6.768903,52.368041
Rosmolen,12,,,7665EJ,Albergen,Tubbergen,Overijssel,VBO,6.768631,52.368121
Rosmolen,14,,,7665EJ,Albergen,Tubbergen,Overijssel,VBO,6.768355,52.368152
Rosmolen,16,,,7665EJ,Albergen,Tubbergen,Overijssel,VBO,6.767775,52.367863
Rosmolen,18,,,7665EJ,Albergen,Tubbergen,Overijssel,VBO,6.767817,52.367813
Rosmolen,20,,,7665EJ,Albergen,Tubbergen,Overijssel,VBO,6.767794,52.367750
Rosmolen,22,,,7665EJ,Albergen,Tubbergen,Overijssel,VBO,6.767864,52.367768
Rosmolen,24,,,7665EJ,Albergen,Tubbergen,Overijssel,VBO,6.767834,52.367707
Rosmolen,26,,,7665EJ,Albergen,Tubbergen,Overijssel,VBO,6.767904,52.367727
Rosmolen,28,,,7665EJ,Albergen,Tubbergen,Overijssel,VBO,6.767925,52.367681
Rosmolen,30,,,7665EJ,Albergen,Tubbergen,Overijssel,VBO,6.767965,52.367630
Moutmolen,1,,,7665EK,Albergen,Tubbergen,Overijssel,VBO,6.766986,52.367898
Moutmolen,3,,,7665EK,Albergen,Tubbergen,Overijssel,VBO,6.767224,52.367967
Moutmolen,5,,,7665EK,Albergen,Tubbergen,Overijssel,VBO,6.767470,52.368031
Moutmolen,7,,,7665EK,Albergen,Tubbergen,Overijssel,VBO,6.767755,52.368118
Moutmolen,8,,,7665EK,Albergen,Tubbergen,Overijssel,VBO,6.768545,52.368430
Graanmolen,2,,,7665EL,Albergen,Tubbergen,Overijssel,VBO,6.769548,52.367534
Graanmolen,3,,,7665EL,Albergen,Tubbergen,Overijssel,VBO,6.769184,52.368205
Graanmolen,4,,,7665EL,Albergen,Tubbergen,Overijssel,VBO,6.769431,52.367712
Graanmolen,5,,,7665EL,Albergen,Tubbergen,Overijssel,VBO,6.769272,52.368230
Graanmolen,6,,,7665EL,Albergen,Tubbergen,Overijssel,VBO,6.769393,52.367756
Graanmolen,8,,,7665EL,Albergen,Tubbergen,Overijssel,VBO,6.769298,52.367989
Graanmolen,10,,,7665EL,Albergen,Tubbergen,Overijssel,VBO,6.769534,52.368073
Graanmolen,12,,,7665EL,Albergen,Tubbergen,Overijssel,VBO,6.769755,52.368138
Ringoven,8,,,7665ES,Albergen,Tubbergen,Overijssel,VBO,6.771428,52.369334
Ringoven,9,,,7665ES,Albergen,Tubbergen,Overijssel,VBO,6.770449,52.368889
Ringoven,10,,,7665ES,Albergen,Tubbergen,Overijssel,VBO,6.771644,52.369384
Ringoven,11,,,7665ES,Albergen,Tubbergen,Overijssel,VBO,6.770357,52.369016
Ringoven,20,,,7665ES,Albergen,Tubbergen,Overijssel,VBO,6.771412,52.368936
Ringoven,22,,,7665ES,Albergen,Tubbergen,Overijssel,VBO,6.771319,52.368907
Ringoven,24,,,7665ES,Albergen,Tubbergen,Overijssel,VBO,6.771384,52.368977
Ringoven,26,,,7665ES,Albergen,Tubbergen,Overijssel,VBO,6.771286,52.368947
Ringoven,28,,,7665ES,Albergen,Tubbergen,Overijssel,VBO,6.771239,52.368883
Ringoven,30,,,7665ES,Albergen,Tubbergen,Overijssel,VBO,6.771151,52.368864
Ringoven,32,,,7665ES,Albergen,Tubbergen,Overijssel,VBO,6.771203,52.368919
Ringoven,34,,,7665ES,Albergen,Tubbergen,Overijssel,VBO,6.771122,52.368902
Ringoven,36,,,7665ES,Albergen,Tubbergen,Overijssel,VBO,6.771079,52.368831
Ringoven,38,,,7665ES,Albergen,Tubbergen,Overijssel,VBO,6.770979,52.368816
Ringoven,40,,,7665ES,Albergen,Tubbergen,Overijssel,VBO,6.771049,52.368863
Ringoven,42,,,7665ES,Albergen,Tubbergen,Overijssel,VBO,6.770945,52.368840
Eenhuisstraat,4,,,7665PZ,Albergen,Tubbergen,Overijssel,VBO,6.755685,52.369025
Eenhuisstraat,6,,,7665PZ,Albergen,Tubbergen,Overijssel,VBO,6.755429,52.368849
Eenhuisstraat,8,,,7665PZ,Albergen,Tubbergen,Overijssel,VBO,6.755435,52.368523
Eenhuisstraat,10,,,7665PZ,Albergen,Tubbergen,Overijssel,VBO,6.755883,52.368284
Eenhuisstraat,11,,,7665PZ,Albergen,Tubbergen,Overijssel,VBO,6.753871,52.369930
Eenhuisstraat,13,,,7665PZ,Albergen,Tubbergen,Overijssel,VBO,6.753929,52.369684
Eenhuisstraat,17,a,,7665PZ,Albergen,Tubbergen,Overijssel,VBO,6.753736,52.369504
Eenhuisstraat,17,,,7665PZ,Albergen,Tubbergen,Overijssel,VBO,6.753918,52.369478
Eenhuisstraat,19,,,7665PZ,Albergen,Tubbergen,Overijssel,VBO,6.753599,52.369307
Steenkampsweg,1,a,,7665RA,Albergen,Tubbergen,Overijssel,VBO,6.769090,52.382745
Steenkampsweg,1,,,7665RA,Albergen,Tubbergen,Overijssel,VBO,6.768966,52.382778
Steenkampsweg,3,a,,7665RA,Albergen,Tubbergen,Overijssel,VBO,6.774516,52.379780
Steenkampsweg,3,,,7665RA,Albergen,Tubbergen,Overijssel,VBO,6.772923,52.380641
Steenkampsweg,5,,,7665RA,Albergen,Tubbergen,Overijssel,VBO,6.775410,52.379242
Steenkampsweg,7,,,7665RA,Albergen,Tubbergen,Overijssel,VBO,6.775878,52.378714
Steenkampsweg,9,,,7665RA,Albergen,Tubbergen,Overijssel,VBO,6.776324,52.378430
Steenkampsweg,11,,,7665RA,Albergen,Tubbergen,Overijssel,VBO,6.776502,52.377812
Steenkampsweg,12,a,,7665RA,Albergen,Tubbergen,Overijssel,VBO,6.775612,52.376630
Steenkampsweg,12,,,7665RA,Albergen,Tubbergen,Overijssel,VBO,6.775775,52.376653
Steenkampsweg,13,,,7665RA,Albergen,Tubbergen,Overijssel,VBO,6.776610,52.377537
Monnikenbraakweg,1,,,7665RB,Albergen,Tubbergen,Overijssel,VBO,6.766455,52.375197
Monnikenbraakweg,2,,,7665RB,Albergen,Tubbergen,Overijssel,VBO,6.766068,52.374848
Monnikenbraakweg,3,,,7665RB,Albergen,Tubbergen,Overijssel,VBO,6.772495,52.379065
Monnikenbraakweg,5,a,,7665RB,Albergen,Tubbergen,Overijssel,VBO,6.772776,52.379731
Monnikenbraakweg,5,,,7665RB,Albergen,Tubbergen,Overijssel,VBO,6.772798,52.379796
Monnikenbraakweg,8,,,7665RB,Albergen,Tubbergen,Overijssel,VBO,6.773840,52.381084
Hamweg,2,a,,7665RC,Albergen,Tubbergen,Overijssel,VBO,6.765534,52.384528
Hamweg,2,,,7665RC,Albergen,Tubbergen,Overijssel,VBO,6.765539,52.384474
Hamweg,4,a,,7665RC,Albergen,Tubbergen,Overijssel,VBO,6.763722,52.385607
Hamweg,4,,,7665RC,Albergen,Tubbergen,Overijssel,VBO,6.763606,52.385641
Hamweg,6,,,7665RC,Albergen,Tubbergen,Overijssel,VBO,6.759218,52.386900
Kloosteresweg,12,,,7665RC,Albergen,Tubbergen,Overijssel,VBO,6.769496,52.385743
Kloosteresweg,14,,,7665RC,Albergen,Tubbergen,Overijssel,VBO,6.767924,52.385629
Kloosteresweg,15,a,,7665RC,Albergen,Tubbergen,Overijssel,VBO,6.766965,52.382953
Kloosteresweg,15,,,7665RC,Albergen,Tubbergen,Overijssel,VBO,6.766887,52.382905
Kloosteresweg,19,a,,7665RC,Albergen,Tubbergen,Overijssel,VBO,6.766770,52.375739
Kloosteresweg,19,,,7665RC,Albergen,Tubbergen,Overijssel,VBO,6.766724,52.375835
Kloosteresweg,20,,,7665RC,Albergen,Tubbergen,Overijssel,VBO,6.764842,52.374218
Kloosteresweg,21,,,7665RC,Albergen,Tubbergen,Overijssel,VBO,6.765867,52.374428
Kloosteresweg,24,,,7665RC,Albergen,Tubbergen,Overijssel,VBO,6.764412,52.374500
Kloosteresweg,30,,,7665RC,Albergen,Tubbergen,Overijssel,VBO,6.764055,52.374196
Stamshoekweg,5,a,,7665RD,Albergen,Tubbergen,Overijssel,VBO,6.754579,52.384054
Stamshoekweg,5,,,7665RD,Albergen,Tubbergen,Overijssel,VBO,6.754701,52.384083
Stamshoekweg,6,a,,7665RD,Albergen,Tubbergen,Overijssel,VBO,6.753073,52.383433
Stamshoekweg,6,,,7665RD,Albergen,Tubbergen,Overijssel,VBO,6.753002,52.383400
Stamshoekweg,9,a,,7665RD,Albergen,Tubbergen,Overijssel,VBO,6.753861,52.382520
Stamshoekweg,9,,,7665RD,Albergen,Tubbergen,Overijssel,VBO,6.753785,52.382587
Vleerweg,2,,,7665RE,Albergen,Tubbergen,Overijssel,VBO,6.745154,52.381612
Vleerweg,4,a,,7665RE,Albergen,Tubbergen,Overijssel,VBO,6.748606,52.385489
Vleerweg,4,,,7665RE,Albergen,Tubbergen,Overijssel,VBO,6.748639,52.385535
Vleerweg,5,,,7665RE,Albergen,Tubbergen,Overijssel,VBO,6.746718,52.386631
Vleerweg,6,a,,7665RE,Albergen,Tubbergen,Overijssel,VBO,6.749049,52.386705
Vleerweg,6,,,7665RE,Albergen,Tubbergen,Overijssel,VBO,6.749031,52.386604
Vleerweg,7,,,7665RE,Albergen,Tubbergen,Overijssel,VBO,6.746424,52.386984
Vleerweg,8,a,,7665RE,Albergen,Tubbergen,Overijssel,VBO,6.747719,52.389327
Vleerweg,8,,,7665RE,Albergen,Tubbergen,Overijssel,VBO,6.747689,52.389211
Weversweg,2,,,7665RG,Albergen,Tubbergen,Overijssel,VBO,6.740439,52.388129
Weversweg,3,a,,7665RG,Albergen,Tubbergen,Overijssel,VBO,6.741363,52.387663
Weversweg,3,,,7665RG,Albergen,Tubbergen,Overijssel,VBO,6.741462,52.387598
Weversweg,4,,,7665RG,Albergen,Tubbergen,Overijssel,VBO,6.740512,52.388104
Hagweg,4,a,,7665RH,Albergen,Tubbergen,Overijssel,VBO,6.740954,52.381210
Hagweg,4,,,7665RH,Albergen,Tubbergen,Overijssel,VBO,6.740833,52.381212
Hagweg,6,,,7665RH,Albergen,Tubbergen,Overijssel,VBO,6.741648,52.380166
Hagweg,9,a,,7665RH,Albergen,Tubbergen,Overijssel,VBO,6.745946,52.380522
Hagweg,9,,,7665RH,Albergen,Tubbergen,Overijssel,VBO,6.745862,52.380487
Hagweg,13,,,7665RH,Albergen,Tubbergen,Overijssel,VBO,6.748622,52.380455
Hagweg,14,a,,7665RH,Albergen,Tubbergen,Overijssel,VBO,6.747148,52.380033
Hagweg,14,,,7665RH,Albergen,Tubbergen,Overijssel,VBO,6.747018,52.380000
Hagweg,15,a,,7665RH,Albergen,Tubbergen,Overijssel,VBO,6.747752,52.381264
Hagweg,15,b,,7665RH,Albergen,Tubbergen,Overijssel,VBO,6.747804,52.381199
Hagweg,15,,,7665RH,Albergen,Tubbergen,Overijssel,VBO,6.747900,52.381137
Kemnaweg,1,a,,7665RJ,Albergen,Tubbergen,Overijssel,VBO,6.751800,52.380732
Kemnaweg,1,,,7665RJ,Albergen,Tubbergen,Overijssel,VBO,6.752510,52.380290
Kemnaweg,3,,,7665RJ,Albergen,Tubbergen,Overijssel,VBO,6.753451,52.380265
Kemnaweg,5,a,,7665RJ,Albergen,Tubbergen,Overijssel,VBO,6.753853,52.380254
Kemnaweg,5,,,7665RJ,Albergen,Tubbergen,Overijssel,VBO,6.753997,52.380239
Kemnaweg,6,,,7665RJ,Albergen,Tubbergen,Overijssel,VBO,6.754994,52.378085
Kemnaweg,7,,,7665RJ,Albergen,Tubbergen,Overijssel,VBO,6.756320,52.379444
Kemnaweg,8,,,7665RJ,Albergen,Tubbergen,Overijssel,VBO,6.759202,52.377808
Kemnaweg,10,a,,7665RJ,Albergen,Tubbergen,Overijssel,VBO,6.760821,52.375761
Kemnaweg,10,,,7665RJ,Albergen,Tubbergen,Overijssel,VBO,6.760809,52.375813
Kemnaweg,11,,,7665RJ,Albergen,Tubbergen,Overijssel,VBO,6.757804,52.378987
Kemnaweg,12,a,,7665RJ,Albergen,Tubbergen,Overijssel,VBO,6.760172,52.374820
Kemnaweg,12,,,7665RJ,Albergen,Tubbergen,Overijssel,VBO,6.760365,52.374545
Kemnaweg,14,,,7665RJ,Albergen,Tubbergen,Overijssel,VBO,6.759521,52.374595
Kemnaweg,15,,,7665RJ,Albergen,Tubbergen,Overijssel,VBO,6.761004,52.374513
Kemnaweg,21,,,7665RJ,Albergen,Tubbergen,Overijssel,VBO,6.760820,52.373776
Kemnaweg,27,,,7665RJ,Albergen,Tubbergen,Overijssel,VBO,6.761088,52.373670
Roombergweg,3,,,7665RK,Albergen,Tubbergen,Overijssel,VBO,6.761100,52.379421
Roombergweg,4,a,,7665RK,Albergen,Tubbergen,Overijssel,VBO,6.759473,52.380435
Roombergweg,4,,,7665RK,Albergen,Tubbergen,Overijssel,VBO,6.759450,52.380510
Roombergweg,5,a,,7665RK,Albergen,Tubbergen,Overijssel,VBO,6.759215,52.378705
Roombergweg,5,,,7665RK,Albergen,Tubbergen,Overijssel,VBO,6.759169,52.378633
Bakenweg,1,,,7665RL,Albergen,Tubbergen,Overijssel,VBO,6.757920,52.377954
Bakenweg,2,a,,7665RL,Albergen,Tubbergen,Overijssel,VBO,6.753758,52.377296
Bakenweg,2,,,7665RL,Albergen,Tubbergen,Overijssel,VBO,6.753852,52.377243
Bakenweg,6,a,,7665RL,Albergen,Tubbergen,Overijssel,VBO,6.746361,52.377622
Bakenweg,6,,,7665RL,Albergen,Tubbergen,Overijssel,VBO,6.746191,52.377640
Bakenweg,7,,,7665RL,Albergen,Tubbergen,Overijssel,VBO,6.745577,52.377215
Bakenweg,9,,,7665RL,Albergen,Tubbergen,Overijssel,VBO,6.746814,52.377059
Assinkshoekweg,2,,,7665RM,Albergen,Tubbergen,Overijssel,VBO,6.739840,52.380441
Assinkshoekweg,3,,,7665RM,Albergen,Tubbergen,Overijssel,VBO,6.740569,52.380674
Assinkshoekweg,4,,,7665RM,Albergen,Tubbergen,Overijssel,VBO,6.739883,52.380375
Assinkshoekweg,5,a,,7665RM,Albergen,Tubbergen,Overijssel,VBO,6.741190,52.378916
Assinkshoekweg,5,,,7665RM,Albergen,Tubbergen,Overijssel,VBO,6.741241,52.378846
Assinkshoekweg,7,,,7665RM,Albergen,Tubbergen,Overijssel,VBO,6.742118,52.378377
Assinkshoekweg,8,a,,7665RM,Albergen,Tubbergen,Overijssel,VBO,6.743496,52.377251
Assinkshoekweg,8,,,7665RM,Albergen,Tubbergen,Overijssel,VBO,6.743569,52.377179
Assinkshoekweg,9,,,7665RM,Albergen,Tubbergen,Overijssel,VBO,6.745664,52.372838
Assinkshoekweg,10,a,,7665RM,Albergen,Tubbergen,Overijssel,VBO,6.743554,52.375927
Assinkshoekweg,10,,,7665RM,Albergen,Tubbergen,Overijssel,VBO,6.743591,52.375847
Assinkshoekweg,11,,,7665RM,Albergen,Tubbergen,Overijssel,VBO,6.745746,52.372557
Peggenweg,1,,,7665RN,Albergen,Tubbergen,Overijssel,VBO,6.751827,52.379476
Peggenweg,2,,,7665RN,Albergen,Tubbergen,Overijssel,VBO,6.751027,52.379960
Peggenweg,4,,,7665RN,Albergen,Tubbergen,Overijssel,VBO,6.750231,52.379899
Peggenweg,6,,,7665RN,Albergen,Tubbergen,Overijssel,VBO,6.750287,52.379907
Peggenweg,8,a,,7665RN,Albergen,Tubbergen,Overijssel,VBO,6.749713,52.379404
Peggenweg,8,,,7665RN,Albergen,Tubbergen,Overijssel,VBO,6.749588,52.379362
Peggenweg,9,a,,7665RN,Albergen,Tubbergen,Overijssel,VBO,6.744889,52.378247
Peggenweg,9,,,7665RN,Albergen,Tubbergen,Overijssel,VBO,6.744840,52.378177
Peggenweg,10,,,7665RN,Albergen,Tubbergen,Overijssel,VBO,6.744142,52.378307
Schopmansweg,2,a,,7665RP,Albergen,Tubbergen,Overijssel,VBO,6.740832,52.377662
Schopmansweg,2,,,7665RP,Albergen,Tubbergen,Overijssel,VBO,6.740844,52.377765
Schopmansweg,3,,,7665RP,Albergen,Tubbergen,Overijssel,VBO,6.740759,52.375725
Schopmansweg,5,,,7665RP,Albergen,Tubbergen,Overijssel,VBO,6.741282,52.374446
Schopmansweg,6,,,7665RP,Albergen,Tubbergen,Overijssel,VBO,6.739280,52.375988
Schopmansweg,7,,,7665RP,Albergen,Tubbergen,Overijssel,VBO,6.737889,52.373922
Hofmaatsweg,2,a,,7665RR,Albergen,Tubbergen,Overijssel,VBO,6.735533,52.376740
Hofmaatsweg,2,,,7665RR,Albergen,Tubbergen,Overijssel,VBO,6.735638,52.376792
Hofmaatsweg,4,a,,7665RR,Albergen,Tubbergen,Overijssel,VBO,6.732597,52.377040
Hofmaatsweg,4,,,7665RR,Albergen,Tubbergen,Overijssel,VBO,6.732669,52.377056
Hofmaatsweg,5,,,7665RR,Albergen,Tubbergen,Overijssel,VBO,6.728660,52.375309
Hofmaatsweg,7,a,,7665RR,Albergen,Tubbergen,Overijssel,VBO,6.727651,52.374575
Hofmaatsweg,7,,,7665RR,Albergen,Tubbergen,Overijssel,VBO,6.727549,52.374610
Hofmaatsweg,9,a,,7665RR,Albergen,Tubbergen,Overijssel,VBO,6.727064,52.374269
Hofmaatsweg,9,,,7665RR,Albergen,Tubbergen,Overijssel,VBO,6.726947,52.374329
Hofmaatsweg,9,,,7665RR,Albergen,Tubbergen,Overijssel,VBO,6.727017,52.374325
Markgravenweg,5,,,7665RS,Albergen,Tubbergen,Overijssel,VBO,6.728089,52.380290
Telgenkampsweg,2,,,7665RT,Albergen,Tubbergen,Overijssel,VBO,6.739610,52.372168
Telgenkampsweg,4,a,,7665RT,Albergen,Tubbergen,Overijssel,VBO,6.739757,52.373556
Telgenkampsweg,4,,,7665RT,Albergen,Tubbergen,Overijssel,VBO,6.739612,52.373575
Telgenkampsweg,6,a,,7665RT,Albergen,Tubbergen,Overijssel,VBO,6.737617,52.374739
Telgenkampsweg,6,,,7665RT,Albergen,Tubbergen,Overijssel,VBO,6.737481,52.374757
Telgenkampsweg,8,a,,7665RT,Albergen,Tubbergen,Overijssel,VBO,6.734828,52.375394
Telgenkampsweg,8,,,7665RT,Albergen,Tubbergen,Overijssel,VBO,6.734764,52.375449
Telgenkampsweg,9,a,,7665RT,Albergen,Tubbergen,Overijssel,VBO,6.731902,52.376186
Telgenkampsweg,9,,,7665RT,Albergen,Tubbergen,Overijssel,VBO,6.732064,52.376147
Ootmarsumseweg,27,,,7665RV,Albergen,Tubbergen,Overijssel,VBO,6.726375,52.374007
Ootmarsumseweg,31,,,7665RV,Albergen,Tubbergen,Overijssel,VBO,6.729158,52.373431
Ootmarsumseweg,33,,,7665RV,Albergen,Tubbergen,Overijssel,VBO,6.729842,52.373396
Ootmarsumseweg,35,,,7665RV,Albergen,Tubbergen,Overijssel,VBO,6.730824,52.373241
Ootmarsumseweg,37,,,7665RV,Albergen,Tubbergen,Overijssel,VBO,6.732338,52.372987
Ootmarsumseweg,43,,,7665RV,Albergen,Tubbergen,Overijssel,VBO,6.736825,52.372105
Ootmarsumseweg,45,,,7665RV,Albergen,Tubbergen,Overijssel,VBO,6.737368,52.372029
Ootmarsumseweg,53,a,,7665RV,Albergen,Tubbergen,Overijssel,VBO,6.740968,52.372035
Ootmarsumseweg,53,b,,7665RV,Albergen,Tubbergen,Overijssel,VBO,6.741055,52.372050
Ootmarsumseweg,53,,,7665RV,Albergen,Tubbergen,Overijssel,VBO,6.740811,52.372039
Ootmarsumseweg,55,a,,7665RV,Albergen,Tubbergen,Overijssel,VBO,6.743576,52.372382
Ootmarsumseweg,55,,,7665RV,Albergen,Tubbergen,Overijssel,VBO,6.743371,52.372229
Ootmarsumseweg,57,,,7665RV,Albergen,Tubbergen,Overijssel,VBO,6.743942,52.372321
Ootmarsumseweg,59,,,7665RV,Albergen,Tubbergen,Overijssel,VBO,6.744744,52.372210
Ootmarsumseweg,61,,,7665RV,Albergen,Tubbergen,Overijssel,VBO,6.745248,52.372113
Ootmarsumseweg,63,,,7665RV,Albergen,Tubbergen,Overijssel,VBO,6.746569,52.371783
Ootmarsumseweg,65,,,7665RV,Albergen,Tubbergen,Overijssel,VBO,6.746931,52.371656
Ootmarsumseweg,75,a,,7665RV,Albergen,Tubbergen,Overijssel,VBO,6.747655,52.371492
Ootmarsumseweg,75,,,7665RV,Albergen,Tubbergen,Overijssel,VBO,6.747756,52.371495
Ootmarsumseweg,77,,,7665RV,Albergen,Tubbergen,Overijssel,VBO,6.748268,52.371471
Ootmarsumseweg,81,a,,7665RV,Albergen,Tubbergen,Overijssel,VBO,6.748939,52.371590
Ootmarsumseweg,81,,,7665RV,Albergen,Tubbergen,Overijssel,VBO,6.748819,52.371587
Ootmarsumseweg,83,,,7665RV,Albergen,Tubbergen,Overijssel,VBO,6.749735,52.371710
Ootmarsumseweg,87,,,7665RV,Albergen,Tubbergen,Overijssel,VBO,6.752406,52.371775
Ootmarsumseweg,89,,,7665RW,Albergen,Tubbergen,Overijssel,VBO,6.752895,52.371670
Ootmarsumseweg,93,,,7665RW,Albergen,Tubbergen,Overijssel,VBO,6.753707,52.371879
Ootmarsumseweg,95,,,7665RW,Albergen,Tubbergen,Overijssel,VBO,6.753341,52.372124
Ootmarsumseweg,101,,,7665RW,Albergen,Tubbergen,Overijssel,VBO,6.754745,52.371934
Ootmarsumseweg,109,a,,7665RW,Albergen,Tubbergen,Overijssel,VBO,6.755824,52.372077
Ootmarsumseweg,109,,,7665RW,Albergen,Tubbergen,Overijssel,VBO,6.755947,52.372036
Ootmarsumseweg,125,,,7665RW,Albergen,Tubbergen,Overijssel,VBO,6.758078,52.373071
Ootmarsumseweg,127,a,,7665RW,Albergen,Tubbergen,Overijssel,VBO,6.758196,52.373102
Ootmarsumseweg,127,,,7665RW,Albergen,Tubbergen,Overijssel,VBO,6.758074,52.373082
Ootmarsumseweg,147,,,7665RX,Albergen,Tubbergen,Overijssel,VBO,6.761224,52.373637
Ootmarsumseweg,149,,,7665RX,Albergen,Tubbergen,Overijssel,VBO,6.761507,52.373664
Ootmarsumseweg,151,,,7665RX,Albergen,Tubbergen,Overijssel,VBO,6.761656,52.373686
Ootmarsumseweg,153,,,7665RX,Albergen,Tubbergen,Overijssel,VBO,6.761895,52.373734
Ootmarsumseweg,157,,,7665RX,Albergen,Tubbergen,Overijssel,VBO,6.761632,52.374204
Ootmarsumseweg,159,a,,7665RX,Albergen,Tubbergen,Overijssel,VBO,6.762800,52.373911
Ootmarsumseweg,159,,,7665RX,Albergen,Tubbergen,Overijssel,VBO,6.762637,52.373919
Ootmarsumseweg,161,,,7665RX,Albergen,Tubbergen,Overijssel,VBO,6.762198,52.374862
Ootmarsumseweg,163,,,7665RX,Albergen,Tubbergen,Overijssel,VBO,6.763050,52.374191
Ootmarsumseweg,165,,,7665RX,Albergen,Tubbergen,Overijssel,VBO,6.763242,52.373955
Ootmarsumseweg,169,a,,7665RX,Albergen,Tubbergen,Overijssel,VBO,6.763462,52.373899
Ootmarsumseweg,169,b,,7665RX,Albergen,Tubbergen,Overijssel,VBO,6.763563,52.373856
Ootmarsumseweg,169,,,7665RX,Albergen,Tubbergen,Overijssel,VBO,6.763612,52.373897
Ootmarsumseweg,171,,,7665RX,Albergen,Tubbergen,Overijssel,VBO,6.763733,52.373966
Ootmarsumseweg,181,,,7665RX,Albergen,Tubbergen,Overijssel,VBO,6.768791,52.374721
Ootmarsumseweg,183,a,,7665RX,Albergen,Tubbergen,Overijssel,VBO,6.772941,52.375368
Ootmarsumseweg,183,,,7665RX,Albergen,Tubbergen,Overijssel,VBO,6.772928,52.375279
Ootmarsumseweg,187,a,,7665RX,Albergen,Tubbergen,Overijssel,VBO,6.776641,52.375888
Ootmarsumseweg,187,,,7665RX,Albergen,Tubbergen,Overijssel,VBO,6.776514,52.375868
Ootmarsumseweg,189,,,7665RX,Albergen,Tubbergen,Overijssel,VBO,6.777738,52.376174
Ootmarsumseweg,191,,,7665RX,Albergen,Tubbergen,Overijssel,VBO,6.781293,52.376811
Zuidesweg,5,,,7665RZ,Albergen,Tubbergen,Overijssel,VBO,6.750031,52.368220
Zuidesweg,11,a,,7665RZ,Albergen,Tubbergen,Overijssel,VBO,6.747429,52.364894
Zuidesweg,11,,ZH01,7665RZ,Albergen,Tubbergen,Overijssel,VBO,6.742259,52.365314
Zuidesweg,11,,,7665RZ,Albergen,Tubbergen,Overijssel,VBO,6.747393,52.364856
Zuidesweg,15,,,7665RZ,Albergen,Tubbergen,Overijssel,VBO,6.743157,52.362408
Ootmarsumseweg,16,,,7665SB,Albergen,Tubbergen,Overijssel,VBO,6.722552,52.372470
Ootmarsumseweg,28,a,,7665SB,Albergen,Tubbergen,Overijssel,VBO,6.726423,52.373483
Ootmarsumseweg,28,,,7665SB,Albergen,Tubbergen,Overijssel,VBO,6.726542,52.373469
Ootmarsumseweg,30,,,7665SB,Albergen,Tubbergen,Overijssel,VBO,6.727661,52.373330
Ootmarsumseweg,32,a,,7665SB,Albergen,Tubbergen,Overijssel,VBO,6.729532,52.372694
Ootmarsumseweg,32,,,7665SB,Albergen,Tubbergen,Overijssel,VBO,6.729238,52.373053
Ootmarsumseweg,34,,,7665SB,Albergen,Tubbergen,Overijssel,VBO,6.729978,52.372808
Ootmarsumseweg,42,,,7665SB,Albergen,Tubbergen,Overijssel,VBO,6.736213,52.371647
Ootmarsumseweg,50,a,,7665SB,Albergen,Tubbergen,Overijssel,VBO,6.739573,52.370972
Ootmarsumseweg,50,,,7665SB,Albergen,Tubbergen,Overijssel,VBO,6.739708,52.371003
Ootmarsumseweg,52,a,,7665SB,Albergen,Tubbergen,Overijssel,VBO,6.740717,52.369621
Ootmarsumseweg,52,,,7665SB,Albergen,Tubbergen,Overijssel,VBO,6.740847,52.369615
Ootmarsumseweg,54,,,7665SC,Albergen,Tubbergen,Overijssel,VBO,6.743187,52.371789
Ootmarsumseweg,62,,,7665SC,Albergen,Tubbergen,Overijssel,VBO,6.746053,52.371478
Ootmarsumseweg,84,,,7665SC,Albergen,Tubbergen,Overijssel,VBO,6.750963,52.371120
Ootmarsumseweg,86,,,7665SC,Albergen,Tubbergen,Overijssel,VBO,6.751452,52.371103
Ootmarsumseweg,88,,,7665SC,Albergen,Tubbergen,Overijssel,VBO,6.753237,52.371347
Ootmarsumseweg,90,,,7665SC,Albergen,Tubbergen,Overijssel,VBO,6.753479,52.371358
Ootmarsumseweg,92,,,7665SC,Albergen,Tubbergen,Overijssel,VBO,6.753731,52.371336
Ootmarsumseweg,100,a,,7665SC,Albergen,Tubbergen,Overijssel,VBO,6.754413,52.371399
Ootmarsumseweg,100,,,7665SC,Albergen,Tubbergen,Overijssel,VBO,6.754578,52.371430
Ootmarsumseweg,104,,,7665SE,Albergen,Tubbergen,Overijssel,VBO,6.755588,52.371455
Ootmarsumseweg,110,a,,7665SE,Albergen,Tubbergen,Overijssel,VBO,6.756226,52.371688
Ootmarsumseweg,110,,,7665SE,Albergen,Tubbergen,Overijssel,VBO,6.755873,52.371459
Ootmarsumseweg,112,,,7665SE,Albergen,Tubbergen,Overijssel,VBO,6.756607,52.371559
Ootmarsumseweg,154,a,,7665SE,Albergen,Tubbergen,Overijssel,VBO,6.762419,52.373474
Ootmarsumseweg,154,,,7665SE,Albergen,Tubbergen,Overijssel,VBO,6.762773,52.373488
Ootmarsumseweg,156,a,,7665SE,Albergen,Tubbergen,Overijssel,VBO,6.762665,52.373474
Ootmarsumseweg,156,,,7665SE,Albergen,Tubbergen,Overijssel,VBO,6.762932,52.373518
Ootmarsumseweg,168,,,7665SE,Albergen,Tubbergen,Overijssel,VBO,6.763532,52.373615
Ootmarsumseweg,176,,,7665SE,Albergen,Tubbergen,Overijssel,VBO,6.765016,52.373392
Ootmarsumseweg,178,a,,7665SE,Albergen,Tubbergen,Overijssel,VBO,6.766626,52.373474
Ootmarsumseweg,178,,,7665SE,Albergen,Tubbergen,Overijssel,VBO,6.766677,52.373566
Ootmarsumseweg,180,,,7665SE,Albergen,Tubbergen,Overijssel,VBO,6.767480,52.373714
Ootmarsumseweg,182,,,7665SE,Albergen,Tubbergen,Overijssel,VBO,6.768221,52.373863
Ootmarsumseweg,184,,,7665SE,Albergen,Tubbergen,Overijssel,VBO,6.774355,52.374765
Ootmarsumseweg,188,a,,7665SE,Albergen,Tubbergen,Overijssel,VBO,6.776920,52.375280
Ootmarsumseweg,188,b,,7665SE,Albergen,Tubbergen,Overijssel,VBO,6.776674,52.375256
Ootmarsumseweg,188,,,7665SE,Albergen,Tubbergen,Overijssel,VBO,6.776823,52.375336
van Koersveldweg,1,,,7665SG,Albergen,Tubbergen,Overijssel,VBO,6.757190,52.370221
van Koersveldweg,4,,,7665SG,Albergen,Tubbergen,Overijssel,VBO,6.755399,52.370490
van Koersveldweg,6,,,7665SG,Albergen,Tubbergen,Overijssel,VBO,6.755689,52.369848
van Koersveldweg,8,,,7665SG,Albergen,Tubbergen,Overijssel,VBO,6.756162,52.369320
van Koersveldweg,10,,,7665SG,Albergen,Tubbergen,Overijssel,VBO,6.756533,52.369115
Zandhuisweg,1,,,7665SH,Albergen,Tubbergen,Overijssel,VBO,6.755278,52.370645
Zandhuisweg,2,a,,7665SH,Albergen,Tubbergen,Overijssel,VBO,6.754911,52.370877
Zandhuisweg,2,,,7665SH,Albergen,Tubbergen,Overijssel,VBO,6.754987,52.371115
Zandhuisweg,4,a,,7665SH,Albergen,Tubbergen,Overijssel,VBO,6.754556,52.370784
Zandhuisweg,4,,,7665SH,Albergen,Tubbergen,Overijssel,VBO,6.754618,52.370811
Zandhuisweg,6,,,7665SH,Albergen,Tubbergen,Overijssel,VBO,6.754399,52.370705
Zandhuisweg,7,,,7665SH,Albergen,Tubbergen,Overijssel,VBO,6.755057,52.370499
Zandhuisweg,8,,,7665SH,Albergen,Tubbergen,Overijssel,VBO,6.754338,52.370685
Zandhuisweg,16,,,7665SH,Albergen,Tubbergen,Overijssel,VBO,6.752806,52.368947
Zandhuisweg,18,,,7665SH,Albergen,Tubbergen,Overijssel,VBO,6.752736,52.368802
Zandhuisweg,24,,,7665SH,Albergen,Tubbergen,Overijssel,VBO,6.752823,52.368133
Zandhuisweg,25,a,,7665SH,Albergen,Tubbergen,Overijssel,VBO,6.753656,52.368182
Zandhuisweg,25,,,7665SH,Albergen,Tubbergen,Overijssel,VBO,6.753712,52.368144
Zandhuisweg,27,,,7665SH,Albergen,Tubbergen,Overijssel,VBO,6.754870,52.367909
Zandhuisweg,36,,,7665SH,Albergen,Tubbergen,Overijssel,VBO,6.756564,52.368038
Zandhuisweg,37,a,,7665SH,Albergen,Tubbergen,Overijssel,VBO,6.756264,52.368491
Zandhuisweg,37,c,,7665SH,Albergen,Tubbergen,Overijssel,VBO,6.756364,52.368622
Zandhuisweg,37,d,,7665SH,Albergen,Tubbergen,Overijssel,VBO,6.756198,52.368550
Zandhuisweg,37,e,,7665SH,Albergen,Tubbergen,Overijssel,VBO,6.755995,52.368686
Zandhuisweg,37,f,,7665SH,Albergen,Tubbergen,Overijssel,VBO,6.756135,52.368719
Zandhuisweg,37,g,,7665SH,Albergen,Tubbergen,Overijssel,VBO,6.756228,52.368754
Zandhuisweg,37,,,7665SH,Albergen,Tubbergen,Overijssel,VBO,6.756430,52.368557
Zandhuisweg,38,,,7665SH,Albergen,Tubbergen,Overijssel,VBO,6.757347,52.368290
Zandhuisweg,39,,,7665SH,Albergen,Tubbergen,Overijssel,VBO,6.756663,52.368750
Braakvenweg,2,,,7665SJ,Albergen,Tubbergen,Overijssel,VBO,6.734782,52.371832
Braakvenweg,4,,,7665SJ,Albergen,Tubbergen,Overijssel,VBO,6.734288,52.371658
Braakvenweg,6,,,7665SJ,Albergen,Tubbergen,Overijssel,VBO,6.734113,52.371458
Braakvenweg,8,,,7665SJ,Albergen,Tubbergen,Overijssel,VBO,6.734095,52.371372
Braakvenweg,10,,,7665SJ,Albergen,Tubbergen,Overijssel,VBO,6.732117,52.371107
Gravendijk,5,a,,7665SJ,Albergen,Tubbergen,Overijssel,VBO,6.734292,52.370367
Gravendijk,5,,,7665SJ,Albergen,Tubbergen,Overijssel,VBO,6.734620,52.370529
Gravendijk,7,,,7665SJ,Albergen,Tubbergen,Overijssel,VBO,6.734140,52.369765
Gravendijk,9,,,7665SJ,Albergen,Tubbergen,Overijssel,VBO,6.730953,52.369073
Gravendijk,13,,,7665SJ,Albergen,Tubbergen,Overijssel,VBO,6.729112,52.369286
Gravendijk,15,a,,7665SJ,Albergen,Tubbergen,Overijssel,VBO,6.727472,52.368797
Gravendijk,15,,,7665SJ,Albergen,Tubbergen,Overijssel,VBO,6.727340,52.368761
Gravendijk,19,,,7665SJ,Albergen,Tubbergen,Overijssel,VBO,6.722786,52.367740
Gravendijk,23,,,7665SJ,Albergen,Tubbergen,Overijssel,VBO,6.722554,52.367565
Gravendijk,25,a,,7665SJ,Albergen,Tubbergen,Overijssel,VBO,6.720472,52.366896
Gravendijk,25,,,7665SJ,Albergen,Tubbergen,Overijssel,VBO,6.720448,52.366971
Gravendijk,29,,,7665SJ,Albergen,Tubbergen,Overijssel,VBO,6.717612,52.366300
Gravendijk,2,,,7665SK,Albergen,Tubbergen,Overijssel,VBO,6.737011,52.371284
Gravendijk,4,a,,7665SK,Albergen,Tubbergen,Overijssel,VBO,6.736461,52.371279
Gravendijk,4,,,7665SK,Albergen,Tubbergen,Overijssel,VBO,6.736413,52.371201
Gravendijk,6,,,7665SK,Albergen,Tubbergen,Overijssel,VBO,6.734169,52.370916
Gravendijk,10,,,7665SK,Albergen,Tubbergen,Overijssel,VBO,6.729897,52.370022
Gravendijk,14,a,,7665SK,Albergen,Tubbergen,Overijssel,VBO,6.729349,52.370007
Gravendijk,14,,,7665SK,Albergen,Tubbergen,Overijssel,VBO,6.729260,52.369966
Gravendijk,16,a,,7665SK,Albergen,Tubbergen,Overijssel,VBO,6.726841,52.369237
Gravendijk,16,,,7665SK,Albergen,Tubbergen,Overijssel,VBO,6.727040,52.369284
Gravendijk,20,a,,7665SK,Albergen,Tubbergen,Overijssel,VBO,6.723122,52.368239
Gravendijk,20,,,7665SK,Albergen,Tubbergen,Overijssel,VBO,6.723236,52.368268
Mekkelenbergweg,43,,,7665SK,Albergen,Tubbergen,Overijssel,VBO,6.721373,52.369726
Mekkelenbergweg,45,a,,7665SK,Albergen,Tubbergen,Overijssel,VBO,6.721679,52.369393
Mekkelenbergweg,45,,,7665SK,Albergen,Tubbergen,Overijssel,VBO,6.721623,52.369464
Mekkelenbergweg,47,a,,7665SK,Albergen,Tubbergen,Overijssel,VBO,6.721827,52.369238
Mekkelenbergweg,47,,,7665SK,Albergen,Tubbergen,Overijssel,VBO,6.721784,52.369283
Mekkelenbergweg,49,,,7665SK,Albergen,Tubbergen,Overijssel,VBO,6.721996,52.368979
Mekkelenbergweg,57,,,7665SK,Albergen,Tubbergen,Overijssel,VBO,6.723620,52.367201
Mekkelenbergweg,58,,,7665SK,Albergen,Tubbergen,Overijssel,VBO,6.723254,52.366684
Mekkelenbergweg,61,,,7665SK,Albergen,Tubbergen,Overijssel,VBO,6.725836,52.366483
Teggelweg,2,,,7665SL,Albergen,Tubbergen,Overijssel,VBO,6.727039,52.368123
Teggelweg,5,,,7665SL,Albergen,Tubbergen,Overijssel,VBO,6.728311,52.367197
Teggelweg,11,a,,7665SL,Albergen,Tubbergen,Overijssel,VBO,6.730097,52.364696
Teggelweg,11,,,7665SL,Albergen,Tubbergen,Overijssel,VBO,6.730082,52.364619
Looweg,4,a,,7665SM,Albergen,Tubbergen,Overijssel,VBO,6.732020,52.366923
Looweg,4,,,7665SM,Albergen,Tubbergen,Overijssel,VBO,6.733357,52.367375
Looweg,6,,,7665SM,Albergen,Tubbergen,Overijssel,VBO,6.731203,52.366897
Looweg,8,,,7665SM,Albergen,Tubbergen,Overijssel,VBO,6.731093,52.367048
Looweg,9,a,,7665SM,Albergen,Tubbergen,Overijssel,VBO,6.729674,52.365494
Looweg,9,,,7665SM,Albergen,Tubbergen,Overijssel,VBO,6.729616,52.365556
Tichelweg,2,,,7665SN,Albergen,Tubbergen,Overijssel,VBO,6.738509,52.370896
Tichelweg,4,,,7665SN,Albergen,Tubbergen,Overijssel,VBO,6.738292,52.370484
Tichelweg,6,,,7665SN,Albergen,Tubbergen,Overijssel,VBO,6.737916,52.369426
Tichelweg,8,,,7665SN,Albergen,Tubbergen,Overijssel,VBO,6.737652,52.368431
Tichelweg,10,,,7665SN,Albergen,Tubbergen,Overijssel,VBO,6.737311,52.367500
Tichelweg,12,,,7665SN,Albergen,Tubbergen,Overijssel,VBO,6.736983,52.367065
Tichelweg,14,a,,7665SN,Albergen,Tubbergen,Overijssel,VBO,6.736646,52.366388
Tichelweg,14,,,7665SN,Albergen,Tubbergen,Overijssel,VBO,6.736494,52.366358
Tichelweg,15,,,7665SN,Albergen,Tubbergen,Overijssel,VBO,6.737170,52.365804
Tichelweg,17,,,7665SN,Albergen,Tubbergen,Overijssel,VBO,6.737037,52.364884
Tichelweg,18,,,7665SN,Albergen,Tubbergen,Overijssel,VBO,6.736190,52.364615
Tichelweg,19,,,7665SN,Albergen,Tubbergen,Overijssel,VBO,6.737533,52.364596
Tichelweg,20,a,,7665SN,Albergen,Tubbergen,Overijssel,VBO,6.735496,52.363876
Tichelweg,20,,,7665SN,Albergen,Tubbergen,Overijssel,VBO,6.735983,52.364126
Tichelweg,21,,,7665SN,Albergen,Tubbergen,Overijssel,VBO,6.736961,52.363769
Tichelweg,23,a,,7665SN,Albergen,Tubbergen,Overijssel,VBO,6.738270,52.363305
Tichelweg,23,,,7665SN,Albergen,Tubbergen,Overijssel,VBO,6.738511,52.363305
Kanaal N.Z.,5,,,7665SP,Albergen,Tubbergen,Overijssel,VBO,6.720744,52.366586
Kanaal N.Z.,7,a,,7665SP,Albergen,Tubbergen,Overijssel,VBO,6.721947,52.366311
Kanaal N.Z.,7,,,7665SP,Albergen,Tubbergen,Overijssel,VBO,6.721862,52.366254
Kanaal N.Z.,13,a,,7665SP,Albergen,Tubbergen,Overijssel,VBO,6.732637,52.363980
Kanaal N.Z.,13,,,7665SP,Albergen,Tubbergen,Overijssel,VBO,6.732780,52.363964
Kanaal N.Z.,15,,,7665SP,Albergen,Tubbergen,Overijssel,VBO,6.733327,52.363916
Kanaal N.Z.,19,,,7665SP,Albergen,Tubbergen,Overijssel,VBO,6.734241,52.363636
Kanaal N.Z.,23,,,7665SP,Albergen,Tubbergen,Overijssel,VBO,6.735395,52.363306
Kanaal N.Z.,29,,,7665SP,Albergen,Tubbergen,Overijssel,VBO,6.754164,52.362170
Kanaal N.Z.,31,,,7665SP,Albergen,Tubbergen,Overijssel,VBO,6.756395,52.362789
Kanaal N.Z.,33,,,7665SP,Albergen,Tubbergen,Overijssel,VBO,6.761166,52.362924
Kanaal N.Z.,35,,,7665SP,Albergen,Tubbergen,Overijssel,VBO,6.761620,52.362951
Kanaal N.Z.,37,,,7665SP,Albergen,Tubbergen,Overijssel,VBO,6.762283,52.363161
Kanaal N.Z.,39,,,7665SP,Albergen,Tubbergen,Overijssel,VBO,6.763546,52.364129
Kanaal N.Z.,41,,,7665SP,Albergen,Tubbergen,Overijssel,VBO,6.763054,52.363200
Kanaal N.Z.,43,,,7665SP,Albergen,Tubbergen,Overijssel,VBO,6.762764,52.363075
Kanaal N.Z.,45,,,7665SP,Albergen,Tubbergen,Overijssel,VBO,6.763737,52.363280
Kanaal N.Z.,45,,,7665SP,Albergen,Tubbergen,Overijssel,VBO,6.763803,52.363389
Kanaal N.Z.,47,,,7665SP,Albergen,Tubbergen,Overijssel,VBO,6.764447,52.363356
Grimbergweg,2,a,,7665SR,Albergen,Tubbergen,Overijssel,VBO,6.749601,52.357342
Grimbergweg,2,,,7665SR,Albergen,Tubbergen,Overijssel,VBO,6.749686,52.357405
Vleerboersweg,2,,,7665ST,Albergen,Tubbergen,Overijssel,VBO,6.759096,52.365995
Vleerboersweg,4,a,,7665ST,Albergen,Tubbergen,Overijssel,VBO,6.757957,52.365435
Vleerboersweg,4,,,7665ST,Albergen,Tubbergen,Overijssel,VBO,6.757928,52.365422
Vleerboersweg,8,a,,7665ST,Albergen,Tubbergen,Overijssel,VBO,6.756205,52.364600
Vleerboersweg,8,,,7665ST,Albergen,Tubbergen,Overijssel,VBO,6.756084,52.364547
Vleerboersweg,9,a,,7665ST,Albergen,Tubbergen,Overijssel,VBO,6.755073,52.363175
Vleerboersweg,9,b,,7665ST,Albergen,Tubbergen,Overijssel,VBO,6.755143,52.363116
Vleerboersweg,9,c,,7665ST,Albergen,Tubbergen,Overijssel,VBO,6.755021,52.363703
Vleerboersweg,9,,,7665ST,Albergen,Tubbergen,Overijssel,VBO,6.755055,52.363758
Vleerboersweg,11,,,7665ST,Albergen,Tubbergen,Overijssel,VBO,6.755163,52.362678
Vleerboersweg,13,,,7665ST,Albergen,Tubbergen,Overijssel,VBO,6.755345,52.362446
Vleerboersweg,15,a,,7665ST,Albergen,Tubbergen,Overijssel,VBO,6.753836,52.363237
Vleerboersweg,15,,,7665ST,Albergen,Tubbergen,Overijssel,VBO,6.753913,52.363293
Vleerboersweg,16,,,7665ST,Albergen,Tubbergen,Overijssel,VBO,6.752574,52.363377
Vleerboersweg,17,a,,7665ST,Albergen,Tubbergen,Overijssel,VBO,6.753162,52.362747
Vleerboersweg,17,,,7665ST,Albergen,Tubbergen,Overijssel,VBO,6.753209,52.362662
Vleerboersweg,18,a,,7665ST,Albergen,Tubbergen,Overijssel,VBO,6.751917,52.362460
Vleerboersweg,18,,,7665ST,Albergen,Tubbergen,Overijssel,VBO,6.752119,52.362808
Vleerboersweg,20,a,,7665ST,Albergen,Tubbergen,Overijssel,VBO,6.750911,52.363826
Vleerboersweg,20,,,7665ST,Albergen,Tubbergen,Overijssel,VBO,6.751082,52.363700
Vleerboersweg,22,a,,7665ST,Albergen,Tubbergen,Overijssel,VBO,6.747111,52.361709
Vleerboersweg,22,b,,7665ST,Albergen,Tubbergen,Overijssel,VBO,6.747383,52.361722
Vleerboersweg,22,,,7665ST,Albergen,Tubbergen,Overijssel,VBO,6.746917,52.361664
Vleerboersweg,24,,,7665ST,Albergen,Tubbergen,Overijssel,VBO,6.747068,52.359792
Vleerboersweg,25,,,7665ST,Albergen,Tubbergen,Overijssel,VBO,6.747906,52.358674
Vleerboersweg,26,,,7665ST,Albergen,Tubbergen,Overijssel,VBO,6.747148,52.359391
Vleerboersweg,28,a,,7665ST,Albergen,Tubbergen,Overijssel,VBO,6.739988,52.356354
Vleerboersweg,28,,,7665ST,Albergen,Tubbergen,Overijssel,VBO,6.739867,52.356307
Vleerboersweg,33,,,7665ST,Albergen,Tubbergen,Overijssel,VBO,6.745108,52.356637
Vleerboersweg,35,,,7665ST,Albergen,Tubbergen,Overijssel,VBO,6.744104,52.355764
Geerdinksweg,2,a,,7665SV,Albergen,Tubbergen,Overijssel,VBO,6.737029,52.360058
Geerdinksweg,2,,,7665SV,Albergen,Tubbergen,Overijssel,VBO,6.737147,52.359997
Postweg,2,,,7665SW,Albergen,Tubbergen,Overijssel,VBO,6.732121,52.357647
Postweg,2,,,7665SW,Albergen,Tubbergen,Overijssel,VBO,6.732326,52.357807
Postweg,3,a,,7665SW,Albergen,Tubbergen,Overijssel,VBO,6.730640,52.362678
Postweg,3,,,7665SW,Albergen,Tubbergen,Overijssel,VBO,6.730660,52.362632
Vossenveenweg,2,,,7665SX,Albergen,Tubbergen,Overijssel,VBO,6.722647,52.360249
Vossenveenweg,4,,,7665SX,Albergen,Tubbergen,Overijssel,VBO,6.728881,52.360799
Braakvenweg,1,,,7665SZ,Albergen,Tubbergen,Overijssel,VBO,6.735683,52.371774
Kanaal Z.Z.,12,,,7665SZ,Albergen,Tubbergen,Overijssel,VBO,6.720668,52.365571
Kanaal Z.Z.,18,a,,7665SZ,Albergen,Tubbergen,Overijssel,VBO,6.735228,52.362437
Kanaal Z.Z.,18,,,7665SZ,Albergen,Tubbergen,Overijssel,VBO,6.735226,52.362359
Kanaal Z.Z.,20,,,7665SZ,Albergen,Tubbergen,Overijssel,VBO,6.740831,52.358977
Kanaal Z.Z.,22,,,7665SZ,Albergen,Tubbergen,Overijssel,VBO,6.747770,52.360682
Kanaal Z.Z.,26,a,,7665SZ,Albergen,Tubbergen,Overijssel,VBO,6.749975,52.360302
Kanaal Z.Z.,26,,,7665SZ,Albergen,Tubbergen,Overijssel,VBO,6.749903,52.360235
Kanaal Z.Z.,28,a,,7665SZ,Albergen,Tubbergen,Overijssel,VBO,6.751757,52.360440
Kanaal Z.Z.,28,,,7665SZ,Albergen,Tubbergen,Overijssel,VBO,6.751741,52.360489
Kanaal Z.Z.,46,,,7665SZ,Albergen,Tubbergen,Overijssel,VBO,6.770099,52.363355
Kanaal Z.Z.,50,,,7665SZ,Albergen,Tubbergen,Overijssel,VBO,6.770207,52.362966
Kanaal Z.Z.,52,,,7665SZ,Albergen,Tubbergen,Overijssel,VBO,6.770791,52.363022
Kanaal Z.Z.,54,,,7665SZ,Albergen,Tubbergen,Overijssel,VBO,6.770697,52.362610
Leemhuisweg,2,a,,7665TA,Albergen,Tubbergen,Overijssel,VBO,6.726551,52.358826
Leemhuisweg,2,,,7665TA,Albergen,Tubbergen,Overijssel,VBO,6.726505,52.358769
Leemhuisweg,6,,,7665TA,Albergen,Tubbergen,Overijssel,VBO,6.726338,52.362767
Leemhuisweg,8,,,7665TA,Albergen,Tubbergen,Overijssel,VBO,6.725902,52.363313
Broekzijdeweg,1,,,7665TB,Albergen,Tubbergen,Overijssel,VBO,6.754113,52.348600
Broekzijdeweg,5,a,,7665TB,Albergen,Tubbergen,Overijssel,VBO,6.748179,52.351672
Broekzijdeweg,5,,,7665TB,Albergen,Tubbergen,Overijssel,VBO,6.748120,52.351753
Broekzijdeweg,7,,,7665TB,Albergen,Tubbergen,Overijssel,VBO,6.747205,52.351716
Broekzijdeweg,9,,,7665TB,Albergen,Tubbergen,Overijssel,VBO,6.739777,52.352604
Broekzijdeweg,13,a,,7665TB,Albergen,Tubbergen,Overijssel,VBO,6.732457,52.352803
Broekzijdeweg,13,,,7665TB,Albergen,Tubbergen,Overijssel,VBO,6.732307,52.352892
Broekzijdeweg,15,a,,7665TB,Albergen,Tubbergen,Overijssel,VBO,6.729205,52.356037
Broekzijdeweg,15,,,7665TB,Albergen,Tubbergen,Overijssel,VBO,6.729237,52.356087
Broekzijdeweg,19,,,7665TB,Albergen,Tubbergen,Overijssel,VBO,6.728055,52.356610
Broekzijdeweg,21,,,7665TB,Albergen,Tubbergen,Overijssel,VBO,6.726901,52.357292
Broekzijdeweg,25,,,7665TB,Albergen,Tubbergen,Overijssel,VBO,6.723834,52.358769
Broekzijdeweg,27,,,7665TB,Albergen,Tubbergen,Overijssel,VBO,6.722641,52.356894
Broekzijdeweg,29,,,7665TB,Albergen,Tubbergen,Overijssel,VBO,6.721081,52.359283
Broekzijdeweg,2,,,7665TC,Albergen,Tubbergen,Overijssel,VBO,6.753450,52.350017
Broekzijdeweg,4,a,,7665TC,Albergen,Tubbergen,Overijssel,VBO,6.752062,52.351956
Broekzijdeweg,4,,,7665TC,Albergen,Tubbergen,Overijssel,VBO,6.752079,52.352091
Broekzijdeweg,8,,,7665TC,Albergen,Tubbergen,Overijssel,VBO,6.742862,52.352574
Broekzijdeweg,10,,,7665TC,Albergen,Tubbergen,Overijssel,VBO,6.735614,52.353319
Broekzijdeweg,12,,,7665TC,Albergen,Tubbergen,Overijssel,VBO,6.735473,52.353418
Broekzijdeweg,14,,,7665TC,Albergen,Tubbergen,Overijssel,VBO,6.734897,52.353696
Broekzijdeweg,30,,,7665TC,Albergen,Tubbergen,Overijssel,VBO,6.719994,52.361489
Broekzijdeweg,32,,,7665TC,Albergen,Tubbergen,Overijssel,VBO,6.717948,52.363489
Broekzijdeweg,34,,,7665TC,Albergen,Tubbergen,Overijssel,VBO,6.718056,52.365148
Broekzijdeweg,36,,,7665TC,Albergen,Tubbergen,Overijssel,VBO,6.716977,52.365098
Broekzijdeweg,38,,,7665TC,Albergen,Tubbergen,Overijssel,VBO,6.716747,52.365374
Broekzijdeweg,40,,,7665TC,Albergen,Tubbergen,Overijssel,VBO,6.716704,52.365441
Broekzijdeweg,42,,,7665TC,Albergen,Tubbergen,Overijssel,VBO,6.716592,52.365754
Dikkersbosweg,1,,,7665TD,Albergen,Tubbergen,Overijssel,VBO,6.727821,52.351320
Dikkersbosweg,2,a,,7665TD,Albergen,Tubbergen,Overijssel,VBO,6.726877,52.349766
Dikkersbosweg,2,,,7665TD,Albergen,Tubbergen,Overijssel,VBO,6.727022,52.349802
Dikkersbosweg,3,,,7665TD,Albergen,Tubbergen,Overijssel,VBO,6.727753,52.347720
Schotveldsweg,2,,,7665TE,Albergen,Tubbergen,Overijssel,VBO,6.720320,52.350287
Schotveldsweg,4,,,7665TE,Albergen,Tubbergen,Overijssel,VBO,6.718891,52.350359
Watereggeweg,1,a,,7665TG,Albergen,Tubbergen,Overijssel,VBO,6.724692,52.344149
Watereggeweg,1,,,7665TG,Albergen,Tubbergen,Overijssel,VBO,6.724812,52.344118
Watereggeweg,3,a,,7665TG,Albergen,Tubbergen,Overijssel,VBO,6.723459,52.344022
Watereggeweg,3,,,7665TG,Albergen,Tubbergen,Overijssel,VBO,6.723431,52.343342
Watereggeweg,4,,,7665TG,Albergen,Tubbergen,Overijssel,VBO,6.722058,52.345392
Watereggeweg,5,,,7665TG,Albergen,Tubbergen,Overijssel,VBO,6.717288,52.344733
Watereggeweg,6,a,,7665TG,Albergen,Tubbergen,Overijssel,VBO,6.715618,52.347291
Watereggeweg,6,,,7665TG,Albergen,Tubbergen,Overijssel,VBO,6.715765,52.347158
Watereggeweg,7,,,7665TG,Albergen,Tubbergen,Overijssel,VBO,6.717412,52.345150
Looleeweg,2,,,7665TH,Albergen,Tubbergen,Overijssel,VBO,6.736165,52.352346
Looleeweg,4,a,,7665TH,Albergen,Tubbergen,Overijssel,VBO,6.735651,52.351328
Looleeweg,4,,,7665TH,Albergen,Tubbergen,Overijssel,VBO,6.735504,52.351306
Looleeweg,6,,,7665TH,Albergen,Tubbergen,Overijssel,VBO,6.735560,52.350948
Looleeweg,8,a,,7665TH,Albergen,Tubbergen,Overijssel,VBO,6.735149,52.350563
Looleeweg,8,,,7665TH,Albergen,Tubbergen,Overijssel,VBO,6.735094,52.350475
Looleeweg,10,,,7665TH,Albergen,Tubbergen,Overijssel,VBO,6.734180,52.350458
Looleeweg,11,a,,7665TH,Albergen,Tubbergen,Overijssel,VBO,6.735664,52.350021
Looleeweg,11,,,7665TH,Albergen,Tubbergen,Overijssel,VBO,6.735691,52.350097
Looleeweg,12,,,7665TH,Albergen,Tubbergen,Overijssel,VBO,6.733524,52.347271
Looleeweg,13,,,7665TH,Albergen,Tubbergen,Overijssel,VBO,6.732693,52.344762
Looleeweg,14,a,,7665TH,Albergen,Tubbergen,Overijssel,VBO,6.728918,52.345906
Looleeweg,14,,,7665TH,Albergen,Tubbergen,Overijssel,VBO,6.728876,52.346110
Looleeweg,15,a,,7665TH,Albergen,Tubbergen,Overijssel,VBO,6.729545,52.343981
Looleeweg,15,,,7665TH,Albergen,Tubbergen,Overijssel,VBO,6.729395,52.343984
Zenderseweg,1,a,,7665TJ,Albergen,Tubbergen,Overijssel,VBO,6.762284,52.373350
Zenderseweg,1,,,7665TJ,Albergen,Tubbergen,Overijssel,VBO,6.762244,52.373319
Zenderseweg,3,,,7665TJ,Albergen,Tubbergen,Overijssel,VBO,6.762077,52.373190
Zenderseweg,7,,,7665TJ,Albergen,Tubbergen,Overijssel,VBO,6.761915,52.372747
Zenderseweg,9,,,7665TJ,Albergen,Tubbergen,Overijssel,VBO,6.761947,52.372642
Zenderseweg,11,,,7665TJ,Albergen,Tubbergen,Overijssel,VBO,6.761875,52.372579
Zenderseweg,15,,,7665TJ,Albergen,Tubbergen,Overijssel,VBO,6.761858,52.372352
Zenderseweg,17,,,7665TJ,Albergen,Tubbergen,Overijssel,VBO,6.761873,52.372310
Zenderseweg,19,,,7665TJ,Albergen,Tubbergen,Overijssel,VBO,6.761928,52.372077
Zenderseweg,21,,,7665TJ,Albergen,Tubbergen,Overijssel,VBO,6.762008,52.371918
Zenderseweg,23,,,7665TJ,Albergen,Tubbergen,Overijssel,VBO,6.762022,52.371383
Zenderseweg,25,,,7665TJ,Albergen,Tubbergen,Overijssel,VBO,6.762009,52.371178
Zenderseweg,29,,,7665TJ,Albergen,Tubbergen,Overijssel,VBO,6.761992,52.370658
Zenderseweg,31,,,7665TJ,Albergen,Tubbergen,Overijssel,VBO,6.761990,52.370573
Zenderseweg,35,,,7665TK,Albergen,Tubbergen,Overijssel,VBO,6.761272,52.368755
Zenderseweg,37,a,,7665TK,Albergen,Tubbergen,Overijssel,VBO,6.761364,52.368386
Zenderseweg,37,,,7665TK,Albergen,Tubbergen,Overijssel,VBO,6.761235,52.368367
Zenderseweg,39,,,7665TK,Albergen,Tubbergen,Overijssel,VBO,6.761826,52.367561
Zenderseweg,41,a,,7665TK,Albergen,Tubbergen,Overijssel,VBO,6.760862,52.367339
Zenderseweg,41,,,7665TK,Albergen,Tubbergen,Overijssel,VBO,6.760788,52.367349
Zenderseweg,43,,,7665TK,Albergen,Tubbergen,Overijssel,VBO,6.760989,52.367324
Zenderseweg,45,,,7665TK,Albergen,Tubbergen,Overijssel,VBO,6.761054,52.366264
Zenderseweg,47,,,7665TK,Albergen,Tubbergen,Overijssel,VBO,6.760063,52.364111
Zenderseweg,49,a,,7665TK,Albergen,Tubbergen,Overijssel,VBO,6.759917,52.363737
Zenderseweg,49,,,7665TK,Albergen,Tubbergen,Overijssel,VBO,6.759933,52.363645
Zenderseweg,53,,,7665TK,Albergen,Tubbergen,Overijssel,VBO,6.760103,52.362715
Zenderseweg,55,,,7665TK,Albergen,Tubbergen,Overijssel,VBO,6.760552,52.361925
Zenderseweg,57,a,,7665TK,Albergen,Tubbergen,Overijssel,VBO,6.760242,52.358247
Zenderseweg,57,,,7665TK,Albergen,Tubbergen,Overijssel,VBO,6.760247,52.358346
Zenderseweg,59,a,,7665TK,Albergen,Tubbergen,Overijssel,VBO,6.760175,52.357971
Zenderseweg,59,,,7665TK,Albergen,Tubbergen,Overijssel,VBO,6.759998,52.357959
Zenderseweg,65,a,,7665TK,Albergen,Tubbergen,Overijssel,VBO,6.760247,52.354066
Zenderseweg,65,,,7665TK,Albergen,Tubbergen,Overijssel,VBO,6.760219,52.353995
Zenderseweg,67,,,7665TK,Albergen,Tubbergen,Overijssel,VBO,6.759732,52.353145
Zenderseweg,71,a,,7665TK,Albergen,Tubbergen,Overijssel,VBO,6.759639,52.351518
Zenderseweg,71,,,7665TK,Albergen,Tubbergen,Overijssel,VBO,6.759633,52.351560
Zenderseweg,73,a,,7665TK,Albergen,Tubbergen,Overijssel,VBO,6.759426,52.349884
Zenderseweg,73,,,7665TK,Albergen,Tubbergen,Overijssel,VBO,6.759418,52.349967
Zenderseweg,75,,,7665TL,Albergen,Tubbergen,Overijssel,VBO,6.758179,52.348940
Zenderseweg,77,a,,7665TL,Albergen,Tubbergen,Overijssel,VBO,6.756711,52.348004
Zenderseweg,77,,,7665TL,Albergen,Tubbergen,Overijssel,VBO,6.756670,52.347950
Zenderseweg,79,,,7665TL,Albergen,Tubbergen,Overijssel,VBO,6.750260,52.341543
Zenderseweg,81,,,7665TL,Albergen,Tubbergen,Overijssel,VBO,6.743379,52.339429
Zenderseweg,83,,,7665TL,Albergen,Tubbergen,Overijssel,VBO,6.742080,52.338315
Zenderseweg,87,,,7665TL,Albergen,Tubbergen,Overijssel,VBO,6.740429,52.339220
Zenderseweg,8,,,7665TM,Albergen,Tubbergen,Overijssel,VBO,6.761501,52.373078
Zenderseweg,10,,,7665TM,Albergen,Tubbergen,Overijssel,VBO,6.761377,52.372915
Zenderseweg,14,,,7665TM,Albergen,Tubbergen,Overijssel,VBO,6.761281,52.372662
Zenderseweg,20,,,7665TM,Albergen,Tubbergen,Overijssel,VBO,6.761383,52.371890
Zenderseweg,22,,,7665TM,Albergen,Tubbergen,Overijssel,VBO,6.761359,52.371832
Zenderseweg,24,,,7665TM,Albergen,Tubbergen,Overijssel,VBO,6.761402,52.371699
Zenderseweg,26,,,7665TM,Albergen,Tubbergen,Overijssel,VBO,6.761405,52.371640
Zenderseweg,28,,,7665TM,Albergen,Tubbergen,Overijssel,VBO,6.761420,52.371497
Zenderseweg,30,,,7665TM,Albergen,Tubbergen,Overijssel,VBO,6.761428,52.371365
Zenderseweg,32,,,7665TM,Albergen,Tubbergen,Overijssel,VBO,6.761444,52.371234
Zenderseweg,34,,,7665TM,Albergen,Tubbergen,Overijssel,VBO,6.761451,52.371069
Zenderseweg,36,a,,7665TM,Albergen,Tubbergen,Overijssel,VBO,6.760332,52.368353
Zenderseweg,38,,,7665TM,Albergen,Tubbergen,Overijssel,VBO,6.760128,52.368032
Zenderseweg,40,a,,7665TM,Albergen,Tubbergen,Overijssel,VBO,6.760358,52.367847
Zenderseweg,40,,,7665TM,Albergen,Tubbergen,Overijssel,VBO,6.760004,52.367814
Zenderseweg,42,a,,7665TN,Albergen,Tubbergen,Overijssel,VBO,6.760280,52.367577
Zenderseweg,42,b,,7665TN,Albergen,Tubbergen,Overijssel,VBO,6.760223,52.367434
Zenderseweg,42,,,7665TN,Albergen,Tubbergen,Overijssel,VBO,6.760018,52.367291
Zenderseweg,44,a,,7665TN,Albergen,Tubbergen,Overijssel,VBO,6.759986,52.366417
Zenderseweg,44,,,7665TN,Albergen,Tubbergen,Overijssel,VBO,6.759959,52.366375
Zenderseweg,50,,,7665TN,Albergen,Tubbergen,Overijssel,VBO,6.759440,52.363511
Zenderseweg,52,,,7665TN,Albergen,Tubbergen,Overijssel,VBO,6.759553,52.362938
Zenderseweg,54,,,7665TN,Albergen,Tubbergen,Overijssel,VBO,6.757632,52.360288
Zenderseweg,56,,,7665TN,Albergen,Tubbergen,Overijssel,VBO,6.756966,52.360084
Zenderseweg,60,,,7665TN,Albergen,Tubbergen,Overijssel,VBO,6.759267,52.357046
Zenderseweg,62,a,,7665TN,Albergen,Tubbergen,Overijssel,VBO,6.759097,52.355704
Zenderseweg,62,,,7665TN,Albergen,Tubbergen,Overijssel,VBO,6.759058,52.355615
Zenderseweg,64,,,7665TN,Albergen,Tubbergen,Overijssel,VBO,6.759069,52.354512
Zenderseweg,66,,,7665TN,Albergen,Tubbergen,Overijssel,VBO,6.759003,52.353483
Zenderseweg,68,a,,7665TN,Albergen,Tubbergen,Overijssel,VBO,6.758784,52.352241
Zenderseweg,68,,,7665TN,Albergen,Tubbergen,Overijssel,VBO,6.758901,52.352357
Zenderseweg,70,,,7665TN,Albergen,Tubbergen,Overijssel,VBO,6.758942,52.351903
Zenderseweg,74,a,,7665TN,Albergen,Tubbergen,Overijssel,VBO,6.758217,52.349874
Zenderseweg,74,,,7665TN,Albergen,Tubbergen,Overijssel,VBO,6.758188,52.349801
Zenderseweg,76,,,7665TN,Albergen,Tubbergen,Overijssel,VBO,6.756742,52.348605
Zenderseweg,78,a,,7665TN,Albergen,Tubbergen,Overijssel,VBO,6.749151,52.345341
Zenderseweg,78,,,7665TN,Albergen,Tubbergen,Overijssel,VBO,6.749006,52.345308
Zenderseweg,80,,,7665TN,Albergen,Tubbergen,Overijssel,VBO,6.746121,52.341515
Zenderseweg,84,a,,7665TN,Albergen,Tubbergen,Overijssel,VBO,6.741429,52.339883
Zenderseweg,84,,,7665TN,Albergen,Tubbergen,Overijssel,VBO,6.741490,52.339838
Zenderseweg,86,,,7665TN,Albergen,Tubbergen,Overijssel,VBO,6.740385,52.339677
Zenderseweg,88,a,,7665TN,Albergen,Tubbergen,Overijssel,VBO,6.738274,52.339407
Zenderseweg,88,,,7665TN,Albergen,Tubbergen,Overijssel,VBO,6.738396,52.339444
Zenderseweg,90,,,7665TN,Albergen,Tubbergen,Overijssel,VBO,6.738131,52.339381
Zenderseweg,92,,,7665TN,Albergen,Tubbergen,Overijssel,VBO,6.737437,52.339232
Dashorstweg,5,,,7665TP,Albergen,Tubbergen,Overijssel,VBO,6.745745,52.334597
Goorkottedwarsweg,4,,,7665TR,Albergen,Tubbergen,Overijssel,VBO,6.754372,52.358798
Diepegoorsweg,2,a,,7665TS,Albergen,Tubbergen,Overijssel,VBO,6.756102,52.338305
Diepegoorsweg,2,b,,7665TS,Albergen,Tubbergen,Overijssel,VBO,6.754280,52.341375
Diepegoorsweg,2,,,7665TS,Albergen,Tubbergen,Overijssel,VBO,6.756394,52.337389
Diepegoorsweg,4,a,,7665TS,Albergen,Tubbergen,Overijssel,VBO,6.755965,52.335576
Diepegoorsweg,4,,,7665TS,Albergen,Tubbergen,Overijssel,VBO,6.756772,52.335383
Blokweg,4,a,,7665TV,Albergen,Tubbergen,Overijssel,VBO,6.759938,52.344909
Blokweg,4,,,7665TV,Albergen,Tubbergen,Overijssel,VBO,6.759610,52.344781
Broekhuisweg,2,,,7665TW,Albergen,Tubbergen,Overijssel,VBO,6.758918,52.348792
Broekhuisweg,3,,,7665TW,Albergen,Tubbergen,Overijssel,VBO,6.762335,52.348732
Broekhuisweg,4,,,7665TW,Albergen,Tubbergen,Overijssel,VBO,6.760972,52.348231
Broekhuisweg,5,a,,7665TW,Albergen,Tubbergen,Overijssel,VBO,6.763874,52.348368
Broekhuisweg,5,,,7665TW,Albergen,Tubbergen,Overijssel,VBO,6.763455,52.348783
Broekhuisweg,6,,,7665TW,Albergen,Tubbergen,Overijssel,VBO,6.761459,52.348309
Broekhuisweg,9,a,,7665TW,Albergen,Tubbergen,Overijssel,VBO,6.764600,52.345497
Broekhuisweg,9,,,7665TW,Albergen,Tubbergen,Overijssel,VBO,6.764784,52.345368
Weemselerweg,1,,,7665TX,Albergen,Tubbergen,Overijssel,VBO,6.770775,52.373733
Weemselerweg,2,a,,7665TX,Albergen,Tubbergen,Overijssel,VBO,6.768597,52.373487
Weemselerweg,2,,,7665TX,Albergen,Tubbergen,Overijssel,VBO,6.768539,52.373568
Weemselerweg,3,,,7665TX,Albergen,Tubbergen,Overijssel,VBO,6.770668,52.373070
Weemselerweg,6,,,7665TX,Albergen,Tubbergen,Overijssel,VBO,6.768570,52.373007
Weemselerweg,8,,,7665TX,Albergen,Tubbergen,Overijssel,VBO,6.768568,52.372865
Weemselerweg,10,,,7665TX,Albergen,Tubbergen,Overijssel,VBO,6.768571,52.372737
Weemselerweg,11,a,,7665TX,Albergen,Tubbergen,Overijssel,VBO,6.775088,52.368319
Weemselerweg,11,,,7665TX,Albergen,Tubbergen,Overijssel,VBO,6.775144,52.368238
Weemselerweg,12,,,7665TX,Albergen,Tubbergen,Overijssel,VBO,6.768574,52.372608
Weemselerweg,13,a,,7665TX,Albergen,Tubbergen,Overijssel,VBO,6.776390,52.367560
Weemselerweg,13,,,7665TX,Albergen,Tubbergen,Overijssel,VBO,6.776270,52.367569
Weemselerweg,15,,,7665TX,Albergen,Tubbergen,Overijssel,VBO,6.777894,52.366657
Weemselerweg,16,,,7665TX,Albergen,Tubbergen,Overijssel,VBO,6.768830,52.372169
Weemselerweg,17,,,7665TX,Albergen,Tubbergen,Overijssel,VBO,6.779594,52.365598
Weemselerweg,20,a,,7665TX,Albergen,Tubbergen,Overijssel,VBO,6.770622,52.370599
Weemselerweg,20,,,7665TX,Albergen,Tubbergen,Overijssel,VBO,6.770684,52.370538
Weemselerweg,22,,,7665TX,Albergen,Tubbergen,Overijssel,VBO,6.770961,52.370432
Weemselerweg,23,a,,7665TX,Albergen,Tubbergen,Overijssel,VBO,6.781589,52.364731
Weemselerweg,23,,,7665TX,Albergen,Tubbergen,Overijssel,VBO,6.781521,52.364817
Weemselerweg,24,,,7665TX,Albergen,Tubbergen,Overijssel,VBO,6.771234,52.370190
Weemselerweg,25,,,7665TX,Albergen,Tubbergen,Overijssel,VBO,6.777701,52.361212
Weemselerweg,27,a,,7665TX,Albergen,Tubbergen,Overijssel,VBO,6.780712,52.355928
Weemselerweg,27,,,7665TX,Albergen,Tubbergen,Overijssel,VBO,6.780715,52.355833
Weemselerweg,29,a,,7665TX,Albergen,Tubbergen,Overijssel,VBO,6.775424,52.354678
Weemselerweg,32,,,7665TX,Albergen,Tubbergen,Overijssel,VBO,6.773420,52.368638
Weemselerweg,33,a,,7665TX,Albergen,Tubbergen,Overijssel,VBO,6.775038,52.351410
Weemselerweg,33,,,7665TX,Albergen,Tubbergen,Overijssel,VBO,6.775069,52.351499
Weemselerweg,34,a,,7665TX,Albergen,Tubbergen,Overijssel,VBO,6.773838,52.368244
Weemselerweg,34,,,7665TX,Albergen,Tubbergen,Overijssel,VBO,6.773754,52.368220
Weemselerweg,36,a,,7665TX,Albergen,Tubbergen,Overijssel,VBO,6.774883,52.367875
Weemselerweg,36,,,7665TX,Albergen,Tubbergen,Overijssel,VBO,6.774969,52.367816
Weemselerweg,37,,,7665TX,Albergen,Tubbergen,Overijssel,VBO,6.772669,52.348862
Weemselerweg,38,,,7665TX,Albergen,Tubbergen,Overijssel,VBO,6.776392,52.356055
Weemselerweg,40,,,7665TX,Albergen,Tubbergen,Overijssel,VBO,6.773571,52.354876
Weemselerweg,41,a,,7665TX,Albergen,Tubbergen,Overijssel,VBO,6.766779,52.348833
Weemselerweg,41,,,7665TX,Albergen,Tubbergen,Overijssel,VBO,6.767217,52.348637
Weemselerweg,43,,,7665TX,Albergen,Tubbergen,Overijssel,VBO,6.765030,52.348791
Zondermansweg,2,,,7665VA,Albergen,Tubbergen,Overijssel,VBO,6.760748,52.362172
Zondermansweg,4,,,7665VA,Albergen,Tubbergen,Overijssel,VBO,6.762735,52.361567
Zondermansweg,6,,,7665VA,Albergen,Tubbergen,Overijssel,VBO,6.764340,52.358298
Zondermansweg,8,a,,7665VA,Albergen,Tubbergen,Overijssel,VBO,6.765823,52.356617
Zondermansweg,8,,,7665VA,Albergen,Tubbergen,Overijssel,VBO,6.765757,52.356672
Zondermansweg,9,,,7665VA,Albergen,Tubbergen,Overijssel,VBO,6.767084,52.356453
Zondermansweg,11,a,,7665VA,Albergen,Tubbergen,Overijssel,VBO,6.771493,52.355144
Zondermansweg,11,,,7665VA,Albergen,Tubbergen,Overijssel,VBO,6.771311,52.355122
Zondermansweg,12,a,,7665VA,Albergen,Tubbergen,Overijssel,VBO,6.767591,52.355446
Zondermansweg,12,,,7665VA,Albergen,Tubbergen,Overijssel,VBO,6.767497,52.355544
Zondermansweg,13,,,7665VA,Albergen,Tubbergen,Overijssel,VBO,6.773305,52.353706
Diekersweg,1,,,7665VB,Albergen,Tubbergen,Overijssel,VBO,6.777375,52.360312
Diekersweg,2,a,,7665VB,Albergen,Tubbergen,Overijssel,VBO,6.773296,52.359093
Diekersweg,2,,,7665VB,Albergen,Tubbergen,Overijssel,VBO,6.773198,52.359081
Diekersweg,4,,,7665VB,Albergen,Tubbergen,Overijssel,VBO,6.769628,52.357624
Diekersweg,6,a,,7665VB,Albergen,Tubbergen,Overijssel,VBO,6.768066,52.357607
Diekersweg,6,,,7665VB,Albergen,Tubbergen,Overijssel,VBO,6.768149,52.357646
Diekersweg,9,a,,7665VB,Albergen,Tubbergen,Overijssel,VBO,6.766783,52.355083
Diekersweg,9,,,7665VB,Albergen,Tubbergen,Overijssel,VBO,6.766649,52.354913
Diekersweg,11,a,,7665VB,Albergen,Tubbergen,Overijssel,VBO,6.763933,52.352898
Diekersweg,11,,,7665VB,Albergen,Tubbergen,Overijssel,VBO,6.764024,52.352965
Diekersweg,12,,,7665VB,Albergen,Tubbergen,Overijssel,VBO,6.762076,52.352509
Veldhoeksweg,2,a,,7665VC,Albergen,Tubbergen,Overijssel,VBO,6.762644,52.358186
Veldhoeksweg,2,,,7665VC,Albergen,Tubbergen,Overijssel,VBO,6.762783,52.358217
Kanaalweg,3,,,7665VD,Albergen,Tubbergen,Overijssel,VBO,6.764474,52.368690
Kanaalweg,4,,,7665VD,Albergen,Tubbergen,Overijssel,VBO,6.763940,52.368665
Kanaalweg,5,,,7665VD,Albergen,Tubbergen,Overijssel,VBO,6.764583,52.368567
Kanaalweg,7,a,,7665VD,Albergen,Tubbergen,Overijssel,VBO,6.764687,52.368430
Kanaalweg,7,,,7665VD,Albergen,Tubbergen,Overijssel,VBO,6.764745,52.368375
Kanaalweg,8,,,7665VD,Albergen,Tubbergen,Overijssel,VBO,6.764239,52.368282
Kanaalweg,9,,,7665VD,Albergen,Tubbergen,Overijssel,VBO,6.765507,52.367401
Kanaalweg,10,,,7665VD,Albergen,Tubbergen,Overijssel,VBO,6.764325,52.368153
Kanaalweg,11,,,7665VD,Albergen,Tubbergen,Overijssel,VBO,6.765577,52.367264
Kanaalweg,13,,,7665VD,Albergen,Tubbergen,Overijssel,VBO,6.765613,52.367208
Kanaalweg,15,,,7665VD,Albergen,Tubbergen,Overijssel,VBO,6.765722,52.367067
Kanaalweg,17,,,7665VD,Albergen,Tubbergen,Overijssel,VBO,6.765794,52.366965
Kanaalweg,19,,,7665VD,Albergen,Tubbergen,Overijssel,VBO,6.765957,52.366736
Kanaalweg,21,,,7665VD,Albergen,Tubbergen,Overijssel,VBO,6.766125,52.366550
Kanaalweg,23,,,7665VD,Albergen,Tubbergen,Overijssel,VBO,6.766193,52.366412
Kanaalweg,24,a,,7665VD,Albergen,Tubbergen,Overijssel,VBO,6.764792,52.367023
Kanaalweg,24,,,7665VD,Albergen,Tubbergen,Overijssel,VBO,6.764722,52.367105
Kanaalweg,31,a,,7665VD,Albergen,Tubbergen,Overijssel,VBO,6.766625,52.365867
Kanaalweg,31,,,7665VD,Albergen,Tubbergen,Overijssel,VBO,6.766587,52.365925
Kanaalweg,36,,,7665VD,Albergen,Tubbergen,Overijssel,VBO,6.764790,52.365806
Kanaalweg,48,,,7665VD,Albergen,Tubbergen,Overijssel,VBO,6.766726,52.364595
Molendijk,1,,,7665VE,Albergen,Tubbergen,Overijssel,VBO,6.762252,52.368595
Molendijk,2,,,7665VE,Albergen,Tubbergen,Overijssel,VBO,6.765551,52.367593
Molendijk,4,,,7665VE,Albergen,Tubbergen,Overijssel,VBO,6.765792,52.367541
Molendijk,6,,,7665VE,Albergen,Tubbergen,Overijssel,VBO,6.766092,52.367441
Molendijk,7,,,7665VE,Albergen,Tubbergen,Overijssel,VBO,6.764997,52.368069
Molendijk,8,,,7665VE,Albergen,Tubbergen,Overijssel,VBO,6.766126,52.367404
Molendijk,9,,,7665VE,Albergen,Tubbergen,Overijssel,VBO,6.765243,52.367952
Molendijk,10,,,7665VE,Albergen,Tubbergen,Overijssel,VBO,6.766193,52.367311
Molendijk,12,,,7665VE,Albergen,Tubbergen,Overijssel,VBO,6.766242,52.367261
Molendijk,13,,,7665VE,Albergen,Tubbergen,Overijssel,VBO,6.766315,52.367701
Molendijk,15,,,7665VE,Albergen,Tubbergen,Overijssel,VBO,6.766533,52.367773
Molendijk,17,,,7665VE,Albergen,Tubbergen,Overijssel,VBO,6.766743,52.367819
Molendijk,19,,,7665VE,Albergen,Tubbergen,Overijssel,VBO,6.767312,52.367728
Molendijk,21,,,7665VE,Albergen,Tubbergen,Overijssel,VBO,6.767359,52.367667
Molendijk,23,,,7665VE,Albergen,Tubbergen,Overijssel,VBO,6.767462,52.367537
Molendijk,25,,,7665VE,Albergen,Tubbergen,Overijssel,VBO,6.767500,52.367481
Molendijk,26,,,7665VE,Albergen,Tubbergen,Overijssel,VBO,6.766964,52.367003
Molendijk,27,,,7665VE,Albergen,Tubbergen,Overijssel,VBO,6.768149,52.367328
Molendijk,28,,,7665VE,Albergen,Tubbergen,Overijssel,VBO,6.767040,52.367025
Molendijk,29,,,7665VE,Albergen,Tubbergen,Overijssel,VBO,6.768412,52.367270
Molendijk,30,,,7665VE,Albergen,Tubbergen,Overijssel,VBO,6.767118,52.367045
Molendijk,32,,,7665VE,Albergen,Tubbergen,Overijssel,VBO,6.767187,52.367065
Molendijk,34,,,7665VE,Albergen,Tubbergen,Overijssel,VBO,6.767349,52.367115
Molendijk,36,,,7665VE,Albergen,Tubbergen,Overijssel,VBO,6.767424,52.367142
Molendijk,38,,,7665VE,Albergen,Tubbergen,Overijssel,VBO,6.767764,52.367089
Molendijk,40,,,7665VE,Albergen,Tubbergen,Overijssel,VBO,6.767987,52.366968
Molendijk,43,,,7665VE,Albergen,Tubbergen,Overijssel,VBO,6.770659,52.366829
Molendijk,52,a,,7665VE,Albergen,Tubbergen,Overijssel,VBO,6.771250,52.366296
Molendijk,52,,,7665VE,Albergen,Tubbergen,Overijssel,VBO,6.771278,52.366344
Molendijk,54,,,7665VE,Albergen,Tubbergen,Overijssel,VBO,6.773106,52.365874
Molendijk,56,,,7665VE,Albergen,Tubbergen,Overijssel,VBO,6.774314,52.365225
Molendijk,58,,,7665VE,Albergen,Tubbergen,Overijssel,VBO,6.775578,52.365433
Morsdijk,3,a,,7665VG,Albergen,Tubbergen,Overijssel,VBO,6.777732,52.370081
Morsdijk,3,,,7665VG,Albergen,Tubbergen,Overijssel,VBO,6.777719,52.369997
Morsdijk,4,,,7665VG,Albergen,Tubbergen,Overijssel,VBO,6.781006,52.368243
Morsdijk,5,a,,7665VG,Albergen,Tubbergen,Overijssel,VBO,6.782555,52.369745
Morsdijk,5,,,7665VG,Albergen,Tubbergen,Overijssel,VBO,6.782636,52.369685
Morsdijk,6,,,7665VG,Albergen,Tubbergen,Overijssel,VBO,6.780836,52.368265
Brakenweg,1,a,,7665VH,Albergen,Tubbergen,Overijssel,VBO,6.776388,52.373649
Brakenweg,1,,,7665VH,Albergen,Tubbergen,Overijssel,VBO,6.776535,52.373697
Brakenweg,5,a,,7665VH,Albergen,Tubbergen,Overijssel,VBO,6.776201,52.370733
Brakenweg,5,,,7665VH,Albergen,Tubbergen,Overijssel,VBO,6.776157,52.370667
Brakenweg,7,a,,7665VH,Albergen,Tubbergen,Overijssel,VBO,6.775930,52.370230
Brakenweg,7,,,7665VH,Albergen,Tubbergen,Overijssel,VBO,6.775889,52.370153
Beltmolen,3,,,7665VJ,Albergen,Tubbergen,Overijssel,VBO,6.766525,52.366504
Beltmolen,5,,,7665VJ,Albergen,Tubbergen,Overijssel,VBO,6.766608,52.366525
Beltmolen,7,,,7665VJ,Albergen,Tubbergen,Overijssel,VBO,6.766803,52.366609
Beltmolen,9,,,7665VJ,Albergen,Tubbergen,Overijssel,VBO,6.766891,52.366635
Beltmolen,11,,,7665VJ,Albergen,Tubbergen,Overijssel,VBO,6.767224,52.366747
Beltmolen,13,,,7665VJ,Albergen,Tubbergen,Overijssel,VBO,6.767306,52.366763
Beltmolen,15,,,7665VJ,Albergen,Tubbergen,Overijssel,VBO,6.767526,52.366844
Beltmolen,17,,,7665VJ,Albergen,Tubbergen,Overijssel,VBO,6.767618,52.366870
Boekweitmolen,1,,,7665VK,Albergen,Tubbergen,Overijssel,VBO,6.766262,52.367162
Boekweitmolen,3,,,7665VK,Albergen,Tubbergen,Overijssel,VBO,6.766314,52.367174
Boekweitmolen,4,,,7665VK,Albergen,Tubbergen,Overijssel,VBO,6.766259,52.366810
Boekweitmolen,5,,,7665VK,Albergen,Tubbergen,Overijssel,VBO,6.766363,52.367188
Boekweitmolen,6,,,7665VK,Albergen,Tubbergen,Overijssel,VBO,6.766337,52.366833
Boekweitmolen,7,,,7665VK,Albergen,Tubbergen,Overijssel,VBO,6.766326,52.367069
Boekweitmolen,8,,,7665VK,Albergen,Tubbergen,Overijssel,VBO,6.766544,52.366904
Boekweitmolen,9,,,7665VK,Albergen,Tubbergen,Overijssel,VBO,6.766375,52.367085
Boekweitmolen,10,,,7665VK,Albergen,Tubbergen,Overijssel,VBO,6.766645,52.366938
Boekweitmolen,11,,,7665VK,Albergen,Tubbergen,Overijssel,VBO,6.766429,52.367101
