openbareruimtenaam,huisnummer,huisletter,huisnummertoevoeging,postcode,woonplaatsnaam,gemeentenaam,provincienaam,typeadresseerbaarobject,longitude,latitude
Het Loosan,7,,,7667NA,Reutum,Tubbergen,Overijssel,VBO,6.841758,52.394198
Het Loosan,9,,,7667NA,Reutum,Tubbergen,Overijssel,VBO,6.841690,52.394063
Het Loosan,11,,,7667NA,Reutum,Tubbergen,Overijssel,VBO,6.841690,52.394011
Het Loosan,17,,,7667NA,Reutum,Tubbergen,Overijssel,VBO,6.841894,52.393625
Het Loosan,19,,,7667NA,Reutum,Tubbergen,Overijssel,VBO,6.841819,52.393550
Het Loosan,25,,,7667NA,Reutum,Tubbergen,Overijssel,VBO,6.841291,52.393364
Het Loosan,27,,,7667NA,Reutum,Tubbergen,Overijssel,VBO,6.841143,52.393466
Het Loosan,29,,,7667NA,Reutum,Tubbergen,Overijssel,VBO,6.841032,52.393618
Het Loosan,31,,,7667NA,Reutum,Tubbergen,Overijssel,VBO,6.841341,52.393746
Het Loosan,33,,,7667NA,Reutum,Tubbergen,Overijssel,VBO,6.841308,52.393899
Het Loosan,39,,,7667NA,Reutum,Tubbergen,Overijssel,VBO,6.840690,52.394162
Het Loosan,41,,,7667NA,Reutum,Tubbergen,Overijssel,VBO,6.840694,52.394098
Klumperstraat,1,,,7667PA,Reutum,Tubbergen,Overijssel,VBO,6.845127,52.389218
Klumperstraat,2,,,7667PA,Reutum,Tubbergen,Overijssel,VBO,6.845396,52.388803
Klumperstraat,3,,,7667PA,Reutum,Tubbergen,Overijssel,VBO,6.845286,52.389021
Klumperstraat,5,,,7667PA,Reutum,Tubbergen,Overijssel,VBO,6.845383,52.389036
Klumperstraat,7,,,7667PA,Reutum,Tubbergen,Overijssel,VBO,6.845572,52.389073
Klumperstraat,8,,,7667PA,Reutum,Tubbergen,Overijssel,VBO,6.845791,52.388828
Klumperstraat,9,,,7667PA,Reutum,Tubbergen,Overijssel,VBO,6.845782,52.389106
Klumperstraat,10,,,7667PA,Reutum,Tubbergen,Overijssel,VBO,6.846008,52.388804
Klumperstraat,11,,,7667PA,Reutum,Tubbergen,Overijssel,VBO,6.846016,52.389115
Klumperstraat,12,,,7667PA,Reutum,Tubbergen,Overijssel,VBO,6.846827,52.388696
Klumperstraat,13,,,7667PA,Reutum,Tubbergen,Overijssel,VBO,6.846233,52.389114
Klumperstraat,14,,,7667PA,Reutum,Tubbergen,Overijssel,VBO,6.846923,52.388569
Klumperstraat,15,,,7667PA,Reutum,Tubbergen,Overijssel,VBO,6.846327,52.389103
Klumperstraat,16,,,7667PA,Reutum,Tubbergen,Overijssel,VBO,6.847010,52.388462
Klumperstraat,18,,,7667PA,Reutum,Tubbergen,Overijssel,VBO,6.847321,52.388304
Klumperstraat,19,,,7667PA,Reutum,Tubbergen,Overijssel,VBO,6.846617,52.389068
Klumperstraat,20,,,7667PA,Reutum,Tubbergen,Overijssel,VBO,6.847495,52.388086
Klumperstraat,21,,,7667PA,Reutum,Tubbergen,Overijssel,VBO,6.846857,52.389036
Klumperstraat,22,,,7667PA,Reutum,Tubbergen,Overijssel,VBO,6.847239,52.387942
Klumperstraat,23,,,7667PA,Reutum,Tubbergen,Overijssel,VBO,6.847495,52.388876
Klumperstraat,24,,,7667PA,Reutum,Tubbergen,Overijssel,VBO,6.846978,52.387864
Klumperstraat,25,,,7667PA,Reutum,Tubbergen,Overijssel,VBO,6.847417,52.388849
Klumperstraat,26,,,7667PA,Reutum,Tubbergen,Overijssel,VBO,6.846714,52.387553
Klumperstraat,27,,,7667PA,Reutum,Tubbergen,Overijssel,VBO,6.847337,52.388797
Klumperstraat,28,,,7667PA,Reutum,Tubbergen,Overijssel,VBO,6.846432,52.387394
Klumperstraat,29,,,7667PA,Reutum,Tubbergen,Overijssel,VBO,6.847260,52.388763
Klumperstraat,30,,,7667PA,Reutum,Tubbergen,Overijssel,VBO,6.846248,52.387290
Klumperstraat,31,,,7667PA,Reutum,Tubbergen,Overijssel,VBO,6.847483,52.388647
Klumperstraat,32,,,7667PA,Reutum,Tubbergen,Overijssel,VBO,6.846031,52.387183
Klumperstraat,33,,,7667PA,Reutum,Tubbergen,Overijssel,VBO,6.847535,52.388592
Klumperstraat,34,,,7667PA,Reutum,Tubbergen,Overijssel,VBO,6.845775,52.387114
Klumperstraat,35,,,7667PA,Reutum,Tubbergen,Overijssel,VBO,6.847715,52.388483
Klumperstraat,36,,,7667PA,Reutum,Tubbergen,Overijssel,VBO,6.845560,52.387052
Klumperstraat,37,,,7667PA,Reutum,Tubbergen,Overijssel,VBO,6.847912,52.388289
Klumperstraat,51,,,7667PA,Reutum,Tubbergen,Overijssel,VBO,6.845272,52.386816
Hogeveldsweg,10,a,,7667PB,Reutum,Tubbergen,Overijssel,VBO,6.853460,52.404941
Hogeveldsweg,10,,,7667PB,Reutum,Tubbergen,Overijssel,VBO,6.853284,52.405228
Hogeveldsweg,16,,,7667PB,Reutum,Tubbergen,Overijssel,VBO,6.854317,52.402803
Ootmarsumseweg,303,a,,7667PB,Reutum,Tubbergen,Overijssel,VBO,6.824978,52.388371
Ootmarsumseweg,303,,,7667PB,Reutum,Tubbergen,Overijssel,VBO,6.825094,52.388191
Ootmarsumseweg,311,,,7667PB,Reutum,Tubbergen,Overijssel,VBO,6.830934,52.392313
Ootmarsumseweg,315,a,,7667PB,Reutum,Tubbergen,Overijssel,VBO,6.831523,52.391655
Ootmarsumseweg,315,,,7667PB,Reutum,Tubbergen,Overijssel,VBO,6.831557,52.391607
Ootmarsumseweg,319,a,,7667PB,Reutum,Tubbergen,Overijssel,VBO,6.834209,52.392801
Ootmarsumseweg,319,,,7667PB,Reutum,Tubbergen,Overijssel,VBO,6.834303,52.392881
Ootmarsumseweg,321,,,7667PB,Reutum,Tubbergen,Overijssel,VBO,6.835021,52.393236
Ootmarsumseweg,325,,,7667PB,Reutum,Tubbergen,Overijssel,VBO,6.837262,52.394709
Ootmarsumseweg,335,,,7667PB,Reutum,Tubbergen,Overijssel,VBO,6.839060,52.394866
Ootmarsumseweg,337,,,7667PB,Reutum,Tubbergen,Overijssel,VBO,6.839309,52.394886
Ootmarsumseweg,353,a,,7667PB,Reutum,Tubbergen,Overijssel,VBO,6.840601,52.396279
Ootmarsumseweg,353,,,7667PB,Reutum,Tubbergen,Overijssel,VBO,6.840612,52.396149
Ootmarsumseweg,355,,,7667PB,Reutum,Tubbergen,Overijssel,VBO,6.841384,52.396272
Ootmarsumseweg,363,,,7667PB,Reutum,Tubbergen,Overijssel,VBO,6.842346,52.395969
Ootmarsumseweg,369,,,7667PB,Reutum,Tubbergen,Overijssel,VBO,6.856470,52.400337
Ootmarsumseweg,371,,,7667PB,Reutum,Tubbergen,Overijssel,VBO,6.856626,52.400391
Ootmarsumseweg,375,,,7667PB,Reutum,Tubbergen,Overijssel,VBO,6.857096,52.400634
Ootmarsumseweg,377,,,7667PB,Reutum,Tubbergen,Overijssel,VBO,6.857507,52.400797
Ootmarsumseweg,381,,,7667PB,Reutum,Tubbergen,Overijssel,VBO,6.858335,52.401337
Ootmarsumseweg,385,,,7667PB,Reutum,Tubbergen,Overijssel,VBO,6.859780,52.402187
Ootmarsumseweg,316,,,7667PC,Reutum,Tubbergen,Overijssel,VBO,6.833199,52.391504
Ootmarsumseweg,320,,,7667PC,Reutum,Tubbergen,Overijssel,VBO,6.835722,52.392888
Ootmarsumseweg,324,a,,7667PC,Reutum,Tubbergen,Overijssel,VBO,6.837083,52.393592
Ootmarsumseweg,324,,,7667PC,Reutum,Tubbergen,Overijssel,VBO,6.837164,52.393638
Ootmarsumseweg,326,,,7667PC,Reutum,Tubbergen,Overijssel,VBO,6.838598,52.394166
Ootmarsumseweg,328,,,7667PC,Reutum,Tubbergen,Overijssel,VBO,6.839254,52.394212
Ootmarsumseweg,330,a,,7667PC,Reutum,Tubbergen,Overijssel,VBO,6.839036,52.394439
Ootmarsumseweg,330,,,7667PC,Reutum,Tubbergen,Overijssel,VBO,6.839131,52.394508
Ootmarsumseweg,332,a,,7667PC,Reutum,Tubbergen,Overijssel,VBO,6.839780,52.394436
Ootmarsumseweg,332,,,7667PC,Reutum,Tubbergen,Overijssel,VBO,6.839329,52.394551
Ootmarsumseweg,340,,,7667PC,Reutum,Tubbergen,Overijssel,VBO,6.840330,52.394830
Ootmarsumseweg,342,,,7667PC,Reutum,Tubbergen,Overijssel,VBO,6.840937,52.394477
Ootmarsumseweg,348,,,7667PC,Reutum,Tubbergen,Overijssel,VBO,6.841182,52.395002
Ootmarsumseweg,360,,,7667PC,Reutum,Tubbergen,Overijssel,VBO,6.842468,52.395474
Ootmarsumseweg,362,,,7667PC,Reutum,Tubbergen,Overijssel,VBO,6.843149,52.395665
Ootmarsumseweg,374,,,7667PC,Reutum,Tubbergen,Overijssel,VBO,6.857348,52.400080
Ootmarsumseweg,386,,,7667PC,Reutum,Tubbergen,Overijssel,VBO,6.861568,52.402007
Ootmarsumseweg,388,a,,7667PC,Reutum,Tubbergen,Overijssel,VBO,6.862448,52.402292
Ootmarsumseweg,388,,,7667PC,Reutum,Tubbergen,Overijssel,VBO,6.862361,52.402269
Koopmanstraat,1,,,7667PD,Reutum,Tubbergen,Overijssel,VBO,6.846472,52.388795
Koopmanstraat,3,,,7667PD,Reutum,Tubbergen,Overijssel,VBO,6.846442,52.388679
Koopmanstraat,4,,,7667PD,Reutum,Tubbergen,Overijssel,VBO,6.845896,52.388601
Koopmanstraat,5,,,7667PD,Reutum,Tubbergen,Overijssel,VBO,6.846361,52.388561
Koopmanstraat,6,,,7667PD,Reutum,Tubbergen,Overijssel,VBO,6.845848,52.388470
Koopmanstraat,7,,,7667PD,Reutum,Tubbergen,Overijssel,VBO,6.846342,52.388360
Koopmanstraat,8,,,7667PD,Reutum,Tubbergen,Overijssel,VBO,6.845928,52.388339
Koopmanstraat,9,,,7667PD,Reutum,Tubbergen,Overijssel,VBO,6.846587,52.388345
Koopmanstraat,10,,,7667PD,Reutum,Tubbergen,Overijssel,VBO,6.846019,52.388138
Koopmanstraat,11,,,7667PD,Reutum,Tubbergen,Overijssel,VBO,6.846830,52.388118
Koopmanstraat,12,,,7667PD,Reutum,Tubbergen,Overijssel,VBO,6.846107,52.387985
Holsmanweg,5,,,7667PE,Reutum,Tubbergen,Overijssel,VBO,6.835624,52.396782
Holsmanweg,12,a,,7667PE,Reutum,Tubbergen,Overijssel,VBO,6.840809,52.396906
Holsmanweg,12,,,7667PE,Reutum,Tubbergen,Overijssel,VBO,6.840710,52.396915
Holsmanweg,13,,,7667PE,Reutum,Tubbergen,Overijssel,VBO,6.840840,52.397510
Velinksweg,5,a,,7667PG,Reutum,Tubbergen,Overijssel,VBO,6.835376,52.400170
Velinksweg,5,,,7667PG,Reutum,Tubbergen,Overijssel,VBO,6.835173,52.400113
Velinksweg,8,,,7667PG,Reutum,Tubbergen,Overijssel,VBO,6.835055,52.399008
Velinksweg,12,a,,7667PG,Reutum,Tubbergen,Overijssel,VBO,6.837031,52.397686
Velinksweg,12,,,7667PG,Reutum,Tubbergen,Overijssel,VBO,6.836954,52.397746
Velinksweg,13,a,,7667PG,Reutum,Tubbergen,Overijssel,VBO,6.836998,52.398332
Velinksweg,13,,,7667PG,Reutum,Tubbergen,Overijssel,VBO,6.837101,52.398293
Velinksweg,14,a,,7667PG,Reutum,Tubbergen,Overijssel,VBO,6.837517,52.397355
Velinksweg,14,,,7667PG,Reutum,Tubbergen,Overijssel,VBO,6.837425,52.397402
Velinksweg,18,,,7667PG,Reutum,Tubbergen,Overijssel,VBO,6.838201,52.396581
Velinksweg,20,,,7667PG,Reutum,Tubbergen,Overijssel,VBO,6.838020,52.396105
Velinksweg,21,,,7667PG,Reutum,Tubbergen,Overijssel,VBO,6.838970,52.396223
Velinksweg,25,a,,7667PG,Reutum,Tubbergen,Overijssel,VBO,6.838677,52.395742
Velinksweg,25,,,7667PG,Reutum,Tubbergen,Overijssel,VBO,6.838647,52.395681
Velinksweg,34,,,7667PG,Reutum,Tubbergen,Overijssel,VBO,6.838306,52.394866
RÃ¶tgerinksweg,9,,,7667PH,Reutum,Tubbergen,Overijssel,VBO,6.837807,52.400446
Reutummerweg,63,,,7667PJ,Reutum,Tubbergen,Overijssel,VBO,6.829221,52.395263
Reutummerweg,65,,ZH02,7667PJ,Reutum,Tubbergen,Overijssel,VBO,6.831412,52.394711
Reutummerweg,65,,ZH03,7667PJ,Reutum,Tubbergen,Overijssel,VBO,6.831834,52.394729
Reutummerweg,65,,ZH04,7667PJ,Reutum,Tubbergen,Overijssel,VBO,6.831534,52.394984
Reutummerweg,65,,ZH05,7667PJ,Reutum,Tubbergen,Overijssel,VBO,6.831947,52.394993
Reutummerweg,65,,ZH06,7667PJ,Reutum,Tubbergen,Overijssel,VBO,6.832461,52.395112
Reutummerweg,65,,ZH07,7667PJ,Reutum,Tubbergen,Overijssel,VBO,6.832286,52.395354
Reutummerweg,65,,ZH08,7667PJ,Reutum,Tubbergen,Overijssel,VBO,6.831780,52.395249
Reutummerweg,65,,ZH09,7667PJ,Reutum,Tubbergen,Overijssel,VBO,6.831935,52.395456
Reutummerweg,65,,ZH10,7667PJ,Reutum,Tubbergen,Overijssel,VBO,6.832111,52.395685
Reutummerweg,65,,ZH11,7667PJ,Reutum,Tubbergen,Overijssel,VBO,6.832473,52.395592
Reutummerweg,65,,ZH12,7667PJ,Reutum,Tubbergen,Overijssel,VBO,6.832278,52.395902
Reutummerweg,65,,ZH13,7667PJ,Reutum,Tubbergen,Overijssel,VBO,6.832678,52.395885
Reutummerweg,65,,ZH14,7667PJ,Reutum,Tubbergen,Overijssel,VBO,6.832431,52.396133
Reutummerweg,65,,ZH15,7667PJ,Reutum,Tubbergen,Overijssel,VBO,6.832616,52.396340
Reutummerweg,65,,ZH16,7667PJ,Reutum,Tubbergen,Overijssel,VBO,6.832824,52.396553
Reutummerweg,65,,ZH17,7667PJ,Reutum,Tubbergen,Overijssel,VBO,6.833172,52.396402
Reutummerweg,65,,ZH18,7667PJ,Reutum,Tubbergen,Overijssel,VBO,6.833219,52.396811
Reutummerweg,65,,ZH19,7667PJ,Reutum,Tubbergen,Overijssel,VBO,6.833575,52.396982
Reutummerweg,65,,ZH20,7667PJ,Reutum,Tubbergen,Overijssel,VBO,6.833652,52.396689
Reutummerweg,65,,ZH21,7667PJ,Reutum,Tubbergen,Overijssel,VBO,6.833648,52.396463
Reutummerweg,65,,ZH22,7667PJ,Reutum,Tubbergen,Overijssel,VBO,6.833585,52.396181
Reutummerweg,65,,ZH23,7667PJ,Reutum,Tubbergen,Overijssel,VBO,6.833121,52.396035
Reutummerweg,65,,ZH24,7667PJ,Reutum,Tubbergen,Overijssel,VBO,6.833483,52.395939
Reutummerweg,65,,ZH25,7667PJ,Reutum,Tubbergen,Overijssel,VBO,6.833385,52.395704
Reutummerweg,65,,ZH26,7667PJ,Reutum,Tubbergen,Overijssel,VBO,6.833288,52.395467
Reutummerweg,65,,ZH27,7667PJ,Reutum,Tubbergen,Overijssel,VBO,6.833157,52.395219
Reutummerweg,65,,ZH28,7667PJ,Reutum,Tubbergen,Overijssel,VBO,6.833052,52.394971
Reutummerweg,65,,ZH29,7667PJ,Reutum,Tubbergen,Overijssel,VBO,6.832977,52.394759
Reutummerweg,65,,ZH30,7667PJ,Reutum,Tubbergen,Overijssel,VBO,6.832566,52.394837
Reutummerweg,65,,ZH31,7667PJ,Reutum,Tubbergen,Overijssel,VBO,6.832103,52.394740
Reutummerweg,65,,ZH32,7667PJ,Reutum,Tubbergen,Overijssel,VBO,6.832196,52.394854
Reutummerweg,65,,ZH33,7667PJ,Reutum,Tubbergen,Overijssel,VBO,6.832887,52.395738
Reutummerweg,65,,,7667PJ,Reutum,Tubbergen,Overijssel,VBO,6.832276,52.394347
Reutummerweg,67,a,,7667PJ,Reutum,Tubbergen,Overijssel,VBO,6.832625,52.394292
Reutummerweg,67,,,7667PJ,Reutum,Tubbergen,Overijssel,VBO,6.832494,52.394305
Reutummerweg,69,a,,7667PJ,Reutum,Tubbergen,Overijssel,VBO,6.833111,52.394053
Reutummerweg,69,,,7667PJ,Reutum,Tubbergen,Overijssel,VBO,6.833163,52.394130
Reutummerweg,74,a,,7667PJ,Reutum,Tubbergen,Overijssel,VBO,6.834245,52.393397
Reutummerweg,74,,,7667PJ,Reutum,Tubbergen,Overijssel,VBO,6.834116,52.393403
Reutummerweg,76,,,7667PJ,Reutum,Tubbergen,Overijssel,VBO,6.834557,52.393249
Reutummerweg,77,a,,7667PJ,Reutum,Tubbergen,Overijssel,VBO,6.835401,52.393711
Reutummerweg,77,,,7667PJ,Reutum,Tubbergen,Overijssel,VBO,6.835335,52.393646
Venhuisweg,9,,,7667PJ,Reutum,Tubbergen,Overijssel,VBO,6.832416,52.397926
Venhuisweg,15,,,7667PJ,Reutum,Tubbergen,Overijssel,VBO,6.830780,52.396190
Venhuisweg,16,a,,7667PJ,Reutum,Tubbergen,Overijssel,VBO,6.829832,52.395840
Venhuisweg,16,,,7667PJ,Reutum,Tubbergen,Overijssel,VBO,6.829721,52.395755
Weustboerweg,3,,,7667PK,Reutum,Tubbergen,Overijssel,VBO,6.826188,52.390359
Weustboerweg,5,,,7667PK,Reutum,Tubbergen,Overijssel,VBO,6.825721,52.390520
Weustboerweg,6,,,7667PK,Reutum,Tubbergen,Overijssel,VBO,6.821322,52.394116
Sluttenweg,8,a,,7667PL,Reutum,Tubbergen,Overijssel,VBO,6.837257,52.392041
Sluttenweg,8,,,7667PL,Reutum,Tubbergen,Overijssel,VBO,6.837123,52.392030
Sluttenweg,10,,,7667PL,Reutum,Tubbergen,Overijssel,VBO,6.837990,52.391784
Sluttenweg,14,a,,7667PL,Reutum,Tubbergen,Overijssel,VBO,6.838943,52.391306
Sluttenweg,14,,,7667PL,Reutum,Tubbergen,Overijssel,VBO,6.838868,52.391367
Sluttenweg,15,,,7667PL,Reutum,Tubbergen,Overijssel,VBO,6.838885,52.391922
Haarlefertsweg,1,,,7667PM,Reutum,Tubbergen,Overijssel,VBO,6.844459,52.390552
Haarlefertsweg,3,,,7667PM,Reutum,Tubbergen,Overijssel,VBO,6.844202,52.390534
Haarlefertsweg,5,,,7667PM,Reutum,Tubbergen,Overijssel,VBO,6.843774,52.390447
Haarlefertsweg,7,,,7667PM,Reutum,Tubbergen,Overijssel,VBO,6.843580,52.390446
Haarlefertsweg,9,,,7667PM,Reutum,Tubbergen,Overijssel,VBO,6.843385,52.390410
Haarlefertsweg,11,,,7667PM,Reutum,Tubbergen,Overijssel,VBO,6.843185,52.390361
Haarlefertsweg,13,,,7667PM,Reutum,Tubbergen,Overijssel,VBO,6.843089,52.390359
Haarlefertsweg,20,a,,7667PM,Reutum,Tubbergen,Overijssel,VBO,6.840493,52.390335
Haarlefertsweg,20,,,7667PM,Reutum,Tubbergen,Overijssel,VBO,6.840589,52.390292
Haarlefertsweg,24,,,7667PM,Reutum,Tubbergen,Overijssel,VBO,6.838232,52.389592
Haarlefertsweg,26,,,7667PM,Reutum,Tubbergen,Overijssel,VBO,6.838144,52.389577
Haarlefertsweg,34,,,7667PM,Reutum,Tubbergen,Overijssel,VBO,6.827669,52.383049
Haarlefertsweg,39,,,7667PM,Reutum,Tubbergen,Overijssel,VBO,6.830062,52.381260
Haarlefertsweg,40,,,7667PM,Reutum,Tubbergen,Overijssel,VBO,6.828528,52.380588
Haarlefertsweg,42,,,7667PM,Reutum,Tubbergen,Overijssel,VBO,6.828560,52.378674
Teussestraat,3,,,7667PN,Reutum,Tubbergen,Overijssel,VBO,6.843054,52.390101
Teussestraat,5,,,7667PN,Reutum,Tubbergen,Overijssel,VBO,6.843043,52.390038
Teussestraat,7,,,7667PN,Reutum,Tubbergen,Overijssel,VBO,6.842987,52.389933
Teussestraat,9,,,7667PN,Reutum,Tubbergen,Overijssel,VBO,6.842977,52.389873
Pastoor Lauteslagerstraat,1,,,7667PP,Reutum,Tubbergen,Overijssel,VBO,6.844169,52.390356
Pastoor Lauteslagerstraat,2,,,7667PP,Reutum,Tubbergen,Overijssel,VBO,6.843783,52.390258
Pastoor Lauteslagerstraat,3,,,7667PP,Reutum,Tubbergen,Overijssel,VBO,6.844167,52.390290
Pastoor Lauteslagerstraat,4,,,7667PP,Reutum,Tubbergen,Overijssel,VBO,6.843744,52.390164
Pastoor Lauteslagerstraat,5,,,7667PP,Reutum,Tubbergen,Overijssel,VBO,6.844207,52.390173
Pastoor Lauteslagerstraat,6,,,7667PP,Reutum,Tubbergen,Overijssel,VBO,6.843741,52.390076
Pastoor Lauteslagerstraat,7,,,7667PP,Reutum,Tubbergen,Overijssel,VBO,6.844216,52.390042
Pastoor Lauteslagerstraat,8,,,7667PP,Reutum,Tubbergen,Overijssel,VBO,6.843737,52.389963
Pastoor Lauteslagerstraat,9,,,7667PP,Reutum,Tubbergen,Overijssel,VBO,6.844206,52.389909
Pastoor Lauteslagerstraat,10,,,7667PP,Reutum,Tubbergen,Overijssel,VBO,6.843725,52.389913
Brinkstraat,3,,,7667PR,Reutum,Tubbergen,Overijssel,VBO,6.846434,52.389518
Brinkstraat,5,,,7667PR,Reutum,Tubbergen,Overijssel,VBO,6.846231,52.389515
Brinkstraat,7,,,7667PR,Reutum,Tubbergen,Overijssel,VBO,6.846110,52.389518
Brinkstraat,9,,,7667PR,Reutum,Tubbergen,Overijssel,VBO,6.845939,52.389518
Brinkstraat,11,,,7667PR,Reutum,Tubbergen,Overijssel,VBO,6.845854,52.389519
Brinkstraat,13,,,7667PR,Reutum,Tubbergen,Overijssel,VBO,6.845665,52.389502
Brinkstraat,15,,,7667PR,Reutum,Tubbergen,Overijssel,VBO,6.845545,52.389502
Brinkstraat,17,,,7667PR,Reutum,Tubbergen,Overijssel,VBO,6.845279,52.389483
Brinkstraat,19,,,7667PR,Reutum,Tubbergen,Overijssel,VBO,6.845051,52.389498
Brinkstraat,21,,,7667PR,Reutum,Tubbergen,Overijssel,VBO,6.844669,52.389497
Brinkstraat,23,a,,7667PR,Reutum,Tubbergen,Overijssel,VBO,6.844411,52.389405
Brinkstraat,23,,,7667PR,Reutum,Tubbergen,Overijssel,VBO,6.844383,52.389486
Brinkstraat,25,a,,7667PR,Reutum,Tubbergen,Overijssel,VBO,6.843875,52.389057
Brinkstraat,25,,,7667PR,Reutum,Tubbergen,Overijssel,VBO,6.843991,52.389083
Brinkstraat,27,,,7667PR,Reutum,Tubbergen,Overijssel,VBO,6.843987,52.389006
Brinkstraat,37,,,7667PR,Reutum,Tubbergen,Overijssel,VBO,6.843284,52.389475
Brinkstraat,39,,,7667PR,Reutum,Tubbergen,Overijssel,VBO,6.843069,52.389467
Brinkstraat,2,,,7667PS,Reutum,Tubbergen,Overijssel,VBO,6.846408,52.389708
Brinkstraat,4,,,7667PS,Reutum,Tubbergen,Overijssel,VBO,6.846219,52.389707
Brinkstraat,6,,,7667PS,Reutum,Tubbergen,Overijssel,VBO,6.846054,52.389817
Brinkstraat,18,,,7667PS,Reutum,Tubbergen,Overijssel,VBO,6.845306,52.389861
Brinkstraat,22,,,7667PS,Reutum,Tubbergen,Overijssel,VBO,6.844560,52.389715
Brinkstraat,24,,,7667PS,Reutum,Tubbergen,Overijssel,VBO,6.844348,52.389709
Brinkstraat,26,,,7667PS,Reutum,Tubbergen,Overijssel,VBO,6.844165,52.389709
Brinkstraat,30,,,7667PS,Reutum,Tubbergen,Overijssel,VBO,6.843780,52.389704
Brinkstraat,32,,,7667PS,Reutum,Tubbergen,Overijssel,VBO,6.843578,52.389703
Brinkstraat,34,,,7667PS,Reutum,Tubbergen,Overijssel,VBO,6.843355,52.389696
Brinkstraat,36,,,7667PS,Reutum,Tubbergen,Overijssel,VBO,6.843259,52.389697
Brinkstraat,40,,,7667PS,Reutum,Tubbergen,Overijssel,VBO,6.842981,52.389708
Ikinkstraat,5,,,7667PT,Reutum,Tubbergen,Overijssel,VBO,6.845336,52.392776
Ikinkstraat,7,,,7667PT,Reutum,Tubbergen,Overijssel,VBO,6.845426,52.392695
Kerkstraat,1,,,7667PV,Reutum,Tubbergen,Overijssel,VBO,6.842477,52.395290
Kerkstraat,5,,,7667PV,Reutum,Tubbergen,Overijssel,VBO,6.842704,52.395150
Kerkstraat,7,a,,7667PV,Reutum,Tubbergen,Overijssel,VBO,6.842411,52.395097
Kerkstraat,7,,,7667PV,Reutum,Tubbergen,Overijssel,VBO,6.842402,52.395138
Kerkstraat,19,,,7667PV,Reutum,Tubbergen,Overijssel,VBO,6.842866,52.394902
Kerkstraat,21,,,7667PV,Reutum,Tubbergen,Overijssel,VBO,6.842883,52.394751
Kerkstraat,35,a,,7667PV,Reutum,Tubbergen,Overijssel,VBO,6.843925,52.394104
Kerkstraat,35,,,7667PV,Reutum,Tubbergen,Overijssel,VBO,6.843650,52.394001
Kerkstraat,37,,,7667PV,Reutum,Tubbergen,Overijssel,VBO,6.844123,52.393891
Kerkstraat,39,a,,7667PV,Reutum,Tubbergen,Overijssel,VBO,6.843875,52.393637
Kerkstraat,39,,,7667PV,Reutum,Tubbergen,Overijssel,VBO,6.843790,52.393733
Kerkstraat,47,,,7667PV,Reutum,Tubbergen,Overijssel,VBO,6.844161,52.393272
Kerkstraat,51,,,7667PV,Reutum,Tubbergen,Overijssel,VBO,6.844336,52.393141
Kerkstraat,55,,,7667PV,Reutum,Tubbergen,Overijssel,VBO,6.844485,52.393024
Kerkstraat,57,a,,7667PV,Reutum,Tubbergen,Overijssel,VBO,6.844418,52.392804
Kerkstraat,57,,,7667PV,Reutum,Tubbergen,Overijssel,VBO,6.844385,52.392785
Kerkstraat,75,,,7667PV,Reutum,Tubbergen,Overijssel,VBO,6.845749,52.391351
Kerkstraat,77,,,7667PV,Reutum,Tubbergen,Overijssel,VBO,6.846027,52.391181
Kerkstraat,81,a,,7667PV,Reutum,Tubbergen,Overijssel,VBO,6.847148,52.390835
Kerkstraat,81,,,7667PV,Reutum,Tubbergen,Overijssel,VBO,6.846494,52.391339
Kerkstraat,85,,,7667PV,Reutum,Tubbergen,Overijssel,VBO,6.847687,52.391195
Kerkstraat,87,,,7667PW,Reutum,Tubbergen,Overijssel,VBO,6.846092,52.390947
Kerkstraat,89,,,7667PW,Reutum,Tubbergen,Overijssel,VBO,6.846192,52.390829
Kerkstraat,91,,,7667PW,Reutum,Tubbergen,Overijssel,VBO,6.846429,52.390683
Kerkstraat,93,,,7667PW,Reutum,Tubbergen,Overijssel,VBO,6.846503,52.390588
Kerkstraat,95,,,7667PW,Reutum,Tubbergen,Overijssel,VBO,6.846597,52.390466
Kerkstraat,97,,,7667PW,Reutum,Tubbergen,Overijssel,VBO,6.846684,52.390348
Kerkstraat,99,,,7667PW,Reutum,Tubbergen,Overijssel,VBO,6.846717,52.390210
Kerkstraat,101,,,7667PW,Reutum,Tubbergen,Overijssel,VBO,6.846860,52.390017
Kerkstraat,103,a,,7667PW,Reutum,Tubbergen,Overijssel,VBO,6.847737,52.390045
Kerkstraat,103,,,7667PW,Reutum,Tubbergen,Overijssel,VBO,6.847047,52.389886
Kerkstraat,105,,,7667PW,Reutum,Tubbergen,Overijssel,VBO,6.847280,52.389716
Kerkstraat,107,,,7667PW,Reutum,Tubbergen,Overijssel,VBO,6.847612,52.389509
Kerkstraat,109,,,7667PW,Reutum,Tubbergen,Overijssel,VBO,6.847878,52.389341
Kerkstraat,111,,,7667PW,Reutum,Tubbergen,Overijssel,VBO,6.848048,52.389214
Kerkstraat,6,,,7667PX,Reutum,Tubbergen,Overijssel,VBO,6.841915,52.395105
Kerkstraat,10,,,7667PX,Reutum,Tubbergen,Overijssel,VBO,6.841987,52.394917
Kerkstraat,12,,,7667PX,Reutum,Tubbergen,Overijssel,VBO,6.842021,52.394735
Kerkstraat,14,,,7667PX,Reutum,Tubbergen,Overijssel,VBO,6.842090,52.394637
Kerkstraat,16,,,7667PX,Reutum,Tubbergen,Overijssel,VBO,6.842160,52.394595
Kerkstraat,20,,,7667PX,Reutum,Tubbergen,Overijssel,VBO,6.842307,52.394490
Kerkstraat,22,,,7667PX,Reutum,Tubbergen,Overijssel,VBO,6.842465,52.394353
Kerkstraat,24,,,7667PX,Reutum,Tubbergen,Overijssel,VBO,6.842635,52.394229
Kerkstraat,26,,,7667PX,Reutum,Tubbergen,Overijssel,VBO,6.842489,52.394181
Kerkstraat,30,,,7667PX,Reutum,Tubbergen,Overijssel,VBO,6.842737,52.394081
Kerkstraat,32,,,7667PX,Reutum,Tubbergen,Overijssel,VBO,6.842802,52.393958
Kerkstraat,34,,,7667PX,Reutum,Tubbergen,Overijssel,VBO,6.842927,52.393875
Kerkstraat,36,a,,7667PX,Reutum,Tubbergen,Overijssel,VBO,6.842690,52.393602
Kerkstraat,36,,,7667PX,Reutum,Tubbergen,Overijssel,VBO,6.842666,52.393661
Kerkstraat,38,,,7667PX,Reutum,Tubbergen,Overijssel,VBO,6.843242,52.393508
Kerkstraat,46,,,7667PX,Reutum,Tubbergen,Overijssel,VBO,6.843488,52.393045
Kerkstraat,48,,,7667PX,Reutum,Tubbergen,Overijssel,VBO,6.843684,52.393116
Kerkstraat,50,,,7667PX,Reutum,Tubbergen,Overijssel,VBO,6.843714,52.393073
Kerkstraat,54,a,,7667PX,Reutum,Tubbergen,Overijssel,VBO,6.843969,52.392652
Kerkstraat,54,,,7667PX,Reutum,Tubbergen,Overijssel,VBO,6.843938,52.392727
Kerkstraat,66,a,,7667PX,Reutum,Tubbergen,Overijssel,VBO,6.844449,52.391607
Kerkstraat,66,,,7667PX,Reutum,Tubbergen,Overijssel,VBO,6.844315,52.391592
Kerkstraat,78,,,7667PZ,Reutum,Tubbergen,Overijssel,VBO,6.845452,52.391138
Kerkstraat,88,,,7667PZ,Reutum,Tubbergen,Overijssel,VBO,6.845605,52.390579
Kerkstraat,94,a,,7667PZ,Reutum,Tubbergen,Overijssel,VBO,6.845975,52.390450
Kerkstraat,94,,,7667PZ,Reutum,Tubbergen,Overijssel,VBO,6.845462,52.390422
Kerkstraat,96,,,7667PZ,Reutum,Tubbergen,Overijssel,VBO,6.846184,52.390168
Kerkstraat,98,,,7667PZ,Reutum,Tubbergen,Overijssel,VBO,6.846333,52.389996
Kerkstraat,100,,,7667PZ,Reutum,Tubbergen,Overijssel,VBO,6.846614,52.389824
Kerkstraat,102,,,7667PZ,Reutum,Tubbergen,Overijssel,VBO,6.846660,52.389773
Kerkstraat,104,,,7667PZ,Reutum,Tubbergen,Overijssel,VBO,6.846702,52.389732
Kerkstraat,106,,,7667PZ,Reutum,Tubbergen,Overijssel,VBO,6.846926,52.389517
Kerkstraat,108,,,7667PZ,Reutum,Tubbergen,Overijssel,VBO,6.847108,52.389375
Kerkstraat,112,,,7667PZ,Reutum,Tubbergen,Overijssel,VBO,6.847292,52.389208
Kerkstraat,118,,,7667PZ,Reutum,Tubbergen,Overijssel,VBO,6.847693,52.389057
Kerkstraat,122,,,7667PZ,Reutum,Tubbergen,Overijssel,VBO,6.847952,52.388894
Kerkstraat,124,a,,7667PZ,Reutum,Tubbergen,Overijssel,VBO,6.848124,52.388721
Kerkstraat,124,,,7667PZ,Reutum,Tubbergen,Overijssel,VBO,6.848213,52.388668
Zonnebergweg,10,,,7667RC,Reutum,Tubbergen,Overijssel,VBO,6.860201,52.398403
Zonnebergweg,11,a,,7667RC,Reutum,Tubbergen,Overijssel,VBO,6.850177,52.391310
Zonnebergweg,11,,,7667RC,Reutum,Tubbergen,Overijssel,VBO,6.850035,52.391247
Zonnebergweg,15,a,,7667RC,Reutum,Tubbergen,Overijssel,VBO,6.850137,52.390872
Zonnebergweg,15,,,7667RC,Reutum,Tubbergen,Overijssel,VBO,6.850045,52.390829
Zonnebergweg,16,a,,7667RC,Reutum,Tubbergen,Overijssel,VBO,6.848570,52.392039
Zonnebergweg,16,,,7667RC,Reutum,Tubbergen,Overijssel,VBO,6.848602,52.391972
Zonnebergweg,19,,,7667RC,Reutum,Tubbergen,Overijssel,VBO,6.850881,52.390863
Zonnebergweg,20,,,7667RC,Reutum,Tubbergen,Overijssel,VBO,6.849325,52.389704
Zonnebergweg,23,,,7667RC,Reutum,Tubbergen,Overijssel,VBO,6.851633,52.389660
Benninksweg,4,,,7667RE,Reutum,Tubbergen,Overijssel,VBO,6.850498,52.388847
Nieuwematenweg,1,,,7667RH,Reutum,Tubbergen,Overijssel,VBO,6.848709,52.388289
Nieuwematenweg,3,,,7667RH,Reutum,Tubbergen,Overijssel,VBO,6.848587,52.388225
Nieuwematenweg,7,a,,7667RH,Reutum,Tubbergen,Overijssel,VBO,6.848430,52.387672
Nieuwematenweg,7,,,7667RH,Reutum,Tubbergen,Overijssel,VBO,6.848507,52.387721
Nieuwematenweg,10,,,7667RH,Reutum,Tubbergen,Overijssel,VBO,6.847321,52.386970
Nieuwematenweg,14,,,7667RH,Reutum,Tubbergen,Overijssel,VBO,6.847436,52.385868
Nieuwematenweg,18,,,7667RH,Reutum,Tubbergen,Overijssel,VBO,6.849027,52.383493
Nieuwematenweg,22,,,7667RH,Reutum,Tubbergen,Overijssel,VBO,6.849321,52.381966
Nieuwematenweg,25,,,7667RH,Reutum,Tubbergen,Overijssel,VBO,6.850955,52.380703
Kemperweg,1,,,7667RJ,Reutum,Tubbergen,Overijssel,VBO,6.850495,52.378561
Kemperweg,2,,,7667RJ,Reutum,Tubbergen,Overijssel,VBO,6.850572,52.378962
Kemperweg,4,,,7667RJ,Reutum,Tubbergen,Overijssel,VBO,6.850042,52.378838
Kemperweg,5,,,7667RJ,Reutum,Tubbergen,Overijssel,VBO,6.847393,52.377306
Weustendijk,4,,,7667RK,Reutum,Tubbergen,Overijssel,VBO,6.841971,52.382545
Weustendijk,5,,,7667RK,Reutum,Tubbergen,Overijssel,VBO,6.842952,52.383038
Weustendijk,10,,,7667RK,Reutum,Tubbergen,Overijssel,VBO,6.848649,52.383088
Stroveldsweg,2,,,7667RL,Reutum,Tubbergen,Overijssel,VBO,6.846510,52.384943
Stroveldsweg,5,s,,7667RL,Reutum,Tubbergen,Overijssel,VBO,6.845542,52.383236
Stroveldsweg,5,,,7667RL,Reutum,Tubbergen,Overijssel,VBO,6.845323,52.383171
Stroveldsweg,7,a,,7667RL,Reutum,Tubbergen,Overijssel,VBO,6.844509,52.382530
Stroveldsweg,7,,,7667RL,Reutum,Tubbergen,Overijssel,VBO,6.844419,52.382475
Stroveldsweg,9,,,7667RL,Reutum,Tubbergen,Overijssel,VBO,6.843711,52.381978
Stroveldsweg,11,,,7667RL,Reutum,Tubbergen,Overijssel,VBO,6.843667,52.381907
Stroveldsweg,17,,,7667RL,Reutum,Tubbergen,Overijssel,VBO,6.837931,52.377100
Stroveldsweg,21,a,,7667RL,Reutum,Tubbergen,Overijssel,VBO,6.836856,52.376334
Stroveldsweg,21,,,7667RL,Reutum,Tubbergen,Overijssel,VBO,6.836910,52.376401
Stroveldsweg,24,,,7667RL,Reutum,Tubbergen,Overijssel,VBO,6.833184,52.374481
Stroveldsweg,26,,,7667RL,Reutum,Tubbergen,Overijssel,VBO,6.833377,52.374058
Stroveldsweg,32,,,7667RL,Reutum,Tubbergen,Overijssel,VBO,6.829393,52.370644
Stroveldsweg,34,,,7667RL,Reutum,Tubbergen,Overijssel,VBO,6.829352,52.370697
Hondenveldsweg,2,,,7667RM,Reutum,Tubbergen,Overijssel,VBO,6.840223,52.374295
Kanaal Z.Z.,74,,,7667RP,Reutum,Tubbergen,Overijssel,VBO,6.819955,52.366862
Kanaal Z.Z.,76,,,7667RP,Reutum,Tubbergen,Overijssel,VBO,6.822274,52.367243
Kanaal Z.Z.,80,a,,7667RP,Reutum,Tubbergen,Overijssel,VBO,6.825145,52.367362
Kanaal Z.Z.,80,,,7667RP,Reutum,Tubbergen,Overijssel,VBO,6.825142,52.367298
Kanaal Z.Z.,100,a,,7667RP,Reutum,Tubbergen,Overijssel,VBO,6.852924,52.372472
Kanaal Z.Z.,100,,,7667RP,Reutum,Tubbergen,Overijssel,VBO,6.852880,52.372386
Kanaal Z.Z.,108,,,7667RP,Reutum,Tubbergen,Overijssel,VBO,6.859294,52.372978
Kanaal Z.Z.,110,,,7667RP,Reutum,Tubbergen,Overijssel,VBO,6.860047,52.373013
Oldenzaalseweg,145,,,7667RR,Reutum,Tubbergen,Overijssel,VBO,6.825164,52.370166
Oldenzaalseweg,148,,,7667RR,Reutum,Tubbergen,Overijssel,VBO,6.826392,52.368694
Oldenzaalseweg,150,,,7667RR,Reutum,Tubbergen,Overijssel,VBO,6.827557,52.368360
Oldenzaalseweg,154,,,7667RR,Reutum,Tubbergen,Overijssel,VBO,6.828371,52.367142
Oldenzaalseweg,155,a,,7667RR,Reutum,Tubbergen,Overijssel,VBO,6.829006,52.367271
Oldenzaalseweg,155,,,7667RR,Reutum,Tubbergen,Overijssel,VBO,6.828806,52.367286
Oldenzaalseweg,157,,,7667RR,Reutum,Tubbergen,Overijssel,VBO,6.829247,52.367144
Oldenzaalseweg,160,a,,7667RR,Reutum,Tubbergen,Overijssel,VBO,6.829105,52.366752
Oldenzaalseweg,160,,,7667RR,Reutum,Tubbergen,Overijssel,VBO,6.828994,52.366685
Oldenzaalseweg,161,,,7667RR,Reutum,Tubbergen,Overijssel,VBO,6.831938,52.366390
Oldenzaalseweg,163,a,,7667RR,Reutum,Tubbergen,Overijssel,VBO,6.833754,52.366268
Oldenzaalseweg,163,,F31,7667RR,Reutum,Tubbergen,Overijssel,VBO,6.835670,52.368034
Oldenzaalseweg,163,,F36,7667RR,Reutum,Tubbergen,Overijssel,VBO,6.835199,52.368066
Oldenzaalseweg,163,,F45,7667RR,Reutum,Tubbergen,Overijssel,VBO,6.835666,52.368391
Oldenzaalseweg,163,,F48,7667RR,Reutum,Tubbergen,Overijssel,VBO,6.835283,52.368491
Oldenzaalseweg,163,,F5,7667RR,Reutum,Tubbergen,Overijssel,VBO,6.835139,52.367058
Oldenzaalseweg,163,,F50,7667RR,Reutum,Tubbergen,Overijssel,VBO,6.835346,52.368660
Oldenzaalseweg,163,,F7,7667RR,Reutum,Tubbergen,Overijssel,VBO,6.835301,52.367037
Oldenzaalseweg,163,,H3,7667RR,Reutum,Tubbergen,Overijssel,VBO,6.836215,52.368303
Oldenzaalseweg,163,,K1,7667RR,Reutum,Tubbergen,Overijssel,VBO,6.835803,52.368079
Oldenzaalseweg,163,,K11,7667RR,Reutum,Tubbergen,Overijssel,VBO,6.836684,52.367873
Oldenzaalseweg,163,,K13,7667RR,Reutum,Tubbergen,Overijssel,VBO,6.837100,52.367877
Oldenzaalseweg,163,,K15,7667RR,Reutum,Tubbergen,Overijssel,VBO,6.837168,52.368048
Oldenzaalseweg,163,,K17,7667RR,Reutum,Tubbergen,Overijssel,VBO,6.837177,52.368133
Oldenzaalseweg,163,,K3,7667RR,Reutum,Tubbergen,Overijssel,VBO,6.836071,52.368012
Oldenzaalseweg,163,,K5,7667RR,Reutum,Tubbergen,Overijssel,VBO,6.836190,52.367903
Oldenzaalseweg,163,,K9,7667RR,Reutum,Tubbergen,Overijssel,VBO,6.836349,52.367845
Oldenzaalseweg,163,,S10,7667RR,Reutum,Tubbergen,Overijssel,VBO,6.834016,52.366812
Oldenzaalseweg,163,,S12,7667RR,Reutum,Tubbergen,Overijssel,VBO,6.833949,52.366921
Oldenzaalseweg,163,,S13,7667RR,Reutum,Tubbergen,Overijssel,VBO,6.834344,52.366868
Oldenzaalseweg,163,,S14,7667RR,Reutum,Tubbergen,Overijssel,VBO,6.833955,52.366987
Oldenzaalseweg,163,,S16,7667RR,Reutum,Tubbergen,Overijssel,VBO,6.833991,52.367081
Oldenzaalseweg,163,,S17,7667RR,Reutum,Tubbergen,Overijssel,VBO,6.834491,52.367028
Oldenzaalseweg,163,,S18,7667RR,Reutum,Tubbergen,Overijssel,VBO,6.834028,52.367147
Oldenzaalseweg,163,,S19,7667RR,Reutum,Tubbergen,Overijssel,VBO,6.834462,52.367102
Oldenzaalseweg,163,,S20,7667RR,Reutum,Tubbergen,Overijssel,VBO,6.834090,52.367233
Oldenzaalseweg,163,,S25,7667RR,Reutum,Tubbergen,Overijssel,VBO,6.834622,52.367490
Oldenzaalseweg,163,,S27,7667RR,Reutum,Tubbergen,Overijssel,VBO,6.834676,52.367579
Oldenzaalseweg,163,,S28,7667RR,Reutum,Tubbergen,Overijssel,VBO,6.834229,52.367630
Oldenzaalseweg,163,,S30,7667RR,Reutum,Tubbergen,Overijssel,VBO,6.834263,52.367730
Oldenzaalseweg,163,,S31,7667RR,Reutum,Tubbergen,Overijssel,VBO,6.834782,52.367732
Oldenzaalseweg,163,,S33,7667RR,Reutum,Tubbergen,Overijssel,VBO,6.834846,52.367860
Oldenzaalseweg,163,,S41,7667RR,Reutum,Tubbergen,Overijssel,VBO,6.834942,52.368233
Oldenzaalseweg,163,,S49,7667RR,Reutum,Tubbergen,Overijssel,VBO,6.835142,52.368584
Oldenzaalseweg,163,,S50,7667RR,Reutum,Tubbergen,Overijssel,VBO,6.834656,52.368698
Oldenzaalseweg,163,,V4,7667RR,Reutum,Tubbergen,Overijssel,VBO,6.836310,52.368194
Oldenzaalseweg,163,,ZH01,7667RR,Reutum,Tubbergen,Overijssel,VBO,6.834734,52.368939
Oldenzaalseweg,163,,,7667RR,Reutum,Tubbergen,Overijssel,VBO,6.833844,52.366301
Oldenzaalseweg,165,a,,7667RR,Reutum,Tubbergen,Overijssel,VBO,6.835149,52.366233
Oldenzaalseweg,165,,,7667RR,Reutum,Tubbergen,Overijssel,VBO,6.834980,52.366203
Oldenzaalseweg,166,,,7667RR,Reutum,Tubbergen,Overijssel,VBO,6.836613,52.365133
Oldenzaalseweg,169,,ZH01,7667RR,Reutum,Tubbergen,Overijssel,VBO,6.837947,52.366149
Oldenzaalseweg,169,,ZH02,7667RR,Reutum,Tubbergen,Overijssel,VBO,6.837656,52.366208
Oldenzaalseweg,169,,ZH03,7667RR,Reutum,Tubbergen,Overijssel,VBO,6.837707,52.366385
Oldenzaalseweg,169,,ZH04,7667RR,Reutum,Tubbergen,Overijssel,VBO,6.837929,52.366444
Oldenzaalseweg,169,,ZH05,7667RR,Reutum,Tubbergen,Overijssel,VBO,6.838122,52.366385
Oldenzaalseweg,169,,ZH11,7667RR,Reutum,Tubbergen,Overijssel,VBO,6.838203,52.366606
Oldenzaalseweg,169,,ZH12,7667RR,Reutum,Tubbergen,Overijssel,VBO,6.837961,52.366619
Oldenzaalseweg,169,,ZH13,7667RR,Reutum,Tubbergen,Overijssel,VBO,6.837912,52.366728
Oldenzaalseweg,169,,ZH14,7667RR,Reutum,Tubbergen,Overijssel,VBO,6.838028,52.366855
Oldenzaalseweg,169,,ZH15,7667RR,Reutum,Tubbergen,Overijssel,VBO,6.838302,52.366840
Oldenzaalseweg,169,,,7667RR,Reutum,Tubbergen,Overijssel,VBO,6.838363,52.366059
Oldenzaalseweg,171,,Z132,7667RR,Reutum,Tubbergen,Overijssel,VBO,6.839988,52.366950
Oldenzaalseweg,171,,Z192,7667RR,Reutum,Tubbergen,Overijssel,VBO,6.840159,52.368143
Oldenzaalseweg,171,,Z206,7667RR,Reutum,Tubbergen,Overijssel,VBO,6.840680,52.368611
Oldenzaalseweg,171,,Z218,7667RR,Reutum,Tubbergen,Overijssel,VBO,6.841576,52.368475
Oldenzaalseweg,171,,Z224,7667RR,Reutum,Tubbergen,Overijssel,VBO,6.841243,52.368072
Oldenzaalseweg,171,,Z226,7667RR,Reutum,Tubbergen,Overijssel,VBO,6.841128,52.367942
Oldenzaalseweg,171,,Z236,7667RR,Reutum,Tubbergen,Overijssel,VBO,6.840223,52.367914
Oldenzaalseweg,171,,Z240,7667RR,Reutum,Tubbergen,Overijssel,VBO,6.840481,52.367608
Oldenzaalseweg,171,,Z250,7667RR,Reutum,Tubbergen,Overijssel,VBO,6.840338,52.367388
Oldenzaalseweg,171,,,7667RR,Reutum,Tubbergen,Overijssel,VBO,6.839747,52.367486
Oldenzaalseweg,172,a,,7667RR,Reutum,Tubbergen,Overijssel,VBO,6.841436,52.365018
Oldenzaalseweg,172,,,7667RR,Reutum,Tubbergen,Overijssel,VBO,6.841444,52.365101
Oldenzaalseweg,175,a,,7667RR,Reutum,Tubbergen,Overijssel,VBO,6.842512,52.365215
Oldenzaalseweg,175,,,7667RR,Reutum,Tubbergen,Overijssel,VBO,6.842445,52.365250
Oldenzaalseweg,176,b,,7667RR,Reutum,Tubbergen,Overijssel,VBO,6.842014,52.364260
Oldenzaalseweg,176,,,7667RR,Reutum,Tubbergen,Overijssel,VBO,6.842394,52.364839
Oldenzaalseweg,177,,,7667RR,Reutum,Tubbergen,Overijssel,VBO,6.843922,52.364174
Oldenzaalseweg,181,,,7667RR,Reutum,Tubbergen,Overijssel,VBO,6.847066,52.362413
Kleijsenweg,3,,,7667RS,Reutum,Tubbergen,Overijssel,VBO,6.842921,52.365572
Kleijsenweg,5,,,7667RS,Reutum,Tubbergen,Overijssel,VBO,6.843057,52.365770
Kleijsenweg,7,,ZH01,7667RS,Reutum,Tubbergen,Overijssel,VBO,6.842313,52.366399
Kleijsenweg,7,,ZH02,7667RS,Reutum,Tubbergen,Overijssel,VBO,6.842117,52.366476
Kleijsenweg,7,,ZH03,7667RS,Reutum,Tubbergen,Overijssel,VBO,6.842213,52.366555
Kleijsenweg,7,,ZH04,7667RS,Reutum,Tubbergen,Overijssel,VBO,6.842133,52.366663
Kleijsenweg,7,,ZH05,7667RS,Reutum,Tubbergen,Overijssel,VBO,6.842007,52.366725
Kleijsenweg,7,,ZH06,7667RS,Reutum,Tubbergen,Overijssel,VBO,6.841884,52.366763
Kleijsenweg,7,,ZH07,7667RS,Reutum,Tubbergen,Overijssel,VBO,6.841666,52.366708
Kleijsenweg,7,,ZH08,7667RS,Reutum,Tubbergen,Overijssel,VBO,6.841640,52.366619
Kleijsenweg,7,,ZH09,7667RS,Reutum,Tubbergen,Overijssel,VBO,6.841450,52.366687
Kleijsenweg,7,,ZH10,7667RS,Reutum,Tubbergen,Overijssel,VBO,6.841443,52.366787
Kleijsenweg,7,,ZH11,7667RS,Reutum,Tubbergen,Overijssel,VBO,6.841219,52.366861
Kleijsenweg,7,,ZH12,7667RS,Reutum,Tubbergen,Overijssel,VBO,6.841139,52.366741
Kleijsenweg,7,,ZH13,7667RS,Reutum,Tubbergen,Overijssel,VBO,6.841157,52.366659
Kleijsenweg,7,,ZH14,7667RS,Reutum,Tubbergen,Overijssel,VBO,6.841357,52.366593
Kleijsenweg,7,,ZH25,7667RS,Reutum,Tubbergen,Overijssel,VBO,6.844837,52.366554
Kleijsenweg,7,,,7667RS,Reutum,Tubbergen,Overijssel,VBO,6.843296,52.365946
Kleijsenweg,9,,,7667RS,Reutum,Tubbergen,Overijssel,VBO,6.843971,52.366411
Molenhofweg,8,,,7667RT,Reutum,Tubbergen,Overijssel,VBO,6.837840,52.368724
Molenhofweg,10,a,,7667RT,Reutum,Tubbergen,Overijssel,VBO,6.838505,52.368845
Molenhofweg,10,b,,7667RT,Reutum,Tubbergen,Overijssel,VBO,6.838877,52.368868
Molenhofweg,10,c,,7667RT,Reutum,Tubbergen,Overijssel,VBO,6.838736,52.368568
Molenhofweg,10,,,7667RT,Reutum,Tubbergen,Overijssel,VBO,6.838334,52.368603
Molenhofweg,13,,,7667RT,Reutum,Tubbergen,Overijssel,VBO,6.840388,52.369145
Molenhofweg,15,,,7667RT,Reutum,Tubbergen,Overijssel,VBO,6.840980,52.369079
Kleijsenweg,6,a,,7667RV,Reutum,Tubbergen,Overijssel,VBO,6.845074,52.364674
Kleijsenweg,6,,,7667RV,Reutum,Tubbergen,Overijssel,VBO,6.845176,52.364653
Plegtsweg,1,a,,7667RV,Reutum,Tubbergen,Overijssel,VBO,6.855679,52.361666
Plegtsweg,1,,,7667RV,Reutum,Tubbergen,Overijssel,VBO,6.855600,52.361626
Plegtsweg,5,,,7667RV,Reutum,Tubbergen,Overijssel,VBO,6.856492,52.361923
Plegtsweg,9,,,7667RV,Reutum,Tubbergen,Overijssel,VBO,6.859055,52.362393
Plegtsweg,11,a,,7667RV,Reutum,Tubbergen,Overijssel,VBO,6.861339,52.362796
Plegtsweg,11,,,7667RV,Reutum,Tubbergen,Overijssel,VBO,6.859744,52.362531
Bekhuisweg,7,,,7667RW,Reutum,Tubbergen,Overijssel,VBO,6.861120,52.365720
Bekhuisweg,8,,,7667RW,Reutum,Tubbergen,Overijssel,VBO,6.860367,52.363608
Oude Bornsedijk,5,,,7667SC,Reutum,Tubbergen,Overijssel,VBO,6.860114,52.379023
Oude Bornsedijk,10,,,7667SC,Reutum,Tubbergen,Overijssel,VBO,6.850158,52.371764
Oude Bornsedijk,19,,,7667SC,Reutum,Tubbergen,Overijssel,VBO,6.845241,52.366599
Agelerweg,1,,,7667SE,Reutum,Tubbergen,Overijssel,VBO,6.862961,52.385755
Agelerweg,5,,,7667SE,Reutum,Tubbergen,Overijssel,VBO,6.862453,52.385531
Agelerweg,11,a,,7667SE,Reutum,Tubbergen,Overijssel,VBO,6.861068,52.384743
Agelerweg,11,,,7667SE,Reutum,Tubbergen,Overijssel,VBO,6.861276,52.384953
Agelerweg,13,a,,7667SE,Reutum,Tubbergen,Overijssel,VBO,6.860077,52.384477
Agelerweg,13,b,,7667SE,Reutum,Tubbergen,Overijssel,VBO,6.860189,52.384509
Agelerweg,13,,,7667SE,Reutum,Tubbergen,Overijssel,VBO,6.859660,52.384098
Agelerweg,15,,,7667SE,Reutum,Tubbergen,Overijssel,VBO,6.858092,52.382975
Agelerweg,21,,,7667SE,Reutum,Tubbergen,Overijssel,VBO,6.857530,52.382740
Agelerweg,29,,,7667SE,Reutum,Tubbergen,Overijssel,VBO,6.851934,52.378188
Agelerweg,31,a,,7667SE,Reutum,Tubbergen,Overijssel,VBO,6.852174,52.377236
Agelerweg,31,,,7667SE,Reutum,Tubbergen,Overijssel,VBO,6.852115,52.377287
Agelerweg,33,,,7667SE,Reutum,Tubbergen,Overijssel,VBO,6.852391,52.376652
Agelerweg,39,,,7667SE,Reutum,Tubbergen,Overijssel,VBO,6.852097,52.374390
Agelerweg,41,,,7667SE,Reutum,Tubbergen,Overijssel,VBO,6.852250,52.374689
Agelerweg,43,a,,7667SE,Reutum,Tubbergen,Overijssel,VBO,6.852226,52.374000
Agelerweg,43,,,7667SE,Reutum,Tubbergen,Overijssel,VBO,6.852123,52.373946
Agelerweg,45,a,,7667SE,Reutum,Tubbergen,Overijssel,VBO,6.852321,52.373371
Agelerweg,45,,,7667SE,Reutum,Tubbergen,Overijssel,VBO,6.852312,52.373451
Agelerweg,61,a,,7667SE,Reutum,Tubbergen,Overijssel,VBO,6.855879,52.360660
Agelerweg,61,,,7667SE,Reutum,Tubbergen,Overijssel,VBO,6.855881,52.360612
Agelerweg,2,,,7667SG,Reutum,Tubbergen,Overijssel,VBO,6.862929,52.386512
Agelerweg,8,,,7667SG,Reutum,Tubbergen,Overijssel,VBO,6.861247,52.385704
Agelerweg,16,,,7667SG,Reutum,Tubbergen,Overijssel,VBO,6.856847,52.383338
Agelerweg,18,a,,7667SG,Reutum,Tubbergen,Overijssel,VBO,6.856162,52.382688
Agelerweg,18,,,7667SG,Reutum,Tubbergen,Overijssel,VBO,6.856278,52.382718
Agelerweg,26,,,7667SG,Reutum,Tubbergen,Overijssel,VBO,6.851791,52.379947
Agelerweg,32,a,,7667SG,Reutum,Tubbergen,Overijssel,VBO,6.850366,52.376616
Agelerweg,32,,,7667SG,Reutum,Tubbergen,Overijssel,VBO,6.850251,52.376654
Agelerweg,34,,,7667SG,Reutum,Tubbergen,Overijssel,VBO,6.849559,52.375926
Agelerweg,40,,,7667SG,Reutum,Tubbergen,Overijssel,VBO,6.851257,52.374310
Agelerweg,56,,,7667SG,Reutum,Tubbergen,Overijssel,VBO,6.851328,52.362291
Agelerweg,58,,,7667SG,Reutum,Tubbergen,Overijssel,VBO,6.854183,52.362007
Brokmansweg,5,a,,7667SH,Reutum,Tubbergen,Overijssel,VBO,6.853600,52.386315
Brokmansweg,5,,,7667SH,Reutum,Tubbergen,Overijssel,VBO,6.853620,52.386274
Brokmansweg,6,,,7667SH,Reutum,Tubbergen,Overijssel,VBO,6.852614,52.385883
Brokmansweg,8,,,7667SH,Reutum,Tubbergen,Overijssel,VBO,6.852367,52.385623
Brokmansweg,12,,,7667SH,Reutum,Tubbergen,Overijssel,VBO,6.853612,52.385016
Brokmansweg,16,,,7667SH,Reutum,Tubbergen,Overijssel,VBO,6.854595,52.384026
Brokmansweg,20,,,7667SH,Reutum,Tubbergen,Overijssel,VBO,6.858126,52.382903
Brokmansweg,24,,,7667SH,Reutum,Tubbergen,Overijssel,VBO,6.858538,52.382155
Zoekeweg,2,,,7667SJ,Reutum,Tubbergen,Overijssel,VBO,6.848962,52.387969
Zoekeweg,6,,,7667SJ,Reutum,Tubbergen,Overijssel,VBO,6.850120,52.387794
Zoekeweg,8,,,7667SJ,Reutum,Tubbergen,Overijssel,VBO,6.850700,52.387853
Zoekeweg,17,a,,7667SJ,Reutum,Tubbergen,Overijssel,VBO,6.859639,52.386599
Zoekeweg,17,,,7667SJ,Reutum,Tubbergen,Overijssel,VBO,6.859664,52.386547
Zoekeweg,18,a,,7667SJ,Reutum,Tubbergen,Overijssel,VBO,6.858405,52.386083
Zoekeweg,18,,,7667SJ,Reutum,Tubbergen,Overijssel,VBO,6.858267,52.385956
Zoekeweg,19,,,7667SJ,Reutum,Tubbergen,Overijssel,VBO,6.859584,52.385954
Zoekeweg,21,,,7667SJ,Reutum,Tubbergen,Overijssel,VBO,6.859551,52.385254
Vroonkweg,6,,,7667SK,Reutum,Tubbergen,Overijssel,VBO,6.852529,52.388157
Vroonkweg,8,,,7667SK,Reutum,Tubbergen,Overijssel,VBO,6.852614,52.388228
Molenbeekweg,5,,,7667SM,Reutum,Tubbergen,Overijssel,VBO,6.862576,52.398316
De Scholmaat,1,,,7667TA,Reutum,Tubbergen,Overijssel,VBO,6.845413,52.388659
De Scholmaat,3,,,7667TA,Reutum,Tubbergen,Overijssel,VBO,6.845341,52.388535
De Scholmaat,9,,,7667TA,Reutum,Tubbergen,Overijssel,VBO,6.845335,52.388309
De Scholmaat,10,,,7667TA,Reutum,Tubbergen,Overijssel,VBO,6.844915,52.388182
De Scholmaat,11,,,7667TA,Reutum,Tubbergen,Overijssel,VBO,6.845362,52.388176
De Scholmaat,12,,,7667TA,Reutum,Tubbergen,Overijssel,VBO,6.844900,52.388125
De Scholmaat,13,,,7667TA,Reutum,Tubbergen,Overijssel,VBO,6.845319,52.388045
De Scholmaat,14,,,7667TA,Reutum,Tubbergen,Overijssel,VBO,6.844862,52.387994
De Scholmaat,15,,,7667TA,Reutum,Tubbergen,Overijssel,VBO,6.845237,52.387891
De Scholmaat,16,,,7667TA,Reutum,Tubbergen,Overijssel,VBO,6.844845,52.387943
De Scholmaat,17,,,7667TA,Reutum,Tubbergen,Overijssel,VBO,6.845258,52.387719
De Elsmaat,1,,,7667TC,Reutum,Tubbergen,Overijssel,VBO,6.844858,52.387681
De Elsmaat,3,,,7667TC,Reutum,Tubbergen,Overijssel,VBO,6.844782,52.387688
De Elsmaat,4,,,7667TC,Reutum,Tubbergen,Overijssel,VBO,6.844385,52.387989
De Elsmaat,5,,,7667TC,Reutum,Tubbergen,Overijssel,VBO,6.844705,52.387696
De Elsmaat,6,,,7667TC,Reutum,Tubbergen,Overijssel,VBO,6.844367,52.388051
De Elsmaat,7,,,7667TC,Reutum,Tubbergen,Overijssel,VBO,6.844622,52.387705
De Elsmaat,8,,,7667TC,Reutum,Tubbergen,Overijssel,VBO,6.844318,52.388196
De Elsmaat,9,,,7667TC,Reutum,Tubbergen,Overijssel,VBO,6.844447,52.387712
De Elsmaat,10,,,7667TC,Reutum,Tubbergen,Overijssel,VBO,6.844331,52.388255
De Elsmaat,11,,,7667TC,Reutum,Tubbergen,Overijssel,VBO,6.844303,52.387715
De Elsmaat,12,,,7667TC,Reutum,Tubbergen,Overijssel,VBO,6.844051,52.388441
De Elsmaat,13,,,7667TC,Reutum,Tubbergen,Overijssel,VBO,6.844000,52.387859
De Elsmaat,14,,,7667TC,Reutum,Tubbergen,Overijssel,VBO,6.843763,52.388459
De Elsmaat,15,,,7667TC,Reutum,Tubbergen,Overijssel,VBO,6.843904,52.387982
De Elsmaat,17,,,7667TC,Reutum,Tubbergen,Overijssel,VBO,6.843705,52.388153
De Elsmaat,18,,,7667TC,Reutum,Tubbergen,Overijssel,VBO,6.843436,52.388447
De Elsmaat,19,,,7667TC,Reutum,Tubbergen,Overijssel,VBO,6.843614,52.388160
De Elsmaat,20,,,7667TC,Reutum,Tubbergen,Overijssel,VBO,6.843341,52.388457
De Haverkamp,3,,,7667TE,Reutum,Tubbergen,Overijssel,VBO,6.843013,52.389200
De Haverkamp,5,,,7667TE,Reutum,Tubbergen,Overijssel,VBO,6.842983,52.389142
De Haverkamp,7,,,7667TE,Reutum,Tubbergen,Overijssel,VBO,6.842939,52.388937
De Haverkamp,9,,,7667TE,Reutum,Tubbergen,Overijssel,VBO,6.843202,52.388847
De Haverkamp,15,,,7667TE,Reutum,Tubbergen,Overijssel,VBO,6.843271,52.388146
De Haverkamp,17,,,7667TE,Reutum,Tubbergen,Overijssel,VBO,6.843268,52.388087
De Haverkamp,19,,,7667TE,Reutum,Tubbergen,Overijssel,VBO,6.843412,52.387920
De Haverkamp,21,,,7667TE,Reutum,Tubbergen,Overijssel,VBO,6.843505,52.387795
De Haverkamp,23,,,7667TE,Reutum,Tubbergen,Overijssel,VBO,6.843532,52.387744
De Haverkamp,25,,,7667TE,Reutum,Tubbergen,Overijssel,VBO,6.843756,52.387631
De Haverkamp,14,,,7667TG,Reutum,Tubbergen,Overijssel,VBO,6.842882,52.388632
De Haverkamp,16,,,7667TG,Reutum,Tubbergen,Overijssel,VBO,6.842923,52.388408
De Haverkamp,18,,,7667TG,Reutum,Tubbergen,Overijssel,VBO,6.842870,52.388260
De Haverkamp,20,,,7667TG,Reutum,Tubbergen,Overijssel,VBO,6.842838,52.388126
De Haverkamp,22,,,7667TG,Reutum,Tubbergen,Overijssel,VBO,6.842907,52.387983
De Haverkamp,24,,,7667TG,Reutum,Tubbergen,Overijssel,VBO,6.843069,52.387746
De Haverkamp,26,,,7667TG,Reutum,Tubbergen,Overijssel,VBO,6.843170,52.387629
De Haverkamp,28,,,7667TG,Reutum,Tubbergen,Overijssel,VBO,6.843286,52.387500
De Gruttenmaat,2,,,7667TH,Reutum,Tubbergen,Overijssel,VBO,6.844140,52.387498
De Gruttenmaat,3,,,7667TH,Reutum,Tubbergen,Overijssel,VBO,6.843579,52.387179
De Gruttenmaat,4,,,7667TH,Reutum,Tubbergen,Overijssel,VBO,6.844025,52.387333
De Gruttenmaat,5,,,7667TH,Reutum,Tubbergen,Overijssel,VBO,6.843674,52.387007
De Gruttenmaat,6,,,7667TH,Reutum,Tubbergen,Overijssel,VBO,6.844016,52.387274
De Gruttenmaat,7,,,7667TH,Reutum,Tubbergen,Overijssel,VBO,6.843823,52.386828
De Gruttenmaat,8,,,7667TH,Reutum,Tubbergen,Overijssel,VBO,6.844100,52.387103
De Gruttenmaat,9,,,7667TH,Reutum,Tubbergen,Overijssel,VBO,6.843916,52.386674
De Gruttenmaat,10,,,7667TH,Reutum,Tubbergen,Overijssel,VBO,6.844275,52.386873
De Gruttenmaat,12,,,7667TH,Reutum,Tubbergen,Overijssel,VBO,6.844536,52.386958
De Gruttenmaat,13,,,7667TH,Reutum,Tubbergen,Overijssel,VBO,6.844405,52.386631
De Gruttenmaat,14,,,7667TH,Reutum,Tubbergen,Overijssel,VBO,6.844771,52.387010
De Gruttenmaat,15,,,7667TH,Reutum,Tubbergen,Overijssel,VBO,6.844474,52.386648
De Gruttenmaat,16,,,7667TH,Reutum,Tubbergen,Overijssel,VBO,6.844716,52.387256
De Gruttenmaat,17,,,7667TH,Reutum,Tubbergen,Overijssel,VBO,6.844706,52.386711
De Gruttenmaat,18,,,7667TH,Reutum,Tubbergen,Overijssel,VBO,6.844743,52.387417
De Gruttenmaat,19,,,7667TH,Reutum,Tubbergen,Overijssel,VBO,6.844975,52.386782
De Gruttenmaat,21,,,7667TH,Reutum,Tubbergen,Overijssel,VBO,6.845222,52.387071
De Gruttenmaat,23,,,7667TH,Reutum,Tubbergen,Overijssel,VBO,6.845181,52.387277
De Gruttenmaat,24,,,7667TH,Reutum,Tubbergen,Overijssel,VBO,6.845685,52.387859
De Gruttenmaat,25,,,7667TH,Reutum,Tubbergen,Overijssel,VBO,6.845212,52.387342
De Gruttenmaat,27,,,7667TH,Reutum,Tubbergen,Overijssel,VBO,6.845461,52.387486
De Gruttenmaat,29,,,7667TH,Reutum,Tubbergen,Overijssel,VBO,6.845691,52.387513
De Gruttenmaat,31,,,7667TH,Reutum,Tubbergen,Overijssel,VBO,6.845903,52.387575
De Gruttenmaat,33,,,7667TH,Reutum,Tubbergen,Overijssel,VBO,6.846144,52.387631
De Gruttenmaat,35,,,7667TH,Reutum,Tubbergen,Overijssel,VBO,6.846339,52.387743
De Gruttenmaat,37,,,7667TH,Reutum,Tubbergen,Overijssel,VBO,6.846592,52.387785
