openbareruimtenaam,huisnummer,huisletter,huisnummertoevoeging,postcode,woonplaatsnaam,gemeentenaam,provincienaam,typeadresseerbaarobject,longitude,latitude
Gravenlandweg,8,,,7679TA,Langeveen,Tubbergen,Overijssel,VBO,6.701767,52.460915
Gravenlandweg,10,,,7679TA,Langeveen,Tubbergen,Overijssel,VBO,6.702129,52.461470
Vlierakkersweg,1,a,,7679TB,Langeveen,Tubbergen,Overijssel,VBO,6.708236,52.447615
Vlierakkersweg,1,,,7679TB,Langeveen,Tubbergen,Overijssel,VBO,6.708356,52.447582
Vlierakkersweg,4,,,7679TB,Langeveen,Tubbergen,Overijssel,VBO,6.706919,52.448775
Vlierakkersweg,5,,,7679TB,Geesteren,Tubbergen,Overijssel,VBO,6.702682,52.446842
Vlierakkersweg,6,,,7679TB,Langeveen,Tubbergen,Overijssel,VBO,6.706550,52.448953
Vlierakkersweg,7,a,,7679TB,Langeveen,Tubbergen,Overijssel,VBO,6.702381,52.449782
Vlierakkersweg,7,,,7679TB,Langeveen,Tubbergen,Overijssel,VBO,6.702462,52.449861
Vermolenweg,52,,,7679TC,Langeveen,Tubbergen,Overijssel,VBO,6.708839,52.445891
Vermolenweg,54,,,7679TC,Langeveen,Tubbergen,Overijssel,VBO,6.709114,52.446153
Vermolenweg,56,,,7679TC,Langeveen,Tubbergen,Overijssel,VBO,6.711211,52.447758
Vermolenweg,58,,,7679TC,Langeveen,Tubbergen,Overijssel,VBO,6.713083,52.448295
Vermolenweg,62,,,7679TC,Langeveen,Tubbergen,Overijssel,VBO,6.713892,52.448413
Balkenbeltsweg,7,a,,7679TD,Langeveen,Tubbergen,Overijssel,VBO,6.714281,52.459318
Balkenbeltsweg,7,,,7679TD,Langeveen,Tubbergen,Overijssel,VBO,6.714205,52.459362
Balkenbeltsweg,9,,,7679TD,Langeveen,Tubbergen,Overijssel,VBO,6.715475,52.458792
Balkenbeltsweg,12,,,7679TD,Langeveen,Tubbergen,Overijssel,VBO,6.711348,52.459073
Balkenbeltsweg,14,,,7679TD,Langeveen,Tubbergen,Overijssel,VBO,6.710263,52.458325
Balkenbeltsweg,20,,,7679TD,Langeveen,Tubbergen,Overijssel,VBO,6.703680,52.456369
Balkenbeltsweg,22,a,,7679TD,Langeveen,Tubbergen,Overijssel,VBO,6.703171,52.455423
Balkenbeltsweg,22,,,7679TD,Langeveen,Tubbergen,Overijssel,VBO,6.703152,52.455374
Balkenbeltsweg,23,a,,7679TD,Langeveen,Tubbergen,Overijssel,VBO,6.704173,52.455394
Balkenbeltsweg,23,,,7679TD,Langeveen,Tubbergen,Overijssel,VBO,6.704245,52.455294
Balkenbeltsweg,24,,,7679TD,Langeveen,Tubbergen,Overijssel,VBO,6.701683,52.454077
Balkenbeltsweg,25,,,7679TD,Langeveen,Tubbergen,Overijssel,VBO,6.704719,52.454659
Balkenbeltsweg,31,,,7679TD,Langeveen,Tubbergen,Overijssel,VBO,6.703886,52.452866
Balkenbeltsweg,36,,,7679TD,Langeveen,Tubbergen,Overijssel,VBO,6.699568,52.452169
Balkenbeltsweg,37,,,7679TD,Langeveen,Tubbergen,Overijssel,VBO,6.697182,52.451398
Tiemansweg,3,,,7679TE,Langeveen,Tubbergen,Overijssel,VBO,6.705952,52.460344
Heppenweg,1,a,,7679TG,Langeveen,Tubbergen,Overijssel,VBO,6.713321,52.460415
Heppenweg,1,,,7679TG,Langeveen,Tubbergen,Overijssel,VBO,6.713368,52.460355
Heppenweg,3,,,7679TG,Langeveen,Tubbergen,Overijssel,VBO,6.712655,52.460880
Heppenweg,5,,,7679TG,Langeveen,Tubbergen,Overijssel,VBO,6.712754,52.461116
Heppenweg,7,a,,7679TG,Langeveen,Tubbergen,Overijssel,VBO,6.712775,52.461370
Heppenweg,7,,,7679TG,Langeveen,Tubbergen,Overijssel,VBO,6.712892,52.461347
Heppenweg,8,,,7679TG,Langeveen,Tubbergen,Overijssel,VBO,6.713305,52.461739
Heppenweg,11,,,7679TG,Langeveen,Tubbergen,Overijssel,VBO,6.712520,52.461809
Heppenweg,15,a,,7679TG,Langeveen,Tubbergen,Overijssel,VBO,6.712184,52.462390
Heppenweg,15,,,7679TG,Langeveen,Tubbergen,Overijssel,VBO,6.712239,52.462329
Heppenweg,16,a,,7679TG,Langeveen,Tubbergen,Overijssel,VBO,6.712136,52.463201
Heppenweg,16,,,7679TG,Langeveen,Tubbergen,Overijssel,VBO,6.712160,52.463135
Heppenweg,17,,,7679TG,Langeveen,Tubbergen,Overijssel,VBO,6.711350,52.463290
Heppenweg,25,,,7679TG,Langeveen,Tubbergen,Overijssel,VBO,6.710933,52.465374
Bruinehaarsweg,23,,,7679TH,Langeveen,Tubbergen,Overijssel,VBO,6.715969,52.462669
Bruinehaarsweg,31,,,7679TH,Langeveen,Tubbergen,Overijssel,VBO,6.713858,52.464268
Bruinehaarsweg,39,,,7679TH,Langeveen,Tubbergen,Overijssel,VBO,6.709953,52.468131
Bruinehaarsweg,41,,,7679TH,Langeveen,Tubbergen,Overijssel,VBO,6.709921,52.468186
Bruinehaarsweg,43,,,7679TH,Langeveen,Tubbergen,Overijssel,VBO,6.709835,52.468309
Bruinehaarsweg,45,,,7679TH,Langeveen,Tubbergen,Overijssel,VBO,6.709748,52.468476
Bruinehaarsweg,47,,,7679TH,Langeveen,Tubbergen,Overijssel,VBO,6.709667,52.468653
Bruinehaarsweg,49,,,7679TH,Langeveen,Tubbergen,Overijssel,VBO,6.709570,52.468808
Bruinehaarsweg,55,,,7679TH,Langeveen,Tubbergen,Overijssel,VBO,6.709260,52.469556
Bruinehaarsweg,2,,,7679TJ,Langeveen,Tubbergen,Overijssel,VBO,6.719280,52.460275
Bruinehaarsweg,4,,,7679TJ,Langeveen,Tubbergen,Overijssel,VBO,6.719124,52.460385
Bruinehaarsweg,6,,,7679TJ,Langeveen,Tubbergen,Overijssel,VBO,6.719005,52.460485
Bruinehaarsweg,8,,,7679TJ,Langeveen,Tubbergen,Overijssel,VBO,6.718898,52.460574
Bruinehaarsweg,10,,,7679TJ,Langeveen,Tubbergen,Overijssel,VBO,6.718821,52.460679
Bruinehaarsweg,12,,,7679TJ,Langeveen,Tubbergen,Overijssel,VBO,6.718694,52.460775
Bruinehaarsweg,14,,,7679TJ,Langeveen,Tubbergen,Overijssel,VBO,6.718576,52.460892
Bruinehaarsweg,20,,,7679TJ,Langeveen,Tubbergen,Overijssel,VBO,6.717719,52.461593
Bruinehaarsweg,22,,,7679TJ,Langeveen,Tubbergen,Overijssel,VBO,6.717607,52.461690
Bruinehaarsweg,24,,,7679TJ,Langeveen,Tubbergen,Overijssel,VBO,6.716873,52.462332
Bruinehaarsweg,26,,,7679TJ,Langeveen,Tubbergen,Overijssel,VBO,6.716805,52.462383
Bruinehaarsweg,28,,,7679TJ,Langeveen,Tubbergen,Overijssel,VBO,6.716623,52.462546
Bruinehaarsweg,30,,,7679TJ,Langeveen,Tubbergen,Overijssel,VBO,6.716581,52.462601
Bruinehaarsweg,32,,,7679TJ,Langeveen,Tubbergen,Overijssel,VBO,6.716480,52.462723
Bruinehaarsweg,34,,,7679TJ,Langeveen,Tubbergen,Overijssel,VBO,6.716371,52.462843
Bruinehaarsweg,48,,,7679TJ,Langeveen,Tubbergen,Overijssel,VBO,6.716002,52.463215
Bruinehaarsweg,50,,,7679TJ,Langeveen,Tubbergen,Overijssel,VBO,6.715955,52.463269
Bruinehaarsweg,52,,,7679TJ,Langeveen,Tubbergen,Overijssel,VBO,6.715687,52.463497
Bruinehaarsweg,54,,,7679TJ,Langeveen,Tubbergen,Overijssel,VBO,6.715638,52.463542
Bruinehaarsweg,56,,,7679TJ,Langeveen,Tubbergen,Overijssel,VBO,6.715513,52.463667
Bruinehaarsweg,58,,,7679TJ,Langeveen,Tubbergen,Overijssel,VBO,6.715456,52.463713
Bruinehaarsweg,68,,,7679TJ,Langeveen,Tubbergen,Overijssel,VBO,6.712442,52.467221
Bruinehaarsweg,70,,,7679TJ,Langeveen,Tubbergen,Overijssel,VBO,6.712101,52.466955
Bruinehaarsweg,72,,,7679TJ,Langeveen,Tubbergen,Overijssel,VBO,6.710683,52.467676
Bruinehaarsweg,74,,,7679TJ,Langeveen,Tubbergen,Overijssel,VBO,6.710606,52.467803
Bruinehaarsweg,76,,,7679TJ,Langeveen,Tubbergen,Overijssel,VBO,6.710580,52.467848
Bruinehaarsweg,78,,,7679TJ,Langeveen,Tubbergen,Overijssel,VBO,6.710487,52.467967
Bruinehaarsweg,80,,,7679TJ,Langeveen,Tubbergen,Overijssel,VBO,6.710462,52.468019
Bruinehaarsweg,82,,,7679TJ,Langeveen,Tubbergen,Overijssel,VBO,6.709965,52.468975
Bruinehaarsweg,84,,,7679TJ,Langeveen,Tubbergen,Overijssel,VBO,6.709942,52.469015
Bruinehaarsweg,86,,,7679TJ,Langeveen,Tubbergen,Overijssel,VBO,6.709628,52.469623
Grensweg,1,a,,7679TK,Langeveen,Tubbergen,Overijssel,VBO,6.712736,52.470793
Grensweg,1,,,7679TK,Langeveen,Tubbergen,Overijssel,VBO,6.712883,52.470779
Grensweg,5,a,,7679TK,Langeveen,Tubbergen,Overijssel,VBO,6.715261,52.471969
Grensweg,5,,,7679TK,Langeveen,Tubbergen,Overijssel,VBO,6.715373,52.471914
Grensweg,7,,,7679TK,Langeveen,Tubbergen,Overijssel,VBO,6.715264,52.473268
Grensweg,15,a,,7679TK,Langeveen,Tubbergen,Overijssel,VBO,6.715750,52.474996
Grensweg,15,,,7679TK,Langeveen,Tubbergen,Overijssel,VBO,6.715631,52.474909
Grensweg,18,a,,7679TK,Langeveen,Tubbergen,Overijssel,VBO,6.716708,52.475448
Grensweg,18,,,7679TK,Langeveen,Tubbergen,Overijssel,VBO,6.716736,52.475538
Veldboersweg,1,,,7679TL,Langeveen,Tubbergen,Overijssel,VBO,6.716642,52.467658
Veldboersweg,2,,,7679TL,Langeveen,Tubbergen,Overijssel,VBO,6.717305,52.467223
Veldboersweg,4,,,7679TL,Langeveen,Tubbergen,Overijssel,VBO,6.717758,52.469180
Veldboersweg,6,,,7679TL,Langeveen,Tubbergen,Overijssel,VBO,6.720082,52.469774
Veldboersweg,8,,,7679TL,Langeveen,Tubbergen,Overijssel,VBO,6.720460,52.470365
Veldboersweg,9,,,7679TL,Langeveen,Tubbergen,Overijssel,VBO,6.720407,52.471309
Veldboersweg,10,a,,7679TL,Langeveen,Tubbergen,Overijssel,VBO,6.721714,52.471566
Veldboersweg,10,,,7679TL,Langeveen,Tubbergen,Overijssel,VBO,6.721628,52.471609
Veldboersweg,12,a,,7679TL,Langeveen,Tubbergen,Overijssel,VBO,6.723419,52.472305
Veldboersweg,12,,,7679TL,Langeveen,Tubbergen,Overijssel,VBO,6.724228,52.472228
Veldboersweg,13,a,,7679TL,Langeveen,Tubbergen,Overijssel,VBO,6.723954,52.473894
Veldboersweg,13,,,7679TL,Langeveen,Tubbergen,Overijssel,VBO,6.724073,52.473827
Veldboersweg,14,,,7679TL,Langeveen,Tubbergen,Overijssel,VBO,6.725358,52.473875
Iemenboersweg,1,a,,7679TM,Langeveen,Tubbergen,Overijssel,VBO,6.712366,52.468287
Iemenboersweg,1,,,7679TM,Langeveen,Tubbergen,Overijssel,VBO,6.712699,52.468289
Iemenboersweg,5,,,7679TM,Langeveen,Tubbergen,Overijssel,VBO,6.712313,52.468025
Iemenboersweg,6,,,7679TM,Langeveen,Tubbergen,Overijssel,VBO,6.712289,52.468604
Iemenboersweg,7,,,7679TM,Langeveen,Tubbergen,Overijssel,VBO,6.712283,52.467698
Iemenboersweg,8,,,7679TM,Langeveen,Tubbergen,Overijssel,VBO,6.712232,52.468569
Iemenboersweg,9,,,7679TM,Langeveen,Tubbergen,Overijssel,VBO,6.711966,52.467955
Iemenboersweg,10,,,7679TM,Langeveen,Tubbergen,Overijssel,VBO,6.712057,52.468472
Iemenboersweg,17,,,7679TM,Langeveen,Tubbergen,Overijssel,VBO,6.705377,52.462951
Iemenboersweg,18,,,7679TM,Langeveen,Tubbergen,Overijssel,VBO,6.711237,52.467981
Iemenboersweg,19,a,,7679TM,Langeveen,Tubbergen,Overijssel,VBO,6.705626,52.462412
Iemenboersweg,19,,,7679TM,Langeveen,Tubbergen,Overijssel,VBO,6.705525,52.462461
Iemenboersweg,20,,,7679TM,Langeveen,Tubbergen,Overijssel,VBO,6.711178,52.467944
Iemenboersweg,22,,,7679TM,Langeveen,Tubbergen,Overijssel,VBO,6.711032,52.467860
Iemenboersweg,24,,,7679TM,Langeveen,Tubbergen,Overijssel,VBO,6.710972,52.467821
Mandjesberg,2,,,7679TN,Langeveen,Tubbergen,Overijssel,VBO,6.715417,52.464838
Mandjesberg,4,,,7679TN,Langeveen,Tubbergen,Overijssel,VBO,6.715136,52.464742
Mandjesberg,6,,,7679TN,Langeveen,Tubbergen,Overijssel,VBO,6.714906,52.464656
Mandjesberg,8,,,7679TN,Langeveen,Tubbergen,Overijssel,VBO,6.714671,52.464564
Steenstraat,1,,,7679TN,Langeveen,Tubbergen,Overijssel,VBO,6.717170,52.464004
Steenstraat,3,,,7679TN,Langeveen,Tubbergen,Overijssel,VBO,6.717187,52.463953
Steenstraat,5,,,7679TN,Langeveen,Tubbergen,Overijssel,VBO,6.717211,52.463902
Steenstraat,7,,,7679TN,Langeveen,Tubbergen,Overijssel,VBO,6.717132,52.463725
Steenstraat,9,,,7679TN,Langeveen,Tubbergen,Overijssel,VBO,6.717063,52.463703
Steenstraat,11,,,7679TN,Langeveen,Tubbergen,Overijssel,VBO,6.716980,52.463677
Steenstraat,13,,,7679TN,Langeveen,Tubbergen,Overijssel,VBO,6.716821,52.463616
Steenstraat,15,,,7679TN,Langeveen,Tubbergen,Overijssel,VBO,6.716738,52.463590
Steenstraat,17,,,7679TN,Langeveen,Tubbergen,Overijssel,VBO,6.716659,52.463564
Steenstraat,19,,,7679TN,Langeveen,Tubbergen,Overijssel,VBO,6.716583,52.463535
Steenstraat,21,,,7679TN,Langeveen,Tubbergen,Overijssel,VBO,6.716420,52.463473
Steenstraat,23,,,7679TN,Langeveen,Tubbergen,Overijssel,VBO,6.716344,52.463450
Steenstraat,25,,,7679TN,Langeveen,Tubbergen,Overijssel,VBO,6.716268,52.463423
Steenstraat,27,,,7679TN,Langeveen,Tubbergen,Overijssel,VBO,6.716193,52.463397
Mandjesberg,3,,,7679TP,Langeveen,Tubbergen,Overijssel,VBO,6.716218,52.464889
Mandjesberg,5,,,7679TP,Langeveen,Tubbergen,Overijssel,VBO,6.716078,52.464721
Mandjesberg,7,,,7679TP,Langeveen,Tubbergen,Overijssel,VBO,6.715829,52.464609
Mandjesberg,9,,,7679TP,Langeveen,Tubbergen,Overijssel,VBO,6.715573,52.464552
Mandjesberg,11,,,7679TP,Langeveen,Tubbergen,Overijssel,VBO,6.715347,52.464469
Mandjesberg,13,,,7679TP,Langeveen,Tubbergen,Overijssel,VBO,6.715116,52.464390
Mandjesberg,15,,,7679TP,Langeveen,Tubbergen,Overijssel,VBO,6.714914,52.464317
Steenstraat,2,,,7679TP,Langeveen,Tubbergen,Overijssel,VBO,6.716700,52.464125
Steenstraat,4,,,7679TP,Langeveen,Tubbergen,Overijssel,VBO,6.716726,52.464062
Steenstraat,6,,,7679TP,Langeveen,Tubbergen,Overijssel,VBO,6.716752,52.464007
Steenstraat,8,a,,7679TP,Langeveen,Tubbergen,Overijssel,VBO,6.716800,52.463908
Steenstraat,8,,,7679TP,Langeveen,Tubbergen,Overijssel,VBO,6.716780,52.463957
Steenstraat,10,,,7679TP,Langeveen,Tubbergen,Overijssel,VBO,6.716524,52.463791
Steenstraat,12,,,7679TP,Langeveen,Tubbergen,Overijssel,VBO,6.716448,52.463761
Steenstraat,14,,,7679TP,Langeveen,Tubbergen,Overijssel,VBO,6.716367,52.463728
Steenstraat,16,,,7679TP,Langeveen,Tubbergen,Overijssel,VBO,6.716218,52.463681
Steenstraat,18,,,7679TP,Langeveen,Tubbergen,Overijssel,VBO,6.716135,52.463652
Steenstraat,20,,,7679TP,Langeveen,Tubbergen,Overijssel,VBO,6.716054,52.463621
Steenstraat,22,,,7679TP,Langeveen,Tubbergen,Overijssel,VBO,6.715971,52.463593
Molenbergstraat,3,,,7679TR,Langeveen,Tubbergen,Overijssel,VBO,6.718615,52.462076
Molenbergstraat,5,,,7679TR,Langeveen,Tubbergen,Overijssel,VBO,6.718324,52.462026
Molenbergstraat,7,,,7679TR,Langeveen,Tubbergen,Overijssel,VBO,6.718118,52.462025
Molenbergstraat,9,,,7679TR,Langeveen,Tubbergen,Overijssel,VBO,6.718036,52.462012
Molenbergstraat,11,,,7679TR,Langeveen,Tubbergen,Overijssel,VBO,6.717940,52.461993
Molenbergstraat,13,,,7679TR,Langeveen,Tubbergen,Overijssel,VBO,6.717846,52.461977
Molenbergstraat,15,,,7679TR,Langeveen,Tubbergen,Overijssel,VBO,6.717653,52.461925
Molenbergstraat,17,,,7679TR,Langeveen,Tubbergen,Overijssel,VBO,6.717582,52.461900
Molenbergstraat,19,,,7679TR,Langeveen,Tubbergen,Overijssel,VBO,6.717504,52.461874
Molenbergstraat,21,,,7679TR,Langeveen,Tubbergen,Overijssel,VBO,6.717428,52.461850
Molenbergstraat,8,,,7679TS,Langeveen,Tubbergen,Overijssel,VBO,6.717953,52.462263
Molenbergstraat,10,,,7679TS,Langeveen,Tubbergen,Overijssel,VBO,6.717691,52.462213
Molenbergstraat,12,,,7679TS,Langeveen,Tubbergen,Overijssel,VBO,6.717492,52.462164
Molenbergstraat,14,,,7679TS,Langeveen,Tubbergen,Overijssel,VBO,6.717420,52.462136
Molenbergstraat,16,,,7679TS,Langeveen,Tubbergen,Overijssel,VBO,6.717258,52.462073
Molenbergstraat,18,,,7679TS,Langeveen,Tubbergen,Overijssel,VBO,6.717183,52.462044
Molenbergstraat,20,,,7679TS,Langeveen,Tubbergen,Overijssel,VBO,6.715840,52.462323
Molenbergstraat,24,,,7679TS,Langeveen,Tubbergen,Overijssel,VBO,6.714215,52.461759
Molenbergstraat,30,,,7679TS,Langeveen,Tubbergen,Overijssel,VBO,6.713499,52.461222
Hartmanstraat,1,,,7679TT,Langeveen,Tubbergen,Overijssel,VBO,6.717741,52.464288
Hartmanstraat,2,,,7679TT,Langeveen,Tubbergen,Overijssel,VBO,6.717575,52.464553
Hartmanstraat,4,,,7679TT,Langeveen,Tubbergen,Overijssel,VBO,6.717374,52.464536
Hartmanstraat,5,,,7679TT,Langeveen,Tubbergen,Overijssel,VBO,6.717114,52.464188
Hartmanstraat,6,,,7679TT,Langeveen,Tubbergen,Overijssel,VBO,6.717168,52.464477
Hartmanstraat,8,,,7679TT,Langeveen,Tubbergen,Overijssel,VBO,6.716952,52.464461
Hartmanstraat,9,,,7679TT,Langeveen,Tubbergen,Overijssel,VBO,6.716383,52.464047
Hartmanstraat,10,,,7679TT,Langeveen,Tubbergen,Overijssel,VBO,6.716746,52.464404
Hartmanstraat,11,,,7679TT,Langeveen,Tubbergen,Overijssel,VBO,6.716306,52.464029
Hartmanstraat,12,,,7679TT,Langeveen,Tubbergen,Overijssel,VBO,6.716525,52.464386
Hartmanstraat,13,,,7679TT,Langeveen,Tubbergen,Overijssel,VBO,6.716095,52.463969
Hartmanstraat,14,,,7679TT,Langeveen,Tubbergen,Overijssel,VBO,6.716328,52.464327
Hartmanstraat,15,,,7679TT,Langeveen,Tubbergen,Overijssel,VBO,6.715926,52.463909
Hartmanstraat,16,,,7679TT,Langeveen,Tubbergen,Overijssel,VBO,6.716107,52.464291
Hartmanstraat,17,,,7679TT,Langeveen,Tubbergen,Overijssel,VBO,6.715750,52.463849
Hartmanstraat,18,,,7679TT,Langeveen,Tubbergen,Overijssel,VBO,6.715914,52.464228
Hartmanstraat,20,,,7679TT,Langeveen,Tubbergen,Overijssel,VBO,6.715737,52.464165
Hartmanstraat,22,,,7679TT,Langeveen,Tubbergen,Overijssel,VBO,6.715540,52.464108
Hartmanstraat,24,,,7679TT,Langeveen,Tubbergen,Overijssel,VBO,6.715343,52.464029
Hartmanstraat,26,,,7679TT,Langeveen,Tubbergen,Overijssel,VBO,6.715147,52.463978
Dwarsstraat,2,,,7679TV,Langeveen,Tubbergen,Overijssel,VBO,6.719783,52.460329
Dwarsstraat,4,,,7679TV,Langeveen,Tubbergen,Overijssel,VBO,6.719669,52.460310
Dwarsstraat,6,,,7679TV,Langeveen,Tubbergen,Overijssel,VBO,6.719503,52.460284
Vermolenweg,55,a,,7679TW,Langeveen,Tubbergen,Overijssel,VBO,6.710939,52.448428
Vermolenweg,55,b,,7679TW,Langeveen,Tubbergen,Overijssel,VBO,6.710601,52.448158
Vermolenweg,55,c,,7679TW,Langeveen,Tubbergen,Overijssel,VBO,6.709339,52.447917
Vermolenweg,55,c,,7679TW,Langeveen,Tubbergen,Overijssel,VBO,6.709811,52.447868
Vermolenweg,57,a,,7679TW,Langeveen,Tubbergen,Overijssel,VBO,6.711516,52.448652
Vermolenweg,57,,,7679TW,Langeveen,Tubbergen,Overijssel,VBO,6.712006,52.448536
Vermolenweg,59,,,7679TW,Langeveen,Tubbergen,Overijssel,VBO,6.711466,52.449866
Vermolenweg,61,,,7679TW,Langeveen,Tubbergen,Overijssel,VBO,6.708654,52.451954
Lunterhof,2,,,7679TX,Langeveen,Tubbergen,Overijssel,VBO,6.718024,52.461672
Lunterhof,4,,,7679TX,Langeveen,Tubbergen,Overijssel,VBO,6.718097,52.461719
Lunterhof,6,,,7679TX,Langeveen,Tubbergen,Overijssel,VBO,6.718398,52.461626
Lunterhof,8,,,7679TX,Langeveen,Tubbergen,Overijssel,VBO,6.718525,52.461509
Lunterhof,10,,,7679TX,Langeveen,Tubbergen,Overijssel,VBO,6.718653,52.461409
Lunterhof,12,,,7679TX,Langeveen,Tubbergen,Overijssel,VBO,6.718640,52.461244
Lunterhof,14,,,7679TX,Langeveen,Tubbergen,Overijssel,VBO,6.718476,52.461170
Lunterhof,16,,,7679TX,Langeveen,Tubbergen,Overijssel,VBO,6.718317,52.461103
Monnikenberg,7,,,7679TZ,Langeveen,Tubbergen,Overijssel,VBO,6.716493,52.465154
Monnikenberg,9,,,7679TZ,Langeveen,Tubbergen,Overijssel,VBO,6.716190,52.465104
Monnikenberg,10,,,7679TZ,Langeveen,Tubbergen,Overijssel,VBO,6.715925,52.465385
Monnikenberg,11,,,7679TZ,Langeveen,Tubbergen,Overijssel,VBO,6.715441,52.465141
Monnikenberg,12,,,7679TZ,Langeveen,Tubbergen,Overijssel,VBO,6.715601,52.465381
Broekbeekweg,4,a,,7679VA,Langeveen,Tubbergen,Overijssel,VBO,6.738387,52.444204
Broekbeekweg,4,,,7679VA,Langeveen,Tubbergen,Overijssel,VBO,6.738467,52.444083
Langeveenseweg,152,a,,7679VA,Langeveen,Tubbergen,Overijssel,VBO,6.734173,52.445168
Langeveenseweg,152,,,7679VA,Langeveen,Tubbergen,Overijssel,VBO,6.734162,52.445234
Langeveenseweg,154,,,7679VA,Langeveen,Tubbergen,Overijssel,VBO,6.733956,52.446643
Langeveenseweg,156,,,7679VA,Langeveen,Tubbergen,Overijssel,VBO,6.734106,52.447330
Langeveenseweg,159,a,,7679VA,Langeveen,Tubbergen,Overijssel,VBO,6.733202,52.448682
Langeveenseweg,159,,,7679VA,Langeveen,Tubbergen,Overijssel,VBO,6.733258,52.448639
Haarakkersweg,2,,,7679VB,Langeveen,Tubbergen,Overijssel,VBO,6.727686,52.449684
Haarakkersweg,4,,,7679VB,Langeveen,Tubbergen,Overijssel,VBO,6.727612,52.449653
Haarakkersweg,6,,,7679VB,Langeveen,Tubbergen,Overijssel,VBO,6.726464,52.449216
Haarakkersweg,14,,,7679VB,Langeveen,Tubbergen,Overijssel,VBO,6.714294,52.447495
Itterbeekweg,5,,,7679VC,Langeveen,Tubbergen,Overijssel,VBO,6.718921,52.448648
Itterbeekweg,6,,,7679VC,Langeveen,Tubbergen,Overijssel,VBO,6.720926,52.450122
Itterbeekweg,7,,,7679VC,Langeveen,Tubbergen,Overijssel,VBO,6.718546,52.448408
Ossendijk,25,,,7679VD,Langeveen,Tubbergen,Overijssel,VBO,6.715420,52.444870
Ossendijk,27,,,7679VD,Langeveen,Tubbergen,Overijssel,VBO,6.715434,52.445219
Ossendijk,28,a,,7679VD,Langeveen,Tubbergen,Overijssel,VBO,6.716732,52.447741
Ossendijk,28,,,7679VD,Langeveen,Tubbergen,Overijssel,VBO,6.716695,52.447826
Ossendijk,31,a,,7679VD,Langeveen,Tubbergen,Overijssel,VBO,6.715250,52.449406
Ossendijk,31,,,7679VD,Langeveen,Tubbergen,Overijssel,VBO,6.715373,52.449343
Ossendijk,35,,,7679VD,Langeveen,Tubbergen,Overijssel,VBO,6.716065,52.450638
Ossendijk,37,,,7679VD,Langeveen,Tubbergen,Overijssel,VBO,6.716487,52.450932
Ossendijk,39,a,,7679VD,Langeveen,Tubbergen,Overijssel,VBO,6.717345,52.451721
Ossendijk,39,,,7679VD,Langeveen,Tubbergen,Overijssel,VBO,6.717434,52.451782
Ossendijk,41,,,7679VD,Langeveen,Tubbergen,Overijssel,VBO,6.714467,52.453414
Ossendijk,43,,,7679VD,Langeveen,Tubbergen,Overijssel,VBO,6.717897,52.452709
Ossendijk,45,,,7679VD,Langeveen,Tubbergen,Overijssel,VBO,6.717471,52.453510
Ossendijk,47,a,,7679VD,Langeveen,Tubbergen,Overijssel,VBO,6.718415,52.453934
Ossendijk,47,,,7679VD,Langeveen,Tubbergen,Overijssel,VBO,6.718231,52.453865
Ossendijk,48,,,7679VD,Langeveen,Tubbergen,Overijssel,VBO,6.722188,52.452698
Ossendijk,52,a,,7679VD,Langeveen,Tubbergen,Overijssel,VBO,6.720696,52.455508
Ossendijk,52,,,7679VD,Langeveen,Tubbergen,Overijssel,VBO,6.720670,52.455424
Ossendijk,53,,,7679VD,Langeveen,Tubbergen,Overijssel,VBO,6.720285,52.456428
Ossendijk,55,,,7679VD,Langeveen,Tubbergen,Overijssel,VBO,6.720301,52.456512
Kattenhoeksweg,3,,,7679VE,Langeveen,Tubbergen,Overijssel,VBO,6.722566,52.453611
Kerklaan,2,a,,7679VG,Langeveen,Tubbergen,Overijssel,VBO,6.714664,52.469382
Kerklaan,2,,,7679VG,Langeveen,Tubbergen,Overijssel,VBO,6.713991,52.469411
Kerklaan,3,,,7679VG,Langeveen,Tubbergen,Overijssel,VBO,6.713305,52.470181
Kerklaan,5,,,7679VG,Langeveen,Tubbergen,Overijssel,VBO,6.713596,52.470227
Kerklaan,7,,,7679VG,Langeveen,Tubbergen,Overijssel,VBO,6.715796,52.470197
Hardenbergerweg,148,,,7679VH,Langeveen,Tubbergen,Overijssel,VBO,6.739500,52.447238
Hardenbergerweg,150,,,7679VH,Langeveen,Tubbergen,Overijssel,VBO,6.740391,52.448238
Hardenbergerweg,156,,,7679VH,Langeveen,Tubbergen,Overijssel,VBO,6.734434,52.449691
Hardenbergerweg,158,,,7679VH,Langeveen,Tubbergen,Overijssel,VBO,6.733868,52.450065
Hardenbergerweg,160,a,,7679VH,Langeveen,Tubbergen,Overijssel,VBO,6.733840,52.450197
Hardenbergerweg,160,,,7679VH,Langeveen,Tubbergen,Overijssel,VBO,6.733810,52.450106
Hardenbergerweg,164,a,,7679VH,Langeveen,Tubbergen,Overijssel,VBO,6.730572,52.452268
Hardenbergerweg,164,,,7679VH,Langeveen,Tubbergen,Overijssel,VBO,6.730505,52.452193
Hardenbergerweg,166,,,7679VH,Langeveen,Tubbergen,Overijssel,VBO,6.729612,52.453193
Hardenbergerweg,168,a,,7679VH,Langeveen,Tubbergen,Overijssel,VBO,6.728668,52.453913
Hardenbergerweg,168,,,7679VH,Langeveen,Tubbergen,Overijssel,VBO,6.728568,52.453998
Hardenbergerweg,170,,,7679VH,Langeveen,Tubbergen,Overijssel,VBO,6.729687,52.457009
Hardenbergerweg,172,a,,7679VH,Langeveen,Tubbergen,Overijssel,VBO,6.729691,52.457530
Hardenbergerweg,172,,,7679VH,Langeveen,Tubbergen,Overijssel,VBO,6.729774,52.457420
Hardenbergerweg,174,,,7679VH,Langeveen,Tubbergen,Overijssel,VBO,6.726288,52.455344
Hardenbergerweg,178,,,7679VH,Langeveen,Tubbergen,Overijssel,VBO,6.724472,52.456581
Hardenbergerweg,186,,,7679VH,Langeveen,Tubbergen,Overijssel,VBO,6.721045,52.459542
Hardenbergerweg,190,,,7679VH,Langeveen,Tubbergen,Overijssel,VBO,6.720771,52.459887
Hardenbergerweg,194,,,7679VH,Langeveen,Tubbergen,Overijssel,VBO,6.720507,52.460478
Hardenbergerweg,196,,,7679VJ,Langeveen,Tubbergen,Overijssel,VBO,6.720323,52.460850
Hardenbergerweg,202,,,7679VJ,Langeveen,Tubbergen,Overijssel,VBO,6.720155,52.461186
Hardenbergerweg,208,,,7679VJ,Langeveen,Tubbergen,Overijssel,VBO,6.720136,52.461592
Hardenbergerweg,214,,,7679VJ,Langeveen,Tubbergen,Overijssel,VBO,6.719417,52.462025
Hardenbergerweg,220,,,7679VJ,Langeveen,Tubbergen,Overijssel,VBO,6.719366,52.462324
Hardenbergerweg,226,,,7679VJ,Langeveen,Tubbergen,Overijssel,VBO,6.719395,52.462891
Hardenbergerweg,228,,,7679VJ,Langeveen,Tubbergen,Overijssel,VBO,6.718898,52.463252
Hardenbergerweg,244,,,7679VJ,Langeveen,Tubbergen,Overijssel,VBO,6.718312,52.464757
Hardenbergerweg,246,a,,7679VJ,Langeveen,Tubbergen,Overijssel,VBO,6.718339,52.465170
Hardenbergerweg,246,,,7679VJ,Langeveen,Tubbergen,Overijssel,VBO,6.718251,52.465141
Hardenbergerweg,248,a,,7679VJ,Langeveen,Tubbergen,Overijssel,VBO,6.720967,52.466615
Hardenbergerweg,248,,,7679VJ,Langeveen,Tubbergen,Overijssel,VBO,6.721185,52.466723
Hardenbergerweg,250,,,7679VJ,Langeveen,Tubbergen,Overijssel,VBO,6.716577,52.467462
Hardenbergerweg,260,,,7679VJ,Langeveen,Tubbergen,Overijssel,VBO,6.715953,52.467601
Hardenbergerweg,264,,,7679VJ,Langeveen,Tubbergen,Overijssel,VBO,6.715448,52.467917
Hardenbergerweg,270,,,7679VJ,Langeveen,Tubbergen,Overijssel,VBO,6.714643,52.468471
Hardenbergerweg,272,,,7679VJ,Langeveen,Tubbergen,Overijssel,VBO,6.714355,52.468621
Hardenbergerweg,274,,,7679VJ,Langeveen,Tubbergen,Overijssel,VBO,6.714289,52.468658
Hardenbergerweg,280,,,7679VJ,Langeveen,Tubbergen,Overijssel,VBO,6.713397,52.469294
Hardenbergerweg,151,,,7679VK,Langeveen,Tubbergen,Overijssel,VBO,6.737063,52.446940
Hardenbergerweg,153,a,,7679VK,Langeveen,Tubbergen,Overijssel,VBO,6.736203,52.447569
Hardenbergerweg,153,,,7679VK,Langeveen,Tubbergen,Overijssel,VBO,6.736319,52.447457
Hardenbergerweg,161,a,,7679VK,Langeveen,Tubbergen,Overijssel,VBO,6.732130,52.450304
Hardenbergerweg,163,a,,7679VK,Langeveen,Tubbergen,Overijssel,VBO,6.730808,52.451439
Hardenbergerweg,163,,,7679VK,Langeveen,Tubbergen,Overijssel,VBO,6.730633,52.451563
Hardenbergerweg,163,,,7679VK,Langeveen,Tubbergen,Overijssel,VBO,6.730886,52.451370
Hardenbergerweg,165,,,7679VK,Langeveen,Tubbergen,Overijssel,VBO,6.728996,52.452651
Hardenbergerweg,183,,,7679VK,Langeveen,Tubbergen,Overijssel,VBO,6.720713,52.458216
Hardenbergerweg,189,,,7679VK,Langeveen,Tubbergen,Overijssel,VBO,6.720058,52.459777
Hardenbergerweg,195,,,7679VK,Langeveen,Tubbergen,Overijssel,VBO,6.719702,52.460537
Hardenbergerweg,197,,,7679VK,Langeveen,Tubbergen,Overijssel,VBO,6.719619,52.460727
Hardenbergerweg,199,,,7679VK,Langeveen,Tubbergen,Overijssel,VBO,6.719528,52.460860
Hardenbergerweg,201,,,7679VK,Langeveen,Tubbergen,Overijssel,VBO,6.719465,52.461024
Hardenbergerweg,203,,,7679VK,Langeveen,Tubbergen,Overijssel,VBO,6.719396,52.461186
Hardenbergerweg,205,,,7679VK,Langeveen,Tubbergen,Overijssel,VBO,6.719304,52.461322
Hardenbergerweg,207,,,7679VK,Langeveen,Tubbergen,Overijssel,VBO,6.719287,52.461376
Hardenbergerweg,209,,,7679VK,Langeveen,Tubbergen,Overijssel,VBO,6.719158,52.461558
Hardenbergerweg,211,a,,7679VL,Langeveen,Tubbergen,Overijssel,VBO,6.719059,52.461777
Hardenbergerweg,211,,,7679VL,Langeveen,Tubbergen,Overijssel,VBO,6.719042,52.461710
Hardenbergerweg,215,,,7679VL,Langeveen,Tubbergen,Overijssel,VBO,6.718988,52.462034
Hardenbergerweg,219,,,7679VL,Langeveen,Tubbergen,Overijssel,VBO,6.718678,52.462492
Hardenbergerweg,225,,,7679VL,Langeveen,Tubbergen,Overijssel,VBO,6.718514,52.462927
Hardenbergerweg,227,,,7679VL,Langeveen,Tubbergen,Overijssel,VBO,6.718429,52.463141
Hardenbergerweg,229,,,7679VL,Langeveen,Tubbergen,Overijssel,VBO,6.718272,52.463343
Hardenbergerweg,233,,,7679VL,Langeveen,Tubbergen,Overijssel,VBO,6.718089,52.463640
Hardenbergerweg,235,,,7679VL,Langeveen,Tubbergen,Overijssel,VBO,6.717968,52.463784
Hardenbergerweg,239,a,,7679VL,Langeveen,Tubbergen,Overijssel,VBO,6.717796,52.463967
Hardenbergerweg,239,,,7679VL,Langeveen,Tubbergen,Overijssel,VBO,6.717975,52.463962
Hardenbergerweg,241,,,7679VL,Langeveen,Tubbergen,Overijssel,VBO,6.717908,52.464093
Hardenbergerweg,249,a,,7679VM,Langeveen,Tubbergen,Overijssel,VBO,6.716464,52.466333
Hardenbergerweg,249,,,7679VM,Langeveen,Tubbergen,Overijssel,VBO,6.716355,52.466375
Hardenbergerweg,257,,,7679VM,Langeveen,Tubbergen,Overijssel,VBO,6.715940,52.467088
Hardenbergerweg,259,,,7679VM,Langeveen,Tubbergen,Overijssel,VBO,6.715735,52.467208
Hardenbergerweg,269,,,7679VM,Langeveen,Tubbergen,Overijssel,VBO,6.714224,52.468227
Hardenbergerweg,271,,,7679VM,Langeveen,Tubbergen,Overijssel,VBO,6.714036,52.468378
Hardenbergerweg,275,,,7679VM,Langeveen,Tubbergen,Overijssel,VBO,6.713448,52.468658
Hardenbergerweg,281,,,7679VM,Langeveen,Tubbergen,Overijssel,VBO,6.713092,52.469019
Hardenbergerweg,283,,,7679VM,Langeveen,Tubbergen,Overijssel,VBO,6.713037,52.469060
Hardenbergerweg,285,,,7679VM,Langeveen,Tubbergen,Overijssel,VBO,6.712758,52.469223
Hardenbergerweg,287,,,7679VM,Langeveen,Tubbergen,Overijssel,VBO,6.712558,52.469335
Hardenbergerweg,291,,,7679VM,Langeveen,Tubbergen,Overijssel,VBO,6.712426,52.469436
Hardenbergerweg,293,,,7679VM,Langeveen,Tubbergen,Overijssel,VBO,6.712230,52.469536
Hardenbergerweg,295,,,7679VM,Langeveen,Tubbergen,Overijssel,VBO,6.710809,52.469338
Dollerweg,1,,,7679VN,Langeveen,Tubbergen,Overijssel,VBO,6.730061,52.452856
Dollerweg,3,,,7679VN,Langeveen,Tubbergen,Overijssel,VBO,6.730801,52.453741
Dollerweg,7,,,7679VN,Langeveen,Tubbergen,Overijssel,VBO,6.731118,52.455833
Dollerweg,9,,,7679VN,Langeveen,Tubbergen,Overijssel,VBO,6.732606,52.456817
Dollerweg,10,,,7679VN,Langeveen,Tubbergen,Overijssel,VBO,6.734296,52.456756
Dollerweg,16,a,,7679VN,Langeveen,Tubbergen,Overijssel,VBO,6.737054,52.458793
Dollerweg,16,,,7679VN,Langeveen,Tubbergen,Overijssel,VBO,6.736963,52.458815
Dollerweg,17,,,7679VN,Langeveen,Tubbergen,Overijssel,VBO,6.735437,52.460213
Dollerweg,19,a,,7679VN,Langeveen,Tubbergen,Overijssel,VBO,6.736241,52.461468
Dollerweg,19,,,7679VN,Langeveen,Tubbergen,Overijssel,VBO,6.736365,52.461489
Rouweweg,4,,,7679VP,Langeveen,Tubbergen,Overijssel,VBO,6.735040,52.450387
Rouweweg,5,a,,7679VP,Langeveen,Tubbergen,Overijssel,VBO,6.734562,52.452449
Rouweweg,5,,,7679VP,Langeveen,Tubbergen,Overijssel,VBO,6.734700,52.452505
Rouweweg,6,a,,7679VP,Langeveen,Tubbergen,Overijssel,VBO,6.739324,52.450402
Rouweweg,6,,,7679VP,Langeveen,Tubbergen,Overijssel,VBO,6.739233,52.450347
Rouweweg,8,a,,7679VP,Langeveen,Tubbergen,Overijssel,VBO,6.741207,52.450169
Rouweweg,8,,,7679VP,Langeveen,Tubbergen,Overijssel,VBO,6.741279,52.450210
Rouweweg,10,,,7679VP,Langeveen,Tubbergen,Overijssel,VBO,6.740428,52.451502
Rouweweg,14,,,7679VP,Langeveen,Tubbergen,Overijssel,VBO,6.743247,52.451870
Rouweweg,15,,,7679VP,Langeveen,Tubbergen,Overijssel,VBO,6.738433,52.454196
Vasserdijk,32,,,7679VR,Langeveen,Tubbergen,Overijssel,VBO,6.741467,52.456200
Vasserdijk,34,a,,7679VR,Langeveen,Tubbergen,Overijssel,VBO,6.742413,52.459114
Vasserdijk,34,,,7679VR,Langeveen,Tubbergen,Overijssel,VBO,6.742315,52.459139
Vasserdijk,44,,,7679VR,Langeveen,Tubbergen,Overijssel,VBO,6.734497,52.458683
Vasserdijk,46,a,,7679VR,Langeveen,Tubbergen,Overijssel,VBO,6.734206,52.458828
Vasserdijk,46,,,7679VR,Langeveen,Tubbergen,Overijssel,VBO,6.734170,52.458795
Vasserdijk,48,,,7679VR,Langeveen,Tubbergen,Overijssel,VBO,6.733346,52.459291
Vasserdijk,50,,,7679VR,Langeveen,Tubbergen,Overijssel,VBO,6.732490,52.460536
Vasserdijk,54,,,7679VR,Langeveen,Tubbergen,Overijssel,VBO,6.730301,52.461695
Vasserdijk,60,,,7679VR,Langeveen,Tubbergen,Overijssel,VBO,6.727949,52.463193
Vasserdijk,62,,,7679VR,Langeveen,Tubbergen,Overijssel,VBO,6.726674,52.463024
Vasserdijk,70,a,,7679VR,Langeveen,Tubbergen,Overijssel,VBO,6.720902,52.464068
Vasserdijk,70,,,7679VR,Langeveen,Tubbergen,Overijssel,VBO,6.720984,52.464066
Vasserdijk,25,,,7679VS,Langeveen,Tubbergen,Overijssel,VBO,6.750133,52.454410
Vasserdijk,29,a,,7679VS,Langeveen,Tubbergen,Overijssel,VBO,6.745547,52.454490
Vasserdijk,29,,,7679VS,Langeveen,Tubbergen,Overijssel,VBO,6.745407,52.454514
Vasserdijk,31,,,7679VS,Langeveen,Tubbergen,Overijssel,VBO,6.744295,52.454753
Vasserdijk,41,a,,7679VS,Langeveen,Tubbergen,Overijssel,VBO,6.734548,52.457857
Vasserdijk,41,,,7679VS,Langeveen,Tubbergen,Overijssel,VBO,6.734610,52.457899
Vasserdijk,47,a,,7679VS,Langeveen,Tubbergen,Overijssel,VBO,6.732892,52.459011
Vasserdijk,47,,,7679VS,Langeveen,Tubbergen,Overijssel,VBO,6.732813,52.459060
Vasserdijk,51,,,7679VS,Langeveen,Tubbergen,Overijssel,VBO,6.730231,52.460414
Vasserdijk,53,a,,7679VS,Langeveen,Tubbergen,Overijssel,VBO,6.726962,52.460818
Vasserdijk,53,,,7679VS,Langeveen,Tubbergen,Overijssel,VBO,6.727115,52.460802
Vasserdijk,57,a,,7679VS,Langeveen,Tubbergen,Overijssel,VBO,6.727614,52.461930
Vasserdijk,57,,,7679VS,Langeveen,Tubbergen,Overijssel,VBO,6.727711,52.461888
Vasserdijk,65,a,,7679VS,Langeveen,Tubbergen,Overijssel,VBO,6.722996,52.461826
Vasserdijk,65,,,7679VS,Langeveen,Tubbergen,Overijssel,VBO,6.722906,52.461760
Vasserdijk,67,,,7679VS,Langeveen,Tubbergen,Overijssel,VBO,6.722895,52.463355
Vasserdijk,75,,,7679VS,Langeveen,Tubbergen,Overijssel,VBO,6.720382,52.463278
Witteweg,1,,,7679VT,Langeveen,Tubbergen,Overijssel,VBO,6.726252,52.464036
Witteweg,3,,,7679VT,Langeveen,Tubbergen,Overijssel,VBO,6.726372,52.468307
Witteweg,5,a,,7679VT,Langeveen,Tubbergen,Overijssel,VBO,6.728313,52.467212
Witteweg,5,,,7679VT,Langeveen,Tubbergen,Overijssel,VBO,6.728231,52.467286
Witteweg,7,,,7679VT,Langeveen,Tubbergen,Overijssel,VBO,6.731480,52.465843
Witteweg,9,a,,7679VT,Langeveen,Tubbergen,Overijssel,VBO,6.733240,52.466817
Witteweg,9,,,7679VT,Langeveen,Tubbergen,Overijssel,VBO,6.733220,52.466723
Witteweg,13,a,,7679VT,Langeveen,Tubbergen,Overijssel,VBO,6.738748,52.466122
Witteweg,13,,,7679VT,Langeveen,Tubbergen,Overijssel,VBO,6.738848,52.466073
Witteweg,17,a,,7679VT,Langeveen,Tubbergen,Overijssel,VBO,6.741029,52.464591
Witteweg,17,,,7679VT,Langeveen,Tubbergen,Overijssel,VBO,6.740832,52.464623
Witteweg,19,,,7679VT,Langeveen,Tubbergen,Overijssel,VBO,6.743796,52.463693
Witteweg,23,,,7679VT,Langeveen,Tubbergen,Overijssel,VBO,6.748424,52.462928
Witteweg,27,a,,7679VT,Langeveen,Tubbergen,Overijssel,VBO,6.750873,52.460811
Witteweg,27,,,7679VT,Langeveen,Tubbergen,Overijssel,VBO,6.750816,52.460860
Witteweg,33,,,7679VT,Langeveen,Tubbergen,Overijssel,VBO,6.748069,52.457484
Witteweg,37,,,7679VT,Langeveen,Tubbergen,Overijssel,VBO,6.747272,52.455751
Witteweg,39,,,7679VT,Langeveen,Tubbergen,Overijssel,VBO,6.747063,52.455498
Witteweg,4,,,7679VV,Langeveen,Tubbergen,Overijssel,VBO,6.731047,52.463631
Witteweg,8,,,7679VV,Langeveen,Tubbergen,Overijssel,VBO,6.733259,52.464073
Witteweg,10,a,,7679VV,Langeveen,Tubbergen,Overijssel,VBO,6.735405,52.464831
Witteweg,10,b,,7679VV,Langeveen,Tubbergen,Overijssel,VBO,6.735110,52.464261
Witteweg,10,,,7679VV,Langeveen,Tubbergen,Overijssel,VBO,6.735196,52.464545
Witteweg,12,a,,7679VV,Langeveen,Tubbergen,Overijssel,VBO,6.737518,52.465692
Witteweg,12,,,7679VV,Langeveen,Tubbergen,Overijssel,VBO,6.737266,52.465719
Witteweg,20,a,,7679VV,Langeveen,Tubbergen,Overijssel,VBO,6.744624,52.462085
Witteweg,20,,,7679VV,Langeveen,Tubbergen,Overijssel,VBO,6.744570,52.461982
Witteweg,22,,,7679VV,Langeveen,Tubbergen,Overijssel,VBO,6.746285,52.461851
Witteweg,28,,,7679VV,Langeveen,Tubbergen,Overijssel,VBO,6.749595,52.460543
Witteweg,30,a,,7679VV,Langeveen,Tubbergen,Overijssel,VBO,6.746635,52.460157
Witteweg,30,,,7679VV,Langeveen,Tubbergen,Overijssel,VBO,6.746628,52.460065
Witteweg,32,,,7679VV,Langeveen,Tubbergen,Overijssel,VBO,6.743345,52.459905
Witteweg,36,,,7679VV,Langeveen,Tubbergen,Overijssel,VBO,6.746297,52.456033
Pastoor Hoflandstraat,2,,,7679VW,Langeveen,Tubbergen,Overijssel,VBO,6.713470,52.469531
Pastoor Hoflandstraat,4,,,7679VW,Langeveen,Tubbergen,Overijssel,VBO,6.713407,52.469578
Pastoor Hoflandstraat,6,,,7679VW,Langeveen,Tubbergen,Overijssel,VBO,6.713436,52.469687
Pastoor Hoflandstraat,8,,,7679VW,Langeveen,Tubbergen,Overijssel,VBO,6.713375,52.469733
Pastoor Hoflandstraat,10,,,7679VW,Langeveen,Tubbergen,Overijssel,VBO,6.713094,52.469675
Pastoor Hoflandstraat,12,,,7679VW,Langeveen,Tubbergen,Overijssel,VBO,6.713028,52.469719
Pastoor Hoflandstraat,14,,,7679VW,Langeveen,Tubbergen,Overijssel,VBO,6.712753,52.469679
Pastoor Hoflandstraat,16,,,7679VW,Langeveen,Tubbergen,Overijssel,VBO,6.712704,52.469728
Lindenstraat,1,,,7679VX,Langeveen,Tubbergen,Overijssel,VBO,6.711467,52.468137
Lindenstraat,2,,,7679VX,Langeveen,Tubbergen,Overijssel,VBO,6.711765,52.468324
Lindenstraat,3,,,7679VX,Langeveen,Tubbergen,Overijssel,VBO,6.711283,52.468253
Lindenstraat,4,,,7679VX,Langeveen,Tubbergen,Overijssel,VBO,6.711635,52.468407
Langehaarsweg,1,a,,7679VZ,Langeveen,Tubbergen,Overijssel,VBO,6.719872,52.458634
Langehaarsweg,1,,,7679VZ,Langeveen,Tubbergen,Overijssel,VBO,6.719726,52.458771
Langehaarsweg,3,,,7679VZ,Langeveen,Tubbergen,Overijssel,VBO,6.718440,52.458824
Langehaarsweg,20,,,7679VZ,Langeveen,Tubbergen,Overijssel,VBO,6.713526,52.464231
Weuststraat,2,,,7679WB,Langeveen,Tubbergen,Overijssel,VBO,6.710351,52.468213
Weuststraat,4,,,7679WB,Langeveen,Tubbergen,Overijssel,VBO,6.710555,52.468265
Weuststraat,6,,,7679WB,Langeveen,Tubbergen,Overijssel,VBO,6.710810,52.468254
Weuststraat,8,,,7679WB,Langeveen,Tubbergen,Overijssel,VBO,6.711016,52.468246
Weuststraat,16,,,7679WB,Langeveen,Tubbergen,Overijssel,VBO,6.711905,52.468689
Weuststraat,18,,,7679WB,Langeveen,Tubbergen,Overijssel,VBO,6.711847,52.468810
Weuststraat,20,,,7679WB,Langeveen,Tubbergen,Overijssel,VBO,6.711728,52.468933
Weuststraat,22,,,7679WB,Langeveen,Tubbergen,Overijssel,VBO,6.711636,52.469050
Weuststraat,1,,,7679WC,Langeveen,Tubbergen,Overijssel,VBO,6.710196,52.468430
Weuststraat,3,,,7679WC,Langeveen,Tubbergen,Overijssel,VBO,6.710288,52.468449
Weuststraat,5,,,7679WC,Langeveen,Tubbergen,Overijssel,VBO,6.710454,52.468482
Weuststraat,7,,,7679WC,Langeveen,Tubbergen,Overijssel,VBO,6.710547,52.468500
Weuststraat,9,,,7679WC,Langeveen,Tubbergen,Overijssel,VBO,6.710730,52.468519
Weuststraat,11,,,7679WC,Langeveen,Tubbergen,Overijssel,VBO,6.710816,52.468537
Weuststraat,13,,,7679WC,Langeveen,Tubbergen,Overijssel,VBO,6.710928,52.468519
Weuststraat,15,,,7679WC,Langeveen,Tubbergen,Overijssel,VBO,6.711017,52.468536
Weuststraat,17,,,7679WC,Langeveen,Tubbergen,Overijssel,VBO,6.711209,52.468543
Weuststraat,19,,,7679WC,Langeveen,Tubbergen,Overijssel,VBO,6.711290,52.468564
Weuststraat,21,,,7679WC,Langeveen,Tubbergen,Overijssel,VBO,6.711367,52.468612
Weuststraat,23,,,7679WC,Langeveen,Tubbergen,Overijssel,VBO,6.711440,52.468629
Weuststraat,25,,,7679WC,Langeveen,Tubbergen,Overijssel,VBO,6.711316,52.468796
Weuststraat,27,,,7679WC,Langeveen,Tubbergen,Overijssel,VBO,6.711292,52.468840
Weuststraat,29,,,7679WC,Langeveen,Tubbergen,Overijssel,VBO,6.711212,52.468947
Weuststraat,35,,,7679WC,Langeveen,Tubbergen,Overijssel,VBO,6.711748,52.469677
Weuststraat,37,,,7679WC,Langeveen,Tubbergen,Overijssel,VBO,6.711894,52.469795
Dennenhof,2,,,7679WD,Langeveen,Tubbergen,Overijssel,VBO,6.711547,52.469617
Dennenhof,9,,,7679WD,Langeveen,Tubbergen,Overijssel,VBO,6.710622,52.469697
Dennenhof,11,,,7679WD,Langeveen,Tubbergen,Overijssel,VBO,6.710679,52.469833
Dennenhof,13,,,7679WD,Langeveen,Tubbergen,Overijssel,VBO,6.710889,52.469992
Dennenhof,15,,,7679WD,Langeveen,Tubbergen,Overijssel,VBO,6.711109,52.470004
Dennenhof,17,,,7679WD,Langeveen,Tubbergen,Overijssel,VBO,6.711375,52.470043
Dennenhof,19,,,7679WD,Langeveen,Tubbergen,Overijssel,VBO,6.711545,52.469905
Heidehof,1,,,7679WE,Langeveen,Tubbergen,Overijssel,VBO,6.710070,52.468735
Heidehof,2,,,7679WE,Langeveen,Tubbergen,Overijssel,VBO,6.710376,52.469035
Heidehof,3,,,7679WE,Langeveen,Tubbergen,Overijssel,VBO,6.710323,52.468762
Heidehof,4,,,7679WE,Langeveen,Tubbergen,Overijssel,VBO,6.710603,52.469085
Heidehof,5,,,7679WE,Langeveen,Tubbergen,Overijssel,VBO,6.710561,52.468797
Heidehof,7,,,7679WE,Langeveen,Tubbergen,Overijssel,VBO,6.710632,52.468812
Heidehof,9,,,7679WE,Langeveen,Tubbergen,Overijssel,VBO,6.710845,52.468903
Hof van Plegt,1,,,7679WG,Langeveen,Tubbergen,Overijssel,VBO,6.716211,52.463065
Hof van Plegt,5,,,7679WG,Langeveen,Tubbergen,Overijssel,VBO,6.717071,52.463340
Hof van Plegt,9,,,7679WG,Langeveen,Tubbergen,Overijssel,VBO,6.717697,52.463288
Hof van Plegt,10,,,7679WG,Langeveen,Tubbergen,Overijssel,VBO,6.717747,52.463227
Hof van Plegt,11,,,7679WG,Langeveen,Tubbergen,Overijssel,VBO,6.717781,52.463119
Hof van Plegt,12,,,7679WG,Langeveen,Tubbergen,Overijssel,VBO,6.717815,52.463058
Hof van Plegt,13,,,7679WG,Langeveen,Tubbergen,Overijssel,VBO,6.717877,52.462937
Hof van Plegt,15,,,7679WG,Langeveen,Tubbergen,Overijssel,VBO,6.717713,52.462714
Hof van Plegt,16,,,7679WG,Langeveen,Tubbergen,Overijssel,VBO,6.717503,52.462666
Hof van Plegt,18,,,7679WG,Langeveen,Tubbergen,Overijssel,VBO,6.717104,52.462733
Hof van Plegt,19,,,7679WG,Langeveen,Tubbergen,Overijssel,VBO,6.717004,52.462859
Hof van Plegt,20,,,7679WG,Langeveen,Tubbergen,Overijssel,VBO,6.716869,52.462980
Knooperf de Veldboer,1,,,7679WH,Langeveen,Tubbergen,Overijssel,VBO,6.717438,52.469657
