openbareruimtenaam,huisnummer,huisletter,huisnummertoevoeging,postcode,woonplaatsnaam,gemeentenaam,provincienaam,typeadresseerbaarobject,longitude,latitude
Vijverweg,1,a,,7715PA,Punthorst,Staphorst,Overijssel,VBO,6.263487,52.613771
Vijverweg,1,,,7715PA,Punthorst,Staphorst,Overijssel,VBO,6.264524,52.614838
Vijverweg,2,,,7715PA,Punthorst,Staphorst,Overijssel,VBO,6.267665,52.616368
Vijverweg,3,,,7715PA,Punthorst,Staphorst,Overijssel,VBO,6.265799,52.615838
Vijverweg,4,,,7715PA,Punthorst,Staphorst,Overijssel,VBO,6.271067,52.618964
Vijverweg,5,,,7715PA,Punthorst,Staphorst,Overijssel,VBO,6.270391,52.619364
Vijverweg,7,,,7715PA,Punthorst,Staphorst,Overijssel,VBO,6.272824,52.622970
Vijverweg,9,,,7715PA,Punthorst,Staphorst,Overijssel,VBO,6.271488,52.625892
IJhorsterveldweg,3,,,7715PB,Punthorst,Staphorst,Overijssel,VBO,6.306043,52.626592
IJhorsterveldweg,5,,,7715PB,Punthorst,Staphorst,Overijssel,VBO,6.305160,52.625156
IJhorsterveldweg,7,,,7715PB,Punthorst,Staphorst,Overijssel,VBO,6.305232,52.624012
Keppelweg,2,a,,7715PC,Punthorst,Staphorst,Overijssel,VBO,6.312403,52.623735
Keppelweg,2,b,,7715PC,Punthorst,Staphorst,Overijssel,VBO,6.312525,52.623040
Keppelweg,2,,,7715PC,Punthorst,Staphorst,Overijssel,VBO,6.312464,52.622879
Keppelweg,4,a,,7715PC,Punthorst,Staphorst,Overijssel,VBO,6.309501,52.621348
Keppelweg,4,b,,7715PC,Punthorst,Staphorst,Overijssel,VBO,6.309430,52.621666
Keppelweg,4,,,7715PC,Punthorst,Staphorst,Overijssel,VBO,6.308182,52.621591
Keppelweg,6,,,7715PC,Punthorst,Staphorst,Overijssel,VBO,6.306060,52.621975
Ir J Nysinghstraat,2,,,7715PE,Punthorst,Staphorst,Overijssel,VBO,6.263940,52.614158
Ir J Nysinghstraat,4,,,7715PE,Punthorst,Staphorst,Overijssel,VBO,6.263605,52.614278
Ir J Nysinghstraat,6,,,7715PE,Punthorst,Staphorst,Overijssel,VBO,6.263303,52.614422
Ir J Nysinghstraat,8,,,7715PE,Punthorst,Staphorst,Overijssel,VBO,6.263077,52.614523
Ir J Nysinghstraat,10,,,7715PE,Punthorst,Staphorst,Overijssel,VBO,6.262826,52.614645
Ir J Nysinghstraat,12,,,7715PE,Punthorst,Staphorst,Overijssel,VBO,6.262585,52.614773
Ir J Nysinghstraat,14,,,7715PE,Punthorst,Staphorst,Overijssel,VBO,6.262401,52.614896
Ir J Nysinghstraat,16,,,7715PE,Punthorst,Staphorst,Overijssel,VBO,6.262105,52.614998
Ir J Nysinghstraat,18,,,7715PE,Punthorst,Staphorst,Overijssel,VBO,6.261841,52.614894
Ir J Nysinghstraat,20,,,7715PE,Punthorst,Staphorst,Overijssel,VBO,6.261630,52.614713
Ir J Nysinghstraat,22,,,7715PE,Punthorst,Staphorst,Overijssel,VBO,6.261418,52.614568
Ir J Nysinghstraat,1,a,,7715PG,Punthorst,Staphorst,Overijssel,VBO,6.263035,52.614123
Ir J Nysinghstraat,1,b,,7715PG,Punthorst,Staphorst,Overijssel,VBO,6.263269,52.614075
Ir J Nysinghstraat,1,,,7715PG,Punthorst,Staphorst,Overijssel,VBO,6.263606,52.613890
Ir J Nysinghstraat,3,a,,7715PG,Punthorst,Staphorst,Overijssel,VBO,6.262693,52.614255
Ir J Nysinghstraat,3,,,7715PG,Punthorst,Staphorst,Overijssel,VBO,6.262526,52.614334
Ir J Nysinghstraat,5,,,7715PG,Punthorst,Staphorst,Overijssel,VBO,6.262402,52.614468
Ir J Nysinghstraat,7,,,7715PG,Punthorst,Staphorst,Overijssel,VBO,6.262330,52.614501
Ir J Nysinghstraat,9,,,7715PG,Punthorst,Staphorst,Overijssel,VBO,6.262165,52.614578
Ir J Nysinghstraat,11,,,7715PG,Punthorst,Staphorst,Overijssel,VBO,6.262045,52.614603
Evenboersweg,26,,,7715PH,Punthorst,Staphorst,Overijssel,VBO,6.283318,52.598372
Evenboersweg,28,,,7715PH,Punthorst,Staphorst,Overijssel,VBO,6.283109,52.598880
Evenboersweg,30,,,7715PH,Punthorst,Staphorst,Overijssel,VBO,6.282775,52.599172
Evenboersweg,32,,,7715PH,Punthorst,Staphorst,Overijssel,VBO,6.282743,52.599389
Evenboersweg,34,,,7715PH,Punthorst,Staphorst,Overijssel,VBO,6.281557,52.602391
Evenboersweg,36,,,7715PH,Punthorst,Staphorst,Overijssel,VBO,6.282826,52.602654
Evenboersweg,38,,,7715PH,Punthorst,Staphorst,Overijssel,VBO,6.283389,52.603208
Evenboersweg,40,,,7715PH,Punthorst,Staphorst,Overijssel,VBO,6.283485,52.603222
Evenboersweg,42,,,7715PH,Punthorst,Staphorst,Overijssel,VBO,6.284037,52.603471
Evenboersweg,44,,,7715PH,Punthorst,Staphorst,Overijssel,VBO,6.286123,52.604244
Evenboersweg,46,,,7715PH,Punthorst,Staphorst,Overijssel,VBO,6.287097,52.604600
Evenboersweg,48,,,7715PH,Punthorst,Staphorst,Overijssel,VBO,6.288402,52.605204
Evenboersweg,50,,,7715PH,Punthorst,Staphorst,Overijssel,VBO,6.289166,52.605700
Evenboersweg,52,,,7715PH,Punthorst,Staphorst,Overijssel,VBO,6.290134,52.606259
Evenboersweg,54,,,7715PH,Punthorst,Staphorst,Overijssel,VBO,6.295207,52.607887
Evenboersweg,58,,,7715PH,Punthorst,Staphorst,Overijssel,VBO,6.297548,52.610041
Evenboersweg,7,a,,7715PJ,Punthorst,Staphorst,Overijssel,VBO,6.281667,52.596879
Evenboersweg,7,,,7715PJ,Punthorst,Staphorst,Overijssel,VBO,6.281787,52.597013
Evenboersweg,9,a,,7715PJ,Punthorst,Staphorst,Overijssel,VBO,6.279470,52.598259
Evenboersweg,9,,,7715PJ,Punthorst,Staphorst,Overijssel,VBO,6.279638,52.598278
Evenboersweg,11,,,7715PJ,Punthorst,Staphorst,Overijssel,VBO,6.282429,52.598636
Evenboersweg,13,,,7715PJ,Punthorst,Staphorst,Overijssel,VBO,6.281908,52.599063
Evenboersweg,15,,,7715PJ,Punthorst,Staphorst,Overijssel,VBO,6.281232,52.600863
Evenboersweg,17,,,7715PJ,Punthorst,Staphorst,Overijssel,VBO,6.282343,52.603320
Evenboersweg,19,,,7715PJ,Punthorst,Staphorst,Overijssel,VBO,6.282459,52.603347
Evenboersweg,21,,,7715PJ,Punthorst,Staphorst,Overijssel,VBO,6.287240,52.605159
Evenboersweg,23,,,7715PJ,Punthorst,Staphorst,Overijssel,VBO,6.289116,52.606231
Evenboersweg,25,a,,7715PJ,Punthorst,Staphorst,Overijssel,VBO,6.291056,52.607146
Evenboersweg,25,,,7715PJ,Punthorst,Staphorst,Overijssel,VBO,6.291374,52.606956
Evenboersweg,27,,,7715PJ,Punthorst,Staphorst,Overijssel,VBO,6.296236,52.611211
Evenboersweg,29,,,7715PJ,Punthorst,Staphorst,Overijssel,VBO,6.296843,52.611221
Evenboersweg,31,,,7715PJ,Punthorst,Staphorst,Overijssel,VBO,6.297246,52.611212
Evenboersweg,33,,,7715PJ,Punthorst,Staphorst,Overijssel,VBO,6.297921,52.611310
Evenboersweg,35,,,7715PJ,Punthorst,Staphorst,Overijssel,VBO,6.298533,52.611130
Evenboersweg,37,,,7715PJ,Punthorst,Staphorst,Overijssel,VBO,6.299427,52.611494
Evenboersweg,39,,,7715PJ,Punthorst,Staphorst,Overijssel,VBO,6.305264,52.613288
Puntweg,1,,,7715PK,Punthorst,Staphorst,Overijssel,VBO,6.283154,52.600312
Puntweg,3,,,7715PK,Punthorst,Staphorst,Overijssel,VBO,6.286700,52.599427
Puntweg,4,,,7715PK,Punthorst,Staphorst,Overijssel,VBO,6.293085,52.596936
Puntweg,5,,,7715PK,Punthorst,Staphorst,Overijssel,VBO,6.289475,52.599473
Puntweg,6,,,7715PK,Punthorst,Staphorst,Overijssel,VBO,6.293293,52.600570
Puntweg,7,a,,7715PK,Punthorst,Staphorst,Overijssel,VBO,6.296222,52.601785
Puntweg,7,,,7715PK,Punthorst,Staphorst,Overijssel,VBO,6.295518,52.601884
Puntweg,8,a,,7715PK,Punthorst,Staphorst,Overijssel,VBO,6.297023,52.601344
Puntweg,8,b,,7715PK,Punthorst,Staphorst,Overijssel,VBO,6.297607,52.601377
Puntweg,8,,,7715PK,Punthorst,Staphorst,Overijssel,VBO,6.296895,52.601427
Puntweg,9,a,,7715PK,Punthorst,Staphorst,Overijssel,VBO,6.297663,52.602003
Puntweg,9,,,7715PK,Punthorst,Staphorst,Overijssel,VBO,6.296720,52.602194
Puntweg,11,,,7715PK,Punthorst,Staphorst,Overijssel,VBO,6.298759,52.602306
Puntweg,13,a,,7715PK,Punthorst,Staphorst,Overijssel,VBO,6.300105,52.602258
Puntweg,13,,,7715PK,Punthorst,Staphorst,Overijssel,VBO,6.299554,52.602334
Puntweg,15,,,7715PK,Punthorst,Staphorst,Overijssel,VBO,6.300057,52.604793
Puntweg,17,,,7715PK,Punthorst,Staphorst,Overijssel,VBO,6.302588,52.602309
Sterkensweg,1,a,,7715PL,Punthorst,Staphorst,Overijssel,VBO,6.306983,52.614513
Sterkensweg,1,,,7715PL,Punthorst,Staphorst,Overijssel,VBO,6.307050,52.614250
Sterkensweg,2,,,7715PL,Punthorst,Staphorst,Overijssel,VBO,6.306370,52.615278
Sterkensweg,3,,,7715PL,Punthorst,Staphorst,Overijssel,VBO,6.305717,52.610067
Sterkensweg,4,,,7715PL,Punthorst,Staphorst,Overijssel,VBO,6.303849,52.609673
Sterkensweg,6,,,7715PL,Punthorst,Staphorst,Overijssel,VBO,6.303872,52.605174
Sterkensweg,7,a,,7715PL,Punthorst,Staphorst,Overijssel,VBO,6.304710,52.606198
Sterkensweg,7,,,7715PL,Punthorst,Staphorst,Overijssel,VBO,6.304692,52.606123
Sterkensweg,8,,SLP,7715PL,Punthorst,Staphorst,Overijssel,VBO,6.303304,52.605022
Sterkensweg,8,,,7715PL,Punthorst,Staphorst,Overijssel,VBO,6.303013,52.604531
Sterkensweg,9,a,,7715PL,Punthorst,Staphorst,Overijssel,VBO,6.304700,52.605027
Sterkensweg,9,b,,7715PL,Punthorst,Staphorst,Overijssel,VBO,6.305110,52.605087
Sterkensweg,9,,,7715PL,Punthorst,Staphorst,Overijssel,VBO,6.304701,52.604878
Mr JB Kanlaan,2,a,,7715PM,Punthorst,Staphorst,Overijssel,VBO,6.242382,52.622318
Mr JB Kanlaan,2,,,7715PM,Punthorst,Staphorst,Overijssel,VBO,6.242182,52.623006
Mr JB Kanlaan,4,,,7715PM,Punthorst,Staphorst,Overijssel,VBO,6.242277,52.622947
Mr JB Kanlaan,6,a,,7715PM,Punthorst,Staphorst,Overijssel,VBO,6.245859,52.621220
Mr JB Kanlaan,6,,,7715PM,Punthorst,Staphorst,Overijssel,VBO,6.245731,52.621124
Mr JB Kanlaan,8,a,,7715PM,Punthorst,Staphorst,Overijssel,VBO,6.247537,52.620418
Mr JB Kanlaan,8,,,7715PM,Punthorst,Staphorst,Overijssel,VBO,6.247475,52.620454
Mr JB Kanlaan,10,a,,7715PM,Punthorst,Staphorst,Overijssel,VBO,6.249977,52.619197
Mr JB Kanlaan,10,,,7715PM,Punthorst,Staphorst,Overijssel,VBO,6.249799,52.619309
Mr JB Kanlaan,12,,,7715PM,Punthorst,Staphorst,Overijssel,VBO,6.252101,52.618103
Mr JB Kanlaan,14,,,7715PM,Punthorst,Staphorst,Overijssel,VBO,6.253813,52.617529
Mr JB Kanlaan,16,,,7715PM,Punthorst,Staphorst,Overijssel,VBO,6.254193,52.617244
Mr JB Kanlaan,18,,,7715PM,Punthorst,Staphorst,Overijssel,VBO,6.255580,52.616665
Mr JB Kanlaan,20,,,7715PM,Punthorst,Staphorst,Overijssel,VBO,6.256525,52.616274
Mr JB Kanlaan,22,,,7715PM,Punthorst,Staphorst,Overijssel,VBO,6.257236,52.615771
Mr JB Kanlaan,24,,,7715PM,Punthorst,Staphorst,Overijssel,VBO,6.263293,52.613043
Mr JB Kanlaan,26,,,7715PM,Punthorst,Staphorst,Overijssel,VBO,6.263560,52.612970
Mr JB Kanlaan,28,,,7715PM,Punthorst,Staphorst,Overijssel,VBO,6.263785,52.612825
Mr JB Kanlaan,30,,,7715PM,Punthorst,Staphorst,Overijssel,VBO,6.264047,52.612741
Mr JB Kanlaan,32,,,7715PM,Punthorst,Staphorst,Overijssel,VBO,6.264237,52.612262
Mr JB Kanlaan,34,i,,7715PM,Punthorst,Staphorst,Overijssel,VBO,6.265296,52.612103
Mr JB Kanlaan,34,,,7715PM,Punthorst,Staphorst,Overijssel,VBO,6.265376,52.612062
Mr JB Kanlaan,36,,,7715PM,Punthorst,Staphorst,Overijssel,VBO,6.266490,52.611525
Mr JB Kanlaan,38,,,7715PM,Punthorst,Staphorst,Overijssel,VBO,6.266851,52.611376
Mr JB Kanlaan,40,,,7715PM,Punthorst,Staphorst,Overijssel,VBO,6.267394,52.611036
Mr JB Kanlaan,42,,,7715PM,Punthorst,Staphorst,Overijssel,VBO,6.267630,52.610898
Mr JB Kanlaan,44,,,7715PN,Punthorst,Staphorst,Overijssel,VBO,6.268858,52.610436
Mr JB Kanlaan,46,,,7715PN,Punthorst,Staphorst,Overijssel,VBO,6.269081,52.610235
Mr JB Kanlaan,48,,,7715PN,Punthorst,Staphorst,Overijssel,VBO,6.269646,52.609789
Mr JB Kanlaan,50,,,7715PN,Punthorst,Staphorst,Overijssel,VBO,6.271111,52.609226
Mr JB Kanlaan,52,,,7715PN,Punthorst,Staphorst,Overijssel,VBO,6.273405,52.608083
Mr JB Kanlaan,54,,,7715PN,Punthorst,Staphorst,Overijssel,VBO,6.273263,52.607923
Mr JB Kanlaan,56,,,7715PN,Punthorst,Staphorst,Overijssel,VBO,6.267319,52.604895
Mr JB Kanlaan,58,,,7715PN,Punthorst,Staphorst,Overijssel,VBO,6.274172,52.607895
Mr JB Kanlaan,60,,,7715PN,Punthorst,Staphorst,Overijssel,VBO,6.276475,52.606489
Mr JB Kanlaan,62,,,7715PN,Punthorst,Staphorst,Overijssel,VBO,6.274580,52.605999
Mr JB Kanlaan,64,,,7715PN,Punthorst,Staphorst,Overijssel,VBO,6.274575,52.605844
Mr JB Kanlaan,1,a,,7715PP,Punthorst,Staphorst,Overijssel,VBO,6.245286,52.622389
Mr JB Kanlaan,1,,,7715PP,Punthorst,Staphorst,Overijssel,VBO,6.245108,52.622269
Mr JB Kanlaan,3,a,,7715PP,Punthorst,Staphorst,Overijssel,VBO,6.248744,52.620657
Mr JB Kanlaan,3,b,,7715PP,Punthorst,Staphorst,Overijssel,VBO,6.251236,52.619501
Mr JB Kanlaan,3,,,7715PP,Punthorst,Staphorst,Overijssel,VBO,6.248630,52.620568
Mr JB Kanlaan,5,,,7715PP,Punthorst,Staphorst,Overijssel,VBO,6.254494,52.618033
Mr JB Kanlaan,7,b,,7715PP,Punthorst,Staphorst,Overijssel,VBO,6.255910,52.617453
Mr JB Kanlaan,7,i,,7715PP,Punthorst,Staphorst,Overijssel,VBO,6.254741,52.617788
Mr JB Kanlaan,7,,,7715PP,Punthorst,Staphorst,Overijssel,VBO,6.254880,52.617786
Mr JB Kanlaan,9,,,7715PP,Punthorst,Staphorst,Overijssel,VBO,6.256715,52.617008
Mr JB Kanlaan,11,,,7715PP,Punthorst,Staphorst,Overijssel,VBO,6.256672,52.616868
Mr JB Kanlaan,13,a,,7715PP,Punthorst,Staphorst,Overijssel,VBO,6.258509,52.616197
Mr JB Kanlaan,13,,,7715PP,Punthorst,Staphorst,Overijssel,VBO,6.258405,52.616107
Mr JB Kanlaan,15,,,7715PP,Punthorst,Staphorst,Overijssel,VBO,6.259372,52.615605
Mr JB Kanlaan,17,,,7715PP,Punthorst,Staphorst,Overijssel,VBO,6.261790,52.614353
Mr JB Kanlaan,19,,,7715PP,Punthorst,Staphorst,Overijssel,VBO,6.261963,52.614244
Mr JB Kanlaan,21,,,7715PP,Punthorst,Staphorst,Overijssel,VBO,6.262202,52.614205
Mr JB Kanlaan,23,,,7715PP,Punthorst,Staphorst,Overijssel,VBO,6.262430,52.614090
Mr JB Kanlaan,25,,,7715PP,Punthorst,Staphorst,Overijssel,VBO,6.262684,52.613956
Mr JB Kanlaan,27,,,7715PP,Punthorst,Staphorst,Overijssel,VBO,6.262818,52.613867
Mr JB Kanlaan,29,,,7715PP,Punthorst,Staphorst,Overijssel,VBO,6.263171,52.613806
Mr JB Kanlaan,31,,,7715PP,Punthorst,Staphorst,Overijssel,VBO,6.263293,52.613668
Mr JB Kanlaan,33,,,7715PP,Punthorst,Staphorst,Overijssel,VBO,6.263852,52.613433
Mr JB Kanlaan,35,a,,7715PP,Punthorst,Staphorst,Overijssel,VBO,6.268004,52.611635
Mr JB Kanlaan,35,,,7715PP,Punthorst,Staphorst,Overijssel,VBO,6.267932,52.611637
Mr JB Kanlaan,37,,,7715PP,Punthorst,Staphorst,Overijssel,VBO,6.269759,52.610596
Mr JB Kanlaan,39,,,7715PP,Punthorst,Staphorst,Overijssel,VBO,6.270747,52.610381
Mr JB Kanlaan,41,,,7715PR,Punthorst,Staphorst,Overijssel,VBO,6.271854,52.609909
Mr JB Kanlaan,43,,,7715PR,Punthorst,Staphorst,Overijssel,VBO,6.271896,52.609687
Mr JB Kanlaan,45,,,7715PR,Punthorst,Staphorst,Overijssel,VBO,6.272164,52.609565
Mr JB Kanlaan,47,,,7715PR,Punthorst,Staphorst,Overijssel,VBO,6.272627,52.609374
Mr JB Kanlaan,49,,,7715PR,Punthorst,Staphorst,Overijssel,VBO,6.273055,52.609287
Mr JB Kanlaan,51,,,7715PR,Punthorst,Staphorst,Overijssel,VBO,6.273192,52.609144
Mr JB Kanlaan,53,a,,7715PR,Punthorst,Staphorst,Overijssel,VBO,6.273829,52.608892
Mr JB Kanlaan,53,,,7715PR,Punthorst,Staphorst,Overijssel,VBO,6.273904,52.608697
Mr JB Kanlaan,55,,,7715PR,Punthorst,Staphorst,Overijssel,VBO,6.275392,52.608059
Mr JB Kanlaan,57,,,7715PR,Punthorst,Staphorst,Overijssel,VBO,6.275750,52.607832
Mr JB Kanlaan,59,a,BIJ,7715PR,Punthorst,Staphorst,Overijssel,VBO,6.277526,52.607018
Mr JB Kanlaan,59,a,,7715PR,Punthorst,Staphorst,Overijssel,VBO,6.277749,52.607352
Mr JB Kanlaan,59,,,7715PR,Punthorst,Staphorst,Overijssel,VBO,6.277391,52.606910
Mr JB Kanlaan,61,,,7715PR,Punthorst,Staphorst,Overijssel,VBO,6.278138,52.606434
Mr JB Kanlaan,63,,,7715PR,Punthorst,Staphorst,Overijssel,VBO,6.278595,52.606195
de Maat,35,,,7715PS,Punthorst,Staphorst,Overijssel,VBO,6.305196,52.605550
Schapendijk,2,a,,7715PT,Punthorst,Staphorst,Overijssel,VBO,6.261611,52.612839
Schapendijk,2,i,,7715PT,Punthorst,Staphorst,Overijssel,VBO,6.261738,52.612829
Schapendijk,2,,,7715PT,Punthorst,Staphorst,Overijssel,VBO,6.261740,52.612779
Schapendijk,4,a,,7715PT,Punthorst,Staphorst,Overijssel,VBO,6.258587,52.610264
Schapendijk,4,,,7715PT,Punthorst,Staphorst,Overijssel,VBO,6.258707,52.610181
Schapendijk,6,a,,7715PT,Punthorst,Staphorst,Overijssel,VBO,6.254359,52.606593
Schapendijk,6,,,7715PT,Punthorst,Staphorst,Overijssel,VBO,6.254677,52.606717
Schapendijk,8,a,,7715PT,Punthorst,Staphorst,Overijssel,VBO,6.253959,52.605580
Schapendijk,8,i,,7715PT,Punthorst,Staphorst,Overijssel,VBO,6.254051,52.605485
Schapendijk,8,,,7715PT,Punthorst,Staphorst,Overijssel,VBO,6.254093,52.605543
Schapendijk,10,a,,7715PT,Punthorst,Staphorst,Overijssel,VBO,6.253239,52.603028
Schapendijk,10,b,,7715PT,Punthorst,Staphorst,Overijssel,VBO,6.252476,52.603267
Schapendijk,10,,,7715PT,Punthorst,Staphorst,Overijssel,VBO,6.253504,52.603802
Schapendijk,12,i,,7715PT,Punthorst,Staphorst,Overijssel,VBO,6.252689,52.602436
Schapendijk,12,,,7715PT,Punthorst,Staphorst,Overijssel,VBO,6.252845,52.602424
Schapendijk,14,a,,7715PT,Punthorst,Staphorst,Overijssel,VBO,6.252967,52.601244
Schapendijk,14,,,7715PT,Punthorst,Staphorst,Overijssel,VBO,6.253060,52.601579
Schapendijk,16,,,7715PT,Punthorst,Staphorst,Overijssel,VBO,6.250120,52.602018
Schapendijk,18,a,,7715PT,Punthorst,Staphorst,Overijssel,VBO,6.253251,52.599929
Schapendijk,18,,,7715PT,Punthorst,Staphorst,Overijssel,VBO,6.249438,52.601722
Schapendijk,20,,,7715PT,Punthorst,Staphorst,Overijssel,VBO,6.253467,52.599546
Schapendijk,22,,,7715PT,Punthorst,Staphorst,Overijssel,VBO,6.254318,52.596683
Schapendijk,24,,,7715PT,Punthorst,Staphorst,Overijssel,VBO,6.254572,52.595714
Schapendijk,26,,,7715PT,Punthorst,Staphorst,Overijssel,VBO,6.254545,52.595068
Schapendijk,28,,,7715PT,Punthorst,Staphorst,Overijssel,VBO,6.255012,52.594779
Schapendijk,30,,,7715PT,Punthorst,Staphorst,Overijssel,VBO,6.254006,52.592540
Schapendijk,1,a,,7715PV,Punthorst,Staphorst,Overijssel,VBO,6.263411,52.612636
Schapendijk,1,,,7715PV,Punthorst,Staphorst,Overijssel,VBO,6.263115,52.612855
Schapendijk,3,a,,7715PV,Punthorst,Staphorst,Overijssel,VBO,6.263352,52.612494
Schapendijk,3,,,7715PV,Punthorst,Staphorst,Overijssel,VBO,6.263031,52.612659
Schapendijk,5,a,,7715PV,Punthorst,Staphorst,Overijssel,VBO,6.262811,52.612224
Schapendijk,5,,,7715PV,Punthorst,Staphorst,Overijssel,VBO,6.262977,52.612210
Schapendijk,7,a,,7715PV,Punthorst,Staphorst,Overijssel,VBO,6.257705,52.608496
Schapendijk,7,,,7715PV,Punthorst,Staphorst,Overijssel,VBO,6.262165,52.612031
Schapendijk,9,a,,7715PV,Punthorst,Staphorst,Overijssel,VBO,6.257143,52.607705
Schapendijk,9,,,7715PV,Punthorst,Staphorst,Overijssel,VBO,6.257020,52.608008
Schapendijk,11,,,7715PV,Punthorst,Staphorst,Overijssel,VBO,6.256430,52.607334
Schapendijk,13,a,,7715PV,Punthorst,Staphorst,Overijssel,VBO,6.256162,52.607003
Schapendijk,13,,,7715PV,Punthorst,Staphorst,Overijssel,VBO,6.255942,52.607128
Schapendijk,15,,,7715PV,Punthorst,Staphorst,Overijssel,VBO,6.257490,52.605121
Schapendijk,17,a,,7715PV,Punthorst,Staphorst,Overijssel,VBO,6.254344,52.603868
Schapendijk,17,,,7715PV,Punthorst,Staphorst,Overijssel,VBO,6.254458,52.603912
Schapendijk,19,a,,7715PV,Punthorst,Staphorst,Overijssel,VBO,6.254372,52.602998
Schapendijk,19,,,7715PV,Punthorst,Staphorst,Overijssel,VBO,6.254331,52.603068
Schapendijk,21,,,7715PV,Punthorst,Staphorst,Overijssel,VBO,6.254267,52.599135
Schapendijk,23,,,7715PV,Punthorst,Staphorst,Overijssel,VBO,6.254756,52.597660
Schapendijk,25,a,,7715PV,Punthorst,Staphorst,Overijssel,VBO,6.254961,52.597020
Schapendijk,25,,,7715PV,Punthorst,Staphorst,Overijssel,VBO,6.255023,52.596991
Schapendijk,27,,,7715PV,Punthorst,Staphorst,Overijssel,VBO,6.255964,52.594269
Schapendijk,35,a,,7715PV,Punthorst,Staphorst,Overijssel,VBO,6.256742,52.593683
Schapendijk,35,b,,7715PV,Punthorst,Staphorst,Overijssel,VBO,6.257183,52.593729
Schapendijk,35,,,7715PV,Punthorst,Staphorst,Overijssel,VBO,6.256502,52.593687
Schapendijk,37,a,,7715PV,Punthorst,Staphorst,Overijssel,VBO,6.256449,52.593432
Schapendijk,37,b,,7715PV,Punthorst,Staphorst,Overijssel,VBO,6.256960,52.593444
Schapendijk,37,c,,7715PV,Punthorst,Staphorst,Overijssel,VBO,6.257267,52.593452
Schapendijk,37,,,7715PV,Punthorst,Staphorst,Overijssel,VBO,6.256270,52.593242
Schapendijk,39,,,7715PV,Punthorst,Staphorst,Overijssel,VBO,6.256784,52.592513
BH Spijkerweg,2,,,7715PW,Punthorst,Staphorst,Overijssel,VBO,6.278698,52.603801
BH Spijkerweg,4,a,,7715PW,Punthorst,Staphorst,Overijssel,VBO,6.276120,52.604220
BH Spijkerweg,4,,,7715PW,Punthorst,Staphorst,Overijssel,VBO,6.276156,52.604107
BH Spijkerweg,6,,,7715PW,Punthorst,Staphorst,Overijssel,VBO,6.275767,52.604149
BH Spijkerweg,8,a,,7715PW,Punthorst,Staphorst,Overijssel,VBO,6.275817,52.602919
BH Spijkerweg,8,,,7715PW,Punthorst,Staphorst,Overijssel,VBO,6.275682,52.603930
BH Spijkerweg,10,a,,7715PW,Punthorst,Staphorst,Overijssel,VBO,6.272675,52.601478
BH Spijkerweg,10,,,7715PW,Punthorst,Staphorst,Overijssel,VBO,6.272648,52.601368
BH Spijkerweg,12,,,7715PW,Punthorst,Staphorst,Overijssel,VBO,6.272248,52.598331
BH Spijkerweg,14,a,,7715PW,Punthorst,Staphorst,Overijssel,VBO,6.271009,52.599503
BH Spijkerweg,14,,,7715PW,Punthorst,Staphorst,Overijssel,VBO,6.271593,52.598657
BH Spijkerweg,16,a,,7715PW,Punthorst,Staphorst,Overijssel,VBO,6.270525,52.595221
BH Spijkerweg,16,,I,7715PW,Punthorst,Staphorst,Overijssel,VBO,6.270686,52.597143
BH Spijkerweg,16,,II,7715PW,Punthorst,Staphorst,Overijssel,VBO,6.270662,52.597291
BH Spijkerweg,16,,,7715PW,Punthorst,Staphorst,Overijssel,VBO,6.270127,52.600108
BH Spijkerweg,18,,,7715PW,Punthorst,Staphorst,Overijssel,VBO,6.269980,52.595144
BH Spijkerweg,20,,,7715PW,Punthorst,Staphorst,Overijssel,VBO,6.269569,52.595129
BH Spijkerweg,22,,,7715PW,Punthorst,Staphorst,Overijssel,VBO,6.269026,52.595197
BH Spijkerweg,24,,,7715PW,Punthorst,Staphorst,Overijssel,VBO,6.267883,52.594884
BH Spijkerweg,28,,,7715PW,Punthorst,Staphorst,Overijssel,VBO,6.267264,52.595545
BH Spijkerweg,30,,,7715PW,Punthorst,Staphorst,Overijssel,VBO,6.266698,52.594718
BH Spijkerweg,32,,,7715PW,Punthorst,Staphorst,Overijssel,VBO,6.266240,52.594630
BH Spijkerweg,34,,,7715PW,Punthorst,Staphorst,Overijssel,VBO,6.265636,52.594587
BH Spijkerweg,1,,,7715PX,Punthorst,Staphorst,Overijssel,VBO,6.277770,52.603022
BH Spijkerweg,3,,,7715PX,Punthorst,Staphorst,Overijssel,VBO,6.275863,52.599872
BH Spijkerweg,5,,,7715PX,Punthorst,Staphorst,Overijssel,VBO,6.275891,52.599571
BH Spijkerweg,7,,,7715PX,Punthorst,Staphorst,Overijssel,VBO,6.276264,52.599311
BH Spijkerweg,9,,,7715PX,Punthorst,Staphorst,Overijssel,VBO,6.277478,52.599297
BH Spijkerweg,11,,,7715PX,Punthorst,Staphorst,Overijssel,VBO,6.275403,52.598765
BH Spijkerweg,13,,,7715PX,Punthorst,Staphorst,Overijssel,VBO,6.274793,52.598353
BH Spijkerweg,15,,,7715PX,Punthorst,Staphorst,Overijssel,VBO,6.274858,52.595746
van Dedemsweg,1,a,,7715PZ,Punthorst,Staphorst,Overijssel,VBO,6.258350,52.593842
van Dedemsweg,2,,,7715PZ,Punthorst,Staphorst,Overijssel,VBO,6.257671,52.593542
van Dedemsweg,3,i,,7715PZ,Punthorst,Staphorst,Overijssel,VBO,6.262059,52.594354
van Dedemsweg,3,,,7715PZ,Punthorst,Staphorst,Overijssel,VBO,6.262066,52.594314
van Dedemsweg,4,,,7715PZ,Punthorst,Staphorst,Overijssel,VBO,6.258327,52.593568
van Dedemsweg,7,,,7715PZ,Punthorst,Staphorst,Overijssel,VBO,6.264113,52.594437
van Dedemsweg,9,,,7715PZ,Punthorst,Staphorst,Overijssel,VBO,6.262206,52.601483
van Dedemsweg,11,,,7715PZ,Punthorst,Staphorst,Overijssel,VBO,6.264676,52.594482
van Dedemsweg,13,,,7715PZ,Punthorst,Staphorst,Overijssel,VBO,6.265048,52.594504
van Dedemsweg,15,,,7715PZ,Punthorst,Staphorst,Overijssel,VBO,6.265143,52.594465
Oosterparallelweg,145,,,7715RA,Punthorst,Staphorst,Overijssel,VBO,6.242860,52.615411
Oosterparallelweg,147,,,7715RA,Punthorst,Staphorst,Overijssel,VBO,6.237321,52.606584
Oosterparallelweg,149,,,7715RA,Punthorst,Staphorst,Overijssel,VBO,6.237466,52.606550
Oosterparallelweg,151,,,7715RA,Punthorst,Staphorst,Overijssel,VBO,6.227475,52.591002
Oosterparallelweg,153,,,7715RA,Punthorst,Staphorst,Overijssel,VBO,6.227661,52.591045
Oosterparallelweg,161,,,7715RA,Punthorst,Staphorst,Overijssel,VBO,6.225848,52.588753
Oosterparallelweg,163,i,,7715RA,Punthorst,Staphorst,Overijssel,VBO,6.225765,52.588722
Oosterparallelweg,163,,,7715RA,Punthorst,Staphorst,Overijssel,VBO,6.225763,52.588673
Oosterparallelweg,165,,,7715RA,Punthorst,Staphorst,Overijssel,VBO,6.225775,52.588626
Dekkersweg,12,a,,7715RB,Punthorst,Staphorst,Overijssel,VBO,6.242747,52.609692
Dekkersweg,12,b,,7715RB,Punthorst,Staphorst,Overijssel,VBO,6.240924,52.610167
Dekkersweg,12,,,7715RB,Punthorst,Staphorst,Overijssel,VBO,6.241407,52.609893
Dekkersweg,14,,,7715RB,Punthorst,Staphorst,Overijssel,VBO,6.243965,52.609326
Dekkersweg,16,,,7715RB,Punthorst,Staphorst,Overijssel,VBO,6.246259,52.609029
Dekkersweg,18,,,7715RB,Punthorst,Staphorst,Overijssel,VBO,6.249212,52.608413
Dekkersweg,20,,,7715RB,Punthorst,Staphorst,Overijssel,VBO,6.250525,52.608160
Dekkersweg,19,,,7715RC,Punthorst,Staphorst,Overijssel,VBO,6.241784,52.610604
Dekkersweg,21,,,7715RC,Punthorst,Staphorst,Overijssel,VBO,6.242112,52.610621
Dekkersweg,25,a,,7715RC,Punthorst,Staphorst,Overijssel,VBO,6.245122,52.609857
Dekkersweg,25,,,7715RC,Punthorst,Staphorst,Overijssel,VBO,6.244518,52.610173
Dekkersweg,27,a,,7715RC,Punthorst,Staphorst,Overijssel,VBO,6.246586,52.609740
Dekkersweg,27,,,7715RC,Punthorst,Staphorst,Overijssel,VBO,6.245891,52.609765
Dekkersweg,29,a,,7715RC,Punthorst,Staphorst,Overijssel,VBO,6.248418,52.609229
Dekkersweg,29,,,7715RC,Punthorst,Staphorst,Overijssel,VBO,6.247235,52.609535
Dekkersweg,31,a,,7715RC,Punthorst,Staphorst,Overijssel,VBO,6.250492,52.608944
Dekkersweg,31,,,7715RC,Punthorst,Staphorst,Overijssel,VBO,6.250449,52.608865
Dekkersweg,33,a,,7715RC,Punthorst,Staphorst,Overijssel,VBO,6.251475,52.608584
Dekkersweg,33,,,7715RC,Punthorst,Staphorst,Overijssel,VBO,6.251275,52.608678
Dekkersweg,35,,,7715RC,Punthorst,Staphorst,Overijssel,VBO,6.251736,52.608518
Dekkersweg,37,,,7715RC,Punthorst,Staphorst,Overijssel,VBO,6.254750,52.607967
Domineesakker,1,,,7715RD,Punthorst,Staphorst,Overijssel,VBO,6.250527,52.598415
Domineesakker,2,,,7715RD,Punthorst,Staphorst,Overijssel,VBO,6.246819,52.599197
Domineesakker,4,,,7715RD,Punthorst,Staphorst,Overijssel,VBO,6.245477,52.599255
Domineesakker,6,,,7715RD,Punthorst,Staphorst,Overijssel,VBO,6.245267,52.599260
Domineesakker,8,,,7715RD,Punthorst,Staphorst,Overijssel,VBO,6.244864,52.599303
Domineesakker,10,,,7715RD,Punthorst,Staphorst,Overijssel,VBO,6.242906,52.599387
Domineesakker,12,,,7715RD,Punthorst,Staphorst,Overijssel,VBO,6.242276,52.599461
Domineesakker,14,,,7715RD,Punthorst,Staphorst,Overijssel,VBO,6.242170,52.599467
Domineesakker,16,,,7715RD,Punthorst,Staphorst,Overijssel,VBO,6.239611,52.599710
Domineesakker,18,a,,7715RD,Punthorst,Staphorst,Overijssel,VBO,6.238612,52.599836
Domineesakker,18,,,7715RD,Punthorst,Staphorst,Overijssel,VBO,6.238602,52.599737
Domineesakker,20,,,7715RD,Punthorst,Staphorst,Overijssel,VBO,6.237800,52.599889
Domineesakker,22,,BIJ,7715RD,Punthorst,Staphorst,Overijssel,VBO,6.236167,52.599974
Domineesakker,22,,,7715RD,Punthorst,Staphorst,Overijssel,VBO,6.236895,52.599949
Leidijk,11,,,7715RE,Punthorst,Staphorst,Overijssel,VBO,6.233728,52.591593
Leidijk,13,,,7715RE,Punthorst,Staphorst,Overijssel,VBO,6.233918,52.591587
Leidijk,22,a,,7715RE,Punthorst,Staphorst,Overijssel,VBO,6.231064,52.595382
Leidijk,22,,,7715RE,Punthorst,Staphorst,Overijssel,VBO,6.231626,52.595241
Smeulenweg,2,,,7715RG,Punthorst,Staphorst,Overijssel,VBO,6.248339,52.594572
Rollecaterweg,2,a,,7715RH,Punthorst,Staphorst,Overijssel,VBO,6.251154,52.594112
Rollecaterweg,2,,,7715RH,Punthorst,Staphorst,Overijssel,VBO,6.251095,52.594155
Rollecaterweg,4,,,7715RH,Punthorst,Staphorst,Overijssel,VBO,6.249666,52.592843
Dedemsvaartweg,37,a,,7715RJ,Punthorst,Staphorst,Overijssel,VBO,6.223582,52.587935
Dedemsvaartweg,39,a,,7715RJ,Punthorst,Staphorst,Overijssel,VBO,6.225504,52.588118
Dedemsvaartweg,39,,,7715RJ,Punthorst,Staphorst,Overijssel,VBO,6.225810,52.588065
Dedemsvaartweg,41,,,7715RJ,Punthorst,Staphorst,Overijssel,VBO,6.226008,52.588048
Dedemsvaartweg,43,a,,7715RJ,Punthorst,Staphorst,Overijssel,VBO,6.226550,52.588197
Dedemsvaartweg,43,b,,7715RJ,Punthorst,Staphorst,Overijssel,VBO,6.226698,52.588098
Dedemsvaartweg,43,,,7715RJ,Punthorst,Staphorst,Overijssel,VBO,6.226303,52.588431
Dedemsvaartweg,45,,,7715RJ,Punthorst,Staphorst,Overijssel,VBO,6.227452,52.588317
Dedemsvaartweg,47,,,7715RJ,Punthorst,Staphorst,Overijssel,VBO,6.234196,52.589128
Dedemsvaartweg,49,,,7715RJ,Punthorst,Staphorst,Overijssel,VBO,6.236961,52.589409
Vriescheweg,3,a,,7715RK,Punthorst,Staphorst,Overijssel,VBO,6.236213,52.598226
Vriescheweg,3,,,7715RK,Punthorst,Staphorst,Overijssel,VBO,6.236412,52.598013
Rollecate,26,,,7715RL,Punthorst,Staphorst,Overijssel,VBO,6.253816,52.591867
Rollecate,28,,,7715RL,Punthorst,Staphorst,Overijssel,VBO,6.253801,52.591994
Rollecate,30,,,7715RL,Punthorst,Staphorst,Overijssel,VBO,6.250518,52.592023
Rollecate,32,,,7715RL,Punthorst,Staphorst,Overijssel,VBO,6.249677,52.592050
Rollecate,34,,,7715RL,Punthorst,Staphorst,Overijssel,VBO,6.249751,52.591239
Rollecate,36,,,7715RL,Punthorst,Staphorst,Overijssel,VBO,6.249133,52.591931
Rollecate,38,,,7715RL,Punthorst,Staphorst,Overijssel,VBO,6.249003,52.591921
Rollecate,40,,,7715RL,Punthorst,Staphorst,Overijssel,VBO,6.247915,52.591607
Rollecate,42,,,7715RL,Punthorst,Staphorst,Overijssel,VBO,6.246523,52.591075
Rollecate,44,,,7715RL,Punthorst,Staphorst,Overijssel,VBO,6.240602,52.590438
Kooimansweg,1,,,7715RN,Punthorst,Staphorst,Overijssel,VBO,6.227080,52.589734
Kooimansweg,2,,,7715RN,Punthorst,Staphorst,Overijssel,VBO,6.226492,52.589448
