openbareruimtenaam,huisnummer,huisletter,huisnummertoevoeging,postcode,woonplaatsnaam,gemeentenaam,provincienaam,typeadresseerbaarobject,longitude,latitude
Achterveldsweg,1,,,7734PA,Vilsteren,Ommen,Overijssel,VBO,6.365638,52.485942
Achterveldsweg,2,,,7734PA,Vilsteren,Ommen,Overijssel,VBO,6.355441,52.483545
Achterveldsweg,3,,,7734PA,Vilsteren,Ommen,Overijssel,VBO,6.353475,52.484539
Achterveldsweg,4,,,7734PA,Vilsteren,Ommen,Overijssel,VBO,6.349952,52.483626
Vilsterse Allee,1,a,,7734PB,Vilsteren,Ommen,Overijssel,VBO,6.352796,52.510027
Vilsterse Allee,1,b,,7734PB,Vilsteren,Ommen,Overijssel,VBO,6.352506,52.510227
Vilsterse Allee,1,c,,7734PB,Vilsteren,Ommen,Overijssel,VBO,6.352536,52.510281
Vilsterse Allee,1,,,7734PB,Vilsteren,Ommen,Overijssel,VBO,6.352315,52.510256
Vilsterse Allee,2,a,,7734PB,Vilsteren,Ommen,Overijssel,VBO,6.353933,52.510514
Vilsterse Allee,2,b,,7734PB,Vilsteren,Ommen,Overijssel,VBO,6.354861,52.510269
Vilsterse Allee,2,,,7734PB,Vilsteren,Ommen,Overijssel,VBO,6.353585,52.510290
Vilsterse Allee,3,a,,7734PB,Vilsteren,Ommen,Overijssel,VBO,6.354009,52.508894
Vilsterse Allee,3,,,7734PB,Vilsteren,Ommen,Overijssel,VBO,6.355087,52.510267
Vilsterse Allee,4,,,7734PB,Vilsteren,Ommen,Overijssel,VBO,6.356088,52.508356
Vilsterse Allee,5,a,,7734PB,Vilsteren,Ommen,Overijssel,VBO,6.356173,52.507723
Vilsterse Allee,5,,,7734PB,Vilsteren,Ommen,Overijssel,VBO,6.356075,52.507715
Vilsterse Allee,6,,,7734PB,Vilsteren,Ommen,Overijssel,VBO,6.356155,52.507590
Vilsterse Allee,8,,,7734PB,Vilsteren,Ommen,Overijssel,VBO,6.356859,52.503846
Vilsterse Allee,9,b,,7734PB,Vilsteren,Ommen,Overijssel,VBO,6.346779,52.503806
Vilsterse Allee,9,,,7734PB,Vilsteren,Ommen,Overijssel,VBO,6.355456,52.503696
Vilsterse Allee,10,,,7734PB,Vilsteren,Ommen,Overijssel,VBO,6.357416,52.499060
Vilsterse Allee,11,a,,7734PB,Vilsteren,Ommen,Overijssel,VBO,6.359309,52.496088
Vilsterse Allee,11,,,7734PB,Vilsteren,Ommen,Overijssel,VBO,6.356473,52.497978
Vilsterse Allee,12,,,7734PB,Vilsteren,Ommen,Overijssel,VBO,6.361313,52.489447
Oude Hammerweg,12,a,001,7734PC,Vilsteren,Ommen,Overijssel,VBO,6.379754,52.501906
Oude Hammerweg,12,a,002,7734PC,Vilsteren,Ommen,Overijssel,VBO,6.379289,52.501963
Oude Hammerweg,12,a,003,7734PC,Vilsteren,Ommen,Overijssel,VBO,6.378894,52.502053
Oude Hammerweg,12,a,004,7734PC,Vilsteren,Ommen,Overijssel,VBO,6.378717,52.501780
Oude Hammerweg,12,a,005,7734PC,Vilsteren,Ommen,Overijssel,VBO,6.378252,52.501878
Oude Hammerweg,12,a,006,7734PC,Vilsteren,Ommen,Overijssel,VBO,6.377863,52.501981
Oude Hammerweg,12,a,007,7734PC,Vilsteren,Ommen,Overijssel,VBO,6.378162,52.501597
Oude Hammerweg,12,a,008,7734PC,Vilsteren,Ommen,Overijssel,VBO,6.378596,52.501517
Oude Hammerweg,12,a,009,7734PC,Vilsteren,Ommen,Overijssel,VBO,6.377404,52.501947
Oude Hammerweg,12,a,013,7734PC,Vilsteren,Ommen,Overijssel,VBO,6.377725,52.501708
Oude Hammerweg,12,a,014,7734PC,Vilsteren,Ommen,Overijssel,VBO,6.378550,52.502203
Oude Hammerweg,12,a,015,7734PC,Vilsteren,Ommen,Overijssel,VBO,6.377957,52.502267
Oude Hammerweg,12,a,016,7734PC,Vilsteren,Ommen,Overijssel,VBO,6.377572,52.502158
Oude Hammerweg,12,a,020,7734PC,Vilsteren,Ommen,Overijssel,VBO,6.378202,52.502593
Oude Hammerweg,12,a,021,7734PC,Vilsteren,Ommen,Overijssel,VBO,6.378674,52.502441
Oude Hammerweg,12,a,022,7734PC,Vilsteren,Ommen,Overijssel,VBO,6.378820,52.502677
Oude Hammerweg,12,a,023,7734PC,Vilsteren,Ommen,Overijssel,VBO,6.377800,52.502521
Oude Hammerweg,12,a,024,7734PC,Vilsteren,Ommen,Overijssel,VBO,6.377945,52.502802
Oude Hammerweg,12,a,025,7734PC,Vilsteren,Ommen,Overijssel,VBO,6.378302,52.502933
Oude Hammerweg,12,a,028,7734PC,Vilsteren,Ommen,Overijssel,VBO,6.378871,52.502958
Oude Hammerweg,12,a,029,7734PC,Vilsteren,Ommen,Overijssel,VBO,6.378416,52.503188
Oude Hammerweg,12,a,031,7734PC,Vilsteren,Ommen,Overijssel,VBO,6.378101,52.503969
Oude Hammerweg,12,a,032,7734PC,Vilsteren,Ommen,Overijssel,VBO,6.378479,52.503757
Oude Hammerweg,12,a,034,7734PC,Vilsteren,Ommen,Overijssel,VBO,6.378408,52.503515
Oude Hammerweg,12,a,036,7734PC,Vilsteren,Ommen,Overijssel,VBO,6.379298,52.503747
Oude Hammerweg,12,a,037,7734PC,Vilsteren,Ommen,Overijssel,VBO,6.379607,52.503586
Oude Hammerweg,12,a,038,7734PC,Vilsteren,Ommen,Overijssel,VBO,6.380017,52.503620
Oude Hammerweg,12,a,039,7734PC,Vilsteren,Ommen,Overijssel,VBO,6.380391,52.503437
Oude Hammerweg,12,a,040,7734PC,Vilsteren,Ommen,Overijssel,VBO,6.380791,52.503410
Oude Hammerweg,12,a,041,7734PC,Vilsteren,Ommen,Overijssel,VBO,6.381033,52.503176
Oude Hammerweg,12,a,042,7734PC,Vilsteren,Ommen,Overijssel,VBO,6.379649,52.502605
Oude Hammerweg,12,a,043,7734PC,Vilsteren,Ommen,Overijssel,VBO,6.379793,52.502870
Oude Hammerweg,12,a,044,7734PC,Vilsteren,Ommen,Overijssel,VBO,6.379340,52.502860
Oude Hammerweg,12,a,045,7734PC,Vilsteren,Ommen,Overijssel,VBO,6.379228,52.502614
Oude Hammerweg,12,a,046,7734PC,Vilsteren,Ommen,Overijssel,VBO,6.379037,52.502315
Oude Hammerweg,12,a,047,7734PC,Vilsteren,Ommen,Overijssel,VBO,6.379444,52.502217
Oude Hammerweg,12,a,048,7734PC,Vilsteren,Ommen,Overijssel,VBO,6.379900,52.502326
Oude Hammerweg,12,a,049,7734PC,Vilsteren,Ommen,Overijssel,VBO,6.380320,52.502395
Oude Hammerweg,12,a,050,7734PC,Vilsteren,Ommen,Overijssel,VBO,6.380119,52.502072
Oude Hammerweg,12,a,051,7734PC,Vilsteren,Ommen,Overijssel,VBO,6.380365,52.503808
Oude Hammerweg,12,a,052,7734PC,Vilsteren,Ommen,Overijssel,VBO,6.380300,52.504056
Oude Hammerweg,12,a,053,7734PC,Vilsteren,Ommen,Overijssel,VBO,6.379840,52.503957
Oude Hammerweg,12,a,054,7734PC,Vilsteren,Ommen,Overijssel,VBO,6.379469,52.504130
Oude Hammerweg,12,a,055,7734PC,Vilsteren,Ommen,Overijssel,VBO,6.379031,52.504034
Oude Hammerweg,12,a,056,7734PC,Vilsteren,Ommen,Overijssel,VBO,6.379108,52.504289
Oude Hammerweg,12,a,057,7734PC,Vilsteren,Ommen,Overijssel,VBO,6.379486,52.504457
Oude Hammerweg,12,a,058,7734PC,Vilsteren,Ommen,Overijssel,VBO,6.379905,52.504314
Oude Hammerweg,12,a,059,7734PC,Vilsteren,Ommen,Overijssel,VBO,6.379965,52.504617
Oude Hammerweg,12,a,060,7734PC,Vilsteren,Ommen,Overijssel,VBO,6.380363,52.504329
Oude Hammerweg,12,a,061,7734PC,Vilsteren,Ommen,Overijssel,VBO,6.380868,52.504274
Oude Hammerweg,12,a,062,7734PC,Vilsteren,Ommen,Overijssel,VBO,6.380509,52.504567
Oude Hammerweg,12,a,063,7734PC,Vilsteren,Ommen,Overijssel,VBO,6.380989,52.504547
Oude Hammerweg,12,a,064,7734PC,Vilsteren,Ommen,Overijssel,VBO,6.380688,52.504808
Oude Hammerweg,12,a,065,7734PC,Vilsteren,Ommen,Overijssel,VBO,6.381285,52.504815
Oude Hammerweg,12,a,066,7734PC,Vilsteren,Ommen,Overijssel,VBO,6.381694,52.505149
Oude Hammerweg,12,a,067,7734PC,Vilsteren,Ommen,Overijssel,VBO,6.381982,52.505286
Oude Hammerweg,12,a,068,7734PC,Vilsteren,Ommen,Overijssel,VBO,6.382384,52.505432
Oude Hammerweg,12,a,069,7734PC,Vilsteren,Ommen,Overijssel,VBO,6.382857,52.505428
Oude Hammerweg,12,a,070,7734PC,Vilsteren,Ommen,Overijssel,VBO,6.382694,52.505757
Oude Hammerweg,12,a,071,7734PC,Vilsteren,Ommen,Overijssel,VBO,6.383226,52.505743
Oude Hammerweg,12,a,072,7734PC,Vilsteren,Ommen,Overijssel,VBO,6.383355,52.506057
Oude Hammerweg,12,a,073,7734PC,Vilsteren,Ommen,Overijssel,VBO,6.382908,52.506022
Oude Hammerweg,12,a,074,7734PC,Vilsteren,Ommen,Overijssel,VBO,6.382482,52.505999
Oude Hammerweg,12,a,075,7734PC,Vilsteren,Ommen,Overijssel,VBO,6.382039,52.505957
Oude Hammerweg,12,a,076,7734PC,Vilsteren,Ommen,Overijssel,VBO,6.381539,52.505916
Oude Hammerweg,12,a,077,7734PC,Vilsteren,Ommen,Overijssel,VBO,6.381043,52.505875
Oude Hammerweg,12,a,078,7734PC,Vilsteren,Ommen,Overijssel,VBO,6.380589,52.505936
Oude Hammerweg,12,a,079,7734PC,Vilsteren,Ommen,Overijssel,VBO,6.380731,52.505510
Oude Hammerweg,12,a,080,7734PC,Vilsteren,Ommen,Overijssel,VBO,6.380212,52.505828
Oude Hammerweg,12,a,081,7734PC,Vilsteren,Ommen,Overijssel,VBO,6.380301,52.505385
Oude Hammerweg,12,a,082,7734PC,Vilsteren,Ommen,Overijssel,VBO,6.379778,52.505779
Oude Hammerweg,12,a,083,7734PC,Vilsteren,Ommen,Overijssel,VBO,6.379865,52.505485
Oude Hammerweg,12,a,084,7734PC,Vilsteren,Ommen,Overijssel,VBO,6.379723,52.505190
Oude Hammerweg,12,a,085,7734PC,Vilsteren,Ommen,Overijssel,VBO,6.379374,52.505721
Oude Hammerweg,12,a,086,7734PC,Vilsteren,Ommen,Overijssel,VBO,6.379362,52.505454
Oude Hammerweg,12,a,087,7734PC,Vilsteren,Ommen,Overijssel,VBO,6.378907,52.505236
Oude Hammerweg,12,a,088,7734PC,Vilsteren,Ommen,Overijssel,VBO,6.378964,52.505725
Oude Hammerweg,12,a,089,7734PC,Vilsteren,Ommen,Overijssel,VBO,6.378865,52.505479
Oude Hammerweg,12,a,090,7734PC,Vilsteren,Ommen,Overijssel,VBO,6.378496,52.505672
Oude Hammerweg,12,a,091,7734PC,Vilsteren,Ommen,Overijssel,VBO,6.378407,52.505380
Oude Hammerweg,12,a,092,7734PC,Vilsteren,Ommen,Overijssel,VBO,6.378466,52.505115
Oude Hammerweg,12,a,093,7734PC,Vilsteren,Ommen,Overijssel,VBO,6.379106,52.505006
Oude Hammerweg,12,a,094,7734PC,Vilsteren,Ommen,Overijssel,VBO,6.378670,52.504853
Oude Hammerweg,12,a,095,7734PC,Vilsteren,Ommen,Overijssel,VBO,6.378419,52.504584
Oude Hammerweg,12,a,097,7734PC,Vilsteren,Ommen,Overijssel,VBO,6.377967,52.504249
Oude Hammerweg,12,a,,7734PC,Vilsteren,Ommen,Overijssel,VBO,6.379314,52.501414
Oude Hammerweg,12,b,,7734PC,Vilsteren,Ommen,Overijssel,VBO,6.377266,52.501674
Oude Hammerweg,13,a,,7734PC,Vilsteren,Ommen,Overijssel,VBO,6.369159,52.503269
Oude Hammerweg,13,,,7734PC,Vilsteren,Ommen,Overijssel,VBO,6.373501,52.502487
Oude Hammerweg,14,b,,7734PC,Vilsteren,Ommen,Overijssel,VBO,6.372160,52.502159
Oude Hammerweg,14,,,7734PC,Vilsteren,Ommen,Overijssel,VBO,6.371463,52.502225
Oude Hammerweg,15,a,,7734PC,Vilsteren,Ommen,Overijssel,VBO,6.368346,52.502485
Oude Hammerweg,15,,,7734PC,Vilsteren,Ommen,Overijssel,VBO,6.367566,52.502500
Oude Hammerweg,16,a,,7734PC,Vilsteren,Ommen,Overijssel,VBO,6.356934,52.502596
Oude Hammerweg,16,,,7734PC,Vilsteren,Ommen,Overijssel,VBO,6.361692,52.502629
Vilsterseweg,1,a,001,7734PD,Vilsteren,Ommen,Overijssel,VBO,6.379710,52.510056
Vilsterseweg,1,a,002,7734PD,Vilsteren,Ommen,Overijssel,VBO,6.379607,52.509802
Vilsterseweg,1,a,003,7734PD,Vilsteren,Ommen,Overijssel,VBO,6.379601,52.509535
Vilsterseweg,1,a,004,7734PD,Vilsteren,Ommen,Overijssel,VBO,6.379546,52.509264
Vilsterseweg,1,a,005,7734PD,Vilsteren,Ommen,Overijssel,VBO,6.377868,52.509062
Vilsterseweg,1,a,006,7734PD,Vilsteren,Ommen,Overijssel,VBO,6.378177,52.508868
Vilsterseweg,1,a,007,7734PD,Vilsteren,Ommen,Overijssel,VBO,6.379042,52.509171
Vilsterseweg,1,a,008,7734PD,Vilsteren,Ommen,Overijssel,VBO,6.378654,52.509433
Vilsterseweg,1,a,009,7734PD,Vilsteren,Ommen,Overijssel,VBO,6.378070,52.509425
Vilsterseweg,1,a,010,7734PD,Vilsteren,Ommen,Overijssel,VBO,6.378288,52.509132
Vilsterseweg,1,a,011,7734PD,Vilsteren,Ommen,Overijssel,VBO,6.379002,52.508839
Vilsterseweg,1,a,012,7734PD,Vilsteren,Ommen,Overijssel,VBO,6.379568,52.508988
Vilsterseweg,1,a,013,7734PD,Vilsteren,Ommen,Overijssel,VBO,6.379578,52.508718
Vilsterseweg,1,a,014,7734PD,Vilsteren,Ommen,Overijssel,VBO,6.379589,52.508480
Vilsterseweg,1,a,015,7734PD,Vilsteren,Ommen,Overijssel,VBO,6.379060,52.508472
Vilsterseweg,1,a,016,7734PD,Vilsteren,Ommen,Overijssel,VBO,6.378662,52.508306
Vilsterseweg,1,a,017,7734PD,Vilsteren,Ommen,Overijssel,VBO,6.379024,52.508116
Vilsterseweg,1,a,018,7734PD,Vilsteren,Ommen,Overijssel,VBO,6.379527,52.508223
Vilsterseweg,1,a,019,7734PD,Vilsteren,Ommen,Overijssel,VBO,6.379570,52.507997
Vilsterseweg,1,a,020,7734PD,Vilsteren,Ommen,Overijssel,VBO,6.378642,52.507947
Vilsterseweg,1,a,021,7734PD,Vilsteren,Ommen,Overijssel,VBO,6.378615,52.507609
Vilsterseweg,1,a,022,7734PD,Vilsteren,Ommen,Overijssel,VBO,6.379028,52.507754
Vilsterseweg,1,a,023,7734PD,Vilsteren,Ommen,Overijssel,VBO,6.378992,52.507410
Vilsterseweg,1,a,024,7734PD,Vilsteren,Ommen,Overijssel,VBO,6.379435,52.507459
Vilsterseweg,1,a,025,7734PD,Vilsteren,Ommen,Overijssel,VBO,6.378623,52.507267
Vilsterseweg,1,a,026,7734PD,Vilsteren,Ommen,Overijssel,VBO,6.379397,52.507205
Vilsterseweg,1,a,027,7734PD,Vilsteren,Ommen,Overijssel,VBO,6.378964,52.507043
Vilsterseweg,1,a,028,7734PD,Vilsteren,Ommen,Overijssel,VBO,6.379432,52.506964
Vilsterseweg,1,a,029,7734PD,Vilsteren,Ommen,Overijssel,VBO,6.378558,52.506870
Vilsterseweg,1,a,030,7734PD,Vilsteren,Ommen,Overijssel,VBO,6.379390,52.506717
Vilsterseweg,1,a,031,7734PD,Vilsteren,Ommen,Overijssel,VBO,6.378928,52.506692
Vilsterseweg,1,a,032,7734PD,Vilsteren,Ommen,Overijssel,VBO,6.379861,52.506762
Vilsterseweg,1,a,033,7734PD,Vilsteren,Ommen,Overijssel,VBO,6.380335,52.506805
Vilsterseweg,1,a,034,7734PD,Vilsteren,Ommen,Overijssel,VBO,6.379866,52.507016
Vilsterseweg,1,a,035,7734PD,Vilsteren,Ommen,Overijssel,VBO,6.380330,52.507063
Vilsterseweg,1,a,036,7734PD,Vilsteren,Ommen,Overijssel,VBO,6.379816,52.507264
Vilsterseweg,1,a,037,7734PD,Vilsteren,Ommen,Overijssel,VBO,6.380378,52.507309
Vilsterseweg,1,a,038,7734PD,Vilsteren,Ommen,Overijssel,VBO,6.379902,52.507528
Vilsterseweg,1,a,039,7734PD,Vilsteren,Ommen,Overijssel,VBO,6.380368,52.507571
Vilsterseweg,1,a,040,7734PD,Vilsteren,Ommen,Overijssel,VBO,6.380761,52.506882
Vilsterseweg,1,a,041,7734PD,Vilsteren,Ommen,Overijssel,VBO,6.381240,52.506943
Vilsterseweg,1,a,042,7734PD,Vilsteren,Ommen,Overijssel,VBO,6.380786,52.507134
Vilsterseweg,1,a,043,7734PD,Vilsteren,Ommen,Overijssel,VBO,6.381319,52.507175
Vilsterseweg,1,a,044,7734PD,Vilsteren,Ommen,Overijssel,VBO,6.380825,52.507376
Vilsterseweg,1,a,045,7734PD,Vilsteren,Ommen,Overijssel,VBO,6.380804,52.507636
Vilsterseweg,1,a,046,7734PD,Vilsteren,Ommen,Overijssel,VBO,6.381315,52.507696
Vilsterseweg,1,a,047,7734PD,Vilsteren,Ommen,Overijssel,VBO,6.381805,52.507537
Vilsterseweg,1,a,048,7734PD,Vilsteren,Ommen,Overijssel,VBO,6.381730,52.507045
Vilsterseweg,1,a,049,7734PD,Vilsteren,Ommen,Overijssel,VBO,6.381757,52.507297
Vilsterseweg,1,a,050,7734PD,Vilsteren,Ommen,Overijssel,VBO,6.381768,52.507780
Vilsterseweg,1,a,051,7734PD,Vilsteren,Ommen,Overijssel,VBO,6.382140,52.507126
Vilsterseweg,1,a,052,7734PD,Vilsteren,Ommen,Overijssel,VBO,6.382188,52.507372
Vilsterseweg,1,a,053,7734PD,Vilsteren,Ommen,Overijssel,VBO,6.382210,52.507630
Vilsterseweg,1,a,054,7734PD,Vilsteren,Ommen,Overijssel,VBO,6.382216,52.507883
Vilsterseweg,1,a,055,7734PD,Vilsteren,Ommen,Overijssel,VBO,6.382731,52.506975
Vilsterseweg,1,a,056,7734PD,Vilsteren,Ommen,Overijssel,VBO,6.383294,52.507022
Vilsterseweg,1,a,057,7734PD,Vilsteren,Ommen,Overijssel,VBO,6.382662,52.507225
Vilsterseweg,1,a,058,7734PD,Vilsteren,Ommen,Overijssel,VBO,6.382625,52.507462
Vilsterseweg,1,a,059,7734PD,Vilsteren,Ommen,Overijssel,VBO,6.382599,52.507727
Vilsterseweg,1,a,060,7734PD,Vilsteren,Ommen,Overijssel,VBO,6.382642,52.507979
Vilsterseweg,1,a,061,7734PD,Vilsteren,Ommen,Overijssel,VBO,6.379524,52.507718
Vilsterseweg,1,a,062,7734PD,Vilsteren,Ommen,Overijssel,VBO,6.379975,52.507795
Vilsterseweg,1,a,063,7734PD,Vilsteren,Ommen,Overijssel,VBO,6.380468,52.507873
Vilsterseweg,1,a,064,7734PD,Vilsteren,Ommen,Overijssel,VBO,6.380938,52.507923
Vilsterseweg,1,a,065,7734PD,Vilsteren,Ommen,Overijssel,VBO,6.381356,52.508016
Vilsterseweg,1,a,066,7734PD,Vilsteren,Ommen,Overijssel,VBO,6.381850,52.508123
Vilsterseweg,1,a,067,7734PD,Vilsteren,Ommen,Overijssel,VBO,6.382352,52.508237
Vilsterseweg,1,a,068,7734PD,Vilsteren,Ommen,Overijssel,VBO,6.382315,52.508628
Vilsterseweg,1,a,069,7734PD,Vilsteren,Ommen,Overijssel,VBO,6.381734,52.508992
Vilsterseweg,1,a,070,7734PD,Vilsteren,Ommen,Overijssel,VBO,6.381836,52.509260
Vilsterseweg,1,a,071,7734PD,Vilsteren,Ommen,Overijssel,VBO,6.381560,52.509453
Vilsterseweg,1,a,072,7734PD,Vilsteren,Ommen,Overijssel,VBO,6.381619,52.509704
Vilsterseweg,1,a,073,7734PD,Vilsteren,Ommen,Overijssel,VBO,6.381419,52.509908
Vilsterseweg,2,a,,7734PD,Vilsteren,Ommen,Overijssel,VBO,6.382406,52.510032
Vilsterseweg,2,b,,7734PD,Vilsteren,Ommen,Overijssel,VBO,6.382869,52.509368
Vilsterseweg,2,c,,7734PD,Vilsteren,Ommen,Overijssel,VBO,6.383370,52.509082
Vilsterseweg,2,d,,7734PD,Vilsteren,Ommen,Overijssel,VBO,6.383596,52.507905
Vilsterseweg,2,e,,7734PD,Vilsteren,Ommen,Overijssel,VBO,6.383706,52.507668
Vilsterseweg,2,,,7734PD,Vilsteren,Ommen,Overijssel,VBO,6.382992,52.508423
Vilsterseweg,3,,,7734PD,Vilsteren,Ommen,Overijssel,VBO,6.381511,52.510886
Vilsterseweg,4,,,7734PD,Vilsteren,Ommen,Overijssel,VBO,6.356565,52.512612
Vilsterseweg,5,,,7734PD,Vilsteren,Ommen,Overijssel,VBO,6.355824,52.511728
Vilsterseweg,6,a,,7734PD,Vilsteren,Ommen,Overijssel,VBO,6.354983,52.511663
Vilsterseweg,6,,,7734PD,Vilsteren,Ommen,Overijssel,VBO,6.355453,52.511596
Vilsterseweg,7,,,7734PD,Vilsteren,Ommen,Overijssel,VBO,6.354828,52.510866
Vilsterseweg,9,a,,7734PD,Vilsteren,Ommen,Overijssel,VBO,6.353994,52.511641
Vilsterseweg,9,,,7734PD,Vilsteren,Ommen,Overijssel,VBO,6.354199,52.511526
Vilsterseweg,10,a,,7734PD,Vilsteren,Ommen,Overijssel,VBO,6.353688,52.511062
Vilsterseweg,10,b,,7734PD,Vilsteren,Ommen,Overijssel,VBO,6.353520,52.511115
Vilsterseweg,10,,,7734PD,Vilsteren,Ommen,Overijssel,VBO,6.353952,52.511015
Vilsterseweg,11,,,7734PD,Vilsteren,Ommen,Overijssel,VBO,6.353203,52.511118
Vilsterseweg,12,,,7734PD,Vilsteren,Ommen,Overijssel,VBO,6.352948,52.510831
Vilsterseweg,13,,,7734PD,Vilsteren,Ommen,Overijssel,VBO,6.352960,52.511482
Vilsterseweg,14,,,7734PD,Vilsteren,Ommen,Overijssel,VBO,6.352828,52.511474
Vilsterseweg,16,,,7734PD,Vilsteren,Ommen,Overijssel,VBO,6.351050,52.510338
Vilsterseweg,17,,,7734PD,Vilsteren,Ommen,Overijssel,VBO,6.351432,52.510308
Vilsterseweg,18,,,7734PD,Vilsteren,Ommen,Overijssel,VBO,6.351430,52.510191
Vilsterseweg,21,,,7734PD,Vilsteren,Ommen,Overijssel,VBO,6.350524,52.511232
Vilsterseweg,22,,,7734PE,Vilsteren,Ommen,Overijssel,VBO,6.348925,52.510970
Vilsterseweg,23,,,7734PE,Vilsteren,Ommen,Overijssel,VBO,6.348590,52.510857
Vilsterseweg,24,,,7734PE,Vilsteren,Ommen,Overijssel,VBO,6.348488,52.510358
Vilsterseweg,25,,,7734PE,Vilsteren,Ommen,Overijssel,VBO,6.348067,52.510726
Vilsterseweg,26,,,7734PE,Vilsteren,Ommen,Overijssel,VBO,6.347864,52.510148
Vilsterseweg,27,,,7734PE,Vilsteren,Ommen,Overijssel,VBO,6.347761,52.510158
Vilsterseweg,28,,,7734PE,Vilsteren,Ommen,Overijssel,VBO,6.347565,52.510645
Vilsterseweg,29,a,,7734PE,Vilsteren,Ommen,Overijssel,VBO,6.347104,52.510684
Vilsterseweg,29,,,7734PE,Vilsteren,Ommen,Overijssel,VBO,6.347254,52.510540
Vilsterseweg,30,,,7734PE,Vilsteren,Ommen,Overijssel,VBO,6.346742,52.510414
Vilsterseweg,31,,,7734PE,Vilsteren,Ommen,Overijssel,VBO,6.345376,52.509548
Vilsterseweg,32,,,7734PE,Vilsteren,Ommen,Overijssel,VBO,6.340567,52.507852
Vilsterseweg,33,,,7734PE,Vilsteren,Ommen,Overijssel,VBO,6.338632,52.508317
Vilsterseweg,34,,,7734PE,Vilsteren,Ommen,Overijssel,VBO,6.336814,52.508026
Vilsterseweg,36,,,7734PE,Vilsteren,Ommen,Overijssel,VBO,6.336728,52.508126
Siegersteeg,1,a,,7734PG,Vilsteren,Ommen,Overijssel,VBO,6.353318,52.512324
Siegersteeg,1,,,7734PG,Vilsteren,Ommen,Overijssel,VBO,6.353595,52.512223
Siegersteeg,2,a,,7734PG,Vilsteren,Ommen,Overijssel,VBO,6.354666,52.511989
Siegersteeg,2,b,,7734PG,Vilsteren,Ommen,Overijssel,VBO,6.355081,52.512103
Siegersteeg,2,c,,7734PG,Vilsteren,Ommen,Overijssel,VBO,6.354266,52.512586
Siegersteeg,2,d,,7734PG,Vilsteren,Ommen,Overijssel,VBO,6.354533,52.512673
Siegersteeg,2,e,,7734PG,Vilsteren,Ommen,Overijssel,VBO,6.354849,52.512976
Siegersteeg,2,f,,7734PG,Vilsteren,Ommen,Overijssel,VBO,6.355115,52.513019
Siegersteeg,2,,,7734PG,Vilsteren,Ommen,Overijssel,VBO,6.353922,52.512337
Siegersteeg,3,b,,7734PG,Vilsteren,Ommen,Overijssel,VBO,6.356211,52.513040
Siegersteeg,3,,,7734PG,Vilsteren,Ommen,Overijssel,VBO,6.356358,52.512915
Siegersteeg,4,,,7734PG,Vilsteren,Ommen,Overijssel,VBO,6.355552,52.512117
Siegersteeg,5,,,7734PG,Vilsteren,Ommen,Overijssel,VBO,6.355788,52.512106
Borrinkdijk,1,a,,7734PH,Vilsteren,Ommen,Overijssel,VBO,6.352270,52.509907
Borrinkdijk,1,b,,7734PH,Vilsteren,Ommen,Overijssel,VBO,6.352229,52.509717
Borrinkdijk,1,,,7734PH,Vilsteren,Ommen,Overijssel,VBO,6.352181,52.509538
Borrinkdijk,2,,,7734PH,Vilsteren,Ommen,Overijssel,VBO,6.352016,52.509377
Borrinkdijk,3,,,7734PH,Vilsteren,Ommen,Overijssel,VBO,6.352056,52.509206
Borrinkdijk,4,,,7734PH,Vilsteren,Ommen,Overijssel,VBO,6.351979,52.509054
Stuwepad,1,,,7734PJ,Vilsteren,Ommen,Overijssel,VBO,6.347889,52.511307
Stuwepad,2,,,7734PJ,Vilsteren,Ommen,Overijssel,VBO,6.336227,52.521403
Deventerweg,2,a,,7734PK,Vilsteren,Ommen,Overijssel,VBO,6.371571,52.493191
Deventerweg,2,,,7734PK,Vilsteren,Ommen,Overijssel,VBO,6.371202,52.493823
Deventerweg,4,a,,7734PK,Vilsteren,Ommen,Overijssel,VBO,6.369267,52.490244
Deventerweg,4,,,7734PK,Vilsteren,Ommen,Overijssel,VBO,6.368764,52.489485
Deventerweg,6,a,,7734PK,Vilsteren,Ommen,Overijssel,VBO,6.367412,52.486269
Deventerweg,6,,,7734PK,Vilsteren,Ommen,Overijssel,VBO,6.367529,52.486232
Deventerweg,3,a,,7734PL,Vilsteren,Ommen,Overijssel,VBO,6.370655,52.491249
Deventerweg,3,b,,7734PL,Vilsteren,Ommen,Overijssel,VBO,6.369851,52.490835
Deventerweg,3,,,7734PL,Vilsteren,Ommen,Overijssel,VBO,6.370449,52.491221
Deventerweg,5,a,,7734PL,Vilsteren,Ommen,Overijssel,VBO,6.369616,52.488066
Deventerweg,5,,,7734PL,Vilsteren,Ommen,Overijssel,VBO,6.369485,52.488112
Gravendijk,1,,,7734PM,Vilsteren,Ommen,Overijssel,VBO,6.348396,52.509991
Gravendijk,2,,,7734PM,Vilsteren,Ommen,Overijssel,VBO,6.347925,52.509563
Gravendijk,3,,,7734PM,Vilsteren,Ommen,Overijssel,VBO,6.348643,52.510041
Gravendijk,4,,,7734PM,Vilsteren,Ommen,Overijssel,VBO,6.347911,52.509617
Gravendijk,5,,,7734PM,Vilsteren,Ommen,Overijssel,VBO,6.348884,52.509918
Gravendijk,7,,,7734PM,Vilsteren,Ommen,Overijssel,VBO,6.348904,52.509763
Gravendijk,9,,,7734PM,Vilsteren,Ommen,Overijssel,VBO,6.348763,52.509521
Gravendijk,11,,,7734PM,Vilsteren,Ommen,Overijssel,VBO,6.348585,52.509441
Gravendijk,13,,,7734PM,Vilsteren,Ommen,Overijssel,VBO,6.348066,52.509275
Gravendijk,15,,,7734PM,Vilsteren,Ommen,Overijssel,VBO,6.347785,52.509223
Gravendijk,17,a,,7734PM,Vilsteren,Ommen,Overijssel,VBO,6.347357,52.509182
Gravendijk,17,b,,7734PM,Vilsteren,Ommen,Overijssel,VBO,6.347121,52.509190
Gravendijk,17,d,,7734PM,Vilsteren,Ommen,Overijssel,VBO,6.346689,52.509353
Gravendijk,17,e,,7734PM,Vilsteren,Ommen,Overijssel,VBO,6.346790,52.509376
Gravendijk,17,f,,7734PM,Vilsteren,Ommen,Overijssel,VBO,6.347030,52.509392
Gravendijk,17,g,,7734PM,Vilsteren,Ommen,Overijssel,VBO,6.347131,52.509409
Gravendijk,17,,,7734PM,Vilsteren,Ommen,Overijssel,VBO,6.347637,52.509206
Gravendijk,19,,,7734PM,Vilsteren,Ommen,Overijssel,VBO,6.347480,52.509441
Gravendijk,21,,,7734PM,Vilsteren,Ommen,Overijssel,VBO,6.347467,52.509513
Gravendijk,23,,,7734PM,Vilsteren,Ommen,Overijssel,VBO,6.347397,52.509658
Gravendijk,25,,,7734PM,Vilsteren,Ommen,Overijssel,VBO,6.347369,52.509730
Gravendijk,27,,,7734PM,Vilsteren,Ommen,Overijssel,VBO,6.347277,52.509979
Gravendijk,29,,,7734PM,Vilsteren,Ommen,Overijssel,VBO,6.346914,52.509894
Gravendijk,31,,,7734PM,Vilsteren,Ommen,Overijssel,VBO,6.346672,52.509823
Gravendijk,33,,,7734PM,Vilsteren,Ommen,Overijssel,VBO,6.346455,52.509775
