openbareruimtenaam,huisnummer,huisletter,huisnummertoevoeging,postcode,woonplaatsnaam,gemeentenaam,provincienaam,typeadresseerbaarobject,longitude,latitude
Stieltjeskanaal,11,,,7756PA,Stieltjeskanaal,Coevorden,Drenthe,VBO,6.759216,52.668653
Stieltjeskanaal,13,,,7756PA,Stieltjeskanaal,Coevorden,Drenthe,VBO,6.771520,52.671162
Stieltjeskanaal,15,,,7756PA,Stieltjeskanaal,Coevorden,Drenthe,VBO,6.782317,52.670929
Stieltjeskanaal,17,,,7756PA,Stieltjeskanaal,Coevorden,Drenthe,VBO,6.787079,52.670864
Stieltjeskanaal,19,,,7756PA,Stieltjeskanaal,Coevorden,Drenthe,VBO,6.787160,52.670754
Stieltjeskanaal,31,,,7756PA,Stieltjeskanaal,Coevorden,Drenthe,VBO,6.799303,52.671403
Stieltjeskanaal,33,,,7756PA,Stieltjeskanaal,Coevorden,Drenthe,VBO,6.800413,52.671464
Stieltjeskanaal,35,,,7756PA,Stieltjeskanaal,Coevorden,Drenthe,VBO,6.802234,52.672024
Stieltjeskanaal,37,,,7756PA,Stieltjeskanaal,Coevorden,Drenthe,VBO,6.804947,52.672531
Stieltjeskanaal,41,,,7756PB,Stieltjeskanaal,Coevorden,Drenthe,VBO,6.806398,52.672810
Stieltjeskanaal,45,,,7756PB,Stieltjeskanaal,Coevorden,Drenthe,VBO,6.807758,52.672872
Stieltjeskanaal,47,,,7756PB,Stieltjeskanaal,Coevorden,Drenthe,VBO,6.808110,52.672781
Stieltjeskanaal,49,,,7756PB,Stieltjeskanaal,Coevorden,Drenthe,VBO,6.808825,52.673139
Stieltjeskanaal,53,,,7756PB,Stieltjeskanaal,Coevorden,Drenthe,VBO,6.815088,52.673898
Stieltjeskanaal,55,a,,7756PB,Stieltjeskanaal,Coevorden,Drenthe,VBO,6.816683,52.674061
Stieltjeskanaal,55,,,7756PB,Stieltjeskanaal,Coevorden,Drenthe,VBO,6.815764,52.673905
Stieltjeskanaal,57,a,,7756PB,Stieltjeskanaal,Coevorden,Drenthe,VBO,6.817526,52.674160
Stieltjeskanaal,57,,,7756PB,Stieltjeskanaal,Coevorden,Drenthe,VBO,6.817125,52.674119
Stieltjeskanaal,59,,,7756PB,Stieltjeskanaal,Coevorden,Drenthe,VBO,6.818161,52.674123
Stieltjeskanaal,61,,,7756PB,Stieltjeskanaal,Coevorden,Drenthe,VBO,6.818246,52.674131
Stieltjeskanaal,63,,,7756PB,Stieltjeskanaal,Coevorden,Drenthe,VBO,6.818496,52.674184
Stieltjeskanaal,67,,,7756PB,Stieltjeskanaal,Coevorden,Drenthe,VBO,6.819302,52.674310
Stieltjeskanaal,69,,,7756PB,Stieltjeskanaal,Coevorden,Drenthe,VBO,6.820098,52.674254
Stieltjeskanaal,77,,,7756PC,Stieltjeskanaal,Coevorden,Drenthe,VBO,6.826071,52.675000
Stieltjeskanaal,81,,BEDR,7756PC,Stieltjeskanaal,Coevorden,Drenthe,VBO,6.826987,52.674734
Stieltjeskanaal,81,,,7756PC,Stieltjeskanaal,Coevorden,Drenthe,VBO,6.826940,52.674988
Stieltjeskanaal,83,a,,7756PC,Stieltjeskanaal,Coevorden,Drenthe,VBO,6.828715,52.675180
Stieltjeskanaal,83,,,7756PC,Stieltjeskanaal,Coevorden,Drenthe,VBO,6.828313,52.675132
Stieltjeskanaal,85,,,7756PC,Stieltjeskanaal,Coevorden,Drenthe,VBO,6.829641,52.675122
Stieltjeskanaal,87,,,7756PC,Stieltjeskanaal,Coevorden,Drenthe,VBO,6.831402,52.675308
Stieltjeskanaal,91,,,7756PC,Stieltjeskanaal,Coevorden,Drenthe,VBO,6.832196,52.675389
Stieltjeskanaal,93,,,7756PC,Stieltjeskanaal,Coevorden,Drenthe,VBO,6.835154,52.675551
Stieltjeskanaal,97,,,7756PC,Stieltjeskanaal,Coevorden,Drenthe,VBO,6.837787,52.676933
Stieltjeskanaal,99,,,7756PC,Stieltjeskanaal,Coevorden,Drenthe,VBO,6.839503,52.678149
Stieltjeskanaal,111,,,7756PD,Stieltjeskanaal,Coevorden,Drenthe,VBO,6.840847,52.679329
Stieltjeskanaal,113,,,7756PD,Stieltjeskanaal,Coevorden,Drenthe,VBO,6.841613,52.679685
Stieltjeskanaal,115,,,7756PD,Stieltjeskanaal,Coevorden,Drenthe,VBO,6.841771,52.679910
Stieltjeskanaal,117,,,7756PD,Stieltjeskanaal,Coevorden,Drenthe,VBO,6.843931,52.681298
Stieltjeskanaal,119,,,7756PD,Stieltjeskanaal,Coevorden,Drenthe,VBO,6.844342,52.681619
Stieltjeskanaal,123,,,7756PD,Stieltjeskanaal,Coevorden,Drenthe,VBO,6.845966,52.683036
Stieltjeskanaal,125,,,7756PD,Stieltjeskanaal,Coevorden,Drenthe,VBO,6.846570,52.683401
Stieltjeskanaal,127,,,7756PD,Stieltjeskanaal,Coevorden,Drenthe,VBO,6.848056,52.684471
Stieltjeskanaal,129,,,7756PD,Stieltjeskanaal,Coevorden,Drenthe,VBO,6.849722,52.685748
Stieltjeskanaal,131,,,7756PD,Stieltjeskanaal,Coevorden,Drenthe,VBO,6.850949,52.686605
Stieltjeskanaal,2,,,7756PE,Stieltjeskanaal,Coevorden,Drenthe,VBO,6.758322,52.669657
Stieltjeskanaal,8,,,7756PE,Stieltjeskanaal,Coevorden,Drenthe,VBO,6.762718,52.670989
Stieltjeskanaal,10,,,7756PE,Stieltjeskanaal,Coevorden,Drenthe,VBO,6.762587,52.672462
Stieltjeskanaal,16,,,7756PE,Stieltjeskanaal,Coevorden,Drenthe,VBO,6.766281,52.671725
Stieltjeskanaal,24,,,7756PE,Stieltjeskanaal,Coevorden,Drenthe,VBO,6.772444,52.672255
Stieltjeskanaal,26,t,1026,7756PE,Stieltjeskanaal,Coevorden,Drenthe,VBO,6.775691,52.672014
Stieltjeskanaal,26,,,7756PE,Stieltjeskanaal,Coevorden,Drenthe,VBO,6.773872,52.672225
Stieltjeskanaal,30,,,7756PE,Stieltjeskanaal,Coevorden,Drenthe,VBO,6.778749,52.671770
Stieltjeskanaal,32,,,7756PE,Stieltjeskanaal,Coevorden,Drenthe,VBO,6.779730,52.671792
Stieltjeskanaal,34,,,7756PE,Stieltjeskanaal,Coevorden,Drenthe,VBO,6.781606,52.671759
Stieltjeskanaal,48,,,7756PE,Stieltjeskanaal,Coevorden,Drenthe,VBO,6.796071,52.671608
Stieltjeskanaal,68,a,,7756PE,Stieltjeskanaal,Coevorden,Drenthe,VBO,6.803673,52.673178
Stieltjeskanaal,68,,,7756PE,Stieltjeskanaal,Coevorden,Drenthe,VBO,6.803562,52.673290
Stieltjeskanaal,78,,,7756PG,Stieltjeskanaal,Coevorden,Drenthe,VBO,6.806236,52.673565
Stieltjeskanaal,90,,GED1,7756PG,Stieltjeskanaal,Coevorden,Drenthe,VBO,6.814771,52.675733
Stieltjeskanaal,90,,GED2,7756PG,Stieltjeskanaal,Coevorden,Drenthe,VBO,6.814337,52.675522
Stieltjeskanaal,90,,,7756PG,Stieltjeskanaal,Coevorden,Drenthe,VBO,6.814302,52.675423
Stieltjeskanaal,96,,,7756PG,Stieltjeskanaal,Coevorden,Drenthe,VBO,6.817630,52.674980
Stieltjeskanaal,100,,,7756PG,Stieltjeskanaal,Coevorden,Drenthe,VBO,6.827235,52.675864
Stieltjeskanaal,104,,,7756PG,Stieltjeskanaal,Coevorden,Drenthe,VBO,6.828909,52.676258
Stieltjeskanaal,108,,,7756PG,Stieltjeskanaal,Coevorden,Drenthe,VBO,6.832666,52.676309
Stieltjeskanaal,114,,,7756PG,Stieltjeskanaal,Coevorden,Drenthe,VBO,6.838322,52.678818
Stieltjeskanaal,116,,,7756PG,Stieltjeskanaal,Coevorden,Drenthe,VBO,6.840285,52.680244
Stieltjeskanaal,118,a,,7756PG,Stieltjeskanaal,Coevorden,Drenthe,VBO,6.842212,52.681576
Stieltjeskanaal,118,,,7756PG,Stieltjeskanaal,Coevorden,Drenthe,VBO,6.842348,52.681528
Stieltjeskanaal,120,,,7756PG,Stieltjeskanaal,Coevorden,Drenthe,VBO,6.842620,52.681881
Stieltjeskanaal,124,,,7756PG,Stieltjeskanaal,Coevorden,Drenthe,VBO,6.843512,52.682690
Stieltjeskanaal,128,,,7756PG,Stieltjeskanaal,Coevorden,Drenthe,VBO,6.844851,52.683549
Stieltjeskanaal,132,,,7756PG,Stieltjeskanaal,Coevorden,Drenthe,VBO,6.848469,52.686268
Stieltjeskanaal,136,,,7756PG,Stieltjeskanaal,Coevorden,Drenthe,VBO,6.849924,52.687283
Stieltjeskanaal,140,,,7756PG,Stieltjeskanaal,Coevorden,Drenthe,VBO,6.851626,52.688374
Oldenhuis Gratamaweg,1,,,7756PH,Stieltjeskanaal,Coevorden,Drenthe,VBO,6.841336,52.678649
Oldenhuis Gratamaweg,3,,,7756PH,Stieltjeskanaal,Coevorden,Drenthe,VBO,6.840970,52.679168
Oldenhuis Gratamaweg,5,,,7756PH,Stieltjeskanaal,Coevorden,Drenthe,VBO,6.840902,52.679200
Schansweg,1,,,7756PJ,Stieltjeskanaal,Coevorden,Drenthe,VBO,6.819669,52.669492
Schansweg,3,,,7756PJ,Stieltjeskanaal,Coevorden,Drenthe,VBO,6.822305,52.671990
Schansweg,5,,,7756PJ,Stieltjeskanaal,Coevorden,Drenthe,VBO,6.824240,52.671766
Schansweg,7,,,7756PJ,Stieltjeskanaal,Coevorden,Drenthe,VBO,6.824327,52.671610
Ossehaarseweg,1,,,7756PL,Stieltjeskanaal,Coevorden,Drenthe,VBO,6.765760,52.667196
Ossehaarseweg,3,,,7756PL,Stieltjeskanaal,Coevorden,Drenthe,VBO,6.773254,52.667146
Ossehaarseweg,5,,,7756PL,Stieltjeskanaal,Coevorden,Drenthe,VBO,6.777696,52.667746
Ossehaarseweg,7,,,7756PL,Stieltjeskanaal,Coevorden,Drenthe,VBO,6.780135,52.664947
Ossehaarseweg,9,,,7756PL,Stieltjeskanaal,Coevorden,Drenthe,VBO,6.781305,52.665108
Ossehaarseweg,11,a,BEDR,7756PL,Stieltjeskanaal,Coevorden,Drenthe,VBO,6.786863,52.667038
Ossehaarseweg,11,a,,7756PL,Stieltjeskanaal,Coevorden,Drenthe,VBO,6.786937,52.667472
Ossehaarseweg,11,,BEDR,7756PL,Stieltjeskanaal,Coevorden,Drenthe,VBO,6.785746,52.667052
Ossehaarseweg,11,,GED,7756PL,Stieltjeskanaal,Coevorden,Drenthe,VBO,6.786452,52.667606
Ossehaarseweg,11,,,7756PL,Stieltjeskanaal,Coevorden,Drenthe,VBO,6.786285,52.667563
Ossehaarseweg,13,,,7756PL,Stieltjeskanaal,Coevorden,Drenthe,VBO,6.794814,52.666895
Ossehaarseweg,15,,,7756PL,Stieltjeskanaal,Coevorden,Drenthe,VBO,6.797645,52.667246
Schoolpad,5,,,7756PM,Stieltjeskanaal,Coevorden,Drenthe,VBO,6.818308,52.673628
Ruimsloot,2,,,7756PN,Stieltjeskanaal,Coevorden,Drenthe,VBO,6.805788,52.674652
Ruimsloot,4,,,7756PN,Stieltjeskanaal,Coevorden,Drenthe,VBO,6.805742,52.674430
Ruimsloot,6,,,7756PN,Stieltjeskanaal,Coevorden,Drenthe,VBO,6.805710,52.674202
Ruimsloot,8,,,7756PN,Stieltjeskanaal,Coevorden,Drenthe,VBO,6.805617,52.673964
Ruimsloot,10,,,7756PN,Stieltjeskanaal,Coevorden,Drenthe,VBO,6.805346,52.673651
