openbareruimtenaam,huisnummer,huisletter,huisnummertoevoeging,postcode,woonplaatsnaam,gemeentenaam,provincienaam,typeadresseerbaarobject,longitude,latitude
Baanbrekersweg,2,,,7775AA,Lutten,Hardenberg,Overijssel,VBO,6.553594,52.608228
Dedemsvaartseweg-Zuid,1,a,,7775AB,Lutten,Hardenberg,Overijssel,VBO,6.528876,52.607694
Dedemsvaartseweg-Zuid,1,,,7775AB,Lutten,Hardenberg,Overijssel,VBO,6.529003,52.607527
Dedemsvaartseweg-Zuid,3,a,,7775AB,Lutten,Hardenberg,Overijssel,VBO,6.529706,52.607602
Dedemsvaartseweg-Zuid,3,,,7775AB,Lutten,Hardenberg,Overijssel,VBO,6.529644,52.607796
Dedemsvaartseweg-Zuid,5,,,7775AB,Lutten,Hardenberg,Overijssel,VBO,6.529742,52.607759
Dedemsvaartseweg-Zuid,7,,,7775AB,Lutten,Hardenberg,Overijssel,VBO,6.530023,52.607835
Dedemsvaartseweg-Zuid,9,,,7775AB,Lutten,Hardenberg,Overijssel,VBO,6.530396,52.607773
Dedemsvaartseweg-Zuid,11,,,7775AB,Lutten,Hardenberg,Overijssel,VBO,6.532251,52.607694
Dedemsvaartseweg-Zuid,13,,,7775AB,Lutten,Hardenberg,Overijssel,VBO,6.533204,52.607717
Dedemsvaartseweg-Zuid,15,,,7775AB,Lutten,Hardenberg,Overijssel,VBO,6.533691,52.607937
Dedemsvaartseweg-Zuid,17,,,7775AB,Lutten,Hardenberg,Overijssel,VBO,6.535719,52.608063
Dedemsvaartseweg-Zuid,19,,,7775AB,Lutten,Hardenberg,Overijssel,VBO,6.537191,52.607976
Dedemsvaartseweg-Zuid,21,,,7775AB,Lutten,Hardenberg,Overijssel,VBO,6.537655,52.608153
Dedemsvaartseweg-Zuid,23,a,,7775AB,Lutten,Hardenberg,Overijssel,VBO,6.538272,52.608124
Dedemsvaartseweg-Zuid,23,,,7775AB,Lutten,Hardenberg,Overijssel,VBO,6.538014,52.608091
Dedemsvaartseweg-Zuid,25,,,7775AB,Lutten,Hardenberg,Overijssel,VBO,6.538516,52.608164
Dedemsvaartseweg-Zuid,27,a,,7775AB,Lutten,Hardenberg,Overijssel,VBO,6.539259,52.608122
Dedemsvaartseweg-Zuid,27,b,,7775AB,Lutten,Hardenberg,Overijssel,VBO,6.539361,52.608168
Dedemsvaartseweg-Zuid,27,,,7775AB,Lutten,Hardenberg,Overijssel,VBO,6.539368,52.608102
Dedemsvaartseweg-Zuid,29,,,7775AB,Lutten,Hardenberg,Overijssel,VBO,6.539894,52.608341
Dedemsvaartseweg-Zuid,33,,,7775AB,Lutten,Hardenberg,Overijssel,VBO,6.541202,52.608390
Dedemsvaartseweg-Zuid,35,,,7775AC,Lutten,Hardenberg,Overijssel,VBO,6.543156,52.608381
Dedemsvaartseweg-Zuid,37,a,,7775AC,Lutten,Hardenberg,Overijssel,VBO,6.547829,52.607709
Dedemsvaartseweg-Zuid,37,b,,7775AC,Lutten,Hardenberg,Overijssel,VBO,6.551244,52.605714
Dedemsvaartseweg-Zuid,37,,,7775AC,Lutten,Hardenberg,Overijssel,VBO,6.546134,52.608429
Dedemsvaartseweg-Zuid,39,,,7775AC,Lutten,Hardenberg,Overijssel,VBO,6.547315,52.608567
Dedemsvaartseweg-Zuid,41,,,7775AC,Lutten,Hardenberg,Overijssel,VBO,6.548019,52.608569
Dedemsvaartseweg-Zuid,43,,,7775AC,Lutten,Hardenberg,Overijssel,VBO,6.548794,52.608655
Dedemsvaartseweg-Zuid,47,,,7775AC,Lutten,Hardenberg,Overijssel,VBO,6.549540,52.608624
Dedemsvaartseweg-Zuid,49,,,7775AC,Lutten,Hardenberg,Overijssel,VBO,6.551163,52.608761
Dedemsvaartseweg-Zuid,51,,,7775AC,Lutten,Hardenberg,Overijssel,VBO,6.551582,52.608689
Dedemsvaartseweg-Zuid,53,,,7775AC,Lutten,Hardenberg,Overijssel,VBO,6.551752,52.608758
Dedemsvaartseweg-Zuid,55,,,7775AC,Lutten,Hardenberg,Overijssel,VBO,6.552510,52.608670
Dedemsvaartseweg-Zuid,57,,,7775AC,Lutten,Hardenberg,Overijssel,VBO,6.553900,52.608981
Dedemsvaartseweg-Zuid,59,,,7775AC,Lutten,Hardenberg,Overijssel,VBO,6.555005,52.608859
Dedemsvaartseweg-Zuid,61,,,7775AC,Lutten,Hardenberg,Overijssel,VBO,6.557216,52.609107
Dedemsvaartseweg-Zuid,63,,,7775AC,Lutten,Hardenberg,Overijssel,VBO,6.557670,52.609015
Dedemsvaartseweg-Zuid,65,,,7775AC,Lutten,Hardenberg,Overijssel,VBO,6.558302,52.609052
Dedemsvaartseweg-Zuid,67,,,7775AD,Lutten,Hardenberg,Overijssel,VBO,6.558848,52.609115
Dedemsvaartseweg-Zuid,69,,,7775AD,Lutten,Hardenberg,Overijssel,VBO,6.559923,52.609081
Dedemsvaartseweg-Zuid,71,I,,7775AD,Lutten,Hardenberg,Overijssel,VBO,6.560399,52.609156
Dedemsvaartseweg-Zuid,71,,,7775AD,Lutten,Hardenberg,Overijssel,VBO,6.560504,52.609209
Dedemsvaartseweg-Zuid,73,a,,7775AD,Lutten,Hardenberg,Overijssel,VBO,6.564861,52.605314
Dedemsvaartseweg-Zuid,73,,,7775AD,Lutten,Hardenberg,Overijssel,VBO,6.560856,52.609183
Dedemsvaartseweg-Zuid,75,,,7775AD,Lutten,Hardenberg,Overijssel,VBO,6.561251,52.609211
Dedemsvaartseweg-Zuid,77,,,7775AD,Lutten,Hardenberg,Overijssel,VBO,6.561939,52.609200
Dedemsvaartseweg-Zuid,81,,,7775AD,Lutten,Hardenberg,Overijssel,VBO,6.562457,52.609289
Dedemsvaartseweg-Zuid,83,,,7775AD,Lutten,Hardenberg,Overijssel,VBO,6.563283,52.609245
Dedemsvaartseweg-Zuid,85,,,7775AD,Lutten,Hardenberg,Overijssel,VBO,6.563691,52.609219
Dedemsvaartseweg-Zuid,87,,,7775AD,Lutten,Hardenberg,Overijssel,VBO,6.564216,52.609205
Dedemsvaartseweg-Zuid,89,,,7775AD,Lutten,Hardenberg,Overijssel,VBO,6.565083,52.609322
Dedemsvaartseweg-Zuid,91,,,7775AD,Lutten,Hardenberg,Overijssel,VBO,6.565649,52.609420
Dedemsvaartseweg-Zuid,93,,,7775AD,Lutten,Hardenberg,Overijssel,VBO,6.566704,52.609123
Dedemsvaartseweg-Zuid,95,,,7775AE,Lutten,Hardenberg,Overijssel,VBO,6.566909,52.609395
Dedemsvaartseweg-Zuid,97,,,7775AE,Lutten,Hardenberg,Overijssel,VBO,6.567196,52.609539
Dedemsvaartseweg-Zuid,99,a,,7775AE,Lutten,Hardenberg,Overijssel,VBO,6.568295,52.609386
Dedemsvaartseweg-Zuid,99,,,7775AE,Lutten,Hardenberg,Overijssel,VBO,6.567266,52.609536
Dedemsvaartseweg-Zuid,101,,,7775AE,Lutten,Hardenberg,Overijssel,VBO,6.569514,52.609596
Dedemsvaartseweg-Zuid,103,,,7775AE,Lutten,Hardenberg,Overijssel,VBO,6.569695,52.609637
Dedemsvaartseweg-Zuid,105,,,7775AE,Lutten,Hardenberg,Overijssel,VBO,6.569957,52.609658
Dedemsvaartseweg-Zuid,107,,,7775AE,Lutten,Hardenberg,Overijssel,VBO,6.570262,52.609623
Dedemsvaartseweg-Zuid,109,a,,7775AE,Lutten,Hardenberg,Overijssel,VBO,6.571155,52.609645
Dedemsvaartseweg-Zuid,109,,,7775AE,Lutten,Hardenberg,Overijssel,VBO,6.570699,52.609459
Dedemsvaartseweg-Zuid,113,,,7775AE,Lutten,Hardenberg,Overijssel,VBO,6.571794,52.609653
Dedemsvaartseweg-Zuid,115,,,7775AE,Lutten,Hardenberg,Overijssel,VBO,6.572695,52.609739
Dedemsvaartseweg-Noord,2,,,7775AG,Lutten,Hardenberg,Overijssel,VBO,6.526804,52.608228
Dedemsvaartseweg-Noord,4,,,7775AG,Lutten,Hardenberg,Overijssel,VBO,6.527036,52.608220
Dedemsvaartseweg-Noord,6,a,,7775AG,Lutten,Hardenberg,Overijssel,VBO,6.527348,52.608628
Dedemsvaartseweg-Noord,6,,,7775AG,Lutten,Hardenberg,Overijssel,VBO,6.527569,52.608396
Dedemsvaartseweg-Noord,8,,,7775AG,Lutten,Hardenberg,Overijssel,VBO,6.528278,52.608263
Dedemsvaartseweg-Noord,12,a,,7775AG,Lutten,Hardenberg,Overijssel,VBO,6.529151,52.608395
Dedemsvaartseweg-Noord,12,,,7775AG,Lutten,Hardenberg,Overijssel,VBO,6.528735,52.608352
Dedemsvaartseweg-Noord,14,,,7775AG,Lutten,Hardenberg,Overijssel,VBO,6.529673,52.608353
Dedemsvaartseweg-Noord,16,,,7775AG,Lutten,Hardenberg,Overijssel,VBO,6.530214,52.608445
Dedemsvaartseweg-Noord,20,,,7775AG,Lutten,Hardenberg,Overijssel,VBO,6.531675,52.608634
Dedemsvaartseweg-Noord,22,,,7775AG,Lutten,Hardenberg,Overijssel,VBO,6.533992,52.608564
Dedemsvaartseweg-Noord,24,,,7775AG,Lutten,Hardenberg,Overijssel,VBO,6.535671,52.608728
Dedemsvaartseweg-Noord,26,a,,7775AG,Lutten,Hardenberg,Overijssel,VBO,6.536531,52.608872
Dedemsvaartseweg-Noord,26,,,7775AG,Lutten,Hardenberg,Overijssel,VBO,6.536295,52.608753
Dedemsvaartseweg-Noord,28,,,7775AG,Lutten,Hardenberg,Overijssel,VBO,6.537154,52.608751
Dedemsvaartseweg-Noord,30,,,7775AG,Lutten,Hardenberg,Overijssel,VBO,6.537381,52.608812
Dedemsvaartseweg-Noord,32,a,,7775AG,Lutten,Hardenberg,Overijssel,VBO,6.538098,52.608728
Dedemsvaartseweg-Noord,32,,,7775AG,Lutten,Hardenberg,Overijssel,VBO,6.537663,52.608719
Dedemsvaartseweg-Noord,34,,,7775AH,Lutten,Hardenberg,Overijssel,VBO,6.537941,52.608731
Dedemsvaartseweg-Noord,36,,,7775AH,Lutten,Hardenberg,Overijssel,VBO,6.538234,52.608750
Dedemsvaartseweg-Noord,38,,,7775AH,Lutten,Hardenberg,Overijssel,VBO,6.538312,52.608758
Dedemsvaartseweg-Noord,40,,,7775AH,Lutten,Hardenberg,Overijssel,VBO,6.538536,52.608767
Dedemsvaartseweg-Noord,44,,,7775AH,Lutten,Hardenberg,Overijssel,VBO,6.538803,52.608771
Dedemsvaartseweg-Noord,46,,,7775AH,Lutten,Hardenberg,Overijssel,VBO,6.539163,52.609040
Dedemsvaartseweg-Noord,48,,,7775AH,Lutten,Hardenberg,Overijssel,VBO,6.539735,52.608877
Dedemsvaartseweg-Noord,50,,,7775AH,Lutten,Hardenberg,Overijssel,VBO,6.540374,52.608931
Dedemsvaartseweg-Noord,54,,,7775AH,Lutten,Hardenberg,Overijssel,VBO,6.541372,52.608937
Dedemsvaartseweg-Noord,56,,,7775AH,Lutten,Hardenberg,Overijssel,VBO,6.541655,52.608909
Dedemsvaartseweg-Noord,58,,,7775AH,Lutten,Hardenberg,Overijssel,VBO,6.541910,52.608966
Dedemsvaartseweg-Noord,60,,,7775AH,Lutten,Hardenberg,Overijssel,VBO,6.542133,52.609017
Dedemsvaartseweg-Noord,62,,,7775AJ,Lutten,Hardenberg,Overijssel,VBO,6.542162,52.609220
Dedemsvaartseweg-Noord,64,a,,7775AJ,Lutten,Hardenberg,Overijssel,VBO,6.544458,52.609179
Dedemsvaartseweg-Noord,64,,,7775AJ,Lutten,Hardenberg,Overijssel,VBO,6.543214,52.608928
Dedemsvaartseweg-Noord,66,,,7775AJ,Lutten,Hardenberg,Overijssel,VBO,6.545084,52.609127
Dedemsvaartseweg-Noord,68,,,7775AJ,Lutten,Hardenberg,Overijssel,VBO,6.545502,52.609092
Dedemsvaartseweg-Noord,70,,,7775AJ,Lutten,Hardenberg,Overijssel,VBO,6.545716,52.609069
Dedemsvaartseweg-Noord,72,,,7775AJ,Lutten,Hardenberg,Overijssel,VBO,6.545885,52.609101
Dedemsvaartseweg-Noord,74,a,,7775AJ,Lutten,Hardenberg,Overijssel,VBO,6.546475,52.609137
Dedemsvaartseweg-Noord,74,,,7775AJ,Lutten,Hardenberg,Overijssel,VBO,6.546165,52.609096
Dedemsvaartseweg-Noord,76,,,7775AJ,Lutten,Hardenberg,Overijssel,VBO,6.546744,52.609125
Dedemsvaartseweg-Noord,78,a,,7775AJ,Lutten,Hardenberg,Overijssel,VBO,6.547387,52.609169
Dedemsvaartseweg-Noord,78,b,,7775AJ,Lutten,Hardenberg,Overijssel,VBO,6.547508,52.609179
Dedemsvaartseweg-Noord,78,,,7775AJ,Lutten,Hardenberg,Overijssel,VBO,6.547180,52.609153
Dedemsvaartseweg-Noord,80,,,7775AJ,Lutten,Hardenberg,Overijssel,VBO,6.547888,52.609231
Dedemsvaartseweg-Noord,82,,,7775AJ,Lutten,Hardenberg,Overijssel,VBO,6.548340,52.609194
Dedemsvaartseweg-Noord,84,a,i,7775AJ,Lutten,Hardenberg,Overijssel,VBO,6.548687,52.609288
Dedemsvaartseweg-Noord,84,a,,7775AJ,Lutten,Hardenberg,Overijssel,VBO,6.548666,52.609219
Dedemsvaartseweg-Noord,86,,,7775AJ,Lutten,Hardenberg,Overijssel,VBO,6.549407,52.609296
Dedemsvaartseweg-Noord,88,,,7775AJ,Lutten,Hardenberg,Overijssel,VBO,6.549633,52.609300
Dedemsvaartseweg-Noord,90,,,7775AK,Lutten,Hardenberg,Overijssel,VBO,6.549976,52.609294
Dedemsvaartseweg-Noord,92,,,7775AK,Lutten,Hardenberg,Overijssel,VBO,6.550449,52.609303
Dedemsvaartseweg-Noord,94,,,7775AK,Lutten,Hardenberg,Overijssel,VBO,6.550961,52.609330
Dedemsvaartseweg-Noord,96,I,,7775AK,Lutten,Hardenberg,Overijssel,VBO,6.551230,52.609341
Dedemsvaartseweg-Noord,96,,,7775AK,Lutten,Hardenberg,Overijssel,VBO,6.551143,52.609331
Dedemsvaartseweg-Noord,98,,,7775AK,Lutten,Hardenberg,Overijssel,VBO,6.551466,52.609376
Dedemsvaartseweg-Noord,100,,,7775AK,Lutten,Hardenberg,Overijssel,VBO,6.551708,52.609371
Dedemsvaartseweg-Noord,104,i,,7775AK,Lutten,Hardenberg,Overijssel,VBO,6.552104,52.609309
Dedemsvaartseweg-Noord,104,,,7775AK,Lutten,Hardenberg,Overijssel,VBO,6.551989,52.609397
Dedemsvaartseweg-Noord,106,,,7775AK,Lutten,Hardenberg,Overijssel,VBO,6.552375,52.609363
Dedemsvaartseweg-Noord,108,I,,7775AK,Lutten,Hardenberg,Overijssel,VBO,6.552810,52.609344
Dedemsvaartseweg-Noord,108,,,7775AK,Lutten,Hardenberg,Overijssel,VBO,6.552672,52.609337
Dedemsvaartseweg-Noord,110,a,,7775AK,Lutten,Hardenberg,Overijssel,VBO,6.553202,52.609966
Dedemsvaartseweg-Noord,110,,,7775AK,Lutten,Hardenberg,Overijssel,VBO,6.553590,52.609404
Dedemsvaartseweg-Noord,112,,,7775AK,Lutten,Hardenberg,Overijssel,VBO,6.553788,52.609412
Dedemsvaartseweg-Noord,114,,,7775AK,Lutten,Hardenberg,Overijssel,VBO,6.554067,52.609400
Dedemsvaartseweg-Noord,118,,,7775AK,Lutten,Hardenberg,Overijssel,VBO,6.554592,52.609485
Dedemsvaartseweg-Noord,120,,,7775AK,Lutten,Hardenberg,Overijssel,VBO,6.554756,52.609422
Dedemsvaartseweg-Noord,124,a,,7775AK,Lutten,Hardenberg,Overijssel,VBO,6.555436,52.609875
Dedemsvaartseweg-Noord,124,,,7775AK,Lutten,Hardenberg,Overijssel,VBO,6.554919,52.609513
Dedemsvaartseweg-Noord,126,,,7775AK,Lutten,Hardenberg,Overijssel,VBO,6.555610,52.609542
Dedemsvaartseweg-Noord,128,,,7775AK,Lutten,Hardenberg,Overijssel,VBO,6.556874,52.609631
Dedemsvaartseweg-Noord,130,,,7775AL,Lutten,Hardenberg,Overijssel,VBO,6.557140,52.609653
Dedemsvaartseweg-Noord,132,,,7775AL,Lutten,Hardenberg,Overijssel,VBO,6.557376,52.609620
Dedemsvaartseweg-Noord,134,,,7775AL,Lutten,Hardenberg,Overijssel,VBO,6.557691,52.609631
Dedemsvaartseweg-Noord,136,,,7775AL,Lutten,Hardenberg,Overijssel,VBO,6.557846,52.609619
Dedemsvaartseweg-Noord,138,,,7775AL,Lutten,Hardenberg,Overijssel,VBO,6.558203,52.609634
Dedemsvaartseweg-Noord,140,,,7775AL,Lutten,Hardenberg,Overijssel,VBO,6.558401,52.609642
Dedemsvaartseweg-Noord,142,,,7775AL,Lutten,Hardenberg,Overijssel,VBO,6.558733,52.609660
Dedemsvaartseweg-Noord,146,,,7775AL,Lutten,Hardenberg,Overijssel,VBO,6.559693,52.609679
Dedemsvaartseweg-Noord,148,,,7775AL,Lutten,Hardenberg,Overijssel,VBO,6.559999,52.609711
Dedemsvaartseweg-Noord,150,,,7775AL,Lutten,Hardenberg,Overijssel,VBO,6.560145,52.609806
Dedemsvaartseweg-Noord,152,,,7775AL,Lutten,Hardenberg,Overijssel,VBO,6.560514,52.609964
Dedemsvaartseweg-Noord,154,,,7775AL,Lutten,Hardenberg,Overijssel,VBO,6.561165,52.609815
Dedemsvaartseweg-Noord,156,,,7775AL,Lutten,Hardenberg,Overijssel,VBO,6.561569,52.609756
Dedemsvaartseweg-Noord,158,,,7775AL,Lutten,Hardenberg,Overijssel,VBO,6.561884,52.609831
Dedemsvaartseweg-Noord,160,,,7775AL,Lutten,Hardenberg,Overijssel,VBO,6.562249,52.609815
Dedemsvaartseweg-Noord,162,,,7775AL,Lutten,Hardenberg,Overijssel,VBO,6.562542,52.609851
Dedemsvaartseweg-Noord,164,,,7775AL,Lutten,Hardenberg,Overijssel,VBO,6.563043,52.609944
Dedemsvaartseweg-Noord,166,,,7775AL,Lutten,Hardenberg,Overijssel,VBO,6.563139,52.609844
Dedemsvaartseweg-Noord,168,,,7775AL,Lutten,Hardenberg,Overijssel,VBO,6.563435,52.609882
Dedemsvaartseweg-Noord,170,,,7775AL,Lutten,Hardenberg,Overijssel,VBO,6.564095,52.609879
Dedemsvaartseweg-Noord,172,a,,7775AL,Lutten,Hardenberg,Overijssel,VBO,6.565009,52.610012
Dedemsvaartseweg-Noord,172,,,7775AL,Lutten,Hardenberg,Overijssel,VBO,6.564429,52.609893
Dedemsvaartseweg-Noord,174,,,7775AM,Lutten,Hardenberg,Overijssel,VBO,6.565706,52.610089
Dedemsvaartseweg-Noord,176,,,7775AM,Lutten,Hardenberg,Overijssel,VBO,6.566416,52.610033
Dedemsvaartseweg-Noord,178,,,7775AM,Lutten,Hardenberg,Overijssel,VBO,6.567028,52.610125
Dedemsvaartseweg-Noord,180,,,7775AM,Lutten,Hardenberg,Overijssel,VBO,6.567677,52.610143
Dedemsvaartseweg-Noord,182,a,,7775AM,Lutten,Hardenberg,Overijssel,VBO,6.568112,52.610211
Dedemsvaartseweg-Noord,182,,,7775AM,Lutten,Hardenberg,Overijssel,VBO,6.568261,52.610117
Dedemsvaartseweg-Noord,184,,,7775AM,Lutten,Hardenberg,Overijssel,VBO,6.568543,52.610134
Dedemsvaartseweg-Noord,186,,,7775AM,Lutten,Hardenberg,Overijssel,VBO,6.568846,52.610123
Dedemsvaartseweg-Noord,188,,,7775AM,Lutten,Hardenberg,Overijssel,VBO,6.569114,52.610169
Dedemsvaartseweg-Noord,192,,,7775AM,Lutten,Hardenberg,Overijssel,VBO,6.569620,52.610207
Dedemsvaartseweg-Noord,194,,,7775AM,Lutten,Hardenberg,Overijssel,VBO,6.569890,52.610223
Dedemsvaartseweg-Noord,196,,,7775AM,Lutten,Hardenberg,Overijssel,VBO,6.570349,52.610291
Dedemsvaartseweg-Noord,198,,,7775AM,Lutten,Hardenberg,Overijssel,VBO,6.570422,52.610253
Dedemsvaartseweg-Noord,200,,,7775AM,Lutten,Hardenberg,Overijssel,VBO,6.570839,52.610255
Dedemsvaartseweg-Noord,202,,,7775AM,Lutten,Hardenberg,Overijssel,VBO,6.571140,52.610254
Dedemsvaartseweg-Noord,204,,,7775AM,Lutten,Hardenberg,Overijssel,VBO,6.571521,52.610262
Dedemsvaartseweg-Noord,206,,,7775AM,Lutten,Hardenberg,Overijssel,VBO,6.571739,52.610227
Dedemsvaartseweg-Noord,208,,,7775AM,Lutten,Hardenberg,Overijssel,VBO,6.571925,52.610328
Dedemsvaartseweg-Noord,210,,,7775AM,Lutten,Hardenberg,Overijssel,VBO,6.572235,52.610267
Dedemsvaartseweg-Noord,212,,,7775AM,Lutten,Hardenberg,Overijssel,VBO,6.572438,52.610276
Anerweg-Zuid,1,,,7775AN,Lutten,Hardenberg,Overijssel,VBO,6.573300,52.609653
Anerweg-Zuid,3,a,,7775AN,Lutten,Hardenberg,Overijssel,VBO,6.574102,52.609749
Anerweg-Zuid,3,,,7775AN,Lutten,Hardenberg,Overijssel,VBO,6.573704,52.609761
Anerweg-Zuid,5,a,,7775AN,Lutten,Hardenberg,Overijssel,VBO,6.575358,52.609853
Anerweg-Zuid,5,,,7775AN,Lutten,Hardenberg,Overijssel,VBO,6.574655,52.609770
Anerweg-Zuid,7,,,7775AN,Lutten,Hardenberg,Overijssel,VBO,6.575818,52.609896
Anerweg-Zuid,9,a,,7775AN,Lutten,Hardenberg,Overijssel,VBO,6.577074,52.609936
Anerweg-Zuid,9,b,,7775AN,Lutten,Hardenberg,Overijssel,VBO,6.577525,52.609912
Anerweg-Zuid,9,,,7775AN,Lutten,Hardenberg,Overijssel,VBO,6.576629,52.609890
Anerweg-Zuid,11,a,,7775AN,Lutten,Hardenberg,Overijssel,VBO,6.578337,52.609910
Anerweg-Zuid,11,b,,7775AN,Lutten,Hardenberg,Overijssel,VBO,6.578703,52.609963
Anerweg-Zuid,11,c,,7775AN,Lutten,Hardenberg,Overijssel,VBO,6.579151,52.609974
Anerweg-Zuid,11,d,,7775AN,Lutten,Hardenberg,Overijssel,VBO,6.579560,52.609993
Anerweg-Zuid,13,,,7775AN,Lutten,Hardenberg,Overijssel,VBO,6.579898,52.610033
Anerweg-Zuid,15,a,,7775AN,Lutten,Hardenberg,Overijssel,VBO,6.581905,52.610103
Anerweg-Zuid,15,,,7775AN,Lutten,Hardenberg,Overijssel,VBO,6.581183,52.610063
Anerweg-Zuid,17,a,,7775AN,Lutten,Hardenberg,Overijssel,VBO,6.582760,52.610193
Anerweg-Zuid,17,,,7775AN,Lutten,Hardenberg,Overijssel,VBO,6.582242,52.610112
Anerweg-Zuid,19,,,7775AN,Lutten,Hardenberg,Overijssel,VBO,6.583373,52.610188
Anerweg-Zuid,21,,,7775AN,Lutten,Hardenberg,Overijssel,VBO,6.583576,52.610266
Anerweg-Zuid,23,,,7775AN,Lutten,Hardenberg,Overijssel,VBO,6.584088,52.610216
Anerweg-Zuid,25,,,7775AN,Lutten,Hardenberg,Overijssel,VBO,6.584933,52.610263
Anerweg-Zuid,27,i,,7775AN,Lutten,Hardenberg,Overijssel,VBO,6.585969,52.610303
Anerweg-Zuid,27,,,7775AN,Lutten,Hardenberg,Overijssel,VBO,6.585901,52.610329
Anerweg-Zuid,29,,,7775AN,Lutten,Hardenberg,Overijssel,VBO,6.586413,52.610401
Anerweg-Zuid,31,,,7775AN,Lutten,Hardenberg,Overijssel,VBO,6.586779,52.610397
Anerweg-Zuid,33,,,7775AN,Lutten,Hardenberg,Overijssel,VBO,6.587038,52.610317
Anerweg-Zuid,35,,,7775AN,Lutten,Hardenberg,Overijssel,VBO,6.587408,52.610404
Anerweg-Zuid,37,,,7775AN,Lutten,Hardenberg,Overijssel,VBO,6.587832,52.610406
Van den Beltsweg,2,,,7775AN,Lutten,Hardenberg,Overijssel,VBO,6.588361,52.610199
Anerweg-Zuid,39,,,7775AP,Lutten,Hardenberg,Overijssel,VBO,6.588864,52.610418
Anerweg-Zuid,41,,,7775AP,Lutten,Hardenberg,Overijssel,VBO,6.589368,52.610497
Anerweg-Zuid,43,,,7775AP,Lutten,Hardenberg,Overijssel,VBO,6.589839,52.610505
Anerweg-Zuid,45,x,,7775AP,Lutten,Hardenberg,Overijssel,VBO,6.590117,52.609988
Anerweg-Zuid,45,,,7775AP,Lutten,Hardenberg,Overijssel,VBO,6.589949,52.610506
Anerweg-Zuid,47,,,7775AP,Lutten,Hardenberg,Overijssel,VBO,6.590344,52.610345
Anerweg-Zuid,51,,,7775AP,Lutten,Hardenberg,Overijssel,VBO,6.590337,52.610532
Anerweg-Zuid,53,I,,7775AP,Lutten,Hardenberg,Overijssel,VBO,6.591354,52.610464
Anerweg-Zuid,53,,,7775AP,Lutten,Hardenberg,Overijssel,VBO,6.591317,52.610592
Anerweg-Zuid,55,,,7775AP,Lutten,Hardenberg,Overijssel,VBO,6.592118,52.610573
Anerweg-Zuid,57,,,7775AP,Lutten,Hardenberg,Overijssel,VBO,6.592392,52.610572
Anerweg-Zuid,59,,,7775AP,Lutten,Hardenberg,Overijssel,VBO,6.592817,52.610652
Anerweg-Zuid,61,,,7775AR,Lutten,Hardenberg,Overijssel,VBO,6.593297,52.610582
Anerweg-Zuid,63,,,7775AR,Lutten,Hardenberg,Overijssel,VBO,6.594148,52.610652
Anerweg-Zuid,65,,,7775AR,Lutten,Hardenberg,Overijssel,VBO,6.595458,52.610708
Anerweg-Zuid,67,,,7775AR,Lutten,Hardenberg,Overijssel,VBO,6.596853,52.610758
Anerweg-Zuid,69,,,7775AR,Lutten,Hardenberg,Overijssel,VBO,6.597365,52.610757
Anerweg-Zuid,71,a,,7775AR,Lutten,Hardenberg,Overijssel,VBO,6.598987,52.610911
Anerweg-Zuid,71,,,7775AR,Lutten,Hardenberg,Overijssel,VBO,6.597980,52.610707
Anerweg-Zuid,73,,,7775AR,Lutten,Hardenberg,Overijssel,VBO,6.599400,52.610953
Anerweg-Zuid,75,,,7775AR,Lutten,Hardenberg,Overijssel,VBO,6.601423,52.611061
Anerweg-Zuid,77,,,7775AR,Lutten,Hardenberg,Overijssel,VBO,6.602136,52.611109
Anerweg-Zuid,79,,,7775AR,Lutten,Hardenberg,Overijssel,VBO,6.602574,52.611110
Anerweg-Zuid,81,,,7775AR,Lutten,Hardenberg,Overijssel,VBO,6.606016,52.611266
Anerweg-Noord,4,,,7775AS,Lutten,Hardenberg,Overijssel,VBO,6.572897,52.610344
Anerweg-Noord,6,,,7775AS,Lutten,Hardenberg,Overijssel,VBO,6.573167,52.610410
Anerweg-Noord,8,,,7775AS,Lutten,Hardenberg,Overijssel,VBO,6.573511,52.610481
Anerweg-Noord,10,,,7775AS,Lutten,Hardenberg,Overijssel,VBO,6.573919,52.610418
Anerweg-Noord,12,a,,7775AS,Lutten,Hardenberg,Overijssel,VBO,6.574380,52.610489
Anerweg-Noord,12,,,7775AS,Lutten,Hardenberg,Overijssel,VBO,6.574214,52.610364
Anerweg-Noord,14,,,7775AS,Lutten,Hardenberg,Overijssel,VBO,6.574398,52.610377
Anerweg-Noord,16,,,7775AS,Lutten,Hardenberg,Overijssel,VBO,6.574561,52.610382
Anerweg-Noord,18,a,,7775AS,Lutten,Hardenberg,Overijssel,VBO,6.574799,52.610629
Anerweg-Noord,18,,,7775AS,Lutten,Hardenberg,Overijssel,VBO,6.574902,52.610407
Anerweg-Noord,20,,,7775AS,Lutten,Hardenberg,Overijssel,VBO,6.575276,52.610397
Anerweg-Noord,22,,,7775AS,Lutten,Hardenberg,Overijssel,VBO,6.575501,52.610399
Anerweg-Noord,24,,,7775AS,Lutten,Hardenberg,Overijssel,VBO,6.575628,52.610405
Anerweg-Noord,26,a,,7775AS,Lutten,Hardenberg,Overijssel,VBO,6.575889,52.610423
Anerweg-Noord,26,,,7775AS,Lutten,Hardenberg,Overijssel,VBO,6.575795,52.610413
Anerweg-Noord,28,a,,7775AS,Lutten,Hardenberg,Overijssel,VBO,6.576195,52.610684
Anerweg-Noord,28,,,7775AS,Lutten,Hardenberg,Overijssel,VBO,6.576101,52.610420
Anerweg-Noord,30,,,7775AS,Lutten,Hardenberg,Overijssel,VBO,6.576272,52.610432
Anerweg-Noord,32,,,7775AS,Lutten,Hardenberg,Overijssel,VBO,6.576512,52.610444
Anerweg-Noord,34,,,7775AS,Lutten,Hardenberg,Overijssel,VBO,6.576705,52.610457
Anerweg-Noord,36,,,7775AS,Lutten,Hardenberg,Overijssel,VBO,6.576959,52.610478
Anerweg-Noord,38,,,7775AS,Lutten,Hardenberg,Overijssel,VBO,6.577142,52.610486
Anerweg-Noord,40,,,7775AT,Lutten,Hardenberg,Overijssel,VBO,6.577746,52.610766
Anerweg-Noord,42,,,7775AT,Lutten,Hardenberg,Overijssel,VBO,6.578104,52.610699
Anerweg-Noord,44,,,7775AT,Lutten,Hardenberg,Overijssel,VBO,6.578412,52.610784
Anerweg-Noord,46,,,7775AT,Lutten,Hardenberg,Overijssel,VBO,6.578820,52.610668
Anerweg-Noord,48,,,7775AT,Lutten,Hardenberg,Overijssel,VBO,6.578901,52.610672
Anerweg-Noord,50,,,7775AT,Lutten,Hardenberg,Overijssel,VBO,6.579142,52.610601
Anerweg-Noord,52,a,,7775AT,Lutten,Hardenberg,Overijssel,VBO,6.579598,52.610622
Anerweg-Noord,52,,,7775AT,Lutten,Hardenberg,Overijssel,VBO,6.579384,52.610584
Anerweg-Noord,54,a,,7775AT,Lutten,Hardenberg,Overijssel,VBO,6.580147,52.610639
Anerweg-Noord,54,x,,7775AT,Lutten,Hardenberg,Overijssel,VBO,6.580179,52.611177
Anerweg-Noord,54,,,7775AT,Lutten,Hardenberg,Overijssel,VBO,6.579884,52.610644
Anerweg-Noord,56,,,7775AT,Lutten,Hardenberg,Overijssel,VBO,6.580333,52.610632
Anerweg-Noord,58,,,7775AT,Lutten,Hardenberg,Overijssel,VBO,6.580555,52.610634
Anerweg-Noord,60,a,,7775AT,Lutten,Hardenberg,Overijssel,VBO,6.580647,52.610901
Anerweg-Noord,60,,,7775AT,Lutten,Hardenberg,Overijssel,VBO,6.580782,52.610688
Anerweg-Noord,62,,,7775AT,Lutten,Hardenberg,Overijssel,VBO,6.581174,52.610655
Anerweg-Noord,64,,,7775AT,Lutten,Hardenberg,Overijssel,VBO,6.581626,52.610657
Anerweg-Noord,66,,,7775AT,Lutten,Hardenberg,Overijssel,VBO,6.581613,52.610713
Anerweg-Noord,68,,,7775AT,Lutten,Hardenberg,Overijssel,VBO,6.581905,52.610763
Anerweg-Noord,70,,,7775AT,Lutten,Hardenberg,Overijssel,VBO,6.582132,52.610812
Anerweg-Noord,72,,,7775AT,Lutten,Hardenberg,Overijssel,VBO,6.582478,52.610707
Anerweg-Noord,74,,,7775AT,Lutten,Hardenberg,Overijssel,VBO,6.582551,52.610712
Anerweg-Noord,76,,,7775AT,Lutten,Hardenberg,Overijssel,VBO,6.582866,52.610800
Anerweg-Noord,78,,,7775AT,Lutten,Hardenberg,Overijssel,VBO,6.583479,52.610815
Anerweg-Noord,82,I,,7775AT,Lutten,Hardenberg,Overijssel,VBO,6.584041,52.610821
Anerweg-Noord,82,,,7775AT,Lutten,Hardenberg,Overijssel,VBO,6.584052,52.610781
Anerweg-Noord,84,a,,7775AV,Lutten,Hardenberg,Overijssel,VBO,6.584711,52.610859
Anerweg-Noord,84,,,7775AV,Lutten,Hardenberg,Overijssel,VBO,6.584712,52.610797
Anerweg-Noord,86,,,7775AV,Lutten,Hardenberg,Overijssel,VBO,6.585299,52.610892
Anerweg-Noord,88,,,7775AV,Lutten,Hardenberg,Overijssel,VBO,6.585497,52.610897
Anerweg-Noord,90,I,,7775AV,Lutten,Hardenberg,Overijssel,VBO,6.586220,52.610906
Anerweg-Noord,90,,,7775AV,Lutten,Hardenberg,Overijssel,VBO,6.586135,52.610901
Anerweg-Noord,92,,,7775AV,Lutten,Hardenberg,Overijssel,VBO,6.586855,52.610942
Anerweg-Noord,94,,,7775AV,Lutten,Hardenberg,Overijssel,VBO,6.586954,52.610945
Anerweg-Noord,96,,,7775AV,Lutten,Hardenberg,Overijssel,VBO,6.588261,52.611055
Anerweg-Noord,98,,,7775AV,Lutten,Hardenberg,Overijssel,VBO,6.588866,52.611085
Anerweg-Noord,100,,,7775AV,Lutten,Hardenberg,Overijssel,VBO,6.589972,52.611076
Anerweg-Noord,102,,,7775AV,Lutten,Hardenberg,Overijssel,VBO,6.590148,52.611087
Anerweg-Noord,104,a,,7775AV,Lutten,Hardenberg,Overijssel,VBO,6.590596,52.611226
Anerweg-Noord,104,,,7775AV,Lutten,Hardenberg,Overijssel,VBO,6.590505,52.611144
Anerweg-Noord,106,I,,7775AV,Lutten,Hardenberg,Overijssel,VBO,6.591304,52.611112
Anerweg-Noord,106,,,7775AV,Lutten,Hardenberg,Overijssel,VBO,6.591191,52.611107
Anerweg-Noord,108,,,7775AV,Lutten,Hardenberg,Overijssel,VBO,6.591568,52.611227
Anerweg-Noord,110,,,7775AV,Lutten,Hardenberg,Overijssel,VBO,6.592303,52.611217
Anerweg-Noord,112,,,7775AV,Lutten,Hardenberg,Overijssel,VBO,6.592778,52.611332
Anerweg-Noord,114,,,7775AV,Lutten,Hardenberg,Overijssel,VBO,6.593057,52.611295
Anerweg-Noord,116,a,,7775AV,Lutten,Hardenberg,Overijssel,VBO,6.593777,52.611385
Anerweg-Noord,116,,,7775AV,Lutten,Hardenberg,Overijssel,VBO,6.593263,52.611309
Anerweg-Noord,118,,,7775AV,Lutten,Hardenberg,Overijssel,VBO,6.593776,52.611175
Anerweg-Noord,120,,,7775AV,Lutten,Hardenberg,Overijssel,VBO,6.593921,52.611191
Anerweg-Noord,122,,,7775AW,Lutten,Hardenberg,Overijssel,VBO,6.594561,52.611282
Anerweg-Noord,124,,,7775AW,Lutten,Hardenberg,Overijssel,VBO,6.594746,52.611236
Anerweg-Noord,126,,,7775AW,Lutten,Hardenberg,Overijssel,VBO,6.594830,52.611234
Anerweg-Noord,128,,,7775AW,Lutten,Hardenberg,Overijssel,VBO,6.595202,52.611328
Anerweg-Noord,130,,,7775AW,Lutten,Hardenberg,Overijssel,VBO,6.597189,52.611447
Anerweg-Noord,132,,,7775AW,Lutten,Hardenberg,Overijssel,VBO,6.597526,52.611402
Anerweg-Noord,134,a,,7775AW,Lutten,Hardenberg,Overijssel,VBO,6.597896,52.611611
Anerweg-Noord,134,b,,7775AW,Lutten,Hardenberg,Overijssel,VBO,6.598013,52.611596
Anerweg-Noord,134,c,,7775AW,Lutten,Hardenberg,Overijssel,VBO,6.598125,52.611621
Anerweg-Noord,134,d,,7775AW,Lutten,Hardenberg,Overijssel,VBO,6.598236,52.611606
Anerweg-Noord,134,,,7775AW,Lutten,Hardenberg,Overijssel,VBO,6.597805,52.611580
Anerweg-Noord,136,,,7775AW,Lutten,Hardenberg,Overijssel,VBO,6.598523,52.611531
Anerweg-Noord,138,,,7775AW,Lutten,Hardenberg,Overijssel,VBO,6.599012,52.611522
Anerweg-Noord,140,,,7775AW,Lutten,Hardenberg,Overijssel,VBO,6.598980,52.613103
Anerweg-Noord,142,i,,7775AW,Lutten,Hardenberg,Overijssel,VBO,6.599517,52.611511
Anerweg-Noord,142,,,7775AW,Lutten,Hardenberg,Overijssel,VBO,6.599483,52.611489
Anerweg-Noord,144,,,7775AW,Lutten,Hardenberg,Overijssel,VBO,6.599850,52.611593
Anerweg-Noord,146,,,7775AW,Lutten,Hardenberg,Overijssel,VBO,6.599768,52.612281
Anerweg-Noord,148,,,7775AW,Lutten,Hardenberg,Overijssel,VBO,6.600158,52.611596
Anerweg-Noord,150,,,7775AW,Lutten,Hardenberg,Overijssel,VBO,6.600709,52.611645
Anerweg-Noord,152,,,7775AW,Lutten,Hardenberg,Overijssel,VBO,6.601203,52.611631
Anerweg-Noord,154,a,,7775AW,Lutten,Hardenberg,Overijssel,VBO,6.602292,52.611664
Anerweg-Noord,154,,,7775AW,Lutten,Hardenberg,Overijssel,VBO,6.602193,52.611647
Anerweg-Noord,156,,,7775AW,Lutten,Hardenberg,Overijssel,VBO,6.606368,52.611886
Gouden Regenstraat,1,a,,7775AX,Lutten,Hardenberg,Overijssel,VBO,6.573536,52.610885
Gouden Regenstraat,1,,,7775AX,Lutten,Hardenberg,Overijssel,VBO,6.573210,52.610875
Gouden Regenstraat,3,,,7775AX,Lutten,Hardenberg,Overijssel,VBO,6.574030,52.610972
Gouden Regenstraat,5,,,7775AX,Lutten,Hardenberg,Overijssel,VBO,6.574234,52.610988
Gouden Regenstraat,7,,,7775AX,Lutten,Hardenberg,Overijssel,VBO,6.574299,52.610991
Gouden Regenstraat,9,,,7775AX,Lutten,Hardenberg,Overijssel,VBO,6.574520,52.610996
Gouden Regenstraat,11,,,7775AX,Lutten,Hardenberg,Overijssel,VBO,6.574704,52.611005
Gouden Regenstraat,13,,,7775AX,Lutten,Hardenberg,Overijssel,VBO,6.574930,52.611029
Gouden Regenstraat,15,,,7775AX,Lutten,Hardenberg,Overijssel,VBO,6.575006,52.611035
Gouden Regenstraat,17,,,7775AX,Lutten,Hardenberg,Overijssel,VBO,6.575197,52.611047
Gouden Regenstraat,19,a,,7775AX,Lutten,Hardenberg,Overijssel,VBO,6.575620,52.611023
Gouden Regenstraat,19,,,7775AX,Lutten,Hardenberg,Overijssel,VBO,6.575271,52.611052
Gouden Regenstraat,21,,,7775AX,Lutten,Hardenberg,Overijssel,VBO,6.576850,52.610899
Gouden Regenstraat,2,a,,7775AZ,Lutten,Hardenberg,Overijssel,VBO,6.572968,52.611189
Gouden Regenstraat,2,,,7775AZ,Lutten,Hardenberg,Overijssel,VBO,6.573293,52.611256
Gouden Regenstraat,4,,,7775AZ,Lutten,Hardenberg,Overijssel,VBO,6.573409,52.611274
Gouden Regenstraat,6,,,7775AZ,Lutten,Hardenberg,Overijssel,VBO,6.574170,52.611356
Gouden Regenstraat,8,,,7775AZ,Lutten,Hardenberg,Overijssel,VBO,6.574404,52.611302
Gouden Regenstraat,10,,,7775AZ,Lutten,Hardenberg,Overijssel,VBO,6.574484,52.611305
Gouden Regenstraat,12,,,7775AZ,Lutten,Hardenberg,Overijssel,VBO,6.574630,52.611312
Gouden Regenstraat,14,,,7775AZ,Lutten,Hardenberg,Overijssel,VBO,6.575138,52.611317
Gouden Regenstraat,16,,,7775AZ,Lutten,Hardenberg,Overijssel,VBO,6.575223,52.611352
Gouden Regenstraat,18,,,7775AZ,Lutten,Hardenberg,Overijssel,VBO,6.575330,52.611358
Gouden Regenstraat,20,,,7775AZ,Lutten,Hardenberg,Overijssel,VBO,6.575493,52.611368
Gouden Regenstraat,22,,,7775AZ,Lutten,Hardenberg,Overijssel,VBO,6.575594,52.611378
Gouden Regenstraat,24,,,7775AZ,Lutten,Hardenberg,Overijssel,VBO,6.575795,52.611386
Gouden Regenstraat,26,,,7775AZ,Lutten,Hardenberg,Overijssel,VBO,6.576020,52.611435
Gouden Regenstraat,28,,,7775AZ,Lutten,Hardenberg,Overijssel,VBO,6.576455,52.611484
Gouden Regenstraat,30,,,7775AZ,Lutten,Hardenberg,Overijssel,VBO,6.576536,52.611489
Gouden Regenstraat,32,,,7775AZ,Lutten,Hardenberg,Overijssel,VBO,6.576760,52.611505
Gouden Regenstraat,34,,,7775AZ,Lutten,Hardenberg,Overijssel,VBO,6.576848,52.611510
Lijsterbesstraat,1,,,7775BA,Lutten,Hardenberg,Overijssel,VBO,6.574031,52.611337
Lijsterbesstraat,3,,,7775BA,Lutten,Hardenberg,Overijssel,VBO,6.573944,52.611535
Lijsterbesstraat,5,,,7775BA,Lutten,Hardenberg,Overijssel,VBO,6.573912,52.611632
Lijsterbesstraat,7,,,7775BA,Lutten,Hardenberg,Overijssel,VBO,6.573814,52.611712
Lijsterbesstraat,9,,,7775BA,Lutten,Hardenberg,Overijssel,VBO,6.573802,52.611795
Lijsterbesstraat,11,,,7775BA,Lutten,Hardenberg,Overijssel,VBO,6.573816,52.611912
Lijsterbesstraat,13,,,7775BA,Lutten,Hardenberg,Overijssel,VBO,6.573781,52.612015
Lijsterbesstraat,15,,,7775BA,Lutten,Hardenberg,Overijssel,VBO,6.573660,52.612104
Lijsterbesstraat,17,,,7775BA,Lutten,Hardenberg,Overijssel,VBO,6.573648,52.612146
Lijsterbesstraat,19,,,7775BA,Lutten,Hardenberg,Overijssel,VBO,6.573709,52.612306
Lijsterbesstraat,2,,,7775BB,Lutten,Hardenberg,Overijssel,VBO,6.573358,52.611434
Lijsterbesstraat,4,,,7775BB,Lutten,Hardenberg,Overijssel,VBO,6.573337,52.611492
Lijsterbesstraat,6,,,7775BB,Lutten,Hardenberg,Overijssel,VBO,6.573318,52.611550
Lijsterbesstraat,8,,,7775BB,Lutten,Hardenberg,Overijssel,VBO,6.573298,52.611609
Lijsterbesstraat,10,,,7775BB,Lutten,Hardenberg,Overijssel,VBO,6.573278,52.611670
Lijsterbesstraat,12,,,7775BB,Lutten,Hardenberg,Overijssel,VBO,6.573256,52.611734
Lijsterbesstraat,14,,,7775BB,Lutten,Hardenberg,Overijssel,VBO,6.573224,52.611849
Lijsterbesstraat,16,,,7775BB,Lutten,Hardenberg,Overijssel,VBO,6.573203,52.611910
Lijsterbesstraat,18,,,7775BB,Lutten,Hardenberg,Overijssel,VBO,6.573183,52.611965
Lijsterbesstraat,20,,,7775BB,Lutten,Hardenberg,Overijssel,VBO,6.573165,52.612026
Lijsterbesstraat,22,,,7775BB,Lutten,Hardenberg,Overijssel,VBO,6.573141,52.612141
Lijsterbesstraat,24,,,7775BB,Lutten,Hardenberg,Overijssel,VBO,6.573123,52.612198
Lijsterbesstraat,26,,,7775BB,Lutten,Hardenberg,Overijssel,VBO,6.573106,52.612255
Lijsterbesstraat,28,,,7775BB,Lutten,Hardenberg,Overijssel,VBO,6.573088,52.612307
Lijsterbesstraat,30,,,7775BB,Lutten,Hardenberg,Overijssel,VBO,6.573068,52.612371
Lijsterbesstraat,32,,,7775BB,Lutten,Hardenberg,Overijssel,VBO,6.573051,52.612422
Meidoornstraat,1,,,7775BC,Lutten,Hardenberg,Overijssel,VBO,6.572232,52.612317
Meidoornstraat,3,,,7775BC,Lutten,Hardenberg,Overijssel,VBO,6.572319,52.612327
Meidoornstraat,5,,,7775BC,Lutten,Hardenberg,Overijssel,VBO,6.572405,52.612337
Meidoornstraat,7,,,7775BC,Lutten,Hardenberg,Overijssel,VBO,6.572495,52.612348
Meidoornstraat,9,,,7775BC,Lutten,Hardenberg,Overijssel,VBO,6.572586,52.612358
Meidoornstraat,11,,,7775BC,Lutten,Hardenberg,Overijssel,VBO,6.572698,52.612372
Meidoornstraat,13,,,7775BC,Lutten,Hardenberg,Overijssel,VBO,6.573464,52.612492
Meidoornstraat,15,,,7775BC,Lutten,Hardenberg,Overijssel,VBO,6.573544,52.612501
Meidoornstraat,17,,,7775BC,Lutten,Hardenberg,Overijssel,VBO,6.573632,52.612512
Meidoornstraat,19,,,7775BC,Lutten,Hardenberg,Overijssel,VBO,6.573726,52.612522
Meidoornstraat,21,,,7775BC,Lutten,Hardenberg,Overijssel,VBO,6.573870,52.612544
Meidoornstraat,23,,,7775BC,Lutten,Hardenberg,Overijssel,VBO,6.573962,52.612555
Meidoornstraat,25,,,7775BC,Lutten,Hardenberg,Overijssel,VBO,6.574047,52.612565
Meidoornstraat,27,a,,7775BC,Lutten,Hardenberg,Overijssel,VBO,6.574239,52.612589
Meidoornstraat,27,,,7775BC,Lutten,Hardenberg,Overijssel,VBO,6.574139,52.612576
Meidoornstraat,29,,,7775BC,Lutten,Hardenberg,Overijssel,VBO,6.574300,52.612331
Meidoornstraat,31,,,7775BD,Lutten,Hardenberg,Overijssel,VBO,6.574341,52.612332
Meidoornstraat,33,,,7775BD,Lutten,Hardenberg,Overijssel,VBO,6.574324,52.612259
Meidoornstraat,35,,,7775BD,Lutten,Hardenberg,Overijssel,VBO,6.574367,52.612264
Meidoornstraat,37,,,7775BD,Lutten,Hardenberg,Overijssel,VBO,6.574345,52.612189
Meidoornstraat,39,,,7775BD,Lutten,Hardenberg,Overijssel,VBO,6.574388,52.612199
Meidoornstraat,41,,,7775BD,Lutten,Hardenberg,Overijssel,VBO,6.574369,52.612124
Meidoornstraat,43,,,7775BD,Lutten,Hardenberg,Overijssel,VBO,6.574409,52.612125
Meidoornstraat,45,,,7775BD,Lutten,Hardenberg,Overijssel,VBO,6.574392,52.612057
Meidoornstraat,47,,,7775BD,Lutten,Hardenberg,Overijssel,VBO,6.574435,52.612056
Meidoornstraat,49,,,7775BD,Lutten,Hardenberg,Overijssel,VBO,6.574420,52.611981
Meidoornstraat,51,,,7775BD,Lutten,Hardenberg,Overijssel,VBO,6.574466,52.611983
Meidoornstraat,53,,,7775BD,Lutten,Hardenberg,Overijssel,VBO,6.574521,52.611799
Meidoornstraat,55,,,7775BD,Lutten,Hardenberg,Overijssel,VBO,6.574433,52.611788
Meidoornstraat,57,,,7775BD,Lutten,Hardenberg,Overijssel,VBO,6.574345,52.611778
Meidoornstraat,59,,,7775BD,Lutten,Hardenberg,Overijssel,VBO,6.574245,52.611766
Meidoornstraat,61,,,7775BD,Lutten,Hardenberg,Overijssel,VBO,6.574689,52.611564
Meidoornstraat,63,,,7775BD,Lutten,Hardenberg,Overijssel,VBO,6.574616,52.611555
Meidoornstraat,65,,,7775BD,Lutten,Hardenberg,Overijssel,VBO,6.574534,52.611545
Meidoornstraat,67,,,7775BD,Lutten,Hardenberg,Overijssel,VBO,6.574411,52.611551
Meidoornstraat,69,,,7775BD,Lutten,Hardenberg,Overijssel,VBO,6.574310,52.611539
Meidoornstraat,6,,,7775BE,Lutten,Hardenberg,Overijssel,VBO,6.572427,52.612716
Meidoornstraat,8,,,7775BE,Lutten,Hardenberg,Overijssel,VBO,6.572556,52.612734
Meidoornstraat,10,,,7775BE,Lutten,Hardenberg,Overijssel,VBO,6.572763,52.612759
Meidoornstraat,12,,,7775BE,Lutten,Hardenberg,Overijssel,VBO,6.573004,52.612787
Meidoornstraat,14,,,7775BE,Lutten,Hardenberg,Overijssel,VBO,6.573112,52.612800
Meidoornstraat,16,,,7775BE,Lutten,Hardenberg,Overijssel,VBO,6.573370,52.612812
Meidoornstraat,18,,,7775BE,Lutten,Hardenberg,Overijssel,VBO,6.573468,52.612824
Meidoornstraat,20,,,7775BE,Lutten,Hardenberg,Overijssel,VBO,6.573555,52.612833
Meidoornstraat,22,,,7775BE,Lutten,Hardenberg,Overijssel,VBO,6.573643,52.612845
Meidoornstraat,24,,,7775BE,Lutten,Hardenberg,Overijssel,VBO,6.573736,52.612856
Meidoornstraat,26,,,7775BE,Lutten,Hardenberg,Overijssel,VBO,6.573901,52.612876
Meidoornstraat,28,,,7775BE,Lutten,Hardenberg,Overijssel,VBO,6.573998,52.612887
Meidoornstraat,30,,,7775BE,Lutten,Hardenberg,Overijssel,VBO,6.574093,52.612897
Meidoornstraat,32,,,7775BE,Lutten,Hardenberg,Overijssel,VBO,6.574177,52.612909
Meidoornstraat,34,,,7775BE,Lutten,Hardenberg,Overijssel,VBO,6.574270,52.612916
Meidoornstraat,44,,,7775BE,Lutten,Hardenberg,Overijssel,VBO,6.574856,52.612190
Meidoornstraat,46,,,7775BG,Lutten,Hardenberg,Overijssel,VBO,6.574871,52.612135
Meidoornstraat,48,,,7775BG,Lutten,Hardenberg,Overijssel,VBO,6.574894,52.612072
Meidoornstraat,50,,,7775BG,Lutten,Hardenberg,Overijssel,VBO,6.574922,52.611970
Meidoornstraat,52,,,7775BG,Lutten,Hardenberg,Overijssel,VBO,6.574944,52.611915
Meidoornstraat,54,,,7775BG,Lutten,Hardenberg,Overijssel,VBO,6.574959,52.611858
Esdoornstraat,2,,,7775BH,Lutten,Hardenberg,Overijssel,VBO,6.575080,52.613038
Esdoornstraat,4,,,7775BH,Lutten,Hardenberg,Overijssel,VBO,6.575304,52.613077
Esdoornstraat,6,,,7775BH,Lutten,Hardenberg,Overijssel,VBO,6.575381,52.613091
Esdoornstraat,8,,,7775BH,Lutten,Hardenberg,Overijssel,VBO,6.575622,52.613139
Esdoornstraat,12,,,7775BH,Lutten,Hardenberg,Overijssel,VBO,6.575850,52.613211
Esdoornstraat,16,,,7775BH,Lutten,Hardenberg,Overijssel,VBO,6.575918,52.613360
Esdoornstraat,18,,,7775BH,Lutten,Hardenberg,Overijssel,VBO,6.575867,52.613497
Esdoornstraat,20,,,7775BH,Lutten,Hardenberg,Overijssel,VBO,6.575543,52.613459
Esdoornstraat,22,,,7775BH,Lutten,Hardenberg,Overijssel,VBO,6.575479,52.613440
Esdoornstraat,24,,,7775BH,Lutten,Hardenberg,Overijssel,VBO,6.575296,52.613419
Esdoornstraat,26,,,7775BH,Lutten,Hardenberg,Overijssel,VBO,6.575216,52.613408
Esdoornstraat,28,,,7775BH,Lutten,Hardenberg,Overijssel,VBO,6.575032,52.613389
Esdoornstraat,30,,,7775BH,Lutten,Hardenberg,Overijssel,VBO,6.574951,52.613378
Kamperfoeliestraat,1,,,7775BJ,Lutten,Hardenberg,Overijssel,VBO,6.575051,52.611600
Kamperfoeliestraat,2,,,7775BJ,Lutten,Hardenberg,Overijssel,VBO,6.575320,52.611932
Kamperfoeliestraat,3,,,7775BJ,Lutten,Hardenberg,Overijssel,VBO,6.575391,52.611634
Kamperfoeliestraat,4,,,7775BJ,Lutten,Hardenberg,Overijssel,VBO,6.575411,52.611945
Kamperfoeliestraat,5,,,7775BJ,Lutten,Hardenberg,Overijssel,VBO,6.575560,52.611695
Kamperfoeliestraat,6,,,7775BJ,Lutten,Hardenberg,Overijssel,VBO,6.575631,52.611973
Kamperfoeliestraat,7,,,7775BJ,Lutten,Hardenberg,Overijssel,VBO,6.575686,52.611696
Kamperfoeliestraat,8,,,7775BJ,Lutten,Hardenberg,Overijssel,VBO,6.575696,52.611982
Kamperfoeliestraat,9,,,7775BJ,Lutten,Hardenberg,Overijssel,VBO,6.575974,52.611668
Kamperfoeliestraat,10,,,7775BJ,Lutten,Hardenberg,Overijssel,VBO,6.575656,52.612221
Kamperfoeliestraat,11,,,7775BJ,Lutten,Hardenberg,Overijssel,VBO,6.575758,52.612537
Kamperfoeliestraat,12,,,7775BJ,Lutten,Hardenberg,Overijssel,VBO,6.575565,52.612213
Kamperfoeliestraat,13,,,7775BJ,Lutten,Hardenberg,Overijssel,VBO,6.575576,52.612543
Kamperfoeliestraat,14,,,7775BJ,Lutten,Hardenberg,Overijssel,VBO,6.575376,52.612209
Kamperfoeliestraat,15,,,7775BJ,Lutten,Hardenberg,Overijssel,VBO,6.575369,52.612504
Kamperfoeliestraat,16,,,7775BJ,Lutten,Hardenberg,Overijssel,VBO,6.575261,52.612197
Kamperfoeliestraat,17,,,7775BJ,Lutten,Hardenberg,Overijssel,VBO,6.575277,52.612497
Kamperfoeliestraat,19,,,7775BJ,Lutten,Hardenberg,Overijssel,VBO,6.575035,52.612491
Kamperfoeliestraat,21,,,7775BJ,Lutten,Hardenberg,Overijssel,VBO,6.574894,52.612485
Ribesstraat,14,,,7775BK,Lutten,Hardenberg,Overijssel,VBO,6.572051,52.613367
Ribesstraat,16,,,7775BK,Lutten,Hardenberg,Overijssel,VBO,6.572035,52.613422
Ribesstraat,18,,,7775BK,Lutten,Hardenberg,Overijssel,VBO,6.572023,52.613459
Ribesstraat,20,,,7775BK,Lutten,Hardenberg,Overijssel,VBO,6.571995,52.613525
Ribesstraat,22,,,7775BK,Lutten,Hardenberg,Overijssel,VBO,6.572323,52.613565
Ribesstraat,24,,,7775BK,Lutten,Hardenberg,Overijssel,VBO,6.572405,52.613577
Ribesstraat,26,,,7775BK,Lutten,Hardenberg,Overijssel,VBO,6.572490,52.613589
Ribesstraat,28,,,7775BK,Lutten,Hardenberg,Overijssel,VBO,6.572744,52.613564
Ribesstraat,30,,,7775BK,Lutten,Hardenberg,Overijssel,VBO,6.572763,52.613514
Ribesstraat,32,,,7775BK,Lutten,Hardenberg,Overijssel,VBO,6.572792,52.613468
Ribesstraat,34,,,7775BK,Lutten,Hardenberg,Overijssel,VBO,6.573275,52.613491
Ribesstraat,36,,,7775BK,Lutten,Hardenberg,Overijssel,VBO,6.573241,52.613543
Ribesstraat,38,,,7775BK,Lutten,Hardenberg,Overijssel,VBO,6.573242,52.613668
Ribesstraat,40,,,7775BK,Lutten,Hardenberg,Overijssel,VBO,6.573214,52.613721
Ribesstraat,42,,,7775BK,Lutten,Hardenberg,Overijssel,VBO,6.573622,52.613762
Ribesstraat,44,,,7775BK,Lutten,Hardenberg,Overijssel,VBO,6.573642,52.613708
Ribesstraat,46,,,7775BK,Lutten,Hardenberg,Overijssel,VBO,6.573682,52.613582
Ribesstraat,48,,,7775BK,Lutten,Hardenberg,Overijssel,VBO,6.573696,52.613535
Ribesstraat,50,,,7775BK,Lutten,Hardenberg,Overijssel,VBO,6.574069,52.613565
Ribesstraat,52,,,7775BK,Lutten,Hardenberg,Overijssel,VBO,6.574141,52.613574
Ribesstraat,1,,,7775BL,Lutten,Hardenberg,Overijssel,VBO,6.572054,52.613184
Ribesstraat,3,,,7775BL,Lutten,Hardenberg,Overijssel,VBO,6.572070,52.613136
Ribesstraat,5,,,7775BL,Lutten,Hardenberg,Overijssel,VBO,6.572088,52.613089
Ribesstraat,7,,,7775BL,Lutten,Hardenberg,Overijssel,VBO,6.572102,52.613042
Ribesstraat,9,,,7775BL,Lutten,Hardenberg,Overijssel,VBO,6.572478,52.613163
Ribesstraat,11,,,7775BL,Lutten,Hardenberg,Overijssel,VBO,6.572566,52.613174
Ribesstraat,13,,,7775BL,Lutten,Hardenberg,Overijssel,VBO,6.572620,52.613199
Ribesstraat,15,,,7775BL,Lutten,Hardenberg,Overijssel,VBO,6.572706,52.613210
Ribesstraat,17,,,7775BL,Lutten,Hardenberg,Overijssel,VBO,6.572836,52.613233
Ribesstraat,19,,,7775BL,Lutten,Hardenberg,Overijssel,VBO,6.572935,52.613245
Ribesstraat,21,,,7775BL,Lutten,Hardenberg,Overijssel,VBO,6.573015,52.613257
Ribesstraat,23,,,7775BL,Lutten,Hardenberg,Overijssel,VBO,6.573246,52.613167
Ribesstraat,25,,,7775BL,Lutten,Hardenberg,Overijssel,VBO,6.573341,52.613180
Ribesstraat,27,,,7775BL,Lutten,Hardenberg,Overijssel,VBO,6.573437,52.613190
Ribesstraat,29,,,7775BL,Lutten,Hardenberg,Overijssel,VBO,6.573519,52.613200
Ribesstraat,31,,,7775BL,Lutten,Hardenberg,Overijssel,VBO,6.573680,52.613235
Ribesstraat,33,,,7775BL,Lutten,Hardenberg,Overijssel,VBO,6.573771,52.613245
Ribesstraat,35,,,7775BL,Lutten,Hardenberg,Overijssel,VBO,6.573864,52.613257
Ribesstraat,37,,,7775BL,Lutten,Hardenberg,Overijssel,VBO,6.573960,52.613267
Ribesstraat,39,,,7775BL,Lutten,Hardenberg,Overijssel,VBO,6.574048,52.613278
Ribesstraat,41,,,7775BL,Lutten,Hardenberg,Overijssel,VBO,6.574150,52.613291
Stobbeplasweg,1,,,7775BM,Lutten,Hardenberg,Overijssel,VBO,6.543131,52.609102
Stobbeplasweg,3,,,7775BM,Lutten,Hardenberg,Overijssel,VBO,6.543201,52.609442
Stobbeplasweg,5,a,,7775BM,Lutten,Hardenberg,Overijssel,VBO,6.542119,52.610142
Stobbeplasweg,5,,,7775BM,Lutten,Hardenberg,Overijssel,VBO,6.542892,52.609901
Esdoornstraat,1,,,7775BN,Lutten,Hardenberg,Overijssel,VBO,6.574839,52.612690
Esdoornstraat,3,,,7775BN,Lutten,Hardenberg,Overijssel,VBO,6.575075,52.612722
Esdoornstraat,5,,,7775BN,Lutten,Hardenberg,Overijssel,VBO,6.575241,52.612701
Esdoornstraat,7,,,7775BN,Lutten,Hardenberg,Overijssel,VBO,6.575555,52.612770
Esdoornstraat,9,,,7775BN,Lutten,Hardenberg,Overijssel,VBO,6.575652,52.612779
Esdoornstraat,11,,,7775BN,Lutten,Hardenberg,Overijssel,VBO,6.575704,52.613708
Esdoornstraat,13,,,7775BN,Lutten,Hardenberg,Overijssel,VBO,6.575680,52.613762
Esdoornstraat,15,,,7775BN,Lutten,Hardenberg,Overijssel,VBO,6.575598,52.613934
Esdoornstraat,17,,,7775BN,Lutten,Hardenberg,Overijssel,VBO,6.575280,52.613882
Esdoornstraat,19,,,7775BN,Lutten,Hardenberg,Overijssel,VBO,6.575207,52.613873
Esdoornstraat,21,,,7775BN,Lutten,Hardenberg,Overijssel,VBO,6.575000,52.613832
Esdoornstraat,23,,,7775BN,Lutten,Hardenberg,Overijssel,VBO,6.574915,52.613674
Esdoornstraat,25,,,7775BN,Lutten,Hardenberg,Overijssel,VBO,6.574937,52.613631
Esdoornstraat,27,,,7775BN,Lutten,Hardenberg,Overijssel,VBO,6.574617,52.613595
Esdoornstraat,29,,,7775BN,Lutten,Hardenberg,Overijssel,VBO,6.574520,52.613577
Laurierstraat,2,,,7775BP,Lutten,Hardenberg,Overijssel,VBO,6.576160,52.612267
Laurierstraat,4,,,7775BP,Lutten,Hardenberg,Overijssel,VBO,6.576383,52.612311
Laurierstraat,6,,,7775BP,Lutten,Hardenberg,Overijssel,VBO,6.576605,52.612351
Magnoliastraat,1,,,7775BR,Lutten,Hardenberg,Overijssel,VBO,6.576221,52.612032
Magnoliastraat,2,,,7775BR,Lutten,Hardenberg,Overijssel,VBO,6.576292,52.611748
Magnoliastraat,3,,,7775BR,Lutten,Hardenberg,Overijssel,VBO,6.576439,52.612053
Magnoliastraat,4,,,7775BR,Lutten,Hardenberg,Overijssel,VBO,6.576534,52.611768
Magnoliastraat,5,,,7775BR,Lutten,Hardenberg,Overijssel,VBO,6.576646,52.612066
Magnoliastraat,6,,,7775BR,Lutten,Hardenberg,Overijssel,VBO,6.576763,52.611788
Ahornstraat,1,,,7775BS,Lutten,Hardenberg,Overijssel,VBO,6.576760,52.613910
Ahornstraat,2,,,7775BS,Lutten,Hardenberg,Overijssel,VBO,6.577085,52.613411
Ahornstraat,3,,,7775BS,Lutten,Hardenberg,Overijssel,VBO,6.577067,52.613943
Ahornstraat,4,,,7775BS,Lutten,Hardenberg,Overijssel,VBO,6.577155,52.613295
Ahornstraat,5,,,7775BS,Lutten,Hardenberg,Overijssel,VBO,6.577350,52.613973
Ahornstraat,6,,,7775BS,Lutten,Hardenberg,Overijssel,VBO,6.577237,52.613313
Ahornstraat,8,,,7775BS,Lutten,Hardenberg,Overijssel,VBO,6.577332,52.613322
Ahornstraat,9,,,7775BS,Lutten,Hardenberg,Overijssel,VBO,6.577846,52.614085
Ahornstraat,10,,,7775BS,Lutten,Hardenberg,Overijssel,VBO,6.577432,52.613337
Ahornstraat,11,,,7775BS,Lutten,Hardenberg,Overijssel,VBO,6.578148,52.614102
Ahornstraat,12,,,7775BS,Lutten,Hardenberg,Overijssel,VBO,6.576999,52.613400
Ahornstraat,13,,,7775BS,Lutten,Hardenberg,Overijssel,VBO,6.578423,52.614141
Ahornstraat,14,,,7775BS,Lutten,Hardenberg,Overijssel,VBO,6.577020,52.613350
Ahornstraat,15,,,7775BS,Lutten,Hardenberg,Overijssel,VBO,6.578728,52.614113
Ahornstraat,16,,,7775BS,Lutten,Hardenberg,Overijssel,VBO,6.577172,52.613239
Ahornstraat,17,,,7775BS,Lutten,Hardenberg,Overijssel,VBO,6.578980,52.614133
Ahornstraat,18,,,7775BS,Lutten,Hardenberg,Overijssel,VBO,6.577257,52.613251
Ahornstraat,19,,,7775BS,Lutten,Hardenberg,Overijssel,VBO,6.579324,52.614172
Ahornstraat,20,a,,7775BS,Lutten,Hardenberg,Overijssel,VBO,6.577475,52.613279
Ahornstraat,20,,,7775BS,Lutten,Hardenberg,Overijssel,VBO,6.577349,52.613261
Ahornstraat,22,,,7775BS,Lutten,Hardenberg,Overijssel,VBO,6.576955,52.613560
Ahornstraat,24,,,7775BS,Lutten,Hardenberg,Overijssel,VBO,6.576924,52.613698
Ahornstraat,26,,,7775BS,Lutten,Hardenberg,Overijssel,VBO,6.577199,52.613712
Ahornstraat,28,,,7775BS,Lutten,Hardenberg,Overijssel,VBO,6.577274,52.613720
Ahornstraat,30,,,7775BS,Lutten,Hardenberg,Overijssel,VBO,6.577367,52.613735
Ahornstraat,32,,,7775BS,Lutten,Hardenberg,Overijssel,VBO,6.577446,52.613740
Ahornstraat,34,,,7775BS,Lutten,Hardenberg,Overijssel,VBO,6.577668,52.613700
Ahornstraat,36,,,7775BS,Lutten,Hardenberg,Overijssel,VBO,6.577739,52.613707
Ahornstraat,38,,,7775BS,Lutten,Hardenberg,Overijssel,VBO,6.577825,52.613717
Ahornstraat,40,,,7775BS,Lutten,Hardenberg,Overijssel,VBO,6.577903,52.613726
Ahornstraat,42,,,7775BS,Lutten,Hardenberg,Overijssel,VBO,6.578292,52.613760
Ahornstraat,44,,,7775BS,Lutten,Hardenberg,Overijssel,VBO,6.578370,52.613766
Ahornstraat,46,,,7775BS,Lutten,Hardenberg,Overijssel,VBO,6.578453,52.613776
Ahornstraat,48,,,7775BS,Lutten,Hardenberg,Overijssel,VBO,6.578536,52.613793
Ahornstraat,50,,,7775BS,Lutten,Hardenberg,Overijssel,VBO,6.578699,52.613850
Ahornstraat,52,,,7775BS,Lutten,Hardenberg,Overijssel,VBO,6.578781,52.613874
Ahornstraat,54,,,7775BS,Lutten,Hardenberg,Overijssel,VBO,6.578872,52.613875
Ahornstraat,56,,,7775BS,Lutten,Hardenberg,Overijssel,VBO,6.578949,52.613891
Ahornstraat,58,,,7775BS,Lutten,Hardenberg,Overijssel,VBO,6.579237,52.613937
Ahornstraat,60,,,7775BS,Lutten,Hardenberg,Overijssel,VBO,6.579290,52.613757
Ahornstraat,62,,,7775BS,Lutten,Hardenberg,Overijssel,VBO,6.579306,52.613620
Ahornstraat,64,,,7775BS,Lutten,Hardenberg,Overijssel,VBO,6.579383,52.613474
Ahornstraat,66,,,7775BS,Lutten,Hardenberg,Overijssel,VBO,6.579067,52.613460
Ahornstraat,68,,,7775BS,Lutten,Hardenberg,Overijssel,VBO,6.578962,52.613442
Ahornstraat,70,,,7775BS,Lutten,Hardenberg,Overijssel,VBO,6.578748,52.613446
Ahornstraat,72,,,7775BS,Lutten,Hardenberg,Overijssel,VBO,6.578666,52.613425
Ahornstraat,74,,,7775BS,Lutten,Hardenberg,Overijssel,VBO,6.578454,52.613416
Ahornstraat,76,,,7775BS,Lutten,Hardenberg,Overijssel,VBO,6.578352,52.613398
Ahornstraat,78,,,7775BS,Lutten,Hardenberg,Overijssel,VBO,6.578039,52.613355
Ahornstraat,80,,,7775BS,Lutten,Hardenberg,Overijssel,VBO,6.577944,52.613345
Ahornstraat,82,,,7775BS,Lutten,Hardenberg,Overijssel,VBO,6.577741,52.613321
Ahornstraat,84,,,7775BS,Lutten,Hardenberg,Overijssel,VBO,6.577651,52.613305
Middenweg,3,,,7775CA,Lutten,Hardenberg,Overijssel,VBO,6.573689,52.608384
Zwarte Dijk,1,,,7775PA,Lutten,Hardenberg,Overijssel,VBO,6.572811,52.610678
Zwarte Dijk,3,,,7775PA,Lutten,Hardenberg,Overijssel,VBO,6.572772,52.610810
Zwarte Dijk,5,,,7775PA,Lutten,Hardenberg,Overijssel,VBO,6.572645,52.611166
Zwarte Dijk,7,,,7775PA,Lutten,Hardenberg,Overijssel,VBO,6.572596,52.611303
Zwarte Dijk,9,,,7775PA,Lutten,Hardenberg,Overijssel,VBO,6.572583,52.611352
Zwarte Dijk,11,,,7775PA,Lutten,Hardenberg,Overijssel,VBO,6.572537,52.611450
Zwarte Dijk,13,,,7775PA,Lutten,Hardenberg,Overijssel,VBO,6.572525,52.611501
Zwarte Dijk,15,,,7775PA,Lutten,Hardenberg,Overijssel,VBO,6.572502,52.611607
Zwarte Dijk,17,,,7775PA,Lutten,Hardenberg,Overijssel,VBO,6.572472,52.611658
Zwarte Dijk,19,,,7775PA,Lutten,Hardenberg,Overijssel,VBO,6.572438,52.611760
Zwarte Dijk,21,,,7775PA,Lutten,Hardenberg,Overijssel,VBO,6.572422,52.611811
Zwarte Dijk,23,,,7775PA,Lutten,Hardenberg,Overijssel,VBO,6.572405,52.611860
Zwarte Dijk,25,,,7775PA,Lutten,Hardenberg,Overijssel,VBO,6.572377,52.611931
Zwarte Dijk,27,,,7775PA,Lutten,Hardenberg,Overijssel,VBO,6.572359,52.611986
Zwarte Dijk,29,a,,7775PA,Lutten,Hardenberg,Overijssel,VBO,6.572187,52.612653
Zwarte Dijk,29,b,,7775PA,Lutten,Hardenberg,Overijssel,VBO,6.572154,52.612789
Zwarte Dijk,29,,,7775PA,Lutten,Hardenberg,Overijssel,VBO,6.572345,52.612035
Zwarte Dijk,31,a,,7775PA,Lutten,Hardenberg,Overijssel,VBO,6.573094,52.614090
Zwarte Dijk,31,,,7775PA,Lutten,Hardenberg,Overijssel,VBO,6.572113,52.612889
Zwarte Dijk,33,b,,7775PA,Lutten,Hardenberg,Overijssel,VBO,6.570141,52.618029
Zwarte Dijk,33,I,,7775PA,Lutten,Hardenberg,Overijssel,VBO,6.570528,52.616185
Zwarte Dijk,33,,,7775PA,Lutten,Hardenberg,Overijssel,VBO,6.570411,52.616182
Zwarte Dijk,35,a,,7775PA,Lutten,Hardenberg,Overijssel,VBO,6.566657,52.618840
Zwarte Dijk,35,,,7775PA,Lutten,Hardenberg,Overijssel,VBO,6.571618,52.617833
Zwarte Dijk,2,a,,7775PB,Lutten,Hardenberg,Overijssel,VBO,6.572363,52.610468
Zwarte Dijk,2,,,7775PB,Lutten,Hardenberg,Overijssel,VBO,6.572213,52.610636
Zwarte Dijk,4,,,7775PB,Lutten,Hardenberg,Overijssel,VBO,6.572184,52.610773
Zwarte Dijk,6,,,7775PB,Lutten,Hardenberg,Overijssel,VBO,6.572177,52.610873
Zwarte Dijk,10,,,7775PB,Lutten,Hardenberg,Overijssel,VBO,6.572129,52.611004
Zwarte Dijk,12,i,,7775PB,Lutten,Hardenberg,Overijssel,VBO,6.571259,52.611105
Zwarte Dijk,12,,,7775PB,Lutten,Hardenberg,Overijssel,VBO,6.571366,52.611185
Zwarte Dijk,14,,,7775PB,Lutten,Hardenberg,Overijssel,VBO,6.572023,52.611225
Zwarte Dijk,16,,,7775PB,Lutten,Hardenberg,Overijssel,VBO,6.571991,52.611336
Zwarte Dijk,18,,,7775PB,Lutten,Hardenberg,Overijssel,VBO,6.571933,52.611455
Zwarte Dijk,20,,,7775PB,Lutten,Hardenberg,Overijssel,VBO,6.571913,52.611575
Zwarte Dijk,22,,,7775PB,Lutten,Hardenberg,Overijssel,VBO,6.571868,52.611683
Zwarte Dijk,24,,,7775PB,Lutten,Hardenberg,Overijssel,VBO,6.571829,52.611792
Zwarte Dijk,26,,,7775PB,Lutten,Hardenberg,Overijssel,VBO,6.571792,52.611894
Zwarte Dijk,28,,,7775PB,Lutten,Hardenberg,Overijssel,VBO,6.571735,52.612023
Zwarte Dijk,30,,,7775PB,Lutten,Hardenberg,Overijssel,VBO,6.571743,52.612162
Zwarte Dijk,34,a,,7775PB,Lutten,Hardenberg,Overijssel,VBO,6.571471,52.612644
Zwarte Dijk,34,b,,7775PB,Lutten,Hardenberg,Overijssel,VBO,6.571327,52.612923
Zwarte Dijk,34,c,,7775PB,Lutten,Hardenberg,Overijssel,VBO,6.571275,52.613166
Zwarte Dijk,34,d,,7775PB,Lutten,Hardenberg,Overijssel,VBO,6.571131,52.613482
Zwarte Dijk,34,e,,7775PB,Lutten,Hardenberg,Overijssel,VBO,6.570975,52.613096
Zwarte Dijk,34,f,,7775PB,Lutten,Hardenberg,Overijssel,VBO,6.571589,52.612446
Zwarte Dijk,34,,,7775PB,Lutten,Hardenberg,Overijssel,VBO,6.571621,52.612275
Zwarte Dijk,36,I,,7775PC,Lutten,Hardenberg,Overijssel,VBO,6.567732,52.613715
Zwarte Dijk,36,,,7775PC,Lutten,Hardenberg,Overijssel,VBO,6.567760,52.613635
Zwarte Dijk,38,a,,7775PC,Lutten,Hardenberg,Overijssel,VBO,6.568569,52.613731
Zwarte Dijk,38,,,7775PC,Lutten,Hardenberg,Overijssel,VBO,6.569080,52.613608
Zwarte Dijk,40,,,7775PC,Lutten,Hardenberg,Overijssel,VBO,6.570872,52.613811
Zwarte Dijk,42,,,7775PC,Lutten,Hardenberg,Overijssel,VBO,6.571214,52.614039
Zwarte Dijk,44,,,7775PC,Lutten,Hardenberg,Overijssel,VBO,6.569530,52.616253
Kiezelweg,1,,,7775PD,Lutten,Hardenberg,Overijssel,VBO,6.573377,52.614975
Kiezelweg,3,,,7775PD,Lutten,Hardenberg,Overijssel,VBO,6.574855,52.615381
Kiezelweg,5,I,,7775PD,Lutten,Hardenberg,Overijssel,VBO,6.577358,52.616150
Kiezelweg,5,,,7775PD,Lutten,Hardenberg,Overijssel,VBO,6.577229,52.616170
Kiezelweg,7,,,7775PD,Lutten,Hardenberg,Overijssel,VBO,6.580825,52.615730
Kiezelweg,9,,,7775PD,Lutten,Hardenberg,Overijssel,VBO,6.584791,52.616001
Kiezelweg,11,a,,7775PD,Lutten,Hardenberg,Overijssel,VBO,6.586773,52.615802
Kiezelweg,11,,,7775PD,Lutten,Hardenberg,Overijssel,VBO,6.586635,52.615789
Kiezelweg,13,,,7775PD,Lutten,Hardenberg,Overijssel,VBO,6.587673,52.616116
Kiezelweg,15,i,,7775PD,Lutten,Hardenberg,Overijssel,VBO,6.589486,52.616466
Kiezelweg,15,,,7775PD,Lutten,Hardenberg,Overijssel,VBO,6.589677,52.616480
Kiezelweg,17,a,,7775PD,Lutten,Hardenberg,Overijssel,VBO,6.591703,52.616972
Kiezelweg,17,i,,7775PD,Lutten,Hardenberg,Overijssel,VBO,6.592522,52.617359
Kiezelweg,17,,,7775PD,Lutten,Hardenberg,Overijssel,VBO,6.592499,52.617441
Kiezelweg,19,,,7775PD,Lutten,Hardenberg,Overijssel,VBO,6.592991,52.617932
Kiezelweg,21,,,7775PD,Lutten,Hardenberg,Overijssel,VBO,6.594470,52.618420
Kiezelweg,23,a,,7775PD,Lutten,Hardenberg,Overijssel,VBO,6.595641,52.618786
Kiezelweg,23,,,7775PD,Lutten,Hardenberg,Overijssel,VBO,6.595217,52.618609
Kiezelweg,25,,,7775PD,Lutten,Hardenberg,Overijssel,VBO,6.595741,52.618737
Kiezelweg,27,,,7775PD,Lutten,Hardenberg,Overijssel,VBO,6.596756,52.618933
Kiezelweg,29,,,7775PD,Lutten,Hardenberg,Overijssel,VBO,6.597830,52.619152
Kiezelweg,31,,,7775PD,Lutten,Hardenberg,Overijssel,VBO,6.598232,52.619153
Kiezelweg,33,,,7775PD,Lutten,Hardenberg,Overijssel,VBO,6.598768,52.619221
Kiezelweg,2,a,,7775PE,Lutten,Hardenberg,Overijssel,VBO,6.572632,52.615212
Kiezelweg,2,,,7775PE,Lutten,Hardenberg,Overijssel,VBO,6.574772,52.616736
Kiezelweg,4,a,,7775PE,Lutten,Hardenberg,Overijssel,VBO,6.577455,52.616590
Kiezelweg,4,,,7775PE,Lutten,Hardenberg,Overijssel,VBO,6.576522,52.616276
Kiezelweg,6,,,7775PE,Lutten,Hardenberg,Overijssel,VBO,6.583383,52.616295
Kiezelweg,8,a,,7775PE,Lutten,Hardenberg,Overijssel,VBO,6.584726,52.616448
Kiezelweg,8,,,7775PE,Lutten,Hardenberg,Overijssel,VBO,6.584734,52.616370
Kiezelweg,10,,,7775PE,Lutten,Hardenberg,Overijssel,VBO,6.590872,52.617012
Semmelinksdijk,1,a,I,7775PG,Lutten,Hardenberg,Overijssel,VBO,6.583188,52.616938
Semmelinksdijk,1,a,,7775PG,Lutten,Hardenberg,Overijssel,VBO,6.583150,52.616884
Semmelinksdijk,1,,,7775PG,Lutten,Hardenberg,Overijssel,VBO,6.583071,52.617299
Semmelinksdijk,3,,,7775PG,Lutten,Hardenberg,Overijssel,VBO,6.582354,52.619043
Semmelinksdijk,5,x,,7775PG,Lutten,Hardenberg,Overijssel,VBO,6.582001,52.619837
Semmelinksdijk,5,,,7775PG,Lutten,Hardenberg,Overijssel,VBO,6.582011,52.619799
Semmelinksdijk,7,,,7775PG,Lutten,Hardenberg,Overijssel,VBO,6.581576,52.621144
Semmelinksdijk,9,,,7775PG,Lutten,Hardenberg,Overijssel,VBO,6.581514,52.621467
Semmelinksdijk,11,,,7775PG,Lutten,Hardenberg,Overijssel,VBO,6.581286,52.621798
Semmelinksdijk,13,,,7775PG,Lutten,Hardenberg,Overijssel,VBO,6.581163,52.622150
Semmelinksdijk,15,,,7775PG,Lutten,Hardenberg,Overijssel,VBO,6.581039,52.622495
Semmelinksdijk,17,,,7775PG,Lutten,Hardenberg,Overijssel,VBO,6.580907,52.622881
Semmelinksdijk,19,,,7775PG,Lutten,Hardenberg,Overijssel,VBO,6.580764,52.623267
Semmelinksdijk,21,a,,7775PG,Lutten,Hardenberg,Overijssel,VBO,6.581073,52.624014
Semmelinksdijk,21,,,7775PG,Lutten,Hardenberg,Overijssel,VBO,6.580681,52.623648
Semmelinksdijk,23,,,7775PG,Lutten,Hardenberg,Overijssel,VBO,6.580527,52.624161
Semmelinksdijk,25,,,7775PG,Lutten,Hardenberg,Overijssel,VBO,6.580346,52.624452
Semmelinksdijk,27,,,7775PG,Lutten,Hardenberg,Overijssel,VBO,6.580220,52.624802
Semmelinksdijk,29,,,7775PG,Lutten,Hardenberg,Overijssel,VBO,6.580074,52.625153
Semmelinksdijk,31,,,7775PG,Lutten,Hardenberg,Overijssel,VBO,6.579941,52.625499
Semmelinksdijk,4,,,7775PH,Lutten,Hardenberg,Overijssel,VBO,6.579333,52.620825
Keienweg,1,a,,7775PJ,Lutten,Hardenberg,Overijssel,VBO,6.585208,52.619005
Keienweg,1,,,7775PJ,Lutten,Hardenberg,Overijssel,VBO,6.585147,52.619072
Keienweg,3,,,7775PJ,Lutten,Hardenberg,Overijssel,VBO,6.584873,52.619853
Keienweg,5,,,7775PJ,Lutten,Hardenberg,Overijssel,VBO,6.584660,52.620480
Keienweg,7,,,7775PJ,Lutten,Hardenberg,Overijssel,VBO,6.584447,52.621086
Keienweg,9,,,7775PJ,Lutten,Hardenberg,Overijssel,VBO,6.584191,52.621834
Keienweg,11,,,7775PJ,Lutten,Hardenberg,Overijssel,VBO,6.583915,52.622544
Keienweg,13,,,7775PJ,Lutten,Hardenberg,Overijssel,VBO,6.583665,52.623249
Keienweg,15,,,7775PJ,Lutten,Hardenberg,Overijssel,VBO,6.583407,52.623979
Keienweg,17,,,7775PJ,Lutten,Hardenberg,Overijssel,VBO,6.583160,52.624702
Keienweg,19,,,7775PJ,Lutten,Hardenberg,Overijssel,VBO,6.582845,52.625506
Keienweg,21,,,7775PJ,Lutten,Hardenberg,Overijssel,VBO,6.582627,52.626061
Keienweg,23,x,,7775PJ,Lutten,Hardenberg,Overijssel,VBO,6.582529,52.626351
Keienweg,23,,,7775PJ,Lutten,Hardenberg,Overijssel,VBO,6.582425,52.626562
Knappersveldweg,5,a,,7775PK,Lutten,Hardenberg,Overijssel,VBO,6.575207,52.624436
Knappersveldweg,5,,,7775PK,Lutten,Hardenberg,Overijssel,VBO,6.575042,52.624385
Knappersveldweg,7,,,7775PK,Lutten,Hardenberg,Overijssel,VBO,6.579806,52.625888
Knappersveldweg,9,,,7775PK,Lutten,Hardenberg,Overijssel,VBO,6.603263,52.632985
Knappersveldweg,11,a,,7775PK,Lutten,Hardenberg,Overijssel,VBO,6.614002,52.635432
Knappersveldweg,11,I,,7775PK,Lutten,Hardenberg,Overijssel,VBO,6.614376,52.635382
Knappersveldweg,11,,,7775PK,Lutten,Hardenberg,Overijssel,VBO,6.614359,52.635455
Knappersveldweg,13,,,7775PK,Lutten,Hardenberg,Overijssel,VBO,6.619228,52.637210
Knappersveldweg,15,,,7775PK,Lutten,Hardenberg,Overijssel,VBO,6.617761,52.638848
Knappersveldweg,4,a,,7775PL,Lutten,Hardenberg,Overijssel,VBO,6.573944,52.624498
Knappersveldweg,4,,,7775PL,Lutten,Hardenberg,Overijssel,VBO,6.573846,52.624571
Knappersveldweg,6,,,7775PL,Lutten,Hardenberg,Overijssel,VBO,6.576517,52.625205
Knappersveldweg,8,,,7775PL,Lutten,Hardenberg,Overijssel,VBO,6.579715,52.626183
Knappersveldweg,10,,,7775PL,Lutten,Hardenberg,Overijssel,VBO,6.580524,52.626451
Knappersveldweg,12,,,7775PL,Lutten,Hardenberg,Overijssel,VBO,6.581903,52.626879
Knappersveldweg,14,,,7775PL,Lutten,Hardenberg,Overijssel,VBO,6.584758,52.627966
Knappersveldweg,16,,,7775PL,Lutten,Hardenberg,Overijssel,VBO,6.584214,52.629707
De Lutteresweg,1,,,7775PM,Lutten,Hardenberg,Overijssel,VBO,6.602981,52.620009
De Lutteresweg,3,b,,7775PM,Lutten,Hardenberg,Overijssel,VBO,6.605098,52.620966
De Lutteresweg,3,c,,7775PM,Lutten,Hardenberg,Overijssel,VBO,6.604210,52.620718
De Lutteresweg,3,,,7775PM,Lutten,Hardenberg,Overijssel,VBO,6.604566,52.620833
De Lutteresweg,5,a,,7775PM,Lutten,Hardenberg,Overijssel,VBO,6.606156,52.622554
De Lutteresweg,5,b,,7775PM,Lutten,Hardenberg,Overijssel,VBO,6.606675,52.623198
De Lutteresweg,5,,,7775PM,Lutten,Hardenberg,Overijssel,VBO,6.605883,52.622001
De Lutteresweg,7,,,7775PM,Lutten,Hardenberg,Overijssel,VBO,6.607267,52.623613
De Lutteresweg,7,,,7775PM,Lutten,Hardenberg,Overijssel,VBO,6.607259,52.623741
De Lutteresweg,9,a,,7775PM,Lutten,Hardenberg,Overijssel,VBO,6.608471,52.624907
De Lutteresweg,9,b,,7775PM,Lutten,Hardenberg,Overijssel,VBO,6.608534,52.624997
De Lutteresweg,9,,,7775PM,Lutten,Hardenberg,Overijssel,VBO,6.607930,52.624396
De Lutteresweg,11,,,7775PM,Lutten,Hardenberg,Overijssel,VBO,6.609535,52.626407
De Lutteresweg,13,,,7775PM,Lutten,Hardenberg,Overijssel,VBO,6.610657,52.626620
De Lutteresweg,15,a,,7775PM,Lutten,Hardenberg,Overijssel,VBO,6.610286,52.627756
De Lutteresweg,15,,,7775PM,Lutten,Hardenberg,Overijssel,VBO,6.610302,52.627341
De Lutteresweg,17,,,7775PM,Lutten,Hardenberg,Overijssel,VBO,6.610541,52.628305
De Lutteresweg,19,a,,7775PM,Lutten,Hardenberg,Overijssel,VBO,6.611056,52.628800
De Lutteresweg,19,,,7775PM,Lutten,Hardenberg,Overijssel,VBO,6.612086,52.628796
De Lutteresweg,21,a,,7775PN,Lutten,Hardenberg,Overijssel,VBO,6.611447,52.629751
De Lutteresweg,21,,,7775PN,Lutten,Hardenberg,Overijssel,VBO,6.611379,52.629783
De Lutteresweg,23,a,,7775PN,Lutten,Hardenberg,Overijssel,VBO,6.614234,52.631187
De Lutteresweg,23,,,7775PN,Lutten,Hardenberg,Overijssel,VBO,6.614370,52.631003
De Lutteresweg,25,,,7775PN,Lutten,Hardenberg,Overijssel,VBO,6.620950,52.633250
De Lutteresweg,27,,,7775PN,Lutten,Hardenberg,Overijssel,VBO,6.624290,52.634455
De Lutteresweg,29,,,7775PN,Lutten,Hardenberg,Overijssel,VBO,6.624931,52.635152
De Lutteresweg,2,a,,7775PP,Lutten,Hardenberg,Overijssel,VBO,6.603262,52.620740
De Lutteresweg,2,,,7775PP,Lutten,Hardenberg,Overijssel,VBO,6.600513,52.619691
De Lutteresweg,4,a,,7775PP,Lutten,Hardenberg,Overijssel,VBO,6.611246,52.630192
De Lutteresweg,4,,,7775PP,Lutten,Hardenberg,Overijssel,VBO,6.603579,52.621054
De Lutteresweg,6,,,7775PP,Lutten,Hardenberg,Overijssel,VBO,6.611933,52.630450
De Lutteresweg,8,I,,7775PP,Lutten,Hardenberg,Overijssel,VBO,6.612543,52.630893
De Lutteresweg,8,,,7775PP,Lutten,Hardenberg,Overijssel,VBO,6.612619,52.630843
De Lutteresweg,10,,,7775PP,Lutten,Hardenberg,Overijssel,VBO,6.614324,52.631836
De Lutteresweg,12,,,7775PP,Lutten,Hardenberg,Overijssel,VBO,6.615186,52.632105
De Lutteresweg,14,,,7775PP,Lutten,Hardenberg,Overijssel,VBO,6.617652,52.632983
De Lutteresweg,18,,,7775PP,Lutten,Hardenberg,Overijssel,VBO,6.619270,52.633441
De Lutteresweg,20,,,7775PP,Lutten,Hardenberg,Overijssel,VBO,6.621546,52.634094
De Lutteresweg,22,,,7775PP,Lutten,Hardenberg,Overijssel,VBO,6.622351,52.634339
De Lutteresweg,24,,,7775PP,Lutten,Hardenberg,Overijssel,VBO,6.623848,52.635313
De Lutteresweg,26,,,7775PP,Lutten,Hardenberg,Overijssel,VBO,6.624681,52.636027
Molenweg,1,,,7775PR,Lutten,Hardenberg,Overijssel,VBO,6.615549,52.637785
Molenweg,2,,,7775PR,Lutten,Hardenberg,Overijssel,VBO,6.615236,52.636782
De Korte Slagenweg,1,,,7775PS,Lutten,Hardenberg,Overijssel,VBO,6.623999,52.630225
De Korte Slagenweg,3,a,,7775PS,Lutten,Hardenberg,Overijssel,VBO,6.626129,52.627074
De Korte Slagenweg,3,,,7775PS,Lutten,Hardenberg,Overijssel,VBO,6.625999,52.627160
De Kuilenweg,1,,,7775PT,Lutten,Hardenberg,Overijssel,VBO,6.611945,52.622845
Hartweg,2,,,7775PV,Lutten,Hardenberg,Overijssel,VBO,6.610032,52.631606
Hartweg,4,,,7775PV,Lutten,Hardenberg,Overijssel,VBO,6.609590,52.631447
Hartweg,4,,,7775PV,Lutten,Hardenberg,Overijssel,VBO,6.609087,52.631642
De Haarweg,1,,,7775PW,Lutten,Hardenberg,Overijssel,VBO,6.602382,52.613642
De Haarweg,3,,,7775PW,Lutten,Hardenberg,Overijssel,VBO,6.602885,52.613788
De Haarweg,7,,,7775PW,Lutten,Hardenberg,Overijssel,VBO,6.614016,52.621294
De Haarweg,9,,,7775PW,Lutten,Hardenberg,Overijssel,VBO,6.616571,52.625757
De Haarweg,13,,,7775PW,Lutten,Hardenberg,Overijssel,VBO,6.618629,52.626801
De Haarweg,15,,,7775PW,Lutten,Hardenberg,Overijssel,VBO,6.621422,52.627999
De Haarweg,17,,,7775PW,Lutten,Hardenberg,Overijssel,VBO,6.621964,52.628467
De Haarweg,19,,,7775PW,Lutten,Hardenberg,Overijssel,VBO,6.623911,52.629532
De Haarweg,21,a,,7775PW,Lutten,Hardenberg,Overijssel,VBO,6.627363,52.631281
De Haarweg,21,i,,7775PW,Lutten,Hardenberg,Overijssel,VBO,6.625071,52.630109
De Haarweg,21,,,7775PW,Lutten,Hardenberg,Overijssel,VBO,6.625185,52.630169
De Haarweg,2,a,,7775PX,Lutten,Hardenberg,Overijssel,VBO,6.602736,52.614567
De Haarweg,2,,,7775PX,Lutten,Hardenberg,Overijssel,VBO,6.604432,52.614732
De Haarweg,4,,,7775PX,Lutten,Hardenberg,Overijssel,VBO,6.605502,52.615123
De Haarweg,6,,,7775PX,Lutten,Hardenberg,Overijssel,VBO,6.605907,52.615534
De Haarweg,8,I,,7775PX,Lutten,Hardenberg,Overijssel,VBO,6.607115,52.617258
De Haarweg,8,,,7775PX,Lutten,Hardenberg,Overijssel,VBO,6.607032,52.617185
De Haarweg,10,,,7775PX,Lutten,Hardenberg,Overijssel,VBO,6.610803,52.619655
De Haarweg,12,,,7775PX,Lutten,Hardenberg,Overijssel,VBO,6.611372,52.619865
De Haarweg,14,,,7775PX,Lutten,Hardenberg,Overijssel,VBO,6.611553,52.620332
De Haarweg,16,,,7775PX,Lutten,Hardenberg,Overijssel,VBO,6.612063,52.620569
De Haarweg,18,a,,7775PX,Lutten,Hardenberg,Overijssel,VBO,6.612945,52.621248
De Haarweg,18,b,,7775PX,Lutten,Hardenberg,Overijssel,VBO,6.614034,52.622229
De Haarweg,18,,,7775PX,Lutten,Hardenberg,Overijssel,VBO,6.612883,52.621207
De Haarweg,20,,,7775PX,Lutten,Hardenberg,Overijssel,VBO,6.614646,52.623162
De Haarweg,22,a,,7775PX,Lutten,Hardenberg,Overijssel,VBO,6.616595,52.626254
De Haarweg,22,,,7775PX,Lutten,Hardenberg,Overijssel,VBO,6.615077,52.623668
De Haarweg,24,,,7775PX,Lutten,Hardenberg,Overijssel,VBO,6.617055,52.626527
De Haarweg,26,I,,7775PX,Lutten,Hardenberg,Overijssel,VBO,6.625598,52.631236
De Haarweg,26,,,7775PX,Lutten,Hardenberg,Overijssel,VBO,6.625651,52.631198
De Haarweg,28,i,,7775PX,Lutten,Hardenberg,Overijssel,VBO,6.626643,52.631692
De Haarweg,28,,,7775PX,Lutten,Hardenberg,Overijssel,VBO,6.626696,52.631662
De Haarweg,30,,,7775PX,Lutten,Hardenberg,Overijssel,VBO,6.629060,52.632814
De Nieuwedijk,2,,,7775PZ,Lutten,Hardenberg,Overijssel,VBO,6.602849,52.617643
De Kerkdijk,11,a,,7775RA,Lutten,Hardenberg,Overijssel,VBO,6.601497,52.610503
De Kerkdijk,13,,,7775RA,Lutten,Hardenberg,Overijssel,VBO,6.600747,52.616532
De Kerkdijk,15,,,7775RA,Lutten,Hardenberg,Overijssel,VBO,6.600179,52.619349
De Kerkdijk,18,,,7775RA,Lutten,Hardenberg,Overijssel,VBO,6.600657,52.613531
De Kerkdijk,20,,,7775RA,Lutten,Hardenberg,Overijssel,VBO,6.597160,52.615751
De Kerkdijk,22,,,7775RA,Lutten,Hardenberg,Overijssel,VBO,6.596704,52.616438
De Kerkdijk,24,,,7775RA,Lutten,Hardenberg,Overijssel,VBO,6.598713,52.616507
De Kerkdijk,26,,,7775RA,Lutten,Hardenberg,Overijssel,VBO,6.600164,52.616270
De Kerkdijk,28,,,7775RA,Lutten,Hardenberg,Overijssel,VBO,6.599888,52.616714
De Kerkdijk,30,,,7775RA,Lutten,Hardenberg,Overijssel,VBO,6.599605,52.619325
