openbareruimtenaam,huisnummer,huisletter,huisnummertoevoeging,postcode,woonplaatsnaam,gemeentenaam,provincienaam,typeadresseerbaarobject,longitude,latitude
Kooiweg,1,,,7778HA,Loozen,Hardenberg,Overijssel,VBO,6.685511,52.590253
Grensweg,2,,,7778HB,Loozen,Hardenberg,Overijssel,VBO,6.681502,52.578450
Grensweg,4,,,7778HB,Loozen,Hardenberg,Overijssel,VBO,6.682072,52.578483
Grensweg,6,,,7778HB,Loozen,Hardenberg,Overijssel,VBO,6.683082,52.580547
Grensweg,8,,,7778HB,Loozen,Hardenberg,Overijssel,VBO,6.683337,52.580828
Bouwhuisweg,1,,,7778HC,Loozen,Hardenberg,Overijssel,VBO,6.677198,52.584656
Bouwhuisweg,2,,,7778HC,Loozen,Hardenberg,Overijssel,VBO,6.678931,52.585725
Bouwhuisweg,3,,,7778HC,Loozen,Hardenberg,Overijssel,VBO,6.674785,52.581098
Bouwhuisweg,4,,,7778HC,Loozen,Hardenberg,Overijssel,VBO,6.677675,52.583242
Bouwhuisweg,5,,,7778HC,Loozen,Hardenberg,Overijssel,VBO,6.673544,52.580197
Bouwhuisweg,6,,,7778HC,Loozen,Hardenberg,Overijssel,VBO,6.677341,52.582646
Bouwhuisweg,8,,,7778HC,Loozen,Hardenberg,Overijssel,VBO,6.676550,52.579291
Löhnisweg,1,,,7778HD,Loozen,Hardenberg,Overijssel,VBO,6.679985,52.592715
Löhnisweg,2,,,7778HD,Loozen,Hardenberg,Overijssel,VBO,6.681327,52.591415
Löhnisweg,3,,,7778HD,Loozen,Hardenberg,Overijssel,VBO,6.678103,52.587391
Löhnisweg,4,a,,7778HD,Loozen,Hardenberg,Overijssel,VBO,6.684814,52.589988
Löhnisweg,4,,,7778HD,Loozen,Hardenberg,Overijssel,VBO,6.680189,52.590050
Loozenweg,1,,,7778HE,Loozen,Hardenberg,Overijssel,VBO,6.673058,52.587041
Loozenweg,2,,,7778HE,Loozen,Hardenberg,Overijssel,VBO,6.672479,52.583741
Loozenweg,3,,,7778HE,Loozen,Hardenberg,Overijssel,VBO,6.670768,52.584603
Westeindigerdijk,1,,,7778HG,Loozen,Hardenberg,Overijssel,VBO,6.674883,52.578565
Westeindigerdijk,2,,,7778HG,Loozen,Hardenberg,Overijssel,VBO,6.671618,52.580172
Westeindigerdijk,3,,,7778HG,Loozen,Hardenberg,Overijssel,VBO,6.680863,52.577219
Westeindigerdijk,4,b,,7778HG,Loozen,Hardenberg,Overijssel,VBO,6.672292,52.580467
Westeindigerdijk,4,,,7778HG,Loozen,Hardenberg,Overijssel,VBO,6.671799,52.580064
Westeindigerdijk,6,a,,7778HG,Loozen,Hardenberg,Overijssel,VBO,6.676756,52.578867
Westeindigerdijk,6,,,7778HG,Loozen,Hardenberg,Overijssel,VBO,6.676560,52.578847
Zwijzeweg,1,,,7778HH,Loozen,Hardenberg,Overijssel,VBO,6.659973,52.583161
Zwijzeweg,2,,,7778HH,Loozen,Hardenberg,Overijssel,VBO,6.669137,52.587970
Zwijzeweg,4,,,7778HH,Loozen,Hardenberg,Overijssel,VBO,6.664271,52.583199
Zwijzeweg,6,,,7778HH,Loozen,Hardenberg,Overijssel,VBO,6.663994,52.582778
Roskampweg,1,,,7778HJ,Loozen,Hardenberg,Overijssel,VBO,6.665902,52.588729
Roskampweg,2,,R1,7778HJ,Loozen,Hardenberg,Overijssel,VBO,6.671102,52.589511
Roskampweg,2,,,7778HJ,Loozen,Hardenberg,Overijssel,VBO,6.671107,52.589017
Roskampweg,3,,,7778HJ,Loozen,Hardenberg,Overijssel,VBO,6.682467,52.583438
Roskampweg,4,,,7778HJ,Loozen,Hardenberg,Overijssel,VBO,6.675936,52.588219
Roskampweg,5,,,7778HJ,Loozen,Hardenberg,Overijssel,VBO,6.682321,52.583268
Roskampweg,7,,,7778HJ,Loozen,Hardenberg,Overijssel,VBO,6.682061,52.583230
Burgerkamp,1,a,,7778HK,Loozen,Hardenberg,Overijssel,VBO,6.674808,52.595459
Burgerkamp,1,b,,7778HK,Loozen,Hardenberg,Overijssel,VBO,6.674876,52.595197
Burgerkamp,1,,,7778HK,Loozen,Hardenberg,Overijssel,VBO,6.674859,52.595386
Burgerkamp,2,,,7778HK,Loozen,Hardenberg,Overijssel,VBO,6.675877,52.596295
Burgerkamp,3,,,7778HK,Loozen,Hardenberg,Overijssel,VBO,6.672928,52.592099
Burgerkamp,4,,,7778HK,Loozen,Hardenberg,Overijssel,VBO,6.675533,52.595838
Burgerkamp,5,,,7778HK,Loozen,Hardenberg,Overijssel,VBO,6.672944,52.591450
Burgerkamp,6,,,7778HK,Loozen,Hardenberg,Overijssel,VBO,6.675363,52.594400
Burgerkamp,7,,,7778HK,Loozen,Hardenberg,Overijssel,VBO,6.671937,52.591534
Burgerkamp,8,,,7778HK,Loozen,Hardenberg,Overijssel,VBO,6.674361,52.592584
Schooldijk,1,,,7778HL,Loozen,Hardenberg,Overijssel,VBO,6.682335,52.593159
Schooldijk,2,,,7778HL,Loozen,Hardenberg,Overijssel,VBO,6.682868,52.592776
Schooldijk,4,,,7778HL,Loozen,Hardenberg,Overijssel,VBO,6.682752,52.592785
Schooldijk,6,,,7778HL,Loozen,Hardenberg,Overijssel,VBO,6.670989,52.593594
Schooldijk,8,,,7778HL,Loozen,Hardenberg,Overijssel,VBO,6.670827,52.593590
Kanaaldijk-West,3,,,7778HM,Loozen,Hardenberg,Overijssel,VBO,6.673041,52.600705
Kanaaldijk-West,5,,,7778HM,Loozen,Hardenberg,Overijssel,VBO,6.672194,52.598365
Kanaaldijk-West,6,,,7778HM,Loozen,Hardenberg,Overijssel,VBO,6.671597,52.597239
Kanaaldijk-West,7,,,7778HM,Loozen,Hardenberg,Overijssel,VBO,6.671525,52.596933
Kanaaldijk-West,8,,,7778HM,Loozen,Hardenberg,Overijssel,VBO,6.661189,52.586033
Meester-Brasweg,1,,,7778HN,Loozen,Hardenberg,Overijssel,VBO,6.664082,52.589195
Hardenbergerweg,14,,,7778HP,Loozen,Hardenberg,Overijssel,VBO,6.668298,52.596265
Hardenbergerweg,15,,,7778HP,Loozen,Hardenberg,Overijssel,VBO,6.664925,52.596091
Hardenbergerweg,16,,,7778HP,Loozen,Hardenberg,Overijssel,VBO,6.667972,52.596125
Hardenbergerweg,17,,,7778HP,Loozen,Hardenberg,Overijssel,VBO,6.664958,52.595996
Hardenbergerweg,18,,,7778HP,Loozen,Hardenberg,Overijssel,VBO,6.665457,52.594000
Hardenbergerweg,19,,,7778HP,Loozen,Hardenberg,Overijssel,VBO,6.664567,52.595782
Hardenbergerweg,20,,,7778HP,Loozen,Hardenberg,Overijssel,VBO,6.664749,52.592449
Hardenbergerweg,21,a,,7778HP,Loozen,Hardenberg,Overijssel,VBO,6.663553,52.593801
Hardenbergerweg,21,,,7778HP,Loozen,Hardenberg,Overijssel,VBO,6.663557,52.593650
Hardenbergerweg,22,,,7778HP,Loozen,Hardenberg,Overijssel,VBO,6.662059,52.590822
Hardenbergerweg,23,,,7778HP,Loozen,Hardenberg,Overijssel,VBO,6.656403,52.589311
Hardenbergerweg,24,a,,7778HP,Loozen,Hardenberg,Overijssel,VBO,6.657387,52.588033
Hardenbergerweg,24,,,7778HP,Loozen,Hardenberg,Overijssel,VBO,6.656936,52.587836
Hardenbergerweg,25,,,7778HP,Loozen,Hardenberg,Overijssel,VBO,6.656844,52.588719
Hardenbergerweg,26,,,7778HP,Loozen,Hardenberg,Overijssel,VBO,6.656866,52.588016
Hardenbergerweg,28,,,7778HP,Loozen,Hardenberg,Overijssel,VBO,6.656641,52.587797
Hardenbergerweg,30,,,7778HP,Loozen,Hardenberg,Overijssel,VBO,6.656600,52.587704
Noord Oosterweg,1,a,,7778HR,Loozen,Hardenberg,Overijssel,VBO,6.690504,52.590750
Noord Oosterweg,1,,,7778HR,Loozen,Hardenberg,Overijssel,VBO,6.690262,52.590882
Noord Oosterweg,3,,,7778HR,Loozen,Hardenberg,Overijssel,VBO,6.691717,52.589402
