openbareruimtenaam,huisnummer,huisletter,huisnummertoevoeging,postcode,woonplaatsnaam,gemeentenaam,provincienaam,typeadresseerbaarobject,longitude,latitude
Eugenboersdijk,5,,,7798CA,Collendoorn,Hardenberg,Overijssel,VBO,6.622404,52.584704
Eugenboersdijk,7,,,7798CA,Collendoorn,Hardenberg,Overijssel,VBO,6.619651,52.586701
Eugenboersdijk,8,a,,7798CA,Collendoorn,Hardenberg,Overijssel,VBO,6.613791,52.590098
Eugenboersdijk,8,,,7798CA,Collendoorn,Hardenberg,Overijssel,VBO,6.613660,52.590043
Eugenboersdijk,9,,,7798CA,Collendoorn,Hardenberg,Overijssel,VBO,6.614800,52.590692
Hofsteeweg,1,,,7798CB,Collendoorn,Hardenberg,Overijssel,VBO,6.622742,52.585644
Hofsteeweg,2,a,,7798CB,Collendoorn,Hardenberg,Overijssel,VBO,6.622058,52.586365
Hofsteeweg,2,,,7798CB,Collendoorn,Hardenberg,Overijssel,VBO,6.621995,52.585968
Hofsteeweg,4,,,7798CB,Collendoorn,Hardenberg,Overijssel,VBO,6.622603,52.586337
Havezateweg,1,,,7798CC,Collendoorn,Hardenberg,Overijssel,VBO,6.606912,52.592874
Havezateweg,2,a,,7798CC,Collendoorn,Hardenberg,Overijssel,VBO,6.605694,52.593440
Havezateweg,2,,,7798CC,Collendoorn,Hardenberg,Overijssel,VBO,6.605571,52.593407
Havezateweg,3,,,7798CC,Collendoorn,Hardenberg,Overijssel,VBO,6.606128,52.591812
Havezateweg,4,I,,7798CC,Collendoorn,Hardenberg,Overijssel,VBO,6.609169,52.592536
Havezateweg,4,a,,7798CC,Collendoorn,Hardenberg,Overijssel,VBO,6.608095,52.592862
Havezateweg,4,,,7798CC,Collendoorn,Hardenberg,Overijssel,VBO,6.609126,52.592464
Havezateweg,5,I,,7798CC,Collendoorn,Hardenberg,Overijssel,VBO,6.610989,52.590023
Havezateweg,5,a,,7798CC,Collendoorn,Hardenberg,Overijssel,VBO,6.611540,52.590135
Havezateweg,5,,,7798CC,Collendoorn,Hardenberg,Overijssel,VBO,6.611126,52.590024
Havezateweg,7,,,7798CC,Collendoorn,Hardenberg,Overijssel,VBO,6.611307,52.591938
Havezateweg,9,i,,7798CC,Collendoorn,Hardenberg,Overijssel,VBO,6.616425,52.593652
Havezateweg,9,,,7798CC,Collendoorn,Hardenberg,Overijssel,VBO,6.616343,52.593666
Havezateweg,10,,,7798CC,Collendoorn,Hardenberg,Overijssel,VBO,6.614718,52.593312
Havezateweg,11,,,7798CC,Collendoorn,Hardenberg,Overijssel,VBO,6.617859,52.595020
Havezateweg,12,a,,7798CC,Collendoorn,Hardenberg,Overijssel,VBO,6.614780,52.595970
Havezateweg,12,i,,7798CC,Collendoorn,Hardenberg,Overijssel,VBO,6.615042,52.596637
Havezateweg,12,,,7798CC,Collendoorn,Hardenberg,Overijssel,VBO,6.615138,52.596660
Matenweg,2,,,7798CD,Collendoorn,Hardenberg,Overijssel,VBO,6.612259,52.600667
Palenbeltweg,1,a,,7798CE,Collendoorn,Hardenberg,Overijssel,VBO,6.610976,52.603535
Palenbeltweg,1,,,7798CE,Collendoorn,Hardenberg,Overijssel,VBO,6.611129,52.603524
De Kerkdijk,1,,,7798CG,Collendoorn,Hardenberg,Overijssel,VBO,6.603315,52.593974
De Kerkdijk,2,,,7798CG,Collendoorn,Hardenberg,Overijssel,VBO,6.601928,52.597723
De Kerkdijk,3,,,7798CG,Collendoorn,Hardenberg,Overijssel,VBO,6.604488,52.595237
De Kerkdijk,4,,,7798CG,Collendoorn,Hardenberg,Overijssel,VBO,6.601236,52.598739
De Kerkdijk,5,i,,7798CG,Collendoorn,Hardenberg,Overijssel,VBO,6.601124,52.599810
De Kerkdijk,5,,,7798CG,Collendoorn,Hardenberg,Overijssel,VBO,6.601100,52.599858
De Kerkdijk,6,,,7798CG,Collendoorn,Hardenberg,Overijssel,VBO,6.602109,52.605202
De Kerkdijk,7,,,7798CG,Collendoorn,Hardenberg,Overijssel,VBO,6.605507,52.604306
De Kerkdijk,8,,,7798CG,Collendoorn,Hardenberg,Overijssel,VBO,6.601755,52.607258
De Kerkdijk,9,,,7798CG,Collendoorn,Hardenberg,Overijssel,VBO,6.604231,52.606394
De Kerkdijk,10,,,7798CG,Collendoorn,Hardenberg,Overijssel,VBO,6.600897,52.607402
De Kerkdijk,11,,,7798CG,Collendoorn,Hardenberg,Overijssel,VBO,6.602211,52.608025
De Kerkdijk,12,,,7798CG,Collendoorn,Hardenberg,Overijssel,VBO,6.601467,52.608002
De Kerkdijk,14,,,7798CG,Collendoorn,Hardenberg,Overijssel,VBO,6.601414,52.608663
De Kerkdijk,16,,,7798CG,Collendoorn,Hardenberg,Overijssel,VBO,6.599753,52.608928
Doozemansteeg,1,a,,7798CH,Collendoorn,Hardenberg,Overijssel,VBO,6.598579,52.591967
Doozemansteeg,1,,,7798CH,Collendoorn,Hardenberg,Overijssel,VBO,6.598789,52.591770
Doozemansteeg,2,I,,7798CH,Collendoorn,Hardenberg,Overijssel,VBO,6.599659,52.590832
Doozemansteeg,2,,,7798CH,Collendoorn,Hardenberg,Overijssel,VBO,6.599612,52.590874
Doozemansteeg,3,,,7798CH,Collendoorn,Hardenberg,Overijssel,VBO,6.598582,52.592841
Collendoornerdijk,1,a,,7798CJ,Collendoorn,Hardenberg,Overijssel,VBO,6.595997,52.582246
Collendoornerdijk,1,b,,7798CJ,Collendoorn,Hardenberg,Overijssel,VBO,6.596250,52.582585
Collendoornerdijk,1,c,,7798CJ,Collendoorn,Hardenberg,Overijssel,VBO,6.595871,52.581841
Collendoornerdijk,1,d,,7798CJ,Collendoorn,Hardenberg,Overijssel,VBO,6.596022,52.581325
Collendoornerdijk,1,i,,7798CJ,Collendoorn,Hardenberg,Overijssel,VBO,6.599052,52.586277
Collendoornerdijk,1,,,7798CJ,Collendoorn,Hardenberg,Overijssel,VBO,6.598866,52.586132
Collendoornerdijk,2,,,7798CJ,Collendoorn,Hardenberg,Overijssel,VBO,6.594480,52.581284
Collendoornerdijk,3,a,,7798CJ,Collendoorn,Hardenberg,Overijssel,VBO,6.602594,52.591291
Collendoornerdijk,3,,,7798CJ,Collendoorn,Hardenberg,Overijssel,VBO,6.605936,52.591439
Collendoornerdijk,4,,,7798CJ,Collendoorn,Hardenberg,Overijssel,VBO,6.595357,52.582995
Collendoornerdijk,5,,,7798CJ,Collendoorn,Hardenberg,Overijssel,VBO,6.602958,52.591811
Collendoornerdijk,6,,,7798CJ,Collendoorn,Hardenberg,Overijssel,VBO,6.595985,52.584092
Collendoornerdijk,7,I,,7798CJ,Collendoorn,Hardenberg,Overijssel,VBO,6.603661,52.593366
Collendoornerdijk,7,,,7798CJ,Collendoorn,Hardenberg,Overijssel,VBO,6.603588,52.593342
Collendoornerdijk,8,,,7798CJ,Collendoorn,Hardenberg,Overijssel,VBO,6.597357,52.585539
Collendoornerdijk,10,,,7798CJ,Collendoorn,Hardenberg,Overijssel,VBO,6.599054,52.587551
Collendoornerdijk,12,,,7798CJ,Collendoorn,Hardenberg,Overijssel,VBO,6.599442,52.588022
Collendoornerdijk,14,i,,7798CJ,Collendoorn,Hardenberg,Overijssel,VBO,6.599827,52.588660
Collendoornerdijk,14,,,7798CJ,Collendoorn,Hardenberg,Overijssel,VBO,6.599931,52.588610
Collendoornerdijk,16,,,7798CJ,Collendoorn,Hardenberg,Overijssel,VBO,6.602067,52.591781
Collendoornerdijk,18,,,7798CJ,Collendoorn,Hardenberg,Overijssel,VBO,6.602359,52.592082
Collendoornerdijk,20,,,7798CJ,Collendoorn,Hardenberg,Overijssel,VBO,6.602621,52.592737
Collendoornerdijk,22,,,7798CJ,Collendoorn,Hardenberg,Overijssel,VBO,6.602875,52.593599
Allemansweg,1,a,,7798CK,Collendoorn,Hardenberg,Overijssel,VBO,6.592601,52.588880
Allemansweg,1,i,,7798CK,Collendoorn,Hardenberg,Overijssel,VBO,6.591384,52.588847
Allemansweg,1,,,7798CK,Collendoorn,Hardenberg,Overijssel,VBO,6.591500,52.588811
Jachthuisweg,1,,,7798CM,Collendoorn,Hardenberg,Overijssel,VBO,6.592047,52.581736
Jachthuisweg,3,,,7798CM,Collendoorn,Hardenberg,Overijssel,VBO,6.588406,52.583212
Jachthuisweg,5,,,7798CM,Collendoorn,Hardenberg,Overijssel,VBO,6.588241,52.584386
Jachthuisweg,7,,,7798CM,Collendoorn,Hardenberg,Overijssel,VBO,6.583643,52.585255
Jachthuisweg,9,,,7798CM,Collendoorn,Hardenberg,Overijssel,VBO,6.580276,52.588127
Jachthuisweg,11,a,,7798CM,Collendoorn,Hardenberg,Overijssel,VBO,6.576028,52.591836
Jachthuisweg,11,,,7798CM,Collendoorn,Hardenberg,Overijssel,VBO,6.576034,52.591698
Jachthuisweg,13,a,,7798CM,Collendoorn,Hardenberg,Overijssel,VBO,6.573831,52.593071
Jachthuisweg,13,,,7798CM,Collendoorn,Hardenberg,Overijssel,VBO,6.573285,52.593260
Jachthuisweg,15,,,7798CM,Collendoorn,Hardenberg,Overijssel,VBO,6.569017,52.595922
Jachthuisweg,17,,,7798CM,Collendoorn,Hardenberg,Overijssel,VBO,6.570898,52.598438
Jachthuisweg,19,a,,7798CM,Collendoorn,Hardenberg,Overijssel,VBO,6.566471,52.598138
Jachthuisweg,19,,,7798CM,Collendoorn,Hardenberg,Overijssel,VBO,6.567722,52.597508
Jachthuisweg,21,,,7798CM,Collendoorn,Hardenberg,Overijssel,VBO,6.565209,52.599020
Jachthuisweg,23,,,7798CM,Collendoorn,Hardenberg,Overijssel,VBO,6.563189,52.600817
Jachthuisweg,25,,,7798CM,Collendoorn,Hardenberg,Overijssel,VBO,6.563539,52.601586
Jachthuisweg,27,,,7798CM,Collendoorn,Hardenberg,Overijssel,VBO,6.561869,52.601954
Jachthuisweg,29,,,7798CM,Collendoorn,Hardenberg,Overijssel,VBO,6.559785,52.603628
Luggersweg,2,a,,7798CN,Collendoorn,Hardenberg,Overijssel,VBO,6.585804,52.587540
Luggersweg,2,,,7798CN,Collendoorn,Hardenberg,Overijssel,VBO,6.593161,52.588177
Luggersweg,3,,,7798CN,Collendoorn,Hardenberg,Overijssel,VBO,6.594325,52.588861
Luggersweg,4,a,,7798CN,Collendoorn,Hardenberg,Overijssel,VBO,6.592131,52.592666
Luggersweg,4,,,7798CN,Collendoorn,Hardenberg,Overijssel,VBO,6.591610,52.593388
Luggersweg,5,,,7798CN,Collendoorn,Hardenberg,Overijssel,VBO,6.595094,52.590788
Luggersweg,6,,,7798CN,Collendoorn,Hardenberg,Overijssel,VBO,6.592153,52.598407
Luggersweg,7,,,7798CN,Collendoorn,Hardenberg,Overijssel,VBO,6.593129,52.596581
Luggersweg,8,,,7798CN,Collendoorn,Hardenberg,Overijssel,VBO,6.592124,52.601205
Luggersweg,10,,,7798CN,Collendoorn,Hardenberg,Overijssel,VBO,6.591581,52.601850
Luggersweg,11,,,7798CN,Collendoorn,Hardenberg,Overijssel,VBO,6.595004,52.601312
Middenweg,1,a,,7798CP,Collendoorn,Hardenberg,Overijssel,VBO,6.576377,52.593455
Middenweg,1,,,7798CP,Collendoorn,Hardenberg,Overijssel,VBO,6.577276,52.598805
Middenweg,2,a,,7798CP,Collendoorn,Hardenberg,Overijssel,VBO,6.574223,52.593276
Middenweg,2,,,7798CP,Collendoorn,Hardenberg,Overijssel,VBO,6.575272,52.600110
Middenweg,4,,,7798CP,Collendoorn,Hardenberg,Overijssel,VBO,6.574210,52.602925
Middenweg,6,,,7798CP,Collendoorn,Hardenberg,Overijssel,VBO,6.573037,52.605042
Pieriksweg,1,,,7798CR,Collendoorn,Hardenberg,Overijssel,VBO,6.566733,52.601333
Pieriksweg,2,,,7798CR,Collendoorn,Hardenberg,Overijssel,VBO,6.572707,52.599842
Pieriksweg,3,,,7798CR,Collendoorn,Hardenberg,Overijssel,VBO,6.567298,52.600322
Slagenweg,2,a,,7798CT,Collendoorn,Hardenberg,Overijssel,VBO,6.581398,52.600340
Slagenweg,2,b,,7798CT,Collendoorn,Hardenberg,Overijssel,VBO,6.580825,52.603551
Slagenweg,2,c,,7798CT,Collendoorn,Hardenberg,Overijssel,VBO,6.579773,52.603594
Slagenweg,2,d,,7798CT,Collendoorn,Hardenberg,Overijssel,VBO,6.596268,52.604566
Slagenweg,2,,,7798CT,Collendoorn,Hardenberg,Overijssel,VBO,6.590531,52.602661
Slagenweg,4,,,7798CT,Collendoorn,Hardenberg,Overijssel,VBO,6.575760,52.603175
Van den Beltsweg,1,,,7798CV,Collendoorn,Hardenberg,Overijssel,VBO,6.589167,52.605904
Van den Beltsweg,3,,,7798CV,Collendoorn,Hardenberg,Overijssel,VBO,6.588844,52.608354
Venneweg,1,a,,7798CW,Collendoorn,Hardenberg,Overijssel,VBO,6.600235,52.594449
Venneweg,1,,,7798CW,Collendoorn,Hardenberg,Overijssel,VBO,6.601151,52.594484
Venneweg,2,b,,7798CW,Collendoorn,Hardenberg,Overijssel,VBO,6.590680,52.595665
Venneweg,2,,,7798CW,Collendoorn,Hardenberg,Overijssel,VBO,6.589728,52.595552
Venneweg,3,,,7798CW,Collendoorn,Hardenberg,Overijssel,VBO,6.598635,52.595255
Venneweg,5,,,7798CW,Collendoorn,Hardenberg,Overijssel,VBO,6.591077,52.596017
Venneweg,7,,,7798CW,Collendoorn,Hardenberg,Overijssel,VBO,6.590268,52.596806
Venneweg,9,,,7798CW,Collendoorn,Hardenberg,Overijssel,VBO,6.589213,52.596762
Venneweg,11,I,,7798CW,Collendoorn,Hardenberg,Overijssel,VBO,6.588737,52.596756
Venneweg,11,,,7798CW,Collendoorn,Hardenberg,Overijssel,VBO,6.588734,52.596692
Venneweg,13,i,,7798CW,Collendoorn,Hardenberg,Overijssel,VBO,6.587358,52.596578
Venneweg,13,,,7798CW,Collendoorn,Hardenberg,Overijssel,VBO,6.587483,52.596569
Venneweg,15,,,7798CW,Collendoorn,Hardenberg,Overijssel,VBO,6.586637,52.596657
Venneweg,17,i,,7798CW,Collendoorn,Hardenberg,Overijssel,VBO,6.585560,52.597467
Venneweg,17,,,7798CW,Collendoorn,Hardenberg,Overijssel,VBO,6.585376,52.597472
Venneweg,19,i,,7798CW,Collendoorn,Hardenberg,Overijssel,VBO,6.582795,52.597758
Venneweg,19,,,7798CW,Collendoorn,Hardenberg,Overijssel,VBO,6.582698,52.597758
Venneweg,21,,,7798CW,Collendoorn,Hardenberg,Overijssel,VBO,6.578029,52.598711
Wetterkoelenweg,1,,,7798CX,Collendoorn,Hardenberg,Overijssel,VBO,6.596959,52.587000
Wetterkoelenweg,3,,,7798CX,Collendoorn,Hardenberg,Overijssel,VBO,6.594921,52.587967
Wetterkoelenweg,5,,,7798CX,Collendoorn,Hardenberg,Overijssel,VBO,6.595682,52.587672
