openbareruimtenaam,huisnummer,huisletter,huisnummertoevoeging,postcode,woonplaatsnaam,gemeentenaam,provincienaam,typeadresseerbaarobject,longitude,latitude
Charles Darwinstraat,1,,,7825AB,Emmen,Emmen,Drenthe,VBO,6.944600,52.749543
Charles Darwinstraat,3,,,7825AB,Emmen,Emmen,Drenthe,VBO,6.944600,52.749543
Charles Darwinstraat,5,,,7825AB,Emmen,Emmen,Drenthe,VBO,6.944964,52.749303
Charles Darwinstraat,9,,,7825AB,Emmen,Emmen,Drenthe,VBO,6.946129,52.748326
Charles Darwinstraat,11,,,7825AB,Emmen,Emmen,Drenthe,VBO,6.946476,52.748096
Charles Darwinstraat,13,,,7825AB,Emmen,Emmen,Drenthe,VBO,6.947474,52.747841
Charles Darwinstraat,15,,,7825AB,Emmen,Emmen,Drenthe,VBO,6.948189,52.747103
Charles Darwinstraat,17,,,7825AB,Emmen,Emmen,Drenthe,VBO,6.948377,52.747406
Charles Darwinstraat,21,,,7825AB,Emmen,Emmen,Drenthe,VBO,6.949156,52.747630
Charles Darwinstraat,23,,,7825AB,Emmen,Emmen,Drenthe,VBO,6.949578,52.747840
Charles Darwinstraat,35,,,7825AB,Emmen,Emmen,Drenthe,VBO,6.950497,52.748268
Charles Darwinstraat,41,,,7825AB,Emmen,Emmen,Drenthe,VBO,6.951193,52.748649
Charles Darwinstraat,43,,,7825AB,Emmen,Emmen,Drenthe,VBO,6.951073,52.748722
Charles Darwinstraat,45,,,7825AB,Emmen,Emmen,Drenthe,VBO,6.950812,52.748812
Charles Darwinstraat,47,,,7825AB,Emmen,Emmen,Drenthe,VBO,6.950711,52.748868
Charles Darwinstraat,49,,,7825AB,Emmen,Emmen,Drenthe,VBO,6.950624,52.748932
Charles Darwinstraat,51,,,7825AB,Emmen,Emmen,Drenthe,VBO,6.950768,52.748813
Charles Darwinstraat,6,,,7825AC,Emmen,Emmen,Drenthe,VBO,6.944747,52.748613
Charles Darwinstraat,8,,,7825AC,Emmen,Emmen,Drenthe,VBO,6.945102,52.748282
Charles Darwinstraat,10,,,7825AC,Emmen,Emmen,Drenthe,VBO,6.945580,52.747874
Charles Darwinstraat,12,,,7825AC,Emmen,Emmen,Drenthe,VBO,6.945849,52.747691
Charles Darwinstraat,14,,,7825AC,Emmen,Emmen,Drenthe,VBO,6.946174,52.747507
Charles Darwinstraat,16,,,7825AC,Emmen,Emmen,Drenthe,VBO,6.947158,52.746856
Charles Darwinstraat,18,,,7825AC,Emmen,Emmen,Drenthe,VBO,6.947463,52.746690
Charles Darwinstraat,20,,,7825AC,Emmen,Emmen,Drenthe,VBO,6.947707,52.746480
Charles Darwinstraat,24,,,7825AC,Emmen,Emmen,Drenthe,VBO,6.948885,52.746699
Charles Darwinstraat,40,A,,7825AC,Emmen,Emmen,Drenthe,VBO,6.951271,52.747962
Charles Darwinstraat,40,,,7825AC,Emmen,Emmen,Drenthe,VBO,6.951195,52.747918
David Livingstonestraat,4,,,7825AD,Emmen,Emmen,Drenthe,VBO,6.948148,52.748327
David Livingstonestraat,10,,,7825AD,Emmen,Emmen,Drenthe,VBO,6.948901,52.748811
David Livingstonestraat,18,A,,7825AD,Emmen,Emmen,Drenthe,VBO,6.949402,52.749020
David Livingstonestraat,18,,,7825AD,Emmen,Emmen,Drenthe,VBO,6.949277,52.748949
David Livingstonestraat,20,,,7825AD,Emmen,Emmen,Drenthe,VBO,6.949864,52.749220
David Livingstonestraat,22,,,7825AD,Emmen,Emmen,Drenthe,VBO,6.949804,52.749212
David Livingstonestraat,24,,,7825AD,Emmen,Emmen,Drenthe,VBO,6.950196,52.749396
David Livingstonestraat,1,A,,7825AE,Emmen,Emmen,Drenthe,VBO,6.946811,52.748561
David Livingstonestraat,1,,,7825AE,Emmen,Emmen,Drenthe,VBO,6.947021,52.748422
David Livingstonestraat,3,A,,7825AE,Emmen,Emmen,Drenthe,VBO,6.947061,52.748718
David Livingstonestraat,3,,,7825AE,Emmen,Emmen,Drenthe,VBO,6.947292,52.748544
David Livingstonestraat,5,,,7825AE,Emmen,Emmen,Drenthe,VBO,6.947640,52.748755
David Livingstonestraat,7,,,7825AE,Emmen,Emmen,Drenthe,VBO,6.947957,52.748922
David Livingstonestraat,11,,,7825AE,Emmen,Emmen,Drenthe,VBO,6.948547,52.749256
David Livingstonestraat,21,,,7825AE,Emmen,Emmen,Drenthe,VBO,6.949310,52.749625
David Livingstonestraat,25,,TR,7825AE,Emmen,Emmen,Drenthe,VBO,6.949904,52.749772
David Livingstonestraat,25,,,7825AE,Emmen,Emmen,Drenthe,VBO,6.949649,52.749834
Henry Hudsonstraat,2,,,7825AG,Emmen,Emmen,Drenthe,VBO,6.945625,52.748719
Henry Hudsonstraat,6,,,7825AG,Emmen,Emmen,Drenthe,VBO,6.946078,52.748973
Henry Hudsonstraat,10,,,7825AG,Emmen,Emmen,Drenthe,VBO,6.946294,52.749222
Henry Hudsonstraat,18,,,7825AG,Emmen,Emmen,Drenthe,VBO,6.946595,52.749362
Henry Hudsonstraat,19,,,7825AG,Emmen,Emmen,Drenthe,VBO,6.946493,52.750098
Henry Hudsonstraat,22,,,7825AG,Emmen,Emmen,Drenthe,VBO,6.947276,52.749649
Henry Hudsonstraat,24,,,7825AG,Emmen,Emmen,Drenthe,VBO,6.947609,52.749922
Henry Hudsonstraat,26,,,7825AG,Emmen,Emmen,Drenthe,VBO,6.948027,52.750111
Henry Hudsonstraat,27,,,7825AG,Emmen,Emmen,Drenthe,VBO,6.947283,52.750450
Henry Hudsonstraat,31,,,7825AG,Emmen,Emmen,Drenthe,VBO,6.947745,52.750941
Vitus Beringstraat,1,,,7825AH,Emmen,Emmen,Drenthe,VBO,6.945070,52.746452
Vitus Beringstraat,3,,,7825AH,Emmen,Emmen,Drenthe,VBO,6.946127,52.747013
Vitus Beringstraat,5,,,7825AH,Emmen,Emmen,Drenthe,VBO,6.946564,52.747232
Vitus Beringstraat,7,,,7825AH,Emmen,Emmen,Drenthe,VBO,6.946686,52.747321
Vitus Beringstraat,2,,,7825AJ,Emmen,Emmen,Drenthe,VBO,6.946525,52.746559
Vitus Beringstraat,4,,,7825AJ,Emmen,Emmen,Drenthe,VBO,6.946420,52.746506
Vitus Beringstraat,6,,,7825AJ,Emmen,Emmen,Drenthe,VBO,6.946314,52.746445
Vitus Beringstraat,8,,,7825AJ,Emmen,Emmen,Drenthe,VBO,6.946474,52.746371
Vitus Beringstraat,10,,,7825AJ,Emmen,Emmen,Drenthe,VBO,6.946567,52.746309
Vitus Beringstraat,12,,,7825AJ,Emmen,Emmen,Drenthe,VBO,6.946687,52.746255
Vitus Beringstraat,14,,,7825AJ,Emmen,Emmen,Drenthe,VBO,6.946774,52.746193
Vitus Beringstraat,16,,,7825AJ,Emmen,Emmen,Drenthe,VBO,6.946901,52.746124
Vitus Beringstraat,18,,,7825AJ,Emmen,Emmen,Drenthe,VBO,6.946973,52.746067
Vitus Beringstraat,20,,,7825AJ,Emmen,Emmen,Drenthe,VBO,6.947105,52.746122
Vitus Beringstraat,22,,,7825AJ,Emmen,Emmen,Drenthe,VBO,6.947033,52.746199
Vitus Beringstraat,24,,,7825AJ,Emmen,Emmen,Drenthe,VBO,6.946936,52.746264
Vitus Beringstraat,26,,,7825AJ,Emmen,Emmen,Drenthe,VBO,6.946812,52.746322
Vitus Beringstraat,28,,,7825AJ,Emmen,Emmen,Drenthe,VBO,6.946713,52.746397
Vitus Beringstraat,30,,,7825AJ,Emmen,Emmen,Drenthe,VBO,6.946622,52.746464
Phileas Foggstraat,26,A,,7825AK,Emmen,Emmen,Drenthe,VBO,6.926375,52.762811
Phileas Foggstraat,26,,,7825AK,Emmen,Emmen,Drenthe,VBO,6.926901,52.762202
Phileas Foggstraat,28,A,,7825AK,Emmen,Emmen,Drenthe,VBO,6.924245,52.760495
Phileas Foggstraat,28,B,,7825AK,Emmen,Emmen,Drenthe,VBO,6.927364,52.761359
Phileas Foggstraat,28,C,,7825AK,Emmen,Emmen,Drenthe,VBO,6.927165,52.761278
Phileas Foggstraat,28,D,,7825AK,Emmen,Emmen,Drenthe,VBO,6.926944,52.761211
Phileas Foggstraat,28,E,,7825AK,Emmen,Emmen,Drenthe,VBO,6.926670,52.761121
Phileas Foggstraat,28,F,,7825AK,Emmen,Emmen,Drenthe,VBO,6.926467,52.761080
Phileas Foggstraat,28,G,,7825AK,Emmen,Emmen,Drenthe,VBO,6.926224,52.761027
Phileas Foggstraat,28,H,,7825AK,Emmen,Emmen,Drenthe,VBO,6.927806,52.760811
Phileas Foggstraat,28,K,,7825AK,Emmen,Emmen,Drenthe,VBO,6.927980,52.760581
Phileas Foggstraat,28,L,,7825AK,Emmen,Emmen,Drenthe,VBO,6.927566,52.760410
Phileas Foggstraat,28,M,,7825AK,Emmen,Emmen,Drenthe,VBO,6.927295,52.760356
Phileas Foggstraat,28,N,,7825AK,Emmen,Emmen,Drenthe,VBO,6.926939,52.760243
Phileas Foggstraat,28,P,,7825AK,Emmen,Emmen,Drenthe,VBO,6.926646,52.760202
Phileas Foggstraat,28,R,,7825AK,Emmen,Emmen,Drenthe,VBO,6.926253,52.760069
Phileas Foggstraat,28,S,,7825AK,Emmen,Emmen,Drenthe,VBO,6.926042,52.759975
Phileas Foggstraat,28,T,,7825AK,Emmen,Emmen,Drenthe,VBO,6.925747,52.759865
Phileas Foggstraat,28,U,,7825AK,Emmen,Emmen,Drenthe,VBO,6.925535,52.759847
Phileas Foggstraat,28,,,7825AK,Emmen,Emmen,Drenthe,VBO,6.927589,52.761360
Phileas Foggstraat,29,,,7825AK,Emmen,Emmen,Drenthe,VBO,6.931282,52.758271
Phileas Foggstraat,30,,,7825AK,Emmen,Emmen,Drenthe,VBO,6.929220,52.759027
Phileas Foggstraat,32,,,7825AK,Emmen,Emmen,Drenthe,VBO,6.930432,52.757698
Phileas Foggstraat,33,,,7825AK,Emmen,Emmen,Drenthe,VBO,6.932145,52.757119
Phileas Foggstraat,35,,,7825AK,Emmen,Emmen,Drenthe,VBO,6.932798,52.756715
Phileas Foggstraat,36,,,7825AK,Emmen,Emmen,Drenthe,VBO,6.933246,52.755145
Phileas Foggstraat,38,,,7825AK,Emmen,Emmen,Drenthe,VBO,6.933073,52.755291
Phileas Foggstraat,39,A,,7825AK,Emmen,Emmen,Drenthe,VBO,6.934726,52.756366
Phileas Foggstraat,39,B,,7825AK,Emmen,Emmen,Drenthe,VBO,6.934726,52.756366
Phileas Foggstraat,39,C,,7825AK,Emmen,Emmen,Drenthe,VBO,6.934726,52.756366
Phileas Foggstraat,39,D,,7825AK,Emmen,Emmen,Drenthe,VBO,6.934726,52.756366
Phileas Foggstraat,39,E,,7825AK,Emmen,Emmen,Drenthe,VBO,6.934858,52.755492
Phileas Foggstraat,39,F,,7825AK,Emmen,Emmen,Drenthe,VBO,6.934858,52.755492
Phileas Foggstraat,39,G,,7825AK,Emmen,Emmen,Drenthe,VBO,6.934858,52.755492
Phileas Foggstraat,45,,,7825AL,Emmen,Emmen,Drenthe,VBO,6.936191,52.754648
Phileas Foggstraat,48,,,7825AL,Emmen,Emmen,Drenthe,VBO,6.934537,52.753624
Phileas Foggstraat,50,,,7825AL,Emmen,Emmen,Drenthe,VBO,6.935884,52.753493
Phileas Foggstraat,52,,,7825AL,Emmen,Emmen,Drenthe,VBO,6.936096,52.753202
Phileas Foggstraat,54,,,7825AL,Emmen,Emmen,Drenthe,VBO,6.936647,52.752872
Phileas Foggstraat,56,,,7825AL,Emmen,Emmen,Drenthe,VBO,6.937434,52.752520
Phileas Foggstraat,58,,,7825AL,Emmen,Emmen,Drenthe,VBO,6.937964,52.752010
Phileas Foggstraat,60,,,7825AL,Emmen,Emmen,Drenthe,VBO,6.938587,52.751588
Phileas Foggstraat,62,,,7825AL,Emmen,Emmen,Drenthe,VBO,6.938471,52.751679
Phileas Foggstraat,64,,,7825AL,Emmen,Emmen,Drenthe,VBO,6.939661,52.750549
Phileas Foggstraat,65,,,7825AL,Emmen,Emmen,Drenthe,VBO,6.943161,52.750273
Phileas Foggstraat,66,,TR,7825AL,Emmen,Emmen,Drenthe,VBO,6.942071,52.749692
Phileas Foggstraat,66,,,7825AL,Emmen,Emmen,Drenthe,VBO,6.941008,52.750100
Phileas Foggstraat,70,,,7825AL,Emmen,Emmen,Drenthe,VBO,6.942280,52.748376
Phileas Foggstraat,76,,,7825AM,Emmen,Emmen,Drenthe,VBO,6.943387,52.746618
Phileas Foggstraat,80,,,7825AM,Emmen,Emmen,Drenthe,VBO,6.943830,52.746145
Phileas Foggstraat,84,,,7825AM,Emmen,Emmen,Drenthe,VBO,6.944162,52.745907
Phileas Foggstraat,90,A,,7825AM,Emmen,Emmen,Drenthe,VBO,6.945486,52.745242
Phileas Foggstraat,90,,,7825AM,Emmen,Emmen,Drenthe,VBO,6.945226,52.745416
Phileas Foggstraat,106,,,7825AM,Emmen,Emmen,Drenthe,VBO,6.947257,52.743799
Phileas Foggstraat,112,,,7825AM,Emmen,Emmen,Drenthe,VBO,6.949135,52.743316
Phileas Foggstraat,120,,TR,7825AM,Emmen,Emmen,Drenthe,VBO,6.953015,52.745145
Phileas Foggstraat,120,,,7825AM,Emmen,Emmen,Drenthe,VBO,6.952716,52.744896
Phileas Foggstraat,124,,,7825AM,Emmen,Emmen,Drenthe,VBO,6.953376,52.745017
Phileas Foggstraat,126,,,7825AM,Emmen,Emmen,Drenthe,VBO,6.953691,52.745016
James Cookstraat,3,,,7825AN,Emmen,Emmen,Drenthe,VBO,6.953772,52.745825
James Cookstraat,11,,,7825AN,Emmen,Emmen,Drenthe,VBO,6.951774,52.748359
James Cookstraat,14,A,,7825AN,Emmen,Emmen,Drenthe,VBO,6.954074,52.747592
James Cookstraat,14,B,,7825AN,Emmen,Emmen,Drenthe,VBO,6.954191,52.747515
James Cookstraat,14,C,,7825AN,Emmen,Emmen,Drenthe,VBO,6.954317,52.747436
James Cookstraat,14,D,,7825AN,Emmen,Emmen,Drenthe,VBO,6.954427,52.747354
James Cookstraat,14,E,,7825AN,Emmen,Emmen,Drenthe,VBO,6.954181,52.747650
James Cookstraat,14,F,,7825AN,Emmen,Emmen,Drenthe,VBO,6.954291,52.747573
James Cookstraat,14,G,,7825AN,Emmen,Emmen,Drenthe,VBO,6.954411,52.747491
James Cookstraat,14,H,,7825AN,Emmen,Emmen,Drenthe,VBO,6.954537,52.747410
James Cookstraat,14,,,7825AN,Emmen,Emmen,Drenthe,VBO,6.955977,52.747441
James Cookstraat,16,A,,7825AN,Emmen,Emmen,Drenthe,VBO,6.954578,52.747896
James Cookstraat,16,B,,7825AN,Emmen,Emmen,Drenthe,VBO,6.954656,52.747843
James Cookstraat,16,C,,7825AN,Emmen,Emmen,Drenthe,VBO,6.954742,52.747788
James Cookstraat,16,D,,7825AN,Emmen,Emmen,Drenthe,VBO,6.954817,52.747740
James Cookstraat,16,E,,7825AN,Emmen,Emmen,Drenthe,VBO,6.954898,52.747689
James Cookstraat,16,F,,7825AN,Emmen,Emmen,Drenthe,VBO,6.954975,52.747632
James Cookstraat,16,G,,7825AN,Emmen,Emmen,Drenthe,VBO,6.954725,52.747979
James Cookstraat,16,H,,7825AN,Emmen,Emmen,Drenthe,VBO,6.954796,52.747922
James Cookstraat,16,K,,7825AN,Emmen,Emmen,Drenthe,VBO,6.954872,52.747877
James Cookstraat,16,L,,7825AN,Emmen,Emmen,Drenthe,VBO,6.954971,52.747825
James Cookstraat,16,M,,7825AN,Emmen,Emmen,Drenthe,VBO,6.955039,52.747767
James Cookstraat,16,N,,7825AN,Emmen,Emmen,Drenthe,VBO,6.955129,52.747717
James Cookstraat,17,,,7825AN,Emmen,Emmen,Drenthe,VBO,6.951135,52.748736
James Cookstraat,18,,,7825AN,Emmen,Emmen,Drenthe,VBO,6.955395,52.748141
James Cookstraat,19,,,7825AN,Emmen,Emmen,Drenthe,VBO,6.951034,52.748801
James Cookstraat,20,,,7825AN,Emmen,Emmen,Drenthe,VBO,6.953231,52.748934
James Cookstraat,21,,,7825AN,Emmen,Emmen,Drenthe,VBO,6.950948,52.748874
James Cookstraat,23,,,7825AN,Emmen,Emmen,Drenthe,VBO,6.950846,52.748938
James Cookstraat,25,,,7825AN,Emmen,Emmen,Drenthe,VBO,6.950745,52.749002
James Cookstraat,27,,,7825AN,Emmen,Emmen,Drenthe,VBO,6.950629,52.749076
James Cookstraat,31,,,7825AN,Emmen,Emmen,Drenthe,VBO,6.949506,52.749989
James Cookstraat,35,,,7825AN,Emmen,Emmen,Drenthe,VBO,6.948566,52.750437
James Cookstraat,41,,,7825AN,Emmen,Emmen,Drenthe,VBO,6.947745,52.750941
Roald Amundsenstraat,1,,,7825AP,Emmen,Emmen,Drenthe,VBO,6.942246,52.747019
Roald Amundsenstraat,5,,,7825AP,Emmen,Emmen,Drenthe,VBO,6.941306,52.746807
Roald Amundsenstraat,11,,,7825AP,Emmen,Emmen,Drenthe,VBO,6.941624,52.746587
Roald Amundsenstraat,13,,,7825AP,Emmen,Emmen,Drenthe,VBO,6.942145,52.746248
Roald Amundsenstraat,15,,,7825AP,Emmen,Emmen,Drenthe,VBO,6.942360,52.746056
Roald Amundsenstraat,19,A,,7825AP,Emmen,Emmen,Drenthe,VBO,6.942653,52.745924
Roald Amundsenstraat,19,,,7825AP,Emmen,Emmen,Drenthe,VBO,6.942728,52.745970
Roald Amundsenstraat,21,,,7825AP,Emmen,Emmen,Drenthe,VBO,6.943018,52.745796
Roald Amundsenstraat,23,,,7825AP,Emmen,Emmen,Drenthe,VBO,6.943320,52.745567
Roald Amundsenstraat,25,B,,7825AP,Emmen,Emmen,Drenthe,VBO,6.943580,52.745357
Roald Amundsenstraat,25,,,7825AP,Emmen,Emmen,Drenthe,VBO,6.943550,52.745348
Roald Amundsenstraat,29,,,7825AP,Emmen,Emmen,Drenthe,VBO,6.944073,52.745063
Roald Amundsenstraat,31,,,7825AP,Emmen,Emmen,Drenthe,VBO,6.944259,52.744890
Robert Scottstraat,1,,,7825AR,Emmen,Emmen,Drenthe,VBO,6.946152,52.744802
Robert Scottstraat,11,,,7825AR,Emmen,Emmen,Drenthe,VBO,6.945254,52.744544
Robert Scottstraat,15,A,,7825AR,Emmen,Emmen,Drenthe,VBO,6.944523,52.744142
Robert Scottstraat,15,,,7825AR,Emmen,Emmen,Drenthe,VBO,6.944708,52.744174
Robert Scottstraat,19,,,7825AR,Emmen,Emmen,Drenthe,VBO,6.943970,52.743851
Roald Amundsenstraat,4,,,7825AT,Emmen,Emmen,Drenthe,VBO,6.941804,52.747745
Roald Amundsenstraat,6,,,7825AT,Emmen,Emmen,Drenthe,VBO,6.941242,52.747518
Roald Amundsenstraat,10,,,7825AT,Emmen,Emmen,Drenthe,VBO,6.940711,52.747156
Roald Amundsenstraat,12,,,7825AT,Emmen,Emmen,Drenthe,VBO,6.940450,52.747321
Roald Amundsenstraat,14,,,7825AT,Emmen,Emmen,Drenthe,VBO,6.940205,52.747522
Roald Amundsenstraat,18,,,7825AT,Emmen,Emmen,Drenthe,VBO,6.940191,52.746704
Roald Amundsenstraat,20,,,7825AT,Emmen,Emmen,Drenthe,VBO,6.940687,52.746473
Roald Amundsenstraat,22,,,7825AT,Emmen,Emmen,Drenthe,VBO,6.941032,52.746181
Roald Amundsenstraat,24,,,7825AT,Emmen,Emmen,Drenthe,VBO,6.941436,52.745897
Roald Amundsenstraat,28,,,7825AT,Emmen,Emmen,Drenthe,VBO,6.941712,52.745723
Roald Amundsenstraat,30,,,7825AT,Emmen,Emmen,Drenthe,VBO,6.941793,52.745420
Roald Amundsenstraat,34,,,7825AT,Emmen,Emmen,Drenthe,VBO,6.942470,52.745398
Roald Amundsenstraat,38,,,7825AT,Emmen,Emmen,Drenthe,VBO,6.942602,52.745343
Roald Amundsenstraat,40,,,7825AT,Emmen,Emmen,Drenthe,VBO,6.942643,52.745270
Roald Amundsenstraat,42,A,,7825AT,Emmen,Emmen,Drenthe,VBO,6.942432,52.745156
Roald Amundsenstraat,42,,,7825AT,Emmen,Emmen,Drenthe,VBO,6.942493,52.745209
Roald Amundsenstraat,44,A,,7825AT,Emmen,Emmen,Drenthe,VBO,6.942311,52.745095
Roald Amundsenstraat,44,,,7825AT,Emmen,Emmen,Drenthe,VBO,6.942372,52.745121
Roald Amundsenstraat,46,,,7825AT,Emmen,Emmen,Drenthe,VBO,6.942177,52.745052
Roald Amundsenstraat,48,,,7825AT,Emmen,Emmen,Drenthe,VBO,6.942017,52.745153
Roald Amundsenstraat,50,A,,7825AT,Emmen,Emmen,Drenthe,VBO,6.942199,52.745258
Roald Amundsenstraat,50,,,7825AT,Emmen,Emmen,Drenthe,VBO,6.942153,52.745223
Roald Amundsenstraat,52,,,7825AT,Emmen,Emmen,Drenthe,VBO,6.942259,52.745284
Roald Amundsenstraat,54,,,7825AT,Emmen,Emmen,Drenthe,VBO,6.942334,52.745328
Roald Amundsenstraat,56,,,7825AV,Emmen,Emmen,Drenthe,VBO,6.943178,52.744895
Roald Amundsenstraat,60,,,7825AV,Emmen,Emmen,Drenthe,VBO,6.943743,52.744499
Phileas Foggstraat,69,,,7825AW,Emmen,Emmen,Drenthe,VBO,6.944315,52.748961
Phileas Foggstraat,71,,,7825AW,Emmen,Emmen,Drenthe,VBO,6.943922,52.748741
Phileas Foggstraat,73,,,7825AW,Emmen,Emmen,Drenthe,VBO,6.943529,52.748530
Phileas Foggstraat,75,,,7825AW,Emmen,Emmen,Drenthe,VBO,6.943758,52.747880
Phileas Foggstraat,79,,,7825AW,Emmen,Emmen,Drenthe,VBO,6.945859,52.746136
Phileas Foggstraat,81,,,7825AW,Emmen,Emmen,Drenthe,VBO,6.946134,52.745962
Phileas Foggstraat,83,,,7825AW,Emmen,Emmen,Drenthe,VBO,6.946409,52.745778
Phileas Foggstraat,85,,,7825AW,Emmen,Emmen,Drenthe,VBO,6.947482,52.745557
Phileas Foggstraat,131,,,7825AW,Emmen,Emmen,Drenthe,VBO,6.949046,52.744705
Phileas Foggstraat,133,,,7825AW,Emmen,Emmen,Drenthe,VBO,6.949782,52.744844
Phileas Foggstraat,135,,,7825AW,Emmen,Emmen,Drenthe,VBO,6.950659,52.744941
Phileas Foggstraat,137,,,7825AW,Emmen,Emmen,Drenthe,VBO,6.951990,52.745292
Phileas Foggstraat,139,,,7825AW,Emmen,Emmen,Drenthe,VBO,6.951730,52.745466
Phileas Foggstraat,141,,,7825AW,Emmen,Emmen,Drenthe,VBO,6.951470,52.745649
Phileas Foggstraat,143,,,7825AW,Emmen,Emmen,Drenthe,VBO,6.951224,52.745823
Phileas Foggstraat,145,,,7825AW,Emmen,Emmen,Drenthe,VBO,6.950964,52.746006
Phileas Foggstraat,147,,,7825AW,Emmen,Emmen,Drenthe,VBO,6.951748,52.746391
Phileas Foggstraat,149,,,7825AW,Emmen,Emmen,Drenthe,VBO,6.952023,52.746217
Phileas Foggstraat,151,,,7825AW,Emmen,Emmen,Drenthe,VBO,6.952312,52.746024
Phileas Foggstraat,153,,,7825AW,Emmen,Emmen,Drenthe,VBO,6.952572,52.745832
Phileas Foggstraat,155,,,7825AW,Emmen,Emmen,Drenthe,VBO,6.952862,52.745649
James Cookstraat,43,,,7825AX,Emmen,Emmen,Drenthe,VBO,6.947313,52.751168
James Cookstraat,47,,,7825AX,Emmen,Emmen,Drenthe,VBO,6.946735,52.750796
James Cookstraat,51,A,,7825AX,Emmen,Emmen,Drenthe,VBO,6.946231,52.750351
James Cookstraat,51,,,7825AX,Emmen,Emmen,Drenthe,VBO,6.946076,52.750431
James Cookstraat,53,,,7825AX,Emmen,Emmen,Drenthe,VBO,6.945488,52.750174
James Cookstraat,57,,,7825AX,Emmen,Emmen,Drenthe,VBO,6.944987,52.749958
James Cookstraat,61,,,7825AX,Emmen,Emmen,Drenthe,VBO,6.944600,52.749543
James Cookstraat,70,,,7825AX,Emmen,Emmen,Drenthe,VBO,6.943161,52.750273
Maxwellstraat,25,,,7825GA,Emmen,Emmen,Drenthe,VBO,6.969405,52.738221
Maxwellstraat,29,,,7825GA,Emmen,Emmen,Drenthe,VBO,6.967295,52.737530
Curiestraat,1,,,7825GC,Emmen,Emmen,Drenthe,VBO,6.967872,52.739671
Curiestraat,2,,,7825GC,Emmen,Emmen,Drenthe,VBO,6.965814,52.738853
Marconistraat,2,,,7825GD,Emmen,Emmen,Drenthe,VBO,6.963568,52.738265
Huygensstraat,51,A,,7825GJ,Emmen,Emmen,Drenthe,VBO,6.960143,52.739710
Huygensstraat,48,,,7825GK,Emmen,Emmen,Drenthe,VBO,6.959651,52.740199
Huygensstraat,52,,,7825GK,Emmen,Emmen,Drenthe,VBO,6.959051,52.739854
Edisonstraat,2,A,,7825GS,Emmen,Emmen,Drenthe,VBO,6.965623,52.741191
Edisonstraat,2,B,,7825GS,Emmen,Emmen,Drenthe,VBO,6.965947,52.741002
Edisonstraat,2,C,,7825GS,Emmen,Emmen,Drenthe,VBO,6.966142,52.740878
Edisonstraat,2,D,,7825GS,Emmen,Emmen,Drenthe,VBO,6.965751,52.741052
Edisonstraat,2,E,,7825GS,Emmen,Emmen,Drenthe,VBO,6.965898,52.740903
Edisonstraat,2,F,,7825GS,Emmen,Emmen,Drenthe,VBO,6.966263,52.741001
Edisonstraat,20,,,7825GS,Emmen,Emmen,Drenthe,VBO,6.958507,52.738258
Bislett,3,,,7825SB,Emmen,Emmen,Drenthe,VBO,6.943425,52.777757
Bislett,5,,,7825SB,Emmen,Emmen,Drenthe,VBO,6.943293,52.777744
Bislett,7,A,,7825SB,Emmen,Emmen,Drenthe,VBO,6.942852,52.777706
Bislett,7,,,7825SB,Emmen,Emmen,Drenthe,VBO,6.942945,52.777713
Bislett,10,,,7825SB,Emmen,Emmen,Drenthe,VBO,6.943431,52.778292
Bislett,11,,,7825SB,Emmen,Emmen,Drenthe,VBO,6.942379,52.777910
Bislett,12,,,7825SB,Emmen,Emmen,Drenthe,VBO,6.943749,52.778485
Bislett,15,,,7825SB,Emmen,Emmen,Drenthe,VBO,6.942811,52.778261
Bislett,19,,,7825SB,Emmen,Emmen,Drenthe,VBO,6.943407,52.778708
Ullevi,1,,,7825SC,Emmen,Emmen,Drenthe,VBO,6.943929,52.776479
Ullevi,7,,TR,7825SC,Emmen,Emmen,Drenthe,VBO,6.944156,52.777613
Ullevi,7,,,7825SC,Emmen,Emmen,Drenthe,VBO,6.943975,52.777763
Ullevi,13,,,7825SC,Emmen,Emmen,Drenthe,VBO,6.943945,52.778294
Ullevi,15,,,7825SC,Emmen,Emmen,Drenthe,VBO,6.943931,52.778480
Ullevi,12,,,7825SE,Emmen,Emmen,Drenthe,VBO,6.947296,52.774457
Ullevi,14,,,7825SE,Emmen,Emmen,Drenthe,VBO,6.947224,52.775348
Ullevi,16,,,7825SE,Emmen,Emmen,Drenthe,VBO,6.947682,52.775719
Ullevi,18,,,7825SE,Emmen,Emmen,Drenthe,VBO,6.946449,52.776464
Ullevi,20,,TR,7825SE,Emmen,Emmen,Drenthe,VBO,6.945871,52.776507
Ullevi,20,,,7825SE,Emmen,Emmen,Drenthe,VBO,6.946241,52.776053
Ullevi,22,,,7825SE,Emmen,Emmen,Drenthe,VBO,6.944826,52.776529
Ullevi,26,,,7825SE,Emmen,Emmen,Drenthe,VBO,6.944677,52.777747
Ullevi,34,,,7825SE,Emmen,Emmen,Drenthe,VBO,6.948055,52.777467
Ullevi,36,,,7825SE,Emmen,Emmen,Drenthe,VBO,6.948287,52.777499
Ullevi,38,,,7825SE,Emmen,Emmen,Drenthe,VBO,6.948226,52.777681
Ullevi,40,,,7825SE,Emmen,Emmen,Drenthe,VBO,6.948217,52.778247
Ullevi,50,,TC,7825SE,Emmen,Emmen,Drenthe,VBO,6.946076,52.779577
Stadionplein,1,,,7825SG,Emmen,Emmen,Drenthe,VBO,6.945034,52.774613
Stadionplein,5,,,7825SG,Emmen,Emmen,Drenthe,VBO,6.943904,52.773936
Velodrome,1,,,7825SH,Emmen,Emmen,Drenthe,VBO,6.945457,52.774014
Velodrome,3,,,7825SH,Emmen,Emmen,Drenthe,VBO,6.946050,52.774006
Velodrome,5,,,7825SH,Emmen,Emmen,Drenthe,VBO,6.946588,52.774556
Velodrome,9,,,7825SH,Emmen,Emmen,Drenthe,VBO,6.947651,52.772957
Wembley,3,,,7825SJ,Emmen,Emmen,Drenthe,VBO,6.940512,52.774700
Wimbledon,18,,,7825SK,Emmen,Emmen,Drenthe,VBO,6.939079,52.774033
Schansstraat,50,,,7825TA,Emmen,Emmen,Drenthe,VBO,6.951898,52.791259
Schansstraat,54,,,7825TA,Emmen,Emmen,Drenthe,VBO,6.951839,52.790552
Schansstraat,58,,,7825TA,Emmen,Emmen,Drenthe,VBO,6.951706,52.789634
Schansstraat,63,,,7825TA,Emmen,Emmen,Drenthe,VBO,6.951621,52.788916
Schansstraat,64,,,7825TA,Emmen,Emmen,Drenthe,VBO,6.951512,52.788747
Schansstraat,66,,,7825TA,Emmen,Emmen,Drenthe,VBO,6.951506,52.788585
Schansstraat,74,,,7825TA,Emmen,Emmen,Drenthe,VBO,6.951437,52.786249
Schansstraat,75,,,7825TA,Emmen,Emmen,Drenthe,VBO,6.951430,52.786034
Schansstraat,78,,,7825TA,Emmen,Emmen,Drenthe,VBO,6.951886,52.785111
Schansstraat,79,,,7825TA,Emmen,Emmen,Drenthe,VBO,6.951884,52.785048
Schansstraat,80,,,7825TA,Emmen,Emmen,Drenthe,VBO,6.951951,52.784858
Schansstraat,81,,,7825TA,Emmen,Emmen,Drenthe,VBO,6.951948,52.784786
Schansstraat,82,,,7825TA,Emmen,Emmen,Drenthe,VBO,6.951929,52.784652
Schansstraat,83,,,7825TA,Emmen,Emmen,Drenthe,VBO,6.951911,52.784571
Schansstraat,84,,,7825TA,Emmen,Emmen,Drenthe,VBO,6.951770,52.784357
Schansstraat,85,,,7825TA,Emmen,Emmen,Drenthe,VBO,6.951782,52.784267
Schansstraat,86,,,7825TA,Emmen,Emmen,Drenthe,VBO,6.951774,52.784043
Schansstraat,87,,,7825TA,Emmen,Emmen,Drenthe,VBO,6.951756,52.783971
Schansstraat,88,,,7825TA,Emmen,Emmen,Drenthe,VBO,6.952917,52.783846
Schansstraat,89,,,7825TA,Emmen,Emmen,Drenthe,VBO,6.952967,52.783829
Schansstraat,90,,,7825TA,Emmen,Emmen,Drenthe,VBO,6.953455,52.783805
Schansstraat,91,,,7825TA,Emmen,Emmen,Drenthe,VBO,6.953557,52.783768
Schansstraat,92,,,7825TB,Emmen,Emmen,Drenthe,VBO,6.951747,52.783306
Schansstraat,97,,,7825TB,Emmen,Emmen,Drenthe,VBO,6.951453,52.782123
Schansstraat,99,,,7825TB,Emmen,Emmen,Drenthe,VBO,6.951497,52.781691
Schansstraat,101,,,7825TB,Emmen,Emmen,Drenthe,VBO,6.951533,52.781448
Schansstraat,102,,,7825TB,Emmen,Emmen,Drenthe,VBO,6.951524,52.781215
Schansstraat,105,,NST,7825TB,Emmen,Emmen,Drenthe,VBO,6.951731,52.779936
Schansstraat,105,,,7825TB,Emmen,Emmen,Drenthe,VBO,6.951488,52.779795
Schansstraat,127,,,7825TB,Emmen,Emmen,Drenthe,VBO,6.950694,52.780785
Schansstraat,128,,,7825TB,Emmen,Emmen,Drenthe,VBO,6.950882,52.781079
Schansstraat,130,,,7825TB,Emmen,Emmen,Drenthe,VBO,6.950800,52.781701
Schansstraat,131,,,7825TB,Emmen,Emmen,Drenthe,VBO,6.950895,52.781754
Schansstraat,134,,,7825TB,Emmen,Emmen,Drenthe,VBO,6.950890,52.782122
Schansstraat,139,,,7825TB,Emmen,Emmen,Drenthe,VBO,6.950619,52.783267
Schansstraat,145,,,7825TB,Emmen,Emmen,Drenthe,VBO,6.951051,52.784565
Schansstraat,149,,,7825TB,Emmen,Emmen,Drenthe,VBO,6.950752,52.786986
Schansstraat,150,,,7825TB,Emmen,Emmen,Drenthe,VBO,6.950476,52.787152
Schansstraat,152,,,7825TB,Emmen,Emmen,Drenthe,VBO,6.950647,52.788210
Schansstraat,153,,,7825TB,Emmen,Emmen,Drenthe,VBO,6.950677,52.788614
Schansstraat,155,,,7825TB,Emmen,Emmen,Drenthe,VBO,6.950926,52.789797
Schansstraat,163,,,7825TB,Emmen,Emmen,Drenthe,VBO,6.950923,52.793024
Schansstraat,164,,,7825TB,Emmen,Emmen,Drenthe,VBO,6.950682,52.793119
Schansstraat,167,A,,7825TB,Emmen,Emmen,Drenthe,VBO,6.950502,52.793054
Schansstraat,167,,,7825TB,Emmen,Emmen,Drenthe,VBO,6.951464,52.794051
Schansstraat,170,,,7825TB,Emmen,Emmen,Drenthe,VBO,6.951262,52.795051
Rondweg,75,,,7825TC,Emmen,Emmen,Drenthe,VBO,6.946072,52.782113
Rondweg,97,,,7825TC,Emmen,Emmen,Drenthe,VBO,6.945479,52.785033
Rondweg,98,,,7825TC,Emmen,Emmen,Drenthe,VBO,6.949887,52.799725
Oude Markeweg,20,,,7825TD,Emmen,Emmen,Drenthe,VBO,6.949967,52.785343
Oude Markeweg,30,,,7825TD,Emmen,Emmen,Drenthe,VBO,6.953128,52.785023
Oude Markeweg,32,,,7825TD,Emmen,Emmen,Drenthe,VBO,6.953587,52.785017
Zwaaikom,1,,,7825TE,Emmen,Emmen,Drenthe,VBO,6.894978,52.758434
Zwaaikom,3,,,7825TE,Emmen,Emmen,Drenthe,VBO,6.894624,52.758374
Zwaaikom,5,,,7825TE,Emmen,Emmen,Drenthe,VBO,6.894121,52.757861
Zwaaikom,17,,,7825TE,Emmen,Emmen,Drenthe,VBO,6.896240,52.755170
Zwaaikom,21,,,7825TE,Emmen,Emmen,Drenthe,VBO,6.896768,52.754579
Zwaaikom,23,,,7825TE,Emmen,Emmen,Drenthe,VBO,6.896896,52.754434
Zwaaikom,25,,,7825TE,Emmen,Emmen,Drenthe,VBO,6.897109,52.754162
Zwaaikom,27,,,7825TE,Emmen,Emmen,Drenthe,VBO,6.897151,52.754089
Zwaaikom,29,,,7825TE,Emmen,Emmen,Drenthe,VBO,6.897380,52.753861
Zwaaikom,35,,,7825TE,Emmen,Emmen,Drenthe,VBO,6.898334,52.752735
Schoolpad,34,,,7825TG,Emmen,Emmen,Drenthe,VBO,6.945534,52.771577
Schoolpad,35,,,7825TG,Emmen,Emmen,Drenthe,VBO,6.945401,52.771588
Schoolpad,38,,,7825TG,Emmen,Emmen,Drenthe,VBO,6.945186,52.771384
Schoolpad,39,A,,7825TG,Emmen,Emmen,Drenthe,VBO,6.944850,52.771107
Schoolpad,39,,,7825TG,Emmen,Emmen,Drenthe,VBO,6.944683,52.771213
Schoolpad,50,,,7825TG,Emmen,Emmen,Drenthe,VBO,6.937270,52.763362
Schoolpad,55,,,7825TG,Emmen,Emmen,Drenthe,VBO,6.933209,52.759559
Meerdijk,61,,,7825TH,Emmen,Emmen,Drenthe,VBO,6.945202,52.772678
Meerdijk,63,,,7825TH,Emmen,Emmen,Drenthe,VBO,6.945350,52.772676
Meerdijk,65,,,7825TH,Emmen,Emmen,Drenthe,VBO,6.945572,52.772655
Meerdijk,71,A,,7825TH,Emmen,Emmen,Drenthe,VBO,6.946972,52.772843
Meerdijk,71,,,7825TH,Emmen,Emmen,Drenthe,VBO,6.946472,52.772544
Meerdijk,72,,,7825TH,Emmen,Emmen,Drenthe,VBO,6.936159,52.773030
Meerdijk,74,,,7825TH,Emmen,Emmen,Drenthe,VBO,6.935754,52.771210
Meerdijk,76,,,7825TH,Emmen,Emmen,Drenthe,VBO,6.936578,52.773141
Meerdijk,84,,,7825TH,Emmen,Emmen,Drenthe,VBO,6.938650,52.773051
Meerdijk,88,,,7825TH,Emmen,Emmen,Drenthe,VBO,6.940043,52.772619
Meerdijk,90,,,7825TH,Emmen,Emmen,Drenthe,VBO,6.944425,52.772481
Meerdijk,94,,,7825TH,Emmen,Emmen,Drenthe,VBO,6.944952,52.772313
Meerdijk,102,,TR,7825TH,Emmen,Emmen,Drenthe,VBO,6.945388,52.772073
Meerdijk,102,,,7825TH,Emmen,Emmen,Drenthe,VBO,6.945602,52.772241
Meerdijk,104,A,,7825TH,Emmen,Emmen,Drenthe,VBO,6.945946,52.771913
Meerdijk,104,,,7825TH,Emmen,Emmen,Drenthe,VBO,6.946171,52.772009
Oevermansweg,10,,,7825TJ,Emmen,Emmen,Drenthe,VBO,6.931792,52.768529
Oevermansweg,12,,,7825TJ,Emmen,Emmen,Drenthe,VBO,6.931565,52.767570
Oevermansweg,16,,,7825TJ,Emmen,Emmen,Drenthe,VBO,6.930558,52.765058
Oevermansweg,26,,,7825TJ,Emmen,Emmen,Drenthe,VBO,6.932328,52.759786
Oranjekanaal NZ,1,,,7825TK,Emmen,Emmen,Drenthe,VBO,6.907850,52.749045
Oranjekanaal NZ,2,,,7825TK,Emmen,Emmen,Drenthe,VBO,6.907968,52.749053
Oranjekanaal NZ,3,,,7825TK,Emmen,Emmen,Drenthe,VBO,6.908294,52.749058
Oranjekanaal NZ,4,,,7825TK,Emmen,Emmen,Drenthe,VBO,6.908701,52.749259
Oranjekanaal NZ,7,,,7825TK,Emmen,Emmen,Drenthe,VBO,6.909123,52.749470
Oranjekanaal NZ,9,,,7825TK,Emmen,Emmen,Drenthe,VBO,6.909621,52.749733
Oranjekanaal NZ,38,,,7825TK,Emmen,Emmen,Drenthe,VBO,6.924286,52.752268
Oranjekanaal NZ,39,,,7825TK,Emmen,Emmen,Drenthe,VBO,6.924571,52.752372
Oranjekanaal NZ,40,,,7825TK,Emmen,Emmen,Drenthe,VBO,6.924720,52.752406
Oranjekanaal NZ,41,,,7825TK,Emmen,Emmen,Drenthe,VBO,6.924855,52.752449
Oranjekanaal NZ,42,,,7825TK,Emmen,Emmen,Drenthe,VBO,6.925079,52.752491
Oranjekanaal NZ,47,,,7825TK,Emmen,Emmen,Drenthe,VBO,6.926521,52.753066
Oranjekanaal ZZ,20,,,7825TL,Emmen,Emmen,Drenthe,VBO,6.916607,52.749562
Oranjekanaal ZZ,23,,,7825TL,Emmen,Emmen,Drenthe,VBO,6.917743,52.749862
Oranjekanaal ZZ,28,,,7825TL,Emmen,Emmen,Drenthe,VBO,6.919492,52.750307
Oranjekanaal ZZ,29,,,7825TL,Emmen,Emmen,Drenthe,VBO,6.919924,52.750374
Oranjekanaal ZZ,30,,,7825TL,Emmen,Emmen,Drenthe,VBO,6.920268,52.750468
Oranjekanaal ZZ,36,,TR,7825TL,Emmen,Emmen,Drenthe,VBO,6.925520,52.751929
Oranjekanaal ZZ,36,,,7825TL,Emmen,Emmen,Drenthe,VBO,6.923289,52.751301
Landweg,11,A,,7825TM,Emmen,Emmen,Drenthe,VBO,6.914366,52.746463
Landweg,11,,,7825TM,Emmen,Emmen,Drenthe,VBO,6.914556,52.746398
Landweg,18,,,7825TM,Emmen,Emmen,Drenthe,VBO,6.914100,52.748174
Boerweg,2,,,7825TN,Emmen,Emmen,Drenthe,VBO,6.908183,52.745005
Boerweg,3,,,7825TN,Emmen,Emmen,Drenthe,VBO,6.907707,52.744922
Boerweg,9,,,7825TN,Emmen,Emmen,Drenthe,VBO,6.907195,52.744703
Halteweg,23,,,7825TP,Emmen,Emmen,Drenthe,VBO,6.893998,52.759267
Halteweg,25,,,7825TP,Emmen,Emmen,Drenthe,VBO,6.896649,52.761540
Halteweg,27,,,7825TP,Emmen,Emmen,Drenthe,VBO,6.895298,52.760725
Halteweg,32,,,7825TP,Emmen,Emmen,Drenthe,VBO,6.891731,52.758463
Halteweg,54,,,7825TP,Emmen,Emmen,Drenthe,VBO,6.893147,52.759578
Halvemaanweg,1,,,7825TR,Emmen,Emmen,Drenthe,VBO,6.903182,52.753716
Halvemaanweg,2,,,7825TR,Emmen,Emmen,Drenthe,VBO,6.902980,52.753871
Halvemaanweg,3,A,,7825TR,Emmen,Emmen,Drenthe,VBO,6.902561,52.754164
Halvemaanweg,3,,,7825TR,Emmen,Emmen,Drenthe,VBO,6.902561,52.754155
Halvemaanweg,6,,,7825TR,Emmen,Emmen,Drenthe,VBO,6.901768,52.754785
Halvemaanweg,7,,,7825TR,Emmen,Emmen,Drenthe,VBO,6.901928,52.755574
Halvemaanweg,8,,,7825TR,Emmen,Emmen,Drenthe,VBO,6.902713,52.756427
Halvemaanweg,9,,,7825TR,Emmen,Emmen,Drenthe,VBO,6.903440,52.756454
Rietlandenstraat,9,,,7825TS,Emmen,Emmen,Drenthe,VBO,6.906304,52.755725
Rietlandenstraat,10,,,7825TS,Emmen,Emmen,Drenthe,VBO,6.905837,52.755498
Rietlandenstraat,11,,,7825TS,Emmen,Emmen,Drenthe,VBO,6.905462,52.755368
Rietlandenstraat,12,,,7825TS,Emmen,Emmen,Drenthe,VBO,6.905420,52.755440
Rietlandenstraat,13,,,7825TS,Emmen,Emmen,Drenthe,VBO,6.905173,52.755445
Rietlandenstraat,14,,,7825TS,Emmen,Emmen,Drenthe,VBO,6.904930,52.755435
Rietlandenstraat,16,,,7825TS,Emmen,Emmen,Drenthe,VBO,6.901221,52.754846
Rietlandenstraat,17,,,7825TS,Emmen,Emmen,Drenthe,VBO,6.900448,52.754748
Rietlandenstraat,20,,,7825TS,Emmen,Emmen,Drenthe,VBO,6.899912,52.754243
Rietlandenstraat,21,,,7825TS,Emmen,Emmen,Drenthe,VBO,6.899298,52.754062
Rietlandenstraat,22,,,7825TS,Emmen,Emmen,Drenthe,VBO,6.899207,52.753982
Rietlandenstraat,23,,,7825TS,Emmen,Emmen,Drenthe,VBO,6.898920,52.753842
Rietlandenstraat,26,,,7825TS,Emmen,Emmen,Drenthe,VBO,6.897911,52.753342
Rietlandenstraat,70,,,7825TT,Emmen,Emmen,Drenthe,VBO,6.897902,52.753963
Rietlandenstraat,71,,,7825TT,Emmen,Emmen,Drenthe,VBO,6.898264,52.754129
Rietlandenstraat,72,,,7825TT,Emmen,Emmen,Drenthe,VBO,6.898549,52.754233
Rietlandenstraat,74,,,7825TT,Emmen,Emmen,Drenthe,VBO,6.900125,52.755283
Rietlandenstraat,75,,,7825TT,Emmen,Emmen,Drenthe,VBO,6.899907,52.755384
Rietlandenstraat,76,A,,7825TT,Emmen,Emmen,Drenthe,VBO,6.900833,52.755184
Rietlandenstraat,76,,,7825TT,Emmen,Emmen,Drenthe,VBO,6.900656,52.755195
Rietlandenstraat,77,,,7825TT,Emmen,Emmen,Drenthe,VBO,6.903681,52.755723
Rietlandenstraat,78,,,7825TT,Emmen,Emmen,Drenthe,VBO,6.904285,52.755607
Keistraat,20,,,7825TV,Emmen,Emmen,Drenthe,VBO,6.904762,52.756976
Keistraat,22,,,7825TV,Emmen,Emmen,Drenthe,VBO,6.904634,52.756268
Keistraat,25,,,7825TV,Emmen,Emmen,Drenthe,VBO,6.903717,52.755884
Keistraat,29,,,7825TV,Emmen,Emmen,Drenthe,VBO,6.903860,52.757171
Sint Gerardusstraat,250,,,7825TW,Emmen,Emmen,Drenthe,VBO,6.947767,52.780599
Abel Tasmanstraat,11,,,7825VA,Emmen,Emmen,Drenthe,VBO,6.915199,52.754650
Abel Tasmanstraat,13,,,7825VA,Emmen,Emmen,Drenthe,VBO,6.916107,52.753488
Abel Tasmanstraat,15,,,7825VA,Emmen,Emmen,Drenthe,VBO,6.916367,52.753287
Abel Tasmanstraat,19,,,7825VA,Emmen,Emmen,Drenthe,VBO,6.918261,52.751407
Abel Tasmanstraat,21,,,7825VA,Emmen,Emmen,Drenthe,VBO,6.918298,52.751329
Abel Tasmanstraat,23,,,7825VA,Emmen,Emmen,Drenthe,VBO,6.918497,52.751105
Abel Tasmanstraat,50,,,7825VA,Emmen,Emmen,Drenthe,VBO,6.915735,52.752603
Abel Tasmanstraat,52,,,7825VA,Emmen,Emmen,Drenthe,VBO,6.916698,52.751314
Eikenweg,53,,,7825VC,Emmen,Emmen,Drenthe,VBO,6.903132,52.748845
Eikenweg,57,,,7825VC,Emmen,Emmen,Drenthe,VBO,6.905581,52.748122
Eikenweg,59,,,7825VC,Emmen,Emmen,Drenthe,VBO,6.906201,52.748051
Eikenweg,63,,,7825VC,Emmen,Emmen,Drenthe,VBO,6.906557,52.748082
Olivier Van Noortstraat,2,,,7825VD,Emmen,Emmen,Drenthe,VBO,6.932068,52.755762
Olivier Van Noortstraat,8,,,7825VD,Emmen,Emmen,Drenthe,VBO,6.929006,52.755056
Olivier Van Noortstraat,9,,,7825VD,Emmen,Emmen,Drenthe,VBO,6.931367,52.754378
Olivier Van Noortstraat,10,A,,7825VD,Emmen,Emmen,Drenthe,VBO,6.929498,52.754726
Olivier Van Noortstraat,10,,,7825VD,Emmen,Emmen,Drenthe,VBO,6.929544,52.754761
Olivier Van Noortstraat,11,,,7825VD,Emmen,Emmen,Drenthe,VBO,6.931465,52.754206
Olivier Van Noortstraat,12,A,,7825VD,Emmen,Emmen,Drenthe,VBO,6.929758,52.754543
Olivier Van Noortstraat,12,B,,7825VD,Emmen,Emmen,Drenthe,VBO,6.929823,52.754585
Olivier Van Noortstraat,12,,,7825VD,Emmen,Emmen,Drenthe,VBO,6.929716,52.754606
Olivier Van Noortstraat,13,,,7825VD,Emmen,Emmen,Drenthe,VBO,6.931799,52.754013
Olivier Van Noortstraat,14,,,7825VD,Emmen,Emmen,Drenthe,VBO,6.930154,52.754439
Olivier Van Noortstraat,16,,,7825VD,Emmen,Emmen,Drenthe,VBO,6.930501,52.754192
Olivier Van Noortstraat,17,A,,7825VD,Emmen,Emmen,Drenthe,VBO,6.932190,52.753756
Olivier Van Noortstraat,17,,TR,7825VD,Emmen,Emmen,Drenthe,VBO,6.931938,52.753769
Olivier Van Noortstraat,17,,,7825VD,Emmen,Emmen,Drenthe,VBO,6.932233,52.753720
Olivier Van Noortstraat,18,,,7825VD,Emmen,Emmen,Drenthe,VBO,6.931040,52.753915
Olivier Van Noortstraat,22,,,7825VD,Emmen,Emmen,Drenthe,VBO,6.931210,52.753715
Olivier Van Noortstraat,26,,,7825VD,Emmen,Emmen,Drenthe,VBO,6.931551,52.753467
Olivier Van Noortstraat,28,,,7825VD,Emmen,Emmen,Drenthe,VBO,6.930956,52.753215
Pieter De Keyserstraat,1,,,7825VE,Emmen,Emmen,Drenthe,VBO,6.929472,52.758214
Pieter De Keyserstraat,3,,,7825VE,Emmen,Emmen,Drenthe,VBO,6.928824,52.757881
Pieter De Keyserstraat,4,,,7825VE,Emmen,Emmen,Drenthe,VBO,6.927523,52.758392
Pieter De Keyserstraat,6,,,7825VE,Emmen,Emmen,Drenthe,VBO,6.926474,52.758037
Pieter De Keyserstraat,8,,,7825VE,Emmen,Emmen,Drenthe,VBO,6.925280,52.757810
Pieter De Keyserstraat,10,,,7825VE,Emmen,Emmen,Drenthe,VBO,6.924326,52.757624
Pieter De Keyserstraat,11,A,,7825VE,Emmen,Emmen,Drenthe,VBO,6.926216,52.756803
Pieter De Keyserstraat,11,,,7825VE,Emmen,Emmen,Drenthe,VBO,6.926084,52.756660
Pieter De Keyserstraat,12,,,7825VE,Emmen,Emmen,Drenthe,VBO,6.923709,52.755673
Pieter De Keyserstraat,14,,,7825VE,Emmen,Emmen,Drenthe,VBO,6.924641,52.756047
Pieter De Keyserstraat,17,,TR,7825VE,Emmen,Emmen,Drenthe,VBO,6.925677,52.756016
Pieter De Keyserstraat,17,,,7825VE,Emmen,Emmen,Drenthe,VBO,6.926333,52.755720
Pieter De Keyserstraat,18,,,7825VE,Emmen,Emmen,Drenthe,VBO,6.925463,52.755416
Pieter De Keyserstraat,19,,,7825VE,Emmen,Emmen,Drenthe,VBO,6.926961,52.755460
Pieter De Keyserstraat,21,,,7825VE,Emmen,Emmen,Drenthe,VBO,6.927571,52.755120
Cornelis Houtmanstraat,6,A,,7825VG,Emmen,Emmen,Drenthe,VBO,6.928758,52.756259
Cornelis Houtmanstraat,6,B,,7825VG,Emmen,Emmen,Drenthe,VBO,6.928385,52.756349
Cornelis Houtmanstraat,6,C,,7825VG,Emmen,Emmen,Drenthe,VBO,6.928931,52.756156
Cornelis Houtmanstraat,6,D,,7825VG,Emmen,Emmen,Drenthe,VBO,6.929037,52.756116
Cornelis Houtmanstraat,6,,TC,7825VG,Emmen,Emmen,Drenthe,VBO,6.930623,52.756694
Cornelis Houtmanstraat,6,,TR,7825VG,Emmen,Emmen,Drenthe,VBO,6.930815,52.756785
Cornelis Houtmanstraat,6,,,7825VG,Emmen,Emmen,Drenthe,VBO,6.929273,52.756048
Cornelis Houtmanstraat,8,A,,7825VG,Emmen,Emmen,Drenthe,VBO,6.927659,52.755945
Cornelis Houtmanstraat,8,B,,7825VG,Emmen,Emmen,Drenthe,VBO,6.928024,52.755770
Cornelis Houtmanstraat,10,,,7825VG,Emmen,Emmen,Drenthe,VBO,6.928340,52.755496
Cornelis Houtmanstraat,14,,,7825VG,Emmen,Emmen,Drenthe,VBO,6.921852,52.753423
Cornelis Houtmanstraat,24,,,7825VG,Emmen,Emmen,Drenthe,VBO,6.921055,52.753082
Cornelis Houtmanstraat,26,,,7825VG,Emmen,Emmen,Drenthe,VBO,6.920564,52.752999
Cornelis Houtmanstraat,28,,,7825VG,Emmen,Emmen,Drenthe,VBO,6.920395,52.752821
Cornelis Houtmanstraat,30,,TR,7825VG,Emmen,Emmen,Drenthe,VBO,6.919999,52.752530
Cornelis Houtmanstraat,36,,,7825VG,Emmen,Emmen,Drenthe,VBO,6.919511,52.752536
Cornelis Houtmanstraat,38,,,7825VG,Emmen,Emmen,Drenthe,VBO,6.918767,52.752447
Cornelis Houtmanstraat,42,,,7825VG,Emmen,Emmen,Drenthe,VBO,6.917993,52.752340
Cornelis Houtmanstraat,5,,,7825VH,Emmen,Emmen,Drenthe,VBO,6.930955,52.754878
Cornelis Houtmanstraat,7,,,7825VH,Emmen,Emmen,Drenthe,VBO,6.930202,52.755364
Cornelis Houtmanstraat,13,,,7825VH,Emmen,Emmen,Drenthe,VBO,6.928585,52.754468
Cornelis Houtmanstraat,15,,,7825VH,Emmen,Emmen,Drenthe,VBO,6.928791,52.754421
Cornelis Houtmanstraat,33,,,7825VH,Emmen,Emmen,Drenthe,VBO,6.922464,52.752687
Cornelis Houtmanstraat,37,,,7825VH,Emmen,Emmen,Drenthe,VBO,6.921745,52.752471
Cornelis Houtmanstraat,39,,,7825VH,Emmen,Emmen,Drenthe,VBO,6.921354,52.752315
Cornelis Houtmanstraat,41,A,,7825VH,Emmen,Emmen,Drenthe,VBO,6.921095,52.752084
Cornelis Houtmanstraat,41,B,,7825VH,Emmen,Emmen,Drenthe,VBO,6.921150,52.751985
Cornelis Houtmanstraat,41,,,7825VH,Emmen,Emmen,Drenthe,VBO,6.920981,52.752239
Cornelis Houtmanstraat,43,,,7825VH,Emmen,Emmen,Drenthe,VBO,6.919867,52.751714
Cornelis Houtmanstraat,45,,,7825VH,Emmen,Emmen,Drenthe,VBO,6.919185,52.751713
Cornelis Houtmanstraat,47,A,,7825VH,Emmen,Emmen,Drenthe,VBO,6.918767,52.751611
Cornelis Houtmanstraat,47,,,7825VH,Emmen,Emmen,Drenthe,VBO,6.918767,52.751611
Cornelis Houtmanstraat,49,,,7825VH,Emmen,Emmen,Drenthe,VBO,6.918468,52.751516
Vasco da Gamastraat,6,,,7825VJ,Emmen,Emmen,Drenthe,VBO,6.915336,52.754834
Vasco da Gamastraat,8,,,7825VJ,Emmen,Emmen,Drenthe,VBO,6.915564,52.754897
Vasco da Gamastraat,10,,,7825VJ,Emmen,Emmen,Drenthe,VBO,6.915934,52.754892
Vasco da Gamastraat,12,,,7825VJ,Emmen,Emmen,Drenthe,VBO,6.916176,52.755042
Vasco da Gamastraat,13,,,7825VJ,Emmen,Emmen,Drenthe,VBO,6.916700,52.756051
Vasco da Gamastraat,14,,,7825VJ,Emmen,Emmen,Drenthe,VBO,6.916533,52.755091
Vasco da Gamastraat,18,,TR,7825VJ,Emmen,Emmen,Drenthe,VBO,6.917471,52.755636
Vasco da Gamastraat,18,,,7825VJ,Emmen,Emmen,Drenthe,VBO,6.917149,52.755317
Vasco da Gamastraat,21,,,7825VJ,Emmen,Emmen,Drenthe,VBO,6.918543,52.756647
Vasco da Gamastraat,22,,,7825VJ,Emmen,Emmen,Drenthe,VBO,6.918315,52.755634
Vasco da Gamastraat,27,,,7825VJ,Emmen,Emmen,Drenthe,VBO,6.919337,52.756907
Vasco da Gamastraat,30,,,7825VJ,Emmen,Emmen,Drenthe,VBO,6.919270,52.755820
Vasco da Gamastraat,33,,,7825VJ,Emmen,Emmen,Drenthe,VBO,6.920465,52.756946
Magelhaenstraat,2,,,7825VK,Emmen,Emmen,Drenthe,VBO,6.917011,52.752649
Magelhaenstraat,4,,,7825VK,Emmen,Emmen,Drenthe,VBO,6.917593,52.752759
Magelhaenstraat,6,,,7825VK,Emmen,Emmen,Drenthe,VBO,6.918079,52.752689
Magelhaenstraat,10,,,7825VK,Emmen,Emmen,Drenthe,VBO,6.918336,52.752830
Magelhaenstraat,16,A,,7825VK,Emmen,Emmen,Drenthe,VBO,6.918719,52.753211
Magelhaenstraat,16,,,7825VK,Emmen,Emmen,Drenthe,VBO,6.918746,52.753139
Magelhaenstraat,18,,,7825VK,Emmen,Emmen,Drenthe,VBO,6.919671,52.753325
Magelhaenstraat,22,,,7825VK,Emmen,Emmen,Drenthe,VBO,6.920193,52.753417
Magelhaenstraat,1,,,7825VL,Emmen,Emmen,Drenthe,VBO,6.916663,52.753292
Magelhaenstraat,5,,,7825VL,Emmen,Emmen,Drenthe,VBO,6.917261,52.753455
Magelhaenstraat,15,,TR,7825VL,Emmen,Emmen,Drenthe,VBO,6.919181,52.753691
Magelhaenstraat,15,,,7825VL,Emmen,Emmen,Drenthe,VBO,6.918768,52.753750
Magelhaenstraat,21,A,,7825VL,Emmen,Emmen,Drenthe,VBO,6.919611,52.754135
Magelhaenstraat,21,,,7825VL,Emmen,Emmen,Drenthe,VBO,6.919352,52.753940
Magelhaenstraat,23,,,7825VL,Emmen,Emmen,Drenthe,VBO,6.920294,52.754180
Magelhaenstraat,27,,,7825VL,Emmen,Emmen,Drenthe,VBO,6.920942,52.754486
Marco Polostraat,1,,,7825VM,Emmen,Emmen,Drenthe,VBO,6.915663,52.754202
Marco Polostraat,2,,,7825VM,Emmen,Emmen,Drenthe,VBO,6.915891,52.753670
Marco Polostraat,4,,,7825VM,Emmen,Emmen,Drenthe,VBO,6.916232,52.753684
Marco Polostraat,6,A,,7825VM,Emmen,Emmen,Drenthe,VBO,6.917025,52.753678
Marco Polostraat,6,,,7825VM,Emmen,Emmen,Drenthe,VBO,6.916772,52.753970
Marco Polostraat,7,,,7825VM,Emmen,Emmen,Drenthe,VBO,6.916740,52.754639
Marco Polostraat,10,A,,7825VM,Emmen,Emmen,Drenthe,VBO,6.917444,52.754019
Marco Polostraat,10,,,7825VM,Emmen,Emmen,Drenthe,VBO,6.917219,52.753932
Marco Polostraat,11,,TR,7825VM,Emmen,Emmen,Drenthe,VBO,6.917971,52.754686
Marco Polostraat,11,,,7825VM,Emmen,Emmen,Drenthe,VBO,6.917496,52.754665
Marco Polostraat,12,,,7825VM,Emmen,Emmen,Drenthe,VBO,6.918106,52.754298
Marco Polostraat,14,,,7825VM,Emmen,Emmen,Drenthe,VBO,6.918791,52.754406
Marco Polostraat,16,,,7825VM,Emmen,Emmen,Drenthe,VBO,6.919282,52.754481
Marco Polostraat,20,,,7825VM,Emmen,Emmen,Drenthe,VBO,6.919613,52.754620
Marco Polostraat,26,,,7825VM,Emmen,Emmen,Drenthe,VBO,6.920277,52.754962
Marco Polostraat,27,,,7825VM,Emmen,Emmen,Drenthe,VBO,6.919445,52.755332
Bartholomeus Diasstraat,6,,,7825VN,Emmen,Emmen,Drenthe,VBO,6.922211,52.756456
Bartholomeus Diasstraat,8,,,7825VN,Emmen,Emmen,Drenthe,VBO,6.921315,52.757528
Bartholomeus Diasstraat,9,,,7825VN,Emmen,Emmen,Drenthe,VBO,6.920260,52.757434
Bartholomeus Diasstraat,10,,,7825VN,Emmen,Emmen,Drenthe,VBO,6.920135,52.758946
Columbusstraat,1,A,,7825VP,Emmen,Emmen,Drenthe,VBO,6.921866,52.753529
Columbusstraat,1,,,7825VP,Emmen,Emmen,Drenthe,VBO,6.921272,52.753763
Columbusstraat,7,,,7825VP,Emmen,Emmen,Drenthe,VBO,6.920704,52.754885
Columbusstraat,17,,,7825VP,Emmen,Emmen,Drenthe,VBO,6.917570,52.757630
Columbusstraat,19,,,7825VP,Emmen,Emmen,Drenthe,VBO,6.917904,52.757428
Columbusstraat,25,,,7825VP,Emmen,Emmen,Drenthe,VBO,6.917879,52.759703
Columbusstraat,2,,,7825VR,Emmen,Emmen,Drenthe,VBO,6.923111,52.753398
Columbusstraat,4,,,7825VR,Emmen,Emmen,Drenthe,VBO,6.922649,52.753745
Columbusstraat,8,,,7825VR,Emmen,Emmen,Drenthe,VBO,6.922766,52.754130
Columbusstraat,12,,,7825VR,Emmen,Emmen,Drenthe,VBO,6.922204,52.754578
Columbusstraat,14,,,7825VR,Emmen,Emmen,Drenthe,VBO,6.921903,52.754851
Columbusstraat,20,,,7825VR,Emmen,Emmen,Drenthe,VBO,6.920100,52.755845
Columbusstraat,28,,,7825VR,Emmen,Emmen,Drenthe,VBO,6.918805,52.757767
Columbusstraat,30,,,7825VR,Emmen,Emmen,Drenthe,VBO,6.918380,52.758348
Columbusstraat,32,,,7825VR,Emmen,Emmen,Drenthe,VBO,6.918153,52.758621
Karel Doormanstraat,1,A,,7825VS,Emmen,Emmen,Drenthe,VBO,6.935550,52.755671
Karel Doormanstraat,1,B,,7825VS,Emmen,Emmen,Drenthe,VBO,6.935739,52.755779
Karel Doormanstraat,1,C,,7825VS,Emmen,Emmen,Drenthe,VBO,6.935930,52.755881
Karel Doormanstraat,1,D,,7825VS,Emmen,Emmen,Drenthe,VBO,6.936181,52.755945
Karel Doormanstraat,1,,,7825VS,Emmen,Emmen,Drenthe,VBO,6.935304,52.755505
Karel Doormanstraat,9,,,7825VS,Emmen,Emmen,Drenthe,VBO,6.936633,52.758337
Karel Doormanstraat,15,,,7825VS,Emmen,Emmen,Drenthe,VBO,6.937150,52.758707
Karel Doormanstraat,4,B,,7825VT,Emmen,Emmen,Drenthe,VBO,6.936729,52.757311
Karel Doormanstraat,4,,,7825VT,Emmen,Emmen,Drenthe,VBO,6.936504,52.757197
Willem Schoutenstraat,1,,,7825VV,Emmen,Emmen,Drenthe,VBO,6.933467,52.753434
Willem Schoutenstraat,2,,,7825VV,Emmen,Emmen,Drenthe,VBO,6.932429,52.752980
Willem Schoutenstraat,3,,,7825VV,Emmen,Emmen,Drenthe,VBO,6.933953,52.752943
Willem Schoutenstraat,4,,,7825VV,Emmen,Emmen,Drenthe,VBO,6.932896,52.752786
Willem Schoutenstraat,5,,,7825VV,Emmen,Emmen,Drenthe,VBO,6.934341,52.752708
Willem Schoutenstraat,6,,,7825VV,Emmen,Emmen,Drenthe,VBO,6.933241,52.752475
Willem Schoutenstraat,7,,,7825VV,Emmen,Emmen,Drenthe,VBO,6.934859,52.752580
Willem Schoutenstraat,8,,,7825VV,Emmen,Emmen,Drenthe,VBO,6.933679,52.752317
Willem Schoutenstraat,9,,,7825VV,Emmen,Emmen,Drenthe,VBO,6.935011,52.752282
Willem Schoutenstraat,10,,,7825VV,Emmen,Emmen,Drenthe,VBO,6.934039,52.751998
Willem Schoutenstraat,11,A,,7825VV,Emmen,Emmen,Drenthe,VBO,6.935533,52.751969
Willem Schoutenstraat,11,B,,7825VV,Emmen,Emmen,Drenthe,VBO,6.935636,52.751923
Willem Schoutenstraat,11,C,,7825VV,Emmen,Emmen,Drenthe,VBO,6.935710,52.751861
Willem Schoutenstraat,11,,,7825VV,Emmen,Emmen,Drenthe,VBO,6.935452,52.752121
Willem Schoutenstraat,12,,,7825VV,Emmen,Emmen,Drenthe,VBO,6.934381,52.751616
Willem Schoutenstraat,13,,TR,7825VV,Emmen,Emmen,Drenthe,VBO,6.936221,52.751543
Willem Schoutenstraat,13,,,7825VV,Emmen,Emmen,Drenthe,VBO,6.936040,52.751612
Willem Schoutenstraat,14,,,7825VV,Emmen,Emmen,Drenthe,VBO,6.934808,52.751547
Willem Schoutenstraat,15,,,7825VV,Emmen,Emmen,Drenthe,VBO,6.937441,52.751028
Willem Schoutenstraat,17,A,,7825VV,Emmen,Emmen,Drenthe,VBO,6.937507,52.750935
Willem Schoutenstraat,17,,,7825VV,Emmen,Emmen,Drenthe,VBO,6.937616,52.750868
Willem Schoutenstraat,19,,,7825VV,Emmen,Emmen,Drenthe,VBO,6.937880,52.750456
Willem Schoutenstraat,20,,,7825VV,Emmen,Emmen,Drenthe,VBO,6.935429,52.751079
Willem Schoutenstraat,24,,,7825VV,Emmen,Emmen,Drenthe,VBO,6.936447,52.750564
Willem Schoutenstraat,26,,,7825VV,Emmen,Emmen,Drenthe,VBO,6.937047,52.749954
Willem Schoutenstraat,28,,,7825VV,Emmen,Emmen,Drenthe,VBO,6.937822,52.749665
Jacob Roggeveenstraat,4,,,7825VW,Emmen,Emmen,Drenthe,VBO,6.936797,52.752079
Jacob Roggeveenstraat,6,,,7825VW,Emmen,Emmen,Drenthe,VBO,6.936270,52.751861
Jacob Roggeveenstraat,3,,,7825VX,Emmen,Emmen,Drenthe,VBO,6.937445,52.751549
Jacob Roggeveenstraat,5,,,7825VX,Emmen,Emmen,Drenthe,VBO,6.936664,52.751254
Willem Barentszstraat,1,,,7825VZ,Emmen,Emmen,Drenthe,VBO,6.940728,52.749818
Willem Barentszstraat,4,,,7825VZ,Emmen,Emmen,Drenthe,VBO,6.938802,52.750138
Willem Barentszstraat,5,,,7825VZ,Emmen,Emmen,Drenthe,VBO,6.939756,52.749487
Willem Barentszstraat,6,,,7825VZ,Emmen,Emmen,Drenthe,VBO,6.937959,52.749521
Willem Barentszstraat,7,A,,7825VZ,Emmen,Emmen,Drenthe,VBO,6.938530,52.749082
Willem Barentszstraat,7,B,,7825VZ,Emmen,Emmen,Drenthe,VBO,6.938483,52.749082
Willem Barentszstraat,7,C,,7825VZ,Emmen,Emmen,Drenthe,VBO,6.938572,52.748992
Willem Barentszstraat,7,D,,7825VZ,Emmen,Emmen,Drenthe,VBO,6.938667,52.748919
Willem Barentszstraat,7,E,,7825VZ,Emmen,Emmen,Drenthe,VBO,6.938763,52.748838
Willem Barentszstraat,7,F,,7825VZ,Emmen,Emmen,Drenthe,VBO,6.938866,52.748788
Willem Barentszstraat,7,G,,7825VZ,Emmen,Emmen,Drenthe,VBO,6.938967,52.748721
Willem Barentszstraat,7,H,,7825VZ,Emmen,Emmen,Drenthe,VBO,6.939045,52.748661
Willem Barentszstraat,7,K,,7825VZ,Emmen,Emmen,Drenthe,VBO,6.939210,52.748729
Willem Barentszstraat,7,L,,7825VZ,Emmen,Emmen,Drenthe,VBO,6.939112,52.748799
Willem Barentszstraat,7,M,,7825VZ,Emmen,Emmen,Drenthe,VBO,6.939035,52.748872
Willem Barentszstraat,7,N,,7825VZ,Emmen,Emmen,Drenthe,VBO,6.938936,52.748934
Willem Barentszstraat,7,P,,7825VZ,Emmen,Emmen,Drenthe,VBO,6.938851,52.749003
Willem Barentszstraat,7,Q,,7825VZ,Emmen,Emmen,Drenthe,VBO,6.938710,52.749065
Willem Barentszstraat,7,,,7825VZ,Emmen,Emmen,Drenthe,VBO,6.938639,52.749139
Willem Barentszstraat,9,,,7825VZ,Emmen,Emmen,Drenthe,VBO,6.938187,52.748897
Willem Barentszstraat,11,,,7825VZ,Emmen,Emmen,Drenthe,VBO,6.938014,52.748802
Willem Barentszstraat,12,,,7825VZ,Nieuw-Dordrecht,Emmen,Drenthe,VBO,6.936965,52.749253
Willem Barentszstraat,13,,,7825VZ,Emmen,Emmen,Drenthe,VBO,6.938145,52.748743
Willem Barentszstraat,15,,,7825VZ,Emmen,Emmen,Drenthe,VBO,6.938238,52.748665
Willem Barentszstraat,17,,,7825VZ,Emmen,Emmen,Drenthe,VBO,6.938324,52.748602
Willem Barentszstraat,19,,,7825VZ,Emmen,Emmen,Drenthe,VBO,6.938456,52.748530
Willem Barentszstraat,21,,,7825VZ,Emmen,Emmen,Drenthe,VBO,6.938578,52.748464
Willem Barentszstraat,23,,,7825VZ,Emmen,Emmen,Drenthe,VBO,6.937531,52.748537
Willem Barentszstraat,25,,,7825VZ,Emmen,Emmen,Drenthe,VBO,6.937349,52.748440
Willem Barentszstraat,27,,,7825VZ,Emmen,Emmen,Drenthe,VBO,6.937945,52.748109
Willem Barentszstraat,29,,,7825VZ,Emmen,Emmen,Drenthe,VBO,6.937511,52.748393
Willem Barentszstraat,31,,,7825VZ,Emmen,Emmen,Drenthe,VBO,6.937627,52.748320
Willem Barentszstraat,33,,,7825VZ,Emmen,Emmen,Drenthe,VBO,6.937712,52.748229
Willem Barentszstraat,35,,,7825VZ,Emmen,Emmen,Drenthe,VBO,6.937828,52.748164
Oosterveldsestraat,12,,,7825WB,Emmen,Emmen,Drenthe,VBO,6.946973,52.771639
Oosterveldsestraat,14,,,7825WB,Emmen,Emmen,Drenthe,VBO,6.947146,52.771493
Oosterveldsestraat,16,,,7825WB,Emmen,Emmen,Drenthe,VBO,6.947454,52.771390
Oosterveldsestraat,26,,,7825WB,Emmen,Emmen,Drenthe,VBO,6.948082,52.771130
Oosterveldsestraat,28,,,7825WB,Emmen,Emmen,Drenthe,VBO,6.948329,52.771010
Jacob le Mairestraat,231,,,7825XE,Emmen,Emmen,Drenthe,VBO,6.919322,52.763544
Jacob le Mairestraat,233,,,7825XE,Emmen,Emmen,Drenthe,VBO,6.918567,52.763440
Jacob le Mairestraat,239,,,7825XE,Emmen,Emmen,Drenthe,VBO,6.918674,52.762573
Jacob le Mairestraat,241,,,7825XE,Emmen,Emmen,Drenthe,VBO,6.918470,52.762526
Jacob le Mairestraat,243,,,7825XE,Emmen,Emmen,Drenthe,VBO,6.918151,52.763232
Jacob le Mairestraat,245,,,7825XE,Emmen,Emmen,Drenthe,VBO,6.917210,52.763258
Jacob le Mairestraat,253,,,7825XE,Emmen,Emmen,Drenthe,VBO,6.917781,52.762536
Jacob le Mairestraat,255,,,7825XE,Emmen,Emmen,Drenthe,VBO,6.918051,52.762376
Jacob le Mairestraat,257,,,7825XE,Emmen,Emmen,Drenthe,VBO,6.917837,52.762294
Jacob le Mairestraat,275,,,7825XG,Emmen,Emmen,Drenthe,VBO,6.914762,52.762408
Jacob le Mairestraat,289,,,7825XG,Emmen,Emmen,Drenthe,VBO,6.916578,52.761958
Jacob le Mairestraat,291,,,7825XG,Emmen,Emmen,Drenthe,VBO,6.917143,52.761689
Jacob le Mairestraat,10,,,7825XH,Emmen,Emmen,Drenthe,VBO,6.919281,52.762272
