openbareruimtenaam,huisnummer,huisletter,huisnummertoevoeging,postcode,woonplaatsnaam,gemeentenaam,provincienaam,typeadresseerbaarobject,longitude,latitude
Havenstraat,1,,,7848AA,Schoonoord,Coevorden,Drenthe,VBO,6.757091,52.846728
Havenstraat,3,,,7848AA,Schoonoord,Coevorden,Drenthe,VBO,6.757322,52.846808
Havenstraat,4,,,7848AA,Schoonoord,Coevorden,Drenthe,VBO,6.757521,52.846867
Havenstraat,5,,,7848AA,Schoonoord,Coevorden,Drenthe,VBO,6.757622,52.846900
Havenstraat,6,,,7848AA,Schoonoord,Coevorden,Drenthe,VBO,6.757838,52.847003
Havenstraat,7,,,7848AA,Schoonoord,Coevorden,Drenthe,VBO,6.758007,52.847020
Havenstraat,8,,,7848AA,Schoonoord,Coevorden,Drenthe,VBO,6.758115,52.847070
Havenstraat,9,,,7848AA,Schoonoord,Coevorden,Drenthe,VBO,6.758337,52.847118
Havenstraat,10,,,7848AA,Schoonoord,Coevorden,Drenthe,VBO,6.758504,52.847163
Havenstraat,11,,,7848AA,Schoonoord,Coevorden,Drenthe,VBO,6.758668,52.847225
Havenstraat,12,a,,7848AA,Schoonoord,Coevorden,Drenthe,VBO,6.759060,52.847368
Havenstraat,12,,,7848AA,Schoonoord,Coevorden,Drenthe,VBO,6.758842,52.847324
Havenstraat,13,,,7848AA,Schoonoord,Coevorden,Drenthe,VBO,6.759222,52.847458
Havenstraat,15,,,7848AA,Schoonoord,Coevorden,Drenthe,VBO,6.759409,52.847658
Havenstraat,18,,,7848AA,Schoonoord,Coevorden,Drenthe,VBO,6.759831,52.847909
Havenstraat,19,,,7848AA,Schoonoord,Coevorden,Drenthe,VBO,6.760254,52.848023
Havenstraat,20,a,,7848AA,Schoonoord,Coevorden,Drenthe,VBO,6.761010,52.848204
Havenstraat,20,b,,7848AA,Schoonoord,Coevorden,Drenthe,VBO,6.761416,52.848601
Havenstraat,20,,,7848AA,Schoonoord,Coevorden,Drenthe,VBO,6.760926,52.848182
Havenstraat,21,,,7848AA,Schoonoord,Coevorden,Drenthe,VBO,6.761972,52.848608
Havenstraat,22,,,7848AA,Schoonoord,Coevorden,Drenthe,VBO,6.762652,52.848928
Havenstraat,23,,,7848AA,Schoonoord,Coevorden,Drenthe,VBO,6.763842,52.849379
Kerklaan,2,,,7848AB,Schoonoord,Coevorden,Drenthe,VBO,6.757770,52.846078
Kerklaan,3,,,7848AB,Schoonoord,Coevorden,Drenthe,VBO,6.757881,52.846131
Kerklaan,4,,,7848AB,Schoonoord,Coevorden,Drenthe,VBO,6.757981,52.846180
Kerklaan,5,,,7848AB,Schoonoord,Coevorden,Drenthe,VBO,6.758444,52.845722
Kerklaan,7,,,7848AB,Schoonoord,Coevorden,Drenthe,VBO,6.758221,52.846243
Kerklaan,9,a,,7848AB,Schoonoord,Coevorden,Drenthe,VBO,6.758697,52.846068
Kerklaan,9,b,,7848AB,Schoonoord,Coevorden,Drenthe,VBO,6.758802,52.846014
Kerklaan,9,c,,7848AB,Schoonoord,Coevorden,Drenthe,VBO,6.758913,52.845883
Kerklaan,9,,,7848AB,Schoonoord,Coevorden,Drenthe,VBO,6.758668,52.846155
Kerklaan,11,,,7848AB,Schoonoord,Coevorden,Drenthe,VBO,6.759175,52.846589
Kerklaan,12,,ACHT,7848AB,Schoonoord,Coevorden,Drenthe,VBO,6.759661,52.846407
Kerklaan,12,,,7848AB,Schoonoord,Coevorden,Drenthe,VBO,6.759344,52.846686
Kerklaan,14,,,7848AB,Schoonoord,Coevorden,Drenthe,VBO,6.759854,52.846815
Kerklaan,15,,,7848AB,Schoonoord,Coevorden,Drenthe,VBO,6.759938,52.846727
Kerklaan,16,,,7848AB,Schoonoord,Coevorden,Drenthe,VBO,6.760159,52.846803
Kerklaan,17,,,7848AB,Schoonoord,Coevorden,Drenthe,VBO,6.760403,52.846916
Kerklaan,19,,,7848AB,Schoonoord,Coevorden,Drenthe,VBO,6.760481,52.847216
Kerklaan,20,a,,7848AB,Schoonoord,Coevorden,Drenthe,VBO,6.760682,52.847287
Kerklaan,21,a,,7848AB,Schoonoord,Coevorden,Drenthe,VBO,6.761022,52.847432
Kerklaan,21,,,7848AB,Schoonoord,Coevorden,Drenthe,VBO,6.760831,52.847361
Kerklaan,22,,,7848AB,Schoonoord,Coevorden,Drenthe,VBO,6.761259,52.847569
Kerklaan,23,,,7848AC,Schoonoord,Coevorden,Drenthe,VBO,6.761449,52.847598
Kerklaan,24,,,7848AC,Schoonoord,Coevorden,Drenthe,VBO,6.761631,52.847685
Kerklaan,26,,,7848AC,Schoonoord,Coevorden,Drenthe,VBO,6.761978,52.847817
Kerklaan,27,,,7848AC,Schoonoord,Coevorden,Drenthe,VBO,6.762083,52.847881
Kerklaan,28,,,7848AC,Schoonoord,Coevorden,Drenthe,VBO,6.762259,52.847935
Kerklaan,29,,,7848AC,Schoonoord,Coevorden,Drenthe,VBO,6.762472,52.847867
Kerklaan,30,,,7848AC,Schoonoord,Coevorden,Drenthe,VBO,6.762522,52.848120
Kerklaan,31,a,,7848AC,Schoonoord,Coevorden,Drenthe,VBO,6.762743,52.848205
Kerklaan,31,,,7848AC,Schoonoord,Coevorden,Drenthe,VBO,6.762681,52.848179
Kerklaan,32,,,7848AC,Schoonoord,Coevorden,Drenthe,VBO,6.762885,52.848278
Kerklaan,33,,,7848AC,Schoonoord,Coevorden,Drenthe,VBO,6.763158,52.848363
Kerklaan,35,,,7848AC,Schoonoord,Coevorden,Drenthe,VBO,6.763660,52.848416
Kerklaan,36,,,7848AC,Schoonoord,Coevorden,Drenthe,VBO,6.763778,52.848534
Kerklaan,37,,,7848AC,Schoonoord,Coevorden,Drenthe,VBO,6.764032,52.848723
Kerklaan,38,,,7848AC,Schoonoord,Coevorden,Drenthe,VBO,6.764333,52.848822
Kerklaan,39,a,,7848AC,Schoonoord,Coevorden,Drenthe,VBO,6.764972,52.848773
Kerklaan,39,,,7848AC,Schoonoord,Coevorden,Drenthe,VBO,6.764600,52.848759
Kerklaan,40,,,7848AC,Schoonoord,Coevorden,Drenthe,VBO,6.764893,52.849030
Kerklaan,41,,,7848AC,Schoonoord,Coevorden,Drenthe,VBO,6.765050,52.849174
Kerklaan,42,,,7848AC,Schoonoord,Coevorden,Drenthe,VBO,6.765445,52.849375
Kerklaan,43,,,7848AC,Schoonoord,Coevorden,Drenthe,VBO,6.765924,52.849572
Slenerweg,1,a,,7848AD,Schoonoord,Coevorden,Drenthe,VBO,6.757553,52.845789
Slenerweg,1,,,7848AD,Schoonoord,Coevorden,Drenthe,VBO,6.757354,52.845952
Slenerweg,3,,,7848AD,Schoonoord,Coevorden,Drenthe,VBO,6.757558,52.845629
Slenerweg,5,,,7848AD,Schoonoord,Coevorden,Drenthe,VBO,6.757605,52.845529
Slenerweg,7,,,7848AD,Schoonoord,Coevorden,Drenthe,VBO,6.757719,52.845391
Slenerweg,9,,,7848AD,Schoonoord,Coevorden,Drenthe,VBO,6.757759,52.845279
Slenerweg,11,,,7848AD,Schoonoord,Coevorden,Drenthe,VBO,6.757800,52.845167
Slenerweg,13,,,7848AD,Schoonoord,Coevorden,Drenthe,VBO,6.757923,52.845029
Slenerweg,17,,,7848AD,Schoonoord,Coevorden,Drenthe,VBO,6.758059,52.844895
Slenerweg,19,,,7848AD,Schoonoord,Coevorden,Drenthe,VBO,6.758111,52.844830
Slenerweg,23,,,7848AD,Schoonoord,Coevorden,Drenthe,VBO,6.758229,52.844672
Slenerweg,25,,,7848AD,Schoonoord,Coevorden,Drenthe,VBO,6.758417,52.844503
Slenerweg,27,,,7848AD,Schoonoord,Coevorden,Drenthe,VBO,6.758515,52.844271
Slenerweg,29,,,7848AD,Schoonoord,Coevorden,Drenthe,VBO,6.758640,52.844131
Slenerweg,31,,,7848AD,Schoonoord,Coevorden,Drenthe,VBO,6.758672,52.843946
Slenerweg,33,,,7848AD,Schoonoord,Coevorden,Drenthe,VBO,6.758834,52.843724
Slenerweg,35,a,,7848AD,Schoonoord,Coevorden,Drenthe,VBO,6.759003,52.843525
Slenerweg,35,,,7848AD,Schoonoord,Coevorden,Drenthe,VBO,6.758875,52.843702
Slenerweg,37,,,7848AD,Schoonoord,Coevorden,Drenthe,VBO,6.759142,52.843354
Slenerweg,39,,,7848AD,Schoonoord,Coevorden,Drenthe,VBO,6.759189,52.843181
Slenerweg,41,,,7848AD,Schoonoord,Coevorden,Drenthe,VBO,6.759282,52.842985
Slenerweg,43,,,7848AD,Schoonoord,Coevorden,Drenthe,VBO,6.759411,52.842857
Slenerweg,45,,,7848AD,Schoonoord,Coevorden,Drenthe,VBO,6.759511,52.842688
Slenerweg,47,,,7848AE,Schoonoord,Coevorden,Drenthe,VBO,6.759652,52.842472
Slenerweg,49,,,7848AE,Schoonoord,Coevorden,Drenthe,VBO,6.759914,52.842331
Slenerweg,53,,,7848AE,Schoonoord,Coevorden,Drenthe,VBO,6.760077,52.841961
Slenerweg,55,,,7848AE,Schoonoord,Coevorden,Drenthe,VBO,6.760416,52.841702
Slenerweg,57,,,7848AE,Schoonoord,Coevorden,Drenthe,VBO,6.760623,52.841464
Slenerweg,59,,,7848AE,Schoonoord,Coevorden,Drenthe,VBO,6.760784,52.841175
Slenerweg,63,,,7848AE,Schoonoord,Coevorden,Drenthe,VBO,6.761260,52.840682
Slenerweg,65,,,7848AE,Schoonoord,Coevorden,Drenthe,VBO,6.763347,52.838096
Slenerweg,67,,,7848AE,Schoonoord,Coevorden,Drenthe,VBO,6.764239,52.837052
Slenerweg,69,,BEDR,7848AE,Schoonoord,Coevorden,Drenthe,VBO,6.765319,52.836140
Slenerweg,69,,,7848AE,Schoonoord,Coevorden,Drenthe,VBO,6.765164,52.836083
Slenerweg,73,,BEDR,7848AE,Schoonoord,Coevorden,Drenthe,VBO,6.770297,52.836321
Slenerweg,73,,,7848AE,Schoonoord,Coevorden,Drenthe,VBO,6.769215,52.836099
Slenerweg,75,,,7848AG,Schoonoord,Coevorden,Drenthe,VBO,6.770869,52.829092
Slenerweg,77,,,7848AG,Schoonoord,Coevorden,Drenthe,VBO,6.771234,52.828691
Slenerweg,79,,,7848AG,Schoonoord,Coevorden,Drenthe,VBO,6.771528,52.828278
Slenerweg,81,,,7848AG,Schoonoord,Coevorden,Drenthe,VBO,6.774558,52.824819
Slenerweg,83,a,,7848AG,Schoonoord,Coevorden,Drenthe,VBO,6.776757,52.824837
Slenerweg,83,,01,7848AG,Schoonoord,Coevorden,Drenthe,VBO,6.777275,52.824918
Slenerweg,83,,02,7848AG,Schoonoord,Coevorden,Drenthe,VBO,6.776979,52.825217
Slenerweg,83,,03,7848AG,Schoonoord,Coevorden,Drenthe,VBO,6.777481,52.825253
Slenerweg,83,,04,7848AG,Schoonoord,Coevorden,Drenthe,VBO,6.777984,52.825270
Slenerweg,83,,05,7848AG,Schoonoord,Coevorden,Drenthe,VBO,6.777271,52.825545
Slenerweg,83,,06,7848AG,Schoonoord,Coevorden,Drenthe,VBO,6.777760,52.824999
Slenerweg,83,,07,7848AG,Schoonoord,Coevorden,Drenthe,VBO,6.777807,52.825557
Slenerweg,83,,08,7848AG,Schoonoord,Coevorden,Drenthe,VBO,6.778388,52.825325
Slenerweg,83,,09,7848AG,Schoonoord,Coevorden,Drenthe,VBO,6.777469,52.825778
Slenerweg,83,,10,7848AG,Schoonoord,Coevorden,Drenthe,VBO,6.777815,52.825930
Slenerweg,83,,11,7848AG,Schoonoord,Coevorden,Drenthe,VBO,6.778308,52.825563
Slenerweg,83,,12,7848AG,Schoonoord,Coevorden,Drenthe,VBO,6.778735,52.825500
Slenerweg,83,,13,7848AG,Schoonoord,Coevorden,Drenthe,VBO,6.778628,52.825730
Slenerweg,83,,14,7848AG,Schoonoord,Coevorden,Drenthe,VBO,6.778117,52.825763
Slenerweg,83,,15,7848AG,Schoonoord,Coevorden,Drenthe,VBO,6.778158,52.826123
Slenerweg,83,,16,7848AG,Schoonoord,Coevorden,Drenthe,VBO,6.778572,52.825991
Slenerweg,83,,17,7848AG,Schoonoord,Coevorden,Drenthe,VBO,6.779052,52.825671
Slenerweg,83,,18,7848AG,Schoonoord,Coevorden,Drenthe,VBO,6.778951,52.825883
Slenerweg,83,,19,7848AG,Schoonoord,Coevorden,Drenthe,VBO,6.778454,52.826327
Slenerweg,83,,20,7848AG,Schoonoord,Coevorden,Drenthe,VBO,6.778812,52.826178
Slenerweg,83,,21,7848AG,Schoonoord,Coevorden,Drenthe,VBO,6.779376,52.825840
Slenerweg,83,,22,7848AG,Schoonoord,Coevorden,Drenthe,VBO,6.779692,52.826011
Slenerweg,83,,23,7848AG,Schoonoord,Coevorden,Drenthe,VBO,6.779294,52.826135
Slenerweg,83,,24,7848AG,Schoonoord,Coevorden,Drenthe,VBO,6.778861,52.826466
Slenerweg,83,,25,7848AG,Schoonoord,Coevorden,Drenthe,VBO,6.779203,52.826634
Slenerweg,83,,26,7848AG,Schoonoord,Coevorden,Drenthe,VBO,6.779205,52.826352
Slenerweg,83,,27,7848AG,Schoonoord,Coevorden,Drenthe,VBO,6.779839,52.826265
Slenerweg,83,,28,7848AG,Schoonoord,Coevorden,Drenthe,VBO,6.780218,52.826274
Slenerweg,83,,29,7848AG,Schoonoord,Coevorden,Drenthe,VBO,6.780485,52.826424
Slenerweg,83,,30,7848AG,Schoonoord,Coevorden,Drenthe,VBO,6.780192,52.826639
Slenerweg,83,,31,7848AG,Schoonoord,Coevorden,Drenthe,VBO,6.779870,52.826631
Slenerweg,83,,32,7848AG,Schoonoord,Coevorden,Drenthe,VBO,6.779494,52.826787
Slenerweg,83,,33,7848AG,Schoonoord,Coevorden,Drenthe,VBO,6.779829,52.826930
Slenerweg,83,,34,7848AG,Schoonoord,Coevorden,Drenthe,VBO,6.780275,52.826869
Slenerweg,83,,35,7848AG,Schoonoord,Coevorden,Drenthe,VBO,6.780601,52.826814
Slenerweg,83,,36,7848AG,Schoonoord,Coevorden,Drenthe,VBO,6.780796,52.826597
Slenerweg,83,,37,7848AG,Schoonoord,Coevorden,Drenthe,VBO,6.781114,52.826752
Slenerweg,83,,38,7848AG,Schoonoord,Coevorden,Drenthe,VBO,6.781515,52.826959
Slenerweg,83,,38A,7848AG,Schoonoord,Coevorden,Drenthe,VBO,6.781686,52.827199
Slenerweg,83,,39,7848AG,Schoonoord,Coevorden,Drenthe,VBO,6.781165,52.827068
Slenerweg,83,,40,7848AG,Schoonoord,Coevorden,Drenthe,VBO,6.780550,52.827333
Slenerweg,83,,40A,7848AG,Schoonoord,Coevorden,Drenthe,VBO,6.780858,52.827528
Slenerweg,83,,41,7848AG,Schoonoord,Coevorden,Drenthe,VBO,6.780184,52.827164
Slenerweg,83,,42,7848AG,Schoonoord,Coevorden,Drenthe,VBO,6.781007,52.827282
Slenerweg,83,,42A,7848AG,Schoonoord,Coevorden,Drenthe,VBO,6.781531,52.827448
Slenerweg,83,,43,7848AG,Schoonoord,Coevorden,Drenthe,VBO,6.781188,52.827674
Slenerweg,83,,44,7848AG,Schoonoord,Coevorden,Drenthe,VBO,6.782069,52.827785
Slenerweg,83,,44A,7848AG,Schoonoord,Coevorden,Drenthe,VBO,6.782035,52.827323
Slenerweg,83,,45,7848AG,Schoonoord,Coevorden,Drenthe,VBO,6.781744,52.827999
Slenerweg,83,,46,7848AG,Schoonoord,Coevorden,Drenthe,VBO,6.782090,52.828165
Slenerweg,83,,47,7848AG,Schoonoord,Coevorden,Drenthe,VBO,6.782360,52.827959
Slenerweg,83,,48,7848AG,Schoonoord,Coevorden,Drenthe,VBO,6.782450,52.827718
Slenerweg,83,,49,7848AG,Schoonoord,Coevorden,Drenthe,VBO,6.782390,52.827462
Slenerweg,83,,50,7848AG,Schoonoord,Coevorden,Drenthe,VBO,6.782820,52.827679
Slenerweg,83,,51,7848AG,Schoonoord,Coevorden,Drenthe,VBO,6.783071,52.827898
Slenerweg,83,,52,7848AG,Schoonoord,Coevorden,Drenthe,VBO,6.782827,52.828207
Slenerweg,83,,53,7848AG,Schoonoord,Coevorden,Drenthe,VBO,6.782398,52.828333
Slenerweg,83,,54,7848AG,Schoonoord,Coevorden,Drenthe,VBO,6.782755,52.828519
Slenerweg,83,,55,7848AG,Schoonoord,Coevorden,Drenthe,VBO,6.783161,52.828584
Slenerweg,83,,56,7848AG,Schoonoord,Coevorden,Drenthe,VBO,6.783270,52.828326
Slenerweg,83,,57,7848AG,Schoonoord,Coevorden,Drenthe,VBO,6.783424,52.827975
Slenerweg,83,,58,7848AG,Schoonoord,Coevorden,Drenthe,VBO,6.783607,52.828186
Slenerweg,83,,59,7848AG,Schoonoord,Coevorden,Drenthe,VBO,6.783994,52.828279
Slenerweg,83,,60,7848AG,Schoonoord,Coevorden,Drenthe,VBO,6.784366,52.828478
Slenerweg,83,,61,7848AG,Schoonoord,Coevorden,Drenthe,VBO,6.783651,52.828528
Slenerweg,83,,62,7848AG,Schoonoord,Coevorden,Drenthe,VBO,6.784078,52.828685
Slenerweg,83,,63,7848AG,Schoonoord,Coevorden,Drenthe,VBO,6.783778,52.828892
Slenerweg,83,,64,7848AG,Schoonoord,Coevorden,Drenthe,VBO,6.783381,52.828837
Slenerweg,83,,,7848AG,Schoonoord,Coevorden,Drenthe,VBO,6.775241,52.823941
Slenerweg,85,,,7848AG,Schoonoord,Coevorden,Drenthe,VBO,6.777837,52.823301
Slenerweg,87,,,7848AG,Schoonoord,Coevorden,Drenthe,VBO,6.777406,52.821779
Slenerweg,89,,,7848AG,Schoonoord,Coevorden,Drenthe,VBO,6.777489,52.821260
Slenerweg,91,,,7848AG,Schoonoord,Coevorden,Drenthe,VBO,6.777971,52.820832
Slenerweg,93,,GED2,7848AG,Schoonoord,Coevorden,Drenthe,VBO,6.782517,52.818065
Slenerweg,95,,,7848AG,Schoonoord,Coevorden,Drenthe,VBO,6.783680,52.816168
Slenerweg,97,,,7848AG,Schoonoord,Coevorden,Drenthe,VBO,6.785361,52.813968
Slenerweg,6,,,7848AH,Schoonoord,Coevorden,Drenthe,VBO,6.757119,52.845558
Slenerweg,14,,,7848AH,Schoonoord,Coevorden,Drenthe,VBO,6.757421,52.844963
Slenerweg,18,,,7848AH,Schoonoord,Coevorden,Drenthe,VBO,6.757433,52.844796
Slenerweg,20,,,7848AH,Schoonoord,Coevorden,Drenthe,VBO,6.757588,52.844616
Slenerweg,22,,,7848AH,Schoonoord,Coevorden,Drenthe,VBO,6.757847,52.844192
Slenerweg,24,,,7848AH,Schoonoord,Coevorden,Drenthe,VBO,6.758060,52.843976
Slenerweg,26,a,,7848AH,Schoonoord,Coevorden,Drenthe,VBO,6.758199,52.843619
Slenerweg,26,,,7848AH,Schoonoord,Coevorden,Drenthe,VBO,6.758148,52.843734
Slenerweg,28,,,7848AH,Schoonoord,Coevorden,Drenthe,VBO,6.758310,52.843488
Slenerweg,30,,,7848AH,Schoonoord,Coevorden,Drenthe,VBO,6.758374,52.843363
Slenerweg,32,,,7848AH,Schoonoord,Coevorden,Drenthe,VBO,6.758489,52.843103
Slenerweg,34,,,7848AH,Schoonoord,Coevorden,Drenthe,VBO,6.758632,52.842981
Slenerweg,36,,,7848AH,Schoonoord,Coevorden,Drenthe,VBO,6.758687,52.842893
Slenerweg,38,,,7848AH,Schoonoord,Coevorden,Drenthe,VBO,6.758711,52.842772
Slenerweg,40,a,,7848AH,Schoonoord,Coevorden,Drenthe,VBO,6.758890,52.842569
Slenerweg,40,b,,7848AH,Schoonoord,Coevorden,Drenthe,VBO,6.758931,52.842497
Slenerweg,40,,,7848AH,Schoonoord,Coevorden,Drenthe,VBO,6.758773,52.842675
Slenerweg,44,,,7848AJ,Schoonoord,Coevorden,Drenthe,VBO,6.759394,52.841850
Slenerweg,46,,,7848AJ,Schoonoord,Coevorden,Drenthe,VBO,6.759627,52.841506
Slenerweg,48,,,7848AJ,Schoonoord,Coevorden,Drenthe,VBO,6.759917,52.841261
Slenerweg,50,,,7848AJ,Schoonoord,Coevorden,Drenthe,VBO,6.760016,52.841109
Slenerweg,52,,,7848AJ,Schoonoord,Coevorden,Drenthe,VBO,6.760080,52.840918
Slenerweg,58,,,7848AJ,Schoonoord,Coevorden,Drenthe,VBO,6.760567,52.840383
Slenerweg,62,,BIJ,7848AJ,Schoonoord,Coevorden,Drenthe,VBO,6.760779,52.839655
Slenerweg,62,,,7848AJ,Schoonoord,Coevorden,Drenthe,VBO,6.760711,52.840227
Slenerweg,64,,,7848AJ,Schoonoord,Coevorden,Drenthe,VBO,6.761392,52.839210
Slenerweg,66,,,7848AJ,Schoonoord,Coevorden,Drenthe,VBO,6.761839,52.838922
Slenerweg,68,,,7848AJ,Schoonoord,Coevorden,Drenthe,VBO,6.761987,52.838776
Slenerweg,70,,,7848AJ,Schoonoord,Coevorden,Drenthe,VBO,6.762256,52.838438
Slenerweg,72,,,7848AJ,Schoonoord,Coevorden,Drenthe,VBO,6.762460,52.838118
Slenerweg,76,,,7848AJ,Schoonoord,Coevorden,Drenthe,VBO,6.762772,52.837780
Slenerweg,78,,,7848AJ,Schoonoord,Coevorden,Drenthe,VBO,6.763069,52.837240
Slenerweg,80,,,7848AJ,Schoonoord,Coevorden,Drenthe,VBO,6.763827,52.836466
Slenerweg,82,,,7848AK,Schoonoord,Coevorden,Drenthe,VBO,6.764237,52.836017
Slenerweg,84,a,,7848AK,Schoonoord,Coevorden,Drenthe,VBO,6.766199,52.833506
Slenerweg,84,,,7848AK,Schoonoord,Coevorden,Drenthe,VBO,6.764501,52.835455
Slenerweg,86,,GED2,7848AK,Schoonoord,Coevorden,Drenthe,VBO,6.766955,52.832356
Slenerweg,86,,,7848AK,Schoonoord,Coevorden,Drenthe,VBO,6.767115,52.832628
Slenerweg,88,,,7848AK,Schoonoord,Coevorden,Drenthe,VBO,6.767479,52.832160
Slenerweg,90,,,7848AK,Schoonoord,Coevorden,Drenthe,VBO,6.767920,52.831628
Slenerweg,92,,,7848AK,Schoonoord,Coevorden,Drenthe,VBO,6.768336,52.831202
Slenerweg,94,,,7848AK,Schoonoord,Coevorden,Drenthe,VBO,6.768808,52.830536
Slenerweg,98,,,7848AK,Schoonoord,Coevorden,Drenthe,VBO,6.769465,52.829846
Slenerweg,102,,,7848AK,Schoonoord,Coevorden,Drenthe,VBO,6.770468,52.828217
Slenerweg,104,,,7848AK,Schoonoord,Coevorden,Drenthe,VBO,6.771229,52.827655
Slenerweg,106,,,7848AK,Schoonoord,Coevorden,Drenthe,VBO,6.772752,52.825935
Slenerweg,108,,,7848AK,Schoonoord,Coevorden,Drenthe,VBO,6.772786,52.825810
Slenerweg,110,,,7848AK,Schoonoord,Coevorden,Drenthe,VBO,6.772996,52.825662
Slenerweg,112,,,7848AK,Schoonoord,Coevorden,Drenthe,VBO,6.773111,52.825501
Slenerweg,114,a,,7848AK,Schoonoord,Coevorden,Drenthe,VBO,6.773464,52.824952
Slenerweg,114,,,7848AK,Schoonoord,Coevorden,Drenthe,VBO,6.772302,52.824905
Slenerweg,116,,,7848AK,Schoonoord,Coevorden,Drenthe,VBO,6.775061,52.823164
Slenerweg,118,,,7848AK,Schoonoord,Coevorden,Drenthe,VBO,6.775704,52.822320
Voshaar,3,,,7848AL,Schoonoord,Coevorden,Drenthe,VBO,6.804042,52.830769
Maatschappijweg,1,,GED1,7848AM,Schoonoord,Coevorden,Drenthe,VBO,6.762073,52.839774
Maatschappijweg,2,A,,7848AM,Schoonoord,Coevorden,Drenthe,VBO,6.763429,52.838851
Maatschappijweg,2,,,7848AM,Schoonoord,Coevorden,Drenthe,VBO,6.762768,52.839234
Maatschappijweg,3,,,7848AM,Schoonoord,Coevorden,Drenthe,VBO,6.762806,52.839942
Maatschappijweg,4,,,7848AM,Schoonoord,Coevorden,Drenthe,VBO,6.763507,52.839329
Maatschappijweg,8,,,7848AM,Schoonoord,Coevorden,Drenthe,VBO,6.763729,52.839876
Maatschappijweg,9,,,7848AM,Schoonoord,Coevorden,Drenthe,VBO,6.764657,52.841042
Maatschappijweg,12,,,7848AM,Schoonoord,Coevorden,Drenthe,VBO,6.764553,52.839771
Langeveldstraat,1,,,7848AN,Schoonoord,Coevorden,Drenthe,VBO,6.757497,52.844094
Langeveldstraat,3,,,7848AN,Schoonoord,Coevorden,Drenthe,VBO,6.757179,52.843993
Langeveldstraat,5,,,7848AN,Schoonoord,Coevorden,Drenthe,VBO,6.756926,52.843906
Langeveldstraat,7,,,7848AN,Schoonoord,Coevorden,Drenthe,VBO,6.756626,52.843785
Langeveldstraat,9,,,7848AN,Schoonoord,Coevorden,Drenthe,VBO,6.756268,52.843635
Langeveldstraat,11,,,7848AN,Schoonoord,Coevorden,Drenthe,VBO,6.756076,52.843572
Langeveldstraat,13,,,7848AN,Schoonoord,Coevorden,Drenthe,VBO,6.755941,52.843536
Langeveldstraat,15,,,7848AN,Schoonoord,Coevorden,Drenthe,VBO,6.755800,52.843486
Langeveldstraat,17,,,7848AN,Schoonoord,Coevorden,Drenthe,VBO,6.755691,52.843447
Langeveldstraat,19,,,7848AN,Schoonoord,Coevorden,Drenthe,VBO,6.755550,52.843397
Langeveldstraat,21,,,7848AN,Schoonoord,Coevorden,Drenthe,VBO,6.755430,52.843354
Langeveldstraat,23,,,7848AN,Schoonoord,Coevorden,Drenthe,VBO,6.755280,52.843304
Langeveldstraat,25,,,7848AN,Schoonoord,Coevorden,Drenthe,VBO,6.755164,52.843263
Langeveldstraat,31,,,7848AN,Schoonoord,Coevorden,Drenthe,VBO,6.754772,52.843122
Langeveldstraat,33,,,7848AN,Schoonoord,Coevorden,Drenthe,VBO,6.754642,52.843083
Langeveldstraat,35,,,7848AN,Schoonoord,Coevorden,Drenthe,VBO,6.754506,52.843032
Langeveldstraat,37,,,7848AN,Schoonoord,Coevorden,Drenthe,VBO,6.754388,52.842988
Langeveldstraat,39,,,7848AN,Schoonoord,Coevorden,Drenthe,VBO,6.754249,52.842939
Langeveldstraat,41,,,7848AN,Schoonoord,Coevorden,Drenthe,VBO,6.754147,52.842901
Langeveldstraat,43,,,7848AN,Schoonoord,Coevorden,Drenthe,VBO,6.753992,52.842851
Langeveldstraat,45,,,7848AN,Schoonoord,Coevorden,Drenthe,VBO,6.753881,52.842806
Langeveldstraat,47,,,7848AN,Schoonoord,Coevorden,Drenthe,VBO,6.753741,52.842759
Langeveldstraat,49,,,7848AN,Schoonoord,Coevorden,Drenthe,VBO,6.753618,52.842717
Volmachten,24,,,7848AN,Noord-Sleen,Coevorden,Drenthe,VBO,6.803688,52.787058
Langeveldstraat,2,,,7848AP,Schoonoord,Coevorden,Drenthe,VBO,6.757348,52.844424
Langeveldstraat,4,,,7848AP,Schoonoord,Coevorden,Drenthe,VBO,6.757145,52.844365
Langeveldstraat,6,,,7848AP,Schoonoord,Coevorden,Drenthe,VBO,6.756972,52.844319
Langeveldstraat,8,,,7848AP,Schoonoord,Coevorden,Drenthe,VBO,6.756848,52.844284
Langeveldstraat,10,,,7848AP,Schoonoord,Coevorden,Drenthe,VBO,6.756638,52.844242
Langeveldstraat,14,,,7848AP,Schoonoord,Coevorden,Drenthe,VBO,6.756378,52.844143
Langeveldstraat,16,,,7848AP,Schoonoord,Coevorden,Drenthe,VBO,6.755615,52.843765
Langeveldstraat,18,,,7848AP,Schoonoord,Coevorden,Drenthe,VBO,6.755484,52.843719
Langeveldstraat,20,,,7848AP,Schoonoord,Coevorden,Drenthe,VBO,6.755344,52.843670
Langeveldstraat,22,,,7848AP,Schoonoord,Coevorden,Drenthe,VBO,6.755213,52.843625
Langeveldstraat,24,,,7848AP,Schoonoord,Coevorden,Drenthe,VBO,6.755076,52.843574
Langeveldstraat,26,,,7848AP,Schoonoord,Coevorden,Drenthe,VBO,6.754937,52.843528
Langeveldstraat,28,,,7848AP,Schoonoord,Coevorden,Drenthe,VBO,6.754540,52.843397
Langeveldstraat,30,,,7848AP,Schoonoord,Coevorden,Drenthe,VBO,6.754286,52.843323
Langeveldstraat,32,,,7848AP,Schoonoord,Coevorden,Drenthe,VBO,6.754113,52.843251
Langeveldstraat,34,,,7848AP,Schoonoord,Coevorden,Drenthe,VBO,6.753919,52.843167
Langeveldstraat,36,,,7848AP,Schoonoord,Coevorden,Drenthe,VBO,6.753706,52.843114
Langeveldstraat,38,,,7848AP,Schoonoord,Coevorden,Drenthe,VBO,6.753627,52.843084
Hazekampstraat,1,,,7848AR,Schoonoord,Coevorden,Drenthe,VBO,6.757344,52.842250
Hazekampstraat,3,,,7848AR,Schoonoord,Coevorden,Drenthe,VBO,6.757269,52.842348
Hazekampstraat,5,,,7848AR,Schoonoord,Coevorden,Drenthe,VBO,6.757114,52.842493
Hazekampstraat,7,,,7848AR,Schoonoord,Coevorden,Drenthe,VBO,6.757025,52.842610
Hazekampstraat,9,,,7848AR,Schoonoord,Coevorden,Drenthe,VBO,6.756909,52.842751
Hazekampstraat,11,,,7848AR,Schoonoord,Coevorden,Drenthe,VBO,6.756803,52.842887
Hazekampstraat,13,,,7848AR,Schoonoord,Coevorden,Drenthe,VBO,6.756723,52.843016
Hazekampstraat,15,,,7848AR,Schoonoord,Coevorden,Drenthe,VBO,6.756616,52.843144
Hazekampstraat,17,,,7848AR,Schoonoord,Coevorden,Drenthe,VBO,6.756618,52.843280
Hazekampstraat,19,,,7848AR,Schoonoord,Coevorden,Drenthe,VBO,6.756596,52.843321
Hazekampstraat,21,,,7848AR,Schoonoord,Coevorden,Drenthe,VBO,6.755935,52.843842
Hazekampstraat,25,,,7848AR,Schoonoord,Coevorden,Drenthe,VBO,6.755703,52.844250
Hazekampstraat,27,,,7848AR,Schoonoord,Coevorden,Drenthe,VBO,6.755621,52.844369
Hazekampstraat,29,,,7848AR,Schoonoord,Coevorden,Drenthe,VBO,6.755569,52.844429
Hazekampstraat,31,,,7848AR,Schoonoord,Coevorden,Drenthe,VBO,6.755476,52.844524
Hazekampstraat,33,,,7848AR,Schoonoord,Coevorden,Drenthe,VBO,6.755413,52.844588
Hazekampstraat,35,,,7848AR,Schoonoord,Coevorden,Drenthe,VBO,6.755312,52.844687
Hazekampstraat,37,,,7848AR,Schoonoord,Coevorden,Drenthe,VBO,6.755251,52.844753
Hazekampstraat,39,,,7848AR,Schoonoord,Coevorden,Drenthe,VBO,6.754986,52.845001
Hazekampstraat,2,,,7848AS,Schoonoord,Coevorden,Drenthe,VBO,6.757727,52.842352
Hazekampstraat,4,,,7848AS,Schoonoord,Coevorden,Drenthe,VBO,6.757669,52.842430
Hazekampstraat,6,,,7848AS,Schoonoord,Coevorden,Drenthe,VBO,6.757609,52.842514
Hazekampstraat,8,,,7848AS,Schoonoord,Coevorden,Drenthe,VBO,6.757536,52.842613
Hazekampstraat,10,,,7848AS,Schoonoord,Coevorden,Drenthe,VBO,6.757437,52.842710
Hazekampstraat,10,,,7848AS,Schoonoord,Coevorden,Drenthe,VBO,6.757475,52.842683
Hazekampstraat,12,,,7848AS,Schoonoord,Coevorden,Drenthe,VBO,6.757400,52.842776
Hazekampstraat,12,,,7848AS,Schoonoord,Coevorden,Drenthe,VBO,6.757413,52.842755
Hazekampstraat,14,,,7848AS,Schoonoord,Coevorden,Drenthe,VBO,6.757322,52.842870
Hazekampstraat,14,,,7848AS,Schoonoord,Coevorden,Drenthe,VBO,6.757343,52.842856
Hazekampstraat,16,,,7848AS,Schoonoord,Coevorden,Drenthe,VBO,6.757274,52.842948
Hazekampstraat,16,,,7848AS,Schoonoord,Coevorden,Drenthe,VBO,6.757288,52.842920
Hazekampstraat,18,,,7848AS,Schoonoord,Coevorden,Drenthe,VBO,6.757193,52.843045
Hazekampstraat,18,,,7848AS,Schoonoord,Coevorden,Drenthe,VBO,6.757217,52.843021
Hazekampstraat,20,,,7848AS,Schoonoord,Coevorden,Drenthe,VBO,6.757131,52.843118
Hazekampstraat,20,,,7848AS,Schoonoord,Coevorden,Drenthe,VBO,6.757146,52.843099
Hazekampstraat,22,,,7848AS,Schoonoord,Coevorden,Drenthe,VBO,6.757083,52.843190
Hazekampstraat,24,,,7848AS,Schoonoord,Coevorden,Drenthe,VBO,6.757002,52.843285
Hazekampstraat,26,,,7848AS,Schoonoord,Coevorden,Drenthe,VBO,6.756892,52.843373
Hazekampstraat,28,,,7848AS,Schoonoord,Coevorden,Drenthe,VBO,6.756856,52.843427
Hazekampstraat,32,,,7848AS,Schoonoord,Coevorden,Drenthe,VBO,6.756071,52.844379
Hazekampstraat,34,,,7848AS,Schoonoord,Coevorden,Drenthe,VBO,6.756179,52.844415
Hazekampstraat,36,,,7848AS,Schoonoord,Coevorden,Drenthe,VBO,6.756363,52.844463
Hazekampstraat,38,,,7848AS,Schoonoord,Coevorden,Drenthe,VBO,6.756454,52.844497
Hazekampstraat,40,,,7848AS,Schoonoord,Coevorden,Drenthe,VBO,6.756687,52.844593
Hazekampstraat,44,,,7848AS,Schoonoord,Coevorden,Drenthe,VBO,6.756492,52.844831
Hazekampstraat,46,,,7848AS,Schoonoord,Coevorden,Drenthe,VBO,6.756414,52.844904
Hazekampstraat,48,,,7848AS,Schoonoord,Coevorden,Drenthe,VBO,6.756269,52.845057
Hazekampstraat,50,,,7848AS,Schoonoord,Coevorden,Drenthe,VBO,6.756089,52.844956
Hazekampstraat,52,,,7848AS,Schoonoord,Coevorden,Drenthe,VBO,6.755972,52.844915
Hazekampstraat,54,,,7848AS,Schoonoord,Coevorden,Drenthe,VBO,6.755832,52.844865
Hazekampstraat,56,,,7848AS,Schoonoord,Coevorden,Drenthe,VBO,6.755717,52.844825
Ellertstraat,1,,,7848AT,Schoonoord,Coevorden,Drenthe,VBO,6.756090,52.841573
Ellertstraat,3,,,7848AT,Schoonoord,Coevorden,Drenthe,VBO,6.756048,52.841620
Ellertstraat,5,,,7848AT,Schoonoord,Coevorden,Drenthe,VBO,6.756004,52.841771
Ellertstraat,7,,,7848AT,Schoonoord,Coevorden,Drenthe,VBO,6.755960,52.841813
Ellertstraat,9,,,7848AT,Schoonoord,Coevorden,Drenthe,VBO,6.755849,52.841934
Ellertstraat,11,,,7848AT,Schoonoord,Coevorden,Drenthe,VBO,6.755806,52.841988
Ellertstraat,13,,,7848AT,Schoonoord,Coevorden,Drenthe,VBO,6.755660,52.842110
Ellertstraat,15,,,7848AT,Schoonoord,Coevorden,Drenthe,VBO,6.755582,52.842206
Ellertstraat,17,,,7848AT,Schoonoord,Coevorden,Drenthe,VBO,6.755503,52.842291
Ellertstraat,19,,,7848AT,Schoonoord,Coevorden,Drenthe,VBO,6.755448,52.842366
Ellertstraat,21,,,7848AT,Schoonoord,Coevorden,Drenthe,VBO,6.755357,52.842466
Ellertstraat,23,,,7848AT,Schoonoord,Coevorden,Drenthe,VBO,6.755301,52.842541
Ellertstraat,25,,,7848AT,Schoonoord,Coevorden,Drenthe,VBO,6.755218,52.842643
Ellertstraat,27,,,7848AT,Schoonoord,Coevorden,Drenthe,VBO,6.755159,52.842716
Ellertstraat,29,,,7848AT,Schoonoord,Coevorden,Drenthe,VBO,6.755075,52.842815
Ellertstraat,31,,,7848AT,Schoonoord,Coevorden,Drenthe,VBO,6.755015,52.842890
Ellertstraat,33,,,7848AV,Schoonoord,Coevorden,Drenthe,VBO,6.754456,52.843588
Ellertstraat,35,,,7848AV,Schoonoord,Coevorden,Drenthe,VBO,6.754403,52.843662
Ellertstraat,37,,,7848AV,Schoonoord,Coevorden,Drenthe,VBO,6.754269,52.843732
Ellertstraat,39,,,7848AV,Schoonoord,Coevorden,Drenthe,VBO,6.754207,52.843809
Ellertstraat,41,,,7848AV,Schoonoord,Coevorden,Drenthe,VBO,6.754136,52.843896
Ellertstraat,43,,,7848AV,Schoonoord,Coevorden,Drenthe,VBO,6.754078,52.843970
Ellertstraat,45,,,7848AV,Schoonoord,Coevorden,Drenthe,VBO,6.754000,52.844057
Ellertstraat,47,,,7848AV,Schoonoord,Coevorden,Drenthe,VBO,6.753944,52.844123
Ellertstraat,49,,,7848AV,Schoonoord,Coevorden,Drenthe,VBO,6.753864,52.844215
Ellertstraat,51,,,7848AV,Schoonoord,Coevorden,Drenthe,VBO,6.753810,52.844289
Ellertstraat,2,,,7848AW,Schoonoord,Coevorden,Drenthe,VBO,6.756332,52.841898
Ellertstraat,4,,,7848AW,Schoonoord,Coevorden,Drenthe,VBO,6.756255,52.841984
Ellertstraat,6,,,7848AW,Schoonoord,Coevorden,Drenthe,VBO,6.756192,52.842070
Ellertstraat,8,,,7848AW,Schoonoord,Coevorden,Drenthe,VBO,6.756124,52.842143
Ellertstraat,10,,,7848AW,Schoonoord,Coevorden,Drenthe,VBO,6.756043,52.842223
Ellertstraat,12,,,7848AW,Schoonoord,Coevorden,Drenthe,VBO,6.755973,52.842308
Ellertstraat,14,,,7848AW,Schoonoord,Coevorden,Drenthe,VBO,6.755902,52.842398
Ellertstraat,16,,,7848AW,Schoonoord,Coevorden,Drenthe,VBO,6.755839,52.842483
Ellertstraat,18,,,7848AW,Schoonoord,Coevorden,Drenthe,VBO,6.755774,52.842561
Ellertstraat,20,,,7848AW,Schoonoord,Coevorden,Drenthe,VBO,6.755699,52.842643
Ellertstraat,22,,,7848AW,Schoonoord,Coevorden,Drenthe,VBO,6.755616,52.842722
Ellertstraat,24,,,7848AW,Schoonoord,Coevorden,Drenthe,VBO,6.755545,52.842811
Ellertstraat,26,,,7848AW,Schoonoord,Coevorden,Drenthe,VBO,6.755477,52.842934
Ellertstraat,28,,,7848AW,Schoonoord,Coevorden,Drenthe,VBO,6.755446,52.842973
Ellertstraat,30,,,7848AX,Schoonoord,Coevorden,Drenthe,VBO,6.754785,52.843705
Ellertstraat,32,,,7848AX,Schoonoord,Coevorden,Drenthe,VBO,6.754736,52.843762
Ellertstraat,34,,,7848AX,Schoonoord,Coevorden,Drenthe,VBO,6.754656,52.843862
Ellertstraat,36,,,7848AX,Schoonoord,Coevorden,Drenthe,VBO,6.754608,52.843924
Ellertstraat,38,,,7848AX,Schoonoord,Coevorden,Drenthe,VBO,6.754521,52.844021
Ellertstraat,40,,,7848AX,Schoonoord,Coevorden,Drenthe,VBO,6.754464,52.844085
Ellertstraat,42,,,7848AX,Schoonoord,Coevorden,Drenthe,VBO,6.754385,52.844184
Ellertstraat,44,,,7848AX,Schoonoord,Coevorden,Drenthe,VBO,6.754332,52.844246
Ellertstraat,46,,,7848AX,Schoonoord,Coevorden,Drenthe,VBO,6.754256,52.844342
Ellertstraat,48,,,7848AX,Schoonoord,Coevorden,Drenthe,VBO,6.754200,52.844409
Sportparklaan,1,,,7848BA,Schoonoord,Coevorden,Drenthe,VBO,6.759257,52.842058
Sportparklaan,5,,,7848BA,Schoonoord,Coevorden,Drenthe,VBO,6.758818,52.841879
Sportparklaan,7,,,7848BA,Schoonoord,Coevorden,Drenthe,VBO,6.758628,52.841849
Sportparklaan,9,,,7848BA,Schoonoord,Coevorden,Drenthe,VBO,6.758517,52.841815
Sportparklaan,11,,,7848BA,Schoonoord,Coevorden,Drenthe,VBO,6.758344,52.841762
Sportparklaan,13,,,7848BA,Schoonoord,Coevorden,Drenthe,VBO,6.758226,52.841726
Sportparklaan,15,,,7848BA,Schoonoord,Coevorden,Drenthe,VBO,6.758071,52.841633
Sportparklaan,17,,,7848BA,Schoonoord,Coevorden,Drenthe,VBO,6.757845,52.841546
Sportparklaan,19,,,7848BA,Schoonoord,Coevorden,Drenthe,VBO,6.757584,52.841493
Sportparklaan,21,,,7848BA,Schoonoord,Coevorden,Drenthe,VBO,6.757349,52.841396
Sportparklaan,23,,,7848BA,Schoonoord,Coevorden,Drenthe,VBO,6.756936,52.841281
Sportparklaan,27,,,7848BA,Schoonoord,Coevorden,Drenthe,VBO,6.756608,52.841079
Sportparklaan,29,,,7848BA,Schoonoord,Coevorden,Drenthe,VBO,6.756252,52.840984
Sportparklaan,35,,,7848BA,Schoonoord,Coevorden,Drenthe,VBO,6.755837,52.840880
Sportparklaan,37,,,7848BA,Schoonoord,Coevorden,Drenthe,VBO,6.755387,52.840751
Sportparklaan,51,a,,7848BA,Schoonoord,Coevorden,Drenthe,VBO,6.754474,52.840483
Sportparklaan,51,,,7848BA,Schoonoord,Coevorden,Drenthe,VBO,6.754909,52.840615
Sportparklaan,53,,,7848BA,Schoonoord,Coevorden,Drenthe,VBO,6.754124,52.840354
Sportparklaan,55,a,,7848BA,Schoonoord,Coevorden,Drenthe,VBO,6.753865,52.839708
Sportparklaan,55,,,7848BA,Schoonoord,Coevorden,Drenthe,VBO,6.754469,52.839938
Sportparklaan,2,a,,7848BB,Schoonoord,Coevorden,Drenthe,VBO,6.758587,52.842263
Sportparklaan,2,,,7848BB,Schoonoord,Coevorden,Drenthe,VBO,6.758742,52.842308
Sportparklaan,4,a,,7848BB,Schoonoord,Coevorden,Drenthe,VBO,6.758171,52.842152
Sportparklaan,4,,,7848BB,Schoonoord,Coevorden,Drenthe,VBO,6.758444,52.842219
Sportparklaan,6,,,7848BB,Schoonoord,Coevorden,Drenthe,VBO,6.757966,52.842085
Sportparklaan,8,,,7848BB,Schoonoord,Coevorden,Drenthe,VBO,6.757522,52.841943
Sportparklaan,10,,,7848BB,Schoonoord,Coevorden,Drenthe,VBO,6.757314,52.841877
Sportparklaan,12,,,7848BB,Schoonoord,Coevorden,Drenthe,VBO,6.757060,52.841798
Sportparklaan,14,,,7848BB,Schoonoord,Coevorden,Drenthe,VBO,6.756833,52.841693
Sportparklaan,16,,,7848BB,Schoonoord,Coevorden,Drenthe,VBO,6.756745,52.841664
Sportparklaan,20,,,7848BB,Schoonoord,Coevorden,Drenthe,VBO,6.755158,52.841271
Sportparklaan,22,,GED1,7848BB,Schoonoord,Coevorden,Drenthe,VBO,6.753106,52.840511
Sportparklaan,22,,GED2,7848BB,Schoonoord,Coevorden,Drenthe,VBO,6.752568,52.840402
Sportparklaan,22,,,7848BB,Schoonoord,Coevorden,Drenthe,VBO,6.753253,52.840586
Klijnstraat,1,,,7848BC,Schoonoord,Coevorden,Drenthe,VBO,6.754788,52.841888
Klijnstraat,2,,,7848BC,Schoonoord,Coevorden,Drenthe,VBO,6.754873,52.841916
Klijnstraat,3,,,7848BC,Schoonoord,Coevorden,Drenthe,VBO,6.755239,52.842017
Klijnstraat,4,,,7848BC,Schoonoord,Coevorden,Drenthe,VBO,6.755318,52.842046
Brammertstraat,1,,,7848BD,Schoonoord,Coevorden,Drenthe,VBO,6.752431,52.843183
Brammertstraat,2,,,7848BD,Schoonoord,Coevorden,Drenthe,VBO,6.754444,52.841752
Brammertstraat,4,,,7848BD,Schoonoord,Coevorden,Drenthe,VBO,6.754356,52.841849
Brammertstraat,5,,,7848BD,Schoonoord,Coevorden,Drenthe,VBO,6.752502,52.843001
Brammertstraat,6,,,7848BD,Schoonoord,Coevorden,Drenthe,VBO,6.754341,52.841978
Brammertstraat,8,,,7848BD,Schoonoord,Coevorden,Drenthe,VBO,6.754206,52.842052
Brammertstraat,10,,,7848BD,Schoonoord,Coevorden,Drenthe,VBO,6.754113,52.842158
Brammertstraat,12,,,7848BD,Schoonoord,Coevorden,Drenthe,VBO,6.754032,52.842248
Brammertstraat,14,,,7848BD,Schoonoord,Coevorden,Drenthe,VBO,6.753938,52.842361
Brammertstraat,16,a,,7848BD,Schoonoord,Coevorden,Drenthe,VBO,6.753825,52.842463
Brammertstraat,16,b,,7848BD,Schoonoord,Coevorden,Drenthe,VBO,6.753375,52.843039
Brammertstraat,16,c,,7848BD,Schoonoord,Coevorden,Drenthe,VBO,6.753240,52.843170
Brammertstraat,16,d,,7848BD,Schoonoord,Coevorden,Drenthe,VBO,6.753191,52.843221
Brammertstraat,16,,,7848BD,Schoonoord,Coevorden,Drenthe,VBO,6.753865,52.842418
Brammertstraat,18,,,7848BD,Schoonoord,Coevorden,Drenthe,VBO,6.753134,52.843364
Brammertstraat,20,,,7848BD,Schoonoord,Coevorden,Drenthe,VBO,6.752958,52.843462
Brammertstraat,22,,,7848BD,Schoonoord,Coevorden,Drenthe,VBO,6.752840,52.843559
Brammertstraat,24,,,7848BD,Schoonoord,Coevorden,Drenthe,VBO,6.752746,52.843660
Brammertstraat,26,,,7848BD,Schoonoord,Coevorden,Drenthe,VBO,6.752669,52.843773
Brammertstraat,28,,,7848BD,Schoonoord,Coevorden,Drenthe,VBO,6.752574,52.843899
Brugstraat,1,,,7848BE,Schoonoord,Coevorden,Drenthe,VBO,6.756879,52.845642
Brugstraat,2,,,7848BE,Schoonoord,Coevorden,Drenthe,VBO,6.756623,52.845629
Brugstraat,3,,,7848BE,Schoonoord,Coevorden,Drenthe,VBO,6.756510,52.845566
Brugstraat,4,,,7848BE,Schoonoord,Coevorden,Drenthe,VBO,6.756347,52.845548
Brugstraat,6,,,7848BE,Schoonoord,Coevorden,Drenthe,VBO,6.756172,52.845461
Brugstraat,7,,,7848BE,Schoonoord,Coevorden,Drenthe,VBO,6.755984,52.845368
Brugstraat,8,,,7848BE,Schoonoord,Coevorden,Drenthe,VBO,6.755718,52.845277
Brugstraat,9,,,7848BE,Schoonoord,Coevorden,Drenthe,VBO,6.755446,52.845155
Brugstraat,10,,,7848BE,Schoonoord,Coevorden,Drenthe,VBO,6.754720,52.844891
Brugstraat,11,,,7848BE,Schoonoord,Coevorden,Drenthe,VBO,6.754514,52.844828
Brugstraat,14,,,7848BE,Schoonoord,Coevorden,Drenthe,VBO,6.754319,52.844780
Brugstraat,15,a,,7848BE,Schoonoord,Coevorden,Drenthe,VBO,6.753468,52.844462
Brugstraat,15,,,7848BE,Schoonoord,Coevorden,Drenthe,VBO,6.754091,52.844705
Brugstraat,16,,,7848BE,Schoonoord,Coevorden,Drenthe,VBO,6.753344,52.844356
Brugstraat,17,,,7848BE,Schoonoord,Coevorden,Drenthe,VBO,6.753208,52.844304
Brugstraat,18,,,7848BE,Schoonoord,Coevorden,Drenthe,VBO,6.753063,52.844249
Brugstraat,19,,,7848BE,Schoonoord,Coevorden,Drenthe,VBO,6.752933,52.844204
Brugstraat,20,,,7848BE,Schoonoord,Coevorden,Drenthe,VBO,6.752713,52.844136
Brugstraat,21,,,7848BE,Schoonoord,Coevorden,Drenthe,VBO,6.752573,52.844066
Brugstraat,22,,,7848BE,Schoonoord,Coevorden,Drenthe,VBO,6.752430,52.844009
Brugstraat,23,a,,7848BE,Schoonoord,Coevorden,Drenthe,VBO,6.751941,52.843197
Brugstraat,23,,,7848BE,Schoonoord,Coevorden,Drenthe,VBO,6.752740,52.842138
Brugstraat,25,,,7848BE,Schoonoord,Coevorden,Drenthe,VBO,6.749772,52.842332
Tramstraat,1,,,7848BG,Schoonoord,Coevorden,Drenthe,VBO,6.756322,52.846471
Tramstraat,3,,,7848BG,Schoonoord,Coevorden,Drenthe,VBO,6.756385,52.846547
Tramstraat,7,,,7848BG,Schoonoord,Coevorden,Drenthe,VBO,6.756216,52.846671
Tramstraat,9,a,,7848BG,Schoonoord,Coevorden,Drenthe,VBO,6.756196,52.846873
Tramstraat,9,b,,7848BG,Schoonoord,Coevorden,Drenthe,VBO,6.756196,52.846903
Tramstraat,9,,,7848BG,Schoonoord,Coevorden,Drenthe,VBO,6.756207,52.846838
Tramstraat,11,,,7848BG,Schoonoord,Coevorden,Drenthe,VBO,6.755984,52.847004
Tramstraat,13,,,7848BG,Schoonoord,Coevorden,Drenthe,VBO,6.755887,52.847066
Tramstraat,15,a,WINK,7848BG,Schoonoord,Coevorden,Drenthe,VBO,6.755870,52.847271
Tramstraat,15,a,,7848BG,Schoonoord,Coevorden,Drenthe,VBO,6.755716,52.847217
Tramstraat,15,,WINK,7848BG,Schoonoord,Coevorden,Drenthe,VBO,6.755957,52.847220
Tramstraat,15,,,7848BG,Schoonoord,Coevorden,Drenthe,VBO,6.755731,52.847150
Tramstraat,17,,,7848BG,Schoonoord,Coevorden,Drenthe,VBO,6.755655,52.847345
Tramstraat,19,,,7848BG,Schoonoord,Coevorden,Drenthe,VBO,6.755649,52.847600
Tramstraat,21,,,7848BG,Schoonoord,Coevorden,Drenthe,VBO,6.755543,52.847920
Tramstraat,25,,,7848BG,Schoonoord,Coevorden,Drenthe,VBO,6.755364,52.848094
Tramstraat,27,,,7848BG,Schoonoord,Coevorden,Drenthe,VBO,6.755171,52.848191
Tramstraat,29,,,7848BG,Schoonoord,Coevorden,Drenthe,VBO,6.755129,52.848255
Tramstraat,31,,,7848BG,Schoonoord,Coevorden,Drenthe,VBO,6.754865,52.848372
Tramstraat,33,,,7848BG,Schoonoord,Coevorden,Drenthe,VBO,6.754927,52.848585
Tramstraat,35,,,7848BG,Schoonoord,Coevorden,Drenthe,VBO,6.754882,52.848790
Tramstraat,37,,,7848BG,Schoonoord,Coevorden,Drenthe,VBO,6.754744,52.848962
Tramstraat,39,,,7848BG,Schoonoord,Coevorden,Drenthe,VBO,6.754617,52.849069
Tramstraat,43,,,7848BG,Schoonoord,Coevorden,Drenthe,VBO,6.754613,52.849254
Tramstraat,45,a,,7848BG,Schoonoord,Coevorden,Drenthe,VBO,6.754338,52.849525
Tramstraat,45,,,7848BG,Schoonoord,Coevorden,Drenthe,VBO,6.754432,52.849411
Tramstraat,47,a,,7848BH,Schoonoord,Coevorden,Drenthe,VBO,6.754154,52.849780
Tramstraat,47,,,7848BH,Schoonoord,Coevorden,Drenthe,VBO,6.754259,52.849653
Tramstraat,49,,,7848BH,Schoonoord,Coevorden,Drenthe,VBO,6.754084,52.849903
Tramstraat,51,,,7848BH,Schoonoord,Coevorden,Drenthe,VBO,6.754036,52.850053
Tramstraat,53,,,7848BH,Schoonoord,Coevorden,Drenthe,VBO,6.753928,52.850196
Tramstraat,55,,,7848BH,Schoonoord,Coevorden,Drenthe,VBO,6.753859,52.850334
Tramstraat,57,,,7848BH,Schoonoord,Coevorden,Drenthe,VBO,6.753799,52.850378
Tramstraat,59,,,7848BH,Schoonoord,Coevorden,Drenthe,VBO,6.753576,52.850720
Tramstraat,61,a,,7848BH,Schoonoord,Coevorden,Drenthe,VBO,6.753295,52.851054
Tramstraat,61,,,7848BH,Schoonoord,Coevorden,Drenthe,VBO,6.753333,52.850999
Tramstraat,63,,,7848BH,Schoonoord,Coevorden,Drenthe,VBO,6.753190,52.851234
Tramstraat,65,,,7848BH,Schoonoord,Coevorden,Drenthe,VBO,6.753164,52.851269
Tramstraat,67,,,7848BH,Schoonoord,Coevorden,Drenthe,VBO,6.753052,52.851475
Tramstraat,69,,,7848BH,Schoonoord,Coevorden,Drenthe,VBO,6.752809,52.851820
Tramstraat,71,,,7848BJ,Schoonoord,Coevorden,Drenthe,VBO,6.752648,52.852123
Tramstraat,73,,GED2,7848BJ,Schoonoord,Coevorden,Drenthe,VBO,6.746499,52.850845
Tramstraat,73,,,7848BJ,Schoonoord,Coevorden,Drenthe,VBO,6.750896,52.852426
Tramstraat,75,,,7848BJ,Schoonoord,Coevorden,Drenthe,VBO,6.752083,52.852876
Tramstraat,77,,,7848BJ,Schoonoord,Coevorden,Drenthe,VBO,6.752037,52.852990
Tramstraat,79,,,7848BJ,Schoonoord,Coevorden,Drenthe,VBO,6.751739,52.853284
Tramstraat,81,a,,7848BJ,Schoonoord,Coevorden,Drenthe,VBO,6.750348,52.853291
Tramstraat,81,,,7848BJ,Schoonoord,Coevorden,Drenthe,VBO,6.751461,52.853582
Tramstraat,83,,g1,7848BJ,Schoonoord,Coevorden,Drenthe,VBO,6.750695,52.853821
Tramstraat,83,,,7848BJ,Schoonoord,Coevorden,Drenthe,VBO,6.751246,52.853966
Tramstraat,85,,,7848BJ,Schoonoord,Coevorden,Drenthe,VBO,6.751345,52.854160
Tramstraat,87,,,7848BJ,Schoonoord,Coevorden,Drenthe,VBO,6.750475,52.854109
Tramstraat,89,,,7848BJ,Schoonoord,Coevorden,Drenthe,VBO,6.751012,52.854481
Tramstraat,91,,BEDR,7848BJ,Schoonoord,Coevorden,Drenthe,VBO,6.750871,52.854895
Tramstraat,91,,,7848BJ,Schoonoord,Coevorden,Drenthe,VBO,6.750819,52.854828
Tramstraat,93,,,7848BJ,Schoonoord,Coevorden,Drenthe,VBO,6.750562,52.855236
Tramstraat,95,,,7848BJ,Schoonoord,Coevorden,Drenthe,VBO,6.750357,52.855443
Tramstraat,97,,,7848BJ,Schoonoord,Coevorden,Drenthe,VBO,6.750340,52.855617
Tramstraat,101,,,7848BJ,Schoonoord,Coevorden,Drenthe,VBO,6.749891,52.856465
Tramstraat,103,,,7848BJ,Schoonoord,Coevorden,Drenthe,VBO,6.749646,52.856771
Tramstraat,105,,GED1,7848BJ,Schoonoord,Coevorden,Drenthe,VBO,6.748880,52.856976
Tramstraat,105,,,7848BJ,Schoonoord,Coevorden,Drenthe,VBO,6.749364,52.857065
Tramstraat,2,,,7848BK,Schoonoord,Coevorden,Drenthe,VBO,6.756894,52.846651
Tramstraat,4,,,7848BK,Schoonoord,Coevorden,Drenthe,VBO,6.756865,52.846675
Tramstraat,6,,,7848BK,Schoonoord,Coevorden,Drenthe,VBO,6.756865,52.846801
Tramstraat,10,,,7848BK,Schoonoord,Coevorden,Drenthe,VBO,6.756748,52.846873
Tramstraat,12,,,7848BK,Schoonoord,Coevorden,Drenthe,VBO,6.756677,52.846988
Tramstraat,14,,,7848BK,Schoonoord,Coevorden,Drenthe,VBO,6.756609,52.847110
Tramstraat,16,,,7848BK,Schoonoord,Coevorden,Drenthe,VBO,6.756481,52.847496
Tramstraat,18,,,7848BK,Schoonoord,Coevorden,Drenthe,VBO,6.756256,52.847736
Tramstraat,20,,,7848BK,Schoonoord,Coevorden,Drenthe,VBO,6.756113,52.847956
Tramstraat,22,,,7848BK,Schoonoord,Coevorden,Drenthe,VBO,6.756457,52.848226
Tramstraat,24,,,7848BK,Schoonoord,Coevorden,Drenthe,VBO,6.755983,52.848144
Tramstraat,26,,,7848BK,Schoonoord,Coevorden,Drenthe,VBO,6.755845,52.848255
Tramstraat,28,,,7848BK,Schoonoord,Coevorden,Drenthe,VBO,6.755755,52.848405
Tramstraat,30,,,7848BK,Schoonoord,Coevorden,Drenthe,VBO,6.755653,52.848521
Tramstraat,32,a,,7848BK,Schoonoord,Coevorden,Drenthe,VBO,6.755534,52.848991
Tramstraat,32,b,,7848BK,Schoonoord,Coevorden,Drenthe,VBO,6.755421,52.849131
Tramstraat,32,,,7848BK,Schoonoord,Coevorden,Drenthe,VBO,6.755609,52.848797
Tramstraat,34,,,7848BK,Schoonoord,Coevorden,Drenthe,VBO,6.755204,52.849444
Tramstraat,36,,,7848BK,Schoonoord,Coevorden,Drenthe,VBO,6.755036,52.849632
Tramstraat,38,,,7848BK,Schoonoord,Coevorden,Drenthe,VBO,6.754937,52.849785
Tramstraat,40,,,7848BL,Schoonoord,Coevorden,Drenthe,VBO,6.754848,52.849911
Tramstraat,42,,,7848BL,Schoonoord,Coevorden,Drenthe,VBO,6.754757,52.850065
Tramstraat,44,,,7848BL,Schoonoord,Coevorden,Drenthe,VBO,6.754598,52.850379
Tramstraat,46,a,,7848BL,Schoonoord,Coevorden,Drenthe,VBO,6.754291,52.850784
Tramstraat,46,,,7848BL,Schoonoord,Coevorden,Drenthe,VBO,6.754467,52.850581
Tramstraat,48,a,,7848BL,Schoonoord,Coevorden,Drenthe,VBO,6.755617,52.852080
Tramstraat,48,,,7848BL,Schoonoord,Coevorden,Drenthe,VBO,6.754095,52.850949
Tramstraat,50,,,7848BL,Schoonoord,Coevorden,Drenthe,VBO,6.754004,52.851161
Tramstraat,52,a,,7848BL,Schoonoord,Coevorden,Drenthe,VBO,6.753829,52.851591
Tramstraat,52,,GED2,7848BL,Schoonoord,Coevorden,Drenthe,VBO,6.754955,52.851667
Tramstraat,52,,,7848BL,Schoonoord,Coevorden,Drenthe,VBO,6.753898,52.851309
Tramstraat,54,,,7848BL,Schoonoord,Coevorden,Drenthe,VBO,6.753660,52.851757
Tramstraat,56,,,7848BL,Schoonoord,Coevorden,Drenthe,VBO,6.753450,52.852188
Tramstraat,58,,,7848BL,Schoonoord,Coevorden,Drenthe,VBO,6.753177,52.852491
Tramstraat,60,,,7848BL,Schoonoord,Coevorden,Drenthe,VBO,6.752497,52.853518
Tramstraat,68,,,7848BL,Schoonoord,Coevorden,Drenthe,VBO,6.752090,52.854800
Tramstraat,70,,,7848BL,Schoonoord,Coevorden,Drenthe,VBO,6.751835,52.855037
Tramstraat,72,,,7848BL,Schoonoord,Coevorden,Drenthe,VBO,6.751524,52.855294
Tramstraat,74,,,7848BL,Schoonoord,Coevorden,Drenthe,VBO,6.751225,52.855525
Tramstraat,76,,,7848BL,Schoonoord,Coevorden,Drenthe,VBO,6.751013,52.855819
Tramstraat,78,,,7848BL,Schoonoord,Coevorden,Drenthe,VBO,6.750880,52.856056
Tramstraat,80,,,7848BL,Schoonoord,Coevorden,Drenthe,VBO,6.750512,52.856479
Tramstraat,82,,,7848BL,Schoonoord,Coevorden,Drenthe,VBO,6.749924,52.857266
Tramstraat,84,a,,7848BL,Schoonoord,Coevorden,Drenthe,VBO,6.750290,52.857213
Tramstraat,84,,,7848BL,Schoonoord,Coevorden,Drenthe,VBO,6.750241,52.857116
Oude Molenstraat,4,,,7848BM,Schoonoord,Coevorden,Drenthe,VBO,6.756136,52.846364
Oude Molenstraat,5,,,7848BM,Schoonoord,Coevorden,Drenthe,VBO,6.755992,52.846255
Oude Molenstraat,6,,,7848BM,Schoonoord,Coevorden,Drenthe,VBO,6.755623,52.846198
Oude Molenstraat,7,,,7848BM,Schoonoord,Coevorden,Drenthe,VBO,6.755408,52.846074
Oude Molenstraat,8,a,,7848BM,Schoonoord,Coevorden,Drenthe,VBO,6.754835,52.845832
Oude Molenstraat,8,,,7848BM,Schoonoord,Coevorden,Drenthe,VBO,6.755063,52.845916
Oude Molenstraat,9,,,7848BM,Schoonoord,Coevorden,Drenthe,VBO,6.753870,52.845554
Oude Molenstraat,10,,,7848BM,Schoonoord,Coevorden,Drenthe,VBO,6.753679,52.845429
Oude Molenstraat,11,,,7848BM,Schoonoord,Coevorden,Drenthe,VBO,6.753567,52.845390
Oude Molenstraat,12,,,7848BM,Schoonoord,Coevorden,Drenthe,VBO,6.753443,52.845341
Oude Molenstraat,13,,,7848BM,Schoonoord,Coevorden,Drenthe,VBO,6.753329,52.845297
Oude Molenstraat,14,,,7848BM,Schoonoord,Coevorden,Drenthe,VBO,6.753200,52.845253
Oude Molenstraat,15,,,7848BM,Schoonoord,Coevorden,Drenthe,VBO,6.753093,52.845206
Oude Molenstraat,16,,,7848BM,Schoonoord,Coevorden,Drenthe,VBO,6.752962,52.845155
Oude Molenstraat,17,,,7848BM,Schoonoord,Coevorden,Drenthe,VBO,6.752848,52.845119
Oude Molenstraat,18,,,7848BM,Schoonoord,Coevorden,Drenthe,VBO,6.752723,52.845069
Oude Molenstraat,19,,,7848BM,Schoonoord,Coevorden,Drenthe,VBO,6.752606,52.845025
Oude Molenstraat,20,,,7848BM,Schoonoord,Coevorden,Drenthe,VBO,6.752398,52.844922
Oude Molenstraat,21,,,7848BM,Schoonoord,Coevorden,Drenthe,VBO,6.751892,52.844757
Oude Molenstraat,22,,,7848BM,Schoonoord,Coevorden,Drenthe,VBO,6.751632,52.844655
Oude Molenstraat,28,,,7848BM,Schoonoord,Coevorden,Drenthe,VBO,6.744419,52.842910
Klinkenstraat,1,,,7848BN,Schoonoord,Coevorden,Drenthe,VBO,6.749599,52.844310
Klinkenstraat,2,a,,7848BN,Schoonoord,Coevorden,Drenthe,VBO,6.749826,52.844037
Klinkenstraat,2,,,7848BN,Schoonoord,Coevorden,Drenthe,VBO,6.749769,52.843874
Klinkenstraat,3,,,7848BN,Schoonoord,Coevorden,Drenthe,VBO,6.749949,52.844429
Klinkenstraat,4,,,7848BN,Schoonoord,Coevorden,Drenthe,VBO,6.750123,52.844109
Klinkenstraat,5,,,7848BN,Schoonoord,Coevorden,Drenthe,VBO,6.750253,52.844530
Klinkenstraat,6,,,7848BN,Schoonoord,Coevorden,Drenthe,VBO,6.750426,52.844214
Klinkenstraat,7,,,7848BN,Schoonoord,Coevorden,Drenthe,VBO,6.750566,52.844639
Klinkenstraat,8,,,7848BN,Schoonoord,Coevorden,Drenthe,VBO,6.750751,52.844331
Klinkenstraat,9,,,7848BN,Schoonoord,Coevorden,Drenthe,VBO,6.750521,52.844834
Klinkenstraat,10,,,7848BN,Schoonoord,Coevorden,Drenthe,VBO,6.751046,52.844425
Klinkenstraat,11,,,7848BN,Schoonoord,Coevorden,Drenthe,VBO,6.750178,52.844722
Klinkenstraat,12,,,7848BN,Schoonoord,Coevorden,Drenthe,VBO,6.751339,52.844523
Klinkenstraat,13,,,7848BN,Schoonoord,Coevorden,Drenthe,VBO,6.749879,52.844623
Klinkenstraat,14,,,7848BN,Schoonoord,Coevorden,Drenthe,VBO,6.751239,52.844836
Klinkenstraat,15,,,7848BN,Schoonoord,Coevorden,Drenthe,VBO,6.749585,52.844523
Klinkenstraat,16,,,7848BN,Schoonoord,Coevorden,Drenthe,VBO,6.751028,52.844988
Klinkenstraat,18,,,7848BN,Schoonoord,Coevorden,Drenthe,VBO,6.750866,52.845165
Klinkenstraat,20,,,7848BN,Schoonoord,Coevorden,Drenthe,VBO,6.750508,52.845204
Klinkenstraat,22,,,7848BN,Schoonoord,Coevorden,Drenthe,VBO,6.750215,52.845095
Klinkenstraat,24,,,7848BN,Schoonoord,Coevorden,Drenthe,VBO,6.749917,52.845003
Klinkenstraat,26,,,7848BN,Schoonoord,Coevorden,Drenthe,VBO,6.749574,52.844883
Klinkenstraat,28,,,7848BN,Schoonoord,Coevorden,Drenthe,VBO,6.749296,52.844793
Bonkersstraat,1,,,7848BP,Schoonoord,Coevorden,Drenthe,VBO,6.753753,52.845752
Bonkersstraat,2,,1,7848BP,Schoonoord,Coevorden,Drenthe,VBO,6.754761,52.845870
Bonkersstraat,2,,10,7848BP,Schoonoord,Coevorden,Drenthe,VBO,6.754157,52.846042
Bonkersstraat,2,,101,7848BP,Schoonoord,Coevorden,Drenthe,VBO,6.754827,52.845803
Bonkersstraat,2,,102,7848BP,Schoonoord,Coevorden,Drenthe,VBO,6.754819,52.845869
Bonkersstraat,2,,103,7848BP,Schoonoord,Coevorden,Drenthe,VBO,6.754780,52.845906
Bonkersstraat,2,,104,7848BP,Schoonoord,Coevorden,Drenthe,VBO,6.754737,52.845941
Bonkersstraat,2,,105,7848BP,Schoonoord,Coevorden,Drenthe,VBO,6.754696,52.845980
Bonkersstraat,2,,106,7848BP,Schoonoord,Coevorden,Drenthe,VBO,6.754648,52.846021
Bonkersstraat,2,,107,7848BP,Schoonoord,Coevorden,Drenthe,VBO,6.754418,52.846022
Bonkersstraat,2,,108,7848BP,Schoonoord,Coevorden,Drenthe,VBO,6.754288,52.846058
Bonkersstraat,2,,109,7848BP,Schoonoord,Coevorden,Drenthe,VBO,6.754362,52.846003
Bonkersstraat,2,,11,7848BP,Schoonoord,Coevorden,Drenthe,VBO,6.754303,52.845941
Bonkersstraat,2,,110,7848BP,Schoonoord,Coevorden,Drenthe,VBO,6.754235,52.846042
Bonkersstraat,2,,111,7848BP,Schoonoord,Coevorden,Drenthe,VBO,6.754270,52.845973
Bonkersstraat,2,,112,7848BP,Schoonoord,Coevorden,Drenthe,VBO,6.754171,52.846028
Bonkersstraat,2,,113,7848BP,Schoonoord,Coevorden,Drenthe,VBO,6.754227,52.845921
Bonkersstraat,2,,114,7848BP,Schoonoord,Coevorden,Drenthe,VBO,6.754110,52.846003
Bonkersstraat,2,,115,7848BP,Schoonoord,Coevorden,Drenthe,VBO,6.755198,52.845962
Bonkersstraat,2,,116,7848BP,Schoonoord,Coevorden,Drenthe,VBO,6.755255,52.845988
Bonkersstraat,2,,117,7848BP,Schoonoord,Coevorden,Drenthe,VBO,6.755323,52.846013
Bonkersstraat,2,,118,7848BP,Schoonoord,Coevorden,Drenthe,VBO,6.755316,52.846111
Bonkersstraat,2,,119,7848BP,Schoonoord,Coevorden,Drenthe,VBO,6.754878,52.846192
Bonkersstraat,2,,12,7848BP,Schoonoord,Coevorden,Drenthe,VBO,6.754087,52.846015
Bonkersstraat,2,,120,7848BP,Schoonoord,Coevorden,Drenthe,VBO,6.755017,52.846207
Bonkersstraat,2,,121,7848BP,Schoonoord,Coevorden,Drenthe,VBO,6.754832,52.846303
Bonkersstraat,2,,122,7848BP,Schoonoord,Coevorden,Drenthe,VBO,6.754987,52.846254
Bonkersstraat,2,,123,7848BP,Schoonoord,Coevorden,Drenthe,VBO,6.754834,52.846350
Bonkersstraat,2,,124,7848BP,Schoonoord,Coevorden,Drenthe,VBO,6.755023,52.846301
Bonkersstraat,2,,125,7848BP,Schoonoord,Coevorden,Drenthe,VBO,6.754779,52.846503
Bonkersstraat,2,,126,7848BP,Schoonoord,Coevorden,Drenthe,VBO,6.754972,52.846414
Bonkersstraat,2,,127,7848BP,Schoonoord,Coevorden,Drenthe,VBO,6.754731,52.846535
Bonkersstraat,2,,128,7848BP,Schoonoord,Coevorden,Drenthe,VBO,6.754941,52.846464
Bonkersstraat,2,,129,7848BP,Schoonoord,Coevorden,Drenthe,VBO,6.754877,52.846712
Bonkersstraat,2,,130,7848BP,Schoonoord,Coevorden,Drenthe,VBO,6.754913,52.846503
Bonkersstraat,2,,131,7848BP,Schoonoord,Coevorden,Drenthe,VBO,6.754930,52.846735
Bonkersstraat,2,,132,7848BP,Schoonoord,Coevorden,Drenthe,VBO,6.754941,52.846620
Bonkersstraat,2,,133,7848BP,Schoonoord,Coevorden,Drenthe,VBO,6.754980,52.846750
Bonkersstraat,2,,134,7848BP,Schoonoord,Coevorden,Drenthe,VBO,6.755011,52.846644
Bonkersstraat,2,,135,7848BP,Schoonoord,Coevorden,Drenthe,VBO,6.755065,52.846785
Bonkersstraat,2,,136,7848BP,Schoonoord,Coevorden,Drenthe,VBO,6.755088,52.846661
Bonkersstraat,2,,137,7848BP,Schoonoord,Coevorden,Drenthe,VBO,6.755019,52.846014
Bonkersstraat,2,,138,7848BP,Schoonoord,Coevorden,Drenthe,VBO,6.755144,52.846697
Bonkersstraat,2,,139,7848BP,Schoonoord,Coevorden,Drenthe,VBO,6.754894,52.846541
Bonkersstraat,2,,17,7848BP,Schoonoord,Coevorden,Drenthe,VBO,6.754835,52.846205
Bonkersstraat,2,,18,7848BP,Schoonoord,Coevorden,Drenthe,VBO,6.755058,52.846187
Bonkersstraat,2,,19,7848BP,Schoonoord,Coevorden,Drenthe,VBO,6.754837,52.846269
Bonkersstraat,2,,2,7848BP,Schoonoord,Coevorden,Drenthe,VBO,6.754712,52.845903
Bonkersstraat,2,,20,7848BP,Schoonoord,Coevorden,Drenthe,VBO,6.755000,52.846236
Bonkersstraat,2,,21,7848BP,Schoonoord,Coevorden,Drenthe,VBO,6.754792,52.846361
Bonkersstraat,2,,22,7848BP,Schoonoord,Coevorden,Drenthe,VBO,6.754997,52.846305
Bonkersstraat,2,,23,7848BP,Schoonoord,Coevorden,Drenthe,VBO,6.754797,52.846433
Bonkersstraat,2,,24,7848BP,Schoonoord,Coevorden,Drenthe,VBO,6.754985,52.846389
Bonkersstraat,2,,25,7848BP,Schoonoord,Coevorden,Drenthe,VBO,6.754780,52.846475
Bonkersstraat,2,,26,7848BP,Schoonoord,Coevorden,Drenthe,VBO,6.754977,52.846461
Bonkersstraat,2,,27,7848BP,Schoonoord,Coevorden,Drenthe,VBO,6.754681,52.846546
Bonkersstraat,2,,28,7848BP,Schoonoord,Coevorden,Drenthe,VBO,6.754952,52.846503
Bonkersstraat,2,,29,7848BP,Schoonoord,Coevorden,Drenthe,VBO,6.754826,52.846727
Bonkersstraat,2,,3,7848BP,Schoonoord,Coevorden,Drenthe,VBO,6.754669,52.845940
Bonkersstraat,2,,30,7848BP,Schoonoord,Coevorden,Drenthe,VBO,6.754955,52.846597
Bonkersstraat,2,,31,7848BP,Schoonoord,Coevorden,Drenthe,VBO,6.754878,52.846746
Bonkersstraat,2,,32,7848BP,Schoonoord,Coevorden,Drenthe,VBO,6.754990,52.846612
Bonkersstraat,2,,33,7848BP,Schoonoord,Coevorden,Drenthe,VBO,6.754913,52.846761
Bonkersstraat,2,,34,7848BP,Schoonoord,Coevorden,Drenthe,VBO,6.755050,52.846630
Bonkersstraat,2,,35,7848BP,Schoonoord,Coevorden,Drenthe,VBO,6.755033,52.846801
Bonkersstraat,2,,36,7848BP,Schoonoord,Coevorden,Drenthe,VBO,6.755158,52.846671
Bonkersstraat,2,,4,7848BP,Schoonoord,Coevorden,Drenthe,VBO,6.754626,52.845985
Bonkersstraat,2,,5,7848BP,Schoonoord,Coevorden,Drenthe,VBO,6.754577,52.846019
Bonkersstraat,2,,6,7848BP,Schoonoord,Coevorden,Drenthe,VBO,6.754277,52.846082
Bonkersstraat,2,,7,7848BP,Schoonoord,Coevorden,Drenthe,VBO,6.754438,52.845993
Bonkersstraat,2,,8,7848BP,Schoonoord,Coevorden,Drenthe,VBO,6.754217,52.846065
Bonkersstraat,2,,9,7848BP,Schoonoord,Coevorden,Drenthe,VBO,6.754373,52.845964
Bonkersstraat,2,,,7848BP,Schoonoord,Coevorden,Drenthe,VBO,6.754911,52.845923
Bonkersstraat,3,,,7848BP,Schoonoord,Coevorden,Drenthe,VBO,6.753690,52.845816
Stikkerstraat,1,,,7848BR,Schoonoord,Coevorden,Drenthe,VBO,6.754789,52.847365
Stikkerstraat,3,,,7848BR,Schoonoord,Coevorden,Drenthe,VBO,6.754807,52.847281
Stikkerstraat,9,,,7848BR,Schoonoord,Coevorden,Drenthe,VBO,6.754040,52.847130
Stikkerstraat,11,,,7848BR,Schoonoord,Coevorden,Drenthe,VBO,6.754046,52.847046
Stikkerstraat,29,,,7848BR,Schoonoord,Coevorden,Drenthe,VBO,6.752660,52.846676
Stikkerstraat,31,,,7848BR,Schoonoord,Coevorden,Drenthe,VBO,6.752572,52.846685
Stikkerstraat,33,,,7848BR,Schoonoord,Coevorden,Drenthe,VBO,6.752495,52.846656
Stikkerstraat,35,,,7848BR,Schoonoord,Coevorden,Drenthe,VBO,6.752421,52.846603
Stikkerstraat,37,,,7848BR,Schoonoord,Coevorden,Drenthe,VBO,6.752284,52.846551
Stikkerstraat,39,,,7848BR,Schoonoord,Coevorden,Drenthe,VBO,6.752192,52.846550
Stikkerstraat,41,,,7848BR,Schoonoord,Coevorden,Drenthe,VBO,6.752122,52.846521
Stikkerstraat,43,,,7848BR,Schoonoord,Coevorden,Drenthe,VBO,6.752045,52.846468
Stikkerstraat,45,,,7848BS,Schoonoord,Coevorden,Drenthe,VBO,6.751741,52.846407
Stikkerstraat,47,,,7848BS,Schoonoord,Coevorden,Drenthe,VBO,6.751642,52.846390
Stikkerstraat,49,,,7848BS,Schoonoord,Coevorden,Drenthe,VBO,6.751572,52.846362
Stikkerstraat,51,,,7848BS,Schoonoord,Coevorden,Drenthe,VBO,6.751501,52.846315
Stikkerstraat,53,,,7848BS,Schoonoord,Coevorden,Drenthe,VBO,6.751355,52.846270
Stikkerstraat,55,,,7848BS,Schoonoord,Coevorden,Drenthe,VBO,6.751269,52.846259
Stikkerstraat,57,,,7848BS,Schoonoord,Coevorden,Drenthe,VBO,6.751182,52.846228
Stikkerstraat,59,,,7848BS,Schoonoord,Coevorden,Drenthe,VBO,6.751116,52.846175
Ringstraat,1,,,7848BT,Schoonoord,Coevorden,Drenthe,VBO,6.751776,52.844973
Ringstraat,3,,,7848BT,Schoonoord,Coevorden,Drenthe,VBO,6.751720,52.845036
Ringstraat,5,,,7848BT,Schoonoord,Coevorden,Drenthe,VBO,6.751634,52.845123
Ringstraat,7,,,7848BT,Schoonoord,Coevorden,Drenthe,VBO,6.751567,52.845195
Ringstraat,9,,,7848BT,Schoonoord,Coevorden,Drenthe,VBO,6.751488,52.845279
Ringstraat,11,,,7848BT,Schoonoord,Coevorden,Drenthe,VBO,6.751412,52.845355
Ringstraat,13,,,7848BT,Schoonoord,Coevorden,Drenthe,VBO,6.751323,52.845432
Ringstraat,15,,,7848BT,Schoonoord,Coevorden,Drenthe,VBO,6.751264,52.845504
Ringstraat,17,,,7848BT,Schoonoord,Coevorden,Drenthe,VBO,6.751176,52.845576
Ringstraat,19,,,7848BT,Schoonoord,Coevorden,Drenthe,VBO,6.751113,52.845642
Ringstraat,21,,,7848BT,Schoonoord,Coevorden,Drenthe,VBO,6.751046,52.845715
Ringstraat,23,,,7848BT,Schoonoord,Coevorden,Drenthe,VBO,6.750977,52.845783
Ringstraat,25,,,7848BV,Schoonoord,Coevorden,Drenthe,VBO,6.750741,52.845939
Ringstraat,27,,,7848BV,Schoonoord,Coevorden,Drenthe,VBO,6.750739,52.845997
Ringstraat,29,,,7848BV,Schoonoord,Coevorden,Drenthe,VBO,6.750706,52.846049
Ringstraat,31,,,7848BV,Schoonoord,Coevorden,Drenthe,VBO,6.750638,52.846094
Ringstraat,33,,,7848BV,Schoonoord,Coevorden,Drenthe,VBO,6.750483,52.846149
Ringstraat,35,,,7848BV,Schoonoord,Coevorden,Drenthe,VBO,6.750460,52.846212
Ringstraat,37,,,7848BV,Schoonoord,Coevorden,Drenthe,VBO,6.750435,52.846269
Ringstraat,39,,,7848BV,Schoonoord,Coevorden,Drenthe,VBO,6.750384,52.846306
Ringstraat,41,,,7848BV,Schoonoord,Coevorden,Drenthe,VBO,6.750103,52.846139
Ringstraat,43,,,7848BV,Schoonoord,Coevorden,Drenthe,VBO,6.750017,52.846153
Ringstraat,45,,,7848BV,Schoonoord,Coevorden,Drenthe,VBO,6.749934,52.846129
Ringstraat,47,,,7848BV,Schoonoord,Coevorden,Drenthe,VBO,6.749858,52.846083
Ringstraat,49,,,7848BV,Schoonoord,Coevorden,Drenthe,VBO,6.749662,52.846225
Ringstraat,51,,,7848BV,Schoonoord,Coevorden,Drenthe,VBO,6.749627,52.846296
Ringstraat,53,,,7848BV,Schoonoord,Coevorden,Drenthe,VBO,6.749594,52.846353
Ringstraat,55,,,7848BV,Schoonoord,Coevorden,Drenthe,VBO,6.749567,52.846389
Ringstraat,57,,,7848BV,Schoonoord,Coevorden,Drenthe,VBO,6.749857,52.846555
Ringstraat,59,,,7848BV,Schoonoord,Coevorden,Drenthe,VBO,6.749838,52.846637
Ringstraat,61,,,7848BV,Schoonoord,Coevorden,Drenthe,VBO,6.749816,52.846686
Ringstraat,63,,,7848BV,Schoonoord,Coevorden,Drenthe,VBO,6.749755,52.846718
Ringstraat,2,,,7848BW,Schoonoord,Coevorden,Drenthe,VBO,6.752177,52.845114
Ringstraat,4,,,7848BW,Schoonoord,Coevorden,Drenthe,VBO,6.752152,52.845160
Ringstraat,6,,,7848BW,Schoonoord,Coevorden,Drenthe,VBO,6.752089,52.845214
Ringstraat,8,,,7848BW,Schoonoord,Coevorden,Drenthe,VBO,6.752071,52.845262
Ringstraat,10,,,7848BW,Schoonoord,Coevorden,Drenthe,VBO,6.751641,52.845690
Ringstraat,12,,,7848BW,Schoonoord,Coevorden,Drenthe,VBO,6.751559,52.845755
Ringstraat,14,,,7848BW,Schoonoord,Coevorden,Drenthe,VBO,6.751508,52.845804
Ringstraat,16,,,7848BW,Schoonoord,Coevorden,Drenthe,VBO,6.751476,52.845849
Ringstraat,18,,,7848BW,Schoonoord,Coevorden,Drenthe,VBO,6.751390,52.845932
Ringstraat,20,,,7848BW,Schoonoord,Coevorden,Drenthe,VBO,6.751334,52.845997
Ringstraat,22,,,7848BW,Schoonoord,Coevorden,Drenthe,VBO,6.750926,52.846831
Ringstraat,24,,,7848BW,Schoonoord,Coevorden,Drenthe,VBO,6.749402,52.848229
Ringstraat,26,,,7848BW,Schoonoord,Coevorden,Drenthe,VBO,6.749363,52.848288
Ringstraat,28,,,7848BW,Schoonoord,Coevorden,Drenthe,VBO,6.749232,52.848456
Ringstraat,30,,,7848BW,Schoonoord,Coevorden,Drenthe,VBO,6.749356,52.848581
Ringstraat,32,,,7848BW,Schoonoord,Coevorden,Drenthe,VBO,6.749609,52.848698
Ringstraat,34,,,7848BW,Schoonoord,Coevorden,Drenthe,VBO,6.749807,52.848764
Ringstraat,36,,,7848BW,Schoonoord,Coevorden,Drenthe,VBO,6.749907,52.848788
Ringstraat,38,,,7848BW,Schoonoord,Coevorden,Drenthe,VBO,6.750151,52.848850
Ringstraat,40,,,7848BW,Schoonoord,Coevorden,Drenthe,VBO,6.750315,52.848912
Ringstraat,42,,,7848BW,Schoonoord,Coevorden,Drenthe,VBO,6.750422,52.848948
Ringstraat,44,,,7848BW,Schoonoord,Coevorden,Drenthe,VBO,6.750573,52.849002
Ringstraat,46,,,7848BX,Schoonoord,Coevorden,Drenthe,VBO,6.750704,52.849019
Ringstraat,48,,,7848BX,Schoonoord,Coevorden,Drenthe,VBO,6.751123,52.849186
Ringstraat,50,,,7848BX,Schoonoord,Coevorden,Drenthe,VBO,6.751297,52.849298
Ringstraat,52,,,7848BX,Schoonoord,Coevorden,Drenthe,VBO,6.751616,52.849389
Splittingstraat,1,a,,7848CA,Schoonoord,Coevorden,Drenthe,VBO,6.750683,52.845650
Splittingstraat,1,b,,7848CA,Schoonoord,Coevorden,Drenthe,VBO,6.750709,52.845619
Splittingstraat,1,c,,7848CA,Schoonoord,Coevorden,Drenthe,VBO,6.750738,52.845587
Splittingstraat,1,d,,7848CA,Schoonoord,Coevorden,Drenthe,VBO,6.750771,52.845554
Splittingstraat,1,e,,7848CA,Schoonoord,Coevorden,Drenthe,VBO,6.750815,52.845541
Splittingstraat,1,f,,7848CA,Schoonoord,Coevorden,Drenthe,VBO,6.750843,52.845514
Splittingstraat,1,g,,7848CA,Schoonoord,Coevorden,Drenthe,VBO,6.750616,52.845464
Splittingstraat,1,h,,7848CA,Schoonoord,Coevorden,Drenthe,VBO,6.750641,52.845436
Splittingstraat,1,,,7848CA,Schoonoord,Coevorden,Drenthe,VBO,6.750351,52.845482
Splittingstraat,2,,,7848CA,Schoonoord,Coevorden,Drenthe,VBO,6.750141,52.845763
Splittingstraat,3,,,7848CA,Schoonoord,Coevorden,Drenthe,VBO,6.750103,52.845416
Splittingstraat,4,a,,7848CA,Schoonoord,Coevorden,Drenthe,VBO,6.749795,52.845933
Splittingstraat,4,,,7848CA,Schoonoord,Coevorden,Drenthe,VBO,6.749902,52.845693
Splittingstraat,5,,,7848CA,Schoonoord,Coevorden,Drenthe,VBO,6.749919,52.845382
Splittingstraat,6,,,7848CA,Schoonoord,Coevorden,Drenthe,VBO,6.749672,52.845681
Splittingstraat,7,,,7848CA,Schoonoord,Coevorden,Drenthe,VBO,6.749821,52.845355
Splittingstraat,8,,,7848CA,Schoonoord,Coevorden,Drenthe,VBO,6.749580,52.845648
Splittingstraat,9,,,7848CA,Schoonoord,Coevorden,Drenthe,VBO,6.749683,52.845290
Splittingstraat,11,,,7848CA,Schoonoord,Coevorden,Drenthe,VBO,6.749549,52.845259
Splittingstraat,13,,,7848CA,Schoonoord,Coevorden,Drenthe,VBO,6.749390,52.845210
Splittingstraat,15,,,7848CA,Schoonoord,Coevorden,Drenthe,VBO,6.749295,52.845181
Stortstraat,1,,,7848CB,Schoonoord,Coevorden,Drenthe,VBO,6.751831,52.845530
Stortstraat,3,,,7848CB,Schoonoord,Coevorden,Drenthe,VBO,6.751915,52.845560
Stortstraat,5,,,7848CB,Schoonoord,Coevorden,Drenthe,VBO,6.751999,52.845591
Stortstraat,7,,,7848CB,Schoonoord,Coevorden,Drenthe,VBO,6.752102,52.845612
Stortstraat,9,,,7848CB,Schoonoord,Coevorden,Drenthe,VBO,6.752220,52.845661
Stortstraat,11,,,7848CB,Schoonoord,Coevorden,Drenthe,VBO,6.752334,52.845700
Stortstraat,13,,,7848CB,Schoonoord,Coevorden,Drenthe,VBO,6.752657,52.845831
Stortstraat,15,,,7848CB,Schoonoord,Coevorden,Drenthe,VBO,6.752753,52.845870
Stortstraat,17,,,7848CB,Schoonoord,Coevorden,Drenthe,VBO,6.752823,52.845905
Stortstraat,19,,,7848CB,Schoonoord,Coevorden,Drenthe,VBO,6.752911,52.845923
Stortstraat,21,,,7848CB,Schoonoord,Coevorden,Drenthe,VBO,6.753030,52.845967
Stortstraat,23,,,7848CB,Schoonoord,Coevorden,Drenthe,VBO,6.753119,52.846008
Stortstraat,25,,,7848CB,Schoonoord,Coevorden,Drenthe,VBO,6.753193,52.846038
Stortstraat,27,,,7848CB,Schoonoord,Coevorden,Drenthe,VBO,6.753278,52.846053
Stortstraat,37,,,7848CB,Schoonoord,Coevorden,Drenthe,VBO,6.753917,52.846345
Stortstraat,39,,,7848CB,Schoonoord,Coevorden,Drenthe,VBO,6.754014,52.846376
Stortstraat,41,,,7848CB,Schoonoord,Coevorden,Drenthe,VBO,6.753769,52.846528
Stortstraat,43,,,7848CB,Schoonoord,Coevorden,Drenthe,VBO,6.753865,52.846550
Stortstraat,49,,,7848CB,Schoonoord,Coevorden,Drenthe,VBO,6.753419,52.846923
Stortstraat,51,,,7848CB,Schoonoord,Coevorden,Drenthe,VBO,6.753504,52.846945
Stortstraat,2,,,7848CC,Schoonoord,Coevorden,Drenthe,VBO,6.752349,52.845372
Stortstraat,4,,,7848CC,Schoonoord,Coevorden,Drenthe,VBO,6.752430,52.845432
Stortstraat,6,,,7848CC,Schoonoord,Coevorden,Drenthe,VBO,6.752548,52.845442
Stortstraat,8,,,7848CC,Schoonoord,Coevorden,Drenthe,VBO,6.752669,52.845506
Stortstraat,10,,,7848CC,Schoonoord,Coevorden,Drenthe,VBO,6.752750,52.845545
Stortstraat,12,,,7848CC,Schoonoord,Coevorden,Drenthe,VBO,6.752859,52.845559
Stortstraat,14,,,7848CC,Schoonoord,Coevorden,Drenthe,VBO,6.752992,52.845594
Stortstraat,16,,,7848CC,Schoonoord,Coevorden,Drenthe,VBO,6.753062,52.845658
Stortstraat,18,,,7848CC,Schoonoord,Coevorden,Drenthe,VBO,6.753176,52.845655
Stortstraat,20,,,7848CC,Schoonoord,Coevorden,Drenthe,VBO,6.753282,52.845699
Stortstraat,22,a,,7848CC,Schoonoord,Coevorden,Drenthe,VBO,6.753426,52.845784
Stortstraat,22,,,7848CC,Schoonoord,Coevorden,Drenthe,VBO,6.753367,52.845749
Stortstraat,24,a,,7848CC,Schoonoord,Coevorden,Drenthe,VBO,6.755043,52.846728
Stortstraat,24,b,,7848CC,Schoonoord,Coevorden,Drenthe,VBO,6.755004,52.846773
Stortstraat,24,,,7848CC,Schoonoord,Coevorden,Drenthe,VBO,6.755087,52.846682
Stortstraat,26,a,,7848CC,Schoonoord,Coevorden,Drenthe,VBO,6.754968,52.846704
Stortstraat,26,b,,7848CC,Schoonoord,Coevorden,Drenthe,VBO,6.754932,52.846753
Stortstraat,26,,,7848CC,Schoonoord,Coevorden,Drenthe,VBO,6.754985,52.846653
Stortstraat,28,a,,7848CC,Schoonoord,Coevorden,Drenthe,VBO,6.754843,52.846692
Stortstraat,28,b,,7848CC,Schoonoord,Coevorden,Drenthe,VBO,6.754848,52.846718
Stortstraat,28,,,7848CC,Schoonoord,Coevorden,Drenthe,VBO,6.754851,52.846642
Stortstraat,30,a,,7848CC,Schoonoord,Coevorden,Drenthe,VBO,6.754703,52.846666
Stortstraat,30,b,,7848CC,Schoonoord,Coevorden,Drenthe,VBO,6.754715,52.846728
Stortstraat,30,,,7848CC,Schoonoord,Coevorden,Drenthe,VBO,6.754700,52.846617
Stortstraat,32,a,,7848CC,Schoonoord,Coevorden,Drenthe,VBO,6.754558,52.846614
Stortstraat,32,b,,7848CC,Schoonoord,Coevorden,Drenthe,VBO,6.754552,52.846686
Stortstraat,32,,,7848CC,Schoonoord,Coevorden,Drenthe,VBO,6.754553,52.846569
Stortstraat,34,a,,7848CC,Schoonoord,Coevorden,Drenthe,VBO,6.754443,52.846627
Stortstraat,34,b,,7848CC,Schoonoord,Coevorden,Drenthe,VBO,6.754406,52.846681
Stortstraat,34,,,7848CC,Schoonoord,Coevorden,Drenthe,VBO,6.754438,52.846557
Stortstraat,36,,,7848CC,Schoonoord,Coevorden,Drenthe,VBO,6.754985,52.847114
Stortstraat,38,,,7848CC,Schoonoord,Coevorden,Drenthe,VBO,6.754964,52.847198
Stortstraat,40,,,7848CC,Schoonoord,Coevorden,Drenthe,VBO,6.754610,52.846975
Stortstraat,42,,,7848CC,Schoonoord,Coevorden,Drenthe,VBO,6.754593,52.847059
Stortstraat,44,,,7848CC,Schoonoord,Coevorden,Drenthe,VBO,6.754237,52.846860
Stortstraat,46,,,7848CC,Schoonoord,Coevorden,Drenthe,VBO,6.754218,52.846943
Loetestraat,1,,,7848CD,Schoonoord,Coevorden,Drenthe,VBO,6.752179,52.845846
Loetestraat,2,,,7848CD,Schoonoord,Coevorden,Drenthe,VBO,6.752615,52.845989
Loetestraat,3,,,7848CD,Schoonoord,Coevorden,Drenthe,VBO,6.752140,52.845927
Loetestraat,4,,,7848CD,Schoonoord,Coevorden,Drenthe,VBO,6.752519,52.846046
Loetestraat,5,,,7848CD,Schoonoord,Coevorden,Drenthe,VBO,6.752088,52.845972
Loetestraat,6,,,7848CD,Schoonoord,Coevorden,Drenthe,VBO,6.752477,52.846098
Loetestraat,7,,,7848CD,Schoonoord,Coevorden,Drenthe,VBO,6.752043,52.846015
Loetestraat,8,,,7848CD,Schoonoord,Coevorden,Drenthe,VBO,6.752474,52.846141
Loetestraat,9,,,7848CD,Schoonoord,Coevorden,Drenthe,VBO,6.751959,52.846104
Loetestraat,10,,,7848CD,Schoonoord,Coevorden,Drenthe,VBO,6.752385,52.846217
Loetestraat,11,,,7848CD,Schoonoord,Coevorden,Drenthe,VBO,6.751921,52.846155
Loetestraat,12,,,7848CD,Schoonoord,Coevorden,Drenthe,VBO,6.752303,52.846279
Loetestraat,13,,,7848CD,Schoonoord,Coevorden,Drenthe,VBO,6.751872,52.846204
Loetestraat,14,,,7848CD,Schoonoord,Coevorden,Drenthe,VBO,6.752245,52.846324
Loetestraat,15,,,7848CD,Schoonoord,Coevorden,Drenthe,VBO,6.751858,52.846249
Loetestraat,16,,,7848CD,Schoonoord,Coevorden,Drenthe,VBO,6.752236,52.846374
Legerstraat,1,,,7848CE,Schoonoord,Coevorden,Drenthe,VBO,6.753102,52.846164
Legerstraat,2,,,7848CE,Schoonoord,Coevorden,Drenthe,VBO,6.753647,52.846186
Legerstraat,3,,,7848CE,Schoonoord,Coevorden,Drenthe,VBO,6.753057,52.846245
Legerstraat,4,,,7848CE,Schoonoord,Coevorden,Drenthe,VBO,6.753773,52.846233
Legerstraat,5,,,7848CE,Schoonoord,Coevorden,Drenthe,VBO,6.752998,52.846292
Legerstraat,7,,,7848CE,Schoonoord,Coevorden,Drenthe,VBO,6.752943,52.846318
Legerstraat,9,,,7848CE,Schoonoord,Coevorden,Drenthe,VBO,6.752877,52.846392
Legerstraat,10,,,7848CE,Schoonoord,Coevorden,Drenthe,VBO,6.753300,52.846575
Legerstraat,11,,,7848CE,Schoonoord,Coevorden,Drenthe,VBO,6.752841,52.846470
Legerstraat,12,,,7848CE,Schoonoord,Coevorden,Drenthe,VBO,6.753429,52.846610
Legerstraat,13,,,7848CE,Schoonoord,Coevorden,Drenthe,VBO,6.752803,52.846523
Legerstraat,14,,,7848CE,Schoonoord,Coevorden,Drenthe,VBO,6.753133,52.846780
Legerstraat,15,,,7848CE,Schoonoord,Coevorden,Drenthe,VBO,6.752727,52.846544
Legerstraat,16,,,7848CE,Schoonoord,Coevorden,Drenthe,VBO,6.753214,52.846809
Stikkerstraat,20,,,7848CG,Schoonoord,Coevorden,Drenthe,VBO,6.752731,52.847549
Stikkerstraat,22,,,7848CG,Schoonoord,Coevorden,Drenthe,VBO,6.752691,52.847476
Stikkerstraat,24,,,7848CG,Schoonoord,Coevorden,Drenthe,VBO,6.752623,52.847369
Stikkerstraat,26,,,7848CG,Schoonoord,Coevorden,Drenthe,VBO,6.752560,52.847254
Stikkerstraat,28,,,7848CG,Schoonoord,Coevorden,Drenthe,VBO,6.752536,52.847131
Stikkerstraat,30,,,7848CG,Schoonoord,Coevorden,Drenthe,VBO,6.752496,52.847050
Stikkerstraat,32,,,7848CG,Schoonoord,Coevorden,Drenthe,VBO,6.752329,52.846951
Stikkerstraat,34,,,7848CG,Schoonoord,Coevorden,Drenthe,VBO,6.752193,52.846898
Juttestraat,2,,,7848CH,Schoonoord,Coevorden,Drenthe,VBO,6.752043,52.847110
Juttestraat,4,,,7848CH,Schoonoord,Coevorden,Drenthe,VBO,6.752040,52.847186
Juttestraat,6,,,7848CH,Schoonoord,Coevorden,Drenthe,VBO,6.752123,52.847207
Juttestraat,8,,,7848CH,Schoonoord,Coevorden,Drenthe,VBO,6.752157,52.847330
Juttestraat,10,,,7848CH,Schoonoord,Coevorden,Drenthe,VBO,6.752132,52.847412
Juttestraat,12,,,7848CH,Schoonoord,Coevorden,Drenthe,VBO,6.752174,52.847469
Juttestraat,14,,,7848CH,Schoonoord,Coevorden,Drenthe,VBO,6.752245,52.847483
Juttestraat,16,,,7848CH,Schoonoord,Coevorden,Drenthe,VBO,6.752453,52.847836
Juttestraat,18,,,7848CH,Schoonoord,Coevorden,Drenthe,VBO,6.752381,52.847821
Juttestraat,20,,,7848CH,Schoonoord,Coevorden,Drenthe,VBO,6.752308,52.847788
Juttestraat,22,,,7848CH,Schoonoord,Coevorden,Drenthe,VBO,6.752196,52.847782
Juttestraat,24,,,7848CH,Schoonoord,Coevorden,Drenthe,VBO,6.752109,52.847752
Juttestraat,26,,,7848CH,Schoonoord,Coevorden,Drenthe,VBO,6.752022,52.848404
Juttestraat,28,,,7848CH,Schoonoord,Coevorden,Drenthe,VBO,6.751932,52.848440
Juttestraat,30,,,7848CH,Schoonoord,Coevorden,Drenthe,VBO,6.751838,52.848459
Juttestraat,32,,,7848CH,Schoonoord,Coevorden,Drenthe,VBO,6.751802,52.848498
Juttestraat,34,,,7848CH,Schoonoord,Coevorden,Drenthe,VBO,6.751832,52.848716
Juttestraat,36,,,7848CH,Schoonoord,Coevorden,Drenthe,VBO,6.751785,52.848754
Juttestraat,38,,,7848CH,Schoonoord,Coevorden,Drenthe,VBO,6.751747,52.848790
Juttestraat,40,,,7848CH,Schoonoord,Coevorden,Drenthe,VBO,6.751716,52.848824
Juttestraat,42,,,7848CH,Schoonoord,Coevorden,Drenthe,VBO,6.751735,52.848842
Juttestraat,44,,,7848CH,Schoonoord,Coevorden,Drenthe,VBO,6.751421,52.849003
Juttestraat,46,,,7848CH,Schoonoord,Coevorden,Drenthe,VBO,6.751300,52.849070
Juttestraat,1,,,7848CJ,Schoonoord,Coevorden,Drenthe,VBO,6.751802,52.846745
Juttestraat,3,,,7848CJ,Schoonoord,Coevorden,Drenthe,VBO,6.751729,52.846817
Juttestraat,5,,,7848CJ,Schoonoord,Coevorden,Drenthe,VBO,6.751648,52.846901
Juttestraat,7,,,7848CJ,Schoonoord,Coevorden,Drenthe,VBO,6.751582,52.846965
Juttestraat,9,,,7848CJ,Schoonoord,Coevorden,Drenthe,VBO,6.751511,52.847101
Juttestraat,11,,,7848CJ,Schoonoord,Coevorden,Drenthe,VBO,6.751518,52.847172
Juttestraat,13,,,7848CJ,Schoonoord,Coevorden,Drenthe,VBO,6.751574,52.847284
Juttestraat,15,,,7848CJ,Schoonoord,Coevorden,Drenthe,VBO,6.751620,52.847346
Juttestraat,17,,,7848CJ,Schoonoord,Coevorden,Drenthe,VBO,6.751440,52.847632
Juttestraat,19,,,7848CJ,Schoonoord,Coevorden,Drenthe,VBO,6.751548,52.847645
Juttestraat,21,,,7848CJ,Schoonoord,Coevorden,Drenthe,VBO,6.751648,52.847614
Juttestraat,23,,,7848CJ,Schoonoord,Coevorden,Drenthe,VBO,6.751712,52.847554
Juttestraat,25,,,7848CJ,Schoonoord,Coevorden,Drenthe,VBO,6.751376,52.847805
Juttestraat,27,,,7848CJ,Schoonoord,Coevorden,Drenthe,VBO,6.751315,52.847891
Juttestraat,29,,,7848CJ,Schoonoord,Coevorden,Drenthe,VBO,6.751268,52.848011
Juttestraat,31,,,7848CJ,Schoonoord,Coevorden,Drenthe,VBO,6.751217,52.848084
Juttestraat,33,,,7848CJ,Schoonoord,Coevorden,Drenthe,VBO,6.751120,52.848191
Juttestraat,35,,,7848CJ,Schoonoord,Coevorden,Drenthe,VBO,6.751065,52.848262
Juttestraat,37,,,7848CJ,Schoonoord,Coevorden,Drenthe,VBO,6.750915,52.848452
Juttestraat,39,,,7848CJ,Schoonoord,Coevorden,Drenthe,VBO,6.750832,52.848498
Juttestraat,41,,,7848CJ,Schoonoord,Coevorden,Drenthe,VBO,6.750841,52.848538
Juttestraat,43,,,7848CJ,Schoonoord,Coevorden,Drenthe,VBO,6.751270,52.848529
Juttestraat,45,,,7848CJ,Schoonoord,Coevorden,Drenthe,VBO,6.751292,52.848568
Juttestraat,47,,,7848CJ,Schoonoord,Coevorden,Drenthe,VBO,6.751342,52.848601
Juttestraat,49,,,7848CJ,Schoonoord,Coevorden,Drenthe,VBO,6.751383,52.848630
Juttestraat,51,,,7848CJ,Schoonoord,Coevorden,Drenthe,VBO,6.751393,52.848666
Juttestraat,53,,,7848CJ,Schoonoord,Coevorden,Drenthe,VBO,6.751169,52.848729
Juttestraat,55,,,7848CJ,Schoonoord,Coevorden,Drenthe,VBO,6.750930,52.848870
Klemstraat,2,,,7848CK,Schoonoord,Coevorden,Drenthe,VBO,6.752553,52.848394
Klemstraat,4,,,7848CK,Schoonoord,Coevorden,Drenthe,VBO,6.752450,52.848381
Klemstraat,6,,,7848CK,Schoonoord,Coevorden,Drenthe,VBO,6.752371,52.848362
Klemstraat,8,,,7848CK,Schoonoord,Coevorden,Drenthe,VBO,6.752276,52.848339
Klemstraat,10,,,7848CK,Schoonoord,Coevorden,Drenthe,VBO,6.752201,52.848300
Scheerturfstraat,1,,,7848CL,Schoonoord,Coevorden,Drenthe,VBO,6.752822,52.847804
Scheerturfstraat,3,,,7848CL,Schoonoord,Coevorden,Drenthe,VBO,6.752826,52.847851
Scheerturfstraat,5,,,7848CL,Schoonoord,Coevorden,Drenthe,VBO,6.752781,52.848005
Scheerturfstraat,7,,,7848CL,Schoonoord,Coevorden,Drenthe,VBO,6.752719,52.848076
Scheerturfstraat,9,,,7848CL,Schoonoord,Coevorden,Drenthe,VBO,6.752375,52.848514
Scheerturfstraat,11,,,7848CL,Schoonoord,Coevorden,Drenthe,VBO,6.752351,52.848560
Scheerturfstraat,13,,,7848CL,Schoonoord,Coevorden,Drenthe,VBO,6.752346,52.848601
Scheerturfstraat,15,,,7848CL,Schoonoord,Coevorden,Drenthe,VBO,6.752282,52.848630
Scheerturfstraat,17,,,7848CL,Schoonoord,Coevorden,Drenthe,VBO,6.752306,52.848673
Scheerturfstraat,19,,,7848CL,Schoonoord,Coevorden,Drenthe,VBO,6.752236,52.848679
Scheerturfstraat,21,,,7848CL,Schoonoord,Coevorden,Drenthe,VBO,6.752174,52.848795
Scheerturfstraat,23,,,7848CL,Schoonoord,Coevorden,Drenthe,VBO,6.752161,52.848839
Scheerturfstraat,25,,,7848CL,Schoonoord,Coevorden,Drenthe,VBO,6.752169,52.848887
Scheerturfstraat,27,,,7848CL,Schoonoord,Coevorden,Drenthe,VBO,6.752110,52.848905
Scheerturfstraat,29,,,7848CL,Schoonoord,Coevorden,Drenthe,VBO,6.752132,52.848952
Scheerturfstraat,31,,,7848CL,Schoonoord,Coevorden,Drenthe,VBO,6.752055,52.848951
Scheerturfstraat,33,,,7848CL,Schoonoord,Coevorden,Drenthe,VBO,6.752048,52.849086
Scheerturfstraat,35,,,7848CL,Schoonoord,Coevorden,Drenthe,VBO,6.751997,52.849141
Scheerturfstraat,37,,,7848CL,Schoonoord,Coevorden,Drenthe,VBO,6.751910,52.849273
Scheerturfstraat,39,,,7848CL,Schoonoord,Coevorden,Drenthe,VBO,6.751981,52.850195
Scheerturfstraat,41,,,7848CL,Schoonoord,Coevorden,Drenthe,VBO,6.752067,52.850217
Scheerturfstraat,43,,,7848CL,Schoonoord,Coevorden,Drenthe,VBO,6.752240,52.850279
Scheerturfstraat,45,,,7848CL,Schoonoord,Coevorden,Drenthe,VBO,6.752333,52.850306
Scheerturfstraat,47,,,7848CL,Schoonoord,Coevorden,Drenthe,VBO,6.752485,52.850356
Scheerturfstraat,49,,,7848CL,Schoonoord,Coevorden,Drenthe,VBO,6.752582,52.850384
Scheerturfstraat,4,,,7848CM,Schoonoord,Coevorden,Drenthe,VBO,6.754979,52.847868
Scheerturfstraat,6,,,7848CM,Schoonoord,Coevorden,Drenthe,VBO,6.754689,52.847791
Scheerturfstraat,8,,,7848CM,Schoonoord,Coevorden,Drenthe,VBO,6.754458,52.847755
Scheerturfstraat,10,,,7848CM,Schoonoord,Coevorden,Drenthe,VBO,6.754329,52.847781
Scheerturfstraat,12,,,7848CM,Schoonoord,Coevorden,Drenthe,VBO,6.754166,52.847828
Scheerturfstraat,14,,,7848CM,Schoonoord,Coevorden,Drenthe,VBO,6.754043,52.847857
Scheerturfstraat,16,,,7848CM,Schoonoord,Coevorden,Drenthe,VBO,6.753798,52.847918
Scheerturfstraat,18,,,7848CM,Schoonoord,Coevorden,Drenthe,VBO,6.753648,52.847953
Scheerturfstraat,20,,,7848CM,Schoonoord,Coevorden,Drenthe,VBO,6.753435,52.848016
Scheerturfstraat,22,,,7848CM,Schoonoord,Coevorden,Drenthe,VBO,6.753413,52.848066
Scheerturfstraat,24,,,7848CM,Schoonoord,Coevorden,Drenthe,VBO,6.753357,52.848181
Scheerturfstraat,26,,,7848CM,Schoonoord,Coevorden,Drenthe,VBO,6.753277,52.848232
Scheerturfstraat,28,,,7848CM,Schoonoord,Coevorden,Drenthe,VBO,6.753192,52.848327
Scheerturfstraat,30,,,7848CM,Schoonoord,Coevorden,Drenthe,VBO,6.753144,52.848392
Scheerturfstraat,32,,,7848CM,Schoonoord,Coevorden,Drenthe,VBO,6.753035,52.848488
Scheerturfstraat,34,,,7848CM,Schoonoord,Coevorden,Drenthe,VBO,6.752989,52.848541
Scheerturfstraat,36,,,7848CM,Schoonoord,Coevorden,Drenthe,VBO,6.752909,52.848646
Scheerturfstraat,38,,,7848CM,Schoonoord,Coevorden,Drenthe,VBO,6.752845,52.848687
Scheerturfstraat,40,,,7848CM,Schoonoord,Coevorden,Drenthe,VBO,6.752709,52.848898
Scheerturfstraat,42,,,7848CM,Schoonoord,Coevorden,Drenthe,VBO,6.752632,52.848956
Scheerturfstraat,44,,,7848CM,Schoonoord,Coevorden,Drenthe,VBO,6.752590,52.849006
Scheerturfstraat,46,,,7848CM,Schoonoord,Coevorden,Drenthe,VBO,6.752588,52.849055
Klaas Buiststraat,1,,,7848CN,Schoonoord,Coevorden,Drenthe,VBO,6.748166,52.849031
Klaas Buiststraat,2,,,7848CN,Schoonoord,Coevorden,Drenthe,VBO,6.748673,52.849143
Klaas Buiststraat,3,,,7848CN,Schoonoord,Coevorden,Drenthe,VBO,6.747875,52.848929
Klaas Buiststraat,4,,,7848CN,Schoonoord,Coevorden,Drenthe,VBO,6.748387,52.849330
Klaas Buiststraat,5,,,7848CN,Schoonoord,Coevorden,Drenthe,VBO,6.747585,52.849002
Klaas Buiststraat,6,,,7848CN,Schoonoord,Coevorden,Drenthe,VBO,6.748335,52.849507
Klaas Buiststraat,7,,,7848CN,Schoonoord,Coevorden,Drenthe,VBO,6.747491,52.849196
Klaas Buiststraat,9,,,7848CN,Schoonoord,Coevorden,Drenthe,VBO,6.747771,52.849336
De Stobbe,1,,,7848CP,Schoonoord,Coevorden,Drenthe,VBO,6.749448,52.846593
De Stobbe,2,a,,7848CP,Schoonoord,Coevorden,Drenthe,VBO,6.749119,52.846877
De Stobbe,2,,,7848CP,Schoonoord,Coevorden,Drenthe,VBO,6.749240,52.846909
De Stobbe,3,,,7848CP,Schoonoord,Coevorden,Drenthe,VBO,6.749330,52.846548
De Stobbe,4,,,7848CP,Schoonoord,Coevorden,Drenthe,VBO,6.748949,52.846846
De Stobbe,5,,,7848CP,Schoonoord,Coevorden,Drenthe,VBO,6.749023,52.846494
De Stobbe,6,,,7848CP,Schoonoord,Coevorden,Drenthe,VBO,6.748848,52.846817
De Stobbe,7,,,7848CP,Schoonoord,Coevorden,Drenthe,VBO,6.749009,52.846455
De Stobbe,8,,,7848CP,Schoonoord,Coevorden,Drenthe,VBO,6.748672,52.846766
De Stobbe,9,,,7848CP,Schoonoord,Coevorden,Drenthe,VBO,6.749048,52.846404
De Stobbe,10,,,7848CP,Schoonoord,Coevorden,Drenthe,VBO,6.748452,52.846516
De Stobbe,11,,,7848CP,Schoonoord,Coevorden,Drenthe,VBO,6.749140,52.846337
De Stobbe,12,,,7848CP,Schoonoord,Coevorden,Drenthe,VBO,6.748498,52.846475
De Stobbe,13,,,7848CP,Schoonoord,Coevorden,Drenthe,VBO,6.749146,52.846235
De Stobbe,14,,,7848CP,Schoonoord,Coevorden,Drenthe,VBO,6.748561,52.846349
De Stobbe,15,,,7848CP,Schoonoord,Coevorden,Drenthe,VBO,6.749148,52.846189
De Stobbe,16,,,7848CP,Schoonoord,Coevorden,Drenthe,VBO,6.748583,52.846292
De Stobbe,17,,,7848CP,Schoonoord,Coevorden,Drenthe,VBO,6.749177,52.846136
De Stobbe,18,,,7848CP,Schoonoord,Coevorden,Drenthe,VBO,6.748598,52.846175
De Stobbe,19,,,7848CP,Schoonoord,Coevorden,Drenthe,VBO,6.749262,52.846078
De Stobbe,20,,,7848CP,Schoonoord,Coevorden,Drenthe,VBO,6.748628,52.846115
De Stobbe,21,,,7848CP,Schoonoord,Coevorden,Drenthe,VBO,6.749341,52.845940
De Stobbe,22,,,7848CP,Schoonoord,Coevorden,Drenthe,VBO,6.748736,52.845996
De Stobbe,23,,,7848CP,Schoonoord,Coevorden,Drenthe,VBO,6.749341,52.845891
De Stobbe,24,,,7848CP,Schoonoord,Coevorden,Drenthe,VBO,6.748765,52.845946
De Stobbe,25,,,7848CP,Schoonoord,Coevorden,Drenthe,VBO,6.749383,52.845841
De Stobbe,27,,,7848CP,Schoonoord,Coevorden,Drenthe,VBO,6.749475,52.845794
De Stobbe,28,,,7848CP,Schoonoord,Coevorden,Drenthe,VBO,6.748925,52.845762
De Stobbe,30,,,7848CP,Schoonoord,Coevorden,Drenthe,VBO,6.749032,52.845611
Het Slag,1,a,,7848CR,Schoonoord,Coevorden,Drenthe,VBO,6.749128,52.847290
Het Slag,1,,,7848CR,Schoonoord,Coevorden,Drenthe,VBO,6.749272,52.847332
Het Slag,3,,,7848CR,Schoonoord,Coevorden,Drenthe,VBO,6.749057,52.847232
Het Slag,5,,,7848CR,Schoonoord,Coevorden,Drenthe,VBO,6.748917,52.847155
Het Slag,7,,,7848CR,Schoonoord,Coevorden,Drenthe,VBO,6.748832,52.847132
Het Slag,9,,,7848CR,Schoonoord,Coevorden,Drenthe,VBO,6.748695,52.847096
Het Slag,11,,,7848CR,Schoonoord,Coevorden,Drenthe,VBO,6.748589,52.847070
Het Slag,13,,,7848CR,Schoonoord,Coevorden,Drenthe,VBO,6.748281,52.847055
Het Slag,15,,,7848CR,Schoonoord,Coevorden,Drenthe,VBO,6.748192,52.847224
Het Slag,17,,,7848CR,Schoonoord,Coevorden,Drenthe,VBO,6.748123,52.847358
Het Slag,19,,,7848CR,Schoonoord,Coevorden,Drenthe,VBO,6.748076,52.847576
Het Slag,21,,,7848CR,Schoonoord,Coevorden,Drenthe,VBO,6.748325,52.847625
Het Slag,23,,,7848CR,Schoonoord,Coevorden,Drenthe,VBO,6.748550,52.847701
Het Slag,25,,,7848CR,Schoonoord,Coevorden,Drenthe,VBO,6.748850,52.847608
Het Slag,27,,,7848CR,Schoonoord,Coevorden,Drenthe,VBO,6.748929,52.847574
Alle Boelensstraat,1,,,7848CS,Schoonoord,Coevorden,Drenthe,VBO,6.749328,52.849372
Alle Boelensstraat,3,,,7848CS,Schoonoord,Coevorden,Drenthe,VBO,6.749046,52.849262
Alle Boelensstraat,5,,,7848CS,Schoonoord,Coevorden,Drenthe,VBO,6.748851,52.849506
Alle Boelensstraat,7,,,7848CS,Schoonoord,Coevorden,Drenthe,VBO,6.748921,52.849720
Alle Boelensstraat,9,,,7848CS,Schoonoord,Coevorden,Drenthe,VBO,6.749421,52.849795
Alle Boelensstraat,11,,,7848CS,Schoonoord,Coevorden,Drenthe,VBO,6.749700,52.849911
Alle Boelensstraat,13,,,7848CS,Schoonoord,Coevorden,Drenthe,VBO,6.749940,52.849941
Alle Boelensstraat,15,,,7848CS,Schoonoord,Coevorden,Drenthe,VBO,6.750015,52.849964
Alle Boelensstraat,17,,,7848CS,Schoonoord,Coevorden,Drenthe,VBO,6.750232,52.850050
Alle Boelensstraat,19,,,7848CS,Schoonoord,Coevorden,Drenthe,VBO,6.750324,52.850075
Alle Boelensstraat,21,,,7848CS,Schoonoord,Coevorden,Drenthe,VBO,6.750610,52.850132
Alle Boelensstraat,23,,,7848CS,Schoonoord,Coevorden,Drenthe,VBO,6.750846,52.850251
Alle Boelensstraat,25,,,7848CS,Schoonoord,Coevorden,Drenthe,VBO,6.751122,52.850472
Alle Boelensstraat,27,,,7848CS,Schoonoord,Coevorden,Drenthe,VBO,6.751374,52.850570
Alle Boelensstraat,29,,,7848CS,Schoonoord,Coevorden,Drenthe,VBO,6.751641,52.851490
Alle Boelensstraat,2,,,7848CT,Schoonoord,Coevorden,Drenthe,VBO,6.749657,52.849516
Alle Boelensstraat,4,,,7848CT,Schoonoord,Coevorden,Drenthe,VBO,6.749732,52.849543
Alle Boelensstraat,6,,,7848CT,Schoonoord,Coevorden,Drenthe,VBO,6.749974,52.849583
Alle Boelensstraat,8,,,7848CT,Schoonoord,Coevorden,Drenthe,VBO,6.750042,52.849606
Alle Boelensstraat,10,,,7848CT,Schoonoord,Coevorden,Drenthe,VBO,6.750256,52.849665
Alle Boelensstraat,12,,,7848CT,Schoonoord,Coevorden,Drenthe,VBO,6.750495,52.849753
Alle Boelensstraat,14,,,7848CT,Schoonoord,Coevorden,Drenthe,VBO,6.750748,52.849839
Alle Boelensstraat,16,,,7848CT,Schoonoord,Coevorden,Drenthe,VBO,6.750814,52.849864
Alle Boelensstraat,18,,,7848CT,Schoonoord,Coevorden,Drenthe,VBO,6.750992,52.849970
Alle Boelensstraat,20,,,7848CT,Schoonoord,Coevorden,Drenthe,VBO,6.751069,52.849993
Alle Boelensstraat,22,,,7848CT,Schoonoord,Coevorden,Drenthe,VBO,6.751793,52.850367
Alle Boelensstraat,24,,,7848CT,Schoonoord,Coevorden,Drenthe,VBO,6.751882,52.850403
Alle Boelensstraat,26,,,7848CT,Schoonoord,Coevorden,Drenthe,VBO,6.752032,52.850473
Alle Boelensstraat,28,,,7848CT,Schoonoord,Coevorden,Drenthe,VBO,6.752117,52.850509
Alle Boelensstraat,30,,,7848CT,Schoonoord,Coevorden,Drenthe,VBO,6.752264,52.850574
Alle Boelensstraat,32,,,7848CT,Schoonoord,Coevorden,Drenthe,VBO,6.752349,52.850613
Alle Boelensstraat,34,,,7848CT,Schoonoord,Coevorden,Drenthe,VBO,6.752537,52.850945
Alle Boelensstraat,36,,,7848CT,Schoonoord,Coevorden,Drenthe,VBO,6.752497,52.851153
Zetveld,1,,,7848CX,Schoonoord,Coevorden,Drenthe,VBO,6.749927,52.847380
Zetveld,3,,,7848CX,Schoonoord,Coevorden,Drenthe,VBO,6.749984,52.847400
Zetveld,5,,,7848CX,Schoonoord,Coevorden,Drenthe,VBO,6.750065,52.847418
Zetveld,7,,,7848CX,Schoonoord,Coevorden,Drenthe,VBO,6.750132,52.847442
Zetveld,9,,,7848CX,Schoonoord,Coevorden,Drenthe,VBO,6.750190,52.847456
Zetveld,11,,,7848CX,Schoonoord,Coevorden,Drenthe,VBO,6.750304,52.847461
Zetveld,13,,,7848CX,Schoonoord,Coevorden,Drenthe,VBO,6.750337,52.847699
Zetveld,15,,,7848CX,Schoonoord,Coevorden,Drenthe,VBO,6.750320,52.847743
Zetveld,17,,,7848CX,Schoonoord,Coevorden,Drenthe,VBO,6.750289,52.847791
Zetveld,19,,,7848CX,Schoonoord,Coevorden,Drenthe,VBO,6.750262,52.847832
Zetveld,21,,,7848CX,Schoonoord,Coevorden,Drenthe,VBO,6.750231,52.847880
Zetveld,23,,,7848CX,Schoonoord,Coevorden,Drenthe,VBO,6.750214,52.847909
Zetveld,25,,,7848CX,Schoonoord,Coevorden,Drenthe,VBO,6.749835,52.847580
Zetveld,27,,,7848CX,Schoonoord,Coevorden,Drenthe,VBO,6.749823,52.847623
Zetveld,29,,,7848CX,Schoonoord,Coevorden,Drenthe,VBO,6.749791,52.847671
Zetveld,31,,,7848CX,Schoonoord,Coevorden,Drenthe,VBO,6.749764,52.847712
Zetveld,33,,,7848CX,Schoonoord,Coevorden,Drenthe,VBO,6.749733,52.847761
Zetveld,35,,,7848CX,Schoonoord,Coevorden,Drenthe,VBO,6.749707,52.847788
Zetveld,37,,,7848CX,Schoonoord,Coevorden,Drenthe,VBO,6.749911,52.848073
Zetveld,39,,,7848CX,Schoonoord,Coevorden,Drenthe,VBO,6.749814,52.848050
Zetveld,41,,,7848CX,Schoonoord,Coevorden,Drenthe,VBO,6.749754,52.848042
Zetveld,43,,,7848CX,Schoonoord,Coevorden,Drenthe,VBO,6.749663,52.848028
Zetveld,45,,,7848CX,Schoonoord,Coevorden,Drenthe,VBO,6.749585,52.848007
Zetveld,47,,,7848CX,Schoonoord,Coevorden,Drenthe,VBO,6.749518,52.847976
Zetveld,2,,,7848CZ,Schoonoord,Coevorden,Drenthe,VBO,6.750201,52.846946
Zetveld,4,,,7848CZ,Schoonoord,Coevorden,Drenthe,VBO,6.750225,52.847007
Zetveld,6,,,7848CZ,Schoonoord,Coevorden,Drenthe,VBO,6.750283,52.847045
Zetveld,8,,,7848CZ,Schoonoord,Coevorden,Drenthe,VBO,6.750333,52.847077
Zetveld,10,,,7848CZ,Schoonoord,Coevorden,Drenthe,VBO,6.750391,52.847115
Zetveld,12,,,7848CZ,Schoonoord,Coevorden,Drenthe,VBO,6.750466,52.847125
Zetveld,14,,,7848CZ,Schoonoord,Coevorden,Drenthe,VBO,6.750650,52.847184
Zetveld,16,,,7848CZ,Schoonoord,Coevorden,Drenthe,VBO,6.750710,52.847254
Zetveld,18,,,7848CZ,Schoonoord,Coevorden,Drenthe,VBO,6.750783,52.847275
Zetveld,20,,,7848CZ,Schoonoord,Coevorden,Drenthe,VBO,6.750867,52.847279
Zetveld,22,,,7848CZ,Schoonoord,Coevorden,Drenthe,VBO,6.750925,52.847304
Zetveld,24,,,7848CZ,Schoonoord,Coevorden,Drenthe,VBO,6.751026,52.847272
Zetveld,26,,,7848CZ,Schoonoord,Coevorden,Drenthe,VBO,6.750999,52.847584
Zetveld,28,,,7848CZ,Schoonoord,Coevorden,Drenthe,VBO,6.750984,52.847623
Zetveld,30,,,7848CZ,Schoonoord,Coevorden,Drenthe,VBO,6.750953,52.847671
Zetveld,32,,,7848CZ,Schoonoord,Coevorden,Drenthe,VBO,6.750926,52.847713
Zetveld,34,,,7848CZ,Schoonoord,Coevorden,Drenthe,VBO,6.750894,52.847761
Zetveld,36,,,7848CZ,Schoonoord,Coevorden,Drenthe,VBO,6.750869,52.847781
Zetveld,38,,,7848CZ,Schoonoord,Coevorden,Drenthe,VBO,6.750775,52.847932
Zetveld,40,,,7848CZ,Schoonoord,Coevorden,Drenthe,VBO,6.750752,52.847978
Zetveld,42,,,7848CZ,Schoonoord,Coevorden,Drenthe,VBO,6.750722,52.848026
Zetveld,44,,,7848CZ,Schoonoord,Coevorden,Drenthe,VBO,6.750694,52.848067
Zetveld,46,,,7848CZ,Schoonoord,Coevorden,Drenthe,VBO,6.750663,52.848115
Zetveld,48,,,7848CZ,Schoonoord,Coevorden,Drenthe,VBO,6.750630,52.848146
Zetveld,50,,,7848CZ,Schoonoord,Coevorden,Drenthe,VBO,6.750615,52.848646
Zetveld,52,,,7848CZ,Schoonoord,Coevorden,Drenthe,VBO,6.750049,52.848519
Zetveld,54,,,7848CZ,Schoonoord,Coevorden,Drenthe,VBO,6.749810,52.848339
Ringstraat,65,,,7848EA,Schoonoord,Coevorden,Drenthe,VBO,6.749619,52.846932
Ringstraat,67,,,7848EA,Schoonoord,Coevorden,Drenthe,VBO,6.749545,52.847043
Ringstraat,69,,,7848EA,Schoonoord,Coevorden,Drenthe,VBO,6.749483,52.847150
Ringstraat,71,,,7848EA,Schoonoord,Coevorden,Drenthe,VBO,6.749448,52.847194
Ringstraat,75,,,7848EA,Schoonoord,Coevorden,Drenthe,VBO,6.749153,52.847598
Ringstraat,77,,,7848EA,Schoonoord,Coevorden,Drenthe,VBO,6.749057,52.847717
Ringstraat,79,,,7848EA,Schoonoord,Coevorden,Drenthe,VBO,6.748932,52.847844
Ringstraat,81,,,7848EA,Schoonoord,Coevorden,Drenthe,VBO,6.748802,52.848074
Ringstraat,83,,,7848EA,Schoonoord,Coevorden,Drenthe,VBO,6.748786,52.848214
Ringstraat,85,,,7848EA,Schoonoord,Coevorden,Drenthe,VBO,6.748647,52.848470
Ringstraat,87,,,7848EA,Schoonoord,Coevorden,Drenthe,VBO,6.748669,52.848527
Ringstraat,89,,,7848EA,Schoonoord,Coevorden,Drenthe,VBO,6.748750,52.848645
Ringstraat,91,,,7848EA,Schoonoord,Coevorden,Drenthe,VBO,6.748772,52.848700
Ringstraat,93,,,7848EA,Schoonoord,Coevorden,Drenthe,VBO,6.749025,52.848955
Ringstraat,95,,,7848EA,Schoonoord,Coevorden,Drenthe,VBO,6.749249,52.848986
Ringstraat,97,,,7848EA,Schoonoord,Coevorden,Drenthe,VBO,6.749338,52.849012
Ringstraat,99,,,7848EA,Schoonoord,Coevorden,Drenthe,VBO,6.749506,52.849075
Ringstraat,101,,,7848EA,Schoonoord,Coevorden,Drenthe,VBO,6.749582,52.849096
Ringstraat,103,,,7848EA,Schoonoord,Coevorden,Drenthe,VBO,6.749833,52.849207
Ringstraat,105,,,7848EA,Schoonoord,Coevorden,Drenthe,VBO,6.749987,52.849263
Ringstraat,107,,,7848EA,Schoonoord,Coevorden,Drenthe,VBO,6.750087,52.849300
Ringstraat,109,,,7848EA,Schoonoord,Coevorden,Drenthe,VBO,6.750248,52.849354
Ringstraat,111,,,7848EA,Schoonoord,Coevorden,Drenthe,VBO,6.750362,52.849379
Ringstraat,113,,,7848EA,Schoonoord,Coevorden,Drenthe,VBO,6.750515,52.849422
Ringstraat,115,,,7848EA,Schoonoord,Coevorden,Drenthe,VBO,6.750751,52.849496
Ringstraat,121,,,7848EA,Schoonoord,Coevorden,Drenthe,VBO,6.751420,52.849680
De Zwil,3,,,7848EB,Schoonoord,Coevorden,Drenthe,VBO,6.748497,52.848032
De Zwil,5,,,7848EB,Schoonoord,Coevorden,Drenthe,VBO,6.748278,52.847938
De Zwil,7,,,7848EB,Schoonoord,Coevorden,Drenthe,VBO,6.747972,52.847936
De Zwil,9,,,7848EB,Schoonoord,Coevorden,Drenthe,VBO,6.747805,52.848147
De Zwil,11,,,7848EB,Schoonoord,Coevorden,Drenthe,VBO,6.747738,52.848350
De Zwil,13,,,7848EB,Schoonoord,Coevorden,Drenthe,VBO,6.747907,52.848539
De Zwil,15,,,7848EB,Schoonoord,Coevorden,Drenthe,VBO,6.748310,52.848581
Kibbelveen,1,a,,7848TA,Schoonoord,Coevorden,Drenthe,VBO,6.793812,52.816589
Kibbelveen,1,,GEDZ,7848TA,Schoonoord,Coevorden,Drenthe,VBO,6.788678,52.813811
Kibbelveen,1,,,7848TA,Schoonoord,Coevorden,Drenthe,VBO,6.788248,52.813594
Kibbelveen,2,,,7848TA,Schoonoord,Coevorden,Drenthe,VBO,6.789039,52.813059
Kibbelveen,3,,,7848TA,Schoonoord,Coevorden,Drenthe,VBO,6.798916,52.819216
Kibbelveen,4,,,7848TA,Schoonoord,Coevorden,Drenthe,VBO,6.797608,52.817441
Kibbelveen,5,,,7848TA,Schoonoord,Coevorden,Drenthe,VBO,6.803506,52.821582
Kibbelveen,6,,,7848TA,Schoonoord,Coevorden,Drenthe,VBO,6.800959,52.819193
Kibbelveen,7,,,7848TA,Schoonoord,Coevorden,Drenthe,VBO,6.813007,52.824880
Kibbelveen,8,,,7848TA,Schoonoord,Coevorden,Drenthe,VBO,6.804373,52.820958
Kibbelveen,10,,,7848TA,Schoonoord,Coevorden,Drenthe,VBO,6.807856,52.822310
Kibbelveen,12,,,7848TA,Schoonoord,Coevorden,Drenthe,VBO,6.808555,52.822420
Kibbelveen,14,,,7848TA,Schoonoord,Coevorden,Drenthe,VBO,6.811957,52.823580
Kibbelveen,16,,,7848TA,Schoonoord,Coevorden,Drenthe,VBO,6.814761,52.824539
