openbareruimtenaam,huisnummer,huisletter,huisnummertoevoeging,postcode,woonplaatsnaam,gemeentenaam,provincienaam,typeadresseerbaarobject,longitude,latitude
Hoofdstraat,2,,CAMP,7851AA,Zweeloo,Coevorden,Drenthe,VBO,6.724327,52.794462
Hoofdstraat,2,,,7851AA,Zweeloo,Coevorden,Drenthe,VBO,6.724334,52.794432
Hoofdstraat,3,,,7851AA,Zweeloo,Coevorden,Drenthe,VBO,6.726374,52.792643
Hoofdstraat,4,,,7851AA,Zweeloo,Coevorden,Drenthe,VBO,6.725075,52.793880
Hoofdstraat,5,,,7851AA,Zweeloo,Coevorden,Drenthe,VBO,6.726512,52.792707
Hoofdstraat,6,,,7851AA,Zweeloo,Coevorden,Drenthe,VBO,6.727145,52.793492
Hoofdstraat,8,A,,7851AA,Zweeloo,Coevorden,Drenthe,VBO,6.727209,52.793932
Hoofdstraat,8,B,,7851AA,Zweeloo,Coevorden,Drenthe,VBO,6.727165,52.793998
Hoofdstraat,8,B,,7851AA,Zweeloo,Coevorden,Drenthe,VBO,6.727283,52.793940
Hoofdstraat,8,,,7851AA,Zweeloo,Coevorden,Drenthe,VBO,6.727166,52.793929
Hoofdstraat,9,,,7851AA,Zweeloo,Coevorden,Drenthe,VBO,6.726624,52.792782
Hoofdstraat,10,,,7851AA,Zweeloo,Coevorden,Drenthe,VBO,6.727442,52.794138
Hoofdstraat,11,,,7851AA,Zweeloo,Coevorden,Drenthe,VBO,6.726903,52.792884
Hoofdstraat,12,,GED,7851AA,Zweeloo,Coevorden,Drenthe,VBO,6.727716,52.794340
Hoofdstraat,12,,,7851AA,Zweeloo,Coevorden,Drenthe,VBO,6.727506,52.794392
Hoofdstraat,14,,0001,7851AA,Zweeloo,Coevorden,Drenthe,VBO,6.727688,52.794590
Hoofdstraat,14,,0002,7851AA,Zweeloo,Coevorden,Drenthe,VBO,6.727688,52.794590
Hoofdstraat,14,,,7851AA,Zweeloo,Coevorden,Drenthe,VBO,6.727828,52.794562
Hoofdstraat,15,,,7851AA,Zweeloo,Coevorden,Drenthe,VBO,6.728026,52.793844
Hoofdstraat,16,,,7851AA,Zweeloo,Coevorden,Drenthe,VBO,6.727996,52.794801
Hoofdstraat,17,,BEDR,7851AA,Zweeloo,Coevorden,Drenthe,VBO,6.728492,52.794307
Hoofdstraat,17,,,7851AA,Zweeloo,Coevorden,Drenthe,VBO,6.728587,52.794286
Hoofdstraat,18,,,7851AA,Zweeloo,Coevorden,Drenthe,VBO,6.727196,52.794917
Hoofdstraat,19,,,7851AA,Zweeloo,Coevorden,Drenthe,VBO,6.728684,52.794747
Hoofdstraat,20,,,7851AA,Zweeloo,Coevorden,Drenthe,VBO,6.727979,52.794969
Hoofdstraat,24,,,7851AA,Zweeloo,Coevorden,Drenthe,VBO,6.726982,52.795419
Hoofdstraat,26,A,,7851AA,Zweeloo,Coevorden,Drenthe,VBO,6.726517,52.795998
Hoofdstraat,26,B,,7851AA,Zweeloo,Coevorden,Drenthe,VBO,6.726242,52.796031
Hoofdstraat,28,,,7851AA,Zweeloo,Coevorden,Drenthe,VBO,6.723335,52.796994
Hoofdstraat,30,,,7851AA,Zweeloo,Coevorden,Drenthe,VBO,6.722890,52.796577
Hoofdstraat,32,,,7851AA,Zweeloo,Coevorden,Drenthe,VBO,6.723846,52.796218
Marktstraat,1,A,,7851AB,Zweeloo,Coevorden,Drenthe,VBO,6.729483,52.794487
Marktstraat,1,B,,7851AB,Zweeloo,Coevorden,Drenthe,VBO,6.729663,52.794144
Marktstraat,1,,,7851AB,Zweeloo,Coevorden,Drenthe,VBO,6.729113,52.794656
Marktstraat,2,A,,7851AB,Zweeloo,Coevorden,Drenthe,VBO,6.729810,52.794894
Marktstraat,2,B,,7851AB,Zweeloo,Coevorden,Drenthe,VBO,6.729459,52.794985
Marktstraat,2,C,,7851AB,Zweeloo,Coevorden,Drenthe,VBO,6.729826,52.795029
Marktstraat,2,,,7851AB,Zweeloo,Coevorden,Drenthe,VBO,6.729995,52.794905
Marktstraat,3,,,7851AB,Zweeloo,Coevorden,Drenthe,VBO,6.730995,52.793991
Marktstraat,4,,,7851AB,Zweeloo,Coevorden,Drenthe,VBO,6.731341,52.793689
Marktstraat,5,,,7851AB,Zweeloo,Coevorden,Drenthe,VBO,6.731262,52.793548
Marktstraat,6,,,7851AB,Zweeloo,Coevorden,Drenthe,VBO,6.731340,52.793387
Marktstraat,7,,,7851AB,Zweeloo,Coevorden,Drenthe,VBO,6.731371,52.793093
Wheempad,1,A,,7851AC,Zweeloo,Coevorden,Drenthe,VBO,6.732633,52.794096
Wheempad,1,,,7851AC,Zweeloo,Coevorden,Drenthe,VBO,6.732504,52.794070
Wheempad,2,,,7851AC,Zweeloo,Coevorden,Drenthe,VBO,6.733119,52.794113
Wheempad,3,,,7851AC,Zweeloo,Coevorden,Drenthe,VBO,6.733084,52.793740
Wheempad,5,,,7851AC,Zweeloo,Coevorden,Drenthe,VBO,6.733464,52.793364
Kruisstraat,1,,,7851AE,Zweeloo,Coevorden,Drenthe,VBO,6.727741,52.792958
Kruisstraat,2,,,7851AE,Zweeloo,Coevorden,Drenthe,VBO,6.728996,52.793085
Kruisstraat,4,,,7851AE,Zweeloo,Coevorden,Drenthe,VBO,6.729193,52.793041
Kruisstraat,5,,,7851AE,Zweeloo,Coevorden,Drenthe,VBO,6.728360,52.792930
Kruisstraat,6,A,,7851AE,Zweeloo,Coevorden,Drenthe,VBO,6.729819,52.792930
Kruisstraat,6,B,,7851AE,Zweeloo,Coevorden,Drenthe,VBO,6.730151,52.792917
Kruisstraat,6,C,,7851AE,Zweeloo,Coevorden,Drenthe,VBO,6.730452,52.792873
Kruisstraat,6,,,7851AE,Zweeloo,Coevorden,Drenthe,VBO,6.729529,52.793015
Kruisstraat,7,,,7851AE,Zweeloo,Coevorden,Drenthe,VBO,6.728304,52.792779
Kruisstraat,9,,,7851AE,Zweeloo,Coevorden,Drenthe,VBO,6.728711,52.792727
Kruisstraat,10,,,7851AE,Zweeloo,Coevorden,Drenthe,VBO,6.730768,52.792943
Kruisstraat,11,,,7851AE,Zweeloo,Coevorden,Drenthe,VBO,6.728815,52.792719
Kruisstraat,12,,,7851AE,Zweeloo,Coevorden,Drenthe,VBO,6.730942,52.793061
Kruisstraat,13,,,7851AE,Zweeloo,Coevorden,Drenthe,VBO,6.729243,52.792707
Kruisstraat,14,,,7851AE,Zweeloo,Coevorden,Drenthe,VBO,6.731123,52.792985
Kruisstraat,15,,,7851AE,Zweeloo,Coevorden,Drenthe,VBO,6.729448,52.792615
Kruisstraat,16,,,7851AE,Zweeloo,Coevorden,Drenthe,VBO,6.732289,52.792943
Kruisstraat,17,,,7851AE,Zweeloo,Coevorden,Drenthe,VBO,6.729610,52.792559
Kruisstraat,18,,,7851AE,Zweeloo,Coevorden,Drenthe,VBO,6.732886,52.793012
Kruisstraat,21,,,7851AE,Zweeloo,Coevorden,Drenthe,VBO,6.730157,52.792496
Kruisstraat,23,,,7851AE,Zweeloo,Coevorden,Drenthe,VBO,6.731535,52.792395
Kruisstraat,25,,,7851AE,Zweeloo,Coevorden,Drenthe,VBO,6.731962,52.792496
Kruisstraat,27,,,7851AE,Zweeloo,Coevorden,Drenthe,VBO,6.732356,52.792448
Burg Tonkensstraat,1,A,,7851AG,Zweeloo,Coevorden,Drenthe,VBO,6.733428,52.792388
Burg Tonkensstraat,1,,,7851AG,Zweeloo,Coevorden,Drenthe,VBO,6.733347,52.792613
Burg Tonkensstraat,2,,,7851AG,Zweeloo,Coevorden,Drenthe,VBO,6.733498,52.792291
Burg Tonkensstraat,3,A,,7851AG,Zweeloo,Coevorden,Drenthe,VBO,6.733499,52.792070
Burg Tonkensstraat,3,,,7851AG,Zweeloo,Coevorden,Drenthe,VBO,6.733496,52.792164
Burg Tonkensstraat,4,,,7851AG,Zweeloo,Coevorden,Drenthe,VBO,6.733818,52.791832
Burg Tonkensstraat,5,,BIJ,7851AG,Zweeloo,Coevorden,Drenthe,VBO,6.734394,52.791333
Burg Tonkensstraat,5,,,7851AG,Zweeloo,Coevorden,Drenthe,VBO,6.734023,52.791419
Burg Tonkensstraat,6,,,7851AG,Zweeloo,Coevorden,Drenthe,VBO,6.733924,52.791237
Burg Tonkensstraat,7,,,7851AG,Zweeloo,Coevorden,Drenthe,VBO,6.733946,52.791137
Burg Tonkensstraat,8,,,7851AG,Zweeloo,Coevorden,Drenthe,VBO,6.733983,52.790975
Burg Tonkensstraat,9,,,7851AG,Zweeloo,Coevorden,Drenthe,VBO,6.733987,52.790820
Burg Tonkensstraat,10,,,7851AG,Zweeloo,Coevorden,Drenthe,VBO,6.733979,52.790750
Burg Tonkensstraat,11,,,7851AG,Zweeloo,Coevorden,Drenthe,VBO,6.733999,52.790592
Klooster,1,,,7851AH,Zweeloo,Coevorden,Drenthe,VBO,6.729742,52.793383
Klooster,5,,,7851AH,Zweeloo,Coevorden,Drenthe,VBO,6.730059,52.793583
Klooster,9,,,7851AH,Zweeloo,Coevorden,Drenthe,VBO,6.731107,52.795529
Klooster,11,,,7851AH,Zweeloo,Coevorden,Drenthe,VBO,6.731606,52.795939
Klooster,15,,,7851AH,Zweeloo,Coevorden,Drenthe,VBO,6.731419,52.796199
Klooster,17,,,7851AH,Zweeloo,Coevorden,Drenthe,VBO,6.731807,52.796622
Klooster,21,,,7851AH,Zweeloo,Coevorden,Drenthe,VBO,6.731699,52.797074
Klooster,23,,,7851AH,Zweeloo,Coevorden,Drenthe,VBO,6.731734,52.797272
Klooster,25,A,,7851AH,Zweeloo,Coevorden,Drenthe,VBO,6.731510,52.797614
Klooster,25,,,7851AH,Zweeloo,Coevorden,Drenthe,VBO,6.731626,52.797522
Klooster,27,A,,7851AH,Zweeloo,Coevorden,Drenthe,VBO,6.731597,52.798451
Klooster,27,,,7851AH,Zweeloo,Coevorden,Drenthe,VBO,6.731596,52.798348
Klooster,29,,,7851AH,Zweeloo,Coevorden,Drenthe,VBO,6.731905,52.798955
Klooster,31,,,7851AH,Zweeloo,Coevorden,Drenthe,VBO,6.731963,52.799081
Klooster,33,A,,7851AH,Zweeloo,Coevorden,Drenthe,VBO,6.732784,52.800196
Klooster,33,,,7851AH,Zweeloo,Coevorden,Drenthe,VBO,6.732630,52.800231
Klooster,35,,,7851AH,Zweeloo,Coevorden,Drenthe,VBO,6.733100,52.800788
Klooster,43,,,7851AH,Zweeloo,Coevorden,Drenthe,VBO,6.733669,52.801128
Klooster,47,,,7851AH,Zweeloo,Coevorden,Drenthe,VBO,6.733532,52.801523
Klooster,49,,,7851AH,Zweeloo,Coevorden,Drenthe,VBO,6.733610,52.801711
Klooster,2,,,7851AJ,Zweeloo,Coevorden,Drenthe,VBO,6.729048,52.793509
Klooster,4,,,7851AJ,Zweeloo,Coevorden,Drenthe,VBO,6.729097,52.793714
Klooster,8,,,7851AJ,Zweeloo,Coevorden,Drenthe,VBO,6.730301,52.795049
Klooster,10,,,7851AJ,Zweeloo,Coevorden,Drenthe,VBO,6.730348,52.795209
Klooster,12,,,7851AJ,Zweeloo,Coevorden,Drenthe,VBO,6.730271,52.795488
Klooster,14,,,7851AJ,Zweeloo,Coevorden,Drenthe,VBO,6.730453,52.795670
Klooster,16,,,7851AJ,Zweeloo,Coevorden,Drenthe,VBO,6.730364,52.796275
Klooster,18,,,7851AJ,Zweeloo,Coevorden,Drenthe,VBO,6.730669,52.796525
Klooster,20,,,7851AJ,Zweeloo,Coevorden,Drenthe,VBO,6.730907,52.797410
Klooster,22,,,7851AJ,Zweeloo,Coevorden,Drenthe,VBO,6.730916,52.797576
Klooster,24,,,7851AJ,Zweeloo,Coevorden,Drenthe,VBO,6.730921,52.797740
Klooster,26,,,7851AJ,Zweeloo,Coevorden,Drenthe,VBO,6.730929,52.797922
Klooster,28,,,7851AJ,Zweeloo,Coevorden,Drenthe,VBO,6.730938,52.798085
Klooster,30,,,7851AJ,Zweeloo,Coevorden,Drenthe,VBO,6.730919,52.798256
Klooster,34,,,7851AJ,Zweeloo,Coevorden,Drenthe,VBO,6.731014,52.798490
Klooster,36,,,7851AJ,Zweeloo,Coevorden,Drenthe,VBO,6.731067,52.798829
Klooster,38,,,7851AJ,Zweeloo,Coevorden,Drenthe,VBO,6.731144,52.799023
Klooster,40,,,7851AJ,Zweeloo,Coevorden,Drenthe,VBO,6.731279,52.799206
Klooster,42,,,7851AJ,Zweeloo,Coevorden,Drenthe,VBO,6.731424,52.799396
Klooster,52,,,7851AJ,Zweeloo,Coevorden,Drenthe,VBO,6.732504,52.801300
Klooster,56,,,7851AJ,Zweeloo,Coevorden,Drenthe,VBO,6.732963,52.801913
Eswegje,1,,,7851AK,Zweeloo,Coevorden,Drenthe,VBO,6.731156,52.794952
Eswegje,2,,,7851AK,Zweeloo,Coevorden,Drenthe,VBO,6.731538,52.794488
Eswegje,3,,,7851AK,Zweeloo,Coevorden,Drenthe,VBO,6.731927,52.794625
Eswegje,4,,,7851AK,Zweeloo,Coevorden,Drenthe,VBO,6.732326,52.794636
Kloosterdwarsweg,1,,,7851AL,Zweeloo,Coevorden,Drenthe,VBO,6.730710,52.796756
Kloosterdwarsweg,2,,,7851AL,Zweeloo,Coevorden,Drenthe,VBO,6.730886,52.797078
Kloosterdwarsweg,3,,,7851AL,Zweeloo,Coevorden,Drenthe,VBO,6.730273,52.796948
Kloosterdwarsweg,4,,,7851AL,Zweeloo,Coevorden,Drenthe,VBO,6.730668,52.797146
Kloosterdwarsweg,5,,GED,7851AL,Zweeloo,Coevorden,Drenthe,VBO,6.729956,52.796878
Kloosterdwarsweg,5,,,7851AL,Zweeloo,Coevorden,Drenthe,VBO,6.729983,52.797026
Kloosterdwarsweg,6,,,7851AL,Zweeloo,Coevorden,Drenthe,VBO,6.730590,52.797171
Kloosterdwarsweg,7,,,7851AL,Zweeloo,Coevorden,Drenthe,VBO,6.729534,52.797169
Kloosterdwarsweg,8,,,7851AL,Zweeloo,Coevorden,Drenthe,VBO,6.730344,52.797243
Kloosterdwarsweg,9,,,7851AL,Zweeloo,Coevorden,Drenthe,VBO,6.729423,52.796913
Kloosterdwarsweg,10,,,7851AL,Zweeloo,Coevorden,Drenthe,VBO,6.730018,52.797347
Kloosterdwarsweg,11,,,7851AL,Zweeloo,Coevorden,Drenthe,VBO,6.729322,52.796683
Kloosterdwarsweg,12,,,7851AL,Zweeloo,Coevorden,Drenthe,VBO,6.729776,52.797430
Kloosterdwarsweg,13,,,7851AL,Zweeloo,Coevorden,Drenthe,VBO,6.729298,52.796616
Kloosterdwarsweg,14,,,7851AL,Zweeloo,Coevorden,Drenthe,VBO,6.729564,52.797553
Kloosterdwarsweg,15,,,7851AL,Zweeloo,Coevorden,Drenthe,VBO,6.729279,52.796473
Kloosterdwarsweg,17,,,7851AL,Zweeloo,Coevorden,Drenthe,VBO,6.729259,52.796326
Kloosterdwarsweg,19,,,7851AL,Zweeloo,Coevorden,Drenthe,VBO,6.729247,52.796197
Kloosterdwarsweg,21,,,7851AL,Zweeloo,Coevorden,Drenthe,VBO,6.729192,52.796062
Kloosterdwarsweg,23,,,7851AL,Zweeloo,Coevorden,Drenthe,VBO,6.729199,52.795909
Kloosterdwarsweg,25,,,7851AL,Zweeloo,Coevorden,Drenthe,VBO,6.729188,52.795775
Kloosterdwarsweg,27,,,7851AL,Zweeloo,Coevorden,Drenthe,VBO,6.729104,52.795582
Kloosterdwarsweg,29,,,7851AL,Zweeloo,Coevorden,Drenthe,VBO,6.729175,52.795431
Kloosterdwarsweg,31,,,7851AL,Zweeloo,Coevorden,Drenthe,VBO,6.729243,52.795270
Zwartakkersweg,1,,,7851AM,Zweeloo,Coevorden,Drenthe,VBO,6.737352,52.794020
Kieveen,2,,,7851AN,Zweeloo,Coevorden,Drenthe,VBO,6.734985,52.800977
Kieveen,3,,,7851AN,Zweeloo,Coevorden,Drenthe,VBO,6.734483,52.801586
Kieveen,4,,,7851AN,Zweeloo,Coevorden,Drenthe,VBO,6.735132,52.801786
De Wheem,2,,NST,7851TA,Zweeloo,Coevorden,Drenthe,VBO,6.733791,52.793176
De Wheem,2,,,7851TA,Zweeloo,Coevorden,Drenthe,VBO,6.733977,52.793078
De Wheem,3,,,7851TA,Zweeloo,Coevorden,Drenthe,VBO,6.733494,52.792645
De Wheem,4,,,7851TA,Zweeloo,Coevorden,Drenthe,VBO,6.734420,52.792980
De Wheem,6,,,7851TA,Zweeloo,Coevorden,Drenthe,VBO,6.734478,52.792980
De Wheem,7,,,7851TA,Zweeloo,Coevorden,Drenthe,VBO,6.734053,52.792682
De Wheem,8,A,,7851TA,Zweeloo,Coevorden,Drenthe,VBO,6.734955,52.793068
De Wheem,8,,,7851TA,Zweeloo,Coevorden,Drenthe,VBO,6.734944,52.793115
De Wheem,9,,,7851TA,Zweeloo,Coevorden,Drenthe,VBO,6.734330,52.792747
De Wheem,10,,,7851TA,Zweeloo,Coevorden,Drenthe,VBO,6.735990,52.793125
De Wheem,12,,,7851TA,Zweeloo,Coevorden,Drenthe,VBO,6.762186,52.791499
De Wheem,13,,,7851TA,Zweeloo,Coevorden,Drenthe,VBO,6.734799,52.792609
De Wheem,14,,,7851TA,Zweeloo,Coevorden,Drenthe,VBO,6.762710,52.791657
De Wheem,16,,,7851TA,Zweeloo,Coevorden,Drenthe,VBO,6.763058,52.791594
De Wheem,17,,,7851TA,Zweeloo,Coevorden,Drenthe,VBO,6.735063,52.792628
De Wheem,19,,,7851TA,Zweeloo,Coevorden,Drenthe,VBO,6.735179,52.792636
De Wheem,21,,,7851TA,Zweeloo,Coevorden,Drenthe,VBO,6.735256,52.792603
De Wheem,23,,,7851TA,Zweeloo,Coevorden,Drenthe,VBO,6.735501,52.792620
De Wheem,25,,,7851TA,Zweeloo,Coevorden,Drenthe,VBO,6.735754,52.792620
Noordweg,1,,,7851TB,Zweeloo,Coevorden,Drenthe,VBO,6.735110,52.800084
Noordweg,2,A,,7851TB,Zweeloo,Coevorden,Drenthe,VBO,6.733373,52.800718
Noordweg,2,,,7851TB,Zweeloo,Coevorden,Drenthe,VBO,6.733299,52.800738
Noordweg,3,,,7851TB,Zweeloo,Coevorden,Drenthe,VBO,6.741441,52.799714
Noordweg,4,,,7851TB,Zweeloo,Coevorden,Drenthe,VBO,6.735741,52.800835
Noordweg,6,,,7851TB,Zweeloo,Coevorden,Drenthe,VBO,6.735880,52.800872
Noordweg,12,,NST,7851TB,Zweeloo,Coevorden,Drenthe,VBO,6.742350,52.799837
Noordweg,12,,,7851TB,Zweeloo,Coevorden,Drenthe,VBO,6.739779,52.800720
Schapendijk,2,,,7851TC,Zweeloo,Coevorden,Drenthe,VBO,6.750768,52.830861
Schapendijk,4,,,7851TC,Zweeloo,Coevorden,Drenthe,VBO,6.748669,52.831844
Schapendijk,5,,,7851TC,Zweeloo,Coevorden,Drenthe,VBO,6.747120,52.830585
Schapendijk,6,A,,7851TC,Zweeloo,Coevorden,Drenthe,VBO,6.750193,52.834626
Schapendijk,6,B,,7851TC,Zweeloo,Coevorden,Drenthe,VBO,6.752037,52.835107
Schapendijk,6,,,7851TC,Zweeloo,Coevorden,Drenthe,VBO,6.750623,52.834559
Schapendijk,7,,,7851TC,Zweeloo,Coevorden,Drenthe,VBO,6.751446,52.839334
Schapendijk,8,A,,7851TC,Zweeloo,Coevorden,Drenthe,VBO,6.752115,52.835087
Schapendijk,8,,,7851TC,Zweeloo,Coevorden,Drenthe,VBO,6.750390,52.835364
Schapendijk,10,,,7851TC,Zweeloo,Coevorden,Drenthe,VBO,6.751875,52.838237
Broekstukkenweg,2,,,7851TE,Zweeloo,Coevorden,Drenthe,VBO,6.749530,52.809861
Broekstukkenweg,4,,,7851TE,Zweeloo,Coevorden,Drenthe,VBO,6.752843,52.812178
Broekstukkenweg,9999,,,7851TE,Zweeloo,Coevorden,Drenthe,VBO,6.744378,52.808630
