openbareruimtenaam,huisnummer,huisletter,huisnummertoevoeging,postcode,woonplaatsnaam,gemeentenaam,provincienaam,typeadresseerbaarobject,longitude,latitude
Aelder Hooghepad,6,,,7854MA,Aalden,Coevorden,Drenthe,VBO,6.724704,52.788743
Korenhof,2,,,7854NA,Aalden,Coevorden,Drenthe,VBO,6.723717,52.791211
Korenhof,3,,,7854NA,Aalden,Coevorden,Drenthe,VBO,6.723704,52.791174
Korenhof,4,,,7854NA,Aalden,Coevorden,Drenthe,VBO,6.723692,52.791145
Korenhof,5,,,7854NA,Aalden,Coevorden,Drenthe,VBO,6.723673,52.791115
Korenhof,6,,,7854NA,Aalden,Coevorden,Drenthe,VBO,6.723655,52.791086
Korenhof,7,,,7854NA,Aalden,Coevorden,Drenthe,VBO,6.723813,52.791069
Korenhof,8,,,7854NA,Aalden,Coevorden,Drenthe,VBO,6.723800,52.791036
Korenhof,9,,,7854NA,Aalden,Coevorden,Drenthe,VBO,6.723779,52.790996
Korenhof,10,,,7854NA,Aalden,Coevorden,Drenthe,VBO,6.723907,52.790947
Korenhof,11,,,7854NA,Aalden,Coevorden,Drenthe,VBO,6.723883,52.790908
Korenhof,12,,,7854NA,Aalden,Coevorden,Drenthe,VBO,6.723870,52.790875
Korenhof,13,,,7854NA,Aalden,Coevorden,Drenthe,VBO,6.723860,52.790833
Korenhof,14,,,7854NA,Aalden,Coevorden,Drenthe,VBO,6.723845,52.790793
Korenhof,15,,,7854NA,Aalden,Coevorden,Drenthe,VBO,6.723821,52.790757
Korenhof,16,,,7854NA,Aalden,Coevorden,Drenthe,VBO,6.723813,52.790711
Korenhof,17,,,7854NA,Aalden,Coevorden,Drenthe,VBO,6.723798,52.790673
Korenhof,18,,,7854NB,Aalden,Coevorden,Drenthe,VBO,6.723677,52.790760
Korenhof,19,,,7854NB,Aalden,Coevorden,Drenthe,VBO,6.723673,52.790725
Korenhof,20,,,7854NB,Aalden,Coevorden,Drenthe,VBO,6.723663,52.790692
Korenhof,21,,,7854NB,Aalden,Coevorden,Drenthe,VBO,6.723651,52.790663
Korenhof,22,,,7854NB,Aalden,Coevorden,Drenthe,VBO,6.723633,52.790628
Korenhof,23,,,7854NB,Aalden,Coevorden,Drenthe,VBO,6.723606,52.790601
Korenhof,24,,,7854NB,Aalden,Coevorden,Drenthe,VBO,6.723582,52.790564
Korenhof,25,,,7854NB,Aalden,Coevorden,Drenthe,VBO,6.723564,52.790526
Korenhof,26,,,7854NB,Aalden,Coevorden,Drenthe,VBO,6.723813,52.790424
Korenhof,27,,,7854NB,Aalden,Coevorden,Drenthe,VBO,6.723938,52.790398
Korenhof,28,,,7854NB,Aalden,Coevorden,Drenthe,VBO,6.723961,52.790323
Korenhof,29,,,7854NB,Aalden,Coevorden,Drenthe,VBO,6.723705,52.790348
Korenhof,30,,,7854NB,Aalden,Coevorden,Drenthe,VBO,6.723566,52.790350
Korenhof,31,,,7854NB,Aalden,Coevorden,Drenthe,VBO,6.723530,52.790281
Korenhof,32,,,7854NB,Aalden,Coevorden,Drenthe,VBO,6.723465,52.790179
Korenhof,33,,,7854NB,Aalden,Coevorden,Drenthe,VBO,6.724387,52.790782
Korenhof,34,,,7854NB,Aalden,Coevorden,Drenthe,VBO,6.724383,52.790742
Korenhof,35,,,7854NB,Aalden,Coevorden,Drenthe,VBO,6.724382,52.790698
Korenhof,36,,,7854NB,Aalden,Coevorden,Drenthe,VBO,6.724485,52.790782
Korenhof,37,,,7854NB,Aalden,Coevorden,Drenthe,VBO,6.724493,52.790747
Korenhof,38,,,7854NB,Aalden,Coevorden,Drenthe,VBO,6.724497,52.790711
Korenhof,39,,,7854NB,Aalden,Coevorden,Drenthe,VBO,6.724487,52.790666
Korenhof,40,,,7854NB,Aalden,Coevorden,Drenthe,VBO,6.724340,52.790446
Korenhof,41,,,7854NB,Aalden,Coevorden,Drenthe,VBO,6.724330,52.790408
Korenhof,42,,,7854NB,Aalden,Coevorden,Drenthe,VBO,6.724320,52.790363
Korenhof,43,,,7854NB,Aalden,Coevorden,Drenthe,VBO,6.724450,52.790480
Korenhof,44,,,7854NB,Aalden,Coevorden,Drenthe,VBO,6.724460,52.790431
Korenhof,45,,,7854NB,Aalden,Coevorden,Drenthe,VBO,6.724456,52.790387
Korenhof,46,,,7854NB,Aalden,Coevorden,Drenthe,VBO,6.724452,52.790347
Verzetsstrijderslaan,1,,,7854NC,Aalden,Coevorden,Drenthe,VBO,6.725165,52.790407
Verzetsstrijderslaan,2,,,7854NC,Aalden,Coevorden,Drenthe,VBO,6.725059,52.790692
Verzetsstrijderslaan,3,,,7854NC,Aalden,Coevorden,Drenthe,VBO,6.725153,52.790183
Verzetsstrijderslaan,4,,,7854NC,Aalden,Coevorden,Drenthe,VBO,6.724940,52.790896
Verzetsstrijderslaan,5,,,7854NC,Aalden,Coevorden,Drenthe,VBO,6.724910,52.790076
Verzetsstrijderslaan,7,,,7854NC,Aalden,Coevorden,Drenthe,VBO,6.724489,52.790112
Marsstukken,3,,,7854PA,Aalden,Coevorden,Drenthe,VBO,6.722819,52.792061
Marsstukken,5,,,7854PA,Aalden,Coevorden,Drenthe,VBO,6.722738,52.792090
Marsstukken,7,,,7854PA,Aalden,Coevorden,Drenthe,VBO,6.722649,52.792109
Marsstukken,9,,,7854PA,Aalden,Coevorden,Drenthe,VBO,6.722565,52.792129
Marsstukken,11,,,7854PA,Aalden,Coevorden,Drenthe,VBO,6.722150,52.792250
Marsstukken,13,,,7854PA,Aalden,Coevorden,Drenthe,VBO,6.722063,52.792267
Marsstukken,15,,,7854PA,Aalden,Coevorden,Drenthe,VBO,6.721991,52.792298
Marsstukken,17,,,7854PA,Aalden,Coevorden,Drenthe,VBO,6.721899,52.792313
Marsstukken,19,,,7854PA,Aalden,Coevorden,Drenthe,VBO,6.721815,52.792337
Marsstukken,21,,,7854PA,Aalden,Coevorden,Drenthe,VBO,6.721729,52.792362
Marsstukken,23,,,7854PA,Aalden,Coevorden,Drenthe,VBO,6.721550,52.792410
Marsstukken,25,,,7854PA,Aalden,Coevorden,Drenthe,VBO,6.721472,52.792435
Marsstukken,27,,,7854PA,Aalden,Coevorden,Drenthe,VBO,6.721383,52.792456
Marsstukken,29,,,7854PA,Aalden,Coevorden,Drenthe,VBO,6.721299,52.792475
Marsstukken,30,,,7854PA,Aalden,Coevorden,Drenthe,VBO,6.719905,52.793019
Marsstukken,31,,,7854PA,Aalden,Coevorden,Drenthe,VBO,6.719696,52.793151
Marsstukken,33,,,7854PA,Aalden,Coevorden,Drenthe,VBO,6.718823,52.793544
Marsstukken,35,,,7854PA,Aalden,Coevorden,Drenthe,VBO,6.718671,52.793678
Marsstukken,37,,,7854PA,Aalden,Coevorden,Drenthe,VBO,6.717891,52.794143
Marsstukken,39,,,7854PA,Aalden,Coevorden,Drenthe,VBO,6.717451,52.794442
Marsstukken,41,,,7854PA,Aalden,Coevorden,Drenthe,VBO,6.717293,52.794556
Jan Mensinghstraat,1,A,,7854PB,Aalden,Coevorden,Drenthe,VBO,6.721809,52.792124
Jan Mensinghstraat,1,,,7854PB,Aalden,Coevorden,Drenthe,VBO,6.722309,52.791892
Jan Mensinghstraat,2,A,,7854PB,Aalden,Coevorden,Drenthe,VBO,6.721747,52.792107
Jan Mensinghstraat,2,,,7854PB,Aalden,Coevorden,Drenthe,VBO,6.721519,52.791980
Jan Mensinghstraat,3,A,,7854PB,Aalden,Coevorden,Drenthe,VBO,6.721731,52.792146
Jan Mensinghstraat,3,,,7854PB,Aalden,Coevorden,Drenthe,VBO,6.722221,52.791847
Jan Mensinghstraat,4,A,,7854PB,Aalden,Coevorden,Drenthe,VBO,6.721663,52.792125
Jan Mensinghstraat,4,,,7854PB,Aalden,Coevorden,Drenthe,VBO,6.721440,52.791944
Jan Mensinghstraat,5,A,,7854PB,Aalden,Coevorden,Drenthe,VBO,6.721657,52.792166
Jan Mensinghstraat,5,,,7854PB,Aalden,Coevorden,Drenthe,VBO,6.722057,52.791769
Jan Mensinghstraat,6,A,,7854PB,Aalden,Coevorden,Drenthe,VBO,6.721596,52.792152
Jan Mensinghstraat,6,,,7854PB,Aalden,Coevorden,Drenthe,VBO,6.721364,52.791919
Jan Mensinghstraat,7,,,7854PB,Aalden,Coevorden,Drenthe,VBO,6.721969,52.791721
Jan Mensinghstraat,8,,,7854PB,Aalden,Coevorden,Drenthe,VBO,6.721291,52.791866
Jan Mensinghstraat,9,,,7854PB,Aalden,Coevorden,Drenthe,VBO,6.721814,52.791641
Jan Mensinghstraat,10,,,7854PB,Aalden,Coevorden,Drenthe,VBO,6.721139,52.791792
Jan Mensinghstraat,11,,,7854PB,Aalden,Coevorden,Drenthe,VBO,6.721703,52.791595
Jan Mensinghstraat,12,,,7854PB,Aalden,Coevorden,Drenthe,VBO,6.721075,52.791780
Jan Mensinghstraat,13,,,7854PB,Aalden,Coevorden,Drenthe,VBO,6.721267,52.791303
Jan Mensinghstraat,14,,,7854PB,Aalden,Coevorden,Drenthe,VBO,6.720999,52.791733
Jan Mensinghstraat,15,,,7854PB,Aalden,Coevorden,Drenthe,VBO,6.721013,52.791189
Jan Mensinghstraat,16,,,7854PB,Aalden,Coevorden,Drenthe,VBO,6.720934,52.791704
Jan Mensinghstraat,17,,,7854PB,Aalden,Coevorden,Drenthe,VBO,6.720816,52.791084
Jan Mensinghstraat,18,,,7854PB,Aalden,Coevorden,Drenthe,VBO,6.720869,52.791666
Jan Mensinghstraat,19,,,7854PB,Aalden,Coevorden,Drenthe,VBO,6.720477,52.790953
Jan Mensinghstraat,20,,,7854PB,Aalden,Coevorden,Drenthe,VBO,6.720771,52.791614
Jan Mensinghstraat,21,,,7854PB,Aalden,Coevorden,Drenthe,VBO,6.720352,52.790891
Jan Mensinghstraat,23,,,7854PB,Aalden,Coevorden,Drenthe,VBO,6.720240,52.790834
Jan Mensinghstraat,25,,,7854PB,Aalden,Coevorden,Drenthe,VBO,6.720116,52.790769
Rozetta Koekoekstraat,1,,,7854PC,Aalden,Coevorden,Drenthe,VBO,6.720530,52.791437
Rozetta Koekoekstraat,2,,,7854PC,Aalden,Coevorden,Drenthe,VBO,6.720300,52.791618
Rozetta Koekoekstraat,3,,,7854PC,Aalden,Coevorden,Drenthe,VBO,6.720452,52.791355
Rozetta Koekoekstraat,4,,,7854PC,Aalden,Coevorden,Drenthe,VBO,6.720138,52.791618
Rozetta Koekoekstraat,5,,,7854PC,Aalden,Coevorden,Drenthe,VBO,6.720342,52.791320
Rozetta Koekoekstraat,6,,,7854PC,Aalden,Coevorden,Drenthe,VBO,6.720058,52.791543
Rozetta Koekoekstraat,7,,,7854PC,Aalden,Coevorden,Drenthe,VBO,6.720211,52.791278
Rozetta Koekoekstraat,8,,,7854PC,Aalden,Coevorden,Drenthe,VBO,6.719905,52.791447
Rozetta Koekoekstraat,10,,,7854PC,Aalden,Coevorden,Drenthe,VBO,6.719857,52.791397
Rozetta Koekoekstraat,12,,,7854PC,Aalden,Coevorden,Drenthe,VBO,6.719897,52.791320
Rozetta Koekoekstraat,14,,,7854PC,Aalden,Coevorden,Drenthe,VBO,6.719895,52.791254
Rozetta Koekoekstraat,16,,,7854PC,Aalden,Coevorden,Drenthe,VBO,6.719881,52.791171
Markeweg,1,,,7854PD,Aalden,Coevorden,Drenthe,VBO,6.721085,52.792245
Markeweg,3,,,7854PD,Aalden,Coevorden,Drenthe,VBO,6.721042,52.792196
Markeweg,5,,,7854PD,Aalden,Coevorden,Drenthe,VBO,6.720992,52.792144
Markeweg,7,,,7854PD,Aalden,Coevorden,Drenthe,VBO,6.720960,52.792095
Markeweg,9,,,7854PD,Aalden,Coevorden,Drenthe,VBO,6.720717,52.792047
Markeweg,11,,,7854PD,Aalden,Coevorden,Drenthe,VBO,6.720667,52.791993
Markeweg,13,,,7854PD,Aalden,Coevorden,Drenthe,VBO,6.720617,52.791946
Markeweg,15,,,7854PD,Aalden,Coevorden,Drenthe,VBO,6.720572,52.791900
Markeweg,17,,,7854PD,Aalden,Coevorden,Drenthe,VBO,6.720527,52.791849
Markeweg,2,,,7854PE,Aalden,Coevorden,Drenthe,VBO,6.720869,52.792618
Markeweg,4,,,7854PE,Aalden,Coevorden,Drenthe,VBO,6.720829,52.792564
Markeweg,6,,,7854PE,Aalden,Coevorden,Drenthe,VBO,6.720777,52.792517
Markeweg,8,,,7854PE,Aalden,Coevorden,Drenthe,VBO,6.720727,52.792463
Markeweg,10,,,7854PE,Aalden,Coevorden,Drenthe,VBO,6.720501,52.792424
Markeweg,12,,,7854PE,Aalden,Coevorden,Drenthe,VBO,6.720449,52.792372
Markeweg,14,,,7854PE,Aalden,Coevorden,Drenthe,VBO,6.720407,52.792324
Markeweg,16,,,7854PE,Aalden,Coevorden,Drenthe,VBO,6.720354,52.792273
Markeweg,18,,,7854PE,Aalden,Coevorden,Drenthe,VBO,6.720126,52.792232
Markeweg,20,,,7854PE,Aalden,Coevorden,Drenthe,VBO,6.720068,52.792177
Markeweg,22,,,7854PE,Aalden,Coevorden,Drenthe,VBO,6.720019,52.792133
Markeweg,24,,,7854PE,Aalden,Coevorden,Drenthe,VBO,6.719984,52.792083
Markeweg,26,,,7854PE,Aalden,Coevorden,Drenthe,VBO,6.719850,52.791896
Markeweg,28,,,7854PE,Aalden,Coevorden,Drenthe,VBO,6.719796,52.791846
Markeweg,30,,,7854PE,Aalden,Coevorden,Drenthe,VBO,6.719687,52.791784
Markeweg,32,,,7854PE,Aalden,Coevorden,Drenthe,VBO,6.719580,52.791736
Markeweg,34,,,7854PE,Aalden,Coevorden,Drenthe,VBO,6.719459,52.791680
Markeweg,36,,,7854PE,Aalden,Coevorden,Drenthe,VBO,6.719362,52.791619
Markeweg,38,,,7854PE,Aalden,Coevorden,Drenthe,VBO,6.718569,52.791338
Kerkstraat,2,,,7854PG,Aalden,Coevorden,Drenthe,VBO,6.720454,52.790137
Kerkstraat,3,,,7854PG,Aalden,Coevorden,Drenthe,VBO,6.719860,52.790075
Kerkstraat,4,A,,7854PG,Aalden,Coevorden,Drenthe,VBO,6.720223,52.790382
Kerkstraat,4,,,7854PG,Aalden,Coevorden,Drenthe,VBO,6.720358,52.790206
Kerkstraat,5,,,7854PG,Aalden,Coevorden,Drenthe,VBO,6.719779,52.790130
Kerkstraat,6,,,7854PG,Aalden,Coevorden,Drenthe,VBO,6.720021,52.790453
Kerkstraat,7,,,7854PG,Aalden,Coevorden,Drenthe,VBO,6.719625,52.790250
Kerkstraat,8,,,7854PG,Aalden,Coevorden,Drenthe,VBO,6.719912,52.790662
Kerkstraat,9,,,7854PG,Aalden,Coevorden,Drenthe,VBO,6.719566,52.790291
Kerkstraat,11,,,7854PG,Aalden,Coevorden,Drenthe,VBO,6.719347,52.790407
Kerkstraat,14,,,7854PG,Aalden,Coevorden,Drenthe,VBO,6.719528,52.790861
Kerkstraat,16,,,7854PG,Aalden,Coevorden,Drenthe,VBO,6.719242,52.790992
Kerkstraat,18,,,7854PG,Aalden,Coevorden,Drenthe,VBO,6.718779,52.790805
Volmolenstraat,3,,,7854PH,Aalden,Coevorden,Drenthe,VBO,6.719074,52.790389
Volmolenstraat,5,,,7854PH,Aalden,Coevorden,Drenthe,VBO,6.718966,52.790336
Volmolenstraat,7,,,7854PH,Aalden,Coevorden,Drenthe,VBO,6.718809,52.790287
Volmolenstraat,9,,,7854PH,Aalden,Coevorden,Drenthe,VBO,6.718697,52.790235
Volmolenstraat,11,,,7854PH,Aalden,Coevorden,Drenthe,VBO,6.718379,52.790094
Volmolenstraat,13,,,7854PH,Aalden,Coevorden,Drenthe,VBO,6.718453,52.790020
Volmolenstraat,15,,,7854PH,Aalden,Coevorden,Drenthe,VBO,6.718544,52.789926
Volmolenstraat,17,,,7854PH,Aalden,Coevorden,Drenthe,VBO,6.718617,52.789850
Volmolenstraat,19,,,7854PH,Aalden,Coevorden,Drenthe,VBO,6.718504,52.789725
Volmolenstraat,21,,,7854PH,Aalden,Coevorden,Drenthe,VBO,6.718396,52.789672
Volmolenstraat,23,,,7854PH,Aalden,Coevorden,Drenthe,VBO,6.718257,52.789600
Volmolenstraat,25,,,7854PH,Aalden,Coevorden,Drenthe,VBO,6.718147,52.789544
Volmolenstraat,27,,GA01,7854PH,Aalden,Coevorden,Drenthe,VBO,6.717575,52.789404
Volmolenstraat,27,,GA02,7854PH,Aalden,Coevorden,Drenthe,VBO,6.717575,52.789404
Volmolenstraat,27,,GA03,7854PH,Aalden,Coevorden,Drenthe,VBO,6.717575,52.789404
Volmolenstraat,27,,GA04,7854PH,Aalden,Coevorden,Drenthe,VBO,6.717575,52.789404
Volmolenstraat,27,,GA05,7854PH,Aalden,Coevorden,Drenthe,VBO,6.717575,52.789404
Volmolenstraat,27,,GA06,7854PH,Aalden,Coevorden,Drenthe,VBO,6.717694,52.789284
Volmolenstraat,27,,GA07,7854PH,Aalden,Coevorden,Drenthe,VBO,6.717694,52.789284
Volmolenstraat,27,,GA08,7854PH,Aalden,Coevorden,Drenthe,VBO,6.717694,52.789284
Volmolenstraat,27,,GA09,7854PH,Aalden,Coevorden,Drenthe,VBO,6.717694,52.789284
Volmolenstraat,27,,,7854PH,Aalden,Coevorden,Drenthe,VBO,6.717875,52.789483
Volmolenstraat,29,,,7854PH,Aalden,Coevorden,Drenthe,VBO,6.717786,52.789536
Volmolenstraat,31,,,7854PH,Aalden,Coevorden,Drenthe,VBO,6.717629,52.789614
Volmolenstraat,33,,,7854PH,Aalden,Coevorden,Drenthe,VBO,6.717539,52.789660
Volmolenstraat,35,,,7854PH,Aalden,Coevorden,Drenthe,VBO,6.717306,52.789537
Volmolenstraat,37,,,7854PH,Aalden,Coevorden,Drenthe,VBO,6.717209,52.789482
Volmolenstraat,39,,,7854PH,Aalden,Coevorden,Drenthe,VBO,6.717090,52.789403
Volmolenstraat,41,,,7854PJ,Aalden,Coevorden,Drenthe,VBO,6.716996,52.789344
Volmolenstraat,43,,,7854PJ,Aalden,Coevorden,Drenthe,VBO,6.716868,52.789264
Volmolenstraat,45,,,7854PJ,Aalden,Coevorden,Drenthe,VBO,6.716774,52.789203
Volmolenstraat,47,,,7854PJ,Aalden,Coevorden,Drenthe,VBO,6.716640,52.789131
Volmolenstraat,49,,,7854PJ,Aalden,Coevorden,Drenthe,VBO,6.716564,52.789073
Volmolenstraat,51,,,7854PJ,Aalden,Coevorden,Drenthe,VBO,6.716450,52.788983
Volmolenstraat,53,,,7854PJ,Aalden,Coevorden,Drenthe,VBO,6.716376,52.788922
Volmolenstraat,55,,,7854PJ,Aalden,Coevorden,Drenthe,VBO,6.716260,52.788833
Volmolenstraat,57,,,7854PJ,Aalden,Coevorden,Drenthe,VBO,6.716185,52.788772
Volmolenstraat,59,,,7854PJ,Aalden,Coevorden,Drenthe,VBO,6.716087,52.788665
Volmolenstraat,2,,,7854PK,Aalden,Coevorden,Drenthe,VBO,6.718108,52.790343
Volmolenstraat,6,,,7854PK,Aalden,Coevorden,Drenthe,VBO,6.717296,52.789867
Volmolenstraat,8,,,7854PK,Aalden,Coevorden,Drenthe,VBO,6.717064,52.789747
Volmolenstraat,10,,,7854PK,Aalden,Coevorden,Drenthe,VBO,6.716830,52.789634
Volmolenstraat,12,,,7854PK,Aalden,Coevorden,Drenthe,VBO,6.716401,52.789400
Volmolenstraat,14,,,7854PK,Aalden,Coevorden,Drenthe,VBO,6.716224,52.789307
Volmolenstraat,16,,,7854PK,Aalden,Coevorden,Drenthe,VBO,6.715993,52.789121
Volmolenstraat,18,,,7854PK,Aalden,Coevorden,Drenthe,VBO,6.715771,52.788895
Meester Benninkstraat,1,,,7854PL,Aalden,Coevorden,Drenthe,VBO,6.718522,52.790553
Meester Benninkstraat,2,,,7854PL,Aalden,Coevorden,Drenthe,VBO,6.718452,52.790597
Meester Benninkstraat,3,,,7854PL,Aalden,Coevorden,Drenthe,VBO,6.718334,52.790697
Meester Benninkstraat,4,,,7854PL,Aalden,Coevorden,Drenthe,VBO,6.718289,52.790751
Meester Benninkstraat,5,,,7854PL,Aalden,Coevorden,Drenthe,VBO,6.718141,52.790839
Meester Benninkstraat,6,,,7854PL,Aalden,Coevorden,Drenthe,VBO,6.718087,52.790896
Meester Benninkstraat,7,,,7854PL,Aalden,Coevorden,Drenthe,VBO,6.717980,52.790968
Meester Benninkstraat,8,,,7854PL,Aalden,Coevorden,Drenthe,VBO,6.717882,52.791007
Meester Benninkstraat,9,,,7854PL,Aalden,Coevorden,Drenthe,VBO,6.718055,52.791343
Rutgerswal,1,,,7854PM,Aalden,Coevorden,Drenthe,VBO,6.717512,52.789992
Rutgerswal,2,,,7854PM,Aalden,Coevorden,Drenthe,VBO,6.718046,52.790522
Rutgerswal,3,,,7854PM,Aalden,Coevorden,Drenthe,VBO,6.717368,52.790114
Rutgerswal,4,,,7854PM,Aalden,Coevorden,Drenthe,VBO,6.717839,52.790599
Rutgerswal,5,,,7854PM,Aalden,Coevorden,Drenthe,VBO,6.717217,52.790249
Rutgerswal,6,,,7854PM,Aalden,Coevorden,Drenthe,VBO,6.717644,52.790731
Rutgerswal,7,,,7854PM,Aalden,Coevorden,Drenthe,VBO,6.717067,52.790370
Paasbergstraat,1,,,7854PN,Aalden,Coevorden,Drenthe,VBO,6.717412,52.790805
Paasbergstraat,2,,,7854PN,Aalden,Coevorden,Drenthe,VBO,6.717439,52.791228
Paasbergstraat,3,,,7854PN,Aalden,Coevorden,Drenthe,VBO,6.716939,52.790517
Paasbergstraat,4,,,7854PN,Aalden,Coevorden,Drenthe,VBO,6.716962,52.791073
Paasbergstraat,5,,,7854PN,Aalden,Coevorden,Drenthe,VBO,6.716586,52.790362
Paasbergstraat,6,,,7854PN,Aalden,Coevorden,Drenthe,VBO,6.716761,52.790894
Paasbergstraat,7,,,7854PN,Aalden,Coevorden,Drenthe,VBO,6.716568,52.790124
Paasbergstraat,8,,,7854PN,Aalden,Coevorden,Drenthe,VBO,6.716379,52.790711
Paasbergstraat,9,,,7854PN,Aalden,Coevorden,Drenthe,VBO,6.716625,52.789953
Paasbergstraat,10,,,7854PN,Aalden,Coevorden,Drenthe,VBO,6.716113,52.790467
Paasbergstraat,11,,,7854PN,Aalden,Coevorden,Drenthe,VBO,6.716656,52.789785
Paasbergstraat,12,,,7854PN,Aalden,Coevorden,Drenthe,VBO,6.715504,52.790271
Paasbergstraat,14,,,7854PN,Aalden,Coevorden,Drenthe,VBO,6.715720,52.789936
Paasbergstraat,16,,,7854PN,Aalden,Coevorden,Drenthe,VBO,6.715974,52.789772
Bremweg,1,,,7854PP,Aalden,Coevorden,Drenthe,VBO,6.716318,52.789517
Bremweg,2,,,7854PP,Aalden,Coevorden,Drenthe,VBO,6.715454,52.789706
Bremweg,3,,,7854PP,Aalden,Coevorden,Drenthe,VBO,6.716056,52.789441
Bremweg,5,,,7854PP,Aalden,Coevorden,Drenthe,VBO,6.715848,52.789374
Paardelandsdrift,1,,,7854PR,Aalden,Coevorden,Drenthe,VBO,6.713638,52.791909
Paardelandsdrift,2,,,7854PR,Aalden,Coevorden,Drenthe,VBO,6.715653,52.789096
Paardelandsdrift,3,,BSO,7854PR,Aalden,Coevorden,Drenthe,VBO,6.713253,52.792900
Paardelandsdrift,3,,,7854PR,Aalden,Coevorden,Drenthe,VBO,6.713263,52.792963
Paardelandsdrift,4,,,7854PR,Aalden,Coevorden,Drenthe,VBO,6.715605,52.789296
Paardelandsdrift,5,,,7854PR,Aalden,Coevorden,Drenthe,VBO,6.712609,52.792953
Paardelandsdrift,7,,,7854PR,Aalden,Coevorden,Drenthe,VBO,6.712572,52.792626
Paardelandsdrift,8,,,7854PR,Aalden,Coevorden,Drenthe,VBO,6.715296,52.790052
Paardelandsdrift,9,,,7854PR,Aalden,Coevorden,Drenthe,VBO,6.712561,52.792891
Paardelandsdrift,10,,,7854PR,Aalden,Coevorden,Drenthe,VBO,6.715142,52.790260
Paardelandsdrift,11,,,7854PR,Aalden,Coevorden,Drenthe,VBO,6.712939,52.793078
Paardelandsdrift,12,,,7854PR,Aalden,Coevorden,Drenthe,VBO,6.714286,52.792570
Paardelandsdrift,13,,,7854PR,Aalden,Coevorden,Drenthe,VBO,6.712912,52.792884
Paardelandsdrift,14,,,7854PR,Aalden,Coevorden,Drenthe,VBO,6.713524,52.793797
Paardelandsdrift,15,,,7854PR,Aalden,Coevorden,Drenthe,VBO,6.712816,52.793880
Paardelandsdrift,16,,,7854PR,Aalden,Coevorden,Drenthe,VBO,6.713497,52.793920
Paardelandsdrift,17,,,7854PR,Aalden,Coevorden,Drenthe,VBO,6.712775,52.794063
Paardelandsdrift,18,,,7854PR,Aalden,Coevorden,Drenthe,VBO,6.713446,52.794020
Paardelandsdrift,19,,,7854PR,Aalden,Coevorden,Drenthe,VBO,6.712710,52.794202
Paardelandsdrift,20,,,7854PR,Aalden,Coevorden,Drenthe,VBO,6.713386,52.794136
Paardelandsdrift,21,,,7854PR,Aalden,Coevorden,Drenthe,VBO,6.712611,52.794353
Paardelandsdrift,22,,,7854PR,Aalden,Coevorden,Drenthe,VBO,6.713023,52.794950
Paardelandsdrift,23,,,7854PR,Aalden,Coevorden,Drenthe,VBO,6.712543,52.794573
Paardelandsdrift,24,,,7854PR,Aalden,Coevorden,Drenthe,VBO,6.712965,52.795141
Paardelandsdrift,25,,,7854PR,Aalden,Coevorden,Drenthe,VBO,6.712059,52.795752
Paardelandsdrift,26,,,7854PR,Aalden,Coevorden,Drenthe,VBO,6.712874,52.795265
Paardelandsdrift,28,,,7854PR,Aalden,Coevorden,Drenthe,VBO,6.712840,52.795322
Marsstukken,43,,,7854PS,Aalden,Coevorden,Drenthe,VBO,6.717003,52.794730
Marsstukken,45,,,7854PS,Aalden,Coevorden,Drenthe,VBO,6.716774,52.794903
Marsstukken,47,,,7854PS,Aalden,Coevorden,Drenthe,VBO,6.716560,52.795043
Marsstukken,49,,,7854PS,Aalden,Coevorden,Drenthe,VBO,6.716360,52.795200
Marsstukken,51,,,7854PS,Aalden,Coevorden,Drenthe,VBO,6.715846,52.795547
Marsstukken,53,,,7854PS,Aalden,Coevorden,Drenthe,VBO,6.715544,52.795768
Marsstukken,55,,,7854PS,Aalden,Coevorden,Drenthe,VBO,6.715342,52.795929
Marsstukken,57,,,7854PS,Aalden,Coevorden,Drenthe,VBO,6.715124,52.796055
Marsstukken,59,,,7854PS,Aalden,Coevorden,Drenthe,VBO,6.714880,52.796220
Marsstukken,61,,,7854PS,Aalden,Coevorden,Drenthe,VBO,6.714575,52.796267
Marsstukken,63,,,7854PS,Aalden,Coevorden,Drenthe,VBO,6.713891,52.796076
Marsstukken,65,,,7854PS,Aalden,Coevorden,Drenthe,VBO,6.713604,52.796032
Weth H van Tarelstraat,2,,,7854PT,Aalden,Coevorden,Drenthe,VBO,6.720221,52.792792
Weth H van Tarelstraat,4,,,7854PT,Aalden,Coevorden,Drenthe,VBO,6.720047,52.792663
Weth H van Tarelstraat,6,,,7854PT,Aalden,Coevorden,Drenthe,VBO,6.719922,52.792608
Weth H van Tarelstraat,8,,,7854PT,Aalden,Coevorden,Drenthe,VBO,6.719783,52.792565
Weth H van Tarelstraat,10,,,7854PT,Aalden,Coevorden,Drenthe,VBO,6.719667,52.792509
Weth H van Tarelstraat,12,,,7854PT,Aalden,Coevorden,Drenthe,VBO,6.719537,52.792445
Weth H van Tarelstraat,14,,,7854PT,Aalden,Coevorden,Drenthe,VBO,6.719424,52.792394
Weth H van Tarelstraat,16,,,7854PT,Aalden,Coevorden,Drenthe,VBO,6.719328,52.792304
Weth H van Tarelstraat,18,,,7854PT,Aalden,Coevorden,Drenthe,VBO,6.719226,52.792257
Weth H van Tarelstraat,20,,,7854PT,Aalden,Coevorden,Drenthe,VBO,6.719068,52.792208
Weth H van Tarelstraat,22,,,7854PT,Aalden,Coevorden,Drenthe,VBO,6.718981,52.792167
Weth H van Tarelstraat,24,,,7854PT,Aalden,Coevorden,Drenthe,VBO,6.718857,52.792106
Weth H van Tarelstraat,26,,,7854PT,Aalden,Coevorden,Drenthe,VBO,6.718737,52.792042
Weth H van Tarelstraat,28,,,7854PT,Aalden,Coevorden,Drenthe,VBO,6.718610,52.791950
Weth H van Tarelstraat,30,,,7854PT,Aalden,Coevorden,Drenthe,VBO,6.718201,52.791696
Weth H van Tarelstraat,32,,,7854PT,Aalden,Coevorden,Drenthe,VBO,6.718366,52.791575
Weth H van Tarelstraat,34,,,7854PT,Aalden,Coevorden,Drenthe,VBO,6.718774,52.791540
Weth H van Tarelstraat,36,,,7854PT,Aalden,Coevorden,Drenthe,VBO,6.718945,52.791421
Molenwijk,1,A,,7854PV,Aalden,Coevorden,Drenthe,VBO,6.714286,52.787353
Molenwijk,1,,,7854PV,Aalden,Coevorden,Drenthe,VBO,6.714246,52.787486
Molenwijk,2,,,7854PV,Aalden,Coevorden,Drenthe,VBO,6.714222,52.787572
Molenwijk,3,,,7854PV,Aalden,Coevorden,Drenthe,VBO,6.714197,52.787713
Molenwijk,4,,,7854PV,Aalden,Coevorden,Drenthe,VBO,6.714210,52.787804
Molenwijk,5,,,7854PV,Aalden,Coevorden,Drenthe,VBO,6.714524,52.787758
Molenwijk,6,,,7854PV,Aalden,Coevorden,Drenthe,VBO,6.715039,52.787888
Molenwijk,7,,,7854PV,Aalden,Coevorden,Drenthe,VBO,6.715170,52.787959
Molenwijk,8,,,7854PV,Aalden,Coevorden,Drenthe,VBO,6.715329,52.788053
Molenwijk,9,,,7854PV,Aalden,Coevorden,Drenthe,VBO,6.715525,52.788195
Molenwijk,10,,,7854PV,Aalden,Coevorden,Drenthe,VBO,6.715084,52.788475
Molenwijk,11,,,7854PV,Aalden,Coevorden,Drenthe,VBO,6.714831,52.788210
Molenwijk,12,,,7854PV,Aalden,Coevorden,Drenthe,VBO,6.714723,52.788240
Molenwijk,13,,,7854PV,Aalden,Coevorden,Drenthe,VBO,6.714116,52.788406
Bosakker,1,,,7854RA,Aalden,Coevorden,Drenthe,VBO,6.715058,52.791346
Bosakker,2,,,7854RA,Aalden,Coevorden,Drenthe,VBO,6.714980,52.790814
Bosakker,3,,,7854RA,Aalden,Coevorden,Drenthe,VBO,6.715295,52.791422
Bosakker,4,,,7854RA,Aalden,Coevorden,Drenthe,VBO,6.715203,52.790861
Bosakker,5,,,7854RA,Aalden,Coevorden,Drenthe,VBO,6.715666,52.791501
Bosakker,6,,,7854RA,Aalden,Coevorden,Drenthe,VBO,6.715476,52.790872
Bosakker,7,,,7854RA,Aalden,Coevorden,Drenthe,VBO,6.715754,52.791551
Bosakker,8,,,7854RA,Aalden,Coevorden,Drenthe,VBO,6.715632,52.790962
Bosakker,9,A,,7854RA,Aalden,Coevorden,Drenthe,VBO,6.716021,52.791642
Bosakker,9,,,7854RA,Aalden,Coevorden,Drenthe,VBO,6.715918,52.791596
Bosakker,10,,,7854RA,Aalden,Coevorden,Drenthe,VBO,6.715796,52.791045
Bosakker,11,A,,7854RA,Aalden,Coevorden,Drenthe,VBO,6.716223,52.791753
Bosakker,11,,,7854RA,Aalden,Coevorden,Drenthe,VBO,6.716138,52.791708
Bosakker,12,,,7854RA,Aalden,Coevorden,Drenthe,VBO,6.715974,52.791119
Bosakker,13,,,7854RA,Aalden,Coevorden,Drenthe,VBO,6.717431,52.792063
Bosakker,14,,,7854RA,Aalden,Coevorden,Drenthe,VBO,6.716138,52.791202
Bosakker,15,,,7854RA,Aalden,Coevorden,Drenthe,VBO,6.717643,52.791935
Bosakker,16,,,7854RA,Aalden,Coevorden,Drenthe,VBO,6.716289,52.791296
Bosakker,18,,,7854RA,Aalden,Coevorden,Drenthe,VBO,6.716453,52.791380
Bosakker,20,,,7854RA,Aalden,Coevorden,Drenthe,VBO,6.716607,52.791471
Bosakker,22,,,7854RA,Aalden,Coevorden,Drenthe,VBO,6.716765,52.791558
Bosakker,24,,,7854RA,Aalden,Coevorden,Drenthe,VBO,6.716852,52.791622
Holtakker,1,,,7854RB,Aalden,Coevorden,Drenthe,VBO,6.716548,52.792074
Holtakker,3,,,7854RB,Aalden,Coevorden,Drenthe,VBO,6.716790,52.792163
Holtakker,5,,,7854RB,Aalden,Coevorden,Drenthe,VBO,6.716981,52.792279
Holtakker,7,,,7854RB,Aalden,Coevorden,Drenthe,VBO,6.717245,52.792388
Stobakker,1,,,7854RC,Aalden,Coevorden,Drenthe,VBO,6.716092,52.792482
Stobakker,2,,,7854RC,Aalden,Coevorden,Drenthe,VBO,6.716445,52.792216
Stobakker,3,,,7854RC,Aalden,Coevorden,Drenthe,VBO,6.716217,52.792542
Stobakker,4,,,7854RC,Aalden,Coevorden,Drenthe,VBO,6.716664,52.792346
Stobakker,5,,,7854RC,Aalden,Coevorden,Drenthe,VBO,6.716327,52.792609
Stobakker,6,,,7854RC,Aalden,Coevorden,Drenthe,VBO,6.716840,52.792456
Stobakker,7,,,7854RC,Aalden,Coevorden,Drenthe,VBO,6.716426,52.792670
Stobakker,8,,,7854RC,Aalden,Coevorden,Drenthe,VBO,6.717090,52.792550
Stobakker,9,,,7854RC,Aalden,Coevorden,Drenthe,VBO,6.716559,52.792719
Stobakker,11,,,7854RC,Aalden,Coevorden,Drenthe,VBO,6.716612,52.792781
Tellingakker,1,,,7854RD,Aalden,Coevorden,Drenthe,VBO,6.715091,52.791998
Tellingakker,2,,,7854RD,Aalden,Coevorden,Drenthe,VBO,6.715239,52.791681
Tellingakker,3,,,7854RD,Aalden,Coevorden,Drenthe,VBO,6.715191,52.792029
Tellingakker,4,,,7854RD,Aalden,Coevorden,Drenthe,VBO,6.715346,52.791720
Tellingakker,5,,,7854RD,Aalden,Coevorden,Drenthe,VBO,6.715270,52.792059
Tellingakker,6,,,7854RD,Aalden,Coevorden,Drenthe,VBO,6.715437,52.791734
Tellingakker,7,,,7854RD,Aalden,Coevorden,Drenthe,VBO,6.715331,52.792090
Tellingakker,8,,,7854RD,Aalden,Coevorden,Drenthe,VBO,6.715539,52.791722
Tellingakker,9,,,7854RD,Aalden,Coevorden,Drenthe,VBO,6.715488,52.792148
Tellingakker,10,,,7854RD,Aalden,Coevorden,Drenthe,VBO,6.715649,52.791831
Tellingakker,11,,,7854RD,Aalden,Coevorden,Drenthe,VBO,6.715571,52.792177
Tellingakker,12,,,7854RD,Aalden,Coevorden,Drenthe,VBO,6.715735,52.791875
Tellingakker,13,,,7854RD,Aalden,Coevorden,Drenthe,VBO,6.715650,52.792208
Tellingakker,14,,,7854RD,Aalden,Coevorden,Drenthe,VBO,6.715807,52.791911
Tellingakker,15,,,7854RD,Aalden,Coevorden,Drenthe,VBO,6.715697,52.792234
Tellingakker,16,,,7854RD,Aalden,Coevorden,Drenthe,VBO,6.715879,52.791948
Tellingakker,18,,,7854RD,Aalden,Coevorden,Drenthe,VBO,6.715950,52.791984
Tellingakker,20,,,7854RD,Aalden,Coevorden,Drenthe,VBO,6.715991,52.792000
Wendakker,1,,,7854RE,Aalden,Coevorden,Drenthe,VBO,6.714731,52.792525
Wendakker,2,,,7854RE,Aalden,Coevorden,Drenthe,VBO,6.714367,52.792101
Wendakker,3,,,7854RE,Aalden,Coevorden,Drenthe,VBO,6.714817,52.792557
Wendakker,4,,,7854RE,Aalden,Coevorden,Drenthe,VBO,6.714595,52.792064
Wendakker,5,,,7854RE,Aalden,Coevorden,Drenthe,VBO,6.714889,52.792593
Wendakker,6,,,7854RE,Aalden,Coevorden,Drenthe,VBO,6.715052,52.792276
Wendakker,7,,,7854RE,Aalden,Coevorden,Drenthe,VBO,6.714961,52.792630
Wendakker,8,,,7854RE,Aalden,Coevorden,Drenthe,VBO,6.715144,52.792322
Wendakker,9,,,7854RE,Aalden,Coevorden,Drenthe,VBO,6.715033,52.792666
Wendakker,10,,,7854RE,Aalden,Coevorden,Drenthe,VBO,6.715222,52.792353
Wendakker,11,,,7854RE,Aalden,Coevorden,Drenthe,VBO,6.715074,52.792697
Wendakker,12,,,7854RE,Aalden,Coevorden,Drenthe,VBO,6.715301,52.792384
Wendakker,14,,,7854RE,Aalden,Coevorden,Drenthe,VBO,6.715380,52.792415
Wendakker,15,,,7854RE,Aalden,Coevorden,Drenthe,VBO,6.715946,52.793105
Wendakker,16,,,7854RE,Aalden,Coevorden,Drenthe,VBO,6.715421,52.792429
Wendakker,17,,,7854RE,Aalden,Coevorden,Drenthe,VBO,6.716048,52.793167
Wendakker,18,,,7854RE,Aalden,Coevorden,Drenthe,VBO,6.715832,52.792571
Wendakker,20,,,7854RE,Aalden,Coevorden,Drenthe,VBO,6.715956,52.792657
Wendakker,22,,,7854RE,Aalden,Coevorden,Drenthe,VBO,6.716064,52.792723
Wendakker,24,,,7854RE,Aalden,Coevorden,Drenthe,VBO,6.716166,52.792788
Wendakker,26,,,7854RE,Aalden,Coevorden,Drenthe,VBO,6.716241,52.792869
Wendakker,28,,,7854RE,Aalden,Coevorden,Drenthe,VBO,6.716328,52.792911
Hofakker,1,,,7854RG,Aalden,Coevorden,Drenthe,VBO,6.714775,52.792838
Hofakker,2,,,7854RG,Aalden,Coevorden,Drenthe,VBO,6.715360,52.792863
Hofakker,4,,,7854RG,Aalden,Coevorden,Drenthe,VBO,6.715164,52.793012
Padakker,2,,,7854RH,Aalden,Coevorden,Drenthe,VBO,6.714662,52.792790
Walakker,1,,,7854RJ,Aalden,Coevorden,Drenthe,VBO,6.714508,52.791893
Walakker,2,,,7854RJ,Aalden,Coevorden,Drenthe,VBO,6.714824,52.791287
Walakker,3,,,7854RJ,Aalden,Coevorden,Drenthe,VBO,6.714677,52.791996
Walakker,4,,,7854RJ,Aalden,Coevorden,Drenthe,VBO,6.714721,52.791411
Walakker,6,,,7854RJ,Aalden,Coevorden,Drenthe,VBO,6.714654,52.791553
Walakker,8,,,7854RJ,Aalden,Coevorden,Drenthe,VBO,6.714827,52.791581
Walakker,10,,,7854RJ,Aalden,Coevorden,Drenthe,VBO,6.714853,52.791514
Valsakker,1,,,7854RK,Aalden,Coevorden,Drenthe,VBO,6.719537,52.793232
Valsakker,2,,,7854RK,Aalden,Coevorden,Drenthe,VBO,6.718975,52.793433
Valsakker,3,,,7854RK,Aalden,Coevorden,Drenthe,VBO,6.719264,52.793201
Valsakker,4,,,7854RK,Aalden,Coevorden,Drenthe,VBO,6.718736,52.793351
Valsakker,5,,,7854RK,Aalden,Coevorden,Drenthe,VBO,6.719204,52.793124
Valsakker,6,,,7854RK,Aalden,Coevorden,Drenthe,VBO,6.718644,52.793304
Valsakker,7,,,7854RK,Aalden,Coevorden,Drenthe,VBO,6.719464,52.792993
Valsakker,8,,,7854RK,Aalden,Coevorden,Drenthe,VBO,6.718504,52.793243
Valsakker,9,,,7854RK,Aalden,Coevorden,Drenthe,VBO,6.719510,52.792923
Valsakker,10,,,7854RK,Aalden,Coevorden,Drenthe,VBO,6.718399,52.793195
Valsakker,11,,,7854RK,Aalden,Coevorden,Drenthe,VBO,6.719612,52.792830
Valsakker,12,,,7854RK,Aalden,Coevorden,Drenthe,VBO,6.718093,52.793081
Valsakker,13,,,7854RK,Aalden,Coevorden,Drenthe,VBO,6.719278,52.792679
Valsakker,14,,,7854RK,Aalden,Coevorden,Drenthe,VBO,6.717968,52.792966
Valsakker,15,,,7854RK,Aalden,Coevorden,Drenthe,VBO,6.719174,52.792721
Valsakker,16,,,7854RK,Aalden,Coevorden,Drenthe,VBO,6.717907,52.792901
Valsakker,17,,,7854RK,Aalden,Coevorden,Drenthe,VBO,6.719073,52.792799
Valsakker,18,,,7854RK,Aalden,Coevorden,Drenthe,VBO,6.717828,52.792703
Valsakker,19,,,7854RK,Aalden,Coevorden,Drenthe,VBO,6.719002,52.792861
Valsakker,20,,,7854RK,Aalden,Coevorden,Drenthe,VBO,6.717933,52.792660
Valsakker,21,,,7854RK,Aalden,Coevorden,Drenthe,VBO,6.718927,52.793002
Valsakker,22,,,7854RK,Aalden,Coevorden,Drenthe,VBO,6.718182,52.792619
Valsakker,23,,,7854RK,Aalden,Coevorden,Drenthe,VBO,6.718831,52.792963
Valsakker,24,,,7854RK,Aalden,Coevorden,Drenthe,VBO,6.718111,52.792549
Valsakker,25,,,7854RK,Aalden,Coevorden,Drenthe,VBO,6.718660,52.792876
Valsakker,27,,,7854RK,Aalden,Coevorden,Drenthe,VBO,6.718561,52.792830
Valsakker,29,,,7854RK,Aalden,Coevorden,Drenthe,VBO,6.718709,52.792723
Valsakker,31,,,7854RK,Aalden,Coevorden,Drenthe,VBO,6.718781,52.792663
Valsakker,33,,,7854RK,Aalden,Coevorden,Drenthe,VBO,6.718883,52.792579
Valsakker,35,,,7854RK,Aalden,Coevorden,Drenthe,VBO,6.718958,52.792524
Valsakker,37,,,7854RK,Aalden,Coevorden,Drenthe,VBO,6.718638,52.792455
Valsakker,39,,,7854RK,Aalden,Coevorden,Drenthe,VBO,6.718533,52.792410
Valsakker,41,,,7854RK,Aalden,Coevorden,Drenthe,VBO,6.718363,52.792268
Valsakker,43,,,7854RK,Aalden,Coevorden,Drenthe,VBO,6.718256,52.792310
Dilakker,2,,,7854RL,Aalden,Coevorden,Drenthe,VBO,6.718174,52.793914
Dilakker,3,,,7854RL,Aalden,Coevorden,Drenthe,VBO,6.718466,52.793550
Dilakker,4,,,7854RL,Aalden,Coevorden,Drenthe,VBO,6.717930,52.793826
Dilakker,5,,,7854RL,Aalden,Coevorden,Drenthe,VBO,6.718377,52.793501
Dilakker,6,,,7854RL,Aalden,Coevorden,Drenthe,VBO,6.717832,52.793779
Dilakker,7,,,7854RL,Aalden,Coevorden,Drenthe,VBO,6.718240,52.793437
Dilakker,8,,,7854RL,Aalden,Coevorden,Drenthe,VBO,6.717703,52.793718
Dilakker,9,,,7854RL,Aalden,Coevorden,Drenthe,VBO,6.718138,52.793388
Dilakker,10,,,7854RL,Aalden,Coevorden,Drenthe,VBO,6.717592,52.793667
Dilakker,11,,,7854RL,Aalden,Coevorden,Drenthe,VBO,6.717767,52.793196
Dilakker,12,,,7854RL,Aalden,Coevorden,Drenthe,VBO,6.717329,52.793530
Dilakker,13,,,7854RL,Aalden,Coevorden,Drenthe,VBO,6.717895,52.793137
Dilakker,14,,,7854RL,Aalden,Coevorden,Drenthe,VBO,6.717260,52.793467
Dilakker,16,,,7854RL,Aalden,Coevorden,Drenthe,VBO,6.717173,52.793306
Dilakker,18,,,7854RL,Aalden,Coevorden,Drenthe,VBO,6.717356,52.793092
Dilakker,20,,,7854RL,Aalden,Coevorden,Drenthe,VBO,6.717567,52.793045
Dilakker,22,,,7854RL,Aalden,Coevorden,Drenthe,VBO,6.717646,52.792977
Dijkakker,1,,,7854RM,Aalden,Coevorden,Drenthe,VBO,6.717647,52.794048
Dijkakker,3,,,7854RM,Aalden,Coevorden,Drenthe,VBO,6.717546,52.794002
Dijkakker,5,,,7854RM,Aalden,Coevorden,Drenthe,VBO,6.717422,52.793942
Dijkakker,7,,,7854RM,Aalden,Coevorden,Drenthe,VBO,6.717311,52.793893
Dijkakker,9,,,7854RM,Aalden,Coevorden,Drenthe,VBO,6.717131,52.793739
Dijkakker,15,,,7854RM,Aalden,Coevorden,Drenthe,VBO,6.716605,52.793640
Aelderstraat,1,,,7854RN,Aalden,Coevorden,Drenthe,VBO,6.724983,52.792659
Aelderstraat,3,A,,7854RN,Aalden,Coevorden,Drenthe,VBO,6.724516,52.792245
Aelderstraat,3,,,7854RN,Aalden,Coevorden,Drenthe,VBO,6.724576,52.792281
Aelderstraat,5,,,7854RN,Aalden,Coevorden,Drenthe,VBO,6.724371,52.792074
Aelderstraat,7,,,7854RN,Aalden,Coevorden,Drenthe,VBO,6.724237,52.792004
Aelderstraat,9,,,7854RN,Aalden,Coevorden,Drenthe,VBO,6.723746,52.791810
Aelderstraat,11,,,7854RN,Aalden,Coevorden,Drenthe,VBO,6.723464,52.791730
Aelderstraat,13,A,,7854RN,Aalden,Coevorden,Drenthe,VBO,6.723181,52.791585
Aelderstraat,13,,,7854RN,Aalden,Coevorden,Drenthe,VBO,6.723335,52.791608
Aelderstraat,15,A,,7854RN,Aalden,Coevorden,Drenthe,VBO,6.722787,52.791383
Aelderstraat,15,,,7854RN,Aalden,Coevorden,Drenthe,VBO,6.723097,52.791506
Aelderstraat,17,A,,7854RN,Aalden,Coevorden,Drenthe,VBO,6.722401,52.791217
Aelderstraat,17,,,7854RN,Aalden,Coevorden,Drenthe,VBO,6.722436,52.791256
Aelderstraat,19,A,,7854RN,Aalden,Coevorden,Drenthe,VBO,6.721759,52.790888
Aelderstraat,19,,,7854RN,Aalden,Coevorden,Drenthe,VBO,6.722068,52.791061
Aelderstraat,21,A,,7854RN,Aalden,Coevorden,Drenthe,VBO,6.721799,52.790715
Aelderstraat,21,C,,7854RN,Aalden,Coevorden,Drenthe,VBO,6.721724,52.790739
Aelderstraat,21,,,7854RN,Aalden,Coevorden,Drenthe,VBO,6.721580,52.790849
Aelderstraat,23,,,7854RN,Aalden,Coevorden,Drenthe,VBO,6.721441,52.790613
Aelderstraat,25,,,7854RN,Aalden,Coevorden,Drenthe,VBO,6.721303,52.790511
Aelderstraat,27,,,7854RN,Aalden,Coevorden,Drenthe,VBO,6.720827,52.790482
Aelderstraat,33,,,7854RN,Aalden,Coevorden,Drenthe,VBO,6.719860,52.789837
Aelderstraat,35,,,7854RP,Aalden,Coevorden,Drenthe,VBO,6.719597,52.789810
Aelderstraat,37,,,7854RP,Aalden,Coevorden,Drenthe,VBO,6.719301,52.789764
Aelderstraat,39,,,7854RP,Aalden,Coevorden,Drenthe,VBO,6.719320,52.789568
Aelderstraat,41,,,7854RP,Aalden,Coevorden,Drenthe,VBO,6.719104,52.789469
Aelderstraat,43,,,7854RP,Aalden,Coevorden,Drenthe,VBO,6.718877,52.789355
Aelderstraat,45,,,7854RP,Aalden,Coevorden,Drenthe,VBO,6.718581,52.789283
Aelderstraat,47,,,7854RP,Aalden,Coevorden,Drenthe,VBO,6.718250,52.789097
Aelderstraat,49,,,7854RP,Aalden,Coevorden,Drenthe,VBO,6.718116,52.788989
Aelderstraat,51,,,7854RP,Aalden,Coevorden,Drenthe,VBO,6.717845,52.788926
Aelderstraat,53,,,7854RP,Aalden,Coevorden,Drenthe,VBO,6.717609,52.788787
Aelderstraat,55,,,7854RP,Aalden,Coevorden,Drenthe,VBO,6.717497,52.788640
Aelderstraat,57,,,7854RP,Aalden,Coevorden,Drenthe,VBO,6.717412,52.788607
Aelderstraat,59,,,7854RP,Aalden,Coevorden,Drenthe,VBO,6.717157,52.788494
Aelderstraat,61,,,7854RP,Aalden,Coevorden,Drenthe,VBO,6.716966,52.788342
Aelderstraat,65,,,7854RP,Aalden,Coevorden,Drenthe,VBO,6.715787,52.787802
Aelderstraat,67,,,7854RP,Aalden,Coevorden,Drenthe,VBO,6.715399,52.787591
Aelderstraat,69,,,7854RP,Aalden,Coevorden,Drenthe,VBO,6.714831,52.787450
Aelderstraat,71,,,7854RP,Aalden,Coevorden,Drenthe,VBO,6.714629,52.787305
Aelderstraat,73,,,7854RP,Aalden,Coevorden,Drenthe,VBO,6.714369,52.787234
Aelderstraat,75,,,7854RP,Aalden,Coevorden,Drenthe,VBO,6.713733,52.787201
Aelderstraat,2,,,7854RR,Aalden,Coevorden,Drenthe,VBO,6.725648,52.792262
Aelderstraat,4,,,7854RR,Aalden,Coevorden,Drenthe,VBO,6.725603,52.792034
Aelderstraat,6,,,7854RR,Aalden,Coevorden,Drenthe,VBO,6.725051,52.791638
Aelderstraat,10,,,7854RR,Aalden,Coevorden,Drenthe,VBO,6.723998,52.791391
Aelderstraat,12,,,7854RR,Aalden,Coevorden,Drenthe,VBO,6.723860,52.791321
Aelderstraat,38,,,7854RR,Aalden,Coevorden,Drenthe,VBO,6.721989,52.790351
Aelderstraat,40,,,7854RR,Aalden,Coevorden,Drenthe,VBO,6.721703,52.790315
Aelderstraat,42,,,7854RR,Aalden,Coevorden,Drenthe,VBO,6.721582,52.790187
Aelderstraat,44,A,,7854RR,Aalden,Coevorden,Drenthe,VBO,6.721124,52.789982
Aelderstraat,44,,BY,7854RR,Aalden,Coevorden,Drenthe,VBO,6.721535,52.789948
Aelderstraat,44,,,7854RR,Aalden,Coevorden,Drenthe,VBO,6.721417,52.790077
Aelderstraat,46,A,,7854RS,Aalden,Coevorden,Drenthe,VBO,6.720633,52.789706
Aelderstraat,46,,,7854RS,Aalden,Coevorden,Drenthe,VBO,6.720861,52.789851
Aelderstraat,48,,,7854RS,Aalden,Coevorden,Drenthe,VBO,6.720314,52.789549
Aelderstraat,50,,,7854RS,Aalden,Coevorden,Drenthe,VBO,6.720192,52.789385
Aelderstraat,52,,,7854RS,Aalden,Coevorden,Drenthe,VBO,6.719987,52.789345
Aelderstraat,54,A,,7854RS,Aalden,Coevorden,Drenthe,VBO,6.718864,52.788674
Aelderstraat,54,B,,7854RS,Aalden,Coevorden,Drenthe,VBO,6.719062,52.788640
Aelderstraat,54,C,,7854RS,Aalden,Coevorden,Drenthe,VBO,6.718992,52.788581
Aelderstraat,54,D,,7854RS,Aalden,Coevorden,Drenthe,VBO,6.719305,52.788373
Aelderstraat,54,,,7854RS,Aalden,Coevorden,Drenthe,VBO,6.718954,52.788700
Aelderstraat,56,,,7854RS,Aalden,Coevorden,Drenthe,VBO,6.717798,52.788010
Aelderstraat,58,,,7854RS,Aalden,Coevorden,Drenthe,VBO,6.717067,52.787769
Aelderstraat,60,,,7854RS,Aalden,Coevorden,Drenthe,VBO,6.716416,52.787576
Aelderstraat,64,,,7854RS,Aalden,Coevorden,Drenthe,VBO,6.716061,52.787275
Aelderstraat,66,,,7854RS,Aalden,Coevorden,Drenthe,VBO,6.715080,52.786914
Aelderstraat,68,,,7854RS,Aalden,Coevorden,Drenthe,VBO,6.714749,52.786729
Aelderstraat,70,,,7854RS,Aalden,Coevorden,Drenthe,VBO,6.714465,52.786723
Aelderstraat,72,,,7854RS,Aalden,Coevorden,Drenthe,VBO,6.712378,52.785896
Middenweg,2,,,7854RS,Aalden,Coevorden,Drenthe,VBO,6.719283,52.785898
Aelder Hooghe,2,,,7854RT,Aalden,Coevorden,Drenthe,VBO,6.723910,52.789235
Aelder Hooghe,4,,,7854RT,Aalden,Coevorden,Drenthe,VBO,6.724833,52.789430
Aelder Hooghe,5,,,7854RT,Aalden,Coevorden,Drenthe,VBO,6.724997,52.789640
Aelder Hooghe,6,,,7854RT,Aalden,Coevorden,Drenthe,VBO,6.725145,52.789708
Aelder Hooghe,7,,,7854RT,Aalden,Coevorden,Drenthe,VBO,6.725670,52.791739
Aelder Hooghe,9,,,7854RT,Aalden,Coevorden,Drenthe,VBO,6.725061,52.791279
Koemarsendrift,1,A,,7854RV,Aalden,Coevorden,Drenthe,VBO,6.725248,52.788282
Koemarsendrift,1,,,7854RV,Aalden,Coevorden,Drenthe,VBO,6.724267,52.788261
Koemarsendrift,2,,,7854RV,Aalden,Coevorden,Drenthe,VBO,6.723535,52.788287
Koemarsendrift,3,,,7854RV,Aalden,Coevorden,Drenthe,VBO,6.722241,52.788398
Koemarsendrift,4,,,7854RV,Aalden,Coevorden,Drenthe,VBO,6.721682,52.788768
Oud Aalden,1,,,7854RW,Aalden,Coevorden,Drenthe,VBO,6.720997,52.788905
Oud Aalden,2,,,7854RW,Aalden,Coevorden,Drenthe,VBO,6.720564,52.788575
Oud Aalden,3,,,7854RW,Aalden,Coevorden,Drenthe,VBO,6.720318,52.788478
Oud Aalden,4,,,7854RW,Aalden,Coevorden,Drenthe,VBO,6.720052,52.788376
Oud Aalden,5,,,7854RW,Aalden,Coevorden,Drenthe,VBO,6.720211,52.787748
Oud Aalden,6,A,BEDR,7854RW,Aalden,Coevorden,Drenthe,VBO,6.720307,52.787373
Oud Aalden,6,A,,7854RW,Aalden,Coevorden,Drenthe,VBO,6.720307,52.787373
Oud Aalden,6,B,,7854RW,Aalden,Coevorden,Drenthe,VBO,6.720138,52.787203
Oud Aalden,6,,,7854RW,Aalden,Coevorden,Drenthe,VBO,6.720034,52.787359
Oud Aalden,7,,,7854RW,Aalden,Coevorden,Drenthe,VBO,6.720010,52.787008
Oud Aalden,8,,,7854RW,Aalden,Coevorden,Drenthe,VBO,6.720494,52.786457
Oud Aalden,9,,,7854RW,Aalden,Coevorden,Drenthe,VBO,6.719098,52.786405
Oud Aalden,10,,,7854RW,Aalden,Coevorden,Drenthe,VBO,6.718513,52.785755
Oud Aalden,11,,,7854RW,Aalden,Coevorden,Drenthe,VBO,6.718308,52.786037
Oud Aalden,12,,,7854RW,Aalden,Coevorden,Drenthe,VBO,6.718208,52.786805
Oud Aalden,13,,,7854RW,Aalden,Coevorden,Drenthe,VBO,6.717433,52.786002
Oud Aalden,15,,,7854RW,Aalden,Coevorden,Drenthe,VBO,6.717119,52.786478
Oud Aalden,16,,,7854RW,Aalden,Coevorden,Drenthe,VBO,6.716657,52.786224
Oud Aalden,17,,,7854RW,Aalden,Coevorden,Drenthe,VBO,6.716528,52.786372
Oud Aalden,18,,,7854RW,Aalden,Coevorden,Drenthe,VBO,6.716145,52.786160
Oud Aalden,19,,,7854RW,Aalden,Coevorden,Drenthe,VBO,6.716594,52.785564
Oud Aalden,21,,,7854RW,Aalden,Coevorden,Drenthe,VBO,6.715543,52.785901
Oud Aalden,22,A,,7854RW,Aalden,Coevorden,Drenthe,VBO,6.717070,52.787332
Oud Aalden,22,,TO,7854RW,Aalden,Coevorden,Drenthe,VBO,6.717217,52.786836
Oud Aalden,22,,,7854RW,Aalden,Coevorden,Drenthe,VBO,6.716758,52.786859
Oud Aalden,23,,,7854RW,Aalden,Coevorden,Drenthe,VBO,6.717780,52.787444
Hoekenakker,1,,,7854RX,Aalden,Coevorden,Drenthe,VBO,6.715359,52.793167
Hoekenakker,2,,,7854RX,Aalden,Coevorden,Drenthe,VBO,6.715805,52.793003
Hoekenakker,3,,,7854RX,Aalden,Coevorden,Drenthe,VBO,6.715698,52.793293
Hoekenakker,11,,,7854RX,Aalden,Coevorden,Drenthe,VBO,6.715944,52.793406
Aelderhof,1,,,7854RZ,Aalden,Coevorden,Drenthe,VBO,6.722747,52.790769
Aelderhof,2,,,7854RZ,Aalden,Coevorden,Drenthe,VBO,6.722666,52.790732
Aelderhof,3,,,7854RZ,Aalden,Coevorden,Drenthe,VBO,6.722599,52.790691
Aelderhof,4,,,7854RZ,Aalden,Coevorden,Drenthe,VBO,6.722527,52.790663
Aelderhof,5,,,7854RZ,Aalden,Coevorden,Drenthe,VBO,6.722124,52.790532
Aelderhof,6,,,7854RZ,Aalden,Coevorden,Drenthe,VBO,6.722171,52.790480
Aelderhof,7,,,7854RZ,Aalden,Coevorden,Drenthe,VBO,6.722226,52.790434
Aelderhof,8,,,7854RZ,Aalden,Coevorden,Drenthe,VBO,6.722285,52.790394
Aelderhof,9,,,7854RZ,Aalden,Coevorden,Drenthe,VBO,6.722540,52.790336
Aelderhof,10,,,7854RZ,Aalden,Coevorden,Drenthe,VBO,6.722618,52.790370
Aelderhof,11,,,7854RZ,Aalden,Coevorden,Drenthe,VBO,6.722696,52.790402
Aelderhof,12,,,7854RZ,Aalden,Coevorden,Drenthe,VBO,6.722759,52.790437
Aelderhof,13,,,7854RZ,Aalden,Coevorden,Drenthe,VBO,6.722976,52.790627
Aelderhof,14,,,7854RZ,Aalden,Coevorden,Drenthe,VBO,6.723064,52.790593
Aelderhof,15,,,7854RZ,Aalden,Coevorden,Drenthe,VBO,6.723163,52.790440
Aelderhof,16,,,7854RZ,Aalden,Coevorden,Drenthe,VBO,6.723065,52.790394
Aelderhof,17,,,7854RZ,Aalden,Coevorden,Drenthe,VBO,6.722993,52.790252
Aelderhof,18,,,7854RZ,Aalden,Coevorden,Drenthe,VBO,6.722894,52.790224
Aelderhof,19,,,7854RZ,Aalden,Coevorden,Drenthe,VBO,6.722792,52.790092
Aelderhof,20,,,7854RZ,Aalden,Coevorden,Drenthe,VBO,6.722713,52.790051
Baander,1,,,7854SB,Aalden,Coevorden,Drenthe,VBO,6.712083,52.793760
Baander,2,,,7854SB,Aalden,Coevorden,Drenthe,VBO,6.712424,52.793939
Baander,3,,,7854SB,Aalden,Coevorden,Drenthe,VBO,6.711838,52.793975
Baander,4,,,7854SB,Aalden,Coevorden,Drenthe,VBO,6.712318,52.794115
Baander,5,,,7854SB,Aalden,Coevorden,Drenthe,VBO,6.711828,52.794033
Baander,6,,,7854SB,Aalden,Coevorden,Drenthe,VBO,6.712206,52.794299
Baander,7,,,7854SB,Aalden,Coevorden,Drenthe,VBO,6.711762,52.794147
Baander,8,,,7854SB,Aalden,Coevorden,Drenthe,VBO,6.711807,52.795047
Baander,9,,,7854SB,Aalden,Coevorden,Drenthe,VBO,6.711746,52.794208
Baander,11,,,7854SB,Aalden,Coevorden,Drenthe,VBO,6.711348,52.794979
Baander,13,,,7854SB,Aalden,Coevorden,Drenthe,VBO,6.710943,52.794922
Baander,14,,,7854SB,Aalden,Coevorden,Drenthe,VBO,6.712182,52.795431
Baander,15,,,7854SB,Aalden,Coevorden,Drenthe,VBO,6.710883,52.795054
Baander,16,,,7854SB,Aalden,Coevorden,Drenthe,VBO,6.711893,52.795349
Baander,17,,,7854SB,Aalden,Coevorden,Drenthe,VBO,6.711227,52.795215
Baander,19,,,7854SB,Aalden,Coevorden,Drenthe,VBO,6.711082,52.795483
Baander,20,,,7854SB,Aalden,Coevorden,Drenthe,VBO,6.711487,52.795586
Baander,21,,,7854SB,Aalden,Coevorden,Drenthe,VBO,6.710826,52.795409
Baander,22,,,7854SB,Aalden,Coevorden,Drenthe,VBO,6.711282,52.795709
Baander,23,,,7854SB,Aalden,Coevorden,Drenthe,VBO,6.710656,52.795289
Baander,24,,,7854SB,Aalden,Coevorden,Drenthe,VBO,6.709471,52.794935
Baander,25,,,7854SB,Aalden,Coevorden,Drenthe,VBO,6.710181,52.795082
Baander,26,,,7854SB,Aalden,Coevorden,Drenthe,VBO,6.709552,52.794787
Baander,27,,,7854SB,Aalden,Coevorden,Drenthe,VBO,6.709921,52.794999
Baander,28,,,7854SB,Aalden,Coevorden,Drenthe,VBO,6.709586,52.794608
Baander,29,,,7854SB,Aalden,Coevorden,Drenthe,VBO,6.710052,52.794766
Baander,30,,,7854SB,Aalden,Coevorden,Drenthe,VBO,6.709696,52.794412
Hilde,2,,,7854SC,Aalden,Coevorden,Drenthe,VBO,6.712366,52.793603
Hilde,4,,,7854SC,Aalden,Coevorden,Drenthe,VBO,6.712212,52.793516
Hilde,6,,,7854SC,Aalden,Coevorden,Drenthe,VBO,6.712071,52.793429
Hilde,8,,,7854SC,Aalden,Coevorden,Drenthe,VBO,6.711992,52.793368
Hilde,10,,,7854SC,Aalden,Coevorden,Drenthe,VBO,6.711849,52.793283
Hilde,12,,,7854SC,Aalden,Coevorden,Drenthe,VBO,6.711729,52.793246
Hilde,14,,,7854SC,Aalden,Coevorden,Drenthe,VBO,6.711611,52.793147
Hilde,16,,,7854SC,Aalden,Coevorden,Drenthe,VBO,6.711481,52.793068
Schouw,1,,,7854SE,Aalden,Coevorden,Drenthe,VBO,6.711878,52.793640
Schouw,3,,,7854SE,Aalden,Coevorden,Drenthe,VBO,6.711702,52.793540
Schouw,5,,,7854SE,Aalden,Coevorden,Drenthe,VBO,6.711571,52.793456
Schouw,7,,,7854SE,Aalden,Coevorden,Drenthe,VBO,6.711471,52.793399
Schouw,9,,,7854SE,Aalden,Coevorden,Drenthe,VBO,6.711342,52.793322
Schouw,11,,,7854SE,Aalden,Coevorden,Drenthe,VBO,6.711217,52.793225
Deel,1,,,7854SG,Aalden,Coevorden,Drenthe,VBO,6.712169,52.794530
Deel,2,,,7854SG,Aalden,Coevorden,Drenthe,VBO,6.712465,52.794867
Deel,3,,,7854SG,Aalden,Coevorden,Drenthe,VBO,6.711676,52.794411
Deel,4,,,7854SG,Aalden,Coevorden,Drenthe,VBO,6.711930,52.794792
Deel,5,,,7854SG,Aalden,Coevorden,Drenthe,VBO,6.711392,52.794344
Deel,6,A,,7854SG,Aalden,Coevorden,Drenthe,VBO,6.711247,52.794708
Deel,6,,,7854SG,Aalden,Coevorden,Drenthe,VBO,6.711406,52.794793
Deel,6,,,7854SG,Aalden,Coevorden,Drenthe,VBO,6.711479,52.794795
Deel,7,,,7854SG,Aalden,Coevorden,Drenthe,VBO,6.711129,52.794275
Deel,8,,,7854SG,Aalden,Coevorden,Drenthe,VBO,6.710991,52.794708
Deel,9,,,7854SG,Aalden,Coevorden,Drenthe,VBO,6.710695,52.794217
Deel,10,,,7854SG,Aalden,Coevorden,Drenthe,VBO,6.710464,52.794620
Deel,11,,,7854SG,Aalden,Coevorden,Drenthe,VBO,6.710424,52.794170
Deel,12,,,7854SG,Aalden,Coevorden,Drenthe,VBO,6.710164,52.794539
Deel,13,,,7854SG,Aalden,Coevorden,Drenthe,VBO,6.710161,52.794125
Deel,15,,,7854SG,Aalden,Coevorden,Drenthe,VBO,6.709888,52.794072
Opkamer,1,,,7854SH,Aalden,Coevorden,Drenthe,VBO,6.710947,52.793686
Opkamer,2,,,7854SH,Aalden,Coevorden,Drenthe,VBO,6.711438,52.793777
Opkamer,3,,,7854SH,Aalden,Coevorden,Drenthe,VBO,6.710724,52.793553
Opkamer,4,,,7854SH,Aalden,Coevorden,Drenthe,VBO,6.711362,52.793939
Opkamer,5,,,7854SH,Aalden,Coevorden,Drenthe,VBO,6.710172,52.793877
Opkamer,6,,,7854SH,Aalden,Coevorden,Drenthe,VBO,6.711282,52.794116
Opkamer,7,,,7854SH,Aalden,Coevorden,Drenthe,VBO,6.710496,52.793940
Opkamer,9,,,7854SH,Aalden,Coevorden,Drenthe,VBO,6.710803,52.793982
Gelpenberg,1,,,7854TA,Aalden,Coevorden,Drenthe,VBO,6.715918,52.788277
Gelpenberg,3,,,7854TA,Aalden,Coevorden,Drenthe,VBO,6.715709,52.788364
Gelpenberg,5,,,7854TA,Aalden,Coevorden,Drenthe,VBO,6.714797,52.788755
Gelpenberg,7,,,7854TA,Aalden,Coevorden,Drenthe,VBO,6.714601,52.788850
Gelpenberg,9,A,,7854TA,Aalden,Coevorden,Drenthe,VBO,6.714279,52.788940
Gelpenberg,9,,,7854TA,Aalden,Coevorden,Drenthe,VBO,6.714483,52.788881
Gelpenberg,11,,,7854TA,Aalden,Coevorden,Drenthe,VBO,6.713894,52.789002
Gelpenberg,17,A,,7854TA,Aalden,Coevorden,Drenthe,VBO,6.692454,52.798574
Gelpenberg,17,B,,7854TA,Aalden,Coevorden,Drenthe,VBO,6.689978,52.799822
Gelpenberg,19,,,7854TA,Aalden,Coevorden,Drenthe,VBO,6.687452,52.801596
Gelpenberg,2,A,,7854TB,Aalden,Coevorden,Drenthe,VBO,6.716654,52.788427
Gelpenberg,2,,,7854TB,Aalden,Coevorden,Drenthe,VBO,6.716752,52.788371
Gelpenberg,4,A,,7854TB,Aalden,Coevorden,Drenthe,VBO,6.716374,52.788514
Gelpenberg,4,,,7854TB,Aalden,Coevorden,Drenthe,VBO,6.716490,52.788484
Gelpenberg,8,,,7854TB,Aalden,Coevorden,Drenthe,VBO,6.715076,52.789189
Gelpenberg,10,,,7854TB,Aalden,Coevorden,Drenthe,VBO,6.714434,52.789516
Gelpenberg,12,,,7854TB,Aalden,Coevorden,Drenthe,VBO,6.714056,52.789718
Gelpenberg,14,,,7854TB,Aalden,Coevorden,Drenthe,VBO,6.713662,52.789882
Gelpenberg,20,,,7854TB,Aalden,Coevorden,Drenthe,VBO,6.711970,52.790837
Gelpenberg,22,,,7854TB,Aalden,Coevorden,Drenthe,VBO,6.711218,52.790844
Gelpenberg,24,A,,7854TB,Aalden,Coevorden,Drenthe,VBO,6.688557,52.801694
Gelpenberg,24,,,7854TB,Aalden,Coevorden,Drenthe,VBO,6.695042,52.798121
Gelpenberg,26,,,7854TB,Aalden,Coevorden,Drenthe,VBO,6.685472,52.803894
Gelpenberg,28,,,7854TB,Aalden,Coevorden,Drenthe,VBO,6.680769,52.806249
Nooitgedacht,1,,,7854TC,Aalden,Coevorden,Drenthe,VBO,6.701103,52.792452
Nooitgedacht,2,,,7854TC,Aalden,Coevorden,Drenthe,VBO,6.700505,52.792150
Gebbeveenweg,1,A,,7854TD,Aalden,Coevorden,Drenthe,VBO,6.696751,52.800695
Gebbeveenweg,1,B,,7854TD,Aalden,Coevorden,Drenthe,VBO,6.696692,52.800584
Gebbeveenweg,1,,,7854TD,Aalden,Coevorden,Drenthe,VBO,6.696707,52.800840
Oldeveen,5,,,7854TH,Aalden,Coevorden,Drenthe,VBO,6.681189,52.801398
Oldeveen,8,,,7854TH,Aalden,Coevorden,Drenthe,VBO,6.675200,52.796386
Oldeveen,10,,,7854TH,Aalden,Coevorden,Drenthe,VBO,6.674550,52.795936
Brinkmaten,1,,,7854TJ,Aalden,Coevorden,Drenthe,VBO,6.714470,52.793588
Brinkmaten,3,,,7854TJ,Aalden,Coevorden,Drenthe,VBO,6.714537,52.793532
Brinkmaten,5,,,7854TJ,Aalden,Coevorden,Drenthe,VBO,6.714789,52.793656
Brinkmaten,7,,,7854TJ,Aalden,Coevorden,Drenthe,VBO,6.714875,52.793698
Brinkmaten,9,,,7854TJ,Aalden,Coevorden,Drenthe,VBO,6.715035,52.793826
Brinkmaten,11,,,7854TJ,Aalden,Coevorden,Drenthe,VBO,6.714979,52.793881
Brinkmaten,13,,,7854TJ,Aalden,Coevorden,Drenthe,VBO,6.714925,52.793923
Brinkmaten,15,,,7854TJ,Aalden,Coevorden,Drenthe,VBO,6.714865,52.793971
Brinkmaten,17,,,7854TJ,Aalden,Coevorden,Drenthe,VBO,6.714794,52.794080
Brinkmaten,19,,,7854TJ,Aalden,Coevorden,Drenthe,VBO,6.714764,52.794151
Brinkmaten,21,,,7854TJ,Aalden,Coevorden,Drenthe,VBO,6.714742,52.794198
Brinkmaten,23,,,7854TJ,Aalden,Coevorden,Drenthe,VBO,6.714718,52.794253
Brinkmaten,25,,,7854TJ,Aalden,Coevorden,Drenthe,VBO,6.714675,52.794425
Brinkmaten,27,,,7854TJ,Aalden,Coevorden,Drenthe,VBO,6.714616,52.794417
Brinkmaten,29,,,7854TJ,Aalden,Coevorden,Drenthe,VBO,6.714557,52.794406
Brinkmaten,31,,,7854TJ,Aalden,Coevorden,Drenthe,VBO,6.714495,52.794389
Brinkmaten,33,,,7854TJ,Aalden,Coevorden,Drenthe,VBO,6.714290,52.794303
Brinkmaten,2,,,7854TK,Aalden,Coevorden,Drenthe,VBO,6.714037,52.793194
Brinkmaten,4,,,7854TK,Aalden,Coevorden,Drenthe,VBO,6.714132,52.793075
Brinkmaten,6,,,7854TK,Aalden,Coevorden,Drenthe,VBO,6.714186,52.792918
Brinkmaten,10,,,7854TK,Aalden,Coevorden,Drenthe,VBO,6.714839,52.793197
Brinkmaten,12,,,7854TK,Aalden,Coevorden,Drenthe,VBO,6.714767,52.793258
Brinkmaten,14,,,7854TK,Aalden,Coevorden,Drenthe,VBO,6.715001,52.793364
Brinkmaten,16,,,7854TK,Aalden,Coevorden,Drenthe,VBO,6.715091,52.793406
Brinkmaten,18,,,7854TK,Aalden,Coevorden,Drenthe,VBO,6.715253,52.793485
Brinkmaten,20,,,7854TK,Aalden,Coevorden,Drenthe,VBO,6.715347,52.793529
Brinkmaten,22,,,7854TK,Aalden,Coevorden,Drenthe,VBO,6.715543,52.793578
Brinkmaten,24,A,,7854TK,Aalden,Coevorden,Drenthe,VBO,6.715835,52.793709
Brinkmaten,24,B,,7854TK,Aalden,Coevorden,Drenthe,VBO,6.715940,52.793759
Brinkmaten,24,,,7854TK,Aalden,Coevorden,Drenthe,VBO,6.715640,52.793621
Brinkmaten,26,,,7854TK,Aalden,Coevorden,Drenthe,VBO,6.715706,52.793924
Brinkmaten,28,,,7854TK,Aalden,Coevorden,Drenthe,VBO,6.715646,52.793966
Brinkmaten,30,,,7854TK,Aalden,Coevorden,Drenthe,VBO,6.715569,52.794002
Brinkmaten,32,,,7854TK,Aalden,Coevorden,Drenthe,VBO,6.715505,52.794030
Brinkmaten,34,,,7854TK,Aalden,Coevorden,Drenthe,VBO,6.715419,52.794065
Brinkmaten,36,,,7854TK,Aalden,Coevorden,Drenthe,VBO,6.715342,52.794107
Brinkmaten,38,,,7854TL,Aalden,Coevorden,Drenthe,VBO,6.715150,52.794290
Brinkmaten,40,,,7854TL,Aalden,Coevorden,Drenthe,VBO,6.715132,52.794335
Brinkmaten,42,,,7854TL,Aalden,Coevorden,Drenthe,VBO,6.715104,52.794373
Brinkmaten,44,,,7854TL,Aalden,Coevorden,Drenthe,VBO,6.715095,52.794412
Brinkmaten,46,,,7854TL,Aalden,Coevorden,Drenthe,VBO,6.715070,52.794528
Brinkmaten,48,,,7854TL,Aalden,Coevorden,Drenthe,VBO,6.715042,52.794581
Brinkmaten,50,,,7854TL,Aalden,Coevorden,Drenthe,VBO,6.715008,52.794637
Brinkmaten,52,,,7854TL,Aalden,Coevorden,Drenthe,VBO,6.714990,52.794690
Brinkmaten,54,,,7854TL,Aalden,Coevorden,Drenthe,VBO,6.714737,52.794864
Brinkmaten,56,,,7854TL,Aalden,Coevorden,Drenthe,VBO,6.714671,52.794831
Brinkmaten,58,,,7854TL,Aalden,Coevorden,Drenthe,VBO,6.714598,52.794797
Brinkmaten,60,,,7854TL,Aalden,Coevorden,Drenthe,VBO,6.714533,52.794753
Brinkmaten,62,,,7854TL,Aalden,Coevorden,Drenthe,VBO,6.714407,52.794650
Brinkmaten,64,,,7854TL,Aalden,Coevorden,Drenthe,VBO,6.714325,52.794646
Brinkmaten,66,,,7854TL,Aalden,Coevorden,Drenthe,VBO,6.714237,52.794636
Brinkmaten,68,,,7854TL,Aalden,Coevorden,Drenthe,VBO,6.714162,52.794613
Brinkmaten,70,,,7854TL,Aalden,Coevorden,Drenthe,VBO,6.713954,52.794580
Brinkmaten,72,,,7854TL,Aalden,Coevorden,Drenthe,VBO,6.713860,52.794585
Brinkmaten,74,,,7854TL,Aalden,Coevorden,Drenthe,VBO,6.713769,52.794588
Brinkmaten,76,,,7854TL,Aalden,Coevorden,Drenthe,VBO,6.713690,52.794588
Wachthoorn,1,,,7854TM,Aalden,Coevorden,Drenthe,VBO,6.713542,52.793637
Wachthoorn,3,,,7854TM,Aalden,Coevorden,Drenthe,VBO,6.713733,52.793649
Wachthoorn,5,,,7854TM,Aalden,Coevorden,Drenthe,VBO,6.713937,52.793686
Wachthoorn,7,,,7854TM,Aalden,Coevorden,Drenthe,VBO,6.713916,52.793793
Wachthoorn,9,,,7854TM,Aalden,Coevorden,Drenthe,VBO,6.713884,52.793897
Wachthoorn,11,,,7854TM,Aalden,Coevorden,Drenthe,VBO,6.713826,52.794003
Wachthoorn,13,,,7854TM,Aalden,Coevorden,Drenthe,VBO,6.713689,52.794109
Wachthoorn,15,,,7854TM,Aalden,Coevorden,Drenthe,VBO,6.713527,52.794265
Wachthoorn,17,,,7854TM,Aalden,Coevorden,Drenthe,VBO,6.713334,52.794387
Wachthoorn,19,,,7854TM,Aalden,Coevorden,Drenthe,VBO,6.713290,52.794501
Wachthoorn,21,,,7854TM,Aalden,Coevorden,Drenthe,VBO,6.713261,52.794699
Wachthoorn,23,,,7854TM,Aalden,Coevorden,Drenthe,VBO,6.713139,52.794668
Wachthoorn,25,,,7854TM,Aalden,Coevorden,Drenthe,VBO,6.713712,52.795253
Wachthoorn,27,,,7854TM,Aalden,Coevorden,Drenthe,VBO,6.713909,52.795268
Wachthoorn,29,,,7854TM,Aalden,Coevorden,Drenthe,VBO,6.714097,52.795287
Wachthoorn,31,,,7854TM,Aalden,Coevorden,Drenthe,VBO,6.714238,52.795370
Wachthoorn,33,,,7854TM,Aalden,Coevorden,Drenthe,VBO,6.714384,52.795447
Wachthoorn,35,,,7854TM,Aalden,Coevorden,Drenthe,VBO,6.715111,52.795406
Wachthoorn,37,,,7854TM,Aalden,Coevorden,Drenthe,VBO,6.715284,52.795229
Wachthoorn,39,,,7854TM,Aalden,Coevorden,Drenthe,VBO,6.715456,52.795340
Wachthoorn,41,,,7854TM,Aalden,Coevorden,Drenthe,VBO,6.715625,52.795503
Wachthoorn,2,,,7854TN,Aalden,Coevorden,Drenthe,VBO,6.713760,52.793388
Wachthoorn,4,,,7854TN,Aalden,Coevorden,Drenthe,VBO,6.713996,52.793380
Wachthoorn,6,,,7854TN,Aalden,Coevorden,Drenthe,VBO,6.714508,52.793767
Wachthoorn,8,,,7854TN,Aalden,Coevorden,Drenthe,VBO,6.714463,52.793905
Wachthoorn,10,,,7854TN,Aalden,Coevorden,Drenthe,VBO,6.714380,52.794030
Wachthoorn,12,,,7854TN,Aalden,Coevorden,Drenthe,VBO,6.714315,52.794164
Wachthoorn,14,,,7854TN,Aalden,Coevorden,Drenthe,VBO,6.713634,52.794787
Wachthoorn,16,,,7854TN,Aalden,Coevorden,Drenthe,VBO,6.713735,52.794802
Wachthoorn,18,,,7854TN,Aalden,Coevorden,Drenthe,VBO,6.713956,52.794839
Wachthoorn,20,,,7854TN,Aalden,Coevorden,Drenthe,VBO,6.714091,52.794857
Wachthoorn,22,,,7854TN,Aalden,Coevorden,Drenthe,VBO,6.714343,52.794950
Wachthoorn,24,,,7854TN,Aalden,Coevorden,Drenthe,VBO,6.714478,52.794979
Wachthoorn,34,,,7854TN,Aalden,Coevorden,Drenthe,VBO,6.714659,52.795122
Wachthoorn,36,,,7854TN,Aalden,Coevorden,Drenthe,VBO,6.714733,52.795072
Wachthoorn,38,,,7854TN,Aalden,Coevorden,Drenthe,VBO,6.714906,52.794980
Grootmaten,1,,,7854TP,Aalden,Coevorden,Drenthe,STA,6.713173,52.795822
Grootmaten,3,,,7854TP,Aalden,Coevorden,Drenthe,STA,6.713120,52.795911
Grootmaten,5,,,7854TP,Aalden,Coevorden,Drenthe,STA,6.712693,52.795819
Grootmaten,7,,,7854TP,Aalden,Coevorden,Drenthe,STA,6.712719,52.795755
Grootmaten,9,,,7854TP,Aalden,Coevorden,Drenthe,STA,6.712752,52.795686
Weersmaten,1,,,7854TR,Aalden,Coevorden,Drenthe,VBO,6.717114,52.794390
Weersmaten,2,,,7854TR,Aalden,Coevorden,Drenthe,VBO,6.717003,52.794730
Weersmaten,3,,,7854TR,Aalden,Coevorden,Drenthe,VBO,6.716980,52.794269
Weersmaten,4,,,7854TR,Aalden,Coevorden,Drenthe,VBO,6.716710,52.794661
Weersmaten,5,,,7854TR,Aalden,Coevorden,Drenthe,VBO,6.716776,52.794184
Weersmaten,6,,,7854TR,Aalden,Coevorden,Drenthe,VBO,6.716470,52.794758
Weersmaten,7,,,7854TR,Aalden,Coevorden,Drenthe,VBO,6.716580,52.794100
Weersmaten,8,,,7854TR,Aalden,Coevorden,Drenthe,VBO,6.716268,52.794840
Weersmaten,9,,,7854TR,Aalden,Coevorden,Drenthe,VBO,6.716349,52.793999
Weersmaten,10,,,7854TR,Aalden,Coevorden,Drenthe,VBO,6.716162,52.794955
Weersmaten,11,,,7854TR,Aalden,Coevorden,Drenthe,VBO,6.716280,52.794283
Weersmaten,12,,,7854TR,Aalden,Coevorden,Drenthe,VBO,6.715990,52.795076
Weersmaten,13,,,7854TR,Aalden,Coevorden,Drenthe,VBO,6.716144,52.794395
Weersmaten,15,,,7854TR,Aalden,Coevorden,Drenthe,VBO,6.715983,52.794608
Weersmaten,17,,,7854TR,Aalden,Coevorden,Drenthe,VBO,6.715821,52.794705
Weersmaten,19,,,7854TR,Aalden,Coevorden,Drenthe,VBO,6.715765,52.794757
Weersmaten,21,,,7854TR,Aalden,Coevorden,Drenthe,VBO,6.715607,52.794828
Weersmaten,23,,,7854TR,Aalden,Coevorden,Drenthe,VBO,6.715552,52.794912
Westermaten,1,,,7854TS,Aalden,Coevorden,Drenthe,VBO,6.713459,52.795044
Westermaten,2,,,7854TS,Aalden,Coevorden,Drenthe,VBO,6.713755,52.795392
Westermaten,3,,,7854TS,Aalden,Coevorden,Drenthe,VBO,6.713394,52.795134
Westermaten,4,,,7854TS,Aalden,Coevorden,Drenthe,VBO,6.713719,52.795463
Westermaten,5,,,7854TS,Aalden,Coevorden,Drenthe,VBO,6.713360,52.795209
Westermaten,6,,,7854TS,Aalden,Coevorden,Drenthe,VBO,6.713673,52.795545
Westermaten,7,,,7854TS,Aalden,Coevorden,Drenthe,VBO,6.713319,52.795289
Westermaten,8,,,7854TS,Aalden,Coevorden,Drenthe,VBO,6.713643,52.795607
Westermaten,9,,,7854TS,Aalden,Coevorden,Drenthe,VBO,6.713275,52.795348
Westermaten,11,,,7854TS,Aalden,Coevorden,Drenthe,VBO,6.713131,52.795441
Westermaten,13,,,7854TS,Aalden,Coevorden,Drenthe,VBO,6.713101,52.795488
Oostermaten,2,,,7854TT,Aalden,Coevorden,Drenthe,VBO,6.714171,52.796142
Oostermaten,3,,,7854TT,Aalden,Coevorden,Drenthe,VBO,6.714712,52.796030
Oostermaten,4,,,7854TT,Aalden,Coevorden,Drenthe,VBO,6.714227,52.795943
Oostermaten,5,,,7854TT,Aalden,Coevorden,Drenthe,VBO,6.714951,52.795870
Oostermaten,6,,,7854TT,Aalden,Coevorden,Drenthe,VBO,6.714298,52.795862
Oostermaten,7,,,7854TT,Aalden,Coevorden,Drenthe,VBO,6.715100,52.795674
Oostermaten,8,,,7854TT,Aalden,Coevorden,Drenthe,VBO,6.714105,52.795669
Oostermaten,9,,,7854TT,Aalden,Coevorden,Drenthe,VBO,6.714924,52.795465
Oostermaten,10,,,7854TT,Aalden,Coevorden,Drenthe,VBO,6.714180,52.795598
Westermarsendijk,3,,,7854TV,Aalden,Coevorden,Drenthe,VBO,6.713890,52.784729
Witte Zandpad,1,,,7854TW,Aalden,Coevorden,Drenthe,VBO,6.706656,52.791948
Aelderholt,1,,H001,7854TZ,Aalden,Coevorden,Drenthe,VBO,6.704957,52.798671
Aelderholt,1,,H002,7854TZ,Aalden,Coevorden,Drenthe,VBO,6.704857,52.798919
Aelderholt,1,,H003,7854TZ,Aalden,Coevorden,Drenthe,VBO,6.704330,52.798828
Aelderholt,1,,H004,7854TZ,Aalden,Coevorden,Drenthe,VBO,6.704646,52.798590
Aelderholt,1,,H005,7854TZ,Aalden,Coevorden,Drenthe,VBO,6.704104,52.798277
Aelderholt,1,,H006,7854TZ,Aalden,Coevorden,Drenthe,VBO,6.704112,52.798576
Aelderholt,1,,H007,7854TZ,Aalden,Coevorden,Drenthe,VBO,6.703929,52.798782
Aelderholt,1,,H008,7854TZ,Aalden,Coevorden,Drenthe,VBO,6.703482,52.798648
Aelderholt,1,,H009,7854TZ,Aalden,Coevorden,Drenthe,VBO,6.703443,52.798418
Aelderholt,1,,H010,7854TZ,Aalden,Coevorden,Drenthe,VBO,6.703503,52.798150
Aelderholt,1,,H011,7854TZ,Aalden,Coevorden,Drenthe,VBO,6.703702,52.798158
Aelderholt,1,,H012,7854TZ,Aalden,Coevorden,Drenthe,VBO,6.703210,52.798015
Aelderholt,1,,H013,7854TZ,Aalden,Coevorden,Drenthe,VBO,6.703114,52.798202
Aelderholt,1,,H014,7854TZ,Aalden,Coevorden,Drenthe,VBO,6.703015,52.798402
Aelderholt,1,,H015,7854TZ,Aalden,Coevorden,Drenthe,VBO,6.703058,52.798628
Aelderholt,1,,H016,7854TZ,Aalden,Coevorden,Drenthe,VBO,6.702883,52.798874
Aelderholt,1,,H017,7854TZ,Aalden,Coevorden,Drenthe,VBO,6.702774,52.798920
Aelderholt,1,,H018,7854TZ,Aalden,Coevorden,Drenthe,VBO,6.702662,52.799202
Aelderholt,1,,H019,7854TZ,Aalden,Coevorden,Drenthe,VBO,6.702635,52.799377
Aelderholt,1,,H020,7854TZ,Aalden,Coevorden,Drenthe,VBO,6.702600,52.799642
Aelderholt,1,,H021,7854TZ,Aalden,Coevorden,Drenthe,VBO,6.703026,52.799836
Aelderholt,1,,H022,7854TZ,Aalden,Coevorden,Drenthe,VBO,6.703084,52.799649
Aelderholt,1,,H023,7854TZ,Aalden,Coevorden,Drenthe,VBO,6.703124,52.799407
Aelderholt,1,,H024,7854TZ,Aalden,Coevorden,Drenthe,VBO,6.703216,52.799197
Aelderholt,1,,H025,7854TZ,Aalden,Coevorden,Drenthe,VBO,6.703334,52.798938
Aelderholt,1,,H026,7854TZ,Aalden,Coevorden,Drenthe,VBO,6.703454,52.798966
Aelderholt,1,,H027,7854TZ,Aalden,Coevorden,Drenthe,VBO,6.703960,52.799118
Aelderholt,1,,H028,7854TZ,Aalden,Coevorden,Drenthe,VBO,6.703826,52.799106
Aelderholt,1,,H029,7854TZ,Aalden,Coevorden,Drenthe,VBO,6.703708,52.799278
Aelderholt,1,,H030,7854TZ,Aalden,Coevorden,Drenthe,VBO,6.703616,52.799474
Aelderholt,1,,H031,7854TZ,Aalden,Coevorden,Drenthe,VBO,6.703570,52.799795
Aelderholt,1,,H032,7854TZ,Aalden,Coevorden,Drenthe,VBO,6.703432,52.799980
Aelderholt,1,,H033,7854TZ,Aalden,Coevorden,Drenthe,VBO,6.703821,52.800113
Aelderholt,1,,H034,7854TZ,Aalden,Coevorden,Drenthe,VBO,6.703894,52.799932
Aelderholt,1,,H035,7854TZ,Aalden,Coevorden,Drenthe,VBO,6.703986,52.799739
Aelderholt,1,,H036,7854TZ,Aalden,Coevorden,Drenthe,VBO,6.704002,52.799491
Aelderholt,1,,H037,7854TZ,Aalden,Coevorden,Drenthe,VBO,6.704198,52.799320
Aelderholt,1,,H038,7854TZ,Aalden,Coevorden,Drenthe,VBO,6.704916,52.799172
Aelderholt,1,,H039,7854TZ,Aalden,Coevorden,Drenthe,VBO,6.704786,52.799193
Aelderholt,1,,H040,7854TZ,Aalden,Coevorden,Drenthe,VBO,6.704879,52.799352
Aelderholt,1,,H041,7854TZ,Aalden,Coevorden,Drenthe,VBO,6.704764,52.799559
Aelderholt,1,,H042,7854TZ,Aalden,Coevorden,Drenthe,VBO,6.704519,52.799715
Aelderholt,1,,H043,7854TZ,Aalden,Coevorden,Drenthe,VBO,6.704400,52.799937
Aelderholt,1,,H044,7854TZ,Aalden,Coevorden,Drenthe,VBO,6.704335,52.800107
Aelderholt,1,,H045,7854TZ,Aalden,Coevorden,Drenthe,VBO,6.704380,52.800343
Aelderholt,1,,H046,7854TZ,Aalden,Coevorden,Drenthe,VBO,6.704835,52.800494
Aelderholt,1,,H047,7854TZ,Aalden,Coevorden,Drenthe,VBO,6.704773,52.800270
Aelderholt,1,,H048,7854TZ,Aalden,Coevorden,Drenthe,VBO,6.704702,52.800085
Aelderholt,1,,H049,7854TZ,Aalden,Coevorden,Drenthe,VBO,6.704937,52.799881
Aelderholt,1,,H050,7854TZ,Aalden,Coevorden,Drenthe,VBO,6.705031,52.799651
Aelderholt,1,,H051,7854TZ,Aalden,Coevorden,Drenthe,VBO,6.705191,52.799431
Aelderholt,1,,H052,7854TZ,Aalden,Coevorden,Drenthe,VBO,6.705265,52.799212
Aelderholt,1,,H053,7854TZ,Aalden,Coevorden,Drenthe,VBO,6.705416,52.798978
Aelderholt,1,,H054,7854TZ,Aalden,Coevorden,Drenthe,VBO,6.705397,52.798748
Aelderholt,1,,H055,7854TZ,Aalden,Coevorden,Drenthe,VBO,6.705965,52.798992
Aelderholt,1,,H056,7854TZ,Aalden,Coevorden,Drenthe,VBO,6.705826,52.799213
Aelderholt,1,,H057,7854TZ,Aalden,Coevorden,Drenthe,VBO,6.705629,52.799471
Aelderholt,1,,H058,7854TZ,Aalden,Coevorden,Drenthe,VBO,6.705567,52.799679
Aelderholt,1,,H059,7854TZ,Aalden,Coevorden,Drenthe,VBO,6.705557,52.799889
Aelderholt,1,,H060,7854TZ,Aalden,Coevorden,Drenthe,VBO,6.705484,52.800106
Aelderholt,1,,H061,7854TZ,Aalden,Coevorden,Drenthe,VBO,6.705543,52.800292
Aelderholt,1,,H062,7854TZ,Aalden,Coevorden,Drenthe,VBO,6.705484,52.800501
Aelderholt,1,,H063,7854TZ,Aalden,Coevorden,Drenthe,VBO,6.705252,52.800658
Aelderholt,1,,H064,7854TZ,Aalden,Coevorden,Drenthe,VBO,6.705806,52.800511
Aelderholt,1,,H065,7854TZ,Aalden,Coevorden,Drenthe,VBO,6.705945,52.800513
Aelderholt,1,,H066,7854TZ,Aalden,Coevorden,Drenthe,VBO,6.705934,52.800229
Aelderholt,1,,H067,7854TZ,Aalden,Coevorden,Drenthe,VBO,6.705877,52.800006
Aelderholt,1,,H068,7854TZ,Aalden,Coevorden,Drenthe,VBO,6.706008,52.799782
Aelderholt,1,,H069,7854TZ,Aalden,Coevorden,Drenthe,VBO,6.706085,52.799561
Aelderholt,1,,H070,7854TZ,Aalden,Coevorden,Drenthe,VBO,6.706156,52.799326
Aelderholt,1,,H071,7854TZ,Aalden,Coevorden,Drenthe,VBO,6.706276,52.799341
Aelderholt,1,,H072,7854TZ,Aalden,Coevorden,Drenthe,VBO,6.706469,52.799068
Aelderholt,1,,H073,7854TZ,Aalden,Coevorden,Drenthe,VBO,6.706871,52.799234
Aelderholt,1,,H074,7854TZ,Aalden,Coevorden,Drenthe,VBO,6.706727,52.799473
Aelderholt,1,,H075,7854TZ,Aalden,Coevorden,Drenthe,VBO,6.706604,52.799649
Aelderholt,1,,H076,7854TZ,Aalden,Coevorden,Drenthe,VBO,6.706571,52.799843
Aelderholt,1,,H077,7854TZ,Aalden,Coevorden,Drenthe,VBO,6.706547,52.800068
Aelderholt,1,,H078,7854TZ,Aalden,Coevorden,Drenthe,VBO,6.706513,52.800314
Aelderholt,1,,H079,7854TZ,Aalden,Coevorden,Drenthe,VBO,6.706381,52.800335
Aelderholt,1,,H080,7854TZ,Aalden,Coevorden,Drenthe,VBO,6.706872,52.800310
Aelderholt,1,,H081,7854TZ,Aalden,Coevorden,Drenthe,VBO,6.706978,52.800294
Aelderholt,1,,H082,7854TZ,Aalden,Coevorden,Drenthe,VBO,6.707006,52.800079
Aelderholt,1,,H083,7854TZ,Aalden,Coevorden,Drenthe,VBO,6.707038,52.799858
Aelderholt,1,,H084,7854TZ,Aalden,Coevorden,Drenthe,VBO,6.707111,52.799628
Aelderholt,1,,H085,7854TZ,Aalden,Coevorden,Drenthe,VBO,6.707259,52.799405
Aelderholt,1,,H086,7854TZ,Aalden,Coevorden,Drenthe,VBO,6.707755,52.799532
Aelderholt,1,,H087,7854TZ,Aalden,Coevorden,Drenthe,VBO,6.707659,52.799710
Aelderholt,1,,H088,7854TZ,Aalden,Coevorden,Drenthe,VBO,6.707652,52.799918
Aelderholt,1,,H089,7854TZ,Aalden,Coevorden,Drenthe,VBO,6.707613,52.800121
Aelderholt,1,,H090,7854TZ,Aalden,Coevorden,Drenthe,VBO,6.707533,52.800277
Aelderholt,1,,H091,7854TZ,Aalden,Coevorden,Drenthe,VBO,6.707490,52.800495
Aelderholt,1,,H092,7854TZ,Aalden,Coevorden,Drenthe,VBO,6.707349,52.800498
Aelderholt,1,,H093,7854TZ,Aalden,Coevorden,Drenthe,VBO,6.707752,52.800590
Aelderholt,1,,H094,7854TZ,Aalden,Coevorden,Drenthe,VBO,6.707849,52.800377
Aelderholt,1,,H095,7854TZ,Aalden,Coevorden,Drenthe,VBO,6.708017,52.800164
Aelderholt,1,,H096,7854TZ,Aalden,Coevorden,Drenthe,VBO,6.708048,52.799874
Aelderholt,1,,H097,7854TZ,Aalden,Coevorden,Drenthe,VBO,6.708138,52.799686
Aelderholt,1,,H098,7854TZ,Aalden,Coevorden,Drenthe,VBO,6.708610,52.799800
Aelderholt,1,,H099,7854TZ,Aalden,Coevorden,Drenthe,VBO,6.708596,52.800006
Aelderholt,1,,H100,7854TZ,Aalden,Coevorden,Drenthe,VBO,6.708457,52.800232
Aelderholt,1,,H101,7854TZ,Aalden,Coevorden,Drenthe,VBO,6.708278,52.800460
Aelderholt,1,,H102,7854TZ,Aalden,Coevorden,Drenthe,VBO,6.708175,52.800693
Aelderholt,1,,H103,7854TZ,Aalden,Coevorden,Drenthe,VBO,6.708058,52.800698
Aelderholt,1,,H104,7854TZ,Aalden,Coevorden,Drenthe,VBO,6.708461,52.800793
Aelderholt,1,,H105,7854TZ,Aalden,Coevorden,Drenthe,VBO,6.708642,52.800541
Aelderholt,1,,H106,7854TZ,Aalden,Coevorden,Drenthe,VBO,6.708807,52.800262
Aelderholt,1,,H107,7854TZ,Aalden,Coevorden,Drenthe,VBO,6.708978,52.800041
Aelderholt,1,,H108,7854TZ,Aalden,Coevorden,Drenthe,VBO,6.709155,52.799642
Aelderholt,1,,H109,7854TZ,Aalden,Coevorden,Drenthe,VBO,6.709414,52.799444
Aelderholt,1,,H110,7854TZ,Aalden,Coevorden,Drenthe,VBO,6.709750,52.799280
Aelderholt,1,,H111,7854TZ,Aalden,Coevorden,Drenthe,VBO,6.709963,52.799012
Aelderholt,1,,H112,7854TZ,Aalden,Coevorden,Drenthe,VBO,6.710076,52.798791
Aelderholt,1,,H113,7854TZ,Aalden,Coevorden,Drenthe,VBO,6.710207,52.798563
Aelderholt,1,,H114,7854TZ,Aalden,Coevorden,Drenthe,VBO,6.710291,52.798550
Aelderholt,1,,H115,7854TZ,Aalden,Coevorden,Drenthe,VBO,6.710473,52.798234
Aelderholt,1,,H116,7854TZ,Aalden,Coevorden,Drenthe,VBO,6.710350,52.798269
Aelderholt,1,,H117,7854TZ,Aalden,Coevorden,Drenthe,VBO,6.710033,52.798159
Aelderholt,1,,H118,7854TZ,Aalden,Coevorden,Drenthe,VBO,6.709923,52.798197
Aelderholt,1,,H119,7854TZ,Aalden,Coevorden,Drenthe,VBO,6.709841,52.798449
Aelderholt,1,,H120,7854TZ,Aalden,Coevorden,Drenthe,VBO,6.709707,52.798712
Aelderholt,1,,H121,7854TZ,Aalden,Coevorden,Drenthe,VBO,6.709483,52.798958
Aelderholt,1,,H122,7854TZ,Aalden,Coevorden,Drenthe,VBO,6.709278,52.799175
Aelderholt,1,,H123,7854TZ,Aalden,Coevorden,Drenthe,VBO,6.709002,52.799367
Aelderholt,1,,H124,7854TZ,Aalden,Coevorden,Drenthe,VBO,6.708902,52.799573
Aelderholt,1,,H125,7854TZ,Aalden,Coevorden,Drenthe,VBO,6.708350,52.799274
Aelderholt,1,,H126,7854TZ,Aalden,Coevorden,Drenthe,VBO,6.708520,52.799080
Aelderholt,1,,H127,7854TZ,Aalden,Coevorden,Drenthe,VBO,6.708797,52.798883
Aelderholt,1,,H128,7854TZ,Aalden,Coevorden,Drenthe,VBO,6.709039,52.798658
Aelderholt,1,,H129,7854TZ,Aalden,Coevorden,Drenthe,VBO,6.709289,52.798453
Aelderholt,1,,H130,7854TZ,Aalden,Coevorden,Drenthe,VBO,6.709272,52.798191
Aelderholt,1,,H131,7854TZ,Aalden,Coevorden,Drenthe,VBO,6.709336,52.797929
Aelderholt,1,,H132,7854TZ,Aalden,Coevorden,Drenthe,VBO,6.709226,52.797936
Aelderholt,1,,H133,7854TZ,Aalden,Coevorden,Drenthe,VBO,6.709036,52.798338
Aelderholt,1,,H134,7854TZ,Aalden,Coevorden,Drenthe,VBO,6.708875,52.798323
Aelderholt,1,,H135,7854TZ,Aalden,Coevorden,Drenthe,VBO,6.708775,52.798548
Aelderholt,1,,H136,7854TZ,Aalden,Coevorden,Drenthe,VBO,6.708368,52.798853
Aelderholt,1,,H137,7854TZ,Aalden,Coevorden,Drenthe,VBO,6.708156,52.799043
Aelderholt,1,,H138,7854TZ,Aalden,Coevorden,Drenthe,VBO,6.707940,52.799190
Aelderholt,1,,H139,7854TZ,Aalden,Coevorden,Drenthe,VBO,6.707439,52.799075
Aelderholt,1,,H140,7854TZ,Aalden,Coevorden,Drenthe,VBO,6.707690,52.798886
Aelderholt,1,,H141,7854TZ,Aalden,Coevorden,Drenthe,VBO,6.707930,52.798670
Aelderholt,1,,H142,7854TZ,Aalden,Coevorden,Drenthe,VBO,6.708121,52.798461
Aelderholt,1,,H143,7854TZ,Aalden,Coevorden,Drenthe,VBO,6.708442,52.798248
Aelderholt,1,,H144,7854TZ,Aalden,Coevorden,Drenthe,VBO,6.708713,52.798014
Aelderholt,1,,H145,7854TZ,Aalden,Coevorden,Drenthe,VBO,6.708818,52.797972
Aelderholt,1,,H146,7854TZ,Aalden,Coevorden,Drenthe,VBO,6.708696,52.797723
Aelderholt,1,,H147,7854TZ,Aalden,Coevorden,Drenthe,VBO,6.708567,52.797773
Aelderholt,1,,H148,7854TZ,Aalden,Coevorden,Drenthe,VBO,6.708159,52.798050
Aelderholt,1,,H149,7854TZ,Aalden,Coevorden,Drenthe,VBO,6.708041,52.798064
Aelderholt,1,,H150,7854TZ,Aalden,Coevorden,Drenthe,VBO,6.707856,52.798297
Aelderholt,1,,H151,7854TZ,Aalden,Coevorden,Drenthe,VBO,6.707714,52.798316
Aelderholt,1,,H152,7854TZ,Aalden,Coevorden,Drenthe,VBO,6.707583,52.798559
Aelderholt,1,,H153,7854TZ,Aalden,Coevorden,Drenthe,VBO,6.707433,52.798544
Aelderholt,1,,H154,7854TZ,Aalden,Coevorden,Drenthe,VBO,6.707317,52.798718
Aelderholt,1,,H155,7854TZ,Aalden,Coevorden,Drenthe,VBO,6.707239,52.798718
Aelderholt,1,,H156,7854TZ,Aalden,Coevorden,Drenthe,VBO,6.707048,52.798893
Aelderholt,1,,H157,7854TZ,Aalden,Coevorden,Drenthe,VBO,6.706662,52.798709
Aelderholt,1,,H158,7854TZ,Aalden,Coevorden,Drenthe,VBO,6.706816,52.798516
Aelderholt,1,,H159,7854TZ,Aalden,Coevorden,Drenthe,VBO,6.706947,52.798313
Aelderholt,1,,H160,7854TZ,Aalden,Coevorden,Drenthe,VBO,6.707050,52.798323
Aelderholt,1,,H161,7854TZ,Aalden,Coevorden,Drenthe,VBO,6.707157,52.798086
Aelderholt,1,,H162,7854TZ,Aalden,Coevorden,Drenthe,VBO,6.707279,52.798107
Aelderholt,1,,H163,7854TZ,Aalden,Coevorden,Drenthe,VBO,6.707385,52.797864
Aelderholt,1,,H164,7854TZ,Aalden,Coevorden,Drenthe,VBO,6.707471,52.797869
Aelderholt,1,,H165,7854TZ,Aalden,Coevorden,Drenthe,VBO,6.704357,52.796457
Aelderholt,1,,H166,7854TZ,Aalden,Coevorden,Drenthe,VBO,6.704473,52.796457
Aelderholt,1,,H167,7854TZ,Aalden,Coevorden,Drenthe,VBO,6.704079,52.796644
Aelderholt,1,,H168,7854TZ,Aalden,Coevorden,Drenthe,VBO,6.704207,52.796625
Aelderholt,1,,H169,7854TZ,Aalden,Coevorden,Drenthe,VBO,6.703928,52.796886
Aelderholt,1,,H170,7854TZ,Aalden,Coevorden,Drenthe,VBO,6.704050,52.796854
Aelderholt,1,,H171,7854TZ,Aalden,Coevorden,Drenthe,VBO,6.703884,52.797103
Aelderholt,1,,H172,7854TZ,Aalden,Coevorden,Drenthe,VBO,6.703742,52.797357
Aelderholt,1,,H173,7854TZ,Aalden,Coevorden,Drenthe,VBO,6.703490,52.797559
Aelderholt,1,,H174,7854TZ,Aalden,Coevorden,Drenthe,VBO,6.703215,52.797388
Aelderholt,1,,H175,7854TZ,Aalden,Coevorden,Drenthe,VBO,6.702928,52.797229
Aelderholt,1,,H176,7854TZ,Aalden,Coevorden,Drenthe,VBO,6.703379,52.797015
Aelderholt,1,,H177,7854TZ,Aalden,Coevorden,Drenthe,VBO,6.703192,52.797014
Aelderholt,1,,H178,7854TZ,Aalden,Coevorden,Drenthe,VBO,6.703532,52.796830
Aelderholt,1,,H179,7854TZ,Aalden,Coevorden,Drenthe,VBO,6.703569,52.796568
Aelderholt,1,,H180,7854TZ,Aalden,Coevorden,Drenthe,VBO,6.703824,52.796341
Aelderholt,1,,H181,7854TZ,Aalden,Coevorden,Drenthe,VBO,6.703710,52.796351
Aelderholt,1,,H182,7854TZ,Aalden,Coevorden,Drenthe,VBO,6.703066,52.796117
Aelderholt,1,,H183,7854TZ,Aalden,Coevorden,Drenthe,VBO,6.703065,52.796363
Aelderholt,1,,H184,7854TZ,Aalden,Coevorden,Drenthe,VBO,6.702900,52.796562
Aelderholt,1,,H185,7854TZ,Aalden,Coevorden,Drenthe,VBO,6.702819,52.796793
Aelderholt,1,,H186,7854TZ,Aalden,Coevorden,Drenthe,VBO,6.702907,52.796791
Aelderholt,1,,H187,7854TZ,Aalden,Coevorden,Drenthe,VBO,6.702617,52.797053
Aelderholt,1,,H188,7854TZ,Aalden,Coevorden,Drenthe,VBO,6.702340,52.796847
Aelderholt,1,,H189,7854TZ,Aalden,Coevorden,Drenthe,VBO,6.702110,52.796617
Aelderholt,1,,H190,7854TZ,Aalden,Coevorden,Drenthe,VBO,6.702231,52.796622
Aelderholt,1,,H191,7854TZ,Aalden,Coevorden,Drenthe,VBO,6.702558,52.796449
Aelderholt,1,,H192,7854TZ,Aalden,Coevorden,Drenthe,VBO,6.702721,52.796261
Aelderholt,1,,H193,7854TZ,Aalden,Coevorden,Drenthe,VBO,6.702636,52.796016
Aelderholt,1,,H194,7854TZ,Aalden,Coevorden,Drenthe,VBO,6.702501,52.796022
Aelderholt,1,,H195,7854TZ,Aalden,Coevorden,Drenthe,VBO,6.702134,52.795882
Aelderholt,1,,H196,7854TZ,Aalden,Coevorden,Drenthe,VBO,6.701906,52.796133
Aelderholt,1,,H197,7854TZ,Aalden,Coevorden,Drenthe,VBO,6.701855,52.796388
Aelderholt,1,,H198,7854TZ,Aalden,Coevorden,Drenthe,VBO,6.701524,52.795991
Aelderholt,1,,H199,7854TZ,Aalden,Coevorden,Drenthe,VBO,6.701385,52.795998
Aelderholt,1,,H200,7854TZ,Aalden,Coevorden,Drenthe,VBO,6.701253,52.795724
Aelderholt,1,,H201,7854TZ,Aalden,Coevorden,Drenthe,VBO,6.701716,52.795797
Aelderholt,1,,H202,7854TZ,Aalden,Coevorden,Drenthe,VBO,6.701577,52.795522
Aelderholt,1,,H203,7854TZ,Aalden,Coevorden,Drenthe,VBO,6.701702,52.795293
Aelderholt,1,,H204,7854TZ,Aalden,Coevorden,Drenthe,VBO,6.701580,52.795270
Aelderholt,1,,H205,7854TZ,Aalden,Coevorden,Drenthe,VBO,6.702044,52.795205
Aelderholt,1,,H206,7854TZ,Aalden,Coevorden,Drenthe,VBO,6.702173,52.795242
Aelderholt,1,,H207,7854TZ,Aalden,Coevorden,Drenthe,VBO,6.702002,52.795469
Aelderholt,1,,H208,7854TZ,Aalden,Coevorden,Drenthe,VBO,6.702628,52.795723
Aelderholt,1,,H209,7854TZ,Aalden,Coevorden,Drenthe,VBO,6.702512,52.795476
Aelderholt,1,,H210,7854TZ,Aalden,Coevorden,Drenthe,VBO,6.702502,52.795225
Aelderholt,1,,H211,7854TZ,Aalden,Coevorden,Drenthe,VBO,6.702489,52.794968
Aelderholt,1,,H212,7854TZ,Aalden,Coevorden,Drenthe,VBO,6.702361,52.794953
Aelderholt,1,,H213,7854TZ,Aalden,Coevorden,Drenthe,VBO,6.702839,52.794827
Aelderholt,1,,H214,7854TZ,Aalden,Coevorden,Drenthe,VBO,6.702709,52.794797
Aelderholt,1,,H215,7854TZ,Aalden,Coevorden,Drenthe,VBO,6.703197,52.794701
Aelderholt,1,,H216,7854TZ,Aalden,Coevorden,Drenthe,VBO,6.703344,52.794722
Aelderholt,1,,H217,7854TZ,Aalden,Coevorden,Drenthe,VBO,6.703493,52.795074
Aelderholt,1,,H218,7854TZ,Aalden,Coevorden,Drenthe,VBO,6.703605,52.795098
Aelderholt,1,,H219,7854TZ,Aalden,Coevorden,Drenthe,VBO,6.702925,52.795082
Aelderholt,1,,H220,7854TZ,Aalden,Coevorden,Drenthe,VBO,6.703011,52.795130
Aelderholt,1,,H221,7854TZ,Aalden,Coevorden,Drenthe,VBO,6.703101,52.795469
Aelderholt,1,,H222,7854TZ,Aalden,Coevorden,Drenthe,VBO,6.703063,52.795761
Aelderholt,1,,H223,7854TZ,Aalden,Coevorden,Drenthe,VBO,6.703501,52.795909
Aelderholt,1,,H224,7854TZ,Aalden,Coevorden,Drenthe,VBO,6.703449,52.795608
Aelderholt,1,,H225,7854TZ,Aalden,Coevorden,Drenthe,VBO,6.703733,52.795419
Aelderholt,1,,H226,7854TZ,Aalden,Coevorden,Drenthe,VBO,6.703619,52.795386
Aelderholt,1,,H227,7854TZ,Aalden,Coevorden,Drenthe,VBO,6.704041,52.795076
Aelderholt,1,,H228,7854TZ,Aalden,Coevorden,Drenthe,VBO,6.703942,52.795032
Aelderholt,1,,H229,7854TZ,Aalden,Coevorden,Drenthe,VBO,6.704270,52.795233
Aelderholt,1,,H230,7854TZ,Aalden,Coevorden,Drenthe,VBO,6.704384,52.795271
Aelderholt,1,,H231,7854TZ,Aalden,Coevorden,Drenthe,VBO,6.704108,52.795448
Aelderholt,1,,H232,7854TZ,Aalden,Coevorden,Drenthe,VBO,6.704024,52.795650
Aelderholt,1,,H233,7854TZ,Aalden,Coevorden,Drenthe,VBO,6.703967,52.795885
Aelderholt,1,,H234,7854TZ,Aalden,Coevorden,Drenthe,VBO,6.703921,52.796117
Aelderholt,1,,H235,7854TZ,Aalden,Coevorden,Drenthe,VBO,6.704352,52.796145
Aelderholt,1,,H236,7854TZ,Aalden,Coevorden,Drenthe,VBO,6.704427,52.795875
Aelderholt,1,,H237,7854TZ,Aalden,Coevorden,Drenthe,VBO,6.704601,52.795693
Aelderholt,1,,H238,7854TZ,Aalden,Coevorden,Drenthe,VBO,6.704476,52.795682
Aelderholt,1,,H239,7854TZ,Aalden,Coevorden,Drenthe,VBO,6.704825,52.795519
Aelderholt,1,,H240,7854TZ,Aalden,Coevorden,Drenthe,VBO,6.704937,52.795554
Aelderholt,1,,H241,7854TZ,Aalden,Coevorden,Drenthe,VBO,6.705044,52.795771
Aelderholt,1,,H242,7854TZ,Aalden,Coevorden,Drenthe,VBO,6.705160,52.795810
Aelderholt,1,,H243,7854TZ,Aalden,Coevorden,Drenthe,VBO,6.704765,52.795973
Aelderholt,1,,H244,7854TZ,Aalden,Coevorden,Drenthe,VBO,6.704675,52.796216
Aelderholt,1,,H245,7854TZ,Aalden,Coevorden,Drenthe,VBO,6.705058,52.796389
Aelderholt,1,,H246,7854TZ,Aalden,Coevorden,Drenthe,VBO,6.705187,52.796378
Aelderholt,1,,H247,7854TZ,Aalden,Coevorden,Drenthe,VBO,6.705306,52.796190
Aelderholt,1,,H248,7854TZ,Aalden,Coevorden,Drenthe,VBO,6.705423,52.796207
Aelderholt,1,,H249,7854TZ,Aalden,Coevorden,Drenthe,VBO,6.705547,52.795985
Aelderholt,1,,H250,7854TZ,Aalden,Coevorden,Drenthe,VBO,6.705667,52.796015
Aelderholt,1,,,7854TZ,Aalden,Coevorden,Drenthe,VBO,6.700184,52.795981
Aelderholt,2,,,7854TZ,Aalden,Coevorden,Drenthe,VBO,6.704375,52.797760
Aelderholt,3,,,7854TZ,Aalden,Coevorden,Drenthe,VBO,6.702458,52.797704
Aelderholt,4,,H301,7854TZ,Aalden,Coevorden,Drenthe,VBO,6.703697,52.794544
Aelderholt,4,,H302,7854TZ,Aalden,Coevorden,Drenthe,VBO,6.703926,52.794378
Aelderholt,4,,H303,7854TZ,Aalden,Coevorden,Drenthe,VBO,6.704136,52.794204
Aelderholt,4,,H304,7854TZ,Aalden,Coevorden,Drenthe,VBO,6.704431,52.794057
Aelderholt,4,,H305,7854TZ,Aalden,Coevorden,Drenthe,VBO,6.704767,52.793924
Aelderholt,4,,H306,7854TZ,Aalden,Coevorden,Drenthe,VBO,6.705159,52.793897
Aelderholt,4,,H307,7854TZ,Aalden,Coevorden,Drenthe,VBO,6.705046,52.794126
Aelderholt,4,,H308,7854TZ,Aalden,Coevorden,Drenthe,VBO,6.705519,52.794020
Aelderholt,4,,H309,7854TZ,Aalden,Coevorden,Drenthe,VBO,6.705488,52.794242
Aelderholt,4,,H310,7854TZ,Aalden,Coevorden,Drenthe,VBO,6.704164,52.794695
Aelderholt,4,,H311,7854TZ,Aalden,Coevorden,Drenthe,VBO,6.704493,52.794411
Aelderholt,4,,H312,7854TZ,Aalden,Coevorden,Drenthe,VBO,6.704589,52.794705
Aelderholt,4,,H313,7854TZ,Aalden,Coevorden,Drenthe,VBO,6.704959,52.794490
Aelderholt,4,,H314,7854TZ,Aalden,Coevorden,Drenthe,VBO,6.704883,52.794849
Aelderholt,4,,H315,7854TZ,Aalden,Coevorden,Drenthe,VBO,6.705276,52.794613
Aelderholt,4,,H316,7854TZ,Aalden,Coevorden,Drenthe,VBO,6.705510,52.794839
Aelderholt,4,,H317,7854TZ,Aalden,Coevorden,Drenthe,VBO,6.705220,52.795039
Aelderholt,4,,H318,7854TZ,Aalden,Coevorden,Drenthe,VBO,6.705685,52.795032
Aelderholt,4,,H319,7854TZ,Aalden,Coevorden,Drenthe,VBO,6.705284,52.795259
Aelderholt,4,,H320,7854TZ,Aalden,Coevorden,Drenthe,VBO,6.705843,52.795223
Aelderholt,4,,H321,7854TZ,Aalden,Coevorden,Drenthe,VBO,6.705460,52.795474
Aelderholt,4,,H322,7854TZ,Aalden,Coevorden,Drenthe,VBO,6.705930,52.795704
Aelderholt,4,,H323,7854TZ,Aalden,Coevorden,Drenthe,VBO,6.706340,52.795409
Aelderholt,4,,H324,7854TZ,Aalden,Coevorden,Drenthe,VBO,6.706705,52.795595
Aelderholt,4,,H325,7854TZ,Aalden,Coevorden,Drenthe,VBO,6.706354,52.795858
Aelderholt,4,,H326,7854TZ,Aalden,Coevorden,Drenthe,VBO,6.706528,52.796049
Aelderholt,4,,H327,7854TZ,Aalden,Coevorden,Drenthe,VBO,6.707013,52.795864
Aelderholt,4,,H328,7854TZ,Aalden,Coevorden,Drenthe,VBO,6.706885,52.796426
Aelderholt,4,,H329,7854TZ,Aalden,Coevorden,Drenthe,VBO,6.707268,52.796117
Aelderholt,4,,H330,7854TZ,Aalden,Coevorden,Drenthe,VBO,6.707472,52.796424
Aelderholt,4,,,7854TZ,Aalden,Coevorden,Drenthe,VBO,6.706120,52.797511
Aelderholt,10,,,7854TZ,Aalden,Coevorden,Drenthe,VBO,6.706241,52.798562
