openbareruimtenaam,huisnummer,huisletter,huisnummertoevoeging,postcode,woonplaatsnaam,gemeentenaam,provincienaam,typeadresseerbaarobject,longitude,latitude
Stad,2,,,7895AA,Roswinkel,Emmen,Drenthe,VBO,7.039981,52.837878
Stad,4,,,7895AA,Roswinkel,Emmen,Drenthe,VBO,7.040041,52.837904
Stad,6,,,7895AA,Roswinkel,Emmen,Drenthe,VBO,7.040265,52.837955
Stad,8,,,7895AA,Roswinkel,Emmen,Drenthe,VBO,7.040341,52.837981
Stad,9,A,,7895AA,Roswinkel,Emmen,Drenthe,VBO,7.040627,52.838103
Stad,9,B,,7895AA,Roswinkel,Emmen,Drenthe,VBO,7.040703,52.838137
Stad,9,,,7895AA,Roswinkel,Emmen,Drenthe,VBO,7.040552,52.838068
Stad,10,,,7895AA,Roswinkel,Emmen,Drenthe,VBO,7.040943,52.838206
Stad,11,,,7895AA,Roswinkel,Emmen,Drenthe,VBO,7.041168,52.838284
Stad,12,,,7895AA,Roswinkel,Emmen,Drenthe,VBO,7.041287,52.838282
Stad,15,,,7895AA,Roswinkel,Emmen,Drenthe,VBO,7.042269,52.838349
Stad,16,,,7895AA,Roswinkel,Emmen,Drenthe,VBO,7.042936,52.838718
Stad,17,,,7895AA,Roswinkel,Emmen,Drenthe,VBO,7.043338,52.838748
Stad,20,,,7895AA,Roswinkel,Emmen,Drenthe,VBO,7.043813,52.838346
Stad,21,,,7895AA,Roswinkel,Emmen,Drenthe,VBO,7.044073,52.838540
Stad,23,,,7895AA,Roswinkel,Emmen,Drenthe,VBO,7.044347,52.838734
Stad,24,,,7895AB,Roswinkel,Emmen,Drenthe,VBO,7.043714,52.839273
Stad,30,,,7895AB,Roswinkel,Emmen,Drenthe,VBO,7.043366,52.839467
Stad,31,,,7895AB,Roswinkel,Emmen,Drenthe,VBO,7.043065,52.839372
Stad,32,,,7895AB,Roswinkel,Emmen,Drenthe,VBO,7.042935,52.839077
Stad,33,,,7895AB,Roswinkel,Emmen,Drenthe,VBO,7.042374,52.839157
Stad,34,,,7895AB,Roswinkel,Emmen,Drenthe,VBO,7.042026,52.838982
Stad,35,,,7895AB,Roswinkel,Emmen,Drenthe,VBO,7.041951,52.838956
Stad,36,,,7895AB,Roswinkel,Emmen,Drenthe,VBO,7.041905,52.838921
Stad,37,,,7895AC,Roswinkel,Emmen,Drenthe,VBO,7.041830,52.838895
Stad,38,,,7895AC,Roswinkel,Emmen,Drenthe,VBO,7.041561,52.838863
Stad,39,,,7895AC,Roswinkel,Emmen,Drenthe,VBO,7.041456,52.838810
Stad,40,,,7895AC,Roswinkel,Emmen,Drenthe,VBO,7.041245,52.838741
Stad,41,,,7895AC,Roswinkel,Emmen,Drenthe,VBO,7.041170,52.838715
Stad,44,,,7895AC,Roswinkel,Emmen,Drenthe,VBO,7.040987,52.838592
Stad,45,,,7895AC,Roswinkel,Emmen,Drenthe,VBO,7.040717,52.838515
Stad,46,,,7895AC,Roswinkel,Emmen,Drenthe,VBO,7.040296,52.838377
Stad,47,,,7895AC,Roswinkel,Emmen,Drenthe,VBO,7.040221,52.838351
Stad,48,,,7895AC,Roswinkel,Emmen,Drenthe,VBO,7.040040,52.838264
Stad,49,,,7895AC,Roswinkel,Emmen,Drenthe,VBO,7.039755,52.838187
Stad,50,,,7895AC,Roswinkel,Emmen,Drenthe,VBO,7.039513,52.838064
Stad,51,,,7895AC,Roswinkel,Emmen,Drenthe,VBO,7.039303,52.838013
't Soerd,1,,,7895AD,Roswinkel,Emmen,Drenthe,VBO,7.039738,52.837737
't Soerd,3,,,7895AD,Roswinkel,Emmen,Drenthe,VBO,7.039780,52.837683
't Soerd,5,,,7895AD,Roswinkel,Emmen,Drenthe,VBO,7.039924,52.837555
't Soerd,7,,,7895AD,Roswinkel,Emmen,Drenthe,VBO,7.039981,52.837500
't Soerd,9,,,7895AD,Roswinkel,Emmen,Drenthe,VBO,7.040024,52.837455
't Soerd,11,,,7895AD,Roswinkel,Emmen,Drenthe,VBO,7.040399,52.837548
't Soerd,13,,,7895AD,Roswinkel,Emmen,Drenthe,VBO,7.040488,52.837556
't Soerd,15,,,7895AD,Roswinkel,Emmen,Drenthe,VBO,7.040563,52.837591
't Soerd,17,,,7895AD,Roswinkel,Emmen,Drenthe,VBO,7.040669,52.837635
't Soerd,19,,,7895AD,Roswinkel,Emmen,Drenthe,VBO,7.040743,52.837643
't Soerd,21,,,7895AD,Roswinkel,Emmen,Drenthe,VBO,7.040820,52.837713
't Soerd,23,,,7895AD,Roswinkel,Emmen,Drenthe,VBO,7.040911,52.837766
't Soerd,25,,,7895AD,Roswinkel,Emmen,Drenthe,VBO,7.041001,52.837783
't Soerd,27,,,7895AD,Roswinkel,Emmen,Drenthe,VBO,7.041106,52.837817
't Soerd,29,,,7895AD,Roswinkel,Emmen,Drenthe,VBO,7.041196,52.837834
't Soerd,31,,,7895AD,Roswinkel,Emmen,Drenthe,VBO,7.041272,52.837878
't Soerd,33,,,7895AD,Roswinkel,Emmen,Drenthe,VBO,7.041421,52.837885
't Soerd,35,,,7895AD,Roswinkel,Emmen,Drenthe,VBO,7.041481,52.837911
't Soerd,37,,,7895AD,Roswinkel,Emmen,Drenthe,VBO,7.041557,52.837955
't Soerd,39,,,7895AD,Roswinkel,Emmen,Drenthe,VBO,7.041632,52.837990
't Soerd,2,,,7895AE,Roswinkel,Emmen,Drenthe,VBO,7.039811,52.837323
't Soerd,36,,,7895AE,Roswinkel,Emmen,Drenthe,VBO,7.041996,52.837796
't Soerd,38,,,7895AE,Roswinkel,Emmen,Drenthe,VBO,7.042071,52.837813
't Soerd,40,,,7895AE,Roswinkel,Emmen,Drenthe,VBO,7.042161,52.837839
't Soerd,42,,,7895AE,Roswinkel,Emmen,Drenthe,VBO,7.042373,52.837961
't Soerd,44,,,7895AE,Roswinkel,Emmen,Drenthe,VBO,7.042345,52.838007
't Soerd,46,,,7895AE,Roswinkel,Emmen,Drenthe,VBO,7.042273,52.838053
't Soerd,48,,,7895AE,Roswinkel,Emmen,Drenthe,VBO,7.041793,52.838320
't Soerd,50,,,7895AE,Roswinkel,Emmen,Drenthe,VBO,7.041751,52.838375
't Soerd,52,,,7895AE,Roswinkel,Emmen,Drenthe,VBO,7.041708,52.838411
't Soerd,54,,,7895AE,Roswinkel,Emmen,Drenthe,VBO,7.041665,52.838457
Roswinkelerstraat,10,,,7895AL,Roswinkel,Emmen,Drenthe,VBO,7.028525,52.849038
Roswinkelerstraat,13,,TR,7895AL,Roswinkel,Emmen,Drenthe,VBO,7.028984,52.848321
Roswinkelerstraat,13,,,7895AL,Roswinkel,Emmen,Drenthe,VBO,7.029036,52.848024
Roswinkelerstraat,14,,,7895AL,Roswinkel,Emmen,Drenthe,VBO,7.029308,52.847742
Roswinkelerstraat,16,,,7895AL,Roswinkel,Emmen,Drenthe,VBO,7.024914,52.845384
Roswinkelerstraat,17,,,7895AL,Roswinkel,Emmen,Drenthe,VBO,7.029626,52.847126
Roswinkelerstraat,23,,,7895AL,Roswinkel,Emmen,Drenthe,VBO,7.031905,52.844560
Roswinkelerstraat,24,,,7895AL,Roswinkel,Emmen,Drenthe,VBO,7.032042,52.844261
Roswinkelerstraat,25,,,7895AL,Roswinkel,Emmen,Drenthe,VBO,7.032246,52.844142
Roswinkelerstraat,26,,,7895AL,Roswinkel,Emmen,Drenthe,VBO,7.032448,52.843995
Roswinkelerstraat,28,,,7895AL,Roswinkel,Emmen,Drenthe,VBO,7.032529,52.843796
Roswinkelerstraat,29,,,7895AL,Roswinkel,Emmen,Drenthe,VBO,7.030494,52.842961
Roswinkelerstraat,30,,,7895AL,Roswinkel,Emmen,Drenthe,VBO,7.032611,52.843597
Roswinkelerstraat,31,,,7895AL,Roswinkel,Emmen,Drenthe,VBO,7.032625,52.843561
Roswinkelerstraat,33,,,7895AL,Roswinkel,Emmen,Drenthe,VBO,7.032707,52.843398
Roswinkelerstraat,34,,,7895AL,Roswinkel,Emmen,Drenthe,VBO,7.033024,52.843133
Roswinkelerstraat,35,,,7895AL,Roswinkel,Emmen,Drenthe,VBO,7.033044,52.842881
Roswinkelerstraat,36,,,7895AL,Roswinkel,Emmen,Drenthe,VBO,7.032409,52.842400
Roswinkelerstraat,37,,,7895AL,Roswinkel,Emmen,Drenthe,VBO,7.032389,52.842432
Roswinkelerstraat,38,,,7895AL,Roswinkel,Emmen,Drenthe,VBO,7.033034,52.842612
Roswinkelerstraat,40,,,7895AL,Roswinkel,Emmen,Drenthe,VBO,7.033589,52.842757
Roswinkelerstraat,41,,,7895AM,Roswinkel,Emmen,Drenthe,VBO,7.033646,52.842316
Roswinkelerstraat,42,,,7895AM,Roswinkel,Emmen,Drenthe,VBO,7.033770,52.842035
Roswinkelerstraat,43,,,7895AM,Roswinkel,Emmen,Drenthe,VBO,7.033958,52.841916
Roswinkelerstraat,44,,,7895AM,Roswinkel,Emmen,Drenthe,VBO,7.034360,52.841542
Roswinkelerstraat,45,,,7895AM,Roswinkel,Emmen,Drenthe,VBO,7.034887,52.841355
Roswinkelerstraat,46,,,7895AM,Roswinkel,Emmen,Drenthe,VBO,7.034938,52.841138
Roswinkelerstraat,48,,,7895AM,Roswinkel,Emmen,Drenthe,VBO,7.035243,52.840945
Roswinkelerstraat,49,,,7895AM,Roswinkel,Emmen,Drenthe,VBO,7.034918,52.840608
Roswinkelerstraat,52,,,7895AM,Roswinkel,Emmen,Drenthe,VBO,7.035507,52.840316
Roswinkelerstraat,53,,,7895AM,Roswinkel,Emmen,Drenthe,VBO,7.036073,52.840125
Roswinkelerstraat,54,,,7895AM,Roswinkel,Emmen,Drenthe,VBO,7.035365,52.839856
Roswinkelerstraat,55,,,7895AM,Roswinkel,Emmen,Drenthe,VBO,7.036112,52.839981
Roswinkelerstraat,56,A,,7895AM,Roswinkel,Emmen,Drenthe,VBO,7.036130,52.839693
Roswinkelerstraat,56,,,7895AM,Roswinkel,Emmen,Drenthe,VBO,7.036014,52.839748
Roswinkelerstraat,58,,,7895AM,Roswinkel,Emmen,Drenthe,VBO,7.036289,52.839169
Roswinkelerstraat,59,,,7895AM,Roswinkel,Emmen,Drenthe,VBO,7.035868,52.838636
Roswinkelerstraat,60,,,7895AM,Roswinkel,Emmen,Drenthe,VBO,7.036229,52.838775
Roswinkelerstraat,66,,,7895AN,Roswinkel,Emmen,Drenthe,VBO,7.037072,52.839069
Roswinkelerstraat,67,,,7895AN,Roswinkel,Emmen,Drenthe,VBO,7.037146,52.838690
Roswinkelerstraat,68,,,7895AN,Roswinkel,Emmen,Drenthe,VBO,7.037330,52.838427
Roswinkelerstraat,69,,BY,7895AN,Roswinkel,Emmen,Drenthe,VBO,7.036803,52.837841
Roswinkelerstraat,69,,,7895AN,Roswinkel,Emmen,Drenthe,VBO,7.037286,52.838050
Roswinkelerstraat,70,,,7895AN,Roswinkel,Emmen,Drenthe,VBO,7.037890,52.837952
Roswinkelerstraat,71,,,7895AN,Roswinkel,Emmen,Drenthe,VBO,7.038138,52.837831
Roswinkelerstraat,72,,,7895AN,Roswinkel,Emmen,Drenthe,VBO,7.038366,52.837586
Roswinkelerstraat,73,,,7895AN,Roswinkel,Emmen,Drenthe,VBO,7.038808,52.837103
Roswinkelerstraat,74,,,7895AN,Roswinkel,Emmen,Drenthe,VBO,7.038894,52.837021
Roswinkelerstraat,75,,,7895AN,Roswinkel,Emmen,Drenthe,VBO,7.038922,52.836976
Roswinkelerstraat,77,,,7895AN,Roswinkel,Emmen,Drenthe,VBO,7.039008,52.836894
Roswinkelerstraat,78,,,7895AN,Roswinkel,Emmen,Drenthe,VBO,7.039132,52.836631
Roswinkelerstraat,81,A,,7895AN,Roswinkel,Emmen,Drenthe,VBO,7.039258,52.835650
Roswinkelerstraat,81,B,,7895AN,Roswinkel,Emmen,Drenthe,VBO,7.039655,52.835566
Roswinkelerstraat,81,C,,7895AN,Roswinkel,Emmen,Drenthe,VBO,7.039428,52.835448
Roswinkelerstraat,81,D,,7895AN,Roswinkel,Emmen,Drenthe,VBO,7.039501,52.835369
Roswinkelerstraat,81,,,7895AN,Roswinkel,Emmen,Drenthe,VBO,7.039926,52.835658
Roswinkelerstraat,82,,,7895AN,Roswinkel,Emmen,Drenthe,VBO,7.040297,52.835249
Roswinkelerstraat,83,,,7895AN,Roswinkel,Emmen,Drenthe,VBO,7.040598,52.834977
Roswinkelerstraat,84,,,7895AN,Roswinkel,Emmen,Drenthe,VBO,7.040947,52.834781
Roswinkelerstraat,85,,,7895AP,Roswinkel,Emmen,Drenthe,VBO,7.041019,52.834718
Roswinkelerstraat,87,,,7895AP,Roswinkel,Emmen,Drenthe,VBO,7.041212,52.834346
Roswinkelerstraat,91,,,7895AP,Roswinkel,Emmen,Drenthe,VBO,7.041370,52.833805
Roswinkelerstraat,92,,,7895AP,Roswinkel,Emmen,Drenthe,VBO,7.042132,52.833156
Roswinkelerstraat,93,,,7895AP,Roswinkel,Emmen,Drenthe,VBO,7.042265,52.832741
Roswinkelerstraat,94,A,,7895AP,Roswinkel,Emmen,Drenthe,VBO,7.042499,52.832261
Roswinkelerstraat,94,B,,7895AP,Roswinkel,Emmen,Drenthe,VBO,7.042827,52.832293
Roswinkelerstraat,94,,,7895AP,Roswinkel,Emmen,Drenthe,VBO,7.042696,52.832583
Roswinkelerstraat,95,,,7895AP,Roswinkel,Emmen,Drenthe,VBO,7.043323,52.832088
Roswinkelerstraat,98,,,7895AP,Roswinkel,Emmen,Drenthe,VBO,7.044109,52.831268
Roswinkelerstraat,99,,,7895AP,Roswinkel,Emmen,Drenthe,VBO,7.044484,52.830993
Roswinkelerstraat,101,,,7895AP,Roswinkel,Emmen,Drenthe,VBO,7.045015,52.830509
Roswinkelerstraat,103,,TR,7895AP,Roswinkel,Emmen,Drenthe,VBO,7.045395,52.829965
Roswinkelerstraat,103,,,7895AP,Roswinkel,Emmen,Drenthe,VBO,7.045709,52.830023
Roswinkelerstraat,104,,,7895AP,Roswinkel,Emmen,Drenthe,VBO,7.045932,52.829661
Roswinkelerstraat,105,,,7895AP,Roswinkel,Emmen,Drenthe,VBO,7.046131,52.829424
Roswinkelerstraat,106,,,7895AR,Roswinkel,Emmen,Drenthe,VBO,7.046931,52.829377
Roswinkelerstraat,110,,,7895AR,Roswinkel,Emmen,Drenthe,VBO,7.045604,52.830789
Roswinkelerstraat,114,,,7895AR,Roswinkel,Emmen,Drenthe,VBO,7.044062,52.831997
Roswinkelerstraat,115,,,7895AR,Roswinkel,Emmen,Drenthe,VBO,7.043977,52.832097
Roswinkelerstraat,117,,,7895AR,Roswinkel,Emmen,Drenthe,VBO,7.043933,52.832124
Roswinkelerstraat,118,,,7895AR,Roswinkel,Emmen,Drenthe,VBO,7.041443,52.834945
Roswinkelerstraat,119,,,7895AR,Roswinkel,Emmen,Drenthe,VBO,7.041300,52.835082
Roswinkelerstraat,120,,,7895AR,Roswinkel,Emmen,Drenthe,VBO,7.041156,52.835219
Roswinkelerstraat,122,,,7895AR,Roswinkel,Emmen,Drenthe,VBO,7.041018,52.835473
Roswinkelerstraat,127,A,,7895AR,Roswinkel,Emmen,Drenthe,VBO,7.040094,52.836555
Roswinkelerstraat,127,B,,7895AR,Roswinkel,Emmen,Drenthe,VBO,7.040012,52.836745
Roswinkelerstraat,127,,,7895AR,Roswinkel,Emmen,Drenthe,VBO,7.040380,52.836372
Roswinkelerstraat,128,A,,7895AR,Roswinkel,Emmen,Drenthe,VBO,7.040109,52.836968
Roswinkelerstraat,128,,,7895AR,Roswinkel,Emmen,Drenthe,VBO,7.040239,52.836868
Roswinkelerstraat,129,,,7895AR,Roswinkel,Emmen,Drenthe,VBO,7.039503,52.837013
Roswinkelerstraat,130,,,7895AR,Roswinkel,Emmen,Drenthe,VBO,7.039301,52.837186
Roswinkelerstraat,131,,,7895AR,Roswinkel,Emmen,Drenthe,VBO,7.039314,52.837519
Roswinkelerstraat,132,,,7895AS,Roswinkel,Emmen,Drenthe,VBO,7.038791,52.837813
Roswinkelerstraat,133,,TR,7895AS,Roswinkel,Emmen,Drenthe,VBO,7.039082,52.838070
Roswinkelerstraat,133,,,7895AS,Roswinkel,Emmen,Drenthe,VBO,7.038606,52.838041
Roswinkelerstraat,134,,,7895AS,Roswinkel,Emmen,Drenthe,VBO,7.038446,52.838133
Roswinkelerstraat,136,,,7895AS,Roswinkel,Emmen,Drenthe,VBO,7.038377,52.838260
Roswinkelerstraat,137,,,7895AS,Roswinkel,Emmen,Drenthe,VBO,7.038237,52.838468
Roswinkelerstraat,138,,,7895AS,Roswinkel,Emmen,Drenthe,VBO,7.038122,52.838587
Roswinkelerstraat,139,A,,7895AS,Roswinkel,Emmen,Drenthe,VBO,7.036944,52.840014
Roswinkelerstraat,139,,ACHT,7895AS,Roswinkel,Emmen,Drenthe,VBO,7.037596,52.839583
Roswinkelerstraat,139,,,7895AS,Roswinkel,Emmen,Drenthe,VBO,7.037281,52.839488
Roswinkelerstraat,140,,,7895AS,Roswinkel,Emmen,Drenthe,VBO,7.036593,52.840163
Roswinkelerstraat,141,,,7895AS,Roswinkel,Emmen,Drenthe,VBO,7.036554,52.840307
Roswinkelerstraat,143,A,,7895AS,Roswinkel,Emmen,Drenthe,VBO,7.036380,52.840417
Roswinkelerstraat,143,,,7895AS,Roswinkel,Emmen,Drenthe,VBO,7.036424,52.840381
Roswinkelerstraat,146,,,7895AS,Roswinkel,Emmen,Drenthe,VBO,7.035665,52.841119
Roswinkelerstraat,149,,,7895AS,Roswinkel,Emmen,Drenthe,VBO,7.034916,52.842118
Roswinkelerstraat,150,,,7895AS,Roswinkel,Emmen,Drenthe,VBO,7.034554,52.842375
Roswinkelerstraat,152,A,,7895AS,Roswinkel,Emmen,Drenthe,VBO,7.034567,52.843121
Roswinkelerstraat,152,,,7895AS,Roswinkel,Emmen,Drenthe,VBO,7.034098,52.842876
Roswinkelerstraat,153,,,7895AS,Roswinkel,Emmen,Drenthe,VBO,7.033766,52.843123
Roswinkelerstraat,154,,,7895AS,Roswinkel,Emmen,Drenthe,VBO,7.033748,52.843438
Roswinkelerstraat,156,,,7895AS,Roswinkel,Emmen,Drenthe,VBO,7.033440,52.843523
Roswinkelerstraat,157,,,7895AS,Roswinkel,Emmen,Drenthe,VBO,7.033356,52.843668
Roswinkelerstraat,158,,,7895AS,Roswinkel,Emmen,Drenthe,VBO,7.033226,52.843769
Roswinkelerstraat,159,,,7895AS,Roswinkel,Emmen,Drenthe,VBO,7.033098,52.843923
Roswinkelerstraat,160,,,7895AS,Roswinkel,Emmen,Drenthe,VBO,7.032943,52.844141
Roswinkelerstraat,163,,,7895AT,Roswinkel,Emmen,Drenthe,VBO,7.032618,52.844972
Roswinkelerstraat,166,,,7895AT,Roswinkel,Emmen,Drenthe,VBO,7.032039,52.845753
Roswinkelerstraat,167,,,7895AT,Roswinkel,Emmen,Drenthe,VBO,7.031875,52.846133
Roswinkelerstraat,168,A,,7895AT,Roswinkel,Emmen,Drenthe,VBO,7.031471,52.846426
Roswinkelerstraat,168,,,7895AT,Roswinkel,Emmen,Drenthe,VBO,7.031679,52.846442
Roswinkelerstraat,169,A,,7895AT,Roswinkel,Emmen,Drenthe,VBO,7.032022,52.846877
Roswinkelerstraat,169,B,,7895AT,Roswinkel,Emmen,Drenthe,VBO,7.031562,52.846884
Roswinkelerstraat,169,C,,7895AT,Roswinkel,Emmen,Drenthe,VBO,7.032458,52.847340
Roswinkelerstraat,169,,,7895AT,Roswinkel,Emmen,Drenthe,VBO,7.031405,52.846661
Roswinkelerstraat,170,,,7895AT,Roswinkel,Emmen,Drenthe,VBO,7.031148,52.846925
Roswinkelerstraat,172,,,7895AT,Roswinkel,Emmen,Drenthe,VBO,7.030342,52.847610
Roswinkelerstraat,174,,,7895AT,Roswinkel,Emmen,Drenthe,VBO,7.030225,52.847891
Roswinkelerstraat,176,,,7895AT,Roswinkel,Emmen,Drenthe,VBO,7.029951,52.848658
Roswinkelerstraat,177,,,7895AT,Roswinkel,Emmen,Drenthe,VBO,7.029511,52.848799
Roswinkelerstraat,179,,,7895AT,Roswinkel,Emmen,Drenthe,VBO,7.029253,52.849123
Roswinkelerstraat,180,,,7895AT,Roswinkel,Emmen,Drenthe,VBO,7.029439,52.849188
Roswinkelerstraat,193,,,7895AT,Roswinkel,Emmen,Drenthe,VBO,7.025788,52.852068
Roswinkelerstraat,194,,,7895AT,Roswinkel,Emmen,Drenthe,VBO,7.025458,52.852369
Boetseweg,3,,,7895AV,Roswinkel,Emmen,Drenthe,VBO,7.035245,52.844945
Boetseweg,13,,,7895AV,Roswinkel,Emmen,Drenthe,VBO,7.042953,52.840731
Boetseweg,15,,,7895AV,Roswinkel,Emmen,Drenthe,VBO,7.043040,52.840352
Boetseweg,16,,,7895AV,Roswinkel,Emmen,Drenthe,VBO,7.043228,52.840143
Boetseweg,17,,,7895AV,Roswinkel,Emmen,Drenthe,VBO,7.043428,52.839942
Boetseweg,18,,,7895AV,Roswinkel,Emmen,Drenthe,VBO,7.043601,52.839805
Boetseweg,19,,,7895AV,Roswinkel,Emmen,Drenthe,VBO,7.043847,52.839631
Boetseweg,20,,,7895AV,Roswinkel,Emmen,Drenthe,VBO,7.044575,52.838884
Boetseweg,22,,,7895AV,Roswinkel,Emmen,Drenthe,VBO,7.044448,52.838265
Boetseweg,24,,,7895AV,Roswinkel,Emmen,Drenthe,VBO,7.045876,52.837176
Boetseweg,25,,,7895AV,Roswinkel,Emmen,Drenthe,VBO,7.045822,52.836529
Boetseweg,30,,,7895AV,Roswinkel,Emmen,Drenthe,VBO,7.049096,52.834012
Boetseweg,38,,,7895AV,Roswinkel,Emmen,Drenthe,VBO,7.047280,52.836626
Boetseweg,40,,,7895AV,Roswinkel,Emmen,Drenthe,VBO,7.046936,52.836936
Boetseweg,43,,,7895AV,Roswinkel,Emmen,Drenthe,VBO,7.046755,52.837195
Boetseweg,44,,,7895AV,Roswinkel,Emmen,Drenthe,VBO,7.044701,52.839448
Boetseweg,45,A,,7895AV,Roswinkel,Emmen,Drenthe,VBO,7.044344,52.839840
Boetseweg,45,,,7895AV,Roswinkel,Emmen,Drenthe,VBO,7.044472,52.839676
Boetseweg,46,,,7895AV,Roswinkel,Emmen,Drenthe,VBO,7.044129,52.840022
Boetseweg,47,,,7895AV,Roswinkel,Emmen,Drenthe,VBO,7.045150,52.841509
Boetseweg,61,,,7895AV,Roswinkel,Emmen,Drenthe,VBO,7.038993,52.845778
Oude Schuttingkanaal WZ,55,,,7895TB,Roswinkel,Emmen,Drenthe,VBO,7.029487,52.824837
Oude Schuttingkanaal WZ,57,,,7895TB,Roswinkel,Emmen,Drenthe,VBO,7.030135,52.823929
Oude Schuttingkanaal OZ,16,,,7895TC,Roswinkel,Emmen,Drenthe,VBO,7.010502,52.845464
Oude Schuttingkanaal OZ,31,,,7895TC,Roswinkel,Emmen,Drenthe,VBO,7.013422,52.842530
Oude Schuttingkanaal OZ,34,,,7895TC,Roswinkel,Emmen,Drenthe,VBO,7.013807,52.842121
Oude Schuttingkanaal OZ,36,,,7895TC,Roswinkel,Emmen,Drenthe,VBO,7.013921,52.841993
Oude Schuttingkanaal OZ,50,,,7895TC,Roswinkel,Emmen,Drenthe,VBO,7.016977,52.838761
Oude Schuttingkanaal OZ,62,,,7895TC,Roswinkel,Emmen,Drenthe,VBO,7.020044,52.835946
Oude Schuttingkanaal OZ,65,,,7895TC,Roswinkel,Emmen,Drenthe,VBO,7.021028,52.834579
Oude Schuttingkanaal OZ,66,,,7895TC,Roswinkel,Emmen,Drenthe,VBO,7.021182,52.834488
Oude Schuttingkanaal OZ,73,,,7895TC,Roswinkel,Emmen,Drenthe,VBO,7.022992,52.832495
Oude Schuttingkanaal OZ,76,,,7895TC,Roswinkel,Emmen,Drenthe,VBO,7.023366,52.832193
Oude Schuttingkanaal OZ,81,,,7895TC,Roswinkel,Emmen,Drenthe,VBO,7.023737,52.831774
Oude Schuttingkanaal OZ,84,,,7895TC,Roswinkel,Emmen,Drenthe,VBO,7.024007,52.831456
Oude Schuttingkanaal OZ,85,,,7895TC,Roswinkel,Emmen,Drenthe,VBO,7.024121,52.831329
Oude Schuttingkanaal OZ,87,,,7895TC,Roswinkel,Emmen,Drenthe,VBO,7.024335,52.831101
Oude Schuttingkanaal OZ,88,,,7895TC,Roswinkel,Emmen,Drenthe,VBO,7.024363,52.831056
Oude Schuttingkanaal OZ,93,,,7895TC,Roswinkel,Emmen,Drenthe,VBO,7.025692,52.829698
Oude Schuttingkanaal OZ,94,,,7895TC,Roswinkel,Emmen,Drenthe,VBO,7.025882,52.829615
Oude Schuttingkanaal OZ,95,,,7895TC,Roswinkel,Emmen,Drenthe,VBO,7.025936,52.829470
Oude Schuttingkanaal OZ,98,,,7895TC,Roswinkel,Emmen,Drenthe,VBO,7.026179,52.829224
Oude Schuttingkanaal OZ,109,,,7895TC,Roswinkel,Emmen,Drenthe,VBO,7.027979,52.827357
Oude Schuttingkanaal OZ,116,,,7895TC,Roswinkel,Emmen,Drenthe,VBO,7.028736,52.826591
Verbindingskanaal NZ,13,,,7895TD,Roswinkel,Emmen,Drenthe,VBO,6.983970,52.839270
Verbindingskanaal NZ,14,,,7895TD,Roswinkel,Emmen,Drenthe,VBO,6.984107,52.839365
Verbindingskanaal NZ,21,,,7895TD,Roswinkel,Emmen,Drenthe,VBO,6.985853,52.840009
Verbindingskanaal NZ,26,,,7895TD,Roswinkel,Emmen,Drenthe,VBO,6.988673,52.841135
Verbindingskanaal NZ,30,,,7895TD,Roswinkel,Emmen,Drenthe,VBO,6.989375,52.841346
Verbindingskanaal NZ,32,,,7895TD,Roswinkel,Emmen,Drenthe,VBO,6.989660,52.841498
Verbindingskanaal NZ,34,,,7895TD,Roswinkel,Emmen,Drenthe,VBO,6.989947,52.841563
Verbindingskanaal NZ,36,,,7895TD,Roswinkel,Emmen,Drenthe,VBO,6.990146,52.841731
Verbindingskanaal NZ,38,,,7895TD,Roswinkel,Emmen,Drenthe,VBO,6.990519,52.841771
Verbindingskanaal NZ,50,,,7895TD,Roswinkel,Emmen,Drenthe,VBO,6.992928,52.842709
Verbindingskanaal NZ,56,,,7895TD,Roswinkel,Emmen,Drenthe,VBO,6.993891,52.843056
Verbindingskanaal NZ,61,,,7895TD,Roswinkel,Emmen,Drenthe,VBO,6.994660,52.843378
Verbindingskanaal NZ,65,,TR,7895TD,Roswinkel,Emmen,Drenthe,VBO,6.995281,52.843720
Verbindingskanaal NZ,65,,,7895TD,Roswinkel,Emmen,Drenthe,VBO,6.995487,52.843663
Verbindingskanaal NZ,66,,,7895TD,Roswinkel,Emmen,Drenthe,VBO,6.995562,52.843689
Verbindingskanaal NZ,70,,,7895TE,Roswinkel,Emmen,Drenthe,VBO,6.996601,52.844089
Verbindingskanaal NZ,71,,,7895TE,Roswinkel,Emmen,Drenthe,VBO,6.996811,52.844158
Verbindingskanaal NZ,73,,,7895TE,Roswinkel,Emmen,Drenthe,VBO,6.997219,52.844332
Verbindingskanaal NZ,81,,,7895TE,Roswinkel,Emmen,Drenthe,VBO,6.998857,52.844894
Verbindingskanaal NZ,95,,,7895TE,Roswinkel,Emmen,Drenthe,VBO,7.001614,52.845981
Verbindingskanaal NZ,98,,,7895TE,Roswinkel,Emmen,Drenthe,VBO,7.002187,52.846224
Verbindingskanaal NZ,99,,,7895TE,Roswinkel,Emmen,Drenthe,VBO,7.002339,52.846321
Verbindingskanaal NZ,101,,,7895TE,Roswinkel,Emmen,Drenthe,VBO,7.002909,52.846466
Verbindingskanaal NZ,102,,,7895TE,Roswinkel,Emmen,Drenthe,VBO,7.003076,52.846581
Verbindingskanaal NZ,103,,,7895TE,Roswinkel,Emmen,Drenthe,VBO,7.003317,52.846668
Verbindingskanaal NZ,106,,,7895TE,Roswinkel,Emmen,Drenthe,VBO,7.003830,52.846876
Verbindingskanaal NZ,108,,,7895TE,Roswinkel,Emmen,Drenthe,VBO,7.004251,52.847032
Verbindingskanaal NZ,115,,,7895TE,Roswinkel,Emmen,Drenthe,VBO,7.006734,52.847942
Verbindingskanaal NZ,117,,,7895TE,Roswinkel,Emmen,Drenthe,VBO,7.007255,52.848385
Winkelseweg,6,,,7895TG,Roswinkel,Emmen,Drenthe,VBO,7.009369,52.847727
Winkelseweg,17,,,7895TG,Roswinkel,Emmen,Drenthe,VBO,7.010258,52.847274
Winkelseweg,22,,,7895TG,Roswinkel,Emmen,Drenthe,VBO,7.009606,52.848119
Winkelseweg,24,,,7895TG,Roswinkel,Emmen,Drenthe,VBO,7.009455,52.848445
Winkelseweg,26,,,7895TG,Roswinkel,Emmen,Drenthe,VBO,7.009271,52.848681
Winkelseweg,27,,,7895TG,Roswinkel,Emmen,Drenthe,VBO,7.009206,52.848942
Oude Schuttingkanaal OZ,1,,,7895TH,Roswinkel,Emmen,Drenthe,VBO,7.008120,52.848085
Oude Schuttingkanaal OZ,4,,,7895TH,Roswinkel,Emmen,Drenthe,VBO,7.008577,52.847585
Oude Schuttingkanaal OZ,6,,TR,7895TH,Roswinkel,Emmen,Drenthe,VBO,7.009241,52.847090
Oude Schuttingkanaal OZ,6,,,7895TH,Roswinkel,Emmen,Drenthe,VBO,7.008965,52.847256
Oude Schuttingkanaal OZ,14,,,7895TH,Roswinkel,Emmen,Drenthe,VBO,7.010275,52.846133
Nieuwe Schuttingkanaal OZ,5,,,7895TJ,Roswinkel,Emmen,Drenthe,VBO,6.990922,52.840615
Nieuwe Schuttingkanaal OZ,7,,,7895TJ,Roswinkel,Emmen,Drenthe,VBO,6.991266,52.840287
Nieuwe Schuttingkanaal OZ,9,,,7895TJ,Roswinkel,Emmen,Drenthe,VBO,6.991491,52.839960
Nieuwe Schuttingkanaal OZ,10,,,7895TJ,Roswinkel,Emmen,Drenthe,VBO,6.992046,52.839719
Nieuwe Schuttingkanaal OZ,16,,,7895TJ,Roswinkel,Emmen,Drenthe,VBO,6.992336,52.839113
Nieuwe Schuttingkanaal OZ,20,,,7895TJ,Roswinkel,Emmen,Drenthe,VBO,6.992909,52.838557
Nieuwe Schuttingkanaal OZ,26,,,7895TJ,Roswinkel,Emmen,Drenthe,VBO,6.995043,52.836838
Nieuwe Schuttingkanaal OZ,28,,,7895TJ,Roswinkel,Emmen,Drenthe,VBO,6.994871,52.836607
Nieuwe Schuttingkanaal OZ,32,,,7895TJ,Roswinkel,Emmen,Drenthe,VBO,7.000371,52.831295
Nieuwe Schuttingkanaal OZ,35,,,7895TJ,Roswinkel,Emmen,Drenthe,VBO,7.004129,52.828087
Nieuwe Schuttingkanaal OZ,36,,,7895TJ,Roswinkel,Emmen,Drenthe,VBO,7.003731,52.827781
Nieuwe Schuttingkanaal WZ,3,,,7895TK,Roswinkel,Emmen,Drenthe,VBO,6.991487,52.839044
Nieuwe Schuttingkanaal WZ,4,,,7895TK,Roswinkel,Emmen,Drenthe,VBO,6.991717,52.838834
Nieuwe Schuttingkanaal WZ,10,,,7895TK,Roswinkel,Emmen,Drenthe,VBO,6.994191,52.835879
Nieuwe Schuttingkanaal WZ,30,,,7895TK,Roswinkel,Emmen,Drenthe,VBO,7.005381,52.824627
Roswinkelermarke,7,,,7895TL,Roswinkel,Emmen,Drenthe,VBO,7.029341,52.853029
Zanddijk,31,,,7895TM,Roswinkel,Emmen,Drenthe,VBO,7.044331,52.854365
Zanddijk,33,,,7895TM,Roswinkel,Emmen,Drenthe,VBO,7.046170,52.855094
Zanddijk,41,,,7895TM,Roswinkel,Emmen,Drenthe,VBO,7.050233,52.856512
Zanddijk,49,,,7895TM,Roswinkel,Emmen,Drenthe,VBO,7.052071,52.857196
Moersloot,134,,,7895TP,Roswinkel,Emmen,Drenthe,VBO,7.075556,52.849711
Moersloot,136,,,7895TP,Roswinkel,Emmen,Drenthe,VBO,7.075731,52.848855
Zanddijk,20,,,7895TR,Roswinkel,Emmen,Drenthe,VBO,7.038589,52.851730
Zanddijk,24,,,7895TR,Roswinkel,Emmen,Drenthe,VBO,7.040229,52.852309
Zanddijk,26,,,7895TR,Roswinkel,Emmen,Drenthe,VBO,7.040622,52.852484
Zanddijk,30,,,7895TR,Roswinkel,Emmen,Drenthe,VBO,7.042249,52.853108
Zanddijk,36,A,,7895TR,Roswinkel,Emmen,Drenthe,VBO,7.044822,52.853998
Zanddijk,36,,,7895TR,Roswinkel,Emmen,Drenthe,VBO,7.044747,52.853981
Zanddijk,52,,,7895TR,Roswinkel,Emmen,Drenthe,VBO,7.054516,52.857450
Zanddijk,54,,,7895TR,Roswinkel,Emmen,Drenthe,VBO,7.054779,52.857725
Zanddijk,56,,,7895TR,Roswinkel,Emmen,Drenthe,VBO,7.055079,52.857792
Roswinkelerkanaal ZZ,2,,,7895TS,Roswinkel,Emmen,Drenthe,VBO,7.038222,52.836896
Roswinkelerkanaal ZZ,3,,,7895TS,Roswinkel,Emmen,Drenthe,VBO,7.037966,52.836800
Roswinkelerkanaal ZZ,5,,,7895TS,Roswinkel,Emmen,Drenthe,VBO,7.037710,52.836723
Roswinkelerkanaal ZZ,7,,,7895TS,Roswinkel,Emmen,Drenthe,VBO,7.037409,52.836592
Roswinkelerkanaal ZZ,8,,,7895TS,Roswinkel,Emmen,Drenthe,VBO,7.037184,52.836532
Roswinkelerkanaal ZZ,9,,,7895TS,Roswinkel,Emmen,Drenthe,VBO,7.037139,52.836515
Roswinkelerkanaal ZZ,10,,,7895TS,Roswinkel,Emmen,Drenthe,VBO,7.036958,52.836455
Roswinkelerkanaal ZZ,12,,,7895TS,Roswinkel,Emmen,Drenthe,VBO,7.036582,52.836307
Roswinkelerkanaal ZZ,13,,,7895TS,Roswinkel,Emmen,Drenthe,VBO,7.036340,52.836203
Roswinkelerkanaal ZZ,14,,,7895TS,Roswinkel,Emmen,Drenthe,VBO,7.036294,52.836167
Roswinkelerkanaal ZZ,15,,,7895TS,Roswinkel,Emmen,Drenthe,VBO,7.036070,52.836116
Roswinkelerkanaal ZZ,16,,,7895TS,Roswinkel,Emmen,Drenthe,VBO,7.035859,52.836029
Roswinkelerkanaal ZZ,17,,,7895TS,Roswinkel,Emmen,Drenthe,VBO,7.035692,52.835951
Roswinkelerkanaal ZZ,19,,,7895TS,Roswinkel,Emmen,Drenthe,VBO,7.035483,52.835900
Roswinkelerkanaal ZZ,20,,,7895TS,Roswinkel,Emmen,Drenthe,VBO,7.035258,52.835840
Roswinkelerkanaal ZZ,22,,,7895TS,Roswinkel,Emmen,Drenthe,VBO,7.035031,52.835726
Roswinkelerkanaal ZZ,23,,,7895TS,Roswinkel,Emmen,Drenthe,VBO,7.034777,52.835676
Roswinkelerkanaal ZZ,24,,,7895TS,Roswinkel,Emmen,Drenthe,VBO,7.034505,52.835554
Roswinkelerkanaal NZ,2,,,7895TT,Roswinkel,Emmen,Drenthe,VBO,7.037885,52.837422
Roswinkelerkanaal NZ,4,,,7895TT,Roswinkel,Emmen,Drenthe,VBO,7.037569,52.837291
Roswinkelerkanaal NZ,5,,,7895TT,Roswinkel,Emmen,Drenthe,VBO,7.037478,52.837256
Roswinkelerkanaal NZ,6,,,7895TT,Roswinkel,Emmen,Drenthe,VBO,7.037268,52.837187
Roswinkelerkanaal NZ,7,,,7895TT,Roswinkel,Emmen,Drenthe,VBO,7.037163,52.837153
Roswinkelerkanaal NZ,8,,,7895TT,Roswinkel,Emmen,Drenthe,VBO,7.036939,52.837120
Roswinkelerkanaal NZ,10,,,7895TT,Roswinkel,Emmen,Drenthe,VBO,7.036712,52.836997
Roswinkelerkanaal NZ,11,,,7895TT,Roswinkel,Emmen,Drenthe,VBO,7.036442,52.836938
Roswinkelerkanaal NZ,13,,,7895TT,Roswinkel,Emmen,Drenthe,VBO,7.035823,52.836668
Roswinkelerkanaal NZ,14,,,7895TT,Roswinkel,Emmen,Drenthe,VBO,7.035658,52.836598
Roswinkelerkanaal NZ,15,,,7895TT,Roswinkel,Emmen,Drenthe,VBO,7.035477,52.836547
Roswinkelerkanaal NZ,16,,,7895TT,Roswinkel,Emmen,Drenthe,VBO,7.035221,52.836443
Roswinkelerkanaal NZ,17,,,7895TT,Roswinkel,Emmen,Drenthe,VBO,7.034967,52.836392
Roswinkelerkanaal NZ,18,,,7895TT,Roswinkel,Emmen,Drenthe,VBO,7.034444,52.836310
Roswinkelerkanaal NZ,19,I,,7895TT,Roswinkel,Emmen,Drenthe,VBO,7.033899,52.836003
Roswinkelerkanaal NZ,19,,,7895TT,Roswinkel,Emmen,Drenthe,VBO,7.034185,52.836115
Roswinkelerkanaal NZ,20,,,7895TV,Roswinkel,Emmen,Drenthe,VBO,7.033404,52.835866
Roswinkelerkanaal NZ,24,,,7895TV,Roswinkel,Emmen,Drenthe,VBO,7.033191,52.835734
Roswinkelerkanaal NZ,25,,,7895TV,Roswinkel,Emmen,Drenthe,VBO,7.033115,52.835690
Roswinkelerkanaal NZ,26,,,7895TV,Roswinkel,Emmen,Drenthe,VBO,7.032995,52.835656
Roswinkelerkanaal NZ,27,,,7895TV,Roswinkel,Emmen,Drenthe,VBO,7.032726,52.835605
Roswinkelerkanaal NZ,28,A,,7895TV,Roswinkel,Emmen,Drenthe,VBO,7.032003,52.835319
Roswinkelerkanaal NZ,28,,,7895TV,Roswinkel,Emmen,Drenthe,VBO,7.032287,52.835387
Roswinkelerkanaal NZ,29,A,,7895TV,Roswinkel,Emmen,Drenthe,VBO,7.031506,52.835128
Roswinkelerkanaal NZ,29,,,7895TV,Roswinkel,Emmen,Drenthe,VBO,7.031746,52.835214
Roswinkelerkanaal NZ,30,,,7895TV,Roswinkel,Emmen,Drenthe,VBO,7.031144,52.834989
Roswinkelerkanaal NZ,31,,,7895TV,Roswinkel,Emmen,Drenthe,VBO,7.028692,52.834115
Roswinkelerkanaal NZ,32,,,7895TV,Roswinkel,Emmen,Drenthe,VBO,7.028632,52.834080
Roswinkelerkanaal NZ,34,,,7895TV,Roswinkel,Emmen,Drenthe,VBO,7.028271,52.833968
Roswinkelerkanaal NZ,37,,,7895TV,Roswinkel,Emmen,Drenthe,VBO,7.027877,52.833740
Roswinkelerkanaal NZ,38,,,7895TV,Roswinkel,Emmen,Drenthe,VBO,7.027402,52.834061
Roswinkelerkanaal NZ,42,,,7895TV,Roswinkel,Emmen,Drenthe,VBO,7.026163,52.833161
Roswinkelerkanaal NZ,46,,,7895TV,Roswinkel,Emmen,Drenthe,VBO,7.025352,52.832912
Lagewijk NZ,1,,,7895TW,Roswinkel,Emmen,Drenthe,VBO,7.025563,52.851613
Lagewijk NZ,5,,,7895TW,Roswinkel,Emmen,Drenthe,VBO,7.023788,52.850990
Lagewijk NZ,13,,,7895TW,Roswinkel,Emmen,Drenthe,VBO,7.019480,52.849333
Lagewijk NZ,16,,,7895TW,Roswinkel,Emmen,Drenthe,VBO,7.017969,52.849425
Lagewijk NZ,17,,,7895TW,Roswinkel,Emmen,Drenthe,VBO,7.017948,52.848847
Lagewijk NZ,20,,,7895TW,Roswinkel,Emmen,Drenthe,VBO,7.016175,52.849090
Lagewijk NZ,21,,,7895TW,Roswinkel,Emmen,Drenthe,VBO,7.016170,52.848155
Lagewijk NZ,23,,,7895TW,Roswinkel,Emmen,Drenthe,VBO,7.015759,52.847900
Lagewijk NZ,25,,,7895TW,Roswinkel,Emmen,Drenthe,VBO,7.015400,52.847824
Lagewijk NZ,26,,,7895TW,Roswinkel,Emmen,Drenthe,VBO,7.014932,52.847624
Lagewijk NZ,27,,,7895TW,Roswinkel,Emmen,Drenthe,VBO,7.014452,52.847469
Lagewijk NZ,29,,,7895TW,Roswinkel,Emmen,Drenthe,VBO,7.013646,52.847354
Lagewijk NZ,33,,,7895TW,Roswinkel,Emmen,Drenthe,VBO,7.012453,52.846822
Mandemoer,3,,,7895TX,Roswinkel,Emmen,Drenthe,VBO,7.026935,52.849006
Mandemoer,4,,,7895TX,Roswinkel,Emmen,Drenthe,VBO,7.026405,52.848716
Lagewijk ZZ,3,,,7895TZ,Roswinkel,Emmen,Drenthe,VBO,7.022765,52.849827
