openbareruimtenaam,huisnummer,huisletter,huisnummertoevoeging,postcode,woonplaatsnaam,gemeentenaam,provincienaam,typeadresseerbaarobject,longitude,latitude
De Komenij,2,,,7914NA,Noordscheschut,Hoogeveen,Drenthe,VBO,6.531689,52.723542
De Komenij,4,,,7914NA,Noordscheschut,Hoogeveen,Drenthe,VBO,6.531615,52.723543
De Komenij,6,,,7914NA,Noordscheschut,Hoogeveen,Drenthe,VBO,6.531393,52.723554
De Komenij,8,,,7914NA,Noordscheschut,Hoogeveen,Drenthe,VBO,6.531304,52.723555
De Komenij,1,,,7914NB,Noordscheschut,Hoogeveen,Drenthe,VBO,6.532022,52.723279
De Komenij,3,,,7914NB,Noordscheschut,Hoogeveen,Drenthe,VBO,6.531948,52.723279
De Komenij,5,,,7914NB,Noordscheschut,Hoogeveen,Drenthe,VBO,6.531874,52.723280
De Komenij,7,,,7914NB,Noordscheschut,Hoogeveen,Drenthe,VBO,6.531800,52.723290
De Komenij,9,,,7914NB,Noordscheschut,Hoogeveen,Drenthe,VBO,6.531623,52.723291
De Komenij,11,,,7914NB,Noordscheschut,Hoogeveen,Drenthe,VBO,6.531534,52.723292
De Komenij,13,,,7914NB,Noordscheschut,Hoogeveen,Drenthe,VBO,6.531460,52.723302
De Komenij,15,,,7914NB,Noordscheschut,Hoogeveen,Drenthe,VBO,6.531386,52.723303
De Lossing,2,,,7914NC,Noordscheschut,Hoogeveen,Drenthe,VBO,6.532354,52.722395
De Lossing,4,,,7914NC,Noordscheschut,Hoogeveen,Drenthe,VBO,6.532265,52.722395
De Lossing,6,,,7914NC,Noordscheschut,Hoogeveen,Drenthe,VBO,6.532059,52.722406
De Lossing,8,,,7914NC,Noordscheschut,Hoogeveen,Drenthe,VBO,6.531970,52.722407
De Lossing,10,,,7914NC,Noordscheschut,Hoogeveen,Drenthe,VBO,6.531762,52.722382
De Lossing,12,,,7914NC,Noordscheschut,Hoogeveen,Drenthe,VBO,6.531673,52.722383
De Lossing,14,,,7914NC,Noordscheschut,Hoogeveen,Drenthe,VBO,6.531302,52.722342
De Lossing,1,,,7914ND,Noordscheschut,Hoogeveen,Drenthe,VBO,6.532807,52.722166
De Lossing,3,,,7914ND,Noordscheschut,Hoogeveen,Drenthe,VBO,6.532497,52.722177
De Lossing,5,,,7914ND,Noordscheschut,Hoogeveen,Drenthe,VBO,6.532304,52.722188
De Lossing,7,,,7914ND,Noordscheschut,Hoogeveen,Drenthe,VBO,6.532201,52.722189
De Lossing,9,,,7914ND,Noordscheschut,Hoogeveen,Drenthe,VBO,6.532008,52.722155
De Lossing,11,,,7914ND,Noordscheschut,Hoogeveen,Drenthe,VBO,6.531904,52.722156
De Lossing,13,,,7914ND,Noordscheschut,Hoogeveen,Drenthe,VBO,6.531711,52.722122
De Lossing,15,,,7914ND,Noordscheschut,Hoogeveen,Drenthe,VBO,6.531622,52.722123
De Lossing,17,,,7914ND,Noordscheschut,Hoogeveen,Drenthe,VBO,6.531400,52.722134
De Lossing,19,,,7914ND,Noordscheschut,Hoogeveen,Drenthe,VBO,6.531311,52.722135
De Lossing,21,,,7914ND,Noordscheschut,Hoogeveen,Drenthe,VBO,6.531060,52.722137
De Vijzel,1,,,7914NE,Noordscheschut,Hoogeveen,Drenthe,VBO,6.532547,52.723552
De Vijzel,3,,,7914NE,Noordscheschut,Hoogeveen,Drenthe,VBO,6.532636,52.723551
De Vijzel,5,,,7914NE,Noordscheschut,Hoogeveen,Drenthe,VBO,6.532843,52.723540
De Vijzel,7,,,7914NE,Noordscheschut,Hoogeveen,Drenthe,VBO,6.532932,52.723539
De Vijzel,9,,,7914NE,Noordscheschut,Hoogeveen,Drenthe,VBO,6.533153,52.723519
De Vijzel,11,,,7914NE,Noordscheschut,Hoogeveen,Drenthe,VBO,6.533242,52.723518
De Vijzel,13,,,7914NE,Noordscheschut,Hoogeveen,Drenthe,VBO,6.533490,52.723363
De Vijzel,15,,,7914NE,Noordscheschut,Hoogeveen,Drenthe,VBO,6.533395,52.723131
De Vijzel,17,,,7914NE,Noordscheschut,Hoogeveen,Drenthe,VBO,6.533144,52.723160
De Vijzel,19,,,7914NE,Noordscheschut,Hoogeveen,Drenthe,VBO,6.532865,52.723252
De Vijzel,21,,,7914NE,Noordscheschut,Hoogeveen,Drenthe,VBO,6.532496,52.723283
Zwarte Dijkje,1,,,7914PA,Noordscheschut,Hoogeveen,Drenthe,VBO,6.534250,52.721298
Zwarte Dijkje,3,,,7914PA,Noordscheschut,Hoogeveen,Drenthe,VBO,6.534251,52.721352
Zwarte Dijkje,5,,,7914PA,Noordscheschut,Hoogeveen,Drenthe,VBO,6.534196,52.721505
Zwarte Dijkje,7,,,7914PA,Noordscheschut,Hoogeveen,Drenthe,VBO,6.534290,52.721684
Zwarte Dijkje,11,,,7914PA,Noordscheschut,Hoogeveen,Drenthe,VBO,6.534357,52.722007
Zwarte Dijkje,13,,,7914PA,Noordscheschut,Hoogeveen,Drenthe,VBO,6.534360,52.722106
Zwarte Dijkje,15,,,7914PA,Noordscheschut,Hoogeveen,Drenthe,VBO,6.534380,52.722312
Zwarte Dijkje,17,a,,7914PA,Noordscheschut,Hoogeveen,Drenthe,VBO,6.534418,52.722644
Zwarte Dijkje,17,,,7914PA,Noordscheschut,Hoogeveen,Drenthe,VBO,6.534400,52.722501
Zwarte Dijkje,19,,,7914PA,Noordscheschut,Hoogeveen,Drenthe,VBO,6.534438,52.722815
Zwarte Dijkje,21,,,7914PA,Noordscheschut,Hoogeveen,Drenthe,VBO,6.534439,52.722869
Zwarte Dijkje,23,,,7914PA,Noordscheschut,Hoogeveen,Drenthe,VBO,6.534457,52.722994
Zwarte Dijkje,25,,,7914PA,Noordscheschut,Hoogeveen,Drenthe,VBO,6.534459,52.723048
Zwarte Dijkje,27,,,7914PA,Noordscheschut,Hoogeveen,Drenthe,VBO,6.534478,52.723210
Zwarte Dijkje,29,,,7914PA,Noordscheschut,Hoogeveen,Drenthe,VBO,6.534481,52.723327
Zwarte Dijkje,31,T,,7914PB,Noordscheschut,Hoogeveen,Drenthe,VBO,6.533935,52.723721
Zwarte Dijkje,31,,,7914PB,Noordscheschut,Hoogeveen,Drenthe,VBO,6.534474,52.723632
Zwarte Dijkje,33,,,7914PB,Noordscheschut,Hoogeveen,Drenthe,VBO,6.534537,52.723803
Zwarte Dijkje,35,,,7914PB,Noordscheschut,Hoogeveen,Drenthe,VBO,6.534674,52.723936
Zwarte Dijkje,37,,,7914PB,Noordscheschut,Hoogeveen,Drenthe,VBO,6.534693,52.724107
Zwarte Dijkje,39,a,,7914PB,Noordscheschut,Hoogeveen,Drenthe,VBO,6.534673,52.724457
Zwarte Dijkje,39,,,7914PB,Noordscheschut,Hoogeveen,Drenthe,VBO,6.534699,52.724304
Zwarte Dijkje,41,,,7914PB,Noordscheschut,Hoogeveen,Drenthe,VBO,6.534737,52.724628
Zwarte Dijkje,43,a,,7914PB,Noordscheschut,Hoogeveen,Drenthe,VBO,6.534620,52.724701
Zwarte Dijkje,43,b,,7914PB,Noordscheschut,Hoogeveen,Drenthe,VBO,6.534369,52.724712
Zwarte Dijkje,43,,,7914PB,Noordscheschut,Hoogeveen,Drenthe,VBO,6.534739,52.724699
Zwarte Dijkje,45,a,,7914PB,Noordscheschut,Hoogeveen,Drenthe,VBO,6.534713,52.724861
Zwarte Dijkje,45,,,7914PB,Noordscheschut,Hoogeveen,Drenthe,VBO,6.534549,52.724800
Zwarte Dijkje,47,a,,7914PB,Noordscheschut,Hoogeveen,Drenthe,VBO,6.534774,52.725472
Zwarte Dijkje,47,,,7914PB,Noordscheschut,Hoogeveen,Drenthe,VBO,6.534772,52.725427
Zwarte Dijkje,49,,,7914PB,Noordscheschut,Hoogeveen,Drenthe,VBO,6.534709,52.725832
Zwarte Dijkje,2,a,,7914PC,Noordscheschut,Hoogeveen,Drenthe,VBO,6.534768,52.721293
Zwarte Dijkje,2,b,,7914PC,Noordscheschut,Hoogeveen,Drenthe,VBO,6.534771,52.721428
Zwarte Dijkje,2,c,,7914PC,Noordscheschut,Hoogeveen,Drenthe,VBO,6.534788,52.721481
Zwarte Dijkje,2,d,,7914PC,Noordscheschut,Hoogeveen,Drenthe,VBO,6.534791,52.721616
Zwarte Dijkje,2,e,,7914PC,Noordscheschut,Hoogeveen,Drenthe,VBO,6.534807,52.721670
Zwarte Dijkje,2,f,,7914PC,Noordscheschut,Hoogeveen,Drenthe,VBO,6.534874,52.721939
Zwarte Dijkje,2,g,,7914PC,Noordscheschut,Hoogeveen,Drenthe,VBO,6.534875,52.721993
Zwarte Dijkje,2,h,,7914PC,Noordscheschut,Hoogeveen,Drenthe,VBO,6.534879,52.722128
Zwarte Dijkje,2,i,,7914PC,Noordscheschut,Hoogeveen,Drenthe,VBO,6.534894,52.722172
Zwarte Dijkje,2,,,7914PC,Noordscheschut,Hoogeveen,Drenthe,VBO,6.534752,52.721239
Zwarte Dijkje,4,,,7914PC,Noordscheschut,Hoogeveen,Drenthe,VBO,6.534916,52.722433
Zwarte Dijkje,6,,,7914PC,Noordscheschut,Hoogeveen,Drenthe,VBO,6.534934,52.722567
Zwarte Dijkje,8,,,7914PC,Noordscheschut,Hoogeveen,Drenthe,VBO,6.534894,52.722721
Zwarte Dijkje,10,,,7914PC,Noordscheschut,Hoogeveen,Drenthe,VBO,6.534910,52.722783
Zwarte Dijkje,12,,,7914PC,Noordscheschut,Hoogeveen,Drenthe,VBO,6.534914,52.722918
Zwarte Dijkje,14,,,7914PC,Noordscheschut,Hoogeveen,Drenthe,VBO,6.534930,52.722972
Zwarte Dijkje,16,,,7914PC,Noordscheschut,Hoogeveen,Drenthe,VBO,6.535010,52.723762
Zwarte Dijkje,18,,,7914PC,Noordscheschut,Hoogeveen,Drenthe,VBO,6.535012,52.723825
Zwarte Dijkje,20,,,7914PC,Noordscheschut,Hoogeveen,Drenthe,VBO,6.535031,52.724005
Zwarte Dijkje,22,,,7914PC,Noordscheschut,Hoogeveen,Drenthe,VBO,6.535497,52.724270
Zwarte Dijkje,24,,,7914PC,Noordscheschut,Hoogeveen,Drenthe,VBO,6.535501,52.724431
Zwarte Dijkje,26,a,,7914PC,Noordscheschut,Hoogeveen,Drenthe,VBO,6.535489,52.724521
Zwarte Dijkje,26,,,7914PC,Noordscheschut,Hoogeveen,Drenthe,VBO,6.535505,52.724566
Zwarte Dijkje,28,,,7914PC,Noordscheschut,Hoogeveen,Drenthe,VBO,6.535538,52.724710
Zwarte Dijkje,30,a,,7914PC,Noordscheschut,Hoogeveen,Drenthe,VBO,6.535265,52.725018
Zwarte Dijkje,30,,G001,7914PC,Noordscheschut,Hoogeveen,Drenthe,VBO,6.535379,52.725243
Zwarte Dijkje,30,,G002,7914PC,Noordscheschut,Hoogeveen,Drenthe,VBO,6.535383,52.725268
Zwarte Dijkje,30,,G003,7914PC,Noordscheschut,Hoogeveen,Drenthe,VBO,6.535384,52.725293
Zwarte Dijkje,30,,G004,7914PC,Noordscheschut,Hoogeveen,Drenthe,VBO,6.535386,52.725315
Zwarte Dijkje,30,,,7914PC,Noordscheschut,Hoogeveen,Drenthe,VBO,6.535148,52.725082
Zwarte Dijkje,32,,,7914PC,Noordscheschut,Hoogeveen,Drenthe,VBO,6.535240,52.725189
Zwarte Dijkje,34,,,7914PC,Noordscheschut,Hoogeveen,Drenthe,VBO,6.535170,52.725342
Bieslook,1,,,7914PD,Noordscheschut,Hoogeveen,Drenthe,VBO,6.531350,52.723060
Bieslook,2,,,7914PD,Noordscheschut,Hoogeveen,Drenthe,VBO,6.530987,52.723324
Bieslook,3,,,7914PD,Noordscheschut,Hoogeveen,Drenthe,VBO,6.531333,52.722980
Bieslook,4,,,7914PD,Noordscheschut,Hoogeveen,Drenthe,VBO,6.530986,52.723271
Bieslook,5,,,7914PD,Noordscheschut,Hoogeveen,Drenthe,VBO,6.531331,52.722872
Bieslook,6,,,7914PD,Noordscheschut,Hoogeveen,Drenthe,VBO,6.530967,52.723136
Bieslook,7,,,7914PD,Noordscheschut,Hoogeveen,Drenthe,VBO,6.531329,52.722818
Bieslook,8,,,7914PD,Noordscheschut,Hoogeveen,Drenthe,VBO,6.530966,52.723082
Bieslook,9,,,7914PD,Noordscheschut,Hoogeveen,Drenthe,VBO,6.531311,52.722692
Bieslook,10,,,7914PD,Noordscheschut,Hoogeveen,Drenthe,VBO,6.530889,52.722966
Bieslook,11,,,7914PD,Noordscheschut,Hoogeveen,Drenthe,VBO,6.531309,52.722629
Bieslook,12,,,7914PD,Noordscheschut,Hoogeveen,Drenthe,VBO,6.530873,52.722903
Bieslook,13,,,7914PD,Noordscheschut,Hoogeveen,Drenthe,VBO,6.531277,52.722522
Bieslook,14,,,7914PD,Noordscheschut,Hoogeveen,Drenthe,VBO,6.530869,52.722786
Bieslook,16,,,7914PD,Noordscheschut,Hoogeveen,Drenthe,VBO,6.530868,52.722723
Bieslook,18,,,7914PD,Noordscheschut,Hoogeveen,Drenthe,VBO,6.530894,52.722606
Bieslook,20,,,7914PD,Noordscheschut,Hoogeveen,Drenthe,VBO,6.530893,52.722543
Bieslook,22,,,7914PD,Noordscheschut,Hoogeveen,Drenthe,VBO,6.530875,52.722418
Bieslook,24,,,7914PD,Noordscheschut,Hoogeveen,Drenthe,VBO,6.530858,52.722364
Rahderweg,1,,,7914PE,Noordscheschut,Hoogeveen,Drenthe,VBO,6.536517,52.724206
Rahderweg,3,,,7914PE,Noordscheschut,Hoogeveen,Drenthe,VBO,6.536605,52.724196
Rahderweg,5,,,7914PE,Noordscheschut,Hoogeveen,Drenthe,VBO,6.536694,52.724195
Rahderweg,7,,,7914PE,Noordscheschut,Hoogeveen,Drenthe,VBO,6.536783,52.724194
Rahderweg,9,,,7914PE,Noordscheschut,Hoogeveen,Drenthe,VBO,6.536872,52.724193
Rahderweg,10,,,7914PE,Noordscheschut,Hoogeveen,Drenthe,VBO,6.537371,52.723895
Rahderweg,11,,,7914PE,Noordscheschut,Hoogeveen,Drenthe,VBO,6.536960,52.724184
Rahderweg,13,,,7914PE,Noordscheschut,Hoogeveen,Drenthe,VBO,6.537049,52.724183
Rahderweg,15,,,7914PE,Noordscheschut,Hoogeveen,Drenthe,VBO,6.537286,52.724172
Rahderweg,17,,,7914PE,Noordscheschut,Hoogeveen,Drenthe,VBO,6.537374,52.724171
Rahderweg,19,,,7914PE,Noordscheschut,Hoogeveen,Drenthe,VBO,6.537463,52.724170
Rahderweg,21,,,7914PE,Noordscheschut,Hoogeveen,Drenthe,VBO,6.537552,52.724160
Rahderweg,23,,,7914PE,Noordscheschut,Hoogeveen,Drenthe,VBO,6.537641,52.724159
Rahderweg,25,,,7914PE,Noordscheschut,Hoogeveen,Drenthe,VBO,6.537729,52.724158
Bloklandweg,13,,,7914PG,Noordscheschut,Hoogeveen,Drenthe,VBO,6.535574,52.722696
Bloklandweg,15,,,7914PG,Noordscheschut,Hoogeveen,Drenthe,VBO,6.535591,52.722759
Bloklandweg,17,,,7914PG,Noordscheschut,Hoogeveen,Drenthe,VBO,6.535592,52.722813
Bloklandweg,19,,,7914PG,Noordscheschut,Hoogeveen,Drenthe,VBO,6.535594,52.722876
Bloklandweg,21,,,7914PG,Noordscheschut,Hoogeveen,Drenthe,VBO,6.535630,52.723145
Bloklandweg,23,,,7914PG,Noordscheschut,Hoogeveen,Drenthe,VBO,6.535527,52.723155
Bloklandweg,25,,,7914PG,Noordscheschut,Hoogeveen,Drenthe,VBO,6.535439,52.723174
Bloklandweg,27,,,7914PG,Noordscheschut,Hoogeveen,Drenthe,VBO,6.535335,52.723184
Bloklandweg,29,,,7914PG,Noordscheschut,Hoogeveen,Drenthe,VBO,6.535099,52.723204
Bloklandweg,31,,,7914PH,Noordscheschut,Hoogeveen,Drenthe,VBO,6.534996,52.723205
Bloklandweg,33,,,7914PH,Noordscheschut,Hoogeveen,Drenthe,VBO,6.535004,52.723528
Bloklandweg,35,,,7914PH,Noordscheschut,Hoogeveen,Drenthe,VBO,6.535093,52.723519
Bloklandweg,37,,,7914PH,Noordscheschut,Hoogeveen,Drenthe,VBO,6.535374,52.723516
Bloklandweg,39,,,7914PH,Noordscheschut,Hoogeveen,Drenthe,VBO,6.535478,52.723524
Bloklandweg,41,,,7914PH,Noordscheschut,Hoogeveen,Drenthe,VBO,6.535567,52.723532
Bloklandweg,43,,,7914PH,Noordscheschut,Hoogeveen,Drenthe,VBO,6.535656,52.723540
Bloklandweg,45,,,7914PH,Noordscheschut,Hoogeveen,Drenthe,VBO,6.535691,52.723755
Bloklandweg,47,,,7914PH,Noordscheschut,Hoogeveen,Drenthe,VBO,6.535692,52.723809
Bloklandweg,49,,,7914PH,Noordscheschut,Hoogeveen,Drenthe,VBO,6.535710,52.723926
Bloklandweg,51,,,7914PH,Noordscheschut,Hoogeveen,Drenthe,VBO,6.535712,52.723980
Bloklandweg,6,,,7914PJ,Noordscheschut,Hoogeveen,Drenthe,VBO,6.535878,52.722406
Bloklandweg,8,,,7914PJ,Noordscheschut,Hoogeveen,Drenthe,VBO,6.535894,52.722468
Bloklandweg,10,,,7914PJ,Noordscheschut,Hoogeveen,Drenthe,VBO,6.535895,52.722522
Bloklandweg,12,,,7914PJ,Noordscheschut,Hoogeveen,Drenthe,VBO,6.535897,52.722585
Bloklandweg,14,,,7914PJ,Noordscheschut,Hoogeveen,Drenthe,VBO,6.535900,52.722693
Bloklandweg,16,,,7914PJ,Noordscheschut,Hoogeveen,Drenthe,VBO,6.535901,52.722747
Bloklandweg,18,,,7914PJ,Noordscheschut,Hoogeveen,Drenthe,VBO,6.535918,52.722810
Bloklandweg,20,,,7914PJ,Noordscheschut,Hoogeveen,Drenthe,VBO,6.535919,52.722873
Bloklandweg,22,,,7914PJ,Noordscheschut,Hoogeveen,Drenthe,VBO,6.535907,52.722971
Bloklandweg,24,,,7914PJ,Noordscheschut,Hoogeveen,Drenthe,VBO,6.535924,52.723034
Bloklandweg,26,,,7914PJ,Noordscheschut,Hoogeveen,Drenthe,VBO,6.535925,52.723097
Bloklandweg,28,,,7914PJ,Noordscheschut,Hoogeveen,Drenthe,VBO,6.535927,52.723151
Bloklandweg,30,,,7914PJ,Noordscheschut,Hoogeveen,Drenthe,VBO,6.535944,52.723259
Bloklandweg,32,,,7914PJ,Noordscheschut,Hoogeveen,Drenthe,VBO,6.535947,52.723349
Bloklandweg,34,,,7914PJ,Noordscheschut,Hoogeveen,Drenthe,VBO,6.535964,52.723447
Bloklandweg,36,,,7914PJ,Noordscheschut,Hoogeveen,Drenthe,VBO,6.535981,52.723546
Bloklandweg,38,,,7914PJ,Noordscheschut,Hoogeveen,Drenthe,VBO,6.535983,52.723600
Bloklandweg,40,,,7914PJ,Noordscheschut,Hoogeveen,Drenthe,VBO,6.535999,52.723663
Bloklandweg,42,,,7914PJ,Noordscheschut,Hoogeveen,Drenthe,VBO,6.536001,52.723717
Bloklandweg,44,,,7914PJ,Noordscheschut,Hoogeveen,Drenthe,VBO,6.536033,52.723815
Bloklandweg,46,,,7914PJ,Noordscheschut,Hoogeveen,Drenthe,VBO,6.536035,52.723878
Bloklandweg,48,,,7914PJ,Noordscheschut,Hoogeveen,Drenthe,VBO,6.536036,52.723932
Bloklandweg,50,,,7914PJ,Noordscheschut,Hoogeveen,Drenthe,VBO,6.536037,52.723986
Boogerdweg,1,,,7914PK,Noordscheschut,Hoogeveen,Drenthe,VBO,6.535241,52.722412
Boogerdweg,2,,,7914PK,Noordscheschut,Hoogeveen,Drenthe,VBO,6.536520,52.722049
Boogerdweg,3,,,7914PK,Noordscheschut,Hoogeveen,Drenthe,VBO,6.535345,52.722411
Boogerdweg,4,,,7914PK,Noordscheschut,Hoogeveen,Drenthe,VBO,6.536881,52.721704
Boogerdweg,5,,,7914PK,Noordscheschut,Hoogeveen,Drenthe,VBO,6.535434,52.722410
Boogerdweg,7,,,7914PK,Noordscheschut,Hoogeveen,Drenthe,VBO,6.535537,52.722418
Boogerdweg,8,,,7914PK,Noordscheschut,Hoogeveen,Drenthe,VBO,6.538647,52.721978
Boogerdweg,9,,,7914PK,Noordscheschut,Hoogeveen,Drenthe,VBO,6.536912,52.722342
Boogerdweg,11,,,7914PK,Noordscheschut,Hoogeveen,Drenthe,VBO,6.537001,52.722341
Boogerdweg,13,,,7914PK,Noordscheschut,Hoogeveen,Drenthe,VBO,6.537090,52.722340
Boogerdweg,15,,,7914PK,Noordscheschut,Hoogeveen,Drenthe,VBO,6.537178,52.722339
Boogerdweg,17,,,7914PK,Noordscheschut,Hoogeveen,Drenthe,VBO,6.537267,52.722329
Boogerdweg,19,,,7914PK,Noordscheschut,Hoogeveen,Drenthe,VBO,6.537356,52.722328
Boogerdweg,21,,,7914PK,Noordscheschut,Hoogeveen,Drenthe,VBO,6.537445,52.722328
Boogerdweg,23,,,7914PK,Noordscheschut,Hoogeveen,Drenthe,VBO,6.537533,52.722327
Boogerdweg,25,,,7914PK,Noordscheschut,Hoogeveen,Drenthe,VBO,6.537622,52.722317
Boogerdweg,27,,,7914PK,Noordscheschut,Hoogeveen,Drenthe,VBO,6.537844,52.722315
Boogerdweg,29,,,7914PK,Noordscheschut,Hoogeveen,Drenthe,VBO,6.537932,52.722305
Boogerdweg,31,,,7914PK,Noordscheschut,Hoogeveen,Drenthe,VBO,6.538021,52.722304
Boogerdweg,33,,,7914PK,Noordscheschut,Hoogeveen,Drenthe,VBO,6.538110,52.722303
Boogerdweg,35,,,7914PK,Noordscheschut,Hoogeveen,Drenthe,VBO,6.538199,52.722302
Boogerdweg,37,,,7914PK,Noordscheschut,Hoogeveen,Drenthe,VBO,6.538287,52.722292
Boogerdweg,39,,,7914PK,Noordscheschut,Hoogeveen,Drenthe,VBO,6.538376,52.722292
Boogerdweg,41,,,7914PK,Noordscheschut,Hoogeveen,Drenthe,VBO,6.538465,52.722291
Veenlandweg,2,,G001,7914PL,Noordscheschut,Hoogeveen,Drenthe,VBO,6.536770,52.722358
Veenlandweg,2,,G002,7914PL,Noordscheschut,Hoogeveen,Drenthe,VBO,6.536774,52.722384
Veenlandweg,2,,G003,7914PL,Noordscheschut,Hoogeveen,Drenthe,VBO,6.536777,52.722414
Veenlandweg,2,,G004,7914PL,Noordscheschut,Hoogeveen,Drenthe,VBO,6.536780,52.722440
Veenlandweg,2,,G005,7914PL,Noordscheschut,Hoogeveen,Drenthe,VBO,6.536781,52.722468
Veenlandweg,2,,G006,7914PL,Noordscheschut,Hoogeveen,Drenthe,VBO,6.536785,52.722494
Veenlandweg,2,,G007,7914PL,Noordscheschut,Hoogeveen,Drenthe,VBO,6.536789,52.722521
Veenlandweg,2,,G008,7914PL,Noordscheschut,Hoogeveen,Drenthe,VBO,6.536791,52.722548
Veenlandweg,2,,G009,7914PL,Noordscheschut,Hoogeveen,Drenthe,VBO,6.536795,52.722575
Veenlandweg,2,,G010,7914PL,Noordscheschut,Hoogeveen,Drenthe,VBO,6.536796,52.722601
Veenlandweg,2,,G011,7914PL,Noordscheschut,Hoogeveen,Drenthe,VBO,6.536799,52.722624
Veenlandweg,2,,G012,7914PL,Noordscheschut,Hoogeveen,Drenthe,VBO,6.536802,52.722653
Veenlandweg,2,,G013,7914PL,Noordscheschut,Hoogeveen,Drenthe,VBO,6.536802,52.722678
Veenlandweg,2,,G014,7914PL,Noordscheschut,Hoogeveen,Drenthe,VBO,6.536806,52.722704
Veenlandweg,3,,,7914PL,Noordscheschut,Hoogeveen,Drenthe,VBO,6.536471,52.722445
Veenlandweg,5,,,7914PL,Noordscheschut,Hoogeveen,Drenthe,VBO,6.536489,52.722561
Veenlandweg,7,,,7914PL,Noordscheschut,Hoogeveen,Drenthe,VBO,6.536490,52.722615
Veenlandweg,9,,,7914PL,Noordscheschut,Hoogeveen,Drenthe,VBO,6.536523,52.722741
Veenlandweg,11,,,7914PL,Noordscheschut,Hoogeveen,Drenthe,VBO,6.536524,52.722804
Veenlandweg,13,,,7914PL,Noordscheschut,Hoogeveen,Drenthe,VBO,6.536528,52.722921
Veenlandweg,15,,,7914PL,Noordscheschut,Hoogeveen,Drenthe,VBO,6.536544,52.722983
Veenlandweg,17,,,7914PL,Noordscheschut,Hoogeveen,Drenthe,VBO,6.536547,52.723109
Veenlandweg,19,,,7914PL,Noordscheschut,Hoogeveen,Drenthe,VBO,6.536564,52.723172
Veenlandweg,25,,,7914PL,Noordscheschut,Hoogeveen,Drenthe,VBO,6.536567,52.723289
Veenlandweg,27,,,7914PL,Noordscheschut,Hoogeveen,Drenthe,VBO,6.536583,52.723351
Veenlandweg,29,,,7914PL,Noordscheschut,Hoogeveen,Drenthe,VBO,6.536587,52.723477
Veenlandweg,31,,,7914PL,Noordscheschut,Hoogeveen,Drenthe,VBO,6.536588,52.723540
Veenlandweg,33,,,7914PL,Noordscheschut,Hoogeveen,Drenthe,VBO,6.536606,52.723666
Veenlandweg,35,,,7914PL,Noordscheschut,Hoogeveen,Drenthe,VBO,6.536608,52.723720
Veenlandweg,37,,,7914PL,Noordscheschut,Hoogeveen,Drenthe,VBO,6.536626,52.723845
Veenlandweg,39,,,7914PL,Noordscheschut,Hoogeveen,Drenthe,VBO,6.536614,52.723953
Jan Naardingweg,1,,,7914PM,Noordscheschut,Hoogeveen,Drenthe,VBO,6.537569,52.723117
Jan Naardingweg,2,,,7914PM,Noordscheschut,Hoogeveen,Drenthe,VBO,6.536951,52.722710
Jan Naardingweg,4,,,7914PM,Noordscheschut,Hoogeveen,Drenthe,VBO,6.537055,52.722709
Jan Naardingweg,5,,001,7914PM,Noordscheschut,Hoogeveen,Drenthe,VBO,6.537767,52.724378
Jan Naardingweg,5,,002,7914PM,Noordscheschut,Hoogeveen,Drenthe,VBO,6.537768,52.724405
Jan Naardingweg,5,,003,7914PM,Noordscheschut,Hoogeveen,Drenthe,VBO,6.537751,52.724428
Jan Naardingweg,5,,004,7914PM,Noordscheschut,Hoogeveen,Drenthe,VBO,6.537769,52.724450
Jan Naardingweg,5,,005,7914PM,Noordscheschut,Hoogeveen,Drenthe,VBO,6.537769,52.724468
Jan Naardingweg,5,,006,7914PM,Noordscheschut,Hoogeveen,Drenthe,VBO,6.537770,52.724486
Jan Naardingweg,5,,007,7914PM,Noordscheschut,Hoogeveen,Drenthe,VBO,6.537771,52.724513
Jan Naardingweg,5,,008,7914PM,Noordscheschut,Hoogeveen,Drenthe,VBO,6.537771,52.724530
Jan Naardingweg,5,,009,7914PM,Noordscheschut,Hoogeveen,Drenthe,VBO,6.537772,52.724548
Jan Naardingweg,5,,010,7914PM,Noordscheschut,Hoogeveen,Drenthe,VBO,6.537772,52.724575
Jan Naardingweg,5,,011,7914PM,Noordscheschut,Hoogeveen,Drenthe,VBO,6.537788,52.724593
Jan Naardingweg,5,,012,7914PM,Noordscheschut,Hoogeveen,Drenthe,VBO,6.537788,52.724611
Jan Naardingweg,5,,013,7914PM,Noordscheschut,Hoogeveen,Drenthe,VBO,6.537772,52.724643
Jan Naardingweg,5,,014,7914PM,Noordscheschut,Hoogeveen,Drenthe,VBO,6.537789,52.724656
Jan Naardingweg,5,,101,7914PM,Noordscheschut,Hoogeveen,Drenthe,VBO,6.537708,52.724387
Jan Naardingweg,5,,102,7914PM,Noordscheschut,Hoogeveen,Drenthe,VBO,6.537709,52.724405
Jan Naardingweg,5,,103,7914PM,Noordscheschut,Hoogeveen,Drenthe,VBO,6.537709,52.724423
Jan Naardingweg,5,,104,7914PM,Noordscheschut,Hoogeveen,Drenthe,VBO,6.537710,52.724450
Jan Naardingweg,5,,105,7914PM,Noordscheschut,Hoogeveen,Drenthe,VBO,6.537710,52.724468
Jan Naardingweg,5,,106,7914PM,Noordscheschut,Hoogeveen,Drenthe,VBO,6.537726,52.724486
Jan Naardingweg,5,,107,7914PM,Noordscheschut,Hoogeveen,Drenthe,VBO,6.537726,52.724513
Jan Naardingweg,5,,108,7914PM,Noordscheschut,Hoogeveen,Drenthe,VBO,6.537727,52.724531
Jan Naardingweg,5,,109,7914PM,Noordscheschut,Hoogeveen,Drenthe,VBO,6.537727,52.724558
Jan Naardingweg,5,,110,7914PM,Noordscheschut,Hoogeveen,Drenthe,VBO,6.537728,52.724576
Jan Naardingweg,5,,111,7914PM,Noordscheschut,Hoogeveen,Drenthe,VBO,6.537728,52.724594
Jan Naardingweg,5,,112,7914PM,Noordscheschut,Hoogeveen,Drenthe,VBO,6.537729,52.724621
Jan Naardingweg,5,,113,7914PM,Noordscheschut,Hoogeveen,Drenthe,VBO,6.537730,52.724639
Jan Naardingweg,5,,114,7914PM,Noordscheschut,Hoogeveen,Drenthe,VBO,6.537730,52.724657
Jan Naardingweg,5,,115,7914PM,Noordscheschut,Hoogeveen,Drenthe,VBO,6.537731,52.724684
Jan Naardingweg,5,,116,7914PM,Noordscheschut,Hoogeveen,Drenthe,VBO,6.537746,52.724701
Jan Naardingweg,5,,201,7914PM,Noordscheschut,Hoogeveen,Drenthe,VBO,6.537664,52.724388
Jan Naardingweg,5,,202,7914PM,Noordscheschut,Hoogeveen,Drenthe,VBO,6.537664,52.724406
Jan Naardingweg,5,,203,7914PM,Noordscheschut,Hoogeveen,Drenthe,VBO,6.537665,52.724424
Jan Naardingweg,5,,204,7914PM,Noordscheschut,Hoogeveen,Drenthe,VBO,6.537665,52.724451
Jan Naardingweg,6,,,7914PM,Noordscheschut,Hoogeveen,Drenthe,VBO,6.537143,52.722699
Jan Naardingweg,8,,,7914PM,Noordscheschut,Hoogeveen,Drenthe,VBO,6.537232,52.722698
Jan Naardingweg,10,,,7914PM,Noordscheschut,Hoogeveen,Drenthe,VBO,6.537424,52.722687
Jan Naardingweg,12,,,7914PM,Noordscheschut,Hoogeveen,Drenthe,VBO,6.537513,52.722686
Jan Naardingweg,14,,,7914PM,Noordscheschut,Hoogeveen,Drenthe,VBO,6.537617,52.722685
Jan Naardingweg,16,,,7914PM,Noordscheschut,Hoogeveen,Drenthe,VBO,6.537705,52.722676
Jan Naardingweg,20,,,7914PM,Noordscheschut,Hoogeveen,Drenthe,VBO,6.537944,52.722745
Jan Naardingweg,22,,,7914PM,Noordscheschut,Hoogeveen,Drenthe,VBO,6.537945,52.722799
Jan Naardingweg,24,,,7914PM,Noordscheschut,Hoogeveen,Drenthe,VBO,6.537962,52.722853
Jan Naardingweg,26,,,7914PM,Noordscheschut,Hoogeveen,Drenthe,VBO,6.537963,52.722916
Jan Naardingweg,28,,,7914PM,Noordscheschut,Hoogeveen,Drenthe,VBO,6.537965,52.722970
Jan Naardingweg,30,,,7914PN,Noordscheschut,Hoogeveen,Drenthe,VBO,6.537981,52.723023
Jan Naardingweg,32,,,7914PN,Noordscheschut,Hoogeveen,Drenthe,VBO,6.537984,52.723140
Jan Naardingweg,34,,,7914PN,Noordscheschut,Hoogeveen,Drenthe,VBO,6.537985,52.723194
Jan Naardingweg,36,,,7914PN,Noordscheschut,Hoogeveen,Drenthe,VBO,6.538002,52.723257
Jan Naardingweg,38,,,7914PN,Noordscheschut,Hoogeveen,Drenthe,VBO,6.538003,52.723311
Jan Naardingweg,40,,,7914PN,Noordscheschut,Hoogeveen,Drenthe,VBO,6.538005,52.723365
Jan Naardingweg,42,,,7914PN,Noordscheschut,Hoogeveen,Drenthe,VBO,6.538021,52.723427
Jan Naardingweg,44,,,7914PN,Noordscheschut,Hoogeveen,Drenthe,VBO,6.538024,52.723535
Jan Naardingweg,46,,,7914PN,Noordscheschut,Hoogeveen,Drenthe,VBO,6.538040,52.723598
Jan Naardingweg,48,,,7914PN,Noordscheschut,Hoogeveen,Drenthe,VBO,6.538042,52.723652
Jan Naardingweg,50,,,7914PN,Noordscheschut,Hoogeveen,Drenthe,VBO,6.538043,52.723706
Jan Naardingweg,52,,,7914PN,Noordscheschut,Hoogeveen,Drenthe,VBO,6.538045,52.723769
Jan Naardingweg,54,T,,7914PN,Noordscheschut,Hoogeveen,Drenthe,VBO,6.538072,52.723877
Jan Naardingweg,54,,,7914PN,Noordscheschut,Hoogeveen,Drenthe,VBO,6.538061,52.723822
Jan Naardingweg,56,,,7914PN,Noordscheschut,Hoogeveen,Drenthe,VBO,6.538270,52.724459
Dirk ten Heuvelstraat,1,,,7914PP,Noordscheschut,Hoogeveen,Drenthe,VBO,6.536146,52.724165
Dirk ten Heuvelstraat,2,,,7914PP,Noordscheschut,Hoogeveen,Drenthe,VBO,6.536523,52.724431
Dirk ten Heuvelstraat,3,,,7914PP,Noordscheschut,Hoogeveen,Drenthe,VBO,6.536147,52.724218
Dirk ten Heuvelstraat,4,,,7914PP,Noordscheschut,Hoogeveen,Drenthe,VBO,6.536524,52.724484
Dirk ten Heuvelstraat,5,,,7914PP,Noordscheschut,Hoogeveen,Drenthe,VBO,6.536149,52.724281
Dirk ten Heuvelstraat,6,,,7914PP,Noordscheschut,Hoogeveen,Drenthe,VBO,6.536540,52.724538
Dirk ten Heuvelstraat,7,,,7914PP,Noordscheschut,Hoogeveen,Drenthe,VBO,6.536165,52.724344
Dirk ten Heuvelstraat,8,,,7914PP,Noordscheschut,Hoogeveen,Drenthe,VBO,6.536542,52.724592
Dirk ten Heuvelstraat,9,,,7914PP,Noordscheschut,Hoogeveen,Drenthe,VBO,6.536211,52.724398
Dirk ten Heuvelstraat,10,,,7914PP,Noordscheschut,Hoogeveen,Drenthe,VBO,6.536543,52.724646
Dirk ten Heuvelstraat,11,,,7914PP,Noordscheschut,Hoogeveen,Drenthe,VBO,6.536213,52.724460
Dirk ten Heuvelstraat,12,,,7914PP,Noordscheschut,Hoogeveen,Drenthe,VBO,6.536545,52.724700
Dirk ten Heuvelstraat,13,,,7914PP,Noordscheschut,Hoogeveen,Drenthe,VBO,6.536229,52.724514
Dirk ten Heuvelstraat,14,,,7914PP,Noordscheschut,Hoogeveen,Drenthe,VBO,6.536561,52.724754
Dirk ten Heuvelstraat,15,,,7914PP,Noordscheschut,Hoogeveen,Drenthe,VBO,6.536230,52.724577
Tramweg,2,,,7914PR,Noordscheschut,Hoogeveen,Drenthe,VBO,6.536028,52.724777
Tramweg,4,,,7914PR,Noordscheschut,Hoogeveen,Drenthe,VBO,6.536132,52.724776
Tramweg,6,,,7914PR,Noordscheschut,Hoogeveen,Drenthe,VBO,6.536236,52.724775
Tramweg,7,,,7914PR,Noordscheschut,Hoogeveen,Drenthe,VBO,6.535976,52.725038
Tramweg,9,,,7914PR,Noordscheschut,Hoogeveen,Drenthe,VBO,6.536197,52.724991
Tramweg,11,,,7914PR,Noordscheschut,Hoogeveen,Drenthe,VBO,6.536300,52.724981
Tramweg,13,,,7914PR,Noordscheschut,Hoogeveen,Drenthe,VBO,6.536374,52.724980
Tramweg,15,,,7914PR,Noordscheschut,Hoogeveen,Drenthe,VBO,6.536463,52.724979
Tramweg,17,,,7914PR,Noordscheschut,Hoogeveen,Drenthe,VBO,6.536552,52.724970
Tramweg,19,,,7914PR,Noordscheschut,Hoogeveen,Drenthe,VBO,6.536981,52.724956
Tramweg,21,,,7914PR,Noordscheschut,Hoogeveen,Drenthe,VBO,6.537069,52.724956
Tramweg,23,,,7914PR,Noordscheschut,Hoogeveen,Drenthe,VBO,6.537158,52.724955
Tramweg,25,,,7914PR,Noordscheschut,Hoogeveen,Drenthe,VBO,6.537247,52.724945
Tramweg,27,,,7914PR,Noordscheschut,Hoogeveen,Drenthe,VBO,6.537336,52.724944
Tramweg,29,,,7914PR,Noordscheschut,Hoogeveen,Drenthe,VBO,6.537424,52.724943
Calkoenswijk,5,,,7914PS,Noordscheschut,Hoogeveen,Drenthe,VBO,6.546837,52.721490
Hoveniersland,1,,,7914PT,Noordscheschut,Hoogeveen,Drenthe,VBO,6.534721,52.725167
Hoveniersland,2,,,7914PT,Noordscheschut,Hoogeveen,Drenthe,VBO,6.534372,52.725413
Hoveniersland,3,,,7914PT,Noordscheschut,Hoogeveen,Drenthe,VBO,6.534647,52.725168
Hoveniersland,4,,,7914PT,Noordscheschut,Hoogeveen,Drenthe,VBO,6.534313,52.725414
Hoveniersland,5,,,7914PT,Noordscheschut,Hoogeveen,Drenthe,VBO,6.534425,52.725179
Hoveniersland,6,,,7914PT,Noordscheschut,Hoogeveen,Drenthe,VBO,6.534150,52.725397
Hoveniersland,7,,,7914PT,Noordscheschut,Hoogeveen,Drenthe,VBO,6.534351,52.725179
Hoveniersland,8,,,7914PT,Noordscheschut,Hoogeveen,Drenthe,VBO,6.534061,52.725398
Hoveniersland,9,,,7914PT,Noordscheschut,Hoogeveen,Drenthe,VBO,6.534128,52.725128
Hoveniersland,11,,,7914PT,Noordscheschut,Hoogeveen,Drenthe,VBO,6.534039,52.725138
Hoveniersland,12,,,7914PT,Noordscheschut,Hoogeveen,Drenthe,STA,6.533829,52.725335
Hoveniersland,13,,,7914PT,Noordscheschut,Hoogeveen,Drenthe,STA,6.533702,52.725059
Hoveniersland,14,,,7914PT,Noordscheschut,Hoogeveen,Drenthe,STA,6.533649,52.725344
Hoveniersland,15,,,7914PT,Noordscheschut,Hoogeveen,Drenthe,STA,6.533691,52.724951
Hoveniersland,16,,,7914PT,Noordscheschut,Hoogeveen,Drenthe,STA,6.533471,52.725348
Hoveniersland,17,,,7914PT,Noordscheschut,Hoogeveen,Drenthe,STA,6.533680,52.724843
Hoveniersland,18,,,7914PT,Noordscheschut,Hoogeveen,Drenthe,STA,6.533298,52.725290
Hoveniersland,19,,,7914PT,Noordscheschut,Hoogeveen,Drenthe,STA,6.533669,52.724736
Hoveniersland,20,,,7914PT,Noordscheschut,Hoogeveen,Drenthe,STA,6.533207,52.724933
Hoveniersland,21,,,7914PT,Noordscheschut,Hoogeveen,Drenthe,VBO,6.533565,52.724549
Hoveniersland,22,,,7914PT,Noordscheschut,Hoogeveen,Drenthe,STA,6.533196,52.724826
Hoveniersland,23,,,7914PT,Noordscheschut,Hoogeveen,Drenthe,VBO,6.533564,52.724504
Hoveniersland,24,,,7914PT,Noordscheschut,Hoogeveen,Drenthe,STA,6.533187,52.724716
Hoveniersland,25,,,7914PT,Noordscheschut,Hoogeveen,Drenthe,VBO,6.533561,52.724387
Hoveniersland,26,a,,7914PT,Noordscheschut,Hoogeveen,Drenthe,VBO,6.533206,52.724391
Hoveniersland,26,,,7914PT,Noordscheschut,Hoogeveen,Drenthe,VBO,6.533207,52.724445
Hoveniersland,27,,,7914PT,Noordscheschut,Hoogeveen,Drenthe,VBO,6.533560,52.724342
Hoveniersland,28,,,7914PT,Noordscheschut,Hoogeveen,Drenthe,VBO,6.533023,52.724195
Hoveniersland,29,,,7914PT,Noordscheschut,Hoogeveen,Drenthe,VBO,6.533571,52.724198
Hoveniersland,30,,,7914PT,Noordscheschut,Hoogeveen,Drenthe,VBO,6.532874,52.724151
Hoveniersland,31,,,7914PT,Noordscheschut,Hoogeveen,Drenthe,VBO,6.533420,52.724101
Hoveniersland,32,,,7914PT,Noordscheschut,Hoogeveen,Drenthe,VBO,6.532754,52.724116
Hoveniersland,33,,,7914PT,Noordscheschut,Hoogeveen,Drenthe,VBO,6.533360,52.724066
Hoveniersland,34,,,7914PT,Noordscheschut,Hoogeveen,Drenthe,VBO,6.532590,52.724064
Hoveniersland,35,,,7914PT,Noordscheschut,Hoogeveen,Drenthe,VBO,6.533300,52.724030
Hoveniersland,36,,,7914PT,Noordscheschut,Hoogeveen,Drenthe,VBO,6.532516,52.724038
Hoveniersland,37,,,7914PT,Noordscheschut,Hoogeveen,Drenthe,VBO,6.533240,52.723995
Hoveniersland,38,,,7914PT,Noordscheschut,Hoogeveen,Drenthe,VBO,6.532336,52.723977
Hoveniersland,39,,,7914PT,Noordscheschut,Hoogeveen,Drenthe,VBO,6.533165,52.723969
Hoveniersland,40,,,7914PT,Noordscheschut,Hoogeveen,Drenthe,VBO,6.532276,52.723950
Hoveniersland,41,,,7914PT,Noordscheschut,Hoogeveen,Drenthe,VBO,6.532971,52.723917
Hoveniersland,42,,,7914PT,Noordscheschut,Hoogeveen,Drenthe,VBO,6.532170,52.723852
Hoveniersland,43,,,7914PT,Noordscheschut,Hoogeveen,Drenthe,VBO,6.532897,52.723890
Hoveniersland,44,,,7914PT,Noordscheschut,Hoogeveen,Drenthe,VBO,6.532140,52.723808
Hoveniersland,45,,,7914PT,Noordscheschut,Hoogeveen,Drenthe,VBO,6.532703,52.723829
Hoveniersland,46,,,7914PT,Noordscheschut,Hoogeveen,Drenthe,VBO,6.532122,52.723700
Hoveniersland,47,,,7914PT,Noordscheschut,Hoogeveen,Drenthe,VBO,6.532488,52.722968
Hoveniersland,48,,,7914PT,Noordscheschut,Hoogeveen,Drenthe,VBO,6.532106,52.723655
Hoveniersland,50,,,7914PT,Noordscheschut,Hoogeveen,Drenthe,VBO,6.532105,52.723601
Hoveniersland,52,,,7914PT,Noordscheschut,Hoogeveen,Drenthe,VBO,6.532103,52.723556
Hoveniersland,49,,,7914PV,Noordscheschut,Hoogeveen,Drenthe,VBO,6.532736,52.722858
Hoveniersland,51,,,7914PV,Noordscheschut,Hoogeveen,Drenthe,VBO,6.532956,52.722775
Hoveniersland,53,,,7914PV,Noordscheschut,Hoogeveen,Drenthe,VBO,6.533029,52.722739
Hoveniersland,54,,,7914PV,Noordscheschut,Hoogeveen,Drenthe,VBO,6.532015,52.723018
Hoveniersland,55,,,7914PV,Noordscheschut,Hoogeveen,Drenthe,VBO,6.533175,52.722665
Hoveniersland,56,,,7914PV,Noordscheschut,Hoogeveen,Drenthe,VBO,6.532014,52.722964
Hoveniersland,57,,,7914PV,Noordscheschut,Hoogeveen,Drenthe,VBO,6.533233,52.722593
Hoveniersland,58,,,7914PV,Noordscheschut,Hoogeveen,Drenthe,VBO,6.532085,52.722856
Hoveniersland,59,,,7914PV,Noordscheschut,Hoogeveen,Drenthe,VBO,6.533274,52.722485
Hoveniersland,60,,,7914PV,Noordscheschut,Hoogeveen,Drenthe,VBO,6.532143,52.722810
Hoveniersland,61,,,7914PV,Noordscheschut,Hoogeveen,Drenthe,VBO,6.533272,52.722404
Hoveniersland,62,,,7914PV,Noordscheschut,Hoogeveen,Drenthe,VBO,6.532363,52.722718
Hoveniersland,63,,,7914PV,Noordscheschut,Hoogeveen,Drenthe,VBO,6.533270,52.722305
Hoveniersland,64,,,7914PV,Noordscheschut,Hoogeveen,Drenthe,VBO,6.532729,52.722589
Hoveniersland,65,,,7914PV,Noordscheschut,Hoogeveen,Drenthe,VBO,6.533268,52.722224
Hoveniersland,66,,,7914PV,Noordscheschut,Hoogeveen,Drenthe,VBO,6.532887,52.722389
Hoveniersland,67,,,7914PV,Noordscheschut,Hoogeveen,Drenthe,VBO,6.533250,52.722125
Hoveniersland,68,,,7914PV,Noordscheschut,Hoogeveen,Drenthe,VBO,6.532955,52.721797
Hoveniersland,69,,,7914PV,Noordscheschut,Hoogeveen,Drenthe,VBO,6.533233,52.722045
Hoveniersland,70,,,7914PV,Noordscheschut,Hoogeveen,Drenthe,VBO,6.533079,52.721794
Hoveniersland,72,,,7914PV,Noordscheschut,Hoogeveen,Drenthe,VBO,6.533286,52.721783
Noord,203,a,,7914PW,Noordscheschut,Hoogeveen,Drenthe,VBO,6.527064,52.727290
Noord,203,b,,7914PW,Noordscheschut,Hoogeveen,Drenthe,VBO,6.527153,52.727289
Noord,203,,,7914PW,Noordscheschut,Hoogeveen,Drenthe,VBO,6.526738,52.727302
Noord,205,,,7914PW,Noordscheschut,Hoogeveen,Drenthe,VBO,6.527300,52.727278
Noord,207,,,7914PW,Noordscheschut,Hoogeveen,Drenthe,VBO,6.527360,52.727278
Noord,209,,,7914PW,Noordscheschut,Hoogeveen,Drenthe,VBO,6.527522,52.727267
Noord,211,,,7914PW,Noordscheschut,Hoogeveen,Drenthe,VBO,6.527744,52.727265
Noord,215,,,7914PX,Noordscheschut,Hoogeveen,Drenthe,VBO,6.528587,52.727230
Noord,223,a,,7914PX,Noordscheschut,Hoogeveen,Drenthe,VBO,6.529726,52.727183
Noord,223,,,7914PX,Noordscheschut,Hoogeveen,Drenthe,VBO,6.528956,52.727191
Noord,229,,,7914PX,Noordscheschut,Hoogeveen,Drenthe,VBO,6.531153,52.727175
Noord,231,,,7914PX,Noordscheschut,Hoogeveen,Drenthe,VBO,6.531796,52.727100
Noord,233,,,7914PX,Noordscheschut,Hoogeveen,Drenthe,VBO,6.531885,52.727100
Noord,235,,,7914PX,Noordscheschut,Hoogeveen,Drenthe,VBO,6.532875,52.727036
Noord,237,,,7914PX,Noordscheschut,Hoogeveen,Drenthe,VBO,6.533216,52.727051
Noord,239,,,7914PX,Noordscheschut,Hoogeveen,Drenthe,VBO,6.533438,52.727040
Noord,241,,,7914PX,Noordscheschut,Hoogeveen,Drenthe,VBO,6.533777,52.727034
Noord,243,,,7914PX,Noordscheschut,Hoogeveen,Drenthe,VBO,6.533999,52.726980
Noord,245,,,7914PX,Noordscheschut,Hoogeveen,Drenthe,VBO,6.534340,52.727013
Noord,249,,,7914PX,Noordscheschut,Hoogeveen,Drenthe,VBO,6.534754,52.727000
Noord,251,T,,7914PX,Noordscheschut,Hoogeveen,Drenthe,VBO,6.534861,52.726730
Noord,251,,,7914PX,Noordscheschut,Hoogeveen,Drenthe,VBO,6.535080,52.726997
van der Sluisweg,1,,,7914RA,Noordscheschut,Hoogeveen,Drenthe,VBO,6.538546,52.722542
van der Sluisweg,2,,,7914RA,Noordscheschut,Hoogeveen,Drenthe,VBO,6.538878,52.722251
van der Sluisweg,3,,,7914RA,Noordscheschut,Hoogeveen,Drenthe,VBO,6.538547,52.722586
van der Sluisweg,4,,,7914RA,Noordscheschut,Hoogeveen,Drenthe,VBO,6.538879,52.722287
van der Sluisweg,5,,,7914RA,Noordscheschut,Hoogeveen,Drenthe,VBO,6.538565,52.722721
van der Sluisweg,6,,,7914RA,Noordscheschut,Hoogeveen,Drenthe,VBO,6.538913,52.722430
van der Sluisweg,7,,,7914RA,Noordscheschut,Hoogeveen,Drenthe,VBO,6.538566,52.722775
van der Sluisweg,8,,,7914RA,Noordscheschut,Hoogeveen,Drenthe,VBO,6.538914,52.722484
van der Sluisweg,9,,,7914RA,Noordscheschut,Hoogeveen,Drenthe,VBO,6.538585,52.722901
van der Sluisweg,10,a,,7914RA,Noordscheschut,Hoogeveen,Drenthe,VBO,6.539097,52.722698
van der Sluisweg,10,,,7914RA,Noordscheschut,Hoogeveen,Drenthe,VBO,6.539009,52.722699
van der Sluisweg,11,,,7914RA,Noordscheschut,Hoogeveen,Drenthe,VBO,6.538573,52.723027
van der Sluisweg,12,,,7914RA,Noordscheschut,Hoogeveen,Drenthe,VBO,6.539275,52.722696
van der Sluisweg,13,,,7914RA,Noordscheschut,Hoogeveen,Drenthe,VBO,6.538574,52.723081
van der Sluisweg,14,,,7914RA,Noordscheschut,Hoogeveen,Drenthe,VBO,6.539368,52.722848
van der Sluisweg,15,,,7914RA,Noordscheschut,Hoogeveen,Drenthe,VBO,6.538593,52.723206
van der Sluisweg,16,,,7914RA,Noordscheschut,Hoogeveen,Drenthe,VBO,6.539386,52.722983
van der Sluisweg,17,,,7914RA,Noordscheschut,Hoogeveen,Drenthe,VBO,6.538594,52.723260
van der Sluisweg,18,,,7914RA,Noordscheschut,Hoogeveen,Drenthe,VBO,6.539390,52.723136
van der Sluisweg,19,,,7914RA,Noordscheschut,Hoogeveen,Drenthe,VBO,6.538642,52.723385
van der Sluisweg,20,,,7914RA,Noordscheschut,Hoogeveen,Drenthe,VBO,6.539230,52.723254
van der Sluisweg,21,,,7914RA,Noordscheschut,Hoogeveen,Drenthe,VBO,6.538645,52.723520
van der Sluisweg,22,,,7914RA,Noordscheschut,Hoogeveen,Drenthe,VBO,6.539023,52.723238
van der Sluisweg,23,,,7914RA,Noordscheschut,Hoogeveen,Drenthe,VBO,6.538661,52.723574
van der Sluisweg,24,,,7914RA,Noordscheschut,Hoogeveen,Drenthe,VBO,6.539015,52.723526
van der Sluisweg,25,,,7914RA,Noordscheschut,Hoogeveen,Drenthe,VBO,6.538665,52.723709
van der Sluisweg,27,,,7914RA,Noordscheschut,Hoogeveen,Drenthe,VBO,6.538681,52.723772
van Marleweg,1,,,7914RB,Noordscheschut,Hoogeveen,Drenthe,VBO,6.540635,52.724894
van Marleweg,2,a,,7914RB,Noordscheschut,Hoogeveen,Drenthe,VBO,6.540489,52.724401
van Marleweg,2,,,7914RB,Noordscheschut,Hoogeveen,Drenthe,VBO,6.540578,52.724391
van Marleweg,3,,,7914RB,Noordscheschut,Hoogeveen,Drenthe,VBO,6.540652,52.724948
van Marleweg,4,a,,7914RB,Noordscheschut,Hoogeveen,Drenthe,VBO,6.540312,52.724403
van Marleweg,4,,,7914RB,Noordscheschut,Hoogeveen,Drenthe,VBO,6.540400,52.724402
van Marleweg,5,,,7914RB,Noordscheschut,Hoogeveen,Drenthe,VBO,6.540655,52.725083
van Marleweg,6,,,7914RB,Noordscheschut,Hoogeveen,Drenthe,VBO,6.539980,52.724163
van Marleweg,7,,,7914RB,Noordscheschut,Hoogeveen,Drenthe,VBO,6.540671,52.725136
van Marleweg,8,,,7914RB,Noordscheschut,Hoogeveen,Drenthe,VBO,6.540068,52.724163
van Marleweg,9,,,7914RB,Noordscheschut,Hoogeveen,Drenthe,VBO,6.540557,52.725299
van Marleweg,10,,,7914RB,Noordscheschut,Hoogeveen,Drenthe,VBO,6.540157,52.724162
van Marleweg,11,,,7914RB,Noordscheschut,Hoogeveen,Drenthe,VBO,6.540809,52.725288
van Marleweg,12,,,7914RB,Noordscheschut,Hoogeveen,Drenthe,VBO,6.540246,52.724152
van Marleweg,13,,,7914RB,Noordscheschut,Hoogeveen,Drenthe,VBO,6.541030,52.725277
van Marleweg,14,,,7914RB,Noordscheschut,Hoogeveen,Drenthe,VBO,6.540468,52.724150
van Marleweg,15,,,7914RB,Noordscheschut,Hoogeveen,Drenthe,VBO,6.541267,52.725274
van Marleweg,16,,,7914RB,Noordscheschut,Hoogeveen,Drenthe,VBO,6.540557,52.724149
van Marleweg,17,,,7914RB,Noordscheschut,Hoogeveen,Drenthe,VBO,6.541174,52.725123
van Marleweg,18,,,7914RB,Noordscheschut,Hoogeveen,Drenthe,VBO,6.540793,52.724138
van Marleweg,19,,,7914RB,Noordscheschut,Hoogeveen,Drenthe,VBO,6.541158,52.725078
van Marleweg,20,,,7914RB,Noordscheschut,Hoogeveen,Drenthe,VBO,6.540855,52.724245
van Marleweg,21,,,7914RB,Noordscheschut,Hoogeveen,Drenthe,VBO,6.541007,52.724953
van Marleweg,22,,,7914RB,Noordscheschut,Hoogeveen,Drenthe,VBO,6.540873,52.724361
van Marleweg,23,,,7914RB,Noordscheschut,Hoogeveen,Drenthe,VBO,6.540945,52.724846
van Marleweg,24,,,7914RB,Noordscheschut,Hoogeveen,Drenthe,VBO,6.540874,52.724415
van Marleweg,25,,,7914RB,Noordscheschut,Hoogeveen,Drenthe,VBO,6.540944,52.724792
van Marleweg,26,,,7914RB,Noordscheschut,Hoogeveen,Drenthe,VBO,6.540876,52.724469
van Marleweg,28,,,7914RB,Noordscheschut,Hoogeveen,Drenthe,VBO,6.540892,52.724523
Noord,104,,,7914RD,Noordscheschut,Hoogeveen,Drenthe,VBO,6.521584,52.727189
Noord,106,,,7914RD,Noordscheschut,Hoogeveen,Drenthe,VBO,6.521687,52.727188
Noord,108,,,7914RD,Noordscheschut,Hoogeveen,Drenthe,VBO,6.522043,52.727203
Noord,110,,,7914RD,Noordscheschut,Hoogeveen,Drenthe,VBO,6.522545,52.727162
Noord,116,,,7914RD,Noordscheschut,Hoogeveen,Drenthe,VBO,6.524112,52.727075
Noord,118,,,7914RD,Noordscheschut,Hoogeveen,Drenthe,VBO,6.524556,52.727071
Noord,120,,,7914RD,Noordscheschut,Hoogeveen,Drenthe,VBO,6.525577,52.727052
Noord,122,,,7914RD,Noordscheschut,Hoogeveen,Drenthe,VBO,6.526287,52.727019
Noord,124,,,7914RD,Noordscheschut,Hoogeveen,Drenthe,VBO,6.526569,52.725910
Noord,126,,,7914RD,Noordscheschut,Hoogeveen,Drenthe,VBO,6.527454,52.726926
Noord,128,,,7914RD,Noordscheschut,Hoogeveen,Drenthe,VBO,6.527749,52.726879
Noord,130,,,7914RD,Noordscheschut,Hoogeveen,Drenthe,VBO,6.528520,52.726934
Noord,132,,,7914RE,Noordscheschut,Hoogeveen,Drenthe,VBO,6.528919,52.726894
Noord,134,,,7914RE,Noordscheschut,Hoogeveen,Drenthe,VBO,6.529466,52.726889
Noord,136,,,7914RE,Noordscheschut,Hoogeveen,Drenthe,VBO,6.529585,52.726879
Noord,138,,,7914RE,Noordscheschut,Hoogeveen,Drenthe,VBO,6.529894,52.726840
Noord,140,,,7914RE,Noordscheschut,Hoogeveen,Drenthe,VBO,6.529983,52.726839
Noord,142,,,7914RE,Noordscheschut,Hoogeveen,Drenthe,VBO,6.530677,52.726752
Noord,144,,,7914RE,Noordscheschut,Hoogeveen,Drenthe,VBO,6.531106,52.726748
Noord,148,,,7914RE,Noordscheschut,Hoogeveen,Drenthe,VBO,6.531700,52.726814
Noord,150,,,7914RE,Noordscheschut,Hoogeveen,Drenthe,VBO,6.532891,52.726506
Noord,152,a,,7914RE,Noordscheschut,Hoogeveen,Drenthe,VBO,6.533856,52.726622
Noord,152,,,7914RE,Noordscheschut,Hoogeveen,Drenthe,VBO,6.533369,52.726681
Noord,154,,,7914RE,Noordscheschut,Hoogeveen,Drenthe,VBO,6.534253,52.726529
Meester Kosterweg,4,,,7914RG,Noordscheschut,Hoogeveen,Drenthe,VBO,6.537861,52.725209
Meester Kosterweg,6,,,7914RG,Noordscheschut,Hoogeveen,Drenthe,VBO,6.537880,52.725388
Meester Kosterweg,8,,,7914RG,Noordscheschut,Hoogeveen,Drenthe,VBO,6.538251,52.725411
Meester Kosterweg,10,,,7914RG,Noordscheschut,Hoogeveen,Drenthe,VBO,6.538260,52.725214
Meester Kosterweg,12,,,7914RG,Noordscheschut,Hoogeveen,Drenthe,VBO,6.538601,52.725201
Meester Kosterweg,14,,,7914RG,Noordscheschut,Hoogeveen,Drenthe,VBO,6.538650,52.725399
Meester Kosterweg,16,,,7914RG,Noordscheschut,Hoogeveen,Drenthe,VBO,6.538975,52.725386
Meester Kosterweg,18,,,7914RG,Noordscheschut,Hoogeveen,Drenthe,VBO,6.538882,52.725226
Meester Kosterweg,20,,,7914RG,Noordscheschut,Hoogeveen,Drenthe,VBO,6.539185,52.724926
Meester Kosterweg,22,,,7914RG,Noordscheschut,Hoogeveen,Drenthe,VBO,6.539295,52.725150
Meester Kosterweg,24,,,7914RG,Noordscheschut,Hoogeveen,Drenthe,VBO,6.539389,52.725364
Meester Kosterweg,26,,,7914RG,Noordscheschut,Hoogeveen,Drenthe,VBO,6.539626,52.725362
Meester Kosterweg,28,,,7914RG,Noordscheschut,Hoogeveen,Drenthe,VBO,6.539679,52.725101
Meester Kosterweg,30,,,7914RG,Noordscheschut,Hoogeveen,Drenthe,VBO,6.539628,52.724886
Meester Kosterweg,32,,,7914RG,Noordscheschut,Hoogeveen,Drenthe,VBO,6.539251,52.724593
Meester Kosterweg,34,,,7914RG,Noordscheschut,Hoogeveen,Drenthe,VBO,6.539250,52.724548
Meester Kosterweg,36,,,7914RG,Noordscheschut,Hoogeveen,Drenthe,VBO,6.539234,52.724503
Meester Kosterweg,38,,,7914RG,Noordscheschut,Hoogeveen,Drenthe,VBO,6.539232,52.724458
Meester Kosterweg,40,,,7914RG,Noordscheschut,Hoogeveen,Drenthe,VBO,6.539231,52.724413
Meester Kosterweg,42,,,7914RG,Noordscheschut,Hoogeveen,Drenthe,VBO,6.539230,52.724359
Meester Kosterweg,44,,,7914RG,Noordscheschut,Hoogeveen,Drenthe,VBO,6.539214,52.724315
Meester Kosterweg,46,,,7914RG,Noordscheschut,Hoogeveen,Drenthe,VBO,6.539213,52.724270
Meester Kosterweg,48,,,7914RG,Noordscheschut,Hoogeveen,Drenthe,VBO,6.539211,52.724225
Meester Kosterweg,50,,,7914RG,Noordscheschut,Hoogeveen,Drenthe,VBO,6.539283,52.724143
Meester Kosterweg,52,,,7914RG,Noordscheschut,Hoogeveen,Drenthe,VBO,6.539357,52.724142
Meester Kosterweg,54,,,7914RG,Noordscheschut,Hoogeveen,Drenthe,VBO,6.539431,52.724142
Meester Kosterweg,56,,,7914RG,Noordscheschut,Hoogeveen,Drenthe,VBO,6.539505,52.724132
Meester Kosterweg,58,,,7914RG,Noordscheschut,Hoogeveen,Drenthe,VBO,6.539579,52.724131
Meester Kosterweg,60,,,7914RG,Noordscheschut,Hoogeveen,Drenthe,VBO,6.539525,52.723772
Meester Kosterweg,62,,,7914RG,Noordscheschut,Hoogeveen,Drenthe,VBO,6.539451,52.723773
Meester Kosterweg,64,,,7914RG,Noordscheschut,Hoogeveen,Drenthe,VBO,6.539377,52.723783
Meester Kosterweg,66,,,7914RG,Noordscheschut,Hoogeveen,Drenthe,VBO,6.539303,52.723783
Meester Kosterweg,68,,,7914RG,Noordscheschut,Hoogeveen,Drenthe,VBO,6.539229,52.723784
Meester Kosterweg,70,,,7914RG,Noordscheschut,Hoogeveen,Drenthe,VBO,6.539141,52.723785
Meester Kosterweg,72,,,7914RG,Noordscheschut,Hoogeveen,Drenthe,VBO,6.539067,52.723786
Meester Kosterweg,1,,,7914RH,Noordscheschut,Hoogeveen,Drenthe,VBO,6.537503,52.725140
Meester Kosterweg,3,,,7914RH,Noordscheschut,Hoogeveen,Drenthe,VBO,6.537520,52.725194
Meester Kosterweg,5,a,,7914RH,Noordscheschut,Hoogeveen,Drenthe,VBO,6.537462,52.725404
Meester Kosterweg,5,,,7914RH,Noordscheschut,Hoogeveen,Drenthe,VBO,6.537508,52.725357
Meester Kosterweg,7,,,7914RH,Noordscheschut,Hoogeveen,Drenthe,VBO,6.540087,52.725421
Meester Kosterweg,9,,,7914RH,Noordscheschut,Hoogeveen,Drenthe,VBO,6.540068,52.725286
Meester Kosterweg,11,,,7914RH,Noordscheschut,Hoogeveen,Drenthe,VBO,6.540067,52.725223
Meester Kosterweg,13,,,7914RH,Noordscheschut,Hoogeveen,Drenthe,VBO,6.540049,52.725106
Meester Kosterweg,15,,,7914RH,Noordscheschut,Hoogeveen,Drenthe,VBO,6.540047,52.725053
Meester Kosterweg,17,,,7914RH,Noordscheschut,Hoogeveen,Drenthe,VBO,6.540029,52.724918
Meester Kosterweg,21,,,7914RH,Noordscheschut,Hoogeveen,Drenthe,VBO,6.540050,52.724576
Meester Kosterweg,23,,,7914RH,Noordscheschut,Hoogeveen,Drenthe,VBO,6.540005,52.724550
Meester Kosterweg,25,,,7914RH,Noordscheschut,Hoogeveen,Drenthe,VBO,6.539988,52.724496
Meester Kosterweg,27,,,7914RH,Noordscheschut,Hoogeveen,Drenthe,VBO,6.539987,52.724442
Meester Kosterweg,29,,,7914RH,Noordscheschut,Hoogeveen,Drenthe,VBO,6.539986,52.724397
Meester Kosterweg,31,,,7914RH,Noordscheschut,Hoogeveen,Drenthe,VBO,6.539984,52.724334
Meester Kosterweg,49,,,7914RH,Noordscheschut,Hoogeveen,Drenthe,VBO,6.540596,52.723112
Meester Kosterweg,51,,,7914RH,Noordscheschut,Hoogeveen,Drenthe,VBO,6.539712,52.723546
Meester Kosterweg,53,,,7914RH,Noordscheschut,Hoogeveen,Drenthe,VBO,6.539401,52.723558
Meester Kosterweg,55,,,7914RH,Noordscheschut,Hoogeveen,Drenthe,VBO,6.539283,52.723559
Meester Sterkenweg,1,a,,7914RJ,Noordscheschut,Hoogeveen,Drenthe,VBO,6.535571,52.725949
Meester Sterkenweg,1,,,7914RJ,Noordscheschut,Hoogeveen,Drenthe,VBO,6.537068,52.725486
Meester Sterkenweg,2,,,7914RJ,Noordscheschut,Hoogeveen,Drenthe,VBO,6.535314,52.725745
Meester Sterkenweg,3,,,7914RJ,Noordscheschut,Hoogeveen,Drenthe,VBO,6.537002,52.725217
Meester Sterkenweg,4,,,7914RJ,Noordscheschut,Hoogeveen,Drenthe,VBO,6.535491,52.725735
Meester Sterkenweg,5,,,7914RJ,Noordscheschut,Hoogeveen,Drenthe,VBO,6.536986,52.725154
Meester Sterkenweg,6,,,7914RJ,Noordscheschut,Hoogeveen,Drenthe,VBO,6.535682,52.725697
Meester Sterkenweg,8,,,7914RJ,Noordscheschut,Hoogeveen,Drenthe,VBO,6.535756,52.725696
Meester Sterkenweg,10,,,7914RJ,Noordscheschut,Hoogeveen,Drenthe,VBO,6.536021,52.725613
Meester Sterkenweg,12,,,7914RJ,Noordscheschut,Hoogeveen,Drenthe,VBO,6.536256,52.725539
Meester Sterkenweg,14,,,7914RJ,Noordscheschut,Hoogeveen,Drenthe,VBO,6.536330,52.725538
Meester Sterkenweg,16,,,7914RJ,Noordscheschut,Hoogeveen,Drenthe,VBO,6.536640,52.725526
Meester Sterkenweg,18,,,7914RJ,Noordscheschut,Hoogeveen,Drenthe,VBO,6.536683,52.725463
Meester Sterkenweg,20,,,7914RJ,Noordscheschut,Hoogeveen,Drenthe,VBO,6.536651,52.725364
Meester Sterkenweg,22,,,7914RJ,Noordscheschut,Hoogeveen,Drenthe,VBO,6.536664,52.725310
Meester Sterkenweg,24,,,7914RJ,Noordscheschut,Hoogeveen,Drenthe,VBO,6.536632,52.725211
Meester Sterkenweg,26,,,7914RJ,Noordscheschut,Hoogeveen,Drenthe,VBO,6.536645,52.725157
Krommejakken,1,,,7914RK,Noordscheschut,Hoogeveen,Drenthe,VBO,6.544861,52.725150
Krommejakken,2,,,7914RK,Noordscheschut,Hoogeveen,Drenthe,VBO,6.544284,52.724607
Krommejakken,4,,,7914RK,Noordscheschut,Hoogeveen,Drenthe,VBO,6.544300,52.725200
Molenweg,43,,,7914RS,Noordscheschut,Hoogeveen,Drenthe,VBO,6.536125,52.729027
Molenweg,45,,,7914RS,Noordscheschut,Hoogeveen,Drenthe,VBO,6.536229,52.729026
Molenweg,47,,,7914RS,Noordscheschut,Hoogeveen,Drenthe,VBO,6.536391,52.729024
Molenweg,49,,,7914RS,Noordscheschut,Hoogeveen,Drenthe,VBO,6.536480,52.729015
Molenweg,51,,,7914RS,Noordscheschut,Hoogeveen,Drenthe,VBO,6.536658,52.729013
Molenweg,53,,,7914RS,Noordscheschut,Hoogeveen,Drenthe,VBO,6.536746,52.729003
Molenweg,55,,,7914RS,Noordscheschut,Hoogeveen,Drenthe,VBO,6.535991,52.727878
Molenweg,57,,,7914RS,Noordscheschut,Hoogeveen,Drenthe,VBO,6.535795,52.727727
Molenweg,59,,,7914RS,Noordscheschut,Hoogeveen,Drenthe,VBO,6.535681,52.727351
Molenweg,61,,,7914RS,Noordscheschut,Hoogeveen,Drenthe,VBO,6.535630,52.727082
Molenweg,63,,,7914RS,Noordscheschut,Hoogeveen,Drenthe,VBO,6.535536,52.726885
Molenweg,65,,,7914RS,Noordscheschut,Hoogeveen,Drenthe,VBO,6.535726,52.726811
Molenweg,67,,,7914RS,Noordscheschut,Hoogeveen,Drenthe,VBO,6.536038,52.726826
Molenweg,69,,,7914RS,Noordscheschut,Hoogeveen,Drenthe,VBO,6.535414,52.726733
Drostenraai,5,,,7914RT,Noordscheschut,Hoogeveen,Drenthe,VBO,6.535348,52.726491
Drostenraai,7,,,7914RT,Noordscheschut,Hoogeveen,Drenthe,VBO,6.535494,52.726418
Drostenraai,9,,,7914RT,Noordscheschut,Hoogeveen,Drenthe,VBO,6.535640,52.726353
Drostenraai,11,,,7914RT,Noordscheschut,Hoogeveen,Drenthe,VBO,6.535772,52.726280
Drostenraai,13,a,,7914RT,Noordscheschut,Hoogeveen,Drenthe,VBO,6.536081,52.726214
Drostenraai,13,,,7914RT,Noordscheschut,Hoogeveen,Drenthe,VBO,6.535859,52.726216
Drostenraai,15,,,7914RT,Noordscheschut,Hoogeveen,Drenthe,VBO,6.536298,52.726041
Drostenraai,17,,,7914RT,Noordscheschut,Hoogeveen,Drenthe,VBO,6.536372,52.726032
Drostenraai,21,,,7914RT,Noordscheschut,Hoogeveen,Drenthe,VBO,6.536938,52.726170
Drostenraai,23,,,7914RT,Noordscheschut,Hoogeveen,Drenthe,VBO,6.537142,52.726042
Drostenraai,25,,,7914RT,Noordscheschut,Hoogeveen,Drenthe,VBO,6.537305,52.726032
Drostenraai,27,,,7914RT,Noordscheschut,Hoogeveen,Drenthe,VBO,6.537588,52.726101
Drostenraai,29,,,7914RT,Noordscheschut,Hoogeveen,Drenthe,VBO,6.537896,52.726008
Drostenraai,31,a,,7914RT,Noordscheschut,Hoogeveen,Drenthe,VBO,6.538218,52.726044
Drostenraai,31,b,,7914RT,Noordscheschut,Hoogeveen,Drenthe,VBO,6.538335,52.726217
Drostenraai,31,,,7914RT,Noordscheschut,Hoogeveen,Drenthe,VBO,6.538167,52.726009
Drostenraai,33,a,,7914RT,Noordscheschut,Hoogeveen,Drenthe,VBO,6.538830,52.726134
Drostenraai,33,b,,7914RT,Noordscheschut,Hoogeveen,Drenthe,VBO,6.538835,52.726167
Drostenraai,33,,,7914RT,Noordscheschut,Hoogeveen,Drenthe,VBO,6.538831,52.726098
Drostenraai,35,,,7914RT,Noordscheschut,Hoogeveen,Drenthe,VBO,6.539110,52.726005
Drostenraai,37,,,7914RT,Noordscheschut,Hoogeveen,Drenthe,VBO,6.539229,52.726004
Drostenraai,39,b,,7914RT,Noordscheschut,Hoogeveen,Drenthe,VBO,6.540010,52.728127
Drostenraai,39,c,,7914RT,Noordscheschut,Hoogeveen,Drenthe,VBO,6.540103,52.727734
Drostenraai,39,d,,7914RT,Noordscheschut,Hoogeveen,Drenthe,VBO,6.540098,52.727664
Drostenraai,39,,,7914RT,Noordscheschut,Hoogeveen,Drenthe,VBO,6.539554,52.725983
Drostenraai,41,,,7914RT,Noordscheschut,Hoogeveen,Drenthe,VBO,6.540016,52.726104
Drostenraai,43,,,7914RT,Noordscheschut,Hoogeveen,Drenthe,VBO,6.540399,52.726038
Drostenraai,45,,,7914RV,Noordscheschut,Hoogeveen,Drenthe,VBO,6.540796,52.725953
Drostenraai,47,a,,7914RV,Noordscheschut,Hoogeveen,Drenthe,VBO,6.541285,52.725939
Drostenraai,47,,,7914RV,Noordscheschut,Hoogeveen,Drenthe,VBO,6.541033,52.725942
Drostenraai,49,a,,7914RV,Noordscheschut,Hoogeveen,Drenthe,VBO,6.542156,52.725877
Drostenraai,49,b,,7914RV,Noordscheschut,Hoogeveen,Drenthe,VBO,6.542556,52.725864
Drostenraai,49,,,7914RV,Noordscheschut,Hoogeveen,Drenthe,VBO,6.541742,52.725899
Drostenraai,51,,,7914RV,Noordscheschut,Hoogeveen,Drenthe,VBO,6.543044,52.725841
Drostenraai,53,,,7914RV,Noordscheschut,Hoogeveen,Drenthe,VBO,6.543739,52.725835
Drostenraai,55,,,7914RV,Noordscheschut,Hoogeveen,Drenthe,VBO,6.543828,52.725834
Drostenraai,57,,,7914RV,Noordscheschut,Hoogeveen,Drenthe,VBO,6.544196,52.725767
Drostenraai,59,a,,7914RV,Noordscheschut,Hoogeveen,Drenthe,VBO,6.544641,52.725799
Drostenraai,59,,,7914RV,Noordscheschut,Hoogeveen,Drenthe,VBO,6.544567,52.725800
Drostenraai,61,,,7914RV,Noordscheschut,Hoogeveen,Drenthe,VBO,6.545100,52.725776
Drostenraai,63,T,,7914RV,Noordscheschut,Hoogeveen,Drenthe,VBO,6.545237,52.725845
Drostenraai,69,,,7914RV,Noordscheschut,Hoogeveen,Drenthe,VBO,6.546298,52.727994
Drostenraai,71,a,,7914RV,Noordscheschut,Hoogeveen,Drenthe,VBO,6.545888,52.725931
Drostenraai,71,,,7914RV,Noordscheschut,Hoogeveen,Drenthe,VBO,6.546185,52.726251
Drostenraai,73,,,7914RV,Noordscheschut,Hoogeveen,Drenthe,VBO,6.545887,52.725868
Drostenraai,75,,,7914RV,Noordscheschut,Hoogeveen,Drenthe,VBO,6.545870,52.725796
Drostenraai,77,a,,7914RV,Noordscheschut,Hoogeveen,Drenthe,VBO,6.545881,52.725643
Drostenraai,77,,,7914RV,Noordscheschut,Hoogeveen,Drenthe,VBO,6.545868,52.725733
Drostenraai,79,,,7914RV,Noordscheschut,Hoogeveen,Drenthe,VBO,6.545969,52.725642
Drostenraai,81,,,7914RV,Noordscheschut,Hoogeveen,Drenthe,VBO,6.547213,52.725630
Drostenraai,83,,,7914RV,Noordscheschut,Hoogeveen,Drenthe,VBO,6.547434,52.725610
Schoolpad,1,,1,7914TA,Noordscheschut,Hoogeveen,Drenthe,VBO,6.526518,52.742105
Schoolpad,1,,2,7914TA,Noordscheschut,Hoogeveen,Drenthe,VBO,6.526756,52.741174
Schoolpad,1,,,7914TA,Noordscheschut,Hoogeveen,Drenthe,VBO,6.527688,52.738195
Schoolpad,2,,,7914TA,Noordscheschut,Hoogeveen,Drenthe,VBO,6.525220,52.740654
Schoolpad,3,,,7914TA,Noordscheschut,Hoogeveen,Drenthe,VBO,6.528015,52.737661
Schoolpad,4,,,7914TA,Noordscheschut,Hoogeveen,Drenthe,VBO,6.525984,52.739316
Schoolpad,5,,,7914TA,Noordscheschut,Hoogeveen,Drenthe,VBO,6.529769,52.736809
Schoolpad,6,,,7914TA,Noordscheschut,Hoogeveen,Drenthe,VBO,6.527459,52.737379
Schoolpad,7,,,7914TA,Noordscheschut,Hoogeveen,Drenthe,VBO,6.528374,52.736103
Schoolpad,8,,,7914TA,Noordscheschut,Hoogeveen,Drenthe,VBO,6.527473,52.737325
Schoolpad,9,,,7914TA,Noordscheschut,Hoogeveen,Drenthe,VBO,6.527252,52.735664
Schoolpad,10,,,7914TA,Noordscheschut,Hoogeveen,Drenthe,VBO,6.526871,52.736405
Schoolpad,12,,,7914TA,Noordscheschut,Hoogeveen,Drenthe,VBO,6.524903,52.735876
Schoolpad,14,,,7914TA,Noordscheschut,Hoogeveen,Drenthe,VBO,6.525716,52.734532
Schoolpad,16,,,7914TA,Noordscheschut,Hoogeveen,Drenthe,VBO,6.527069,52.734309
Europaweg,25,,,7914TB,Noordscheschut,Hoogeveen,Drenthe,VBO,6.523211,52.737438
Europaweg,27,,,7914TB,Noordscheschut,Hoogeveen,Drenthe,VBO,6.524130,52.737465
Europaweg,29,,,7914TB,Noordscheschut,Hoogeveen,Drenthe,VBO,6.526051,52.737905
Europaweg,35,,,7914TB,Noordscheschut,Hoogeveen,Drenthe,VBO,6.529349,52.738361
Europaweg,37,,,7914TB,Noordscheschut,Hoogeveen,Drenthe,VBO,6.529917,52.738880
Europaweg,32,,,7914TC,Noordscheschut,Hoogeveen,Drenthe,VBO,6.522785,52.736992
Achteromsedijk,9,,,7914TE,Noordscheschut,Hoogeveen,Drenthe,VBO,6.524337,52.734047
Achteromsedijk,11,,,7914TE,Noordscheschut,Hoogeveen,Drenthe,VBO,6.526884,52.734274
Achteromsedijk,15,,,7914TE,Noordscheschut,Hoogeveen,Drenthe,VBO,6.529686,52.733619
Achteromsedijk,17,,,7914TE,Noordscheschut,Hoogeveen,Drenthe,VBO,6.529946,52.734497
Achteromsedijk,19,,,7914TE,Noordscheschut,Hoogeveen,Drenthe,VBO,6.532503,52.734338
Achteromsedijk,21,,,7914TE,Noordscheschut,Hoogeveen,Drenthe,VBO,6.532460,52.734392
Pesserdijk,14,,,7914TG,Noordscheschut,Hoogeveen,Drenthe,VBO,6.520584,52.741210
Pesserdijk,16,,,7914TG,Noordscheschut,Hoogeveen,Drenthe,VBO,6.522376,52.741229
Pesserdijk,20,,,7914TG,Noordscheschut,Hoogeveen,Drenthe,VBO,6.522958,52.741943
Pesserdijk,22,,,7914TG,Noordscheschut,Hoogeveen,Drenthe,VBO,6.524657,52.741792
Pesserdijk,26,,,7914TG,Noordscheschut,Hoogeveen,Drenthe,VBO,6.525209,52.741966
Krakeel,31,a,,7914TH,Noordscheschut,Hoogeveen,Drenthe,VBO,6.520353,52.719103
Krakeel,31,,,7914TH,Noordscheschut,Hoogeveen,Drenthe,VBO,6.519847,52.719000
Krakeel,33,,,7914TH,Noordscheschut,Hoogeveen,Drenthe,VBO,6.521401,52.718985
Krakeel,35,,,7914TH,Noordscheschut,Hoogeveen,Drenthe,VBO,6.522032,52.719011
Krakeel,37,,,7914TH,Noordscheschut,Hoogeveen,Drenthe,VBO,6.523840,52.718845
Krakeel,39,,,7914TH,Noordscheschut,Hoogeveen,Drenthe,VBO,6.524861,52.718835
Krakeel,41,,,7914TH,Noordscheschut,Hoogeveen,Drenthe,VBO,6.525821,52.718745
Krakeel,43,,,7914TH,Noordscheschut,Hoogeveen,Drenthe,VBO,6.525909,52.718745
Krakeel,45,,,7914TH,Noordscheschut,Hoogeveen,Drenthe,VBO,6.526399,52.718794
Krakeel,47,,,7914TH,Noordscheschut,Hoogeveen,Drenthe,VBO,6.526532,52.718792
Krakeel,49,,,7914TH,Noordscheschut,Hoogeveen,Drenthe,VBO,6.527582,52.718764
Krakeel,53,,,7914TH,Noordscheschut,Hoogeveen,Drenthe,VBO,6.530079,52.718579
Krakeel,55,,,7914TH,Noordscheschut,Hoogeveen,Drenthe,VBO,6.531707,52.718572
Krakeel,57,,,7914TH,Noordscheschut,Hoogeveen,Drenthe,VBO,6.535730,52.718470
Krakeel,59,,,7914TH,Noordscheschut,Hoogeveen,Drenthe,VBO,6.536927,52.718405
Krakeel,22,,,7914TJ,Noordscheschut,Hoogeveen,Drenthe,VBO,6.519308,52.718745
Krakeel,24,,,7914TJ,Noordscheschut,Hoogeveen,Drenthe,VBO,6.519360,52.718741
Krakeel,26,a,,7914TJ,Noordscheschut,Hoogeveen,Drenthe,VBO,6.520461,52.718689
Krakeel,26,b,,7914TJ,Noordscheschut,Hoogeveen,Drenthe,VBO,6.520535,52.718679
Krakeel,26,c,,7914TJ,Noordscheschut,Hoogeveen,Drenthe,VBO,6.520483,52.718280
Krakeel,26,,,7914TJ,Noordscheschut,Hoogeveen,Drenthe,VBO,6.519839,52.718659
Krakeel,28,,,7914TJ,Noordscheschut,Hoogeveen,Drenthe,VBO,6.521437,52.718652
Krakeel,30,,,7914TJ,Noordscheschut,Hoogeveen,Drenthe,VBO,6.521851,52.718648
Krakeel,34,,,7914TJ,Noordscheschut,Hoogeveen,Drenthe,VBO,6.522975,52.718584
Krakeel,36,,,7914TJ,Noordscheschut,Hoogeveen,Drenthe,VBO,6.525134,52.718509
Krakeel,38,,,7914TJ,Noordscheschut,Hoogeveen,Drenthe,VBO,6.526021,52.718474
Krakeel,40,,,7914TJ,Noordscheschut,Hoogeveen,Drenthe,VBO,6.527523,52.717048
Krakeel,42,,,7914TJ,Noordscheschut,Hoogeveen,Drenthe,VBO,6.528326,52.718326
Krakeel,44,a,,7914TJ,Noordscheschut,Hoogeveen,Drenthe,VBO,6.529700,52.718232
Krakeel,44,,,7914TJ,Noordscheschut,Hoogeveen,Drenthe,VBO,6.528429,52.718325
Krakeel,46,,,7914TJ,Noordscheschut,Hoogeveen,Drenthe,VBO,6.531772,52.718239
Krakeel,48,,,7914TJ,Noordscheschut,Hoogeveen,Drenthe,VBO,6.532290,52.718216
Krakeel,50,a,,7914TJ,Noordscheschut,Hoogeveen,Drenthe,VBO,6.533773,52.717988
Krakeel,50,,,7914TJ,Noordscheschut,Hoogeveen,Drenthe,VBO,6.532364,52.718215
Krakeel,52,a,,7914TJ,Noordscheschut,Hoogeveen,Drenthe,VBO,6.535445,52.717763
Krakeel,52,,,7914TJ,Noordscheschut,Hoogeveen,Drenthe,VBO,6.534388,52.718079
Krakeel,54,a,,7914TJ,Noordscheschut,Hoogeveen,Drenthe,VBO,6.537048,52.717936
Krakeel,54,,,7914TJ,Noordscheschut,Hoogeveen,Drenthe,VBO,6.536562,52.718022
Krakeel,56,,,7914TJ,Noordscheschut,Hoogeveen,Drenthe,VBO,6.537243,52.718024
Coevorderstraatweg,7,,,7914TK,Noordscheschut,Hoogeveen,Drenthe,VBO,6.521883,52.721587
Coevorderstraatweg,9,,,7914TK,Noordscheschut,Hoogeveen,Drenthe,VBO,6.523850,52.721523
Coevorderstraatweg,11,,,7914TK,Noordscheschut,Hoogeveen,Drenthe,VBO,6.523953,52.721513
Coevorderstraatweg,13,,,7914TK,Noordscheschut,Hoogeveen,Drenthe,VBO,6.526151,52.722346
Coevorderstraatweg,15,a,,7914TK,Noordscheschut,Hoogeveen,Drenthe,VBO,6.528363,52.721634
Coevorderstraatweg,15,,,7914TK,Noordscheschut,Hoogeveen,Drenthe,VBO,6.528331,52.721355
Coevorderstraatweg,17,,,7914TK,Noordscheschut,Hoogeveen,Drenthe,VBO,6.528671,52.721342
Coevorderstraatweg,19,,,7914TK,Noordscheschut,Hoogeveen,Drenthe,VBO,6.529011,52.721330
Coevorderstraatweg,21,T,,7914TK,Noordscheschut,Hoogeveen,Drenthe,VBO,6.529326,52.721612
Coevorderstraatweg,21,,,7914TK,Noordscheschut,Hoogeveen,Drenthe,VBO,6.529336,52.721318
Coevorderstraatweg,23,,,7914TK,Noordscheschut,Hoogeveen,Drenthe,VBO,6.529839,52.721295
Coevorderstraatweg,25,,,7914TK,Noordscheschut,Hoogeveen,Drenthe,VBO,6.530075,52.721275
Coevorderstraatweg,27,a,,7914TK,Noordscheschut,Hoogeveen,Drenthe,VBO,6.530800,52.721241
Coevorderstraatweg,27,,,7914TK,Noordscheschut,Hoogeveen,Drenthe,VBO,6.530401,52.721272
Coevorderstraatweg,29,,,7914TK,Noordscheschut,Hoogeveen,Drenthe,VBO,6.531110,52.721229
Coevorderstraatweg,31,,,7914TK,Noordscheschut,Hoogeveen,Drenthe,VBO,6.531199,52.721228
Coevorderstraatweg,33,,,7914TK,Noordscheschut,Hoogeveen,Drenthe,VBO,6.531495,52.721216
Coevorderstraatweg,35,,,7914TK,Noordscheschut,Hoogeveen,Drenthe,VBO,6.531568,52.721207
Coevorderstraatweg,75,T,,7914TK,Noordscheschut,Hoogeveen,Drenthe,VBO,6.538484,52.719135
Coevorderstraatweg,37,,,7914TL,Noordscheschut,Hoogeveen,Drenthe,VBO,6.531731,52.721205
Coevorderstraatweg,39,,,7914TL,Noordscheschut,Hoogeveen,Drenthe,VBO,6.531805,52.721196
Coevorderstraatweg,41,,,7914TL,Noordscheschut,Hoogeveen,Drenthe,VBO,6.531983,52.721194
Coevorderstraatweg,43,,,7914TL,Noordscheschut,Hoogeveen,Drenthe,VBO,6.532352,52.721172
Coevorderstraatweg,45,,,7914TL,Noordscheschut,Hoogeveen,Drenthe,VBO,6.532736,52.721151
Coevorderstraatweg,47,,,7914TL,Noordscheschut,Hoogeveen,Drenthe,VBO,6.532943,52.721140
Coevorderstraatweg,49,,,7914TL,Noordscheschut,Hoogeveen,Drenthe,VBO,6.533032,52.721139
Coevorderstraatweg,51,,,7914TL,Noordscheschut,Hoogeveen,Drenthe,VBO,6.533269,52.721127
Coevorderstraatweg,53,,,7914TL,Noordscheschut,Hoogeveen,Drenthe,VBO,6.533357,52.721127
Coevorderstraatweg,55,,,7914TL,Noordscheschut,Hoogeveen,Drenthe,VBO,6.533535,52.721116
Coevorderstraatweg,57,T,,7914TL,Noordscheschut,Hoogeveen,Drenthe,VBO,6.533651,52.721025
Coevorderstraatweg,59,,,7914TL,Noordscheschut,Hoogeveen,Drenthe,VBO,6.533786,52.721105
Coevorderstraatweg,61,,,7914TL,Noordscheschut,Hoogeveen,Drenthe,VBO,6.533875,52.721104
Coevorderstraatweg,63,,,7914TL,Noordscheschut,Hoogeveen,Drenthe,VBO,6.534301,52.721001
Coevorderstraatweg,65,,,7914TL,Noordscheschut,Hoogeveen,Drenthe,VBO,6.534877,52.720941
Coevorderstraatweg,69,,,7914TL,Noordscheschut,Hoogeveen,Drenthe,VBO,6.536021,52.720544
Coevorderstraatweg,71,,,7914TL,Noordscheschut,Hoogeveen,Drenthe,VBO,6.536285,52.720433
Coevorderstraatweg,8,,,7914TM,Noordscheschut,Hoogeveen,Drenthe,VBO,6.525732,52.721056
Coevorderstraatweg,12,,,7914TM,Noordscheschut,Hoogeveen,Drenthe,VBO,6.526117,52.721025
Coevorderstraatweg,14,,,7914TM,Noordscheschut,Hoogeveen,Drenthe,VBO,6.527106,52.720944
Coevorderstraatweg,16,,,7914TM,Noordscheschut,Hoogeveen,Drenthe,VBO,6.527357,52.720933
Coevorderstraatweg,18,,,7914TM,Noordscheschut,Hoogeveen,Drenthe,VBO,6.527624,52.720921
Coevorderstraatweg,22,a,,7914TM,Noordscheschut,Hoogeveen,Drenthe,VBO,6.529207,52.720915
Coevorderstraatweg,22,b,,7914TM,Noordscheschut,Hoogeveen,Drenthe,VBO,6.528778,52.720910
Coevorderstraatweg,22,c,,7914TM,Noordscheschut,Hoogeveen,Drenthe,VBO,6.528409,52.720948
Coevorderstraatweg,22,,,7914TM,Noordscheschut,Hoogeveen,Drenthe,VBO,6.528155,52.720958
Coevorderstraatweg,24,a,,7914TM,Noordscheschut,Hoogeveen,Drenthe,VBO,6.530201,52.720861
Coevorderstraatweg,24,b,,7914TM,Noordscheschut,Hoogeveen,Drenthe,VBO,6.530412,52.720873
Coevorderstraatweg,24,,,7914TM,Noordscheschut,Hoogeveen,Drenthe,VBO,6.529908,52.720531
Coevorderstraatweg,26,,,7914TM,Noordscheschut,Hoogeveen,Drenthe,VBO,6.530599,52.720928
Coevorderstraatweg,28,a,,7914TM,Noordscheschut,Hoogeveen,Drenthe,VBO,6.530963,52.720709
Coevorderstraatweg,28,,,7914TM,Noordscheschut,Hoogeveen,Drenthe,VBO,6.530966,52.720826
Coevorderstraatweg,32,,,7914TM,Noordscheschut,Hoogeveen,Drenthe,VBO,6.532045,52.720762
Coevorderstraatweg,34,,,7914TM,Noordscheschut,Hoogeveen,Drenthe,VBO,6.532519,52.720775
Coevorderstraatweg,38,a,,7914TM,Noordscheschut,Hoogeveen,Drenthe,VBO,6.533701,52.719308
Coevorderstraatweg,38,,,7914TM,Noordscheschut,Hoogeveen,Drenthe,VBO,6.533125,52.720742
Coevorderstraatweg,40,,,7914TM,Noordscheschut,Hoogeveen,Drenthe,VBO,6.534024,52.720599
Coevorderstraatweg,42,,,7914TM,Noordscheschut,Hoogeveen,Drenthe,VBO,6.534250,52.720741
Coevorderstraatweg,44,,,7914TM,Noordscheschut,Hoogeveen,Drenthe,VBO,6.534472,52.720729
Coevorderstraatweg,46,,,7914TM,Noordscheschut,Hoogeveen,Drenthe,VBO,6.534721,52.720619
Coevorderstraatweg,50,,,7914TM,Noordscheschut,Hoogeveen,Drenthe,VBO,6.538917,52.718655
Modderwijk,1,,,7914TN,Noordscheschut,Hoogeveen,Drenthe,VBO,6.536801,52.720374
Modderwijk,3,a,,7914TN,Noordscheschut,Hoogeveen,Drenthe,VBO,6.541855,52.721161
Modderwijk,3,,,7914TN,Noordscheschut,Hoogeveen,Drenthe,VBO,6.541213,52.720395
Modderwijk,5,,,7914TN,Noordscheschut,Hoogeveen,Drenthe,VBO,6.546073,52.720042
Modderwijk,7,a,,7914TN,Noordscheschut,Hoogeveen,Drenthe,VBO,6.548794,52.719943
Modderwijk,7,,,7914TN,Noordscheschut,Hoogeveen,Drenthe,VBO,6.548661,52.719945
Calkoenswijk,2,,,7914TP,Noordscheschut,Hoogeveen,Drenthe,VBO,6.549092,52.721136
Oude wijk,1,,,7914TR,Noordscheschut,Hoogeveen,Drenthe,VBO,6.543982,52.722678
Oude wijk,4,,,7914TR,Noordscheschut,Hoogeveen,Drenthe,VBO,6.544286,52.722432
Oude wijk,5,,,7914TR,Noordscheschut,Hoogeveen,Drenthe,VBO,6.546912,52.722658
Oude wijk,6,,,7914TR,Noordscheschut,Hoogeveen,Drenthe,VBO,6.544698,52.722347
Oude wijk,8,,,7914TR,Noordscheschut,Hoogeveen,Drenthe,VBO,6.546947,52.722307
Krommewijk,1,,,7914TS,Noordscheschut,Hoogeveen,Drenthe,VBO,6.544120,52.723988
Schooldijkje,30,,,7914TT,Noordscheschut,Hoogeveen,Drenthe,VBO,6.522866,52.722194
Schooldijkje,50,,,7914TT,Noordscheschut,Hoogeveen,Drenthe,VBO,6.523164,52.724199
Schooldijkje,52,,,7914TT,Noordscheschut,Hoogeveen,Drenthe,VBO,6.523166,52.724262
Schooldijkje,54,,,7914TT,Noordscheschut,Hoogeveen,Drenthe,VBO,6.523184,52.724370
Schooldijkje,56,,,7914TT,Noordscheschut,Hoogeveen,Drenthe,VBO,6.523185,52.724433
Schooldijkje,58,,,7914TT,Noordscheschut,Hoogeveen,Drenthe,VBO,6.523129,52.724541
Schooldijkje,60,,,7914TT,Noordscheschut,Hoogeveen,Drenthe,VBO,6.523145,52.724604
Schooldijkje,62,,,7914TT,Noordscheschut,Hoogeveen,Drenthe,VBO,6.523148,52.724712
Schooldijkje,64,,,7914TT,Noordscheschut,Hoogeveen,Drenthe,VBO,6.523164,52.724765
Schooldijkje,66,,,7914TT,Noordscheschut,Hoogeveen,Drenthe,VBO,6.523167,52.724873
Schooldijkje,68,,,7914TT,Noordscheschut,Hoogeveen,Drenthe,VBO,6.523183,52.724927
Schooldijkje,70,a,,7914TT,Noordscheschut,Hoogeveen,Drenthe,VBO,6.523334,52.725042
Trambaan,2,,,7914TW,Noordscheschut,Hoogeveen,Drenthe,VBO,6.548011,52.723897
Weg om de Oost,1,a,,7914TX,Noordscheschut,Hoogeveen,Drenthe,VBO,6.518393,52.719427
Weg om de Oost,1,,,7914TX,Noordscheschut,Hoogeveen,Drenthe,VBO,6.517276,52.719168
Weg om de Oost,2,,,7914TX,Noordscheschut,Hoogeveen,Drenthe,VBO,6.519964,52.720644
Weg om de Oost,3,,,7914TX,Noordscheschut,Hoogeveen,Drenthe,VBO,6.518927,52.720024
Weg om de Oost,5,,,7914TX,Noordscheschut,Hoogeveen,Drenthe,VBO,6.519789,52.721886
Weg om de Oost,7,,,7914TX,Noordscheschut,Hoogeveen,Drenthe,VBO,6.520457,52.727146
Coevorderstraatweg,5,T,,7914XA,Noordscheschut,Hoogeveen,Drenthe,VBO,6.520466,52.721553
