openbareruimtenaam,huisnummer,huisletter,huisnummertoevoeging,postcode,woonplaatsnaam,gemeentenaam,provincienaam,typeadresseerbaarobject,longitude,latitude
Oldehof,2,,,7946AA,Wanneperveen,Steenwijkerland,Overijssel,VBO,6.124395,52.704627
Oldehof,3,,,7946AA,Wanneperveen,Steenwijkerland,Overijssel,VBO,6.124286,52.704322
Oldehof,4,,,7946AA,Wanneperveen,Steenwijkerland,Overijssel,VBO,6.124175,52.704763
Oldehof,5,,,7946AA,Wanneperveen,Steenwijkerland,Overijssel,VBO,6.124227,52.704358
Oldehof,6,,,7946AA,Wanneperveen,Steenwijkerland,Overijssel,VBO,6.124000,52.704935
Oldehof,7,,,7946AA,Wanneperveen,Steenwijkerland,Overijssel,VBO,6.124154,52.704395
Oldehof,8,,,7946AA,Wanneperveen,Steenwijkerland,Overijssel,VBO,6.123855,52.705097
Oldehof,9,,,7946AA,Wanneperveen,Steenwijkerland,Overijssel,VBO,6.123861,52.704585
Oldehof,10,,,7946AA,Wanneperveen,Steenwijkerland,Overijssel,VBO,6.123887,52.705259
Oldehof,11,,,7946AA,Wanneperveen,Steenwijkerland,Overijssel,VBO,6.123657,52.704775
Oldehof,12,,,7946AA,Wanneperveen,Steenwijkerland,Overijssel,VBO,6.123575,52.705189
Van Blankenweg,1,,,7946AB,Wanneperveen,Steenwijkerland,Overijssel,VBO,6.122259,52.703463
Van Blankenweg,2,,,7946AB,Wanneperveen,Steenwijkerland,Overijssel,VBO,6.122528,52.703632
Van Blankenweg,3,,,7946AB,Wanneperveen,Steenwijkerland,Overijssel,VBO,6.122231,52.703517
Van Blankenweg,4,,,7946AB,Wanneperveen,Steenwijkerland,Overijssel,VBO,6.122500,52.703677
Van Blankenweg,5,,,7946AB,Wanneperveen,Steenwijkerland,Overijssel,VBO,6.122173,52.703607
Van Blankenweg,6,,,7946AB,Wanneperveen,Steenwijkerland,Overijssel,VBO,6.122226,52.704101
Van Blankenweg,7,,,7946AB,Wanneperveen,Steenwijkerland,Overijssel,VBO,6.122144,52.703661
Van Blankenweg,8,,,7946AB,Wanneperveen,Steenwijkerland,Overijssel,VBO,6.122197,52.704146
Van Blankenweg,9,,,7946AB,Wanneperveen,Steenwijkerland,Overijssel,VBO,6.122087,52.703751
Van Blankenweg,11,,,7946AB,Wanneperveen,Steenwijkerland,Overijssel,VBO,6.122043,52.703805
Van Blankenweg,13,,,7946AB,Wanneperveen,Steenwijkerland,Overijssel,VBO,6.121985,52.703896
Van Blankenweg,15,,,7946AB,Wanneperveen,Steenwijkerland,Overijssel,VBO,6.121957,52.703950
Van Blankenweg,17,,,7946AB,Wanneperveen,Steenwijkerland,Overijssel,VBO,6.121899,52.704040
Van Blankenweg,19,,,7946AB,Wanneperveen,Steenwijkerland,Overijssel,VBO,6.121870,52.704085
Van Blankenweg,21,,,7946AB,Wanneperveen,Steenwijkerland,Overijssel,VBO,6.121798,52.704193
Siebenweg,1,,,7946AC,Wanneperveen,Steenwijkerland,Overijssel,VBO,6.122522,52.704153
Siebenweg,3,,,7946AC,Wanneperveen,Steenwijkerland,Overijssel,VBO,6.122597,52.704170
Siebenweg,5,,,7946AC,Wanneperveen,Steenwijkerland,Overijssel,VBO,6.122686,52.704179
Siebenweg,7,,,7946AC,Wanneperveen,Steenwijkerland,Overijssel,VBO,6.122774,52.704187
Siebenweg,9,,,7946AC,Wanneperveen,Steenwijkerland,Overijssel,VBO,6.122953,52.704249
Siebenweg,11,,,7946AC,Wanneperveen,Steenwijkerland,Overijssel,VBO,6.123013,52.704276
Siebenweg,13,,,7946AC,Wanneperveen,Steenwijkerland,Overijssel,VBO,6.123102,52.704302
Siebenweg,15,,,7946AC,Wanneperveen,Steenwijkerland,Overijssel,VBO,6.123176,52.704329
Siebenweg,17,,,7946AC,Wanneperveen,Steenwijkerland,Overijssel,VBO,6.123325,52.704382
Siebenweg,19,,,7946AC,Wanneperveen,Steenwijkerland,Overijssel,VBO,6.123400,52.704408
Siebenweg,21,,,7946AC,Wanneperveen,Steenwijkerland,Overijssel,VBO,6.123489,52.704435
Siebenweg,23,,,7946AC,Wanneperveen,Steenwijkerland,Overijssel,VBO,6.123563,52.704461
Siebenweg,25,,,7946AC,Wanneperveen,Steenwijkerland,Overijssel,VBO,6.123638,52.704488
Siebenweg,27,,,7946AC,Wanneperveen,Steenwijkerland,Overijssel,VBO,6.123727,52.704514
Siebenweg,2,,,7946AD,Wanneperveen,Steenwijkerland,Overijssel,VBO,6.122413,52.703830
Siebenweg,4,,,7946AD,Wanneperveen,Steenwijkerland,Overijssel,VBO,6.122488,52.703857
Siebenweg,6,,,7946AD,Wanneperveen,Steenwijkerland,Overijssel,VBO,6.122577,52.703874
Siebenweg,8,,,7946AD,Wanneperveen,Steenwijkerland,Overijssel,VBO,6.122741,52.703927
Siebenweg,10,,,7946AD,Wanneperveen,Steenwijkerland,Overijssel,VBO,6.122815,52.703953
Siebenweg,12,,,7946AD,Wanneperveen,Steenwijkerland,Overijssel,VBO,6.122889,52.703980
Siebenweg,14,,,7946AD,Wanneperveen,Steenwijkerland,Overijssel,VBO,6.123220,52.704083
Siebenweg,16,,,7946AD,Wanneperveen,Steenwijkerland,Overijssel,VBO,6.123425,52.704138
Siebenweg,18,,,7946AD,Wanneperveen,Steenwijkerland,Overijssel,VBO,6.123499,52.704165
Siebenweg,20,,,7946AD,Wanneperveen,Steenwijkerland,Overijssel,VBO,6.123588,52.704191
Siebenweg,22,,,7946AD,Wanneperveen,Steenwijkerland,Overijssel,VBO,6.123663,52.704218
Siebenweg,24,,,7946AD,Wanneperveen,Steenwijkerland,Overijssel,VBO,6.123827,52.704280
Siebenweg,26,,,7946AD,Wanneperveen,Steenwijkerland,Overijssel,VBO,6.123901,52.704306
Ds A.C. van Raalteweg,1,,,7946AE,Wanneperveen,Steenwijkerland,Overijssel,VBO,6.121174,52.703128
Ds A.C. van Raalteweg,2,,,7946AE,Wanneperveen,Steenwijkerland,Overijssel,VBO,6.121145,52.703182
Ds A.C. van Raalteweg,3,,,7946AE,Wanneperveen,Steenwijkerland,Overijssel,VBO,6.121087,52.703281
Ds A.C. van Raalteweg,4,,,7946AE,Wanneperveen,Steenwijkerland,Overijssel,VBO,6.121044,52.703335
Ds A.C. van Raalteweg,5,,,7946AE,Wanneperveen,Steenwijkerland,Overijssel,VBO,6.121078,52.703605
Ds A.C. van Raalteweg,6,,,7946AE,Wanneperveen,Steenwijkerland,Overijssel,VBO,6.121840,52.703151
Ds A.C. van Raalteweg,7,,,7946AE,Wanneperveen,Steenwijkerland,Overijssel,VBO,6.121650,52.703323
Ds A.C. van Raalteweg,8,,,7946AE,Wanneperveen,Steenwijkerland,Overijssel,VBO,6.121549,52.703431
Ds A.C. van Raalteweg,9,,,7946AE,Wanneperveen,Steenwijkerland,Overijssel,VBO,6.121505,52.703485
Ds A.C. van Raalteweg,10,,,7946AE,Wanneperveen,Steenwijkerland,Overijssel,VBO,6.121507,52.703602
Ds A.C. van Raalteweg,11,,,7946AE,Wanneperveen,Steenwijkerland,Overijssel,VBO,6.121493,52.703656
Ds A.C. van Raalteweg,12,,,7946AE,Wanneperveen,Steenwijkerland,Overijssel,VBO,6.121465,52.703755
Ds A.C. van Raalteweg,13,,,7946AE,Wanneperveen,Steenwijkerland,Overijssel,VBO,6.121451,52.703809
Ds A.C. van Raalteweg,14,,,7946AE,Wanneperveen,Steenwijkerland,Overijssel,VBO,6.121423,52.703899
Ds A.C. van Raalteweg,15,,,7946AE,Wanneperveen,Steenwijkerland,Overijssel,VBO,6.121410,52.703962
Ds A.C. van Raalteweg,16,,,7946AE,Wanneperveen,Steenwijkerland,Overijssel,VBO,6.121352,52.704061
Ds A.C. van Raalteweg,17,,,7946AE,Wanneperveen,Steenwijkerland,Overijssel,VBO,6.121382,52.704106
Ds A.C. van Raalteweg,18,,,7946AE,Wanneperveen,Steenwijkerland,Overijssel,VBO,6.121456,52.704115
Ds A.C. van Raalteweg,19,,,7946AE,Wanneperveen,Steenwijkerland,Overijssel,VBO,6.121546,52.704132
Ds A.C. van Raalteweg,20,,,7946AG,Wanneperveen,Steenwijkerland,Overijssel,VBO,6.121180,52.704368
Ds A.C. van Raalteweg,22,,,7946AG,Wanneperveen,Steenwijkerland,Overijssel,VBO,6.121402,52.704394
Ds A.C. van Raalteweg,23,,,7946AG,Wanneperveen,Steenwijkerland,Overijssel,VBO,6.121551,52.704465
Ds A.C. van Raalteweg,24,,,7946AG,Wanneperveen,Steenwijkerland,Overijssel,VBO,6.121655,52.704491
Ds A.C. van Raalteweg,25,,,7946AG,Wanneperveen,Steenwijkerland,Overijssel,VBO,6.122028,52.704650
Ds A.C. van Raalteweg,27,,,7946AG,Wanneperveen,Steenwijkerland,Overijssel,VBO,6.122117,52.704668
Ds A.C. van Raalteweg,29,,,7946AG,Wanneperveen,Steenwijkerland,Overijssel,VBO,6.122252,52.704766
Ds A.C. van Raalteweg,31,,,7946AG,Wanneperveen,Steenwijkerland,Overijssel,VBO,6.122341,52.704783
Ds A.C. van Raalteweg,33,,,7946AG,Wanneperveen,Steenwijkerland,Overijssel,VBO,6.122489,52.704827
Ds A.C. van Raalteweg,35,,,7946AG,Wanneperveen,Steenwijkerland,Overijssel,VBO,6.122593,52.704863
Ds A.C. van Raalteweg,37,,,7946AG,Wanneperveen,Steenwijkerland,Overijssel,VBO,6.122742,52.704916
Ds A.C. van Raalteweg,39,,,7946AG,Wanneperveen,Steenwijkerland,Overijssel,VBO,6.122832,52.704942
Ds A.C. van Raalteweg,41,,,7946AG,Wanneperveen,Steenwijkerland,Overijssel,VBO,6.122980,52.704995
Ds A.C. van Raalteweg,43,,,7946AG,Wanneperveen,Steenwijkerland,Overijssel,VBO,6.123070,52.705021
Ds A.C. van Raalteweg,45,,,7946AG,Wanneperveen,Steenwijkerland,Overijssel,VBO,6.123322,52.705092
Ds A.C. van Raalteweg,26,,,7946AH,Wanneperveen,Steenwijkerland,Overijssel,VBO,6.122111,52.704317
Ds A.C. van Raalteweg,28,,,7946AH,Wanneperveen,Steenwijkerland,Overijssel,VBO,6.122245,52.704379
Ds A.C. van Raalteweg,30,,,7946AH,Wanneperveen,Steenwijkerland,Overijssel,VBO,6.122320,52.704415
Ds A.C. van Raalteweg,32,,,7946AH,Wanneperveen,Steenwijkerland,Overijssel,VBO,6.122484,52.704486
Ds A.C. van Raalteweg,34,,,7946AH,Wanneperveen,Steenwijkerland,Overijssel,VBO,6.122558,52.704512
Ds A.C. van Raalteweg,36,,,7946AH,Wanneperveen,Steenwijkerland,Overijssel,VBO,6.122707,52.704601
Ds A.C. van Raalteweg,38,,,7946AH,Wanneperveen,Steenwijkerland,Overijssel,VBO,6.122782,52.704628
Ds A.C. van Raalteweg,40,,,7946AH,Wanneperveen,Steenwijkerland,Overijssel,VBO,6.122871,52.704645
Ds A.C. van Raalteweg,42,,,7946AH,Wanneperveen,Steenwijkerland,Overijssel,VBO,6.122960,52.704672
Ds A.C. van Raalteweg,44,,,7946AH,Wanneperveen,Steenwijkerland,Overijssel,VBO,6.123124,52.704715
Ds A.C. van Raalteweg,46,,,7946AH,Wanneperveen,Steenwijkerland,Overijssel,VBO,6.123213,52.704742
Ds A.C. van Raalteweg,48,,,7946AH,Wanneperveen,Steenwijkerland,Overijssel,VBO,6.123287,52.704759
Ds A.C. van Raalteweg,52,,,7946AH,Wanneperveen,Steenwijkerland,Overijssel,VBO,6.123585,52.704847
Bovenboerseweg,1,a,,7946AJ,Wanneperveen,Steenwijkerland,Overijssel,VBO,6.121245,52.704727
Bovenboerseweg,1,,,7946AJ,Wanneperveen,Steenwijkerland,Overijssel,VBO,6.121885,52.704975
Bovenboerseweg,2,,,7946AJ,Wanneperveen,Steenwijkerland,Overijssel,VBO,6.121813,52.705083
Bovenboerseweg,3,,,7946AJ,Wanneperveen,Steenwijkerland,Overijssel,VBO,6.122110,52.705144
Bovenboerseweg,4,,,7946AJ,Wanneperveen,Steenwijkerland,Overijssel,VBO,6.122288,52.705188
Bovenboerseweg,5,,,7946AJ,Wanneperveen,Steenwijkerland,Overijssel,VBO,6.122481,52.705232
Bovenboerseweg,6,,,7946AJ,Wanneperveen,Steenwijkerland,Overijssel,VBO,6.122660,52.705276
Bovenboerseweg,7,,,7946AJ,Wanneperveen,Steenwijkerland,Overijssel,VBO,6.122853,52.705346
Bovenboerseweg,8,,,7946AJ,Wanneperveen,Steenwijkerland,Overijssel,VBO,6.123031,52.705390
Bovenboerseweg,9,,,7946AJ,Wanneperveen,Steenwijkerland,Overijssel,VBO,6.123239,52.705434
Bovenboerseweg,10,,,7946AJ,Wanneperveen,Steenwijkerland,Overijssel,VBO,6.123403,52.705478
Bovenboerseweg,11,,,7946AJ,Wanneperveen,Steenwijkerland,Overijssel,VBO,6.123655,52.705503
Bovenboerseweg,12,,,7946AJ,Wanneperveen,Steenwijkerland,Overijssel,VBO,6.123583,52.705638
Bovenboerseweg,13,,,7946AJ,Wanneperveen,Steenwijkerland,Overijssel,VBO,6.123482,52.705765
Bovenboerseweg,14,,,7946AJ,Wanneperveen,Steenwijkerland,Overijssel,VBO,6.123410,52.705882
Bovenboerseweg,15,,,7946AK,Wanneperveen,Steenwijkerland,Overijssel,VBO,6.123244,52.705739
Bovenboerseweg,16,,,7946AK,Wanneperveen,Steenwijkerland,Overijssel,VBO,6.123066,52.705695
Bovenboerseweg,17,,,7946AK,Wanneperveen,Steenwijkerland,Overijssel,VBO,6.122873,52.705634
Bovenboerseweg,18,,,7946AK,Wanneperveen,Steenwijkerland,Overijssel,VBO,6.122694,52.705590
Bovenboerseweg,19,,,7946AK,Wanneperveen,Steenwijkerland,Overijssel,VBO,6.122502,52.705564
Bovenboerseweg,20,,,7946AK,Wanneperveen,Steenwijkerland,Overijssel,VBO,6.122323,52.705520
Bovenboerseweg,21,,,7946AK,Wanneperveen,Steenwijkerland,Overijssel,VBO,6.122145,52.705458
Bovenboerseweg,22,,,7946AK,Wanneperveen,Steenwijkerland,Overijssel,VBO,6.121952,52.705415
Bovenboerseweg,23,,,7946AK,Wanneperveen,Steenwijkerland,Overijssel,VBO,6.121597,52.705417
Bovenboerseweg,24,,,7946AK,Wanneperveen,Steenwijkerland,Overijssel,VBO,6.121524,52.705516
Bovenboerseweg,25,,,7946AK,Wanneperveen,Steenwijkerland,Overijssel,VBO,6.121452,52.705642
Bovenboerseweg,26,,,7946AK,Wanneperveen,Steenwijkerland,Overijssel,VBO,6.121380,52.705742
Bovenboerseweg,27,,,7946AK,Wanneperveen,Steenwijkerland,Overijssel,VBO,6.121663,52.705848
Bovenboerseweg,28,,,7946AK,Wanneperveen,Steenwijkerland,Overijssel,VBO,6.121841,52.705892
Bovenboerseweg,29,,,7946AK,Wanneperveen,Steenwijkerland,Overijssel,VBO,6.122049,52.705917
Bovenboerseweg,30,,,7946AK,Wanneperveen,Steenwijkerland,Overijssel,VBO,6.122227,52.705961
Bovenboerseweg,31,,,7946AL,Wanneperveen,Steenwijkerland,Overijssel,VBO,6.122421,52.706032
Bovenboerseweg,32,,,7946AL,Wanneperveen,Steenwijkerland,Overijssel,VBO,6.122584,52.706067
Bovenboerseweg,33,,,7946AL,Wanneperveen,Steenwijkerland,Overijssel,VBO,6.122792,52.706102
Bovenboerseweg,34,,,7946AL,Wanneperveen,Steenwijkerland,Overijssel,VBO,6.122970,52.706145
Bovenboerseweg,35,,,7946AL,Wanneperveen,Steenwijkerland,Overijssel,VBO,6.123251,52.706135
Bovenboerseweg,36,,,7946AL,Wanneperveen,Steenwijkerland,Overijssel,VBO,6.123136,52.706342
Bovenboerseweg,37,,,7946AL,Wanneperveen,Steenwijkerland,Overijssel,VBO,6.123065,52.706513
Bovenboerseweg,38,,,7946AL,Wanneperveen,Steenwijkerland,Overijssel,VBO,6.122737,52.706354
Bovenboerseweg,39,,,7946AL,Wanneperveen,Steenwijkerland,Overijssel,VBO,6.122529,52.706310
Bovenboerseweg,40,,,7946AL,Wanneperveen,Steenwijkerland,Overijssel,VBO,6.122321,52.706257
Bovenboerseweg,41,,,7946AL,Wanneperveen,Steenwijkerland,Overijssel,VBO,6.122113,52.706205
Bovenboerseweg,42,,,7946AL,Wanneperveen,Steenwijkerland,Overijssel,VBO,6.121905,52.706152
Bovenboerseweg,43,,,7946AL,Wanneperveen,Steenwijkerland,Overijssel,VBO,6.121697,52.706108
Bovenboerseweg,44,,,7946AL,Wanneperveen,Steenwijkerland,Overijssel,VBO,6.121489,52.706056
Bovenboerseweg,45,,,7946AL,Wanneperveen,Steenwijkerland,Overijssel,VBO,6.121281,52.706003
Bovenboerseweg,46,,,7946AL,Wanneperveen,Steenwijkerland,Overijssel,VBO,6.120977,52.706400
Bovenboerseweg,47,,,7946AL,Wanneperveen,Steenwijkerland,Overijssel,VBO,6.121200,52.706453
Bovenboerseweg,48,,,7946AL,Wanneperveen,Steenwijkerland,Overijssel,VBO,6.121423,52.706514
Bovenboerseweg,49,,,7946AL,Wanneperveen,Steenwijkerland,Overijssel,VBO,6.121645,52.706567
Bovenboerseweg,50,,,7946AL,Wanneperveen,Steenwijkerland,Overijssel,VBO,6.121868,52.706620
Bovenboerseweg,51,,,7946AL,Wanneperveen,Steenwijkerland,Overijssel,VBO,6.122091,52.706672
Bovenboerseweg,52,,,7946AL,Wanneperveen,Steenwijkerland,Overijssel,VBO,6.122314,52.706725
Bovenboerseweg,53,,,7946AL,Wanneperveen,Steenwijkerland,Overijssel,VBO,6.122537,52.706777
Bovenboerseweg,54,,,7946AL,Wanneperveen,Steenwijkerland,Overijssel,VBO,6.122834,52.706847
Bovenboerseweg,55,,,7946AL,Wanneperveen,Steenwijkerland,Overijssel,VBO,6.120377,52.708561
Zr. A. Kortplantsoen,1,b,,7946AM,Wanneperveen,Steenwijkerland,Overijssel,VBO,6.120942,52.704289
Zr. A. Kortplantsoen,1,t,,7946AM,Wanneperveen,Steenwijkerland,Overijssel,VBO,6.120909,52.704379
Zr. A. Kortplantsoen,1,,,7946AM,Wanneperveen,Steenwijkerland,Overijssel,VBO,6.120955,52.704199
Zr. A. Kortplantsoen,3,,,7946AM,Wanneperveen,Steenwijkerland,Overijssel,VBO,6.120722,52.704171
Zr. A. Kortplantsoen,5,,,7946AM,Wanneperveen,Steenwijkerland,Overijssel,VBO,6.120635,52.704152
Zr. A. Kortplantsoen,7,,,7946AM,Wanneperveen,Steenwijkerland,Overijssel,VBO,6.120483,52.704127
Zr. A. Kortplantsoen,9,,,7946AM,Wanneperveen,Steenwijkerland,Overijssel,VBO,6.120420,52.704076
Zr. A. Kortplantsoen,10,,,7946AM,Wanneperveen,Steenwijkerland,Overijssel,VBO,6.119598,52.703569
Zr. A. Kortplantsoen,11,,,7946AM,Wanneperveen,Steenwijkerland,Overijssel,VBO,6.120227,52.704041
Zr. A. Kortplantsoen,12,,,7946AM,Wanneperveen,Steenwijkerland,Overijssel,VBO,6.119509,52.703551
Zr. A. Kortplantsoen,13,,,7946AM,Wanneperveen,Steenwijkerland,Overijssel,VBO,6.120153,52.704015
Zr. A. Kortplantsoen,14,,,7946AM,Wanneperveen,Steenwijkerland,Overijssel,VBO,6.119434,52.703525
Zr. A. Kortplantsoen,15,,,7946AM,Wanneperveen,Steenwijkerland,Overijssel,VBO,6.120064,52.703988
Zr. A. Kortplantsoen,17,,,7946AM,Wanneperveen,Steenwijkerland,Overijssel,VBO,6.119692,52.703883
Zr. A. Kortplantsoen,19,,,7946AM,Wanneperveen,Steenwijkerland,Overijssel,VBO,6.119618,52.703856
Zr. A. Kortplantsoen,21,,,7946AM,Wanneperveen,Steenwijkerland,Overijssel,VBO,6.119528,52.703830
Zr. A. Kortplantsoen,23,,,7946AM,Wanneperveen,Steenwijkerland,Overijssel,VBO,6.119454,52.703803
Zr. A. Kortplantsoen,25,,,7946AM,Wanneperveen,Steenwijkerland,Overijssel,VBO,6.119365,52.703777
Zr. A. Kortplantsoen,27,,,7946AM,Wanneperveen,Steenwijkerland,Overijssel,VBO,6.119290,52.703759
Burgemeester Pastoorstraat,1,,,7946AN,Wanneperveen,Steenwijkerland,Overijssel,VBO,6.120022,52.703270
Burgemeester Pastoorstraat,2,,,7946AN,Wanneperveen,Steenwijkerland,Overijssel,VBO,6.119869,52.702956
Burgemeester Pastoorstraat,3,,,7946AN,Wanneperveen,Steenwijkerland,Overijssel,VBO,6.119933,52.703243
Burgemeester Pastoorstraat,4,,,7946AN,Wanneperveen,Steenwijkerland,Overijssel,VBO,6.119780,52.702939
Burgemeester Pastoorstraat,5,,,7946AN,Wanneperveen,Steenwijkerland,Overijssel,VBO,6.119844,52.703226
Burgemeester Pastoorstraat,6,,,7946AN,Wanneperveen,Steenwijkerland,Overijssel,VBO,6.119322,52.702995
Burgemeester Pastoorstraat,7,,,7946AN,Wanneperveen,Steenwijkerland,Overijssel,VBO,6.119769,52.703199
Burgemeester Pastoorstraat,8,,,7946AN,Wanneperveen,Steenwijkerland,Overijssel,VBO,6.119293,52.703049
Burgemeester Pastoorstraat,9,,,7946AN,Wanneperveen,Steenwijkerland,Overijssel,VBO,6.119680,52.703182
Burgemeester Pastoorstraat,10,,,7946AN,Wanneperveen,Steenwijkerland,Overijssel,VBO,6.119222,52.703194
Burgemeester Pastoorstraat,12,,,7946AN,Wanneperveen,Steenwijkerland,Overijssel,VBO,6.118583,52.703063
Burgemeester Pastoorstraat,14,,,7946AN,Wanneperveen,Steenwijkerland,Overijssel,VBO,6.118612,52.703018
Burgemeester Pastoorstraat,16,,,7946AN,Wanneperveen,Steenwijkerland,Overijssel,VBO,6.118699,52.702882
Dorpshuisstraat,2,,,7946AP,Wanneperveen,Steenwijkerland,Overijssel,VBO,6.120707,52.703562
Dorpshuisstraat,4,,,7946AP,Wanneperveen,Steenwijkerland,Overijssel,VBO,6.120485,52.703500
Dorpshuisstraat,6,,,7946AP,Wanneperveen,Steenwijkerland,Overijssel,VBO,6.120381,52.703474
Weth. Vosstraat,1,,,7946AR,Wanneperveen,Steenwijkerland,Overijssel,VBO,6.120553,52.703159
Weth. Vosstraat,2,,,7946AR,Wanneperveen,Steenwijkerland,Overijssel,VBO,6.120338,52.702711
Weth. Vosstraat,3,,,7946AR,Wanneperveen,Steenwijkerland,Overijssel,VBO,6.120509,52.703213
Weth. Vosstraat,4,,,7946AR,Wanneperveen,Steenwijkerland,Overijssel,VBO,6.120223,52.702882
Weth. Vosstraat,5,,,7946AR,Wanneperveen,Steenwijkerland,Overijssel,VBO,6.120481,52.703267
Weth. Vosstraat,6,,,7946AR,Wanneperveen,Steenwijkerland,Overijssel,VBO,6.120194,52.702936
Weth. Vosstraat,7,,,7946AR,Wanneperveen,Steenwijkerland,Overijssel,VBO,6.120452,52.703321
Weth. Vosstraat,8,,,7946AR,Wanneperveen,Steenwijkerland,Overijssel,VBO,6.120138,52.702977
Weth. Vosstraat,9,,,7946AR,Wanneperveen,Steenwijkerland,Overijssel,VBO,6.119904,52.704169
Weth. Vosstraat,10,,,7946AR,Wanneperveen,Steenwijkerland,Overijssel,VBO,6.120122,52.703044
Weth. Vosstraat,11,,,7946AR,Wanneperveen,Steenwijkerland,Overijssel,VBO,6.119875,52.704232
Weth. Vosstraat,12,,,7946AR,Wanneperveen,Steenwijkerland,Overijssel,VBO,6.119952,52.703486
Weth. Vosstraat,13,,,7946AR,Wanneperveen,Steenwijkerland,Overijssel,VBO,6.119832,52.704277
Weth. Vosstraat,14,,,7946AR,Wanneperveen,Steenwijkerland,Overijssel,VBO,6.119923,52.703540
Weth. Vosstraat,15,,,7946AR,Wanneperveen,Steenwijkerland,Overijssel,VBO,6.119803,52.704332
Weth. Vosstraat,16,,,7946AR,Wanneperveen,Steenwijkerland,Overijssel,VBO,6.119879,52.703594
Weth. Vosstraat,17,,,7946AR,Wanneperveen,Steenwijkerland,Overijssel,VBO,6.119761,52.704449
Weth. Vosstraat,18,,,7946AR,Wanneperveen,Steenwijkerland,Overijssel,VBO,6.119851,52.703639
Weth. Vosstraat,19,,,7946AR,Wanneperveen,Steenwijkerland,Overijssel,VBO,6.119732,52.704494
Weth. Vosstraat,20,,,7946AR,Wanneperveen,Steenwijkerland,Overijssel,VBO,6.119490,52.704190
Weth. Vosstraat,21,,,7946AR,Wanneperveen,Steenwijkerland,Overijssel,VBO,6.119703,52.704548
Weth. Vosstraat,22,,,7946AR,Wanneperveen,Steenwijkerland,Overijssel,VBO,6.119416,52.704172
Weth. Vosstraat,23,,,7946AR,Wanneperveen,Steenwijkerland,Overijssel,VBO,6.119631,52.704656
Weth. Vosstraat,24,,,7946AR,Wanneperveen,Steenwijkerland,Overijssel,VBO,6.119341,52.704155
Weth. Vosstraat,25,,,7946AR,Wanneperveen,Steenwijkerland,Overijssel,VBO,6.119602,52.704701
Weth. Vosstraat,26,,,7946AR,Wanneperveen,Steenwijkerland,Overijssel,VBO,6.119267,52.704137
Weth. Vosstraat,27,,,7946AR,Wanneperveen,Steenwijkerland,Overijssel,VBO,6.119573,52.704746
Weth. Vosstraat,28,,,7946AR,Wanneperveen,Steenwijkerland,Overijssel,VBO,6.119193,52.704120
Weth. Vosstraat,30,,,7946AR,Wanneperveen,Steenwijkerland,Overijssel,VBO,6.119119,52.704102
Weth. Vosstraat,31,,,7946AR,Wanneperveen,Steenwijkerland,Overijssel,VBO,6.119562,52.704944
Weth. Vosstraat,32,,,7946AR,Wanneperveen,Steenwijkerland,Overijssel,VBO,6.119059,52.704084
Weth. Vosstraat,33,,,7946AR,Wanneperveen,Steenwijkerland,Overijssel,VBO,6.119487,52.704927
Weth. Vosstraat,35,,,7946AR,Wanneperveen,Steenwijkerland,Overijssel,VBO,6.119280,52.704883
Weth. Vosstraat,47,,,7946AR,Wanneperveen,Steenwijkerland,Overijssel,VBO,6.119017,52.705136
Weth. Vosstraat,49,,,7946AR,Wanneperveen,Steenwijkerland,Overijssel,VBO,6.119107,52.705154
Weth. Vosstraat,51,,,7946AR,Wanneperveen,Steenwijkerland,Overijssel,VBO,6.119285,52.705224
Weth. Vosstraat,53,,,7946AR,Wanneperveen,Steenwijkerland,Overijssel,VBO,6.119345,52.705242
Weth. Vosstraat,55,,,7946AR,Wanneperveen,Steenwijkerland,Overijssel,VBO,6.119098,52.705540
Weth. Vosstraat,57,,,7946AR,Wanneperveen,Steenwijkerland,Overijssel,VBO,6.119024,52.705523
Weth. Vosstraat,59,,,7946AR,Wanneperveen,Steenwijkerland,Overijssel,VBO,6.118950,52.705505
Weth. Vosstraat,61,,,7946AR,Wanneperveen,Steenwijkerland,Overijssel,VBO,6.118879,52.705730
Weth. Vosstraat,63,,,7946AR,Wanneperveen,Steenwijkerland,Overijssel,VBO,6.118851,52.705775
Weth. Vosstraat,65,,,7946AR,Wanneperveen,Steenwijkerland,Overijssel,VBO,6.118779,52.705893
Weth. Vosstraat,67,,,7946AR,Wanneperveen,Steenwijkerland,Overijssel,VBO,6.118750,52.705947
Weth. Vosstraat,69,,,7946AR,Wanneperveen,Steenwijkerland,Overijssel,VBO,6.118648,52.706055
Weth. Vosstraat,71,,,7946AR,Wanneperveen,Steenwijkerland,Overijssel,VBO,6.118383,52.706129
Weth. Vosstraat,73,,,7946AR,Wanneperveen,Steenwijkerland,Overijssel,VBO,6.118354,52.706183
Weth. Vosstraat,75,,,7946AR,Wanneperveen,Steenwijkerland,Overijssel,VBO,6.118681,52.706262
K.C. van der Wolfpark,1,,,7946AS,Wanneperveen,Steenwijkerland,Overijssel,VBO,6.104584,52.694718
K.C. van der Wolfpark,2,,,7946AS,Wanneperveen,Steenwijkerland,Overijssel,VBO,6.104199,52.694711
K.C. van der Wolfpark,3,,,7946AS,Wanneperveen,Steenwijkerland,Overijssel,VBO,6.104315,52.694549
K.C. van der Wolfpark,4,,,7946AS,Wanneperveen,Steenwijkerland,Overijssel,VBO,6.104401,52.694369
K.C. van der Wolfpark,5,,,7946AS,Wanneperveen,Steenwijkerland,Overijssel,VBO,6.103520,52.694805
K.C. van der Wolfpark,6,,,7946AS,Wanneperveen,Steenwijkerland,Overijssel,VBO,6.103621,52.694634
K.C. van der Wolfpark,7,,,7946AS,Wanneperveen,Steenwijkerland,Overijssel,VBO,6.103707,52.694445
K.C. van der Wolfpark,8,,,7946AS,Wanneperveen,Steenwijkerland,Overijssel,VBO,6.103822,52.694273
K.C. van der Wolfpark,9,,,7946AS,Wanneperveen,Steenwijkerland,Overijssel,VBO,6.103908,52.694084
K.C. van der Wolfpark,10,,,7946AS,Wanneperveen,Steenwijkerland,Overijssel,VBO,6.102861,52.695169
K.C. van der Wolfpark,11,,,7946AS,Wanneperveen,Steenwijkerland,Overijssel,VBO,6.103050,52.694997
K.C. van der Wolfpark,12,,,7946AS,Wanneperveen,Steenwijkerland,Overijssel,VBO,6.103136,52.694826
K.C. van der Wolfpark,13,,,7946AS,Wanneperveen,Steenwijkerland,Overijssel,VBO,6.103252,52.694645
K.C. van der Wolfpark,14,,,7946AS,Wanneperveen,Steenwijkerland,Overijssel,VBO,6.103308,52.694465
K.C. van der Wolfpark,15,,,7946AS,Wanneperveen,Steenwijkerland,Overijssel,VBO,6.103438,52.694276
K.C. van der Wolfpark,16,,,7946AS,Wanneperveen,Steenwijkerland,Overijssel,VBO,6.103494,52.694096
K.C. van der Wolfpark,17,,,7946AS,Wanneperveen,Steenwijkerland,Overijssel,VBO,6.103624,52.693924
K.C. van der Wolfpark,18,,,7946AT,Wanneperveen,Steenwijkerland,Overijssel,VBO,6.102314,52.695217
K.C. van der Wolfpark,19,,,7946AT,Wanneperveen,Steenwijkerland,Overijssel,VBO,6.102445,52.695046
K.C. van der Wolfpark,20,,,7946AT,Wanneperveen,Steenwijkerland,Overijssel,VBO,6.102530,52.694847
K.C. van der Wolfpark,21,,,7946AT,Wanneperveen,Steenwijkerland,Overijssel,VBO,6.102675,52.694658
K.C. van der Wolfpark,22,,,7946AT,Wanneperveen,Steenwijkerland,Overijssel,VBO,6.102746,52.694469
K.C. van der Wolfpark,23,,,7946AT,Wanneperveen,Steenwijkerland,Overijssel,VBO,6.102861,52.694297
K.C. van der Wolfpark,24,,,7946AT,Wanneperveen,Steenwijkerland,Overijssel,VBO,6.102961,52.694090
K.C. van der Wolfpark,25,,,7946AT,Wanneperveen,Steenwijkerland,Overijssel,VBO,6.103077,52.693909
K.C. van der Wolfpark,26,,,7946AT,Wanneperveen,Steenwijkerland,Overijssel,VBO,6.101987,52.695138
K.C. van der Wolfpark,27,,,7946AT,Wanneperveen,Steenwijkerland,Overijssel,VBO,6.102118,52.694976
K.C. van der Wolfpark,28,,,7946AT,Wanneperveen,Steenwijkerland,Overijssel,VBO,6.102189,52.694795
K.C. van der Wolfpark,29,,,7946AT,Wanneperveen,Steenwijkerland,Overijssel,VBO,6.102334,52.694606
K.C. van der Wolfpark,30,,,7946AT,Wanneperveen,Steenwijkerland,Overijssel,VBO,6.102405,52.694426
K.C. van der Wolfpark,31,,,7946AT,Wanneperveen,Steenwijkerland,Overijssel,VBO,6.102550,52.694245
K.C. van der Wolfpark,32,,,7946AT,Wanneperveen,Steenwijkerland,Overijssel,VBO,6.102606,52.694065
K.C. van der Wolfpark,33,,,7946AT,Wanneperveen,Steenwijkerland,Overijssel,VBO,6.102736,52.693893
K.C. van der Wolfpark,34,,,7946AV,Wanneperveen,Steenwijkerland,Overijssel,VBO,6.101439,52.695070
K.C. van der Wolfpark,35,,,7946AV,Wanneperveen,Steenwijkerland,Overijssel,VBO,6.101584,52.694889
K.C. van der Wolfpark,36,,,7946AV,Wanneperveen,Steenwijkerland,Overijssel,VBO,6.101655,52.694709
K.C. van der Wolfpark,37,,,7946AV,Wanneperveen,Steenwijkerland,Overijssel,VBO,6.101785,52.694528
K.C. van der Wolfpark,38,,,7946AV,Wanneperveen,Steenwijkerland,Overijssel,VBO,6.101871,52.694330
K.C. van der Wolfpark,39,,,7946AV,Wanneperveen,Steenwijkerland,Overijssel,VBO,6.102001,52.694167
K.C. van der Wolfpark,40,,,7946AV,Wanneperveen,Steenwijkerland,Overijssel,VBO,6.102072,52.693978
K.C. van der Wolfpark,41,,,7946AV,Wanneperveen,Steenwijkerland,Overijssel,VBO,6.102202,52.693798
K.C. van der Wolfpark,42,a,,7946AV,Wanneperveen,Steenwijkerland,Overijssel,VBO,6.103214,52.695468
K.C. van der Wolfpark,42,t,,7946AV,Wanneperveen,Steenwijkerland,Overijssel,VBO,6.100899,52.695275
K.C. van der Wolfpark,42,,,7946AV,Wanneperveen,Steenwijkerland,Overijssel,VBO,6.101055,52.695090
K.C. van der Wolfpark,43,,,7946AV,Wanneperveen,Steenwijkerland,Overijssel,VBO,6.101200,52.694900
K.C. van der Wolfpark,44,,,7946AV,Wanneperveen,Steenwijkerland,Overijssel,VBO,6.101256,52.694729
K.C. van der Wolfpark,45,,,7946AV,Wanneperveen,Steenwijkerland,Overijssel,VBO,6.101401,52.694540
K.C. van der Wolfpark,46,,,7946AV,Wanneperveen,Steenwijkerland,Overijssel,VBO,6.101457,52.694359
K.C. van der Wolfpark,47,,,7946AV,Wanneperveen,Steenwijkerland,Overijssel,VBO,6.101602,52.694179
K.C. van der Wolfpark,48,,,7946AV,Wanneperveen,Steenwijkerland,Overijssel,VBO,6.101673,52.693999
K.C. van der Wolfpark,49,,,7946AV,Wanneperveen,Steenwijkerland,Overijssel,VBO,6.101803,52.693827
K.C. van der Wolfpark,50,,,7946AW,Wanneperveen,Steenwijkerland,Overijssel,VBO,6.100550,52.694994
K.C. van der Wolfpark,51,,,7946AW,Wanneperveen,Steenwijkerland,Overijssel,VBO,6.100636,52.694814
K.C. van der Wolfpark,52,,,7946AW,Wanneperveen,Steenwijkerland,Overijssel,VBO,6.100722,52.694615
K.C. van der Wolfpark,53,,,7946AW,Wanneperveen,Steenwijkerland,Overijssel,VBO,6.100837,52.694453
K.C. van der Wolfpark,54,,,7946AW,Wanneperveen,Steenwijkerland,Overijssel,VBO,6.100908,52.694273
K.C. van der Wolfpark,55,,,7946AW,Wanneperveen,Steenwijkerland,Overijssel,VBO,6.101039,52.694092
K.C. van der Wolfpark,56,,,7946AW,Wanneperveen,Steenwijkerland,Overijssel,VBO,6.101198,52.693921
K.C. van der Wolfpark,57,,,7946AW,Wanneperveen,Steenwijkerland,Overijssel,VBO,6.100135,52.694907
K.C. van der Wolfpark,58,,,7946AW,Wanneperveen,Steenwijkerland,Overijssel,VBO,6.100235,52.694717
K.C. van der Wolfpark,59,,,7946AW,Wanneperveen,Steenwijkerland,Overijssel,VBO,6.100336,52.694555
K.C. van der Wolfpark,60,,,7946AW,Wanneperveen,Steenwijkerland,Overijssel,VBO,6.100481,52.694374
K.C. van der Wolfpark,61,,,7946AW,Wanneperveen,Steenwijkerland,Overijssel,VBO,6.100537,52.694194
K.C. van der Wolfpark,62,,,7946AW,Wanneperveen,Steenwijkerland,Overijssel,VBO,6.099643,52.694712
K.C. van der Wolfpark,63,,,7946AW,Wanneperveen,Steenwijkerland,Overijssel,VBO,6.099774,52.694549
K.C. van der Wolfpark,64,,,7946AW,Wanneperveen,Steenwijkerland,Overijssel,VBO,6.099845,52.694351
K.C. van der Wolfpark,65,,,7946AW,Wanneperveen,Steenwijkerland,Overijssel,VBO,6.099989,52.694144
K.C. van der Wolfpark,66,,,7946AW,Wanneperveen,Steenwijkerland,Overijssel,VBO,6.099376,52.694668
K.C. van der Wolfpark,67,,,7946AW,Wanneperveen,Steenwijkerland,Overijssel,VBO,6.099491,52.694461
K.C. van der Wolfpark,68,,,7946AW,Wanneperveen,Steenwijkerland,Overijssel,VBO,6.099606,52.694263
K.C. van der Wolfpark,69,,,7946AW,Wanneperveen,Steenwijkerland,Overijssel,VBO,6.099381,52.694965
K.C. van der Wolfpark,70,,,7946AW,Wanneperveen,Steenwijkerland,Overijssel,VBO,6.099738,52.695053
Weth. Vosstraat,34,,,7946AX,Wanneperveen,Steenwijkerland,Overijssel,VBO,6.119331,52.704406
Weth. Vosstraat,36,,,7946AX,Wanneperveen,Steenwijkerland,Overijssel,VBO,6.119345,52.704379
Weth. Vosstraat,38,,,7946AX,Wanneperveen,Steenwijkerland,Overijssel,VBO,6.119242,52.704380
Weth. Vosstraat,40,,,7946AX,Wanneperveen,Steenwijkerland,Overijssel,VBO,6.119256,52.704362
Weth. Vosstraat,42,,,7946AX,Wanneperveen,Steenwijkerland,Overijssel,VBO,6.119167,52.704362
Weth. Vosstraat,44,,,7946AX,Wanneperveen,Steenwijkerland,Overijssel,VBO,6.119182,52.704344
Weth. Vosstraat,46,,,7946AX,Wanneperveen,Steenwijkerland,Overijssel,VBO,6.119093,52.704354
Weth. Vosstraat,48,,,7946AX,Wanneperveen,Steenwijkerland,Overijssel,VBO,6.119108,52.704327
Weth. Vosstraat,50,,,7946AX,Wanneperveen,Steenwijkerland,Overijssel,VBO,6.119019,52.704336
Weth. Vosstraat,52,,,7946AX,Wanneperveen,Steenwijkerland,Overijssel,VBO,6.119048,52.704309
Weth. Vosstraat,54,,,7946AX,Wanneperveen,Steenwijkerland,Overijssel,VBO,6.118959,52.704319
Weth. Vosstraat,56,,,7946AX,Wanneperveen,Steenwijkerland,Overijssel,VBO,6.118974,52.704292
Weth. Vosstraat,58,,,7946AX,Wanneperveen,Steenwijkerland,Overijssel,VBO,6.119202,52.704668
Weth. Vosstraat,60,,,7946AX,Wanneperveen,Steenwijkerland,Overijssel,VBO,6.119128,52.704650
Weth. Vosstraat,62,,,7946AX,Wanneperveen,Steenwijkerland,Overijssel,VBO,6.119053,52.704633
Weth. Vosstraat,64,,,7946AX,Wanneperveen,Steenwijkerland,Overijssel,VBO,6.118979,52.704615
Weth. Vosstraat,66,,,7946AX,Wanneperveen,Steenwijkerland,Overijssel,VBO,6.118905,52.704598
Weth. Vosstraat,68,,,7946AX,Wanneperveen,Steenwijkerland,Overijssel,VBO,6.118845,52.704580
Weth. Vosstraat,70,,,7946AX,Wanneperveen,Steenwijkerland,Overijssel,VBO,6.118771,52.704563
Weth. Vosstraat,72,,,7946AX,Wanneperveen,Steenwijkerland,Overijssel,VBO,6.118790,52.704832
Weth. Vosstraat,74,,,7946AX,Wanneperveen,Steenwijkerland,Overijssel,VBO,6.118762,52.704877
Weth. Vosstraat,76,,,7946AX,Wanneperveen,Steenwijkerland,Overijssel,VBO,6.118689,52.704976
Weth. Vosstraat,78,,,7946AX,Wanneperveen,Steenwijkerland,Overijssel,VBO,6.118660,52.705022
Weth. Vosstraat,80,,,7946AX,Wanneperveen,Steenwijkerland,Overijssel,VBO,6.118574,52.705148
Weth. Vosstraat,82,,,7946AX,Wanneperveen,Steenwijkerland,Overijssel,VBO,6.118251,52.705294
Weth. Vosstraat,84,,,7946AX,Wanneperveen,Steenwijkerland,Overijssel,VBO,6.118325,52.705311
Weth. Vosstraat,86,,,7946AX,Wanneperveen,Steenwijkerland,Overijssel,VBO,6.118533,52.705364
Weth. Vosstraat,88,,,7946AX,Wanneperveen,Steenwijkerland,Overijssel,VBO,6.118607,52.705381
Weth. Vosstraat,90,,,7946AX,Wanneperveen,Steenwijkerland,Overijssel,VBO,6.118434,52.705652
Weth. Vosstraat,92,,,7946AX,Wanneperveen,Steenwijkerland,Overijssel,VBO,6.118360,52.705635
Weth. Vosstraat,94,,,7946AX,Wanneperveen,Steenwijkerland,Overijssel,VBO,6.118152,52.705591
Weth. Vosstraat,96,,,7946AX,Wanneperveen,Steenwijkerland,Overijssel,VBO,6.118078,52.705573
Weth. Vosstraat,98,,,7946AX,Wanneperveen,Steenwijkerland,Overijssel,VBO,6.118142,52.705852
Weth. Vosstraat,100,,,7946AX,Wanneperveen,Steenwijkerland,Overijssel,VBO,6.118098,52.705897
Weth. Vosstraat,102,,,7946AX,Wanneperveen,Steenwijkerland,Overijssel,VBO,6.118041,52.706050
Weth. Vosstraat,104,,,7946AX,Wanneperveen,Steenwijkerland,Overijssel,VBO,6.117775,52.706034
Burgemeester Pastoorstraat,20,,,7946BA,Wanneperveen,Steenwijkerland,Overijssel,VBO,6.118167,52.703498
Burgemeester Pastoorstraat,22,,,7946BA,Wanneperveen,Steenwijkerland,Overijssel,VBO,6.118203,52.703424
Burgemeester Pastoorstraat,24,,,7946BA,Wanneperveen,Steenwijkerland,Overijssel,VBO,6.118224,52.703386
Burgemeester Pastoorstraat,26,,,7946BA,Wanneperveen,Steenwijkerland,Overijssel,VBO,6.118242,52.703351
Burgemeester Pastoorstraat,28,,,7946BA,Wanneperveen,Steenwijkerland,Overijssel,VBO,6.118301,52.703280
Burgemeester Pastoorstraat,30,,,7946BA,Wanneperveen,Steenwijkerland,Overijssel,VBO,6.118276,52.703526
Burgemeester Pastoorstraat,32,,,7946BA,Wanneperveen,Steenwijkerland,Overijssel,VBO,6.118304,52.703466
Burgemeester Pastoorstraat,34,,,7946BA,Wanneperveen,Steenwijkerland,Overijssel,VBO,6.118335,52.703413
Burgemeester Pastoorstraat,36,,,7946BA,Wanneperveen,Steenwijkerland,Overijssel,VBO,6.118374,52.703358
Burgemeester Pastoorstraat,38,,,7946BA,Wanneperveen,Steenwijkerland,Overijssel,VBO,6.118405,52.703305
Burgemeester Pastoorstraat,40,,,7946BA,Wanneperveen,Steenwijkerland,Overijssel,VBO,6.118393,52.703555
Burgemeester Pastoorstraat,42,,,7946BA,Wanneperveen,Steenwijkerland,Overijssel,VBO,6.118422,52.703495
Burgemeester Pastoorstraat,44,,,7946BA,Wanneperveen,Steenwijkerland,Overijssel,VBO,6.118455,52.703443
Burgemeester Pastoorstraat,46,,,7946BA,Wanneperveen,Steenwijkerland,Overijssel,VBO,6.118486,52.703383
Burgemeester Pastoorstraat,48,,,7946BA,Wanneperveen,Steenwijkerland,Overijssel,VBO,6.118525,52.703336
Burgemeester Pastoorstraat,50,,,7946BB,Wanneperveen,Steenwijkerland,Overijssel,VBO,6.118548,52.703576
Burgemeester Pastoorstraat,52,,,7946BB,Wanneperveen,Steenwijkerland,Overijssel,VBO,6.118576,52.703523
Burgemeester Pastoorstraat,54,,,7946BB,Wanneperveen,Steenwijkerland,Overijssel,VBO,6.118604,52.703474
Burgemeester Pastoorstraat,56,,,7946BB,Wanneperveen,Steenwijkerland,Overijssel,VBO,6.118633,52.703429
Burgemeester Pastoorstraat,58,,,7946BB,Wanneperveen,Steenwijkerland,Overijssel,VBO,6.118664,52.703384
Burgemeester Pastoorstraat,60,,,7946BB,Wanneperveen,Steenwijkerland,Overijssel,VBO,6.118681,52.703612
Burgemeester Pastoorstraat,62,,,7946BB,Wanneperveen,Steenwijkerland,Overijssel,VBO,6.118720,52.703559
Burgemeester Pastoorstraat,64,,,7946BB,Wanneperveen,Steenwijkerland,Overijssel,VBO,6.118743,52.703512
Burgemeester Pastoorstraat,66,,,7946BB,Wanneperveen,Steenwijkerland,Overijssel,VBO,6.118779,52.703459
Burgemeester Pastoorstraat,68,,,7946BB,Wanneperveen,Steenwijkerland,Overijssel,VBO,6.118807,52.703410
Burgemeester Pastoorstraat,70,,,7946BB,Wanneperveen,Steenwijkerland,Overijssel,VBO,6.118814,52.703657
Burgemeester Pastoorstraat,72,,,7946BB,Wanneperveen,Steenwijkerland,Overijssel,VBO,6.118850,52.703597
Burgemeester Pastoorstraat,74,,,7946BB,Wanneperveen,Steenwijkerland,Overijssel,VBO,6.118884,52.703545
Burgemeester Pastoorstraat,76,,,7946BB,Wanneperveen,Steenwijkerland,Overijssel,VBO,6.118923,52.703482
Burgemeester Pastoorstraat,78,,,7946BB,Wanneperveen,Steenwijkerland,Overijssel,VBO,6.118954,52.703430
Burgemeester Pastoorstraat,80,,,7946BB,Wanneperveen,Steenwijkerland,Overijssel,VBO,6.118952,52.703678
Burgemeester Pastoorstraat,82,,,7946BB,Wanneperveen,Steenwijkerland,Overijssel,VBO,6.118991,52.703612
Burgemeester Pastoorstraat,84,,,7946BB,Wanneperveen,Steenwijkerland,Overijssel,VBO,6.119035,52.703536
Burgemeester Pastoorstraat,86,,,7946BB,Wanneperveen,Steenwijkerland,Overijssel,VBO,6.119081,52.703459
Burg. Roegestraat,2,,,7946BC,Wanneperveen,Steenwijkerland,Overijssel,VBO,6.118722,52.704284
Burg. Roegestraat,4,,,7946BC,Wanneperveen,Steenwijkerland,Overijssel,VBO,6.118633,52.704258
Burg. Roegestraat,6,,,7946BC,Wanneperveen,Steenwijkerland,Overijssel,VBO,6.118439,52.704151
Burg. Roegestraat,8,,,7946BC,Wanneperveen,Steenwijkerland,Overijssel,VBO,6.118365,52.704134
Burg. Roegestraat,10,,,7946BC,Wanneperveen,Steenwijkerland,Overijssel,VBO,6.117993,52.704055
Weth. Visscherstraat,1,,,7946BD,Wanneperveen,Steenwijkerland,Overijssel,VBO,6.118180,52.705049
Weth. Visscherstraat,2,,,7946BD,Wanneperveen,Steenwijkerland,Overijssel,VBO,6.118021,52.705286
Weth. Visscherstraat,3,,,7946BD,Wanneperveen,Steenwijkerland,Overijssel,VBO,6.117990,52.704972
Weth. Visscherstraat,4,,,7946BD,Wanneperveen,Steenwijkerland,Overijssel,VBO,6.117911,52.705263
Weth. Visscherstraat,5,,,7946BD,Wanneperveen,Steenwijkerland,Overijssel,VBO,6.117684,52.704921
Weth. Visscherstraat,6,,,7946BD,Wanneperveen,Steenwijkerland,Overijssel,VBO,6.117709,52.705228
Weth. Visscherstraat,7,,,7946BD,Wanneperveen,Steenwijkerland,Overijssel,VBO,6.117738,52.704832
Weth. Visscherstraat,8,,,7946BD,Wanneperveen,Steenwijkerland,Overijssel,VBO,6.117571,52.705204
Weth. Visscherstraat,9,,,7946BD,Wanneperveen,Steenwijkerland,Overijssel,VBO,6.117752,52.704677
Weth. Visscherstraat,10,,,7946BD,Wanneperveen,Steenwijkerland,Overijssel,VBO,6.117383,52.705121
Weth. Visscherstraat,11,,,7946BD,Wanneperveen,Steenwijkerland,Overijssel,VBO,6.117796,52.704613
Weth. Visscherstraat,12,,,7946BD,Wanneperveen,Steenwijkerland,Overijssel,VBO,6.117862,52.704367
Weth. Visscherstraat,13,,,7946BD,Wanneperveen,Steenwijkerland,Overijssel,VBO,6.118166,52.704638
Weth. Visscherstraat,14,,,7946BD,Wanneperveen,Steenwijkerland,Overijssel,VBO,6.118132,52.704405
Weth. Visscherstraat,15,,,7946BD,Wanneperveen,Steenwijkerland,Overijssel,VBO,6.118359,52.704691
Weth. Visscherstraat,16,,,7946BD,Wanneperveen,Steenwijkerland,Overijssel,VBO,6.118222,52.704431
Weth. Visscherstraat,18,,,7946BD,Wanneperveen,Steenwijkerland,Overijssel,VBO,6.118474,52.704483
Weth. Visscherstraat,20,,,7946BD,Wanneperveen,Steenwijkerland,Overijssel,VBO,6.118563,52.704501
Weth. Huismanstraat,1,,,7946BE,Wanneperveen,Steenwijkerland,Overijssel,VBO,6.117863,52.705525
Weth. Huismanstraat,2,,,7946BE,Wanneperveen,Steenwijkerland,Overijssel,VBO,6.117638,52.705697
Weth. Huismanstraat,3,,,7946BE,Wanneperveen,Steenwijkerland,Overijssel,VBO,6.117786,52.705505
Weth. Huismanstraat,4,,,7946BE,Wanneperveen,Steenwijkerland,Overijssel,VBO,6.117512,52.705665
Weth. Huismanstraat,5,,,7946BE,Wanneperveen,Steenwijkerland,Overijssel,VBO,6.117707,52.705490
Weth. Huismanstraat,6,,,7946BE,Wanneperveen,Steenwijkerland,Overijssel,VBO,6.117231,52.705630
Weth. Huismanstraat,7,,,7946BE,Wanneperveen,Steenwijkerland,Overijssel,VBO,6.117601,52.705467
Weth. Huismanstraat,8,,,7946BE,Wanneperveen,Steenwijkerland,Overijssel,VBO,6.117187,52.705692
Weth. Huismanstraat,9,,,7946BE,Wanneperveen,Steenwijkerland,Overijssel,VBO,6.117520,52.705450
Weth. Huismanstraat,10,,,7946BE,Wanneperveen,Steenwijkerland,Overijssel,VBO,6.117132,52.705842
Weth. Huismanstraat,11,,,7946BE,Wanneperveen,Steenwijkerland,Overijssel,VBO,6.117441,52.705429
Weth. Huismanstraat,12,,,7946BE,Wanneperveen,Steenwijkerland,Overijssel,VBO,6.117095,52.705920
Weth. Huismanstraat,13,,,7946BE,Wanneperveen,Steenwijkerland,Overijssel,VBO,6.117236,52.705368
Weth. Huismanstraat,14,,,7946BE,Wanneperveen,Steenwijkerland,Overijssel,VBO,6.117374,52.705992
Weth. Huismanstraat,16,,,7946BE,Wanneperveen,Steenwijkerland,Overijssel,VBO,6.117481,52.706012
Nieuwe Dijk,2,,,7946KA,Wanneperveen,Steenwijkerland,Overijssel,VBO,6.148511,52.706519
Driftlakenseweg,1,,,7946KD,Wanneperveen,Steenwijkerland,Overijssel,VBO,6.146110,52.711195
Driftlakenseweg,2,,,7946KD,Wanneperveen,Steenwijkerland,Overijssel,VBO,6.145855,52.710990
Roekebosscheweg,1,,,7946KE,Wanneperveen,Steenwijkerland,Overijssel,VBO,6.140783,52.718957
Roekebosscheweg,2,,,7946KE,Wanneperveen,Steenwijkerland,Overijssel,VBO,6.140109,52.718485
Roekebosscheweg,3,a,,7946KE,Wanneperveen,Steenwijkerland,Overijssel,VBO,6.137414,52.720138
Roekebosscheweg,3,,,7946KE,Wanneperveen,Steenwijkerland,Overijssel,VBO,6.138702,52.720175
Roekebosscheweg,4,t,,7946KE,Wanneperveen,Steenwijkerland,Overijssel,VBO,6.136604,52.719550
Roekebosscheweg,4,,,7946KE,Wanneperveen,Steenwijkerland,Overijssel,VBO,6.136946,52.719638
Roekebosscheweg,5,a,,7946KE,Wanneperveen,Steenwijkerland,Overijssel,VBO,6.135345,52.722074
Roekebosscheweg,5,,,7946KE,Wanneperveen,Steenwijkerland,Overijssel,VBO,6.134712,52.723130
Roekebosscheweg,6,,,7946KE,Wanneperveen,Steenwijkerland,Overijssel,VBO,6.133963,52.720034
Roekebosscheweg,7,,,7946KE,Wanneperveen,Steenwijkerland,Overijssel,VBO,6.135996,52.718610
Roekebosscheweg,8,,,7946KE,Wanneperveen,Steenwijkerland,Overijssel,VBO,6.134498,52.719258
Klosseweg,1,,,7946KH,Wanneperveen,Steenwijkerland,Overijssel,VBO,6.127876,52.739107
Klosseweg,2,,,7946KH,Wanneperveen,Steenwijkerland,Overijssel,VBO,6.127323,52.739658
Klosseweg,3,,,7946KH,Wanneperveen,Steenwijkerland,Overijssel,VBO,6.126800,52.739383
Klosseweg,4,,,7946KH,Wanneperveen,Steenwijkerland,Overijssel,VBO,6.126455,52.739107
Klosseweg,5,,,7946KH,Wanneperveen,Steenwijkerland,Overijssel,VBO,6.126895,52.738834
Klosseweg,6,,,7946KH,Wanneperveen,Steenwijkerland,Overijssel,VBO,6.125103,52.738819
Klosseweg,7,,,7946KH,Wanneperveen,Steenwijkerland,Overijssel,VBO,6.124657,52.738713
Klosseweg,8,,,7946KH,Wanneperveen,Steenwijkerland,Overijssel,VBO,6.123997,52.738259
Klosseweg,9,t,,7946KH,Wanneperveen,Steenwijkerland,Overijssel,VBO,6.122141,52.738281
Klosseweg,9,,,7946KH,Wanneperveen,Steenwijkerland,Overijssel,VBO,6.122172,52.738010
Klosseweg,10,,,7946KH,Wanneperveen,Steenwijkerland,Overijssel,VBO,6.121256,52.738123
Klosseweg,11,,,7946KH,Wanneperveen,Steenwijkerland,Overijssel,VBO,6.121063,52.738098
Klosseweg,12,,,7946KH,Wanneperveen,Steenwijkerland,Overijssel,VBO,6.120396,52.738030
Zwollingerkampweg,1,,,7946KJ,Wanneperveen,Steenwijkerland,Overijssel,VBO,6.141069,52.708944
Zwollingerkampweg,2,,,7946KJ,Wanneperveen,Steenwijkerland,Overijssel,VBO,6.141322,52.708996
Zwollingerkampweg,3,,,7946KJ,Wanneperveen,Steenwijkerland,Overijssel,VBO,6.141574,52.709049
Gasthuisdijk,1,a,,7946KK,Wanneperveen,Steenwijkerland,Overijssel,VBO,6.139754,52.709657
Gasthuisdijk,1,,,7946KK,Wanneperveen,Steenwijkerland,Overijssel,VBO,6.139939,52.709481
Gasthuisdijk,2,,,7946KK,Wanneperveen,Steenwijkerland,Overijssel,VBO,6.141089,52.708351
Gasthuisdijk,3,,,7946KK,Wanneperveen,Steenwijkerland,Overijssel,VBO,6.135484,52.714623
Gasthuisdijk,4,,,7946KK,Wanneperveen,Steenwijkerland,Overijssel,VBO,6.141045,52.708405
Gasthuisdijk,5,t,,7946KK,Wanneperveen,Steenwijkerland,Overijssel,VBO,6.135357,52.714304
Gasthuisdijk,6,,,7946KK,Wanneperveen,Steenwijkerland,Overijssel,VBO,6.140973,52.708504
Gasthuisdijk,7,,,7946KK,Wanneperveen,Steenwijkerland,Overijssel,VBO,6.134617,52.714107
Gasthuisdijk,8,,,7946KK,Wanneperveen,Steenwijkerland,Overijssel,VBO,6.140944,52.708558
Gasthuisdijk,10,,,7946KK,Wanneperveen,Steenwijkerland,Overijssel,VBO,6.140872,52.708667
Gasthuisdijk,12,,,7946KK,Wanneperveen,Steenwijkerland,Overijssel,VBO,6.140829,52.708721
Gasthuisdijk,14,,,7946KK,Wanneperveen,Steenwijkerland,Overijssel,VBO,6.140757,52.708820
Gasthuisdijk,16,,,7946KK,Wanneperveen,Steenwijkerland,Overijssel,VBO,6.140713,52.708874
Gasthuisdijk,20,,,7946KK,Wanneperveen,Steenwijkerland,Overijssel,VBO,6.121853,52.737517
Urkerpad,1,,,7946KL,Wanneperveen,Steenwijkerland,Overijssel,VBO,6.134457,52.705606
Urkerpad,3,,,7946KL,Wanneperveen,Steenwijkerland,Overijssel,VBO,6.134435,52.705139
Urkerpad,4,,,7946KL,Wanneperveen,Steenwijkerland,Overijssel,VBO,6.134577,52.704824
Lozedijk,1,a,,7946KM,Wanneperveen,Steenwijkerland,Overijssel,VBO,6.124999,52.703598
Lozedijk,1,t,,7946KM,Wanneperveen,Steenwijkerland,Overijssel,VBO,6.124956,52.703732
Lozedijk,2,,,7946KM,Wanneperveen,Steenwijkerland,Overijssel,VBO,6.125055,52.703418
Lozedijk,3,,,7946KM,Wanneperveen,Steenwijkerland,Overijssel,VBO,6.125098,52.703346
Lozedijk,4,,,7946KM,Wanneperveen,Steenwijkerland,Overijssel,VBO,6.125156,52.703265
Lozedijk,5,,,7946KM,Wanneperveen,Steenwijkerland,Overijssel,VBO,6.125199,52.703193
Lozedijk,6,,,7946KM,Wanneperveen,Steenwijkerland,Overijssel,VBO,6.125257,52.703112
Lozedijk,7,,,7946KM,Wanneperveen,Steenwijkerland,Overijssel,VBO,6.125315,52.703030
Lozedijk,8,a,,7946KM,Wanneperveen,Steenwijkerland,Overijssel,VBO,6.125385,52.702841
Lozedijk,8,b,,7946KM,Wanneperveen,Steenwijkerland,Overijssel,VBO,6.125470,52.702562
Lozedijk,8,c,,7946KM,Wanneperveen,Steenwijkerland,Overijssel,VBO,6.125488,52.702408
Lozedijk,8,,,7946KM,Wanneperveen,Steenwijkerland,Overijssel,VBO,6.125328,52.702922
Lozedijk,9,,,7946KM,Wanneperveen,Steenwijkerland,Overijssel,VBO,6.125760,52.702264
Lozedijk,10,,,7946KM,Wanneperveen,Steenwijkerland,Overijssel,VBO,6.127529,52.698325
Reeënweg,1,,,7946KN,Wanneperveen,Steenwijkerland,Overijssel,VBO,6.119306,52.679844
Veneweg,1,,,7946LA,Wanneperveen,Steenwijkerland,Overijssel,VBO,6.143322,52.709154
Veneweg,2,,,7946LA,Wanneperveen,Steenwijkerland,Overijssel,VBO,6.142969,52.709282
Veneweg,3,,,7946LA,Wanneperveen,Steenwijkerland,Overijssel,VBO,6.143065,52.708850
Veneweg,4,,,7946LA,Wanneperveen,Steenwijkerland,Overijssel,VBO,6.142445,52.708899
Veneweg,6,,,7946LA,Wanneperveen,Steenwijkerland,Overijssel,VBO,6.142265,52.708775
Veneweg,7,,,7946LA,Wanneperveen,Steenwijkerland,Overijssel,VBO,6.141508,52.707764
Veneweg,8,,,7946LA,Wanneperveen,Steenwijkerland,Overijssel,VBO,6.141996,52.708632
Veneweg,9,a,,7946LA,Wanneperveen,Steenwijkerland,Overijssel,VBO,6.141127,52.707524
Veneweg,9,,,7946LA,Wanneperveen,Steenwijkerland,Overijssel,VBO,6.141007,52.707664
Veneweg,10,,,7946LA,Wanneperveen,Steenwijkerland,Overijssel,VBO,6.141936,52.708588
Veneweg,11,,,7946LA,Wanneperveen,Steenwijkerland,Overijssel,VBO,6.140675,52.707544
Veneweg,12,,,7946LA,Wanneperveen,Steenwijkerland,Overijssel,VBO,6.141831,52.708508
Veneweg,13,,,7946LA,Wanneperveen,Steenwijkerland,Overijssel,VBO,6.140155,52.707413
Veneweg,14,,,7946LB,Wanneperveen,Steenwijkerland,Overijssel,VBO,6.141711,52.708419
Veneweg,15,,,7946LB,Wanneperveen,Steenwijkerland,Overijssel,VBO,6.139282,52.707301
Veneweg,16,,,7946LB,Wanneperveen,Steenwijkerland,Overijssel,VBO,6.141652,52.708374
Veneweg,17,,,7946LB,Wanneperveen,Steenwijkerland,Overijssel,VBO,6.138939,52.707223
Veneweg,18,,,7946LB,Wanneperveen,Steenwijkerland,Overijssel,VBO,6.141547,52.708294
Veneweg,19,,,7946LB,Wanneperveen,Steenwijkerland,Overijssel,VBO,6.138597,52.707153
Veneweg,20,,,7946LB,Wanneperveen,Steenwijkerland,Overijssel,VBO,6.141263,52.708125
Veneweg,21,,,7946LB,Wanneperveen,Steenwijkerland,Overijssel,VBO,6.138390,52.707118
Veneweg,22,a,,7946LB,Wanneperveen,Steenwijkerland,Overijssel,VBO,6.140847,52.708065
Veneweg,22,b,,7946LB,Wanneperveen,Steenwijkerland,Overijssel,VBO,6.140790,52.708173
Veneweg,23,,,7946LB,Wanneperveen,Steenwijkerland,Overijssel,VBO,6.138225,52.707003
Veneweg,24,,,7946LB,Wanneperveen,Steenwijkerland,Overijssel,VBO,6.140442,52.707717
Veneweg,25,,,7946LB,Wanneperveen,Steenwijkerland,Overijssel,VBO,6.137840,52.706987
Veneweg,26,t,,7946LB,Wanneperveen,Steenwijkerland,Overijssel,VBO,6.140087,52.707719
Veneweg,27,,,7946LB,Wanneperveen,Steenwijkerland,Overijssel,VBO,6.137127,52.706839
Veneweg,28,,,7946LC,Wanneperveen,Steenwijkerland,Overijssel,VBO,6.139195,52.707482
Veneweg,29,,,7946LC,Wanneperveen,Steenwijkerland,Overijssel,VBO,6.136712,52.706770
Veneweg,30,,,7946LC,Wanneperveen,Steenwijkerland,Overijssel,VBO,6.138854,52.707430
Veneweg,31,a,,7946LC,Wanneperveen,Steenwijkerland,Overijssel,VBO,6.136369,52.706646
Veneweg,31,,,7946LC,Wanneperveen,Steenwijkerland,Overijssel,VBO,6.136458,52.706449
Veneweg,32,,,7946LC,Wanneperveen,Steenwijkerland,Overijssel,VBO,6.138541,52.707342
Veneweg,33,,,7946LC,Wanneperveen,Steenwijkerland,Overijssel,VBO,6.135998,52.706576
Veneweg,34,,,7946LC,Wanneperveen,Steenwijkerland,Overijssel,VBO,6.138096,52.707246
Veneweg,35,,,7946LC,Wanneperveen,Steenwijkerland,Overijssel,VBO,6.135790,52.706533
Veneweg,36,,,7946LC,Wanneperveen,Steenwijkerland,Overijssel,VBO,6.137695,52.707159
Veneweg,37,,,7946LC,Wanneperveen,Steenwijkerland,Overijssel,VBO,6.135612,52.706498
Veneweg,38,,,7946LC,Wanneperveen,Steenwijkerland,Overijssel,VBO,6.137531,52.707115
Veneweg,39,,,7946LC,Wanneperveen,Steenwijkerland,Overijssel,VBO,6.135122,52.706384
Veneweg,40,,,7946LC,Wanneperveen,Steenwijkerland,Overijssel,VBO,6.136938,52.707029
Veneweg,41,,,7946LC,Wanneperveen,Steenwijkerland,Overijssel,VBO,6.134437,52.706119
Veneweg,42,,,7946LC,Wanneperveen,Steenwijkerland,Overijssel,VBO,6.136790,52.707003
Veneweg,43,,,7946LC,Wanneperveen,Steenwijkerland,Overijssel,VBO,6.134081,52.706067
Veneweg,44,,,7946LC,Wanneperveen,Steenwijkerland,Overijssel,VBO,6.136418,52.706906
Veneweg,45,,,7946LC,Wanneperveen,Steenwijkerland,Overijssel,VBO,6.133842,52.705970
Veneweg,46,,,7946LC,Wanneperveen,Steenwijkerland,Overijssel,VBO,6.136225,52.706863
Veneweg,47,,,7946LD,Wanneperveen,Steenwijkerland,Overijssel,VBO,6.133574,52.705864
Veneweg,48,,,7946LD,Wanneperveen,Steenwijkerland,Overijssel,VBO,6.135780,52.706784
Veneweg,49,,,7946LD,Wanneperveen,Steenwijkerland,Overijssel,VBO,6.131497,52.705535
Veneweg,50,,,7946LD,Wanneperveen,Steenwijkerland,Overijssel,VBO,6.135188,52.706797
Veneweg,51,,,7946LD,Wanneperveen,Steenwijkerland,Overijssel,VBO,6.131228,52.705375
Veneweg,52,,,7946LD,Wanneperveen,Steenwijkerland,Overijssel,VBO,6.134903,52.706547
Veneweg,53,a,,7946LD,Wanneperveen,Steenwijkerland,Overijssel,VBO,6.130828,52.705360
Veneweg,53,,,7946LD,Wanneperveen,Steenwijkerland,Overijssel,VBO,6.130871,52.705260
Veneweg,54,,,7946LD,Wanneperveen,Steenwijkerland,Overijssel,VBO,6.134533,52.706541
Veneweg,55,,,7946LD,Wanneperveen,Steenwijkerland,Overijssel,VBO,6.129491,52.705053
Veneweg,56,,,7946LD,Wanneperveen,Steenwijkerland,Overijssel,VBO,6.134267,52.706560
Veneweg,57,,,7946LD,Wanneperveen,Steenwijkerland,Overijssel,VBO,6.129871,52.703901
Veneweg,58,,,7946LD,Wanneperveen,Steenwijkerland,Overijssel,VBO,6.133758,52.706231
Veneweg,59,,,7946LD,Wanneperveen,Steenwijkerland,Overijssel,VBO,6.128986,52.704922
Veneweg,60,,,7946LD,Wanneperveen,Steenwijkerland,Overijssel,VBO,6.133268,52.706126
Veneweg,61,a,,7946LD,Wanneperveen,Steenwijkerland,Overijssel,VBO,6.128512,52.704701
Veneweg,61,,,7946LD,Wanneperveen,Steenwijkerland,Overijssel,VBO,6.128571,52.704843
Veneweg,62,,,7946LE,Wanneperveen,Steenwijkerland,Overijssel,VBO,6.132840,52.706112
Veneweg,63,,,7946LE,Wanneperveen,Steenwijkerland,Overijssel,VBO,6.128006,52.704721
Veneweg,64,,,7946LE,Wanneperveen,Steenwijkerland,Overijssel,VBO,6.132759,52.706122
Veneweg,66,t,,7946LE,Wanneperveen,Steenwijkerland,Overijssel,VBO,6.132516,52.706273
Veneweg,67,,,7946LE,Wanneperveen,Steenwijkerland,Overijssel,VBO,6.127573,52.704472
Veneweg,68,,,7946LE,Wanneperveen,Steenwijkerland,Overijssel,VBO,6.131397,52.705742
Veneweg,69,,,7946LE,Wanneperveen,Steenwijkerland,Overijssel,VBO,6.127248,52.704501
Veneweg,70,,,7946LE,Wanneperveen,Steenwijkerland,Overijssel,VBO,6.130952,52.705655
Veneweg,71,,,7946LE,Wanneperveen,Steenwijkerland,Overijssel,VBO,6.127518,52.703852
Veneweg,72,,,7946LE,Wanneperveen,Steenwijkerland,Overijssel,VBO,6.130433,52.705605
Veneweg,73,,,7946LE,Wanneperveen,Steenwijkerland,Overijssel,VBO,6.126907,52.704449
Veneweg,74,,,7946LE,Wanneperveen,Steenwijkerland,Overijssel,VBO,6.130105,52.705481
Veneweg,75,,,7946LE,Wanneperveen,Steenwijkerland,Overijssel,VBO,6.126772,52.704369
Veneweg,76,,,7946LE,Wanneperveen,Steenwijkerland,Overijssel,VBO,6.130047,52.705553
Veneweg,77,,,7946LE,Wanneperveen,Steenwijkerland,Overijssel,VBO,6.126520,52.704344
Veneweg,78,,,7946LE,Wanneperveen,Steenwijkerland,Overijssel,VBO,6.129703,52.705322
Veneweg,79,,,7946LE,Wanneperveen,Steenwijkerland,Overijssel,VBO,6.126387,52.704309
Veneweg,80,,,7946LG,Wanneperveen,Steenwijkerland,Overijssel,VBO,6.129391,52.705243
Veneweg,81,,,7946LG,Wanneperveen,Steenwijkerland,Overijssel,VBO,6.126469,52.703907
Veneweg,82,,,7946LG,Wanneperveen,Steenwijkerland,Overijssel,VBO,6.129094,52.705182
Veneweg,83,,,7946LG,Wanneperveen,Steenwijkerland,Overijssel,VBO,6.126164,52.704238
Veneweg,84,,,7946LG,Wanneperveen,Steenwijkerland,Overijssel,VBO,6.128767,52.705094
Veneweg,85,,,7946LG,Wanneperveen,Steenwijkerland,Overijssel,VBO,6.126044,52.704194
Veneweg,87,,,7946LG,Wanneperveen,Steenwijkerland,Overijssel,VBO,6.125821,52.704079
Veneweg,88,,,7946LG,Wanneperveen,Steenwijkerland,Overijssel,VBO,6.128470,52.705024
Veneweg,90,,,7946LG,Wanneperveen,Steenwijkerland,Overijssel,VBO,6.128188,52.704972
Veneweg,91,,,7946LG,Wanneperveen,Steenwijkerland,Overijssel,VBO,6.126010,52.703732
Veneweg,92,,,7946LG,Wanneperveen,Steenwijkerland,Overijssel,VBO,6.127995,52.704919
Veneweg,93,,,7946LG,Wanneperveen,Steenwijkerland,Overijssel,VBO,6.125619,52.703514
Veneweg,94,,,7946LG,Wanneperveen,Steenwijkerland,Overijssel,VBO,6.127712,52.704831
Veneweg,95,,,7946LG,Wanneperveen,Steenwijkerland,Overijssel,VBO,6.125869,52.703431
Veneweg,96,,,7946LG,Wanneperveen,Steenwijkerland,Overijssel,VBO,6.127415,52.704779
Veneweg,97,,,7946LH,Wanneperveen,Steenwijkerland,Overijssel,VBO,6.125936,52.703053
Veneweg,98,,,7946LH,Wanneperveen,Steenwijkerland,Overijssel,VBO,6.127133,52.704682
Veneweg,99,,,7946LH,Wanneperveen,Steenwijkerland,Overijssel,VBO,6.126062,52.702612
Veneweg,100,a,,7946LH,Wanneperveen,Steenwijkerland,Overijssel,VBO,6.126839,52.704764
Veneweg,100,,,7946LH,Wanneperveen,Steenwijkerland,Overijssel,VBO,6.126850,52.704611
Veneweg,101,,,7946LH,Wanneperveen,Steenwijkerland,Overijssel,VBO,6.125300,52.703947
Veneweg,102,,,7946LH,Wanneperveen,Steenwijkerland,Overijssel,VBO,6.126672,52.704568
Veneweg,103,a,,7946LH,Wanneperveen,Steenwijkerland,Overijssel,VBO,6.124672,52.703747
Veneweg,103,b,,7946LH,Wanneperveen,Steenwijkerland,Overijssel,VBO,6.124596,52.703760
Veneweg,103,c,,7946LH,Wanneperveen,Steenwijkerland,Overijssel,VBO,6.124790,52.703787
Veneweg,103,d,,7946LH,Wanneperveen,Steenwijkerland,Overijssel,VBO,6.124865,52.703801
Veneweg,103,e,,7946LH,Wanneperveen,Steenwijkerland,Overijssel,VBO,6.124644,52.703779
Veneweg,103,,,7946LH,Wanneperveen,Steenwijkerland,Overijssel,VBO,6.124735,52.703762
Veneweg,104,,,7946LH,Wanneperveen,Steenwijkerland,Overijssel,VBO,6.126582,52.704539
Veneweg,105,,,7946LH,Wanneperveen,Steenwijkerland,Overijssel,VBO,6.124850,52.703063
Veneweg,106,,,7946LH,Wanneperveen,Steenwijkerland,Overijssel,VBO,6.126375,52.704489
Veneweg,107,a,,7946LH,Wanneperveen,Steenwijkerland,Overijssel,VBO,6.124213,52.703484
Veneweg,107,,,7946LH,Wanneperveen,Steenwijkerland,Overijssel,VBO,6.124313,52.703627
Veneweg,108,,,7946LH,Wanneperveen,Steenwijkerland,Overijssel,VBO,6.125711,52.704628
Veneweg,109,,,7946LH,Wanneperveen,Steenwijkerland,Overijssel,VBO,6.123947,52.703497
Veneweg,110,,,7946LH,Wanneperveen,Steenwijkerland,Overijssel,VBO,6.125752,52.704403
Veneweg,111,,,7946LH,Wanneperveen,Steenwijkerland,Overijssel,VBO,6.123856,52.703363
Veneweg,112,,,7946LH,Wanneperveen,Steenwijkerland,Overijssel,VBO,6.125750,52.704313
Veneweg,113,,,7946LH,Wanneperveen,Steenwijkerland,Overijssel,VBO,6.123677,52.703301
Veneweg,115,,,7946LH,Wanneperveen,Steenwijkerland,Overijssel,VBO,6.123440,52.703303
Veneweg,114,,,7946LJ,Wanneperveen,Steenwijkerland,Overijssel,VBO,6.125602,52.704278
Veneweg,116,,,7946LJ,Wanneperveen,Steenwijkerland,Overijssel,VBO,6.125468,52.704234
Veneweg,117,,,7946LJ,Wanneperveen,Steenwijkerland,Overijssel,VBO,6.123262,52.703259
Veneweg,118,,,7946LJ,Wanneperveen,Steenwijkerland,Overijssel,VBO,6.124857,52.704831
Veneweg,119,,,7946LJ,Wanneperveen,Steenwijkerland,Overijssel,VBO,6.122726,52.703073
Veneweg,120,,,7946LJ,Wanneperveen,Steenwijkerland,Overijssel,VBO,6.124519,52.704985
Veneweg,121,,,7946LJ,Wanneperveen,Steenwijkerland,Overijssel,VBO,6.121967,52.702817
Veneweg,122,,,7946LJ,Wanneperveen,Steenwijkerland,Overijssel,VBO,6.125156,52.704137
Veneweg,123,,,7946LJ,Wanneperveen,Steenwijkerland,Overijssel,VBO,6.120912,52.702518
Veneweg,124,,,7946LJ,Wanneperveen,Steenwijkerland,Overijssel,VBO,6.124650,52.703969
Veneweg,125,,,7946LJ,Wanneperveen,Steenwijkerland,Overijssel,VBO,6.120166,52.702163
Veneweg,126,,,7946LJ,Wanneperveen,Steenwijkerland,Overijssel,VBO,6.124486,52.703916
Veneweg,127,,,7946LJ,Wanneperveen,Steenwijkerland,Overijssel,VBO,6.116982,52.701069
Veneweg,128,,,7946LJ,Wanneperveen,Steenwijkerland,Overijssel,VBO,6.124263,52.703864
Veneweg,129,,,7946LJ,Wanneperveen,Steenwijkerland,Overijssel,VBO,6.114722,52.700363
Veneweg,130,,,7946LJ,Wanneperveen,Steenwijkerland,Overijssel,VBO,6.123877,52.703758
Veneweg,131,,,7946LJ,Wanneperveen,Steenwijkerland,Overijssel,VBO,6.110908,52.699282
Veneweg,132,,,7946LJ,Wanneperveen,Steenwijkerland,Overijssel,VBO,6.123434,52.703806
Veneweg,133,,,7946LK,Wanneperveen,Steenwijkerland,Overijssel,VBO,6.110575,52.699184
Veneweg,134,,,7946LK,Wanneperveen,Steenwijkerland,Overijssel,VBO,6.123370,52.703519
Veneweg,135,,,7946LK,Wanneperveen,Steenwijkerland,Overijssel,VBO,6.110456,52.699149
Veneweg,136,,,7946LK,Wanneperveen,Steenwijkerland,Overijssel,VBO,6.123191,52.703448
Veneweg,137,,,7946LK,Wanneperveen,Steenwijkerland,Overijssel,VBO,6.110129,52.699070
Veneweg,138,,,7946LK,Wanneperveen,Steenwijkerland,Overijssel,VBO,6.122953,52.703359
Veneweg,139,,,7946LK,Wanneperveen,Steenwijkerland,Overijssel,VBO,6.109906,52.698991
Veneweg,140,,,7946LK,Wanneperveen,Steenwijkerland,Overijssel,VBO,6.122775,52.703325
Veneweg,141,,,7946LK,Wanneperveen,Steenwijkerland,Overijssel,VBO,6.109117,52.698726
Veneweg,142,,,7946LK,Wanneperveen,Steenwijkerland,Overijssel,VBO,6.122701,52.703307
Veneweg,143,,,7946LK,Wanneperveen,Steenwijkerland,Overijssel,VBO,6.108686,52.698567
Veneweg,144,,,7946LL,Wanneperveen,Steenwijkerland,Overijssel,VBO,6.122433,52.703228
Veneweg,145,,,7946LL,Wanneperveen,Steenwijkerland,Overijssel,VBO,6.108463,52.698496
Veneweg,146,,,7946LL,Wanneperveen,Steenwijkerland,Overijssel,VBO,6.122344,52.703210
Veneweg,147,,,7946LL,Wanneperveen,Steenwijkerland,Overijssel,VBO,6.108061,52.698364
Veneweg,148,,,7946LL,Wanneperveen,Steenwijkerland,Overijssel,VBO,6.122195,52.703166
Veneweg,150,,,7946LL,Wanneperveen,Steenwijkerland,Overijssel,VBO,6.121185,52.702912
Veneweg,151,,,7946LL,Wanneperveen,Steenwijkerland,Overijssel,VBO,6.106455,52.697834
Veneweg,152,,,7946LL,Wanneperveen,Steenwijkerland,Overijssel,VBO,6.120829,52.702860
Veneweg,153,,,7946LL,Wanneperveen,Steenwijkerland,Overijssel,VBO,6.105563,52.697579
Veneweg,154,,,7946LL,Wanneperveen,Steenwijkerland,Overijssel,VBO,6.120055,52.702568
Veneweg,155,,,7946LL,Wanneperveen,Steenwijkerland,Overijssel,VBO,6.104775,52.697377
Veneweg,156,,,7946LL,Wanneperveen,Steenwijkerland,Overijssel,VBO,6.119757,52.702444
Veneweg,157,,,7946LL,Wanneperveen,Steenwijkerland,Overijssel,VBO,6.104210,52.697201
Veneweg,158,,,7946LL,Wanneperveen,Steenwijkerland,Overijssel,VBO,6.119116,52.702197
Veneweg,159,,,7946LL,Wanneperveen,Steenwijkerland,Overijssel,VBO,6.103200,52.696919
Veneweg,160,a,,7946LM,Wanneperveen,Steenwijkerland,Overijssel,VBO,6.118741,52.702095
Veneweg,160,,,7946LM,Wanneperveen,Steenwijkerland,Overijssel,VBO,6.118685,52.702065
Veneweg,161,,,7946LM,Wanneperveen,Steenwijkerland,Overijssel,VBO,6.102932,52.696831
Veneweg,162,,,7946LM,Wanneperveen,Steenwijkerland,Overijssel,VBO,6.117436,52.701668
Veneweg,163,,,7946LM,Wanneperveen,Steenwijkerland,Overijssel,VBO,6.102442,52.696690
Veneweg,164,,,7946LM,Wanneperveen,Steenwijkerland,Overijssel,VBO,6.115680,52.701050
Veneweg,165,,,7946LM,Wanneperveen,Steenwijkerland,Overijssel,VBO,6.101967,52.696585
Veneweg,166,t,,7946LM,Wanneperveen,Steenwijkerland,Overijssel,VBO,6.109361,52.708979
Veneweg,166,,,7946LM,Wanneperveen,Steenwijkerland,Overijssel,VBO,6.109450,52.709068
Veneweg,167,,,7946LM,Wanneperveen,Steenwijkerland,Overijssel,VBO,6.101788,52.696505
Veneweg,168,t,,7946LM,Wanneperveen,Steenwijkerland,Overijssel,VBO,6.115042,52.700973
Veneweg,169,a,,7946LM,Wanneperveen,Steenwijkerland,Overijssel,VBO,6.101719,52.696120
Veneweg,169,,,7946LM,Wanneperveen,Steenwijkerland,Overijssel,VBO,6.101312,52.696382
Veneweg,170,,,7946LM,Wanneperveen,Steenwijkerland,Overijssel,VBO,6.114922,52.700865
Veneweg,171,,,7946LM,Wanneperveen,Steenwijkerland,Overijssel,VBO,6.101035,52.696370
Veneweg,172,,,7946LM,Wanneperveen,Steenwijkerland,Overijssel,VBO,6.114549,52.700661
Veneweg,173,a,,7946LM,Wanneperveen,Steenwijkerland,Overijssel,VBO,6.101169,52.696225
Veneweg,173,,,7946LM,Wanneperveen,Steenwijkerland,Overijssel,VBO,6.101090,52.696375
Veneweg,174,,,7946LM,Wanneperveen,Steenwijkerland,Overijssel,VBO,6.112036,52.699894
Veneweg,175,,,7946LM,Wanneperveen,Steenwijkerland,Overijssel,VBO,6.100747,52.696230
Veneweg,176,,,7946LN,Wanneperveen,Steenwijkerland,Overijssel,VBO,6.111070,52.699613
Veneweg,177,,,7946LN,Wanneperveen,Steenwijkerland,Overijssel,VBO,6.100184,52.696120
Veneweg,178,,,7946LN,Wanneperveen,Steenwijkerland,Overijssel,VBO,6.110802,52.699525
Veneweg,179,,,7946LN,Wanneperveen,Steenwijkerland,Overijssel,VBO,6.099842,52.696041
Veneweg,180,,,7946LN,Wanneperveen,Steenwijkerland,Overijssel,VBO,6.110713,52.699498
Veneweg,181,,,7946LN,Wanneperveen,Steenwijkerland,Overijssel,VBO,6.099531,52.695998
Veneweg,182,,,7946LN,Wanneperveen,Steenwijkerland,Overijssel,VBO,6.110549,52.699454
Veneweg,183,,,7946LN,Wanneperveen,Steenwijkerland,Overijssel,VBO,6.099278,52.695882
Veneweg,184,,,7946LN,Wanneperveen,Steenwijkerland,Overijssel,VBO,6.110282,52.699384
Veneweg,185,,,7946LN,Wanneperveen,Steenwijkerland,Overijssel,VBO,6.098935,52.695705
Veneweg,186,,,7946LN,Wanneperveen,Steenwijkerland,Overijssel,VBO,6.110014,52.699305
Veneweg,187,,,7946LN,Wanneperveen,Steenwijkerland,Overijssel,VBO,6.098448,52.695797
Veneweg,188,,,7946LN,Wanneperveen,Steenwijkerland,Overijssel,VBO,6.108814,52.699186
Veneweg,189,,1,7946LN,Wanneperveen,Steenwijkerland,Overijssel,VBO,6.098209,52.694900
Veneweg,189,,10,7946LN,Wanneperveen,Steenwijkerland,Overijssel,VBO,6.099431,52.693818
Veneweg,189,,11,7946LN,Wanneperveen,Steenwijkerland,Overijssel,VBO,6.099738,52.693742
Veneweg,189,,12,7946LN,Wanneperveen,Steenwijkerland,Overijssel,VBO,6.100145,52.693759
Veneweg,189,,13,7946LN,Wanneperveen,Steenwijkerland,Overijssel,VBO,6.100314,52.693663
Veneweg,189,,14,7946LN,Wanneperveen,Steenwijkerland,Overijssel,VBO,6.100160,52.693543
Veneweg,189,,15,7946LN,Wanneperveen,Steenwijkerland,Overijssel,VBO,6.099862,52.693525
Veneweg,189,,16,7946LN,Wanneperveen,Steenwijkerland,Overijssel,VBO,6.099606,52.693539
Veneweg,189,,17,7946LN,Wanneperveen,Steenwijkerland,Overijssel,VBO,6.099312,52.693589
Veneweg,189,,18,7946LN,Wanneperveen,Steenwijkerland,Overijssel,VBO,6.099071,52.693714
Veneweg,189,,19,7946LN,Wanneperveen,Steenwijkerland,Overijssel,VBO,6.098978,52.693881
Veneweg,189,,2,7946LN,Wanneperveen,Steenwijkerland,Overijssel,VBO,6.098474,52.694917
Veneweg,189,,20,7946LN,Wanneperveen,Steenwijkerland,Overijssel,VBO,6.098899,52.694031
Veneweg,189,,21,7946LN,Wanneperveen,Steenwijkerland,Overijssel,VBO,6.098825,52.694181
Veneweg,189,,22,7946LN,Wanneperveen,Steenwijkerland,Overijssel,VBO,6.098744,52.694330
Veneweg,189,,23,7946LN,Wanneperveen,Steenwijkerland,Overijssel,VBO,6.098687,52.694463
Veneweg,189,,24,7946LN,Wanneperveen,Steenwijkerland,Overijssel,VBO,6.098640,52.694609
Veneweg,189,,25,7946LN,Wanneperveen,Steenwijkerland,Overijssel,VBO,6.098427,52.694706
Veneweg,189,,26,7946LN,Wanneperveen,Steenwijkerland,Overijssel,VBO,6.098203,52.694612
Veneweg,189,,27,7946LN,Wanneperveen,Steenwijkerland,Overijssel,VBO,6.098240,52.694393
Veneweg,189,,28,7946LN,Wanneperveen,Steenwijkerland,Overijssel,VBO,6.098323,52.694232
Veneweg,189,,29,7946LN,Wanneperveen,Steenwijkerland,Overijssel,VBO,6.098401,52.694058
Veneweg,189,,3,7946LN,Wanneperveen,Steenwijkerland,Overijssel,VBO,6.098708,52.694932
Veneweg,189,,30,7946LN,Wanneperveen,Steenwijkerland,Overijssel,VBO,6.098448,52.693892
Veneweg,189,,31,7946LN,Wanneperveen,Steenwijkerland,Overijssel,VBO,6.098495,52.693702
Veneweg,189,,32,7946LN,Wanneperveen,Steenwijkerland,Overijssel,VBO,6.098614,52.693558
Veneweg,189,,33,7946LN,Wanneperveen,Steenwijkerland,Overijssel,VBO,6.098835,52.693411
Veneweg,189,,34,7946LN,Wanneperveen,Steenwijkerland,Overijssel,VBO,6.099108,52.693323
Veneweg,189,,35,7946LN,Wanneperveen,Steenwijkerland,Overijssel,VBO,6.099503,52.693206
Veneweg,189,,36,7946LN,Wanneperveen,Steenwijkerland,Overijssel,VBO,6.099231,52.693074
Veneweg,189,,37,7946LN,Wanneperveen,Steenwijkerland,Overijssel,VBO,6.098939,52.693125
Veneweg,189,,38,7946LN,Wanneperveen,Steenwijkerland,Overijssel,VBO,6.098714,52.693224
Veneweg,189,,39,7946LN,Wanneperveen,Steenwijkerland,Overijssel,VBO,6.098502,52.693316
Veneweg,189,,4,7946LN,Wanneperveen,Steenwijkerland,Overijssel,VBO,6.098892,52.694842
Veneweg,189,,40,7946LN,Wanneperveen,Steenwijkerland,Overijssel,VBO,6.098278,52.693398
Veneweg,189,,41,7946LN,Wanneperveen,Steenwijkerland,Overijssel,VBO,6.098099,52.693543
Veneweg,189,,42,7946LN,Wanneperveen,Steenwijkerland,Overijssel,VBO,6.098086,52.693703
Veneweg,189,,43,7946LN,Wanneperveen,Steenwijkerland,Overijssel,VBO,6.098101,52.693878
Veneweg,189,,44,7946LN,Wanneperveen,Steenwijkerland,Overijssel,VBO,6.097992,52.694021
Veneweg,189,,45,7946LN,Wanneperveen,Steenwijkerland,Overijssel,VBO,6.097923,52.694168
Veneweg,189,,46,7946LN,Wanneperveen,Steenwijkerland,Overijssel,VBO,6.097903,52.694358
Veneweg,189,,47,7946LN,Wanneperveen,Steenwijkerland,Overijssel,VBO,6.097915,52.694587
Veneweg,189,,48,7946LN,Wanneperveen,Steenwijkerland,Overijssel,VBO,6.097624,52.694601
Veneweg,189,,49,7946LN,Wanneperveen,Steenwijkerland,Overijssel,VBO,6.097495,52.694473
Veneweg,189,,5,7946LN,Wanneperveen,Steenwijkerland,Overijssel,VBO,6.098948,52.694681
Veneweg,189,,50,7946LN,Wanneperveen,Steenwijkerland,Overijssel,VBO,6.097452,52.694338
Veneweg,189,,51,7946LN,Wanneperveen,Steenwijkerland,Overijssel,VBO,6.097428,52.694167
Veneweg,189,,52,7946LN,Wanneperveen,Steenwijkerland,Overijssel,VBO,6.097417,52.694016
Veneweg,189,,53,7946LN,Wanneperveen,Steenwijkerland,Overijssel,VBO,6.097574,52.693876
Veneweg,189,,54,7946LN,Wanneperveen,Steenwijkerland,Overijssel,VBO,6.097543,52.693705
Veneweg,189,,55,7946LN,Wanneperveen,Steenwijkerland,Overijssel,VBO,6.097249,52.693788
Veneweg,189,,56,7946LN,Wanneperveen,Steenwijkerland,Overijssel,VBO,6.097027,52.693885
Veneweg,189,,57,7946LN,Wanneperveen,Steenwijkerland,Overijssel,VBO,6.097012,52.694099
Veneweg,189,,58,7946LN,Wanneperveen,Steenwijkerland,Overijssel,VBO,6.097059,52.694278
Veneweg,189,,59,7946LN,Wanneperveen,Steenwijkerland,Overijssel,VBO,6.097113,52.694507
Veneweg,189,,6,7946LN,Wanneperveen,Steenwijkerland,Overijssel,VBO,6.099039,52.694525
Veneweg,189,,60,7946LN,Wanneperveen,Steenwijkerland,Overijssel,VBO,6.097146,52.694678
Veneweg,189,,61,7946LN,Wanneperveen,Steenwijkerland,Overijssel,VBO,6.097345,52.694782
Veneweg,189,,62,7946LN,Wanneperveen,Steenwijkerland,Overijssel,VBO,6.097561,52.694804
Veneweg,189,,63,7946LN,Wanneperveen,Steenwijkerland,Overijssel,VBO,6.097860,52.694863
Veneweg,189,,64,7946LN,Wanneperveen,Steenwijkerland,Overijssel,VBO,6.101114,52.693304
Veneweg,189,,7,7946LN,Wanneperveen,Steenwijkerland,Overijssel,VBO,6.099130,52.694354
Veneweg,189,,8,7946LN,Wanneperveen,Steenwijkerland,Overijssel,VBO,6.099218,52.694180
Veneweg,189,,9,7946LN,Wanneperveen,Steenwijkerland,Overijssel,VBO,6.099314,52.693981
Veneweg,189,,,7946LN,Wanneperveen,Steenwijkerland,Overijssel,VBO,6.098192,52.695529
Veneweg,190,,,7946LN,Wanneperveen,Steenwijkerland,Overijssel,VBO,6.108318,52.698731
Veneweg,191,,,7946LP,Wanneperveen,Steenwijkerland,Overijssel,VBO,6.098048,52.695755
Veneweg,192,,,7946LP,Wanneperveen,Steenwijkerland,Overijssel,VBO,6.107991,52.698625
Veneweg,193,,,7946LP,Wanneperveen,Steenwijkerland,Overijssel,VBO,6.097555,52.695470
Veneweg,194,,,7946LP,Wanneperveen,Steenwijkerland,Overijssel,VBO,6.107738,52.698546
Veneweg,195,,,7946LP,Wanneperveen,Steenwijkerland,Overijssel,VBO,6.097054,52.695599
Veneweg,196,,,7946LP,Wanneperveen,Steenwijkerland,Overijssel,VBO,6.107352,52.698422
Veneweg,197,,,7946LP,Wanneperveen,Steenwijkerland,Overijssel,VBO,6.096683,52.695538
Veneweg,198,,,7946LP,Wanneperveen,Steenwijkerland,Overijssel,VBO,6.106549,52.698184
Veneweg,199,,,7946LP,Wanneperveen,Steenwijkerland,Overijssel,VBO,6.096238,52.695460
Veneweg,200,,,7946LP,Wanneperveen,Steenwijkerland,Overijssel,VBO,6.105671,52.697884
Veneweg,201,R,,7946LP,Wanneperveen,Steenwijkerland,Overijssel,VBO,6.096657,52.694306
Veneweg,202,t,,7946LP,Wanneperveen,Steenwijkerland,Overijssel,VBO,6.104780,52.697683
Veneweg,203,,,7946LR,Wanneperveen,Steenwijkerland,Overijssel,VBO,6.095793,52.695364
Veneweg,204,,,7946LR,Wanneperveen,Steenwijkerland,Overijssel,VBO,6.103963,52.697454
Veneweg,205,,,7946LR,Wanneperveen,Steenwijkerland,Overijssel,VBO,6.095317,52.695214
Veneweg,206,,,7946LR,Wanneperveen,Steenwijkerland,Overijssel,VBO,6.103308,52.697224
Veneweg,207,a,,7946LR,Wanneperveen,Steenwijkerland,Overijssel,VBO,6.095040,52.695160
Veneweg,207,,,7946LR,Wanneperveen,Steenwijkerland,Overijssel,VBO,6.094932,52.695153
Veneweg,208,,,7946LR,Wanneperveen,Steenwijkerland,Overijssel,VBO,6.102774,52.698490
Veneweg,209,,,7946LR,Wanneperveen,Steenwijkerland,Overijssel,VBO,6.094650,52.695092
Veneweg,210,,,7946LR,Wanneperveen,Steenwijkerland,Overijssel,VBO,6.101599,52.696713
Veneweg,211,,,7946LR,Wanneperveen,Steenwijkerland,Overijssel,VBO,6.095809,52.693575
Veneweg,212,,,7946LR,Wanneperveen,Steenwijkerland,Overijssel,VBO,6.101272,52.696643
Veneweg,213,,,7946LR,Wanneperveen,Steenwijkerland,Overijssel,VBO,6.096120,52.693618
Veneweg,214,,,7946LR,Wanneperveen,Steenwijkerland,Overijssel,VBO,6.100396,52.696451
Veneweg,215,,,7946LR,Wanneperveen,Steenwijkerland,Overijssel,VBO,6.096384,52.693473
Veneweg,216,,,7946LR,Wanneperveen,Steenwijkerland,Overijssel,VBO,6.099314,52.696314
Veneweg,217,a,,7946LS,Wanneperveen,Steenwijkerland,Overijssel,VBO,6.094202,52.693610
Veneweg,217,b,,7946LS,Wanneperveen,Steenwijkerland,Overijssel,LIG,6.094960,52.693331
Veneweg,217,,,7946LS,Wanneperveen,Steenwijkerland,Overijssel,VBO,6.093301,52.694920
Veneweg,219,,,7946LS,Wanneperveen,Steenwijkerland,Overijssel,VBO,6.093074,52.694987
Veneweg,220,,,7946LS,Wanneperveen,Steenwijkerland,Overijssel,VBO,6.098971,52.696154
Veneweg,221,R,18,7946LS,Wanneperveen,Steenwijkerland,Overijssel,VBO,6.093496,52.693956
Veneweg,221,R,4,7946LS,Wanneperveen,Steenwijkerland,Overijssel,VBO,6.093084,52.694572
Veneweg,221,,,7946LS,Wanneperveen,Steenwijkerland,Overijssel,VBO,6.092737,52.694807
Veneweg,222,,,7946LS,Wanneperveen,Steenwijkerland,Overijssel,VBO,6.098394,52.696103
Veneweg,223,R,D4,7946LS,Wanneperveen,Steenwijkerland,Overijssel,VBO,6.091752,52.693112
Veneweg,223,,,7946LS,Wanneperveen,Steenwijkerland,Overijssel,VBO,6.091480,52.693943
Veneweg,224,,,7946LS,Wanneperveen,Steenwijkerland,Overijssel,VBO,6.097772,52.696062
Veneweg,226,,,7946LS,Wanneperveen,Steenwijkerland,Overijssel,VBO,6.097325,52.695858
Veneweg,227,,,7946LS,Wanneperveen,Steenwijkerland,Overijssel,VBO,6.089456,52.691303
Veneweg,228,,,7946LS,Wanneperveen,Steenwijkerland,Overijssel,VBO,6.096910,52.695807
Veneweg,229,,,7946LT,Wanneperveen,Steenwijkerland,Overijssel,VBO,6.088783,52.690840
Veneweg,230,,,7946LT,Wanneperveen,Steenwijkerland,Overijssel,VBO,6.096539,52.695737
Veneweg,231,,,7946LT,Wanneperveen,Steenwijkerland,Overijssel,VBO,6.088569,52.694095
Veneweg,232,t,,7946LT,Wanneperveen,Steenwijkerland,Overijssel,VBO,6.096229,52.695775
Veneweg,233,,,7946LT,Wanneperveen,Steenwijkerland,Overijssel,VBO,6.088215,52.694151
Veneweg,234,,,7946LT,Wanneperveen,Steenwijkerland,Overijssel,VBO,6.095797,52.695607
Veneweg,235,,,7946LT,Wanneperveen,Steenwijkerland,Overijssel,VBO,6.087635,52.694153
Veneweg,236,,,7946LT,Wanneperveen,Steenwijkerland,Overijssel,VBO,6.095232,52.695457
Veneweg,237,,,7946LT,Wanneperveen,Steenwijkerland,Overijssel,VBO,6.087356,52.693849
Veneweg,238,,,7946LT,Wanneperveen,Steenwijkerland,Overijssel,VBO,6.094951,52.695414
Veneweg,239,,,7946LT,Wanneperveen,Steenwijkerland,Overijssel,VBO,6.086925,52.693996
Veneweg,240,,,7946LT,Wanneperveen,Steenwijkerland,Overijssel,VBO,6.094876,52.695387
Veneweg,241,,,7946LT,Wanneperveen,Steenwijkerland,Overijssel,VBO,6.086568,52.693819
Veneweg,242,,,7946LV,Wanneperveen,Steenwijkerland,Overijssel,VBO,6.094108,52.695419
Veneweg,243,a,,7946LV,Wanneperveen,Steenwijkerland,Overijssel,LIG,6.086056,52.693390
Veneweg,243,,,7946LV,Wanneperveen,Steenwijkerland,Overijssel,VBO,6.086137,52.693687
Veneweg,244,,,7946LV,Wanneperveen,Steenwijkerland,Overijssel,VBO,6.093634,52.695386
Veneweg,245,t,,7946LV,Wanneperveen,Steenwijkerland,Overijssel,VBO,6.085897,52.694443
Veneweg,246,,,7946LV,Wanneperveen,Steenwijkerland,Overijssel,VBO,6.093321,52.695235
Veneweg,247,a,,7946LV,Wanneperveen,Steenwijkerland,Overijssel,VBO,6.085557,52.693055
Veneweg,247,,,7946LV,Wanneperveen,Steenwijkerland,Overijssel,VBO,6.085002,52.693972
Veneweg,248,,,7946LV,Wanneperveen,Steenwijkerland,Overijssel,VBO,6.093217,52.695235
Veneweg,249,a,,7946LV,Wanneperveen,Steenwijkerland,Overijssel,LIG,6.085091,52.693016
Veneweg,249,b,,7946LV,Wanneperveen,Steenwijkerland,Overijssel,LIG,6.085379,52.693110
Veneweg,249,,,7946LV,Wanneperveen,Steenwijkerland,Overijssel,VBO,6.085115,52.693648
Veneweg,251,a,,7946LV,Wanneperveen,Steenwijkerland,Overijssel,LIG,6.079296,52.693062
Veneweg,251,b,,7946LV,Wanneperveen,Steenwijkerland,Overijssel,LIG,6.078770,52.693020
Veneweg,251,c,,7946LV,Wanneperveen,Steenwijkerland,Overijssel,LIG,6.078168,52.692734
Veneweg,251,d,,7946LV,Wanneperveen,Steenwijkerland,Overijssel,LIG,6.077649,52.692545
Veneweg,251,e,,7946LV,Wanneperveen,Steenwijkerland,Overijssel,LIG,6.077312,52.692423
Veneweg,251,f,,7946LV,Wanneperveen,Steenwijkerland,Overijssel,LIG,6.076978,52.692321
Veneweg,251,g,,7946LV,Wanneperveen,Steenwijkerland,Overijssel,LIG,6.076668,52.692269
Veneweg,251,h,,7946LV,Wanneperveen,Steenwijkerland,Overijssel,LIG,6.076318,52.692179
Veneweg,251,j,,7946LV,Wanneperveen,Steenwijkerland,Overijssel,LIG,6.075949,52.692101
Veneweg,251,k,,7946LV,Wanneperveen,Steenwijkerland,Overijssel,LIG,6.076356,52.690793
Veneweg,251,l,,7946LV,Wanneperveen,Steenwijkerland,Overijssel,LIG,6.076113,52.691017
Veneweg,251,m,,7946LV,Wanneperveen,Steenwijkerland,Overijssel,LIG,6.075950,52.691243
Veneweg,251,n,,7946LV,Wanneperveen,Steenwijkerland,Overijssel,LIG,6.075812,52.691472
Veneweg,251,o,,7946LV,Wanneperveen,Steenwijkerland,Overijssel,LIG,6.075704,52.691702
Veneweg,251,p,,7946LV,Wanneperveen,Steenwijkerland,Overijssel,LIG,6.075638,52.691928
Veneweg,251,R,1,7946LV,Wanneperveen,Steenwijkerland,Overijssel,VBO,6.082097,52.693969
Veneweg,251,R,2,7946LV,Wanneperveen,Steenwijkerland,Overijssel,VBO,6.081970,52.693910
Veneweg,251,,,7946LV,Wanneperveen,Steenwijkerland,Overijssel,VBO,6.081420,52.693813
Veneweg,252,,,7946LV,Wanneperveen,Steenwijkerland,Overijssel,VBO,6.092551,52.695221
Veneweg,253,,,7946LV,Wanneperveen,Steenwijkerland,Overijssel,VBO,6.046125,52.687777
Veneweg,254,,,7946LV,Wanneperveen,Steenwijkerland,Overijssel,VBO,6.092225,52.695196
Veneweg,255,,,7946LV,Wanneperveen,Steenwijkerland,Overijssel,VBO,6.045651,52.687779
Veneweg,261,,,7946LV,Wanneperveen,Steenwijkerland,Overijssel,VBO,6.044478,52.687480
Veneweg,263,,,7946LV,Wanneperveen,Steenwijkerland,Overijssel,VBO,6.044578,52.687201
Veneweg,265,,,7946LV,Wanneperveen,Steenwijkerland,Overijssel,VBO,6.045052,52.687234
Veneweg,267,,,7946LV,Wanneperveen,Steenwijkerland,Overijssel,VBO,6.045622,52.686836
Veneweg,269,,,7946LV,Wanneperveen,Steenwijkerland,Overijssel,VBO,6.046091,52.686546
Veneweg,271,,,7946LV,Wanneperveen,Steenwijkerland,Overijssel,VBO,6.043879,52.687402
Veneweg,273,,,7946LV,Wanneperveen,Steenwijkerland,Overijssel,VBO,6.043501,52.687378
Veneweg,256,,,7946LW,Wanneperveen,Steenwijkerland,Overijssel,VBO,6.091737,52.695199
Veneweg,258,,,7946LW,Wanneperveen,Steenwijkerland,Overijssel,VBO,6.090982,52.695150
Veneweg,260,,,7946LW,Wanneperveen,Steenwijkerland,Overijssel,VBO,6.090464,52.695099
Veneweg,262,,,7946LW,Wanneperveen,Steenwijkerland,Overijssel,VBO,6.090101,52.695080
Veneweg,264,,,7946LW,Wanneperveen,Steenwijkerland,Overijssel,VBO,6.089636,52.695122
Veneweg,266,,,7946LW,Wanneperveen,Steenwijkerland,Overijssel,VBO,6.082953,52.694415
Veneweg,268,,,7946LW,Wanneperveen,Steenwijkerland,Overijssel,VBO,6.082301,52.694311
Veneweg,270,,,7946LW,Wanneperveen,Steenwijkerland,Overijssel,VBO,6.081046,52.694462
Veneweg,272,,,7946LW,Wanneperveen,Steenwijkerland,Overijssel,VBO,6.081043,52.694327
Veneweg,274,,,7946LW,Wanneperveen,Steenwijkerland,Overijssel,VBO,6.081025,52.694067
Veneweg,276,,,7946LW,Wanneperveen,Steenwijkerland,Overijssel,VBO,6.079747,52.693742
Veneweg,278,,,7946LW,Wanneperveen,Steenwijkerland,Overijssel,VBO,6.079364,52.693834
Veneweg,282,a,,7946LW,Wanneperveen,Steenwijkerland,Overijssel,VBO,6.076501,52.692828
Veneweg,282,,,7946LW,Wanneperveen,Steenwijkerland,Overijssel,VBO,6.076301,52.692782
Veneweg,284,,,7946LW,Wanneperveen,Steenwijkerland,Overijssel,VBO,6.075233,52.692636
Beulakerweg,1,R,69,7946LX,Wanneperveen,Steenwijkerland,Overijssel,VBO,6.076762,52.693478
Beulakerweg,1,,,7946LX,Wanneperveen,Steenwijkerland,Overijssel,VBO,6.076103,52.694347
Beulakerweg,2,,001,7946LX,Wanneperveen,Steenwijkerland,Overijssel,VBO,6.075129,52.694422
Beulakerweg,2,,002,7946LX,Wanneperveen,Steenwijkerland,Overijssel,VBO,6.075121,52.694470
Beulakerweg,2,,003,7946LX,Wanneperveen,Steenwijkerland,Overijssel,VBO,6.075107,52.694515
Beulakerweg,2,,004,7946LX,Wanneperveen,Steenwijkerland,Overijssel,VBO,6.075096,52.694562
Beulakerweg,2,,005,7946LX,Wanneperveen,Steenwijkerland,Overijssel,VBO,6.075076,52.694607
Beulakerweg,2,,006,7946LX,Wanneperveen,Steenwijkerland,Overijssel,VBO,6.075061,52.694654
Beulakerweg,2,,007,7946LX,Wanneperveen,Steenwijkerland,Overijssel,VBO,6.075157,52.694338
Beulakerweg,3,,,7946LX,Wanneperveen,Steenwijkerland,Overijssel,VBO,6.074290,52.695679
Veneweg,286,,,7946LX,Wanneperveen,Steenwijkerland,Overijssel,VBO,6.073917,52.692661
Veneweg,288,,,7946LX,Wanneperveen,Steenwijkerland,Overijssel,VBO,6.074091,52.692454
Veneweg,290,t,,7946LX,Wanneperveen,Steenwijkerland,Overijssel,VBO,6.073761,52.692401
Veneweg,290,,001,7946LX,Wanneperveen,Steenwijkerland,Overijssel,VBO,6.071092,52.692388
Veneweg,290,,002,7946LX,Wanneperveen,Steenwijkerland,Overijssel,VBO,6.071154,52.692463
Veneweg,290,,003,7946LX,Wanneperveen,Steenwijkerland,Overijssel,VBO,6.071211,52.692534
Veneweg,290,,004,7946LX,Wanneperveen,Steenwijkerland,Overijssel,VBO,6.071333,52.692414
Veneweg,290,,005,7946LX,Wanneperveen,Steenwijkerland,Overijssel,VBO,6.071393,52.692492
Veneweg,290,,006,7946LX,Wanneperveen,Steenwijkerland,Overijssel,VBO,6.071452,52.692567
Veneweg,290,,007,7946LX,Wanneperveen,Steenwijkerland,Overijssel,VBO,6.071570,52.692456
Veneweg,290,,008,7946LX,Wanneperveen,Steenwijkerland,Overijssel,VBO,6.071621,52.692520
Veneweg,290,,009,7946LX,Wanneperveen,Steenwijkerland,Overijssel,VBO,6.071678,52.692591
Veneweg,290,,010,7946LX,Wanneperveen,Steenwijkerland,Overijssel,VBO,6.071801,52.692471
Veneweg,290,,011,7946LX,Wanneperveen,Steenwijkerland,Overijssel,VBO,6.071856,52.692549
Veneweg,290,,012,7946LX,Wanneperveen,Steenwijkerland,Overijssel,VBO,6.071915,52.692625
Veneweg,290,,013,7946LX,Wanneperveen,Steenwijkerland,Overijssel,VBO,6.072037,52.692500
Veneweg,290,,014,7946LX,Wanneperveen,Steenwijkerland,Overijssel,VBO,6.072088,52.692585
Veneweg,290,,015,7946LX,Wanneperveen,Steenwijkerland,Overijssel,VBO,6.072144,52.692670
Veneweg,290,,016,7946LX,Wanneperveen,Steenwijkerland,Overijssel,VBO,6.072267,52.692537
Veneweg,290,,017,7946LX,Wanneperveen,Steenwijkerland,Overijssel,VBO,6.072315,52.692618
Veneweg,290,,018,7946LX,Wanneperveen,Steenwijkerland,Overijssel,VBO,6.072376,52.692690
Veneweg,290,,019,7946LX,Wanneperveen,Steenwijkerland,Overijssel,VBO,6.072499,52.692556
Veneweg,290,,020,7946LX,Wanneperveen,Steenwijkerland,Overijssel,VBO,6.072552,52.692643
Veneweg,290,,021,7946LX,Wanneperveen,Steenwijkerland,Overijssel,VBO,6.072624,52.692717
Veneweg,290,,022,7946LX,Wanneperveen,Steenwijkerland,Overijssel,VBO,6.072739,52.692591
Veneweg,290,,023,7946LX,Wanneperveen,Steenwijkerland,Overijssel,VBO,6.072787,52.692678
Veneweg,292,a,,7946LX,Wanneperveen,Steenwijkerland,Overijssel,VBO,6.069745,52.692180
Veneweg,292,b,,7946LX,Wanneperveen,Steenwijkerland,Overijssel,VBO,6.072652,52.693552
Veneweg,292,c,,7946LX,Wanneperveen,Steenwijkerland,Overijssel,VBO,6.073176,52.693253
Veneweg,292,,001,7946LX,Wanneperveen,Steenwijkerland,Overijssel,VBO,6.067967,52.692703
Veneweg,292,,002,7946LX,Wanneperveen,Steenwijkerland,Overijssel,VBO,6.067952,52.692745
Veneweg,292,,003,7946LX,Wanneperveen,Steenwijkerland,Overijssel,VBO,6.067922,52.692809
Veneweg,292,,004,7946LX,Wanneperveen,Steenwijkerland,Overijssel,VBO,6.067904,52.692863
Veneweg,292,,005,7946LX,Wanneperveen,Steenwijkerland,Overijssel,VBO,6.067940,52.692909
Veneweg,292,,006,7946LX,Wanneperveen,Steenwijkerland,Overijssel,VBO,6.067997,52.692970
Veneweg,292,,007,7946LX,Wanneperveen,Steenwijkerland,Overijssel,VBO,6.068045,52.693006
Veneweg,292,,008,7946LX,Wanneperveen,Steenwijkerland,Overijssel,VBO,6.068129,52.693014
Veneweg,292,,009,7946LX,Wanneperveen,Steenwijkerland,Overijssel,VBO,6.068199,52.693034
Veneweg,292,,010,7946LX,Wanneperveen,Steenwijkerland,Overijssel,VBO,6.068272,52.693052
Veneweg,292,,011,7946LX,Wanneperveen,Steenwijkerland,Overijssel,VBO,6.067794,52.692683
Veneweg,292,,012,7946LX,Wanneperveen,Steenwijkerland,Overijssel,VBO,6.067761,52.692734
Veneweg,292,,013,7946LX,Wanneperveen,Steenwijkerland,Overijssel,VBO,6.067739,52.692786
Veneweg,292,,014,7946LX,Wanneperveen,Steenwijkerland,Overijssel,VBO,6.067718,52.692876
Veneweg,292,,015,7946LX,Wanneperveen,Steenwijkerland,Overijssel,VBO,6.067769,52.692939
Veneweg,292,,016,7946LX,Wanneperveen,Steenwijkerland,Overijssel,VBO,6.067836,52.693007
Veneweg,292,,017,7946LX,Wanneperveen,Steenwijkerland,Overijssel,VBO,6.067904,52.693069
Veneweg,292,,018,7946LX,Wanneperveen,Steenwijkerland,Overijssel,VBO,6.068041,52.693107
Veneweg,292,,019,7946LX,Wanneperveen,Steenwijkerland,Overijssel,VBO,6.068129,52.693124
Veneweg,292,,020,7946LX,Wanneperveen,Steenwijkerland,Overijssel,VBO,6.068207,52.693138
Veneweg,292,,021,7946LX,Wanneperveen,Steenwijkerland,Overijssel,VBO,6.068781,52.693116
Veneweg,292,,022,7946LX,Wanneperveen,Steenwijkerland,Overijssel,VBO,6.068873,52.693187
Veneweg,292,,023,7946LX,Wanneperveen,Steenwijkerland,Overijssel,VBO,6.068915,52.693239
Veneweg,292,,024,7946LX,Wanneperveen,Steenwijkerland,Overijssel,VBO,6.068955,52.693285
Veneweg,292,,025,7946LX,Wanneperveen,Steenwijkerland,Overijssel,VBO,6.069050,52.693304
Veneweg,292,,026,7946LX,Wanneperveen,Steenwijkerland,Overijssel,VBO,6.069148,52.693321
Veneweg,292,,027,7946LX,Wanneperveen,Steenwijkerland,Overijssel,VBO,6.069177,52.693332
Veneweg,292,,028,7946LX,Wanneperveen,Steenwijkerland,Overijssel,VBO,6.069253,52.693312
Veneweg,292,,029,7946LX,Wanneperveen,Steenwijkerland,Overijssel,VBO,6.069348,52.693287
Veneweg,292,,030,7946LX,Wanneperveen,Steenwijkerland,Overijssel,VBO,6.069428,52.693259
Veneweg,292,,031,7946LX,Wanneperveen,Steenwijkerland,Overijssel,VBO,6.068682,52.693190
Veneweg,292,,032,7946LX,Wanneperveen,Steenwijkerland,Overijssel,VBO,6.068709,52.693236
Veneweg,292,,033,7946LX,Wanneperveen,Steenwijkerland,Overijssel,VBO,6.068751,52.693281
Veneweg,292,,034,7946LX,Wanneperveen,Steenwijkerland,Overijssel,VBO,6.068827,52.693350
Veneweg,292,,035,7946LX,Wanneperveen,Steenwijkerland,Overijssel,VBO,6.068938,52.693379
Veneweg,292,,036,7946LX,Wanneperveen,Steenwijkerland,Overijssel,VBO,6.069061,52.693409
Veneweg,292,,037,7946LX,Wanneperveen,Steenwijkerland,Overijssel,VBO,6.069172,52.693426
Veneweg,292,,038,7946LX,Wanneperveen,Steenwijkerland,Overijssel,VBO,6.069327,52.693399
Veneweg,292,,039,7946LX,Wanneperveen,Steenwijkerland,Overijssel,VBO,6.069404,52.693382
Veneweg,292,,040,7946LX,Wanneperveen,Steenwijkerland,Overijssel,VBO,6.069474,52.693362
Veneweg,292,,041,7946LX,Wanneperveen,Steenwijkerland,Overijssel,VBO,6.070490,52.693481
Veneweg,292,,042,7946LX,Wanneperveen,Steenwijkerland,Overijssel,VBO,6.070543,52.693509
Veneweg,292,,043,7946LX,Wanneperveen,Steenwijkerland,Overijssel,VBO,6.070588,52.693563
Veneweg,292,,044,7946LX,Wanneperveen,Steenwijkerland,Overijssel,VBO,6.070632,52.693608
Veneweg,292,,045,7946LX,Wanneperveen,Steenwijkerland,Overijssel,VBO,6.070681,52.693634
Veneweg,292,,046,7946LX,Wanneperveen,Steenwijkerland,Overijssel,VBO,6.070792,52.693662
Veneweg,292,,047,7946LX,Wanneperveen,Steenwijkerland,Overijssel,VBO,6.070884,52.693681
Veneweg,292,,048,7946LX,Wanneperveen,Steenwijkerland,Overijssel,VBO,6.070964,52.693658
Veneweg,292,,049,7946LX,Wanneperveen,Steenwijkerland,Overijssel,VBO,6.071056,52.693637
Veneweg,292,,050,7946LX,Wanneperveen,Steenwijkerland,Overijssel,VBO,6.071124,52.693620
Veneweg,292,,051,7946LX,Wanneperveen,Steenwijkerland,Overijssel,VBO,6.070377,52.693531
Veneweg,292,,052,7946LX,Wanneperveen,Steenwijkerland,Overijssel,VBO,6.070405,52.693580
Veneweg,292,,053,7946LX,Wanneperveen,Steenwijkerland,Overijssel,VBO,6.070447,52.693631
Veneweg,292,,054,7946LX,Wanneperveen,Steenwijkerland,Overijssel,VBO,6.070496,52.693672
Veneweg,292,,055,7946LX,Wanneperveen,Steenwijkerland,Overijssel,VBO,6.070532,52.693710
Veneweg,292,,056,7946LX,Wanneperveen,Steenwijkerland,Overijssel,VBO,6.070647,52.693743
Veneweg,292,,057,7946LX,Wanneperveen,Steenwijkerland,Overijssel,VBO,6.070769,52.693768
Veneweg,292,,058,7946LX,Wanneperveen,Steenwijkerland,Overijssel,VBO,6.070901,52.693779
Veneweg,292,,059,7946LX,Wanneperveen,Steenwijkerland,Overijssel,VBO,6.071076,52.693748
Veneweg,292,,060,7946LX,Wanneperveen,Steenwijkerland,Overijssel,VBO,6.071191,52.693706
Veneweg,292,,061,7946LX,Wanneperveen,Steenwijkerland,Overijssel,VBO,6.071532,52.693831
Veneweg,292,,062,7946LX,Wanneperveen,Steenwijkerland,Overijssel,VBO,6.071630,52.693849
Veneweg,292,,063,7946LX,Wanneperveen,Steenwijkerland,Overijssel,VBO,6.071731,52.693863
Veneweg,292,,064,7946LX,Wanneperveen,Steenwijkerland,Overijssel,VBO,6.071800,52.693860
Veneweg,292,,065,7946LX,Wanneperveen,Steenwijkerland,Overijssel,VBO,6.071875,52.693844
Veneweg,292,,066,7946LX,Wanneperveen,Steenwijkerland,Overijssel,VBO,6.071959,52.693817
Veneweg,292,,067,7946LX,Wanneperveen,Steenwijkerland,Overijssel,VBO,6.072014,52.693778
Veneweg,292,,068,7946LX,Wanneperveen,Steenwijkerland,Overijssel,VBO,6.072031,52.693740
Veneweg,292,,069,7946LX,Wanneperveen,Steenwijkerland,Overijssel,VBO,6.072058,52.693692
Veneweg,292,,070,7946LX,Wanneperveen,Steenwijkerland,Overijssel,VBO,6.072110,52.693644
Veneweg,292,,071,7946LX,Wanneperveen,Steenwijkerland,Overijssel,VBO,6.071474,52.693932
Veneweg,292,,072,7946LX,Wanneperveen,Steenwijkerland,Overijssel,VBO,6.071556,52.693955
Veneweg,292,,073,7946LX,Wanneperveen,Steenwijkerland,Overijssel,VBO,6.071626,52.693970
Veneweg,292,,074,7946LX,Wanneperveen,Steenwijkerland,Overijssel,VBO,6.071784,52.693987
Veneweg,292,,075,7946LX,Wanneperveen,Steenwijkerland,Overijssel,VBO,6.071901,52.693963
Veneweg,292,,076,7946LX,Wanneperveen,Steenwijkerland,Overijssel,VBO,6.072026,52.693930
Veneweg,292,,077,7946LX,Wanneperveen,Steenwijkerland,Overijssel,VBO,6.072116,52.693891
Veneweg,292,,078,7946LX,Wanneperveen,Steenwijkerland,Overijssel,VBO,6.072189,52.693803
Veneweg,292,,079,7946LX,Wanneperveen,Steenwijkerland,Overijssel,VBO,6.072214,52.693756
Veneweg,292,,080,7946LX,Wanneperveen,Steenwijkerland,Overijssel,VBO,6.072228,52.693705
Veneweg,292,,081,7946LX,Wanneperveen,Steenwijkerland,Overijssel,VBO,6.067344,52.691885
Veneweg,292,,082,7946LX,Wanneperveen,Steenwijkerland,Overijssel,VBO,6.067325,52.691934
Veneweg,292,,083,7946LX,Wanneperveen,Steenwijkerland,Overijssel,VBO,6.067308,52.692000
Veneweg,292,,084,7946LX,Wanneperveen,Steenwijkerland,Overijssel,VBO,6.067278,52.692052
Veneweg,292,,085,7946LX,Wanneperveen,Steenwijkerland,Overijssel,VBO,6.067311,52.692099
Veneweg,292,,086,7946LX,Wanneperveen,Steenwijkerland,Overijssel,VBO,6.067367,52.692158
Veneweg,292,,087,7946LX,Wanneperveen,Steenwijkerland,Overijssel,VBO,6.067437,52.692186
Veneweg,292,,088,7946LX,Wanneperveen,Steenwijkerland,Overijssel,VBO,6.067557,52.692215
Veneweg,292,,089,7946LX,Wanneperveen,Steenwijkerland,Overijssel,VBO,6.067649,52.692239
Veneweg,292,,090,7946LX,Wanneperveen,Steenwijkerland,Overijssel,VBO,6.067750,52.692258
Veneweg,292,,091,7946LX,Wanneperveen,Steenwijkerland,Overijssel,VBO,6.067837,52.692267
Veneweg,292,,092,7946LX,Wanneperveen,Steenwijkerland,Overijssel,VBO,6.067897,52.692262
Veneweg,292,,093,7946LX,Wanneperveen,Steenwijkerland,Overijssel,VBO,6.067976,52.692233
Veneweg,292,,094,7946LX,Wanneperveen,Steenwijkerland,Overijssel,VBO,6.068106,52.692210
Veneweg,292,,095,7946LX,Wanneperveen,Steenwijkerland,Overijssel,VBO,6.068240,52.692225
Veneweg,292,,096,7946LX,Wanneperveen,Steenwijkerland,Overijssel,VBO,6.068337,52.692207
Veneweg,292,,097,7946LX,Wanneperveen,Steenwijkerland,Overijssel,VBO,6.068426,52.692243
Veneweg,292,,098,7946LX,Wanneperveen,Steenwijkerland,Overijssel,VBO,6.067169,52.691867
Veneweg,292,,099,7946LX,Wanneperveen,Steenwijkerland,Overijssel,VBO,6.067146,52.691924
Veneweg,292,,100,7946LX,Wanneperveen,Steenwijkerland,Overijssel,VBO,6.067119,52.691970
Veneweg,292,,101,7946LX,Wanneperveen,Steenwijkerland,Overijssel,VBO,6.067096,52.692062
Veneweg,292,,102,7946LX,Wanneperveen,Steenwijkerland,Overijssel,VBO,6.067157,52.692134
Veneweg,292,,103,7946LX,Wanneperveen,Steenwijkerland,Overijssel,VBO,6.067202,52.692204
Veneweg,292,,104,7946LX,Wanneperveen,Steenwijkerland,Overijssel,VBO,6.067283,52.692264
Veneweg,292,,105,7946LX,Wanneperveen,Steenwijkerland,Overijssel,VBO,6.067420,52.692302
Veneweg,292,,106,7946LX,Wanneperveen,Steenwijkerland,Overijssel,VBO,6.067504,52.692317
Veneweg,292,,107,7946LX,Wanneperveen,Steenwijkerland,Overijssel,VBO,6.067606,52.692337
Veneweg,292,,108,7946LX,Wanneperveen,Steenwijkerland,Overijssel,VBO,6.067719,52.692351
Veneweg,292,,109,7946LX,Wanneperveen,Steenwijkerland,Overijssel,VBO,6.067835,52.692358
Veneweg,292,,110,7946LX,Wanneperveen,Steenwijkerland,Overijssel,VBO,6.067956,52.692341
Veneweg,292,,111,7946LX,Wanneperveen,Steenwijkerland,Overijssel,VBO,6.068064,52.692312
Veneweg,292,,112,7946LX,Wanneperveen,Steenwijkerland,Overijssel,VBO,6.068174,52.692299
Veneweg,292,,113,7946LX,Wanneperveen,Steenwijkerland,Overijssel,VBO,6.068318,52.692314
Veneweg,292,,114,7946LX,Wanneperveen,Steenwijkerland,Overijssel,VBO,6.068386,52.692332
Veneweg,292,,115,7946LX,Wanneperveen,Steenwijkerland,Overijssel,VBO,6.068431,52.692337
Veneweg,292,,,7946LX,Wanneperveen,Steenwijkerland,Overijssel,VBO,6.070142,52.692458
Veneweg,294,,,7946LX,Wanneperveen,Steenwijkerland,Overijssel,VBO,6.067842,52.691726
Veneweg,296,,,7946LX,Wanneperveen,Steenwijkerland,Overijssel,VBO,6.050049,52.690056
Veneweg,298,a,,7946LX,Wanneperveen,Steenwijkerland,Overijssel,VBO,6.047781,52.689344
Veneweg,298,,,7946LX,Wanneperveen,Steenwijkerland,Overijssel,VBO,6.047566,52.689234
Veneweg,300,,,7946LX,Wanneperveen,Steenwijkerland,Overijssel,VBO,6.047224,52.689110
Veneweg,302,,,7946LX,Wanneperveen,Steenwijkerland,Overijssel,VBO,6.046893,52.688716
Veneweg,306,,,7946LX,Wanneperveen,Steenwijkerland,Overijssel,VBO,6.045419,52.688059
Veneweg,310,,,7946LX,Wanneperveen,Steenwijkerland,Overijssel,VBO,6.044959,52.688518
Veneweg,312,a,,7946LX,Wanneperveen,Steenwijkerland,Overijssel,VBO,6.044842,52.688071
Veneweg,312,t,,7946LX,Wanneperveen,Steenwijkerland,Overijssel,VBO,6.045284,52.687970
Veneweg,314,,,7946LX,Wanneperveen,Steenwijkerland,Overijssel,VBO,6.044100,52.687905
Veneweg,316,,,7946LX,Wanneperveen,Steenwijkerland,Overijssel,VBO,6.043575,52.688357
Veneweg,318,,,7946LX,Wanneperveen,Steenwijkerland,Overijssel,VBO,6.043106,52.687668
Veneweg,320,,,7946LX,Wanneperveen,Steenwijkerland,Overijssel,VBO,6.040982,52.688595
Veneweg,322,,,7946LX,Wanneperveen,Steenwijkerland,Overijssel,VBO,6.040194,52.687755
Veneweg,324,,,7946LX,Wanneperveen,Steenwijkerland,Overijssel,VBO,6.039690,52.687722
Veneweg,326,,,7946LX,Wanneperveen,Steenwijkerland,Overijssel,VBO,6.039508,52.687436
Veneweg,328,,,7946LX,Wanneperveen,Steenwijkerland,Overijssel,VBO,6.039065,52.687420
Veneweg,330,,,7946LX,Wanneperveen,Steenwijkerland,Overijssel,VBO,6.038203,52.687137
Veneweg,332,,,7946LX,Wanneperveen,Steenwijkerland,Overijssel,VBO,6.037474,52.686854
Zomerdijk,1,,,7946LZ,Wanneperveen,Steenwijkerland,Overijssel,VBO,6.158221,52.692181
Zomerdijk,2,,,7946LZ,Wanneperveen,Steenwijkerland,Overijssel,VBO,6.157445,52.691928
Zomerdijk,3,t,,7946LZ,Wanneperveen,Steenwijkerland,Overijssel,VBO,6.156612,52.691792
Zomerdijk,3,,,7946LZ,Wanneperveen,Steenwijkerland,Overijssel,VBO,6.156824,52.691839
Zomerdijk,4,a,,7946LZ,Wanneperveen,Steenwijkerland,Overijssel,VBO,6.152262,52.689775
Zomerdijk,4,b,,7946LZ,Wanneperveen,Steenwijkerland,Overijssel,VBO,6.151490,52.689573
Zomerdijk,4,,,7946LZ,Wanneperveen,Steenwijkerland,Overijssel,VBO,6.155595,52.691766
Zomerdijk,5,,,7946LZ,Wanneperveen,Steenwijkerland,Overijssel,VBO,6.149741,52.686825
Zomerdijk,6,,,7946LZ,Wanneperveen,Steenwijkerland,Overijssel,VBO,6.137400,52.679525
Zomerdijk,7,t,,7946LZ,Wanneperveen,Steenwijkerland,Overijssel,VBO,6.136999,52.679402
Zomerdijk,8,,,7946LZ,Wanneperveen,Steenwijkerland,Overijssel,VBO,6.137143,52.679176
Zomerdijk,9,,,7946LZ,Wanneperveen,Steenwijkerland,Overijssel,VBO,6.136536,52.679144
Zomerdijk,11,,,7946LZ,Wanneperveen,Steenwijkerland,Overijssel,VBO,6.136680,52.678936
Zomerdijk,12,,,7946LZ,Wanneperveen,Steenwijkerland,Overijssel,VBO,6.135121,52.678533
Zomerdijk,13,,,7946LZ,Wanneperveen,Steenwijkerland,Overijssel,VBO,6.134595,52.678024
Zomerdijk,14,,,7946LZ,Wanneperveen,Steenwijkerland,Overijssel,VBO,6.134138,52.677272
Zomerdijk,15,,,7946LZ,Wanneperveen,Steenwijkerland,Overijssel,VBO,6.130390,52.675058
Zomerdijk,16,,,7946LZ,Wanneperveen,Steenwijkerland,Overijssel,VBO,6.123537,52.672026
Zomerdijk,17,a,,7946LZ,Wanneperveen,Steenwijkerland,Overijssel,VBO,6.121062,52.670087
Zomerdijk,17,,,7946LZ,Wanneperveen,Steenwijkerland,Overijssel,VBO,6.121137,52.669956
Zomerdijk,18,t,,7946LZ,Wanneperveen,Steenwijkerland,Overijssel,VBO,6.119536,52.669463
Zomerdijk,18,,,7946LZ,Wanneperveen,Steenwijkerland,Overijssel,VBO,6.119840,52.669308
Zomerdijk,19,,,7946LZ,Wanneperveen,Steenwijkerland,Overijssel,VBO,6.117992,52.668430
Zomerdijk,20,a,,7946LZ,Wanneperveen,Steenwijkerland,Overijssel,VBO,6.108964,52.666930
Zomerdijk,20,b,,7946LZ,Wanneperveen,Steenwijkerland,Overijssel,VBO,6.102631,52.663804
Zomerdijk,20,,,7946LZ,Wanneperveen,Steenwijkerland,Overijssel,VBO,6.116915,52.668544
Zomerdijk,21,,,7946LZ,Wanneperveen,Steenwijkerland,Overijssel,VBO,6.100843,52.663833
Zomerdijk,22,a,,7946LZ,Wanneperveen,Steenwijkerland,Overijssel,VBO,6.100681,52.663485
Zomerdijk,22,,,7946LZ,Wanneperveen,Steenwijkerland,Overijssel,VBO,6.100783,52.663780
