openbareruimtenaam,huisnummer,huisletter,huisnummertoevoeging,postcode,woonplaatsnaam,gemeentenaam,provincienaam,typeadresseerbaarobject,longitude,latitude
Willemsvaart,1,G,1,8019AA,Zwolle,Zwolle,Overijssel,VBO,6.082229,52.507403
Willemsvaart,1,G,2,8019AA,Zwolle,Zwolle,Overijssel,VBO,6.082348,52.507274
Willemsvaart,1,G,3,8019AA,Zwolle,Zwolle,Overijssel,VBO,6.082374,52.507247
Willemsvaart,1,G,4,8019AA,Zwolle,Zwolle,Overijssel,VBO,6.082209,52.507174
Willemsvaart,1,G,5,8019AA,Zwolle,Zwolle,Overijssel,VBO,6.082177,52.507209
Willemsvaart,1,G,6,8019AA,Zwolle,Zwolle,Overijssel,VBO,6.082144,52.507241
Willemsvaart,1,G,7,8019AA,Zwolle,Zwolle,Overijssel,VBO,6.082116,52.507269
Willemsvaart,1,G,8,8019AA,Zwolle,Zwolle,Overijssel,VBO,6.082085,52.507302
Willemsvaart,1,G,9,8019AA,Zwolle,Zwolle,Overijssel,VBO,6.082052,52.507340
Willemsvaart,1,,1001,8019AA,Zwolle,Zwolle,Overijssel,VBO,6.082202,52.507355
Willemsvaart,1,,1002,8019AA,Zwolle,Zwolle,Overijssel,VBO,6.082279,52.507265
Willemsvaart,1,,1003,8019AA,Zwolle,Zwolle,Overijssel,VBO,6.082178,52.507233
Willemsvaart,1,,1004,8019AA,Zwolle,Zwolle,Overijssel,VBO,6.082103,52.507320
Willemsvaart,1,,101,8019AA,Zwolle,Zwolle,Overijssel,VBO,6.082214,52.507405
Willemsvaart,1,,102,8019AA,Zwolle,Zwolle,Overijssel,VBO,6.082307,52.507308
Willemsvaart,1,,103,8019AA,Zwolle,Zwolle,Overijssel,VBO,6.082211,52.507275
Willemsvaart,1,,104,8019AA,Zwolle,Zwolle,Overijssel,VBO,6.082121,52.507371
Willemsvaart,1,,1101,8019AA,Zwolle,Zwolle,Overijssel,VBO,6.082212,52.507340
Willemsvaart,1,,1103,8019AA,Zwolle,Zwolle,Overijssel,VBO,6.082186,52.507221
Willemsvaart,1,,1104,8019AA,Zwolle,Zwolle,Overijssel,VBO,6.082111,52.507307
Willemsvaart,1,,1201,8019AA,Zwolle,Zwolle,Overijssel,VBO,6.082225,52.507326
Willemsvaart,1,,1202,8019AA,Zwolle,Zwolle,Overijssel,VBO,6.082299,52.507240
Willemsvaart,1,,1203,8019AA,Zwolle,Zwolle,Overijssel,VBO,6.082196,52.507209
Willemsvaart,1,,1204,8019AA,Zwolle,Zwolle,Overijssel,VBO,6.082120,52.507295
Willemsvaart,1,,201,8019AA,Zwolle,Zwolle,Overijssel,VBO,6.082224,52.507393
Willemsvaart,1,,202,8019AA,Zwolle,Zwolle,Overijssel,VBO,6.082316,52.507297
Willemsvaart,1,,203,8019AA,Zwolle,Zwolle,Overijssel,VBO,6.082219,52.507264
Willemsvaart,1,,204,8019AA,Zwolle,Zwolle,Overijssel,VBO,6.082133,52.507359
Willemsvaart,1,,301,8019AA,Zwolle,Zwolle,Overijssel,VBO,6.082234,52.507381
Willemsvaart,1,,302,8019AA,Zwolle,Zwolle,Overijssel,VBO,6.082325,52.507284
Willemsvaart,1,,303,8019AA,Zwolle,Zwolle,Overijssel,VBO,6.082228,52.507251
Willemsvaart,1,,304,8019AA,Zwolle,Zwolle,Overijssel,VBO,6.082141,52.507347
Willemsvaart,1,,401,8019AA,Zwolle,Zwolle,Overijssel,VBO,6.082245,52.507369
Willemsvaart,1,,402,8019AA,Zwolle,Zwolle,Overijssel,VBO,6.082338,52.507274
Willemsvaart,1,,403,8019AA,Zwolle,Zwolle,Overijssel,VBO,6.082240,52.507240
Willemsvaart,1,,404,8019AA,Zwolle,Zwolle,Overijssel,VBO,6.082150,52.507338
Willemsvaart,1,,501,8019AA,Zwolle,Zwolle,Overijssel,VBO,6.082260,52.507357
Willemsvaart,1,,503,8019AA,Zwolle,Zwolle,Overijssel,VBO,6.082252,52.507229
Willemsvaart,1,,504,8019AA,Zwolle,Zwolle,Overijssel,VBO,6.082162,52.507326
Willemsvaart,1,,601,8019AA,Zwolle,Zwolle,Overijssel,VBO,6.082270,52.507344
Willemsvaart,1,,602,8019AA,Zwolle,Zwolle,Overijssel,VBO,6.082358,52.507252
Willemsvaart,1,,603,8019AA,Zwolle,Zwolle,Overijssel,VBO,6.082259,52.507216
Willemsvaart,1,,604,8019AA,Zwolle,Zwolle,Overijssel,VBO,6.082172,52.507314
Willemsvaart,1,,701,8019AA,Zwolle,Zwolle,Overijssel,VBO,6.082278,52.507334
Willemsvaart,1,,702,8019AA,Zwolle,Zwolle,Overijssel,VBO,6.082367,52.507241
Willemsvaart,1,,703,8019AA,Zwolle,Zwolle,Overijssel,VBO,6.082270,52.507206
Willemsvaart,1,,704,8019AA,Zwolle,Zwolle,Overijssel,VBO,6.082181,52.507304
Willemsvaart,1,,801,8019AA,Zwolle,Zwolle,Overijssel,VBO,6.082289,52.507324
Willemsvaart,1,,803,8019AA,Zwolle,Zwolle,Overijssel,VBO,6.082277,52.507196
Willemsvaart,1,,804,8019AA,Zwolle,Zwolle,Overijssel,VBO,6.082190,52.507293
Willemsvaart,1,,901,8019AA,Zwolle,Zwolle,Overijssel,VBO,6.082192,52.507369
Willemsvaart,1,,902,8019AA,Zwolle,Zwolle,Overijssel,VBO,6.082272,52.507277
Willemsvaart,1,,903,8019AA,Zwolle,Zwolle,Overijssel,VBO,6.082172,52.507245
Willemsvaart,1,,904,8019AA,Zwolle,Zwolle,Overijssel,VBO,6.082094,52.507334
Willemsvaart,2,T,1,8019AB,Zwolle,Zwolle,Overijssel,VBO,6.083257,52.507132
Willemsvaart,2,,,8019AB,Zwolle,Zwolle,Overijssel,VBO,6.082467,52.507485
Willemsvaart,10,,,8019AB,Zwolle,Zwolle,Overijssel,VBO,6.081837,52.507252
Willemsvaart,11,,,8019AB,Zwolle,Zwolle,Overijssel,VBO,6.081721,52.507225
Willemsvaart,12,,,8019AB,Zwolle,Zwolle,Overijssel,VBO,6.081381,52.507174
Willemsvaart,13,,,8019AB,Zwolle,Zwolle,Overijssel,VBO,6.081247,52.507112
Willemsvaart,14,,,8019AB,Zwolle,Zwolle,Overijssel,VBO,6.081158,52.507046
Willemsvaart,16,A,,8019AB,Zwolle,Zwolle,Overijssel,VBO,6.080737,52.506843
Willemsvaart,16,,,8019AB,Zwolle,Zwolle,Overijssel,VBO,6.080853,52.506899
Willemsvaart,17,A,,8019AB,Zwolle,Zwolle,Overijssel,VBO,6.080574,52.506790
Willemsvaart,17,,,8019AB,Zwolle,Zwolle,Overijssel,VBO,6.080546,52.506777
Willemsvaart,18,A,,8019AB,Zwolle,Zwolle,Overijssel,VBO,6.079465,52.506115
Willemsvaart,18,T,1,8019AB,Zwolle,Zwolle,Overijssel,VBO,6.080317,52.506606
Willemsvaart,18,,,8019AB,Zwolle,Zwolle,Overijssel,VBO,6.080128,52.506605
Willemsvaart,19,,,8019AB,Zwolle,Zwolle,Overijssel,VBO,6.076695,52.504981
Willemsvaart,20,B,,8019AB,Zwolle,Zwolle,Overijssel,VBO,6.075615,52.504700
Willemsvaart,20,T,1,8019AB,Zwolle,Zwolle,Overijssel,VBO,6.075857,52.504862
Willemsvaart,20,,,8019AB,Zwolle,Zwolle,Overijssel,VBO,6.075990,52.504905
Willemsvaart,21,,,8019AB,Zwolle,Zwolle,Overijssel,VBO,6.075039,52.504545
Veerallee,18,,,8019AC,Zwolle,Zwolle,Overijssel,VBO,6.080421,52.507501
Veerallee,21,,,8019AC,Zwolle,Zwolle,Overijssel,VBO,6.079871,52.507290
Veerallee,22,,,8019AC,Zwolle,Zwolle,Overijssel,VBO,6.079763,52.507249
Veerallee,23,,,8019AC,Zwolle,Zwolle,Overijssel,VBO,6.079688,52.507220
Veerallee,24,,,8019AC,Zwolle,Zwolle,Overijssel,VBO,6.079615,52.507194
Veerallee,25,,,8019AC,Zwolle,Zwolle,Overijssel,VBO,6.079538,52.507165
Veerallee,26,,,8019AC,Zwolle,Zwolle,Overijssel,VBO,6.079279,52.507071
Veerallee,27,,,8019AC,Zwolle,Zwolle,Overijssel,VBO,6.079195,52.507040
Veerallee,28,,,8019AC,Zwolle,Zwolle,Overijssel,VBO,6.079114,52.507010
Veerallee,29,A,,8019AD,Zwolle,Zwolle,Overijssel,VBO,6.078703,52.507148
Veerallee,29,,,8019AD,Zwolle,Zwolle,Overijssel,VBO,6.078976,52.506959
Veerallee,30,,,8019AD,Zwolle,Zwolle,Overijssel,VBO,6.078366,52.507167
Veerallee,31,,,8019AD,Zwolle,Zwolle,Overijssel,VBO,6.078388,52.506742
Veerallee,32,,1,8019AD,Zwolle,Zwolle,Overijssel,VBO,6.077760,52.506545
Veerallee,32,,2,8019AD,Zwolle,Zwolle,Overijssel,VBO,6.077662,52.506503
Veerallee,32,,,8019AD,Zwolle,Zwolle,Overijssel,VBO,6.077867,52.506776
Veerallee,33,,,8019AD,Zwolle,Zwolle,Overijssel,VBO,6.077467,52.506415
Veerallee,34,,,8019AD,Zwolle,Zwolle,Overijssel,VBO,6.077366,52.506391
Veerallee,35,,,8019AD,Zwolle,Zwolle,Overijssel,VBO,6.076870,52.506631
Veerallee,36,,,8019AD,Zwolle,Zwolle,Overijssel,VBO,6.077036,52.506253
Veerallee,37,,,8019AD,Zwolle,Zwolle,Overijssel,VBO,6.076736,52.506139
Veerallee,38,,,8019AD,Zwolle,Zwolle,Overijssel,VBO,6.076630,52.506103
Veerallee,39,,,8019AD,Zwolle,Zwolle,Overijssel,VBO,6.076265,52.505981
Veerallee,40,,,8019AD,Zwolle,Zwolle,Overijssel,VBO,6.075911,52.505832
Veerallee,41,,,8019AD,Zwolle,Zwolle,Overijssel,VBO,6.075648,52.505740
Veerallee,49,,,8019AD,Zwolle,Zwolle,Overijssel,VBO,6.075373,52.505639
Veerallee,50,,,8019AD,Zwolle,Zwolle,Overijssel,VBO,6.075009,52.505562
Veerallee,51,,,8019AE,Zwolle,Zwolle,Overijssel,VBO,6.074398,52.505355
Veerallee,52,,,8019AE,Zwolle,Zwolle,Overijssel,VBO,6.074338,52.505333
Veerallee,53,,,8019AE,Zwolle,Zwolle,Overijssel,VBO,6.074175,52.505276
Veerallee,54,,,8019AE,Zwolle,Zwolle,Overijssel,VBO,6.074038,52.505225
Veerallee,55,,,8019AE,Zwolle,Zwolle,Overijssel,VBO,6.073835,52.505144
Veerallee,56,,,8019AE,Zwolle,Zwolle,Overijssel,VBO,6.073660,52.505075
Veerallee,57,,,8019AE,Zwolle,Zwolle,Overijssel,VBO,6.073556,52.505012
Veerallee,59,A,,8019AE,Zwolle,Zwolle,Overijssel,VBO,6.073109,52.504777
Veerallee,59,B,,8019AE,Zwolle,Zwolle,Overijssel,VBO,6.072862,52.504854
Veerallee,59,C,,8019AE,Zwolle,Zwolle,Overijssel,VBO,6.072773,52.504952
Veerallee,59,,,8019AE,Zwolle,Zwolle,Overijssel,VBO,6.073247,52.504827
Veerallee,60,A,,8019AE,Zwolle,Zwolle,Overijssel,VBO,6.073088,52.504794
Veerallee,60,B,,8019AE,Zwolle,Zwolle,Overijssel,VBO,6.072891,52.504865
Veerallee,60,C,,8019AE,Zwolle,Zwolle,Overijssel,VBO,6.072802,52.504963
Veerallee,60,,,8019AE,Zwolle,Zwolle,Overijssel,VBO,6.073226,52.504844
Veerallee,61,A,,8019AE,Zwolle,Zwolle,Overijssel,VBO,6.073074,52.504812
Veerallee,61,B,,8019AE,Zwolle,Zwolle,Overijssel,VBO,6.072919,52.504875
Veerallee,61,C,,8019AE,Zwolle,Zwolle,Overijssel,VBO,6.072830,52.504973
Veerallee,61,,,8019AE,Zwolle,Zwolle,Overijssel,VBO,6.073212,52.504861
Veerallee,64,,,8019AE,Zwolle,Zwolle,Overijssel,VBO,6.072629,52.504724
Veerallee,66,,,8019AE,Zwolle,Zwolle,Overijssel,VBO,6.072538,52.504692
Veerallee,68,,,8019AE,Zwolle,Zwolle,Overijssel,VBO,6.072432,52.504644
Veerallee,70,,,8019AE,Zwolle,Zwolle,Overijssel,VBO,6.072373,52.504532
Nieuwe Veerallee,10,,,8019AG,Zwolle,Zwolle,Overijssel,VBO,6.081645,52.508302
Nieuwe Veerallee,12,,,8019AG,Zwolle,Zwolle,Overijssel,VBO,6.081585,52.508372
Koningin Wilhelminastraat,1,,,8019AH,Zwolle,Zwolle,Overijssel,VBO,6.080013,52.507389
Koningin Wilhelminastraat,3,,,8019AH,Zwolle,Zwolle,Overijssel,VBO,6.079887,52.507512
Koningin Wilhelminastraat,5,,,8019AH,Zwolle,Zwolle,Overijssel,VBO,6.079798,52.507593
Koningin Wilhelminastraat,7,,,8019AH,Zwolle,Zwolle,Overijssel,VBO,6.079685,52.507671
Koningin Wilhelminastraat,11,,,8019AH,Zwolle,Zwolle,Overijssel,VBO,6.079573,52.507787
Koningin Wilhelminastraat,13,,,8019AH,Zwolle,Zwolle,Overijssel,VBO,6.079536,52.507830
Koningin Wilhelminastraat,15,,,8019AH,Zwolle,Zwolle,Overijssel,VBO,6.079481,52.507875
Koningin Wilhelminastraat,17,,,8019AH,Zwolle,Zwolle,Overijssel,VBO,6.079429,52.507925
Koningin Wilhelminastraat,19,,,8019AH,Zwolle,Zwolle,Overijssel,VBO,6.079380,52.507971
Koningin Wilhelminastraat,21,,,8019AH,Zwolle,Zwolle,Overijssel,VBO,6.079329,52.508018
Koningin Wilhelminastraat,23,,,8019AJ,Zwolle,Zwolle,Overijssel,VBO,6.079281,52.508067
Koningin Wilhelminastraat,25,A,,8019AJ,Zwolle,Zwolle,Overijssel,VBO,6.079214,52.508139
Koningin Wilhelminastraat,25,,,8019AJ,Zwolle,Zwolle,Overijssel,VBO,6.079220,52.508126
Koningin Wilhelminastraat,27,,,8019AJ,Zwolle,Zwolle,Overijssel,VBO,6.079167,52.508177
Koningin Wilhelminastraat,29,,,8019AJ,Zwolle,Zwolle,Overijssel,VBO,6.079115,52.508225
Koningin Wilhelminastraat,31,,,8019AJ,Zwolle,Zwolle,Overijssel,VBO,6.079064,52.508279
Koningin Wilhelminastraat,33,,,8019AJ,Zwolle,Zwolle,Overijssel,VBO,6.079009,52.508332
Koningin Wilhelminastraat,35,,,8019AJ,Zwolle,Zwolle,Overijssel,VBO,6.078946,52.508393
Koningin Wilhelminastraat,37,,,8019AK,Zwolle,Zwolle,Overijssel,VBO,6.078612,52.508591
Koningin Wilhelminastraat,39,,,8019AK,Zwolle,Zwolle,Overijssel,VBO,6.078552,52.508630
Koningin Wilhelminastraat,41,,,8019AK,Zwolle,Zwolle,Overijssel,VBO,6.078484,52.508672
Koningin Wilhelminastraat,43,,,8019AK,Zwolle,Zwolle,Overijssel,VBO,6.078418,52.508711
Koningin Wilhelminastraat,45,,,8019AK,Zwolle,Zwolle,Overijssel,VBO,6.078353,52.508753
Koningin Wilhelminastraat,47,,,8019AK,Zwolle,Zwolle,Overijssel,VBO,6.078296,52.508790
Koningin Wilhelminastraat,49,,,8019AK,Zwolle,Zwolle,Overijssel,VBO,6.078005,52.508970
Koningin Wilhelminastraat,51,,,8019AK,Zwolle,Zwolle,Overijssel,VBO,6.077942,52.509011
Koningin Wilhelminastraat,53,,,8019AK,Zwolle,Zwolle,Overijssel,VBO,6.077880,52.509049
Koningin Wilhelminastraat,55,,,8019AK,Zwolle,Zwolle,Overijssel,VBO,6.077787,52.509105
Koningin Wilhelminastraat,57,,,8019AK,Zwolle,Zwolle,Overijssel,VBO,6.077721,52.509146
Koningin Wilhelminastraat,59,,,8019AK,Zwolle,Zwolle,Overijssel,VBO,6.077655,52.509187
Koningin Wilhelminastraat,61,,,8019AK,Zwolle,Zwolle,Overijssel,VBO,6.077590,52.509229
Koningin Wilhelminastraat,63,,,8019AL,Zwolle,Zwolle,Overijssel,VBO,6.077302,52.509411
Koningin Wilhelminastraat,65,,,8019AL,Zwolle,Zwolle,Overijssel,VBO,6.077237,52.509452
Koningin Wilhelminastraat,67,,,8019AL,Zwolle,Zwolle,Overijssel,VBO,6.077173,52.509493
Koningin Wilhelminastraat,69,,,8019AL,Zwolle,Zwolle,Overijssel,VBO,6.077091,52.509548
Koningin Wilhelminastraat,71,,,8019AL,Zwolle,Zwolle,Overijssel,VBO,6.077023,52.509590
Koningin Wilhelminastraat,73,,,8019AL,Zwolle,Zwolle,Overijssel,VBO,6.076954,52.509631
Koningin Wilhelminastraat,75,,,8019AL,Zwolle,Zwolle,Overijssel,VBO,6.076844,52.509700
Koningin Wilhelminastraat,77,,,8019AL,Zwolle,Zwolle,Overijssel,VBO,6.076773,52.509742
Koningin Wilhelminastraat,79,,,8019AL,Zwolle,Zwolle,Overijssel,VBO,6.076710,52.509783
Koningin Wilhelminastraat,81,,,8019AL,Zwolle,Zwolle,Overijssel,VBO,6.076637,52.509824
Koningin Wilhelminastraat,83,,,8019AL,Zwolle,Zwolle,Overijssel,VBO,6.076569,52.509867
Koningin Wilhelminastraat,91,,,8019AL,Zwolle,Zwolle,Overijssel,VBO,6.076018,52.510389
Koningin Wilhelminastraat,93,,,8019AL,Zwolle,Zwolle,Overijssel,VBO,6.076523,52.510688
Koningin Wilhelminastraat,95,,,8019AL,Zwolle,Zwolle,Overijssel,VBO,6.077025,52.510971
Koningin Wilhelminastraat,2,,,8019AM,Zwolle,Zwolle,Overijssel,VBO,6.080208,52.507492
Koningin Wilhelminastraat,6,,,8019AM,Zwolle,Zwolle,Overijssel,VBO,6.079927,52.507788
Koningin Wilhelminastraat,10,A,,8019AM,Zwolle,Zwolle,Overijssel,VBO,6.079867,52.507937
Koningin Wilhelminastraat,10,,,8019AM,Zwolle,Zwolle,Overijssel,VBO,6.079773,52.507935
Koningin Wilhelminastraat,12,A,,8019AM,Zwolle,Zwolle,Overijssel,VBO,6.079796,52.508001
Koningin Wilhelminastraat,12,,,8019AM,Zwolle,Zwolle,Overijssel,VBO,6.079726,52.507994
Koningin Wilhelminastraat,14,A,,8019AM,Zwolle,Zwolle,Overijssel,VBO,6.079731,52.508090
Koningin Wilhelminastraat,14,,,8019AM,Zwolle,Zwolle,Overijssel,VBO,6.079648,52.508070
Koningin Wilhelminastraat,16,,,8019AM,Zwolle,Zwolle,Overijssel,VBO,6.079574,52.508136
Koningin Wilhelminastraat,18,A,,8019AM,Zwolle,Zwolle,Overijssel,VBO,6.079526,52.508191
Koningin Wilhelminastraat,18,,,8019AM,Zwolle,Zwolle,Overijssel,VBO,6.079502,52.508210
Koningin Wilhelminastraat,20,A,,8019AN,Zwolle,Zwolle,Overijssel,VBO,6.079445,52.508283
Koningin Wilhelminastraat,20,,,8019AN,Zwolle,Zwolle,Overijssel,VBO,6.079451,52.508271
Koningin Wilhelminastraat,22,A,,8019AN,Zwolle,Zwolle,Overijssel,VBO,6.079369,52.508357
Koningin Wilhelminastraat,22,,,8019AN,Zwolle,Zwolle,Overijssel,VBO,6.079383,52.508340
Koningin Wilhelminastraat,24,,,8019AN,Zwolle,Zwolle,Overijssel,VBO,6.079311,52.508410
Koningin Wilhelminastraat,26,A,,8019AN,Zwolle,Zwolle,Overijssel,VBO,6.079223,52.508499
Koningin Wilhelminastraat,26,,,8019AN,Zwolle,Zwolle,Overijssel,VBO,6.079230,52.508486
Koningin Wilhelminastraat,28,,,8019AN,Zwolle,Zwolle,Overijssel,VBO,6.078851,52.508888
Koningin Wilhelminastraat,32,,,8019AN,Zwolle,Zwolle,Overijssel,VBO,6.077832,52.510568
Prins Hendrikstraat,1,,,8019AP,Zwolle,Zwolle,Overijssel,VBO,6.078946,52.507369
Prins Hendrikstraat,3,,,8019AP,Zwolle,Zwolle,Overijssel,VBO,6.078865,52.507442
Prins Hendrikstraat,5,A,,8019AP,Zwolle,Zwolle,Overijssel,VBO,6.078759,52.507542
Prins Hendrikstraat,5,,,8019AP,Zwolle,Zwolle,Overijssel,VBO,6.078808,52.507506
Prins Hendrikstraat,7,,,8019AP,Zwolle,Zwolle,Overijssel,VBO,6.078679,52.507601
Prins Hendrikstraat,9,,,8019AP,Zwolle,Zwolle,Overijssel,VBO,6.078604,52.507674
Prins Hendrikstraat,11,,,8019AP,Zwolle,Zwolle,Overijssel,VBO,6.078533,52.507745
Prins Hendrikstraat,13,,,8019AP,Zwolle,Zwolle,Overijssel,VBO,6.078456,52.507816
Prins Hendrikstraat,15,,,8019AP,Zwolle,Zwolle,Overijssel,VBO,6.078382,52.507886
Prins Hendrikstraat,17,A,,8019AP,Zwolle,Zwolle,Overijssel,VBO,6.078262,52.507990
Prins Hendrikstraat,17,,,8019AP,Zwolle,Zwolle,Overijssel,VBO,6.078306,52.507956
Prins Hendrikstraat,2,,,8019AR,Zwolle,Zwolle,Overijssel,VBO,6.079286,52.507397
Prins Hendrikstraat,4,,,8019AR,Zwolle,Zwolle,Overijssel,VBO,6.079229,52.507450
Prins Hendrikstraat,6,,,8019AR,Zwolle,Zwolle,Overijssel,VBO,6.079181,52.507495
Prins Hendrikstraat,8,,,8019AR,Zwolle,Zwolle,Overijssel,VBO,6.079133,52.507541
Prins Hendrikstraat,10,,,8019AR,Zwolle,Zwolle,Overijssel,VBO,6.079050,52.507620
Prins Hendrikstraat,12,,,8019AR,Zwolle,Zwolle,Overijssel,VBO,6.079001,52.507669
Prins Hendrikstraat,14,,,8019AR,Zwolle,Zwolle,Overijssel,VBO,6.078955,52.507713
Prins Hendrikstraat,16,,,8019AR,Zwolle,Zwolle,Overijssel,VBO,6.078906,52.507759
Prins Hendrikstraat,18,A,,8019AR,Zwolle,Zwolle,Overijssel,VBO,6.078806,52.507853
Prins Hendrikstraat,18,,,8019AR,Zwolle,Zwolle,Overijssel,VBO,6.078823,52.507826
Prins Hendrikstraat,20,,,8019AR,Zwolle,Zwolle,Overijssel,VBO,6.078765,52.507890
Prins Hendrikstraat,22,A,,8019AR,Zwolle,Zwolle,Overijssel,VBO,6.078695,52.507964
Prins Hendrikstraat,22,,,8019AR,Zwolle,Zwolle,Overijssel,VBO,6.078704,52.507947
Prins Hendrikstraat,24,A,,8019AR,Zwolle,Zwolle,Overijssel,VBO,6.078619,52.508032
Prins Hendrikstraat,24,,,8019AR,Zwolle,Zwolle,Overijssel,VBO,6.078625,52.508021
Prins Hendrikstraat,26,A,,8019AR,Zwolle,Zwolle,Overijssel,VBO,6.078559,52.508087
Prins Hendrikstraat,26,,,8019AR,Zwolle,Zwolle,Overijssel,VBO,6.078565,52.508075
Prinses Julianastraat,5,,,8019AS,Zwolle,Zwolle,Overijssel,VBO,6.076110,52.506223
Prinses Julianastraat,7,,,8019AS,Zwolle,Zwolle,Overijssel,VBO,6.076070,52.506273
Prinses Julianastraat,9,G,1,8019AS,Zwolle,Zwolle,Overijssel,VBO,6.075503,52.506586
Prinses Julianastraat,9,,,8019AS,Zwolle,Zwolle,Overijssel,VBO,6.075664,52.506688
Prinses Julianastraat,11,,,8019AS,Zwolle,Zwolle,Overijssel,VBO,6.075620,52.506766
Prinses Julianastraat,13,,,8019AS,Zwolle,Zwolle,Overijssel,VBO,6.075637,52.506818
Prinses Julianastraat,15,,,8019AS,Zwolle,Zwolle,Overijssel,VBO,6.075669,52.506904
Prinses Julianastraat,17,A,,8019AS,Zwolle,Zwolle,Overijssel,VBO,6.075696,52.506969
Prinses Julianastraat,17,,,8019AS,Zwolle,Zwolle,Overijssel,VBO,6.075685,52.506953
Prinses Julianastraat,19,,,8019AS,Zwolle,Zwolle,Overijssel,VBO,6.075714,52.507032
Prinses Julianastraat,21,,,8019AS,Zwolle,Zwolle,Overijssel,VBO,6.075731,52.507092
Prinses Julianastraat,23,A,,8019AT,Zwolle,Zwolle,Overijssel,VBO,6.076169,52.507225
Prinses Julianastraat,23,,,8019AT,Zwolle,Zwolle,Overijssel,VBO,6.076177,52.507214
Prinses Julianastraat,25,A,,8019AT,Zwolle,Zwolle,Overijssel,VBO,6.076312,52.507277
Prinses Julianastraat,25,,,8019AT,Zwolle,Zwolle,Overijssel,VBO,6.076322,52.507266
Prinses Julianastraat,27,,,8019AT,Zwolle,Zwolle,Overijssel,VBO,6.076408,52.507338
Prinses Julianastraat,29,,,8019AT,Zwolle,Zwolle,Overijssel,VBO,6.076488,52.507366
Prinses Julianastraat,31,,,8019AT,Zwolle,Zwolle,Overijssel,VBO,6.076580,52.507389
Prinses Julianastraat,33,,,8019AT,Zwolle,Zwolle,Overijssel,VBO,6.076659,52.507418
Prinses Julianastraat,35,,,8019AT,Zwolle,Zwolle,Overijssel,VBO,6.076745,52.507449
Prinses Julianastraat,37,,,8019AT,Zwolle,Zwolle,Overijssel,VBO,6.076799,52.507501
Prinses Julianastraat,39,,,8019AT,Zwolle,Zwolle,Overijssel,VBO,6.076910,52.507509
Prinses Julianastraat,41,,,8019AT,Zwolle,Zwolle,Overijssel,VBO,6.076996,52.507540
Prinses Julianastraat,43,,,8019AT,Zwolle,Zwolle,Overijssel,VBO,6.077072,52.507579
Prinses Julianastraat,45,,,8019AT,Zwolle,Zwolle,Overijssel,VBO,6.077153,52.507608
Prinses Julianastraat,47,A,,8019AT,Zwolle,Zwolle,Overijssel,VBO,6.077297,52.507648
Prinses Julianastraat,47,,,8019AT,Zwolle,Zwolle,Overijssel,VBO,6.077298,52.507620
Prinses Julianastraat,49,A,,8019AT,Zwolle,Zwolle,Overijssel,VBO,6.077448,52.507706
Prinses Julianastraat,49,,,8019AT,Zwolle,Zwolle,Overijssel,VBO,6.077449,52.507675
Prinses Julianastraat,51,,,8019AT,Zwolle,Zwolle,Overijssel,VBO,6.078306,52.508269
Prinses Julianastraat,53,,,8019AT,Zwolle,Zwolle,Overijssel,VBO,6.078421,52.508349
Prinses Julianastraat,55,,,8019AT,Zwolle,Zwolle,Overijssel,VBO,6.078474,52.508386
Prinses Julianastraat,57,,,8019AT,Zwolle,Zwolle,Overijssel,VBO,6.078647,52.508507
Kamperweg,1,,,8019AV,Zwolle,Zwolle,Overijssel,VBO,6.080342,52.508810
Kamperweg,25,,,8019AV,Zwolle,Zwolle,Overijssel,VBO,6.076733,52.511261
Kamperweg,27,,,8019AV,Zwolle,Zwolle,Overijssel,VBO,6.076669,52.511214
Prinses Julianastraat,4,,,8019AW,Zwolle,Zwolle,Overijssel,VBO,6.076208,52.506504
Prinses Julianastraat,6,,,8019AW,Zwolle,Zwolle,Overijssel,VBO,6.076165,52.506549
Prinses Julianastraat,8,,,8019AW,Zwolle,Zwolle,Overijssel,VBO,6.076111,52.506604
Prinses Julianastraat,10,,,8019AW,Zwolle,Zwolle,Overijssel,VBO,6.076069,52.506654
Prinses Julianastraat,12,,,8019AW,Zwolle,Zwolle,Overijssel,VBO,6.076042,52.506729
Prinses Julianastraat,14,A,,8019AW,Zwolle,Zwolle,Overijssel,VBO,6.076076,52.506825
Prinses Julianastraat,14,,,8019AW,Zwolle,Zwolle,Overijssel,VBO,6.076064,52.506808
Prinses Julianastraat,16,A,,8019AW,Zwolle,Zwolle,Overijssel,VBO,6.076106,52.506941
Prinses Julianastraat,16,,,8019AW,Zwolle,Zwolle,Overijssel,VBO,6.076101,52.506912
Prinses Julianastraat,18,,,8019AW,Zwolle,Zwolle,Overijssel,VBO,6.076146,52.507003
Prinses Julianastraat,20,,,8019AW,Zwolle,Zwolle,Overijssel,VBO,6.076213,52.507061
Prinses Julianastraat,22,,,8019AW,Zwolle,Zwolle,Overijssel,VBO,6.076339,52.507060
Prinses Julianastraat,24,,,8019AW,Zwolle,Zwolle,Overijssel,VBO,6.076420,52.507089
Prinses Julianastraat,26,,,8019AW,Zwolle,Zwolle,Overijssel,VBO,6.076501,52.507119
Prinses Julianastraat,28,,,8019AW,Zwolle,Zwolle,Overijssel,VBO,6.076587,52.507150
Prinses Julianastraat,30,,,8019AW,Zwolle,Zwolle,Overijssel,VBO,6.076667,52.507180
Prinses Julianastraat,32,,,8019AW,Zwolle,Zwolle,Overijssel,VBO,6.076743,52.507219
Prinses Julianastraat,34,,,8019AW,Zwolle,Zwolle,Overijssel,VBO,6.076823,52.507248
Prinses Julianastraat,36,,,8019AW,Zwolle,Zwolle,Overijssel,VBO,6.076910,52.507280
Prinses Julianastraat,38,,,8019AW,Zwolle,Zwolle,Overijssel,VBO,6.076987,52.507307
Prinses Julianastraat,40,,,8019AX,Zwolle,Zwolle,Overijssel,VBO,6.077067,52.507336
Prinses Julianastraat,42,,,8019AX,Zwolle,Zwolle,Overijssel,VBO,6.077155,52.507369
Prinses Julianastraat,44,,,8019AX,Zwolle,Zwolle,Overijssel,VBO,6.077234,52.507397
Prinses Julianastraat,46,,,8019AX,Zwolle,Zwolle,Overijssel,VBO,6.077328,52.507419
Prinses Julianastraat,48,,,8019AX,Zwolle,Zwolle,Overijssel,VBO,6.077413,52.507450
Prinses Julianastraat,50,,,8019AX,Zwolle,Zwolle,Overijssel,VBO,6.077495,52.507480
Prinses Julianastraat,52,,,8019AX,Zwolle,Zwolle,Overijssel,VBO,6.077575,52.507509
Prinses Julianastraat,54,,,8019AX,Zwolle,Zwolle,Overijssel,VBO,6.077626,52.507573
Prinses Julianastraat,56,,,8019AX,Zwolle,Zwolle,Overijssel,VBO,6.077713,52.507616
Prinses Julianastraat,58,G,1,8019AX,Zwolle,Zwolle,Overijssel,VBO,6.077888,52.507738
Prinses Julianastraat,58,,,8019AX,Zwolle,Zwolle,Overijssel,VBO,6.077777,52.507659
Prinses Julianastraat,60,,,8019AX,Zwolle,Zwolle,Overijssel,VBO,6.078498,52.508142
Prinses Julianastraat,62,A,,8019AX,Zwolle,Zwolle,Overijssel,VBO,6.079192,52.508601
Prinses Julianastraat,62,,,8019AX,Zwolle,Zwolle,Overijssel,VBO,6.079165,52.508587
Prinses Julianastraat,64,T,1,8019AX,Zwolle,Zwolle,Overijssel,VBO,6.080316,52.508636
Prinses Julianastraat,66,,,8019AX,Zwolle,Zwolle,Overijssel,VBO,6.079550,52.508929
Prinses Julianastraat,68,,,8019AX,Zwolle,Zwolle,Overijssel,VBO,6.079163,52.509005
Jhr Strick van Linschotenlaan,1,,,8019AZ,Zwolle,Zwolle,Overijssel,VBO,6.072268,52.505007
Jhr Strick van Linschotenlaan,2,,,8019AZ,Zwolle,Zwolle,Overijssel,VBO,6.072592,52.505138
Jhr Strick van Linschotenlaan,3,,,8019AZ,Zwolle,Zwolle,Overijssel,VBO,6.072190,52.505083
Jhr Strick van Linschotenlaan,4,,,8019AZ,Zwolle,Zwolle,Overijssel,VBO,6.072522,52.505199
Jhr Strick van Linschotenlaan,5,,,8019AZ,Zwolle,Zwolle,Overijssel,VBO,6.071928,52.505318
Jhr Strick van Linschotenlaan,6,,,8019AZ,Zwolle,Zwolle,Overijssel,VBO,6.072260,52.505416
Jhr Strick van Linschotenlaan,7,,,8019AZ,Zwolle,Zwolle,Overijssel,VBO,6.071835,52.505385
Jhr Strick van Linschotenlaan,8,,,8019AZ,Zwolle,Zwolle,Overijssel,VBO,6.072190,52.505482
Jhr Strick van Linschotenlaan,10,,,8019AZ,Zwolle,Zwolle,Overijssel,VBO,6.071826,52.505770
Jhr Strick van Linschotenlaan,12,,,8019AZ,Zwolle,Zwolle,Overijssel,VBO,6.071762,52.505823
Beukenallee,1,,,8019BA,Zwolle,Zwolle,Overijssel,VBO,6.068385,52.503839
Beukenallee,2,,,8019BA,Zwolle,Zwolle,Overijssel,VBO,6.069058,52.505072
Beukenallee,3,,,8019BA,Zwolle,Zwolle,Overijssel,VBO,6.069386,52.504138
Beukenallee,5,,,8019BA,Zwolle,Zwolle,Overijssel,VBO,6.069254,52.504293
Beukenallee,7,,,8019BA,Zwolle,Zwolle,Overijssel,VBO,6.069214,52.504334
Beukenallee,9,,,8019BA,Zwolle,Zwolle,Overijssel,VBO,6.069184,52.504380
Beukenallee,11,,,8019BA,Zwolle,Zwolle,Overijssel,VBO,6.069148,52.504428
Beukenallee,15,,,8019BA,Zwolle,Zwolle,Overijssel,VBO,6.069029,52.504531
Beukenallee,17,,,8019BA,Zwolle,Zwolle,Overijssel,VBO,6.068979,52.504568
Beukenallee,19,,,8019BA,Zwolle,Zwolle,Overijssel,VBO,6.068881,52.504654
Beukenallee,21,,,8019BA,Zwolle,Zwolle,Overijssel,VBO,6.068815,52.504697
Beukenallee,23,,,8019BA,Zwolle,Zwolle,Overijssel,VBO,6.068703,52.504797
Beukenallee,25,,,8019BA,Zwolle,Zwolle,Overijssel,VBO,6.068648,52.504842
Beukenallee,27,,,8019BA,Zwolle,Zwolle,Overijssel,VBO,6.068372,52.504996
Beukenallee,29,,,8019BA,Zwolle,Zwolle,Overijssel,VBO,6.068326,52.505033
Beukenallee,31,A,,8019BA,Zwolle,Zwolle,Overijssel,VBO,6.068029,52.505189
Beukenallee,31,,,8019BA,Zwolle,Zwolle,Overijssel,VBO,6.068102,52.505129
Spoolderbergweg,1,,,8019BB,Zwolle,Zwolle,Overijssel,VBO,6.068338,52.500256
Spoolderbergweg,3,,,8019BB,Zwolle,Zwolle,Overijssel,VBO,6.068269,52.500152
Spoolderbergweg,5,,,8019BB,Zwolle,Zwolle,Overijssel,VBO,6.067867,52.499998
Spoolderbergweg,7,,,8019BB,Zwolle,Zwolle,Overijssel,VBO,6.067826,52.499909
Spoolderbergweg,9,,,8019BB,Zwolle,Zwolle,Overijssel,VBO,6.067384,52.499787
Spoolderbergweg,11,A,,8019BB,Zwolle,Zwolle,Overijssel,VBO,6.066981,52.499425
Spoolderbergweg,11,,,8019BB,Zwolle,Zwolle,Overijssel,VBO,6.067350,52.499698
Spoolderbergweg,13,A,,8019BB,Zwolle,Zwolle,Overijssel,VBO,6.065995,52.499261
Spoolderbergweg,13,,,8019BB,Zwolle,Zwolle,Overijssel,VBO,6.066132,52.499311
Spoolderbergweg,15,,,8019BB,Zwolle,Zwolle,Overijssel,VBO,6.065507,52.499078
Spoolderbergweg,17,,,8019BB,Zwolle,Zwolle,Overijssel,VBO,6.065014,52.498912
Spoolderbergweg,19,,,8019BB,Zwolle,Zwolle,Overijssel,VBO,6.064066,52.498670
Spoolderbergweg,21,,,8019BB,Zwolle,Zwolle,Overijssel,VBO,6.063819,52.498118
Spoolderbergweg,23,,,8019BB,Zwolle,Zwolle,Overijssel,VBO,6.063805,52.498038
Spoolderbergweg,25,,,8019BB,Zwolle,Zwolle,Overijssel,VBO,6.063847,52.498117
Spoolderbergweg,27,,,8019BB,Zwolle,Zwolle,Overijssel,VBO,6.063829,52.498037
Spoolderbergweg,29,,,8019BB,Zwolle,Zwolle,Overijssel,VBO,6.063872,52.498114
Spoolderbergweg,31,,,8019BB,Zwolle,Zwolle,Overijssel,VBO,6.063850,52.498034
Spoolderbergweg,33,,,8019BB,Zwolle,Zwolle,Overijssel,VBO,6.063896,52.498112
Spoolderbergweg,35,,,8019BB,Zwolle,Zwolle,Overijssel,VBO,6.063872,52.498031
Spoolderbergweg,37,,,8019BB,Zwolle,Zwolle,Overijssel,VBO,6.063913,52.498110
Spoolderbergweg,39,,,8019BB,Zwolle,Zwolle,Overijssel,VBO,6.063889,52.498031
Walter Middelbergstraat,2,,,8019BC,Zwolle,Zwolle,Overijssel,VBO,6.065443,52.503240
Walter Middelbergstraat,4,,,8019BC,Zwolle,Zwolle,Overijssel,VBO,6.065011,52.503329
Walter Middelbergstraat,6,,,8019BC,Zwolle,Zwolle,Overijssel,VBO,6.064601,52.503423
Walter Middelbergstraat,8,,,8019BC,Zwolle,Zwolle,Overijssel,VBO,6.064169,52.503524
Spoolderbergweg,2,,,8019BD,Zwolle,Zwolle,Overijssel,VBO,6.067016,52.500835
Spoolderbergweg,4,,,8019BD,Zwolle,Zwolle,Overijssel,VBO,6.066610,52.500549
Spoolderbergweg,6,,,8019BD,Zwolle,Zwolle,Overijssel,VBO,6.066336,52.500371
Spoolderbergweg,8,,,8019BD,Zwolle,Zwolle,Overijssel,VBO,6.066218,52.500298
Spoolderbergweg,10,,,8019BD,Zwolle,Zwolle,Overijssel,VBO,6.065937,52.500131
Spoolderbergweg,12,,,8019BD,Zwolle,Zwolle,Overijssel,VBO,6.065751,52.499915
Spoolderbergweg,14,,,8019BD,Zwolle,Zwolle,Overijssel,VBO,6.064338,52.501208
Spoolderbergweg,16,,,8019BD,Zwolle,Zwolle,Overijssel,VBO,6.064066,52.501136
Spoolderbergweg,18,,,8019BD,Zwolle,Zwolle,Overijssel,VBO,6.065239,52.499816
Spoolderbergweg,20,,,8019BD,Zwolle,Zwolle,Overijssel,VBO,6.064871,52.499580
Spoolderbergweg,22,,,8019BD,Zwolle,Zwolle,Overijssel,VBO,6.064455,52.499481
Oude Veerweg,1,,,8019BE,Zwolle,Zwolle,Overijssel,VBO,6.071778,52.503652
Oude Veerweg,3,A,,8019BE,Zwolle,Zwolle,Overijssel,VBO,6.070831,52.503110
Oude Veerweg,3,T,1,8019BE,Zwolle,Zwolle,Overijssel,VBO,6.071222,52.503302
Oude Veerweg,11,,,8019BE,Zwolle,Zwolle,Overijssel,LIG,6.070792,52.502967
Oude Veerweg,15,,,8019BE,Zwolle,Zwolle,Overijssel,LIG,6.070403,52.502915
Oude Veerweg,19,,,8019BE,Zwolle,Zwolle,Overijssel,LIG,6.070087,52.502871
Oude Veerweg,4,,,8019BG,Zwolle,Zwolle,Overijssel,VBO,6.067868,52.503155
Oude Veerweg,6,,,8019BG,Zwolle,Zwolle,Overijssel,VBO,6.067291,52.502968
Oude Veerweg,8,,,8019BG,Zwolle,Zwolle,Overijssel,VBO,6.066988,52.502862
Oude Veerweg,10,,,8019BG,Zwolle,Zwolle,Overijssel,VBO,6.066741,52.502779
Oude Veerweg,12,,,8019BG,Zwolle,Zwolle,Overijssel,VBO,6.066655,52.502758
Oude Veerweg,14,A,,8019BG,Zwolle,Zwolle,Overijssel,VBO,6.066356,52.502663
Oude Veerweg,14,,,8019BG,Zwolle,Zwolle,Overijssel,VBO,6.066412,52.502677
Oude Veerweg,16,,,8019BG,Zwolle,Zwolle,Overijssel,VBO,6.066086,52.502575
Oude Veerweg,18,,,8019BG,Zwolle,Zwolle,Overijssel,VBO,6.065995,52.502545
Oude Veerweg,22,,,8019BG,Zwolle,Zwolle,Overijssel,VBO,6.065655,52.502437
Oude Veerweg,24,,,8019BG,Zwolle,Zwolle,Overijssel,VBO,6.065512,52.502393
Oude Veerweg,26,,,8019BG,Zwolle,Zwolle,Overijssel,VBO,6.065428,52.502367
Oude Veerweg,28,,,8019BG,Zwolle,Zwolle,Overijssel,VBO,6.065122,52.502275
Oude Veerweg,30,,,8019BG,Zwolle,Zwolle,Overijssel,VBO,6.065027,52.502244
Nilantsweg,4,,,8019BH,Zwolle,Zwolle,Overijssel,VBO,6.057919,52.500852
Nilantsweg,6,,,8019BH,Zwolle,Zwolle,Overijssel,VBO,6.057880,52.500881
Oude Veerweg,32,,,8019BH,Zwolle,Zwolle,Overijssel,VBO,6.064503,52.502317
Oude Veerweg,34,,,8019BH,Zwolle,Zwolle,Overijssel,VBO,6.064446,52.502282
Oude Veerweg,36,,,8019BH,Zwolle,Zwolle,Overijssel,VBO,6.064316,52.502211
Oude Veerweg,38,,,8019BH,Zwolle,Zwolle,Overijssel,VBO,6.064248,52.502178
Oude Veerweg,40,,,8019BH,Zwolle,Zwolle,Overijssel,VBO,6.064116,52.502105
Oude Veerweg,42,,,8019BH,Zwolle,Zwolle,Overijssel,VBO,6.064052,52.502073
Oude Veerweg,44,,,8019BH,Zwolle,Zwolle,Overijssel,VBO,6.063915,52.501995
Oude Veerweg,46,,,8019BH,Zwolle,Zwolle,Overijssel,VBO,6.063843,52.501964
Oude Veerweg,48,,,8019BH,Zwolle,Zwolle,Overijssel,VBO,6.063444,52.501945
Oude Veerweg,50,,,8019BH,Zwolle,Zwolle,Overijssel,VBO,6.063387,52.501913
Oude Veerweg,52,,,8019BH,Zwolle,Zwolle,Overijssel,VBO,6.063241,52.501842
Oude Veerweg,54,,,8019BH,Zwolle,Zwolle,Overijssel,VBO,6.063180,52.501806
Oude Veerweg,56,,,8019BH,Zwolle,Zwolle,Overijssel,VBO,6.063047,52.501733
Oude Veerweg,58,,,8019BH,Zwolle,Zwolle,Overijssel,VBO,6.062984,52.501695
Oude Veerweg,60,,,8019BH,Zwolle,Zwolle,Overijssel,VBO,6.062847,52.501630
Oude Veerweg,62,,,8019BH,Zwolle,Zwolle,Overijssel,VBO,6.062775,52.501588
Oude Veerweg,66,,,8019BH,Zwolle,Zwolle,Overijssel,VBO,6.060845,52.501218
Oude Veerweg,76,,,8019BH,Zwolle,Zwolle,Overijssel,VBO,6.059627,52.500992
Oude Veerweg,78,,,8019BH,Zwolle,Zwolle,Overijssel,VBO,6.059190,52.500913
Oude Veerweg,80,,,8019BH,Zwolle,Zwolle,Overijssel,VBO,6.058750,52.500832
Oude Veerweg,82,,,8019BH,Zwolle,Zwolle,Overijssel,VBO,6.058457,52.500676
Oude Veerweg,84,,,8019BH,Zwolle,Zwolle,Overijssel,VBO,6.057949,52.500503
Oude Veerweg,86,,,8019BH,Zwolle,Zwolle,Overijssel,VBO,6.057919,52.500557
Nilantsweg,1,,,8019BJ,Zwolle,Zwolle,Overijssel,VBO,6.057620,52.500782
Nilantsweg,3,,,8019BJ,Zwolle,Zwolle,Overijssel,VBO,6.057550,52.500748
Nilantsweg,5,,,8019BJ,Zwolle,Zwolle,Overijssel,VBO,6.057499,52.500719
Nilantsweg,7,,,8019BJ,Zwolle,Zwolle,Overijssel,VBO,6.057438,52.500692
Nilantsweg,9,,,8019BJ,Zwolle,Zwolle,Overijssel,VBO,6.057377,52.500661
Nilantsweg,11,,,8019BJ,Zwolle,Zwolle,Overijssel,VBO,6.057323,52.500628
Nilantsweg,13,,,8019BJ,Zwolle,Zwolle,Overijssel,VBO,6.057252,52.500606
Nilantsweg,15,,,8019BJ,Zwolle,Zwolle,Overijssel,VBO,6.057180,52.500580
Pim Mulierstraat,1,,,8019BK,Zwolle,Zwolle,Overijssel,VBO,6.066926,52.504452
Pim Mulierstraat,3,,,8019BK,Zwolle,Zwolle,Overijssel,VBO,6.066491,52.504517
Katerveerdijk,3,,,8019BL,Zwolle,Zwolle,Overijssel,VBO,6.058993,52.499068
Katerveerdijk,5,,,8019BL,Zwolle,Zwolle,Overijssel,VBO,6.057810,52.499157
Katerveerdijk,7,,,8019BL,Zwolle,Zwolle,Overijssel,VBO,6.057683,52.499187
Katerveerdijk,9,,,8019BL,Zwolle,Zwolle,Overijssel,VBO,6.057378,52.499629
Katerveerdijk,10,,,8019BL,Zwolle,Zwolle,Overijssel,VBO,6.059419,52.499026
Katerveerdijk,11,,,8019BL,Zwolle,Zwolle,Overijssel,VBO,6.057266,52.499617
Katerveerdijk,12,,,8019BL,Zwolle,Zwolle,Overijssel,VBO,6.059308,52.499044
Katerveerdijk,13,,,8019BL,Zwolle,Zwolle,Overijssel,VBO,6.057161,52.499605
Katerveerdijk,15,,,8019BL,Zwolle,Zwolle,Overijssel,VBO,6.057055,52.499588
Katerveerdijk,16,,,8019BL,Zwolle,Zwolle,Overijssel,VBO,6.060083,52.499957
Katerveerdijk,17,,,8019BL,Zwolle,Zwolle,Overijssel,VBO,6.057738,52.499851
Katerveerdijk,35,,,8019BL,Zwolle,Zwolle,Overijssel,LIG,6.060289,52.500256
Katerveerdijk,41,,,8019BL,Zwolle,Zwolle,Overijssel,LIG,6.060813,52.500425
Het Engelse Werk,1,,,8019BM,Zwolle,Zwolle,Overijssel,VBO,6.063538,52.497771
Het Engelse Werk,2,T,1,8019BM,Zwolle,Zwolle,Overijssel,VBO,6.069827,52.492902
Het Engelse Werk,2,,,8019BM,Zwolle,Zwolle,Overijssel,VBO,6.069455,52.493447
Het Engelse Werk,3,,,8019BM,Zwolle,Zwolle,Overijssel,VBO,6.063480,52.497584
Het Engelse Werk,4,B,,8019BM,Zwolle,Zwolle,Overijssel,VBO,6.066623,52.497215
Het Engelse Werk,4,,,8019BM,Zwolle,Zwolle,Overijssel,VBO,6.066078,52.497041
Het Engelse Werk,6,,,8019BM,Zwolle,Zwolle,Overijssel,VBO,6.065169,52.497440
Ruiterlaan,1,E,,8019BN,Zwolle,Zwolle,Overijssel,VBO,6.070350,52.500730
Ruiterlaan,1,,,8019BN,Zwolle,Zwolle,Overijssel,VBO,6.069823,52.501742
Ruiterlaan,3,A,,8019BN,Zwolle,Zwolle,Overijssel,VBO,6.069438,52.500426
Ruiterlaan,3,B,,8019BN,Zwolle,Zwolle,Overijssel,VBO,6.069709,52.500362
Ruiterlaan,3,C,,8019BN,Zwolle,Zwolle,Overijssel,VBO,6.069985,52.500296
Ruiterlaan,3,D,,8019BN,Zwolle,Zwolle,Overijssel,VBO,6.070237,52.500230
Ruiterlaan,3,,,8019BN,Zwolle,Zwolle,Overijssel,VBO,6.069184,52.500488
Ruiterlaan,5,,,8019BN,Zwolle,Zwolle,Overijssel,VBO,6.068944,52.500144
Ruiterlaan,7,T,1,8019BN,Zwolle,Zwolle,Overijssel,VBO,6.069035,52.499977
Ruiterlaan,7,,,8019BN,Zwolle,Zwolle,Overijssel,VBO,6.068878,52.499830
Ruiterlaan,9,,,8019BN,Zwolle,Zwolle,Overijssel,VBO,6.068738,52.499680
Ruiterlaan,11,,,8019BN,Zwolle,Zwolle,Overijssel,VBO,6.068732,52.499625
Ruiterlaan,13,,,8019BN,Zwolle,Zwolle,Overijssel,VBO,6.068664,52.499528
Ruiterlaan,15,,,8019BN,Zwolle,Zwolle,Overijssel,VBO,6.068599,52.499422
Ruiterlaan,17,,,8019BN,Zwolle,Zwolle,Overijssel,VBO,6.068578,52.499363
Ruiterlaan,19,,,8019BN,Zwolle,Zwolle,Overijssel,VBO,6.068544,52.499303
Ruiterlaan,21,,,8019BP,Zwolle,Zwolle,Overijssel,VBO,6.068490,52.499196
Ruiterlaan,23,,,8019BP,Zwolle,Zwolle,Overijssel,VBO,6.068440,52.499087
Ruiterlaan,25,,,8019BP,Zwolle,Zwolle,Overijssel,VBO,6.068386,52.498979
Ruiterlaan,27,,,8019BP,Zwolle,Zwolle,Overijssel,VBO,6.068331,52.498866
Ruiterlaan,29,,,8019BP,Zwolle,Zwolle,Overijssel,VBO,6.068274,52.498757
Ruiterlaan,31,,,8019BP,Zwolle,Zwolle,Overijssel,VBO,6.068235,52.498659
Ruiterlaan,33,,,8019BP,Zwolle,Zwolle,Overijssel,VBO,6.068210,52.498611
Ruiterlaan,35,,,8019BP,Zwolle,Zwolle,Overijssel,VBO,6.068155,52.498518
Ruiterlaan,37,,,8019BP,Zwolle,Zwolle,Overijssel,VBO,6.068134,52.498472
Ruiterlaan,39,,,8019BP,Zwolle,Zwolle,Overijssel,VBO,6.068111,52.498428
Ruiterlaan,41,,,8019BP,Zwolle,Zwolle,Overijssel,VBO,6.068092,52.498384
Ruiterlaan,43,T,1,8019BP,Zwolle,Zwolle,Overijssel,VBO,6.071155,52.498072
Ruiterlaan,43,,,8019BP,Zwolle,Zwolle,Overijssel,VBO,6.070242,52.498873
Ruiterlaan,45,A,,8019BP,Zwolle,Zwolle,Overijssel,VBO,6.071876,52.498611
Ruiterlaan,45,,,8019BP,Zwolle,Zwolle,Overijssel,VBO,6.072172,52.497923
Ruiterlaan,47,,,8019BP,Zwolle,Zwolle,Overijssel,VBO,6.070751,52.499883
Ruiterlaan,2,,,8019BR,Zwolle,Zwolle,Overijssel,VBO,6.068864,52.500909
Ruiterlaan,8,,,8019BR,Zwolle,Zwolle,Overijssel,VBO,6.068099,52.499641
Ruiterlaan,10,,,8019BR,Zwolle,Zwolle,Overijssel,VBO,6.068056,52.499576
Ruiterlaan,12,,,8019BR,Zwolle,Zwolle,Overijssel,VBO,6.067883,52.499264
Ruiterlaan,14,,,8019BR,Zwolle,Zwolle,Overijssel,VBO,6.067480,52.498945
Ruiterlaan,16,,,8019BR,Zwolle,Zwolle,Overijssel,VBO,6.067656,52.498613
Ruiterlaan,18,,,8019BR,Zwolle,Zwolle,Overijssel,VBO,6.067514,52.498414
De Watermarsen,6,,,8019BS,Zwolle,Zwolle,Overijssel,VBO,6.066813,52.498384
De Watermarsen,8,,,8019BS,Zwolle,Zwolle,Overijssel,VBO,6.066721,52.498389
De Watermarsen,10,,,8019BS,Zwolle,Zwolle,Overijssel,VBO,6.066400,52.498600
De Watermarsen,14,,,8019BS,Zwolle,Zwolle,Overijssel,VBO,6.065649,52.498564
Beb Bakhuysstraat,1,,,8019BT,Zwolle,Zwolle,Overijssel,VBO,6.062972,52.502911
Beb Bakhuysstraat,2,,,8019BT,Zwolle,Zwolle,Overijssel,VBO,6.060929,52.501899
Beb Bakhuysstraat,3,,,8019BT,Zwolle,Zwolle,Overijssel,VBO,6.062559,52.502691
Beb Bakhuysstraat,4,,,8019BT,Zwolle,Zwolle,Overijssel,VBO,6.061226,52.501686
Beb Bakhuysstraat,5,,,8019BT,Zwolle,Zwolle,Overijssel,VBO,6.062180,52.502491
Beb Bakhuysstraat,7,,,8019BT,Zwolle,Zwolle,Overijssel,VBO,6.061813,52.502294
Beb Bakhuysstraat,9,,,8019BT,Zwolle,Zwolle,Overijssel,VBO,6.061417,52.502087
Beb Bakhuysstraat,11,,,8019BT,Zwolle,Zwolle,Overijssel,VBO,6.062331,52.501515
Jasper Warnerstraat,1,,,8019BV,Zwolle,Zwolle,Overijssel,VBO,6.067690,52.504674
Jasper Warnerstraat,3,,,8019BV,Zwolle,Zwolle,Overijssel,VBO,6.067545,52.504466
Jasper Warnerstraat,5,,,8019BV,Zwolle,Zwolle,Overijssel,VBO,6.067490,52.504240
Jasper Warnerstraat,7,,,8019BV,Zwolle,Zwolle,Overijssel,VBO,6.066710,52.503474
Jasper Warnerstraat,9,,,8019BV,Zwolle,Zwolle,Overijssel,VBO,6.066346,52.503251
Jasper Warnerstraat,11,,,8019BV,Zwolle,Zwolle,Overijssel,VBO,6.066011,52.503066
Jasper Warnerstraat,13,,,8019BV,Zwolle,Zwolle,Overijssel,VBO,6.065636,52.502877
Jasper Warnerstraat,15,,,8019BV,Zwolle,Zwolle,Overijssel,VBO,6.065321,52.502715
Jasper Warnerstraat,17,,,8019BV,Zwolle,Zwolle,Overijssel,VBO,6.064705,52.502549
Jasper Warnerstraat,19,,,8019BV,Zwolle,Zwolle,Overijssel,VBO,6.064129,52.502686
Fokke Remmersstraat,1,,,8019BW,Zwolle,Zwolle,Overijssel,VBO,6.063677,52.502572
Fokke Remmersstraat,2,A,,8019BW,Zwolle,Zwolle,Overijssel,VBO,6.063155,52.502728
Fokke Remmersstraat,2,,,8019BW,Zwolle,Zwolle,Overijssel,VBO,6.063409,52.502885
Fokke Remmersstraat,3,,,8019BW,Zwolle,Zwolle,Overijssel,VBO,6.063344,52.502394
Fokke Remmersstraat,4,,,8019BW,Zwolle,Zwolle,Overijssel,VBO,6.063021,52.502586
Fokke Remmersstraat,5,,,8019BW,Zwolle,Zwolle,Overijssel,VBO,6.063041,52.502244
Fokke Remmersstraat,6,,,8019BW,Zwolle,Zwolle,Overijssel,VBO,6.062637,52.502431
Fokke Remmersstraat,7,,,8019BW,Zwolle,Zwolle,Overijssel,VBO,6.062710,52.502067
Fokke Remmersstraat,8,,,8019BW,Zwolle,Zwolle,Overijssel,VBO,6.062149,52.502207
Fokke Remmersstraat,9,,,8019BW,Zwolle,Zwolle,Overijssel,VBO,6.062357,52.501885
Fokke Remmersstraat,10,,,8019BW,Zwolle,Zwolle,Overijssel,VBO,6.061719,52.501926
Fokke Remmersstraat,11,,,8019BW,Zwolle,Zwolle,Overijssel,VBO,6.062023,52.501699
Hennie Mateboerstraat,1,,,8019BX,Zwolle,Zwolle,Overijssel,VBO,6.066578,52.503904
Hennie Mateboerstraat,2,,,8019BX,Zwolle,Zwolle,Overijssel,VBO,6.066745,52.504231
Hennie Mateboerstraat,3,,,8019BX,Zwolle,Zwolle,Overijssel,VBO,6.066189,52.503989
Hennie Mateboerstraat,4,,,8019BX,Zwolle,Zwolle,Overijssel,VBO,6.066347,52.504253
Hennie Mateboerstraat,5,,,8019BX,Zwolle,Zwolle,Overijssel,VBO,6.065814,52.504074
Hennie Mateboerstraat,6,,,8019BX,Zwolle,Zwolle,Overijssel,VBO,6.065874,52.504360
Hennie Mateboerstraat,7,,,8019BX,Zwolle,Zwolle,Overijssel,VBO,6.065423,52.504181
Wim Petersstraat,1,,,8019BZ,Zwolle,Zwolle,Overijssel,VBO,6.065857,52.503460
Wim Petersstraat,2,,,8019BZ,Zwolle,Zwolle,Overijssel,VBO,6.066199,52.503712
Wim Petersstraat,3,,,8019BZ,Zwolle,Zwolle,Overijssel,VBO,6.065357,52.503575
Wim Petersstraat,4,,,8019BZ,Zwolle,Zwolle,Overijssel,VBO,6.065815,52.503776
Wim Petersstraat,5,,,8019BZ,Zwolle,Zwolle,Overijssel,VBO,6.064988,52.503671
Wim Petersstraat,6,,,8019BZ,Zwolle,Zwolle,Overijssel,VBO,6.065371,52.503893
Wim Petersstraat,7,,,8019BZ,Zwolle,Zwolle,Overijssel,VBO,6.064550,52.503757
Wim Petersstraat,8,,,8019BZ,Zwolle,Zwolle,Overijssel,VBO,6.064986,52.503999
Dillenburgstraat,1,,,8019XA,Zwolle,Zwolle,Overijssel,VBO,6.077482,52.508513
Dillenburgstraat,2,,,8019XA,Zwolle,Zwolle,Overijssel,VBO,6.077818,52.508505
Dillenburgstraat,3,,,8019XA,Zwolle,Zwolle,Overijssel,VBO,6.077534,52.508563
Dillenburgstraat,4,,,8019XA,Zwolle,Zwolle,Overijssel,VBO,6.077865,52.508550
Dillenburgstraat,5,,,8019XA,Zwolle,Zwolle,Overijssel,VBO,6.077580,52.508606
Dillenburgstraat,6,,,8019XA,Zwolle,Zwolle,Overijssel,VBO,6.077914,52.508595
Dillenburgstraat,7,,,8019XA,Zwolle,Zwolle,Overijssel,VBO,6.077628,52.508653
Dillenburgstraat,8,,,8019XA,Zwolle,Zwolle,Overijssel,VBO,6.077962,52.508640
Dillenburgstraat,9,,,8019XA,Zwolle,Zwolle,Overijssel,VBO,6.077676,52.508697
Dillenburgstraat,10,,,8019XA,Zwolle,Zwolle,Overijssel,VBO,6.078013,52.508682
Dillenburgstraat,11,,,8019XA,Zwolle,Zwolle,Overijssel,VBO,6.077730,52.508742
Dillenburgstraat,12,,,8019XA,Zwolle,Zwolle,Overijssel,VBO,6.078175,52.508817
Dillenburgstraat,13,,,8019XA,Zwolle,Zwolle,Overijssel,VBO,6.077775,52.508784
Dillenburgstraat,15,,,8019XA,Zwolle,Zwolle,Overijssel,VBO,6.077826,52.508833
Prins Frederikplein,1,,,8019XB,Zwolle,Zwolle,Overijssel,VBO,6.077375,52.507836
Prins Frederikplein,2,,,8019XB,Zwolle,Zwolle,Overijssel,VBO,6.078133,52.508256
Prins Frederikplein,3,,,8019XB,Zwolle,Zwolle,Overijssel,VBO,6.077324,52.507884
Prins Frederikplein,4,,,8019XB,Zwolle,Zwolle,Overijssel,VBO,6.078051,52.508265
Prins Frederikplein,5,,,8019XB,Zwolle,Zwolle,Overijssel,VBO,6.077278,52.507932
Prins Frederikplein,6,,,8019XB,Zwolle,Zwolle,Overijssel,VBO,6.077966,52.508274
Prins Frederikplein,7,,,8019XB,Zwolle,Zwolle,Overijssel,VBO,6.077232,52.507978
Prins Frederikplein,8,,,8019XB,Zwolle,Zwolle,Overijssel,VBO,6.077873,52.508284
Prins Frederikplein,9,,,8019XB,Zwolle,Zwolle,Overijssel,VBO,6.077184,52.508027
Prins Frederikplein,10,,,8019XB,Zwolle,Zwolle,Overijssel,VBO,6.077788,52.508294
Prins Frederikplein,11,,,8019XB,Zwolle,Zwolle,Overijssel,VBO,6.077041,52.508092
Prins Frederikplein,12,,,8019XB,Zwolle,Zwolle,Overijssel,VBO,6.077697,52.508303
Prins Frederikplein,14,,,8019XB,Zwolle,Zwolle,Overijssel,VBO,6.077365,52.508339
Prins Frederikplein,16,,,8019XB,Zwolle,Zwolle,Overijssel,VBO,6.077284,52.508349
Prinses Irenestraat,1,,,8019XC,Zwolle,Zwolle,Overijssel,VBO,6.075991,52.508922
Prinses Irenestraat,2,,,8019XC,Zwolle,Zwolle,Overijssel,VBO,6.077177,52.508380
Prinses Irenestraat,3,,,8019XC,Zwolle,Zwolle,Overijssel,VBO,6.075912,52.508963
Prinses Irenestraat,4,,,8019XC,Zwolle,Zwolle,Overijssel,VBO,6.077098,52.508463
Prinses Irenestraat,5,,,8019XC,Zwolle,Zwolle,Overijssel,VBO,6.075837,52.509003
Prinses Irenestraat,6,,,8019XC,Zwolle,Zwolle,Overijssel,VBO,6.077054,52.508511
Prinses Irenestraat,7,,,8019XC,Zwolle,Zwolle,Overijssel,VBO,6.075761,52.509043
Prinses Irenestraat,8,,,8019XC,Zwolle,Zwolle,Overijssel,VBO,6.077006,52.508560
Prinses Irenestraat,10,,,8019XC,Zwolle,Zwolle,Overijssel,VBO,6.076973,52.508603
Prinses Irenestraat,14,G,1,8019XC,Zwolle,Zwolle,Overijssel,VBO,6.076547,52.509252
Prinses Irenestraat,14,G,10,8019XC,Zwolle,Zwolle,Overijssel,VBO,6.076266,52.509430
Prinses Irenestraat,14,G,11,8019XC,Zwolle,Zwolle,Overijssel,VBO,6.076236,52.509449
Prinses Irenestraat,14,G,12,8019XC,Zwolle,Zwolle,Overijssel,VBO,6.076387,52.509484
Prinses Irenestraat,14,G,13,8019XC,Zwolle,Zwolle,Overijssel,VBO,6.076415,52.509466
Prinses Irenestraat,14,G,14,8019XC,Zwolle,Zwolle,Overijssel,VBO,6.076444,52.509448
Prinses Irenestraat,14,G,15,8019XC,Zwolle,Zwolle,Overijssel,VBO,6.076473,52.509430
Prinses Irenestraat,14,G,16,8019XC,Zwolle,Zwolle,Overijssel,VBO,6.076503,52.509412
Prinses Irenestraat,14,G,17,8019XC,Zwolle,Zwolle,Overijssel,VBO,6.076529,52.509394
Prinses Irenestraat,14,G,18,8019XC,Zwolle,Zwolle,Overijssel,VBO,6.076558,52.509376
Prinses Irenestraat,14,G,19,8019XC,Zwolle,Zwolle,Overijssel,VBO,6.076589,52.509355
Prinses Irenestraat,14,G,2,8019XC,Zwolle,Zwolle,Overijssel,VBO,6.076517,52.509268
Prinses Irenestraat,14,G,20,8019XC,Zwolle,Zwolle,Overijssel,VBO,6.076619,52.509335
Prinses Irenestraat,14,G,21,8019XC,Zwolle,Zwolle,Overijssel,VBO,6.076658,52.509312
Prinses Irenestraat,14,G,22,8019XC,Zwolle,Zwolle,Overijssel,VBO,6.076865,52.509369
Prinses Irenestraat,14,G,23,8019XC,Zwolle,Zwolle,Overijssel,VBO,6.076836,52.509388
Prinses Irenestraat,14,G,24,8019XC,Zwolle,Zwolle,Overijssel,VBO,6.076802,52.509407
Prinses Irenestraat,14,G,25,8019XC,Zwolle,Zwolle,Overijssel,VBO,6.076773,52.509425
Prinses Irenestraat,14,G,26,8019XC,Zwolle,Zwolle,Overijssel,VBO,6.076739,52.509448
Prinses Irenestraat,14,G,27,8019XC,Zwolle,Zwolle,Overijssel,VBO,6.076710,52.509466
Prinses Irenestraat,14,G,28,8019XC,Zwolle,Zwolle,Overijssel,VBO,6.076673,52.509487
Prinses Irenestraat,14,G,29,8019XC,Zwolle,Zwolle,Overijssel,VBO,6.076641,52.509508
Prinses Irenestraat,14,G,3,8019XC,Zwolle,Zwolle,Overijssel,VBO,6.076492,52.509284
Prinses Irenestraat,14,G,30,8019XC,Zwolle,Zwolle,Overijssel,VBO,6.076612,52.509526
Prinses Irenestraat,14,G,31,8019XC,Zwolle,Zwolle,Overijssel,VBO,6.076583,52.509544
Prinses Irenestraat,14,G,32,8019XC,Zwolle,Zwolle,Overijssel,VBO,6.076553,52.509562
Prinses Irenestraat,14,G,33,8019XC,Zwolle,Zwolle,Overijssel,VBO,6.076525,52.509581
Prinses Irenestraat,14,G,34,8019XC,Zwolle,Zwolle,Overijssel,VBO,6.076500,52.509599
Prinses Irenestraat,14,G,4,8019XC,Zwolle,Zwolle,Overijssel,VBO,6.076465,52.509301
Prinses Irenestraat,14,G,5,8019XC,Zwolle,Zwolle,Overijssel,VBO,6.076436,52.509321
Prinses Irenestraat,14,G,6,8019XC,Zwolle,Zwolle,Overijssel,VBO,6.076411,52.509340
Prinses Irenestraat,14,G,7,8019XC,Zwolle,Zwolle,Overijssel,VBO,6.076376,52.509361
Prinses Irenestraat,14,G,8,8019XC,Zwolle,Zwolle,Overijssel,VBO,6.076331,52.509389
Prinses Irenestraat,14,G,9,8019XC,Zwolle,Zwolle,Overijssel,VBO,6.076294,52.509412
Prinses Irenestraat,14,,,8019XC,Zwolle,Zwolle,Overijssel,VBO,6.076235,52.509105
Prinses Irenestraat,16,,,8019XC,Zwolle,Zwolle,Overijssel,VBO,6.076159,52.509146
Prinses Irenestraat,18,,,8019XC,Zwolle,Zwolle,Overijssel,VBO,6.076078,52.509189
Prinses Irenestraat,20,,,8019XC,Zwolle,Zwolle,Overijssel,VBO,6.076007,52.509225
Prinses Beatrixstraat,1,,,8019XD,Zwolle,Zwolle,Overijssel,VBO,6.077257,52.509053
Prinses Beatrixstraat,3,,,8019XD,Zwolle,Zwolle,Overijssel,VBO,6.077187,52.509011
Prinses Beatrixstraat,5,,,8019XD,Zwolle,Zwolle,Overijssel,VBO,6.077118,52.508970
Prinses Beatrixstraat,7,,,8019XD,Zwolle,Zwolle,Overijssel,VBO,6.077053,52.508932
Prinses Beatrixstraat,9,,,8019XD,Zwolle,Zwolle,Overijssel,VBO,6.076984,52.508891
Prinses Beatrixstraat,11,,,8019XD,Zwolle,Zwolle,Overijssel,VBO,6.076921,52.508849
Prinses Beatrixstraat,13,,,8019XD,Zwolle,Zwolle,Overijssel,VBO,6.076852,52.508809
Prinses Beatrixstraat,15,,,8019XD,Zwolle,Zwolle,Overijssel,VBO,6.076783,52.508768
Prinses Beatrixstraat,17,,,8019XD,Zwolle,Zwolle,Overijssel,VBO,6.076460,52.508595
Prinses Beatrixstraat,19,,,8019XD,Zwolle,Zwolle,Overijssel,VBO,6.076387,52.508556
Prinses Beatrixstraat,21,,,8019XD,Zwolle,Zwolle,Overijssel,VBO,6.076309,52.508517
Prinses Beatrixstraat,23,,,8019XD,Zwolle,Zwolle,Overijssel,VBO,6.076232,52.508477
Prinses Beatrixstraat,25,,,8019XD,Zwolle,Zwolle,Overijssel,VBO,6.076157,52.508438
Prinses Beatrixstraat,27,,,8019XD,Zwolle,Zwolle,Overijssel,VBO,6.076080,52.508399
Prinses Beatrixstraat,29,,,8019XD,Zwolle,Zwolle,Overijssel,VBO,6.075968,52.508350
Prinses Beatrixstraat,31,,,8019XD,Zwolle,Zwolle,Overijssel,VBO,6.075882,52.508315
Prinses Beatrixstraat,33,,,8019XD,Zwolle,Zwolle,Overijssel,VBO,6.075804,52.508283
Prinses Beatrixstraat,35,,,8019XD,Zwolle,Zwolle,Overijssel,VBO,6.075719,52.508247
Prinses Beatrixstraat,37,,,8019XD,Zwolle,Zwolle,Overijssel,VBO,6.075636,52.508213
Prinses Beatrixstraat,2,,,8019XE,Zwolle,Zwolle,Overijssel,VBO,6.077058,52.509256
Prinses Beatrixstraat,4,,,8019XE,Zwolle,Zwolle,Overijssel,VBO,6.076982,52.509212
Prinses Beatrixstraat,6,,,8019XE,Zwolle,Zwolle,Overijssel,VBO,6.076909,52.509170
Prinses Beatrixstraat,8,,,8019XE,Zwolle,Zwolle,Overijssel,VBO,6.076839,52.509130
Prinses Beatrixstraat,10,,,8019XE,Zwolle,Zwolle,Overijssel,VBO,6.076757,52.509086
Prinses Beatrixstraat,12,,,8019XE,Zwolle,Zwolle,Overijssel,VBO,6.076688,52.509047
Prinses Beatrixstraat,14,,,8019XE,Zwolle,Zwolle,Overijssel,VBO,6.076612,52.509006
Prinses Beatrixstraat,16,,,8019XE,Zwolle,Zwolle,Overijssel,VBO,6.076534,52.508963
Prinses Beatrixstraat,18,,,8019XE,Zwolle,Zwolle,Overijssel,VBO,6.076211,52.508769
Prinses Beatrixstraat,20,,,8019XE,Zwolle,Zwolle,Overijssel,VBO,6.076132,52.508729
Prinses Beatrixstraat,22,,,8019XE,Zwolle,Zwolle,Overijssel,VBO,6.076061,52.508688
Prinses Beatrixstraat,24,,,8019XE,Zwolle,Zwolle,Overijssel,VBO,6.075982,52.508646
Prinses Beatrixstraat,26,,,8019XE,Zwolle,Zwolle,Overijssel,VBO,6.075906,52.508604
Prinses Beatrixstraat,28,,,8019XE,Zwolle,Zwolle,Overijssel,VBO,6.075833,52.508566
Prinses Beatrixstraat,30,,,8019XE,Zwolle,Zwolle,Overijssel,VBO,6.075720,52.508510
Prinses Beatrixstraat,32,,,8019XE,Zwolle,Zwolle,Overijssel,VBO,6.075639,52.508476
Prinses Beatrixstraat,34,,,8019XE,Zwolle,Zwolle,Overijssel,VBO,6.075556,52.508442
Prinses Beatrixstraat,36,,,8019XE,Zwolle,Zwolle,Overijssel,VBO,6.075474,52.508409
Prinses Beatrixstraat,38,,,8019XE,Zwolle,Zwolle,Overijssel,VBO,6.075390,52.508375
Prinses Beatrixstraat,40,,,8019XE,Zwolle,Zwolle,Overijssel,VBO,6.075304,52.508340
Prins Alexanderstraat,1,,,8019XG,Zwolle,Zwolle,Overijssel,VBO,6.075772,52.507147
Prins Alexanderstraat,3,,,8019XG,Zwolle,Zwolle,Overijssel,VBO,6.075714,52.507235
Prins Alexanderstraat,5,,,8019XG,Zwolle,Zwolle,Overijssel,VBO,6.075662,52.507288
Prins Alexanderstraat,7,,,8019XG,Zwolle,Zwolle,Overijssel,VBO,6.075617,52.507334
Prins Alexanderstraat,9,,,8019XG,Zwolle,Zwolle,Overijssel,VBO,6.075569,52.507383
Prins Alexanderstraat,11,,,8019XG,Zwolle,Zwolle,Overijssel,VBO,6.075531,52.507429
Prins Alexanderstraat,13,,,8019XG,Zwolle,Zwolle,Overijssel,VBO,6.075434,52.507501
Prins Alexanderstraat,15,,,8019XG,Zwolle,Zwolle,Overijssel,VBO,6.075188,52.507675
Prins Alexanderstraat,17,,,8019XG,Zwolle,Zwolle,Overijssel,VBO,6.075137,52.507728
Prins Alexanderstraat,19,,,8019XG,Zwolle,Zwolle,Overijssel,VBO,6.075035,52.507831
Prins Alexanderstraat,21,G,1,8019XG,Zwolle,Zwolle,Overijssel,VBO,6.074910,52.507987
Prins Alexanderstraat,21,G,2,8019XG,Zwolle,Zwolle,Overijssel,VBO,6.074888,52.508010
Prins Alexanderstraat,21,G,3,8019XG,Zwolle,Zwolle,Overijssel,VBO,6.074859,52.508037
Prins Alexanderstraat,21,,,8019XG,Zwolle,Zwolle,Overijssel,VBO,6.074976,52.507889
Prins Alexanderstraat,2,,,8019XH,Zwolle,Zwolle,Overijssel,VBO,6.075968,52.507327
Prins Alexanderstraat,4,,,8019XH,Zwolle,Zwolle,Overijssel,VBO,6.075914,52.507380
Prins Alexanderstraat,6,,,8019XH,Zwolle,Zwolle,Overijssel,VBO,6.075870,52.507426
Prins Alexanderstraat,8,,,8019XH,Zwolle,Zwolle,Overijssel,VBO,6.075821,52.507475
Prins Alexanderstraat,10,,,8019XH,Zwolle,Zwolle,Overijssel,VBO,6.075786,52.507522
Prins Alexanderstraat,12,,,8019XH,Zwolle,Zwolle,Overijssel,VBO,6.075778,52.507627
Prins Alexanderstraat,14,,,8019XH,Zwolle,Zwolle,Overijssel,VBO,6.075584,52.507810
Prins Alexanderstraat,16,,,8019XH,Zwolle,Zwolle,Overijssel,VBO,6.075538,52.507856
Prins Alexanderstraat,18,,,8019XH,Zwolle,Zwolle,Overijssel,VBO,6.075491,52.507905
Prins Alexanderstraat,20,,,8019XH,Zwolle,Zwolle,Overijssel,VBO,6.075443,52.507951
Prins Alexanderstraat,22,,,8019XH,Zwolle,Zwolle,Overijssel,VBO,6.075399,52.507998
Prins Alexanderstraat,24,,,8019XH,Zwolle,Zwolle,Overijssel,VBO,6.075352,52.508045
Prins Alexanderstraat,26,,,8019XH,Zwolle,Zwolle,Overijssel,VBO,6.075306,52.508092
Prins Alexanderstraat,28,,,8019XH,Zwolle,Zwolle,Overijssel,VBO,6.075042,52.508285
Prins Alexanderstraat,30,,,8019XH,Zwolle,Zwolle,Overijssel,VBO,6.074951,52.508314
Prins Alexanderstraat,32,,,8019XH,Zwolle,Zwolle,Overijssel,VBO,6.074860,52.508344
Prins Alexanderstraat,34,,,8019XH,Zwolle,Zwolle,Overijssel,VBO,6.074774,52.508372
Prins Bernhardstraat,1,T,1,8019XJ,Zwolle,Zwolle,Overijssel,VBO,6.072623,52.507099
Prins Bernhardstraat,31,,,8019XJ,Zwolle,Zwolle,Overijssel,VBO,6.074363,52.508806
Prins Bernhardstraat,2,,,8019XK,Zwolle,Zwolle,Overijssel,VBO,6.073500,52.507040
Prins Bernhardstraat,4,,,8019XK,Zwolle,Zwolle,Overijssel,VBO,6.073604,52.507141
Prins Bernhardstraat,6,,,8019XK,Zwolle,Zwolle,Overijssel,VBO,6.073662,52.507195
Prins Bernhardstraat,8,,,8019XK,Zwolle,Zwolle,Overijssel,VBO,6.073799,52.507325
Prins Bernhardstraat,12,,,8019XK,Zwolle,Zwolle,Overijssel,VBO,6.074012,52.507543
Prins Bernhardstraat,14,,,8019XK,Zwolle,Zwolle,Overijssel,VBO,6.074064,52.507602
Prins Bernhardstraat,16,,,8019XK,Zwolle,Zwolle,Overijssel,VBO,6.074156,52.507707
Prins Bernhardstraat,18,,,8019XK,Zwolle,Zwolle,Overijssel,VBO,6.074204,52.507759
Prins Bernhardstraat,20,,,8019XK,Zwolle,Zwolle,Overijssel,VBO,6.074295,52.507863
Prins Bernhardstraat,22,,,8019XK,Zwolle,Zwolle,Overijssel,VBO,6.074348,52.507924
Prins Bernhardstraat,24,,,8019XK,Zwolle,Zwolle,Overijssel,VBO,6.074445,52.508032
Prins Bernhardstraat,26,,,8019XK,Zwolle,Zwolle,Overijssel,VBO,6.074490,52.508083
Prins Bernhardstraat,28,,,8019XK,Zwolle,Zwolle,Overijssel,VBO,6.074536,52.508136
Prins Bernhardstraat,30,,,8019XL,Zwolle,Zwolle,Overijssel,VBO,6.074926,52.508584
Prins Bernhardstraat,32,,,8019XL,Zwolle,Zwolle,Overijssel,VBO,6.074972,52.508635
Prins Bernhardstraat,34,,,8019XL,Zwolle,Zwolle,Overijssel,VBO,6.075016,52.508686
Prins Bernhardstraat,36,,,8019XL,Zwolle,Zwolle,Overijssel,VBO,6.075063,52.508737
Prins Bernhardstraat,38,,,8019XL,Zwolle,Zwolle,Overijssel,VBO,6.075109,52.508788
Prins Bernhardstraat,40,,,8019XL,Zwolle,Zwolle,Overijssel,VBO,6.075153,52.508836
Prins Bernhardstraat,42,,,8019XL,Zwolle,Zwolle,Overijssel,VBO,6.075199,52.508889
Prins Bernhardstraat,44,,,8019XL,Zwolle,Zwolle,Overijssel,VBO,6.075271,52.508971
Prins Bernhardstraat,46,,,8019XL,Zwolle,Zwolle,Overijssel,VBO,6.075326,52.509022
Prins Bernhardstraat,48,,,8019XL,Zwolle,Zwolle,Overijssel,VBO,6.075375,52.509068
Prins Bernhardstraat,50,,,8019XL,Zwolle,Zwolle,Overijssel,VBO,6.075430,52.509119
Prins Bernhardstraat,52,,,8019XL,Zwolle,Zwolle,Overijssel,VBO,6.075480,52.509166
Prins Bernhardstraat,54,,,8019XM,Zwolle,Zwolle,Overijssel,VBO,6.075761,52.509379
Prins Bernhardstraat,56,,,8019XM,Zwolle,Zwolle,Overijssel,VBO,6.075833,52.509422
Prins Bernhardstraat,58,,,8019XM,Zwolle,Zwolle,Overijssel,VBO,6.075904,52.509466
Prins Bernhardstraat,60,,,8019XM,Zwolle,Zwolle,Overijssel,VBO,6.075981,52.509512
Prins Bernhardstraat,62,,,8019XM,Zwolle,Zwolle,Overijssel,VBO,6.076031,52.509565
Prins Bernhardstraat,64,,,8019XM,Zwolle,Zwolle,Overijssel,VBO,6.076110,52.509613
Prins Bernhardstraat,66,,,8019XM,Zwolle,Zwolle,Overijssel,VBO,6.076181,52.509655
Prins Bernhardstraat,68,,,8019XM,Zwolle,Zwolle,Overijssel,VBO,6.076255,52.509700
Koningin Anna Paulownastraat,1,,,8019XN,Zwolle,Zwolle,Overijssel,VBO,6.075011,52.506200
Koningin Anna Paulownastraat,3,,,8019XN,Zwolle,Zwolle,Overijssel,VBO,6.074873,52.506330
Koningin Anna Paulownastraat,5,,,8019XN,Zwolle,Zwolle,Overijssel,VBO,6.074830,52.506375
Koningin Anna Paulownastraat,7,,,8019XN,Zwolle,Zwolle,Overijssel,VBO,6.074789,52.506420
Koningin Anna Paulownastraat,9,,,8019XN,Zwolle,Zwolle,Overijssel,VBO,6.074742,52.506467
Koningin Anna Paulownastraat,11,,,8019XN,Zwolle,Zwolle,Overijssel,VBO,6.074714,52.506508
Koningin Anna Paulownastraat,13,,,8019XN,Zwolle,Zwolle,Overijssel,VBO,6.074416,52.506867
Koningin Anna Paulownastraat,15,,,8019XN,Zwolle,Zwolle,Overijssel,VBO,6.074217,52.507028
Koningin Anna Paulownastraat,17,,,8019XN,Zwolle,Zwolle,Overijssel,VBO,6.074167,52.507076
Koningin Anna Paulownastraat,19,,,8019XN,Zwolle,Zwolle,Overijssel,VBO,6.074116,52.507132
Koningin Anna Paulownastraat,2,,,8019XP,Zwolle,Zwolle,Overijssel,VBO,6.075082,52.506467
Koningin Anna Paulownastraat,4,,,8019XP,Zwolle,Zwolle,Overijssel,VBO,6.075034,52.506518
Koningin Anna Paulownastraat,6,,,8019XP,Zwolle,Zwolle,Overijssel,VBO,6.074988,52.506564
Koningin Anna Paulownastraat,8,,,8019XP,Zwolle,Zwolle,Overijssel,VBO,6.074945,52.506611
Koningin Anna Paulownastraat,10,,,8019XP,Zwolle,Zwolle,Overijssel,VBO,6.074908,52.506659
Koningin Anna Paulownastraat,12,,,8019XP,Zwolle,Zwolle,Overijssel,VBO,6.074836,52.506695
Koningin Anna Paulownastraat,14,,,8019XP,Zwolle,Zwolle,Overijssel,VBO,6.074781,52.506750
Koningin Anna Paulownastraat,16,,,8019XP,Zwolle,Zwolle,Overijssel,VBO,6.074739,52.506769
Koningin Anna Paulownastraat,18,,,8019XP,Zwolle,Zwolle,Overijssel,VBO,6.074227,52.507371
Prins Mauritsstraat,5,,,8019XR,Zwolle,Zwolle,Overijssel,VBO,6.074181,52.506754
Prins Mauritsstraat,7,,,8019XR,Zwolle,Zwolle,Overijssel,VBO,6.074264,52.506783
Prins Mauritsstraat,9,,,8019XR,Zwolle,Zwolle,Overijssel,VBO,6.074336,52.506809
Prins Mauritsstraat,15,,,8019XR,Zwolle,Zwolle,Overijssel,VBO,6.074410,52.507238
Prins Mauritsstraat,17,,,8019XR,Zwolle,Zwolle,Overijssel,VBO,6.074505,52.507226
Prins Mauritsstraat,19,,,8019XR,Zwolle,Zwolle,Overijssel,VBO,6.074594,52.507214
Prins Mauritsstraat,21,,,8019XR,Zwolle,Zwolle,Overijssel,VBO,6.074703,52.507478
Prins Mauritsstraat,23,A,,8019XR,Zwolle,Zwolle,Overijssel,VBO,6.074758,52.507536
Prins Mauritsstraat,23,,,8019XR,Zwolle,Zwolle,Overijssel,VBO,6.074795,52.507512
Prins Mauritsstraat,25,,,8019XR,Zwolle,Zwolle,Overijssel,VBO,6.074882,52.507544
Prins Mauritsstraat,27,T,1,8019XR,Zwolle,Zwolle,Overijssel,VBO,6.075825,52.507901
Prins Mauritsstraat,29,,,8019XR,Zwolle,Zwolle,Overijssel,VBO,6.075947,52.507950
Prins Mauritsstraat,31,,,8019XS,Zwolle,Zwolle,Overijssel,VBO,6.076031,52.507980
Prins Mauritsstraat,33,,,8019XS,Zwolle,Zwolle,Overijssel,VBO,6.076113,52.508009
Prins Mauritsstraat,35,,,8019XS,Zwolle,Zwolle,Overijssel,VBO,6.076195,52.508038
Prins Mauritsstraat,37,,,8019XS,Zwolle,Zwolle,Overijssel,VBO,6.076274,52.508066
Prins Mauritsstraat,39,,,8019XS,Zwolle,Zwolle,Overijssel,VBO,6.076359,52.508096
Prins Mauritsstraat,41,,,8019XS,Zwolle,Zwolle,Overijssel,VBO,6.076439,52.508125
Prins Mauritsstraat,43,,,8019XS,Zwolle,Zwolle,Overijssel,VBO,6.076522,52.508153
Prins Mauritsstraat,45,,,8019XS,Zwolle,Zwolle,Overijssel,VBO,6.076603,52.508183
Prins Mauritsstraat,47,,,8019XS,Zwolle,Zwolle,Overijssel,VBO,6.076684,52.508210
Prins Mauritsstraat,49,,,8019XS,Zwolle,Zwolle,Overijssel,VBO,6.076766,52.508239
Prins Mauritsstraat,51,,,8019XS,Zwolle,Zwolle,Overijssel,VBO,6.076844,52.508267
Prins Mauritsstraat,6,,,8019XT,Zwolle,Zwolle,Overijssel,VBO,6.073999,52.506466
Prins Mauritsstraat,8,,,8019XT,Zwolle,Zwolle,Overijssel,VBO,6.074315,52.506608
Prins Mauritsstraat,10,,,8019XT,Zwolle,Zwolle,Overijssel,VBO,6.074400,52.506636
Prins Mauritsstraat,12,,,8019XT,Zwolle,Zwolle,Overijssel,VBO,6.074480,52.506664
Prins Mauritsstraat,14,,,8019XT,Zwolle,Zwolle,Overijssel,VBO,6.074556,52.506691
Prins Mauritsstraat,16,,,8019XT,Zwolle,Zwolle,Overijssel,VBO,6.074748,52.506803
Prins Mauritsstraat,18,,,8019XT,Zwolle,Zwolle,Overijssel,VBO,6.074768,52.506857
Prins Mauritsstraat,20,A,,8019XT,Zwolle,Zwolle,Overijssel,VBO,6.074892,52.506922
Prins Mauritsstraat,20,,,8019XT,Zwolle,Zwolle,Overijssel,VBO,6.074844,52.506923
Prins Mauritsstraat,22,A,,8019XT,Zwolle,Zwolle,Overijssel,VBO,6.074876,52.506999
Prins Mauritsstraat,22,,,8019XT,Zwolle,Zwolle,Overijssel,VBO,6.074865,52.506985
Prins Mauritsstraat,24,A,,8019XT,Zwolle,Zwolle,Overijssel,VBO,6.074888,52.507071
Prins Mauritsstraat,24,,,8019XT,Zwolle,Zwolle,Overijssel,VBO,6.074888,52.507051
Prins Mauritsstraat,26,,,8019XT,Zwolle,Zwolle,Overijssel,VBO,6.074911,52.507122
Prins Mauritsstraat,28,,,8019XT,Zwolle,Zwolle,Overijssel,VBO,6.074937,52.507198
Prins Mauritsstraat,30,,,8019XV,Zwolle,Zwolle,Overijssel,VBO,6.074904,52.507261
Prins Mauritsstraat,32,,,8019XV,Zwolle,Zwolle,Overijssel,VBO,6.074943,52.507338
Prins Mauritsstraat,34,A,,8019XV,Zwolle,Zwolle,Overijssel,VBO,6.075008,52.507399
Prins Mauritsstraat,34,,,8019XV,Zwolle,Zwolle,Overijssel,VBO,6.075007,52.507385
Prins Mauritsstraat,36,A,,8019XV,Zwolle,Zwolle,Overijssel,VBO,6.075090,52.507437
Prins Mauritsstraat,36,,,8019XV,Zwolle,Zwolle,Overijssel,VBO,6.075109,52.507421
Prins Mauritsstraat,38,,,8019XV,Zwolle,Zwolle,Overijssel,VBO,6.075219,52.507472
Prins Mauritsstraat,40,,,8019XV,Zwolle,Zwolle,Overijssel,VBO,6.075338,52.507515
Prins Mauritsstraat,42,,,8019XW,Zwolle,Zwolle,Overijssel,VBO,6.075806,52.507682
Prins Mauritsstraat,44,,,8019XW,Zwolle,Zwolle,Overijssel,VBO,6.075917,52.507723
Prins Mauritsstraat,46,A,,8019XW,Zwolle,Zwolle,Overijssel,VBO,6.076039,52.507716
Prins Mauritsstraat,46,,,8019XW,Zwolle,Zwolle,Overijssel,VBO,6.076030,52.507734
Prins Mauritsstraat,48,A,,8019XW,Zwolle,Zwolle,Overijssel,VBO,6.076153,52.507754
Prins Mauritsstraat,48,,,8019XW,Zwolle,Zwolle,Overijssel,VBO,6.076130,52.507768
Prins Mauritsstraat,50,A,,8019XW,Zwolle,Zwolle,Overijssel,VBO,6.076232,52.507782
Prins Mauritsstraat,50,,,8019XW,Zwolle,Zwolle,Overijssel,VBO,6.076230,52.507805
Prins Mauritsstraat,52,,,8019XW,Zwolle,Zwolle,Overijssel,VBO,6.076324,52.507838
Prins Mauritsstraat,54,,,8019XW,Zwolle,Zwolle,Overijssel,VBO,6.076426,52.507878
Prins Mauritsstraat,56,A,,8019XW,Zwolle,Zwolle,Overijssel,VBO,6.076549,52.507896
Prins Mauritsstraat,56,,,8019XW,Zwolle,Zwolle,Overijssel,VBO,6.076527,52.507912
Prins Mauritsstraat,58,,,8019XW,Zwolle,Zwolle,Overijssel,VBO,6.076631,52.507945
Prins Mauritsstraat,60,A,,8019XW,Zwolle,Zwolle,Overijssel,VBO,6.076740,52.507960
Prins Mauritsstraat,60,,,8019XW,Zwolle,Zwolle,Overijssel,VBO,6.076726,52.507980
Prins Mauritsstraat,62,,,8019XW,Zwolle,Zwolle,Overijssel,VBO,6.076821,52.508052
Prins Mauritsstraat,64,,,8019XW,Zwolle,Zwolle,Overijssel,VBO,6.076934,52.508094
Koningin Sophiastraat,1,,,8019XX,Zwolle,Zwolle,Overijssel,VBO,6.075959,52.506328
Koningin Sophiastraat,3,,,8019XX,Zwolle,Zwolle,Overijssel,VBO,6.075687,52.506237
Koningin Sophiastraat,5,,,8019XX,Zwolle,Zwolle,Overijssel,VBO,6.075599,52.506199
Koningin Sophiastraat,7,,,8019XX,Zwolle,Zwolle,Overijssel,VBO,6.075446,52.506149
Koningin Sophiastraat,9,,,8019XX,Zwolle,Zwolle,Overijssel,VBO,6.075349,52.506113
Koningin Sophiastraat,11,,,8019XX,Zwolle,Zwolle,Overijssel,VBO,6.075206,52.506062
Koningin Sophiastraat,13,,,8019XX,Zwolle,Zwolle,Overijssel,VBO,6.075115,52.506028
Koningin Sophiastraat,15,,,8019XX,Zwolle,Zwolle,Overijssel,VBO,6.074965,52.505975
Koningin Sophiastraat,17,,,8019XX,Zwolle,Zwolle,Overijssel,VBO,6.074877,52.505939
Koningin Sophiastraat,27,,,8019XX,Zwolle,Zwolle,Overijssel,VBO,6.073973,52.505803
Koningin Sophiastraat,29,,,8019XX,Zwolle,Zwolle,Overijssel,VBO,6.073897,52.505771
Koningin Sophiastraat,35,,,8019XX,Zwolle,Zwolle,Overijssel,VBO,6.073525,52.505613
Koningin Sophiastraat,37,,,8019XX,Zwolle,Zwolle,Overijssel,VBO,6.073400,52.505503
Koningin Sophiastraat,39,,,8019XX,Zwolle,Zwolle,Overijssel,VBO,6.073314,52.505467
Koningin Sophiastraat,41,,,8019XX,Zwolle,Zwolle,Overijssel,VBO,6.073117,52.505402
Koningin Sophiastraat,2,,,8019XZ,Zwolle,Zwolle,Overijssel,VBO,6.075866,52.506504
Koningin Sophiastraat,4,,,8019XZ,Zwolle,Zwolle,Overijssel,VBO,6.075784,52.506475
Koningin Sophiastraat,6,,,8019XZ,Zwolle,Zwolle,Overijssel,VBO,6.075708,52.506447
Koningin Sophiastraat,8,,,8019XZ,Zwolle,Zwolle,Overijssel,VBO,6.075624,52.506418
Koningin Sophiastraat,10,,,8019XZ,Zwolle,Zwolle,Overijssel,VBO,6.075554,52.506393
Koningin Sophiastraat,12,,,8019XZ,Zwolle,Zwolle,Overijssel,VBO,6.075472,52.506364
Koningin Sophiastraat,14,,,8019XZ,Zwolle,Zwolle,Overijssel,VBO,6.075400,52.506333
Koningin Sophiastraat,16,,,8019XZ,Zwolle,Zwolle,Overijssel,VBO,6.075318,52.506307
Koningin Sophiastraat,18,,,8019XZ,Zwolle,Zwolle,Overijssel,VBO,6.075228,52.506278
Koningin Sophiastraat,20,,,8019XZ,Zwolle,Zwolle,Overijssel,VBO,6.074940,52.506178
Koningin Sophiastraat,22,,,8019XZ,Zwolle,Zwolle,Overijssel,VBO,6.074865,52.506149
Koningin Sophiastraat,26,,,8019XZ,Zwolle,Zwolle,Overijssel,VBO,6.074686,52.506090
Koningin Sophiastraat,28,,,8019XZ,Zwolle,Zwolle,Overijssel,VBO,6.074483,52.506012
Koningin Sophiastraat,30,,,8019XZ,Zwolle,Zwolle,Overijssel,VBO,6.073780,52.505939
Koningin Sophiastraat,32,,,8019XZ,Zwolle,Zwolle,Overijssel,VBO,6.073511,52.505850
Koningin Sophiastraat,34,,,8019XZ,Zwolle,Zwolle,Overijssel,VBO,6.073433,52.505822
Koningin Sophiastraat,36,,,8019XZ,Zwolle,Zwolle,Overijssel,VBO,6.073261,52.505760
Koningin Sophiastraat,38,,,8019XZ,Zwolle,Zwolle,Overijssel,VBO,6.073179,52.505734
Oranje Nassaulaan,1,,,8019ZA,Zwolle,Zwolle,Overijssel,VBO,6.074227,52.505423
Oranje Nassaulaan,3,,,8019ZA,Zwolle,Zwolle,Overijssel,VBO,6.074189,52.505466
Oranje Nassaulaan,5,,,8019ZA,Zwolle,Zwolle,Overijssel,VBO,6.074196,52.505615
Oranje Nassaulaan,7,,,8019ZA,Zwolle,Zwolle,Overijssel,VBO,6.074156,52.505663
Oranje Nassaulaan,9,,,8019ZA,Zwolle,Zwolle,Overijssel,VBO,6.073786,52.505998
Oranje Nassaulaan,11,,,8019ZA,Zwolle,Zwolle,Overijssel,VBO,6.073666,52.506125
Oranje Nassaulaan,13,,,8019ZA,Zwolle,Zwolle,Overijssel,VBO,6.073623,52.506174
Oranje Nassaulaan,15,,,8019ZA,Zwolle,Zwolle,Overijssel,VBO,6.073513,52.506286
Oranje Nassaulaan,17,,,8019ZA,Zwolle,Zwolle,Overijssel,VBO,6.073458,52.506334
Oranje Nassaulaan,19,,,8019ZA,Zwolle,Zwolle,Overijssel,VBO,6.073329,52.506421
Oranje Nassaulaan,2,,,8019ZB,Zwolle,Zwolle,Overijssel,VBO,6.074968,52.505513
Oranje Nassaulaan,4,,,8019ZB,Zwolle,Zwolle,Overijssel,VBO,6.074887,52.505668
Oranje Nassaulaan,6,,,8019ZB,Zwolle,Zwolle,Overijssel,VBO,6.074840,52.505714
Oranje Nassaulaan,8,,,8019ZB,Zwolle,Zwolle,Overijssel,VBO,6.074617,52.505788
Oranje Nassaulaan,12,,,8019ZB,Zwolle,Zwolle,Overijssel,VBO,6.074384,52.506030
Oranje Nassaulaan,14,,,8019ZB,Zwolle,Zwolle,Overijssel,VBO,6.074267,52.506137
Oranje Nassaulaan,16,,,8019ZB,Zwolle,Zwolle,Overijssel,VBO,6.074218,52.506187
Oranje Nassaulaan,18,,,8019ZB,Zwolle,Zwolle,Overijssel,VBO,6.074117,52.506292
Oranje Nassaulaan,20,,,8019ZB,Zwolle,Zwolle,Overijssel,VBO,6.074018,52.506385
Oranje Nassaulaan,22,,,8019ZB,Zwolle,Zwolle,Overijssel,VBO,6.073792,52.506630
Oranje Nassaulaan,24,,,8019ZB,Zwolle,Zwolle,Overijssel,VBO,6.073741,52.506678
Oranje Nassaulaan,26,,,8019ZB,Zwolle,Zwolle,Overijssel,VBO,6.073636,52.506783
Prinses Marijkestraat,2,,,8019ZC,Zwolle,Zwolle,Overijssel,VBO,6.072977,52.505954
Prinses Marijkestraat,3,,,8019ZC,Zwolle,Zwolle,Overijssel,VBO,6.072819,52.505577
Prinses Marijkestraat,4,,,8019ZC,Zwolle,Zwolle,Overijssel,VBO,6.072923,52.506000
Prinses Marijkestraat,5,,,8019ZC,Zwolle,Zwolle,Overijssel,VBO,6.072694,52.505712
Prinses Marijkestraat,7,,,8019ZC,Zwolle,Zwolle,Overijssel,VBO,6.072580,52.505825
Prinses Marijkestraat,9,,,8019ZC,Zwolle,Zwolle,Overijssel,VBO,6.072467,52.505940
Prinses Marijkestraat,13,,,8019ZC,Zwolle,Zwolle,Overijssel,VBO,6.072368,52.506053
Prinses Marijkestraat,15,,,8019ZC,Zwolle,Zwolle,Overijssel,VBO,6.072321,52.506105
Prinses Margrietstraat,1,,,8019ZD,Zwolle,Zwolle,Overijssel,VBO,6.072990,52.506328
Prinses Margrietstraat,3,,,8019ZD,Zwolle,Zwolle,Overijssel,VBO,6.072902,52.506296
Prinses Margrietstraat,5,,,8019ZD,Zwolle,Zwolle,Overijssel,VBO,6.072812,52.506261
Prinses Margrietstraat,7,,,8019ZD,Zwolle,Zwolle,Overijssel,VBO,6.072717,52.506225
