openbareruimtenaam,huisnummer,huisletter,huisnummertoevoeging,postcode,woonplaatsnaam,gemeentenaam,provincienaam,typeadresseerbaarobject,longitude,latitude
Dokter van Heesweg,1,A,,8025AB,Zwolle,Zwolle,Overijssel,VBO,6.125538,52.514573
Dokter van Heesweg,1,T,1,8025AB,Zwolle,Zwolle,Overijssel,VBO,6.126497,52.515043
Dokter van Heesweg,1,,,8025AB,Zwolle,Zwolle,Overijssel,VBO,6.126696,52.514874
Dokter van Heesweg,2,T,1,8025AB,Zwolle,Zwolle,Overijssel,VBO,6.120910,52.513366
Dokter van Heesweg,2,,,8025AB,Zwolle,Zwolle,Overijssel,VBO,6.123764,52.513410
Herenweg,91,,,8025AC,Zwolle,Zwolle,Overijssel,VBO,6.119701,52.509922
Herenweg,97,,,8025AC,Zwolle,Zwolle,Overijssel,VBO,6.120127,52.509501
Herenweg,99,,,8025AC,Zwolle,Zwolle,Overijssel,VBO,6.120172,52.509473
Herenweg,105,,,8025AC,Zwolle,Zwolle,Overijssel,STA,6.120482,52.509353
Herenweg,107,,,8025AC,Zwolle,Zwolle,Overijssel,STA,6.120596,52.509236
Herenweg,109,,,8025AC,Zwolle,Zwolle,Overijssel,STA,6.120695,52.509148
Herenweg,111,,,8025AC,Zwolle,Zwolle,Overijssel,VBO,6.120858,52.508934
Herenweg,113,,,8025AC,Zwolle,Zwolle,Overijssel,VBO,6.120905,52.508883
Herenweg,115,,,8025AC,Zwolle,Zwolle,Overijssel,VBO,6.120996,52.508795
Herenweg,117,,,8025AC,Zwolle,Zwolle,Overijssel,VBO,6.121075,52.508703
Herenweg,119,,,8025AC,Zwolle,Zwolle,Overijssel,VBO,6.121281,52.508566
Herenweg,121,,,8025AC,Zwolle,Zwolle,Overijssel,VBO,6.121351,52.508437
Herenweg,123,,,8025AC,Zwolle,Zwolle,Overijssel,VBO,6.121446,52.508328
Herenweg,127,,,8025AC,Zwolle,Zwolle,Overijssel,VBO,6.121744,52.507962
Herenweg,129,,,8025AC,Zwolle,Zwolle,Overijssel,VBO,6.121818,52.507825
Herenweg,131,,,8025AC,Zwolle,Zwolle,Overijssel,VBO,6.122024,52.507642
Herenweg,133,,,8025AC,Zwolle,Zwolle,Overijssel,VBO,6.122163,52.507513
Herenweg,96,,,8025AD,Zwolle,Zwolle,Overijssel,VBO,6.119271,52.509978
Herenweg,98,,,8025AD,Zwolle,Zwolle,Overijssel,VBO,6.119348,52.509865
Herenweg,100,,,8025AD,Zwolle,Zwolle,Overijssel,VBO,6.119435,52.509793
Herenweg,102,,,8025AD,Zwolle,Zwolle,Overijssel,VBO,6.119541,52.509697
Herenweg,104,,,8025AD,Zwolle,Zwolle,Overijssel,VBO,6.119670,52.509583
Herenweg,106,,,8025AD,Zwolle,Zwolle,Overijssel,VBO,6.119728,52.509530
Herenweg,108,,,8025AD,Zwolle,Zwolle,Overijssel,VBO,6.119874,52.509376
Herenweg,110,,,8025AD,Zwolle,Zwolle,Overijssel,VBO,6.120002,52.509259
Herenweg,112,,,8025AD,Zwolle,Zwolle,Overijssel,VBO,6.120125,52.509141
Herenweg,114,,,8025AD,Zwolle,Zwolle,Overijssel,VBO,6.120268,52.509020
Herenweg,116,,,8025AD,Zwolle,Zwolle,Overijssel,VBO,6.120321,52.508981
Herenweg,122,,,8025AD,Zwolle,Zwolle,Overijssel,VBO,6.120470,52.508850
Herenweg,124,,,8025AE,Zwolle,Zwolle,Overijssel,VBO,6.120616,52.508723
Herenweg,126,,,8025AE,Zwolle,Zwolle,Overijssel,VBO,6.120723,52.508592
Herenweg,128,,,8025AE,Zwolle,Zwolle,Overijssel,VBO,6.120819,52.508499
Herenweg,130,,,8025AE,Zwolle,Zwolle,Overijssel,VBO,6.120864,52.508443
Herenweg,132,,,8025AE,Zwolle,Zwolle,Overijssel,VBO,6.120948,52.508355
Herenweg,134,,,8025AE,Zwolle,Zwolle,Overijssel,VBO,6.121100,52.508195
Herenweg,136,,,8025AE,Zwolle,Zwolle,Overijssel,VBO,6.121153,52.508131
Herenweg,138,,,8025AE,Zwolle,Zwolle,Overijssel,VBO,6.121268,52.508004
Herenweg,140,,,8025AE,Zwolle,Zwolle,Overijssel,VBO,6.121402,52.507848
Wipstrikkerallee,155,,,8025AG,Zwolle,Zwolle,Overijssel,VBO,6.118596,52.509308
Wipstrikkerallee,157,,,8025AG,Zwolle,Zwolle,Overijssel,VBO,6.118773,52.509194
Wipstrikkerallee,159,,,8025AG,Zwolle,Zwolle,Overijssel,VBO,6.119006,52.509047
Wipstrikkerallee,161,,,8025AG,Zwolle,Zwolle,Overijssel,VBO,6.119145,52.508950
Wipstrikkerallee,163,,,8025AG,Zwolle,Zwolle,Overijssel,VBO,6.119307,52.508871
Wipstrikkerallee,165,,,8025AG,Zwolle,Zwolle,Overijssel,VBO,6.119380,52.508817
Wipstrikkerallee,167,,,8025AG,Zwolle,Zwolle,Overijssel,VBO,6.119530,52.508702
Wipstrikkerallee,169,,,8025AG,Zwolle,Zwolle,Overijssel,VBO,6.119707,52.508592
Wipstrikkerallee,171,,,8025AG,Zwolle,Zwolle,Overijssel,VBO,6.119913,52.508465
Wipstrikkerallee,173,,,8025AG,Zwolle,Zwolle,Overijssel,VBO,6.120079,52.508358
Wipstrikkerallee,175,,,8025AG,Zwolle,Zwolle,Overijssel,VBO,6.120130,52.508319
Wipstrikkerallee,177,A,,8025AG,Zwolle,Zwolle,Overijssel,VBO,6.120516,52.508316
Wipstrikkerallee,177,T,1,8025AG,Zwolle,Zwolle,Overijssel,VBO,6.120561,52.508354
Wipstrikkerallee,177,,,8025AG,Zwolle,Zwolle,Overijssel,VBO,6.120344,52.508185
Wipstrikkerallee,179,,,8025AG,Zwolle,Zwolle,Overijssel,VBO,6.120434,52.508124
Wipstrikkerallee,181,,,8025AG,Zwolle,Zwolle,Overijssel,VBO,6.120607,52.508013
Wipstrikkerallee,183,,,8025AG,Zwolle,Zwolle,Overijssel,VBO,6.120670,52.507971
Wipstrikkerallee,185,,,8025AH,Zwolle,Zwolle,Overijssel,VBO,6.120865,52.507849
Wipstrikkerallee,187,,,8025AH,Zwolle,Zwolle,Overijssel,VBO,6.120946,52.507800
Wipstrikkerallee,189,,,8025AH,Zwolle,Zwolle,Overijssel,VBO,6.121155,52.507663
Wipstrikkerallee,191,,,8025AH,Zwolle,Zwolle,Overijssel,VBO,6.121315,52.507563
Wipstrikkerallee,193,,,8025AH,Zwolle,Zwolle,Overijssel,VBO,6.121390,52.507513
Wipstrikkerallee,195,,,8025AH,Zwolle,Zwolle,Overijssel,VBO,6.121534,52.507413
Wipstrikkerallee,197,,,8025AH,Zwolle,Zwolle,Overijssel,VBO,6.121626,52.507357
Wipstrikkerallee,209,,,8025AH,Zwolle,Zwolle,Overijssel,VBO,6.122629,52.507282
Wipstrikkerallee,211,A,,8025AH,Zwolle,Zwolle,Overijssel,VBO,6.123541,52.506883
Wipstrikkerallee,211,,,8025AH,Zwolle,Zwolle,Overijssel,VBO,6.122897,52.507605
Wipstrikkerallee,213,T,1,8025AH,Zwolle,Zwolle,Overijssel,VBO,6.124384,52.506171
Wipstrikkerallee,213,,,8025AH,Zwolle,Zwolle,Overijssel,VBO,6.123744,52.506112
Dokter Hengeveldweg,2,,,8025AK,Zwolle,Zwolle,Overijssel,VBO,6.127582,52.510691
Dokter Hengeveldweg,4,,,8025AK,Zwolle,Zwolle,Overijssel,VBO,6.127484,52.510672
Dokter Hengeveldweg,5,,,8025AK,Zwolle,Zwolle,Overijssel,VBO,6.128575,52.511553
Dokter Hengeveldweg,6,,,8025AK,Zwolle,Zwolle,Overijssel,VBO,6.127455,52.510250
Dokter Hengeveldweg,7,A,,8025AK,Zwolle,Zwolle,Overijssel,VBO,6.128637,52.511116
Dokter Hengeveldweg,7,,,8025AK,Zwolle,Zwolle,Overijssel,VBO,6.128298,52.511004
Dokter Hengeveldweg,8,,,8025AK,Zwolle,Zwolle,Overijssel,VBO,6.127436,52.510133
Dokter Hengeveldweg,9,T,1,8025AK,Zwolle,Zwolle,Overijssel,VBO,6.129160,52.509755
Dokter Hengeveldweg,9,,,8025AK,Zwolle,Zwolle,Overijssel,VBO,6.128823,52.510144
Dokter Hengeveldweg,10,,,8025AK,Zwolle,Zwolle,Overijssel,VBO,6.127429,52.510087
Dokter van Thienenweg,1,A,,8025AL,Zwolle,Zwolle,Overijssel,VBO,6.127802,52.514282
Dokter van Thienenweg,1,,,8025AL,Zwolle,Zwolle,Overijssel,VBO,6.127956,52.513116
Dokter van Thienenweg,2,,,8025AL,Zwolle,Zwolle,Overijssel,VBO,6.126915,52.511590
Weteringpark,1,,,8025AM,Zwolle,Zwolle,Overijssel,VBO,6.120385,52.507275
Weteringpark,2,,,8025AM,Zwolle,Zwolle,Overijssel,VBO,6.119742,52.507612
Weteringpark,3,,,8025AM,Zwolle,Zwolle,Overijssel,VBO,6.120692,52.507079
Weteringpark,4,,,8025AM,Zwolle,Zwolle,Overijssel,VBO,6.119230,52.507343
Weteringpark,5,,,8025AM,Zwolle,Zwolle,Overijssel,VBO,6.119839,52.507144
Weteringpark,6,,,8025AM,Zwolle,Zwolle,Overijssel,VBO,6.118831,52.507506
Weteringpark,7,A,,8025AM,Zwolle,Zwolle,Overijssel,VBO,6.118040,52.507354
Weteringpark,7,D,1,8025AM,Zwolle,Zwolle,Overijssel,VBO,6.119135,52.506955
Weteringpark,7,G,1,8025AM,Zwolle,Zwolle,Overijssel,VBO,6.119464,52.507084
Weteringpark,7,G,10,8025AM,Zwolle,Zwolle,Overijssel,VBO,6.119496,52.506990
Weteringpark,7,G,11,8025AM,Zwolle,Zwolle,Overijssel,VBO,6.119514,52.506965
Weteringpark,7,G,12,8025AM,Zwolle,Zwolle,Overijssel,VBO,6.119538,52.506944
Weteringpark,7,G,13,8025AM,Zwolle,Zwolle,Overijssel,VBO,6.119552,52.506926
Weteringpark,7,G,14,8025AM,Zwolle,Zwolle,Overijssel,VBO,6.119574,52.506906
Weteringpark,7,G,15,8025AM,Zwolle,Zwolle,Overijssel,VBO,6.119553,52.506821
Weteringpark,7,G,16,8025AM,Zwolle,Zwolle,Overijssel,VBO,6.119504,52.506821
Weteringpark,7,G,17,8025AM,Zwolle,Zwolle,Overijssel,VBO,6.119449,52.506819
Weteringpark,7,G,18,8025AM,Zwolle,Zwolle,Overijssel,VBO,6.119388,52.506815
Weteringpark,7,G,19,8025AM,Zwolle,Zwolle,Overijssel,VBO,6.119334,52.506812
Weteringpark,7,G,2,8025AM,Zwolle,Zwolle,Overijssel,VBO,6.119433,52.507073
Weteringpark,7,G,20,8025AM,Zwolle,Zwolle,Overijssel,VBO,6.119278,52.506810
Weteringpark,7,G,21,8025AM,Zwolle,Zwolle,Overijssel,VBO,6.119224,52.506808
Weteringpark,7,G,22,8025AM,Zwolle,Zwolle,Overijssel,VBO,6.119175,52.506805
Weteringpark,7,G,23,8025AM,Zwolle,Zwolle,Overijssel,VBO,6.119130,52.506803
Weteringpark,7,G,24,8025AM,Zwolle,Zwolle,Overijssel,VBO,6.119085,52.506800
Weteringpark,7,G,25,8025AM,Zwolle,Zwolle,Overijssel,VBO,6.119043,52.506797
Weteringpark,7,G,26,8025AM,Zwolle,Zwolle,Overijssel,VBO,6.119005,52.506795
Weteringpark,7,G,27,8025AM,Zwolle,Zwolle,Overijssel,VBO,6.118544,52.506940
Weteringpark,7,G,28,8025AM,Zwolle,Zwolle,Overijssel,VBO,6.118485,52.506967
Weteringpark,7,G,29,8025AM,Zwolle,Zwolle,Overijssel,VBO,6.118427,52.506985
Weteringpark,7,G,3,8025AM,Zwolle,Zwolle,Overijssel,VBO,6.119398,52.507062
Weteringpark,7,G,30,8025AM,Zwolle,Zwolle,Overijssel,VBO,6.118368,52.507013
Weteringpark,7,G,31,8025AM,Zwolle,Zwolle,Overijssel,VBO,6.118295,52.507040
Weteringpark,7,G,32,8025AM,Zwolle,Zwolle,Overijssel,VBO,6.118232,52.507065
Weteringpark,7,G,33,8025AM,Zwolle,Zwolle,Overijssel,VBO,6.118163,52.507086
Weteringpark,7,G,34,8025AM,Zwolle,Zwolle,Overijssel,VBO,6.118111,52.507107
Weteringpark,7,G,35,8025AM,Zwolle,Zwolle,Overijssel,VBO,6.118067,52.507126
Weteringpark,7,G,36,8025AM,Zwolle,Zwolle,Overijssel,VBO,6.118020,52.507144
Weteringpark,7,G,37,8025AM,Zwolle,Zwolle,Overijssel,VBO,6.117991,52.507153
Weteringpark,7,G,38,8025AM,Zwolle,Zwolle,Overijssel,VBO,6.117951,52.507168
Weteringpark,7,G,39,8025AM,Zwolle,Zwolle,Overijssel,VBO,6.117922,52.507177
Weteringpark,7,G,4,8025AM,Zwolle,Zwolle,Overijssel,VBO,6.119231,52.506950
Weteringpark,7,G,5,8025AM,Zwolle,Zwolle,Overijssel,VBO,6.119266,52.506962
Weteringpark,7,G,6,8025AM,Zwolle,Zwolle,Overijssel,VBO,6.119301,52.506975
Weteringpark,7,G,7,8025AM,Zwolle,Zwolle,Overijssel,VBO,6.119344,52.506991
Weteringpark,7,G,8,8025AM,Zwolle,Zwolle,Overijssel,VBO,6.119384,52.507008
Weteringpark,7,G,9,8025AM,Zwolle,Zwolle,Overijssel,VBO,6.119471,52.507010
Weteringpark,7,S,1,8025AM,Zwolle,Zwolle,Overijssel,VBO,6.119146,52.506926
Weteringpark,7,T,1,8025AM,Zwolle,Zwolle,Overijssel,VBO,6.118945,52.506777
Weteringpark,7,,1,8025AM,Zwolle,Zwolle,Overijssel,VBO,6.118751,52.506975
Weteringpark,7,,10,8025AM,Zwolle,Zwolle,Overijssel,VBO,6.117717,52.507239
Weteringpark,7,,10A,8025AM,Zwolle,Zwolle,Overijssel,VBO,6.117569,52.507295
Weteringpark,7,,11,8025AM,Zwolle,Zwolle,Overijssel,VBO,6.118671,52.506966
Weteringpark,7,,13,8025AM,Zwolle,Zwolle,Overijssel,VBO,6.118538,52.506892
Weteringpark,7,,14,8025AM,Zwolle,Zwolle,Overijssel,VBO,6.118386,52.506946
Weteringpark,7,,15,8025AM,Zwolle,Zwolle,Overijssel,VBO,6.118222,52.507007
Weteringpark,7,,16,8025AM,Zwolle,Zwolle,Overijssel,VBO,6.118056,52.507065
Weteringpark,7,,17,8025AM,Zwolle,Zwolle,Overijssel,VBO,6.117907,52.507126
Weteringpark,7,,18,8025AM,Zwolle,Zwolle,Overijssel,VBO,6.117848,52.507225
Weteringpark,7,,19,8025AM,Zwolle,Zwolle,Overijssel,VBO,6.117953,52.507360
Weteringpark,7,,2,8025AM,Zwolle,Zwolle,Overijssel,VBO,6.118652,52.506880
Weteringpark,7,,20,8025AM,Zwolle,Zwolle,Overijssel,VBO,6.117743,52.507217
Weteringpark,7,,20A,8025AM,Zwolle,Zwolle,Overijssel,VBO,6.117580,52.507274
Weteringpark,7,,21,8025AM,Zwolle,Zwolle,Overijssel,VBO,6.118743,52.506954
Weteringpark,7,,22,8025AM,Zwolle,Zwolle,Overijssel,VBO,6.118721,52.506880
Weteringpark,7,,23,8025AM,Zwolle,Zwolle,Overijssel,VBO,6.118544,52.506873
Weteringpark,7,,24,8025AM,Zwolle,Zwolle,Overijssel,VBO,6.118432,52.506973
Weteringpark,7,,25,8025AM,Zwolle,Zwolle,Overijssel,VBO,6.118246,52.506987
Weteringpark,7,,26,8025AM,Zwolle,Zwolle,Overijssel,VBO,6.118104,52.507092
Weteringpark,7,,27,8025AM,Zwolle,Zwolle,Overijssel,VBO,6.117921,52.507110
Weteringpark,7,,28,8025AM,Zwolle,Zwolle,Overijssel,VBO,6.117845,52.507203
Weteringpark,7,,29,8025AM,Zwolle,Zwolle,Overijssel,VBO,6.117940,52.507329
Weteringpark,7,,3,8025AM,Zwolle,Zwolle,Overijssel,VBO,6.118526,52.506910
Weteringpark,7,,30,8025AM,Zwolle,Zwolle,Overijssel,VBO,6.117680,52.507223
Weteringpark,7,,30A,8025AM,Zwolle,Zwolle,Overijssel,VBO,6.117533,52.507324
Weteringpark,7,,31,8025AM,Zwolle,Zwolle,Overijssel,VBO,6.118684,52.506991
Weteringpark,7,,31A,8025AM,Zwolle,Zwolle,Overijssel,VBO,6.118608,52.506933
Weteringpark,7,,31B,8025AM,Zwolle,Zwolle,Overijssel,VBO,6.118607,52.506919
Weteringpark,7,,32,8025AM,Zwolle,Zwolle,Overijssel,VBO,6.118664,52.506858
Weteringpark,7,,33,8025AM,Zwolle,Zwolle,Overijssel,VBO,6.118470,52.506901
Weteringpark,7,,34,8025AM,Zwolle,Zwolle,Overijssel,VBO,6.118375,52.506993
Weteringpark,7,,35,8025AM,Zwolle,Zwolle,Overijssel,VBO,6.118259,52.507034
Weteringpark,7,,36,8025AM,Zwolle,Zwolle,Overijssel,VBO,6.118119,52.507072
Weteringpark,7,,37,8025AM,Zwolle,Zwolle,Overijssel,VBO,6.117949,52.507148
Weteringpark,7,,39,8025AM,Zwolle,Zwolle,Overijssel,VBO,6.118028,52.507372
Weteringpark,7,,4,8025AM,Zwolle,Zwolle,Overijssel,VBO,6.118368,52.506971
Weteringpark,7,,40,8025AM,Zwolle,Zwolle,Overijssel,VBO,6.117714,52.507264
Weteringpark,7,,40A,8025AM,Zwolle,Zwolle,Overijssel,VBO,6.117497,52.507295
Weteringpark,7,,41,8025AM,Zwolle,Zwolle,Overijssel,VBO,6.118650,52.506946
Weteringpark,7,,41A,8025AM,Zwolle,Zwolle,Overijssel,VBO,6.118680,52.506932
Weteringpark,7,,42,8025AM,Zwolle,Zwolle,Overijssel,VBO,6.118742,52.506856
Weteringpark,7,,43,8025AM,Zwolle,Zwolle,Overijssel,VBO,6.118473,52.506927
Weteringpark,7,,44,8025AM,Zwolle,Zwolle,Overijssel,VBO,6.118380,52.506931
Weteringpark,7,,45,8025AM,Zwolle,Zwolle,Overijssel,VBO,6.118183,52.506994
Weteringpark,7,,46,8025AM,Zwolle,Zwolle,Overijssel,VBO,6.118023,52.507081
Weteringpark,7,,47,8025AM,Zwolle,Zwolle,Overijssel,VBO,6.117841,52.507130
Weteringpark,7,,48,8025AM,Zwolle,Zwolle,Overijssel,VBO,6.117911,52.507234
Weteringpark,7,,49,8025AM,Zwolle,Zwolle,Overijssel,VBO,6.118006,52.507341
Weteringpark,7,,5,8025AM,Zwolle,Zwolle,Overijssel,VBO,6.118198,52.507035
Weteringpark,7,,51,8025AM,Zwolle,Zwolle,Overijssel,VBO,6.118748,52.506938
Weteringpark,7,,52,8025AM,Zwolle,Zwolle,Overijssel,VBO,6.118675,52.506840
Weteringpark,7,,54,8025AM,Zwolle,Zwolle,Overijssel,VBO,6.118332,52.506960
Weteringpark,7,,55,8025AM,Zwolle,Zwolle,Overijssel,VBO,6.118155,52.507019
Weteringpark,7,,56,8025AM,Zwolle,Zwolle,Overijssel,VBO,6.118074,52.507049
Weteringpark,7,,57,8025AM,Zwolle,Zwolle,Overijssel,VBO,6.117968,52.507129
Weteringpark,7,,58,8025AM,Zwolle,Zwolle,Overijssel,VBO,6.117874,52.507278
Weteringpark,7,,6,8025AM,Zwolle,Zwolle,Overijssel,VBO,6.118040,52.507094
Weteringpark,7,,61,8025AM,Zwolle,Zwolle,Overijssel,VBO,6.118730,52.506916
Weteringpark,7,,62,8025AM,Zwolle,Zwolle,Overijssel,VBO,6.118614,52.506842
Weteringpark,7,,64,8025AM,Zwolle,Zwolle,Overijssel,VBO,6.118324,52.506944
Weteringpark,7,,66,8025AM,Zwolle,Zwolle,Overijssel,VBO,6.118013,52.507054
Weteringpark,7,,67,8025AM,Zwolle,Zwolle,Overijssel,VBO,6.117928,52.507096
Weteringpark,7,,68,8025AM,Zwolle,Zwolle,Overijssel,VBO,6.117882,52.507185
Weteringpark,7,,69,8025AM,Zwolle,Zwolle,Overijssel,VBO,6.117951,52.507306
Weteringpark,7,,7,8025AM,Zwolle,Zwolle,Overijssel,VBO,6.117882,52.507146
Weteringpark,7,,70,8025AM,Zwolle,Zwolle,Overijssel,VBO,6.117652,52.507249
Weteringpark,7,,71,8025AM,Zwolle,Zwolle,Overijssel,VBO,6.118757,52.506899
Weteringpark,7,,72,8025AM,Zwolle,Zwolle,Overijssel,VBO,6.118659,52.506823
Weteringpark,7,,73,8025AM,Zwolle,Zwolle,Overijssel,VBO,6.118419,52.506912
Weteringpark,7,,74,8025AM,Zwolle,Zwolle,Overijssel,VBO,6.118341,52.507011
Weteringpark,7,,76,8025AM,Zwolle,Zwolle,Overijssel,VBO,6.118065,52.507113
Weteringpark,7,,77,8025AM,Zwolle,Zwolle,Overijssel,VBO,6.117857,52.507113
Weteringpark,7,,78,8025AM,Zwolle,Zwolle,Overijssel,VBO,6.117806,52.507167
Weteringpark,7,,79,8025AM,Zwolle,Zwolle,Overijssel,VBO,6.117882,52.507296
Weteringpark,7,,8,8025AM,Zwolle,Zwolle,Overijssel,VBO,6.117872,52.507252
Weteringpark,7,,80,8025AM,Zwolle,Zwolle,Overijssel,VBO,6.117670,52.507286
Weteringpark,7,,81,8025AM,Zwolle,Zwolle,Overijssel,VBO,6.118785,52.506963
Weteringpark,7,,82,8025AM,Zwolle,Zwolle,Overijssel,VBO,6.118686,52.506809
Weteringpark,7,,84,8025AM,Zwolle,Zwolle,Overijssel,VBO,6.118312,52.506985
Weteringpark,7,,85,8025AM,Zwolle,Zwolle,Overijssel,VBO,6.118147,52.507042
Weteringpark,7,,86,8025AM,Zwolle,Zwolle,Overijssel,VBO,6.117977,52.507073
Weteringpark,7,,88,8025AM,Zwolle,Zwolle,Overijssel,VBO,6.117809,52.507245
Weteringpark,7,,89,8025AM,Zwolle,Zwolle,Overijssel,VBO,6.117958,52.507287
Weteringpark,7,,9,8025AM,Zwolle,Zwolle,Overijssel,VBO,6.117973,52.507393
Weteringpark,7,,,8025AM,Zwolle,Zwolle,Overijssel,VBO,6.118708,52.506973
Weteringpark,8,,,8025AM,Zwolle,Zwolle,Overijssel,VBO,6.118470,52.507669
Weteringpark,10,,,8025AM,Zwolle,Zwolle,Overijssel,VBO,6.118184,52.507806
Weteringpark,12,,,8025AM,Zwolle,Zwolle,Overijssel,VBO,6.117903,52.507977
Weteringpark,14,,,8025AM,Zwolle,Zwolle,Overijssel,VBO,6.118117,52.508277
Weteringpark,16,,,8025AM,Zwolle,Zwolle,Overijssel,VBO,6.118604,52.508224
Weteringpark,18,,,8025AM,Zwolle,Zwolle,Overijssel,VBO,6.119003,52.508072
Weteringpark,20,,,8025AM,Zwolle,Zwolle,Overijssel,VBO,6.119368,52.507820
Oude Almeloseweg,1,,,8025AN,Zwolle,Zwolle,Overijssel,VBO,6.124784,52.504842
Oude Almeloseweg,3,,,8025AN,Zwolle,Zwolle,Overijssel,VBO,6.124860,52.504793
Oude Almeloseweg,2,A,,8025AP,Zwolle,Zwolle,Overijssel,VBO,6.124440,52.504861
Oude Almeloseweg,2,B,,8025AP,Zwolle,Zwolle,Overijssel,VBO,6.124486,52.504804
Oude Almeloseweg,2,C,,8025AP,Zwolle,Zwolle,Overijssel,VBO,6.124548,52.504749
Oude Almeloseweg,2,,,8025AP,Zwolle,Zwolle,Overijssel,VBO,6.124231,52.504981
Oude Almeloseweg,4,T,1,8025AP,Zwolle,Zwolle,Overijssel,VBO,6.124271,52.504554
Oude Almeloseweg,4,,,8025AP,Zwolle,Zwolle,Overijssel,VBO,6.124790,52.504571
Oude Almeloseweg,6,,,8025AP,Zwolle,Zwolle,Overijssel,VBO,6.124937,52.504501
Oude Almeloseweg,8,,,8025AP,Zwolle,Zwolle,Overijssel,VBO,6.125081,52.504455
Oude Almeloseweg,10,,,8025AP,Zwolle,Zwolle,Overijssel,VBO,6.125177,52.504431
Oude Almeloseweg,12,,,8025AP,Zwolle,Zwolle,Overijssel,VBO,6.125579,52.504385
Oude Almeloseweg,14,,,8025AP,Zwolle,Zwolle,Overijssel,VBO,6.125649,52.504356
Oude Almeloseweg,16,,1,8025AP,Zwolle,Zwolle,Overijssel,VBO,6.125919,52.504280
Oude Almeloseweg,16,,,8025AP,Zwolle,Zwolle,Overijssel,VBO,6.125710,52.504329
Oude Almeloseweg,18,,,8025AP,Zwolle,Zwolle,Overijssel,VBO,6.126138,52.504249
Oude Almeloseweg,20,,,8025AP,Zwolle,Zwolle,Overijssel,VBO,6.126307,52.504232
Oude Almeloseweg,22,,,8025AP,Zwolle,Zwolle,Overijssel,VBO,6.126372,52.504217
Oude Almeloseweg,24,,,8025AP,Zwolle,Zwolle,Overijssel,VBO,6.126531,52.504163
Oude Almeloseweg,26,,,8025AP,Zwolle,Zwolle,Overijssel,VBO,6.126616,52.504144
Oude Almeloseweg,28,R,1,8025AP,Zwolle,Zwolle,Overijssel,VBO,6.125474,52.503663
Oude Almeloseweg,28,T,1,8025AP,Zwolle,Zwolle,Overijssel,VBO,6.125476,52.503643
Oude Almeloseweg,28,,,8025AP,Zwolle,Zwolle,Overijssel,VBO,6.126996,52.504038
Herenpark,1,,,8025AR,Zwolle,Zwolle,Overijssel,VBO,6.119809,52.509883
Herenpark,2,,,8025AR,Zwolle,Zwolle,Overijssel,VBO,6.119962,52.509731
Herenpark,3,,,8025AR,Zwolle,Zwolle,Overijssel,VBO,6.120064,52.509970
Herenpark,4,,,8025AR,Zwolle,Zwolle,Overijssel,VBO,6.120252,52.509854
Herenpark,5,,,8025AR,Zwolle,Zwolle,Overijssel,VBO,6.120303,52.510021
Herenpark,6,,,8025AR,Zwolle,Zwolle,Overijssel,VBO,6.120542,52.509838
Herenpark,7,,,8025AR,Zwolle,Zwolle,Overijssel,VBO,6.120570,52.510031
Herenpark,8,,,8025AR,Zwolle,Zwolle,Overijssel,VBO,6.120628,52.509813
Herenpark,9,,,8025AR,Zwolle,Zwolle,Overijssel,VBO,6.120781,52.509961
Herenpark,10,A,,8025AR,Zwolle,Zwolle,Overijssel,VBO,6.120673,52.509675
Herenpark,10,,,8025AR,Zwolle,Zwolle,Overijssel,VBO,6.120761,52.509658
Herenpark,11,,,8025AR,Zwolle,Zwolle,Overijssel,VBO,6.120993,52.509800
Herenpark,12,,,8025AR,Zwolle,Zwolle,Overijssel,VBO,6.120940,52.509541
Herenpark,13,,,8025AR,Zwolle,Zwolle,Overijssel,VBO,6.121119,52.509693
Herenpark,14,,,8025AR,Zwolle,Zwolle,Overijssel,VBO,6.121083,52.509407
Herenpark,15,,,8025AR,Zwolle,Zwolle,Overijssel,VBO,6.121172,52.509646
Herenpark,16,,,8025AR,Zwolle,Zwolle,Overijssel,VBO,6.121137,52.509361
Herenpark,17,,,8025AR,Zwolle,Zwolle,Overijssel,VBO,6.121304,52.509535
Herenpark,18,,,8025AR,Zwolle,Zwolle,Overijssel,VBO,6.121303,52.509035
Herenpark,19,,,8025AR,Zwolle,Zwolle,Overijssel,VBO,6.121367,52.509484
Herenpark,20,,,8025AR,Zwolle,Zwolle,Overijssel,VBO,6.121314,52.508971
Herenpark,21,,,8025AR,Zwolle,Zwolle,Overijssel,VBO,6.121474,52.509302
Herenpark,22,,,8025AR,Zwolle,Zwolle,Overijssel,VBO,6.121348,52.508869
Herenpark,24,,,8025AR,Zwolle,Zwolle,Overijssel,VBO,6.121360,52.508809
Herenpark,26,,,8025AR,Zwolle,Zwolle,Overijssel,VBO,6.121574,52.508662
Herenpark,28,,,8025AR,Zwolle,Zwolle,Overijssel,VBO,6.121732,52.508494
Herenpark,31,,,8025AR,Zwolle,Zwolle,Overijssel,VBO,6.121851,52.508787
Herenpark,33,,,8025AR,Zwolle,Zwolle,Overijssel,VBO,6.122003,52.508569
Herenpark,35,,,8025AR,Zwolle,Zwolle,Overijssel,VBO,6.122165,52.508344
Herenpark,37,,,8025AR,Zwolle,Zwolle,Overijssel,VBO,6.121974,52.508275
Herenpark,39,,,8025AR,Zwolle,Zwolle,Overijssel,VBO,6.121780,52.508219
Herenpark,41,,,8025AR,Zwolle,Zwolle,Overijssel,VBO,6.121558,52.508149
Kuyerhuislaan,2,,,8025AS,Zwolle,Zwolle,Overijssel,VBO,6.127026,52.505485
Kuyerhuislaan,4,,,8025AS,Zwolle,Zwolle,Overijssel,VBO,6.127741,52.505201
Kuyerhuislaan,6,,,8025AS,Zwolle,Zwolle,Overijssel,VBO,6.128006,52.505224
Kuyerhuislaan,8,A,,8025AS,Zwolle,Zwolle,Overijssel,VBO,6.132496,52.506788
Kuyerhuislaan,8,,,8025AS,Zwolle,Zwolle,Overijssel,VBO,6.130587,52.506683
Kuyerhuislaan,1,A,,8025AT,Zwolle,Zwolle,Overijssel,VBO,6.134073,52.509400
Kuyerhuislaan,1,B,,8025AT,Zwolle,Zwolle,Overijssel,VBO,6.136342,52.509388
Kuyerhuislaan,1,C,,8025AT,Zwolle,Zwolle,Overijssel,VBO,6.136040,52.509489
Kuyerhuislaan,1,,,8025AT,Zwolle,Zwolle,Overijssel,VBO,6.134204,52.509470
Dokter Stolteweg,1,,,8025AV,Zwolle,Zwolle,Overijssel,VBO,6.122739,52.514425
Dokter Stolteweg,2,T,1,8025AV,Zwolle,Zwolle,Overijssel,VBO,6.123969,52.514572
Dokter Stolteweg,2,,,8025AV,Zwolle,Zwolle,Overijssel,VBO,6.123538,52.514782
Dokter Stolteweg,3,,,8025AV,Zwolle,Zwolle,Overijssel,VBO,6.122738,52.514398
Dokter Stolteweg,5,,,8025AV,Zwolle,Zwolle,Overijssel,VBO,6.122738,52.514371
Dokter Stolteweg,7,,,8025AV,Zwolle,Zwolle,Overijssel,VBO,6.122737,52.514344
Dokter Stolteweg,11,,,8025AV,Zwolle,Zwolle,Overijssel,VBO,6.122769,52.514802
Dokter Stolteweg,13,,,8025AV,Zwolle,Zwolle,Overijssel,VBO,6.122768,52.514775
Dokter Stolteweg,15,,,8025AV,Zwolle,Zwolle,Overijssel,VBO,6.122768,52.514749
Dokter Stolteweg,17,,,8025AV,Zwolle,Zwolle,Overijssel,VBO,6.122036,52.514810
Dokter Stolteweg,19,,,8025AV,Zwolle,Zwolle,Overijssel,VBO,6.122031,52.514789
Dokter Stolteweg,21,,,8025AV,Zwolle,Zwolle,Overijssel,VBO,6.122029,52.514759
Dokter Stolteweg,23,,,8025AV,Zwolle,Zwolle,Overijssel,VBO,6.122034,52.514729
Dokter Stolteweg,25,,,8025AV,Zwolle,Zwolle,Overijssel,VBO,6.122017,52.514385
Dokter Stolteweg,27,,,8025AV,Zwolle,Zwolle,Overijssel,VBO,6.122017,52.514358
Dokterspad,2,,,8025AW,Zwolle,Zwolle,Overijssel,VBO,6.124877,52.515502
Dokter Stolteweg,40,,,8025AX,Zwolle,Zwolle,Overijssel,VBO,6.122792,52.515240
Dokter Stolteweg,42,,,8025AX,Zwolle,Zwolle,Overijssel,VBO,6.121867,52.515374
Dokter Stolteweg,44,,,8025AX,Zwolle,Zwolle,Overijssel,VBO,6.121863,52.515341
Dokter Stolteweg,46,,,8025AX,Zwolle,Zwolle,Overijssel,VBO,6.121866,52.515321
Dokter Stolteweg,48,,,8025AX,Zwolle,Zwolle,Overijssel,VBO,6.121862,52.515289
Dokter Stolteweg,52,,,8025AX,Zwolle,Zwolle,Overijssel,VBO,6.121038,52.515359
Dokter Stolteweg,54,,,8025AX,Zwolle,Zwolle,Overijssel,VBO,6.121037,52.515332
Dokter Stolteweg,56,,,8025AX,Zwolle,Zwolle,Overijssel,VBO,6.121037,52.515305
Dokter Stolteweg,58,,,8025AX,Zwolle,Zwolle,Overijssel,VBO,6.121037,52.515278
Dokter Stolteweg,60,,,8025AZ,Zwolle,Zwolle,Overijssel,VBO,6.120587,52.515334
Dokter Stolteweg,62,,,8025AZ,Zwolle,Zwolle,Overijssel,VBO,6.120574,52.515300
Dokter Stolteweg,64,,,8025AZ,Zwolle,Zwolle,Overijssel,VBO,6.120557,52.515272
Dokter Stolteweg,66,,,8025AZ,Zwolle,Zwolle,Overijssel,VBO,6.120543,52.515242
Dokter Stolteweg,68,,,8025AZ,Zwolle,Zwolle,Overijssel,VBO,6.120445,52.514968
Dokter Stolteweg,70,,,8025AZ,Zwolle,Zwolle,Overijssel,VBO,6.120516,52.514973
Dokter Stolteweg,72,,,8025AZ,Zwolle,Zwolle,Overijssel,VBO,6.120446,52.514939
Dokter Stolteweg,74,,,8025AZ,Zwolle,Zwolle,Overijssel,VBO,6.120523,52.514942
Dokter Stolteweg,76,,,8025AZ,Zwolle,Zwolle,Overijssel,VBO,6.121223,52.514895
Dokter Stolteweg,78,,,8025AZ,Zwolle,Zwolle,Overijssel,VBO,6.121231,52.514866
Dokter Stolteweg,80,,,8025AZ,Zwolle,Zwolle,Overijssel,VBO,6.121240,52.514833
Dokter Stolteweg,82,,,8025AZ,Zwolle,Zwolle,Overijssel,VBO,6.120982,52.514893
Dokter Stolteweg,84,A,,8025AZ,Zwolle,Zwolle,Overijssel,VBO,6.121343,52.514594
Dokter Stolteweg,84,,,8025AZ,Zwolle,Zwolle,Overijssel,VBO,6.121343,52.514619
Dokter Stolteweg,84,,,8025AZ,Zwolle,Zwolle,Overijssel,VBO,6.121349,52.514558
Dokter Stolteweg,86,,,8025AZ,Zwolle,Zwolle,Overijssel,VBO,6.121348,52.514531
Dokter Stolteweg,88,,,8025AZ,Zwolle,Zwolle,Overijssel,VBO,6.121348,52.514504
Dokter Stolteweg,90,,,8025AZ,Zwolle,Zwolle,Overijssel,VBO,6.121347,52.514477
Dokter Stolteweg,92,,,8025AZ,Zwolle,Zwolle,Overijssel,VBO,6.120801,52.514543
Dokter Stolteweg,94,,,8025AZ,Zwolle,Zwolle,Overijssel,VBO,6.120820,52.514496
Dokter Stolteweg,96,,,8025AZ,Zwolle,Zwolle,Overijssel,VBO,6.120811,52.514456
Dokter van Deenweg,26,A,,8025BA,Zwolle,Zwolle,Overijssel,VBO,6.123042,52.510603
Dokter van Deenweg,26,B,,8025BA,Zwolle,Zwolle,Overijssel,VBO,6.122980,52.510678
Dokter van Deenweg,26,C,,8025BA,Zwolle,Zwolle,Overijssel,VBO,6.122839,52.510705
Dokter van Deenweg,26,D,,8025BA,Zwolle,Zwolle,Overijssel,VBO,6.122693,52.510669
Dokter van Deenweg,26,E,,8025BA,Zwolle,Zwolle,Overijssel,VBO,6.122672,52.510618
Dokter van Deenweg,26,T,1,8025BA,Zwolle,Zwolle,Overijssel,VBO,6.122984,52.510530
Dokter van Deenweg,26,,,8025BA,Zwolle,Zwolle,Overijssel,VBO,6.122850,52.510592
Dokter van Deenweg,26,,,8025BA,Zwolle,Zwolle,Overijssel,VBO,6.123075,52.510561
Dokter van Deenweg,28,A,,8025BA,Zwolle,Zwolle,Overijssel,VBO,6.122997,52.510591
Dokter van Deenweg,28,B,,8025BA,Zwolle,Zwolle,Overijssel,VBO,6.122975,52.510631
Dokter van Deenweg,28,C,,8025BA,Zwolle,Zwolle,Overijssel,VBO,6.122931,52.510669
Dokter van Deenweg,28,D,,8025BA,Zwolle,Zwolle,Overijssel,VBO,6.122862,52.510678
Dokter van Deenweg,28,E,,8025BA,Zwolle,Zwolle,Overijssel,VBO,6.122727,52.510653
Dokter van Deenweg,28,F,,8025BA,Zwolle,Zwolle,Overijssel,VBO,6.122714,52.510625
Dokter van Deenweg,28,,,8025BA,Zwolle,Zwolle,Overijssel,VBO,6.122900,52.510591
Dokter van Deenweg,28,,,8025BA,Zwolle,Zwolle,Overijssel,VBO,6.123030,52.510553
Dokter van Deenweg,30,A,,8025BA,Zwolle,Zwolle,Overijssel,VBO,6.122947,52.510587
Dokter van Deenweg,30,B,,8025BA,Zwolle,Zwolle,Overijssel,VBO,6.123013,52.510649
Dokter van Deenweg,30,C,,8025BA,Zwolle,Zwolle,Overijssel,VBO,6.122923,52.510705
Dokter van Deenweg,30,D,,8025BA,Zwolle,Zwolle,Overijssel,VBO,6.122793,52.510701
Dokter van Deenweg,30,E,,8025BA,Zwolle,Zwolle,Overijssel,VBO,6.122744,52.510686
Dokter van Deenweg,30,F,,8025BA,Zwolle,Zwolle,Overijssel,VBO,6.122684,52.510592
Dokter van Deenweg,30,,,8025BA,Zwolle,Zwolle,Overijssel,VBO,6.122850,52.510612
Dokter van Deenweg,30,,,8025BA,Zwolle,Zwolle,Overijssel,VBO,6.122974,52.510566
Dokter van Deenweg,32,A,,8025BA,Zwolle,Zwolle,Overijssel,VBO,6.122932,52.510618
Dokter van Deenweg,32,B,,8025BA,Zwolle,Zwolle,Overijssel,VBO,6.122912,52.510645
Dokter van Deenweg,32,C,,8025BA,Zwolle,Zwolle,Overijssel,VBO,6.122885,52.510650
Dokter van Deenweg,32,D,,8025BA,Zwolle,Zwolle,Overijssel,VBO,6.122807,52.510679
Dokter van Deenweg,32,E,,8025BA,Zwolle,Zwolle,Overijssel,VBO,6.122775,52.510661
Dokter van Deenweg,32,F,,8025BA,Zwolle,Zwolle,Overijssel,VBO,6.122726,52.510602
Dokter van Deenweg,32,,,8025BA,Zwolle,Zwolle,Overijssel,VBO,6.122898,52.510613
Dokter van Deenweg,32,,,8025BA,Zwolle,Zwolle,Overijssel,VBO,6.122944,52.510550
Dokter van Deenweg,34,A,,8025BA,Zwolle,Zwolle,Overijssel,VBO,6.122792,52.510624
Dokter van Deenweg,34,,,8025BA,Zwolle,Zwolle,Overijssel,VBO,6.122830,52.510643
Dokter van Deenweg,34,,,8025BA,Zwolle,Zwolle,Overijssel,VBO,6.122872,52.510642
Dokter van Deenweg,38,,,8025BB,Zwolle,Zwolle,Overijssel,VBO,6.122360,52.510432
Dokter van Deenweg,40,,,8025BB,Zwolle,Zwolle,Overijssel,VBO,6.122310,52.510440
Dokter van Deenweg,42,,,8025BB,Zwolle,Zwolle,Overijssel,VBO,6.122263,52.510448
Dokter van Deenweg,44,,,8025BB,Zwolle,Zwolle,Overijssel,VBO,6.122220,52.510460
Dokter van Deenweg,46,,,8025BB,Zwolle,Zwolle,Overijssel,VBO,6.122175,52.510473
Dokter van Deenweg,50,,,8025BC,Zwolle,Zwolle,Overijssel,VBO,6.122604,52.510148
Dokter van Deenweg,52,,,8025BC,Zwolle,Zwolle,Overijssel,VBO,6.122589,52.510117
Dokter van Deenweg,54,,,8025BC,Zwolle,Zwolle,Overijssel,VBO,6.122572,52.510091
Dokter van Deenweg,56,A,,8025BC,Zwolle,Zwolle,Overijssel,VBO,6.122611,52.510058
Dokter van Deenweg,56,,,8025BC,Zwolle,Zwolle,Overijssel,VBO,6.122489,52.510091
Dokter van Deenweg,58,,,8025BC,Zwolle,Zwolle,Overijssel,VBO,6.122551,52.510048
Dokter van Deenweg,62,,,8025BD,Zwolle,Zwolle,Overijssel,VBO,6.122957,52.509571
Dokter van Deenweg,64,,,8025BD,Zwolle,Zwolle,Overijssel,VBO,6.122953,52.509552
Dokter van Deenweg,66,,,8025BD,Zwolle,Zwolle,Overijssel,VBO,6.122949,52.509531
Dokter van Deenweg,68,,,8025BD,Zwolle,Zwolle,Overijssel,VBO,6.122937,52.509511
Dokter van Deenweg,70,,,8025BD,Zwolle,Zwolle,Overijssel,VBO,6.122925,52.509484
Dokter van Deenweg,14,,,8025BE,Zwolle,Zwolle,Overijssel,VBO,6.123410,52.510738
Dokter van Deenweg,16,,,8025BE,Zwolle,Zwolle,Overijssel,VBO,6.123422,52.510757
Dokter van Deenweg,18,,,8025BE,Zwolle,Zwolle,Overijssel,VBO,6.123433,52.510776
Dokter van Deenweg,20,,,8025BE,Zwolle,Zwolle,Overijssel,VBO,6.123443,52.510795
Dokter van Deenweg,22,,,8025BE,Zwolle,Zwolle,Overijssel,VBO,6.123445,52.510815
Dokter van Deenweg,2,T,1,8025BG,Zwolle,Zwolle,Overijssel,VBO,6.123854,52.510365
Dokter van Deenweg,2,,,8025BG,Zwolle,Zwolle,Overijssel,VBO,6.123943,52.510447
Dokter van Deenweg,4,,,8025BG,Zwolle,Zwolle,Overijssel,VBO,6.123962,52.510455
Dokter van Deenweg,6,,,8025BG,Zwolle,Zwolle,Overijssel,VBO,6.123978,52.510448
Dokter van Deenweg,8,,,8025BG,Zwolle,Zwolle,Overijssel,VBO,6.123999,52.510458
Dokter van Deenweg,10,,,8025BG,Zwolle,Zwolle,Overijssel,VBO,6.124023,52.510445
Dokter van Deenweg,74,,,8025BH,Zwolle,Zwolle,Overijssel,VBO,6.123664,52.509795
Dokter van Deenweg,76,,,8025BH,Zwolle,Zwolle,Overijssel,VBO,6.123649,52.509822
Dokter van Deenweg,78,,,8025BH,Zwolle,Zwolle,Overijssel,VBO,6.123633,52.509847
Dokter van Deenweg,80,,,8025BH,Zwolle,Zwolle,Overijssel,VBO,6.123627,52.509871
Dokter van Deenweg,82,,,8025BH,Zwolle,Zwolle,Overijssel,VBO,6.123610,52.509905
Dokter van Deenweg,96,,,8025BJ,Zwolle,Zwolle,Overijssel,VBO,6.123179,52.509100
Dokter van Deenweg,98,,,8025BJ,Zwolle,Zwolle,Overijssel,VBO,6.123210,52.509228
Dokter van Deenweg,100,,,8025BJ,Zwolle,Zwolle,Overijssel,VBO,6.123187,52.509135
Dokter van Deenweg,102,,,8025BJ,Zwolle,Zwolle,Overijssel,VBO,6.123185,52.509157
Dokter van Deenweg,104,,,8025BJ,Zwolle,Zwolle,Overijssel,VBO,6.123185,52.509175
Dokter van Deenweg,108,,,8025BK,Zwolle,Zwolle,Overijssel,VBO,6.123747,52.508787
Dokter van Deenweg,110,,,8025BK,Zwolle,Zwolle,Overijssel,VBO,6.123715,52.508819
Dokter van Deenweg,112,,,8025BK,Zwolle,Zwolle,Overijssel,VBO,6.123397,52.508869
Dokter van Deenweg,114,,,8025BK,Zwolle,Zwolle,Overijssel,VBO,6.123428,52.508804
Dokter van Deenweg,116,,,8025BK,Zwolle,Zwolle,Overijssel,VBO,6.123472,52.508750
Dokter van Deenweg,84,,,8025BL,Zwolle,Zwolle,Overijssel,VBO,6.123994,52.509388
Dokter van Deenweg,86,,,8025BL,Zwolle,Zwolle,Overijssel,VBO,6.123973,52.509412
Dokter van Deenweg,88,,,8025BL,Zwolle,Zwolle,Overijssel,VBO,6.123966,52.509433
Dokter van Deenweg,90,,,8025BL,Zwolle,Zwolle,Overijssel,VBO,6.123936,52.509454
Dokter van Deenweg,92,,,8025BL,Zwolle,Zwolle,Overijssel,VBO,6.123916,52.509472
Dokter van Deenweg,130,,,8025BM,Zwolle,Zwolle,Overijssel,VBO,6.124489,52.508670
Dokter van Deenweg,132,,,8025BM,Zwolle,Zwolle,Overijssel,VBO,6.124506,52.508616
Dokter van Deenweg,134,,,8025BM,Zwolle,Zwolle,Overijssel,VBO,6.124569,52.508559
Dokter van Deenweg,136,,,8025BM,Zwolle,Zwolle,Overijssel,VBO,6.124650,52.508497
Dokter van Deenweg,138,,,8025BM,Zwolle,Zwolle,Overijssel,VBO,6.124664,52.508430
Dokter van Deenweg,140,,,8025BM,Zwolle,Zwolle,Overijssel,VBO,6.124440,52.507833
Dokter van Deenweg,142,,,8025BM,Zwolle,Zwolle,Overijssel,VBO,6.124366,52.507916
Dokter van Deenweg,144,,,8025BM,Zwolle,Zwolle,Overijssel,VBO,6.124264,52.508022
Dokter van Deenweg,146,,,8025BM,Zwolle,Zwolle,Overijssel,VBO,6.124352,52.507815
Dokter van Deenweg,148,,,8025BM,Zwolle,Zwolle,Overijssel,VBO,6.124262,52.507915
Dokter van Deenweg,150,,,8025BM,Zwolle,Zwolle,Overijssel,VBO,6.124150,52.508010
Dokter van Deenweg,152,,,8025BM,Zwolle,Zwolle,Overijssel,VBO,6.124672,52.507899
Dokter van Deenweg,154,,,8025BM,Zwolle,Zwolle,Overijssel,VBO,6.124635,52.507936
Dokter van Deenweg,156,,,8025BM,Zwolle,Zwolle,Overijssel,VBO,6.124593,52.507979
Dokter van Deenweg,158,,,8025BM,Zwolle,Zwolle,Overijssel,VBO,6.124995,52.508071
Dokter van Deenweg,160,,,8025BM,Zwolle,Zwolle,Overijssel,VBO,6.124957,52.508126
Dokter van Deenweg,162,,,8025BM,Zwolle,Zwolle,Overijssel,VBO,6.125175,52.507448
Dokter van Deenweg,164,,,8025BM,Zwolle,Zwolle,Overijssel,VBO,6.125095,52.507428
Dokter van Deenweg,166,,,8025BM,Zwolle,Zwolle,Overijssel,VBO,6.125021,52.507404
Dokter van Deenweg,168,,,8025BM,Zwolle,Zwolle,Overijssel,VBO,6.124941,52.507378
Dokter van Deenweg,170,,,8025BM,Zwolle,Zwolle,Overijssel,VBO,6.124870,52.507362
Dokter van Deenweg,172,,,8025BM,Zwolle,Zwolle,Overijssel,VBO,6.124812,52.507339
Dokter van Deenweg,174,,,8025BM,Zwolle,Zwolle,Overijssel,VBO,6.124974,52.507040
Dokter van Deenweg,176,,,8025BM,Zwolle,Zwolle,Overijssel,VBO,6.124952,52.507085
Dokter van Deenweg,178,,,8025BM,Zwolle,Zwolle,Overijssel,VBO,6.124924,52.507127
Dokter van Deenweg,180,,,8025BM,Zwolle,Zwolle,Overijssel,VBO,6.124888,52.507177
Dokter van Deenweg,182,,,8025BM,Zwolle,Zwolle,Overijssel,VBO,6.124863,52.507224
Dokter van Deenweg,184,,,8025BM,Zwolle,Zwolle,Overijssel,VBO,6.124833,52.507275
Dokter van Deenweg,186,,,8025BM,Zwolle,Zwolle,Overijssel,VBO,6.125404,52.506956
Dokter van Deenweg,118,,,8025BN,Zwolle,Zwolle,Overijssel,VBO,6.123933,52.508419
Dokter van Deenweg,120,,,8025BN,Zwolle,Zwolle,Overijssel,VBO,6.123930,52.508392
Dokter van Deenweg,122,,,8025BN,Zwolle,Zwolle,Overijssel,VBO,6.123929,52.508369
Dokter van Deenweg,124,,,8025BN,Zwolle,Zwolle,Overijssel,VBO,6.123928,52.508343
Dokter van Deenweg,126,,,8025BN,Zwolle,Zwolle,Overijssel,VBO,6.123926,52.508320
Dokter van Deenweg,128,,,8025BN,Zwolle,Zwolle,Overijssel,VBO,6.123922,52.508294
Dokter van Deenweg,1,,,8025BP,Zwolle,Zwolle,Overijssel,VBO,6.124679,52.510094
Dokter van Deenweg,3,,,8025BP,Zwolle,Zwolle,Overijssel,VBO,6.124706,52.510111
Dokter van Deenweg,5,,,8025BP,Zwolle,Zwolle,Overijssel,VBO,6.124735,52.510128
Dokter van Deenweg,7,,,8025BP,Zwolle,Zwolle,Overijssel,VBO,6.124758,52.510141
Dokter van Deenweg,9,,,8025BP,Zwolle,Zwolle,Overijssel,VBO,6.124786,52.510155
Dokter van Deenweg,11,,,8025BP,Zwolle,Zwolle,Overijssel,VBO,6.124815,52.510163
Dokter van Deenweg,13,A,,8025BP,Zwolle,Zwolle,Overijssel,VBO,6.125534,52.508184
Dokter van Deenweg,13,B,,8025BP,Zwolle,Zwolle,Overijssel,VBO,6.125589,52.508202
Dokter van Deenweg,13,C,,8025BP,Zwolle,Zwolle,Overijssel,VBO,6.125639,52.508220
Dokter van Deenweg,13,,,8025BP,Zwolle,Zwolle,Overijssel,VBO,6.125485,52.508168
Dokter Klinkertweg,1,,,8025BR,Zwolle,Zwolle,Overijssel,VBO,6.125016,52.509367
Dokter Klinkertweg,3,,,8025BR,Zwolle,Zwolle,Overijssel,VBO,6.125014,52.509397
Dokter Klinkertweg,5,,,8025BR,Zwolle,Zwolle,Overijssel,VBO,6.125015,52.509426
Dokter Klinkertweg,7,,,8025BR,Zwolle,Zwolle,Overijssel,VBO,6.125009,52.509452
Dokter Klinkertweg,21,,,8025BR,Zwolle,Zwolle,Overijssel,VBO,6.126232,52.509678
Dokter Klinkertweg,23,,,8025BR,Zwolle,Zwolle,Overijssel,VBO,6.126219,52.509699
Dokter Klinkertweg,25,,,8025BR,Zwolle,Zwolle,Overijssel,VBO,6.126201,52.509728
Dokter Klinkertweg,27,,,8025BR,Zwolle,Zwolle,Overijssel,VBO,6.126189,52.509754
Dokter Klinkertweg,2,T,1,8025BS,Zwolle,Zwolle,Overijssel,VBO,6.125341,52.508647
Dokter Klinkertweg,2,,,8025BS,Zwolle,Zwolle,Overijssel,VBO,6.125310,52.509036
Dokter Klinkertweg,4,,,8025BS,Zwolle,Zwolle,Overijssel,VBO,6.125250,52.508995
Dokter Klinkertweg,6,,,8025BS,Zwolle,Zwolle,Overijssel,VBO,6.125266,52.508972
Dokter Klinkertweg,8,,,8025BS,Zwolle,Zwolle,Overijssel,VBO,6.125277,52.508950
Dokter Klinkertweg,10,,,8025BS,Zwolle,Zwolle,Overijssel,VBO,6.125297,52.508922
Dokter Klinkertweg,12,,,8025BS,Zwolle,Zwolle,Overijssel,VBO,6.125877,52.509172
Dokter Klinkertweg,14,,,8025BS,Zwolle,Zwolle,Overijssel,VBO,6.125891,52.509151
Dokter Klinkertweg,16,,,8025BS,Zwolle,Zwolle,Overijssel,VBO,6.125905,52.509131
Dokter Klinkertweg,18,,,8025BS,Zwolle,Zwolle,Overijssel,VBO,6.125920,52.509111
Dokter Klinkertweg,20,,,8025BS,Zwolle,Zwolle,Overijssel,VBO,6.125934,52.509091
Dokter Klinkertweg,22,,,8025BS,Zwolle,Zwolle,Overijssel,VBO,6.126532,52.509330
Dokter Klinkertweg,24,,,8025BS,Zwolle,Zwolle,Overijssel,VBO,6.126542,52.509308
Dokter Klinkertweg,26,,,8025BS,Zwolle,Zwolle,Overijssel,VBO,6.126552,52.509288
Dokter Klinkertweg,28,,,8025BS,Zwolle,Zwolle,Overijssel,VBO,6.126564,52.509268
Dokter Klinkertweg,30,,,8025BS,Zwolle,Zwolle,Overijssel,VBO,6.126578,52.509249
Dokter Klinkertweg,32,,,8025BS,Zwolle,Zwolle,Overijssel,VBO,6.127564,52.509613
Dokter Klinkertweg,34,,,8025BS,Zwolle,Zwolle,Overijssel,VBO,6.128125,52.509435
Dokter Spanjaardweg,1,A,,8025BT,Zwolle,Zwolle,Overijssel,VBO,6.122313,52.511436
Dokter Spanjaardweg,1,,,8025BT,Zwolle,Zwolle,Overijssel,VBO,6.122221,52.511375
Dokter Spanjaardweg,2,,,8025BT,Zwolle,Zwolle,Overijssel,VBO,6.125607,52.510600
Dokter Spanjaardweg,4,,,8025BT,Zwolle,Zwolle,Overijssel,VBO,6.125612,52.510579
Dokter Spanjaardweg,6,,,8025BT,Zwolle,Zwolle,Overijssel,VBO,6.125622,52.510561
Dokter Spanjaardweg,8,,,8025BT,Zwolle,Zwolle,Overijssel,VBO,6.125629,52.510536
Dokter Spanjaardweg,9,D,1,8025BT,Zwolle,Zwolle,Overijssel,VBO,6.123266,52.511758
Dokter Spanjaardweg,9,T,1,8025BT,Zwolle,Zwolle,Overijssel,VBO,6.123107,52.511718
Dokter Spanjaardweg,11,A,,8025BT,Zwolle,Zwolle,Overijssel,VBO,6.123926,52.511381
Dokter Spanjaardweg,11,B,,8025BT,Zwolle,Zwolle,Overijssel,VBO,6.124077,52.511179
Dokter Spanjaardweg,11,C,,8025BT,Zwolle,Zwolle,Overijssel,VBO,6.124153,52.511425
Dokter Spanjaardweg,11,,,8025BT,Zwolle,Zwolle,Overijssel,VBO,6.124119,52.511298
Dokter Spanjaardweg,12,,,8025BT,Zwolle,Zwolle,Overijssel,VBO,6.126497,52.510489
Dokter Spanjaardweg,19,A,,8025BT,Zwolle,Zwolle,Overijssel,VBO,6.124470,52.511020
Dokter Spanjaardweg,19,,,8025BT,Zwolle,Zwolle,Overijssel,VBO,6.124361,52.510991
Dokter Spanjaardweg,21,,,8025BT,Zwolle,Zwolle,Overijssel,VBO,6.124474,52.510973
Dokter Spanjaardweg,23,,,8025BT,Zwolle,Zwolle,Overijssel,VBO,6.124512,52.510944
Dokter Spanjaardweg,25,,,8025BT,Zwolle,Zwolle,Overijssel,VBO,6.124558,52.510912
Dokter Spanjaardweg,27,,,8025BT,Zwolle,Zwolle,Overijssel,VBO,6.124641,52.510908
Dokter Spanjaardweg,29,T,1,8025BT,Zwolle,Zwolle,Overijssel,VBO,6.126689,52.511387
Dokter Spanjaardweg,29,,,8025BT,Zwolle,Zwolle,Overijssel,VBO,6.125813,52.511121
Dokter Denekampweg,20,,,8025BV,Zwolle,Zwolle,Overijssel,VBO,6.125188,52.516398
Dokter Eeftinck Schattenkerkweg,1,,,8025BW,Zwolle,Zwolle,Overijssel,VBO,6.127323,52.509356
Dokter Eeftinck Schattenkerkweg,27,,,8025BW,Zwolle,Zwolle,Overijssel,VBO,6.129056,52.506813
Dokter Eeftinck Schattenkerkweg,29,,,8025BW,Zwolle,Zwolle,Overijssel,VBO,6.129018,52.506852
Dokter Eeftinck Schattenkerkweg,31,,,8025BW,Zwolle,Zwolle,Overijssel,VBO,6.128990,52.506887
Dokter Eeftinck Schattenkerkweg,33,,,8025BW,Zwolle,Zwolle,Overijssel,VBO,6.128966,52.506914
Dokter Eeftinck Schattenkerkweg,35,,,8025BW,Zwolle,Zwolle,Overijssel,VBO,6.128939,52.506952
Dokter Eeftinck Schattenkerkweg,37,,,8025BW,Zwolle,Zwolle,Overijssel,VBO,6.128912,52.506989
Dokter Eeftinck Schattenkerkweg,39,,,8025BW,Zwolle,Zwolle,Overijssel,VBO,6.128878,52.507027
Dokter Eeftinck Schattenkerkweg,41,,,8025BW,Zwolle,Zwolle,Overijssel,VBO,6.128845,52.507065
Dokter Eeftinck Schattenkerkweg,43,,,8025BW,Zwolle,Zwolle,Overijssel,VBO,6.128811,52.507107
Dokter Eeftinck Schattenkerkweg,45,,,8025BW,Zwolle,Zwolle,Overijssel,VBO,6.128782,52.507157
Dokter Eeftinck Schattenkerkweg,47,,,8025BW,Zwolle,Zwolle,Overijssel,VBO,6.129098,52.507265
Dokter Eeftinck Schattenkerkweg,49,,,8025BW,Zwolle,Zwolle,Overijssel,VBO,6.129130,52.507231
Dokter Eeftinck Schattenkerkweg,51,,,8025BW,Zwolle,Zwolle,Overijssel,VBO,6.129152,52.507199
Dokter Eeftinck Schattenkerkweg,53,,,8025BW,Zwolle,Zwolle,Overijssel,VBO,6.129177,52.507169
Dokter Eeftinck Schattenkerkweg,55,,,8025BW,Zwolle,Zwolle,Overijssel,VBO,6.129195,52.507143
Dokter Eeftinck Schattenkerkweg,57,,,8025BW,Zwolle,Zwolle,Overijssel,VBO,6.129227,52.507109
Dokter Eeftinck Schattenkerkweg,59,,,8025BW,Zwolle,Zwolle,Overijssel,VBO,6.129253,52.507074
Dokter Eeftinck Schattenkerkweg,61,,,8025BW,Zwolle,Zwolle,Overijssel,VBO,6.129275,52.507048
Dokter Eeftinck Schattenkerkweg,63,,,8025BW,Zwolle,Zwolle,Overijssel,VBO,6.129292,52.507019
Dokter Eeftinck Schattenkerkweg,65,,,8025BW,Zwolle,Zwolle,Overijssel,VBO,6.129319,52.506986
Dokter Eeftinck Schattenkerkweg,67,,,8025BW,Zwolle,Zwolle,Overijssel,VBO,6.129098,52.506824
Dokter Eeftinck Schattenkerkweg,69,,,8025BW,Zwolle,Zwolle,Overijssel,VBO,6.129066,52.506865
Dokter Eeftinck Schattenkerkweg,71,,,8025BW,Zwolle,Zwolle,Overijssel,VBO,6.129037,52.506901
Dokter Eeftinck Schattenkerkweg,73,,,8025BW,Zwolle,Zwolle,Overijssel,VBO,6.129014,52.506932
Dokter Eeftinck Schattenkerkweg,75,,,8025BW,Zwolle,Zwolle,Overijssel,VBO,6.128985,52.506966
Dokter Eeftinck Schattenkerkweg,77,,,8025BW,Zwolle,Zwolle,Overijssel,VBO,6.128951,52.507001
Dokter Eeftinck Schattenkerkweg,79,,,8025BW,Zwolle,Zwolle,Overijssel,VBO,6.128922,52.507042
Dokter Eeftinck Schattenkerkweg,81,,,8025BW,Zwolle,Zwolle,Overijssel,VBO,6.128884,52.507083
Dokter Eeftinck Schattenkerkweg,83,,,8025BW,Zwolle,Zwolle,Overijssel,VBO,6.128855,52.507124
Dokter Eeftinck Schattenkerkweg,85,,,8025BW,Zwolle,Zwolle,Overijssel,VBO,6.128814,52.507170
Dokter Eeftinck Schattenkerkweg,87,,,8025BW,Zwolle,Zwolle,Overijssel,VBO,6.129147,52.507266
Dokter Eeftinck Schattenkerkweg,89,,,8025BW,Zwolle,Zwolle,Overijssel,VBO,6.129183,52.507228
Dokter Eeftinck Schattenkerkweg,91,,,8025BW,Zwolle,Zwolle,Overijssel,VBO,6.129203,52.507197
Dokter Eeftinck Schattenkerkweg,93,,,8025BW,Zwolle,Zwolle,Overijssel,VBO,6.129230,52.507161
Dokter Eeftinck Schattenkerkweg,95,,,8025BW,Zwolle,Zwolle,Overijssel,VBO,6.129250,52.507135
Dokter Eeftinck Schattenkerkweg,97,,,8025BW,Zwolle,Zwolle,Overijssel,VBO,6.129284,52.507104
Dokter Eeftinck Schattenkerkweg,99,,,8025BW,Zwolle,Zwolle,Overijssel,VBO,6.129300,52.507071
Dokter Eeftinck Schattenkerkweg,101,,,8025BW,Zwolle,Zwolle,Overijssel,VBO,6.129326,52.507038
Dokter Eeftinck Schattenkerkweg,103,,,8025BW,Zwolle,Zwolle,Overijssel,VBO,6.129358,52.506998
Dokter Eeftinck Schattenkerkweg,105,,,8025BW,Zwolle,Zwolle,Overijssel,VBO,6.129387,52.506963
Dokter van Lookeren Campagneweg,1,,,8025BX,Zwolle,Zwolle,Overijssel,VBO,6.126052,52.507768
Dokter van Lookeren Campagneweg,2,A,,8025BX,Zwolle,Zwolle,Overijssel,VBO,6.126883,52.507423
Dokter van Lookeren Campagneweg,2,,,8025BX,Zwolle,Zwolle,Overijssel,VBO,6.126549,52.507339
Dokter van Lookeren Campagneweg,3,,,8025BX,Zwolle,Zwolle,Overijssel,VBO,6.126064,52.507740
Dokter van Lookeren Campagneweg,4,A,,8025BX,Zwolle,Zwolle,Overijssel,VBO,6.126897,52.507396
Dokter van Lookeren Campagneweg,4,,,8025BX,Zwolle,Zwolle,Overijssel,VBO,6.126563,52.507312
Dokter van Lookeren Campagneweg,5,,,8025BX,Zwolle,Zwolle,Overijssel,VBO,6.126090,52.507716
Dokter van Lookeren Campagneweg,6,A,,8025BX,Zwolle,Zwolle,Overijssel,VBO,6.126907,52.507366
Dokter van Lookeren Campagneweg,6,,,8025BX,Zwolle,Zwolle,Overijssel,VBO,6.126580,52.507282
Dokter van Lookeren Campagneweg,7,,,8025BX,Zwolle,Zwolle,Overijssel,VBO,6.126116,52.507684
Dokter van Lookeren Campagneweg,8,A,,8025BX,Zwolle,Zwolle,Overijssel,VBO,6.126917,52.507343
Dokter van Lookeren Campagneweg,8,,,8025BX,Zwolle,Zwolle,Overijssel,VBO,6.126596,52.507251
Dokter van Lookeren Campagneweg,9,,,8025BX,Zwolle,Zwolle,Overijssel,VBO,6.126552,52.507833
Dokter van Lookeren Campagneweg,10,A,,8025BX,Zwolle,Zwolle,Overijssel,VBO,6.127551,52.507626
Dokter van Lookeren Campagneweg,10,,,8025BX,Zwolle,Zwolle,Overijssel,VBO,6.127213,52.507522
Dokter van Lookeren Campagneweg,11,,,8025BX,Zwolle,Zwolle,Overijssel,VBO,6.126530,52.507861
Dokter van Lookeren Campagneweg,12,A,,8025BX,Zwolle,Zwolle,Overijssel,VBO,6.127567,52.507596
Dokter van Lookeren Campagneweg,12,,,8025BX,Zwolle,Zwolle,Overijssel,VBO,6.127223,52.507496
Dokter van Lookeren Campagneweg,13,,,8025BX,Zwolle,Zwolle,Overijssel,VBO,6.126504,52.507883
Dokter van Lookeren Campagneweg,14,A,,8025BX,Zwolle,Zwolle,Overijssel,VBO,6.127582,52.507565
Dokter van Lookeren Campagneweg,14,,,8025BX,Zwolle,Zwolle,Overijssel,VBO,6.127237,52.507463
Dokter van Lookeren Campagneweg,15,,,8025BX,Zwolle,Zwolle,Overijssel,VBO,6.126485,52.507901
Dokter van Lookeren Campagneweg,16,A,,8025BX,Zwolle,Zwolle,Overijssel,VBO,6.127594,52.507540
Dokter van Lookeren Campagneweg,16,,,8025BX,Zwolle,Zwolle,Overijssel,VBO,6.127241,52.507437
Dokter van Lookeren Campagneweg,17,,,8025BX,Zwolle,Zwolle,Overijssel,VBO,6.126837,52.507909
Dokter van Lookeren Campagneweg,19,,,8025BX,Zwolle,Zwolle,Overijssel,VBO,6.126824,52.507935
Dokter van Lookeren Campagneweg,21,,,8025BX,Zwolle,Zwolle,Overijssel,VBO,6.126811,52.507963
Dokter van Lookeren Campagneweg,23,,,8025BX,Zwolle,Zwolle,Overijssel,VBO,6.126789,52.507990
Dokter van Wiechenweg,2,,,8025BZ,Zwolle,Zwolle,Overijssel,VBO,6.127248,52.506338
Dokter van Wiechenweg,8,A,,8025BZ,Zwolle,Zwolle,Overijssel,VBO,6.127700,52.506462
Dokter van Wiechenweg,8,B,,8025BZ,Zwolle,Zwolle,Overijssel,VBO,6.127711,52.506447
Dokter van Wiechenweg,8,C,,8025BZ,Zwolle,Zwolle,Overijssel,VBO,6.127724,52.506432
Dokter van Wiechenweg,10,,,8025BZ,Zwolle,Zwolle,Overijssel,VBO,6.127935,52.506529
Dokter van Wiechenweg,14,,,8025BZ,Zwolle,Zwolle,Overijssel,VBO,6.128512,52.506691
Wipstrikpark,2,,,8025CA,Zwolle,Zwolle,Overijssel,VBO,6.121696,52.506459
Wipstrikpark,4,,,8025CA,Zwolle,Zwolle,Overijssel,VBO,6.123469,52.505162
Wipstrikpark,6,,,8025CA,Zwolle,Zwolle,Overijssel,VBO,6.123599,52.505081
Wipstrikpark,8,,,8025CA,Zwolle,Zwolle,Overijssel,VBO,6.123694,52.504985
Wipstrikpark,10,,,8025CA,Zwolle,Zwolle,Overijssel,VBO,6.123770,52.504878
Wipstrikpark,12,,,8025CA,Zwolle,Zwolle,Overijssel,VBO,6.123698,52.504753
Wipstrikpark,14,,,8025CA,Zwolle,Zwolle,Overijssel,VBO,6.123555,52.504836
Wipstrikpark,16,,,8025CA,Zwolle,Zwolle,Overijssel,VBO,6.123472,52.504937
Wipstrikpark,18,,,8025CA,Zwolle,Zwolle,Overijssel,VBO,6.123409,52.505036
Wipstrikpark,1,,,8025CB,Zwolle,Zwolle,Overijssel,VBO,6.119692,52.506434
Wipstrikpark,3,,,8025CB,Zwolle,Zwolle,Overijssel,VBO,6.119742,52.506326
Wipstrikpark,5,,,8025CB,Zwolle,Zwolle,Overijssel,VBO,6.119847,52.506262
Wipstrikpark,7,,,8025CB,Zwolle,Zwolle,Overijssel,VBO,6.119989,52.506224
Wipstrikpark,9,,,8025CB,Zwolle,Zwolle,Overijssel,VBO,6.120226,52.506237
Wipstrikpark,11,,,8025CB,Zwolle,Zwolle,Overijssel,VBO,6.120348,52.506286
Wipstrikpark,13,,,8025CB,Zwolle,Zwolle,Overijssel,VBO,6.119705,52.506499
Wipstrikpark,15,,,8025CB,Zwolle,Zwolle,Overijssel,VBO,6.119727,52.506353
Wipstrikpark,17,,,8025CB,Zwolle,Zwolle,Overijssel,VBO,6.119820,52.506277
Wipstrikpark,19,,,8025CB,Zwolle,Zwolle,Overijssel,VBO,6.119941,52.506232
Wipstrikpark,21,,,8025CB,Zwolle,Zwolle,Overijssel,VBO,6.120153,52.506222
Wipstrikpark,23,,,8025CB,Zwolle,Zwolle,Overijssel,VBO,6.120383,52.506328
Wipstrikpark,25,,,8025CB,Zwolle,Zwolle,Overijssel,VBO,6.119729,52.506545
Wipstrikpark,27,,,8025CB,Zwolle,Zwolle,Overijssel,VBO,6.119710,52.506380
Wipstrikpark,29,,,8025CB,Zwolle,Zwolle,Overijssel,VBO,6.119798,52.506298
Wipstrikpark,31,,,8025CB,Zwolle,Zwolle,Overijssel,VBO,6.119907,52.506243
Wipstrikpark,33,,,8025CB,Zwolle,Zwolle,Overijssel,VBO,6.120068,52.506217
Wipstrikpark,35,,,8025CB,Zwolle,Zwolle,Overijssel,VBO,6.120408,52.506365
Wipstrikpark,37,,,8025CB,Zwolle,Zwolle,Overijssel,VBO,6.119923,52.506361
Wipstrikpark,39,,,8025CB,Zwolle,Zwolle,Overijssel,VBO,6.120043,52.506310
Wipstrikpark,41,,,8025CB,Zwolle,Zwolle,Overijssel,VBO,6.120224,52.506389
Wipstrikpark,43,,,8025CB,Zwolle,Zwolle,Overijssel,VBO,6.120767,52.506351
Wipstrikpark,45,,,8025CB,Zwolle,Zwolle,Overijssel,VBO,6.120988,52.506308
Wipstrikpark,47,,,8025CB,Zwolle,Zwolle,Overijssel,VBO,6.121208,52.506254
Wipstrikpark,49,,,8025CB,Zwolle,Zwolle,Overijssel,VBO,6.121425,52.506194
Wipstrikpark,51,,,8025CB,Zwolle,Zwolle,Overijssel,VBO,6.121639,52.506132
Wipstrikpark,53,,,8025CB,Zwolle,Zwolle,Overijssel,VBO,6.121844,52.506058
Wipstrikpark,55,,,8025CB,Zwolle,Zwolle,Overijssel,VBO,6.122049,52.505986
Wipstrikpark,57,,,8025CB,Zwolle,Zwolle,Overijssel,VBO,6.122239,52.505902
Wipstrikpark,59,,,8025CC,Zwolle,Zwolle,Overijssel,VBO,6.122655,52.505714
Wipstrikpark,61,,,8025CC,Zwolle,Zwolle,Overijssel,VBO,6.122500,52.505656
Wipstrikpark,63,,,8025CC,Zwolle,Zwolle,Overijssel,VBO,6.122479,52.505541
Wipstrikpark,65,,,8025CC,Zwolle,Zwolle,Overijssel,VBO,6.122514,52.505463
Wipstrikpark,67,,,8025CC,Zwolle,Zwolle,Overijssel,VBO,6.122590,52.505391
Wipstrikpark,69,,,8025CC,Zwolle,Zwolle,Overijssel,VBO,6.122728,52.505361
Wipstrikpark,71,,,8025CC,Zwolle,Zwolle,Overijssel,VBO,6.122852,52.505337
Wipstrikpark,73,,,8025CC,Zwolle,Zwolle,Overijssel,VBO,6.123019,52.505412
Wipstrikpark,75,,,8025CC,Zwolle,Zwolle,Overijssel,VBO,6.122611,52.505698
Wipstrikpark,77,,,8025CC,Zwolle,Zwolle,Overijssel,VBO,6.122457,52.505644
Wipstrikpark,79,,,8025CC,Zwolle,Zwolle,Overijssel,VBO,6.122487,52.505520
Wipstrikpark,81,,,8025CC,Zwolle,Zwolle,Overijssel,VBO,6.122525,52.505442
Wipstrikpark,83,,,8025CC,Zwolle,Zwolle,Overijssel,VBO,6.122626,52.505384
Wipstrikpark,85,,,8025CC,Zwolle,Zwolle,Overijssel,VBO,6.122768,52.505355
Wipstrikpark,87,,,8025CC,Zwolle,Zwolle,Overijssel,VBO,6.122892,52.505329
Wipstrikpark,89,,,8025CC,Zwolle,Zwolle,Overijssel,VBO,6.123042,52.505437
Wipstrikpark,91,,,8025CC,Zwolle,Zwolle,Overijssel,VBO,6.122575,52.505683
Wipstrikpark,93,,,8025CC,Zwolle,Zwolle,Overijssel,VBO,6.122413,52.505630
Wipstrikpark,95,,,8025CC,Zwolle,Zwolle,Overijssel,VBO,6.122499,52.505498
Wipstrikpark,97,,,8025CC,Zwolle,Zwolle,Overijssel,VBO,6.122537,52.505419
Wipstrikpark,99,,,8025CC,Zwolle,Zwolle,Overijssel,VBO,6.122668,52.505376
Wipstrikpark,101,,,8025CC,Zwolle,Zwolle,Overijssel,VBO,6.122800,52.505346
Wipstrikpark,103,,,8025CC,Zwolle,Zwolle,Overijssel,VBO,6.122933,52.505321
Wipstrikpark,105,,,8025CC,Zwolle,Zwolle,Overijssel,VBO,6.123057,52.505465
Wipstrikpark,107,,,8025CC,Zwolle,Zwolle,Overijssel,VBO,6.122680,52.505691
Wipstrikpark,109,,,8025CC,Zwolle,Zwolle,Overijssel,VBO,6.122535,52.505630
Wipstrikpark,111,,,8025CC,Zwolle,Zwolle,Overijssel,VBO,6.122542,52.505550
Wipstrikpark,113,,,8025CC,Zwolle,Zwolle,Overijssel,VBO,6.122577,52.505470
Wipstrikpark,115,,,8025CC,Zwolle,Zwolle,Overijssel,VBO,6.122639,52.505421
Wipstrikpark,117,,,8025CC,Zwolle,Zwolle,Overijssel,VBO,6.122756,52.505398
Wipstrikpark,119,,,8025CC,Zwolle,Zwolle,Overijssel,VBO,6.122879,52.505371
Wipstrikpark,121,,,8025CC,Zwolle,Zwolle,Overijssel,VBO,6.122974,52.505431
Wipstrikpark,123,,,8025CC,Zwolle,Zwolle,Overijssel,VBO,6.122605,52.505661
Wipstrikpark,125,,,8025CC,Zwolle,Zwolle,Overijssel,VBO,6.122442,52.505610
Wipstrikpark,127,,,8025CC,Zwolle,Zwolle,Overijssel,VBO,6.122561,52.505520
Wipstrikpark,129,,,8025CC,Zwolle,Zwolle,Overijssel,VBO,6.122588,52.505444
Wipstrikpark,131,,,8025CC,Zwolle,Zwolle,Overijssel,VBO,6.122684,52.505409
Wipstrikpark,133,,,8025CC,Zwolle,Zwolle,Overijssel,VBO,6.122806,52.505387
Wipstrikpark,135,,,8025CC,Zwolle,Zwolle,Overijssel,VBO,6.122954,52.505362
Wipstrikpark,137,,,8025CC,Zwolle,Zwolle,Overijssel,VBO,6.123009,52.505482
Wipstrikpark,139,,,8025CD,Zwolle,Zwolle,Overijssel,VBO,6.123038,52.505136
Wipstrikpark,141,,,8025CD,Zwolle,Zwolle,Overijssel,VBO,6.123037,52.505084
Wipstrikpark,143,,,8025CD,Zwolle,Zwolle,Overijssel,VBO,6.123080,52.504962
Wipstrikpark,145,,,8025CD,Zwolle,Zwolle,Overijssel,VBO,6.123108,52.504908
Wipstrikpark,147,,,8025CD,Zwolle,Zwolle,Overijssel,VBO,6.123176,52.504794
Wipstrikpark,149,,,8025CD,Zwolle,Zwolle,Overijssel,VBO,6.123216,52.504747
Wipstrikpark,151,,,8025CD,Zwolle,Zwolle,Overijssel,VBO,6.123324,52.504641
Wipstrikpark,153,,,8025CD,Zwolle,Zwolle,Overijssel,VBO,6.123385,52.504600
Wipstrikpark,155,,,8025CD,Zwolle,Zwolle,Overijssel,VBO,6.123529,52.504513
Wipstrikpark,157,,,8025CD,Zwolle,Zwolle,Overijssel,VBO,6.123603,52.504481
Wipstrikpark,159,,,8025CD,Zwolle,Zwolle,Overijssel,VBO,6.123766,52.504415
Wipstrikpark,161,,,8025CD,Zwolle,Zwolle,Overijssel,VBO,6.123850,52.504389
Wipstrikpark,163,,,8025CD,Zwolle,Zwolle,Overijssel,VBO,6.124063,52.504224
Wipstrikpark,165,,,8025CD,Zwolle,Zwolle,Overijssel,VBO,6.124064,52.504112
Wipstrikpark,167,,,8025CD,Zwolle,Zwolle,Overijssel,VBO,6.124259,52.503977
Wipstrikpark,169,,,8025CD,Zwolle,Zwolle,Overijssel,VBO,6.124377,52.503970
Wipstrikpark,171,,,8025CD,Zwolle,Zwolle,Overijssel,VBO,6.124494,52.503989
Wipstrikpark,173,,,8025CD,Zwolle,Zwolle,Overijssel,VBO,6.124612,52.504033
Wipstrikpark,175,,,8025CD,Zwolle,Zwolle,Overijssel,VBO,6.124057,52.504198
Wipstrikpark,177,,,8025CD,Zwolle,Zwolle,Overijssel,VBO,6.124074,52.504089
Wipstrikpark,179,,,8025CD,Zwolle,Zwolle,Overijssel,VBO,6.124308,52.503973
Wipstrikpark,181,,,8025CD,Zwolle,Zwolle,Overijssel,VBO,6.124426,52.503971
Wipstrikpark,183,,,8025CD,Zwolle,Zwolle,Overijssel,VBO,6.124540,52.503996
Wipstrikpark,185,,,8025CD,Zwolle,Zwolle,Overijssel,VBO,6.124642,52.504065
Wipstrikpark,187,,,8025CD,Zwolle,Zwolle,Overijssel,VBO,6.124057,52.504173
Wipstrikpark,189,,,8025CD,Zwolle,Zwolle,Overijssel,VBO,6.124093,52.504069
Wipstrikpark,191,,,8025CD,Zwolle,Zwolle,Overijssel,VBO,6.124263,52.504003
Wipstrikpark,193,,,8025CD,Zwolle,Zwolle,Overijssel,VBO,6.124380,52.503998
Wipstrikpark,195,,,8025CD,Zwolle,Zwolle,Overijssel,VBO,6.124493,52.504018
Wipstrikpark,197,,,8025CD,Zwolle,Zwolle,Overijssel,VBO,6.124654,52.504094
Wipstrikpark,199,,,8025CD,Zwolle,Zwolle,Overijssel,VBO,6.124116,52.504046
Wipstrikpark,201,,,8025CD,Zwolle,Zwolle,Overijssel,VBO,6.124401,52.504029
Wipstrikpark,203,,,8025CD,Zwolle,Zwolle,Overijssel,VBO,6.124633,52.504126
Stadionplein,1,,,8025CP,Zwolle,Zwolle,Overijssel,VBO,6.119882,52.517052
Stadionplein,2,,,8025CP,Zwolle,Zwolle,Overijssel,VBO,6.119746,52.517437
Stadionplein,3,,,8025CP,Zwolle,Zwolle,Overijssel,VBO,6.119723,52.517592
Stadionplein,4,,,8025CP,Zwolle,Zwolle,Overijssel,VBO,6.119699,52.517682
Stadionplein,5,,,8025CP,Zwolle,Zwolle,Overijssel,VBO,6.120225,52.517778
Stadionplein,6,,,8025CP,Zwolle,Zwolle,Overijssel,VBO,6.121014,52.517872
Stadionplein,7,A,,8025CP,Zwolle,Zwolle,Overijssel,VBO,6.121588,52.517896
Stadionplein,7,,,8025CP,Zwolle,Zwolle,Overijssel,VBO,6.121572,52.517941
Stadionplein,8,,,8025CP,Zwolle,Zwolle,Overijssel,VBO,6.121480,52.517682
Stadionplein,9,,,8025CP,Zwolle,Zwolle,Overijssel,VBO,6.121763,52.517681
Stadionplein,10,,,8025CP,Zwolle,Zwolle,Overijssel,VBO,6.121986,52.516942
Stadionplein,11,,,8025CP,Zwolle,Zwolle,Overijssel,VBO,6.121765,52.517629
Stadionplein,12,,,8025CP,Zwolle,Zwolle,Overijssel,VBO,6.122055,52.516715
Stadionplein,13,,,8025CP,Zwolle,Zwolle,Overijssel,VBO,6.121684,52.517029
Stadionplein,14,,,8025CP,Zwolle,Zwolle,Overijssel,VBO,6.121746,52.516836
Stadionplein,15,,,8025CP,Zwolle,Zwolle,Overijssel,VBO,6.121592,52.516616
Stadionplein,16,,,8025CP,Zwolle,Zwolle,Overijssel,VBO,6.122031,52.516504
Stadionplein,17,,,8025CP,Zwolle,Zwolle,Overijssel,VBO,6.121648,52.516389
Stadionplein,18,,,8025CP,Zwolle,Zwolle,Overijssel,VBO,6.121118,52.516333
Stadionplein,19,,,8025CP,Zwolle,Zwolle,Overijssel,VBO,6.120700,52.516255
Stadionplein,20,,,8025CP,Zwolle,Zwolle,Overijssel,VBO,6.120313,52.516223
Stadionplein,21,,,8025CP,Zwolle,Zwolle,Overijssel,VBO,6.120087,52.516436
Stadionplein,22,,,8025CP,Zwolle,Zwolle,Overijssel,VBO,6.120063,52.516504
Stadionplein,23,,,8025CP,Zwolle,Zwolle,Overijssel,VBO,6.120029,52.516597
Stadionplein,25,,,8025CP,Zwolle,Zwolle,Overijssel,VBO,6.122750,52.518044
