openbareruimtenaam,huisnummer,huisletter,huisnummertoevoeging,postcode,woonplaatsnaam,gemeentenaam,provincienaam,typeadresseerbaarobject,longitude,latitude
Nilantsweg,102,,,8041AA,Zwolle,Zwolle,Overijssel,VBO,6.055046,52.506018
Nilantsweg,104,,,8041AA,Zwolle,Zwolle,Overijssel,VBO,6.055041,52.506218
Nilantsweg,106,,,8041AA,Zwolle,Zwolle,Overijssel,VBO,6.055055,52.506392
Buitengasthuisstraat,8,,,8041AB,Zwolle,Zwolle,Overijssel,VBO,6.076372,52.515790
Buitengasthuisstraat,10,,,8041AB,Zwolle,Zwolle,Overijssel,VBO,6.076739,52.515520
Buitengasthuisstraat,12,,,8041AB,Zwolle,Zwolle,Overijssel,VBO,6.076771,52.515480
Buitengasthuisstraat,14,,,8041AB,Zwolle,Zwolle,Overijssel,VBO,6.076807,52.515435
Buitengasthuisstraat,16,,,8041AB,Zwolle,Zwolle,Overijssel,VBO,6.076845,52.515392
Buitengasthuisstraat,18,,,8041AB,Zwolle,Zwolle,Overijssel,VBO,6.076897,52.515334
Buitengasthuisstraat,20,,,8041AB,Zwolle,Zwolle,Overijssel,VBO,6.076860,52.515301
Buitengasthuisstraat,22,,,8041AB,Zwolle,Zwolle,Overijssel,VBO,6.076924,52.515300
Buitengasthuisstraat,24,,,8041AB,Zwolle,Zwolle,Overijssel,VBO,6.076881,52.515278
Buitengasthuisstraat,26,,,8041AB,Zwolle,Zwolle,Overijssel,VBO,6.076943,52.515272
Buitengasthuisstraat,28,,,8041AB,Zwolle,Zwolle,Overijssel,VBO,6.076897,52.515251
Buitengasthuisstraat,30,,,8041AB,Zwolle,Zwolle,Overijssel,VBO,6.076946,52.515231
Buitengasthuisstraat,32,,,8041AB,Zwolle,Zwolle,Overijssel,VBO,6.076930,52.515208
Buitengasthuisstraat,34,,,8041AB,Zwolle,Zwolle,Overijssel,VBO,6.077011,52.515214
Buitengasthuisstraat,36,,,8041AB,Zwolle,Zwolle,Overijssel,VBO,6.076975,52.515196
Buitengasthuisstraat,38,,,8041AB,Zwolle,Zwolle,Overijssel,VBO,6.076965,52.515169
Buitengasthuisstraat,40,,,8041AB,Zwolle,Zwolle,Overijssel,VBO,6.077047,52.515152
Buitengasthuisstraat,42,,,8041AB,Zwolle,Zwolle,Overijssel,VBO,6.077091,52.515094
Buitengasthuisstraat,44,,,8041AB,Zwolle,Zwolle,Overijssel,VBO,6.077126,52.515053
Buitengasthuisstraat,46,,,8041AB,Zwolle,Zwolle,Overijssel,VBO,6.077047,52.514995
Buitengasthuisstraat,48,,,8041AB,Zwolle,Zwolle,Overijssel,VBO,6.076980,52.514973
Buitengasthuisstraat,50,,,8041AB,Zwolle,Zwolle,Overijssel,VBO,6.076911,52.514952
Buitengasthuisstraat,52,,,8041AB,Zwolle,Zwolle,Overijssel,VBO,6.076845,52.514932
Buitengasthuisstraat,54,,,8041AB,Zwolle,Zwolle,Overijssel,VBO,6.076772,52.514908
Buitengasthuisstraat,56,,,8041AB,Zwolle,Zwolle,Overijssel,VBO,6.076706,52.514926
Buitengasthuisstraat,58,,,8041AB,Zwolle,Zwolle,Overijssel,VBO,6.076669,52.514967
Buitengasthuisstraat,60,,,8041AB,Zwolle,Zwolle,Overijssel,VBO,6.076633,52.515008
Buitengasthuisstraat,62,,,8041AB,Zwolle,Zwolle,Overijssel,VBO,6.076600,52.515054
Buitengasthuisstraat,64,,,8041AB,Zwolle,Zwolle,Overijssel,VBO,6.076564,52.515095
Buitengasthuisstraat,66,,,8041AB,Zwolle,Zwolle,Overijssel,VBO,6.076533,52.515138
Buitengasthuisstraat,68,,,8041AB,Zwolle,Zwolle,Overijssel,VBO,6.076498,52.515180
Buitengasthuisstraat,70,,,8041AB,Zwolle,Zwolle,Overijssel,VBO,6.076462,52.515224
Buitengasthuisstraat,72,,,8041AB,Zwolle,Zwolle,Overijssel,VBO,6.076423,52.515272
Buitengasthuisstraat,74,,,8041AB,Zwolle,Zwolle,Overijssel,VBO,6.076391,52.515309
Buitengasthuisstraat,76,,,8041AB,Zwolle,Zwolle,Overijssel,VBO,6.076358,52.515352
Buitengasthuisstraat,78,,,8041AB,Zwolle,Zwolle,Overijssel,VBO,6.076327,52.515396
Katwolderweg,1,B,,8041AC,Zwolle,Zwolle,Overijssel,VBO,6.075119,52.518120
Katwolderweg,1,,,8041AC,Zwolle,Zwolle,Overijssel,VBO,6.076739,52.517260
Katwolderweg,3,,,8041AC,Zwolle,Zwolle,Overijssel,VBO,6.075272,52.518452
Katwolderweg,7,,,8041AC,Zwolle,Zwolle,Overijssel,VBO,6.074821,52.518731
Katwolderweg,9,,,8041AC,Zwolle,Zwolle,Overijssel,VBO,6.074610,52.518864
Katwolderweg,11,,,8041AC,Zwolle,Zwolle,Overijssel,VBO,6.074470,52.518952
Katwolderweg,15,,,8041AC,Zwolle,Zwolle,Overijssel,VBO,6.073804,52.519070
Katwolderweg,17,,,8041AC,Zwolle,Zwolle,Overijssel,VBO,6.073452,52.519071
Katwolderweg,19,,,8041AC,Zwolle,Zwolle,Overijssel,VBO,6.073025,52.519073
Katwolderweg,6,T,2,8041AD,Zwolle,Zwolle,Overijssel,VBO,6.077131,52.519253
Katwolderweg,6,,,8041AD,Zwolle,Zwolle,Overijssel,VBO,6.077736,52.518291
Katwolderweg,8,A,,8041AD,Zwolle,Zwolle,Overijssel,VBO,6.075738,52.518843
Katwolderweg,8,B,,8041AD,Zwolle,Zwolle,Overijssel,VBO,6.075917,52.518940
Katwolderweg,8,C,,8041AD,Zwolle,Zwolle,Overijssel,VBO,6.076066,52.519034
Katwolderweg,8,,1,8041AD,Zwolle,Zwolle,Overijssel,VBO,6.075453,52.518803
Katwolderweg,8,,,8041AD,Zwolle,Zwolle,Overijssel,VBO,6.075514,52.518693
Katwolderweg,10,,,8041AD,Zwolle,Zwolle,Overijssel,VBO,6.073661,52.519322
Katwolderweg,12,T,1,8041AD,Zwolle,Zwolle,Overijssel,VBO,6.073443,52.519627
Katwolderweg,12,,,8041AD,Zwolle,Zwolle,Overijssel,VBO,6.073363,52.519492
Katwolderweg,14,,,8041AD,Zwolle,Zwolle,Overijssel,VBO,6.072905,52.519410
Gasthuisdijk,1,,,8041AE,Zwolle,Zwolle,Overijssel,VBO,6.074648,52.517067
Gasthuisdijk,11,,,8041AE,Zwolle,Zwolle,Overijssel,VBO,6.072390,52.517955
Gasthuisdijk,13,,,8041AE,Zwolle,Zwolle,Overijssel,VBO,6.071814,52.518258
Gasthuisdijk,15,,,8041AE,Zwolle,Zwolle,Overijssel,VBO,6.070606,52.519462
Gasthuisdijk,17,T,1,8041AE,Zwolle,Zwolle,Overijssel,VBO,6.069863,52.519503
Gasthuisdijk,17,,,8041AE,Zwolle,Zwolle,Overijssel,VBO,6.070114,52.519643
Gasthuisdijk,25,A,,8041AE,Zwolle,Zwolle,Overijssel,VBO,6.069500,52.520162
Gasthuisdijk,25,B,,8041AE,Zwolle,Zwolle,Overijssel,VBO,6.069444,52.520110
Gasthuisdijk,25,C,,8041AE,Zwolle,Zwolle,Overijssel,VBO,6.069317,52.520155
Gasthuisdijk,25,D,,8041AE,Zwolle,Zwolle,Overijssel,VBO,6.069373,52.520211
Gasthuisdijk,25,,,8041AE,Zwolle,Zwolle,Overijssel,VBO,6.069464,52.520209
Gasthuisdijk,2,A,,8041AG,Zwolle,Zwolle,Overijssel,VBO,6.076212,52.517044
Gasthuisdijk,2,,,8041AG,Zwolle,Zwolle,Overijssel,VBO,6.075813,52.517334
Gasthuisdijk,6,,1,8041AG,Zwolle,Zwolle,Overijssel,VBO,6.075098,52.517720
Gasthuisdijk,6,,10,8041AG,Zwolle,Zwolle,Overijssel,VBO,6.075292,52.517834
Gasthuisdijk,6,,11,8041AG,Zwolle,Zwolle,Overijssel,VBO,6.075315,52.517846
Gasthuisdijk,6,,12,8041AG,Zwolle,Zwolle,Overijssel,VBO,6.075335,52.517858
Gasthuisdijk,6,,13,8041AG,Zwolle,Zwolle,Overijssel,VBO,6.075351,52.517871
Gasthuisdijk,6,,14,8041AG,Zwolle,Zwolle,Overijssel,VBO,6.075372,52.517886
Gasthuisdijk,6,,15,8041AG,Zwolle,Zwolle,Overijssel,VBO,6.075394,52.517898
Gasthuisdijk,6,,16,8041AG,Zwolle,Zwolle,Overijssel,VBO,6.075428,52.517907
Gasthuisdijk,6,,17,8041AG,Zwolle,Zwolle,Overijssel,VBO,6.075445,52.517921
Gasthuisdijk,6,,18,8041AG,Zwolle,Zwolle,Overijssel,VBO,6.075465,52.517936
Gasthuisdijk,6,,19,8041AG,Zwolle,Zwolle,Overijssel,VBO,6.075488,52.517948
Gasthuisdijk,6,,2,8041AG,Zwolle,Zwolle,Overijssel,VBO,6.075117,52.517735
Gasthuisdijk,6,,20,8041AG,Zwolle,Zwolle,Overijssel,VBO,6.075514,52.517957
Gasthuisdijk,6,,21,8041AG,Zwolle,Zwolle,Overijssel,VBO,6.075530,52.517971
Gasthuisdijk,6,,22,8041AG,Zwolle,Zwolle,Overijssel,VBO,6.075551,52.517986
Gasthuisdijk,6,,23,8041AG,Zwolle,Zwolle,Overijssel,VBO,6.075573,52.517997
Gasthuisdijk,6,,24,8041AG,Zwolle,Zwolle,Overijssel,VBO,6.075601,52.518004
Gasthuisdijk,6,,25,8041AG,Zwolle,Zwolle,Overijssel,VBO,6.075617,52.518018
Gasthuisdijk,6,,26,8041AG,Zwolle,Zwolle,Overijssel,VBO,6.075639,52.518032
Gasthuisdijk,6,,27,8041AG,Zwolle,Zwolle,Overijssel,VBO,6.075038,52.517751
Gasthuisdijk,6,,28,8041AG,Zwolle,Zwolle,Overijssel,VBO,6.075070,52.517769
Gasthuisdijk,6,,29,8041AG,Zwolle,Zwolle,Overijssel,VBO,6.075097,52.517791
Gasthuisdijk,6,,3,8041AG,Zwolle,Zwolle,Overijssel,VBO,6.075140,52.517746
Gasthuisdijk,6,,30,8041AG,Zwolle,Zwolle,Overijssel,VBO,6.075124,52.517809
Gasthuisdijk,6,,31,8041AG,Zwolle,Zwolle,Overijssel,VBO,6.075156,52.517827
Gasthuisdijk,6,,32,8041AG,Zwolle,Zwolle,Overijssel,VBO,6.075181,52.517849
Gasthuisdijk,6,,33,8041AG,Zwolle,Zwolle,Overijssel,VBO,6.075208,52.517865
Gasthuisdijk,6,,34,8041AG,Zwolle,Zwolle,Overijssel,VBO,6.075234,52.517884
Gasthuisdijk,6,,35,8041AG,Zwolle,Zwolle,Overijssel,VBO,6.075269,52.517900
Gasthuisdijk,6,,36,8041AG,Zwolle,Zwolle,Overijssel,VBO,6.075305,52.517919
Gasthuisdijk,6,,37,8041AG,Zwolle,Zwolle,Overijssel,VBO,6.075337,52.517940
Gasthuisdijk,6,,38,8041AG,Zwolle,Zwolle,Overijssel,VBO,6.075366,52.517960
Gasthuisdijk,6,,39,8041AG,Zwolle,Zwolle,Overijssel,VBO,6.075398,52.517973
Gasthuisdijk,6,,4,8041AG,Zwolle,Zwolle,Overijssel,VBO,6.075169,52.517753
Gasthuisdijk,6,,40,8041AG,Zwolle,Zwolle,Overijssel,VBO,6.075431,52.517992
Gasthuisdijk,6,,41,8041AG,Zwolle,Zwolle,Overijssel,VBO,6.075461,52.518012
Gasthuisdijk,6,,42,8041AG,Zwolle,Zwolle,Overijssel,VBO,6.075495,52.518030
Gasthuisdijk,6,,43,8041AG,Zwolle,Zwolle,Overijssel,VBO,6.075526,52.518051
Gasthuisdijk,6,,44,8041AG,Zwolle,Zwolle,Overijssel,VBO,6.075555,52.518072
Gasthuisdijk,6,,45,8041AG,Zwolle,Zwolle,Overijssel,VBO,6.075589,52.518096
Gasthuisdijk,6,,46,8041AG,Zwolle,Zwolle,Overijssel,VBO,6.075621,52.518115
Gasthuisdijk,6,,47,8041AG,Zwolle,Zwolle,Overijssel,VBO,6.075646,52.518132
Gasthuisdijk,6,,48,8041AG,Zwolle,Zwolle,Overijssel,VBO,6.075673,52.518150
Gasthuisdijk,6,,49,8041AG,Zwolle,Zwolle,Overijssel,VBO,6.075705,52.518169
Gasthuisdijk,6,,5,8041AG,Zwolle,Zwolle,Overijssel,VBO,6.075185,52.517767
Gasthuisdijk,6,,50,8041AG,Zwolle,Zwolle,Overijssel,VBO,6.075731,52.518152
Gasthuisdijk,6,,51,8041AG,Zwolle,Zwolle,Overijssel,VBO,6.075701,52.518134
Gasthuisdijk,6,,52,8041AG,Zwolle,Zwolle,Overijssel,VBO,6.075670,52.518117
Gasthuisdijk,6,,6,8041AG,Zwolle,Zwolle,Overijssel,VBO,6.075205,52.517782
Gasthuisdijk,6,,7,8041AG,Zwolle,Zwolle,Overijssel,VBO,6.075228,52.517794
Gasthuisdijk,6,,8,8041AG,Zwolle,Zwolle,Overijssel,VBO,6.075252,52.517806
Gasthuisdijk,6,,9,8041AG,Zwolle,Zwolle,Overijssel,VBO,6.075268,52.517819
Gasthuisdijk,8,A,,8041AG,Zwolle,Zwolle,Overijssel,VBO,6.074542,52.517859
Gasthuisdijk,8,B,,8041AG,Zwolle,Zwolle,Overijssel,VBO,6.074927,52.517998
Gasthuisdijk,8,,,8041AG,Zwolle,Zwolle,Overijssel,VBO,6.074818,52.517874
Gasthuisdijk,12,,,8041AG,Zwolle,Zwolle,Overijssel,VBO,6.074331,52.517945
Gasthuisdijk,14,T,1,8041AG,Zwolle,Zwolle,Overijssel,VBO,6.073904,52.518094
Gasthuisdijk,14,,,8041AG,Zwolle,Zwolle,Overijssel,VBO,6.073849,52.518214
Gasthuisdijk,16,,,8041AG,Zwolle,Zwolle,Overijssel,VBO,6.073470,52.518280
Gasthuisdijk,20,L,1,8041AG,Zwolle,Zwolle,Overijssel,VBO,6.073171,52.518680
Gasthuisdijk,20,,,8041AG,Zwolle,Zwolle,Overijssel,VBO,6.072901,52.518730
Gasthuisdijk,22,,,8041AG,Zwolle,Zwolle,Overijssel,VBO,6.072864,52.518626
Gasthuisdijk,24,,,8041AG,Zwolle,Zwolle,Overijssel,VBO,6.072542,52.518605
Gasthuisdijk,44,T,1,8041AG,Zwolle,Zwolle,Overijssel,VBO,6.072289,52.519866
Gasthuisdijk,44,,,8041AG,Zwolle,Zwolle,Overijssel,VBO,6.071463,52.519170
Gasthuisdijk,46,T,1,8041AG,Zwolle,Zwolle,Overijssel,VBO,6.070662,52.520466
Gasthuisdijk,46,,,8041AG,Zwolle,Zwolle,Overijssel,VBO,6.070147,52.520892
Blaloweg,1,T,1,8041AH,Zwolle,Zwolle,Overijssel,VBO,6.080298,52.517017
Blaloweg,1,,,8041AH,Zwolle,Zwolle,Overijssel,VBO,6.080208,52.516956
Blaloweg,2,W,1,8041AH,Zwolle,Zwolle,Overijssel,VBO,6.081170,52.518374
Blaloweg,2,,,8041AH,Zwolle,Zwolle,Overijssel,VBO,6.078802,52.517423
Blaloweg,3,T,1,8041AH,Zwolle,Zwolle,Overijssel,VBO,6.079154,52.516537
Blaloweg,5,T,1,8041AH,Zwolle,Zwolle,Overijssel,VBO,6.075708,52.516255
Blaloweg,5,T,2,8041AH,Zwolle,Zwolle,Overijssel,VBO,6.075472,52.516201
Blaloweg,18,,,8041AH,Zwolle,Zwolle,Overijssel,VBO,6.068763,52.513862
Blaloweg,20,,,8041AH,Zwolle,Zwolle,Overijssel,VBO,6.068568,52.513762
Blaloweg,22,,,8041AH,Zwolle,Zwolle,Overijssel,VBO,6.068603,52.513858
Rieteweg,13,A,,8041AJ,Zwolle,Zwolle,Overijssel,VBO,6.074659,52.513524
Rieteweg,13,,,8041AJ,Zwolle,Zwolle,Overijssel,VBO,6.074534,52.513597
Rieteweg,15,,,8041AJ,Zwolle,Zwolle,Overijssel,VBO,6.074143,52.514168
Rieteweg,17,,,8041AJ,Zwolle,Zwolle,Overijssel,VBO,6.073804,52.514699
Rieteweg,19,A,,8041AJ,Zwolle,Zwolle,Overijssel,VBO,6.073057,52.514927
Rieteweg,19,,,8041AJ,Zwolle,Zwolle,Overijssel,VBO,6.073328,52.515000
Rieteweg,21,T,1,8041AJ,Zwolle,Zwolle,Overijssel,VBO,6.070838,52.516107
Rieteweg,21,,,8041AJ,Zwolle,Zwolle,Overijssel,VBO,6.072203,52.516243
Rieteweg,25,T,1,8041AJ,Zwolle,Zwolle,Overijssel,VBO,6.070753,52.516964
Rieteweg,31,T,1,8041AJ,Zwolle,Zwolle,Overijssel,VBO,6.070423,52.517398
Rieteweg,43,A,,8041AJ,Zwolle,Zwolle,Overijssel,VBO,6.068739,52.518172
Rieteweg,43,B,,8041AJ,Zwolle,Zwolle,Overijssel,VBO,6.068046,52.517927
Rieteweg,43,,,8041AJ,Zwolle,Zwolle,Overijssel,VBO,6.068596,52.518079
Rieteweg,45,,,8041AJ,Zwolle,Zwolle,Overijssel,VBO,6.068314,52.518120
Rieteweg,10,,,8041AK,Zwolle,Zwolle,Overijssel,VBO,6.074500,52.514716
Rieteweg,12,T,1,8041AK,Zwolle,Zwolle,Overijssel,VBO,6.074716,52.515294
Rieteweg,12,,,8041AK,Zwolle,Zwolle,Overijssel,VBO,6.074652,52.515351
Rieteweg,16,A,,8041AK,Zwolle,Zwolle,Overijssel,VBO,6.073006,52.516331
Rieteweg,16,,,8041AK,Zwolle,Zwolle,Overijssel,VBO,6.073291,52.516482
Rieteweg,18,T,1,8041AK,Zwolle,Zwolle,Overijssel,VBO,6.072464,52.516665
Rieteweg,20,T,1,8041AK,Zwolle,Zwolle,Overijssel,VBO,6.072218,52.516955
Rieteweg,20,,,8041AK,Zwolle,Zwolle,Overijssel,VBO,6.072138,52.516984
Rieteweg,28,,,8041AK,Zwolle,Zwolle,Overijssel,VBO,6.071158,52.517752
Rieteweg,34,T,1,8041AK,Zwolle,Zwolle,Overijssel,VBO,6.067542,52.518655
Hasselterweg,2,T,1,8041AL,Zwolle,Zwolle,Overijssel,VBO,6.070732,52.515282
Hasselterweg,2,T,2,8041AL,Zwolle,Zwolle,Overijssel,VBO,6.070673,52.515313
Russenweg,2,,,8041AL,Zwolle,Zwolle,Overijssel,VBO,6.070533,52.511777
Russenweg,3,T,1,8041AL,Zwolle,Zwolle,Overijssel,VBO,6.068430,52.511768
Russenweg,3,,,8041AL,Zwolle,Zwolle,Overijssel,VBO,6.068650,52.512140
Russenweg,5,T,1,8041AL,Zwolle,Zwolle,Overijssel,VBO,6.063034,52.515096
Russenweg,5,,,8041AL,Zwolle,Zwolle,Overijssel,VBO,6.066634,52.512799
Russenweg,6,T,1,8041AL,Zwolle,Zwolle,Overijssel,VBO,6.070354,52.512369
Russenweg,6,,,8041AL,Zwolle,Zwolle,Overijssel,VBO,6.069999,52.512136
Russenweg,8,E,,8041AL,Zwolle,Zwolle,Overijssel,VBO,6.068369,52.514485
Russenweg,8,T,1,8041AL,Zwolle,Zwolle,Overijssel,VBO,6.066142,52.514804
Russenweg,8,T,3,8041AL,Zwolle,Zwolle,Overijssel,VBO,6.069362,52.514542
Russenweg,8,,,8041AL,Zwolle,Zwolle,Overijssel,VBO,6.066466,52.514514
Russenweg,14,T,1,8041AL,Zwolle,Zwolle,Overijssel,VBO,6.065389,52.515416
Russenweg,14,,,8041AL,Zwolle,Zwolle,Overijssel,VBO,6.065211,52.515155
Russenweg,24,,,8041AL,Zwolle,Zwolle,Overijssel,VBO,6.065532,52.516952
Grote Voort,5,,,8041AM,Zwolle,Zwolle,Overijssel,VBO,6.074595,52.512692
Grote Voort,7,,,8041AM,Zwolle,Zwolle,Overijssel,VBO,6.073833,52.513110
Grote Voort,8,T,1,8041AM,Zwolle,Zwolle,Overijssel,VBO,6.072549,52.512783
Grote Voort,8,,,8041AM,Zwolle,Zwolle,Overijssel,VBO,6.072306,52.512676
Grote Voort,9,L,1,8041AM,Zwolle,Zwolle,Overijssel,VBO,6.073528,52.512554
Grote Voort,9,,,8041AM,Zwolle,Zwolle,Overijssel,VBO,6.073595,52.513055
Grote Voort,10,,,8041AM,Zwolle,Zwolle,Overijssel,VBO,6.071886,52.512384
Grote Voort,13,,,8041AM,Zwolle,Zwolle,Overijssel,VBO,6.072721,52.512063
Grote Voort,15,T,1,8041AM,Zwolle,Zwolle,Overijssel,VBO,6.071049,52.511461
Grote Voort,15,,,8041AM,Zwolle,Zwolle,Overijssel,VBO,6.072688,52.512358
Turnhoutsweg,1,,,8041AN,Zwolle,Zwolle,Overijssel,VBO,6.054542,52.509610
Turnhoutsweg,3,,,8041AN,Zwolle,Zwolle,Overijssel,VBO,6.051092,52.506157
Nilantsweg,19,,,8041AP,Zwolle,Zwolle,Overijssel,VBO,6.057162,52.500944
Nilantsweg,35,,,8041AP,Zwolle,Zwolle,Overijssel,VBO,6.056615,52.501453
Nilantsweg,37,,,8041AP,Zwolle,Zwolle,Overijssel,VBO,6.056507,52.501538
Nilantsweg,39,,,8041AP,Zwolle,Zwolle,Overijssel,VBO,6.056375,52.501632
Nilantsweg,41,,1,8041AP,Zwolle,Zwolle,Overijssel,VBO,6.056058,52.501827
Nilantsweg,41,,2,8041AP,Zwolle,Zwolle,Overijssel,VBO,6.055959,52.501884
Nilantsweg,41,,3,8041AP,Zwolle,Zwolle,Overijssel,VBO,6.055782,52.502020
Nilantsweg,41,,,8041AP,Zwolle,Zwolle,Overijssel,VBO,6.056257,52.501709
Nilantsweg,43,,,8041AP,Zwolle,Zwolle,Overijssel,VBO,6.055725,52.502063
Nilantsweg,45,,,8041AP,Zwolle,Zwolle,Overijssel,VBO,6.055534,52.502179
Nilantsweg,47,,,8041AP,Zwolle,Zwolle,Overijssel,VBO,6.055455,52.502245
Nilantsweg,49,,,8041AP,Zwolle,Zwolle,Overijssel,VBO,6.055336,52.502351
Nilantsweg,51,,,8041AP,Zwolle,Zwolle,Overijssel,VBO,6.055308,52.502379
Nilantsweg,53,,,8041AP,Zwolle,Zwolle,Overijssel,VBO,6.055240,52.502452
Nilantsweg,55,,,8041AP,Zwolle,Zwolle,Overijssel,VBO,6.055179,52.502600
Nilantsweg,57,,,8041AP,Zwolle,Zwolle,Overijssel,VBO,6.055126,52.502644
Nilantsweg,59,,,8041AP,Zwolle,Zwolle,Overijssel,VBO,6.054983,52.502735
Nilantsweg,61,,,8041AP,Zwolle,Zwolle,Overijssel,VBO,6.054891,52.502787
Nilantsweg,63,,,8041AP,Zwolle,Zwolle,Overijssel,VBO,6.054842,52.502817
Nilantsweg,65,,,8041AP,Zwolle,Zwolle,Overijssel,VBO,6.054563,52.502771
Nilantsweg,69,,,8041AP,Zwolle,Zwolle,Overijssel,VBO,6.054638,52.502980
Nilantsweg,73,,,8041AR,Zwolle,Zwolle,Overijssel,VBO,6.054474,52.503068
Nilantsweg,75,,,8041AR,Zwolle,Zwolle,Overijssel,VBO,6.054292,52.503185
Nilantsweg,77,,,8041AR,Zwolle,Zwolle,Overijssel,VBO,6.054268,52.503220
Nilantsweg,79,,,8041AR,Zwolle,Zwolle,Overijssel,VBO,6.054149,52.503281
Nilantsweg,81,,,8041AR,Zwolle,Zwolle,Overijssel,VBO,6.053222,52.503241
Nilantsweg,83,,,8041AR,Zwolle,Zwolle,Overijssel,VBO,6.053215,52.503298
Nilantsweg,89,,,8041AR,Zwolle,Zwolle,Overijssel,VBO,6.053914,52.503526
Nilantsweg,91,,,8041AR,Zwolle,Zwolle,Overijssel,VBO,6.053969,52.503638
Nilantsweg,95,,,8041AR,Zwolle,Zwolle,Overijssel,VBO,6.054022,52.503765
Nilantsweg,97,,,8041AR,Zwolle,Zwolle,Overijssel,VBO,6.054086,52.503857
Nilantsweg,99,,,8041AR,Zwolle,Zwolle,Overijssel,VBO,6.054136,52.504432
Nilantsweg,101,,,8041AR,Zwolle,Zwolle,Overijssel,VBO,6.054564,52.504872
Nilantsweg,103,,,8041AR,Zwolle,Zwolle,Overijssel,VBO,6.054481,52.504988
Nilantsweg,105,,,8041AR,Zwolle,Zwolle,Overijssel,VBO,6.054473,52.506421
Nilantsweg,107,T,1,8041AR,Zwolle,Zwolle,Overijssel,VBO,6.053950,52.507072
Nilantsweg,107,,,8041AR,Zwolle,Zwolle,Overijssel,VBO,6.054120,52.506835
Nilantsweg,109,,,8041AR,Zwolle,Zwolle,Overijssel,VBO,6.053909,52.507149
Nilantsweg,111,A,,8041AR,Zwolle,Zwolle,Overijssel,VBO,6.053628,52.507321
Nilantsweg,111,,,8041AR,Zwolle,Zwolle,Overijssel,VBO,6.053121,52.506873
Nilantsweg,113,,,8041AR,Zwolle,Zwolle,Overijssel,VBO,6.053466,52.507504
Nilantsweg,115,,,8041AR,Zwolle,Zwolle,Overijssel,VBO,6.053444,52.507534
Nilantsweg,8,,,8041AS,Zwolle,Zwolle,Overijssel,VBO,6.056925,52.501963
Meenteweg,1,,,8041AT,Zwolle,Zwolle,Overijssel,VBO,6.057777,52.508749
Meenteweg,3,,,8041AT,Zwolle,Zwolle,Overijssel,VBO,6.057674,52.508561
Meenteweg,7,,1,8041AT,Zwolle,Zwolle,Overijssel,VBO,6.057133,52.508126
Meenteweg,7,,2,8041AT,Zwolle,Zwolle,Overijssel,VBO,6.056921,52.507945
Meenteweg,7,,,8041AT,Zwolle,Zwolle,Overijssel,VBO,6.057288,52.508307
Meenteweg,9,,1,8041AT,Zwolle,Zwolle,Overijssel,VBO,6.056685,52.507724
Meenteweg,9,,2,8041AT,Zwolle,Zwolle,Overijssel,VBO,6.056631,52.507673
Meenteweg,9,,3,8041AT,Zwolle,Zwolle,Overijssel,VBO,6.056472,52.507523
Meenteweg,9,,4,8041AT,Zwolle,Zwolle,Overijssel,VBO,6.056419,52.507480
Meenteweg,9,,,8041AT,Zwolle,Zwolle,Overijssel,VBO,6.056856,52.507904
Meenteweg,13,,,8041AT,Zwolle,Zwolle,Overijssel,VBO,6.056279,52.507358
Meenteweg,15,,,8041AT,Zwolle,Zwolle,Overijssel,VBO,6.056141,52.507213
Meenteweg,17,,,8041AT,Zwolle,Zwolle,Overijssel,VBO,6.055977,52.507090
Meenteweg,19,,,8041AT,Zwolle,Zwolle,Overijssel,VBO,6.055799,52.506990
Meenteweg,21,,,8041AT,Zwolle,Zwolle,Overijssel,VBO,6.055629,52.506878
Meenteweg,23,,,8041AT,Zwolle,Zwolle,Overijssel,VBO,6.055563,52.506834
Meenteweg,25,,,8041AT,Zwolle,Zwolle,Overijssel,VBO,6.055308,52.506697
Meenteweg,27,,,8041AT,Zwolle,Zwolle,Overijssel,VBO,6.055271,52.506645
Meenteweg,2,B,,8041AV,Zwolle,Zwolle,Overijssel,VBO,6.058058,52.510042
Meenteweg,6,,1,8041AV,Zwolle,Zwolle,Overijssel,VBO,6.055842,52.509118
Meenteweg,6,,,8041AV,Zwolle,Zwolle,Overijssel,VBO,6.055943,52.509081
Meenteweg,8,,,8041AV,Zwolle,Zwolle,Overijssel,VBO,6.055673,52.509010
Meenteweg,10,,,8041AV,Zwolle,Zwolle,Overijssel,VBO,6.056810,52.508670
Meenteweg,12,,,8041AV,Zwolle,Zwolle,Overijssel,VBO,6.056144,52.508289
Meenteweg,14,,,8041AV,Zwolle,Zwolle,Overijssel,VBO,6.056038,52.508183
Meenteweg,16,,,8041AV,Zwolle,Zwolle,Overijssel,VBO,6.056272,52.507939
Meenteweg,18,,,8041AV,Zwolle,Zwolle,Overijssel,VBO,6.056219,52.507893
Meenteweg,20,,,8041AV,Zwolle,Zwolle,Overijssel,VBO,6.056108,52.507797
Meenteweg,22,,,8041AV,Zwolle,Zwolle,Overijssel,VBO,6.056055,52.507742
Meenteweg,24,A,,8041AV,Zwolle,Zwolle,Overijssel,VBO,6.055569,52.507777
Meenteweg,24,,,8041AV,Zwolle,Zwolle,Overijssel,VBO,6.055946,52.507634
Meenteweg,26,,,8041AV,Zwolle,Zwolle,Overijssel,VBO,6.055420,52.507601
Meenteweg,28,,,8041AV,Zwolle,Zwolle,Overijssel,VBO,6.055364,52.507542
Meenteweg,30,A,,8041AV,Zwolle,Zwolle,Overijssel,VBO,6.055418,52.507410
Meenteweg,30,,,8041AV,Zwolle,Zwolle,Overijssel,VBO,6.055244,52.507214
Meenteweg,32,,,8041AV,Zwolle,Zwolle,Overijssel,VBO,6.055299,52.507446
Meenteweg,34,,,8041AV,Zwolle,Zwolle,Overijssel,VBO,6.055197,52.506981
Meenteweg,36,,,8041AV,Zwolle,Zwolle,Overijssel,VBO,6.054781,52.506806
Meenteweg,38,,,8041AV,Zwolle,Zwolle,Overijssel,VBO,6.054456,52.507337
Beukenallee,18,,,8041AW,Zwolle,Zwolle,Overijssel,VBO,6.064456,52.507046
Beukenallee,20,,,8041AW,Zwolle,Zwolle,Overijssel,VBO,6.064391,52.507069
Beukenallee,22,,1,8041AW,Zwolle,Zwolle,Overijssel,VBO,6.063603,52.507427
Beukenallee,22,,,8041AW,Zwolle,Zwolle,Overijssel,VBO,6.064018,52.507177
Beukenallee,24,A,,8041AW,Zwolle,Zwolle,Overijssel,VBO,6.062876,52.507875
Beukenallee,24,,,8041AW,Zwolle,Zwolle,Overijssel,VBO,6.062928,52.507627
Beukenallee,26,,,8041AW,Zwolle,Zwolle,Overijssel,VBO,6.062758,52.508034
Beukenallee,28,,,8041AW,Zwolle,Zwolle,Overijssel,VBO,6.062703,52.508137
Beukenallee,30,,,8041AW,Zwolle,Zwolle,Overijssel,VBO,6.062682,52.508181
Beukenallee,32,,,8041AW,Zwolle,Zwolle,Overijssel,VBO,6.062631,52.508267
Beukenallee,34,,,8041AW,Zwolle,Zwolle,Overijssel,VBO,6.062611,52.508309
Beukenallee,36,,,8041AW,Zwolle,Zwolle,Overijssel,VBO,6.062550,52.508435
Beukenallee,38,,,8041AW,Zwolle,Zwolle,Overijssel,VBO,6.062505,52.508533
Beukenallee,40,,,8041AW,Zwolle,Zwolle,Overijssel,VBO,6.062477,52.508579
Beukenallee,42,,,8041AW,Zwolle,Zwolle,Overijssel,VBO,6.062361,52.508795
Beukenallee,44,,,8041AW,Zwolle,Zwolle,Overijssel,VBO,6.062270,52.508973
Beukenallee,35,,,8041AX,Zwolle,Zwolle,Overijssel,VBO,6.063421,52.506955
Beukenallee,37,,,8041AX,Zwolle,Zwolle,Overijssel,VBO,6.063117,52.507053
Beukenallee,39,,,8041AX,Zwolle,Zwolle,Overijssel,VBO,6.062844,52.507139
Beukenallee,45,,,8041AX,Zwolle,Zwolle,Overijssel,VBO,6.062559,52.507452
Beukenallee,47,,,8041AX,Zwolle,Zwolle,Overijssel,VBO,6.062567,52.507504
Beukenallee,49,,,8041AX,Zwolle,Zwolle,Overijssel,VBO,6.062518,52.507621
Beukenallee,51,,,8041AX,Zwolle,Zwolle,Overijssel,VBO,6.062487,52.507685
Beukenallee,53,,,8041AX,Zwolle,Zwolle,Overijssel,VBO,6.062415,52.507802
Beukenallee,55,,,8041AX,Zwolle,Zwolle,Overijssel,VBO,6.062387,52.507856
Beukenallee,57,,,8041AX,Zwolle,Zwolle,Overijssel,VBO,6.062316,52.507974
Beukenallee,59,,,8041AX,Zwolle,Zwolle,Overijssel,VBO,6.062292,52.508026
Beukenallee,61,,,8041AZ,Zwolle,Zwolle,Overijssel,VBO,6.062227,52.508139
Beukenallee,63,,,8041AZ,Zwolle,Zwolle,Overijssel,VBO,6.062200,52.508196
Beukenallee,65,,,8041AZ,Zwolle,Zwolle,Overijssel,VBO,6.062119,52.508313
Beukenallee,67,,,8041AZ,Zwolle,Zwolle,Overijssel,VBO,6.062090,52.508368
Beukenallee,69,,,8041AZ,Zwolle,Zwolle,Overijssel,VBO,6.062028,52.508482
Beukenallee,71,,,8041AZ,Zwolle,Zwolle,Overijssel,VBO,6.061999,52.508542
Beukenallee,73,,,8041AZ,Zwolle,Zwolle,Overijssel,VBO,6.061946,52.508657
Beukenallee,75,,,8041AZ,Zwolle,Zwolle,Overijssel,VBO,6.061923,52.508705
Beukenallee,77,,,8041AZ,Zwolle,Zwolle,Overijssel,VBO,6.061839,52.508820
Beukenallee,79,,,8041AZ,Zwolle,Zwolle,Overijssel,VBO,6.061812,52.508874
Hertsenbergweg,1,T,1,8041BA,Zwolle,Zwolle,Overijssel,VBO,6.062120,52.505825
Hertsenbergweg,1,,,8041BA,Zwolle,Zwolle,Overijssel,VBO,6.061840,52.505887
Grote Voort,50,,,8041BE,Zwolle,Zwolle,Overijssel,VBO,6.066075,52.511151
Grote Voort,54,,,8041BE,Zwolle,Zwolle,Overijssel,VBO,6.065682,52.510945
Grote Voort,56,,,8041BG,Zwolle,Zwolle,Overijssel,VBO,6.065504,52.510850
Grote Voort,60,,,8041BG,Zwolle,Zwolle,Overijssel,VBO,6.065811,52.510904
Grote Voort,64,,,8041BG,Zwolle,Zwolle,Overijssel,VBO,6.066035,52.511025
Grote Voort,68,,,8041BG,Zwolle,Zwolle,Overijssel,VBO,6.066330,52.511017
Grote Voort,72,,,8041BG,Zwolle,Zwolle,Overijssel,VBO,6.066581,52.510880
Grote Voort,80,,,8041BH,Zwolle,Zwolle,Overijssel,VBO,6.066830,52.510851
Grote Voort,84,,,8041BH,Zwolle,Zwolle,Overijssel,VBO,6.066857,52.510750
Grote Voort,88,T,1,8041BH,Zwolle,Zwolle,Overijssel,VBO,6.066809,52.511031
Grote Voort,88,,,8041BH,Zwolle,Zwolle,Overijssel,VBO,6.066164,52.510964
Grote Voort,88,,,8041BH,Zwolle,Zwolle,Overijssel,VBO,6.067248,52.510554
Grote Voort,90,,,8041BH,Zwolle,Zwolle,Overijssel,VBO,6.066161,52.511049
Grote Voort,92,,,8041BH,Zwolle,Zwolle,Overijssel,VBO,6.066158,52.511133
Grote Voort,96,,,8041BH,Zwolle,Zwolle,Overijssel,VBO,6.067362,52.510357
Grote Voort,98,,,8041BH,Zwolle,Zwolle,Overijssel,VBO,6.067546,52.510463
Grote Voort,100,,,8041BH,Zwolle,Zwolle,Overijssel,VBO,6.067695,52.510374
Grote Voort,104,,,8041BH,Zwolle,Zwolle,Overijssel,VBO,6.067655,52.509729
Grote Voort,201,,,8041BK,Zwolle,Zwolle,Overijssel,VBO,6.069322,52.509331
Grote Voort,207,A,,8041BK,Zwolle,Zwolle,Overijssel,VBO,6.068835,52.509116
Grote Voort,207,B,,8041BK,Zwolle,Zwolle,Overijssel,VBO,6.068834,52.509069
Grote Voort,207,C,,8041BK,Zwolle,Zwolle,Overijssel,VBO,6.068832,52.509026
Grote Voort,207,D,,8041BK,Zwolle,Zwolle,Overijssel,VBO,6.069098,52.509113
Grote Voort,207,E,,8041BK,Zwolle,Zwolle,Overijssel,VBO,6.069098,52.509081
Grote Voort,207,F,,8041BK,Zwolle,Zwolle,Overijssel,VBO,6.069096,52.509046
Grote Voort,207,G,,8041BK,Zwolle,Zwolle,Overijssel,VBO,6.069097,52.509013
Grote Voort,207,,,8041BK,Zwolle,Zwolle,Overijssel,VBO,6.068965,52.509027
Grote Voort,221,,,8041BK,Zwolle,Zwolle,Overijssel,VBO,6.068561,52.509243
Grote Voort,225,,,8041BK,Zwolle,Zwolle,Overijssel,VBO,6.068308,52.509387
Grote Voort,227,A,1,8041BL,Zwolle,Zwolle,Overijssel,VBO,6.067465,52.509098
Grote Voort,247,,,8041BL,Zwolle,Zwolle,Overijssel,VBO,6.068029,52.508675
Grote Voort,291,A,,8041BL,Zwolle,Zwolle,Overijssel,VBO,6.065174,52.508806
Grote Voort,291,,,8041BL,Zwolle,Zwolle,Overijssel,VBO,6.065210,52.508764
Grote Voort,293,A,,8041BL,Zwolle,Zwolle,Overijssel,VBO,6.065295,52.509111
Grote Voort,293,,,8041BL,Zwolle,Zwolle,Overijssel,VBO,6.065355,52.509142
