openbareruimtenaam,huisnummer,huisletter,huisnummertoevoeging,postcode,woonplaatsnaam,gemeentenaam,provincienaam,typeadresseerbaarobject,longitude,latitude
Oude Wetering,78,A,,8044PA,Zwolle,Zwolle,Overijssel,VBO,6.046405,52.542181
Oude Wetering,78,,,8044PA,Zwolle,Zwolle,Overijssel,VBO,6.046449,52.542287
Oude Wetering,80,A,,8044PA,Zwolle,Zwolle,Overijssel,VBO,6.045670,52.542998
Oude Wetering,80,,,8044PA,Zwolle,Zwolle,Overijssel,VBO,6.045872,52.543045
Oude Wetering,84,,,8044PA,Zwolle,Zwolle,Overijssel,VBO,6.046817,52.542395
Oude Wetering,106,,,8044PA,Zwolle,Zwolle,Overijssel,VBO,6.041915,52.548085
Oude Wetering,107,A,,8044PA,Zwolle,Zwolle,Overijssel,VBO,6.035903,52.554559
Oude Wetering,107,T,1,8044PA,Zwolle,Zwolle,Overijssel,VBO,6.040771,52.547850
Oude Wetering,107,,,8044PA,Zwolle,Zwolle,Overijssel,VBO,6.041208,52.547928
Oude Wetering,108,,,8044PA,Zwolle,Zwolle,Overijssel,VBO,6.041670,52.548229
Oude Wetering,109,,,8044PA,Zwolle,Zwolle,Overijssel,VBO,6.033643,52.557762
Oude Wetering,110,,,8044PA,Zwolle,Zwolle,Overijssel,VBO,6.039270,52.551807
Oude Wetering,111,,,8044PA,Zwolle,Zwolle,Overijssel,VBO,6.032543,52.558922
Oude Wetering,112,,,8044PA,Zwolle,Zwolle,Overijssel,VBO,6.038744,52.552694
Oude Wetering,114,,,8044PA,Zwolle,Zwolle,Overijssel,VBO,6.037128,52.554780
Oude Wetering,116,,,8044PA,Zwolle,Zwolle,Overijssel,VBO,6.036254,52.555639
Stuurmansweg,12,,,8044PC,Zwolle,Zwolle,Overijssel,VBO,6.023459,52.543208
Stuurmansweg,14,T,1,8044PC,Zwolle,Zwolle,Overijssel,VBO,6.029880,52.545230
Stuurmansweg,14,,,8044PC,Zwolle,Zwolle,Overijssel,VBO,6.029477,52.544908
Stuurmansweg,21,,,8044PC,Zwolle,Zwolle,Overijssel,VBO,6.037311,52.546501
Scholtensteeg,3,,,8044PD,Zwolle,Zwolle,Overijssel,VBO,6.030341,52.540991
Scholtensteeg,5,,,8044PD,Zwolle,Zwolle,Overijssel,VBO,6.030411,52.541060
Bisschopswetering,63,A,,8044PE,Zwolle,Zwolle,Overijssel,VBO,6.007877,52.545506
Bisschopswetering,63,T,1,8044PE,Zwolle,Zwolle,Overijssel,VBO,6.007556,52.545863
Bisschopswetering,65,,,8044PE,Zwolle,Zwolle,Overijssel,VBO,6.006756,52.546690
Sportlaan,2,A,,8044PG,Zwolle,Zwolle,Overijssel,VBO,6.041670,52.541479
Sportlaan,2,B,,8044PG,Zwolle,Zwolle,Overijssel,VBO,6.041529,52.541448
Sportlaan,2,S,1,8044PG,Zwolle,Zwolle,Overijssel,VBO,6.041229,52.541688
Sportlaan,2,,,8044PG,Zwolle,Zwolle,Overijssel,VBO,6.041572,52.541580
Sportlaan,4,T,1,8044PG,Zwolle,Zwolle,Overijssel,VBO,6.044821,52.542305
Sportlaan,4,,,8044PG,Zwolle,Zwolle,Overijssel,VBO,6.042442,52.541607
Sportlaan,6,,,8044PG,Zwolle,Zwolle,Overijssel,VBO,6.042231,52.542276
Sportlaan,8,,,8044PG,Zwolle,Zwolle,Overijssel,VBO,6.042642,52.542159
Sportlaan,10,,,8044PG,Zwolle,Zwolle,Overijssel,VBO,6.043732,52.542720
Sportlaan,11,,,8044PH,Zwolle,Zwolle,Overijssel,VBO,6.038928,52.541965
Sportlaan,13,,,8044PH,Zwolle,Zwolle,Overijssel,VBO,6.038999,52.541987
Sportlaan,15,,,8044PH,Zwolle,Zwolle,Overijssel,VBO,6.039075,52.542009
Sportlaan,17,,,8044PH,Zwolle,Zwolle,Overijssel,VBO,6.039146,52.542028
Sportlaan,19,,,8044PH,Zwolle,Zwolle,Overijssel,VBO,6.039224,52.542049
Sportlaan,21,,,8044PH,Zwolle,Zwolle,Overijssel,VBO,6.039445,52.542112
Sportlaan,23,,,8044PH,Zwolle,Zwolle,Overijssel,VBO,6.039518,52.542131
Sportlaan,25,,,8044PH,Zwolle,Zwolle,Overijssel,VBO,6.039593,52.542151
Sportlaan,27,,,8044PH,Zwolle,Zwolle,Overijssel,VBO,6.039665,52.542172
Sportlaan,29,,,8044PH,Zwolle,Zwolle,Overijssel,VBO,6.039735,52.542189
Sportlaan,31,,,8044PH,Zwolle,Zwolle,Overijssel,VBO,6.039807,52.542210
Sportlaan,33,,,8044PH,Zwolle,Zwolle,Overijssel,VBO,6.039884,52.542232
Sportlaan,35,,,8044PH,Zwolle,Zwolle,Overijssel,VBO,6.039957,52.542250
Sportlaan,37,,,8044PH,Zwolle,Zwolle,Overijssel,VBO,6.040023,52.542271
Sportlaan,39,,,8044PH,Zwolle,Zwolle,Overijssel,VBO,6.040101,52.542289
Sportlaan,41,,,8044PH,Zwolle,Zwolle,Overijssel,VBO,6.040324,52.542354
Sportlaan,43,,,8044PH,Zwolle,Zwolle,Overijssel,VBO,6.040400,52.542375
Sportlaan,45,,,8044PH,Zwolle,Zwolle,Overijssel,VBO,6.040470,52.542393
Sportlaan,47,,,8044PH,Zwolle,Zwolle,Overijssel,VBO,6.040541,52.542411
Sportlaan,49,,,8044PH,Zwolle,Zwolle,Overijssel,VBO,6.040616,52.542434
Sportlaan,51,,,8044PH,Zwolle,Zwolle,Overijssel,VBO,6.040685,52.542452
Sportlaan,53,,,8044PH,Zwolle,Zwolle,Overijssel,VBO,6.040758,52.542472
Sportlaan,55,,,8044PH,Zwolle,Zwolle,Overijssel,VBO,6.040833,52.542491
Sportlaan,57,,,8044PH,Zwolle,Zwolle,Overijssel,VBO,6.040932,52.542520
Sportlaan,59,,,8044PH,Zwolle,Zwolle,Overijssel,VBO,6.041005,52.542539
Sportlaan,61,,,8044PH,Zwolle,Zwolle,Overijssel,VBO,6.041077,52.542559
Sportlaan,63,,,8044PH,Zwolle,Zwolle,Overijssel,VBO,6.041153,52.542580
Sportlaan,65,,,8044PH,Zwolle,Zwolle,Overijssel,VBO,6.041225,52.542600
Sportlaan,67,,,8044PH,Zwolle,Zwolle,Overijssel,VBO,6.041294,52.542619
Sportlaan,69,,,8044PH,Zwolle,Zwolle,Overijssel,VBO,6.041371,52.542639
Sportlaan,71,,,8044PH,Zwolle,Zwolle,Overijssel,VBO,6.041446,52.542660
Van Disselstraat,23,,,8044PL,Zwolle,Zwolle,Overijssel,VBO,6.035999,52.540802
Van Disselstraat,25,,,8044PL,Zwolle,Zwolle,Overijssel,VBO,6.036023,52.540760
Van Disselstraat,27,,,8044PL,Zwolle,Zwolle,Overijssel,VBO,6.036058,52.540716
Van Disselstraat,29,,,8044PL,Zwolle,Zwolle,Overijssel,VBO,6.036098,52.540668
Van Disselstraat,31,,,8044PL,Zwolle,Zwolle,Overijssel,VBO,6.036131,52.540624
Van Disselstraat,33,,,8044PL,Zwolle,Zwolle,Overijssel,VBO,6.036164,52.540580
Van Disselstraat,35,,,8044PL,Zwolle,Zwolle,Overijssel,VBO,6.036197,52.540535
Van Disselstraat,75,,,8044PL,Zwolle,Zwolle,Overijssel,VBO,6.036298,52.541231
Van Disselstraat,77,,,8044PL,Zwolle,Zwolle,Overijssel,VBO,6.036261,52.541271
Van Disselstraat,79,,,8044PL,Zwolle,Zwolle,Overijssel,VBO,6.036218,52.541320
Van Disselstraat,81,,,8044PL,Zwolle,Zwolle,Overijssel,VBO,6.036196,52.541360
Van Disselstraat,83,,,8044PL,Zwolle,Zwolle,Overijssel,VBO,6.036159,52.541407
Van Disselstraat,85,,,8044PL,Zwolle,Zwolle,Overijssel,VBO,6.036130,52.541449
Van Disselstraat,54,,,8044PM,Zwolle,Zwolle,Overijssel,VBO,6.037113,52.540733
Van Disselstraat,56,,,8044PM,Zwolle,Zwolle,Overijssel,VBO,6.037080,52.540778
Van Disselstraat,58,,,8044PM,Zwolle,Zwolle,Overijssel,VBO,6.037038,52.540826
Van Disselstraat,60,,,8044PM,Zwolle,Zwolle,Overijssel,VBO,6.037009,52.540872
Van Disselstraat,62,,,8044PM,Zwolle,Zwolle,Overijssel,VBO,6.036981,52.540915
Van Disselstraat,64,,,8044PM,Zwolle,Zwolle,Overijssel,VBO,6.036949,52.540955
Van Disselstraat,66,,,8044PM,Zwolle,Zwolle,Overijssel,VBO,6.036916,52.541005
Van Disselstraat,68,,,8044PM,Zwolle,Zwolle,Overijssel,VBO,6.036883,52.541045
Cleyndertstraat,7,,,8044PN,Zwolle,Zwolle,Overijssel,VBO,6.037250,52.541845
Cleyndertstraat,9,,,8044PN,Zwolle,Zwolle,Overijssel,VBO,6.037287,52.541797
Cleyndertstraat,11,,,8044PN,Zwolle,Zwolle,Overijssel,VBO,6.037352,52.541756
Cleyndertstraat,13,,,8044PN,Zwolle,Zwolle,Overijssel,VBO,6.037393,52.541710
Cleyndertstraat,15,,,8044PN,Zwolle,Zwolle,Overijssel,VBO,6.037428,52.541659
Cleyndertstraat,17,,,8044PN,Zwolle,Zwolle,Overijssel,VBO,6.037483,52.541614
Cleyndertstraat,19,,,8044PN,Zwolle,Zwolle,Overijssel,VBO,6.037530,52.541563
Cleyndertstraat,21,,,8044PN,Zwolle,Zwolle,Overijssel,VBO,6.037722,52.541274
Cleyndertstraat,23,,,8044PN,Zwolle,Zwolle,Overijssel,VBO,6.037760,52.541232
Cleyndertstraat,25,,,8044PN,Zwolle,Zwolle,Overijssel,VBO,6.037791,52.541189
Cleyndertstraat,27,,,8044PN,Zwolle,Zwolle,Overijssel,VBO,6.037825,52.541143
Cleyndertstraat,29,,,8044PN,Zwolle,Zwolle,Overijssel,VBO,6.037858,52.541101
Cleyndertstraat,31,,,8044PN,Zwolle,Zwolle,Overijssel,VBO,6.037889,52.541054
Cleyndertstraat,33,,,8044PN,Zwolle,Zwolle,Overijssel,VBO,6.037925,52.541011
Cleyndertstraat,35,,,8044PN,Zwolle,Zwolle,Overijssel,VBO,6.037965,52.540968
Cleyndertstraat,37,,,8044PN,Zwolle,Zwolle,Overijssel,VBO,6.037999,52.540922
Cleyndertstraat,39,,,8044PN,Zwolle,Zwolle,Overijssel,VBO,6.038100,52.540753
Cleyndertstraat,41,,,8044PN,Zwolle,Zwolle,Overijssel,VBO,6.038142,52.540700
Cleyndertstraat,43,,,8044PN,Zwolle,Zwolle,Overijssel,VBO,6.038203,52.540577
Cleyndertstraat,45,,,8044PN,Zwolle,Zwolle,Overijssel,VBO,6.038250,52.540522
Cleyndertstraat,59,,,8044PN,Zwolle,Zwolle,Overijssel,VBO,6.039342,52.539844
Cleyndertstraat,61,,,8044PN,Zwolle,Zwolle,Overijssel,VBO,6.039298,52.539893
Cleyndertstraat,63,,,8044PN,Zwolle,Zwolle,Overijssel,VBO,6.039257,52.539944
Cleyndertstraat,65,,,8044PN,Zwolle,Zwolle,Overijssel,VBO,6.039216,52.539995
Cleyndertstraat,67,,,8044PN,Zwolle,Zwolle,Overijssel,VBO,6.039169,52.540043
Cleyndertstraat,69,,,8044PN,Zwolle,Zwolle,Overijssel,VBO,6.039143,52.540088
Cleyndertstraat,71,,,8044PN,Zwolle,Zwolle,Overijssel,VBO,6.039107,52.540134
Cleyndertstraat,73,,,8044PN,Zwolle,Zwolle,Overijssel,VBO,6.039068,52.540180
Cleyndertstraat,75,,,8044PN,Zwolle,Zwolle,Overijssel,VBO,6.039031,52.540232
Cleyndertstraat,77,,,8044PN,Zwolle,Zwolle,Overijssel,VBO,6.039001,52.540280
Cleyndertstraat,79,,,8044PN,Zwolle,Zwolle,Overijssel,VBO,6.038963,52.540335
Cleyndertstraat,81,,,8044PN,Zwolle,Zwolle,Overijssel,VBO,6.038932,52.540380
Cleyndertstraat,83,,,8044PN,Zwolle,Zwolle,Overijssel,VBO,6.038901,52.540433
Cleyndertstraat,85,,,8044PN,Zwolle,Zwolle,Overijssel,VBO,6.038844,52.540506
Cleyndertstraat,87,,,8044PN,Zwolle,Zwolle,Overijssel,VBO,6.038803,52.540558
Cleyndertstraat,89,,,8044PN,Zwolle,Zwolle,Overijssel,VBO,6.038763,52.540612
Cleyndertstraat,91,,,8044PN,Zwolle,Zwolle,Overijssel,VBO,6.038725,52.540659
Cleyndertstraat,93,,,8044PN,Zwolle,Zwolle,Overijssel,VBO,6.038681,52.540708
Cleyndertstraat,95,,,8044PN,Zwolle,Zwolle,Overijssel,VBO,6.038646,52.540763
Cleyndertstraat,97,,,8044PN,Zwolle,Zwolle,Overijssel,VBO,6.038612,52.540806
Cleyndertstraat,99,,,8044PN,Zwolle,Zwolle,Overijssel,VBO,6.038574,52.540856
Cleyndertstraat,101,,,8044PN,Zwolle,Zwolle,Overijssel,VBO,6.038531,52.540901
Cleyndertstraat,103,,,8044PN,Zwolle,Zwolle,Overijssel,VBO,6.038451,52.541053
Cleyndertstraat,105,,,8044PN,Zwolle,Zwolle,Overijssel,VBO,6.038415,52.541099
Cleyndertstraat,107,,,8044PN,Zwolle,Zwolle,Overijssel,VBO,6.038381,52.541142
Cleyndertstraat,109,,,8044PN,Zwolle,Zwolle,Overijssel,VBO,6.038352,52.541195
Cleyndertstraat,111,,,8044PN,Zwolle,Zwolle,Overijssel,VBO,6.038315,52.541241
Cleyndertstraat,113,,,8044PN,Zwolle,Zwolle,Overijssel,VBO,6.038295,52.541292
Cleyndertstraat,115,,,8044PN,Zwolle,Zwolle,Overijssel,VBO,6.038259,52.541347
Cleyndertstraat,117,,,8044PN,Zwolle,Zwolle,Overijssel,VBO,6.038223,52.541389
Cleyndertstraat,6,,,8044PP,Zwolle,Zwolle,Overijssel,VBO,6.036842,52.541835
Cleyndertstraat,8,,,8044PP,Zwolle,Zwolle,Overijssel,VBO,6.036879,52.541785
Cleyndertstraat,10,,,8044PP,Zwolle,Zwolle,Overijssel,VBO,6.036979,52.541680
Cleyndertstraat,12,,,8044PP,Zwolle,Zwolle,Overijssel,VBO,6.037008,52.541636
Cleyndertstraat,14,,,8044PP,Zwolle,Zwolle,Overijssel,VBO,6.037046,52.541596
Cleyndertstraat,16,,,8044PP,Zwolle,Zwolle,Overijssel,VBO,6.037074,52.541553
Cleyndertstraat,18,,,8044PP,Zwolle,Zwolle,Overijssel,VBO,6.037105,52.541507
Cleyndertstraat,20,,,8044PP,Zwolle,Zwolle,Overijssel,VBO,6.037137,52.541462
Cleyndertstraat,22,,,8044PP,Zwolle,Zwolle,Overijssel,VBO,6.037383,52.541181
Cleyndertstraat,24,,,8044PP,Zwolle,Zwolle,Overijssel,VBO,6.037421,52.541134
Cleyndertstraat,26,,,8044PP,Zwolle,Zwolle,Overijssel,VBO,6.037455,52.541086
Cleyndertstraat,28,,,8044PP,Zwolle,Zwolle,Overijssel,VBO,6.037496,52.541034
Cleyndertstraat,30,,,8044PP,Zwolle,Zwolle,Overijssel,VBO,6.037527,52.540987
Cleyndertstraat,32,,,8044PP,Zwolle,Zwolle,Overijssel,VBO,6.037574,52.540938
Cleyndertstraat,34,,,8044PP,Zwolle,Zwolle,Overijssel,VBO,6.037604,52.540891
Cleyndertstraat,36,,,8044PP,Zwolle,Zwolle,Overijssel,VBO,6.037644,52.540844
Cleyndertstraat,38,,,8044PP,Zwolle,Zwolle,Overijssel,VBO,6.037681,52.540731
Cleyndertstraat,40,,,8044PP,Zwolle,Zwolle,Overijssel,VBO,6.037715,52.540680
Cleyndertstraat,42,,,8044PP,Zwolle,Zwolle,Overijssel,VBO,6.037777,52.540509
Cleyndertstraat,44,,,8044PP,Zwolle,Zwolle,Overijssel,VBO,6.037806,52.540455
Cleyndertstraat,46,,,8044PP,Zwolle,Zwolle,Overijssel,VBO,6.037905,52.540308
Cleyndertstraat,48,,,8044PP,Zwolle,Zwolle,Overijssel,VBO,6.037937,52.540253
Van Leeuwenpad,9,,,8044PR,Zwolle,Zwolle,Overijssel,VBO,6.042177,52.543347
Van Leeuwenpad,11,,,8044PR,Zwolle,Zwolle,Overijssel,VBO,6.042136,52.543394
Van Leeuwenpad,13,,,8044PR,Zwolle,Zwolle,Overijssel,VBO,6.042068,52.543508
Van Leeuwenpad,15,,,8044PR,Zwolle,Zwolle,Overijssel,VBO,6.042032,52.543555
Van Leeuwenpad,17,,,8044PR,Zwolle,Zwolle,Overijssel,VBO,6.041954,52.543665
Van Leeuwenpad,19,,,8044PR,Zwolle,Zwolle,Overijssel,VBO,6.041916,52.543709
Van Leeuwenpad,21,,,8044PR,Zwolle,Zwolle,Overijssel,VBO,6.041836,52.543819
Van Leeuwenpad,23,,,8044PR,Zwolle,Zwolle,Overijssel,VBO,6.041803,52.543864
Van Leeuwenpad,25,,,8044PR,Zwolle,Zwolle,Overijssel,VBO,6.041596,52.544128
Van Leeuwenpad,27,,,8044PR,Zwolle,Zwolle,Overijssel,VBO,6.041522,52.544228
Van Leeuwenpad,29,,,8044PR,Zwolle,Zwolle,Overijssel,VBO,6.041484,52.544274
Wiegersmastraat,1,,,8044PS,Zwolle,Zwolle,Overijssel,VBO,6.039313,52.542537
Wiegersmastraat,2,,,8044PS,Zwolle,Zwolle,Overijssel,VBO,6.038836,52.542454
Wiegersmastraat,3,,,8044PS,Zwolle,Zwolle,Overijssel,VBO,6.039335,52.542484
Wiegersmastraat,4,,,8044PS,Zwolle,Zwolle,Overijssel,VBO,6.038876,52.542404
Wiegersmastraat,5,,,8044PS,Zwolle,Zwolle,Overijssel,VBO,6.039358,52.542428
Wiegersmastraat,6,,,8044PS,Zwolle,Zwolle,Overijssel,VBO,6.038908,52.542356
Wiegersmastraat,7,,,8044PS,Zwolle,Zwolle,Overijssel,VBO,6.039386,52.542375
Wiegersmastraat,8,,,8044PS,Zwolle,Zwolle,Overijssel,VBO,6.038944,52.542304
Wiegersmastraat,9,,,8044PS,Zwolle,Zwolle,Overijssel,VBO,6.039410,52.542325
Wiegersmastraat,10,,,8044PS,Zwolle,Zwolle,Overijssel,VBO,6.038981,52.542256
Wiegersmastraat,12,,,8044PS,Zwolle,Zwolle,Overijssel,VBO,6.039017,52.542203
Westhoffstraat,2,,,8044PT,Zwolle,Zwolle,Overijssel,VBO,6.039814,52.542602
Westhoffstraat,4,,,8044PT,Zwolle,Zwolle,Overijssel,VBO,6.039855,52.542559
Westhoffstraat,6,,,8044PT,Zwolle,Zwolle,Overijssel,VBO,6.039883,52.542511
Westhoffstraat,8,,,8044PT,Zwolle,Zwolle,Overijssel,VBO,6.039915,52.542468
Drijverstraat,22,,,8044PV,Zwolle,Zwolle,Overijssel,VBO,6.041626,52.544069
Jac P Thijsselaan,4,,,8044PX,Zwolle,Zwolle,Overijssel,VBO,6.036602,52.542513
Jac P Thijsselaan,6,,,8044PX,Zwolle,Zwolle,Overijssel,VBO,6.036504,52.542499
Jac P Thijsselaan,8,,,8044PX,Zwolle,Zwolle,Overijssel,VBO,6.036423,52.542487
Jac P Thijsselaan,10,,,8044PX,Zwolle,Zwolle,Overijssel,VBO,6.036335,52.542476
Jac P Thijsselaan,12,,,8044PX,Zwolle,Zwolle,Overijssel,VBO,6.036251,52.542464
Jac P Thijsselaan,14,,,8044PX,Zwolle,Zwolle,Overijssel,VBO,6.036156,52.542448
Jac P Thijsselaan,16,,,8044PX,Zwolle,Zwolle,Overijssel,VBO,6.035828,52.542388
Jac P Thijsselaan,18,,,8044PX,Zwolle,Zwolle,Overijssel,VBO,6.035727,52.542372
Jac P Thijsselaan,20,,,8044PX,Zwolle,Zwolle,Overijssel,VBO,6.035639,52.542356
Jac P Thijsselaan,22,,,8044PX,Zwolle,Zwolle,Overijssel,VBO,6.035558,52.542342
Jac P Thijsselaan,24,,,8044PX,Zwolle,Zwolle,Overijssel,VBO,6.035470,52.542328
Jac P Thijsselaan,26,,,8044PX,Zwolle,Zwolle,Overijssel,VBO,6.035396,52.542316
Jac P Thijsselaan,28,,,8044PX,Zwolle,Zwolle,Overijssel,VBO,6.035295,52.542298
Jac P Thijsselaan,30,,,8044PX,Zwolle,Zwolle,Overijssel,VBO,6.034963,52.542243
Jac P Thijsselaan,32,,,8044PX,Zwolle,Zwolle,Overijssel,VBO,6.034869,52.542225
Jac P Thijsselaan,34,,,8044PX,Zwolle,Zwolle,Overijssel,VBO,6.034774,52.542217
Jac P Thijsselaan,36,,,8044PX,Zwolle,Zwolle,Overijssel,VBO,6.034683,52.542201
Jac P Thijsselaan,38,,,8044PX,Zwolle,Zwolle,Overijssel,VBO,6.034602,52.542185
Jac P Thijsselaan,40,,,8044PX,Zwolle,Zwolle,Overijssel,VBO,6.034511,52.542171
Jac P Thijsselaan,56,,,8044PZ,Zwolle,Zwolle,Overijssel,VBO,6.034786,52.543410
Jac P Thijsselaan,58,,,8044PZ,Zwolle,Zwolle,Overijssel,VBO,6.034868,52.543424
Jac P Thijsselaan,60,,,8044PZ,Zwolle,Zwolle,Overijssel,VBO,6.034946,52.543436
Jac P Thijsselaan,62,,,8044PZ,Zwolle,Zwolle,Overijssel,VBO,6.035025,52.543448
Jac P Thijsselaan,64,,,8044PZ,Zwolle,Zwolle,Overijssel,VBO,6.035098,52.543461
Jac P Thijsselaan,66,,,8044PZ,Zwolle,Zwolle,Overijssel,VBO,6.035176,52.543473
Jac P Thijsselaan,68,,,8044PZ,Zwolle,Zwolle,Overijssel,VBO,6.035251,52.543487
Jac P Thijsselaan,70,,,8044PZ,Zwolle,Zwolle,Overijssel,VBO,6.035335,52.543503
Jac P Thijsselaan,42,,,8044RA,Zwolle,Zwolle,Overijssel,VBO,6.033998,52.543280
Jac P Thijsselaan,44,,,8044RA,Zwolle,Zwolle,Overijssel,VBO,6.034088,52.543288
Jac P Thijsselaan,46,,,8044RA,Zwolle,Zwolle,Overijssel,VBO,6.034154,52.543304
Jac P Thijsselaan,48,,,8044RA,Zwolle,Zwolle,Overijssel,VBO,6.034241,52.543311
Jac P Thijsselaan,50,,,8044RA,Zwolle,Zwolle,Overijssel,VBO,6.034309,52.543326
Jac P Thijsselaan,52,,,8044RA,Zwolle,Zwolle,Overijssel,VBO,6.034384,52.543337
Jac P Thijsselaan,54,,,8044RA,Zwolle,Zwolle,Overijssel,VBO,6.034488,52.543351
Jac P Thijsselaan,72,,,8044RA,Zwolle,Zwolle,Overijssel,VBO,6.035632,52.543553
Jac P Thijsselaan,74,,,8044RA,Zwolle,Zwolle,Overijssel,VBO,6.035719,52.543564
Jac P Thijsselaan,76,,,8044RA,Zwolle,Zwolle,Overijssel,VBO,6.035804,52.543580
Jac P Thijsselaan,78,,,8044RA,Zwolle,Zwolle,Overijssel,VBO,6.035875,52.543591
Jac P Thijsselaan,80,,,8044RA,Zwolle,Zwolle,Overijssel,VBO,6.035955,52.543603
Jac P Thijsselaan,82,,,8044RA,Zwolle,Zwolle,Overijssel,VBO,6.036037,52.543630
Jac P Thijsselaan,84,,,8044RA,Zwolle,Zwolle,Overijssel,VBO,6.036122,52.543634
Jac P Thijsselaan,98,,,8044RB,Zwolle,Zwolle,Overijssel,VBO,6.038911,52.544101
Jac P Thijsselaan,100,,,8044RB,Zwolle,Zwolle,Overijssel,VBO,6.038997,52.544115
Jac P Thijsselaan,102,,,8044RB,Zwolle,Zwolle,Overijssel,VBO,6.039073,52.544128
Jac P Thijsselaan,104,,,8044RB,Zwolle,Zwolle,Overijssel,VBO,6.039150,52.544144
Jac P Thijsselaan,106,,,8044RB,Zwolle,Zwolle,Overijssel,VBO,6.039231,52.544157
Jac P Thijsselaan,108,,,8044RB,Zwolle,Zwolle,Overijssel,VBO,6.039307,52.544166
Jac P Thijsselaan,110,,,8044RB,Zwolle,Zwolle,Overijssel,VBO,6.039382,52.544177
Jac P Thijsselaan,112,,,8044RB,Zwolle,Zwolle,Overijssel,VBO,6.039457,52.544190
Jac P Thijsselaan,114,,,8044RB,Zwolle,Zwolle,Overijssel,VBO,6.039538,52.544205
Jac P Thijsselaan,116,,,8044RB,Zwolle,Zwolle,Overijssel,VBO,6.039617,52.544218
Jac P Thijsselaan,118,,,8044RB,Zwolle,Zwolle,Overijssel,VBO,6.039709,52.544235
Jac P Thijsselaan,120,,,8044RB,Zwolle,Zwolle,Overijssel,VBO,6.040046,52.544289
Jac P Thijsselaan,122,,,8044RB,Zwolle,Zwolle,Overijssel,VBO,6.040142,52.544304
Jac P Thijsselaan,124,,,8044RB,Zwolle,Zwolle,Overijssel,VBO,6.040215,52.544314
Jac P Thijsselaan,126,,,8044RB,Zwolle,Zwolle,Overijssel,VBO,6.040298,52.544330
Gorterstraat,1,,,8044RC,Zwolle,Zwolle,Overijssel,VBO,6.038607,52.542854
Gorterstraat,3,,,8044RC,Zwolle,Zwolle,Overijssel,VBO,6.038688,52.542869
Gorterstraat,5,,,8044RC,Zwolle,Zwolle,Overijssel,VBO,6.038764,52.542881
Gorterstraat,7,,,8044RC,Zwolle,Zwolle,Overijssel,VBO,6.038837,52.542892
Gorterstraat,9,,,8044RC,Zwolle,Zwolle,Overijssel,VBO,6.038910,52.542906
Gorterstraat,11,,,8044RC,Zwolle,Zwolle,Overijssel,VBO,6.038990,52.542918
Gorterstraat,13,A,,8044RC,Zwolle,Zwolle,Overijssel,VBO,6.039397,52.542987
Gorterstraat,13,,,8044RC,Zwolle,Zwolle,Overijssel,VBO,6.039077,52.542933
Gorterstraat,15,,,8044RC,Zwolle,Zwolle,Overijssel,VBO,6.039488,52.543004
Gorterstraat,17,,,8044RC,Zwolle,Zwolle,Overijssel,VBO,6.039568,52.543016
Gorterstraat,19,,,8044RC,Zwolle,Zwolle,Overijssel,VBO,6.039639,52.543027
Gorterstraat,21,,,8044RC,Zwolle,Zwolle,Overijssel,VBO,6.039717,52.543041
Gorterstraat,23,,,8044RC,Zwolle,Zwolle,Overijssel,VBO,6.039792,52.543054
Gorterstraat,25,,,8044RC,Zwolle,Zwolle,Overijssel,VBO,6.039867,52.543064
Gorterstraat,27,,,8044RC,Zwolle,Zwolle,Overijssel,VBO,6.039951,52.543080
Gorterstraat,29,,,8044RC,Zwolle,Zwolle,Overijssel,VBO,6.040024,52.543094
Gorterstraat,31,,,8044RC,Zwolle,Zwolle,Overijssel,VBO,6.040095,52.543105
Gorterstraat,33,A,,8044RC,Zwolle,Zwolle,Overijssel,VBO,6.040549,52.543179
Gorterstraat,33,,,8044RC,Zwolle,Zwolle,Overijssel,VBO,6.040177,52.543119
Gorterstraat,35,,,8044RC,Zwolle,Zwolle,Overijssel,VBO,6.040641,52.543197
Gorterstraat,37,,,8044RC,Zwolle,Zwolle,Overijssel,VBO,6.040716,52.543208
Gorterstraat,39,,,8044RC,Zwolle,Zwolle,Overijssel,VBO,6.040796,52.543222
Gorterstraat,41,,,8044RC,Zwolle,Zwolle,Overijssel,VBO,6.040693,52.543469
Gorterstraat,43,,,8044RC,Zwolle,Zwolle,Overijssel,VBO,6.040679,52.543521
Gorterstraat,45,,,8044RC,Zwolle,Zwolle,Overijssel,VBO,6.040656,52.543565
Gorterstraat,47,,,8044RC,Zwolle,Zwolle,Overijssel,VBO,6.040630,52.543612
Gorterstraat,49,,,8044RC,Zwolle,Zwolle,Overijssel,VBO,6.040615,52.543661
Gorterstraat,51,,,8044RC,Zwolle,Zwolle,Overijssel,VBO,6.040589,52.543708
Gorterstraat,53,,,8044RC,Zwolle,Zwolle,Overijssel,VBO,6.040567,52.543753
Gorterstraat,55,,,8044RC,Zwolle,Zwolle,Overijssel,VBO,6.040552,52.543803
Gorterstraat,57,,,8044RC,Zwolle,Zwolle,Overijssel,VBO,6.040530,52.543849
Gorterstraat,59,,,8044RC,Zwolle,Zwolle,Overijssel,VBO,6.040508,52.543896
Gorterstraat,61,,,8044RC,Zwolle,Zwolle,Overijssel,VBO,6.040489,52.543943
Gorterstraat,63,,,8044RC,Zwolle,Zwolle,Overijssel,VBO,6.040471,52.543987
Gorterstraat,65,,,8044RC,Zwolle,Zwolle,Overijssel,VBO,6.040445,52.544039
Gorterstraat,67,,,8044RC,Zwolle,Zwolle,Overijssel,VBO,6.040422,52.544088
Gorterstraat,6,,,8044RD,Zwolle,Zwolle,Overijssel,VBO,6.038532,52.542603
Gorterstraat,8,,,8044RD,Zwolle,Zwolle,Overijssel,VBO,6.038613,52.542612
Gorterstraat,10,,,8044RD,Zwolle,Zwolle,Overijssel,VBO,6.038693,52.542626
Gorterstraat,12,,,8044RD,Zwolle,Zwolle,Overijssel,VBO,6.038767,52.542648
Gorterstraat,14,,,8044RD,Zwolle,Zwolle,Overijssel,VBO,6.039154,52.542716
Gorterstraat,16,,,8044RD,Zwolle,Zwolle,Overijssel,VBO,6.039238,52.542718
Gorterstraat,18,,,8044RD,Zwolle,Zwolle,Overijssel,VBO,6.039316,52.542729
Gorterstraat,20,,,8044RD,Zwolle,Zwolle,Overijssel,VBO,6.039398,52.542744
Gorterstraat,22,,,8044RD,Zwolle,Zwolle,Overijssel,VBO,6.039469,52.542756
Gorterstraat,24,,,8044RD,Zwolle,Zwolle,Overijssel,VBO,6.039545,52.542767
Gorterstraat,26,,,8044RD,Zwolle,Zwolle,Overijssel,VBO,6.039622,52.542781
Gorterstraat,28,,,8044RD,Zwolle,Zwolle,Overijssel,VBO,6.039698,52.542800
Martinetstraat,1,,,8044RE,Zwolle,Zwolle,Overijssel,VBO,6.036404,52.542983
Martinetstraat,3,,,8044RE,Zwolle,Zwolle,Overijssel,VBO,6.036324,52.542971
Martinetstraat,5,,,8044RE,Zwolle,Zwolle,Overijssel,VBO,6.036249,52.542957
Martinetstraat,7,,,8044RE,Zwolle,Zwolle,Overijssel,VBO,6.036172,52.542944
Martinetstraat,9,,,8044RE,Zwolle,Zwolle,Overijssel,VBO,6.036099,52.542934
Martinetstraat,11,,,8044RE,Zwolle,Zwolle,Overijssel,VBO,6.036017,52.542921
Martinetstraat,13,,,8044RE,Zwolle,Zwolle,Overijssel,VBO,6.035935,52.542910
Martinetstraat,15,,,8044RE,Zwolle,Zwolle,Overijssel,VBO,6.035623,52.542853
Martinetstraat,17,,,8044RE,Zwolle,Zwolle,Overijssel,VBO,6.035546,52.542840
Martinetstraat,19,,,8044RE,Zwolle,Zwolle,Overijssel,VBO,6.035468,52.542827
Martinetstraat,21,,,8044RE,Zwolle,Zwolle,Overijssel,VBO,6.035391,52.542816
Martinetstraat,23,,,8044RE,Zwolle,Zwolle,Overijssel,VBO,6.035316,52.542802
Martinetstraat,25,,,8044RE,Zwolle,Zwolle,Overijssel,VBO,6.035234,52.542792
Martinetstraat,27,,,8044RE,Zwolle,Zwolle,Overijssel,VBO,6.035165,52.542779
Martinetstraat,29,,,8044RE,Zwolle,Zwolle,Overijssel,VBO,6.035088,52.542763
Martinetstraat,31,,,8044RE,Zwolle,Zwolle,Overijssel,VBO,6.034759,52.542711
Martinetstraat,33,,,8044RE,Zwolle,Zwolle,Overijssel,VBO,6.034679,52.542697
Martinetstraat,35,,,8044RE,Zwolle,Zwolle,Overijssel,VBO,6.034602,52.542685
Martinetstraat,37,,,8044RE,Zwolle,Zwolle,Overijssel,VBO,6.034528,52.542670
Martinetstraat,39,,,8044RE,Zwolle,Zwolle,Overijssel,VBO,6.034451,52.542657
Martinetstraat,41,,,8044RE,Zwolle,Zwolle,Overijssel,VBO,6.034374,52.542643
Martinetstraat,43,,,8044RE,Zwolle,Zwolle,Overijssel,VBO,6.034296,52.542631
Martinetstraat,2,,,8044RG,Zwolle,Zwolle,Overijssel,VBO,6.036346,52.543132
Martinetstraat,4,,,8044RG,Zwolle,Zwolle,Overijssel,VBO,6.036254,52.543119
Martinetstraat,6,,,8044RG,Zwolle,Zwolle,Overijssel,VBO,6.036181,52.543104
Martinetstraat,8,,,8044RG,Zwolle,Zwolle,Overijssel,VBO,6.036103,52.543094
Martinetstraat,10,,,8044RG,Zwolle,Zwolle,Overijssel,VBO,6.036023,52.543079
Martinetstraat,12,,,8044RG,Zwolle,Zwolle,Overijssel,VBO,6.035948,52.543067
Martinetstraat,14,,,8044RG,Zwolle,Zwolle,Overijssel,VBO,6.035853,52.543050
Martinetstraat,16,,,8044RG,Zwolle,Zwolle,Overijssel,VBO,6.035546,52.543028
Martinetstraat,18,,,8044RG,Zwolle,Zwolle,Overijssel,VBO,6.035460,52.543015
Martinetstraat,20,,,8044RG,Zwolle,Zwolle,Overijssel,VBO,6.035374,52.543022
Martinetstraat,22,,,8044RG,Zwolle,Zwolle,Overijssel,VBO,6.035297,52.543011
Martinetstraat,24,,,8044RG,Zwolle,Zwolle,Overijssel,VBO,6.035222,52.543000
Martinetstraat,26,,,8044RG,Zwolle,Zwolle,Overijssel,VBO,6.035149,52.542984
Martinetstraat,28,,,8044RG,Zwolle,Zwolle,Overijssel,VBO,6.035080,52.542955
Martinetstraat,30,,,8044RG,Zwolle,Zwolle,Overijssel,VBO,6.035000,52.542944
Martinetstraat,32,,,8044RG,Zwolle,Zwolle,Overijssel,VBO,6.034681,52.542892
Martinetstraat,34,,,8044RG,Zwolle,Zwolle,Overijssel,VBO,6.034593,52.542878
Martinetstraat,36,,,8044RG,Zwolle,Zwolle,Overijssel,VBO,6.034515,52.542863
Martinetstraat,38,,,8044RG,Zwolle,Zwolle,Overijssel,VBO,6.034439,52.542853
Martinetstraat,40,,,8044RG,Zwolle,Zwolle,Overijssel,VBO,6.034364,52.542840
Martinetstraat,42,,,8044RG,Zwolle,Zwolle,Overijssel,VBO,6.034291,52.542827
Martinetstraat,44,,,8044RG,Zwolle,Zwolle,Overijssel,VBO,6.034217,52.542815
Van Oortstraat,13,,,8044RJ,Zwolle,Zwolle,Overijssel,VBO,6.039134,52.543632
Van Oortstraat,14,,,8044RJ,Zwolle,Zwolle,Overijssel,VBO,6.039211,52.543452
Van Oortstraat,15,,,8044RJ,Zwolle,Zwolle,Overijssel,VBO,6.039215,52.543643
Van Oortstraat,16,,,8044RJ,Zwolle,Zwolle,Overijssel,VBO,6.039291,52.543468
Van Oortstraat,17,,,8044RJ,Zwolle,Zwolle,Overijssel,VBO,6.039288,52.543657
Van Oortstraat,18,,,8044RJ,Zwolle,Zwolle,Overijssel,VBO,6.039361,52.543479
Van Oortstraat,19,,,8044RJ,Zwolle,Zwolle,Overijssel,VBO,6.039365,52.543668
Van Oortstraat,20,,,8044RJ,Zwolle,Zwolle,Overijssel,VBO,6.039445,52.543495
Van Oortstraat,21,,,8044RJ,Zwolle,Zwolle,Overijssel,VBO,6.039438,52.543682
Van Oortstraat,22,,,8044RJ,Zwolle,Zwolle,Overijssel,VBO,6.039520,52.543504
Van Oortstraat,23,,,8044RJ,Zwolle,Zwolle,Overijssel,VBO,6.039515,52.543695
Van Oortstraat,24,,,8044RJ,Zwolle,Zwolle,Overijssel,VBO,6.039599,52.543512
Van Oortstraat,25,,,8044RJ,Zwolle,Zwolle,Overijssel,VBO,6.039592,52.543711
Van Oortstraat,26,,,8044RJ,Zwolle,Zwolle,Overijssel,VBO,6.039674,52.543529
Van Oortstraat,27,,,8044RJ,Zwolle,Zwolle,Overijssel,VBO,6.039673,52.543723
Van Oortstraat,28,,,8044RJ,Zwolle,Zwolle,Overijssel,VBO,6.039754,52.543543
Van Oortstraat,29,,,8044RJ,Zwolle,Zwolle,Overijssel,VBO,6.039753,52.543734
Van Oortstraat,30,,,8044RJ,Zwolle,Zwolle,Overijssel,VBO,6.039833,52.543555
Van Oortstraat,31,,,8044RJ,Zwolle,Zwolle,Overijssel,VBO,6.039830,52.543750
Van Oortstraat,32,,,8044RJ,Zwolle,Zwolle,Overijssel,VBO,6.039913,52.543567
Van Oortstraat,33,,,8044RJ,Zwolle,Zwolle,Overijssel,VBO,6.039907,52.543763
Van Oortstraat,34,,,8044RJ,Zwolle,Zwolle,Overijssel,VBO,6.039993,52.543581
Van Oortstraat,35,,,8044RJ,Zwolle,Zwolle,Overijssel,VBO,6.040037,52.543714
Van Oortstraat,36,,,8044RJ,Zwolle,Zwolle,Overijssel,VBO,6.040059,52.543662
