openbareruimtenaam,huisnummer,huisletter,huisnummertoevoeging,postcode,woonplaatsnaam,gemeentenaam,provincienaam,typeadresseerbaarobject,longitude,latitude
Grotenweg,1,,,8148NA,Lemele,Ommen,Overijssel,VBO,6.413682,52.454410
Grotenweg,3,,,8148NA,Lemele,Ommen,Overijssel,VBO,6.413965,52.454552
Grotenweg,5,,,8148NA,Lemele,Ommen,Overijssel,VBO,6.414217,52.454631
ds.Berkhofweg,1,,,8148NB,Lemele,Ommen,Overijssel,VBO,6.415199,52.451305
ds.Berkhofweg,2,,,8148NB,Lemele,Ommen,Overijssel,VBO,6.414564,52.451212
ds.Berkhofweg,3,,,8148NB,Lemele,Ommen,Overijssel,VBO,6.415284,52.451170
ds.Berkhofweg,4,,,8148NB,Lemele,Ommen,Overijssel,VBO,6.414667,52.451229
ds.Berkhofweg,5,,,8148NB,Lemele,Ommen,Overijssel,VBO,6.415305,52.450819
ds.Berkhofweg,6,,,8148NB,Lemele,Ommen,Overijssel,VBO,6.414756,52.451237
ds.Berkhofweg,7,,,8148NB,Lemele,Ommen,Overijssel,VBO,6.415333,52.450765
ds.Berkhofweg,8,,,8148NB,Lemele,Ommen,Overijssel,VBO,6.414796,52.451066
ds.Berkhofweg,9,,,8148NB,Lemele,Ommen,Overijssel,VBO,6.415420,52.450701
ds.Berkhofweg,10,,,8148NB,Lemele,Ommen,Overijssel,VBO,6.414795,52.451003
ds.Berkhofweg,11,,,8148NB,Lemele,Ommen,Overijssel,VBO,6.415477,52.450593
ds.Berkhofweg,12,,,8148NB,Lemele,Ommen,Overijssel,VBO,6.414822,52.450895
ds.Berkhofweg,14,,,8148NB,Lemele,Ommen,Overijssel,VBO,6.414835,52.450832
ds.Berkhofweg,16,,,8148NB,Lemele,Ommen,Overijssel,VBO,6.414846,52.450670
ds.Berkhofweg,18,,,8148NB,Lemele,Ommen,Overijssel,VBO,6.414873,52.450598
ds.Berkhofweg,20,,,8148NB,Lemele,Ommen,Overijssel,VBO,6.414797,52.450482
ds.Berkhofweg,22,a,,8148NB,Lemele,Ommen,Overijssel,VBO,6.415087,52.450282
ds.Berkhofweg,22,,,8148NB,Lemele,Ommen,Overijssel,VBO,6.414810,52.450410
ds.Berkhofweg,24,,,8148NB,Lemele,Ommen,Overijssel,VBO,6.417369,52.449750
ds.Berkhofweg,26,,,8148NB,Lemele,Ommen,Overijssel,VBO,6.417578,52.449847
ds.Berkhofweg,13,,,8148NC,Lemele,Ommen,Overijssel,VBO,6.415686,52.450762
ds.Berkhofweg,15,,,8148NC,Lemele,Ommen,Overijssel,VBO,6.415731,52.450797
ds.Berkhofweg,17,,,8148NC,Lemele,Ommen,Overijssel,VBO,6.415806,52.450824
ds.Berkhofweg,19,,,8148NC,Lemele,Ommen,Overijssel,VBO,6.415894,52.450850
ds.Berkhofweg,21,,,8148NC,Lemele,Ommen,Overijssel,VBO,6.415954,52.450885
ds.Berkhofweg,23,,,8148NC,Lemele,Ommen,Overijssel,VBO,6.415948,52.450634
ds.Berkhofweg,25,,,8148NC,Lemele,Ommen,Overijssel,VBO,6.415992,52.450597
ds.Berkhofweg,27,,,8148NC,Lemele,Ommen,Overijssel,VBO,6.416035,52.450552
ds.Berkhofweg,29,,,8148NC,Lemele,Ommen,Overijssel,VBO,6.416078,52.450525
ds.Berkhofweg,31,,,8148NC,Lemele,Ommen,Overijssel,VBO,6.416193,52.450425
ds.Berkhofweg,33,,,8148NC,Lemele,Ommen,Overijssel,VBO,6.416237,52.450389
ds.Berkhofweg,35,,,8148NC,Lemele,Ommen,Overijssel,VBO,6.416352,52.450280
ds.Berkhofweg,37,,,8148NC,Lemele,Ommen,Overijssel,VBO,6.416395,52.450234
ds.Berkhofweg,39,,,8148NC,Lemele,Ommen,Overijssel,VBO,6.416599,52.450143
ds.Berkhofweg,41,,,8148NC,Lemele,Ommen,Overijssel,VBO,6.416947,52.449942
ds.Berkhofweg,43,,,8148NC,Lemele,Ommen,Overijssel,VBO,6.417081,52.450004
ds.Berkhofweg,45,,,8148NC,Lemele,Ommen,Overijssel,VBO,6.417259,52.450065
ds.Berkhofweg,47,,,8148NC,Lemele,Ommen,Overijssel,VBO,6.417363,52.450118
Roggestraat,2,,,8148ND,Lemele,Ommen,Overijssel,VBO,6.415268,52.449229
Roggestraat,4,,,8148ND,Lemele,Ommen,Overijssel,VBO,6.415059,52.449096
Roggestraat,6,,,8148ND,Lemele,Ommen,Overijssel,VBO,6.414951,52.448872
Roggestraat,8,,,8148ND,Lemele,Ommen,Overijssel,VBO,6.414801,52.448729
Roggestraat,10,,,8148ND,Lemele,Ommen,Overijssel,VBO,6.415104,52.448552
Roggestraat,12,,,8148ND,Lemele,Ommen,Overijssel,VBO,6.415347,52.448666
Roggestraat,14,,,8148ND,Lemele,Ommen,Overijssel,VBO,6.415634,52.448710
Roggestraat,16,,,8148ND,Lemele,Ommen,Overijssel,VBO,6.415847,52.448810
Roggestraat,18,,,8148ND,Lemele,Ommen,Overijssel,VBO,6.415955,52.449016
Roggestraat,20,,,8148ND,Lemele,Ommen,Overijssel,VBO,6.416134,52.449113
Roggestraat,22,,,8148ND,Lemele,Ommen,Overijssel,VBO,6.416223,52.449148
Roggestraat,24,,,8148ND,Lemele,Ommen,Overijssel,VBO,6.416390,52.449223
Roggestraat,26,,,8148ND,Lemele,Ommen,Overijssel,VBO,6.416475,52.449263
Roggestraat,28,,,8148ND,Lemele,Ommen,Overijssel,VBO,6.416623,52.449316
Roggestraat,30,,,8148ND,Lemele,Ommen,Overijssel,VBO,6.416752,52.449363
Roggestraat,32,,,8148ND,Lemele,Ommen,Overijssel,VBO,6.416847,52.449413
Roggestraat,34,,,8148ND,Lemele,Ommen,Overijssel,VBO,6.416965,52.449448
Roggestraat,36,,,8148ND,Lemele,Ommen,Overijssel,VBO,6.417114,52.449518
Roggestraat,1,,,8148NE,Lemele,Ommen,Overijssel,VBO,6.416330,52.449965
Roggestraat,3,,,8148NE,Lemele,Ommen,Overijssel,VBO,6.416225,52.449903
Roggestraat,5,,,8148NE,Lemele,Ommen,Overijssel,VBO,6.416076,52.449815
Roggestraat,7,,,8148NE,Lemele,Ommen,Overijssel,VBO,6.416009,52.449806
Roggestraat,9,,,8148NE,Lemele,Ommen,Overijssel,VBO,6.415941,52.449783
Roggestraat,11,,,8148NE,Lemele,Ommen,Overijssel,VBO,6.415868,52.449736
Roggestraat,13,,,8148NE,Lemele,Ommen,Overijssel,VBO,6.415660,52.449612
Roggestraat,15,,,8148NE,Lemele,Ommen,Overijssel,VBO,6.415858,52.449350
Roggestraat,17,,,8148NE,Lemele,Ommen,Overijssel,VBO,6.415979,52.449420
Roggestraat,19,,,8148NE,Lemele,Ommen,Overijssel,VBO,6.416138,52.449491
Roggestraat,21,,,8148NE,Lemele,Ommen,Overijssel,VBO,6.416205,52.449524
Roggestraat,23,,,8148NE,Lemele,Ommen,Overijssel,VBO,6.416271,52.449550
Roggestraat,25,,,8148NE,Lemele,Ommen,Overijssel,VBO,6.416321,52.449570
Roggestraat,27,,,8148NE,Lemele,Ommen,Overijssel,VBO,6.416484,52.449623
Roggestraat,29,,,8148NE,Lemele,Ommen,Overijssel,VBO,6.416617,52.449657
Roggestraat,31,,,8148NE,Lemele,Ommen,Overijssel,VBO,6.416796,52.449755
Zichtweg,1,,,8148NG,Lemele,Ommen,Overijssel,VBO,6.417430,52.451570
Zichtweg,2,,,8148NG,Lemele,Ommen,Overijssel,VBO,6.417451,52.451511
Zichtweg,3,,,8148NG,Lemele,Ommen,Overijssel,VBO,6.417467,52.451460
Zichtweg,4,,,8148NG,Lemele,Ommen,Overijssel,VBO,6.417486,52.451407
Dorsweg,1,,,8148NH,Lemele,Ommen,Overijssel,VBO,6.417400,52.450912
Dorsweg,2,,,8148NH,Lemele,Ommen,Overijssel,VBO,6.417651,52.450707
Dorsweg,3,,,8148NH,Lemele,Ommen,Overijssel,VBO,6.417464,52.450934
Dorsweg,4,,,8148NH,Lemele,Ommen,Overijssel,VBO,6.417701,52.450730
Dorsweg,5,,,8148NH,Lemele,Ommen,Overijssel,VBO,6.417620,52.451007
Dorsweg,6,,,8148NH,Lemele,Ommen,Overijssel,VBO,6.417764,52.450752
Dorsweg,7,,,8148NH,Lemele,Ommen,Overijssel,VBO,6.417688,52.451029
Dorsweg,8,,,8148NH,Lemele,Ommen,Overijssel,VBO,6.417930,52.450834
Dorsweg,9,,,8148NH,Lemele,Ommen,Overijssel,VBO,6.417911,52.451146
Dorsweg,10,,,8148NH,Lemele,Ommen,Overijssel,VBO,6.418003,52.450855
Dorsweg,11,,,8148NH,Lemele,Ommen,Overijssel,VBO,6.417917,52.451212
Dorsweg,12,,,8148NH,Lemele,Ommen,Overijssel,VBO,6.418079,52.450905
Dorsweg,13,,,8148NH,Lemele,Ommen,Overijssel,VBO,6.417967,52.451407
Dorsweg,14,,,8148NH,Lemele,Ommen,Overijssel,VBO,6.418248,52.451009
Dorsweg,15,,,8148NH,Lemele,Ommen,Overijssel,VBO,6.417918,52.451546
Dorsweg,16,,,8148NH,Lemele,Ommen,Overijssel,VBO,6.418262,52.451055
Dorsweg,17,,,8148NH,Lemele,Ommen,Overijssel,VBO,6.417864,52.451688
Dorsweg,18,,,8148NH,Lemele,Ommen,Overijssel,VBO,6.418290,52.451096
Dorsweg,20,,,8148NH,Lemele,Ommen,Overijssel,VBO,6.418366,52.451192
Dorsweg,22,,,8148NH,Lemele,Ommen,Overijssel,VBO,6.418372,52.451259
Dorsweg,24,,,8148NH,Lemele,Ommen,Overijssel,VBO,6.418377,52.451469
Dorsweg,26,,,8148NH,Lemele,Ommen,Overijssel,VBO,6.418325,52.451605
Dorsweg,28,,,8148NH,Lemele,Ommen,Overijssel,VBO,6.418274,52.451750
Bindweg,1,,,8148NJ,Lemele,Ommen,Overijssel,VBO,6.417991,52.450410
Bindweg,2,,,8148NJ,Lemele,Ommen,Overijssel,VBO,6.417985,52.450052
Bindweg,3,,,8148NJ,Lemele,Ommen,Overijssel,VBO,6.418053,52.450447
Bindweg,5,a,,8148NJ,Lemele,Ommen,Overijssel,VBO,6.418230,52.450562
Bindweg,5,,,8148NJ,Lemele,Ommen,Overijssel,VBO,6.418169,52.450525
Bindweg,7,,,8148NJ,Lemele,Ommen,Overijssel,VBO,6.418284,52.450598
Bindweg,9,,,8148NJ,Lemele,Ommen,Overijssel,VBO,6.418405,52.450681
Bindweg,11,,,8148NJ,Lemele,Ommen,Overijssel,VBO,6.418463,52.450714
Bindweg,12,,,8148NJ,Lemele,Ommen,Overijssel,VBO,6.418745,52.450589
Bindweg,13,,,8148NJ,Lemele,Ommen,Overijssel,VBO,6.418520,52.450751
Bindweg,14,,,8148NJ,Lemele,Ommen,Overijssel,VBO,6.418811,52.450632
Bindweg,15,,,8148NJ,Lemele,Ommen,Overijssel,VBO,6.418656,52.450830
Bindweg,17,,,8148NJ,Lemele,Ommen,Overijssel,VBO,6.418713,52.450864
Bindweg,18,,,8148NJ,Lemele,Ommen,Overijssel,VBO,6.419213,52.450886
Bindweg,19,,,8148NJ,Lemele,Ommen,Overijssel,VBO,6.418772,52.450898
Bindweg,20,,,8148NJ,Lemele,Ommen,Overijssel,VBO,6.418797,52.451561
Bindweg,21,,,8148NJ,Lemele,Ommen,Overijssel,VBO,6.418948,52.451054
Bindweg,23,,,8148NJ,Lemele,Ommen,Overijssel,VBO,6.418965,52.451122
Bindweg,25,,,8148NJ,Lemele,Ommen,Overijssel,VBO,6.418872,52.451242
Bindweg,27,,,8148NJ,Lemele,Ommen,Overijssel,VBO,6.418857,52.451299
Parkweg,1,,,8148NZ,Lemele,Ommen,Overijssel,VBO,6.407389,52.466068
Parkweg,3,,,8148NZ,Lemele,Ommen,Overijssel,VBO,6.423852,52.462217
de Faanke,1,,,8148PA,Lemele,Ommen,Overijssel,VBO,6.430688,52.489261
de Faanke,2,,,8148PA,Lemele,Ommen,Overijssel,VBO,6.432217,52.489674
de Faanke,3,,,8148PA,Lemele,Ommen,Overijssel,VBO,6.434038,52.490436
de Faanke,4,,,8148PA,Lemele,Ommen,Overijssel,VBO,6.431016,52.488171
de Faanke,5,a,,8148PA,Lemele,Ommen,Overijssel,VBO,6.432840,52.486249
de Faanke,5,,,8148PA,Lemele,Ommen,Overijssel,VBO,6.432915,52.486312
de Faanke,6,,,8148PA,Lemele,Ommen,Overijssel,VBO,6.429827,52.483948
de Faanke,7,,,8148PA,Lemele,Ommen,Overijssel,VBO,6.429409,52.483098
de Faanke,8,,,8148PA,Lemele,Ommen,Overijssel,VBO,6.430089,52.481959
de Faanke,9,,,8148PA,Lemele,Ommen,Overijssel,VBO,6.429854,52.481386
Lemelerweg,17,,,8148PB,Lemele,Ommen,Overijssel,VBO,6.427864,52.481889
Lemelerweg,21,,,8148PB,Lemele,Ommen,Overijssel,VBO,6.428575,52.481460
Lemelerweg,23,a,,8148PB,Lemele,Ommen,Overijssel,VBO,6.428608,52.480355
Lemelerweg,23,,,8148PB,Lemele,Ommen,Overijssel,VBO,6.429966,52.480504
Lemelerweg,25,a,,8148PB,Lemele,Ommen,Overijssel,VBO,6.424601,52.460796
Lemelerweg,25,b,,8148PB,Lemele,Ommen,Overijssel,VBO,6.425528,52.460567
Lemelerweg,25,c,,8148PB,Lemele,Ommen,Overijssel,VBO,6.423930,52.460501
Lemelerweg,25,,,8148PB,Lemele,Ommen,Overijssel,VBO,6.426967,52.463157
Lemelerweg,27,,,8148PB,Lemele,Ommen,Overijssel,VBO,6.423633,52.460097
Lemelerweg,29,,,8148PB,Lemele,Ommen,Overijssel,VBO,6.423425,52.459875
Lemelerweg,31,,,8148PB,Lemele,Ommen,Overijssel,VBO,6.423039,52.459443
Lemelerweg,33,a,,8148PB,Lemele,Ommen,Overijssel,VBO,6.422669,52.459339
Lemelerweg,33,,,8148PB,Lemele,Ommen,Overijssel,VBO,6.422606,52.459177
Lemelerweg,35,a,,8148PB,Lemele,Ommen,Overijssel,VBO,6.422111,52.458779
Lemelerweg,35,,001,8148PB,Lemele,Ommen,Overijssel,VBO,6.422552,52.458804
Lemelerweg,35,,002,8148PB,Lemele,Ommen,Overijssel,VBO,6.423012,52.458479
Lemelerweg,35,,,8148PB,Lemele,Ommen,Overijssel,VBO,6.422042,52.458650
Lemelerweg,37,,,8148PB,Lemele,Ommen,Overijssel,VBO,6.421300,52.458065
Lemelerweg,39,a,,8148PB,Lemele,Ommen,Overijssel,VBO,6.420332,52.456713
Lemelerweg,39,,,8148PB,Lemele,Ommen,Overijssel,VBO,6.420136,52.456709
Lemelerweg,41,a,,8148PB,Lemele,Ommen,Overijssel,VBO,6.419769,52.456411
Lemelerweg,41,b,,8148PB,Lemele,Ommen,Overijssel,VBO,6.421755,52.456198
Lemelerweg,41,c,,8148PB,Lemele,Ommen,Overijssel,VBO,6.422407,52.456601
Lemelerweg,41,,,8148PB,Lemele,Ommen,Overijssel,VBO,6.420201,52.456442
Lemelerweg,43,,,8148PB,Lemele,Ommen,Overijssel,VBO,6.419582,52.456292
Lemelerweg,45,,,8148PB,Lemele,Ommen,Overijssel,VBO,6.418551,52.455627
Lemelerweg,47,,,8148PB,Lemele,Ommen,Overijssel,VBO,6.418479,52.455061
Lemelerweg,49,,,8148PB,Lemele,Ommen,Overijssel,VBO,6.417873,52.454958
Lemelerweg,51,,,8148PB,Lemele,Ommen,Overijssel,VBO,6.417136,52.453634
Lemelerweg,53,,,8148PB,Lemele,Ommen,Overijssel,VBO,6.416871,52.452972
Lemelerweg,12,b,,8148PC,Lemele,Ommen,Overijssel,VBO,6.427287,52.478631
Lemelerweg,14,a,,8148PC,Lemele,Ommen,Overijssel,VBO,6.421620,52.474870
Lemelerweg,14,b,,8148PC,Lemele,Ommen,Overijssel,VBO,6.410215,52.473385
Lemelerweg,14,,,8148PC,Lemele,Ommen,Overijssel,VBO,6.421685,52.475163
Lemelerweg,16,,001,8148PC,Lemele,Ommen,Overijssel,VBO,6.424943,52.467516
Lemelerweg,16,,002,8148PC,Lemele,Ommen,Overijssel,VBO,6.424052,52.467844
Lemelerweg,16,,003,8148PC,Lemele,Ommen,Overijssel,VBO,6.424373,52.467564
Lemelerweg,16,,004,8148PC,Lemele,Ommen,Overijssel,VBO,6.424614,52.467769
Lemelerweg,16,,005,8148PC,Lemele,Ommen,Overijssel,VBO,6.425288,52.467739
Lemelerweg,16,,,8148PC,Lemele,Ommen,Overijssel,VBO,6.425956,52.466791
Lemelerweg,18,,,8148PC,Lemele,Ommen,Overijssel,VBO,6.426817,52.465540
Lemelerweg,20,,,8148PC,Lemele,Ommen,Overijssel,VBO,6.424055,52.464477
Lemelerweg,22,,,8148PC,Lemele,Ommen,Overijssel,VBO,6.424130,52.462642
Lemelerweg,24,,,8148PC,Lemele,Ommen,Overijssel,VBO,6.424104,52.462175
Lemelerweg,26,,,8148PC,Lemele,Ommen,Overijssel,VBO,6.422859,52.460541
Lemelerweg,28,,,8148PC,Lemele,Ommen,Overijssel,VBO,6.422798,52.460443
Lemelerweg,32,a,,8148PC,Lemele,Ommen,Overijssel,VBO,6.420768,52.458600
Lemelerweg,32,,,8148PC,Lemele,Ommen,Overijssel,VBO,6.421937,52.459507
Lemelerweg,34,,,8148PC,Lemele,Ommen,Overijssel,VBO,6.420589,52.458467
Lemelerweg,36,,,8148PC,Lemele,Ommen,Overijssel,VBO,6.420142,52.458246
Lemelerweg,38,a,,8148PC,Lemele,Ommen,Overijssel,VBO,6.419647,52.458076
Lemelerweg,38,,,8148PC,Lemele,Ommen,Overijssel,VBO,6.419863,52.457959
Lemelerweg,40,,,8148PC,Lemele,Ommen,Overijssel,VBO,6.419825,52.457889
Lemelerweg,42,a,,8148PC,Lemele,Ommen,Overijssel,VBO,6.419202,52.456842
Lemelerweg,42,,,8148PC,Lemele,Ommen,Overijssel,VBO,6.419671,52.457603
Lemelerweg,44,,,8148PC,Lemele,Ommen,Overijssel,VBO,6.418984,52.456531
Lemelerweg,46,a,,8148PC,Lemele,Ommen,Overijssel,VBO,6.418162,52.455971
Lemelerweg,46,b,,8148PC,Lemele,Ommen,Overijssel,VBO,6.417659,52.456515
Lemelerweg,46,,,8148PC,Lemele,Ommen,Overijssel,VBO,6.418508,52.456168
Lemelerweg,48,,,8148PC,Lemele,Ommen,Overijssel,VBO,6.417233,52.455595
Lemelerweg,50,,,8148PD,Lemele,Ommen,Overijssel,VBO,6.417463,52.455025
Lemelerweg,52,,,8148PD,Lemele,Ommen,Overijssel,VBO,6.417417,52.454971
Lemelerweg,54,,,8148PD,Lemele,Ommen,Overijssel,VBO,6.417279,52.454730
Lemelerweg,56,,,8148PD,Lemele,Ommen,Overijssel,VBO,6.417233,52.454649
Lemelerweg,58,a,,8148PD,Lemele,Ommen,Overijssel,VBO,6.416455,52.454211
Lemelerweg,58,b,,8148PD,Lemele,Ommen,Overijssel,VBO,6.416163,52.454229
Lemelerweg,58,,,8148PD,Lemele,Ommen,Overijssel,VBO,6.416841,52.454248
Lemelerweg,60,a,,8148PD,Lemele,Ommen,Overijssel,VBO,6.416613,52.453876
Lemelerweg,60,,,8148PD,Lemele,Ommen,Overijssel,VBO,6.416766,52.453859
Lemelerweg,62,,,8148PD,Lemele,Ommen,Overijssel,VBO,6.416626,52.453621
Lemelerweg,64,,,8148PD,Lemele,Ommen,Overijssel,VBO,6.416113,52.453293
Lemelerweg,66,,,8148PD,Lemele,Ommen,Overijssel,VBO,6.415814,52.453071
Lemelerweg,68,,,8148PD,Lemele,Ommen,Overijssel,VBO,6.415812,52.453017
Lemelerweg,70,,,8148PD,Lemele,Ommen,Overijssel,VBO,6.415418,52.453137
Lemelerweg,72,,,8148PD,Lemele,Ommen,Overijssel,VBO,6.415308,52.452823
Lemelerweg,74,,,8148PD,Lemele,Ommen,Overijssel,VBO,6.415046,52.452943
Lemelerweg,76,,,8148PD,Lemele,Ommen,Overijssel,VBO,6.415038,52.452592
Jhr.van der Wijcklaan,1,a,,8148PE,Lemele,Ommen,Overijssel,VBO,6.429438,52.478777
Jhr.van der Wijcklaan,1,,,8148PE,Lemele,Ommen,Overijssel,VBO,6.430624,52.478862
Jhr.van der Wijcklaan,2,,,8148PE,Lemele,Ommen,Overijssel,VBO,6.435962,52.478041
Beukenallee,1,,,8148PG,Lemele,Ommen,Overijssel,VBO,6.434751,52.476166
Beukenallee,2,,,8148PG,Lemele,Ommen,Overijssel,VBO,6.438316,52.478175
Beukenallee,3,,,8148PG,Lemele,Ommen,Overijssel,VBO,6.439069,52.475786
Beukenallee,4,,,8148PG,Lemele,Ommen,Overijssel,VBO,6.439504,52.476115
Beukenallee,5,,,8148PG,Lemele,Ommen,Overijssel,VBO,6.441432,52.476718
Beukenallee,7,,,8148PG,Lemele,Ommen,Overijssel,VBO,6.443286,52.472396
Beukenallee,8,,,8148PG,Lemele,Ommen,Overijssel,VBO,6.442408,52.470741
Woltersweg,1,a,,8148PH,Lemele,Ommen,Overijssel,VBO,6.429713,52.464769
Woltersweg,1,,,8148PH,Lemele,Ommen,Overijssel,VBO,6.427624,52.463935
Woltersweg,2,,,8148PH,Lemele,Ommen,Overijssel,VBO,6.433630,52.471125
De Archemer Esch,1,,,8148PJ,Lemele,Ommen,Overijssel,VBO,6.432846,52.466240
De Archemer Esch,2,,,8148PJ,Lemele,Ommen,Overijssel,VBO,6.433177,52.465902
De Archemer Esch,3,,,8148PJ,Lemele,Ommen,Overijssel,VBO,6.432764,52.465827
De Archemer Esch,4,,,8148PJ,Lemele,Ommen,Overijssel,VBO,6.433420,52.465658
De Archemer Esch,5,,,8148PJ,Lemele,Ommen,Overijssel,VBO,6.432880,52.465523
De Archemer Esch,6,,,8148PJ,Lemele,Ommen,Overijssel,VBO,6.433547,52.465408
De Archemer Esch,7,,,8148PJ,Lemele,Ommen,Overijssel,VBO,6.432628,52.465275
De Archemer Esch,8,,,8148PJ,Lemele,Ommen,Overijssel,VBO,6.433200,52.465275
De Archemer Esch,9,,,8148PJ,Lemele,Ommen,Overijssel,VBO,6.432804,52.465047
De Archemer Esch,10,,,8148PJ,Lemele,Ommen,Overijssel,VBO,6.433184,52.465018
De Archemer Esch,11,,,8148PJ,Lemele,Ommen,Overijssel,VBO,6.432548,52.464795
Draadweg,1,,,8148PK,Lemele,Ommen,Overijssel,VBO,6.433946,52.475742
Hallinkskaamp,2,,,8148PK,Lemele,Ommen,Overijssel,VBO,6.414719,52.454069
Hallinkskaamp,4,,,8148PK,Lemele,Ommen,Overijssel,VBO,6.414807,52.454059
Hallinkskaamp,6,,,8148PK,Lemele,Ommen,Overijssel,VBO,6.415027,52.454048
Hallinkskaamp,8,,,8148PK,Lemele,Ommen,Overijssel,VBO,6.415101,52.454039
Hallinkskaamp,10,,,8148PK,Lemele,Ommen,Overijssel,VBO,6.415321,52.454028
Hallinkskaamp,12,,,8148PK,Lemele,Ommen,Overijssel,VBO,6.415424,52.454027
Hallinkskaamp,14,,,8148PK,Lemele,Ommen,Overijssel,VBO,6.415512,52.454017
Hallinkskaamp,16,,,8148PK,Lemele,Ommen,Overijssel,VBO,6.415762,52.454024
Hallinkskaamp,18,,,8148PK,Lemele,Ommen,Overijssel,VBO,6.415851,52.454059
Hallinkskaamp,20,,,8148PK,Lemele,Ommen,Overijssel,VBO,6.415955,52.454085
Doornsteeg,1,,,8148PL,Lemele,Ommen,Overijssel,VBO,6.432863,52.467319
Doornsteeg,2,,,8148PL,Lemele,Ommen,Overijssel,VBO,6.436057,52.466690
Doornsteeg,3,,,8148PL,Lemele,Ommen,Overijssel,VBO,6.436429,52.466866
Doornsteeg,4,,,8148PL,Lemele,Ommen,Overijssel,VBO,6.436553,52.467153
Doornsteeg,5,,,8148PL,Lemele,Ommen,Overijssel,VBO,6.436488,52.468424
Doornsteeg,14,,,8148PL,Lemele,Ommen,Overijssel,VBO,6.434317,52.466258
Doornsteeg,15,,,8148PL,Lemele,Ommen,Overijssel,VBO,6.434324,52.465447
Doornsteeg,16,,,8148PL,Lemele,Ommen,Overijssel,VBO,6.434216,52.464976
Doornsteeg,17,,,8148PL,Lemele,Ommen,Overijssel,VBO,6.434645,52.464462
Doornsteeg,18,,,8148PL,Lemele,Ommen,Overijssel,VBO,6.433753,52.464529
Doornsteeg,19,,,8148PL,Lemele,Ommen,Overijssel,VBO,6.433598,52.464141
Doornsteeg,20,,,8148PL,Lemele,Ommen,Overijssel,VBO,6.432954,52.463538
Doornsteeg,22,,,8148PL,Lemele,Ommen,Overijssel,VBO,6.428321,52.459397
Doornsteeg,23,,,8148PL,Lemele,Ommen,Overijssel,VBO,6.428184,52.459848
Doornsteeg,24,,,8148PL,Lemele,Ommen,Overijssel,VBO,6.427659,52.458180
Doornsteeg,25,,,8148PL,Lemele,Ommen,Overijssel,VBO,6.426448,52.457993
Marsweg,1,,,8148PM,Lemele,Ommen,Overijssel,VBO,6.450170,52.474653
Marsweg,2,,,8148PM,Lemele,Ommen,Overijssel,VBO,6.451234,52.475107
Marsweg,3,,,8148PM,Lemele,Ommen,Overijssel,VBO,6.447164,52.472074
Marsweg,4,,,8148PM,Lemele,Ommen,Overijssel,VBO,6.450213,52.470932
Öldersweg,1,a,,8148PP,Lemele,Ommen,Overijssel,VBO,6.416113,52.457631
Öldersweg,1,,,8148PP,Lemele,Ommen,Overijssel,VBO,6.416105,52.457517
Huusminksteeg,1,,,8148PR,Lemele,Ommen,Overijssel,VBO,6.419867,52.454662
Zandeinde,1,a,001,8148PS,Lemele,Ommen,Overijssel,VBO,6.419731,52.450116
Zandeinde,1,a,,8148PS,Lemele,Ommen,Overijssel,VBO,6.420576,52.450989
Zandeinde,1,b,,8148PS,Lemele,Ommen,Overijssel,VBO,6.421407,52.451855
Zandeinde,1,c,,8148PS,Lemele,Ommen,Overijssel,VBO,6.422483,52.453551
Zandeinde,1,d,,8148PS,Lemele,Ommen,Overijssel,VBO,6.422343,52.452152
Zandeinde,1,,,8148PS,Lemele,Ommen,Overijssel,VBO,6.420685,52.451258
Zandeinde,2,b,,8148PS,Lemele,Ommen,Overijssel,VBO,6.422215,52.454893
Zandeinde,2,,,8148PS,Lemele,Ommen,Overijssel,VBO,6.422247,52.454351
Zandeinde,3,a,,8148PS,Lemele,Ommen,Overijssel,VBO,6.424412,52.455881
Zandeinde,3,,,8148PS,Lemele,Ommen,Overijssel,VBO,6.424115,52.455749
Zandeinde,4,a,,8148PS,Lemele,Ommen,Overijssel,VBO,6.425847,52.456998
Zandeinde,4,,,8148PS,Lemele,Ommen,Overijssel,VBO,6.425477,52.456722
Zandeinde,5,,,8148PS,Lemele,Ommen,Overijssel,VBO,6.428097,52.457413
Zandeinde,6,,,8148PS,Lemele,Ommen,Overijssel,VBO,6.428157,52.457457
Grefeldijk,3,a,,8148PT,Lemele,Ommen,Overijssel,VBO,6.432621,52.456447
Grefeldijk,3,b,,8148PT,Lemele,Ommen,Overijssel,VBO,6.432487,52.456895
Grefeldijk,3,,,8148PT,Lemele,Ommen,Overijssel,VBO,6.432057,52.456883
Grefeldijk,4,,,8148PT,Lemele,Ommen,Overijssel,VBO,6.432449,52.456026
Grefeldijk,5,a,,8148PT,Lemele,Ommen,Overijssel,VBO,6.433887,52.455843
Grefeldijk,5,,,8148PT,Lemele,Ommen,Overijssel,VBO,6.433641,52.456025
Grefeldijk,6,,,8148PT,Lemele,Ommen,Overijssel,VBO,6.440516,52.453132
de Belte,1,a,,8148PV,Lemele,Ommen,Overijssel,VBO,6.434913,52.456930
de Belte,2,a,,8148PV,Lemele,Ommen,Overijssel,VBO,6.439153,52.457045
de Belte,2,b,,8148PV,Lemele,Ommen,Overijssel,VBO,6.438624,52.457576
de Belte,2,,,8148PV,Lemele,Ommen,Overijssel,VBO,6.438466,52.457240
de Belte,3,a,,8148PV,Lemele,Ommen,Overijssel,VBO,6.440277,52.456890
de Belte,3,,,8148PV,Lemele,Ommen,Overijssel,VBO,6.440874,52.456401
de Belte,4,,,8148PV,Lemele,Ommen,Overijssel,VBO,6.437067,52.455881
de Belte,5,,,8148PV,Lemele,Ommen,Overijssel,VBO,6.436922,52.455877
de Belte,6,,,8148PV,Lemele,Ommen,Overijssel,VBO,6.434887,52.455361
Weth.Imminkstraat,1,,,8148PW,Lemele,Ommen,Overijssel,VBO,6.416255,52.453687
Weth.Imminkstraat,2,,,8148PW,Lemele,Ommen,Overijssel,VBO,6.416050,52.453743
Weth.Imminkstraat,4,,,8148PW,Lemele,Ommen,Overijssel,VBO,6.415947,52.453744
Weth.Imminkstraat,6,,,8148PW,Lemele,Ommen,Overijssel,VBO,6.415756,52.453736
Weth.Imminkstraat,8,,,8148PW,Lemele,Ommen,Overijssel,VBO,6.415682,52.453737
Weth.Imminkstraat,9,,,8148PW,Lemele,Ommen,Overijssel,VBO,6.415714,52.453397
Weth.Imminkstraat,10,,,8148PW,Lemele,Ommen,Overijssel,VBO,6.415491,52.453757
Weth.Imminkstraat,11,,,8148PW,Lemele,Ommen,Overijssel,VBO,6.415423,52.453371
Weth.Imminkstraat,12,,,8148PW,Lemele,Ommen,Overijssel,VBO,6.415270,52.453741
Weth.Imminkstraat,13,,,8148PW,Lemele,Ommen,Overijssel,VBO,6.415188,52.453355
Weth.Imminkstraat,14,,,8148PW,Lemele,Ommen,Overijssel,VBO,6.415064,52.453724
Weth.Imminkstraat,15,,,8148PW,Lemele,Ommen,Overijssel,VBO,6.415011,52.453338
Weth.Imminkstraat,16,a,,8148PW,Lemele,Ommen,Overijssel,VBO,6.414884,52.453730
Weth.Imminkstraat,16,,,8148PW,Lemele,Ommen,Overijssel,VBO,6.414725,52.453718
Weth.Imminkstraat,17,,,8148PW,Lemele,Ommen,Overijssel,VBO,6.414849,52.453340
Weth.Imminkstraat,19,,,8148PW,Lemele,Ommen,Overijssel,VBO,6.414687,52.453341
Kerkweg,1,,,8148PX,Lemele,Ommen,Overijssel,VBO,6.414495,52.452582
Kerkweg,5,a,,8148PX,Lemele,Ommen,Overijssel,VBO,6.414113,52.452884
Kerkweg,5,,,8148PX,Lemele,Ommen,Overijssel,VBO,6.414189,52.452788
Kerkweg,7,,,8148PX,Lemele,Ommen,Overijssel,VBO,6.413944,52.453024
Kerkweg,9,,,8148PX,Lemele,Ommen,Overijssel,VBO,6.413170,52.453273
Kerkweg,11,,,8148PX,Lemele,Ommen,Overijssel,VBO,6.413014,52.453517
Kerkweg,13,,,8148PX,Lemele,Ommen,Overijssel,VBO,6.413032,52.453661
Kerkweg,15,,,8148PX,Lemele,Ommen,Overijssel,VBO,6.412819,52.453969
Kerkweg,17,,,8148PX,Lemele,Ommen,Overijssel,VBO,6.412718,52.454077
Kerkweg,19,,,8148PX,Lemele,Ommen,Overijssel,VBO,6.412501,52.454223
Kerkweg,21,,,8148PX,Lemele,Ommen,Overijssel,VBO,6.410015,52.455632
Kerkweg,2,,,8148PZ,Lemele,Ommen,Overijssel,VBO,6.414551,52.453163
Kerkweg,4,,,8148PZ,Lemele,Ommen,Overijssel,VBO,6.414406,52.453263
Kerkweg,6,,,8148PZ,Lemele,Ommen,Overijssel,VBO,6.414348,52.453308
Kerkweg,8,,,8148PZ,Lemele,Ommen,Overijssel,VBO,6.414277,52.453408
Kerkweg,10,,,8148PZ,Lemele,Ommen,Overijssel,VBO,6.414032,52.453625
Kerkweg,12,,,8148PZ,Lemele,Ommen,Overijssel,VBO,6.413988,52.453662
Kerkweg,14,a,,8148PZ,Lemele,Ommen,Overijssel,VBO,6.413859,52.453798
Kerkweg,14,,,8148PZ,Lemele,Ommen,Overijssel,VBO,6.413888,52.453771
Kerkweg,16,,,8148PZ,Lemele,Ommen,Overijssel,VBO,6.413729,52.453907
Kerkweg,18,,,8148PZ,Lemele,Ommen,Overijssel,VBO,6.413629,52.454006
Kerkweg,26,,,8148PZ,Lemele,Ommen,Overijssel,VBO,6.413355,52.454261
Kerkweg,28,,,8148PZ,Lemele,Ommen,Overijssel,VBO,6.413125,52.454478
Kerkweg,30,,ZH,8148PZ,Lemele,Ommen,Overijssel,VBO,6.411423,52.455408
Kerkweg,30,,,8148PZ,Lemele,Ommen,Overijssel,VBO,6.411519,52.455652
Kerkweg,32,,,8148PZ,Lemele,Ommen,Overijssel,VBO,6.397176,52.458345
Lage Esweg,1,,,8148RA,Lemele,Ommen,Overijssel,VBO,6.410748,52.452234
Lage Esweg,2,,,8148RA,Lemele,Ommen,Overijssel,VBO,6.411881,52.452242
Lage Esweg,3,,,8148RA,Lemele,Ommen,Overijssel,VBO,6.411044,52.452950
Lage Esweg,4,,,8148RA,Lemele,Ommen,Overijssel,VBO,6.411577,52.452433
Lage Esweg,5,a,,8148RA,Lemele,Ommen,Overijssel,VBO,6.410790,52.453564
Lage Esweg,5,,,8148RA,Lemele,Ommen,Overijssel,VBO,6.411273,52.453290
Lage Esweg,6,,,8148RA,Lemele,Ommen,Overijssel,VBO,6.411611,52.452658
Lage Esweg,8,,,8148RA,Lemele,Ommen,Overijssel,VBO,6.411723,52.453043
Lage Esweg,13,a,,8148RA,Lemele,Ommen,Overijssel,VBO,6.412294,52.454003
Dennenhoekweg,1,,,8148RB,Lemele,Ommen,Overijssel,VBO,6.412444,52.451779
Dennenhoekweg,2,,,8148RB,Lemele,Ommen,Overijssel,VBO,6.413436,52.451429
Dennenhoekweg,3,,,8148RB,Lemele,Ommen,Overijssel,VBO,6.412535,52.451877
Dennenhoekweg,4,,,8148RB,Lemele,Ommen,Overijssel,VBO,6.413117,52.451593
Dennenhoekweg,5,,,8148RB,Lemele,Ommen,Overijssel,VBO,6.412640,52.451966
Dennenhoekweg,6,,,8148RB,Lemele,Ommen,Overijssel,VBO,6.412971,52.451666
Dennenhoekweg,7,,,8148RB,Lemele,Ommen,Overijssel,VBO,6.412774,52.452045
Dennenhoekweg,8,,,8148RB,Lemele,Ommen,Overijssel,VBO,6.413240,52.451844
Dennenhoekweg,9,,,8148RB,Lemele,Ommen,Overijssel,VBO,6.412794,52.452297
Dennenhoekweg,10,,,8148RB,Lemele,Ommen,Overijssel,VBO,6.413377,52.452022
Dennenhoekweg,11,,,8148RB,Lemele,Ommen,Overijssel,VBO,6.413048,52.452430
Dennenhoekweg,12,,,8148RB,Lemele,Ommen,Overijssel,VBO,6.413999,52.452224
Dennenhoekweg,13,,,8148RB,Lemele,Ommen,Overijssel,VBO,6.413272,52.452607
Dennenhoekweg,15,,,8148RB,Lemele,Ommen,Overijssel,VBO,6.413350,52.452769
Dennenhoekweg,17,,,8148RB,Lemele,Ommen,Overijssel,VBO,6.413354,52.452939
Dennenhoekweg,19,,,8148RB,Lemele,Ommen,Overijssel,VBO,6.413315,52.453122
Ledeboerweg,1,a,,8148RC,Lemele,Ommen,Overijssel,VBO,6.398315,52.450228
Ledeboerweg,1,,,8148RC,Lemele,Ommen,Overijssel,VBO,6.408522,52.450752
Ledeboerweg,2,,,8148RC,Lemele,Ommen,Overijssel,VBO,6.406933,52.449453
Ledeboerweg,3,,,8148RC,Lemele,Ommen,Overijssel,VBO,6.405222,52.448632
Ledeboerweg,4,,,8148RC,Lemele,Ommen,Overijssel,VBO,6.401307,52.446617
Korteveldsweg,1,a,,8148RD,Lemele,Ommen,Overijssel,VBO,6.414841,52.451731
Korteveldsweg,1,,,8148RD,Lemele,Ommen,Overijssel,VBO,6.414647,52.451598
Korteveldsweg,3,a,,8148RD,Lemele,Ommen,Overijssel,VBO,6.414466,52.450790
Korteveldsweg,3,,,8148RD,Lemele,Ommen,Overijssel,VBO,6.413780,52.451003
Korteveldsweg,5,,,8148RD,Lemele,Ommen,Overijssel,VBO,6.413152,52.450604
Korteveldsweg,7,,,8148RD,Lemele,Ommen,Overijssel,VBO,6.412066,52.449427
Korteveldsweg,9,,,8148RD,Lemele,Ommen,Overijssel,VBO,6.408641,52.447355
Korteveldsweg,11,,,8148RD,Lemele,Ommen,Overijssel,VBO,6.407525,52.446428
Korteveldsweg,13,a,,8148RD,Lemele,Ommen,Overijssel,VBO,6.405741,52.445158
Korteveldsweg,13,,,8148RD,Lemele,Ommen,Overijssel,VBO,6.408441,52.445962
Korteveldsweg,15,a,,8148RD,Lemele,Ommen,Overijssel,VBO,6.402402,52.442758
Korteveldsweg,15,,,8148RD,Lemele,Ommen,Overijssel,VBO,6.403893,52.443925
Korteveldsweg,17,,,8148RD,Lemele,Ommen,Overijssel,VBO,6.404744,52.441275
Korteveldsweg,23,,,8148RD,Lemele,Ommen,Overijssel,VBO,6.398447,52.440015
Korteveldsweg,25,,,8148RD,Lemele,Ommen,Overijssel,VBO,6.397608,52.439260
Korteveldsweg,27,,,8148RD,Lemele,Ommen,Overijssel,VBO,6.394951,52.437512
Korteveldsweg,2,,,8148RE,Lemele,Ommen,Overijssel,VBO,6.414649,52.452317
Korteveldsweg,4,,,8148RE,Lemele,Ommen,Overijssel,VBO,6.414275,52.452059
Korteveldsweg,6,,,8148RE,Lemele,Ommen,Overijssel,VBO,6.413947,52.451874
Korteveldsweg,8,,,8148RE,Lemele,Ommen,Overijssel,VBO,6.413826,52.451749
Korteveldsweg,10,,,8148RE,Lemele,Ommen,Overijssel,VBO,6.413707,52.451669
Korteveldsweg,12,,,8148RE,Lemele,Ommen,Overijssel,VBO,6.413662,52.451624
Korteveldsweg,14,a,,8148RE,Lemele,Ommen,Overijssel,VBO,6.400927,52.443379
Korteveldsweg,14,,,8148RE,Lemele,Ommen,Overijssel,VBO,6.401214,52.443229
Korteveldsweg,16,,,8148RE,Lemele,Ommen,Overijssel,VBO,6.398647,52.440932
Korteveldsweg,18,a,,8148RE,Lemele,Ommen,Overijssel,VBO,6.395476,52.438622
Korteveldsweg,18,b,,8148RE,Lemele,Ommen,Overijssel,VBO,6.395584,52.438961
Korteveldsweg,18,,,8148RE,Lemele,Ommen,Overijssel,VBO,6.395474,52.438532
Bulemansteeg,1,,,8148RG,Lemele,Ommen,Overijssel,VBO,6.418721,52.454097
Bulemansteeg,3,,,8148RG,Lemele,Ommen,Overijssel,VBO,6.419464,52.453758
Hellendoornseweg,1,a,,8148RH,Lemele,Ommen,Overijssel,VBO,6.415733,52.452300
Hellendoornseweg,1,,,8148RH,Lemele,Ommen,Overijssel,VBO,6.415753,52.452352
Hellendoornseweg,2,a,,8148RH,Lemele,Ommen,Overijssel,VBO,6.415946,52.452028
Hellendoornseweg,2,,,8148RH,Lemele,Ommen,Overijssel,VBO,6.415818,52.452040
Hellendoornseweg,3,,,8148RH,Lemele,Ommen,Overijssel,VBO,6.415276,52.451990
Hellendoornseweg,4,,,8148RH,Lemele,Ommen,Overijssel,VBO,6.415299,52.451817
Hellendoornseweg,5,,,8148RH,Lemele,Ommen,Overijssel,VBO,6.416078,52.451765
Hellendoornseweg,6,,,8148RH,Lemele,Ommen,Overijssel,VBO,6.415611,52.451302
Hellendoornseweg,7,,,8148RH,Lemele,Ommen,Overijssel,VBO,6.416222,52.451036
Hellendoornseweg,8,,,8148RH,Lemele,Ommen,Overijssel,VBO,6.416280,52.450981
Hellendoornseweg,9,,,8148RH,Lemele,Ommen,Overijssel,VBO,6.416409,52.450837
Hellendoornseweg,10,,,8148RH,Lemele,Ommen,Overijssel,VBO,6.416452,52.450791
Hellendoornseweg,11,a,,8148RH,Lemele,Ommen,Overijssel,VBO,6.417053,52.450863
Hellendoornseweg,11,,,8148RH,Lemele,Ommen,Overijssel,VBO,6.416596,52.450673
Hellendoornseweg,12,a,,8148RH,Lemele,Ommen,Overijssel,VBO,6.417135,52.450819
Hellendoornseweg,12,,,8148RH,Lemele,Ommen,Overijssel,VBO,6.416640,52.450628
Hellendoornseweg,13,,,8148RH,Lemele,Ommen,Overijssel,VBO,6.416784,52.450510
Hellendoornseweg,14,a,,8148RH,Lemele,Ommen,Overijssel,VBO,6.417380,52.450600
Hellendoornseweg,14,,,8148RH,Lemele,Ommen,Overijssel,VBO,6.416827,52.450464
Hellendoornseweg,15,,,8148RH,Lemele,Ommen,Overijssel,VBO,6.416986,52.450355
Hellendoornseweg,16,,,8148RH,Lemele,Ommen,Overijssel,VBO,6.417014,52.450301
Hellendoornseweg,19,,,8148RH,Lemele,Ommen,Overijssel,VBO,6.417904,52.449323
Hellendoornseweg,21,,,8148RH,Lemele,Ommen,Overijssel,VBO,6.417046,52.448658
Hellendoornseweg,22,,,8148RH,Lemele,Ommen,Overijssel,VBO,6.418581,52.448727
Hellendoornseweg,23,a,,8148RH,Lemele,Ommen,Overijssel,VBO,6.419450,52.447734
Hellendoornseweg,23,,,8148RH,Lemele,Ommen,Overijssel,VBO,6.420250,52.447506
Hellendoornseweg,24,a,,8148RH,Lemele,Ommen,Overijssel,VBO,6.419483,52.449026
Hellendoornseweg,24,,,8148RH,Lemele,Ommen,Overijssel,VBO,6.418976,52.449150
Hellendoornseweg,25,,,8148RH,Lemele,Ommen,Overijssel,VBO,6.426553,52.447440
Hellendoornseweg,26,,,8148RH,Lemele,Ommen,Overijssel,VBO,6.427437,52.444359
Hellendoornseweg,27,,,8148RH,Lemele,Ommen,Overijssel,VBO,6.429271,52.443534
Hellendoornseweg,28,,,8148RH,Lemele,Ommen,Overijssel,VBO,6.429447,52.443496
Hellendoornseweg,29,,,8148RH,Lemele,Ommen,Overijssel,VBO,6.429430,52.443415
Molendijk,1,,,8148RJ,Lemele,Ommen,Overijssel,VBO,6.428568,52.441796
Molendijk,2,a,,8148RJ,Lemele,Ommen,Overijssel,VBO,6.429425,52.443209
Molendijk,2,,,8148RJ,Lemele,Ommen,Overijssel,VBO,6.429525,52.443073
Spiekerweg,1,,,8148RK,Lemele,Ommen,Overijssel,VBO,6.430780,52.444041
Spiekerweg,2,,,8148RK,Lemele,Ommen,Overijssel,VBO,6.431536,52.444134
Spiekerweg,3,,,8148RK,Lemele,Ommen,Overijssel,VBO,6.432011,52.443689
Spiekerweg,4,,,8148RK,Lemele,Ommen,Overijssel,VBO,6.434777,52.446208
Spiekerweg,5,,,8148RK,Lemele,Ommen,Overijssel,VBO,6.434843,52.445920
Glinthaar,1,a,,8148RL,Lemele,Ommen,Overijssel,VBO,6.416160,52.448224
Glinthaar,1,b,,8148RL,Lemele,Ommen,Overijssel,VBO,6.416373,52.448358
Glinthaar,1,,,8148RL,Lemele,Ommen,Overijssel,VBO,6.416267,52.448291
Glinthaar,2,a,,8148RL,Lemele,Ommen,Overijssel,VBO,6.416704,52.447706
Glinthaar,2,,,8148RL,Lemele,Ommen,Overijssel,VBO,6.416748,52.447715
Glinthaar,3,,,8148RL,Lemele,Ommen,Overijssel,VBO,6.416622,52.447347
Glinthaar,4,a,,8148RL,Lemele,Ommen,Overijssel,VBO,6.411624,52.444317
Glinthaar,4,b,,8148RL,Lemele,Ommen,Overijssel,VBO,6.411523,52.444372
Glinthaar,4,c,,8148RL,Lemele,Ommen,Overijssel,VBO,6.411282,52.443578
Glinthaar,4,,,8148RL,Lemele,Ommen,Overijssel,VBO,6.416124,52.446785
Glinthaar,5,,,8148RL,Lemele,Ommen,Overijssel,VBO,6.408979,52.442741
Glinthaar,6,a,,8148RL,Lemele,Ommen,Overijssel,VBO,6.406098,52.440643
Glinthaar,6,,,8148RL,Lemele,Ommen,Overijssel,VBO,6.408164,52.441605
Glinthaar,7,,,8148RL,Lemele,Ommen,Overijssel,VBO,6.403404,52.439956
Glinthaar,8,,,8148RL,Lemele,Ommen,Overijssel,VBO,6.404259,52.440096
Glinthaar,9,,,8148RL,Lemele,Ommen,Overijssel,VBO,6.401648,52.439675
Glinthaar,10,,,8148RL,Lemele,Ommen,Overijssel,VBO,6.400015,52.439546
Glintweg,1,,,8148RM,Lemele,Ommen,Overijssel,VBO,6.405488,52.444864
Glintweg,2,,,8148RM,Lemele,Ommen,Overijssel,VBO,6.409811,52.443532
Glintweg,3,,,8148RM,Lemele,Ommen,Overijssel,VBO,6.411715,52.443165
Glintweg,4,,,8148RM,Lemele,Ommen,Overijssel,VBO,6.412144,52.441346
Glintweg,5,b,,8148RM,Lemele,Ommen,Overijssel,VBO,6.418391,52.440893
Glintweg,5,,,8148RM,Lemele,Ommen,Overijssel,VBO,6.417229,52.441719
Glintweg,6,a,,8148RM,Lemele,Ommen,Overijssel,VBO,6.416724,52.438552
Glintweg,6,,,8148RM,Lemele,Ommen,Overijssel,VBO,6.416596,52.438582
Glintweg,7,,,8148RM,Lemele,Ommen,Overijssel,VBO,6.422231,52.439982
Glintweg,8,a,,8148RM,Lemele,Ommen,Overijssel,VBO,6.422138,52.438545
Glintweg,8,,,8148RM,Lemele,Ommen,Overijssel,VBO,6.422086,52.438186
Molenhoek,1,,,8148RN,Lemele,Ommen,Overijssel,VBO,6.428295,52.438957
Molenhoek,2,,,8148RN,Lemele,Ommen,Overijssel,VBO,6.428376,52.438919
Glinthaarweg,1,a,,8148RP,Lemele,Ommen,Overijssel,VBO,6.413672,52.450815
Glinthaarweg,1,b,,8148RP,Lemele,Ommen,Overijssel,VBO,6.413664,52.450474
Glinthaarweg,2,a,,8148RP,Lemele,Ommen,Overijssel,VBO,6.413612,52.450115
Glinthaarweg,2,b,,8148RP,Lemele,Ommen,Overijssel,VBO,6.413458,52.449810
Glinthaarweg,2,,,8148RP,Lemele,Ommen,Overijssel,VBO,6.413546,52.449828
Glinthaarweg,3,,,8148RP,Lemele,Ommen,Overijssel,VBO,6.413492,52.448103
Glinthaarweg,4,,,8148RP,Lemele,Ommen,Overijssel,VBO,6.413440,52.445874
Valkweg,1,,,8148RR,Lemele,Ommen,Overijssel,VBO,6.409484,52.438915
Valkweg,2,,,8148RR,Lemele,Ommen,Overijssel,VBO,6.410364,52.438153
Valkweg,3,,,8148RR,Lemele,Ommen,Overijssel,VBO,6.411718,52.437792
Valkweg,4,,,8148RR,Lemele,Ommen,Overijssel,VBO,6.412039,52.437482
Blikman Kikkertweg,31,a,,8148RS,Lemele,Ommen,Overijssel,VBO,6.394240,52.437043
Blikman Kikkertweg,31,,,8148RS,Lemele,Ommen,Overijssel,VBO,6.394203,52.436970
Blikman Kikkertweg,32,,,8148RS,Lemele,Ommen,Overijssel,VBO,6.395813,52.436642
Blikman Kikkertweg,33,,,8148RS,Lemele,Ommen,Overijssel,VBO,6.397263,52.436387
Blikman Kikkertweg,35,,,8148RS,Lemele,Ommen,Overijssel,VBO,6.399255,52.436019
Blikman Kikkertweg,36,,,8148RS,Lemele,Ommen,Overijssel,VBO,6.401730,52.434272
Blikman Kikkertweg,37,a,,8148RS,Lemele,Ommen,Overijssel,VBO,6.403842,52.435023
Blikman Kikkertweg,37,a,,8148RS,Lemele,Ommen,Overijssel,VBO,6.404294,52.435167
Blikman Kikkertweg,37,,,8148RS,Lemele,Ommen,Overijssel,VBO,6.404514,52.435120
Blikman Kikkertweg,38,,,8148RS,Lemele,Ommen,Overijssel,VBO,6.407636,52.434042
Statumweg,21,a,,8148RT,Lemele,Ommen,Overijssel,VBO,6.397092,52.437242
Statumweg,22,,,8148RT,Lemele,Ommen,Overijssel,VBO,6.402414,52.436153
Statumweg,23,,,8148RT,Lemele,Ommen,Overijssel,VBO,6.402830,52.436096
Statumweg,25,,,8148RT,Lemele,Ommen,Overijssel,VBO,6.412271,52.434433
Maanweg,1,,,8148RV,Lemele,Ommen,Overijssel,VBO,6.393748,52.435725
Maanweg,2,,,8148RV,Lemele,Ommen,Overijssel,VBO,6.387636,52.430678
Maanweg,3,,,8148RV,Lemele,Ommen,Overijssel,VBO,6.386740,52.430817
Maanweg,5,,,8148RV,Lemele,Ommen,Overijssel,VBO,6.385206,52.431240
Dooweg,1,,,8148RW,Lemele,Ommen,Overijssel,VBO,6.416435,52.451969
Dooweg,2,,,8148RW,Lemele,Ommen,Overijssel,VBO,6.416835,52.451477
Dooweg,3,,,8148RW,Lemele,Ommen,Overijssel,VBO,6.418218,52.452123
Dooweg,4,,,8148RW,Lemele,Ommen,Overijssel,VBO,6.416830,52.451354
Dooweg,6,,,8148RW,Lemele,Ommen,Overijssel,VBO,6.416924,52.451420
Dooweg,8,,,8148RW,Lemele,Ommen,Overijssel,VBO,6.416919,52.451294
Dooweg,10,,,8148RW,Lemele,Ommen,Overijssel,VBO,6.419150,52.451901
Reefhuisweg,2,,,8148RX,Lemele,Ommen,Overijssel,VBO,6.412067,52.451998
Boven Esweg,1,,,8148RZ,Lemele,Ommen,Overijssel,VBO,6.405842,52.461507
Zonnebloemweg,1,,,8148SB,Lemele,Ommen,Overijssel,VBO,6.371608,52.449941
Zonnebloemweg,2,,,8148SB,Lemele,Ommen,Overijssel,VBO,6.372129,52.449808
Zonnebloemweg,3,a,,8148SB,Lemele,Ommen,Overijssel,VBO,6.373863,52.449437
Zonnebloemweg,3,b,,8148SB,Lemele,Ommen,Overijssel,VBO,6.374177,52.449704
Zonnebloemweg,3,,,8148SB,Lemele,Ommen,Overijssel,VBO,6.372747,52.450219
Zonnebloemweg,4,a,,8148SB,Lemele,Ommen,Overijssel,VBO,6.374883,52.449689
Zonnebloemweg,4,b,,8148SB,Lemele,Ommen,Overijssel,VBO,6.376073,52.449598
Zonnebloemweg,4,,,8148SB,Lemele,Ommen,Overijssel,VBO,6.373150,52.449251
Zonnebloemweg,5,,,8148SB,Lemele,Ommen,Overijssel,VBO,6.376733,52.449530
Zonnebloemweg,6,a,,8148SB,Lemele,Ommen,Overijssel,VBO,6.382856,52.449171
Zonnebloemweg,6,b,,8148SB,Lemele,Ommen,Overijssel,VBO,6.380281,52.448970
Zonnebloemweg,6,,,8148SB,Lemele,Ommen,Overijssel,VBO,6.379097,52.449321
Zonnebloemweg,7,,,8148SB,Lemele,Ommen,Overijssel,VBO,6.383622,52.449068
Zonnebloemweg,8,,,8148SB,Lemele,Ommen,Overijssel,VBO,6.386631,52.449329
Zonnebloemweg,9,,,8148SB,Lemele,Ommen,Overijssel,VBO,6.387430,52.450285
Zonnebloemweg,10,a,,8148SB,Lemele,Ommen,Overijssel,VBO,6.384101,52.449414
Zonnebloemweg,10,,001,8148SB,Lemele,Ommen,Overijssel,VBO,6.384236,52.449557
Zonnebloemweg,10,,002,8148SB,Lemele,Ommen,Overijssel,VBO,6.384705,52.449454
Zonnebloemweg,10,,003,8148SB,Lemele,Ommen,Overijssel,VBO,6.385189,52.449423
Zonnebloemweg,10,,004,8148SB,Lemele,Ommen,Overijssel,VBO,6.385558,52.449438
Zonnebloemweg,10,,005,8148SB,Lemele,Ommen,Overijssel,VBO,6.385869,52.449552
Zonnebloemweg,10,,006,8148SB,Lemele,Ommen,Overijssel,VBO,6.386050,52.449748
Zonnebloemweg,10,,007,8148SB,Lemele,Ommen,Overijssel,VBO,6.386158,52.449963
Zonnebloemweg,10,,008,8148SB,Lemele,Ommen,Overijssel,VBO,6.386133,52.450170
Zonnebloemweg,10,,009,8148SB,Lemele,Ommen,Overijssel,VBO,6.386006,52.450387
Zonnebloemweg,10,,010,8148SB,Lemele,Ommen,Overijssel,VBO,6.385744,52.450533
Zonnebloemweg,10,,011,8148SB,Lemele,Ommen,Overijssel,VBO,6.385512,52.450678
Zonnebloemweg,10,,012,8148SB,Lemele,Ommen,Overijssel,VBO,6.385266,52.450842
Zonnebloemweg,10,,013,8148SB,Lemele,Ommen,Overijssel,VBO,6.384959,52.450962
Zonnebloemweg,10,,014,8148SB,Lemele,Ommen,Overijssel,VBO,6.384706,52.450820
Zonnebloemweg,10,,015,8148SB,Lemele,Ommen,Overijssel,VBO,6.384396,52.450769
Zonnebloemweg,10,,016,8148SB,Lemele,Ommen,Overijssel,VBO,6.383922,52.450638
Zonnebloemweg,10,,017,8148SB,Lemele,Ommen,Overijssel,VBO,6.383507,52.450489
Zonnebloemweg,10,,018,8148SB,Lemele,Ommen,Overijssel,VBO,6.383063,52.450375
Zonnebloemweg,10,,019,8148SB,Lemele,Ommen,Overijssel,VBO,6.382678,52.450244
Zonnebloemweg,10,,020,8148SB,Lemele,Ommen,Overijssel,VBO,6.382380,52.450067
Zonnebloemweg,10,,021,8148SB,Lemele,Ommen,Overijssel,VBO,6.381996,52.450025
Zonnebloemweg,10,,022,8148SB,Lemele,Ommen,Overijssel,VBO,6.381611,52.449902
Zonnebloemweg,10,,023,8148SB,Lemele,Ommen,Overijssel,VBO,6.381444,52.449688
Zonnebloemweg,10,,024,8148SB,Lemele,Ommen,Overijssel,VBO,6.381841,52.449685
Zonnebloemweg,10,,025,8148SB,Lemele,Ommen,Overijssel,VBO,6.382211,52.449780
Zonnebloemweg,10,,026,8148SB,Lemele,Ommen,Overijssel,VBO,6.382592,52.449714
Zonnebloemweg,10,,027,8148SB,Lemele,Ommen,Overijssel,VBO,6.382960,52.449720
Zonnebloemweg,10,,028,8148SB,Lemele,Ommen,Overijssel,VBO,6.383328,52.449708
Zonnebloemweg,10,,029,8148SB,Lemele,Ommen,Overijssel,VBO,6.383555,52.449994
Zonnebloemweg,10,,030,8148SB,Lemele,Ommen,Overijssel,VBO,6.383324,52.450194
Zonnebloemweg,10,,031,8148SB,Lemele,Ommen,Overijssel,VBO,6.382760,52.449992
Zonnebloemweg,10,,032,8148SB,Lemele,Ommen,Overijssel,VBO,6.383187,52.449988
Zonnebloemweg,10,,033,8148SB,Lemele,Ommen,Overijssel,VBO,6.384549,52.449743
Zonnebloemweg,10,,034,8148SB,Lemele,Ommen,Overijssel,VBO,6.385092,52.449657
Zonnebloemweg,10,,035,8148SB,Lemele,Ommen,Overijssel,VBO,6.385447,52.449735
Zonnebloemweg,10,,036,8148SB,Lemele,Ommen,Overijssel,VBO,6.385715,52.449886
Zonnebloemweg,10,,037,8148SB,Lemele,Ommen,Overijssel,VBO,6.385661,52.450093
Zonnebloemweg,10,,038,8148SB,Lemele,Ommen,Overijssel,VBO,6.385577,52.450291
Zonnebloemweg,10,,039,8148SB,Lemele,Ommen,Overijssel,VBO,6.385345,52.450464
Zonnebloemweg,10,,040,8148SB,Lemele,Ommen,Overijssel,VBO,6.385056,52.450664
Zonnebloemweg,10,,041,8148SB,Lemele,Ommen,Overijssel,VBO,6.384730,52.450568
Zonnebloemweg,10,,042,8148SB,Lemele,Ommen,Overijssel,VBO,6.384376,52.450526
Zonnebloemweg,10,,043,8148SB,Lemele,Ommen,Overijssel,VBO,6.384121,52.450322
Zonnebloemweg,10,,044,8148SB,Lemele,Ommen,Overijssel,VBO,6.383955,52.450116
Zonnebloemweg,10,,045,8148SB,Lemele,Ommen,Overijssel,VBO,6.384007,52.449828
Zonnebloemweg,10,,046,8148SB,Lemele,Ommen,Overijssel,VBO,6.384333,52.449942
Zonnebloemweg,10,,047,8148SB,Lemele,Ommen,Overijssel,VBO,6.384660,52.450065
Zonnebloemweg,10,,048,8148SB,Lemele,Ommen,Overijssel,VBO,6.384913,52.450198
Zonnebloemweg,10,,049,8148SB,Lemele,Ommen,Overijssel,VBO,6.384577,52.450318
Zonnebloemweg,10,,050,8148SB,Lemele,Ommen,Overijssel,VBO,6.384976,52.450413
Zonnebloemweg,10,,051,8148SB,Lemele,Ommen,Overijssel,VBO,6.385251,52.450195
Zonnebloemweg,10,,052,8148SB,Lemele,Ommen,Overijssel,VBO,6.385158,52.449980
Zonnebloemweg,10,,053,8148SB,Lemele,Ommen,Overijssel,VBO,6.384861,52.449875
Zonnebloemweg,10,,,8148SB,Lemele,Ommen,Overijssel,VBO,6.383564,52.449751
Zonnebloemweg,11,,,8148SB,Lemele,Ommen,Overijssel,VBO,6.398508,52.445814
Zonnebloemweg,12,,,8148SB,Lemele,Ommen,Overijssel,VBO,6.398371,52.443676
Zonnebloemweg,13,,,8148SB,Lemele,Ommen,Overijssel,VBO,6.399570,52.445620
Zonnebloemweg,14,a,,8148SB,Lemele,Ommen,Overijssel,VBO,6.403631,52.444700
Zonnebloemweg,14,,,8148SB,Lemele,Ommen,Overijssel,VBO,6.403906,52.444738
Zonnebloemweg,15,,,8148SB,Lemele,Ommen,Overijssel,VBO,6.404038,52.445137
Bergweg,12,,,8148SE,Lemele,Ommen,Overijssel,VBO,6.372752,52.447801
Bergweg,14,,,8148SE,Lemele,Ommen,Overijssel,VBO,6.373584,52.447507
Bergweg,16,,,8148SE,Lemele,Ommen,Overijssel,VBO,6.374242,52.448526
Bergweg,18,a,,8148SE,Lemele,Ommen,Overijssel,VBO,6.374419,52.447452
Bergweg,18,b,,8148SE,Lemele,Ommen,Overijssel,VBO,6.374210,52.447659
Bergweg,18,c,,8148SE,Lemele,Ommen,Overijssel,VBO,6.374058,52.447946
Bergweg,18,,,8148SE,Lemele,Ommen,Overijssel,VBO,6.374620,52.447804
Bergweg,20,,,8148SE,Lemele,Ommen,Overijssel,VBO,6.375372,52.447878
Bergweg,22,,,8148SE,Lemele,Ommen,Overijssel,VBO,6.376456,52.448310
Bergweg,24,,,8148SE,Lemele,Ommen,Overijssel,VBO,6.376643,52.448766
Bergweg,26,,,8148SE,Lemele,Ommen,Overijssel,VBO,6.375666,52.448514
Bergweg,28,,,8148SE,Lemele,Ommen,Overijssel,VBO,6.374447,52.449270
Bergweg,30,,,8148SE,Lemele,Ommen,Overijssel,VBO,6.375694,52.449116
Bergweg,32,,,8148SE,Lemele,Ommen,Overijssel,VBO,6.376902,52.449187
Bergweg,34,,,8148SE,Lemele,Ommen,Overijssel,VBO,6.377746,52.448766
Bergweg,13,,,8148SG,Lemele,Ommen,Overijssel,VBO,6.372630,52.448270
Bergweg,15,,,8148SG,Lemele,Ommen,Overijssel,VBO,6.373625,52.447927
Bergweg,17,,,8148SG,Lemele,Ommen,Overijssel,VBO,6.373815,52.447267
Bergweg,21,,,8148SG,Lemele,Ommen,Overijssel,VBO,6.375935,52.448035
Bergweg,23,,,8148SG,Lemele,Ommen,Overijssel,VBO,6.377063,52.448511
Bergweg,25,,,8148SG,Lemele,Ommen,Overijssel,VBO,6.376098,52.448735
Bergweg,27,a,,8148SG,Lemele,Ommen,Overijssel,VBO,6.374183,52.448874
Bergweg,27,b,,8148SG,Lemele,Ommen,Overijssel,VBO,6.374779,52.448882
Bergweg,27,c,,8148SG,Lemele,Ommen,Overijssel,VBO,6.375255,52.448871
Bergweg,27,,,8148SG,Lemele,Ommen,Overijssel,VBO,6.375145,52.448240
Bergweg,29,,,8148SG,Lemele,Ommen,Overijssel,VBO,6.375139,52.449273
Bergweg,31,,,8148SG,Lemele,Ommen,Overijssel,VBO,6.376321,52.449217
Bergweg,33,,,8148SG,Lemele,Ommen,Overijssel,VBO,6.377601,52.449142
Bergweg,35,,,8148SG,Lemele,Ommen,Overijssel,VBO,6.377475,52.448670
Vossebeltsweg,1,,,8148SH,Lemele,Ommen,Overijssel,VBO,6.379409,52.444436
Vossebeltsweg,2,,,8148SH,Lemele,Ommen,Overijssel,VBO,6.385179,52.441043
Vossebeltsweg,4,,,8148SH,Lemele,Ommen,Overijssel,VBO,6.384871,52.441192
Vossebeltsweg,6,,,8148SH,Lemele,Ommen,Overijssel,VBO,6.383355,52.441798
Kingmaweg,1,a,,8148SJ,Lemele,Ommen,Overijssel,VBO,6.394070,52.438846
Kingmaweg,1,,,8148SJ,Lemele,Ommen,Overijssel,VBO,6.394295,52.438797
Kingmaweg,2,,,8148SJ,Lemele,Ommen,Overijssel,VBO,6.392547,52.439153
Kingmaweg,3,a,,8148SJ,Lemele,Ommen,Overijssel,VBO,6.391309,52.439691
Kingmaweg,3,b,,8148SJ,Lemele,Ommen,Overijssel,VBO,6.391574,52.439707
Kingmaweg,3,,,8148SJ,Lemele,Ommen,Overijssel,VBO,6.391660,52.439625
Kingmaweg,4,,,8148SJ,Lemele,Ommen,Overijssel,VBO,6.391148,52.439719
Kingmaweg,5,a,,8148SJ,Lemele,Ommen,Overijssel,VBO,6.387842,52.439882
Kingmaweg,5,,,8148SJ,Lemele,Ommen,Overijssel,VBO,6.388645,52.440253
Kingmaweg,6,a,,8148SJ,Lemele,Ommen,Overijssel,VBO,6.388359,52.440624
Kingmaweg,6,b,,8148SJ,Lemele,Ommen,Overijssel,VBO,6.387603,52.440343
Knuvendijk,15,,,8148SK,Lemele,Ommen,Overijssel,VBO,6.384438,52.437101
Nieuwe Berkendijk,19,,,8148SL,Lemele,Ommen,Overijssel,VBO,6.386425,52.433191
Nieuwe Berkendijk,28,,,8148SL,Lemele,Ommen,Overijssel,VBO,6.382423,52.433389
Nieuwe Berkendijk,32,,,8148SL,Lemele,Ommen,Overijssel,VBO,6.387627,52.432446
Blikman Kikkertweg,20,,,8148TA,Lemele,Ommen,Overijssel,VBO,6.384825,52.438136
Blikman Kikkertweg,21,,,8148TA,Lemele,Ommen,Overijssel,VBO,6.385637,52.438307
Blikman Kikkertweg,22,b,,8148TA,Lemele,Ommen,Overijssel,VBO,6.386675,52.437938
Blikman Kikkertweg,22,,,8148TA,Lemele,Ommen,Overijssel,VBO,6.386953,52.438332
Blikman Kikkertweg,23,,,8148TA,Lemele,Ommen,Overijssel,VBO,6.387841,52.438159
Blikman Kikkertweg,24,,,8148TA,Lemele,Ommen,Overijssel,VBO,6.388504,52.438046
Blikman Kikkertweg,25,,,8148TA,Lemele,Ommen,Overijssel,VBO,6.389546,52.437882
Blikman Kikkertweg,26,,,8148TA,Lemele,Ommen,Overijssel,VBO,6.390293,52.437686
Blikman Kikkertweg,27,,,8148TA,Lemele,Ommen,Overijssel,VBO,6.391465,52.437497
Blikman Kikkertweg,30,,,8148TA,Lemele,Ommen,Overijssel,VBO,6.392863,52.437266
Statumweg,12,,,8148TB,Lemele,Ommen,Overijssel,VBO,6.381332,52.440099
Statumweg,13,a,,8148TB,Lemele,Ommen,Overijssel,VBO,6.383572,52.439657
Statumweg,13,,,8148TB,Lemele,Ommen,Overijssel,VBO,6.384333,52.440181
Statumweg,15,,,8148TB,Lemele,Ommen,Overijssel,VBO,6.384424,52.439623
Statumweg,16,,,8148TB,Lemele,Ommen,Overijssel,VBO,6.384803,52.439458
Statumweg,17,,,8148TB,Lemele,Ommen,Overijssel,VBO,6.385903,52.439332
Statumweg,18,,,8148TB,Lemele,Ommen,Overijssel,VBO,6.391025,52.438243
Statumweg,19,,,8148TB,Lemele,Ommen,Overijssel,VBO,6.391146,52.438209
Statumweg,20,,,8148TB,Lemele,Ommen,Overijssel,VBO,6.391739,52.438216
Statumweg,21,,,8148TB,Lemele,Ommen,Overijssel,VBO,6.392227,52.438029
