openbareruimtenaam,huisnummer,huisletter,huisnummertoevoeging,postcode,woonplaatsnaam,gemeentenaam,provincienaam,typeadresseerbaarobject,longitude,latitude
Snijdersstraat,1,,,8223AA,Lelystad,Lelystad,Flevoland,VBO,5.483672,52.519359
Snijdersstraat,7,,,8223AA,Lelystad,Lelystad,Flevoland,VBO,5.484012,52.519503
Snijdersstraat,9,,,8223AA,Lelystad,Lelystad,Flevoland,VBO,5.484193,52.519505
Snijdersstraat,11,,,8223AA,Lelystad,Lelystad,Flevoland,VBO,5.484361,52.519507
Snijdersstraat,13,,,8223AA,Lelystad,Lelystad,Flevoland,VBO,5.484567,52.519515
Snijdersstraat,111,,,8223AA,Lelystad,Lelystad,Flevoland,VBO,5.483803,52.519487
Snijdersstraat,119,,,8223AA,Lelystad,Lelystad,Flevoland,VBO,5.483975,52.519494
Snijdersstraat,127,,,8223AA,Lelystad,Lelystad,Flevoland,VBO,5.484026,52.519495
Snijdersstraat,135,,,8223AA,Lelystad,Lelystad,Flevoland,VBO,5.484477,52.519516
Weversstraat,1,,,8223AB,Lelystad,Lelystad,Flevoland,VBO,5.483546,52.519816
Weversstraat,3,,,8223AB,Lelystad,Lelystad,Flevoland,VBO,5.483570,52.519743
Weversstraat,5,A,,8223AB,Lelystad,Lelystad,Flevoland,VBO,5.483582,52.519623
Weversstraat,5,,,8223AB,Lelystad,Lelystad,Flevoland,VBO,5.483577,52.519677
Weversstraat,7,,,8223AB,Lelystad,Lelystad,Flevoland,VBO,5.483581,52.519498
Weversstraat,109,,,8223AB,Lelystad,Lelystad,Flevoland,VBO,5.483566,52.519686
Weversstraat,2,,,8223AC,Lelystad,Lelystad,Flevoland,VBO,5.483335,52.520086
Weversstraat,6,,,8223AC,Lelystad,Lelystad,Flevoland,VBO,5.483346,52.519977
Weversstraat,8,,,8223AC,Lelystad,Lelystad,Flevoland,VBO,5.483083,52.520058
Weversstraat,10,,,8223AC,Lelystad,Lelystad,Flevoland,VBO,5.483153,52.519964
Weversstraat,12,,,8223AC,Lelystad,Lelystad,Flevoland,VBO,5.483193,52.519812
Weversstraat,14,,,8223AC,Lelystad,Lelystad,Flevoland,VBO,5.483178,52.519713
Weversstraat,16,,,8223AC,Lelystad,Lelystad,Flevoland,VBO,5.483200,52.519632
Weversstraat,18,,,8223AC,Lelystad,Lelystad,Flevoland,VBO,5.483205,52.519578
Weversstraat,20,,,8223AC,Lelystad,Lelystad,Flevoland,VBO,5.483233,52.519510
Weversstraat,22,,,8223AC,Lelystad,Lelystad,Flevoland,VBO,5.483264,52.519428
Weversstraat,24,,,8223AC,Lelystad,Lelystad,Flevoland,VBO,5.483003,52.520089
Weversstraat,26,A,,8223AC,Lelystad,Lelystad,Flevoland,VBO,5.482786,52.520052
Weversstraat,26,,,8223AC,Lelystad,Lelystad,Flevoland,VBO,5.482665,52.520004
Weversstraat,28,,,8223AC,Lelystad,Lelystad,Flevoland,VBO,5.483069,52.520030
Weversstraat,30,,,8223AC,Lelystad,Lelystad,Flevoland,VBO,5.482743,52.520006
Weversstraat,34,,,8223AC,Lelystad,Lelystad,Flevoland,VBO,5.483039,52.519805
Weversstraat,36,,,8223AC,Lelystad,Lelystad,Flevoland,VBO,5.482921,52.519931
Weversstraat,38,,,8223AC,Lelystad,Lelystad,Flevoland,VBO,5.482774,52.519841
Weversstraat,44,,,8223AC,Lelystad,Lelystad,Flevoland,VBO,5.483011,52.519724
Weversstraat,46,A,,8223AC,Lelystad,Lelystad,Flevoland,VBO,5.482772,52.519632
Weversstraat,46,,,8223AC,Lelystad,Lelystad,Flevoland,VBO,5.482763,52.519722
Weversstraat,48,,,8223AC,Lelystad,Lelystad,Flevoland,VBO,5.483028,52.519641
Weversstraat,50,,,8223AC,Lelystad,Lelystad,Flevoland,VBO,5.482782,52.519374
Weversstraat,52,,,8223AC,Lelystad,Lelystad,Flevoland,VBO,5.483049,52.519552
Weversstraat,54,,,8223AC,Lelystad,Lelystad,Flevoland,VBO,5.483094,52.519445
Weversstraat,56,,,8223AC,Lelystad,Lelystad,Flevoland,VBO,5.482948,52.519335
Snijdershof,1,,,8223AD,Lelystad,Lelystad,Flevoland,VBO,5.482364,52.519142
Snijdershof,2,,,8223AD,Lelystad,Lelystad,Flevoland,VBO,5.482128,52.519244
Snijdershof,4,,,8223AD,Lelystad,Lelystad,Flevoland,VBO,5.482201,52.519377
Snijdershof,5,,,8223AD,Lelystad,Lelystad,Flevoland,VBO,5.482835,52.519614
Snijdershof,6,,,8223AD,Lelystad,Lelystad,Flevoland,VBO,5.482268,52.519694
Snijdershof,9,,,8223AD,Lelystad,Lelystad,Flevoland,VBO,5.482791,52.519789
Grutterswal,2,,,8223AE,Lelystad,Lelystad,Flevoland,VBO,5.483705,52.520080
Grutterswal,4,,,8223AE,Lelystad,Lelystad,Flevoland,VBO,5.483826,52.520084
Grutterswal,6,,,8223AE,Lelystad,Lelystad,Flevoland,VBO,5.483945,52.520087
Grutterswal,8,,,8223AE,Lelystad,Lelystad,Flevoland,VBO,5.484065,52.520106
Grutterswal,10,,,8223AE,Lelystad,Lelystad,Flevoland,VBO,5.484205,52.520110
Grutterswal,12,,,8223AE,Lelystad,Lelystad,Flevoland,VBO,5.484328,52.520115
Grutterswal,14,,,8223AE,Lelystad,Lelystad,Flevoland,VBO,5.484420,52.520092
Grutterswal,108,,,8223AE,Lelystad,Lelystad,Flevoland,VBO,5.483803,52.520071
Grutterswal,110,,,8223AE,Lelystad,Lelystad,Flevoland,VBO,5.483942,52.520080
Grutterswal,112,,,8223AE,Lelystad,Lelystad,Flevoland,VBO,5.484079,52.520098
Grutterswal,126,,,8223AE,Lelystad,Lelystad,Flevoland,VBO,5.484337,52.520124
Koopmansstraat,2,A,,8223AG,Lelystad,Lelystad,Flevoland,VBO,5.484543,52.519933
Koopmansstraat,2,,,8223AG,Lelystad,Lelystad,Flevoland,VBO,5.484575,52.520070
Koopmansstraat,4,,,8223AG,Lelystad,Lelystad,Flevoland,VBO,5.484544,52.519897
Koopmansstraat,6,,,8223AG,Lelystad,Lelystad,Flevoland,VBO,5.484622,52.519906
Koopmansstraat,8,,,8223AG,Lelystad,Lelystad,Flevoland,VBO,5.484532,52.519841
Koopmansstraat,12,,,8223AG,Lelystad,Lelystad,Flevoland,VBO,5.484560,52.519734
Koopmansstraat,14,,,8223AG,Lelystad,Lelystad,Flevoland,VBO,5.484614,52.519630
Koopmansstraat,108,,,8223AG,Lelystad,Lelystad,Flevoland,VBO,5.484542,52.520057
Koopmansstraat,112,,,8223AG,Lelystad,Lelystad,Flevoland,VBO,5.484550,52.519930
Koopmansstraat,130,,,8223AG,Lelystad,Lelystad,Flevoland,VBO,5.484564,52.519726
Koopmansstraat,1,,,8223AH,Lelystad,Lelystad,Flevoland,VBO,5.484912,52.520266
Koopmansstraat,3,,,8223AH,Lelystad,Lelystad,Flevoland,VBO,5.484986,52.520222
Koopmansstraat,5,,,8223AH,Lelystad,Lelystad,Flevoland,VBO,5.484956,52.520141
Koopmansstraat,7,,,8223AH,Lelystad,Lelystad,Flevoland,VBO,5.484941,52.520077
Koopmansstraat,9,,,8223AH,Lelystad,Lelystad,Flevoland,VBO,5.484965,52.519988
Koopmansstraat,11,,,8223AH,Lelystad,Lelystad,Flevoland,VBO,5.484954,52.519878
Koopmansstraat,13,,,8223AH,Lelystad,Lelystad,Flevoland,VBO,5.484929,52.519785
Koopmansstraat,107,,,8223AH,Lelystad,Lelystad,Flevoland,VBO,5.484937,52.520091
Koopmansstraat,109,,,8223AH,Lelystad,Lelystad,Flevoland,VBO,5.484941,52.520055
Koopmansstraat,111,,,8223AH,Lelystad,Lelystad,Flevoland,VBO,5.484946,52.520001
Koopmansstraat,115,,,8223AH,Lelystad,Lelystad,Flevoland,VBO,5.484956,52.519894
Koopmansstraat,117,,,8223AH,Lelystad,Lelystad,Flevoland,VBO,5.484929,52.519785
Passage,1,,,8223AJ,Lelystad,Lelystad,Flevoland,VBO,5.484811,52.520468
Passage,2,,,8223AJ,Lelystad,Lelystad,Flevoland,VBO,5.485215,52.520239
Passage,6,,,8223AJ,Lelystad,Lelystad,Flevoland,VBO,5.485543,52.520264
Passage,8,,,8223AJ,Lelystad,Lelystad,Flevoland,VBO,5.485666,52.520269
Brugplein,1,,,8223AK,Lelystad,Lelystad,Flevoland,VBO,5.484662,52.520504
Brugplein,2,,,8223AK,Lelystad,Lelystad,Flevoland,VBO,5.485233,52.520224
Brugplein,4,,,8223AK,Lelystad,Lelystad,Flevoland,VBO,5.485449,52.520253
Brugplein,8,,,8223AK,Lelystad,Lelystad,Flevoland,VBO,5.485660,52.520266
Noorderwagenplein,2,,,8223AL,Lelystad,Lelystad,Flevoland,VBO,5.481774,52.520156
Noorderwagenplein,4,,,8223AL,Lelystad,Lelystad,Flevoland,VBO,5.481843,52.520493
Noorderwagenplein,6,,,8223AL,Lelystad,Lelystad,Flevoland,VBO,5.482307,52.520044
Noorderwagenplein,10,,,8223AL,Lelystad,Lelystad,Flevoland,VBO,5.483787,52.520566
Noorderwagenstraat,1,A,,8223AM,Lelystad,Lelystad,Flevoland,VBO,5.487260,52.520712
Noorderwagenstraat,1,B,,8223AM,Lelystad,Lelystad,Flevoland,VBO,5.487309,52.520717
Noorderwagenstraat,1,C,,8223AM,Lelystad,Lelystad,Flevoland,VBO,5.486944,52.520434
Noorderwagenstraat,1,D,,8223AM,Lelystad,Lelystad,Flevoland,VBO,5.486928,52.520529
Noorderwagenstraat,1,F,,8223AM,Lelystad,Lelystad,Flevoland,VBO,5.487252,52.520474
Noorderwagenstraat,1,G,,8223AM,Lelystad,Lelystad,Flevoland,VBO,5.487322,52.520686
Noorderwagenstraat,1,H,,8223AM,Lelystad,Lelystad,Flevoland,VBO,5.486969,52.520484
Noorderwagenstraat,1,I,,8223AM,Lelystad,Lelystad,Flevoland,VBO,5.487172,52.520660
Noorderwagenstraat,1,J,,8223AM,Lelystad,Lelystad,Flevoland,VBO,5.487182,52.520728
Noorderwagenstraat,1,L,,8223AM,Lelystad,Lelystad,Flevoland,VBO,5.487313,52.520630
Noorderwagenstraat,2,,,8223AM,Lelystad,Lelystad,Flevoland,VBO,5.486158,52.520363
Steile Bank,1,,,8223BA,Lelystad,Lelystad,Flevoland,VBO,5.483666,52.522033
Steile Bank,2,,,8223BA,Lelystad,Lelystad,Flevoland,VBO,5.483663,52.522078
Steile Bank,3,,,8223BA,Lelystad,Lelystad,Flevoland,VBO,5.483659,52.522122
Steile Bank,4,,,8223BA,Lelystad,Lelystad,Flevoland,VBO,5.483655,52.522166
Steile Bank,5,,,8223BA,Lelystad,Lelystad,Flevoland,VBO,5.483650,52.522210
Steile Bank,6,,,8223BA,Lelystad,Lelystad,Flevoland,VBO,5.483646,52.522254
Steile Bank,7,,,8223BA,Lelystad,Lelystad,Flevoland,VBO,5.483641,52.522298
Steile Bank,8,,,8223BA,Lelystad,Lelystad,Flevoland,VBO,5.483637,52.522342
Steile Bank,9,,,8223BA,Lelystad,Lelystad,Flevoland,VBO,5.483633,52.522386
Steile Bank,10,,,8223BA,Lelystad,Lelystad,Flevoland,VBO,5.483624,52.522431
Steile Bank,22,,,8223BB,Lelystad,Lelystad,Flevoland,VBO,5.484423,52.522460
Steile Bank,23,,,8223BB,Lelystad,Lelystad,Flevoland,VBO,5.484427,52.522415
Steile Bank,24,,,8223BB,Lelystad,Lelystad,Flevoland,VBO,5.484431,52.522371
Steile Bank,25,,,8223BB,Lelystad,Lelystad,Flevoland,VBO,5.484435,52.522327
Steile Bank,26,,,8223BB,Lelystad,Lelystad,Flevoland,VBO,5.484439,52.522283
Steile Bank,27,,,8223BB,Lelystad,Lelystad,Flevoland,VBO,5.484443,52.522239
Steile Bank,28,,,8223BB,Lelystad,Lelystad,Flevoland,VBO,5.484448,52.522195
Steile Bank,29,,,8223BB,Lelystad,Lelystad,Flevoland,VBO,5.484452,52.522151
Steile Bank,30,,,8223BB,Lelystad,Lelystad,Flevoland,VBO,5.484456,52.522107
Steile Bank,31,,,8223BB,Lelystad,Lelystad,Flevoland,VBO,5.484459,52.522062
Muiderzand,1,,,8223BC,Lelystad,Lelystad,Flevoland,VBO,5.481719,52.521962
Muiderzand,2,,,8223BC,Lelystad,Lelystad,Flevoland,VBO,5.481716,52.522007
Muiderzand,3,,,8223BC,Lelystad,Lelystad,Flevoland,VBO,5.481712,52.522051
Muiderzand,4,,,8223BC,Lelystad,Lelystad,Flevoland,VBO,5.481708,52.522095
Muiderzand,5,,,8223BC,Lelystad,Lelystad,Flevoland,VBO,5.481704,52.522138
Muiderzand,6,,,8223BC,Lelystad,Lelystad,Flevoland,VBO,5.481699,52.522183
Muiderzand,7,,,8223BC,Lelystad,Lelystad,Flevoland,VBO,5.481795,52.522342
Muiderzand,8,,,8223BC,Lelystad,Lelystad,Flevoland,VBO,5.481803,52.522333
Muiderzand,9,,,8223BC,Lelystad,Lelystad,Flevoland,VBO,5.481956,52.522335
Muiderzand,10,,,8223BC,Lelystad,Lelystad,Flevoland,VBO,5.482096,52.522341
Muiderzand,11,,,8223BC,Lelystad,Lelystad,Flevoland,VBO,5.482244,52.522346
Muiderzand,12,,,8223BC,Lelystad,Lelystad,Flevoland,VBO,5.481795,52.522333
Muiderzand,13,,,8223BC,Lelystad,Lelystad,Flevoland,VBO,5.481949,52.522335
Muiderzand,14,,,8223BC,Lelystad,Lelystad,Flevoland,VBO,5.482096,52.522341
Muiderzand,15,,,8223BC,Lelystad,Lelystad,Flevoland,VBO,5.482244,52.522346
Muiderzand,25,,,8223BD,Lelystad,Lelystad,Flevoland,VBO,5.483132,52.522437
Muiderzand,26,,,8223BD,Lelystad,Lelystad,Flevoland,VBO,5.483136,52.522392
Muiderzand,27,,,8223BD,Lelystad,Lelystad,Flevoland,VBO,5.483140,52.522348
Muiderzand,28,,,8223BD,Lelystad,Lelystad,Flevoland,VBO,5.483145,52.522304
Muiderzand,29,,,8223BD,Lelystad,Lelystad,Flevoland,VBO,5.483149,52.522260
Muiderzand,30,,,8223BD,Lelystad,Lelystad,Flevoland,VBO,5.483153,52.522216
Muiderzand,31,,,8223BD,Lelystad,Lelystad,Flevoland,VBO,5.483156,52.522172
Muiderzand,32,T,,8223BD,Lelystad,Lelystad,Flevoland,VBO,5.483043,52.522084
Muiderzand,32,,,8223BD,Lelystad,Lelystad,Flevoland,VBO,5.483163,52.522127
Muiderzand,33,,,8223BD,Lelystad,Lelystad,Flevoland,VBO,5.482885,52.522070
Muiderzand,34,,,8223BD,Lelystad,Lelystad,Flevoland,VBO,5.482811,52.522067
Muiderzand,35,,,8223BD,Lelystad,Lelystad,Flevoland,VBO,5.482739,52.522064
Muiderzand,36,,,8223BD,Lelystad,Lelystad,Flevoland,VBO,5.482666,52.522062
Muiderzand,37,,,8223BD,Lelystad,Lelystad,Flevoland,VBO,5.482594,52.522059
Muiderzand,38,,,8223BD,Lelystad,Lelystad,Flevoland,VBO,5.482522,52.522056
Muiderzand,39,,,8223BD,Lelystad,Lelystad,Flevoland,VBO,5.482450,52.522054
Muiderzand,40,,,8223BD,Lelystad,Lelystad,Flevoland,VBO,5.482378,52.522051
Muiderzand,41,,,8223BD,Lelystad,Lelystad,Flevoland,VBO,5.482304,52.522048
Muiderzand,42,,,8223BD,Lelystad,Lelystad,Flevoland,VBO,5.482232,52.522046
Blokkerhoek,1,,,8223BE,Lelystad,Lelystad,Flevoland,VBO,5.480618,52.521986
Blokkerhoek,2,,,8223BE,Lelystad,Lelystad,Flevoland,VBO,5.480546,52.521983
Blokkerhoek,3,,,8223BE,Lelystad,Lelystad,Flevoland,VBO,5.480474,52.521981
Blokkerhoek,4,,,8223BE,Lelystad,Lelystad,Flevoland,VBO,5.480401,52.521978
Blokkerhoek,5,,,8223BE,Lelystad,Lelystad,Flevoland,VBO,5.480329,52.521976
Blokkerhoek,6,,,8223BE,Lelystad,Lelystad,Flevoland,VBO,5.480257,52.521973
Blokkerhoek,7,,,8223BE,Lelystad,Lelystad,Flevoland,VBO,5.480185,52.521970
Blokkerhoek,8,,,8223BE,Lelystad,Lelystad,Flevoland,VBO,5.480111,52.521968
Blokkerhoek,9,T,,8223BE,Lelystad,Lelystad,Flevoland,VBO,5.479962,52.521969
Blokkerhoek,9,,,8223BE,Lelystad,Lelystad,Flevoland,VBO,5.479836,52.522005
Blokkerhoek,10,,,8223BE,Lelystad,Lelystad,Flevoland,VBO,5.479828,52.522050
Blokkerhoek,11,,,8223BE,Lelystad,Lelystad,Flevoland,VBO,5.479822,52.522094
Blokkerhoek,12,,,8223BE,Lelystad,Lelystad,Flevoland,VBO,5.479820,52.522138
Blokkerhoek,13,,,8223BE,Lelystad,Lelystad,Flevoland,VBO,5.479816,52.522182
Blokkerhoek,14,,,8223BE,Lelystad,Lelystad,Flevoland,VBO,5.479812,52.522226
Blokkerhoek,15,,,8223BE,Lelystad,Lelystad,Flevoland,VBO,5.479807,52.522269
Blokkerhoek,16,,,8223BE,Lelystad,Lelystad,Flevoland,VBO,5.479803,52.522315
Blokkerhoek,26,A,,8223BG,Lelystad,Lelystad,Flevoland,VBO,5.480911,52.522294
Blokkerhoek,26,B,,8223BG,Lelystad,Lelystad,Flevoland,VBO,5.480861,52.522288
Blokkerhoek,26,C,,8223BG,Lelystad,Lelystad,Flevoland,VBO,5.480816,52.522290
Blokkerhoek,26,D,,8223BG,Lelystad,Lelystad,Flevoland,VBO,5.480767,52.522279
Blokkerhoek,26,E,,8223BG,Lelystad,Lelystad,Flevoland,VBO,5.480718,52.522282
Blokkerhoek,26,F,,8223BG,Lelystad,Lelystad,Flevoland,VBO,5.480666,52.522284
Blokkerhoek,26,G,,8223BG,Lelystad,Lelystad,Flevoland,VBO,5.480615,52.522275
Blokkerhoek,26,H,,8223BG,Lelystad,Lelystad,Flevoland,VBO,5.480570,52.522273
Blokkerhoek,26,,,8223BG,Lelystad,Lelystad,Flevoland,VBO,5.481082,52.522316
Blokkerhoek,27,,,8223BG,Lelystad,Lelystad,Flevoland,VBO,5.480607,52.522285
Blokkerhoek,28,,,8223BG,Lelystad,Lelystad,Flevoland,VBO,5.480755,52.522290
Blokkerhoek,29,,,8223BG,Lelystad,Lelystad,Flevoland,VBO,5.480903,52.522295
Blokkerhoek,30,,,8223BG,Lelystad,Lelystad,Flevoland,VBO,5.481056,52.522304
Blokkerhoek,31,,,8223BG,Lelystad,Lelystad,Flevoland,VBO,5.480607,52.522285
Blokkerhoek,32,,,8223BG,Lelystad,Lelystad,Flevoland,VBO,5.480755,52.522290
Blokkerhoek,33,,,8223BG,Lelystad,Lelystad,Flevoland,VBO,5.480903,52.522295
Blokkerhoek,34,,,8223BG,Lelystad,Lelystad,Flevoland,VBO,5.481056,52.522304
Blokkerhoek,35,,,8223BG,Lelystad,Lelystad,Flevoland,VBO,5.481209,52.522166
Blokkerhoek,36,,,8223BG,Lelystad,Lelystad,Flevoland,VBO,5.481213,52.522121
Blokkerhoek,37,,,8223BG,Lelystad,Lelystad,Flevoland,VBO,5.481217,52.522077
Blokkerhoek,38,,,8223BG,Lelystad,Lelystad,Flevoland,VBO,5.481222,52.522033
Blokkerhoek,39,,,8223BG,Lelystad,Lelystad,Flevoland,VBO,5.481226,52.521989
Blokkerhoek,40,,,8223BG,Lelystad,Lelystad,Flevoland,VBO,5.481231,52.521943
Hoek van het IJ,1,,,8223BH,Lelystad,Lelystad,Flevoland,VBO,5.479280,52.521569
Hoek van het IJ,2,,,8223BH,Lelystad,Lelystad,Flevoland,VBO,5.479314,52.521522
Hoek van het IJ,3,,,8223BH,Lelystad,Lelystad,Flevoland,VBO,5.479318,52.521478
Hoek van het IJ,4,,,8223BH,Lelystad,Lelystad,Flevoland,VBO,5.479322,52.521434
Hoek van het IJ,5,,,8223BH,Lelystad,Lelystad,Flevoland,VBO,5.479327,52.521390
Hoek van het IJ,6,,,8223BH,Lelystad,Lelystad,Flevoland,VBO,5.479331,52.521346
Hoek van het IJ,7,,,8223BH,Lelystad,Lelystad,Flevoland,VBO,5.479334,52.521302
Hoek van het IJ,8,,,8223BH,Lelystad,Lelystad,Flevoland,VBO,5.479339,52.521257
Hoek van het IJ,9,,,8223BH,Lelystad,Lelystad,Flevoland,VBO,5.479077,52.521190
Hoek van het IJ,10,,,8223BH,Lelystad,Lelystad,Flevoland,VBO,5.478999,52.521187
Hoek van het IJ,11,,,8223BH,Lelystad,Lelystad,Flevoland,VBO,5.478925,52.521184
Hoek van het IJ,12,,,8223BH,Lelystad,Lelystad,Flevoland,VBO,5.478855,52.521182
Hoek van het IJ,13,,,8223BH,Lelystad,Lelystad,Flevoland,VBO,5.478783,52.521179
Hoek van het IJ,14,,,8223BH,Lelystad,Lelystad,Flevoland,VBO,5.478711,52.521176
Hoek van het IJ,15,,,8223BH,Lelystad,Lelystad,Flevoland,VBO,5.478639,52.521174
Hoek van het IJ,16,,,8223BH,Lelystad,Lelystad,Flevoland,VBO,5.478565,52.521171
Hoek van het IJ,17,,,8223BJ,Lelystad,Lelystad,Flevoland,VBO,5.478269,52.521218
Hoek van het IJ,18,,,8223BJ,Lelystad,Lelystad,Flevoland,VBO,5.478265,52.521263
Hoek van het IJ,19,,,8223BJ,Lelystad,Lelystad,Flevoland,VBO,5.478261,52.521307
Hoek van het IJ,20,,,8223BJ,Lelystad,Lelystad,Flevoland,VBO,5.478258,52.521351
Hoek van het IJ,21,,,8223BJ,Lelystad,Lelystad,Flevoland,VBO,5.478252,52.521395
Hoek van het IJ,22,,,8223BJ,Lelystad,Lelystad,Flevoland,VBO,5.478249,52.521440
Hoek van het IJ,23,,,8223BJ,Lelystad,Lelystad,Flevoland,VBO,5.478329,52.521584
Hoek van het IJ,24,,,8223BJ,Lelystad,Lelystad,Flevoland,VBO,5.478525,52.521635
Hoek van het IJ,25,,,8223BJ,Lelystad,Lelystad,Flevoland,VBO,5.478329,52.521584
Hoek van het IJ,26,,,8223BJ,Lelystad,Lelystad,Flevoland,VBO,5.478525,52.521635
Hoek van het IJ,27,,,8223BJ,Lelystad,Lelystad,Flevoland,VBO,5.478329,52.521584
Hoek van het IJ,28,,,8223BJ,Lelystad,Lelystad,Flevoland,VBO,5.478525,52.521635
Hoek van het IJ,29,,,8223BJ,Lelystad,Lelystad,Flevoland,VBO,5.478613,52.521549
Hoek van het IJ,30,,,8223BK,Lelystad,Lelystad,Flevoland,VBO,5.478213,52.521798
Hoek van het IJ,31,,,8223BK,Lelystad,Lelystad,Flevoland,VBO,5.478207,52.521844
Hoek van het IJ,32,,,8223BK,Lelystad,Lelystad,Flevoland,VBO,5.478205,52.521888
Hoek van het IJ,33,,,8223BK,Lelystad,Lelystad,Flevoland,VBO,5.478201,52.521932
Hoek van het IJ,34,,,8223BK,Lelystad,Lelystad,Flevoland,VBO,5.478196,52.521976
Hoek van het IJ,35,,,8223BK,Lelystad,Lelystad,Flevoland,VBO,5.478192,52.522020
Hoek van het IJ,36,,,8223BK,Lelystad,Lelystad,Flevoland,VBO,5.478188,52.522064
Hoek van het IJ,37,,,8223BK,Lelystad,Lelystad,Flevoland,VBO,5.478183,52.522107
Hoek van het IJ,38,,,8223BK,Lelystad,Lelystad,Flevoland,VBO,5.478179,52.522151
Hoek van het IJ,39,,,8223BK,Lelystad,Lelystad,Flevoland,VBO,5.478175,52.522197
Hoek van het IJ,40,A,,8223BK,Lelystad,Lelystad,Flevoland,VBO,5.478383,52.522326
Hoek van het IJ,40,B,,8223BK,Lelystad,Lelystad,Flevoland,VBO,5.478428,52.522331
Hoek van het IJ,40,C,,8223BK,Lelystad,Lelystad,Flevoland,VBO,5.478481,52.522330
Hoek van het IJ,40,D,,8223BK,Lelystad,Lelystad,Flevoland,VBO,5.478520,52.522330
Hoek van het IJ,40,E,,8223BK,Lelystad,Lelystad,Flevoland,VBO,5.478569,52.522332
Hoek van het IJ,40,F,,8223BK,Lelystad,Lelystad,Flevoland,VBO,5.478623,52.522333
Hoek van het IJ,40,G,,8223BK,Lelystad,Lelystad,Flevoland,VBO,5.478676,52.522335
Hoek van het IJ,40,H,,8223BK,Lelystad,Lelystad,Flevoland,VBO,5.478717,52.522339
Hoek van het IJ,40,I,,8223BK,Lelystad,Lelystad,Flevoland,VBO,5.478773,52.522340
Hoek van het IJ,40,J,,8223BK,Lelystad,Lelystad,Flevoland,VBO,5.478818,52.522341
Hoek van het IJ,40,K,,8223BK,Lelystad,Lelystad,Flevoland,VBO,5.478869,52.522346
Hoek van het IJ,40,L,,8223BK,Lelystad,Lelystad,Flevoland,VBO,5.478921,52.522343
Hoek van het IJ,40,,,8223BK,Lelystad,Lelystad,Flevoland,VBO,5.478270,52.522345
Hoek van het IJ,41,,,8223BK,Lelystad,Lelystad,Flevoland,VBO,5.478274,52.522335
Hoek van het IJ,42,,,8223BK,Lelystad,Lelystad,Flevoland,VBO,5.478427,52.522337
Hoek van het IJ,43,,,8223BK,Lelystad,Lelystad,Flevoland,VBO,5.478574,52.522343
Hoek van het IJ,44,,,8223BK,Lelystad,Lelystad,Flevoland,VBO,5.478721,52.522349
Hoek van het IJ,45,,,8223BK,Lelystad,Lelystad,Flevoland,VBO,5.478870,52.522355
Hoek van het IJ,46,,,8223BK,Lelystad,Lelystad,Flevoland,VBO,5.478274,52.522335
Hoek van het IJ,47,,,8223BK,Lelystad,Lelystad,Flevoland,VBO,5.478427,52.522337
Hoek van het IJ,48,,,8223BK,Lelystad,Lelystad,Flevoland,VBO,5.478574,52.522343
Hoek van het IJ,49,,,8223BK,Lelystad,Lelystad,Flevoland,VBO,5.478721,52.522349
Hoek van het IJ,50,,,8223BK,Lelystad,Lelystad,Flevoland,VBO,5.478870,52.522355
Hoek van het IJ,51,,,8223BL,Lelystad,Lelystad,Flevoland,VBO,5.479242,52.522361
Hoek van het IJ,52,,,8223BL,Lelystad,Lelystad,Flevoland,VBO,5.479248,52.522316
Hoek van het IJ,53,,,8223BL,Lelystad,Lelystad,Flevoland,VBO,5.479252,52.522272
Hoek van het IJ,54,,,8223BL,Lelystad,Lelystad,Flevoland,VBO,5.479257,52.522228
Hoek van het IJ,55,,,8223BL,Lelystad,Lelystad,Flevoland,VBO,5.479261,52.522184
Hoek van het IJ,56,,,8223BL,Lelystad,Lelystad,Flevoland,VBO,5.479265,52.522140
Hoek van het IJ,57,,,8223BL,Lelystad,Lelystad,Flevoland,VBO,5.479269,52.522096
Hoek van het IJ,58,,,8223BL,Lelystad,Lelystad,Flevoland,VBO,5.479274,52.522051
Hoek van het IJ,59,,,8223BL,Lelystad,Lelystad,Flevoland,VBO,5.479007,52.521857
Hoek van het IJ,60,,,8223BL,Lelystad,Lelystad,Flevoland,VBO,5.479203,52.521908
Hoek van het IJ,61,,,8223BL,Lelystad,Lelystad,Flevoland,VBO,5.479007,52.521857
Hoek van het IJ,62,,,8223BL,Lelystad,Lelystad,Flevoland,VBO,5.479203,52.521908
Hoek van het IJ,63,,,8223BL,Lelystad,Lelystad,Flevoland,VBO,5.479007,52.521857
Hoek van het IJ,64,,,8223BL,Lelystad,Lelystad,Flevoland,VBO,5.479203,52.521908
Pampus,1,,,8223BM,Lelystad,Lelystad,Flevoland,VBO,5.481062,52.521659
Pampus,2,,,8223BM,Lelystad,Lelystad,Flevoland,VBO,5.481071,52.521592
Pampus,3,,,8223BM,Lelystad,Lelystad,Flevoland,VBO,5.481077,52.521526
Pampus,4,,,8223BM,Lelystad,Lelystad,Flevoland,VBO,5.481083,52.521471
Pampus,5,,,8223BM,Lelystad,Lelystad,Flevoland,VBO,5.481088,52.521415
Pampus,6,,,8223BM,Lelystad,Lelystad,Flevoland,VBO,5.481017,52.521272
Pampus,7,,,8223BM,Lelystad,Lelystad,Flevoland,VBO,5.480907,52.521268
Pampus,8,,,8223BM,Lelystad,Lelystad,Flevoland,VBO,5.480799,52.521264
Pampus,9,,,8223BM,Lelystad,Lelystad,Flevoland,VBO,5.480691,52.521260
Pampus,10,,,8223BM,Lelystad,Lelystad,Flevoland,VBO,5.480579,52.521256
Pampus,11,,,8223BM,Lelystad,Lelystad,Flevoland,VBO,5.480470,52.521253
Pampus,12,,,8223BM,Lelystad,Lelystad,Flevoland,VBO,5.480361,52.521248
Pampus,13,,,8223BM,Lelystad,Lelystad,Flevoland,VBO,5.480084,52.521290
Pampus,14,,,8223BM,Lelystad,Lelystad,Flevoland,VBO,5.480077,52.521357
Pampus,15,,,8223BM,Lelystad,Lelystad,Flevoland,VBO,5.480071,52.521423
Pampus,16,,,8223BM,Lelystad,Lelystad,Flevoland,VBO,5.480064,52.521489
Pampus,17,,,8223BM,Lelystad,Lelystad,Flevoland,VBO,5.480057,52.521555
Pampus,18,,,8223BM,Lelystad,Lelystad,Flevoland,VBO,5.480051,52.521622
Friese Vlaak,1,A,,8223BN,Lelystad,Lelystad,Flevoland,VBO,5.482326,52.521630
Friese Vlaak,1,B,,8223BN,Lelystad,Lelystad,Flevoland,VBO,5.482367,52.521631
Friese Vlaak,1,C,,8223BN,Lelystad,Lelystad,Flevoland,VBO,5.482414,52.521633
Friese Vlaak,1,D,,8223BN,Lelystad,Lelystad,Flevoland,VBO,5.482462,52.521636
Friese Vlaak,1,E,,8223BN,Lelystad,Lelystad,Flevoland,VBO,5.482515,52.521636
Friese Vlaak,1,,,8223BN,Lelystad,Lelystad,Flevoland,VBO,5.482156,52.521647
Friese Vlaak,2,,,8223BN,Lelystad,Lelystad,Flevoland,VBO,5.482166,52.521639
Friese Vlaak,3,,,8223BN,Lelystad,Lelystad,Flevoland,VBO,5.482319,52.521643
Friese Vlaak,4,,,8223BN,Lelystad,Lelystad,Flevoland,VBO,5.482467,52.521648
Friese Vlaak,5,,,8223BN,Lelystad,Lelystad,Flevoland,VBO,5.482166,52.521639
Friese Vlaak,6,,,8223BN,Lelystad,Lelystad,Flevoland,VBO,5.482319,52.521643
Friese Vlaak,7,,,8223BN,Lelystad,Lelystad,Flevoland,VBO,5.482467,52.521648
Friese Vlaak,8,,,8223BN,Lelystad,Lelystad,Flevoland,VBO,5.482784,52.521599
Friese Vlaak,9,,,8223BN,Lelystad,Lelystad,Flevoland,VBO,5.482788,52.521554
Friese Vlaak,10,,,8223BN,Lelystad,Lelystad,Flevoland,VBO,5.482761,52.521512
Friese Vlaak,11,,,8223BN,Lelystad,Lelystad,Flevoland,VBO,5.482765,52.521462
Friese Vlaak,12,,,8223BN,Lelystad,Lelystad,Flevoland,VBO,5.482798,52.521422
Friese Vlaak,13,,,8223BN,Lelystad,Lelystad,Flevoland,VBO,5.482802,52.521378
Friese Vlaak,14,,,8223BN,Lelystad,Lelystad,Flevoland,VBO,5.482806,52.521334
Friese Vlaak,15,,,8223BN,Lelystad,Lelystad,Flevoland,VBO,5.482779,52.521278
Friese Vlaak,16,,,8223BP,Lelystad,Lelystad,Flevoland,VBO,5.482204,52.521316
Friese Vlaak,17,,,8223BP,Lelystad,Lelystad,Flevoland,VBO,5.482129,52.521313
Friese Vlaak,18,,,8223BP,Lelystad,Lelystad,Flevoland,VBO,5.482058,52.521311
Friese Vlaak,19,,,8223BP,Lelystad,Lelystad,Flevoland,VBO,5.481986,52.521308
Friese Vlaak,20,,,8223BP,Lelystad,Lelystad,Flevoland,VBO,5.481915,52.521305
Friese Vlaak,21,,,8223BP,Lelystad,Lelystad,Flevoland,VBO,5.481842,52.521303
Friese Vlaak,22,,,8223BP,Lelystad,Lelystad,Flevoland,VBO,5.481772,52.521300
Friese Vlaak,23,,,8223BP,Lelystad,Lelystad,Flevoland,VBO,5.481697,52.521297
Friese Vlaak,24,,,8223BP,Lelystad,Lelystad,Flevoland,VBO,5.481580,52.521444
Friese Vlaak,25,,,8223BP,Lelystad,Lelystad,Flevoland,VBO,5.481576,52.521489
Friese Vlaak,26,,,8223BP,Lelystad,Lelystad,Flevoland,VBO,5.481571,52.521533
Friese Vlaak,27,,,8223BP,Lelystad,Lelystad,Flevoland,VBO,5.481566,52.521577
Friese Vlaak,28,,,8223BP,Lelystad,Lelystad,Flevoland,VBO,5.481562,52.521621
Friese Vlaak,29,,,8223BP,Lelystad,Lelystad,Flevoland,VBO,5.481557,52.521666
Het Spiek,1,,,8223BR,Lelystad,Lelystad,Flevoland,VBO,5.484485,52.521774
Het Spiek,2,,,8223BR,Lelystad,Lelystad,Flevoland,VBO,5.484491,52.521728
Het Spiek,3,,,8223BR,Lelystad,Lelystad,Flevoland,VBO,5.484495,52.521684
Het Spiek,4,,,8223BR,Lelystad,Lelystad,Flevoland,VBO,5.484499,52.521640
Het Spiek,5,,,8223BR,Lelystad,Lelystad,Flevoland,VBO,5.484503,52.521597
Het Spiek,6,,,8223BR,Lelystad,Lelystad,Flevoland,VBO,5.484508,52.521551
Het Spiek,7,,,8223BR,Lelystad,Lelystad,Flevoland,VBO,5.484420,52.521397
Het Spiek,8,,,8223BR,Lelystad,Lelystad,Flevoland,VBO,5.484346,52.521395
Het Spiek,9,,,8223BR,Lelystad,Lelystad,Flevoland,VBO,5.484274,52.521392
Het Spiek,10,,,8223BR,Lelystad,Lelystad,Flevoland,VBO,5.484198,52.521389
Het Spiek,11,,,8223BR,Lelystad,Lelystad,Flevoland,VBO,5.484125,52.521387
Het Spiek,12,,,8223BR,Lelystad,Lelystad,Flevoland,VBO,5.484054,52.521384
Het Spiek,13,,,8223BR,Lelystad,Lelystad,Flevoland,VBO,5.483982,52.521382
Het Spiek,14,,,8223BR,Lelystad,Lelystad,Flevoland,VBO,5.483908,52.521379
Het Spiek,15,,,8223BS,Lelystad,Lelystad,Flevoland,VBO,5.483308,52.521307
Het Spiek,16,,,8223BS,Lelystad,Lelystad,Flevoland,VBO,5.483303,52.521352
Het Spiek,17,,,8223BS,Lelystad,Lelystad,Flevoland,VBO,5.483299,52.521396
Het Spiek,18,,,8223BS,Lelystad,Lelystad,Flevoland,VBO,5.483295,52.521440
Het Spiek,19,,,8223BS,Lelystad,Lelystad,Flevoland,VBO,5.483290,52.521484
Het Spiek,20,,,8223BS,Lelystad,Lelystad,Flevoland,VBO,5.483288,52.521528
Het Spiek,21,,,8223BS,Lelystad,Lelystad,Flevoland,VBO,5.483282,52.521572
Het Spiek,22,,,8223BS,Lelystad,Lelystad,Flevoland,VBO,5.483279,52.521617
Het Spiek,23,,,8223BS,Lelystad,Lelystad,Flevoland,VBO,5.483899,52.521711
Het Spiek,24,,,8223BS,Lelystad,Lelystad,Flevoland,VBO,5.483874,52.521701
Het Spiek,25,,,8223BS,Lelystad,Lelystad,Flevoland,VBO,5.483721,52.521693
Het Spiek,26,,,8223BS,Lelystad,Lelystad,Flevoland,VBO,5.483574,52.521687
Het Spiek,27,,,8223BS,Lelystad,Lelystad,Flevoland,VBO,5.483874,52.521701
Het Spiek,28,,,8223BS,Lelystad,Lelystad,Flevoland,VBO,5.483721,52.521693
Het Spiek,29,,,8223BS,Lelystad,Lelystad,Flevoland,VBO,5.483574,52.521687
Rode Klif,1,,,8223CA,Lelystad,Lelystad,Flevoland,VBO,5.485107,52.521588
Rode Klif,3,,,8223CA,Lelystad,Lelystad,Flevoland,VBO,5.484996,52.521804
Rode Klif,4,,,8223CA,Lelystad,Lelystad,Flevoland,VBO,5.485000,52.521870
Rode Klif,5,,,8223CA,Lelystad,Lelystad,Flevoland,VBO,5.484999,52.521803
Rode Klif,6,,,8223CA,Lelystad,Lelystad,Flevoland,VBO,5.485005,52.521866
Rode Klif,7,,,8223CA,Lelystad,Lelystad,Flevoland,VBO,5.485007,52.521804
Rode Klif,8,,,8223CA,Lelystad,Lelystad,Flevoland,VBO,5.485015,52.521866
Rode Klif,11,,,8223CA,Lelystad,Lelystad,Flevoland,VBO,5.485001,52.521688
Rode Klif,12,,,8223CA,Lelystad,Lelystad,Flevoland,VBO,5.485006,52.521754
Rode Klif,13,,,8223CA,Lelystad,Lelystad,Flevoland,VBO,5.485003,52.521686
Rode Klif,14,,,8223CA,Lelystad,Lelystad,Flevoland,VBO,5.485010,52.521750
Rode Klif,15,,,8223CA,Lelystad,Lelystad,Flevoland,VBO,5.485012,52.521687
Rode Klif,16,,,8223CA,Lelystad,Lelystad,Flevoland,VBO,5.485020,52.521749
Rode Klif,19,,,8223CA,Lelystad,Lelystad,Flevoland,VBO,5.485012,52.521571
Rode Klif,20,,,8223CA,Lelystad,Lelystad,Flevoland,VBO,5.485018,52.521637
Rode Klif,21,,,8223CA,Lelystad,Lelystad,Flevoland,VBO,5.485015,52.521569
Rode Klif,22,,,8223CA,Lelystad,Lelystad,Flevoland,VBO,5.485022,52.521633
Rode Klif,23,,,8223CA,Lelystad,Lelystad,Flevoland,VBO,5.485024,52.521570
Rode Klif,24,,,8223CA,Lelystad,Lelystad,Flevoland,VBO,5.485032,52.521633
Rode Klif,27,,,8223CB,Lelystad,Lelystad,Flevoland,VBO,5.485023,52.521455
Rode Klif,28,,,8223CB,Lelystad,Lelystad,Flevoland,VBO,5.485029,52.521521
Rode Klif,29,,,8223CB,Lelystad,Lelystad,Flevoland,VBO,5.485026,52.521453
Rode Klif,30,,,8223CB,Lelystad,Lelystad,Flevoland,VBO,5.485033,52.521516
Rode Klif,31,,,8223CB,Lelystad,Lelystad,Flevoland,VBO,5.485035,52.521512
Rode Klif,32,,,8223CB,Lelystad,Lelystad,Flevoland,VBO,5.485039,52.521342
Rode Klif,35,,,8223CB,Lelystad,Lelystad,Flevoland,VBO,5.485115,52.521331
Rode Klif,36,,,8223CB,Lelystad,Lelystad,Flevoland,VBO,5.485262,52.521337
Rode Klif,37,,,8223CB,Lelystad,Lelystad,Flevoland,VBO,5.485281,52.521471
Rode Klif,38,,,8223CB,Lelystad,Lelystad,Flevoland,VBO,5.485269,52.521564
Rode Klif,39,,,8223CB,Lelystad,Lelystad,Flevoland,VBO,5.485263,52.521645
Rode Klif,40,T,,8223CB,Lelystad,Lelystad,Flevoland,VBO,5.485410,52.521988
Rode Klif,40,,,8223CB,Lelystad,Lelystad,Flevoland,VBO,5.485234,52.522048
Rode Klif,42,,,8223CB,Lelystad,Lelystad,Flevoland,VBO,5.485174,52.521976
Rode Klif,43,,,8223CB,Lelystad,Lelystad,Flevoland,VBO,5.485179,52.522042
Rode Klif,44,,,8223CB,Lelystad,Lelystad,Flevoland,VBO,5.485169,52.521980
Rode Klif,45,,,8223CB,Lelystad,Lelystad,Flevoland,VBO,5.485176,52.522044
Rode Klif,46,,,8223CB,Lelystad,Lelystad,Flevoland,VBO,5.485224,52.522002
Rode Klif,48,,,8223CC,Lelystad,Lelystad,Flevoland,VBO,5.485221,52.522165
Rode Klif,49,,,8223CC,Lelystad,Lelystad,Flevoland,VBO,5.485227,52.522188
Rode Klif,50,,,8223CC,Lelystad,Lelystad,Flevoland,VBO,5.485162,52.522093
Rode Klif,51,,,8223CC,Lelystad,Lelystad,Flevoland,VBO,5.485168,52.522160
Rode Klif,52,,,8223CC,Lelystad,Lelystad,Flevoland,VBO,5.485158,52.522098
Rode Klif,53,,,8223CC,Lelystad,Lelystad,Flevoland,VBO,5.485165,52.522162
Rode Klif,54,,,8223CC,Lelystad,Lelystad,Flevoland,VBO,5.485148,52.522098
Rode Klif,56,,,8223CC,Lelystad,Lelystad,Flevoland,VBO,5.485220,52.522279
Rode Klif,57,,,8223CC,Lelystad,Lelystad,Flevoland,VBO,5.485248,52.522317
Rode Klif,58,,,8223CC,Lelystad,Lelystad,Flevoland,VBO,5.485151,52.522210
Rode Klif,59,,,8223CC,Lelystad,Lelystad,Flevoland,VBO,5.485156,52.522277
Rode Klif,60,,,8223CC,Lelystad,Lelystad,Flevoland,VBO,5.485147,52.522215
Rode Klif,61,,,8223CC,Lelystad,Lelystad,Flevoland,VBO,5.485154,52.522279
Rode Klif,62,,,8223CC,Lelystad,Lelystad,Flevoland,VBO,5.485136,52.522215
Rode Klif,64,,,8223CC,Lelystad,Lelystad,Flevoland,VBO,5.485204,52.522398
Rode Klif,65,,,8223CC,Lelystad,Lelystad,Flevoland,VBO,5.485198,52.522416
Rode Klif,66,,,8223CC,Lelystad,Lelystad,Flevoland,VBO,5.485139,52.522328
Rode Klif,67,,,8223CC,Lelystad,Lelystad,Flevoland,VBO,5.485145,52.522395
Rode Klif,68,,,8223CC,Lelystad,Lelystad,Flevoland,VBO,5.485135,52.522332
Rode Klif,69,,,8223CC,Lelystad,Lelystad,Flevoland,VBO,5.485142,52.522396
Rode Klif,70,,,8223CC,Lelystad,Lelystad,Flevoland,VBO,5.485125,52.522333
Rode Klif,72,,,8223CD,Lelystad,Lelystad,Flevoland,VBO,5.485189,52.522518
Rode Klif,73,,,8223CD,Lelystad,Lelystad,Flevoland,VBO,5.485194,52.522552
Rode Klif,74,,,8223CD,Lelystad,Lelystad,Flevoland,VBO,5.485128,52.522445
Rode Klif,75,,,8223CD,Lelystad,Lelystad,Flevoland,VBO,5.485133,52.522512
Rode Klif,76,,,8223CD,Lelystad,Lelystad,Flevoland,VBO,5.485124,52.522450
Rode Klif,77,,,8223CD,Lelystad,Lelystad,Flevoland,VBO,5.485131,52.522514
Rode Klif,78,,,8223CD,Lelystad,Lelystad,Flevoland,VBO,5.485113,52.522450
Rode Klif,80,,,8223CD,Lelystad,Lelystad,Flevoland,VBO,5.485185,52.522609
Rode Klif,81,,,8223CD,Lelystad,Lelystad,Flevoland,VBO,5.485181,52.522632
Rode Klif,82,,,8223CD,Lelystad,Lelystad,Flevoland,VBO,5.485116,52.522562
Rode Klif,83,,,8223CD,Lelystad,Lelystad,Flevoland,VBO,5.485122,52.522629
Rode Klif,84,,,8223CD,Lelystad,Lelystad,Flevoland,VBO,5.485112,52.522567
Rode Klif,85,,,8223CD,Lelystad,Lelystad,Flevoland,VBO,5.485119,52.522631
Rode Klif,86,,,8223CD,Lelystad,Lelystad,Flevoland,VBO,5.485102,52.522567
Rode Klif,88,,,8223CD,Lelystad,Lelystad,Flevoland,VBO,5.485178,52.522728
Rode Klif,89,,,8223CD,Lelystad,Lelystad,Flevoland,VBO,5.485177,52.522758
Rode Klif,90,,,8223CD,Lelystad,Lelystad,Flevoland,VBO,5.485105,52.522680
Rode Klif,91,,,8223CD,Lelystad,Lelystad,Flevoland,VBO,5.485111,52.522747
Rode Klif,92,,,8223CD,Lelystad,Lelystad,Flevoland,VBO,5.485101,52.522684
Rode Klif,93,,,8223CD,Lelystad,Lelystad,Flevoland,VBO,5.485108,52.522748
Rode Klif,94,,,8223CE,Lelystad,Lelystad,Flevoland,VBO,5.484853,52.522753
Rode Klif,95,,,8223CE,Lelystad,Lelystad,Flevoland,VBO,5.484864,52.522636
Rode Klif,96,,,8223CE,Lelystad,Lelystad,Flevoland,VBO,5.484876,52.522519
Rode Klif,97,,,8223CE,Lelystad,Lelystad,Flevoland,VBO,5.484887,52.522402
Rode Klif,98,,,8223CE,Lelystad,Lelystad,Flevoland,VBO,5.484899,52.522284
Rode Klif,99,,,8223CE,Lelystad,Lelystad,Flevoland,VBO,5.484945,52.522077
Rode Klif,100,,,8223CE,Lelystad,Lelystad,Flevoland,VBO,5.484914,52.522065
Rode Klif,101,,,8223CE,Lelystad,Lelystad,Flevoland,VBO,5.485255,52.521787
Rode Klif,102,,,8223CE,Lelystad,Lelystad,Flevoland,VBO,5.485364,52.521778
Rode Klif,103,,,8223CE,Lelystad,Lelystad,Flevoland,VBO,5.485241,52.521798
Rode Klif,104,,,8223CE,Lelystad,Lelystad,Flevoland,VBO,5.485352,52.521795
Rode Klif,105,,,8223CE,Lelystad,Lelystad,Flevoland,VBO,5.485248,52.521801
Rode Klif,106,,,8223CE,Lelystad,Lelystad,Flevoland,VBO,5.485354,52.521796
Rode Klif,107,,,8223CE,Lelystad,Lelystad,Flevoland,VBO,5.485347,52.521805
Rode Klif,108,,,8223CE,Lelystad,Lelystad,Flevoland,VBO,5.485510,52.521785
Rode Klif,110,,,8223CE,Lelystad,Lelystad,Flevoland,VBO,5.485434,52.521805
Rode Klif,111,,,8223CE,Lelystad,Lelystad,Flevoland,VBO,5.485563,52.521791
Rode Klif,112,,,8223CE,Lelystad,Lelystad,Flevoland,VBO,5.485441,52.521807
Rode Klif,113,,,8223CE,Lelystad,Lelystad,Flevoland,VBO,5.485546,52.521803
Rode Klif,114,,,8223CE,Lelystad,Lelystad,Flevoland,VBO,5.485442,52.521814
Rode Klif,115,,,8223CE,Lelystad,Lelystad,Flevoland,VBO,5.485544,52.521808
Rode Klif,116,,,8223CG,Lelystad,Lelystad,Flevoland,VBO,5.485699,52.521792
Rode Klif,118,,,8223CG,Lelystad,Lelystad,Flevoland,VBO,5.485626,52.521811
Rode Klif,119,,,8223CG,Lelystad,Lelystad,Flevoland,VBO,5.485734,52.521808
Rode Klif,120,,,8223CG,Lelystad,Lelystad,Flevoland,VBO,5.485633,52.521814
Rode Klif,121,,,8223CG,Lelystad,Lelystad,Flevoland,VBO,5.485737,52.521809
Rode Klif,122,,,8223CG,Lelystad,Lelystad,Flevoland,VBO,5.485633,52.521820
Rode Klif,123,,,8223CG,Lelystad,Lelystad,Flevoland,VBO,5.485736,52.521814
Rode Klif,124,,,8223CG,Lelystad,Lelystad,Flevoland,VBO,5.485848,52.521795
Rode Klif,125,,,8223CG,Lelystad,Lelystad,Flevoland,VBO,5.485954,52.521810
Rode Klif,126,,,8223CG,Lelystad,Lelystad,Flevoland,VBO,5.485817,52.521817
Rode Klif,127,,,8223CG,Lelystad,Lelystad,Flevoland,VBO,5.485928,52.521814
Rode Klif,128,,,8223CG,Lelystad,Lelystad,Flevoland,VBO,5.485824,52.521820
Rode Klif,129,,,8223CG,Lelystad,Lelystad,Flevoland,VBO,5.485931,52.521816
Rode Klif,130,,,8223CG,Lelystad,Lelystad,Flevoland,VBO,5.485831,52.521821
Rode Klif,131,,,8223CG,Lelystad,Lelystad,Flevoland,VBO,5.485952,52.521668
Rode Klif,132,,,8223CG,Lelystad,Lelystad,Flevoland,VBO,5.485961,52.521587
Rode Klif,133,,,8223CG,Lelystad,Lelystad,Flevoland,VBO,5.485972,52.521468
Rode Klif,134,,,8223CG,Lelystad,Lelystad,Flevoland,VBO,5.486278,52.521558
Rode Klif,136,,,8223CG,Lelystad,Lelystad,Flevoland,VBO,5.486217,52.521485
Rode Klif,137,,,8223CG,Lelystad,Lelystad,Flevoland,VBO,5.486223,52.521553
Rode Klif,138,,,8223CG,Lelystad,Lelystad,Flevoland,VBO,5.486212,52.521490
Rode Klif,139,,,8223CG,Lelystad,Lelystad,Flevoland,VBO,5.486220,52.521555
Rode Klif,140,,,8223CG,Lelystad,Lelystad,Flevoland,VBO,5.486229,52.521489
Rode Klif,142,,,8223CH,Lelystad,Lelystad,Flevoland,VBO,5.486218,52.521672
Rode Klif,143,,,8223CH,Lelystad,Lelystad,Flevoland,VBO,5.486214,52.521705
Rode Klif,144,,,8223CH,Lelystad,Lelystad,Flevoland,VBO,5.486206,52.521605
Rode Klif,145,,,8223CH,Lelystad,Lelystad,Flevoland,VBO,5.486211,52.521671
Rode Klif,146,,,8223CH,Lelystad,Lelystad,Flevoland,VBO,5.486202,52.521609
Rode Klif,147,,,8223CH,Lelystad,Lelystad,Flevoland,VBO,5.486208,52.521673
Rode Klif,148,,,8223CH,Lelystad,Lelystad,Flevoland,VBO,5.486191,52.521609
Rode Klif,150,,,8223CH,Lelystad,Lelystad,Flevoland,VBO,5.486257,52.521795
Rode Klif,151,,,8223CH,Lelystad,Lelystad,Flevoland,VBO,5.486257,52.521827
Rode Klif,152,,,8223CH,Lelystad,Lelystad,Flevoland,VBO,5.486195,52.521721
Rode Klif,153,,,8223CH,Lelystad,Lelystad,Flevoland,VBO,5.486200,52.521788
Rode Klif,154,,,8223CH,Lelystad,Lelystad,Flevoland,VBO,5.486191,52.521726
Rode Klif,155,,,8223CH,Lelystad,Lelystad,Flevoland,VBO,5.486198,52.521789
Rode Klif,156,,,8223CH,Lelystad,Lelystad,Flevoland,VBO,5.486180,52.521726
Rode Klif,158,,,8223CH,Lelystad,Lelystad,Flevoland,VBO,5.486253,52.521908
Rode Klif,159,,,8223CH,Lelystad,Lelystad,Flevoland,VBO,5.486251,52.521932
Rode Klif,160,,,8223CH,Lelystad,Lelystad,Flevoland,VBO,5.486184,52.521838
Rode Klif,161,,,8223CH,Lelystad,Lelystad,Flevoland,VBO,5.486190,52.521904
Rode Klif,162,,,8223CH,Lelystad,Lelystad,Flevoland,VBO,5.486180,52.521842
Rode Klif,163,,,8223CH,Lelystad,Lelystad,Flevoland,VBO,5.486187,52.521906
Rode Klif,164,,,8223CH,Lelystad,Lelystad,Flevoland,VBO,5.486170,52.521842
Rode Klif,165,,,8223CJ,Lelystad,Lelystad,Flevoland,VBO,5.486385,52.522116
Rode Klif,166,,,8223CJ,Lelystad,Lelystad,Flevoland,VBO,5.486374,52.522233
Rode Klif,167,,,8223CJ,Lelystad,Lelystad,Flevoland,VBO,5.486365,52.522335
Rode Klif,168,,,8223CJ,Lelystad,Lelystad,Flevoland,VBO,5.486353,52.522451
Rode Klif,169,,,8223CJ,Lelystad,Lelystad,Flevoland,VBO,5.486342,52.522569
Rode Klif,170,,,8223CJ,Lelystad,Lelystad,Flevoland,VBO,5.486074,52.522518
Rode Klif,172,,,8223CJ,Lelystad,Lelystad,Flevoland,VBO,5.486093,52.522484
Rode Klif,173,,,8223CJ,Lelystad,Lelystad,Flevoland,VBO,5.486099,52.522553
Rode Klif,174,,,8223CJ,Lelystad,Lelystad,Flevoland,VBO,5.486096,52.522482
Rode Klif,175,,,8223CJ,Lelystad,Lelystad,Flevoland,VBO,5.486104,52.522548
Rode Klif,176,,,8223CJ,Lelystad,Lelystad,Flevoland,VBO,5.486111,52.522488
Rode Klif,178,,,8223CJ,Lelystad,Lelystad,Flevoland,VBO,5.486086,52.522400
Rode Klif,179,,,8223CJ,Lelystad,Lelystad,Flevoland,VBO,5.486104,52.522388
Rode Klif,180,,,8223CJ,Lelystad,Lelystad,Flevoland,VBO,5.486105,52.522367
Rode Klif,181,,,8223CJ,Lelystad,Lelystad,Flevoland,VBO,5.486111,52.522433
Rode Klif,182,,,8223CJ,Lelystad,Lelystad,Flevoland,VBO,5.486108,52.522365
Rode Klif,183,,,8223CJ,Lelystad,Lelystad,Flevoland,VBO,5.486115,52.522429
Rode Klif,184,,,8223CJ,Lelystad,Lelystad,Flevoland,VBO,5.486117,52.522366
Rode Klif,186,,,8223CK,Lelystad,Lelystad,Flevoland,VBO,5.486097,52.522283
Rode Klif,187,,,8223CK,Lelystad,Lelystad,Flevoland,VBO,5.486121,52.522277
Rode Klif,188,,,8223CK,Lelystad,Lelystad,Flevoland,VBO,5.486117,52.522250
Rode Klif,189,,,8223CK,Lelystad,Lelystad,Flevoland,VBO,5.486122,52.522317
Rode Klif,190,,,8223CK,Lelystad,Lelystad,Flevoland,VBO,5.486119,52.522249
Rode Klif,191,,,8223CK,Lelystad,Lelystad,Flevoland,VBO,5.486126,52.522312
Rode Klif,192,,,8223CK,Lelystad,Lelystad,Flevoland,VBO,5.486128,52.522249
Rode Klif,194,,,8223CK,Lelystad,Lelystad,Flevoland,VBO,5.486109,52.522167
Rode Klif,195,,,8223CK,Lelystad,Lelystad,Flevoland,VBO,5.486127,52.522149
Rode Klif,196,,,8223CK,Lelystad,Lelystad,Flevoland,VBO,5.486128,52.522134
Rode Klif,197,,,8223CK,Lelystad,Lelystad,Flevoland,VBO,5.486133,52.522200
Rode Klif,198,,,8223CK,Lelystad,Lelystad,Flevoland,VBO,5.486130,52.522132
Rode Klif,199,,,8223CK,Lelystad,Lelystad,Flevoland,VBO,5.486137,52.522196
Rode Klif,200,,,8223CK,Lelystad,Lelystad,Flevoland,VBO,5.486139,52.522133
Rode Klif,202,,,8223CK,Lelystad,Lelystad,Flevoland,VBO,5.486122,52.522050
Rode Klif,203,,,8223CK,Lelystad,Lelystad,Flevoland,VBO,5.486146,52.522027
Rode Klif,204,,,8223CK,Lelystad,Lelystad,Flevoland,VBO,5.486139,52.522016
Rode Klif,205,,,8223CK,Lelystad,Lelystad,Flevoland,VBO,5.486145,52.522083
Rode Klif,206,,,8223CK,Lelystad,Lelystad,Flevoland,VBO,5.486142,52.522015
Rode Klif,207,,,8223CK,Lelystad,Lelystad,Flevoland,VBO,5.486149,52.522079
Rode Klif,208,,,8223CK,Lelystad,Lelystad,Flevoland,VBO,5.486150,52.522016
Rode Klif,209,,,8223CK,Lelystad,Lelystad,Flevoland,VBO,5.484966,52.522187
Rode Klif,210,,,8223CK,Lelystad,Lelystad,Flevoland,VBO,5.484948,52.522267
Rode Klif,211,,,8223CK,Lelystad,Lelystad,Flevoland,VBO,5.484929,52.522458
Rode Klif,212,,,8223CK,Lelystad,Lelystad,Flevoland,VBO,5.484931,52.522538
Rode Klif,213,,,8223CK,Lelystad,Lelystad,Flevoland,VBO,5.484915,52.522618
Rode Klif,214,,,8223CK,Lelystad,Lelystad,Flevoland,VBO,5.484862,52.522670
Rode Klif,215,,,8223CK,Lelystad,Lelystad,Flevoland,VBO,5.484855,52.522741
Rode Klif,216,,,8223CK,Lelystad,Lelystad,Flevoland,VBO,5.486346,52.522232
Rode Klif,217,,,8223CK,Lelystad,Lelystad,Flevoland,VBO,5.486340,52.522314
Rode Klif,218,,,8223CK,Lelystad,Lelystad,Flevoland,VBO,5.486327,52.522406
Rode Klif,222,,,8223CK,Lelystad,Lelystad,Flevoland,VBO,5.485627,52.522911
Rode Klif,223,,,8223CK,Lelystad,Lelystad,Flevoland,VBO,5.486078,52.522894
Rode Klif,224,,,8223CK,Lelystad,Lelystad,Flevoland,VBO,5.485618,52.522873
Rode Klif,225,,,8223CK,Lelystad,Lelystad,Flevoland,VBO,5.485756,52.522807
Rode Klif,226,,,8223CK,Lelystad,Lelystad,Flevoland,VBO,5.485836,52.522808
Rode Klif,227,,,8223CK,Lelystad,Lelystad,Flevoland,VBO,5.485971,52.522815
Rode Klif,228,,,8223CK,Lelystad,Lelystad,Flevoland,VBO,5.486098,52.522876
Rode Klif,229,,,8223CK,Lelystad,Lelystad,Flevoland,VBO,5.485607,52.522894
Rode Klif,230,,,8223CK,Lelystad,Lelystad,Flevoland,VBO,5.485721,52.522813
Rode Klif,231,,,8223CK,Lelystad,Lelystad,Flevoland,VBO,5.485858,52.522806
Rode Klif,232,,,8223CK,Lelystad,Lelystad,Flevoland,VBO,5.485973,52.522801
Rode Klif,233,,,8223CK,Lelystad,Lelystad,Flevoland,VBO,5.486078,52.522863
Rode Klif,234,,,8223CK,Lelystad,Lelystad,Flevoland,VBO,5.485628,52.522885
Rode Klif,235,,,8223CK,Lelystad,Lelystad,Flevoland,VBO,5.485741,52.522800
Rode Klif,236,,,8223CK,Lelystad,Lelystad,Flevoland,VBO,5.485836,52.522789
Rode Klif,237,,,8223CK,Lelystad,Lelystad,Flevoland,VBO,5.485949,52.522819
Rode Klif,238,,,8223CK,Lelystad,Lelystad,Flevoland,VBO,5.486090,52.522849
Rode Klif,239,,,8223CK,Lelystad,Lelystad,Flevoland,VBO,5.485601,52.522883
Rode Klif,240,,,8223CK,Lelystad,Lelystad,Flevoland,VBO,5.485719,52.522792
Rode Klif,241,,,8223CK,Lelystad,Lelystad,Flevoland,VBO,5.485825,52.522800
Rode Klif,242,,,8223CK,Lelystad,Lelystad,Flevoland,VBO,5.485990,52.522809
Rode Klif,243,,,8223CK,Lelystad,Lelystad,Flevoland,VBO,5.485735,52.522819
Rode Klif,244,,,8223CK,Lelystad,Lelystad,Flevoland,VBO,5.485852,52.522789
Rode Klif,245,,,8223CK,Lelystad,Lelystad,Flevoland,VBO,5.485977,52.522786
Waddenlaan,1,,,8223CL,Lelystad,Lelystad,Flevoland,VBO,5.487319,52.523014
Breehorn,1,,,8223CM,Lelystad,Lelystad,Flevoland,VBO,5.491554,52.522924
Breehorn,2,,,8223CM,Lelystad,Lelystad,Flevoland,VBO,5.491474,52.522921
Breehorn,3,,,8223CM,Lelystad,Lelystad,Flevoland,VBO,5.491394,52.522918
Breehorn,4,,,8223CM,Lelystad,Lelystad,Flevoland,VBO,5.491315,52.522915
Breehorn,5,,,8223CM,Lelystad,Lelystad,Flevoland,VBO,5.491236,52.522912
Breehorn,6,,,8223CM,Lelystad,Lelystad,Flevoland,VBO,5.491156,52.522909
Breehorn,7,,,8223CM,Lelystad,Lelystad,Flevoland,VBO,5.491076,52.522906
Breehorn,8,,,8223CM,Lelystad,Lelystad,Flevoland,VBO,5.490997,52.522903
Breehorn,9,,,8223CM,Lelystad,Lelystad,Flevoland,VBO,5.490918,52.522900
Breehorn,10,,,8223CM,Lelystad,Lelystad,Flevoland,VBO,5.490834,52.522897
Breehorn,11,,,8223CM,Lelystad,Lelystad,Flevoland,VBO,5.490753,52.522895
Breehorn,12,,,8223CM,Lelystad,Lelystad,Flevoland,VBO,5.490674,52.522892
Breehorn,13,,,8223CM,Lelystad,Lelystad,Flevoland,VBO,5.490675,52.523070
Breehorn,14,,,8223CM,Lelystad,Lelystad,Flevoland,VBO,5.490670,52.523120
Breehorn,15,,,8223CM,Lelystad,Lelystad,Flevoland,VBO,5.490665,52.523168
Breehorn,16,,,8223CM,Lelystad,Lelystad,Flevoland,VBO,5.490660,52.523217
Breehorn,17,,,8223CM,Lelystad,Lelystad,Flevoland,VBO,5.490655,52.523265
Breehorn,18,,,8223CM,Lelystad,Lelystad,Flevoland,VBO,5.490651,52.523314
Breehorn,19,,,8223CM,Lelystad,Lelystad,Flevoland,VBO,5.490646,52.523362
Breehorn,20,,,8223CM,Lelystad,Lelystad,Flevoland,VBO,5.490643,52.523411
Breehorn,21,,,8223CM,Lelystad,Lelystad,Flevoland,VBO,5.490636,52.523460
Breehorn,22,A,,8223CM,Lelystad,Lelystad,Flevoland,VBO,5.491314,52.523487
Breehorn,22,B,,8223CM,Lelystad,Lelystad,Flevoland,VBO,5.491315,52.523435
Breehorn,22,C,,8223CM,Lelystad,Lelystad,Flevoland,VBO,5.491315,52.523408
Breehorn,22,D,,8223CM,Lelystad,Lelystad,Flevoland,VBO,5.491321,52.523385
Breehorn,22,E,,8223CM,Lelystad,Lelystad,Flevoland,VBO,5.491327,52.523340
Breehorn,22,F,,8223CM,Lelystad,Lelystad,Flevoland,VBO,5.491325,52.523311
Breehorn,22,G,,8223CM,Lelystad,Lelystad,Flevoland,VBO,5.491330,52.523288
Breehorn,22,H,,8223CM,Lelystad,Lelystad,Flevoland,VBO,5.491330,52.523243
Breehorn,22,I,,8223CM,Lelystad,Lelystad,Flevoland,VBO,5.491333,52.523215
Breehorn,22,J,,8223CM,Lelystad,Lelystad,Flevoland,VBO,5.491337,52.523192
Breehorn,22,K,,8223CM,Lelystad,Lelystad,Flevoland,VBO,5.491338,52.523140
Breehorn,23,,,8223CN,Lelystad,Lelystad,Flevoland,VBO,5.491596,52.523152
Breehorn,24,,,8223CN,Lelystad,Lelystad,Flevoland,VBO,5.491591,52.523202
Breehorn,25,,,8223CN,Lelystad,Lelystad,Flevoland,VBO,5.491586,52.523251
Breehorn,26,,,8223CN,Lelystad,Lelystad,Flevoland,VBO,5.491581,52.523299
Breehorn,27,,,8223CN,Lelystad,Lelystad,Flevoland,VBO,5.491576,52.523347
Breehorn,28,,,8223CN,Lelystad,Lelystad,Flevoland,VBO,5.491571,52.523396
Breehorn,29,,,8223CN,Lelystad,Lelystad,Flevoland,VBO,5.491566,52.523444
Breehorn,30,,,8223CN,Lelystad,Lelystad,Flevoland,VBO,5.491561,52.523494
Breehorn,31,,,8223CN,Lelystad,Lelystad,Flevoland,VBO,5.492077,52.523633
Breehorn,32,,,8223CN,Lelystad,Lelystad,Flevoland,VBO,5.492083,52.523582
Breehorn,33,,,8223CN,Lelystad,Lelystad,Flevoland,VBO,5.492088,52.523533
Breehorn,34,,,8223CN,Lelystad,Lelystad,Flevoland,VBO,5.492093,52.523484
Breehorn,35,,,8223CN,Lelystad,Lelystad,Flevoland,VBO,5.492098,52.523434
Breehorn,36,,,8223CN,Lelystad,Lelystad,Flevoland,VBO,5.492103,52.523385
Breehorn,37,,,8223CN,Lelystad,Lelystad,Flevoland,VBO,5.492107,52.523336
Breehorn,38,,,8223CN,Lelystad,Lelystad,Flevoland,VBO,5.492112,52.523286
Breehorn,39,,,8223CN,Lelystad,Lelystad,Flevoland,VBO,5.492117,52.523237
Breehorn,40,,,8223CN,Lelystad,Lelystad,Flevoland,VBO,5.492122,52.523188
Breehorn,41,,,8223CN,Lelystad,Lelystad,Flevoland,VBO,5.492126,52.523138
Breehorn,42,,,8223CN,Lelystad,Lelystad,Flevoland,VBO,5.492132,52.523089
Breehorn,43,,,8223CN,Lelystad,Lelystad,Flevoland,VBO,5.492137,52.523040
Breehorn,44,,,8223CN,Lelystad,Lelystad,Flevoland,VBO,5.492142,52.522990
Breehorn,45,,,8223CN,Lelystad,Lelystad,Flevoland,VBO,5.492147,52.522941
Breehorn,46,,,8223CN,Lelystad,Lelystad,Flevoland,VBO,5.492152,52.522890
Breehorn,47,,,8223CP,Lelystad,Lelystad,Flevoland,VBO,5.491734,52.522590
Breehorn,48,,,8223CP,Lelystad,Lelystad,Flevoland,VBO,5.491653,52.522588
Breehorn,49,,,8223CP,Lelystad,Lelystad,Flevoland,VBO,5.491573,52.522585
Breehorn,50,,,8223CP,Lelystad,Lelystad,Flevoland,VBO,5.491494,52.522582
Breehorn,51,,,8223CP,Lelystad,Lelystad,Flevoland,VBO,5.491413,52.522579
Breehorn,52,,,8223CP,Lelystad,Lelystad,Flevoland,VBO,5.491335,52.522576
Breehorn,53,,,8223CP,Lelystad,Lelystad,Flevoland,VBO,5.491256,52.522573
Breehorn,54,,,8223CP,Lelystad,Lelystad,Flevoland,VBO,5.491174,52.522570
Breehorn,55,,,8223CP,Lelystad,Lelystad,Flevoland,VBO,5.490776,52.522615
Breehorn,56,,,8223CP,Lelystad,Lelystad,Flevoland,VBO,5.490781,52.522565
Breehorn,57,,,8223CP,Lelystad,Lelystad,Flevoland,VBO,5.490786,52.522517
Breehorn,58,,,8223CP,Lelystad,Lelystad,Flevoland,VBO,5.490791,52.522468
Breehorn,59,,,8223CP,Lelystad,Lelystad,Flevoland,VBO,5.490796,52.522420
Breehorn,60,,,8223CP,Lelystad,Lelystad,Flevoland,VBO,5.490800,52.522371
Breehorn,61,,,8223CP,Lelystad,Lelystad,Flevoland,VBO,5.490803,52.522323
Breehorn,62,,,8223CP,Lelystad,Lelystad,Flevoland,VBO,5.490809,52.522274
Breehorn,63,,,8223CP,Lelystad,Lelystad,Flevoland,VBO,5.490814,52.522226
Breehorn,64,,,8223CP,Lelystad,Lelystad,Flevoland,VBO,5.490819,52.522177
Breehorn,65,,,8223CP,Lelystad,Lelystad,Flevoland,VBO,5.490823,52.522129
Breehorn,66,,,8223CP,Lelystad,Lelystad,Flevoland,VBO,5.490828,52.522081
Breehorn,67,,,8223CP,Lelystad,Lelystad,Flevoland,VBO,5.490831,52.522030
Breehorn,68,,,8223CR,Lelystad,Lelystad,Flevoland,VBO,5.490741,52.521784
Breehorn,69,,,8223CR,Lelystad,Lelystad,Flevoland,VBO,5.490936,52.521833
Breehorn,70,,,8223CR,Lelystad,Lelystad,Flevoland,VBO,5.490739,52.521784
Breehorn,71,,,8223CR,Lelystad,Lelystad,Flevoland,VBO,5.490937,52.521833
Breehorn,72,,,8223CR,Lelystad,Lelystad,Flevoland,VBO,5.490727,52.521797
Breehorn,73,,,8223CR,Lelystad,Lelystad,Flevoland,VBO,5.490927,52.521838
Breehorn,74,,,8223CR,Lelystad,Lelystad,Flevoland,VBO,5.491299,52.521981
Breehorn,75,,,8223CR,Lelystad,Lelystad,Flevoland,VBO,5.491494,52.522031
Breehorn,76,,,8223CR,Lelystad,Lelystad,Flevoland,VBO,5.491297,52.521981
Breehorn,77,,,8223CR,Lelystad,Lelystad,Flevoland,VBO,5.491492,52.522031
Breehorn,78,,,8223CR,Lelystad,Lelystad,Flevoland,VBO,5.491294,52.521988
Breehorn,79,,,8223CR,Lelystad,Lelystad,Flevoland,VBO,5.491499,52.522045
Breehorn,80,,,8223CR,Lelystad,Lelystad,Flevoland,VBO,5.491587,52.521930
Breehorn,81,,,8223CR,Lelystad,Lelystad,Flevoland,VBO,5.491263,52.521648
Breehorn,82,,,8223CR,Lelystad,Lelystad,Flevoland,VBO,5.491346,52.521651
Breehorn,83,,,8223CR,Lelystad,Lelystad,Flevoland,VBO,5.491426,52.521654
Breehorn,84,,,8223CR,Lelystad,Lelystad,Flevoland,VBO,5.491505,52.521657
Breehorn,85,,,8223CR,Lelystad,Lelystad,Flevoland,VBO,5.491585,52.521660
Breehorn,86,,,8223CR,Lelystad,Lelystad,Flevoland,VBO,5.491664,52.521663
Breehorn,87,,,8223CR,Lelystad,Lelystad,Flevoland,VBO,5.491743,52.521666
Breehorn,88,,,8223CR,Lelystad,Lelystad,Flevoland,VBO,5.491823,52.521668
Breehorn,89,,,8223CR,Lelystad,Lelystad,Flevoland,VBO,5.491902,52.521671
Breehorn,90,,,8223CR,Lelystad,Lelystad,Flevoland,VBO,5.491984,52.521674
Breehorn,91,,,8223CS,Lelystad,Lelystad,Flevoland,VBO,5.492279,52.521715
Breehorn,92,,,8223CS,Lelystad,Lelystad,Flevoland,VBO,5.492276,52.521765
Breehorn,93,,,8223CS,Lelystad,Lelystad,Flevoland,VBO,5.492271,52.521814
Breehorn,94,,,8223CS,Lelystad,Lelystad,Flevoland,VBO,5.492266,52.521864
Breehorn,95,,,8223CS,Lelystad,Lelystad,Flevoland,VBO,5.492262,52.521913
Breehorn,96,,,8223CS,Lelystad,Lelystad,Flevoland,VBO,5.492256,52.521962
Breehorn,97,,,8223CS,Lelystad,Lelystad,Flevoland,VBO,5.492251,52.522012
Breehorn,98,,,8223CS,Lelystad,Lelystad,Flevoland,VBO,5.492247,52.522061
Breehorn,99,,,8223CS,Lelystad,Lelystad,Flevoland,VBO,5.492242,52.522111
Breehorn,100,,,8223CS,Lelystad,Lelystad,Flevoland,VBO,5.492233,52.522161
Breehorn,102,,,8223CS,Lelystad,Lelystad,Flevoland,VBO,5.491621,52.522204
Breehorn,103,,,8223CS,Lelystad,Lelystad,Flevoland,VBO,5.491816,52.522255
Breehorn,104,,,8223CS,Lelystad,Lelystad,Flevoland,VBO,5.491618,52.522204
Breehorn,105,,,8223CS,Lelystad,Lelystad,Flevoland,VBO,5.491812,52.522255
Breehorn,106,,,8223CS,Lelystad,Lelystad,Flevoland,VBO,5.491623,52.522210
Breehorn,107,,,8223CS,Lelystad,Lelystad,Flevoland,VBO,5.491836,52.522241
Breehorn,108,,,8223CS,Lelystad,Lelystad,Flevoland,VBO,5.492075,52.522389
Breehorn,109,,,8223CS,Lelystad,Lelystad,Flevoland,VBO,5.492070,52.522439
Breehorn,110,,,8223CS,Lelystad,Lelystad,Flevoland,VBO,5.492064,52.522487
Breehorn,111,,,8223CS,Lelystad,Lelystad,Flevoland,VBO,5.492058,52.522536
Breehorn,112,,,8223CS,Lelystad,Lelystad,Flevoland,VBO,5.492055,52.522584
Breehorn,113,,,8223CS,Lelystad,Lelystad,Flevoland,VBO,5.492050,52.522632
Breehorn,114,,,8223CS,Lelystad,Lelystad,Flevoland,VBO,5.492045,52.522682
Robbenzand,1,,,8223CT,Lelystad,Lelystad,Flevoland,VBO,5.489985,52.522228
Robbenzand,2,,,8223CT,Lelystad,Lelystad,Flevoland,VBO,5.489912,52.522225
Robbenzand,3,,,8223CT,Lelystad,Lelystad,Flevoland,VBO,5.489840,52.522222
Robbenzand,4,,,8223CT,Lelystad,Lelystad,Flevoland,VBO,5.489768,52.522220
Robbenzand,5,,,8223CT,Lelystad,Lelystad,Flevoland,VBO,5.489696,52.522217
Robbenzand,6,,,8223CT,Lelystad,Lelystad,Flevoland,VBO,5.489624,52.522215
Robbenzand,7,,,8223CT,Lelystad,Lelystad,Flevoland,VBO,5.489551,52.522212
Robbenzand,8,,,8223CT,Lelystad,Lelystad,Flevoland,VBO,5.489480,52.522209
Robbenzand,9,,,8223CT,Lelystad,Lelystad,Flevoland,VBO,5.489407,52.522206
Robbenzand,10,,,8223CT,Lelystad,Lelystad,Flevoland,VBO,5.489329,52.522204
Robbenzand,11,,,8223CT,Lelystad,Lelystad,Flevoland,VBO,5.489431,52.522372
Robbenzand,12,,,8223CT,Lelystad,Lelystad,Flevoland,VBO,5.489425,52.522418
Robbenzand,13,,,8223CT,Lelystad,Lelystad,Flevoland,VBO,5.489420,52.522462
Robbenzand,14,,,8223CT,Lelystad,Lelystad,Flevoland,VBO,5.489415,52.522506
Robbenzand,15,,,8223CT,Lelystad,Lelystad,Flevoland,VBO,5.489410,52.522550
Robbenzand,16,,,8223CT,Lelystad,Lelystad,Flevoland,VBO,5.489405,52.522594
Robbenzand,17,,,8223CT,Lelystad,Lelystad,Flevoland,VBO,5.489400,52.522638
Robbenzand,18,,,8223CT,Lelystad,Lelystad,Flevoland,VBO,5.489399,52.522684
Bosplaat,1,,,8223CV,Lelystad,Lelystad,Flevoland,VBO,5.488890,52.522187
Bosplaat,2,,,8223CV,Lelystad,Lelystad,Flevoland,VBO,5.488817,52.522185
Bosplaat,3,,,8223CV,Lelystad,Lelystad,Flevoland,VBO,5.488745,52.522182
Bosplaat,4,,,8223CV,Lelystad,Lelystad,Flevoland,VBO,5.488673,52.522179
Bosplaat,5,,,8223CV,Lelystad,Lelystad,Flevoland,VBO,5.488601,52.522177
Bosplaat,6,,,8223CV,Lelystad,Lelystad,Flevoland,VBO,5.488529,52.522174
Bosplaat,7,,,8223CV,Lelystad,Lelystad,Flevoland,VBO,5.488456,52.522171
Bosplaat,8,,,8223CV,Lelystad,Lelystad,Flevoland,VBO,5.488385,52.522169
Bosplaat,9,,,8223CV,Lelystad,Lelystad,Flevoland,VBO,5.488313,52.522166
Bosplaat,10,T,,8223CV,Lelystad,Lelystad,Flevoland,VBO,5.488155,52.522257
Bosplaat,10,,,8223CV,Lelystad,Lelystad,Flevoland,VBO,5.488235,52.522163
Bosplaat,11,,,8223CV,Lelystad,Lelystad,Flevoland,VBO,5.488334,52.522332
Bosplaat,12,,,8223CV,Lelystad,Lelystad,Flevoland,VBO,5.488328,52.522378
Bosplaat,13,,,8223CV,Lelystad,Lelystad,Flevoland,VBO,5.488324,52.522422
Bosplaat,14,,,8223CV,Lelystad,Lelystad,Flevoland,VBO,5.488319,52.522466
Bosplaat,15,,,8223CV,Lelystad,Lelystad,Flevoland,VBO,5.488315,52.522510
Bosplaat,16,,,8223CV,Lelystad,Lelystad,Flevoland,VBO,5.488310,52.522554
Bosplaat,17,,,8223CV,Lelystad,Lelystad,Flevoland,VBO,5.488305,52.522598
Bosplaat,18,,,8223CV,Lelystad,Lelystad,Flevoland,VBO,5.488304,52.522644
Bosplaat,19,A,,8223CV,Lelystad,Lelystad,Flevoland,VBO,5.489181,52.522529
Bosplaat,19,B,,8223CV,Lelystad,Lelystad,Flevoland,VBO,5.489187,52.522502
Bosplaat,19,C,,8223CV,Lelystad,Lelystad,Flevoland,VBO,5.489188,52.522476
Bosplaat,19,D,,8223CV,Lelystad,Lelystad,Flevoland,VBO,5.489191,52.522449
Bosplaat,19,E,,8223CV,Lelystad,Lelystad,Flevoland,VBO,5.489195,52.522425
Bosplaat,19,F,,8223CV,Lelystad,Lelystad,Flevoland,VBO,5.489195,52.522397
Bosplaat,19,G,,8223CV,Lelystad,Lelystad,Flevoland,VBO,5.489198,52.522373
Bosplaat,19,H,,8223CV,Lelystad,Lelystad,Flevoland,VBO,5.489201,52.522345
Bosplaat,19,I,,8223CV,Lelystad,Lelystad,Flevoland,VBO,5.489210,52.522296
Bosplaat,19,J,,8223CV,Lelystad,Lelystad,Flevoland,VBO,5.489212,52.522268
Bosplaat,19,K,,8223CV,Lelystad,Lelystad,Flevoland,VBO,5.489215,52.522242
Grienderwaard,1,,,8223CW,Lelystad,Lelystad,Flevoland,VBO,5.487793,52.522147
Grienderwaard,2,,,8223CW,Lelystad,Lelystad,Flevoland,VBO,5.487721,52.522144
Grienderwaard,3,,,8223CW,Lelystad,Lelystad,Flevoland,VBO,5.487649,52.522141
Grienderwaard,4,,,8223CW,Lelystad,Lelystad,Flevoland,VBO,5.487576,52.522139
Grienderwaard,5,,,8223CW,Lelystad,Lelystad,Flevoland,VBO,5.487504,52.522136
Grienderwaard,6,,,8223CW,Lelystad,Lelystad,Flevoland,VBO,5.487432,52.522133
Grienderwaard,7,,,8223CW,Lelystad,Lelystad,Flevoland,VBO,5.487360,52.522131
Grienderwaard,8,,,8223CW,Lelystad,Lelystad,Flevoland,VBO,5.487288,52.522128
Grienderwaard,9,,,8223CW,Lelystad,Lelystad,Flevoland,VBO,5.487216,52.522125
Grienderwaard,10,,,8223CW,Lelystad,Lelystad,Flevoland,VBO,5.487138,52.522123
Grienderwaard,11,,,8223CW,Lelystad,Lelystad,Flevoland,VBO,5.487238,52.522292
Grienderwaard,12,,,8223CW,Lelystad,Lelystad,Flevoland,VBO,5.487232,52.522338
Grienderwaard,13,,,8223CW,Lelystad,Lelystad,Flevoland,VBO,5.487227,52.522382
Grienderwaard,14,,,8223CW,Lelystad,Lelystad,Flevoland,VBO,5.487223,52.522426
Grienderwaard,15,,,8223CW,Lelystad,Lelystad,Flevoland,VBO,5.487218,52.522469
Grienderwaard,16,,,8223CW,Lelystad,Lelystad,Flevoland,VBO,5.487214,52.522513
Grienderwaard,17,,,8223CW,Lelystad,Lelystad,Flevoland,VBO,5.487209,52.522557
Grienderwaard,18,,,8223CW,Lelystad,Lelystad,Flevoland,VBO,5.487208,52.522603
Grienderwaard,19,A,,8223CW,Lelystad,Lelystad,Flevoland,VBO,5.488085,52.522486
Grienderwaard,19,B,,8223CW,Lelystad,Lelystad,Flevoland,VBO,5.488090,52.522461
Grienderwaard,19,C,,8223CW,Lelystad,Lelystad,Flevoland,VBO,5.488092,52.522435
Grienderwaard,19,D,,8223CW,Lelystad,Lelystad,Flevoland,VBO,5.488095,52.522409
Grienderwaard,19,E,,8223CW,Lelystad,Lelystad,Flevoland,VBO,5.488097,52.522383
Grienderwaard,19,F,,8223CW,Lelystad,Lelystad,Flevoland,VBO,5.488100,52.522357
Grienderwaard,19,G,,8223CW,Lelystad,Lelystad,Flevoland,VBO,5.488103,52.522331
Grienderwaard,19,H,,8223CW,Lelystad,Lelystad,Flevoland,VBO,5.488105,52.522304
Grienderwaard,19,I,,8223CW,Lelystad,Lelystad,Flevoland,VBO,5.488115,52.522255
Grienderwaard,19,J,,8223CW,Lelystad,Lelystad,Flevoland,VBO,5.488119,52.522228
Grienderwaard,19,K,,8223CW,Lelystad,Lelystad,Flevoland,VBO,5.488121,52.522202
Vliehors,1,,,8223CX,Lelystad,Lelystad,Flevoland,VBO,5.487072,52.521699
Vliehors,2,,,8223CX,Lelystad,Lelystad,Flevoland,VBO,5.487157,52.521702
Vliehors,3,,,8223CX,Lelystad,Lelystad,Flevoland,VBO,5.487238,52.521705
Vliehors,4,,,8223CX,Lelystad,Lelystad,Flevoland,VBO,5.487319,52.521708
Vliehors,5,,,8223CX,Lelystad,Lelystad,Flevoland,VBO,5.487400,52.521711
Vliehors,6,,,8223CX,Lelystad,Lelystad,Flevoland,VBO,5.487480,52.521714
Vliehors,7,,,8223CX,Lelystad,Lelystad,Flevoland,VBO,5.487561,52.521717
Vliehors,8,,,8223CX,Lelystad,Lelystad,Flevoland,VBO,5.487644,52.521720
Vliehors,9,A,,8223CX,Lelystad,Lelystad,Flevoland,VBO,5.487227,52.521480
Vliehors,9,,,8223CX,Lelystad,Lelystad,Flevoland,VBO,5.487348,52.521489
Vliehors,10,,,8223CX,Lelystad,Lelystad,Flevoland,VBO,5.487635,52.521505
Vliehors,11,,,8223CX,Lelystad,Lelystad,Flevoland,VBO,5.487893,52.521508
Vliehors,12,,,8223CX,Lelystad,Lelystad,Flevoland,VBO,5.488181,52.521518
Vliehors,13,,,8223CX,Lelystad,Lelystad,Flevoland,VBO,5.488091,52.521736
Vliehors,14,,,8223CX,Lelystad,Lelystad,Flevoland,VBO,5.488174,52.521739
Vliehors,15,,,8223CX,Lelystad,Lelystad,Flevoland,VBO,5.488255,52.521742
Vliehors,16,,,8223CX,Lelystad,Lelystad,Flevoland,VBO,5.488335,52.521745
Vliehors,17,,,8223CX,Lelystad,Lelystad,Flevoland,VBO,5.488416,52.521748
Vliehors,18,,,8223CX,Lelystad,Lelystad,Flevoland,VBO,5.488497,52.521751
Vliehors,19,,,8223CX,Lelystad,Lelystad,Flevoland,VBO,5.488578,52.521754
Vliehors,20,,,8223CZ,Lelystad,Lelystad,Flevoland,VBO,5.488661,52.521757
Vliehors,21,,,8223CZ,Lelystad,Lelystad,Flevoland,VBO,5.488740,52.521760
Vliehors,22,,,8223CZ,Lelystad,Lelystad,Flevoland,VBO,5.488823,52.521763
Vliehors,23,,,8223CZ,Lelystad,Lelystad,Flevoland,VBO,5.488904,52.521766
Vliehors,24,,,8223CZ,Lelystad,Lelystad,Flevoland,VBO,5.488986,52.521769
Vliehors,25,,,8223CZ,Lelystad,Lelystad,Flevoland,VBO,5.488944,52.521545
Vliehors,26,,,8223CZ,Lelystad,Lelystad,Flevoland,VBO,5.489231,52.521554
Vliehors,27,,,8223CZ,Lelystad,Lelystad,Flevoland,VBO,5.489494,52.521564
Vliehors,28,,,8223CZ,Lelystad,Lelystad,Flevoland,VBO,5.489782,52.521574
Vliehors,29,,,8223CZ,Lelystad,Lelystad,Flevoland,VBO,5.489438,52.521785
Vliehors,30,,,8223CZ,Lelystad,Lelystad,Flevoland,VBO,5.489521,52.521788
Vliehors,31,,,8223CZ,Lelystad,Lelystad,Flevoland,VBO,5.489600,52.521791
Vliehors,32,,,8223CZ,Lelystad,Lelystad,Flevoland,VBO,5.489683,52.521794
Vliehors,33,,,8223CZ,Lelystad,Lelystad,Flevoland,VBO,5.489764,52.521797
Vliehors,34,,,8223CZ,Lelystad,Lelystad,Flevoland,VBO,5.489845,52.521800
Vliehors,35,,,8223CZ,Lelystad,Lelystad,Flevoland,VBO,5.489926,52.521803
Vliehors,36,,,8223CZ,Lelystad,Lelystad,Flevoland,VBO,5.490008,52.521806
IJssellaan,1,,,8223DA,Lelystad,Lelystad,Flevoland,VBO,5.478431,52.524974
IJssellaan,2,,,8223DA,Lelystad,Lelystad,Flevoland,VBO,5.479407,52.524795
IJssellaan,3,,,8223DA,Lelystad,Lelystad,Flevoland,VBO,5.478707,52.524985
IJssellaan,5,,,8223DA,Lelystad,Lelystad,Flevoland,VBO,5.478410,52.525195
IJssellaan,7,,,8223DA,Lelystad,Lelystad,Flevoland,VBO,5.478163,52.525149
Vecht,1,,,8223DB,Lelystad,Lelystad,Flevoland,VBO,5.480349,52.525739
Vecht,2,,,8223DB,Lelystad,Lelystad,Flevoland,VBO,5.480426,52.525742
Vecht,3,,,8223DB,Lelystad,Lelystad,Flevoland,VBO,5.480500,52.525744
Vecht,4,,,8223DB,Lelystad,Lelystad,Flevoland,VBO,5.480573,52.525747
Vecht,5,,,8223DB,Lelystad,Lelystad,Flevoland,VBO,5.480647,52.525750
Vecht,6,,,8223DB,Lelystad,Lelystad,Flevoland,VBO,5.480720,52.525752
Vecht,7,,,8223DB,Lelystad,Lelystad,Flevoland,VBO,5.480793,52.525755
Vecht,8,,,8223DB,Lelystad,Lelystad,Flevoland,VBO,5.480870,52.525758
Vecht,9,,,8223DB,Lelystad,Lelystad,Flevoland,VBO,5.480943,52.526048
Vecht,10,,,8223DB,Lelystad,Lelystad,Flevoland,VBO,5.480863,52.526045
Vecht,11,,,8223DB,Lelystad,Lelystad,Flevoland,VBO,5.480788,52.526043
Vecht,12,,,8223DB,Lelystad,Lelystad,Flevoland,VBO,5.480716,52.526040
Vecht,13,,,8223DB,Lelystad,Lelystad,Flevoland,VBO,5.480643,52.526037
Vecht,14,,,8223DB,Lelystad,Lelystad,Flevoland,VBO,5.480567,52.526035
Vecht,15,,,8223DB,Lelystad,Lelystad,Flevoland,VBO,5.480033,52.526114
Vecht,16,,,8223DB,Lelystad,Lelystad,Flevoland,VBO,5.479957,52.526111
Vecht,17,,,8223DB,Lelystad,Lelystad,Flevoland,VBO,5.479883,52.526109
Vecht,18,,,8223DB,Lelystad,Lelystad,Flevoland,VBO,5.479810,52.526106
Vecht,19,,,8223DB,Lelystad,Lelystad,Flevoland,VBO,5.479737,52.526103
Vecht,20,,,8223DB,Lelystad,Lelystad,Flevoland,VBO,5.479663,52.526100
Vecht,21,,,8223DC,Lelystad,Lelystad,Flevoland,VBO,5.479544,52.525790
Vecht,22,,,8223DC,Lelystad,Lelystad,Flevoland,VBO,5.479622,52.525793
Vecht,23,,,8223DC,Lelystad,Lelystad,Flevoland,VBO,5.479695,52.525796
Vecht,24,,,8223DC,Lelystad,Lelystad,Flevoland,VBO,5.479769,52.525798
Vecht,25,,,8223DC,Lelystad,Lelystad,Flevoland,VBO,5.479842,52.525801
Vecht,26,,,8223DC,Lelystad,Lelystad,Flevoland,VBO,5.479916,52.525804
Vecht,27,,,8223DC,Lelystad,Lelystad,Flevoland,VBO,5.479989,52.525806
Vecht,28,,,8223DC,Lelystad,Lelystad,Flevoland,VBO,5.480065,52.525809
Vecht,29,,,8223DC,Lelystad,Lelystad,Flevoland,VBO,5.480004,52.525397
Vecht,30,,,8223DC,Lelystad,Lelystad,Flevoland,VBO,5.480006,52.525351
Vecht,31,,,8223DC,Lelystad,Lelystad,Flevoland,VBO,5.480009,52.525307
Vecht,32,,,8223DC,Lelystad,Lelystad,Flevoland,VBO,5.480015,52.525263
Vecht,33,,,8223DC,Lelystad,Lelystad,Flevoland,VBO,5.480019,52.525219
Vecht,34,,,8223DC,Lelystad,Lelystad,Flevoland,VBO,5.480023,52.525175
Vecht,35,,,8223DC,Lelystad,Lelystad,Flevoland,VBO,5.480028,52.525131
Vecht,36,,,8223DC,Lelystad,Lelystad,Flevoland,VBO,5.480032,52.525087
Vecht,37,,,8223DC,Lelystad,Lelystad,Flevoland,VBO,5.480036,52.525043
Vecht,38,,,8223DC,Lelystad,Lelystad,Flevoland,VBO,5.480044,52.524997
Vecht,39,,,8223DD,Lelystad,Lelystad,Flevoland,VBO,5.480316,52.524903
Vecht,40,,,8223DD,Lelystad,Lelystad,Flevoland,VBO,5.480388,52.524902
Vecht,41,,,8223DD,Lelystad,Lelystad,Flevoland,VBO,5.480464,52.524902
Vecht,42,,,8223DD,Lelystad,Lelystad,Flevoland,VBO,5.480540,52.524906
Vecht,43,,,8223DD,Lelystad,Lelystad,Flevoland,VBO,5.480616,52.524910
Vecht,44,,,8223DD,Lelystad,Lelystad,Flevoland,VBO,5.480688,52.524914
Vecht,45,,,8223DD,Lelystad,Lelystad,Flevoland,VBO,5.480754,52.524913
Vecht,46,,,8223DD,Lelystad,Lelystad,Flevoland,VBO,5.480828,52.524924
Vecht,47,,,8223DD,Lelystad,Lelystad,Flevoland,VBO,5.480638,52.525322
Vecht,48,,,8223DD,Lelystad,Lelystad,Flevoland,VBO,5.480714,52.525325
Vecht,49,,,8223DD,Lelystad,Lelystad,Flevoland,VBO,5.480787,52.525328
Vecht,50,,,8223DD,Lelystad,Lelystad,Flevoland,VBO,5.480861,52.525330
Vecht,51,,,8223DD,Lelystad,Lelystad,Flevoland,VBO,5.480933,52.525333
Vecht,52,,,8223DD,Lelystad,Lelystad,Flevoland,VBO,5.481011,52.525336
Eem,1,,,8223DE,Lelystad,Lelystad,Flevoland,VBO,5.481671,52.525787
Eem,2,,,8223DE,Lelystad,Lelystad,Flevoland,VBO,5.481749,52.525790
Eem,3,,,8223DE,Lelystad,Lelystad,Flevoland,VBO,5.481822,52.525793
Eem,4,,,8223DE,Lelystad,Lelystad,Flevoland,VBO,5.481896,52.525795
Eem,5,,,8223DE,Lelystad,Lelystad,Flevoland,VBO,5.481970,52.525798
Eem,6,,,8223DE,Lelystad,Lelystad,Flevoland,VBO,5.482043,52.525801
Eem,7,,,8223DE,Lelystad,Lelystad,Flevoland,VBO,5.482116,52.525803
Eem,8,,,8223DE,Lelystad,Lelystad,Flevoland,VBO,5.482192,52.525806
Eem,9,,,8223DE,Lelystad,Lelystad,Flevoland,VBO,5.482264,52.526115
Eem,10,,,8223DE,Lelystad,Lelystad,Flevoland,VBO,5.482185,52.526112
Eem,11,,,8223DE,Lelystad,Lelystad,Flevoland,VBO,5.482110,52.526110
Eem,12,,,8223DE,Lelystad,Lelystad,Flevoland,VBO,5.482038,52.526107
Eem,13,,,8223DE,Lelystad,Lelystad,Flevoland,VBO,5.481964,52.526104
Eem,14,,,8223DE,Lelystad,Lelystad,Flevoland,VBO,5.481888,52.526101
Eem,15,A,,8223DE,Lelystad,Lelystad,Flevoland,VBO,5.481810,52.526288
Eem,15,B,,8223DE,Lelystad,Lelystad,Flevoland,VBO,5.481770,52.526287
Eem,15,C,,8223DE,Lelystad,Lelystad,Flevoland,VBO,5.481723,52.526285
Eem,15,D,,8223DE,Lelystad,Lelystad,Flevoland,VBO,5.481682,52.526282
Eem,15,E,,8223DE,Lelystad,Lelystad,Flevoland,VBO,5.481639,52.526281
Eem,15,F,,8223DE,Lelystad,Lelystad,Flevoland,VBO,5.481598,52.526279
Eem,15,G,,8223DE,Lelystad,Lelystad,Flevoland,VBO,5.481553,52.526277
Eem,15,H,,8223DE,Lelystad,Lelystad,Flevoland,VBO,5.481510,52.526277
Eem,15,I,,8223DE,Lelystad,Lelystad,Flevoland,VBO,5.481469,52.526277
Eem,16,A,,8223DE,Lelystad,Lelystad,Flevoland,VBO,5.481400,52.526273
Eem,16,B,,8223DE,Lelystad,Lelystad,Flevoland,VBO,5.481358,52.526271
Eem,16,C,,8223DE,Lelystad,Lelystad,Flevoland,VBO,5.481318,52.526270
Eem,16,D,,8223DE,Lelystad,Lelystad,Flevoland,VBO,5.481274,52.526270
Eem,16,T,,8223DE,Lelystad,Lelystad,Flevoland,VBO,5.481221,52.526268
Eem,17,,,8223DE,Lelystad,Lelystad,Flevoland,VBO,5.481250,52.526217
Eem,18,,,8223DE,Lelystad,Lelystad,Flevoland,VBO,5.481252,52.526171
Eem,19,,,8223DE,Lelystad,Lelystad,Flevoland,VBO,5.481256,52.526127
Eem,20,,,8223DE,Lelystad,Lelystad,Flevoland,VBO,5.481263,52.526083
Eem,21,,,8223DE,Lelystad,Lelystad,Flevoland,VBO,5.481265,52.526039
Eem,22,,,8223DE,Lelystad,Lelystad,Flevoland,VBO,5.481272,52.525995
Eem,23,,,8223DE,Lelystad,Lelystad,Flevoland,VBO,5.481276,52.525951
Eem,24,,,8223DE,Lelystad,Lelystad,Flevoland,VBO,5.481280,52.525907
Eem,25,,,8223DE,Lelystad,Lelystad,Flevoland,VBO,5.481285,52.525863
Eem,26,,,8223DE,Lelystad,Lelystad,Flevoland,VBO,5.481292,52.525817
Eem,27,,,8223DG,Lelystad,Lelystad,Flevoland,VBO,5.481330,52.525446
Eem,28,,,8223DG,Lelystad,Lelystad,Flevoland,VBO,5.481331,52.525400
Eem,29,,,8223DG,Lelystad,Lelystad,Flevoland,VBO,5.481335,52.525356
Eem,30,,,8223DG,Lelystad,Lelystad,Flevoland,VBO,5.481340,52.525312
Eem,31,,,8223DG,Lelystad,Lelystad,Flevoland,VBO,5.481342,52.525268
Eem,32,,,8223DG,Lelystad,Lelystad,Flevoland,VBO,5.481348,52.525224
Eem,33,,,8223DG,Lelystad,Lelystad,Flevoland,VBO,5.481353,52.525180
Eem,34,,,8223DG,Lelystad,Lelystad,Flevoland,VBO,5.481357,52.525136
Eem,35,,,8223DG,Lelystad,Lelystad,Flevoland,VBO,5.481361,52.525092
Eem,36,,,8223DG,Lelystad,Lelystad,Flevoland,VBO,5.481369,52.525046
Eem,37,,,8223DG,Lelystad,Lelystad,Flevoland,VBO,5.481645,52.524945
Eem,38,,,8223DG,Lelystad,Lelystad,Flevoland,VBO,5.481719,52.524952
Eem,39,,,8223DG,Lelystad,Lelystad,Flevoland,VBO,5.481780,52.524955
Eem,40,,,8223DG,Lelystad,Lelystad,Flevoland,VBO,5.481850,52.524958
Eem,41,,,8223DG,Lelystad,Lelystad,Flevoland,VBO,5.481922,52.524956
Eem,42,,,8223DG,Lelystad,Lelystad,Flevoland,VBO,5.481996,52.524963
Eem,43,,,8223DG,Lelystad,Lelystad,Flevoland,VBO,5.482068,52.524966
Eem,44,,,8223DG,Lelystad,Lelystad,Flevoland,VBO,5.482142,52.524966
Eem,45,,,8223DG,Lelystad,Lelystad,Flevoland,VBO,5.481962,52.525370
Eem,46,,,8223DG,Lelystad,Lelystad,Flevoland,VBO,5.482037,52.525373
Eem,47,,,8223DG,Lelystad,Lelystad,Flevoland,VBO,5.482110,52.525375
Eem,48,,,8223DG,Lelystad,Lelystad,Flevoland,VBO,5.482184,52.525378
Eem,49,,,8223DG,Lelystad,Lelystad,Flevoland,VBO,5.482258,52.525381
Eem,50,,,8223DG,Lelystad,Lelystad,Flevoland,VBO,5.482333,52.525384
Keteldiep,1,,,8223DH,Lelystad,Lelystad,Flevoland,VBO,5.482995,52.525836
Keteldiep,2,,,8223DH,Lelystad,Lelystad,Flevoland,VBO,5.483072,52.525839
Keteldiep,3,,,8223DH,Lelystad,Lelystad,Flevoland,VBO,5.483146,52.525842
Keteldiep,4,,,8223DH,Lelystad,Lelystad,Flevoland,VBO,5.483219,52.525844
Keteldiep,5,,,8223DH,Lelystad,Lelystad,Flevoland,VBO,5.483293,52.525847
Keteldiep,6,,,8223DH,Lelystad,Lelystad,Flevoland,VBO,5.483366,52.525850
Keteldiep,7,,,8223DH,Lelystad,Lelystad,Flevoland,VBO,5.483439,52.525852
Keteldiep,8,,,8223DH,Lelystad,Lelystad,Flevoland,VBO,5.483516,52.525855
Keteldiep,9,,,8223DH,Lelystad,Lelystad,Flevoland,VBO,5.483587,52.526164
Keteldiep,10,,,8223DH,Lelystad,Lelystad,Flevoland,VBO,5.483507,52.526161
Keteldiep,11,,,8223DH,Lelystad,Lelystad,Flevoland,VBO,5.483432,52.526158
Keteldiep,12,,,8223DH,Lelystad,Lelystad,Flevoland,VBO,5.483360,52.526156
Keteldiep,13,,,8223DH,Lelystad,Lelystad,Flevoland,VBO,5.483287,52.526153
Keteldiep,14,,,8223DH,Lelystad,Lelystad,Flevoland,VBO,5.483211,52.526150
Keteldiep,16,A,,8223DH,Lelystad,Lelystad,Flevoland,VBO,5.482723,52.526321
Keteldiep,16,B,,8223DH,Lelystad,Lelystad,Flevoland,VBO,5.482682,52.526319
Keteldiep,16,C,,8223DH,Lelystad,Lelystad,Flevoland,VBO,5.482644,52.526318
Keteldiep,16,D,,8223DH,Lelystad,Lelystad,Flevoland,VBO,5.482599,52.526317
Keteldiep,16,E,,8223DH,Lelystad,Lelystad,Flevoland,VBO,5.482555,52.526315
Keteldiep,17,,,8223DH,Lelystad,Lelystad,Flevoland,VBO,5.482574,52.526266
Keteldiep,18,,,8223DH,Lelystad,Lelystad,Flevoland,VBO,5.482575,52.526220
Keteldiep,19,,,8223DH,Lelystad,Lelystad,Flevoland,VBO,5.482580,52.526176
Keteldiep,20,,,8223DH,Lelystad,Lelystad,Flevoland,VBO,5.482586,52.526132
Keteldiep,21,,,8223DH,Lelystad,Lelystad,Flevoland,VBO,5.482589,52.526088
Keteldiep,22,,,8223DH,Lelystad,Lelystad,Flevoland,VBO,5.482595,52.526044
Keteldiep,23,,,8223DH,Lelystad,Lelystad,Flevoland,VBO,5.482599,52.526000
Keteldiep,24,,,8223DH,Lelystad,Lelystad,Flevoland,VBO,5.482603,52.525956
Keteldiep,25,,,8223DH,Lelystad,Lelystad,Flevoland,VBO,5.482608,52.525912
Keteldiep,26,,,8223DH,Lelystad,Lelystad,Flevoland,VBO,5.482615,52.525866
Keteldiep,27,,,8223DJ,Lelystad,Lelystad,Flevoland,VBO,5.482653,52.525494
Keteldiep,28,,,8223DJ,Lelystad,Lelystad,Flevoland,VBO,5.482655,52.525448
Keteldiep,29,,,8223DJ,Lelystad,Lelystad,Flevoland,VBO,5.482659,52.525404
Keteldiep,30,,,8223DJ,Lelystad,Lelystad,Flevoland,VBO,5.482663,52.525360
Keteldiep,31,,,8223DJ,Lelystad,Lelystad,Flevoland,VBO,5.482666,52.525316
Keteldiep,32,,,8223DJ,Lelystad,Lelystad,Flevoland,VBO,5.482672,52.525272
Keteldiep,33,,,8223DJ,Lelystad,Lelystad,Flevoland,VBO,5.482676,52.525228
Keteldiep,34,,,8223DJ,Lelystad,Lelystad,Flevoland,VBO,5.482681,52.525184
Keteldiep,35,,,8223DJ,Lelystad,Lelystad,Flevoland,VBO,5.482685,52.525141
Keteldiep,36,,,8223DJ,Lelystad,Lelystad,Flevoland,VBO,5.482692,52.525095
Keteldiep,37,,,8223DJ,Lelystad,Lelystad,Flevoland,VBO,5.482973,52.524999
Keteldiep,38,,,8223DJ,Lelystad,Lelystad,Flevoland,VBO,5.483047,52.525001
Keteldiep,39,,,8223DJ,Lelystad,Lelystad,Flevoland,VBO,5.483117,52.525004
Keteldiep,40,,,8223DJ,Lelystad,Lelystad,Flevoland,VBO,5.483181,52.525010
Keteldiep,41,,,8223DJ,Lelystad,Lelystad,Flevoland,VBO,5.483259,52.525008
Keteldiep,42,,,8223DJ,Lelystad,Lelystad,Flevoland,VBO,5.483328,52.525005
Keteldiep,43,,,8223DJ,Lelystad,Lelystad,Flevoland,VBO,5.483398,52.525013
Keteldiep,44,,,8223DJ,Lelystad,Lelystad,Flevoland,VBO,5.483472,52.525014
Keteldiep,45,,,8223DJ,Lelystad,Lelystad,Flevoland,VBO,5.483285,52.525419
Keteldiep,46,,,8223DJ,Lelystad,Lelystad,Flevoland,VBO,5.483361,52.525422
Keteldiep,47,,,8223DJ,Lelystad,Lelystad,Flevoland,VBO,5.483434,52.525424
Keteldiep,48,,,8223DJ,Lelystad,Lelystad,Flevoland,VBO,5.483508,52.525427
Keteldiep,49,,,8223DJ,Lelystad,Lelystad,Flevoland,VBO,5.483582,52.525430
Keteldiep,50,,,8223DJ,Lelystad,Lelystad,Flevoland,VBO,5.483657,52.525432
Ganzendiep,1,,,8223DK,Lelystad,Lelystad,Flevoland,VBO,5.484318,52.525884
Ganzendiep,2,,,8223DK,Lelystad,Lelystad,Flevoland,VBO,5.484397,52.525887
Ganzendiep,3,,,8223DK,Lelystad,Lelystad,Flevoland,VBO,5.484471,52.525890
Ganzendiep,4,,,8223DK,Lelystad,Lelystad,Flevoland,VBO,5.484544,52.525892
Ganzendiep,5,,,8223DK,Lelystad,Lelystad,Flevoland,VBO,5.484618,52.525895
Ganzendiep,6,,,8223DK,Lelystad,Lelystad,Flevoland,VBO,5.484691,52.525898
Ganzendiep,7,,,8223DK,Lelystad,Lelystad,Flevoland,VBO,5.484764,52.525901
Ganzendiep,8,,,8223DK,Lelystad,Lelystad,Flevoland,VBO,5.484840,52.525903
Ganzendiep,9,T,,8223DK,Lelystad,Lelystad,Flevoland,VBO,5.484886,52.526446
Ganzendiep,9,,,8223DK,Lelystad,Lelystad,Flevoland,VBO,5.484913,52.526194
Ganzendiep,10,,,8223DK,Lelystad,Lelystad,Flevoland,VBO,5.484833,52.526191
Ganzendiep,11,,,8223DK,Lelystad,Lelystad,Flevoland,VBO,5.484758,52.526188
Ganzendiep,12,,,8223DK,Lelystad,Lelystad,Flevoland,VBO,5.484686,52.526186
Ganzendiep,13,,,8223DK,Lelystad,Lelystad,Flevoland,VBO,5.484613,52.526183
Ganzendiep,14,,,8223DK,Lelystad,Lelystad,Flevoland,VBO,5.484537,52.526180
Ganzendiep,15,,,8223DK,Lelystad,Lelystad,Flevoland,VBO,5.483898,52.526315
Ganzendiep,16,,,8223DK,Lelystad,Lelystad,Flevoland,VBO,5.483899,52.526268
Ganzendiep,17,,,8223DK,Lelystad,Lelystad,Flevoland,VBO,5.483903,52.526224
Ganzendiep,18,,,8223DK,Lelystad,Lelystad,Flevoland,VBO,5.483908,52.526180
Ganzendiep,19,,,8223DL,Lelystad,Lelystad,Flevoland,VBO,5.483913,52.526136
Ganzendiep,20,,,8223DL,Lelystad,Lelystad,Flevoland,VBO,5.483919,52.526093
Ganzendiep,21,,,8223DL,Lelystad,Lelystad,Flevoland,VBO,5.483922,52.526049
Ganzendiep,22,,,8223DL,Lelystad,Lelystad,Flevoland,VBO,5.483928,52.526005
Ganzendiep,23,,,8223DL,Lelystad,Lelystad,Flevoland,VBO,5.483932,52.525961
Ganzendiep,24,,,8223DL,Lelystad,Lelystad,Flevoland,VBO,5.483940,52.525915
Ganzendiep,25,,,8223DL,Lelystad,Lelystad,Flevoland,VBO,5.483976,52.525543
Ganzendiep,26,,,8223DL,Lelystad,Lelystad,Flevoland,VBO,5.483977,52.525496
Ganzendiep,27,,,8223DL,Lelystad,Lelystad,Flevoland,VBO,5.483980,52.525453
Ganzendiep,28,,,8223DL,Lelystad,Lelystad,Flevoland,VBO,5.483985,52.525409
Ganzendiep,29,,,8223DL,Lelystad,Lelystad,Flevoland,VBO,5.483989,52.525365
Ganzendiep,30,,,8223DL,Lelystad,Lelystad,Flevoland,VBO,5.483994,52.525321
Ganzendiep,31,,,8223DL,Lelystad,Lelystad,Flevoland,VBO,5.483997,52.525277
Ganzendiep,32,,,8223DL,Lelystad,Lelystad,Flevoland,VBO,5.484003,52.525233
Ganzendiep,33,,,8223DL,Lelystad,Lelystad,Flevoland,VBO,5.484007,52.525189
Ganzendiep,34,,,8223DL,Lelystad,Lelystad,Flevoland,VBO,5.484009,52.525133
Zwartewater,1,,,8223DM,Lelystad,Lelystad,Flevoland,VBO,5.487332,52.525494
Zwartewater,2,,,8223DM,Lelystad,Lelystad,Flevoland,VBO,5.487237,52.525491
Zwartewater,3,,,8223DM,Lelystad,Lelystad,Flevoland,VBO,5.487143,52.525487
Zwartewater,4,,,8223DM,Lelystad,Lelystad,Flevoland,VBO,5.487047,52.525484
Zwartewater,5,,,8223DM,Lelystad,Lelystad,Flevoland,VBO,5.486964,52.525552
Zwartewater,6,,,8223DM,Lelystad,Lelystad,Flevoland,VBO,5.486923,52.525550
Zwartewater,7,,,8223DM,Lelystad,Lelystad,Flevoland,VBO,5.486858,52.525526
Zwartewater,8,,,8223DM,Lelystad,Lelystad,Flevoland,VBO,5.486763,52.525522
Zwartewater,9,,,8223DM,Lelystad,Lelystad,Flevoland,VBO,5.486668,52.525519
Zwartewater,10,,,8223DM,Lelystad,Lelystad,Flevoland,VBO,5.486568,52.525515
Zwartewater,11,,,8223DM,Lelystad,Lelystad,Flevoland,VBO,5.486733,52.525885
Zwartewater,12,,,8223DM,Lelystad,Lelystad,Flevoland,VBO,5.486638,52.525882
Zwartewater,13,,,8223DM,Lelystad,Lelystad,Flevoland,VBO,5.486543,52.525878
Zwartewater,14,,,8223DM,Lelystad,Lelystad,Flevoland,VBO,5.486447,52.525875
Zwartewater,15,,,8223DM,Lelystad,Lelystad,Flevoland,VBO,5.486371,52.525947
Zwartewater,16,,,8223DM,Lelystad,Lelystad,Flevoland,VBO,5.486328,52.525945
Zwartewater,17,,,8223DM,Lelystad,Lelystad,Flevoland,VBO,5.486260,52.525917
Zwartewater,18,,,8223DM,Lelystad,Lelystad,Flevoland,VBO,5.486164,52.525913
Zwartewater,19,,,8223DM,Lelystad,Lelystad,Flevoland,VBO,5.486069,52.525910
Zwartewater,20,,,8223DM,Lelystad,Lelystad,Flevoland,VBO,5.485975,52.525906
Zwartewater,21,,,8223DN,Lelystad,Lelystad,Flevoland,VBO,5.485387,52.526312
Zwartewater,22,,,8223DN,Lelystad,Lelystad,Flevoland,VBO,5.485485,52.526316
Zwartewater,23,,,8223DN,Lelystad,Lelystad,Flevoland,VBO,5.485579,52.526319
Zwartewater,24,,,8223DN,Lelystad,Lelystad,Flevoland,VBO,5.485676,52.526323
Zwartewater,25,,,8223DN,Lelystad,Lelystad,Flevoland,VBO,5.485742,52.526352
Zwartewater,26,,,8223DN,Lelystad,Lelystad,Flevoland,VBO,5.485783,52.526354
Zwartewater,27,,,8223DN,Lelystad,Lelystad,Flevoland,VBO,5.485863,52.526281
Zwartewater,28,,,8223DN,Lelystad,Lelystad,Flevoland,VBO,5.485960,52.526285
Zwartewater,29,,,8223DN,Lelystad,Lelystad,Flevoland,VBO,5.486054,52.526288
Zwartewater,30,,,8223DN,Lelystad,Lelystad,Flevoland,VBO,5.486150,52.526292
Zwartewater,31,,,8223DN,Lelystad,Lelystad,Flevoland,VBO,5.486536,52.526355
Zwartewater,32,,,8223DN,Lelystad,Lelystad,Flevoland,VBO,5.486635,52.526358
Zwartewater,33,,,8223DN,Lelystad,Lelystad,Flevoland,VBO,5.486730,52.526362
Zwartewater,34,,,8223DN,Lelystad,Lelystad,Flevoland,VBO,5.486825,52.526366
Zwartewater,35,,,8223DN,Lelystad,Lelystad,Flevoland,VBO,5.486927,52.526322
Zwartewater,36,,,8223DN,Lelystad,Lelystad,Flevoland,VBO,5.487023,52.526326
Zwartewater,37,,,8223DN,Lelystad,Lelystad,Flevoland,VBO,5.487117,52.526329
Zwartewater,38,,,8223DN,Lelystad,Lelystad,Flevoland,VBO,5.487213,52.526333
Zwartewater,40,,,8223DP,Lelystad,Lelystad,Flevoland,VBO,5.487650,52.525987
Zwartewater,41,,,8223DP,Lelystad,Lelystad,Flevoland,VBO,5.487640,52.526033
Zwartewater,42,,,8223DP,Lelystad,Lelystad,Flevoland,VBO,5.487638,52.526077
Zwartewater,43,,,8223DP,Lelystad,Lelystad,Flevoland,VBO,5.487634,52.526121
Zwartewater,44,,,8223DP,Lelystad,Lelystad,Flevoland,VBO,5.487629,52.526165
Zwartewater,45,,,8223DP,Lelystad,Lelystad,Flevoland,VBO,5.487625,52.526209
Zwartewater,46,,,8223DP,Lelystad,Lelystad,Flevoland,VBO,5.487621,52.526253
Zwartewater,47,,,8223DP,Lelystad,Lelystad,Flevoland,VBO,5.487616,52.526297
Zwartewater,48,,,8223DP,Lelystad,Lelystad,Flevoland,VBO,5.487612,52.526341
Zwartewater,49,,,8223DP,Lelystad,Lelystad,Flevoland,VBO,5.487611,52.526387
Zwartewater,51,,,8223DP,Lelystad,Lelystad,Flevoland,VBO,5.488343,52.526450
Zwartewater,52,,,8223DP,Lelystad,Lelystad,Flevoland,VBO,5.488350,52.526404
Zwartewater,53,,,8223DP,Lelystad,Lelystad,Flevoland,VBO,5.488354,52.526359
Zwartewater,54,,,8223DP,Lelystad,Lelystad,Flevoland,VBO,5.488359,52.526314
Zwartewater,55,,,8223DP,Lelystad,Lelystad,Flevoland,VBO,5.488363,52.526269
Zwartewater,56,,,8223DP,Lelystad,Lelystad,Flevoland,VBO,5.488368,52.526225
Zwartewater,57,,,8223DP,Lelystad,Lelystad,Flevoland,VBO,5.488372,52.526180
Zwartewater,58,,,8223DP,Lelystad,Lelystad,Flevoland,VBO,5.488377,52.526134
Zwartewater,59,,,8223DR,Lelystad,Lelystad,Flevoland,VBO,5.488554,52.525966
Zwartewater,60,,,8223DR,Lelystad,Lelystad,Flevoland,VBO,5.488477,52.525962
Zwartewater,61,,,8223DR,Lelystad,Lelystad,Flevoland,VBO,5.488401,52.525959
Zwartewater,62,,,8223DR,Lelystad,Lelystad,Flevoland,VBO,5.488330,52.525957
Zwartewater,63,,,8223DR,Lelystad,Lelystad,Flevoland,VBO,5.488256,52.525954
Zwartewater,64,,,8223DR,Lelystad,Lelystad,Flevoland,VBO,5.488183,52.525951
Zwartewater,65,,,8223DR,Lelystad,Lelystad,Flevoland,VBO,5.488109,52.525949
Zwartewater,66,,,8223DR,Lelystad,Lelystad,Flevoland,VBO,5.488032,52.525947
Zwartewater,67,,,8223DR,Lelystad,Lelystad,Flevoland,VBO,5.488058,52.525768
Zwartewater,68,,,8223DR,Lelystad,Lelystad,Flevoland,VBO,5.488063,52.525721
Zwartewater,69,,,8223DR,Lelystad,Lelystad,Flevoland,VBO,5.488067,52.525676
Zwartewater,70,,,8223DR,Lelystad,Lelystad,Flevoland,VBO,5.488072,52.525632
Zwartewater,71,,,8223DR,Lelystad,Lelystad,Flevoland,VBO,5.488075,52.525587
Zwartewater,72,,,8223DR,Lelystad,Lelystad,Flevoland,VBO,5.488081,52.525542
Zwartewater,73,,,8223DR,Lelystad,Lelystad,Flevoland,VBO,5.488086,52.525497
Zwartewater,74,,,8223DR,Lelystad,Lelystad,Flevoland,VBO,5.488090,52.525451
Zwartewater,75,,,8223DR,Lelystad,Lelystad,Flevoland,VBO,5.488246,52.525281
Zwartewater,76,,,8223DR,Lelystad,Lelystad,Flevoland,VBO,5.488171,52.525276
Zwartewater,77,,,8223DR,Lelystad,Lelystad,Flevoland,VBO,5.488098,52.525273
Zwartewater,78,,,8223DR,Lelystad,Lelystad,Flevoland,VBO,5.488026,52.525271
Zwartewater,79,,,8223DR,Lelystad,Lelystad,Flevoland,VBO,5.487954,52.525268
Zwartewater,80,,,8223DR,Lelystad,Lelystad,Flevoland,VBO,5.487882,52.525266
Zwartewater,81,,,8223DR,Lelystad,Lelystad,Flevoland,VBO,5.487808,52.525263
Zwartewater,82,,,8223DR,Lelystad,Lelystad,Flevoland,VBO,5.487734,52.525263
Schipbeek,1,,,8223DS,Lelystad,Lelystad,Flevoland,VBO,5.488636,52.525298
Schipbeek,2,,,8223DS,Lelystad,Lelystad,Flevoland,VBO,5.488630,52.525344
Schipbeek,3,,,8223DS,Lelystad,Lelystad,Flevoland,VBO,5.488626,52.525388
Schipbeek,4,,,8223DS,Lelystad,Lelystad,Flevoland,VBO,5.488621,52.525432
Schipbeek,5,,,8223DS,Lelystad,Lelystad,Flevoland,VBO,5.488617,52.525476
Schipbeek,6,,,8223DS,Lelystad,Lelystad,Flevoland,VBO,5.488612,52.525520
Schipbeek,7,,,8223DS,Lelystad,Lelystad,Flevoland,VBO,5.488607,52.525564
Schipbeek,8,,,8223DS,Lelystad,Lelystad,Flevoland,VBO,5.488603,52.525608
Schipbeek,9,,,8223DS,Lelystad,Lelystad,Flevoland,VBO,5.488598,52.525652
Schipbeek,10,,,8223DS,Lelystad,Lelystad,Flevoland,VBO,5.488593,52.525698
Schipbeek,11,,,8223DS,Lelystad,Lelystad,Flevoland,VBO,5.488912,52.526034
Schipbeek,12,,,8223DS,Lelystad,Lelystad,Flevoland,VBO,5.488906,52.526079
Schipbeek,13,,,8223DS,Lelystad,Lelystad,Flevoland,VBO,5.488901,52.526123
Schipbeek,14,,,8223DS,Lelystad,Lelystad,Flevoland,VBO,5.488897,52.526167
Schipbeek,15,,,8223DS,Lelystad,Lelystad,Flevoland,VBO,5.488893,52.526211
Schipbeek,16,,,8223DS,Lelystad,Lelystad,Flevoland,VBO,5.488888,52.526255
Schipbeek,17,,,8223DS,Lelystad,Lelystad,Flevoland,VBO,5.488883,52.526299
Schipbeek,18,,,8223DS,Lelystad,Lelystad,Flevoland,VBO,5.488879,52.526343
Schipbeek,19,,,8223DS,Lelystad,Lelystad,Flevoland,VBO,5.488875,52.526387
Schipbeek,20,,,8223DS,Lelystad,Lelystad,Flevoland,VBO,5.488876,52.526433
Schipbeek,22,,,8223DT,Lelystad,Lelystad,Flevoland,VBO,5.489610,52.526497
Schipbeek,23,,,8223DT,Lelystad,Lelystad,Flevoland,VBO,5.489614,52.526451
Schipbeek,24,,,8223DT,Lelystad,Lelystad,Flevoland,VBO,5.489619,52.526406
Schipbeek,25,,,8223DT,Lelystad,Lelystad,Flevoland,VBO,5.489623,52.526361
Schipbeek,26,,,8223DT,Lelystad,Lelystad,Flevoland,VBO,5.489627,52.526316
Schipbeek,27,,,8223DT,Lelystad,Lelystad,Flevoland,VBO,5.489631,52.526271
Schipbeek,28,,,8223DT,Lelystad,Lelystad,Flevoland,VBO,5.489636,52.526226
Schipbeek,29,,,8223DT,Lelystad,Lelystad,Flevoland,VBO,5.489641,52.526180
Schipbeek,30,,,8223DT,Lelystad,Lelystad,Flevoland,VBO,5.489816,52.526011
Schipbeek,31,,,8223DT,Lelystad,Lelystad,Flevoland,VBO,5.489739,52.526008
Schipbeek,32,,,8223DT,Lelystad,Lelystad,Flevoland,VBO,5.489667,52.526005
Schipbeek,33,,,8223DT,Lelystad,Lelystad,Flevoland,VBO,5.489594,52.526003
Schipbeek,34,,,8223DT,Lelystad,Lelystad,Flevoland,VBO,5.489520,52.526000
Schipbeek,35,,,8223DT,Lelystad,Lelystad,Flevoland,VBO,5.489447,52.525998
Schipbeek,36,,,8223DT,Lelystad,Lelystad,Flevoland,VBO,5.489373,52.525995
Schipbeek,37,,,8223DT,Lelystad,Lelystad,Flevoland,VBO,5.489297,52.525992
Schipbeek,38,,,8223DV,Lelystad,Lelystad,Flevoland,VBO,5.489336,52.525814
Schipbeek,39,,,8223DV,Lelystad,Lelystad,Flevoland,VBO,5.489340,52.525768
Schipbeek,40,,,8223DV,Lelystad,Lelystad,Flevoland,VBO,5.489345,52.525723
Schipbeek,41,,,8223DV,Lelystad,Lelystad,Flevoland,VBO,5.489347,52.525678
Schipbeek,42,,,8223DV,Lelystad,Lelystad,Flevoland,VBO,5.489353,52.525633
Schipbeek,43,,,8223DV,Lelystad,Lelystad,Flevoland,VBO,5.489358,52.525588
Schipbeek,44,,,8223DV,Lelystad,Lelystad,Flevoland,VBO,5.489362,52.525543
Schipbeek,45,,,8223DV,Lelystad,Lelystad,Flevoland,VBO,5.489366,52.525497
Schipbeek,46,,,8223DV,Lelystad,Lelystad,Flevoland,VBO,5.489511,52.525327
Schipbeek,47,,,8223DV,Lelystad,Lelystad,Flevoland,VBO,5.489435,52.525322
Schipbeek,48,,,8223DV,Lelystad,Lelystad,Flevoland,VBO,5.489363,52.525320
Schipbeek,49,,,8223DV,Lelystad,Lelystad,Flevoland,VBO,5.489291,52.525317
Schipbeek,50,,,8223DV,Lelystad,Lelystad,Flevoland,VBO,5.489219,52.525315
Schipbeek,51,,,8223DV,Lelystad,Lelystad,Flevoland,VBO,5.489146,52.525312
Schipbeek,52,,,8223DV,Lelystad,Lelystad,Flevoland,VBO,5.489075,52.525309
Schipbeek,53,,,8223DV,Lelystad,Lelystad,Flevoland,VBO,5.489000,52.525309
Berkel,1,,,8223DW,Lelystad,Lelystad,Flevoland,VBO,5.489903,52.525345
Berkel,2,,,8223DW,Lelystad,Lelystad,Flevoland,VBO,5.489897,52.525390
Berkel,3,,,8223DW,Lelystad,Lelystad,Flevoland,VBO,5.489893,52.525434
Berkel,4,,,8223DW,Lelystad,Lelystad,Flevoland,VBO,5.489889,52.525478
Berkel,5,,,8223DW,Lelystad,Lelystad,Flevoland,VBO,5.489884,52.525522
Berkel,6,,,8223DW,Lelystad,Lelystad,Flevoland,VBO,5.489880,52.525566
Berkel,7,,,8223DW,Lelystad,Lelystad,Flevoland,VBO,5.489875,52.525610
Berkel,8,,,8223DW,Lelystad,Lelystad,Flevoland,VBO,5.489871,52.525654
Berkel,9,,,8223DW,Lelystad,Lelystad,Flevoland,VBO,5.489867,52.525698
Berkel,10,T,,8223DW,Lelystad,Lelystad,Flevoland,VBO,5.489964,52.525783
Berkel,10,,,8223DW,Lelystad,Lelystad,Flevoland,VBO,5.489861,52.525744
Berkel,11,,,8223DW,Lelystad,Lelystad,Flevoland,VBO,5.490176,52.526080
Berkel,12,,,8223DW,Lelystad,Lelystad,Flevoland,VBO,5.490170,52.526125
Berkel,13,,,8223DW,Lelystad,Lelystad,Flevoland,VBO,5.490166,52.526169
Berkel,14,,,8223DW,Lelystad,Lelystad,Flevoland,VBO,5.490161,52.526213
Berkel,15,,,8223DW,Lelystad,Lelystad,Flevoland,VBO,5.490157,52.526257
Berkel,16,,,8223DW,Lelystad,Lelystad,Flevoland,VBO,5.490152,52.526301
Berkel,17,,,8223DW,Lelystad,Lelystad,Flevoland,VBO,5.490148,52.526345
Berkel,18,,,8223DW,Lelystad,Lelystad,Flevoland,VBO,5.490144,52.526389
Berkel,19,,,8223DW,Lelystad,Lelystad,Flevoland,VBO,5.490139,52.526433
Berkel,20,,,8223DW,Lelystad,Lelystad,Flevoland,VBO,5.490140,52.526479
Berkel,21,A,,8223DX,Lelystad,Lelystad,Flevoland,VBO,5.490346,52.526622
Berkel,21,B,,8223DX,Lelystad,Lelystad,Flevoland,VBO,5.490389,52.526622
Berkel,21,C,,8223DX,Lelystad,Lelystad,Flevoland,VBO,5.490428,52.526623
Berkel,21,D,,8223DX,Lelystad,Lelystad,Flevoland,VBO,5.490475,52.526626
Berkel,21,E,,8223DX,Lelystad,Lelystad,Flevoland,VBO,5.490519,52.526627
Berkel,21,F,,8223DX,Lelystad,Lelystad,Flevoland,VBO,5.490562,52.526629
Berkel,21,G,,8223DX,Lelystad,Lelystad,Flevoland,VBO,5.490607,52.526630
Berkel,21,H,,8223DX,Lelystad,Lelystad,Flevoland,VBO,5.490647,52.526632
Berkel,22,,,8223DX,Lelystad,Lelystad,Flevoland,VBO,5.490876,52.526543
Berkel,23,,,8223DX,Lelystad,Lelystad,Flevoland,VBO,5.490881,52.526497
Berkel,24,,,8223DX,Lelystad,Lelystad,Flevoland,VBO,5.490885,52.526452
Berkel,25,,,8223DX,Lelystad,Lelystad,Flevoland,VBO,5.490890,52.526407
Berkel,26,,,8223DX,Lelystad,Lelystad,Flevoland,VBO,5.490894,52.526363
Berkel,27,,,8223DX,Lelystad,Lelystad,Flevoland,VBO,5.490898,52.526318
Berkel,28,,,8223DX,Lelystad,Lelystad,Flevoland,VBO,5.490903,52.526273
Berkel,29,,,8223DX,Lelystad,Lelystad,Flevoland,VBO,5.490908,52.526227
Berkel,30,,,8223DX,Lelystad,Lelystad,Flevoland,VBO,5.491082,52.526058
Berkel,31,,,8223DX,Lelystad,Lelystad,Flevoland,VBO,5.491004,52.526055
Berkel,32,,,8223DX,Lelystad,Lelystad,Flevoland,VBO,5.490933,52.526053
Berkel,33,,,8223DX,Lelystad,Lelystad,Flevoland,VBO,5.490859,52.526050
Berkel,34,,,8223DX,Lelystad,Lelystad,Flevoland,VBO,5.490786,52.526048
Berkel,35,,,8223DX,Lelystad,Lelystad,Flevoland,VBO,5.490712,52.526045
Berkel,36,,,8223DX,Lelystad,Lelystad,Flevoland,VBO,5.490638,52.526042
Berkel,37,,,8223DX,Lelystad,Lelystad,Flevoland,VBO,5.490562,52.526040
Berkel,38,,,8223DZ,Lelystad,Lelystad,Flevoland,VBO,5.490599,52.525861
Berkel,39,,,8223DZ,Lelystad,Lelystad,Flevoland,VBO,5.490604,52.525814
Berkel,40,,,8223DZ,Lelystad,Lelystad,Flevoland,VBO,5.490608,52.525770
Berkel,41,,,8223DZ,Lelystad,Lelystad,Flevoland,VBO,5.490611,52.525725
Berkel,42,,,8223DZ,Lelystad,Lelystad,Flevoland,VBO,5.490618,52.525680
Berkel,43,,,8223DZ,Lelystad,Lelystad,Flevoland,VBO,5.490622,52.525635
Berkel,44,,,8223DZ,Lelystad,Lelystad,Flevoland,VBO,5.490626,52.525590
Berkel,45,,,8223DZ,Lelystad,Lelystad,Flevoland,VBO,5.490631,52.525544
Berkel,46,,,8223DZ,Lelystad,Lelystad,Flevoland,VBO,5.490776,52.525374
Berkel,47,,,8223DZ,Lelystad,Lelystad,Flevoland,VBO,5.490700,52.525369
Berkel,48,,,8223DZ,Lelystad,Lelystad,Flevoland,VBO,5.490628,52.525366
Berkel,49,,,8223DZ,Lelystad,Lelystad,Flevoland,VBO,5.490556,52.525364
Berkel,50,,,8223DZ,Lelystad,Lelystad,Flevoland,VBO,5.490484,52.525361
Berkel,51,,,8223DZ,Lelystad,Lelystad,Flevoland,VBO,5.490410,52.525358
Berkel,52,,,8223DZ,Lelystad,Lelystad,Flevoland,VBO,5.490340,52.525356
Berkel,53,,,8223DZ,Lelystad,Lelystad,Flevoland,VBO,5.490264,52.525355
Slinge,1,,,8223EA,Lelystad,Lelystad,Flevoland,VBO,5.491165,52.525391
Slinge,2,,,8223EA,Lelystad,Lelystad,Flevoland,VBO,5.491159,52.525436
Slinge,3,,,8223EA,Lelystad,Lelystad,Flevoland,VBO,5.491155,52.525480
Slinge,4,,,8223EA,Lelystad,Lelystad,Flevoland,VBO,5.491150,52.525524
Slinge,5,,,8223EA,Lelystad,Lelystad,Flevoland,VBO,5.491146,52.525568
Slinge,6,,,8223EA,Lelystad,Lelystad,Flevoland,VBO,5.491141,52.525612
Slinge,7,,,8223EA,Lelystad,Lelystad,Flevoland,VBO,5.491136,52.525656
Slinge,8,,,8223EA,Lelystad,Lelystad,Flevoland,VBO,5.491132,52.525700
Slinge,9,,,8223EA,Lelystad,Lelystad,Flevoland,VBO,5.491127,52.525744
Slinge,10,,,8223EA,Lelystad,Lelystad,Flevoland,VBO,5.491122,52.525790
Slinge,11,,,8223EA,Lelystad,Lelystad,Flevoland,VBO,5.491439,52.526126
Slinge,12,,,8223EA,Lelystad,Lelystad,Flevoland,VBO,5.491433,52.526171
Slinge,13,,,8223EA,Lelystad,Lelystad,Flevoland,VBO,5.491429,52.526215
Slinge,14,,,8223EA,Lelystad,Lelystad,Flevoland,VBO,5.491425,52.526259
Slinge,15,,,8223EA,Lelystad,Lelystad,Flevoland,VBO,5.491421,52.526303
Slinge,16,,,8223EA,Lelystad,Lelystad,Flevoland,VBO,5.491416,52.526347
Slinge,17,,,8223EA,Lelystad,Lelystad,Flevoland,VBO,5.491412,52.526391
Slinge,18,,,8223EA,Lelystad,Lelystad,Flevoland,VBO,5.491408,52.526435
Slinge,19,,,8223EA,Lelystad,Lelystad,Flevoland,VBO,5.491404,52.526479
Slinge,20,,,8223EA,Lelystad,Lelystad,Flevoland,VBO,5.491406,52.526526
Slinge,21,,,8223EB,Lelystad,Lelystad,Flevoland,VBO,5.491863,52.525906
Slinge,22,,,8223EB,Lelystad,Lelystad,Flevoland,VBO,5.491869,52.525860
Slinge,23,,,8223EB,Lelystad,Lelystad,Flevoland,VBO,5.491874,52.525815
Slinge,24,,,8223EB,Lelystad,Lelystad,Flevoland,VBO,5.491878,52.525771
Slinge,25,,,8223EB,Lelystad,Lelystad,Flevoland,VBO,5.491883,52.525726
Slinge,26,,,8223EB,Lelystad,Lelystad,Flevoland,VBO,5.491887,52.525681
Slinge,27,,,8223EB,Lelystad,Lelystad,Flevoland,VBO,5.491891,52.525636
Slinge,28,,,8223EB,Lelystad,Lelystad,Flevoland,VBO,5.491896,52.525590
Slinge,29,,,8223EB,Lelystad,Lelystad,Flevoland,VBO,5.492041,52.525419
Slinge,30,,,8223EB,Lelystad,Lelystad,Flevoland,VBO,5.491966,52.525414
Slinge,31,,,8223EB,Lelystad,Lelystad,Flevoland,VBO,5.491893,52.525412
Slinge,32,,,8223EB,Lelystad,Lelystad,Flevoland,VBO,5.491822,52.525409
Slinge,33,,,8223EB,Lelystad,Lelystad,Flevoland,VBO,5.491750,52.525406
Slinge,34,,,8223EB,Lelystad,Lelystad,Flevoland,VBO,5.491678,52.525404
Slinge,35,,,8223EB,Lelystad,Lelystad,Flevoland,VBO,5.491606,52.525401
Slinge,36,,,8223EB,Lelystad,Lelystad,Flevoland,VBO,5.491530,52.525400
Schroefstraat,1,,,8223EC,Lelystad,Lelystad,Flevoland,VBO,5.495843,52.522383
Schroefstraat,3,,,8223EC,Lelystad,Lelystad,Flevoland,VBO,5.495817,52.522626
Schroefstraat,9,,,8223EC,Lelystad,Lelystad,Flevoland,VBO,5.495698,52.523272
Schroefstraat,13,,,8223EC,Lelystad,Lelystad,Flevoland,VBO,5.495650,52.523503
Schroefstraat,17,T,,8223EC,Lelystad,Lelystad,Flevoland,VBO,5.495948,52.524007
Schroefstraat,17,,,8223EC,Lelystad,Lelystad,Flevoland,VBO,5.495863,52.523827
Schroefstraat,21,,,8223EC,Lelystad,Lelystad,Flevoland,VBO,5.495660,52.524123
Schroefstraat,25,,,8223EC,Lelystad,Lelystad,Flevoland,VBO,5.495719,52.524398
Schroefstraat,2,T,,8223ED,Lelystad,Lelystad,Flevoland,VBO,5.496354,52.521753
Schroefstraat,2,,,8223ED,Lelystad,Lelystad,Flevoland,VBO,5.496559,52.521811
Schroefstraat,8,,,8223ED,Lelystad,Lelystad,Flevoland,VBO,5.496940,52.522889
Schroefstraat,14,,,8223ED,Lelystad,Lelystad,Flevoland,VBO,5.496691,52.523272
Schroefstraat,16,,,8223ED,Lelystad,Lelystad,Flevoland,VBO,5.496507,52.523324
Schroefstraat,18,,,8223ED,Lelystad,Lelystad,Flevoland,VBO,5.496767,52.523706
Schroefstraat,22,,,8223ED,Lelystad,Lelystad,Flevoland,VBO,5.496628,52.523908
Schroefstraat,26,,,8223ED,Lelystad,Lelystad,Flevoland,VBO,5.496520,52.524102
Schroefstraat,30,,,8223ED,Lelystad,Lelystad,Flevoland,VBO,5.496491,52.524467
Schroefstraat,34,,,8223ED,Lelystad,Lelystad,Flevoland,VBO,5.496575,52.524867
Wigstraat,1,,,8223EE,Lelystad,Lelystad,Flevoland,VBO,5.495160,52.521784
Wigstraat,7,,,8223EE,Lelystad,Lelystad,Flevoland,VBO,5.493849,52.522421
Wigstraat,9,A,,8223EE,Lelystad,Lelystad,Flevoland,VBO,5.494261,52.522428
Wigstraat,9,B,,8223EE,Lelystad,Lelystad,Flevoland,VBO,5.494245,52.522519
Wigstraat,9,C,,8223EE,Lelystad,Lelystad,Flevoland,VBO,5.494242,52.522598
Wigstraat,9,,,8223EE,Lelystad,Lelystad,Flevoland,VBO,5.494280,52.522307
Wigstraat,13,B,,8223EE,Lelystad,Lelystad,Flevoland,VBO,5.494052,52.523078
Wigstraat,13,,,8223EE,Lelystad,Lelystad,Flevoland,VBO,5.494135,52.522717
Wigstraat,15,,,8223EE,Lelystad,Lelystad,Flevoland,VBO,5.494070,52.523278
Wigstraat,17,,,8223EE,Lelystad,Lelystad,Flevoland,VBO,5.493566,52.523257
Wigstraat,19,A,,8223EE,Lelystad,Lelystad,Flevoland,VBO,5.493999,52.523531
Wigstraat,19,,,8223EE,Lelystad,Lelystad,Flevoland,VBO,5.494153,52.523503
Wigstraat,21,A,,8223EE,Lelystad,Lelystad,Flevoland,VBO,5.493779,52.523524
Wigstraat,21,,,8223EE,Lelystad,Lelystad,Flevoland,VBO,5.493633,52.523485
Wigstraat,25,,,8223EE,Lelystad,Lelystad,Flevoland,VBO,5.493961,52.524443
Wigstraat,29,,,8223EE,Lelystad,Lelystad,Flevoland,VBO,5.493938,52.524828
Wigstraat,33,,,8223EE,Lelystad,Lelystad,Flevoland,VBO,5.494940,52.524795
Wigstraat,2,,,8223EG,Lelystad,Lelystad,Flevoland,VBO,5.494819,52.522341
Wigstraat,6,,,8223EG,Lelystad,Lelystad,Flevoland,VBO,5.494858,52.522535
Wigstraat,14,,,8223EG,Lelystad,Lelystad,Flevoland,VBO,5.494867,52.522944
Wigstraat,18,,,8223EG,Lelystad,Lelystad,Flevoland,VBO,5.494861,52.523151
Wigstraat,20,,,8223EG,Lelystad,Lelystad,Flevoland,VBO,5.494936,52.523443
Wigstraat,22,,,8223EG,Lelystad,Lelystad,Flevoland,VBO,5.495035,52.523835
Wigstraat,24,,,8223EG,Lelystad,Lelystad,Flevoland,VBO,5.495009,52.524103
Wigstraat,28,,,8223EG,Lelystad,Lelystad,Flevoland,VBO,5.494984,52.524354
Wartelstraat,1,,,8223EH,Lelystad,Lelystad,Flevoland,VBO,5.497138,52.524666
Wartelstraat,2,,,8223EH,Lelystad,Lelystad,Flevoland,VBO,5.497114,52.524081
Wartelstraat,5,,,8223EH,Lelystad,Lelystad,Flevoland,VBO,5.497493,52.524519
Wartelstraat,6,,,8223EH,Lelystad,Lelystad,Flevoland,VBO,5.497527,52.524182
Wartelstraat,7,,,8223EH,Lelystad,Lelystad,Flevoland,VBO,5.497726,52.524500
Wartelstraat,9,,,8223EH,Lelystad,Lelystad,Flevoland,VBO,5.497736,52.525024
Wartelstraat,11,,,8223EH,Lelystad,Lelystad,Flevoland,VBO,5.497505,52.525030
Wartelstraat,14,,,8223EH,Lelystad,Lelystad,Flevoland,VBO,5.497679,52.523882
Wartelstraat,16,,,8223EH,Lelystad,Lelystad,Flevoland,VBO,5.497567,52.523877
Wartelstraat,22,,,8223EH,Lelystad,Lelystad,Flevoland,VBO,5.497265,52.523626
Wartelstraat,24,,,8223EH,Lelystad,Lelystad,Flevoland,VBO,5.497498,52.523233
Zuigerplasdreef,190,,,8223EX,Lelystad,Lelystad,Flevoland,VBO,5.476589,52.533476
Zuigerplasdreef,200,,,8223EX,Lelystad,Lelystad,Flevoland,VBO,5.475862,52.528459
Zuigerplasdreef,202,,,8223EX,Lelystad,Lelystad,Flevoland,VBO,5.474869,52.528557
Zuigerplasdreef,204,,,8223EX,Lelystad,Lelystad,Flevoland,VBO,5.475106,52.528050
Kofschip,1,T,,8223EZ,Lelystad,Lelystad,Flevoland,VBO,5.476095,52.523068
Kofschip,1,,,8223EZ,Lelystad,Lelystad,Flevoland,VBO,5.474400,52.522287
Kofschip,2,,,8223EZ,Lelystad,Lelystad,Flevoland,VBO,5.476019,52.523858
Kofschip,6,A,,8223EZ,Lelystad,Lelystad,Flevoland,VBO,5.473622,52.524278
Kofschip,6,,,8223EZ,Lelystad,Lelystad,Flevoland,VBO,5.473646,52.523912
Kofschip,7,A,,8223EZ,Lelystad,Lelystad,Flevoland,VBO,5.474265,52.524380
Kofschip,7,,,8223EZ,Lelystad,Lelystad,Flevoland,VBO,5.474623,52.524379
Kofschip,9,A,,8223EZ,Lelystad,Lelystad,Flevoland,VBO,5.472544,52.524468
Kofschip,9,,,8223EZ,Lelystad,Lelystad,Flevoland,VBO,5.472892,52.524519
Kofschip,10,A,,8223EZ,Lelystad,Lelystad,Flevoland,VBO,5.475401,52.525080
Kofschip,10,T,,8223EZ,Lelystad,Lelystad,Flevoland,VBO,5.476061,52.524671
Kofschip,10,,,8223EZ,Lelystad,Lelystad,Flevoland,VBO,5.475716,52.525025
Kofschip,11,,,8223EZ,Lelystad,Lelystad,Flevoland,VBO,5.475678,52.525658
Kofschip,12,,,8223EZ,Lelystad,Lelystad,Flevoland,VBO,5.475751,52.526012
Kofschip,14,,,8223EZ,Lelystad,Lelystad,Flevoland,VBO,5.475452,52.526540
Kofschip,15,,,8223EZ,Lelystad,Lelystad,Flevoland,VBO,5.475779,52.526421
Bastion,36,,,8223GA,Lelystad,Lelystad,Flevoland,VBO,5.478901,52.519068
Bastion,38,,,8223GA,Lelystad,Lelystad,Flevoland,VBO,5.478921,52.519116
Bastion,40,,,8223GA,Lelystad,Lelystad,Flevoland,VBO,5.478890,52.519172
Bastion,42,,,8223GA,Lelystad,Lelystad,Flevoland,VBO,5.478911,52.519219
Bastion,44,,,8223GA,Lelystad,Lelystad,Flevoland,VBO,5.478847,52.519275
Bastion,46,,,8223GA,Lelystad,Lelystad,Flevoland,VBO,5.478878,52.519320
Bastion,48,,,8223GA,Lelystad,Lelystad,Flevoland,VBO,5.478836,52.519378
Bastion,50,,,8223GA,Lelystad,Lelystad,Flevoland,VBO,5.478866,52.519423
Bastion,56,,,8223GA,Lelystad,Lelystad,Flevoland,VBO,5.478853,52.519419
Bastion,58,,,8223GA,Lelystad,Lelystad,Flevoland,VBO,5.478834,52.519371
Bastion,60,,,8223GA,Lelystad,Lelystad,Flevoland,VBO,5.478865,52.519315
Bastion,62,,,8223GA,Lelystad,Lelystad,Flevoland,VBO,5.478845,52.519267
Bastion,64,,,8223GA,Lelystad,Lelystad,Flevoland,VBO,5.478743,52.519735
Bastion,66,,,8223GA,Lelystad,Lelystad,Flevoland,VBO,5.478821,52.519723
Bastion,68,,,8223GA,Lelystad,Lelystad,Flevoland,VBO,5.478912,52.519742
Bastion,70,,,8223GA,Lelystad,Lelystad,Flevoland,VBO,5.478988,52.519729
Bastion,72,,,8223GA,Lelystad,Lelystad,Flevoland,VBO,5.479080,52.519748
Bastion,74,,,8223GA,Lelystad,Lelystad,Flevoland,VBO,5.479157,52.519735
Bastion,194,,,8223GB,Lelystad,Lelystad,Flevoland,VBO,5.479484,52.519786
Bastion,196,,,8223GB,Lelystad,Lelystad,Flevoland,VBO,5.479406,52.519799
Bastion,198,,,8223GB,Lelystad,Lelystad,Flevoland,VBO,5.479314,52.519780
Bastion,200,,,8223GB,Lelystad,Lelystad,Flevoland,VBO,5.479237,52.519792
Bastion,202,,,8223GB,Lelystad,Lelystad,Flevoland,VBO,5.479496,52.519787
Bastion,204,,,8223GB,Lelystad,Lelystad,Flevoland,VBO,5.479422,52.519805
Bastion,206,,,8223GB,Lelystad,Lelystad,Flevoland,VBO,5.479326,52.519781
Bastion,208,,,8223GB,Lelystad,Lelystad,Flevoland,VBO,5.479252,52.519799
Bastion,214,,,8223GB,Lelystad,Lelystad,Flevoland,VBO,5.479087,52.519756
Bastion,216,,,8223GB,Lelystad,Lelystad,Flevoland,VBO,5.478991,52.519731
Bastion,218,,,8223GB,Lelystad,Lelystad,Flevoland,VBO,5.478919,52.519750
Bastion,220,,,8223GB,Lelystad,Lelystad,Flevoland,VBO,5.478825,52.519725
Bastion,222,,,8223GB,Lelystad,Lelystad,Flevoland,VBO,5.478751,52.519743
Bastion,126,,,8223GC,Lelystad,Lelystad,Flevoland,VBO,5.480257,52.519315
Bastion,128,,,8223GC,Lelystad,Lelystad,Flevoland,VBO,5.480281,52.519364
Bastion,130,,,8223GC,Lelystad,Lelystad,Flevoland,VBO,5.480246,52.519419
Bastion,132,,,8223GC,Lelystad,Lelystad,Flevoland,VBO,5.480271,52.519465
Bastion,134,,,8223GC,Lelystad,Lelystad,Flevoland,VBO,5.480236,52.519521
Bastion,136,,,8223GC,Lelystad,Lelystad,Flevoland,VBO,5.480260,52.519569
Bastion,138,,,8223GC,Lelystad,Lelystad,Flevoland,VBO,5.480257,52.519315
Bastion,140,,,8223GC,Lelystad,Lelystad,Flevoland,VBO,5.480281,52.519364
Bastion,142,,,8223GC,Lelystad,Lelystad,Flevoland,VBO,5.480246,52.519419
Bastion,144,,,8223GC,Lelystad,Lelystad,Flevoland,VBO,5.480271,52.519465
Bastion,146,,,8223GC,Lelystad,Lelystad,Flevoland,VBO,5.480236,52.519521
Bastion,148,,,8223GC,Lelystad,Lelystad,Flevoland,VBO,5.480260,52.519569
Bastion,150,A,,8223GC,Lelystad,Lelystad,Flevoland,VBO,5.480337,52.519316
Bastion,150,B,,8223GC,Lelystad,Lelystad,Flevoland,VBO,5.480240,52.519307
Bastion,150,C,,8223GC,Lelystad,Lelystad,Flevoland,VBO,5.480234,52.519340
Bastion,152,,,8223GC,Lelystad,Lelystad,Flevoland,VBO,5.480291,52.519469
Bastion,154,,,8223GC,Lelystad,Lelystad,Flevoland,VBO,5.480250,52.519527
Bastion,268,,,8223GD,Lelystad,Lelystad,Flevoland,VBO,5.480226,52.519987
Bastion,270,,,8223GD,Lelystad,Lelystad,Flevoland,VBO,5.480247,52.520035
Bastion,272,,,8223GD,Lelystad,Lelystad,Flevoland,VBO,5.480215,52.520090
Bastion,274,,,8223GD,Lelystad,Lelystad,Flevoland,VBO,5.480236,52.520137
Bastion,276,,,8223GD,Lelystad,Lelystad,Flevoland,VBO,5.480173,52.520192
Bastion,278,,,8223GD,Lelystad,Lelystad,Flevoland,VBO,5.480194,52.520239
Bastion,280,,,8223GD,Lelystad,Lelystad,Flevoland,VBO,5.480163,52.520295
Bastion,282,,,8223GD,Lelystad,Lelystad,Flevoland,VBO,5.480184,52.520342
Bastion,284,,,8223GD,Lelystad,Lelystad,Flevoland,VBO,5.480226,52.519987
Bastion,286,,,8223GD,Lelystad,Lelystad,Flevoland,VBO,5.480247,52.520035
Bastion,288,,,8223GD,Lelystad,Lelystad,Flevoland,VBO,5.480215,52.520090
Bastion,290,,,8223GD,Lelystad,Lelystad,Flevoland,VBO,5.480236,52.520137
Bastion,292,,,8223GD,Lelystad,Lelystad,Flevoland,VBO,5.480238,52.519994
Bastion,294,,,8223GD,Lelystad,Lelystad,Flevoland,VBO,5.480269,52.520039
Bastion,296,,,8223GD,Lelystad,Lelystad,Flevoland,VBO,5.480227,52.520097
Bastion,302,,,8223GD,Lelystad,Lelystad,Flevoland,VBO,5.480215,52.520244
Bastion,304,,,8223GD,Lelystad,Lelystad,Flevoland,VBO,5.480174,52.520302
Bastion,306,,,8223GD,Lelystad,Lelystad,Flevoland,VBO,5.480205,52.520347
Bastion,354,,,8223GE,Lelystad,Lelystad,Flevoland,VBO,5.480504,52.519616
Bastion,356,,,8223GE,Lelystad,Lelystad,Flevoland,VBO,5.480582,52.519604
Bastion,358,,,8223GE,Lelystad,Lelystad,Flevoland,VBO,5.480673,52.519623
Bastion,360,,,8223GE,Lelystad,Lelystad,Flevoland,VBO,5.480749,52.519610
Bastion,362,,,8223GE,Lelystad,Lelystad,Flevoland,VBO,5.480840,52.519629
Bastion,364,,,8223GE,Lelystad,Lelystad,Flevoland,VBO,5.480916,52.519616
Bastion,366,,,8223GE,Lelystad,Lelystad,Flevoland,VBO,5.480504,52.519616
Bastion,368,,,8223GE,Lelystad,Lelystad,Flevoland,VBO,5.480582,52.519604
Bastion,370,,,8223GE,Lelystad,Lelystad,Flevoland,VBO,5.480673,52.519623
Bastion,372,,,8223GE,Lelystad,Lelystad,Flevoland,VBO,5.480749,52.519610
Bastion,374,,,8223GE,Lelystad,Lelystad,Flevoland,VBO,5.480840,52.519629
Bastion,376,,,8223GE,Lelystad,Lelystad,Flevoland,VBO,5.480916,52.519616
Bastion,378,T,,8223GE,Lelystad,Lelystad,Flevoland,VBO,5.480447,52.519591
Bastion,378,,,8223GE,Lelystad,Lelystad,Flevoland,VBO,5.480521,52.519625
Bastion,380,,,8223GE,Lelystad,Lelystad,Flevoland,VBO,5.480596,52.519606
Bastion,382,,,8223GE,Lelystad,Lelystad,Flevoland,VBO,5.480692,52.519632
Bastion,384,,,8223GE,Lelystad,Lelystad,Flevoland,VBO,5.480764,52.519613
Bastion,386,,,8223GE,Lelystad,Lelystad,Flevoland,VBO,5.480859,52.519638
Bastion,392,,,8223GG,Lelystad,Lelystad,Flevoland,VBO,5.481010,52.519616
Bastion,394,,,8223GG,Lelystad,Lelystad,Flevoland,VBO,5.481088,52.519603
Bastion,396,,,8223GG,Lelystad,Lelystad,Flevoland,VBO,5.481180,52.519622
Bastion,398,,,8223GG,Lelystad,Lelystad,Flevoland,VBO,5.481257,52.519609
Bastion,400,,,8223GG,Lelystad,Lelystad,Flevoland,VBO,5.481348,52.519629
Bastion,402,,,8223GG,Lelystad,Lelystad,Flevoland,VBO,5.481426,52.519616
Bastion,404,,,8223GG,Lelystad,Lelystad,Flevoland,VBO,5.481103,52.519607
Bastion,406,,,8223GG,Lelystad,Lelystad,Flevoland,VBO,5.481198,52.519632
Bastion,430,,,8223GG,Lelystad,Lelystad,Flevoland,VBO,5.481270,52.519613
Bastion,432,,,8223GG,Lelystad,Lelystad,Flevoland,VBO,5.481366,52.519638
Bastion,434,,,8223GG,Lelystad,Lelystad,Flevoland,VBO,5.481441,52.519620
Bastion,478,,,8223GH,Lelystad,Lelystad,Flevoland,VBO,5.481067,52.520310
Bastion,480,,,8223GH,Lelystad,Lelystad,Flevoland,VBO,5.481046,52.520262
Bastion,482,,,8223GH,Lelystad,Lelystad,Flevoland,VBO,5.481078,52.520206
Bastion,484,,,8223GH,Lelystad,Lelystad,Flevoland,VBO,5.481057,52.520160
Bastion,486,,,8223GH,Lelystad,Lelystad,Flevoland,VBO,5.481088,52.520104
Bastion,488,,,8223GH,Lelystad,Lelystad,Flevoland,VBO,5.481069,52.520056
Bastion,504,,,8223GH,Lelystad,Lelystad,Flevoland,VBO,5.481091,52.520313
Bastion,506,,,8223GH,Lelystad,Lelystad,Flevoland,VBO,5.481060,52.520268
Bastion,508,,,8223GH,Lelystad,Lelystad,Flevoland,VBO,5.481101,52.520210
Bastion,510,,,8223GH,Lelystad,Lelystad,Flevoland,VBO,5.481069,52.520166
Bastion,512,,,8223GH,Lelystad,Lelystad,Flevoland,VBO,5.481110,52.520107
Bastion,514,,,8223GH,Lelystad,Lelystad,Flevoland,VBO,5.481081,52.520062
Bastion,1,,,8223GJ,Lelystad,Lelystad,Flevoland,VBO,5.479928,52.518911
Bastion,3,,,8223GJ,Lelystad,Lelystad,Flevoland,VBO,5.479849,52.518936
Bastion,5,,,8223GJ,Lelystad,Lelystad,Flevoland,VBO,5.479771,52.518948
Bastion,7,,,8223GJ,Lelystad,Lelystad,Flevoland,VBO,5.479678,52.518929
Bastion,9,,,8223GJ,Lelystad,Lelystad,Flevoland,VBO,5.479601,52.518942
Bastion,11,,,8223GJ,Lelystad,Lelystad,Flevoland,VBO,5.479509,52.518885
Bastion,13,,,8223GJ,Lelystad,Lelystad,Flevoland,VBO,5.479434,52.518898
Bastion,15,,,8223GJ,Lelystad,Lelystad,Flevoland,VBO,5.479341,52.518879
Bastion,17,,,8223GJ,Lelystad,Lelystad,Flevoland,VBO,5.479265,52.518892
Bastion,19,,,8223GJ,Lelystad,Lelystad,Flevoland,VBO,5.479173,52.518873
Bastion,21,,,8223GJ,Lelystad,Lelystad,Flevoland,VBO,5.479098,52.518886
Bastion,23,,,8223GJ,Lelystad,Lelystad,Flevoland,VBO,5.479009,52.518868
Bastion,25,,,8223GJ,Lelystad,Lelystad,Flevoland,VBO,5.478930,52.518879
Bastion,27,A,,8223GJ,Lelystad,Lelystad,Flevoland,VBO,5.478838,52.518831
Bastion,29,,,8223GJ,Lelystad,Lelystad,Flevoland,VBO,5.478549,52.518871
Bastion,31,,,8223GJ,Lelystad,Lelystad,Flevoland,VBO,5.478568,52.518918
Bastion,33,,,8223GJ,Lelystad,Lelystad,Flevoland,VBO,5.478539,52.518974
Bastion,35,,,8223GJ,Lelystad,Lelystad,Flevoland,VBO,5.478559,52.519022
Bastion,37,,,8223GJ,Lelystad,Lelystad,Flevoland,VBO,5.478466,52.519075
Bastion,39,,,8223GJ,Lelystad,Lelystad,Flevoland,VBO,5.478487,52.519122
Bastion,41,,,8223GJ,Lelystad,Lelystad,Flevoland,VBO,5.478454,52.519178
Bastion,43,,,8223GJ,Lelystad,Lelystad,Flevoland,VBO,5.478477,52.519224
Bastion,45,,,8223GJ,Lelystad,Lelystad,Flevoland,VBO,5.478445,52.519281
Bastion,47,,,8223GJ,Lelystad,Lelystad,Flevoland,VBO,5.478465,52.519327
Bastion,49,,,8223GK,Lelystad,Lelystad,Flevoland,VBO,5.478497,52.519385
Bastion,51,,,8223GK,Lelystad,Lelystad,Flevoland,VBO,5.478516,52.519432
Bastion,53,,,8223GK,Lelystad,Lelystad,Flevoland,VBO,5.478487,52.519488
Bastion,55,,,8223GK,Lelystad,Lelystad,Flevoland,VBO,5.478507,52.519536
Bastion,75,,,8223GK,Lelystad,Lelystad,Flevoland,VBO,5.478440,52.519653
Bastion,77,,,8223GK,Lelystad,Lelystad,Flevoland,VBO,5.478460,52.519700
Bastion,79,,,8223GK,Lelystad,Lelystad,Flevoland,VBO,5.478429,52.519757
Bastion,81,,,8223GK,Lelystad,Lelystad,Flevoland,VBO,5.478448,52.519804
Bastion,83,,,8223GK,Lelystad,Lelystad,Flevoland,VBO,5.478506,52.519936
Bastion,85,,,8223GK,Lelystad,Lelystad,Flevoland,VBO,5.478526,52.519984
Bastion,87,,,8223GK,Lelystad,Lelystad,Flevoland,VBO,5.478494,52.520040
Bastion,89,,,8223GK,Lelystad,Lelystad,Flevoland,VBO,5.478516,52.520087
Bastion,91,,,8223GK,Lelystad,Lelystad,Flevoland,VBO,5.478422,52.520140
Bastion,93,,,8223GK,Lelystad,Lelystad,Flevoland,VBO,5.478444,52.520187
Bastion,95,,,8223GK,Lelystad,Lelystad,Flevoland,VBO,5.478413,52.520244
Bastion,97,,,8223GK,Lelystad,Lelystad,Flevoland,VBO,5.478433,52.520291
Bastion,101,,,8223GL,Lelystad,Lelystad,Flevoland,VBO,5.479900,52.519147
Bastion,103,,,8223GL,Lelystad,Lelystad,Flevoland,VBO,5.479923,52.519195
Bastion,105,,,8223GL,Lelystad,Lelystad,Flevoland,VBO,5.479885,52.519251
Bastion,107,,,8223GL,Lelystad,Lelystad,Flevoland,VBO,5.479912,52.519297
Bastion,109,,,8223GL,Lelystad,Lelystad,Flevoland,VBO,5.479877,52.519352
Bastion,111,,,8223GL,Lelystad,Lelystad,Flevoland,VBO,5.479903,52.519401
Bastion,113,,,8223GL,Lelystad,Lelystad,Flevoland,VBO,5.479902,52.519147
Bastion,115,,,8223GL,Lelystad,Lelystad,Flevoland,VBO,5.479927,52.519195
Bastion,117,,,8223GL,Lelystad,Lelystad,Flevoland,VBO,5.479890,52.519251
Bastion,119,,,8223GL,Lelystad,Lelystad,Flevoland,VBO,5.479916,52.519297
Bastion,121,,,8223GL,Lelystad,Lelystad,Flevoland,VBO,5.479881,52.519352
Bastion,123,,,8223GL,Lelystad,Lelystad,Flevoland,VBO,5.479905,52.519401
Bastion,125,A,,8223GL,Lelystad,Lelystad,Flevoland,VBO,5.479982,52.519146
Bastion,125,B,,8223GL,Lelystad,Lelystad,Flevoland,VBO,5.479971,52.519211
Bastion,125,C,,8223GL,Lelystad,Lelystad,Flevoland,VBO,5.479964,52.519247
Bastion,125,D,,8223GL,Lelystad,Lelystad,Flevoland,VBO,5.479957,52.519314
Bastion,125,E,,8223GL,Lelystad,Lelystad,Flevoland,VBO,5.479964,52.519348
Bastion,125,F,,8223GL,Lelystad,Lelystad,Flevoland,VBO,5.479881,52.519141
Bastion,125,G,,8223GL,Lelystad,Lelystad,Flevoland,VBO,5.479875,52.519208
Bastion,125,H,,8223GL,Lelystad,Lelystad,Flevoland,VBO,5.479873,52.519245
Bastion,125,J,,8223GL,Lelystad,Lelystad,Flevoland,VBO,5.479858,52.519312
Bastion,125,K,,8223GL,Lelystad,Lelystad,Flevoland,VBO,5.479861,52.519345
Bastion,155,,,8223GM,Lelystad,Lelystad,Flevoland,VBO,5.479844,52.519557
Bastion,157,,,8223GM,Lelystad,Lelystad,Flevoland,VBO,5.479768,52.519570
Bastion,159,,,8223GM,Lelystad,Lelystad,Flevoland,VBO,5.479676,52.519551
Bastion,161,,,8223GM,Lelystad,Lelystad,Flevoland,VBO,5.479602,52.519564
Bastion,163,,,8223GM,Lelystad,Lelystad,Flevoland,VBO,5.479510,52.519544
Bastion,165,,,8223GM,Lelystad,Lelystad,Flevoland,VBO,5.479432,52.519558
Bastion,167,,,8223GM,Lelystad,Lelystad,Flevoland,VBO,5.479341,52.519520
Bastion,169,,,8223GM,Lelystad,Lelystad,Flevoland,VBO,5.479265,52.519533
Bastion,171,,,8223GM,Lelystad,Lelystad,Flevoland,VBO,5.479174,52.519514
Bastion,173,,,8223GM,Lelystad,Lelystad,Flevoland,VBO,5.479095,52.519527
Bastion,175,,,8223GM,Lelystad,Lelystad,Flevoland,VBO,5.479844,52.519557
Bastion,177,,,8223GM,Lelystad,Lelystad,Flevoland,VBO,5.479768,52.519570
Bastion,179,,,8223GM,Lelystad,Lelystad,Flevoland,VBO,5.479676,52.519551
Bastion,181,,,8223GM,Lelystad,Lelystad,Flevoland,VBO,5.479602,52.519564
Bastion,183,,,8223GM,Lelystad,Lelystad,Flevoland,VBO,5.479510,52.519544
Bastion,185,,,8223GM,Lelystad,Lelystad,Flevoland,VBO,5.479432,52.519558
Bastion,187,,,8223GM,Lelystad,Lelystad,Flevoland,VBO,5.479783,52.519579
Bastion,189,,,8223GM,Lelystad,Lelystad,Flevoland,VBO,5.479688,52.519554
Bastion,191,,,8223GM,Lelystad,Lelystad,Flevoland,VBO,5.479614,52.519573
Bastion,193,,,8223GM,Lelystad,Lelystad,Flevoland,VBO,5.479521,52.519548
Bastion,209,,,8223GM,Lelystad,Lelystad,Flevoland,VBO,5.479282,52.519542
Bastion,211,,,8223GM,Lelystad,Lelystad,Flevoland,VBO,5.479184,52.519517
Bastion,213,,,8223GM,Lelystad,Lelystad,Flevoland,VBO,5.479111,52.519536
Bastion,215,A,,8223GM,Lelystad,Lelystad,Flevoland,VBO,5.479437,52.519534
Bastion,223,,,8223GN,Lelystad,Lelystad,Flevoland,VBO,5.479841,52.519747
Bastion,225,,,8223GN,Lelystad,Lelystad,Flevoland,VBO,5.479861,52.519795
Bastion,227,,,8223GN,Lelystad,Lelystad,Flevoland,VBO,5.479829,52.519851
Bastion,229,,,8223GN,Lelystad,Lelystad,Flevoland,VBO,5.479850,52.519897
Bastion,231,,,8223GN,Lelystad,Lelystad,Flevoland,VBO,5.479757,52.519951
Bastion,233,,,8223GN,Lelystad,Lelystad,Flevoland,VBO,5.479778,52.519998
Bastion,235,,,8223GN,Lelystad,Lelystad,Flevoland,VBO,5.479747,52.520054
Bastion,237,,,8223GN,Lelystad,Lelystad,Flevoland,VBO,5.479769,52.520100
Bastion,239,,,8223GN,Lelystad,Lelystad,Flevoland,VBO,5.479738,52.520156
Bastion,241,,,8223GN,Lelystad,Lelystad,Flevoland,VBO,5.479759,52.520204
Bastion,243,,,8223GN,Lelystad,Lelystad,Flevoland,VBO,5.479841,52.519747
Bastion,245,,,8223GN,Lelystad,Lelystad,Flevoland,VBO,5.479861,52.519795
Bastion,247,,,8223GN,Lelystad,Lelystad,Flevoland,VBO,5.479829,52.519851
Bastion,249,,,8223GN,Lelystad,Lelystad,Flevoland,VBO,5.479850,52.519897
Bastion,251,,,8223GN,Lelystad,Lelystad,Flevoland,VBO,5.479757,52.519951
Bastion,253,,,8223GN,Lelystad,Lelystad,Flevoland,VBO,5.479778,52.519998
Bastion,255,,,8223GN,Lelystad,Lelystad,Flevoland,VBO,5.479747,52.520054
Bastion,257,,,8223GN,Lelystad,Lelystad,Flevoland,VBO,5.479769,52.520100
Bastion,259,,,8223GN,Lelystad,Lelystad,Flevoland,VBO,5.479738,52.520156
Bastion,261,,,8223GN,Lelystad,Lelystad,Flevoland,VBO,5.479759,52.520204
Bastion,263,,,8223GN,Lelystad,Lelystad,Flevoland,VBO,5.479853,52.519752
Bastion,265,,,8223GN,Lelystad,Lelystad,Flevoland,VBO,5.479883,52.519797
Bastion,267,,,8223GN,Lelystad,Lelystad,Flevoland,VBO,5.479842,52.519855
Bastion,293,,,8223GP,Lelystad,Lelystad,Flevoland,VBO,5.479801,52.520001
Bastion,295,,,8223GP,Lelystad,Lelystad,Flevoland,VBO,5.479761,52.520059
Bastion,297,,,8223GP,Lelystad,Lelystad,Flevoland,VBO,5.479791,52.520103
Bastion,299,,,8223GP,Lelystad,Lelystad,Flevoland,VBO,5.479750,52.520162
Bastion,301,,,8223GP,Lelystad,Lelystad,Flevoland,VBO,5.479779,52.520207
Bastion,307,,,8223GP,Lelystad,Lelystad,Flevoland,VBO,5.479837,52.520425
Bastion,309,,,8223GP,Lelystad,Lelystad,Flevoland,VBO,5.479762,52.520443
Bastion,311,,,8223GP,Lelystad,Lelystad,Flevoland,VBO,5.479664,52.520418
Bastion,313,,,8223GP,Lelystad,Lelystad,Flevoland,VBO,5.479593,52.520436
Bastion,315,,,8223GP,Lelystad,Lelystad,Flevoland,VBO,5.479501,52.520398
Bastion,317,,,8223GP,Lelystad,Lelystad,Flevoland,VBO,5.479424,52.520410
Bastion,319,,,8223GP,Lelystad,Lelystad,Flevoland,VBO,5.479332,52.520391
Bastion,321,,,8223GP,Lelystad,Lelystad,Flevoland,VBO,5.479254,52.520403
Bastion,323,,,8223GP,Lelystad,Lelystad,Flevoland,VBO,5.479823,52.520421
Bastion,325,,,8223GP,Lelystad,Lelystad,Flevoland,VBO,5.479745,52.520433
Bastion,327,,,8223GP,Lelystad,Lelystad,Flevoland,VBO,5.479653,52.520414
Bastion,329,,,8223GP,Lelystad,Lelystad,Flevoland,VBO,5.479576,52.520426
Bastion,331,,,8223GR,Lelystad,Lelystad,Flevoland,VBO,5.480311,52.519850
Bastion,333,,,8223GR,Lelystad,Lelystad,Flevoland,VBO,5.480388,52.519838
Bastion,335,,,8223GR,Lelystad,Lelystad,Flevoland,VBO,5.480480,52.519857
Bastion,337,,,8223GR,Lelystad,Lelystad,Flevoland,VBO,5.480555,52.519844
Bastion,339,,,8223GR,Lelystad,Lelystad,Flevoland,VBO,5.480647,52.519863
Bastion,341,,,8223GR,Lelystad,Lelystad,Flevoland,VBO,5.480726,52.519851
Bastion,343,,,8223GR,Lelystad,Lelystad,Flevoland,VBO,5.480311,52.519850
Bastion,345,,,8223GR,Lelystad,Lelystad,Flevoland,VBO,5.480388,52.519838
Bastion,347,,,8223GR,Lelystad,Lelystad,Flevoland,VBO,5.480480,52.519857
Bastion,349,,,8223GR,Lelystad,Lelystad,Flevoland,VBO,5.480555,52.519844
Bastion,351,,,8223GR,Lelystad,Lelystad,Flevoland,VBO,5.480647,52.519863
Bastion,353,,,8223GR,Lelystad,Lelystad,Flevoland,VBO,5.480726,52.519851
Bastion,377,,,8223GR,Lelystad,Lelystad,Flevoland,VBO,5.480401,52.519839
Bastion,379,,,8223GR,Lelystad,Lelystad,Flevoland,VBO,5.480497,52.519864
Bastion,381,,,8223GR,Lelystad,Lelystad,Flevoland,VBO,5.480568,52.519845
Bastion,383,,,8223GR,Lelystad,Lelystad,Flevoland,VBO,5.480665,52.519870
Bastion,385,,,8223GR,Lelystad,Lelystad,Flevoland,VBO,5.480739,52.519852
Bastion,387,,,8223GS,Lelystad,Lelystad,Flevoland,VBO,5.480861,52.519877
Bastion,389,,,8223GS,Lelystad,Lelystad,Flevoland,VBO,5.480935,52.519858
Bastion,391,,,8223GS,Lelystad,Lelystad,Flevoland,VBO,5.481029,52.519883
Bastion,407,,,8223GS,Lelystad,Lelystad,Flevoland,VBO,5.480844,52.519870
Bastion,409,,,8223GS,Lelystad,Lelystad,Flevoland,VBO,5.480922,52.519857
Bastion,411,,,8223GS,Lelystad,Lelystad,Flevoland,VBO,5.481013,52.519877
Bastion,413,,,8223GS,Lelystad,Lelystad,Flevoland,VBO,5.481091,52.519864
Bastion,415,,,8223GS,Lelystad,Lelystad,Flevoland,VBO,5.481185,52.519864
Bastion,417,,,8223GS,Lelystad,Lelystad,Flevoland,VBO,5.481262,52.519851
Bastion,419,,,8223GS,Lelystad,Lelystad,Flevoland,VBO,5.481354,52.519870
Bastion,421,,,8223GS,Lelystad,Lelystad,Flevoland,VBO,5.481431,52.519857
Bastion,423,,,8223GS,Lelystad,Lelystad,Flevoland,VBO,5.481091,52.519864
Bastion,425,,,8223GS,Lelystad,Lelystad,Flevoland,VBO,5.481013,52.519877
Bastion,427,,,8223GS,Lelystad,Lelystad,Flevoland,VBO,5.480922,52.519857
Bastion,429,,,8223GS,Lelystad,Lelystad,Flevoland,VBO,5.480844,52.519870
Bastion,431,,,8223GS,Lelystad,Lelystad,Flevoland,VBO,5.481274,52.519852
Bastion,433,,,8223GS,Lelystad,Lelystad,Flevoland,VBO,5.481371,52.519878
Bastion,435,,,8223GS,Lelystad,Lelystad,Flevoland,VBO,5.481445,52.519859
Bastion,441,A,,8223GT,Lelystad,Lelystad,Flevoland,VBO,5.481701,52.519326
Bastion,443,,,8223GT,Lelystad,Lelystad,Flevoland,VBO,5.481606,52.519350
Bastion,445,,,8223GT,Lelystad,Lelystad,Flevoland,VBO,5.481529,52.519363
Bastion,447,,,8223GT,Lelystad,Lelystad,Flevoland,VBO,5.481436,52.519343
Bastion,449,,,8223GT,Lelystad,Lelystad,Flevoland,VBO,5.481361,52.519356
Bastion,451,,,8223GT,Lelystad,Lelystad,Flevoland,VBO,5.481267,52.519337
Bastion,453,,,8223GT,Lelystad,Lelystad,Flevoland,VBO,5.481192,52.519350
Bastion,455,,,8223GT,Lelystad,Lelystad,Flevoland,VBO,5.481102,52.519312
Bastion,457,A,,8223GT,Lelystad,Lelystad,Flevoland,VBO,5.481038,52.519337
Bastion,457,B,,8223GT,Lelystad,Lelystad,Flevoland,VBO,5.481026,52.519318
Bastion,459,,,8223GT,Lelystad,Lelystad,Flevoland,VBO,5.480933,52.519306
Bastion,461,,,8223GT,Lelystad,Lelystad,Flevoland,VBO,5.480855,52.519319
Bastion,463,,,8223GT,Lelystad,Lelystad,Flevoland,VBO,5.480765,52.519300
Bastion,465,,,8223GT,Lelystad,Lelystad,Flevoland,VBO,5.480687,52.519312
Bastion,467,A,,8223GT,Lelystad,Lelystad,Flevoland,VBO,5.480600,52.519265
Bastion,471,,,8223GV,Lelystad,Lelystad,Flevoland,VBO,5.480991,52.520445
Bastion,473,,,8223GV,Lelystad,Lelystad,Flevoland,VBO,5.480913,52.520458
Bastion,475,,,8223GV,Lelystad,Lelystad,Flevoland,VBO,5.480822,52.520439
Bastion,477,,,8223GV,Lelystad,Lelystad,Flevoland,VBO,5.480744,52.520452
Bastion,489,,,8223GV,Lelystad,Lelystad,Flevoland,VBO,5.481006,52.520449
Bastion,491,,,8223GV,Lelystad,Lelystad,Flevoland,VBO,5.480930,52.520467
Bastion,493,,,8223GV,Lelystad,Lelystad,Flevoland,VBO,5.480836,52.520442
Bastion,495,,,8223GV,Lelystad,Lelystad,Flevoland,VBO,5.480763,52.520461
Bastion,497,,,8223GV,Lelystad,Lelystad,Flevoland,VBO,5.480666,52.520459
Bastion,499,,,8223GV,Lelystad,Lelystad,Flevoland,VBO,5.480589,52.520472
Bastion,501,,,8223GV,Lelystad,Lelystad,Flevoland,VBO,5.480496,52.520453
Bastion,503,,,8223GV,Lelystad,Lelystad,Flevoland,VBO,5.480419,52.520465
Badweg,1,,,8223PA,Lelystad,Lelystad,Flevoland,VBO,5.498858,52.520604
Badweg,2,,,8223PA,Lelystad,Lelystad,Flevoland,VBO,5.498555,52.520550
Badweg,10,,,8223PA,Lelystad,Lelystad,Flevoland,VBO,5.496534,52.521034
Badweg,17,,,8223PA,Lelystad,Lelystad,Flevoland,VBO,5.495127,52.520077
Badweg,19,,,8223PA,Lelystad,Lelystad,Flevoland,VBO,5.495315,52.519548
Badweg,21,,,8223PA,Lelystad,Lelystad,Flevoland,VBO,5.494869,52.519068
Sportparkweg,1,,,8223PB,Lelystad,Lelystad,Flevoland,VBO,5.502839,52.527004
Sportparkweg,2,,,8223PB,Lelystad,Lelystad,Flevoland,VBO,5.503615,52.525619
Sportparkweg,3,,,8223PB,Lelystad,Lelystad,Flevoland,VBO,5.506206,52.525957
Sportparkweg,4,A,,8223PB,Lelystad,Lelystad,Flevoland,VBO,5.507279,52.525580
Sportparkweg,4,,,8223PB,Lelystad,Lelystad,Flevoland,VBO,5.506963,52.525853
Sportparkweg,5,,,8223PB,Lelystad,Lelystad,Flevoland,VBO,5.502264,52.524645
Sportparkweg,6,T,,8223PB,Lelystad,Lelystad,Flevoland,VBO,5.500633,52.523216
Langevelderslag,1,,,8223PC,Lelystad,Lelystad,Flevoland,VBO,5.496511,52.520285
Langevelderslag,3,,,8223PC,Lelystad,Lelystad,Flevoland,VBO,5.496549,52.520062
Langevelderslag,5,,,8223PC,Lelystad,Lelystad,Flevoland,VBO,5.496591,52.519831
Langevelderslag,7,,,8223PC,Lelystad,Lelystad,Flevoland,VBO,5.496619,52.519616
Langevelderslag,9,,,8223PC,Lelystad,Lelystad,Flevoland,VBO,5.496707,52.519385
Langevelderslag,11,,,8223PC,Lelystad,Lelystad,Flevoland,VBO,5.496766,52.519131
Langevelderslag,13,,,8223PC,Lelystad,Lelystad,Flevoland,VBO,5.497596,52.520361
Langevelderslag,15,,,8223PC,Lelystad,Lelystad,Flevoland,VBO,5.497657,52.520065
Langevelderslag,17,,,8223PC,Lelystad,Lelystad,Flevoland,VBO,5.497760,52.519807
Langevelderslag,19,,,8223PC,Lelystad,Lelystad,Flevoland,VBO,5.497749,52.519581
Langevelderslag,21,,,8223PC,Lelystad,Lelystad,Flevoland,VBO,5.497833,52.519289
Langevelderslag,12,,,8223PD,Lelystad,Lelystad,Flevoland,VBO,5.497024,52.520362
Langevelderslag,14,,,8223PD,Lelystad,Lelystad,Flevoland,VBO,5.497120,52.520108
Langevelderslag,16,,,8223PD,Lelystad,Lelystad,Flevoland,VBO,5.497139,52.519876
Langevelderslag,18,,,8223PD,Lelystad,Lelystad,Flevoland,VBO,5.497135,52.519664
Langevelderslag,20,,,8223PD,Lelystad,Lelystad,Flevoland,VBO,5.497247,52.519450
Langevelderslag,22,,,8223PD,Lelystad,Lelystad,Flevoland,VBO,5.497316,52.519191
Langevelderslag,24,,,8223PD,Lelystad,Lelystad,Flevoland,VBO,5.496751,52.518432
Langevelderslag,26,,,8223PD,Lelystad,Lelystad,Flevoland,VBO,5.496683,52.518623
Langevelderslag,28,,,8223PD,Lelystad,Lelystad,Flevoland,VBO,5.496638,52.518787
Langevelderslag,30,,,8223PD,Lelystad,Lelystad,Flevoland,VBO,5.497172,52.518844
Langevelderslag,32,,,8223PD,Lelystad,Lelystad,Flevoland,VBO,5.497188,52.518727
Langevelderslag,34,,,8223PD,Lelystad,Lelystad,Flevoland,VBO,5.497208,52.518600
Langevelderslag,36,,,8223PD,Lelystad,Lelystad,Flevoland,VBO,5.497230,52.518464
Langevelderslag,38,,,8223PD,Lelystad,Lelystad,Flevoland,VBO,5.497647,52.518491
Langevelderslag,40,,,8223PD,Lelystad,Lelystad,Flevoland,VBO,5.497637,52.518628
Langevelderslag,42,,,8223PD,Lelystad,Lelystad,Flevoland,VBO,5.497600,52.518762
Langevelderslag,44,,,8223PD,Lelystad,Lelystad,Flevoland,VBO,5.497648,52.518905
Langevelderslag,46,,,8223PD,Lelystad,Lelystad,Flevoland,VBO,5.498066,52.518933
Langevelderslag,48,,,8223PD,Lelystad,Lelystad,Flevoland,VBO,5.498062,52.518793
Langevelderslag,50,,,8223PD,Lelystad,Lelystad,Flevoland,VBO,5.498105,52.518653
Langevelderslag,52,,,8223PD,Lelystad,Lelystad,Flevoland,VBO,5.498105,52.518521
Langevelderslag,54,,,8223PD,Lelystad,Lelystad,Flevoland,VBO,5.498540,52.518550
Langevelderslag,56,,,8223PD,Lelystad,Lelystad,Flevoland,VBO,5.498498,52.518725
Langevelderslag,58,,,8223PD,Lelystad,Lelystad,Flevoland,VBO,5.498498,52.518917
Langevelderslag,60,,,8223PE,Lelystad,Lelystad,Flevoland,VBO,5.499133,52.518906
Langevelderslag,62,,,8223PE,Lelystad,Lelystad,Flevoland,VBO,5.499110,52.518731
Langevelderslag,64,,,8223PE,Lelystad,Lelystad,Flevoland,VBO,5.499108,52.518562
Langevelderslag,66,,,8223PE,Lelystad,Lelystad,Flevoland,VBO,5.499516,52.518547
Langevelderslag,68,,,8223PE,Lelystad,Lelystad,Flevoland,VBO,5.499570,52.518750
Langevelderslag,70,,,8223PE,Lelystad,Lelystad,Flevoland,VBO,5.499535,52.518919
Langevelderslag,72,,,8223PE,Lelystad,Lelystad,Flevoland,VBO,5.500090,52.518909
Langevelderslag,74,,,8223PE,Lelystad,Lelystad,Flevoland,VBO,5.500101,52.518738
Langevelderslag,76,,,8223PE,Lelystad,Lelystad,Flevoland,VBO,5.500138,52.518552
Langevelderslag,78,,,8223PE,Lelystad,Lelystad,Flevoland,VBO,5.500588,52.518545
Langevelderslag,80,,,8223PE,Lelystad,Lelystad,Flevoland,VBO,5.500551,52.518686
Langevelderslag,82,,,8223PE,Lelystad,Lelystad,Flevoland,VBO,5.500557,52.518810
Langevelderslag,84,,,8223PE,Lelystad,Lelystad,Flevoland,VBO,5.500526,52.518946
Langevelderslag,86,,,8223PE,Lelystad,Lelystad,Flevoland,VBO,5.500959,52.518980
Langevelderslag,88,,,8223PE,Lelystad,Lelystad,Flevoland,VBO,5.500990,52.518829
Langevelderslag,90,,,8223PE,Lelystad,Lelystad,Flevoland,VBO,5.501021,52.518695
Langevelderslag,92,,,8223PE,Lelystad,Lelystad,Flevoland,VBO,5.501060,52.518567
Langevelderslag,94,,,8223PE,Lelystad,Lelystad,Flevoland,VBO,5.501474,52.518599
Langevelderslag,96,,,8223PE,Lelystad,Lelystad,Flevoland,VBO,5.501450,52.518736
Langevelderslag,98,,,8223PE,Lelystad,Lelystad,Flevoland,VBO,5.501434,52.518864
Langevelderslag,100,,,8223PE,Lelystad,Lelystad,Flevoland,VBO,5.501375,52.518997
Langevelderslag,102,,,8223PE,Lelystad,Lelystad,Flevoland,VBO,5.501865,52.519035
Langevelderslag,104,,,8223PE,Lelystad,Lelystad,Flevoland,VBO,5.501985,52.518849
Langevelderslag,106,,,8223PE,Lelystad,Lelystad,Flevoland,VBO,5.501996,52.518673
Langevelderslag,59,,,8223PG,Lelystad,Lelystad,Flevoland,VBO,5.498766,52.519193
Langevelderslag,61,,,8223PG,Lelystad,Lelystad,Flevoland,VBO,5.498942,52.519199
Langevelderslag,63,,,8223PG,Lelystad,Lelystad,Flevoland,VBO,5.499121,52.519206
Langevelderslag,65,,,8223PG,Lelystad,Lelystad,Flevoland,VBO,5.499314,52.519215
Langevelderslag,67,,,8223PG,Lelystad,Lelystad,Flevoland,VBO,5.499596,52.519209
Langevelderslag,69,,,8223PG,Lelystad,Lelystad,Flevoland,VBO,5.499790,52.519206
Langevelderslag,71,,,8223PG,Lelystad,Lelystad,Flevoland,VBO,5.499966,52.519205
Langevelderslag,73,,,8223PG,Lelystad,Lelystad,Flevoland,VBO,5.500161,52.519205
Langevelderslag,75,,,8223PG,Lelystad,Lelystad,Flevoland,VBO,5.500683,52.519215
Langevelderslag,77,,,8223PG,Lelystad,Lelystad,Flevoland,VBO,5.500859,52.519231
Langevelderslag,79,,,8223PG,Lelystad,Lelystad,Flevoland,VBO,5.501034,52.519246
Langevelderslag,81,,,8223PG,Lelystad,Lelystad,Flevoland,VBO,5.501224,52.519265
Langevelderslag,83,,,8223PG,Lelystad,Lelystad,Flevoland,VBO,5.501539,52.519289
Langevelderslag,85,,,8223PG,Lelystad,Lelystad,Flevoland,VBO,5.501716,52.519299
Langevelderslag,87,,,8223PG,Lelystad,Lelystad,Flevoland,VBO,5.501891,52.519308
Langevelderslag,89,,,8223PG,Lelystad,Lelystad,Flevoland,VBO,5.502069,52.519318
De Toeloop,16,,,8223PH,Lelystad,Lelystad,Flevoland,VBO,5.503871,52.523054
De Toeloop,17,,,8223PH,Lelystad,Lelystad,Flevoland,VBO,5.504002,52.522919
Langezand,1,,,8223WB,Lelystad,Lelystad,Flevoland,VBO,5.498254,52.525756
Langezand,2,A,,8223WB,Lelystad,Lelystad,Flevoland,VBO,5.498161,52.525746
Langezand,2,B,,8223WB,Lelystad,Lelystad,Flevoland,VBO,5.498165,52.525750
Langezand,2,C,,8223WB,Lelystad,Lelystad,Flevoland,VBO,5.498165,52.525749
Langezand,3,,,8223WB,Lelystad,Lelystad,Flevoland,VBO,5.498068,52.525749
Langezand,4,,,8223WB,Lelystad,Lelystad,Flevoland,VBO,5.497976,52.525746
Langezand,5,,,8223WB,Lelystad,Lelystad,Flevoland,VBO,5.497883,52.525742
Langezand,6,,,8223WB,Lelystad,Lelystad,Flevoland,VBO,5.497790,52.525739
Langezand,7,,,8223WB,Lelystad,Lelystad,Flevoland,VBO,5.497697,52.525735
Langezand,8,,,8223WB,Lelystad,Lelystad,Flevoland,VBO,5.497602,52.525732
Langezand,9,,,8223WB,Lelystad,Lelystad,Flevoland,VBO,5.498245,52.525993
Langezand,10,,,8223WB,Lelystad,Lelystad,Flevoland,VBO,5.498236,52.526051
Langezand,11,,,8223WB,Lelystad,Lelystad,Flevoland,VBO,5.498229,52.526107
Langezand,12,,,8223WB,Lelystad,Lelystad,Flevoland,VBO,5.498226,52.526164
Langezand,13,,,8223WB,Lelystad,Lelystad,Flevoland,VBO,5.498220,52.526221
Langezand,14,,,8223WB,Lelystad,Lelystad,Flevoland,VBO,5.498214,52.526277
Langezand,15,,,8223WB,Lelystad,Lelystad,Flevoland,VBO,5.498209,52.526334
Langezand,16,,,8223WB,Lelystad,Lelystad,Flevoland,VBO,5.498203,52.526391
Langezand,17,,,8223WB,Lelystad,Lelystad,Flevoland,VBO,5.497670,52.526144
Langezand,18,,,8223WB,Lelystad,Lelystad,Flevoland,VBO,5.497676,52.526087
Langezand,19,,,8223WB,Lelystad,Lelystad,Flevoland,VBO,5.497681,52.526030
Langezand,20,,,8223WB,Lelystad,Lelystad,Flevoland,VBO,5.497689,52.525973
Langezand,21,,,8223WC,Lelystad,Lelystad,Flevoland,VBO,5.497125,52.525688
Langezand,22,,,8223WC,Lelystad,Lelystad,Flevoland,VBO,5.497033,52.525684
Langezand,23,,,8223WC,Lelystad,Lelystad,Flevoland,VBO,5.496939,52.525681
Langezand,24,,,8223WC,Lelystad,Lelystad,Flevoland,VBO,5.496851,52.525644
Langezand,25,,,8223WC,Lelystad,Lelystad,Flevoland,VBO,5.496759,52.525641
Langezand,26,,,8223WC,Lelystad,Lelystad,Flevoland,VBO,5.496666,52.525637
Langezand,27,,,8223WC,Lelystad,Lelystad,Flevoland,VBO,5.496573,52.525634
Langezand,28,,,8223WC,Lelystad,Lelystad,Flevoland,VBO,5.496478,52.525630
Langezand,29,,,8223WC,Lelystad,Lelystad,Flevoland,VBO,5.497009,52.526022
Langezand,30,,,8223WC,Lelystad,Lelystad,Flevoland,VBO,5.497004,52.526080
Langezand,31,,,8223WC,Lelystad,Lelystad,Flevoland,VBO,5.496997,52.526136
Langezand,32,,,8223WC,Lelystad,Lelystad,Flevoland,VBO,5.496994,52.526194
Langezand,33,,,8223WC,Lelystad,Lelystad,Flevoland,VBO,5.496439,52.526173
Langezand,34,,,8223WC,Lelystad,Lelystad,Flevoland,VBO,5.496444,52.526116
Langezand,35,,,8223WC,Lelystad,Lelystad,Flevoland,VBO,5.496449,52.526059
Langezand,36,,,8223WC,Lelystad,Lelystad,Flevoland,VBO,5.496454,52.526002
Langezand,37,,,8223WD,Lelystad,Lelystad,Flevoland,VBO,5.495992,52.525601
Langezand,38,,,8223WD,Lelystad,Lelystad,Flevoland,VBO,5.495898,52.525598
Langezand,39,,,8223WD,Lelystad,Lelystad,Flevoland,VBO,5.495805,52.525595
Langezand,40,,,8223WD,Lelystad,Lelystad,Flevoland,VBO,5.495713,52.525591
Langezand,41,,,8223WD,Lelystad,Lelystad,Flevoland,VBO,5.495619,52.525588
Langezand,42,,,8223WD,Lelystad,Lelystad,Flevoland,VBO,5.495527,52.525584
Langezand,43,,,8223WD,Lelystad,Lelystad,Flevoland,VBO,5.495435,52.525581
Langezand,44,,,8223WD,Lelystad,Lelystad,Flevoland,VBO,5.495343,52.525578
Langezand,45,,,8223WD,Lelystad,Lelystad,Flevoland,VBO,5.495250,52.525574
Langezand,46,,,8223WD,Lelystad,Lelystad,Flevoland,VBO,5.495156,52.525571
Langezand,47,,,8223WD,Lelystad,Lelystad,Flevoland,VBO,5.495682,52.525900
Langezand,48,,,8223WD,Lelystad,Lelystad,Flevoland,VBO,5.495677,52.525957
Langezand,49,,,8223WD,Lelystad,Lelystad,Flevoland,VBO,5.495672,52.526014
Langezand,50,,,8223WD,Lelystad,Lelystad,Flevoland,VBO,5.495667,52.526071
Langezand,51,,,8223WD,Lelystad,Lelystad,Flevoland,VBO,5.495110,52.526051
Langezand,52,,,8223WD,Lelystad,Lelystad,Flevoland,VBO,5.495117,52.525994
Langezand,53,,,8223WD,Lelystad,Lelystad,Flevoland,VBO,5.495122,52.525937
Langezand,54,,,8223WD,Lelystad,Lelystad,Flevoland,VBO,5.495127,52.525880
Langezand,55,,,8223WE,Lelystad,Lelystad,Flevoland,VBO,5.494561,52.525560
Langezand,56,,,8223WE,Lelystad,Lelystad,Flevoland,VBO,5.494467,52.525557
Langezand,57,,,8223WE,Lelystad,Lelystad,Flevoland,VBO,5.494375,52.525553
Langezand,58,,,8223WE,Lelystad,Lelystad,Flevoland,VBO,5.494282,52.525550
Langezand,59,,,8223WE,Lelystad,Lelystad,Flevoland,VBO,5.494189,52.525546
Langezand,60,,,8223WE,Lelystad,Lelystad,Flevoland,VBO,5.494093,52.525578
Langezand,61,,,8223WE,Lelystad,Lelystad,Flevoland,VBO,5.493998,52.525574
Langezand,62,,,8223WE,Lelystad,Lelystad,Flevoland,VBO,5.493908,52.525571
Langezand,63,,,8223WE,Lelystad,Lelystad,Flevoland,VBO,5.493814,52.525567
Langezand,64,,,8223WE,Lelystad,Lelystad,Flevoland,VBO,5.494447,52.525929
Langezand,65,,,8223WE,Lelystad,Lelystad,Flevoland,VBO,5.494442,52.525986
Langezand,66,,,8223WE,Lelystad,Lelystad,Flevoland,VBO,5.494437,52.526043
Langezand,67,,,8223WE,Lelystad,Lelystad,Flevoland,VBO,5.494431,52.526100
Langezand,68,,,8223WE,Lelystad,Lelystad,Flevoland,VBO,5.493876,52.526080
Langezand,69,,,8223WE,Lelystad,Lelystad,Flevoland,VBO,5.493881,52.526022
Langezand,70,,,8223WE,Lelystad,Lelystad,Flevoland,VBO,5.493886,52.525966
Langezand,71,,,8223WE,Lelystad,Lelystad,Flevoland,VBO,5.493889,52.525909
Langezand,72,,,8223WG,Lelystad,Lelystad,Flevoland,VBO,5.493302,52.525857
Langezand,73,,,8223WG,Lelystad,Lelystad,Flevoland,VBO,5.493095,52.525882
Langezand,74,,,8223WG,Lelystad,Lelystad,Flevoland,VBO,5.492888,52.525907
Langezand,75,,,8223WG,Lelystad,Lelystad,Flevoland,VBO,5.492681,52.525932
Langezand,76,,,8223WG,Lelystad,Lelystad,Flevoland,VBO,5.492690,52.526214
Langezand,77,,,8223WG,Lelystad,Lelystad,Flevoland,VBO,5.492707,52.526333
Langezand,78,A,,8223WG,Lelystad,Lelystad,Flevoland,VBO,5.492702,52.526537
Langezand,78,,,8223WG,Lelystad,Lelystad,Flevoland,VBO,5.492705,52.526452
Langezand,79,,,8223WG,Lelystad,Lelystad,Flevoland,VBO,5.493428,52.526383
Langezand,80,,,8223WG,Lelystad,Lelystad,Flevoland,VBO,5.493423,52.526440
Langezand,81,,,8223WG,Lelystad,Lelystad,Flevoland,VBO,5.493416,52.526497
Langezand,82,,,8223WG,Lelystad,Lelystad,Flevoland,VBO,5.493412,52.526554
Langezand,83,,,8223WG,Lelystad,Lelystad,Flevoland,VBO,5.493412,52.526626
Langezand,84,,,8223WG,Lelystad,Lelystad,Flevoland,VBO,5.493740,52.526644
Langezand,85,,,8223WG,Lelystad,Lelystad,Flevoland,VBO,5.493834,52.526648
Langezand,86,,,8223WG,Lelystad,Lelystad,Flevoland,VBO,5.493927,52.526651
Langezand,87,,,8223WG,Lelystad,Lelystad,Flevoland,VBO,5.494021,52.526655
Langezand,88,,,8223WH,Lelystad,Lelystad,Flevoland,VBO,5.494099,52.526444
Langezand,89,,,8223WH,Lelystad,Lelystad,Flevoland,VBO,5.494104,52.526387
Langezand,90,,,8223WH,Lelystad,Lelystad,Flevoland,VBO,5.494110,52.526330
Langezand,91,,,8223WH,Lelystad,Lelystad,Flevoland,VBO,5.494114,52.526273
Langezand,92,,,8223WH,Lelystad,Lelystad,Flevoland,VBO,5.494422,52.526327
Langezand,93,,,8223WH,Lelystad,Lelystad,Flevoland,VBO,5.494516,52.526330
Langezand,94,,,8223WH,Lelystad,Lelystad,Flevoland,VBO,5.494609,52.526333
Langezand,95,,,8223WH,Lelystad,Lelystad,Flevoland,VBO,5.494701,52.526337
Langezand,96,,,8223WH,Lelystad,Lelystad,Flevoland,VBO,5.494795,52.526340
Langezand,97,,,8223WH,Lelystad,Lelystad,Flevoland,VBO,5.494704,52.526518
Langezand,98,,,8223WH,Lelystad,Lelystad,Flevoland,VBO,5.494698,52.526575
Langezand,99,,,8223WH,Lelystad,Lelystad,Flevoland,VBO,5.494693,52.526632
Langezand,100,,,8223WH,Lelystad,Lelystad,Flevoland,VBO,5.494683,52.526690
Langezand,101,,,8223WH,Lelystad,Lelystad,Flevoland,VBO,5.495014,52.526691
Langezand,102,,,8223WH,Lelystad,Lelystad,Flevoland,VBO,5.495110,52.526695
Langezand,103,,,8223WH,Lelystad,Lelystad,Flevoland,VBO,5.495202,52.526698
Langezand,104,,,8223WH,Lelystad,Lelystad,Flevoland,VBO,5.495297,52.526701
Langezand,105,,,8223WJ,Lelystad,Lelystad,Flevoland,VBO,5.495360,52.526491
Langezand,106,,,8223WJ,Lelystad,Lelystad,Flevoland,VBO,5.495366,52.526434
Langezand,107,,,8223WJ,Lelystad,Lelystad,Flevoland,VBO,5.495371,52.526377
Langezand,108,,,8223WJ,Lelystad,Lelystad,Flevoland,VBO,5.495376,52.526321
Langezand,109,,,8223WJ,Lelystad,Lelystad,Flevoland,VBO,5.495382,52.526264
Langezand,110,,,8223WJ,Lelystad,Lelystad,Flevoland,VBO,5.495979,52.526520
Langezand,111,,,8223WJ,Lelystad,Lelystad,Flevoland,VBO,5.495971,52.526577
Langezand,112,,,8223WJ,Lelystad,Lelystad,Flevoland,VBO,5.495967,52.526634
Langezand,113,T,,8223WJ,Lelystad,Lelystad,Flevoland,VBO,5.495940,52.526770
Langezand,113,,,8223WJ,Lelystad,Lelystad,Flevoland,VBO,5.495961,52.526691
Langezand,114,,,8223WJ,Lelystad,Lelystad,Flevoland,VBO,5.496300,52.526739
Langezand,115,,,8223WJ,Lelystad,Lelystad,Flevoland,VBO,5.496394,52.526742
Langezand,116,,,8223WJ,Lelystad,Lelystad,Flevoland,VBO,5.496487,52.526745
Langezand,117,,,8223WJ,Lelystad,Lelystad,Flevoland,VBO,5.496581,52.526749
Langezand,118,,,8223WJ,Lelystad,Lelystad,Flevoland,VBO,5.496659,52.526539
Langezand,119,,,8223WJ,Lelystad,Lelystad,Flevoland,VBO,5.496664,52.526482
Langezand,120,,,8223WJ,Lelystad,Lelystad,Flevoland,VBO,5.496672,52.526425
Langezand,121,,,8223WJ,Lelystad,Lelystad,Flevoland,VBO,5.496675,52.526368
Langezand,122,,,8223WK,Lelystad,Lelystad,Flevoland,VBO,5.496985,52.526421
Langezand,123,,,8223WK,Lelystad,Lelystad,Flevoland,VBO,5.497079,52.526424
Langezand,124,,,8223WK,Lelystad,Lelystad,Flevoland,VBO,5.497172,52.526427
Langezand,125,,,8223WK,Lelystad,Lelystad,Flevoland,VBO,5.497264,52.526431
Langezand,126,,,8223WK,Lelystad,Lelystad,Flevoland,VBO,5.497357,52.526434
Langezand,127,,,8223WK,Lelystad,Lelystad,Flevoland,VBO,5.497262,52.526612
Langezand,128,,,8223WK,Lelystad,Lelystad,Flevoland,VBO,5.497257,52.526669
Langezand,129,,,8223WK,Lelystad,Lelystad,Flevoland,VBO,5.497251,52.526726
Langezand,130,,,8223WK,Lelystad,Lelystad,Flevoland,VBO,5.497245,52.526783
Langezand,131,,,8223WK,Lelystad,Lelystad,Flevoland,VBO,5.497642,52.526815
Langezand,132,,,8223WK,Lelystad,Lelystad,Flevoland,VBO,5.497738,52.526818
Langezand,133,,,8223WK,Lelystad,Lelystad,Flevoland,VBO,5.497831,52.526821
Langezand,134,,,8223WK,Lelystad,Lelystad,Flevoland,VBO,5.497924,52.526825
Langezand,135,,,8223WK,Lelystad,Lelystad,Flevoland,VBO,5.498018,52.526828
Langezand,136,,,8223WL,Lelystad,Lelystad,Flevoland,VBO,5.498218,52.526756
Langezand,137,,,8223WL,Lelystad,Lelystad,Flevoland,VBO,5.498312,52.526760
Langezand,138,,,8223WL,Lelystad,Lelystad,Flevoland,VBO,5.498405,52.526763
Langezand,139,,,8223WL,Lelystad,Lelystad,Flevoland,VBO,5.498499,52.526766
Langezand,140,,,8223WL,Lelystad,Lelystad,Flevoland,VBO,5.498880,52.526854
Langezand,141,,,8223WL,Lelystad,Lelystad,Flevoland,VBO,5.499058,52.526867
Langezand,142,,,8223WL,Lelystad,Lelystad,Flevoland,VBO,5.499082,52.526589
Langezand,143,,,8223WL,Lelystad,Lelystad,Flevoland,VBO,5.499092,52.526485
Langezand,144,,,8223WL,Lelystad,Lelystad,Flevoland,VBO,5.499111,52.526293
Langezand,145,,,8223WL,Lelystad,Lelystad,Flevoland,VBO,5.499121,52.526190
Langezand,146,,,8223WL,Lelystad,Lelystad,Flevoland,VBO,5.499460,52.526909
Langezand,147,,,8223WL,Lelystad,Lelystad,Flevoland,VBO,5.499465,52.526571
Langezand,148,,,8223WL,Lelystad,Lelystad,Flevoland,VBO,5.499635,52.526577
Langezand,149,,,8223WL,Lelystad,Lelystad,Flevoland,VBO,5.499495,52.526257
Langezand,150,,,8223WL,Lelystad,Lelystad,Flevoland,VBO,5.499665,52.526263
Langezand,151,,,8223WL,Lelystad,Lelystad,Flevoland,VBO,5.499618,52.525943
Langezand,152,,,8223WL,Lelystad,Lelystad,Flevoland,VBO,5.499449,52.525937
Langezand,153,,,8223WL,Lelystad,Lelystad,Flevoland,VBO,5.499119,52.525925
Langezand,154,,,8223WL,Lelystad,Lelystad,Flevoland,VBO,5.498950,52.525919
Marderhoek,1,,,8223XA,Lelystad,Lelystad,Flevoland,VBO,5.484904,52.524056
Marderhoek,2,,,8223XA,Lelystad,Lelystad,Flevoland,VBO,5.484901,52.524106
Marderhoek,3,,,8223XA,Lelystad,Lelystad,Flevoland,VBO,5.484896,52.524154
Marderhoek,4,,,8223XA,Lelystad,Lelystad,Flevoland,VBO,5.484891,52.524203
Marderhoek,5,,,8223XA,Lelystad,Lelystad,Flevoland,VBO,5.484887,52.524251
Marderhoek,6,,,8223XA,Lelystad,Lelystad,Flevoland,VBO,5.484882,52.524300
Marderhoek,7,,,8223XA,Lelystad,Lelystad,Flevoland,VBO,5.484877,52.524348
Marderhoek,8,,,8223XA,Lelystad,Lelystad,Flevoland,VBO,5.484872,52.524398
Marderhoek,9,,,8223XA,Lelystad,Lelystad,Flevoland,VBO,5.484962,52.524568
Marderhoek,10,,,8223XA,Lelystad,Lelystad,Flevoland,VBO,5.484963,52.524561
Marderhoek,11,,,8223XA,Lelystad,Lelystad,Flevoland,VBO,5.485170,52.524560
Marderhoek,12,,,8223XA,Lelystad,Lelystad,Flevoland,VBO,5.485363,52.524568
Marderhoek,13,,,8223XA,Lelystad,Lelystad,Flevoland,VBO,5.485557,52.524575
Marderhoek,14,,,8223XA,Lelystad,Lelystad,Flevoland,VBO,5.484963,52.524561
Marderhoek,15,,,8223XA,Lelystad,Lelystad,Flevoland,VBO,5.485170,52.524560
Marderhoek,16,,,8223XA,Lelystad,Lelystad,Flevoland,VBO,5.485363,52.524568
Marderhoek,17,,,8223XA,Lelystad,Lelystad,Flevoland,VBO,5.485557,52.524575
Marderhoek,18,,,8223XB,Lelystad,Lelystad,Flevoland,VBO,5.485924,52.524530
Marderhoek,19,,,8223XB,Lelystad,Lelystad,Flevoland,VBO,5.485929,52.524480
Marderhoek,20,,,8223XB,Lelystad,Lelystad,Flevoland,VBO,5.485936,52.524431
Marderhoek,21,,,8223XB,Lelystad,Lelystad,Flevoland,VBO,5.485939,52.524383
Marderhoek,22,,,8223XB,Lelystad,Lelystad,Flevoland,VBO,5.485946,52.524334
Marderhoek,23,,,8223XB,Lelystad,Lelystad,Flevoland,VBO,5.485950,52.524285
Marderhoek,24,,,8223XB,Lelystad,Lelystad,Flevoland,VBO,5.485648,52.524079
Marderhoek,25,,,8223XB,Lelystad,Lelystad,Flevoland,VBO,5.485844,52.524130
Marderhoek,26,,,8223XB,Lelystad,Lelystad,Flevoland,VBO,5.485648,52.524079
Marderhoek,27,,,8223XB,Lelystad,Lelystad,Flevoland,VBO,5.485844,52.524130
Marderhoek,28,,,8223XB,Lelystad,Lelystad,Flevoland,VBO,5.485648,52.524079
Marderhoek,29,,,8223XB,Lelystad,Lelystad,Flevoland,VBO,5.485844,52.524130
Marderhoek,30,,,8223XC,Lelystad,Lelystad,Flevoland,VBO,5.485984,52.523933
Marderhoek,31,,,8223XC,Lelystad,Lelystad,Flevoland,VBO,5.485988,52.523883
Marderhoek,32,,,8223XC,Lelystad,Lelystad,Flevoland,VBO,5.485994,52.523835
Marderhoek,33,,,8223XC,Lelystad,Lelystad,Flevoland,VBO,5.485999,52.523786
Marderhoek,34,,,8223XC,Lelystad,Lelystad,Flevoland,VBO,5.486004,52.523738
Marderhoek,35,,,8223XC,Lelystad,Lelystad,Flevoland,VBO,5.486009,52.523690
Marderhoek,36,,,8223XC,Lelystad,Lelystad,Flevoland,VBO,5.486013,52.523641
Marderhoek,37,,,8223XC,Lelystad,Lelystad,Flevoland,VBO,5.486017,52.523593
Marderhoek,38,,,8223XC,Lelystad,Lelystad,Flevoland,VBO,5.486022,52.523544
Marderhoek,39,,,8223XC,Lelystad,Lelystad,Flevoland,VBO,5.486028,52.523495
Marderhoek,40,,,8223XC,Lelystad,Lelystad,Flevoland,VBO,5.485926,52.523333
Marderhoek,41,,,8223XC,Lelystad,Lelystad,Flevoland,VBO,5.485843,52.523330
Marderhoek,42,,,8223XC,Lelystad,Lelystad,Flevoland,VBO,5.485766,52.523327
Marderhoek,43,,,8223XC,Lelystad,Lelystad,Flevoland,VBO,5.485686,52.523324
Marderhoek,44,,,8223XC,Lelystad,Lelystad,Flevoland,VBO,5.485607,52.523321
Marderhoek,45,,,8223XC,Lelystad,Lelystad,Flevoland,VBO,5.485527,52.523318
Marderhoek,46,,,8223XC,Lelystad,Lelystad,Flevoland,VBO,5.485448,52.523315
Marderhoek,47,,,8223XC,Lelystad,Lelystad,Flevoland,VBO,5.485368,52.523312
Marderhoek,48,,,8223XC,Lelystad,Lelystad,Flevoland,VBO,5.485289,52.523309
Marderhoek,49,,,8223XC,Lelystad,Lelystad,Flevoland,VBO,5.485207,52.523306
Marderhoek,50,,,8223XD,Lelystad,Lelystad,Flevoland,VBO,5.484943,52.523368
Marderhoek,51,,,8223XD,Lelystad,Lelystad,Flevoland,VBO,5.484935,52.523418
Marderhoek,52,,,8223XD,Lelystad,Lelystad,Flevoland,VBO,5.484932,52.523466
Marderhoek,53,,,8223XD,Lelystad,Lelystad,Flevoland,VBO,5.484927,52.523515
Marderhoek,54,,,8223XD,Lelystad,Lelystad,Flevoland,VBO,5.484922,52.523563
Marderhoek,55,,,8223XD,Lelystad,Lelystad,Flevoland,VBO,5.484918,52.523613
Marderhoek,56,,,8223XD,Lelystad,Lelystad,Flevoland,VBO,5.484998,52.523758
Marderhoek,57,,,8223XD,Lelystad,Lelystad,Flevoland,VBO,5.485194,52.523809
Marderhoek,58,,,8223XD,Lelystad,Lelystad,Flevoland,VBO,5.484998,52.523758
Marderhoek,59,,,8223XD,Lelystad,Lelystad,Flevoland,VBO,5.485194,52.523809
Marderhoek,60,,,8223XD,Lelystad,Lelystad,Flevoland,VBO,5.484998,52.523758
Marderhoek,61,,,8223XD,Lelystad,Lelystad,Flevoland,VBO,5.485194,52.523809
Marderhoek,62,,,8223XD,Lelystad,Lelystad,Flevoland,VBO,5.485284,52.523725
Malzwin,1,,,8223XE,Lelystad,Lelystad,Flevoland,VBO,5.487443,52.523645
Malzwin,2,,,8223XE,Lelystad,Lelystad,Flevoland,VBO,5.487370,52.523640
Malzwin,3,,,8223XE,Lelystad,Lelystad,Flevoland,VBO,5.487298,52.523638
Malzwin,4,,,8223XE,Lelystad,Lelystad,Flevoland,VBO,5.487226,52.523635
Malzwin,5,,,8223XE,Lelystad,Lelystad,Flevoland,VBO,5.487154,52.523632
Malzwin,6,,,8223XE,Lelystad,Lelystad,Flevoland,VBO,5.487079,52.523630
Malzwin,8,,,8223XE,Lelystad,Lelystad,Flevoland,VBO,5.487058,52.523806
Malzwin,9,,,8223XE,Lelystad,Lelystad,Flevoland,VBO,5.487049,52.523873
Malzwin,10,,,8223XE,Lelystad,Lelystad,Flevoland,VBO,5.487038,52.523939
Malzwin,11,,,8223XE,Lelystad,Lelystad,Flevoland,VBO,5.487032,52.524007
Malzwin,13,,,8223XE,Lelystad,Lelystad,Flevoland,VBO,5.487340,52.524276
Malzwin,14,,,8223XE,Lelystad,Lelystad,Flevoland,VBO,5.487332,52.524322
Malzwin,15,,,8223XE,Lelystad,Lelystad,Flevoland,VBO,5.487328,52.524366
Malzwin,16,,,8223XE,Lelystad,Lelystad,Flevoland,VBO,5.487323,52.524410
Malzwin,17,,,8223XE,Lelystad,Lelystad,Flevoland,VBO,5.487319,52.524454
Malzwin,18,,,8223XE,Lelystad,Lelystad,Flevoland,VBO,5.487315,52.524498
Malzwin,19,,,8223XE,Lelystad,Lelystad,Flevoland,VBO,5.487311,52.524542
Malzwin,20,,,8223XE,Lelystad,Lelystad,Flevoland,VBO,5.487311,52.524588
Malzwin,21,,,8223XG,Lelystad,Lelystad,Flevoland,VBO,5.487993,52.524756
Malzwin,22,,,8223XG,Lelystad,Lelystad,Flevoland,VBO,5.487998,52.524711
Malzwin,23,,,8223XG,Lelystad,Lelystad,Flevoland,VBO,5.488003,52.524666
Malzwin,24,,,8223XG,Lelystad,Lelystad,Flevoland,VBO,5.488007,52.524622
Malzwin,25,,,8223XG,Lelystad,Lelystad,Flevoland,VBO,5.488017,52.524571
Malzwin,26,,,8223XG,Lelystad,Lelystad,Flevoland,VBO,5.488019,52.524531
Malzwin,27,,,8223XG,Lelystad,Lelystad,Flevoland,VBO,5.488019,52.524480
Malzwin,28,,,8223XG,Lelystad,Lelystad,Flevoland,VBO,5.488031,52.524436
Malzwin,29,,,8223XG,Lelystad,Lelystad,Flevoland,VBO,5.488072,52.524281
Malzwin,30,,,8223XG,Lelystad,Lelystad,Flevoland,VBO,5.487997,52.524276
Malzwin,31,,,8223XG,Lelystad,Lelystad,Flevoland,VBO,5.487923,52.524273
Malzwin,32,,,8223XG,Lelystad,Lelystad,Flevoland,VBO,5.487853,52.524271
Malzwin,33,,,8223XG,Lelystad,Lelystad,Flevoland,VBO,5.487781,52.524268
Malzwin,34,,,8223XG,Lelystad,Lelystad,Flevoland,VBO,5.487706,52.524267
Malzwin,36,,,8223XG,Lelystad,Lelystad,Flevoland,VBO,5.487788,52.524026
Malzwin,37,,,8223XG,Lelystad,Lelystad,Flevoland,VBO,5.487794,52.523965
Malzwin,38,,,8223XG,Lelystad,Lelystad,Flevoland,VBO,5.487800,52.523899
Malzwin,39,,,8223XG,Lelystad,Lelystad,Flevoland,VBO,5.487807,52.523833
Malzwin,40,,,8223XG,Lelystad,Lelystad,Flevoland,VBO,5.487813,52.523767
Malzwin,41,,,8223XG,Lelystad,Lelystad,Flevoland,VBO,5.487817,52.523707
Texelstroom,1,,,8223XH,Lelystad,Lelystad,Flevoland,VBO,5.488709,52.523693
Texelstroom,2,,,8223XH,Lelystad,Lelystad,Flevoland,VBO,5.488635,52.523687
Texelstroom,3,,,8223XH,Lelystad,Lelystad,Flevoland,VBO,5.488563,52.523684
Texelstroom,4,,,8223XH,Lelystad,Lelystad,Flevoland,VBO,5.488491,52.523682
Texelstroom,5,,,8223XH,Lelystad,Lelystad,Flevoland,VBO,5.488419,52.523679
Texelstroom,6,,,8223XH,Lelystad,Lelystad,Flevoland,VBO,5.488344,52.523676
Texelstroom,7,,,8223XH,Lelystad,Lelystad,Flevoland,VBO,5.488325,52.523841
Texelstroom,8,,,8223XH,Lelystad,Lelystad,Flevoland,VBO,5.488318,52.523887
Texelstroom,9,,,8223XH,Lelystad,Lelystad,Flevoland,VBO,5.488314,52.523931
Texelstroom,10,,,8223XH,Lelystad,Lelystad,Flevoland,VBO,5.488305,52.523975
Texelstroom,11,,,8223XH,Lelystad,Lelystad,Flevoland,VBO,5.488300,52.524019
Texelstroom,12,,,8223XH,Lelystad,Lelystad,Flevoland,VBO,5.488300,52.524065
Texelstroom,13,A,,8223XH,Lelystad,Lelystad,Flevoland,VBO,5.488627,52.524291
Texelstroom,13,B,,8223XH,Lelystad,Lelystad,Flevoland,VBO,5.488630,52.524295
Texelstroom,13,,,8223XH,Lelystad,Lelystad,Flevoland,VBO,5.488591,52.524299
Texelstroom,14,A,,8223XH,Lelystad,Lelystad,Flevoland,VBO,5.488614,52.524346
Texelstroom,14,B,,8223XH,Lelystad,Lelystad,Flevoland,VBO,5.488619,52.524342
Texelstroom,14,,,8223XH,Lelystad,Lelystad,Flevoland,VBO,5.488587,52.524345
Texelstroom,15,A,,8223XH,Lelystad,Lelystad,Flevoland,VBO,5.488604,52.524394
Texelstroom,15,B,,8223XH,Lelystad,Lelystad,Flevoland,VBO,5.488606,52.524392
Texelstroom,15,,,8223XH,Lelystad,Lelystad,Flevoland,VBO,5.488582,52.524390
Texelstroom,16,,,8223XJ,Lelystad,Lelystad,Flevoland,VBO,5.488634,52.524466
Texelstroom,17,A,,8223XJ,Lelystad,Lelystad,Flevoland,VBO,5.488622,52.524509
Texelstroom,17,B,,8223XJ,Lelystad,Lelystad,Flevoland,VBO,5.488577,52.524510
Texelstroom,17,C,,8223XJ,Lelystad,Lelystad,Flevoland,VBO,5.488672,52.524520
Texelstroom,18,,,8223XJ,Lelystad,Lelystad,Flevoland,VBO,5.488625,52.524556
Texelstroom,19,,,8223XJ,Lelystad,Lelystad,Flevoland,VBO,5.488621,52.524600
Texelstroom,20,,,8223XJ,Lelystad,Lelystad,Flevoland,VBO,5.488618,52.524645
Texelstroom,21,,,8223XJ,Lelystad,Lelystad,Flevoland,VBO,5.488613,52.524689
Texelstroom,22,,,8223XJ,Lelystad,Lelystad,Flevoland,VBO,5.488610,52.524733
Texelstroom,23,,,8223XJ,Lelystad,Lelystad,Flevoland,VBO,5.488605,52.524779
Texelstroom,26,,,8223XJ,Lelystad,Lelystad,Flevoland,VBO,5.489316,52.524671
Texelstroom,27,,,8223XJ,Lelystad,Lelystad,Flevoland,VBO,5.489319,52.524625
Texelstroom,28,,,8223XJ,Lelystad,Lelystad,Flevoland,VBO,5.489323,52.524581
Texelstroom,29,,,8223XJ,Lelystad,Lelystad,Flevoland,VBO,5.489326,52.524537
Texelstroom,30,,,8223XJ,Lelystad,Lelystad,Flevoland,VBO,5.489330,52.524493
Texelstroom,31,,,8223XJ,Lelystad,Lelystad,Flevoland,VBO,5.489328,52.524447
Texelstroom,32,,,8223XK,Lelystad,Lelystad,Flevoland,VBO,5.489343,52.524286
Texelstroom,33,,,8223XK,Lelystad,Lelystad,Flevoland,VBO,5.489267,52.524281
Texelstroom,34,,,8223XK,Lelystad,Lelystad,Flevoland,VBO,5.489195,52.524278
Texelstroom,35,,,8223XK,Lelystad,Lelystad,Flevoland,VBO,5.489123,52.524275
Texelstroom,36,,,8223XK,Lelystad,Lelystad,Flevoland,VBO,5.489051,52.524273
Texelstroom,37,,,8223XK,Lelystad,Lelystad,Flevoland,VBO,5.488975,52.524272
Texelstroom,38,,,8223XK,Lelystad,Lelystad,Flevoland,VBO,5.489050,52.524069
Texelstroom,39,,,8223XK,Lelystad,Lelystad,Flevoland,VBO,5.489058,52.524023
Texelstroom,40,,,8223XK,Lelystad,Lelystad,Flevoland,VBO,5.489062,52.523979
Texelstroom,41,,,8223XK,Lelystad,Lelystad,Flevoland,VBO,5.489065,52.523935
Texelstroom,42,,,8223XK,Lelystad,Lelystad,Flevoland,VBO,5.489071,52.523891
Texelstroom,43,,,8223XK,Lelystad,Lelystad,Flevoland,VBO,5.489075,52.523847
Texelstroom,44,,,8223XK,Lelystad,Lelystad,Flevoland,VBO,5.489080,52.523803
Texelstroom,45,,,8223XK,Lelystad,Lelystad,Flevoland,VBO,5.489081,52.523757
Amsteldiep,1,,,8223XL,Lelystad,Lelystad,Flevoland,VBO,5.489971,52.523740
Amsteldiep,2,,,8223XL,Lelystad,Lelystad,Flevoland,VBO,5.489897,52.523734
Amsteldiep,3,,,8223XL,Lelystad,Lelystad,Flevoland,VBO,5.489825,52.523731
Amsteldiep,4,,,8223XL,Lelystad,Lelystad,Flevoland,VBO,5.489753,52.523729
Amsteldiep,5,,,8223XL,Lelystad,Lelystad,Flevoland,VBO,5.489681,52.523726
Amsteldiep,6,T,,8223XL,Lelystad,Lelystad,Flevoland,VBO,5.489536,52.523819
Amsteldiep,6,,,8223XL,Lelystad,Lelystad,Flevoland,VBO,5.489606,52.523723
Amsteldiep,7,,,8223XL,Lelystad,Lelystad,Flevoland,VBO,5.489588,52.523888
Amsteldiep,8,,,8223XL,Lelystad,Lelystad,Flevoland,VBO,5.489581,52.523934
Amsteldiep,9,,,8223XL,Lelystad,Lelystad,Flevoland,VBO,5.489576,52.523978
Amsteldiep,10,,,8223XL,Lelystad,Lelystad,Flevoland,VBO,5.489568,52.524022
Amsteldiep,11,,,8223XL,Lelystad,Lelystad,Flevoland,VBO,5.489563,52.524066
Amsteldiep,12,,,8223XL,Lelystad,Lelystad,Flevoland,VBO,5.489564,52.524112
Amsteldiep,13,,,8223XL,Lelystad,Lelystad,Flevoland,VBO,5.489867,52.524405
Amsteldiep,14,,,8223XL,Lelystad,Lelystad,Flevoland,VBO,5.489859,52.524450
Amsteldiep,15,,,8223XL,Lelystad,Lelystad,Flevoland,VBO,5.489854,52.524494
Amsteldiep,16,,,8223XL,Lelystad,Lelystad,Flevoland,VBO,5.489850,52.524538
Amsteldiep,17,,,8223XL,Lelystad,Lelystad,Flevoland,VBO,5.489845,52.524582
Amsteldiep,18,,,8223XL,Lelystad,Lelystad,Flevoland,VBO,5.489841,52.524626
Amsteldiep,19,,,8223XL,Lelystad,Lelystad,Flevoland,VBO,5.489836,52.524670
Amsteldiep,20,,,8223XL,Lelystad,Lelystad,Flevoland,VBO,5.489837,52.524716
Amsteldiep,21,,,8223XM,Lelystad,Lelystad,Flevoland,VBO,5.490520,52.524849
Amsteldiep,22,,,8223XM,Lelystad,Lelystad,Flevoland,VBO,5.490526,52.524803
Amsteldiep,23,,,8223XM,Lelystad,Lelystad,Flevoland,VBO,5.490530,52.524758
Amsteldiep,24,,,8223XM,Lelystad,Lelystad,Flevoland,VBO,5.490535,52.524714
Amsteldiep,25,,,8223XM,Lelystad,Lelystad,Flevoland,VBO,5.490539,52.524670
Amsteldiep,26,,,8223XM,Lelystad,Lelystad,Flevoland,VBO,5.490543,52.524625
Amsteldiep,27,,,8223XM,Lelystad,Lelystad,Flevoland,VBO,5.490547,52.524581
Amsteldiep,28,,,8223XM,Lelystad,Lelystad,Flevoland,VBO,5.490553,52.524535
Amsteldiep,29,,,8223XM,Lelystad,Lelystad,Flevoland,VBO,5.490602,52.524374
Amsteldiep,30,,,8223XM,Lelystad,Lelystad,Flevoland,VBO,5.490526,52.524369
Amsteldiep,31,,,8223XM,Lelystad,Lelystad,Flevoland,VBO,5.490453,52.524366
Amsteldiep,32,,,8223XM,Lelystad,Lelystad,Flevoland,VBO,5.490383,52.524364
Amsteldiep,33,,,8223XM,Lelystad,Lelystad,Flevoland,VBO,5.490311,52.524361
Amsteldiep,34,,,8223XM,Lelystad,Lelystad,Flevoland,VBO,5.490235,52.524360
Amsteldiep,35,,,8223XM,Lelystad,Lelystad,Flevoland,VBO,5.490313,52.524115
Amsteldiep,36,,,8223XM,Lelystad,Lelystad,Flevoland,VBO,5.490321,52.524069
Amsteldiep,37,,,8223XM,Lelystad,Lelystad,Flevoland,VBO,5.490325,52.524025
Amsteldiep,38,,,8223XM,Lelystad,Lelystad,Flevoland,VBO,5.490330,52.523981
Amsteldiep,39,,,8223XM,Lelystad,Lelystad,Flevoland,VBO,5.490334,52.523937
Amsteldiep,40,,,8223XM,Lelystad,Lelystad,Flevoland,VBO,5.490339,52.523893
Amsteldiep,41,,,8223XM,Lelystad,Lelystad,Flevoland,VBO,5.490342,52.523849
Amsteldiep,42,,,8223XM,Lelystad,Lelystad,Flevoland,VBO,5.490345,52.523803
Blauwe Slenk,1,,,8223XN,Lelystad,Lelystad,Flevoland,VBO,5.491237,52.523784
Blauwe Slenk,2,,,8223XN,Lelystad,Lelystad,Flevoland,VBO,5.491164,52.523779
Blauwe Slenk,3,,,8223XN,Lelystad,Lelystad,Flevoland,VBO,5.491092,52.523777
Blauwe Slenk,4,,,8223XN,Lelystad,Lelystad,Flevoland,VBO,5.491020,52.523774
Blauwe Slenk,5,,,8223XN,Lelystad,Lelystad,Flevoland,VBO,5.490947,52.523772
Blauwe Slenk,6,,,8223XN,Lelystad,Lelystad,Flevoland,VBO,5.490873,52.523769
Blauwe Slenk,7,,,8223XN,Lelystad,Lelystad,Flevoland,VBO,5.490853,52.523934
Blauwe Slenk,8,,,8223XN,Lelystad,Lelystad,Flevoland,VBO,5.490846,52.523979
Blauwe Slenk,9,,,8223XN,Lelystad,Lelystad,Flevoland,VBO,5.490841,52.524023
Blauwe Slenk,10,,,8223XN,Lelystad,Lelystad,Flevoland,VBO,5.490833,52.524067
Blauwe Slenk,11,,,8223XN,Lelystad,Lelystad,Flevoland,VBO,5.490827,52.524111
Blauwe Slenk,12,,,8223XN,Lelystad,Lelystad,Flevoland,VBO,5.490828,52.524157
Blauwe Slenk,13,A,,8223XN,Lelystad,Lelystad,Flevoland,VBO,5.491108,52.524388
Blauwe Slenk,13,B,,8223XN,Lelystad,Lelystad,Flevoland,VBO,5.491104,52.524386
Blauwe Slenk,13,,,8223XN,Lelystad,Lelystad,Flevoland,VBO,5.491121,52.524391
Blauwe Slenk,14,A,,8223XN,Lelystad,Lelystad,Flevoland,VBO,5.491108,52.524436
Blauwe Slenk,14,B,,8223XN,Lelystad,Lelystad,Flevoland,VBO,5.491100,52.524432
Blauwe Slenk,14,,,8223XN,Lelystad,Lelystad,Flevoland,VBO,5.491117,52.524437
Blauwe Slenk,15,A,,8223XN,Lelystad,Lelystad,Flevoland,VBO,5.491103,52.524478
Blauwe Slenk,15,B,,8223XN,Lelystad,Lelystad,Flevoland,VBO,5.491109,52.524481
Blauwe Slenk,15,,,8223XN,Lelystad,Lelystad,Flevoland,VBO,5.491112,52.524482
Blauwe Slenk,16,,,8223XP,Lelystad,Lelystad,Flevoland,VBO,5.491163,52.524557
Blauwe Slenk,17,,,8223XP,Lelystad,Lelystad,Flevoland,VBO,5.491159,52.524603
Blauwe Slenk,18,,,8223XP,Lelystad,Lelystad,Flevoland,VBO,5.491155,52.524648
Blauwe Slenk,19,,,8223XP,Lelystad,Lelystad,Flevoland,VBO,5.491151,52.524692
Blauwe Slenk,20,,,8223XP,Lelystad,Lelystad,Flevoland,VBO,5.491148,52.524737
Blauwe Slenk,21,,,8223XP,Lelystad,Lelystad,Flevoland,VBO,5.491143,52.524781
Blauwe Slenk,22,,,8223XP,Lelystad,Lelystad,Flevoland,VBO,5.491140,52.524826
Blauwe Slenk,23,,,8223XP,Lelystad,Lelystad,Flevoland,VBO,5.491135,52.524871
Blauwe Slenk,26,,,8223XP,Lelystad,Lelystad,Flevoland,VBO,5.491845,52.524765
Blauwe Slenk,27,,,8223XP,Lelystad,Lelystad,Flevoland,VBO,5.491850,52.524719
Blauwe Slenk,28,,,8223XP,Lelystad,Lelystad,Flevoland,VBO,5.491854,52.524675
Blauwe Slenk,29,,,8223XP,Lelystad,Lelystad,Flevoland,VBO,5.491859,52.524631
Blauwe Slenk,30,,,8223XP,Lelystad,Lelystad,Flevoland,VBO,5.491863,52.524588
Blauwe Slenk,31,,,8223XP,Lelystad,Lelystad,Flevoland,VBO,5.491863,52.524541
Blauwe Slenk,32,,,8223XR,Lelystad,Lelystad,Flevoland,VBO,5.491871,52.524377
Blauwe Slenk,33,,,8223XR,Lelystad,Lelystad,Flevoland,VBO,5.491795,52.524373
Blauwe Slenk,34,,,8223XR,Lelystad,Lelystad,Flevoland,VBO,5.491723,52.524370
Blauwe Slenk,35,,,8223XR,Lelystad,Lelystad,Flevoland,VBO,5.491651,52.524367
Blauwe Slenk,36,,,8223XR,Lelystad,Lelystad,Flevoland,VBO,5.491579,52.524365
Blauwe Slenk,37,,,8223XR,Lelystad,Lelystad,Flevoland,VBO,5.491503,52.524364
Blauwe Slenk,38,,,8223XR,Lelystad,Lelystad,Flevoland,VBO,5.491579,52.524160
Blauwe Slenk,39,,,8223XR,Lelystad,Lelystad,Flevoland,VBO,5.491587,52.524114
Blauwe Slenk,40,,,8223XR,Lelystad,Lelystad,Flevoland,VBO,5.491591,52.524070
Blauwe Slenk,41,,,8223XR,Lelystad,Lelystad,Flevoland,VBO,5.491594,52.524027
Blauwe Slenk,42,,,8223XR,Lelystad,Lelystad,Flevoland,VBO,5.491600,52.523982
Blauwe Slenk,43,,,8223XR,Lelystad,Lelystad,Flevoland,VBO,5.491604,52.523939
Blauwe Slenk,44,,,8223XR,Lelystad,Lelystad,Flevoland,VBO,5.491608,52.523895
Blauwe Slenk,45,,,8223XR,Lelystad,Lelystad,Flevoland,VBO,5.491609,52.523849
Gelderse Hoek,1,,,8223ZA,Lelystad,Lelystad,Flevoland,VBO,5.478955,52.523335
Gelderse Hoek,2,,,8223ZA,Lelystad,Lelystad,Flevoland,VBO,5.479151,52.523386
Gelderse Hoek,3,,,8223ZA,Lelystad,Lelystad,Flevoland,VBO,5.478955,52.523335
Gelderse Hoek,4,,,8223ZA,Lelystad,Lelystad,Flevoland,VBO,5.479151,52.523386
Gelderse Hoek,5,,,8223ZA,Lelystad,Lelystad,Flevoland,VBO,5.478955,52.523335
Gelderse Hoek,6,,,8223ZA,Lelystad,Lelystad,Flevoland,VBO,5.479151,52.523386
Gelderse Hoek,7,,,8223ZA,Lelystad,Lelystad,Flevoland,VBO,5.478876,52.523150
Gelderse Hoek,8,,,8223ZA,Lelystad,Lelystad,Flevoland,VBO,5.478802,52.523147
Gelderse Hoek,9,,,8223ZA,Lelystad,Lelystad,Flevoland,VBO,5.478730,52.523144
Gelderse Hoek,10,,,8223ZA,Lelystad,Lelystad,Flevoland,VBO,5.478654,52.523142
Gelderse Hoek,11,,,8223ZA,Lelystad,Lelystad,Flevoland,VBO,5.478580,52.523139
Gelderse Hoek,12,,,8223ZA,Lelystad,Lelystad,Flevoland,VBO,5.478510,52.523136
Gelderse Hoek,13,,,8223ZA,Lelystad,Lelystad,Flevoland,VBO,5.478438,52.523133
Gelderse Hoek,14,,,8223ZA,Lelystad,Lelystad,Flevoland,VBO,5.478364,52.523131
Gelderse Hoek,15,,,8223ZA,Lelystad,Lelystad,Flevoland,VBO,5.478088,52.523165
Gelderse Hoek,16,,,8223ZA,Lelystad,Lelystad,Flevoland,VBO,5.478083,52.523210
Gelderse Hoek,17,,,8223ZA,Lelystad,Lelystad,Flevoland,VBO,5.478078,52.523254
Gelderse Hoek,18,,,8223ZA,Lelystad,Lelystad,Flevoland,VBO,5.478074,52.523298
Gelderse Hoek,19,,,8223ZA,Lelystad,Lelystad,Flevoland,VBO,5.478070,52.523342
Gelderse Hoek,20,,,8223ZA,Lelystad,Lelystad,Flevoland,VBO,5.478067,52.523387
Gelderse Hoek,21,,,8223ZB,Lelystad,Lelystad,Flevoland,VBO,5.478148,52.523531
Gelderse Hoek,22,,,8223ZB,Lelystad,Lelystad,Flevoland,VBO,5.478343,52.523582
Gelderse Hoek,23,,,8223ZB,Lelystad,Lelystad,Flevoland,VBO,5.478148,52.523531
Gelderse Hoek,24,,,8223ZB,Lelystad,Lelystad,Flevoland,VBO,5.478343,52.523582
Gelderse Hoek,25,,,8223ZB,Lelystad,Lelystad,Flevoland,VBO,5.478148,52.523531
Gelderse Hoek,26,,,8223ZB,Lelystad,Lelystad,Flevoland,VBO,5.478343,52.523582
Gelderse Hoek,27,,,8223ZB,Lelystad,Lelystad,Flevoland,VBO,5.478438,52.523479
Gelderse Hoek,28,,,8223ZB,Lelystad,Lelystad,Flevoland,VBO,5.478594,52.523895
Gelderse Hoek,29,,,8223ZB,Lelystad,Lelystad,Flevoland,VBO,5.478520,52.523893
Gelderse Hoek,30,,,8223ZB,Lelystad,Lelystad,Flevoland,VBO,5.478448,52.523890
Gelderse Hoek,31,,,8223ZB,Lelystad,Lelystad,Flevoland,VBO,5.478374,52.523887
Gelderse Hoek,32,,,8223ZB,Lelystad,Lelystad,Flevoland,VBO,5.478304,52.523885
Gelderse Hoek,33,,,8223ZB,Lelystad,Lelystad,Flevoland,VBO,5.478232,52.523882
Gelderse Hoek,34,,,8223ZB,Lelystad,Lelystad,Flevoland,VBO,5.478160,52.523880
Gelderse Hoek,35,,,8223ZB,Lelystad,Lelystad,Flevoland,VBO,5.478086,52.523877
Gelderse Hoek,36,,,8223ZC,Lelystad,Lelystad,Flevoland,VBO,5.477990,52.524030
Gelderse Hoek,37,,,8223ZC,Lelystad,Lelystad,Flevoland,VBO,5.477985,52.524075
Gelderse Hoek,38,,,8223ZC,Lelystad,Lelystad,Flevoland,VBO,5.477981,52.524119
Gelderse Hoek,39,,,8223ZC,Lelystad,Lelystad,Flevoland,VBO,5.477977,52.524163
Gelderse Hoek,40,,,8223ZC,Lelystad,Lelystad,Flevoland,VBO,5.477972,52.524207
Gelderse Hoek,41,,,8223ZC,Lelystad,Lelystad,Flevoland,VBO,5.477966,52.524252
Gelderse Hoek,42,,,8223ZC,Lelystad,Lelystad,Flevoland,VBO,5.478450,52.524407
Gelderse Hoek,43,,,8223ZC,Lelystad,Lelystad,Flevoland,VBO,5.478454,52.524362
Gelderse Hoek,44,,,8223ZC,Lelystad,Lelystad,Flevoland,VBO,5.478458,52.524317
Gelderse Hoek,45,,,8223ZC,Lelystad,Lelystad,Flevoland,VBO,5.478463,52.524273
Gelderse Hoek,46,,,8223ZC,Lelystad,Lelystad,Flevoland,VBO,5.478467,52.524228
Gelderse Hoek,47,,,8223ZC,Lelystad,Lelystad,Flevoland,VBO,5.478472,52.524183
Gelderse Hoek,48,,,8223ZC,Lelystad,Lelystad,Flevoland,VBO,5.479036,52.524203
Gelderse Hoek,49,,,8223ZC,Lelystad,Lelystad,Flevoland,VBO,5.479032,52.524249
Gelderse Hoek,50,,,8223ZC,Lelystad,Lelystad,Flevoland,VBO,5.479027,52.524293
Gelderse Hoek,51,,,8223ZC,Lelystad,Lelystad,Flevoland,VBO,5.479021,52.524338
Gelderse Hoek,52,,,8223ZC,Lelystad,Lelystad,Flevoland,VBO,5.479019,52.524382
Gelderse Hoek,53,,,8223ZC,Lelystad,Lelystad,Flevoland,VBO,5.479014,52.524428
Gelderse Hoek,54,,,8223ZD,Lelystad,Lelystad,Flevoland,VBO,5.479520,52.524330
Gelderse Hoek,55,,,8223ZD,Lelystad,Lelystad,Flevoland,VBO,5.479524,52.524285
Gelderse Hoek,56,,,8223ZD,Lelystad,Lelystad,Flevoland,VBO,5.479528,52.524241
Gelderse Hoek,57,,,8223ZD,Lelystad,Lelystad,Flevoland,VBO,5.479532,52.524197
Gelderse Hoek,58,,,8223ZD,Lelystad,Lelystad,Flevoland,VBO,5.479537,52.524153
Gelderse Hoek,59,,,8223ZD,Lelystad,Lelystad,Flevoland,VBO,5.479541,52.524108
Gelderse Hoek,60,,,8223ZD,Lelystad,Lelystad,Flevoland,VBO,5.479198,52.523894
Gelderse Hoek,61,,,8223ZD,Lelystad,Lelystad,Flevoland,VBO,5.479393,52.523945
Gelderse Hoek,62,,,8223ZD,Lelystad,Lelystad,Flevoland,VBO,5.479198,52.523894
Gelderse Hoek,63,,,8223ZD,Lelystad,Lelystad,Flevoland,VBO,5.479393,52.523945
Gelderse Hoek,64,,,8223ZD,Lelystad,Lelystad,Flevoland,VBO,5.479198,52.523894
Gelderse Hoek,65,,,8223ZD,Lelystad,Lelystad,Flevoland,VBO,5.479393,52.523945
Gelderse Hoek,66,,,8223ZD,Lelystad,Lelystad,Flevoland,VBO,5.478941,52.523669
Gelderse Hoek,67,,,8223ZD,Lelystad,Lelystad,Flevoland,VBO,5.479137,52.523720
Gelderse Hoek,68,,,8223ZD,Lelystad,Lelystad,Flevoland,VBO,5.478941,52.523669
Gelderse Hoek,69,,,8223ZD,Lelystad,Lelystad,Flevoland,VBO,5.479137,52.523720
Gelderse Hoek,70,,,8223ZD,Lelystad,Lelystad,Flevoland,VBO,5.478941,52.523669
Gelderse Hoek,71,,,8223ZD,Lelystad,Lelystad,Flevoland,VBO,5.479137,52.523720
Hemmeland,1,,,8223ZE,Lelystad,Lelystad,Flevoland,VBO,5.480138,52.523994
Hemmeland,2,,,8223ZE,Lelystad,Lelystad,Flevoland,VBO,5.480135,52.524039
Hemmeland,3,,,8223ZE,Lelystad,Lelystad,Flevoland,VBO,5.480131,52.524083
Hemmeland,4,,,8223ZE,Lelystad,Lelystad,Flevoland,VBO,5.480127,52.524127
Hemmeland,5,,,8223ZE,Lelystad,Lelystad,Flevoland,VBO,5.480122,52.524171
Hemmeland,6,,,8223ZE,Lelystad,Lelystad,Flevoland,VBO,5.480118,52.524215
Hemmeland,7,,,8223ZE,Lelystad,Lelystad,Flevoland,VBO,5.480113,52.524259
Hemmeland,8,,,8223ZE,Lelystad,Lelystad,Flevoland,VBO,5.480109,52.524304
Hemmeland,9,,,8223ZE,Lelystad,Lelystad,Flevoland,VBO,5.480539,52.524483
Hemmeland,10,,,8223ZE,Lelystad,Lelystad,Flevoland,VBO,5.480539,52.524438
Hemmeland,11,,,8223ZE,Lelystad,Lelystad,Flevoland,VBO,5.480542,52.524393
Hemmeland,12,,,8223ZE,Lelystad,Lelystad,Flevoland,VBO,5.480549,52.524349
Hemmeland,13,,,8223ZE,Lelystad,Lelystad,Flevoland,VBO,5.480553,52.524304
Hemmeland,14,,,8223ZE,Lelystad,Lelystad,Flevoland,VBO,5.480558,52.524259
Hemmeland,15,,,8223ZE,Lelystad,Lelystad,Flevoland,VBO,5.481093,52.524279
Hemmeland,16,A,,8223ZE,Lelystad,Lelystad,Flevoland,VBO,5.481139,52.524325
Hemmeland,16,B,,8223ZE,Lelystad,Lelystad,Flevoland,VBO,5.481088,52.524324
Hemmeland,16,C,,8223ZE,Lelystad,Lelystad,Flevoland,VBO,5.481040,52.524322
Hemmeland,17,,,8223ZE,Lelystad,Lelystad,Flevoland,VBO,5.481084,52.524369
Hemmeland,18,A,,8223ZE,Lelystad,Lelystad,Flevoland,VBO,5.481093,52.524419
Hemmeland,18,B,,8223ZE,Lelystad,Lelystad,Flevoland,VBO,5.481053,52.524410
Hemmeland,18,,,8223ZE,Lelystad,Lelystad,Flevoland,VBO,5.481069,52.524417
Hemmeland,19,A,,8223ZE,Lelystad,Lelystad,Flevoland,VBO,5.481085,52.524454
Hemmeland,19,B,,8223ZE,Lelystad,Lelystad,Flevoland,VBO,5.481049,52.524452
Hemmeland,19,,,8223ZE,Lelystad,Lelystad,Flevoland,VBO,5.481066,52.524453
Hemmeland,20,A,,8223ZE,Lelystad,Lelystad,Flevoland,VBO,5.481085,52.524496
Hemmeland,20,B,,8223ZE,Lelystad,Lelystad,Flevoland,VBO,5.481044,52.524499
Hemmeland,20,,,8223ZE,Lelystad,Lelystad,Flevoland,VBO,5.481062,52.524507
Hemmeland,21,,,8223ZG,Lelystad,Lelystad,Flevoland,VBO,5.481758,52.524459
Hemmeland,22,,,8223ZG,Lelystad,Lelystad,Flevoland,VBO,5.481764,52.524413
Hemmeland,23,,,8223ZG,Lelystad,Lelystad,Flevoland,VBO,5.481768,52.524370
Hemmeland,24,,,8223ZG,Lelystad,Lelystad,Flevoland,VBO,5.481773,52.524326
Hemmeland,25,,,8223ZG,Lelystad,Lelystad,Flevoland,VBO,5.481777,52.524282
Hemmeland,26,,,8223ZG,Lelystad,Lelystad,Flevoland,VBO,5.481781,52.524238
Hemmeland,27,,,8223ZG,Lelystad,Lelystad,Flevoland,VBO,5.481785,52.524194
Hemmeland,28,,,8223ZG,Lelystad,Lelystad,Flevoland,VBO,5.481790,52.524150
Hemmeland,29,,,8223ZG,Lelystad,Lelystad,Flevoland,VBO,5.481794,52.524106
Hemmeland,30,,,8223ZG,Lelystad,Lelystad,Flevoland,VBO,5.481799,52.524061
Hemmeland,31,,,8223ZG,Lelystad,Lelystad,Flevoland,VBO,5.481547,52.524004
Hemmeland,32,,,8223ZG,Lelystad,Lelystad,Flevoland,VBO,5.481474,52.524002
Hemmeland,33,,,8223ZG,Lelystad,Lelystad,Flevoland,VBO,5.481402,52.523999
Hemmeland,34,,,8223ZG,Lelystad,Lelystad,Flevoland,VBO,5.481330,52.523996
Hemmeland,35,,,8223ZG,Lelystad,Lelystad,Flevoland,VBO,5.481258,52.523994
Hemmeland,36,,,8223ZG,Lelystad,Lelystad,Flevoland,VBO,5.481186,52.523991
Hemmeland,37,,,8223ZG,Lelystad,Lelystad,Flevoland,VBO,5.481113,52.523989
Hemmeland,38,,,8223ZG,Lelystad,Lelystad,Flevoland,VBO,5.481041,52.523986
Hemmeland,39,,,8223ZG,Lelystad,Lelystad,Flevoland,VBO,5.480969,52.523983
Hemmeland,40,,,8223ZG,Lelystad,Lelystad,Flevoland,VBO,5.480895,52.523981
Enkhuizerzand,1,,,8223ZH,Lelystad,Lelystad,Flevoland,VBO,5.483114,52.524062
Enkhuizerzand,2,,,8223ZH,Lelystad,Lelystad,Flevoland,VBO,5.483041,52.524059
Enkhuizerzand,3,,,8223ZH,Lelystad,Lelystad,Flevoland,VBO,5.482969,52.524057
Enkhuizerzand,4,,,8223ZH,Lelystad,Lelystad,Flevoland,VBO,5.482897,52.524054
Enkhuizerzand,5,,,8223ZH,Lelystad,Lelystad,Flevoland,VBO,5.482825,52.524051
Enkhuizerzand,6,,,8223ZH,Lelystad,Lelystad,Flevoland,VBO,5.482753,52.524049
Enkhuizerzand,7,,,8223ZH,Lelystad,Lelystad,Flevoland,VBO,5.482680,52.524046
Enkhuizerzand,8,,,8223ZH,Lelystad,Lelystad,Flevoland,VBO,5.482607,52.524043
Enkhuizerzand,9,,,8223ZH,Lelystad,Lelystad,Flevoland,VBO,5.482346,52.524080
Enkhuizerzand,10,,,8223ZH,Lelystad,Lelystad,Flevoland,VBO,5.482338,52.524125
Enkhuizerzand,11,,,8223ZH,Lelystad,Lelystad,Flevoland,VBO,5.482332,52.524169
Enkhuizerzand,12,,,8223ZH,Lelystad,Lelystad,Flevoland,VBO,5.482329,52.524213
Enkhuizerzand,13,,,8223ZH,Lelystad,Lelystad,Flevoland,VBO,5.482325,52.524257
Enkhuizerzand,14,,,8223ZH,Lelystad,Lelystad,Flevoland,VBO,5.482321,52.524301
Enkhuizerzand,15,,,8223ZH,Lelystad,Lelystad,Flevoland,VBO,5.482316,52.524345
Enkhuizerzand,16,,,8223ZH,Lelystad,Lelystad,Flevoland,VBO,5.482311,52.524389
Enkhuizerzand,17,,,8223ZH,Lelystad,Lelystad,Flevoland,VBO,5.482307,52.524433
Enkhuizerzand,18,,,8223ZH,Lelystad,Lelystad,Flevoland,VBO,5.482303,52.524479
Enkhuizerzand,19,,,8223ZJ,Lelystad,Lelystad,Flevoland,VBO,5.482975,52.524573
Enkhuizerzand,20,,,8223ZJ,Lelystad,Lelystad,Flevoland,VBO,5.482980,52.524527
Enkhuizerzand,21,,,8223ZJ,Lelystad,Lelystad,Flevoland,VBO,5.482983,52.524483
Enkhuizerzand,22,,,8223ZJ,Lelystad,Lelystad,Flevoland,VBO,5.482990,52.524438
Enkhuizerzand,23,,,8223ZJ,Lelystad,Lelystad,Flevoland,VBO,5.482994,52.524394
Enkhuizerzand,24,,,8223ZJ,Lelystad,Lelystad,Flevoland,VBO,5.483000,52.524348
Enkhuizerzand,25,,,8223ZJ,Lelystad,Lelystad,Flevoland,VBO,5.483534,52.524368
Enkhuizerzand,26,,,8223ZJ,Lelystad,Lelystad,Flevoland,VBO,5.483530,52.524414
Enkhuizerzand,27,,,8223ZJ,Lelystad,Lelystad,Flevoland,VBO,5.483526,52.524458
Enkhuizerzand,28,,,8223ZJ,Lelystad,Lelystad,Flevoland,VBO,5.483521,52.524502
Enkhuizerzand,29,,,8223ZJ,Lelystad,Lelystad,Flevoland,VBO,5.483517,52.524547
Enkhuizerzand,30,,,8223ZJ,Lelystad,Lelystad,Flevoland,VBO,5.483512,52.524593
Enkhuizerzand,31,,,8223ZK,Lelystad,Lelystad,Flevoland,VBO,5.484197,52.524548
Enkhuizerzand,32,,,8223ZK,Lelystad,Lelystad,Flevoland,VBO,5.484204,52.524503
Enkhuizerzand,33,,,8223ZK,Lelystad,Lelystad,Flevoland,VBO,5.484208,52.524459
Enkhuizerzand,34,,,8223ZK,Lelystad,Lelystad,Flevoland,VBO,5.484213,52.524415
Enkhuizerzand,35,,,8223ZK,Lelystad,Lelystad,Flevoland,VBO,5.484217,52.524371
Enkhuizerzand,36,,,8223ZK,Lelystad,Lelystad,Flevoland,VBO,5.484221,52.524327
Enkhuizerzand,37,,,8223ZK,Lelystad,Lelystad,Flevoland,VBO,5.484225,52.524283
Enkhuizerzand,38,,,8223ZK,Lelystad,Lelystad,Flevoland,VBO,5.484230,52.524239
Enkhuizerzand,39,,,8223ZK,Lelystad,Lelystad,Flevoland,VBO,5.484235,52.524196
Enkhuizerzand,40,,,8223ZK,Lelystad,Lelystad,Flevoland,VBO,5.484239,52.524150
Enkhuizerzand,41,,,8223ZK,Lelystad,Lelystad,Flevoland,VBO,5.483986,52.524094
Enkhuizerzand,42,,,8223ZK,Lelystad,Lelystad,Flevoland,VBO,5.483914,52.524091
Enkhuizerzand,43,,,8223ZK,Lelystad,Lelystad,Flevoland,VBO,5.483842,52.524088
Enkhuizerzand,44,,,8223ZK,Lelystad,Lelystad,Flevoland,VBO,5.483770,52.524086
Enkhuizerzand,45,,,8223ZK,Lelystad,Lelystad,Flevoland,VBO,5.483698,52.524083
Enkhuizerzand,46,,,8223ZK,Lelystad,Lelystad,Flevoland,VBO,5.483623,52.524080
Middelgronden,1,,,8223ZL,Lelystad,Lelystad,Flevoland,VBO,5.483534,52.523702
Middelgronden,2,A,,8223ZL,Lelystad,Lelystad,Flevoland,VBO,5.483611,52.523679
Middelgronden,2,B,,8223ZL,Lelystad,Lelystad,Flevoland,VBO,5.483611,52.523714
Middelgronden,2,C,,8223ZL,Lelystad,Lelystad,Flevoland,VBO,5.483617,52.523731
Middelgronden,3,,,8223ZL,Lelystad,Lelystad,Flevoland,VBO,5.483684,52.523707
Middelgronden,4,,,8223ZL,Lelystad,Lelystad,Flevoland,VBO,5.483757,52.523709
Middelgronden,5,,,8223ZL,Lelystad,Lelystad,Flevoland,VBO,5.483830,52.523712
Middelgronden,6,,,8223ZL,Lelystad,Lelystad,Flevoland,VBO,5.483902,52.523715
Middelgronden,7,,,8223ZL,Lelystad,Lelystad,Flevoland,VBO,5.483975,52.523717
Middelgronden,8,,,8223ZL,Lelystad,Lelystad,Flevoland,VBO,5.484050,52.523721
Middelgronden,9,T,,8223ZL,Lelystad,Lelystad,Flevoland,VBO,5.484180,52.523712
Middelgronden,9,,,8223ZL,Lelystad,Lelystad,Flevoland,VBO,5.484305,52.523675
Middelgronden,10,,,8223ZL,Lelystad,Lelystad,Flevoland,VBO,5.484305,52.523630
Middelgronden,11,,,8223ZL,Lelystad,Lelystad,Flevoland,VBO,5.484308,52.523586
Middelgronden,12,,,8223ZL,Lelystad,Lelystad,Flevoland,VBO,5.484314,52.523542
Middelgronden,13,,,8223ZL,Lelystad,Lelystad,Flevoland,VBO,5.484318,52.523498
Middelgronden,14,,,8223ZL,Lelystad,Lelystad,Flevoland,VBO,5.484323,52.523454
Middelgronden,15,,,8223ZL,Lelystad,Lelystad,Flevoland,VBO,5.484327,52.523410
Middelgronden,16,,,8223ZL,Lelystad,Lelystad,Flevoland,VBO,5.484331,52.523365
Middelgronden,17,,,8223ZL,Lelystad,Lelystad,Flevoland,VBO,5.483209,52.523004
Middelgronden,18,,,8223ZM,Lelystad,Lelystad,Flevoland,VBO,5.483672,52.523340
Middelgronden,19,,,8223ZM,Lelystad,Lelystad,Flevoland,VBO,5.483598,52.523337
Middelgronden,20,,,8223ZM,Lelystad,Lelystad,Flevoland,VBO,5.483527,52.523334
Middelgronden,21,,,8223ZM,Lelystad,Lelystad,Flevoland,VBO,5.483454,52.523332
Middelgronden,22,,,8223ZM,Lelystad,Lelystad,Flevoland,VBO,5.483384,52.523329
Middelgronden,23,,,8223ZM,Lelystad,Lelystad,Flevoland,VBO,5.483311,52.523326
Middelgronden,24,,,8223ZM,Lelystad,Lelystad,Flevoland,VBO,5.483239,52.523323
Middelgronden,25,,,8223ZM,Lelystad,Lelystad,Flevoland,VBO,5.483165,52.523321
Middelgronden,26,,,8223ZM,Lelystad,Lelystad,Flevoland,VBO,5.483068,52.523469
Middelgronden,27,,,8223ZM,Lelystad,Lelystad,Flevoland,VBO,5.483063,52.523514
Middelgronden,28,,,8223ZM,Lelystad,Lelystad,Flevoland,VBO,5.483058,52.523558
Middelgronden,29,,,8223ZM,Lelystad,Lelystad,Flevoland,VBO,5.483053,52.523602
Middelgronden,30,,,8223ZM,Lelystad,Lelystad,Flevoland,VBO,5.483049,52.523646
Middelgronden,31,,,8223ZM,Lelystad,Lelystad,Flevoland,VBO,5.483043,52.523691
Spaanderbank,1,,,8223ZN,Lelystad,Lelystad,Flevoland,VBO,5.482512,52.523671
Spaanderbank,2,,,8223ZN,Lelystad,Lelystad,Flevoland,VBO,5.482518,52.523626
Spaanderbank,3,,,8223ZN,Lelystad,Lelystad,Flevoland,VBO,5.482522,52.523582
Spaanderbank,4,,,8223ZN,Lelystad,Lelystad,Flevoland,VBO,5.482527,52.523538
Spaanderbank,5,,,8223ZN,Lelystad,Lelystad,Flevoland,VBO,5.482531,52.523494
Spaanderbank,6,,,8223ZN,Lelystad,Lelystad,Flevoland,VBO,5.482535,52.523449
Spaanderbank,10,,,8223ZP,Lelystad,Lelystad,Flevoland,VBO,5.481524,52.523163
Spaanderbank,11,,,8223ZP,Lelystad,Lelystad,Flevoland,VBO,5.481518,52.523208
Spaanderbank,12,,,8223ZP,Lelystad,Lelystad,Flevoland,VBO,5.481516,52.523252
Spaanderbank,13,,,8223ZP,Lelystad,Lelystad,Flevoland,VBO,5.481511,52.523296
Spaanderbank,14,,,8223ZP,Lelystad,Lelystad,Flevoland,VBO,5.481507,52.523340
Spaanderbank,15,,,8223ZP,Lelystad,Lelystad,Flevoland,VBO,5.481503,52.523384
Spaanderbank,16,,,8223ZP,Lelystad,Lelystad,Flevoland,VBO,5.481498,52.523428
Spaanderbank,17,,,8223ZP,Lelystad,Lelystad,Flevoland,VBO,5.481493,52.523473
Spaanderbank,18,,,8223ZP,Lelystad,Lelystad,Flevoland,VBO,5.481566,52.523630
Spaanderbank,19,,,8223ZP,Lelystad,Lelystad,Flevoland,VBO,5.481641,52.523632
Spaanderbank,20,,,8223ZP,Lelystad,Lelystad,Flevoland,VBO,5.481716,52.523635
Spaanderbank,21,,,8223ZP,Lelystad,Lelystad,Flevoland,VBO,5.481787,52.523638
Spaanderbank,22,,,8223ZP,Lelystad,Lelystad,Flevoland,VBO,5.481862,52.523640
Spaanderbank,23,,,8223ZP,Lelystad,Lelystad,Flevoland,VBO,5.481935,52.523643
Spaanderbank,24,,,8223ZP,Lelystad,Lelystad,Flevoland,VBO,5.482008,52.523646
Spaanderbank,25,,,8223ZP,Lelystad,Lelystad,Flevoland,VBO,5.482082,52.523649
Leekerhoek,1,,,8223ZR,Lelystad,Lelystad,Flevoland,VBO,5.480949,52.523615
Leekerhoek,2,,,8223ZR,Lelystad,Lelystad,Flevoland,VBO,5.480955,52.523570
Leekerhoek,3,,,8223ZR,Lelystad,Lelystad,Flevoland,VBO,5.480959,52.523526
Leekerhoek,4,,,8223ZR,Lelystad,Lelystad,Flevoland,VBO,5.480964,52.523482
Leekerhoek,5,,,8223ZR,Lelystad,Lelystad,Flevoland,VBO,5.480968,52.523438
Leekerhoek,6,,,8223ZR,Lelystad,Lelystad,Flevoland,VBO,5.480972,52.523393
Leekerhoek,7,,,8223ZR,Lelystad,Lelystad,Flevoland,VBO,5.480900,52.523238
Leekerhoek,8,,,8223ZR,Lelystad,Lelystad,Flevoland,VBO,5.480826,52.523235
Leekerhoek,9,,,8223ZR,Lelystad,Lelystad,Flevoland,VBO,5.480754,52.523232
Leekerhoek,10,,,8223ZR,Lelystad,Lelystad,Flevoland,VBO,5.480678,52.523230
Leekerhoek,11,,,8223ZR,Lelystad,Lelystad,Flevoland,VBO,5.480605,52.523227
Leekerhoek,12,,,8223ZR,Lelystad,Lelystad,Flevoland,VBO,5.480535,52.523224
Leekerhoek,13,,,8223ZR,Lelystad,Lelystad,Flevoland,VBO,5.480463,52.523222
Leekerhoek,14,,,8223ZR,Lelystad,Lelystad,Flevoland,VBO,5.480388,52.523219
Leekerhoek,15,,,8223ZR,Lelystad,Lelystad,Flevoland,VBO,5.480706,52.522861
Leekerhoek,16,,,8223ZR,Lelystad,Lelystad,Flevoland,VBO,5.480059,52.522884
Leekerhoek,17,,,8223ZS,Lelystad,Lelystad,Flevoland,VBO,5.479737,52.523196
Leekerhoek,18,,,8223ZS,Lelystad,Lelystad,Flevoland,VBO,5.479733,52.523241
Leekerhoek,19,,,8223ZS,Lelystad,Lelystad,Flevoland,VBO,5.479729,52.523285
Leekerhoek,20,,,8223ZS,Lelystad,Lelystad,Flevoland,VBO,5.479726,52.523329
Leekerhoek,21,,,8223ZS,Lelystad,Lelystad,Flevoland,VBO,5.479720,52.523373
Leekerhoek,22,,,8223ZS,Lelystad,Lelystad,Flevoland,VBO,5.479718,52.523417
Leekerhoek,23,,,8223ZS,Lelystad,Lelystad,Flevoland,VBO,5.479713,52.523461
Leekerhoek,24,T,,8223ZS,Lelystad,Lelystad,Flevoland,VBO,5.479827,52.523553
Leekerhoek,24,,,8223ZS,Lelystad,Lelystad,Flevoland,VBO,5.479709,52.523506
Leekerhoek,25,,,8223ZS,Lelystad,Lelystad,Flevoland,VBO,5.479952,52.523570
Leekerhoek,26,,,8223ZS,Lelystad,Lelystad,Flevoland,VBO,5.480026,52.523573
Leekerhoek,27,,,8223ZS,Lelystad,Lelystad,Flevoland,VBO,5.480099,52.523575
Leekerhoek,28,,,8223ZS,Lelystad,Lelystad,Flevoland,VBO,5.480172,52.523578
Leekerhoek,29,,,8223ZS,Lelystad,Lelystad,Flevoland,VBO,5.480245,52.523581
Leekerhoek,30,,,8223ZS,Lelystad,Lelystad,Flevoland,VBO,5.480317,52.523584
Leekerhoek,31,,,8223ZS,Lelystad,Lelystad,Flevoland,VBO,5.480389,52.523586
Leekerhoek,32,,,8223ZS,Lelystad,Lelystad,Flevoland,VBO,5.480466,52.523589
Zuiderzeelaan,9,,,8223ZZ,Lelystad,Lelystad,Flevoland,VBO,5.478373,52.522775
