openbareruimtenaam,huisnummer,huisletter,huisnummertoevoeging,postcode,woonplaatsnaam,gemeentenaam,provincienaam,typeadresseerbaarobject,longitude,latitude
De Regenboog,1,,,8254AA,Dronten,Dronten,Flevoland,VBO,5.727751,52.524218
De Regenboog,2,,,8254AA,Dronten,Dronten,Flevoland,VBO,5.727648,52.524236
De Regenboog,3,,,8254AA,Dronten,Dronten,Flevoland,VBO,5.727575,52.524245
De Regenboog,4,,,8254AA,Dronten,Dronten,Flevoland,VBO,5.727163,52.524318
De Regenboog,5,,,8254AA,Dronten,Dronten,Flevoland,VBO,5.727148,52.524247
De Regenboog,6,,,8254AA,Dronten,Dronten,Flevoland,VBO,5.727132,52.524175
De Regenboog,7,,,8254AA,Dronten,Dronten,Flevoland,VBO,5.727132,52.524121
De Regenboog,8,,,8254AA,Dronten,Dronten,Flevoland,VBO,5.726970,52.524121
De Regenboog,9,,,8254AA,Dronten,Dronten,Flevoland,VBO,5.726970,52.524175
De Regenboog,10,,,8254AA,Dronten,Dronten,Flevoland,VBO,5.726971,52.524256
De Regenboog,11,,,8254AA,Dronten,Dronten,Flevoland,VBO,5.727001,52.524319
De Regenboog,100,,,8254AB,Dronten,Dronten,Flevoland,VBO,5.725573,52.524691
De Regenboog,101,,,8254AB,Dronten,Dronten,Flevoland,VBO,5.725321,52.524051
De Regenboog,103,,,8254AB,Dronten,Dronten,Flevoland,VBO,5.725374,52.524049
De Regenboog,104,,,8254AB,Dronten,Dronten,Flevoland,VBO,5.725337,52.524026
De Regenboog,105,,,8254AB,Dronten,Dronten,Flevoland,VBO,5.725412,52.524069
De Regenboog,106,,,8254AB,Dronten,Dronten,Flevoland,VBO,5.725423,52.524039
De Regenboog,107,,,8254AB,Dronten,Dronten,Flevoland,VBO,5.725396,52.524009
De Regenboog,108,,,8254AB,Dronten,Dronten,Flevoland,VBO,5.725350,52.523996
De Regenboog,109,,,8254AB,Dronten,Dronten,Flevoland,VBO,5.725308,52.523986
De Regenboog,110,,,8254AB,Dronten,Dronten,Flevoland,VBO,5.725402,52.523988
De Regenboog,111,,,8254AB,Dronten,Dronten,Flevoland,VBO,5.725336,52.523964
De Regenboog,112,,,8254AB,Dronten,Dronten,Flevoland,VBO,5.725452,52.524016
De Regenboog,113,,,8254AB,Dronten,Dronten,Flevoland,VBO,5.725385,52.523967
De Regenboog,114,,,8254AB,Dronten,Dronten,Flevoland,VBO,5.725450,52.523993
De Regenboog,115,,,8254AB,Dronten,Dronten,Flevoland,VBO,5.725482,52.524056
De Regenboog,116,,,8254AB,Dronten,Dronten,Flevoland,VBO,5.725491,52.524041
De Regenboog,117,,,8254AB,Dronten,Dronten,Flevoland,VBO,5.725434,52.523967
De Regenboog,118,,,8254AB,Dronten,Dronten,Flevoland,VBO,5.725479,52.523766
De Regenboog,119,,,8254AB,Dronten,Dronten,Flevoland,VBO,5.725449,52.523757
De Regenboog,120,,,8254AB,Dronten,Dronten,Flevoland,VBO,5.725420,52.523766
De Regenboog,121,,,8254AB,Dronten,Dronten,Flevoland,VBO,5.725494,52.524013
De Regenboog,122,,,8254AB,Dronten,Dronten,Flevoland,VBO,5.725492,52.523990
De Regenboog,123,,,8254AB,Dronten,Dronten,Flevoland,VBO,5.725318,52.523943
De Regenboog,124,,,8254AB,Dronten,Dronten,Flevoland,VBO,5.725383,52.523949
De Regenboog,125,,,8254AB,Dronten,Dronten,Flevoland,VBO,5.725503,52.523961
De Regenboog,126,,,8254AB,Dronten,Dronten,Flevoland,VBO,5.725437,52.523933
De Regenboog,127,,,8254AB,Dronten,Dronten,Flevoland,VBO,5.725539,52.524046
De Regenboog,128,,,8254AB,Dronten,Dronten,Flevoland,VBO,5.725545,52.524027
De Regenboog,129,,,8254AB,Dronten,Dronten,Flevoland,VBO,5.725564,52.524003
De Regenboog,130,,,8254AB,Dronten,Dronten,Flevoland,VBO,5.725523,52.523766
De Regenboog,131,,,8254AB,Dronten,Dronten,Flevoland,VBO,5.725493,52.523748
De Regenboog,132,,,8254AB,Dronten,Dronten,Flevoland,VBO,5.725449,52.523748
De Regenboog,133,,,8254AB,Dronten,Dronten,Flevoland,VBO,5.725420,52.523748
De Regenboog,134,,,8254AB,Dronten,Dronten,Flevoland,VBO,5.725390,52.523766
De Regenboog,201,,,8254AC,Dronten,Dronten,Flevoland,VBO,5.725456,52.524081
De Regenboog,203,,,8254AC,Dronten,Dronten,Flevoland,VBO,5.725356,52.523927
De Regenboog,204,,,8254AC,Dronten,Dronten,Flevoland,VBO,5.725526,52.524077
De Regenboog,205,,,8254AC,Dronten,Dronten,Flevoland,VBO,5.725584,52.524066
De Regenboog,206,,,8254AC,Dronten,Dronten,Flevoland,VBO,5.725586,52.524040
De Regenboog,207,,,8254AC,Dronten,Dronten,Flevoland,VBO,5.725628,52.524050
De Regenboog,208,,,8254AC,Dronten,Dronten,Flevoland,VBO,5.725600,52.524018
De Regenboog,209,,,8254AC,Dronten,Dronten,Flevoland,VBO,5.725527,52.523988
De Regenboog,210,,,8254AC,Dronten,Dronten,Flevoland,VBO,5.725617,52.524001
De Regenboog,211,,,8254AC,Dronten,Dronten,Flevoland,VBO,5.725563,52.523980
De Regenboog,212,,,8254AC,Dronten,Dronten,Flevoland,VBO,5.725616,52.523974
De Regenboog,213,,,8254AC,Dronten,Dronten,Flevoland,VBO,5.725523,52.523748
De Regenboog,214,,,8254AC,Dronten,Dronten,Flevoland,VBO,5.725493,52.523739
De Regenboog,215,,,8254AC,Dronten,Dronten,Flevoland,VBO,5.725449,52.523730
De Regenboog,216,,,8254AC,Dronten,Dronten,Flevoland,VBO,5.725420,52.523739
De Regenboog,217,,,8254AC,Dronten,Dronten,Flevoland,VBO,5.725376,52.523748
De Regenboog,218,,,8254AC,Dronten,Dronten,Flevoland,VBO,5.725361,52.523757
De Regenboog,219,,,8254AC,Dronten,Dronten,Flevoland,VBO,5.725486,52.523938
De Regenboog,220,,,8254AC,Dronten,Dronten,Flevoland,VBO,5.725554,52.523961
De Regenboog,221,,,8254AC,Dronten,Dronten,Flevoland,VBO,5.725389,52.523920
De Regenboog,222,,,8254AC,Dronten,Dronten,Flevoland,VBO,5.725403,52.523853
De Regenboog,223,,,8254AC,Dronten,Dronten,Flevoland,VBO,5.725540,52.523937
De Regenboog,224,,,8254AC,Dronten,Dronten,Flevoland,VBO,5.725581,52.523935
De Regenboog,225,,,8254AC,Dronten,Dronten,Flevoland,VBO,5.725341,52.523900
De Regenboog,226,,,8254AC,Dronten,Dronten,Flevoland,VBO,5.725382,52.523899
De Regenboog,227,,,8254AC,Dronten,Dronten,Flevoland,VBO,5.725429,52.523896
De Regenboog,228,,,8254AC,Dronten,Dronten,Flevoland,VBO,5.725478,52.523915
De Regenboog,229,,,8254AC,Dronten,Dronten,Flevoland,VBO,5.725466,52.523897
De Regenboog,230,,,8254AC,Dronten,Dronten,Flevoland,VBO,5.725616,52.523950
De Regenboog,231,,,8254AC,Dronten,Dronten,Flevoland,VBO,5.725520,52.523913
De Regenboog,232,,,8254AC,Dronten,Dronten,Flevoland,VBO,5.725516,52.523887
De Regenboog,233,,,8254AC,Dronten,Dronten,Flevoland,VBO,5.725508,52.523730
De Regenboog,234,,,8254AC,Dronten,Dronten,Flevoland,VBO,5.725493,52.523721
De Regenboog,301,,,8254AD,Dronten,Dronten,Flevoland,VBO,5.725449,52.523721
De Regenboog,302,,,8254AD,Dronten,Dronten,Flevoland,VBO,5.725420,52.523721
De Regenboog,303,,,8254AD,Dronten,Dronten,Flevoland,VBO,5.725375,52.523730
De Regenboog,304,,,8254AD,Dronten,Dronten,Flevoland,VBO,5.725346,52.523739
De Regenboog,305,,,8254AD,Dronten,Dronten,Flevoland,VBO,5.725331,52.523757
De Regenboog,306,,,8254AD,Dronten,Dronten,Flevoland,VBO,5.725339,52.523882
De Regenboog,307,,,8254AD,Dronten,Dronten,Flevoland,VBO,5.725379,52.523878
De Regenboog,308,,,8254AD,Dronten,Dronten,Flevoland,VBO,5.725582,52.523833
De Regenboog,309,,,8254AD,Dronten,Dronten,Flevoland,VBO,5.725426,52.523874
De Regenboog,310,,,8254AD,Dronten,Dronten,Flevoland,VBO,5.725473,52.523869
De Regenboog,311,,,8254AD,Dronten,Dronten,Flevoland,VBO,5.725563,52.523914
De Regenboog,312,,,8254AD,Dronten,Dronten,Flevoland,VBO,5.725618,52.523930
De Regenboog,313,,,8254AD,Dronten,Dronten,Flevoland,VBO,5.725602,52.523907
De Regenboog,314,,,8254AD,Dronten,Dronten,Flevoland,VBO,5.725560,52.523890
De Regenboog,315,,,8254AD,Dronten,Dronten,Flevoland,VBO,5.725514,52.523862
De Regenboog,316,,,8254AD,Dronten,Dronten,Flevoland,VBO,5.725353,52.523856
De Regenboog,333,,,8254AD,Dronten,Dronten,Flevoland,VBO,5.725651,52.523832
De Regenboog,334,,,8254AD,Dronten,Dronten,Flevoland,VBO,5.725585,52.523802
De Regenboog,401,,,8254AE,Dronten,Dronten,Flevoland,VBO,5.725635,52.523798
De Regenboog,402,,,8254AE,Dronten,Dronten,Flevoland,VBO,5.726235,52.523860
De Regenboog,403,,,8254AE,Dronten,Dronten,Flevoland,VBO,5.725493,52.523703
De Regenboog,404,,,8254AE,Dronten,Dronten,Flevoland,VBO,5.725449,52.523703
De Regenboog,405,,,8254AE,Dronten,Dronten,Flevoland,VBO,5.725419,52.523703
De Regenboog,406,,,8254AE,Dronten,Dronten,Flevoland,VBO,5.725375,52.523712
De Regenboog,407,,,8254AE,Dronten,Dronten,Flevoland,VBO,5.725346,52.523721
De Regenboog,408,,,8254AE,Dronten,Dronten,Flevoland,VBO,5.725331,52.523739
De Regenboog,409,,,8254AE,Dronten,Dronten,Flevoland,VBO,5.725526,52.523833
De Regenboog,410,,,8254AE,Dronten,Dronten,Flevoland,VBO,5.726195,52.523862
De Regenboog,411,,,8254AE,Dronten,Dronten,Flevoland,VBO,5.725539,52.523808
De Regenboog,412,,,8254AE,Dronten,Dronten,Flevoland,VBO,5.725350,52.523643
De Regenboog,413,,,8254AE,Dronten,Dronten,Flevoland,VBO,5.725557,52.523863
De Regenboog,414,,,8254AE,Dronten,Dronten,Flevoland,VBO,5.725406,52.523637
De Regenboog,415,,,8254AE,Dronten,Dronten,Flevoland,VBO,5.726154,52.523862
De Regenboog,416,,,8254AE,Dronten,Dronten,Flevoland,VBO,5.725454,52.523631
De Regenboog,417,,,8254AG,Dronten,Dronten,Flevoland,VBO,5.726174,52.524079
De Regenboog,418,,,8254AG,Dronten,Dronten,Flevoland,VBO,5.726203,52.524070
De Regenboog,419,,,8254AG,Dronten,Dronten,Flevoland,VBO,5.726247,52.524069
De Regenboog,420,,,8254AG,Dronten,Dronten,Flevoland,VBO,5.726292,52.524069
De Regenboog,421,,,8254AG,Dronten,Dronten,Flevoland,VBO,5.726336,52.524060
De Regenboog,422,,,8254AG,Dronten,Dronten,Flevoland,VBO,5.726335,52.524024
De Regenboog,423,,,8254AG,Dronten,Dronten,Flevoland,VBO,5.726291,52.524024
De Regenboog,424,,,8254AG,Dronten,Dronten,Flevoland,VBO,5.726247,52.524033
De Regenboog,425,,,8254AG,Dronten,Dronten,Flevoland,VBO,5.726218,52.524034
De Regenboog,426,,,8254AG,Dronten,Dronten,Flevoland,VBO,5.726173,52.524034
De Regenboog,427,,,8254AG,Dronten,Dronten,Flevoland,VBO,5.726159,52.524007
De Regenboog,428,,,8254AG,Dronten,Dronten,Flevoland,VBO,5.726217,52.523998
De Regenboog,429,,,8254AG,Dronten,Dronten,Flevoland,VBO,5.726262,52.523997
De Regenboog,430,,,8254AG,Dronten,Dronten,Flevoland,VBO,5.726335,52.523988
De Regenboog,431,,,8254AG,Dronten,Dronten,Flevoland,VBO,5.726335,52.523952
De Regenboog,432,,,8254AG,Dronten,Dronten,Flevoland,VBO,5.726291,52.523952
De Regenboog,433,,,8254AG,Dronten,Dronten,Flevoland,VBO,5.726158,52.523917
De Regenboog,434,,,8254AG,Dronten,Dronten,Flevoland,VBO,5.726247,52.523962
De Regenboog,435,,,8254AG,Dronten,Dronten,Flevoland,VBO,5.726202,52.523908
De Regenboog,436,,,8254AG,Dronten,Dronten,Flevoland,VBO,5.726188,52.523971
De Regenboog,437,,,8254AG,Dronten,Dronten,Flevoland,VBO,5.726261,52.523935
De Regenboog,438,,,8254AG,Dronten,Dronten,Flevoland,VBO,5.726144,52.523971
De Regenboog,439,,,8254AG,Dronten,Dronten,Flevoland,VBO,5.726276,52.523908
De Regenboog,440,,,8254AG,Dronten,Dronten,Flevoland,VBO,5.726143,52.523944
De Regenboog,441,,,8254AG,Dronten,Dronten,Flevoland,VBO,5.726954,52.524031
De Regenboog,442,,,8254AG,Dronten,Dronten,Flevoland,VBO,5.726999,52.524022
De Regenboog,443,,,8254AG,Dronten,Dronten,Flevoland,VBO,5.727057,52.524013
De Regenboog,444,,,8254AG,Dronten,Dronten,Flevoland,VBO,5.727116,52.523995
De Regenboog,445,,,8254AG,Dronten,Dronten,Flevoland,VBO,5.727101,52.523959
De Regenboog,446,,,8254AG,Dronten,Dronten,Flevoland,VBO,5.727057,52.523968
De Regenboog,447,,,8254AG,Dronten,Dronten,Flevoland,VBO,5.726998,52.523968
De Regenboog,448,,,8254AG,Dronten,Dronten,Flevoland,VBO,5.726939,52.523969
De Regenboog,449,,,8254AG,Dronten,Dronten,Flevoland,VBO,5.726924,52.523924
De Regenboog,450,,,8254AG,Dronten,Dronten,Flevoland,VBO,5.726968,52.523906
De Regenboog,451,,,8254AG,Dronten,Dronten,Flevoland,VBO,5.727042,52.523905
De Regenboog,452,,,8254AH,Dronten,Dronten,Flevoland,VBO,5.726969,52.524040
De Regenboog,453,,,8254AH,Dronten,Dronten,Flevoland,VBO,5.726954,52.524004
De Regenboog,454,,,8254AH,Dronten,Dronten,Flevoland,VBO,5.726954,52.523951
De Regenboog,455,,,8254AH,Dronten,Dronten,Flevoland,VBO,5.726924,52.523897
De Regenboog,456,,,8254AH,Dronten,Dronten,Flevoland,VBO,5.726924,52.523861
De Regenboog,457,,,8254AH,Dronten,Dronten,Flevoland,VBO,5.726908,52.523798
De Regenboog,458,,,8254AH,Dronten,Dronten,Flevoland,VBO,5.727026,52.523762
De Regenboog,459,,,8254AH,Dronten,Dronten,Flevoland,VBO,5.727056,52.523797
De Regenboog,460,,,8254AH,Dronten,Dronten,Flevoland,VBO,5.727056,52.523833
De Regenboog,461,,,8254AH,Dronten,Dronten,Flevoland,VBO,5.727071,52.523869
De Regenboog,462,,,8254AH,Dronten,Dronten,Flevoland,VBO,5.727086,52.523905
De Regenboog,463,,,8254AH,Dronten,Dronten,Flevoland,VBO,5.727086,52.523950
De Regenboog,464,,,8254AH,Dronten,Dronten,Flevoland,VBO,5.727087,52.523986
De Regenboog,465,,,8254AH,Dronten,Dronten,Flevoland,VBO,5.727688,52.523643
De Regenboog,466,,,8254AH,Dronten,Dronten,Flevoland,VBO,5.727585,52.523652
De Regenboog,467,,,8254AH,Dronten,Dronten,Flevoland,VBO,5.727438,52.523662
De Regenboog,468,,,8254AH,Dronten,Dronten,Flevoland,VBO,5.727364,52.523671
De Regenboog,469,,,8254AH,Dronten,Dronten,Flevoland,VBO,5.727202,52.523680
De Regenboog,470,,,8254AH,Dronten,Dronten,Flevoland,VBO,5.727143,52.523680
De Regenboog,471,,,8254AH,Dronten,Dronten,Flevoland,VBO,5.726790,52.523708
De Regenboog,472,,,8254AH,Dronten,Dronten,Flevoland,VBO,5.726716,52.523718
De Regenboog,473,,,8254AH,Dronten,Dronten,Flevoland,VBO,5.726569,52.523718
De Regenboog,474,,,8254AH,Dronten,Dronten,Flevoland,VBO,5.726495,52.523727
De Regenboog,475,,,8254AH,Dronten,Dronten,Flevoland,VBO,5.726082,52.523665
De Regenboog,476,,,8254AH,Dronten,Dronten,Flevoland,VBO,5.726067,52.523612
De Regenboog,477,,,8254AH,Dronten,Dronten,Flevoland,VBO,5.726052,52.523522
De Regenboog,478,,,8254AH,Dronten,Dronten,Flevoland,VBO,5.726051,52.523486
De Regenboog,479,,,8254AH,Dronten,Dronten,Flevoland,VBO,5.726036,52.523414
De Regenboog,480,,,8254AH,Dronten,Dronten,Flevoland,VBO,5.725977,52.523378
De Regenboog,481,,,8254AH,Dronten,Dronten,Flevoland,VBO,5.725874,52.523387
De Regenboog,482,,,8254AH,Dronten,Dronten,Flevoland,VBO,5.725771,52.523388
De Regenboog,483,,,8254AH,Dronten,Dronten,Flevoland,VBO,5.724961,52.523444
De Regenboog,484,,,8254AH,Dronten,Dronten,Flevoland,VBO,5.724872,52.523444
De Regenboog,485,,,8254AH,Dronten,Dronten,Flevoland,VBO,5.724754,52.523454
De Regenboog,486,,,8254AH,Dronten,Dronten,Flevoland,VBO,5.724681,52.523490
De Regenboog,487,,,8254AH,Dronten,Dronten,Flevoland,VBO,5.724696,52.523571
De Regenboog,488,,,8254AH,Dronten,Dronten,Flevoland,VBO,5.724712,52.523615
De Regenboog,489,,,8254AH,Dronten,Dronten,Flevoland,VBO,5.724712,52.523687
De Regenboog,490,,,8254AH,Dronten,Dronten,Flevoland,VBO,5.724727,52.523750
De Regenboog,491,,,8254AH,Dronten,Dronten,Flevoland,VBO,5.724784,52.524001
De Regenboog,492,,,8254AH,Dronten,Dronten,Flevoland,VBO,5.724831,52.524116
De Regenboog,493,,,8254AH,Dronten,Dronten,Flevoland,VBO,5.725642,52.524024
De Regenboog,494,,,8254AH,Dronten,Dronten,Flevoland,VBO,5.725618,52.524062
De Regenboog,495,,,8254AH,Dronten,Dronten,Flevoland,VBO,5.724812,52.524187
De Regenboog,497,,,8254AH,Dronten,Dronten,Flevoland,VBO,5.724784,52.524181
De Regenboog,498,,,8254AH,Dronten,Dronten,Flevoland,VBO,5.724769,52.524036
De Regenboog,499,,,8254AH,Dronten,Dronten,Flevoland,VBO,5.724735,52.523990
De Regenboog,500,,,8254AH,Dronten,Dronten,Flevoland,VBO,5.724711,52.523950
De Regenboog,501,,,8254AH,Dronten,Dronten,Flevoland,VBO,5.724705,52.524030
De Regenboog,502,,,8254AH,Dronten,Dronten,Flevoland,VBO,5.724675,52.523981
De Regenboog,503,,,8254AH,Dronten,Dronten,Flevoland,VBO,5.724646,52.523946
De Regenboog,504,,,8254AH,Dronten,Dronten,Flevoland,VBO,5.724702,52.523924
De Regenboog,505,,,8254AH,Dronten,Dronten,Flevoland,VBO,5.724748,52.523917
De Regenboog,506,,,8254AH,Dronten,Dronten,Flevoland,VBO,5.724762,52.523962
De Regenboog,507,,,8254AH,Dronten,Dronten,Flevoland,VBO,5.724677,52.524076
De Regenboog,508,,,8254AH,Dronten,Dronten,Flevoland,VBO,5.724747,52.524078
De Regenboog,509,,,8254AH,Dronten,Dronten,Flevoland,VBO,5.724715,52.524054
De Regenboog,510,,,8254AH,Dronten,Dronten,Flevoland,VBO,5.724801,52.524078
De Regenboog,511,,,8254AH,Dronten,Dronten,Flevoland,VBO,5.724700,52.524117
De Regenboog,512,,,8254AH,Dronten,Dronten,Flevoland,VBO,5.724754,52.524117
De Regenboog,513,A,,8254AH,Dronten,Dronten,Flevoland,VBO,5.725192,52.524229
De Regenboog,513,,,8254AH,Dronten,Dronten,Flevoland,VBO,5.724666,52.524043
De Regenboog,514,,,8254AH,Dronten,Dronten,Flevoland,VBO,5.724688,52.524158
De Regenboog,515,,,8254AH,Dronten,Dronten,Flevoland,VBO,5.724927,52.524410
De Regenboog,516,,,8254AH,Dronten,Dronten,Flevoland,VBO,5.724943,52.524465
Het Spectrum,1,A,,8254AJ,Dronten,Dronten,Flevoland,VBO,5.727777,52.523633
Het Spectrum,1,,,8254AJ,Dronten,Dronten,Flevoland,VBO,5.727792,52.523723
Het Spectrum,3,,,8254AJ,Dronten,Dronten,Flevoland,VBO,5.727792,52.523768
Het Spectrum,5,,,8254AJ,Dronten,Dronten,Flevoland,VBO,5.727807,52.523813
Het Spectrum,7,,,8254AJ,Dronten,Dronten,Flevoland,VBO,5.727808,52.523867
Het Spectrum,9,,,8254AJ,Dronten,Dronten,Flevoland,VBO,5.727823,52.523912
Het Spectrum,11,,,8254AJ,Dronten,Dronten,Flevoland,VBO,5.727823,52.523957
Het Spectrum,13,,,8254AJ,Dronten,Dronten,Flevoland,VBO,5.727838,52.524002
Het Spectrum,15,,,8254AJ,Dronten,Dronten,Flevoland,VBO,5.727839,52.524047
Het Spectrum,17,,,8254AJ,Dronten,Dronten,Flevoland,VBO,5.727854,52.524092
Het Spectrum,19,,,8254AJ,Dronten,Dronten,Flevoland,VBO,5.727854,52.524137
Het Spectrum,21,,,8254AJ,Dronten,Dronten,Flevoland,VBO,5.727871,52.524478
Het Spectrum,23,,,8254AJ,Dronten,Dronten,Flevoland,VBO,5.727902,52.524577
Het Spectrum,25,,,8254AJ,Dronten,Dronten,Flevoland,VBO,5.727917,52.524649
Het Spectrum,27,,,8254AJ,Dronten,Dronten,Flevoland,VBO,5.727962,52.524748
Het Spectrum,29,,,8254AJ,Dronten,Dronten,Flevoland,VBO,5.727992,52.524828
Het Spectrum,31,,,8254AJ,Dronten,Dronten,Flevoland,VBO,5.728007,52.524909
Het Spectrum,33,,,8254AJ,Dronten,Dronten,Flevoland,VBO,5.728098,52.525259
Het Spectrum,35,,,8254AJ,Dronten,Dronten,Flevoland,VBO,5.728114,52.525358
Het Spectrum,37,,,8254AJ,Dronten,Dronten,Flevoland,VBO,5.728174,52.525511
Het Spectrum,39,,,8254AJ,Dronten,Dronten,Flevoland,VBO,5.728219,52.525601
Het Spectrum,41,,,8254AJ,Dronten,Dronten,Flevoland,VBO,5.728383,52.525897
Het Spectrum,43,,,8254AJ,Dronten,Dronten,Flevoland,VBO,5.728414,52.525995
Het Spectrum,45,,,8254AJ,Dronten,Dronten,Flevoland,VBO,5.728444,52.526076
Het Spectrum,47,,,8254AJ,Dronten,Dronten,Flevoland,VBO,5.728474,52.526157
Het Spectrum,49,,,8254AJ,Dronten,Dronten,Flevoland,VBO,5.728489,52.526229
Het Spectrum,51,,,8254AJ,Dronten,Dronten,Flevoland,VBO,5.728534,52.526328
Het Noorderlicht,1,,,8254AK,Dronten,Dronten,Flevoland,VBO,5.728820,52.527091
Het Noorderlicht,3,,,8254AK,Dronten,Dronten,Flevoland,VBO,5.728701,52.526974
Het Noorderlicht,5,,,8254AK,Dronten,Dronten,Flevoland,VBO,5.728744,52.526848
Het Noorderlicht,7,,,8254AK,Dronten,Dronten,Flevoland,VBO,5.728787,52.526713
Het Noorderlicht,9,,,8254AK,Dronten,Dronten,Flevoland,VBO,5.729170,52.526667
Het Noorderlicht,11,,,8254AK,Dronten,Dronten,Flevoland,VBO,5.729289,52.526775
Het Noorderlicht,13,,,8254AK,Dronten,Dronten,Flevoland,VBO,5.729408,52.526873
Het Noorderlicht,15,,,8254AK,Dronten,Dronten,Flevoland,VBO,5.729379,52.527008
Het Noorderlicht,4,,,8254AL,Dronten,Dronten,Flevoland,VBO,5.725757,52.527315
Het Noorderlicht,6,,,8254AL,Dronten,Dronten,Flevoland,VBO,5.725977,52.527279
Het Noorderlicht,8,,,8254AL,Dronten,Dronten,Flevoland,VBO,5.726184,52.527260
Het Noorderlicht,10,,,8254AL,Dronten,Dronten,Flevoland,VBO,5.726375,52.527224
Het Noorderlicht,12,,,8254AL,Dronten,Dronten,Flevoland,VBO,5.726596,52.527196
Het Noorderlicht,14,,,8254AL,Dronten,Dronten,Flevoland,VBO,5.726817,52.527177
Het Noorderlicht,16,,,8254AL,Dronten,Dronten,Flevoland,VBO,5.727037,52.527141
Het Noorderlicht,22,,,8254AL,Dronten,Dronten,Flevoland,VBO,5.727493,52.527050
Het Noorderlicht,24,,,8254AL,Dronten,Dronten,Flevoland,VBO,5.727714,52.527031
Het Noorderlicht,26,,,8254AL,Dronten,Dronten,Flevoland,VBO,5.727876,52.526950
Het Noorderlicht,28,,,8254AL,Dronten,Dronten,Flevoland,VBO,5.728052,52.526859
Het Noorderlicht,42,,,8254AL,Dronten,Dronten,Flevoland,VBO,5.729257,52.526424
Het Noorderlicht,44,,,8254AL,Dronten,Dronten,Flevoland,VBO,5.729463,52.526424
Het Noorderlicht,46,,,8254AL,Dronten,Dronten,Flevoland,VBO,5.729670,52.526450
Het Noorderlicht,48,,,8254AL,Dronten,Dronten,Flevoland,VBO,5.729875,52.526396
De Wissel,1,A,,8254AM,Dronten,Dronten,Flevoland,VBO,5.732731,52.526010
De Wissel,1,,,8254AM,Dronten,Dronten,Flevoland,VBO,5.732599,52.526019
De Wissel,3,,,8254AM,Dronten,Dronten,Flevoland,VBO,5.733370,52.526058
De Wolken,1,,,8254AN,Dronten,Dronten,Flevoland,VBO,5.727713,52.524928
De Wolken,2,,,8254AN,Dronten,Dronten,Flevoland,VBO,5.726816,52.525155
De Wolken,3,,,8254AN,Dronten,Dronten,Flevoland,VBO,5.727639,52.524928
De Wolken,4,,,8254AN,Dronten,Dronten,Flevoland,VBO,5.726831,52.525245
De Wolken,5,,,8254AN,Dronten,Dronten,Flevoland,VBO,5.727492,52.524929
De Wolken,6,,,8254AN,Dronten,Dronten,Flevoland,VBO,5.726847,52.525353
De Wolken,7,,,8254AN,Dronten,Dronten,Flevoland,VBO,5.727418,52.524920
De Wolken,8,,,8254AN,Dronten,Dronten,Flevoland,VBO,5.726862,52.525443
De Wolken,9,,,8254AN,Dronten,Dronten,Flevoland,VBO,5.727212,52.524911
De Wolken,10,,,8254AN,Dronten,Dronten,Flevoland,VBO,5.726878,52.525542
De Wolken,11,,,8254AN,Dronten,Dronten,Flevoland,VBO,5.727153,52.524912
De Wolken,12,,,8254AN,Dronten,Dronten,Flevoland,VBO,5.726908,52.525631
De Wolken,13,,,8254AN,Dronten,Dronten,Flevoland,VBO,5.727005,52.524903
De Wolken,14,,,8254AN,Dronten,Dronten,Flevoland,VBO,5.726953,52.525739
De Wolken,15,A,,8254AN,Dronten,Dronten,Flevoland,VBO,5.726828,52.524877
De Wolken,15,B,,8254AN,Dronten,Dronten,Flevoland,VBO,5.726710,52.524868
De Wolken,15,,,8254AN,Dronten,Dronten,Flevoland,VBO,5.726932,52.524894
De Wolken,16,,,8254AN,Dronten,Dronten,Flevoland,VBO,5.726998,52.525820
De Wolken,17,,,8254AN,Dronten,Dronten,Flevoland,VBO,5.727358,52.526691
De Wolken,18,,,8254AN,Dronten,Dronten,Flevoland,VBO,5.727266,52.526246
De Wolken,19,,,8254AN,Dronten,Dronten,Flevoland,VBO,5.727463,52.526675
De Wolken,20,,,8254AN,Dronten,Dronten,Flevoland,VBO,5.727287,52.526322
De Wolken,21,,,8254AN,Dronten,Dronten,Flevoland,VBO,5.727622,52.526654
De Wolken,22,,,8254AN,Dronten,Dronten,Flevoland,VBO,5.727327,52.526419
De Wolken,23,,,8254AN,Dronten,Dronten,Flevoland,VBO,5.727727,52.526640
De Wolken,24,,,8254AN,Dronten,Dronten,Flevoland,VBO,5.727354,52.526488
De Wolken,25,,,8254AN,Dronten,Dronten,Flevoland,VBO,5.727878,52.526620
De Wolken,27,,,8254AN,Dronten,Dronten,Flevoland,VBO,5.727982,52.526604
De Wolken,29,,,8254AN,Dronten,Dronten,Flevoland,VBO,5.728139,52.526583
De Wolken,31,,,8254AN,Dronten,Dronten,Flevoland,VBO,5.728249,52.526569
Het Zenit,1,,,8254AP,Dronten,Dronten,Flevoland,VBO,5.727361,52.525226
Het Zenit,2,,,8254AP,Dronten,Dronten,Flevoland,VBO,5.727686,52.525261
Het Zenit,3,,,8254AP,Dronten,Dronten,Flevoland,VBO,5.727391,52.525288
Het Zenit,4,,,8254AP,Dronten,Dronten,Flevoland,VBO,5.727701,52.525323
Het Zenit,5,,,8254AP,Dronten,Dronten,Flevoland,VBO,5.727392,52.525342
Het Zenit,6,,,8254AP,Dronten,Dronten,Flevoland,VBO,5.727716,52.525377
Het Zenit,7,,,8254AP,Dronten,Dronten,Flevoland,VBO,5.727407,52.525405
Het Zenit,8,,,8254AP,Dronten,Dronten,Flevoland,VBO,5.727731,52.525440
Het Zenit,9,,,8254AP,Dronten,Dronten,Flevoland,VBO,5.727422,52.525495
Het Zenit,10,,,8254AP,Dronten,Dronten,Flevoland,VBO,5.727747,52.525494
Het Zenit,11,,,8254AP,Dronten,Dronten,Flevoland,VBO,5.727452,52.525558
Het Zenit,12,,,8254AP,Dronten,Dronten,Flevoland,VBO,5.727762,52.525548
Het Zenit,13,,,8254AP,Dronten,Dronten,Flevoland,VBO,5.727482,52.525621
Het Zenit,14,,,8254AP,Dronten,Dronten,Flevoland,VBO,5.727994,52.525995
Het Zenit,15,,,8254AP,Dronten,Dronten,Flevoland,VBO,5.727497,52.525675
Het Zenit,16,,,8254AP,Dronten,Dronten,Flevoland,VBO,5.728025,52.526062
Het Zenit,17,,,8254AP,Dronten,Dronten,Flevoland,VBO,5.727667,52.526162
Het Zenit,18,,,8254AP,Dronten,Dronten,Flevoland,VBO,5.728065,52.526155
Het Zenit,19,,,8254AP,Dronten,Dronten,Flevoland,VBO,5.727687,52.526234
Het Zenit,20,,,8254AP,Dronten,Dronten,Flevoland,VBO,5.728093,52.526225
Het Zenit,21,,,8254AP,Dronten,Dronten,Flevoland,VBO,5.727724,52.526332
Het Zenit,22,,,8254AP,Dronten,Dronten,Flevoland,VBO,5.728122,52.526326
Het Zenit,23,,,8254AP,Dronten,Dronten,Flevoland,VBO,5.727744,52.526409
Het Zenit,24,,,8254AP,Dronten,Dronten,Flevoland,VBO,5.728146,52.526394
De Eclips,3,,,8254AR,Dronten,Dronten,Flevoland,VBO,5.727984,52.525718
De Eclips,5,,,8254AR,Dronten,Dronten,Flevoland,VBO,5.727881,52.525754
De Eclips,7,,,8254AR,Dronten,Dronten,Flevoland,VBO,5.727631,52.525845
De Eclips,9,,,8254AR,Dronten,Dronten,Flevoland,VBO,5.727528,52.525872
De Eclips,11,,,8254AR,Dronten,Dronten,Flevoland,VBO,5.727411,52.525908
De Eclips,13,,,8254AR,Dronten,Dronten,Flevoland,VBO,5.727293,52.525945
De Eclips,15,,,8254AR,Dronten,Dronten,Flevoland,VBO,5.727176,52.525990
De Eclips,17,,,8254AR,Dronten,Dronten,Flevoland,VBO,5.727073,52.526026
Het Spectrum,2,,,8254AS,Dronten,Dronten,Flevoland,VBO,5.728500,52.523856
Het Spectrum,4,,,8254AS,Dronten,Dronten,Flevoland,VBO,5.728529,52.523838
Het Spectrum,6,,,8254AS,Dronten,Dronten,Flevoland,VBO,5.728500,52.523820
Het Spectrum,8,,,8254AS,Dronten,Dronten,Flevoland,VBO,5.728471,52.523838
Het Spectrum,10,,,8254AS,Dronten,Dronten,Flevoland,VBO,5.728500,52.523865
Het Spectrum,12,,,8254AS,Dronten,Dronten,Flevoland,VBO,5.728530,52.523856
Het Spectrum,14,,,8254AS,Dronten,Dronten,Flevoland,VBO,5.728544,52.523838
Het Spectrum,16,,,8254AS,Dronten,Dronten,Flevoland,VBO,5.728529,52.523820
Het Spectrum,18,,,8254AS,Dronten,Dronten,Flevoland,VBO,5.728500,52.523811
Het Spectrum,20,,,8254AS,Dronten,Dronten,Flevoland,VBO,5.728470,52.523820
Het Spectrum,22,,,8254AS,Dronten,Dronten,Flevoland,VBO,5.728456,52.523838
Het Spectrum,24,,,8254AS,Dronten,Dronten,Flevoland,VBO,5.728471,52.523856
Het Spectrum,26,,,8254AS,Dronten,Dronten,Flevoland,VBO,5.728500,52.523883
Het Spectrum,28,,,8254AS,Dronten,Dronten,Flevoland,VBO,5.728530,52.523874
Het Spectrum,30,,,8254AS,Dronten,Dronten,Flevoland,VBO,5.728559,52.523856
Het Spectrum,32,,,8254AS,Dronten,Dronten,Flevoland,VBO,5.728574,52.523838
Het Spectrum,34,,,8254AS,Dronten,Dronten,Flevoland,VBO,5.728559,52.523820
Het Spectrum,36,,,8254AS,Dronten,Dronten,Flevoland,VBO,5.728529,52.523802
Het Spectrum,38,,,8254AT,Dronten,Dronten,Flevoland,VBO,5.728680,52.524305
Het Spectrum,40,,,8254AT,Dronten,Dronten,Flevoland,VBO,5.728710,52.524287
Het Spectrum,42,,,8254AT,Dronten,Dronten,Flevoland,VBO,5.728680,52.524269
Het Spectrum,44,,,8254AT,Dronten,Dronten,Flevoland,VBO,5.728651,52.524287
Het Spectrum,46,,,8254AT,Dronten,Dronten,Flevoland,VBO,5.728681,52.524314
Het Spectrum,48,,,8254AT,Dronten,Dronten,Flevoland,VBO,5.728710,52.524305
Het Spectrum,50,,,8254AT,Dronten,Dronten,Flevoland,VBO,5.728725,52.524287
Het Spectrum,52,,,8254AT,Dronten,Dronten,Flevoland,VBO,5.728710,52.524269
Het Spectrum,54,,,8254AT,Dronten,Dronten,Flevoland,VBO,5.728680,52.524260
Het Spectrum,56,,,8254AT,Dronten,Dronten,Flevoland,VBO,5.728651,52.524269
Het Spectrum,58,,,8254AT,Dronten,Dronten,Flevoland,VBO,5.728636,52.524287
Het Spectrum,60,,,8254AT,Dronten,Dronten,Flevoland,VBO,5.728651,52.524305
Het Spectrum,62,,,8254AT,Dronten,Dronten,Flevoland,VBO,5.728681,52.524332
Het Spectrum,64,,,8254AT,Dronten,Dronten,Flevoland,VBO,5.728710,52.524323
Het Spectrum,66,,,8254AT,Dronten,Dronten,Flevoland,VBO,5.728739,52.524305
Het Spectrum,68,,,8254AT,Dronten,Dronten,Flevoland,VBO,5.728754,52.524287
Het Spectrum,70,,,8254AT,Dronten,Dronten,Flevoland,VBO,5.728739,52.524269
Het Spectrum,72,,,8254AT,Dronten,Dronten,Flevoland,VBO,5.728709,52.524251
Het Spectrum,74,,,8254AV,Dronten,Dronten,Flevoland,VBO,5.728936,52.524960
Het Spectrum,76,,,8254AV,Dronten,Dronten,Flevoland,VBO,5.728965,52.524942
Het Spectrum,78,,,8254AV,Dronten,Dronten,Flevoland,VBO,5.728936,52.524924
Het Spectrum,80,,,8254AV,Dronten,Dronten,Flevoland,VBO,5.728906,52.524943
Het Spectrum,82,,,8254AV,Dronten,Dronten,Flevoland,VBO,5.728936,52.524969
Het Spectrum,84,,,8254AV,Dronten,Dronten,Flevoland,VBO,5.728965,52.524960
Het Spectrum,86,,,8254AV,Dronten,Dronten,Flevoland,VBO,5.728980,52.524942
Het Spectrum,88,,,8254AV,Dronten,Dronten,Flevoland,VBO,5.728965,52.524924
Het Spectrum,90,,,8254AV,Dronten,Dronten,Flevoland,VBO,5.728936,52.524915
Het Spectrum,92,,,8254AV,Dronten,Dronten,Flevoland,VBO,5.728906,52.524925
Het Spectrum,94,,,8254AV,Dronten,Dronten,Flevoland,VBO,5.728892,52.524943
Het Spectrum,96,,,8254AV,Dronten,Dronten,Flevoland,VBO,5.728907,52.524961
Het Spectrum,98,,,8254AV,Dronten,Dronten,Flevoland,VBO,5.728936,52.524987
Het Spectrum,100,,,8254AV,Dronten,Dronten,Flevoland,VBO,5.728966,52.524978
Het Spectrum,102,,,8254AW,Dronten,Dronten,Flevoland,VBO,5.729027,52.525338
Het Spectrum,104,,,8254AW,Dronten,Dronten,Flevoland,VBO,5.729057,52.525320
Het Spectrum,106,,,8254AW,Dronten,Dronten,Flevoland,VBO,5.729027,52.525302
Het Spectrum,108,,,8254AW,Dronten,Dronten,Flevoland,VBO,5.728998,52.525320
Het Spectrum,110,,,8254AW,Dronten,Dronten,Flevoland,VBO,5.729027,52.525347
Het Spectrum,112,,,8254AW,Dronten,Dronten,Flevoland,VBO,5.729057,52.525338
Het Spectrum,114,,,8254AW,Dronten,Dronten,Flevoland,VBO,5.729071,52.525320
Het Spectrum,116,,,8254AW,Dronten,Dronten,Flevoland,VBO,5.729057,52.525302
Het Spectrum,118,,,8254AX,Dronten,Dronten,Flevoland,VBO,5.729222,52.525724
Het Spectrum,120,,,8254AX,Dronten,Dronten,Flevoland,VBO,5.729251,52.525705
Het Spectrum,122,,,8254AX,Dronten,Dronten,Flevoland,VBO,5.729222,52.525688
Het Spectrum,124,,,8254AX,Dronten,Dronten,Flevoland,VBO,5.729192,52.525706
Het Spectrum,126,,,8254AX,Dronten,Dronten,Flevoland,VBO,5.729222,52.525733
Het Spectrum,128,,,8254AX,Dronten,Dronten,Flevoland,VBO,5.729251,52.525723
Het Spectrum,130,,,8254AX,Dronten,Dronten,Flevoland,VBO,5.729266,52.525705
Het Spectrum,132,,,8254AX,Dronten,Dronten,Flevoland,VBO,5.729251,52.525687
Het Spectrum,134,,,8254AX,Dronten,Dronten,Flevoland,VBO,5.729222,52.525679
Het Spectrum,136,,,8254AX,Dronten,Dronten,Flevoland,VBO,5.729192,52.525688
Het Spectrum,138,,,8254AX,Dronten,Dronten,Flevoland,VBO,5.729178,52.525706
Het Spectrum,140,,,8254AX,Dronten,Dronten,Flevoland,VBO,5.729192,52.525724
Het Spectrum,142,,,8254AX,Dronten,Dronten,Flevoland,VBO,5.729222,52.525750
Het Spectrum,144,,,8254AX,Dronten,Dronten,Flevoland,VBO,5.729251,52.525741
De Rede,7,,,8254KA,Dronten,Dronten,Flevoland,VBO,5.716783,52.524158
De Rede,11,,,8254KA,Dronten,Dronten,Flevoland,VBO,5.716896,52.524152
De Rede,17,,,8254KA,Dronten,Dronten,Flevoland,VBO,5.717254,52.524113
De Rede,23,,,8254KA,Dronten,Dronten,Flevoland,VBO,5.717514,52.524097
De Rede,31,,,8254KA,Dronten,Dronten,Flevoland,VBO,5.717624,52.524089
De Rede,35,,,8254KA,Dronten,Dronten,Flevoland,VBO,5.717691,52.524087
De Rede,45,,,8254KA,Dronten,Dronten,Flevoland,VBO,5.718261,52.524048
De Rede,47,,,8254KA,Dronten,Dronten,Flevoland,VBO,5.718430,52.524032
De Rede,49,,,8254KA,Dronten,Dronten,Flevoland,VBO,5.717286,52.524201
De Rede,53,,,8254KA,Dronten,Dronten,Flevoland,VBO,5.718706,52.524028
De Rede,59,,,8254KB,Dronten,Dronten,Flevoland,VBO,5.716637,52.524139
De Rede,61,,,8254KB,Dronten,Dronten,Flevoland,VBO,5.716699,52.524134
De Rede,63,,,8254KB,Dronten,Dronten,Flevoland,VBO,5.716799,52.524128
De Rede,65,,,8254KB,Dronten,Dronten,Flevoland,VBO,5.716869,52.524122
De Rede,67,,,8254KB,Dronten,Dronten,Flevoland,VBO,5.716946,52.524115
De Rede,69,,,8254KB,Dronten,Dronten,Flevoland,VBO,5.717332,52.524095
De Rede,71,,,8254KB,Dronten,Dronten,Flevoland,VBO,5.718231,52.524073
De Rede,73,,,8254KB,Dronten,Dronten,Flevoland,VBO,5.718321,52.524070
De Rede,75,,,8254KB,Dronten,Dronten,Flevoland,VBO,5.718404,52.524060
De Rede,77,,,8254KB,Dronten,Dronten,Flevoland,VBO,5.718477,52.524058
De Rede,79,,,8254KB,Dronten,Dronten,Flevoland,VBO,5.718535,52.524053
De Rede,81,,,8254KB,Dronten,Dronten,Flevoland,VBO,5.718635,52.524049
De Rede,83,,,8254KB,Dronten,Dronten,Flevoland,VBO,5.718715,52.524050
De Rede,85,,,8254KB,Dronten,Dronten,Flevoland,VBO,5.718772,52.524047
De Rede,87,,,8254KB,Dronten,Dronten,Flevoland,VBO,5.716620,52.524171
De Rede,89,,,8254KB,Dronten,Dronten,Flevoland,VBO,5.716684,52.524166
De Rede,91,,,8254KB,Dronten,Dronten,Flevoland,VBO,5.716752,52.524169
De Rede,93,,,8254KB,Dronten,Dronten,Flevoland,VBO,5.716822,52.524156
De Rede,95,,,8254KB,Dronten,Dronten,Flevoland,VBO,5.716946,52.524148
De Rede,97,,,8254KB,Dronten,Dronten,Flevoland,VBO,5.717208,52.524145
De Rede,99,,,8254KB,Dronten,Dronten,Flevoland,VBO,5.718203,52.524106
De Rede,101,,,8254KB,Dronten,Dronten,Flevoland,VBO,5.718304,52.524101
De Rede,103,,,8254KB,Dronten,Dronten,Flevoland,VBO,5.718411,52.524094
De Rede,105,,,8254KB,Dronten,Dronten,Flevoland,VBO,5.718480,52.524090
De Rede,107,,,8254KB,Dronten,Dronten,Flevoland,VBO,5.718551,52.524084
De Rede,109,,,8254KB,Dronten,Dronten,Flevoland,VBO,5.718634,52.524079
De Rede,111,,,8254KB,Dronten,Dronten,Flevoland,VBO,5.718705,52.524081
De Rede,113,,,8254KB,Dronten,Dronten,Flevoland,VBO,5.718754,52.524077
De Rede,115,,,8254KB,Dronten,Dronten,Flevoland,VBO,5.716614,52.524205
De Rede,117,,,8254KB,Dronten,Dronten,Flevoland,VBO,5.716718,52.524202
De Rede,119,,,8254KB,Dronten,Dronten,Flevoland,VBO,5.716780,52.524196
De Rede,121,,,8254KB,Dronten,Dronten,Flevoland,VBO,5.716851,52.524188
De Rede,123,,,8254KB,Dronten,Dronten,Flevoland,VBO,5.716943,52.524182
De Rede,125,,,8254KB,Dronten,Dronten,Flevoland,VBO,5.717229,52.524176
De Rede,127,,,8254KB,Dronten,Dronten,Flevoland,VBO,5.718217,52.524146
De Rede,129,,,8254KB,Dronten,Dronten,Flevoland,VBO,5.718306,52.524139
De Rede,131,,,8254KB,Dronten,Dronten,Flevoland,VBO,5.718389,52.524135
De Rede,133,,,8254KB,Dronten,Dronten,Flevoland,VBO,5.718461,52.524128
De Rede,135,,,8254KB,Dronten,Dronten,Flevoland,VBO,5.718521,52.524123
De Rede,137,,,8254KB,Dronten,Dronten,Flevoland,VBO,5.718587,52.524118
De Rede,139,,,8254KB,Dronten,Dronten,Flevoland,VBO,5.718666,52.524111
De Rede,141,,,8254KB,Dronten,Dronten,Flevoland,VBO,5.718740,52.524105
De Redepassage,5,,,8254KC,Dronten,Dronten,Flevoland,VBO,5.717350,52.524391
De Redepassage,7,,,8254KC,Dronten,Dronten,Flevoland,VBO,5.717468,52.524382
De Redepassage,11,,,8254KC,Dronten,Dronten,Flevoland,VBO,5.717704,52.524372
De Redepassage,13,,,8254KC,Dronten,Dronten,Flevoland,VBO,5.717836,52.524372
De Redepassage,15,,,8254KC,Dronten,Dronten,Flevoland,VBO,5.717966,52.524353
De Redepassage,17,,,8254KC,Dronten,Dronten,Flevoland,VBO,5.718081,52.524342
De Redepassage,19,,,8254KC,Dronten,Dronten,Flevoland,VBO,5.718159,52.524339
De Redepassage,21,,,8254KC,Dronten,Dronten,Flevoland,VBO,5.718267,52.524333
De Redepassage,6,,,8254KD,Dronten,Dronten,Flevoland,VBO,5.717375,52.524277
De Redepassage,12,,,8254KD,Dronten,Dronten,Flevoland,VBO,5.717557,52.524265
De Redepassage,14,,,8254KD,Dronten,Dronten,Flevoland,VBO,5.717747,52.524261
De Redepassage,16,,,8254KD,Dronten,Dronten,Flevoland,VBO,5.717859,52.524257
De Redepassage,18,,,8254KD,Dronten,Dronten,Flevoland,VBO,5.718041,52.524246
De Redepassage,20,,,8254KD,Dronten,Dronten,Flevoland,VBO,5.718231,52.524228
De Redepassage,22,,,8254KD,Dronten,Dronten,Flevoland,VBO,5.718379,52.524216
De Redepassage,24,,,8254KD,Dronten,Dronten,Flevoland,VBO,5.718559,52.524204
De Redepassage,28,,,8254KD,Dronten,Dronten,Flevoland,VBO,5.718758,52.524201
De Reling,3,,,8254KE,Dronten,Dronten,Flevoland,VBO,5.716980,52.524268
De Reling,5,,,8254KE,Dronten,Dronten,Flevoland,VBO,5.716950,52.524410
De Reling,7,,,8254KE,Dronten,Dronten,Flevoland,VBO,5.716965,52.524483
De Reling,9,,,8254KE,Dronten,Dronten,Flevoland,VBO,5.716977,52.524560
De Reling,11,,,8254KE,Dronten,Dronten,Flevoland,VBO,5.716982,52.524621
De Reling,13,,,8254KE,Dronten,Dronten,Flevoland,VBO,5.717042,52.524687
De Reling,19,,,8254KE,Dronten,Dronten,Flevoland,VBO,5.717088,52.524862
De Reling,21,,,8254KE,Dronten,Dronten,Flevoland,VBO,5.717088,52.524951
De Reling,23,,,8254KE,Dronten,Dronten,Flevoland,VBO,5.717122,52.525072
De Reling,2,,,8254KG,Dronten,Dronten,Flevoland,VBO,5.717211,52.524247
De Reling,6,,,8254KG,Dronten,Dronten,Flevoland,VBO,5.717226,52.524419
De Reling,10,,,8254KG,Dronten,Dronten,Flevoland,VBO,5.717229,52.524544
De Reling,14,,,8254KG,Dronten,Dronten,Flevoland,VBO,5.717323,52.524777
De Reling,22,,,8254KG,Dronten,Dronten,Flevoland,VBO,5.717295,52.524932
De Reling,24,,,8254KG,Dronten,Dronten,Flevoland,VBO,5.717378,52.525016
Het Havenplein,3,,,8254KH,Dronten,Dronten,Flevoland,VBO,5.717428,52.525641
Het Havenplein,5,,,8254KH,Dronten,Dronten,Flevoland,VBO,5.717260,52.525622
Het Havenplein,9,,,8254KH,Dronten,Dronten,Flevoland,VBO,5.717130,52.525579
Het Havenplein,15,,,8254KH,Dronten,Dronten,Flevoland,VBO,5.717115,52.525467
Het Havenplein,25,,,8254KH,Dronten,Dronten,Flevoland,VBO,5.717054,52.525189
Het Havenplein,2,,,8254KJ,Dronten,Dronten,Flevoland,VBO,5.717543,52.525500
Het Havenplein,12,,,8254KJ,Dronten,Dronten,Flevoland,VBO,5.717521,52.525324
Het Havenplein,16,,,8254KJ,Dronten,Dronten,Flevoland,VBO,5.717488,52.525189
De Binnenloop,1,,,8254KK,Dronten,Dronten,Flevoland,VBO,5.716441,52.525396
De Binnenloop,9,,,8254KK,Dronten,Dronten,Flevoland,VBO,5.716610,52.525387
De Binnenloop,13,,,8254KK,Dronten,Dronten,Flevoland,VBO,5.716747,52.525375
De Binnenloop,19,,,8254KK,Dronten,Dronten,Flevoland,VBO,5.716877,52.525374
De Binnenloop,23,,,8254KK,Dronten,Dronten,Flevoland,VBO,5.717022,52.525368
De Binnenloop,10,,,8254KL,Dronten,Dronten,Flevoland,VBO,5.716508,52.525260
De Binnenloop,22,,,8254KL,Dronten,Dronten,Flevoland,VBO,5.716902,52.525250
Schans,1,,,8254KM,Dronten,Dronten,Flevoland,VBO,5.716215,52.524296
Schans,11,,,8254KM,Dronten,Dronten,Flevoland,VBO,5.716253,52.524527
Schans,29,,,8254KN,Dronten,Dronten,Flevoland,VBO,5.716329,52.525011
Schans,33,,,8254KN,Dronten,Dronten,Flevoland,VBO,5.716338,52.525088
Schans,37,,,8254KN,Dronten,Dronten,Flevoland,VBO,5.716350,52.525148
Schans,51,,,8254KN,Dronten,Dronten,Flevoland,VBO,5.716408,52.525553
Schans,63,,,8254KP,Dronten,Dronten,Flevoland,VBO,5.716262,52.524268
Schans,65,,,8254KP,Dronten,Dronten,Flevoland,VBO,5.716343,52.524294
Schans,67,,,8254KP,Dronten,Dronten,Flevoland,VBO,5.716398,52.524256
Schans,69,,,8254KP,Dronten,Dronten,Flevoland,VBO,5.716321,52.524223
Schans,71,,,8254KP,Dronten,Dronten,Flevoland,VBO,5.716320,52.524256
Schans,73,,,8254KP,Dronten,Dronten,Flevoland,VBO,5.716398,52.524280
Schans,75,,,8254KP,Dronten,Dronten,Flevoland,VBO,5.716433,52.524533
Schans,77,,,8254KP,Dronten,Dronten,Flevoland,VBO,5.716444,52.524571
Schans,79,,,8254KP,Dronten,Dronten,Flevoland,VBO,5.716454,52.524616
Schans,81,,,8254KP,Dronten,Dronten,Flevoland,VBO,5.716463,52.524659
Schans,83,,,8254KP,Dronten,Dronten,Flevoland,VBO,5.716572,52.524916
Schans,85,,,8254KP,Dronten,Dronten,Flevoland,VBO,5.716572,52.524973
Schans,87,,,8254KP,Dronten,Dronten,Flevoland,VBO,5.716578,52.525015
Schans,89,,,8254KP,Dronten,Dronten,Flevoland,VBO,5.716599,52.525056
Schans,91,,,8254KP,Dronten,Dronten,Flevoland,VBO,5.716602,52.525094
Schans,93,,,8254KP,Dronten,Dronten,Flevoland,VBO,5.716604,52.525132
Schans,95,,,8254KP,Dronten,Dronten,Flevoland,VBO,5.716612,52.525161
Schans,97,,,8254KP,Dronten,Dronten,Flevoland,VBO,5.716612,52.525202
Schans,99,,,8254KP,Dronten,Dronten,Flevoland,VBO,5.716629,52.524865
Schans,101,,,8254KP,Dronten,Dronten,Flevoland,VBO,5.716423,52.524677
Schans,103,,,8254KP,Dronten,Dronten,Flevoland,VBO,5.716442,52.524718
Schans,105,,,8254KP,Dronten,Dronten,Flevoland,VBO,5.716465,52.524891
Schans,107,,,8254KP,Dronten,Dronten,Flevoland,VBO,5.716472,52.524946
Schans,109,,,8254KP,Dronten,Dronten,Flevoland,VBO,5.716668,52.525084
Schans,111,,,8254KP,Dronten,Dronten,Flevoland,VBO,5.716673,52.525120
Schans,113,,,8254KP,Dronten,Dronten,Flevoland,VBO,5.716676,52.525150
Schans,115,,,8254KP,Dronten,Dronten,Flevoland,VBO,5.716681,52.525198
Schans,117,,,8254KP,Dronten,Dronten,Flevoland,VBO,5.716681,52.524856
Schans,119,,,8254KP,Dronten,Dronten,Flevoland,VBO,5.716688,52.524901
Schans,121,,,8254KP,Dronten,Dronten,Flevoland,VBO,5.716696,52.524960
Schans,123,,,8254KP,Dronten,Dronten,Flevoland,VBO,5.716699,52.525005
Schans,125,,,8254KP,Dronten,Dronten,Flevoland,VBO,5.716701,52.525046
Schans,127,,,8254KP,Dronten,Dronten,Flevoland,VBO,5.716716,52.525085
Schans,129,,,8254KP,Dronten,Dronten,Flevoland,VBO,5.716716,52.525118
Schans,131,,,8254KP,Dronten,Dronten,Flevoland,VBO,5.716345,52.524539
Schans,133,,,8254KP,Dronten,Dronten,Flevoland,VBO,5.716315,52.524603
Schans,135,,,8254KP,Dronten,Dronten,Flevoland,VBO,5.716317,52.524644
Schans,137,,,8254KP,Dronten,Dronten,Flevoland,VBO,5.716326,52.524685
Schans,139,,,8254KP,Dronten,Dronten,Flevoland,VBO,5.716346,52.524900
Schans,141,,,8254KP,Dronten,Dronten,Flevoland,VBO,5.716357,52.524953
Schans,143,,,8254KR,Dronten,Dronten,Flevoland,VBO,5.716416,52.525436
Schans,145,,,8254KR,Dronten,Dronten,Flevoland,VBO,5.716554,52.525430
Schans,147,,,8254KR,Dronten,Dronten,Flevoland,VBO,5.716983,52.525407
Schans,149,,,8254KR,Dronten,Dronten,Flevoland,VBO,5.716994,52.525445
Schans,151,,,8254KR,Dronten,Dronten,Flevoland,VBO,5.717015,52.525483
Schans,153,,,8254KR,Dronten,Dronten,Flevoland,VBO,5.717024,52.525535
Schans,155,,,8254KR,Dronten,Dronten,Flevoland,VBO,5.716526,52.525608
Schans,157,,,8254KR,Dronten,Dronten,Flevoland,VBO,5.716529,52.525656
Schans,159,,,8254KR,Dronten,Dronten,Flevoland,VBO,5.716627,52.525632
Schans,161,,,8254KR,Dronten,Dronten,Flevoland,VBO,5.716702,52.525423
Schans,163,,,8254KR,Dronten,Dronten,Flevoland,VBO,5.716844,52.525414
Schans,165,,,8254KR,Dronten,Dronten,Flevoland,VBO,5.717088,52.525400
Schans,167,,,8254KR,Dronten,Dronten,Flevoland,VBO,5.717096,52.525437
Schans,169,,,8254KR,Dronten,Dronten,Flevoland,VBO,5.717106,52.525495
Schans,171,,,8254KR,Dronten,Dronten,Flevoland,VBO,5.717107,52.525531
Schans,173,,,8254KR,Dronten,Dronten,Flevoland,VBO,5.717102,52.525558
Schans,175,,,8254KR,Dronten,Dronten,Flevoland,VBO,5.717151,52.525619
Schans,177,,,8254KR,Dronten,Dronten,Flevoland,VBO,5.717151,52.525659
Schans,179,,,8254KR,Dronten,Dronten,Flevoland,VBO,5.717265,52.525657
De Kiel,3,,,8254KS,Dronten,Dronten,Flevoland,VBO,5.718852,52.525655
De Kiel,11,,,8254KS,Dronten,Dronten,Flevoland,VBO,5.718691,52.525666
De Kiel,13,,,8254KS,Dronten,Dronten,Flevoland,VBO,5.718522,52.525681
De Kiel,19,,,8254KS,Dronten,Dronten,Flevoland,VBO,5.718396,52.525685
De Kiel,25,,,8254KS,Dronten,Dronten,Flevoland,VBO,5.718209,52.525700
De Kiel,29,,,8254KS,Dronten,Dronten,Flevoland,VBO,5.717967,52.525696
De Kiel,37,,,8254KS,Dronten,Dronten,Flevoland,VBO,5.717797,52.525680
De Kiel,45,,,8254KS,Dronten,Dronten,Flevoland,VBO,5.717612,52.525658
De Kiel,49,,,8254KT,Dronten,Dronten,Flevoland,VBO,5.718872,52.525715
De Kiel,51,,,8254KT,Dronten,Dronten,Flevoland,VBO,5.718015,52.525743
De Kiel,53,,,8254KT,Dronten,Dronten,Flevoland,VBO,5.717881,52.525725
De Kiel,55,,,8254KT,Dronten,Dronten,Flevoland,VBO,5.717729,52.525717
De Kiel,57,,,8254KT,Dronten,Dronten,Flevoland,VBO,5.717582,52.525707
De Kiel,59,,,8254KT,Dronten,Dronten,Flevoland,VBO,5.717436,52.525698
De Kiel,61,,,8254KT,Dronten,Dronten,Flevoland,VBO,5.718858,52.525682
De Kiel,63,,,8254KT,Dronten,Dronten,Flevoland,VBO,5.718812,52.525705
De Kiel,2,,,8254KV,Dronten,Dronten,Flevoland,VBO,5.718759,52.525526
De Kiel,12,,,8254KV,Dronten,Dronten,Flevoland,VBO,5.718562,52.525533
De Kiel,18,,,8254KV,Dronten,Dronten,Flevoland,VBO,5.718383,52.525545
De Kiel,24,,,8254KV,Dronten,Dronten,Flevoland,VBO,5.718217,52.525553
De Kiel,46,,,8254KW,Dronten,Dronten,Flevoland,VBO,5.717947,52.525515
De Kiel,48,,,8254KW,Dronten,Dronten,Flevoland,VBO,5.717912,52.525514
De Kiel,50,,,8254KW,Dronten,Dronten,Flevoland,VBO,5.717865,52.525509
De Kiel,52,,,8254KW,Dronten,Dronten,Flevoland,VBO,5.717823,52.525507
De Kiel,54,,,8254KW,Dronten,Dronten,Flevoland,VBO,5.717828,52.525374
De Kiel,56,,,8254KW,Dronten,Dronten,Flevoland,VBO,5.717798,52.525316
De Kiel,60,,,8254KW,Dronten,Dronten,Flevoland,VBO,5.717787,52.525224
De Kiel,62,,,8254KW,Dronten,Dronten,Flevoland,VBO,5.717757,52.525172
De Kiel,64,,,8254KW,Dronten,Dronten,Flevoland,VBO,5.717727,52.525525
De Kiel,66,,,8254KW,Dronten,Dronten,Flevoland,VBO,5.717708,52.525481
De Kiel,68,,,8254KW,Dronten,Dronten,Flevoland,VBO,5.717697,52.525424
De Kiel,70,,,8254KW,Dronten,Dronten,Flevoland,VBO,5.717688,52.525374
De Kiel,72,,,8254KW,Dronten,Dronten,Flevoland,VBO,5.717669,52.525323
De Kiel,74,,,8254KW,Dronten,Dronten,Flevoland,VBO,5.717654,52.525275
De Kiel,78,,,8254KW,Dronten,Dronten,Flevoland,VBO,5.717633,52.525228
De Kiel,80,,,8254KW,Dronten,Dronten,Flevoland,VBO,5.717870,52.525435
De Kiel,82,,,8254KW,Dronten,Dronten,Flevoland,VBO,5.717617,52.525179
De Kiel,84,,,8254KW,Dronten,Dronten,Flevoland,VBO,5.717599,52.525122
De Kajuit,1,,,8254KX,Dronten,Dronten,Flevoland,VBO,5.716607,52.524465
De Kajuit,2,,,8254KX,Dronten,Dronten,Flevoland,VBO,5.716362,52.524314
De Kajuit,6,,,8254KX,Dronten,Dronten,Flevoland,VBO,5.716539,52.524303
De Kajuit,8,,,8254KX,Dronten,Dronten,Flevoland,VBO,5.716701,52.524285
De Kajuit,12,,,8254KX,Dronten,Dronten,Flevoland,VBO,5.716833,52.524276
