openbareruimtenaam,huisnummer,huisletter,huisnummertoevoeging,postcode,woonplaatsnaam,gemeentenaam,provincienaam,typeadresseerbaarobject,longitude,latitude
Ploegstraat,4,,,8308AA,Nagele,Noordoostpolder,Flevoland,VBO,5.721485,52.644125
Ploegstraat,7,,,8308AA,Nagele,Noordoostpolder,Flevoland,VBO,5.722287,52.642784
Ploegstraat,8,,,8308AA,Nagele,Noordoostpolder,Flevoland,VBO,5.721247,52.643919
Ploegstraat,9,,,8308AA,Nagele,Noordoostpolder,Flevoland,VBO,5.722344,52.642505
Ploegstraat,10,,,8308AA,Nagele,Noordoostpolder,Flevoland,VBO,5.721467,52.643775
Ploegstraat,11,,,8308AA,Nagele,Noordoostpolder,Flevoland,VBO,5.722431,52.642298
Ploegstraat,13,,,8308AA,Nagele,Noordoostpolder,Flevoland,VBO,5.722459,52.642145
Ploegstraat,14,A,,8308AA,Nagele,Noordoostpolder,Flevoland,VBO,5.721230,52.641726
Ploegstraat,14,B,,8308AA,Nagele,Noordoostpolder,Flevoland,VBO,5.721570,52.641716
Ploegstraat,15,,,8308AA,Nagele,Noordoostpolder,Flevoland,VBO,5.722635,52.641947
Ploegstraat,17,,,8308AA,Nagele,Noordoostpolder,Flevoland,VBO,5.722647,52.641632
Ploegstraat,19,,,8308AA,Nagele,Noordoostpolder,Flevoland,VBO,5.722691,52.641489
Ploegstraat,21,,,8308AA,Nagele,Noordoostpolder,Flevoland,VBO,5.722822,52.641290
Eggestraat,3,,,8308AB,Nagele,Noordoostpolder,Flevoland,VBO,5.720436,52.644191
Eggestraat,4,,,8308AB,Nagele,Noordoostpolder,Flevoland,VBO,5.719286,52.644500
Eggestraat,5,A,,8308AB,Nagele,Noordoostpolder,Flevoland,VBO,5.719162,52.643943
Eggestraat,5,,,8308AB,Nagele,Noordoostpolder,Flevoland,VBO,5.719550,52.644193
Eggestraat,6,,,8308AB,Nagele,Noordoostpolder,Flevoland,VBO,5.719055,52.644498
Eggestraat,7,,,8308AB,Nagele,Noordoostpolder,Flevoland,VBO,5.719032,52.644204
Eggestraat,8,,,8308AB,Nagele,Noordoostpolder,Flevoland,VBO,5.718842,52.644447
Eggestraat,9,,,8308AB,Nagele,Noordoostpolder,Flevoland,VBO,5.719061,52.644096
Eggestraat,10,A,,8308AB,Nagele,Noordoostpolder,Flevoland,VBO,5.718178,52.644539
Eggestraat,10,,,8308AB,Nagele,Noordoostpolder,Flevoland,VBO,5.718429,52.644529
Eggestraat,11,,,8308AB,Nagele,Noordoostpolder,Flevoland,VBO,5.718826,52.644213
Eggestraat,12,A,,8308AB,Nagele,Noordoostpolder,Flevoland,VBO,5.717321,52.644496
Eggestraat,12,,,8308AB,Nagele,Noordoostpolder,Flevoland,VBO,5.717779,52.644459
Eggestraat,14,,,8308AB,Nagele,Noordoostpolder,Flevoland,VBO,5.717069,52.644461
Eggestraat,15,,,8308AB,Nagele,Noordoostpolder,Flevoland,VBO,5.718338,52.644206
Eggestraat,18,,1,8308AB,Nagele,Noordoostpolder,Flevoland,VBO,5.716420,52.644544
Eggestraat,18,,,8308AB,Nagele,Noordoostpolder,Flevoland,VBO,5.715741,52.644680
Eggestraat,21,,,8308AB,Nagele,Noordoostpolder,Flevoland,VBO,5.717348,52.644146
Eggestraat,31,,,8308AB,Nagele,Noordoostpolder,Flevoland,VBO,5.715708,52.644141
Eggestraat,33,,1,8308AB,Nagele,Noordoostpolder,Flevoland,VBO,5.714675,52.644297
Eggestraat,33,,,8308AB,Nagele,Noordoostpolder,Flevoland,VBO,5.714440,52.644567
Eggestraat,35,,1,8308AB,Nagele,Noordoostpolder,Flevoland,VBO,5.711730,52.643739
Eggestraat,35,,TR,8308AB,Nagele,Noordoostpolder,Flevoland,VBO,5.711970,52.644214
Eggestraat,35,,,8308AB,Nagele,Noordoostpolder,Flevoland,VBO,5.711292,52.644450
Eggestraat,37,,,8308AB,Nagele,Noordoostpolder,Flevoland,VBO,5.714507,52.643614
Eggestraat,39,,,8308AB,Nagele,Noordoostpolder,Flevoland,VBO,5.712634,52.642164
Eggestraat,41,A,,8308AB,Nagele,Noordoostpolder,Flevoland,VBO,5.712678,52.644475
Eggestraat,41,,,8308AB,Nagele,Noordoostpolder,Flevoland,VBO,5.713268,52.644413
Eggestraat,43,,,8308AB,Nagele,Noordoostpolder,Flevoland,VBO,5.712686,52.643161
Voorhof,1,,,8308AC,Nagele,Noordoostpolder,Flevoland,VBO,5.722449,52.644671
Akkerstraat,2,,,8308AD,Nagele,Noordoostpolder,Flevoland,VBO,5.721113,52.645771
Akkerstraat,4,,,8308AD,Nagele,Noordoostpolder,Flevoland,STA,5.721580,52.645247
Akkerstraat,6,,,8308AD,Nagele,Noordoostpolder,Flevoland,STA,5.721391,52.645186
Zuiderwinkels,1,,,8308AE,Nagele,Noordoostpolder,Flevoland,VBO,5.722769,52.643969
Zuiderwinkels,2,,TR,8308AE,Nagele,Noordoostpolder,Flevoland,VBO,5.722664,52.643735
Zuiderwinkels,2,,,8308AE,Nagele,Noordoostpolder,Flevoland,VBO,5.722782,52.643717
Zuiderpoort,1,,1,8308AG,Nagele,Noordoostpolder,Flevoland,VBO,5.723076,52.643608
Zuiderpoort,1,,,8308AG,Nagele,Noordoostpolder,Flevoland,VBO,5.723046,52.643510
Zuiderpoort,2,,,8308AG,Nagele,Noordoostpolder,Flevoland,VBO,5.722304,52.643089
Zuiderpoort,4,,,8308AG,Nagele,Noordoostpolder,Flevoland,VBO,5.722629,52.643106
Zuiderpoort,10,,,8308AG,Nagele,Noordoostpolder,Flevoland,VBO,5.723147,52.643168
Hakstraat,2,,,8308AH,Nagele,Noordoostpolder,Flevoland,VBO,5.716151,52.644185
Hakstraat,3,,,8308AH,Nagele,Noordoostpolder,Flevoland,VBO,5.717058,52.643546
Hakstraat,4,A,TR,8308AH,Nagele,Noordoostpolder,Flevoland,VBO,5.716340,52.643690
Hakstraat,5,,,8308AH,Nagele,Noordoostpolder,Flevoland,VBO,5.716661,52.643213
Hakstraat,11,A,,8308AH,Nagele,Noordoostpolder,Flevoland,VBO,5.716768,52.642175
Hakstraat,11,,,8308AH,Nagele,Noordoostpolder,Flevoland,VBO,5.717121,52.642260
Hakstraat,13,,,8308AH,Nagele,Noordoostpolder,Flevoland,VBO,5.716651,52.641811
Hakstraat,15,,,8308AH,Nagele,Noordoostpolder,Flevoland,VBO,5.716647,52.641353
Hakstraat,16,,,8308AH,Nagele,Noordoostpolder,Flevoland,VBO,5.716107,52.642163
Hakstraat,17,,,8308AH,Nagele,Noordoostpolder,Flevoland,VBO,5.716760,52.640588
Hakstraat,18,,,8308AH,Nagele,Noordoostpolder,Flevoland,VBO,5.715998,52.641525
Hakstraat,20,,,8308AH,Nagele,Noordoostpolder,Flevoland,VBO,5.715467,52.641563
Hakstraat,22,,,8308AH,Nagele,Noordoostpolder,Flevoland,VBO,5.714906,52.641582
Hakstraat,24,A,,8308AH,Nagele,Noordoostpolder,Flevoland,VBO,5.714477,52.641774
Hakstraat,24,B,,8308AH,Nagele,Noordoostpolder,Flevoland,VBO,5.714050,52.641773
Hakstraat,28,,,8308AH,Nagele,Noordoostpolder,Flevoland,VBO,5.715567,52.641149
Hakstraat,30,,,8308AH,Nagele,Noordoostpolder,Flevoland,VBO,5.715979,52.640941
Karwijhof,1,A,,8308AJ,Nagele,Noordoostpolder,Flevoland,VBO,5.725021,52.642929
Karwijhof,1,B,,8308AJ,Nagele,Noordoostpolder,Flevoland,VBO,5.725021,52.642893
Karwijhof,1,C,,8308AJ,Nagele,Noordoostpolder,Flevoland,VBO,5.725021,52.642866
Karwijhof,1,D,,8308AJ,Nagele,Noordoostpolder,Flevoland,VBO,5.725021,52.642839
Karwijhof,1,E,,8308AJ,Nagele,Noordoostpolder,Flevoland,VBO,5.725020,52.642812
Karwijhof,1,F,,8308AJ,Nagele,Noordoostpolder,Flevoland,VBO,5.725020,52.642785
Karwijhof,1,,,8308AJ,Nagele,Noordoostpolder,Flevoland,VBO,5.724562,52.642732
Karwijhof,2,,,8308AJ,Nagele,Noordoostpolder,Flevoland,VBO,5.724561,52.642670
Karwijhof,3,,,8308AJ,Nagele,Noordoostpolder,Flevoland,VBO,5.724576,52.642598
Karwijhof,4,,,8308AJ,Nagele,Noordoostpolder,Flevoland,VBO,5.724575,52.642544
Karwijhof,5,,,8308AJ,Nagele,Noordoostpolder,Flevoland,VBO,5.724575,52.642472
Karwijhof,6,,,8308AJ,Nagele,Noordoostpolder,Flevoland,VBO,5.724574,52.642409
Karwijhof,7,,,8308AJ,Nagele,Noordoostpolder,Flevoland,VBO,5.724573,52.642328
Karwijhof,8,,,8308AJ,Nagele,Noordoostpolder,Flevoland,VBO,5.724573,52.642274
Karwijhof,9,,,8308AJ,Nagele,Noordoostpolder,Flevoland,VBO,5.724572,52.642193
Karwijhof,10,,,8308AJ,Nagele,Noordoostpolder,Flevoland,VBO,5.724572,52.642148
Karwijhof,11,,,8308AJ,Nagele,Noordoostpolder,Flevoland,VBO,5.724571,52.642058
Karwijhof,12,,,8308AJ,Nagele,Noordoostpolder,Flevoland,VBO,5.724571,52.642013
Karwijhof,13,,,8308AJ,Nagele,Noordoostpolder,Flevoland,VBO,5.724570,52.641924
Karwijhof,14,,,8308AJ,Nagele,Noordoostpolder,Flevoland,VBO,5.724570,52.641879
Karwijhof,15,,,8308AJ,Nagele,Noordoostpolder,Flevoland,VBO,5.724127,52.641871
Karwijhof,16,,,8308AJ,Nagele,Noordoostpolder,Flevoland,VBO,5.724127,52.641925
Karwijhof,17,,,8308AJ,Nagele,Noordoostpolder,Flevoland,VBO,5.724128,52.642006
Karwijhof,18,,,8308AJ,Nagele,Noordoostpolder,Flevoland,VBO,5.724128,52.642051
Karwijhof,19,,,8308AK,Nagele,Noordoostpolder,Flevoland,VBO,5.724129,52.642149
Karwijhof,20,,,8308AK,Nagele,Noordoostpolder,Flevoland,VBO,5.724129,52.642194
Karwijhof,21,,,8308AK,Nagele,Noordoostpolder,Flevoland,VBO,5.723627,52.642196
Karwijhof,22,,,8308AK,Nagele,Noordoostpolder,Flevoland,VBO,5.723612,52.642142
Karwijhof,23,,,8308AK,Nagele,Noordoostpolder,Flevoland,VBO,5.723626,52.642052
Karwijhof,24,,,8308AK,Nagele,Noordoostpolder,Flevoland,VBO,5.723625,52.642007
Karwijhof,25,,,8308AK,Nagele,Noordoostpolder,Flevoland,VBO,5.723625,52.641917
Karwijhof,26,,,8308AK,Nagele,Noordoostpolder,Flevoland,VBO,5.723624,52.641881
Karwijhof,27,,,8308AK,Nagele,Noordoostpolder,Flevoland,VBO,5.723107,52.641874
Karwijhof,28,,,8308AK,Nagele,Noordoostpolder,Flevoland,VBO,5.723108,52.641919
Karwijhof,29,,,8308AK,Nagele,Noordoostpolder,Flevoland,VBO,5.723108,52.642018
Karwijhof,30,,,8308AK,Nagele,Noordoostpolder,Flevoland,VBO,5.723109,52.642054
Karwijhof,31,,,8308AK,Nagele,Noordoostpolder,Flevoland,VBO,5.723109,52.642143
Karwijhof,32,,,8308AK,Nagele,Noordoostpolder,Flevoland,VBO,5.723110,52.642188
Karwijhof,33,,,8308AK,Nagele,Noordoostpolder,Flevoland,VBO,5.722655,52.642603
Karwijhof,34,,,8308AK,Nagele,Noordoostpolder,Flevoland,VBO,5.722641,52.642756
Karwijhof,35,,,8308AK,Nagele,Noordoostpolder,Flevoland,VBO,5.722628,52.642900
Ring,1,,,8308AL,Nagele,Noordoostpolder,Flevoland,VBO,5.724126,52.643704
Ring,5,,,8308AL,Nagele,Noordoostpolder,Flevoland,VBO,5.726700,52.644065
Ring,7,,,8308AL,Nagele,Noordoostpolder,Flevoland,VBO,5.726217,52.644750
Ring,11,,,8308AL,Nagele,Noordoostpolder,Flevoland,VBO,5.726468,52.646591
Ring,15,,,8308AL,Nagele,Noordoostpolder,Flevoland,VBO,5.724149,52.646661
Ring,17,,,8308AL,Nagele,Noordoostpolder,Flevoland,VBO,5.724129,52.646014
Ring,19,,,8308AL,Nagele,Noordoostpolder,Flevoland,VBO,5.724965,52.645248
Ring,21,,,8308AL,Nagele,Noordoostpolder,Flevoland,VBO,5.724206,52.644477
Ring,25,,,8308AL,Nagele,Noordoostpolder,Flevoland,VBO,5.724040,52.644091
Ring,2,,,8308AM,Nagele,Noordoostpolder,Flevoland,VBO,5.727052,52.643849
Ring,4,,,8308AM,Nagele,Noordoostpolder,Flevoland,VBO,5.727053,52.643903
Ring,6,,,8308AM,Nagele,Noordoostpolder,Flevoland,VBO,5.727053,52.643966
Ring,8,,,8308AM,Nagele,Noordoostpolder,Flevoland,VBO,5.727054,52.644019
Ring,10,,,8308AM,Nagele,Noordoostpolder,Flevoland,VBO,5.727054,52.644082
Ring,12,A,,8308AM,Nagele,Noordoostpolder,Flevoland,VBO,5.727104,52.644792
Ring,12,B,,8308AM,Nagele,Noordoostpolder,Flevoland,VBO,5.727106,52.644837
Ring,12,C,,8308AM,Nagele,Noordoostpolder,Flevoland,VBO,5.727105,52.644855
Ring,12,,,8308AM,Nagele,Noordoostpolder,Flevoland,VBO,5.727055,52.644145
Ring,14,,,8308AM,Nagele,Noordoostpolder,Flevoland,VBO,5.727052,52.645700
Ring,16,,,8308AM,Nagele,Noordoostpolder,Flevoland,VBO,5.727052,52.645754
Ring,18,,,8308AM,Nagele,Noordoostpolder,Flevoland,VBO,5.727053,52.645817
Ring,20,,,8308AM,Nagele,Noordoostpolder,Flevoland,VBO,5.727053,52.645871
Ring,22,,,8308AM,Nagele,Noordoostpolder,Flevoland,VBO,5.727054,52.645934
Ring,24,,,8308AM,Nagele,Noordoostpolder,Flevoland,VBO,5.727054,52.645988
Ring,26,,,8308AM,Nagele,Noordoostpolder,Flevoland,VBO,5.727070,52.646050
Ring,28,A,,8308AM,Nagele,Noordoostpolder,Flevoland,VBO,5.727121,52.646976
Ring,28,B,,8308AM,Nagele,Noordoostpolder,Flevoland,VBO,5.727121,52.647003
Ring,28,C,,8308AM,Nagele,Noordoostpolder,Flevoland,VBO,5.727121,52.647021
Ring,28,D,,8308AM,Nagele,Noordoostpolder,Flevoland,VBO,5.727122,52.647048
Ring,28,E,,8308AM,Nagele,Noordoostpolder,Flevoland,VBO,5.727122,52.647075
Ring,28,F,,8308AM,Nagele,Noordoostpolder,Flevoland,VBO,5.727137,52.647093
Ring,30,,,8308AM,Nagele,Noordoostpolder,Flevoland,VBO,5.726843,52.647345
Ring,32,,,8308AM,Nagele,Noordoostpolder,Flevoland,VBO,5.726754,52.647346
Ring,34,,,8308AM,Nagele,Noordoostpolder,Flevoland,VBO,5.726636,52.647346
Ring,36,,,8308AM,Nagele,Noordoostpolder,Flevoland,VBO,5.726518,52.647346
Ring,38,,,8308AM,Nagele,Noordoostpolder,Flevoland,VBO,5.726444,52.647346
Ring,40,,,8308AM,Nagele,Noordoostpolder,Flevoland,VBO,5.726296,52.647347
Ring,42,,,8308AM,Nagele,Noordoostpolder,Flevoland,VBO,5.726237,52.647347
Ring,44,,,8308AN,Nagele,Noordoostpolder,Flevoland,VBO,5.725853,52.647339
Ring,46,,,8308AN,Nagele,Noordoostpolder,Flevoland,VBO,5.725750,52.647348
Ring,48,,,8308AN,Nagele,Noordoostpolder,Flevoland,VBO,5.725661,52.647340
Ring,50,,,8308AN,Nagele,Noordoostpolder,Flevoland,VBO,5.725572,52.647340
Ring,52,,,8308AN,Nagele,Noordoostpolder,Flevoland,VBO,5.725484,52.647340
Ring,54,,,8308AN,Nagele,Noordoostpolder,Flevoland,VBO,5.725380,52.647340
Ring,56,A,TR,8308AN,Nagele,Noordoostpolder,Flevoland,VBO,5.724834,52.647405
Ring,56,,,8308AN,Nagele,Noordoostpolder,Flevoland,VBO,5.725292,52.647377
Ring,58,,,8308AN,Nagele,Noordoostpolder,Flevoland,VBO,5.724287,52.647415
Ring,60,,,8308AN,Nagele,Noordoostpolder,Flevoland,VBO,5.723104,52.647185
Ring,62,,,8308AN,Nagele,Noordoostpolder,Flevoland,VBO,5.723130,52.646736
Ring,64,,,8308AN,Nagele,Noordoostpolder,Flevoland,VBO,5.723173,52.646619
Ring,66,,,8308AN,Nagele,Noordoostpolder,Flevoland,VBO,5.723158,52.646520
Ring,68,,,8308AN,Nagele,Noordoostpolder,Flevoland,VBO,5.723157,52.646421
Ring,70,,,8308AN,Nagele,Noordoostpolder,Flevoland,VBO,5.723156,52.646340
Ring,72,,,8308AN,Nagele,Noordoostpolder,Flevoland,VBO,5.723170,52.646241
Ring,74,,,8308AN,Nagele,Noordoostpolder,Flevoland,VBO,5.723155,52.646116
Ring,86,,,8308AN,Nagele,Noordoostpolder,Flevoland,VBO,5.723125,52.644210
Ring,88,,,8308AN,Nagele,Noordoostpolder,Flevoland,VBO,5.723108,52.643878
Ring,98,,,8308AN,Nagele,Noordoostpolder,Flevoland,VBO,5.724093,52.643264
Ring,100,,,8308AN,Nagele,Noordoostpolder,Flevoland,VBO,5.724226,52.643273
Ring,102,,,8308AP,Nagele,Noordoostpolder,Flevoland,VBO,5.724344,52.643263
Ring,104,,,8308AP,Nagele,Noordoostpolder,Flevoland,VBO,5.724477,52.643263
Ring,106,,,8308AP,Nagele,Noordoostpolder,Flevoland,VBO,5.724595,52.643263
Ring,108,,,8308AP,Nagele,Noordoostpolder,Flevoland,VBO,5.724728,52.643262
Ring,110,,,8308AP,Nagele,Noordoostpolder,Flevoland,VBO,5.724861,52.643262
Ring,112,,,8308AP,Nagele,Noordoostpolder,Flevoland,VBO,5.724979,52.643252
Ring,114,,,8308AP,Nagele,Noordoostpolder,Flevoland,VBO,5.727108,52.643336
Ring,116,,,8308AP,Nagele,Noordoostpolder,Flevoland,VBO,5.727108,52.643381
Ring,118,,,8308AP,Nagele,Noordoostpolder,Flevoland,VBO,5.727109,52.643462
Ring,120,,,8308AP,Nagele,Noordoostpolder,Flevoland,VBO,5.727109,52.643498
Ring,122,,,8308AP,Nagele,Noordoostpolder,Flevoland,VBO,5.727110,52.643588
Ring,124,,,8308AP,Nagele,Noordoostpolder,Flevoland,VBO,5.727110,52.643624
Koolzaadhof,1,A,TR,8308AR,Nagele,Noordoostpolder,Flevoland,VBO,5.727121,52.643103
Koolzaadhof,1,,,8308AR,Nagele,Noordoostpolder,Flevoland,VBO,5.728271,52.642830
Koolzaadhof,2,,,8308AR,Nagele,Noordoostpolder,Flevoland,VBO,5.728167,52.642830
Koolzaadhof,3,,,8308AR,Nagele,Noordoostpolder,Flevoland,VBO,5.728064,52.642830
Koolzaadhof,4,,,8308AR,Nagele,Noordoostpolder,Flevoland,VBO,5.727975,52.642822
Koolzaadhof,5,,,8308AR,Nagele,Noordoostpolder,Flevoland,VBO,5.727872,52.642822
Koolzaadhof,6,,,8308AR,Nagele,Noordoostpolder,Flevoland,VBO,5.727739,52.642795
Koolzaadhof,7,,,8308AR,Nagele,Noordoostpolder,Flevoland,VBO,5.728268,52.642497
Koolzaadhof,8,,,8308AR,Nagele,Noordoostpolder,Flevoland,VBO,5.728165,52.642497
Koolzaadhof,9,,,8308AR,Nagele,Noordoostpolder,Flevoland,VBO,5.728061,52.642498
Koolzaadhof,10,,,8308AR,Nagele,Noordoostpolder,Flevoland,VBO,5.727958,52.642498
Koolzaadhof,11,,,8308AR,Nagele,Noordoostpolder,Flevoland,VBO,5.727869,52.642498
Koolzaadhof,12,,,8308AR,Nagele,Noordoostpolder,Flevoland,VBO,5.727766,52.642490
Koolzaadhof,13,,,8308AR,Nagele,Noordoostpolder,Flevoland,VBO,5.728266,52.642174
Koolzaadhof,14,,,8308AR,Nagele,Noordoostpolder,Flevoland,VBO,5.728162,52.642174
Koolzaadhof,15,,,8308AR,Nagele,Noordoostpolder,Flevoland,VBO,5.728059,52.642165
Koolzaadhof,16,,,8308AR,Nagele,Noordoostpolder,Flevoland,VBO,5.727970,52.642157
Koolzaadhof,17,,,8308AR,Nagele,Noordoostpolder,Flevoland,VBO,5.727867,52.642166
Koolzaadhof,18,A,,8308AR,Nagele,Noordoostpolder,Flevoland,VBO,5.727497,52.642077
Koolzaadhof,18,A,,8308AR,Nagele,Noordoostpolder,Flevoland,VBO,5.727580,52.642131
Koolzaadhof,18,B,,8308AR,Nagele,Noordoostpolder,Flevoland,VBO,5.727497,52.642131
Koolzaadhof,18,C,,8308AR,Nagele,Noordoostpolder,Flevoland,VBO,5.727410,52.642130
Koolzaadhof,18,,,8308AR,Nagele,Noordoostpolder,Flevoland,VBO,5.727763,52.642166
Koolzaadhof,19,,,8308AS,Nagele,Noordoostpolder,Flevoland,VBO,5.727276,52.642150
Koolzaadhof,20,,,8308AS,Nagele,Noordoostpolder,Flevoland,VBO,5.727172,52.642150
Koolzaadhof,21,,,8308AS,Nagele,Noordoostpolder,Flevoland,VBO,5.727069,52.642159
Koolzaadhof,22,,,8308AS,Nagele,Noordoostpolder,Flevoland,VBO,5.726966,52.642159
Koolzaadhof,23,,,8308AS,Nagele,Noordoostpolder,Flevoland,VBO,5.726877,52.642160
Koolzaadhof,24,,,8308AS,Nagele,Noordoostpolder,Flevoland,VBO,5.726773,52.642151
Koolzaadhof,25,,,8308AS,Nagele,Noordoostpolder,Flevoland,VBO,5.726685,52.642151
Koolzaadhof,26,,,8308AS,Nagele,Noordoostpolder,Flevoland,VBO,5.726567,52.642152
Koolzaadhof,27,,,8308AS,Nagele,Noordoostpolder,Flevoland,VBO,5.726478,52.642152
Koolzaadhof,28,,,8308AS,Nagele,Noordoostpolder,Flevoland,VBO,5.726375,52.642152
Koolzaadhof,29,,,8308AS,Nagele,Noordoostpolder,Flevoland,VBO,5.726286,52.642152
Koolzaadhof,30,,,8308AS,Nagele,Noordoostpolder,Flevoland,VBO,5.726183,52.642162
Koolzaadhof,31,,,8308AS,Nagele,Noordoostpolder,Flevoland,VBO,5.726079,52.642162
Koolzaadhof,32,,,8308AS,Nagele,Noordoostpolder,Flevoland,VBO,5.725976,52.642153
Koolzaadhof,33,,,8308AS,Nagele,Noordoostpolder,Flevoland,VBO,5.725887,52.642153
Koolzaadhof,34,,,8308AT,Nagele,Noordoostpolder,Flevoland,VBO,5.725888,52.642324
Koolzaadhof,35,,,8308AT,Nagele,Noordoostpolder,Flevoland,VBO,5.725889,52.642351
Koolzaadhof,36,,,8308AT,Nagele,Noordoostpolder,Flevoland,VBO,5.725889,52.642369
Koolzaadhof,37,,,8308AT,Nagele,Noordoostpolder,Flevoland,VBO,5.725889,52.642396
Koolzaadhof,38,,,8308AT,Nagele,Noordoostpolder,Flevoland,VBO,5.725889,52.642423
Koolzaadhof,39,,,8308AT,Nagele,Noordoostpolder,Flevoland,VBO,5.725889,52.642450
Koolzaadhof,40,,,8308AT,Nagele,Noordoostpolder,Flevoland,VBO,5.725889,52.642468
Koolzaadhof,41,,,8308AT,Nagele,Noordoostpolder,Flevoland,VBO,5.725890,52.642495
Koolzaadhof,42,,,8308AT,Nagele,Noordoostpolder,Flevoland,VBO,5.726112,52.642566
Koolzaadhof,43,,,8308AT,Nagele,Noordoostpolder,Flevoland,VBO,5.726127,52.642620
Koolzaadhof,44,,,8308AT,Nagele,Noordoostpolder,Flevoland,VBO,5.726128,52.642692
Koolzaadhof,45,,,8308AT,Nagele,Noordoostpolder,Flevoland,VBO,5.726128,52.642746
Koolzaadhof,46,,,8308AT,Nagele,Noordoostpolder,Flevoland,VBO,5.726128,52.642809
Koolzaadhof,47,,,8308AT,Nagele,Noordoostpolder,Flevoland,VBO,5.726129,52.642908
Koolzaadhof,48,,,8308AT,Nagele,Noordoostpolder,Flevoland,VBO,5.726115,52.642962
Koolzaadhof,49,,,8308AT,Nagele,Noordoostpolder,Flevoland,VBO,5.726115,52.643025
Koolzaadhof,50,,,8308AT,Nagele,Noordoostpolder,Flevoland,VBO,5.726116,52.643087
Koolzaadhof,51,,,8308AT,Nagele,Noordoostpolder,Flevoland,VBO,5.726131,52.643150
Koolzaadhof,52,,,8308AT,Nagele,Noordoostpolder,Flevoland,VBO,5.727105,52.642995
Koolzaadhof,53,,,8308AT,Nagele,Noordoostpolder,Flevoland,VBO,5.727105,52.643022
Koolzaadhof,54,,,8308AT,Nagele,Noordoostpolder,Flevoland,VBO,5.727105,52.643049
Koolzaadhof,55,,,8308AT,Nagele,Noordoostpolder,Flevoland,VBO,5.727106,52.643076
Klaverhof,1,,,8308AV,Nagele,Noordoostpolder,Flevoland,VBO,5.727601,52.644144
Klaverhof,2,,,8308AV,Nagele,Noordoostpolder,Flevoland,VBO,5.727571,52.644072
Klaverhof,3,,,8308AV,Nagele,Noordoostpolder,Flevoland,VBO,5.727571,52.644018
Klaverhof,4,,,8308AV,Nagele,Noordoostpolder,Flevoland,VBO,5.727570,52.643955
Klaverhof,5,,,8308AV,Nagele,Noordoostpolder,Flevoland,VBO,5.727570,52.643901
Klaverhof,6,,,8308AV,Nagele,Noordoostpolder,Flevoland,VBO,5.727599,52.643829
Klaverhof,7,,,8308AV,Nagele,Noordoostpolder,Flevoland,VBO,5.728148,52.644133
Klaverhof,8,,,8308AV,Nagele,Noordoostpolder,Flevoland,VBO,5.728133,52.644070
Klaverhof,9,,,8308AV,Nagele,Noordoostpolder,Flevoland,VBO,5.728132,52.644016
Klaverhof,10,,,8308AV,Nagele,Noordoostpolder,Flevoland,VBO,5.728117,52.643962
Klaverhof,11,,,8308AV,Nagele,Noordoostpolder,Flevoland,VBO,5.728131,52.643900
Klaverhof,12,,,8308AV,Nagele,Noordoostpolder,Flevoland,VBO,5.728116,52.643828
Klaverhof,13,,,8308AV,Nagele,Noordoostpolder,Flevoland,VBO,5.728680,52.644132
Klaverhof,14,,,8308AW,Nagele,Noordoostpolder,Flevoland,VBO,5.728679,52.644069
Klaverhof,15,,,8308AW,Nagele,Noordoostpolder,Flevoland,VBO,5.728709,52.644024
Klaverhof,16,,,8308AW,Nagele,Noordoostpolder,Flevoland,VBO,5.728679,52.643952
Klaverhof,17,,,8308AW,Nagele,Noordoostpolder,Flevoland,VBO,5.728678,52.643898
Klaverhof,18,,,8308AW,Nagele,Noordoostpolder,Flevoland,VBO,5.728678,52.643844
Klaverhof,19,,,8308AW,Nagele,Noordoostpolder,Flevoland,VBO,5.728677,52.643781
Klaverhof,20,,,8308AW,Nagele,Noordoostpolder,Flevoland,VBO,5.728677,52.643727
Klaverhof,21,,,8308AW,Nagele,Noordoostpolder,Flevoland,VBO,5.728676,52.643664
Klaverhof,22,,,8308AW,Nagele,Noordoostpolder,Flevoland,VBO,5.728676,52.643610
Klaverhof,23,,,8308AW,Nagele,Noordoostpolder,Flevoland,VBO,5.728675,52.643547
Klaverhof,24,,,8308AW,Nagele,Noordoostpolder,Flevoland,VBO,5.728675,52.643494
Klaverhof,25,,,8308AW,Nagele,Noordoostpolder,Flevoland,VBO,5.728675,52.643440
Klaverhof,26,,,8308AW,Nagele,Noordoostpolder,Flevoland,VBO,5.728674,52.643377
Klaverhof,27,,,8308AW,Nagele,Noordoostpolder,Flevoland,VBO,5.728674,52.643323
Klaverhof,28,,,8308AW,Nagele,Noordoostpolder,Flevoland,VBO,5.728688,52.643269
Klaverhof,29,,,8308AW,Nagele,Noordoostpolder,Flevoland,VBO,5.728673,52.643197
Klaverhof,30,,,8308AW,Nagele,Noordoostpolder,Flevoland,VBO,5.728687,52.643143
Klaverhof,31,,,8308AX,Nagele,Noordoostpolder,Flevoland,VBO,5.728687,52.643089
Klaverhof,32,,,8308AX,Nagele,Noordoostpolder,Flevoland,VBO,5.728848,52.642882
Klaverhof,33,,,8308AX,Nagele,Noordoostpolder,Flevoland,VBO,5.728876,52.642711
Klaverhof,34,,,8308AX,Nagele,Noordoostpolder,Flevoland,VBO,5.728874,52.642531
Klaverhof,35,,,8308AX,Nagele,Noordoostpolder,Flevoland,VBO,5.728873,52.642415
Klaverhof,36,,,8308AX,Nagele,Noordoostpolder,Flevoland,VBO,5.728858,52.642298
Klaverhof,37,,,8308AX,Nagele,Noordoostpolder,Flevoland,VBO,5.728842,52.642199
Klaverhof,38,,,8308AX,Nagele,Noordoostpolder,Flevoland,VBO,5.728841,52.642109
Klaverhof,39,,,8308AX,Nagele,Noordoostpolder,Flevoland,VBO,5.728870,52.641974
Klaverhof,40,,,8308AX,Nagele,Noordoostpolder,Flevoland,VBO,5.728022,52.643109
Klaverhof,41,,,8308AX,Nagele,Noordoostpolder,Flevoland,VBO,5.727948,52.643109
Klaverhof,42,,,8308AX,Nagele,Noordoostpolder,Flevoland,VBO,5.727889,52.643109
Klaverhof,43,,,8308AX,Nagele,Noordoostpolder,Flevoland,VBO,5.727830,52.643110
Klaverhof,44,,,8308AX,Nagele,Noordoostpolder,Flevoland,VBO,5.727771,52.643110
Klaverhof,45,,,8308AX,Nagele,Noordoostpolder,Flevoland,VBO,5.727697,52.643110
Klaverhof,46,,,8308AX,Nagele,Noordoostpolder,Flevoland,VBO,5.727623,52.643110
Klaverhof,47,,,8308AX,Nagele,Noordoostpolder,Flevoland,VBO,5.727564,52.643101
Klaverhof,48,,,8308AX,Nagele,Noordoostpolder,Flevoland,VBO,5.727505,52.643110
Klaverhof,49,,,8308AX,Nagele,Noordoostpolder,Flevoland,VBO,5.727431,52.643102
Klaverhof,50,,,8308AX,Nagele,Noordoostpolder,Flevoland,VBO,5.727372,52.643111
Klaverhof,51,,,8308AX,Nagele,Noordoostpolder,Flevoland,VBO,5.727313,52.643102
Klaverhof,52,,,8308AX,Nagele,Noordoostpolder,Flevoland,VBO,5.727239,52.643111
Klaverhof,53,,,8308AX,Nagele,Noordoostpolder,Flevoland,VBO,5.727180,52.643102
Vlashof,1,,,8308BA,Nagele,Noordoostpolder,Flevoland,VBO,5.727601,52.645986
Vlashof,2,,,8308BA,Nagele,Noordoostpolder,Flevoland,VBO,5.727586,52.645932
Vlashof,3,,,8308BA,Nagele,Noordoostpolder,Flevoland,VBO,5.727570,52.645869
Vlashof,4,,,8308BA,Nagele,Noordoostpolder,Flevoland,VBO,5.727600,52.645815
Vlashof,5,,,8308BA,Nagele,Noordoostpolder,Flevoland,VBO,5.727570,52.645752
Vlashof,6,,,8308BA,Nagele,Noordoostpolder,Flevoland,VBO,5.727569,52.645690
Vlashof,7,,,8308BA,Nagele,Noordoostpolder,Flevoland,VBO,5.728148,52.645993
Vlashof,8,,,8308BA,Nagele,Noordoostpolder,Flevoland,VBO,5.728132,52.645922
Vlashof,9,,,8308BA,Nagele,Noordoostpolder,Flevoland,VBO,5.728117,52.645868
Vlashof,10,,,8308BA,Nagele,Noordoostpolder,Flevoland,VBO,5.728131,52.645805
Vlashof,11,,,8308BA,Nagele,Noordoostpolder,Flevoland,VBO,5.728146,52.645760
Vlashof,12,,,8308BA,Nagele,Noordoostpolder,Flevoland,VBO,5.728131,52.645688
Vlashof,13,,,8308BA,Nagele,Noordoostpolder,Flevoland,VBO,5.728680,52.645983
Vlashof,14,,,8308BA,Nagele,Noordoostpolder,Flevoland,VBO,5.728694,52.645929
Vlashof,15,,,8308BA,Nagele,Noordoostpolder,Flevoland,VBO,5.728679,52.645866
Vlashof,16,,,8308BA,Nagele,Noordoostpolder,Flevoland,VBO,5.728693,52.645812
Vlashof,17,,,8308BA,Nagele,Noordoostpolder,Flevoland,VBO,5.728678,52.645749
Vlashof,18,,,8308BA,Nagele,Noordoostpolder,Flevoland,VBO,5.728677,52.645686
Vlashof,19,,,8308BB,Nagele,Noordoostpolder,Flevoland,VBO,5.728675,52.645399
Vlashof,20,,,8308BB,Nagele,Noordoostpolder,Flevoland,VBO,5.728675,52.645345
Vlashof,21,,,8308BB,Nagele,Noordoostpolder,Flevoland,VBO,5.728674,52.645282
Vlashof,22,,,8308BB,Nagele,Noordoostpolder,Flevoland,VBO,5.728674,52.645228
Vlashof,23,,,8308BB,Nagele,Noordoostpolder,Flevoland,VBO,5.728673,52.645165
Vlashof,24,,,8308BB,Nagele,Noordoostpolder,Flevoland,VBO,5.728673,52.645111
Vlashof,25,,,8308BB,Nagele,Noordoostpolder,Flevoland,VBO,5.728687,52.645057
Vlashof,26,,,8308BB,Nagele,Noordoostpolder,Flevoland,VBO,5.728687,52.644994
Vlashof,27,,,8308BB,Nagele,Noordoostpolder,Flevoland,VBO,5.728671,52.644932
Vlashof,28,,,8308BB,Nagele,Noordoostpolder,Flevoland,VBO,5.728686,52.644878
Vlashof,29,,,8308BB,Nagele,Noordoostpolder,Flevoland,VBO,5.728685,52.644815
Vlashof,30,,,8308BB,Nagele,Noordoostpolder,Flevoland,VBO,5.728670,52.644761
Vlashof,37,,,8308BC,Nagele,Noordoostpolder,Flevoland,VBO,5.728021,52.644870
Vlashof,38,,,8308BC,Nagele,Noordoostpolder,Flevoland,VBO,5.727962,52.644862
Vlashof,39,,,8308BC,Nagele,Noordoostpolder,Flevoland,VBO,5.727888,52.644862
Vlashof,40,,,8308BC,Nagele,Noordoostpolder,Flevoland,VBO,5.727829,52.644862
Vlashof,41,,,8308BC,Nagele,Noordoostpolder,Flevoland,VBO,5.727770,52.644871
Vlashof,42,,,8308BC,Nagele,Noordoostpolder,Flevoland,VBO,5.727696,52.644871
Vlashof,43,,,8308BC,Nagele,Noordoostpolder,Flevoland,VBO,5.727637,52.644863
Vlashof,44,,,8308BC,Nagele,Noordoostpolder,Flevoland,VBO,5.727563,52.644863
Vlashof,45,,,8308BC,Nagele,Noordoostpolder,Flevoland,VBO,5.727504,52.644872
Vlashof,46,,,8308BC,Nagele,Noordoostpolder,Flevoland,VBO,5.727445,52.644872
Vlashof,47,,,8308BC,Nagele,Noordoostpolder,Flevoland,VBO,5.727371,52.644872
Vlashof,48,,,8308BC,Nagele,Noordoostpolder,Flevoland,VBO,5.727312,52.644872
Vlashof,49,,,8308BC,Nagele,Noordoostpolder,Flevoland,VBO,5.727252,52.644864
Vlashof,50,,,8308BC,Nagele,Noordoostpolder,Flevoland,VBO,5.727179,52.644864
Vlashof,51,,,8308BC,Nagele,Noordoostpolder,Flevoland,VBO,5.727329,52.645214
Vlashof,52,,,8308BC,Nagele,Noordoostpolder,Flevoland,VBO,5.727329,52.645250
Vlashof,53,,,8308BC,Nagele,Noordoostpolder,Flevoland,VBO,5.727330,52.645295
Vlashof,54,,,8308BC,Nagele,Noordoostpolder,Flevoland,VBO,5.727330,52.645331
Vlashof,55,,,8308BC,Nagele,Noordoostpolder,Flevoland,VBO,5.727330,52.645367
Vlashof,56,,,8308BC,Nagele,Noordoostpolder,Flevoland,VBO,5.727331,52.645412
Vlashof,57,,,8308BC,Nagele,Noordoostpolder,Flevoland,VBO,5.727331,52.645448
Vlashof,58,,,8308BC,Nagele,Noordoostpolder,Flevoland,VBO,5.727331,52.645493
Lucernehof,1,,,8308BD,Nagele,Noordoostpolder,Flevoland,VBO,5.727663,52.648251
Lucernehof,2,,,8308BD,Nagele,Noordoostpolder,Flevoland,VBO,5.727662,52.648197
Lucernehof,3,,,8308BD,Nagele,Noordoostpolder,Flevoland,VBO,5.727662,52.648134
Lucernehof,4,,,8308BD,Nagele,Noordoostpolder,Flevoland,VBO,5.727632,52.648071
Lucernehof,5,,,8308BD,Nagele,Noordoostpolder,Flevoland,VBO,5.727631,52.648017
Lucernehof,6,,,8308BD,Nagele,Noordoostpolder,Flevoland,VBO,5.727631,52.647954
Lucernehof,7,,,8308BD,Nagele,Noordoostpolder,Flevoland,VBO,5.727631,52.647900
Lucernehof,8,,,8308BD,Nagele,Noordoostpolder,Flevoland,VBO,5.728239,52.648249
Lucernehof,9,,,8308BD,Nagele,Noordoostpolder,Flevoland,VBO,5.728239,52.648195
Lucernehof,10,,,8308BD,Nagele,Noordoostpolder,Flevoland,VBO,5.728223,52.648132
Lucernehof,11,,,8308BD,Nagele,Noordoostpolder,Flevoland,VBO,5.728223,52.648069
Lucernehof,12,,,8308BD,Nagele,Noordoostpolder,Flevoland,VBO,5.728222,52.648015
Lucernehof,13,,,8308BD,Nagele,Noordoostpolder,Flevoland,VBO,5.728222,52.647961
Lucernehof,14,A,,8308BD,Nagele,Noordoostpolder,Flevoland,VBO,5.728280,52.647862
Lucernehof,14,,,8308BD,Nagele,Noordoostpolder,Flevoland,VBO,5.728222,52.647899
Lucernehof,15,,,8308BE,Nagele,Noordoostpolder,Flevoland,VBO,5.728815,52.648238
Lucernehof,16,,,8308BE,Nagele,Noordoostpolder,Flevoland,VBO,5.728800,52.648184
Lucernehof,17,,,8308BE,Nagele,Noordoostpolder,Flevoland,VBO,5.728800,52.648122
Lucernehof,18,,,8308BE,Nagele,Noordoostpolder,Flevoland,VBO,5.728814,52.648068
Lucernehof,19,,,8308BE,Nagele,Noordoostpolder,Flevoland,VBO,5.728814,52.648023
Lucernehof,20,,,8308BE,Nagele,Noordoostpolder,Flevoland,VBO,5.728813,52.647960
Lucernehof,21,,,8308BE,Nagele,Noordoostpolder,Flevoland,VBO,5.728813,52.647897
Lucernehof,22,,,8308BE,Nagele,Noordoostpolder,Flevoland,VBO,5.729078,52.647788
Lucernehof,23,,,8308BE,Nagele,Noordoostpolder,Flevoland,VBO,5.729078,52.647761
Lucernehof,24,,,8308BE,Nagele,Noordoostpolder,Flevoland,VBO,5.729077,52.647743
Lucernehof,25,,,8308BE,Nagele,Noordoostpolder,Flevoland,VBO,5.729077,52.647716
Lucernehof,26,,,8308BE,Nagele,Noordoostpolder,Flevoland,VBO,5.729077,52.647689
Lucernehof,27,,,8308BE,Nagele,Noordoostpolder,Flevoland,VBO,5.729092,52.647662
Lucernehof,28,,,8308BE,Nagele,Noordoostpolder,Flevoland,VBO,5.728796,52.647618
Lucernehof,29,,,8308BE,Nagele,Noordoostpolder,Flevoland,VBO,5.728810,52.647564
Lucernehof,30,,,8308BE,Nagele,Noordoostpolder,Flevoland,VBO,5.728810,52.647510
Lucernehof,31,,,8308BE,Nagele,Noordoostpolder,Flevoland,VBO,5.728809,52.647456
Lucernehof,32,,,8308BE,Nagele,Noordoostpolder,Flevoland,VBO,5.728809,52.647394
Lucernehof,33,,,8308BE,Nagele,Noordoostpolder,Flevoland,VBO,5.728808,52.647331
Lucernehof,34,,,8308BE,Nagele,Noordoostpolder,Flevoland,VBO,5.728808,52.647277
Lucernehof,35,,,8308BE,Nagele,Noordoostpolder,Flevoland,VBO,5.728807,52.647223
Lucernehof,36,,,8308BE,Nagele,Noordoostpolder,Flevoland,VBO,5.728807,52.647169
Lucernehof,37,,,8308BE,Nagele,Noordoostpolder,Flevoland,VBO,5.728806,52.647106
Lucernehof,38,,,8308BE,Nagele,Noordoostpolder,Flevoland,VBO,5.728806,52.647052
Lucernehof,39,,,8308BE,Nagele,Noordoostpolder,Flevoland,VBO,5.728806,52.646998
Lucernehof,40,,,8308BG,Nagele,Noordoostpolder,Flevoland,VBO,5.728539,52.646945
Lucernehof,41,,,8308BG,Nagele,Noordoostpolder,Flevoland,VBO,5.728495,52.646945
Lucernehof,42,,,8308BG,Nagele,Noordoostpolder,Flevoland,VBO,5.728451,52.646954
Lucernehof,43,,,8308BG,Nagele,Noordoostpolder,Flevoland,VBO,5.728421,52.646954
Lucernehof,44,,,8308BG,Nagele,Noordoostpolder,Flevoland,VBO,5.728377,52.646954
Lucernehof,45,,TR,8308BG,Nagele,Noordoostpolder,Flevoland,VBO,5.728332,52.646937
Lucernehof,46,,,8308BG,Nagele,Noordoostpolder,Flevoland,VBO,5.728230,52.647117
Lucernehof,47,,,8308BG,Nagele,Noordoostpolder,Flevoland,VBO,5.728142,52.647117
Lucernehof,48,,,8308BG,Nagele,Noordoostpolder,Flevoland,VBO,5.728053,52.647117
Lucernehof,49,,,8308BG,Nagele,Noordoostpolder,Flevoland,VBO,5.727950,52.647117
Lucernehof,50,,,8308BG,Nagele,Noordoostpolder,Flevoland,VBO,5.727861,52.647118
Lucernehof,51,,,8308BG,Nagele,Noordoostpolder,Flevoland,VBO,5.727772,52.647118
Lucernehof,52,,,8308BG,Nagele,Noordoostpolder,Flevoland,VBO,5.727684,52.647118
Lucernehof,53,,,8308BG,Nagele,Noordoostpolder,Flevoland,VBO,5.727580,52.647118
Lucernehof,54,,,8308BG,Nagele,Noordoostpolder,Flevoland,VBO,5.727491,52.647119
Lucernehof,55,,,8308BG,Nagele,Noordoostpolder,Flevoland,VBO,5.727403,52.647119
Lucernehof,56,,,8308BG,Nagele,Noordoostpolder,Flevoland,VBO,5.727314,52.647119
Lucernehof,57,,,8308BG,Nagele,Noordoostpolder,Flevoland,VBO,5.727211,52.647120
Lucernehof,58,,,8308BG,Nagele,Noordoostpolder,Flevoland,VBO,5.727274,52.647605
Gerstehof,1,,,8308BH,Nagele,Noordoostpolder,Flevoland,VBO,5.725280,52.647700
Gerstehof,2,,,8308BH,Nagele,Noordoostpolder,Flevoland,VBO,5.725383,52.647700
Gerstehof,3,,,8308BH,Nagele,Noordoostpolder,Flevoland,VBO,5.725486,52.647700
Gerstehof,4,,,8308BH,Nagele,Noordoostpolder,Flevoland,VBO,5.725575,52.647699
Gerstehof,5,,,8308BH,Nagele,Noordoostpolder,Flevoland,VBO,5.725664,52.647699
Gerstehof,6,,,8308BH,Nagele,Noordoostpolder,Flevoland,VBO,5.725767,52.647699
Gerstehof,7,,,8308BH,Nagele,Noordoostpolder,Flevoland,VBO,5.725856,52.647699
Gerstehof,8,,,8308BH,Nagele,Noordoostpolder,Flevoland,VBO,5.725297,52.648060
Gerstehof,9,,,8308BH,Nagele,Noordoostpolder,Flevoland,VBO,5.725386,52.648059
Gerstehof,10,,,8308BH,Nagele,Noordoostpolder,Flevoland,VBO,5.725489,52.648050
Gerstehof,11,,,8308BH,Nagele,Noordoostpolder,Flevoland,VBO,5.725578,52.648050
Gerstehof,12,,,8308BH,Nagele,Noordoostpolder,Flevoland,VBO,5.725667,52.648059
Gerstehof,13,,,8308BH,Nagele,Noordoostpolder,Flevoland,VBO,5.725755,52.648058
Gerstehof,14,,,8308BH,Nagele,Noordoostpolder,Flevoland,VBO,5.725859,52.648058
Gerstehof,15,,,8308BH,Nagele,Noordoostpolder,Flevoland,VBO,5.725300,52.648410
Gerstehof,16,,,8308BH,Nagele,Noordoostpolder,Flevoland,VBO,5.725388,52.648410
Gerstehof,17,,,8308BH,Nagele,Noordoostpolder,Flevoland,VBO,5.725477,52.648410
Gerstehof,18,,,8308BH,Nagele,Noordoostpolder,Flevoland,VBO,5.725581,52.648409
Gerstehof,19,,,8308BH,Nagele,Noordoostpolder,Flevoland,VBO,5.725669,52.648409
Gerstehof,20,,,8308BH,Nagele,Noordoostpolder,Flevoland,VBO,5.725758,52.648409
Gerstehof,21,,,8308BH,Nagele,Noordoostpolder,Flevoland,VBO,5.725861,52.648409
Gerstehof,22,,,8308BH,Nagele,Noordoostpolder,Flevoland,VBO,5.725950,52.648408
Gerstehof,23,,,8308BJ,Nagele,Noordoostpolder,Flevoland,VBO,5.726039,52.648417
Gerstehof,24,,,8308BJ,Nagele,Noordoostpolder,Flevoland,VBO,5.726142,52.648408
Gerstehof,25,,,8308BJ,Nagele,Noordoostpolder,Flevoland,VBO,5.726231,52.648408
Gerstehof,26,,,8308BJ,Nagele,Noordoostpolder,Flevoland,VBO,5.726319,52.648407
Gerstehof,27,,,8308BJ,Nagele,Noordoostpolder,Flevoland,VBO,5.726408,52.648407
Gerstehof,28,,,8308BJ,Nagele,Noordoostpolder,Flevoland,VBO,5.726511,52.648407
Gerstehof,29,,,8308BJ,Nagele,Noordoostpolder,Flevoland,VBO,5.726600,52.648406
Gerstehof,30,,,8308BJ,Nagele,Noordoostpolder,Flevoland,VBO,5.726689,52.648406
Gerstehof,31,,,8308BJ,Nagele,Noordoostpolder,Flevoland,VBO,5.726792,52.648406
Gerstehof,32,,,8308BJ,Nagele,Noordoostpolder,Flevoland,VBO,5.726881,52.648406
Gerstehof,33,,,8308BJ,Nagele,Noordoostpolder,Flevoland,VBO,5.727042,52.648243
Gerstehof,34,,,8308BJ,Nagele,Noordoostpolder,Flevoland,VBO,5.727056,52.648189
Gerstehof,35,,,8308BJ,Nagele,Noordoostpolder,Flevoland,VBO,5.727056,52.648127
Gerstehof,36,,,8308BJ,Nagele,Noordoostpolder,Flevoland,VBO,5.727056,52.648073
Gerstehof,37,,,8308BJ,Nagele,Noordoostpolder,Flevoland,VBO,5.727055,52.648010
Gerstehof,38,,,8308BJ,Nagele,Noordoostpolder,Flevoland,VBO,5.727055,52.647956
Gerstehof,39,,,8308BJ,Nagele,Noordoostpolder,Flevoland,VBO,5.727054,52.647902
Tarwehof,1,,,8308BK,Nagele,Noordoostpolder,Flevoland,VBO,5.723149,52.647275
Tarwehof,3,,,8308BK,Nagele,Noordoostpolder,Flevoland,VBO,5.723149,52.647365
Tarwehof,5,,,8308BK,Nagele,Noordoostpolder,Flevoland,VBO,5.723150,52.647473
Tarwehof,7,,,8308BK,Nagele,Noordoostpolder,Flevoland,VBO,5.723151,52.647571
Tarwehof,9,,,8308BK,Nagele,Noordoostpolder,Flevoland,VBO,5.723137,52.647661
Tarwehof,11,,,8308BK,Nagele,Noordoostpolder,Flevoland,VBO,5.723152,52.647760
Tarwehof,13,,,8308BK,Nagele,Noordoostpolder,Flevoland,VBO,5.723109,52.647886
Tarwehof,15,,,8308BK,Nagele,Noordoostpolder,Flevoland,VBO,5.722963,52.648147
Tarwehof,17,,,8308BK,Nagele,Noordoostpolder,Flevoland,VBO,5.723009,52.648318
Tarwehof,19,,,8308BK,Nagele,Noordoostpolder,Flevoland,VBO,5.723218,52.648605
Tarwehof,21,,,8308BK,Nagele,Noordoostpolder,Flevoland,VBO,5.723543,52.648586
Tarwehof,23,,,8308BK,Nagele,Noordoostpolder,Flevoland,VBO,5.723853,52.648594
Tarwehof,25,,,8308BK,Nagele,Noordoostpolder,Flevoland,VBO,5.724134,52.648575
Tarwehof,27,,,8308BK,Nagele,Noordoostpolder,Flevoland,VBO,5.724368,52.648323
Tarwehof,29,,,8308BK,Nagele,Noordoostpolder,Flevoland,VBO,5.724308,52.648134
Tarwehof,31,,,8308BK,Nagele,Noordoostpolder,Flevoland,VBO,5.724380,52.647945
Tarwehof,33,,,8308BK,Nagele,Noordoostpolder,Flevoland,VBO,5.724305,52.647766
Tarwehof,35,,,8308BK,Nagele,Noordoostpolder,Flevoland,VBO,5.724377,52.647577
Tarwehof,2,,,8308BL,Nagele,Noordoostpolder,Flevoland,VBO,5.722680,52.647869
Tarwehof,4,,,8308BL,Nagele,Noordoostpolder,Flevoland,VBO,5.722679,52.647753
Tarwehof,6,,,8308BL,Nagele,Noordoostpolder,Flevoland,VBO,5.722679,52.647672
Tarwehof,8,,,8308BL,Nagele,Noordoostpolder,Flevoland,VBO,5.722678,52.647555
Tarwehof,10,,,8308BL,Nagele,Noordoostpolder,Flevoland,VBO,5.722677,52.647483
Tarwehof,12,,,8308BL,Nagele,Noordoostpolder,Flevoland,VBO,5.722677,52.647375
Tarwehof,14,,,8308BL,Nagele,Noordoostpolder,Flevoland,VBO,5.722676,52.647294
Tarwehof,16,,,8308BL,Nagele,Noordoostpolder,Flevoland,VBO,5.722675,52.647177
Noorderlaan,1,,,8308BR,Nagele,Noordoostpolder,Flevoland,VBO,5.722701,52.646719
Noorderlaan,3,,,8308BR,Nagele,Noordoostpolder,Flevoland,VBO,5.722656,52.646620
Noorderlaan,5,,,8308BR,Nagele,Noordoostpolder,Flevoland,VBO,5.722655,52.646530
Noorderlaan,7,,,8308BR,Nagele,Noordoostpolder,Flevoland,VBO,5.722669,52.646440
Noorderlaan,9,,,8308BR,Nagele,Noordoostpolder,Flevoland,VBO,5.722654,52.646315
Noorderlaan,11,,,8308BR,Nagele,Noordoostpolder,Flevoland,VBO,5.722668,52.646234
Noorderlaan,13,,,8308BR,Nagele,Noordoostpolder,Flevoland,VBO,5.722667,52.646144
Noorderlaan,21,,,8308BR,Nagele,Noordoostpolder,Flevoland,VBO,5.722675,52.645218
Noorderwinkels,1,,,8308BS,Nagele,Noordoostpolder,Flevoland,VBO,5.722797,52.645694
Noorderwinkels,2,,,8308BS,Nagele,Noordoostpolder,Flevoland,VBO,5.723015,52.645298
Noorderwinkels,3,,,8308BS,Nagele,Noordoostpolder,Flevoland,VBO,5.722797,52.645748
Noorderwinkels,4,,,8308BS,Nagele,Noordoostpolder,Flevoland,VBO,5.723031,52.645442
Noorderwinkels,6,,,8308BS,Nagele,Noordoostpolder,Flevoland,VBO,5.723032,52.645523
Noorderwinkels,7,,,8308BS,Nagele,Noordoostpolder,Flevoland,VBO,5.722739,52.645910
Noorderwinkels,8,,,8308BS,Nagele,Noordoostpolder,Flevoland,VBO,5.723018,52.645622
De Klamp,4,,,8308CA,Nagele,Noordoostpolder,Flevoland,VBO,5.724254,52.641089
De Klamp,6,,,8308CA,Nagele,Noordoostpolder,Flevoland,VBO,5.724253,52.641035
De Klamp,8,,,8308CA,Nagele,Noordoostpolder,Flevoland,VBO,5.724268,52.640981
De Klamp,10,,,8308CA,Nagele,Noordoostpolder,Flevoland,VBO,5.724252,52.640927
De Klamp,12,,,8308CA,Nagele,Noordoostpolder,Flevoland,VBO,5.724267,52.640873
De Klamp,14,,,8308CA,Nagele,Noordoostpolder,Flevoland,VBO,5.724266,52.640819
De Klamp,16,,,8308CA,Nagele,Noordoostpolder,Flevoland,VBO,5.724266,52.640765
De Klamp,18,,,8308CA,Nagele,Noordoostpolder,Flevoland,VBO,5.724251,52.640711
De Klamp,20,,,8308CA,Nagele,Noordoostpolder,Flevoland,VBO,5.724265,52.640657
De Klamp,22,,,8308CA,Nagele,Noordoostpolder,Flevoland,VBO,5.724515,52.640540
De Klamp,24,,,8308CA,Nagele,Noordoostpolder,Flevoland,VBO,5.724663,52.640548
De Klamp,26,,,8308CA,Nagele,Noordoostpolder,Flevoland,VBO,5.724811,52.640557
De Klamp,28,,,8308CA,Nagele,Noordoostpolder,Flevoland,VBO,5.724929,52.640556
De Klamp,30,,,8308CA,Nagele,Noordoostpolder,Flevoland,VBO,5.725062,52.640547
De Klamp,40,,,8308CA,Nagele,Noordoostpolder,Flevoland,VBO,5.725075,52.640340
De Klamp,42,,,8308CA,Nagele,Noordoostpolder,Flevoland,VBO,5.725103,52.640098
De Klamp,44,,,8308CA,Nagele,Noordoostpolder,Flevoland,VBO,5.724793,52.640090
De Klamp,46,,,8308CA,Nagele,Noordoostpolder,Flevoland,VBO,5.724541,52.640081
De Klamp,48,,,8308CA,Nagele,Noordoostpolder,Flevoland,VBO,5.724484,52.640315
De Klamp,50,,,8308CA,Nagele,Noordoostpolder,Flevoland,VBO,5.724204,52.640388
De Klamp,52,,,8308CB,Nagele,Noordoostpolder,Flevoland,VBO,5.724130,52.640388
De Klamp,54,,,8308CB,Nagele,Noordoostpolder,Flevoland,VBO,5.723834,52.640362
De Klamp,56,,,8308CB,Nagele,Noordoostpolder,Flevoland,VBO,5.723746,52.640362
De Klamp,60,,,8308CB,Nagele,Noordoostpolder,Flevoland,VBO,5.723704,52.640641
De Klamp,62,,,8308CB,Nagele,Noordoostpolder,Flevoland,VBO,5.723690,52.640848
De Klamp,64,,,8308CB,Nagele,Noordoostpolder,Flevoland,VBO,5.723692,52.641054
De Klamp,1,,,8308CC,Nagele,Noordoostpolder,Flevoland,VBO,5.723206,52.641289
De Klamp,3,,,8308CC,Nagele,Noordoostpolder,Flevoland,VBO,5.723295,52.641289
De Klamp,5,,,8308CC,Nagele,Noordoostpolder,Flevoland,VBO,5.723487,52.641289
De Klamp,7,,,8308CC,Nagele,Noordoostpolder,Flevoland,VBO,5.723590,52.641288
De Klamp,9,,,8308CC,Nagele,Noordoostpolder,Flevoland,VBO,5.723768,52.641288
De Klamp,11,,,8308CC,Nagele,Noordoostpolder,Flevoland,VBO,5.723871,52.641296
De Klamp,13,,,8308CC,Nagele,Noordoostpolder,Flevoland,VBO,5.724048,52.641296
De Klamp,15,,,8308CC,Nagele,Noordoostpolder,Flevoland,VBO,5.724137,52.641296
De Klamp,17,,,8308CC,Nagele,Noordoostpolder,Flevoland,VBO,5.724329,52.641331
De Klamp,19,,,8308CC,Nagele,Noordoostpolder,Flevoland,VBO,5.724418,52.641331
De Klamp,21,,,8308CC,Nagele,Noordoostpolder,Flevoland,VBO,5.724610,52.641321
De Klamp,23,,,8308CC,Nagele,Noordoostpolder,Flevoland,VBO,5.724699,52.641321
De Klamp,25,,,8308CC,Nagele,Noordoostpolder,Flevoland,VBO,5.724906,52.641320
De Klamp,27,,,8308CC,Nagele,Noordoostpolder,Flevoland,VBO,5.724965,52.641329
De Klamp,29,,,8308CC,Nagele,Noordoostpolder,Flevoland,VBO,5.725053,52.641320
De Klamp,51,,,8308CD,Nagele,Noordoostpolder,Flevoland,VBO,5.725498,52.641561
De Klamp,53,,,8308CD,Nagele,Noordoostpolder,Flevoland,VBO,5.725498,52.641525
De Klamp,55,,,8308CD,Nagele,Noordoostpolder,Flevoland,VBO,5.725498,52.641490
De Klamp,57,,,8308CD,Nagele,Noordoostpolder,Flevoland,VBO,5.725498,52.641463
De Klamp,59,,,8308CD,Nagele,Noordoostpolder,Flevoland,VBO,5.725497,52.641436
De Klamp,61,,,8308CD,Nagele,Noordoostpolder,Flevoland,VBO,5.725497,52.641400
De Klamp,63,,,8308CD,Nagele,Noordoostpolder,Flevoland,VBO,5.725497,52.641364
De Klamp,65,,,8308CD,Nagele,Noordoostpolder,Flevoland,VBO,5.725497,52.641337
De Klamp,67,,,8308CD,Nagele,Noordoostpolder,Flevoland,VBO,5.725466,52.641229
De Klamp,69,,,8308CD,Nagele,Noordoostpolder,Flevoland,VBO,5.725481,52.641184
De Klamp,71,,,8308CD,Nagele,Noordoostpolder,Flevoland,VBO,5.725480,52.641076
De Klamp,73,,,8308CD,Nagele,Noordoostpolder,Flevoland,VBO,5.725465,52.641022
De Klamp,75,,,8308CD,Nagele,Noordoostpolder,Flevoland,VBO,5.725449,52.640932
De Klamp,77,,,8308CD,Nagele,Noordoostpolder,Flevoland,VBO,5.725463,52.640870
De Klamp,83,,,8308CD,Nagele,Noordoostpolder,Flevoland,VBO,5.725447,52.640618
De Klamp,85,,,8308CD,Nagele,Noordoostpolder,Flevoland,VBO,5.725445,52.640411
De Klamp,87,,,8308CD,Nagele,Noordoostpolder,Flevoland,VBO,5.725503,52.640258
De Klamp,89,,,8308CD,Nagele,Noordoostpolder,Flevoland,VBO,5.725709,52.640105
De Klamp,91,,,8308CD,Nagele,Noordoostpolder,Flevoland,VBO,5.725708,52.640042
De Klamp,93,,,8308CD,Nagele,Noordoostpolder,Flevoland,VBO,5.725707,52.639907
De Klamp,95,,,8308CD,Nagele,Noordoostpolder,Flevoland,VBO,5.725456,52.639881
De Klamp,99,,,8308CD,Nagele,Noordoostpolder,Flevoland,VBO,5.725116,52.639828
De Klamp,101,,,8308CE,Nagele,Noordoostpolder,Flevoland,VBO,5.724806,52.639883
De Klamp,103,,,8308CE,Nagele,Noordoostpolder,Flevoland,VBO,5.724392,52.639884
De Klamp,105,,,8308CE,Nagele,Noordoostpolder,Flevoland,VBO,5.724141,52.639894
De Klamp,107,,,8308CE,Nagele,Noordoostpolder,Flevoland,VBO,5.723860,52.639868
De Klamp,121,,,8308CE,Nagele,Noordoostpolder,Flevoland,VBO,5.723550,52.639841
Wendakker,2,,TR,8308CG,Nagele,Noordoostpolder,Flevoland,VBO,5.726023,52.640661
Wendakker,3,,,8308CG,Nagele,Noordoostpolder,Flevoland,VBO,5.727262,52.640325
Wendakker,4,,,8308CG,Nagele,Noordoostpolder,Flevoland,VBO,5.725802,52.640680
Wendakker,5,,,8308CG,Nagele,Noordoostpolder,Flevoland,VBO,5.727779,52.640360
Wendakker,7,,,8308CG,Nagele,Noordoostpolder,Flevoland,VBO,5.727821,52.640108
Wendakker,8,,,8308CG,Nagele,Noordoostpolder,Flevoland,VBO,5.726717,52.640641
Wendakker,9,,,8308CG,Nagele,Noordoostpolder,Flevoland,VBO,5.728368,52.640142
Wendakker,10,,,8308CG,Nagele,Noordoostpolder,Flevoland,VBO,5.726716,52.640506
Wendakker,11,,,8308CG,Nagele,Noordoostpolder,Flevoland,VBO,5.728355,52.640331
Wendakker,12,,,8308CG,Nagele,Noordoostpolder,Flevoland,VBO,5.726730,52.640336
Wendakker,13,,,8308CG,Nagele,Noordoostpolder,Flevoland,VBO,5.728313,52.640619
Wendakker,14,,,8308CG,Nagele,Noordoostpolder,Flevoland,VBO,5.726699,52.640138
Wendakker,15,,,8308CG,Nagele,Noordoostpolder,Flevoland,VBO,5.728195,52.640619
Wendakker,16,,,8308CG,Nagele,Noordoostpolder,Flevoland,VBO,5.726742,52.639967
Wendakker,17,,,8308CG,Nagele,Noordoostpolder,Flevoland,VBO,5.727958,52.640620
Wendakker,18,,,8308CG,Nagele,Noordoostpolder,Flevoland,VBO,5.726933,52.639832
Wendakker,19,,,8308CG,Nagele,Noordoostpolder,Flevoland,VBO,5.727855,52.640620
Wendakker,20,,,8308CG,Nagele,Noordoostpolder,Flevoland,VBO,5.727213,52.639822
Wendakker,21,,,8308CG,Nagele,Noordoostpolder,Flevoland,VBO,5.727618,52.640621
Wendakker,22,,,8308CG,Nagele,Noordoostpolder,Flevoland,VBO,5.727539,52.639857
Wendakker,23,,,8308CG,Nagele,Noordoostpolder,Flevoland,VBO,5.727515,52.640621
Wendakker,24,,,8308CG,Nagele,Noordoostpolder,Flevoland,VBO,5.727834,52.639865
Wendakker,25,,,8308CG,Nagele,Noordoostpolder,Flevoland,VBO,5.727264,52.640613
Wendakker,26,,,8308CG,Nagele,Noordoostpolder,Flevoland,VBO,5.728100,52.639864
Wendakker,27,,,8308CG,Nagele,Noordoostpolder,Flevoland,VBO,5.727160,52.640613
Wendakker,28,,,8308CG,Nagele,Noordoostpolder,Flevoland,VBO,5.728440,52.639854
Wendakker,30,,,8308CG,Nagele,Noordoostpolder,Flevoland,VBO,5.728706,52.639827
Wendakker,32,,,8308CG,Nagele,Noordoostpolder,Flevoland,VBO,5.728972,52.639862
Wendakker,34,,,8308CG,Nagele,Noordoostpolder,Flevoland,VBO,5.729224,52.639969
Wendakker,36,,,8308CG,Nagele,Noordoostpolder,Flevoland,VBO,5.729106,52.640086
Wendakker,38,,,8308CG,Nagele,Noordoostpolder,Flevoland,VBO,5.729019,52.640239
Wendakker,40,,,8308CG,Nagele,Noordoostpolder,Flevoland,VBO,5.728768,52.640240
Wendakker,42,,,8308CG,Nagele,Noordoostpolder,Flevoland,VBO,5.728740,52.640402
Wendakker,44,,,8308CG,Nagele,Noordoostpolder,Flevoland,VBO,5.728756,52.640635
Wendakker,46,,,8308CG,Nagele,Noordoostpolder,Flevoland,VBO,5.728758,52.640815
Wendakker,50,,,8308CG,Nagele,Noordoostpolder,Flevoland,VBO,5.728792,52.641471
Wendakker,52,,,8308CG,Nagele,Noordoostpolder,Flevoland,VBO,5.728794,52.641642
Wendakker,54,,,8308CG,Nagele,Noordoostpolder,Flevoland,VBO,5.728795,52.641840
De Pieper,2,,,8308CH,Nagele,Noordoostpolder,Flevoland,VBO,5.728848,52.641067
De Pieper,4,,,8308CH,Nagele,Noordoostpolder,Flevoland,VBO,5.729188,52.641057
Wendakker,56,,,8308CK,Nagele,Noordoostpolder,Flevoland,VBO,5.728320,52.641544
Wendakker,58,,,8308CK,Nagele,Noordoostpolder,Flevoland,VBO,5.728334,52.641499
Wendakker,60,,,8308CK,Nagele,Noordoostpolder,Flevoland,VBO,5.728334,52.641445
Wendakker,62,,,8308CK,Nagele,Noordoostpolder,Flevoland,VBO,5.728334,52.641401
Wendakker,64,,,8308CK,Nagele,Noordoostpolder,Flevoland,VBO,5.728333,52.641284
Wendakker,66,,,8308CK,Nagele,Noordoostpolder,Flevoland,VBO,5.728332,52.641230
Wendakker,68,,,8308CK,Nagele,Noordoostpolder,Flevoland,VBO,5.728332,52.641185
Wendakker,70,,,8308CK,Nagele,Noordoostpolder,Flevoland,VBO,5.728332,52.641131
Wendakker,72,,,8308CK,Nagele,Noordoostpolder,Flevoland,VBO,5.728330,52.640888
Wendakker,74,,,8308CK,Nagele,Noordoostpolder,Flevoland,VBO,5.728212,52.640889
Wendakker,76,,,8308CK,Nagele,Noordoostpolder,Flevoland,VBO,5.728005,52.640889
Wendakker,78,,,8308CK,Nagele,Noordoostpolder,Flevoland,VBO,5.727901,52.640890
Wendakker,80,,,8308CK,Nagele,Noordoostpolder,Flevoland,VBO,5.727680,52.640890
Wendakker,82,,,8308CK,Nagele,Noordoostpolder,Flevoland,VBO,5.727561,52.640890
Wendakker,84,,,8308CK,Nagele,Noordoostpolder,Flevoland,VBO,5.727369,52.640891
Wendakker,86,,,8308CK,Nagele,Noordoostpolder,Flevoland,VBO,5.727251,52.640891
Wendakker,88,,,8308CK,Nagele,Noordoostpolder,Flevoland,VBO,5.727030,52.640892
Wendakker,90,,,8308CK,Nagele,Noordoostpolder,Flevoland,VBO,5.726926,52.640892
Wendakker,92,,,8308CK,Nagele,Noordoostpolder,Flevoland,VBO,5.726705,52.640893
Wendakker,94,,,8308CK,Nagele,Noordoostpolder,Flevoland,VBO,5.726572,52.640893
Wendakker,96,,,8308CK,Nagele,Noordoostpolder,Flevoland,VBO,5.726380,52.640885
Wendakker,98,,,8308CK,Nagele,Noordoostpolder,Flevoland,VBO,5.726276,52.640894
Wendakker,100,,,8308CK,Nagele,Noordoostpolder,Flevoland,VBO,5.726055,52.640895
Wendakker,102,,,8308CK,Nagele,Noordoostpolder,Flevoland,VBO,5.725951,52.640895
Nagelerweg,16,,TR,8308PA,Emmeloord,Noordoostpolder,Flevoland,VBO,5.761820,52.687448
Nagelerweg,20,,TR,8308PA,Nagele,Noordoostpolder,Flevoland,VBO,5.748207,52.672221
Nagelerweg,20,,,8308PA,Nagele,Noordoostpolder,Flevoland,VBO,5.749176,52.673288
Nagelerweg,33,,,8308PA,Nagele,Noordoostpolder,Flevoland,VBO,5.739137,52.663998
Johannes Postweg,7,,,8308PB,Nagele,Noordoostpolder,Flevoland,VBO,5.720155,52.671441
Johannes Postweg,8,,,8308PB,Nagele,Noordoostpolder,Flevoland,VBO,5.718989,52.671447
Johannes Postweg,9,,TR,8308PB,Nagele,Noordoostpolder,Flevoland,VBO,5.720270,52.671045
Johannes Postweg,9,,,8308PB,Nagele,Noordoostpolder,Flevoland,VBO,5.720683,52.670972
Johannes Postweg,11,A,,8308PB,Nagele,Noordoostpolder,Flevoland,VBO,5.724767,52.667590
Johannes Postweg,11,B,,8308PB,Nagele,Noordoostpolder,Flevoland,VBO,5.724826,52.667536
Johannes Postweg,11,C,,8308PB,Nagele,Noordoostpolder,Flevoland,VBO,5.724885,52.667482
Johannes Postweg,11,,,8308PB,Nagele,Noordoostpolder,Flevoland,VBO,5.725148,52.667086
Johannes Postweg,12,,,8308PB,Nagele,Noordoostpolder,Flevoland,VBO,5.724318,52.666791
Johannes Postweg,13,,,8308PB,Nagele,Noordoostpolder,Flevoland,VBO,5.727831,52.664745
Johannes Postweg,15,A,,8308PB,Nagele,Noordoostpolder,Flevoland,VBO,5.729642,52.663361
Johannes Postweg,15,B,,8308PB,Nagele,Noordoostpolder,Flevoland,VBO,5.729701,52.663298
Johannes Postweg,15,C,,8308PB,Nagele,Noordoostpolder,Flevoland,VBO,5.729775,52.663262
Johannes Postweg,15,D,,8308PB,Nagele,Noordoostpolder,Flevoland,VBO,5.729855,52.663197
Johannes Postweg,15,,,8308PB,Nagele,Noordoostpolder,Flevoland,VBO,5.730316,52.662586
Johannes Postweg,16,,,8308PB,Nagele,Noordoostpolder,Flevoland,VBO,5.727578,52.663960
Johannes Postweg,18,,,8308PB,Nagele,Noordoostpolder,Flevoland,VBO,5.730103,52.661760
Zuidwesterringweg,3,,1,8308PC,Nagele,Noordoostpolder,Flevoland,VBO,5.717874,52.647317
Zuidwesterringweg,3,,2,8308PC,Nagele,Noordoostpolder,Flevoland,VBO,5.715833,52.649093
Zuidwesterringweg,5,,1,8308PC,Nagele,Noordoostpolder,Flevoland,VBO,5.715349,52.649508
Zuidwesterringweg,5,,2,8308PC,Nagele,Noordoostpolder,Flevoland,VBO,5.713455,52.651166
Zuidwesterringweg,7,,1,8308PC,Nagele,Noordoostpolder,Flevoland,VBO,5.712838,52.651689
Zuidwesterringweg,7,,1A,8308PC,Nagele,Noordoostpolder,Flevoland,VBO,5.712204,52.651879
Zuidwesterringweg,7,,2,8308PC,Nagele,Noordoostpolder,Flevoland,VBO,5.710738,52.653492
Zuidwesterringweg,7,,TR,8308PC,Nagele,Noordoostpolder,Flevoland,VBO,5.712777,52.651393
Zuidwesterringweg,9,,TR,8308PC,Nagele,Noordoostpolder,Flevoland,VBO,5.707741,52.655828
Zuidwesterringweg,9,,,8308PC,Nagele,Noordoostpolder,Flevoland,VBO,5.708360,52.655665
Zuidwesterringweg,13,,,8308PC,Nagele,Noordoostpolder,Flevoland,VBO,5.703146,52.660172
Zuidwesterringweg,15,,TR,8308PC,Nagele,Noordoostpolder,Flevoland,VBO,5.702571,52.660309
Zuidwesterringweg,15,,,8308PC,Nagele,Noordoostpolder,Flevoland,VBO,5.702559,52.660686
Zuidwesterringweg,4,,TR,8308PD,Nagele,Noordoostpolder,Flevoland,VBO,5.716502,52.649603
Zuidwesterringweg,4,,,8308PD,Nagele,Noordoostpolder,Flevoland,VBO,5.716693,52.649396
Zuidwesterringweg,6,,1,8308PD,Nagele,Noordoostpolder,Flevoland,VBO,5.716223,52.649892
Zuidwesterringweg,6,,2,8308PD,Nagele,Noordoostpolder,Flevoland,VBO,5.714182,52.651587
Zuidwesterringweg,8,,1,8308PD,Nagele,Noordoostpolder,Flevoland,VBO,5.713609,52.652047
Zuidwesterringweg,8,,2,8308PD,Nagele,Noordoostpolder,Flevoland,VBO,5.711554,52.653832
Zuidwesterringweg,10,,,8308PD,Nagele,Noordoostpolder,Flevoland,VBO,5.708895,52.656095
Zuidwesterringweg,14,,,8308PD,Nagele,Noordoostpolder,Flevoland,VBO,5.703931,52.660422
Zuidwesterringweg,16,,,8308PD,Nagele,Noordoostpolder,Flevoland,VBO,5.703388,52.660882
Han Stijkelweg,8,,TR,8308PE,Nagele,Noordoostpolder,Flevoland,VBO,5.678187,52.656399
Han Stijkelweg,8,,,8308PE,Nagele,Noordoostpolder,Flevoland,VBO,5.678807,52.656262
Han Stijkelweg,9,,,8308PE,Nagele,Noordoostpolder,Flevoland,VBO,5.684029,52.652619
Han Stijkelweg,11,,,8308PE,Nagele,Noordoostpolder,Flevoland,VBO,5.686570,52.650392
Han Stijkelweg,12,,TR,8308PE,Nagele,Noordoostpolder,Flevoland,VBO,5.685990,52.649917
Han Stijkelweg,12,,,8308PE,Nagele,Noordoostpolder,Flevoland,VBO,5.685903,52.650115
Han Stijkelweg,15,,,8308PE,Nagele,Noordoostpolder,Flevoland,VBO,5.690609,52.646895
Han Stijkelweg,17,,,8308PE,Nagele,Noordoostpolder,Flevoland,VBO,5.691032,52.646058
Domineesweg,1,,,8308PG,Nagele,Noordoostpolder,Flevoland,VBO,5.717474,52.639355
Domineesweg,3,,TR,8308PG,Nagele,Noordoostpolder,Flevoland,VBO,5.710508,52.642458
Domineesweg,9,,,8308PG,Nagele,Noordoostpolder,Flevoland,VBO,5.668387,52.649259
Domineesweg,11,,1,8308PG,Nagele,Noordoostpolder,Flevoland,VBO,5.663810,52.649259
Domineesweg,11,,,8308PG,Nagele,Noordoostpolder,Flevoland,VBO,5.664738,52.649227
Domineesweg,13,,TR,8308PG,Nagele,Noordoostpolder,Flevoland,VBO,5.663409,52.649478
Domineesweg,13,,,8308PG,Nagele,Noordoostpolder,Flevoland,VBO,5.662713,52.649264
Domineesweg,16,A,,8308PG,Nagele,Noordoostpolder,Flevoland,VBO,5.661314,52.650031
Domineesweg,16,B,,8308PG,Nagele,Noordoostpolder,Flevoland,VBO,5.661196,52.650031
Domineesweg,16,C,,8308PG,Nagele,Noordoostpolder,Flevoland,VBO,5.661107,52.650031
Domineesweg,16,D,,8308PG,Nagele,Noordoostpolder,Flevoland,VBO,5.661004,52.650032
Domineesweg,16,,,8308PG,Nagele,Noordoostpolder,Flevoland,VBO,5.661978,52.649886
Oud Emmeloorderweg,1,A,,8308PH,Nagele,Noordoostpolder,Flevoland,VBO,5.730539,52.653239
Oud Emmeloorderweg,1,B,,8308PH,Nagele,Noordoostpolder,Flevoland,VBO,5.730642,52.653239
Oud Emmeloorderweg,3,,TR,8308PH,Nagele,Noordoostpolder,Flevoland,VBO,5.730880,52.653400
Oud Emmeloorderweg,3,,,8308PH,Nagele,Noordoostpolder,Flevoland,VBO,5.731943,52.653271
Oud Emmeloorderweg,7,,,8308PH,Nagele,Noordoostpolder,Flevoland,VBO,5.743514,52.653237
Oud Emmeloorderweg,9,A,,8308PH,Nagele,Noordoostpolder,Flevoland,VBO,5.744357,52.653369
Oud Emmeloorderweg,9,B,,8308PH,Nagele,Noordoostpolder,Flevoland,VBO,5.744446,52.653369
Oud Emmeloorderweg,9,C,,8308PH,Nagele,Noordoostpolder,Flevoland,VBO,5.744535,52.653369
Oud Emmeloorderweg,9,D,,8308PH,Nagele,Noordoostpolder,Flevoland,VBO,5.744623,52.653368
Oud Emmeloorderweg,11,,,8308PH,Nagele,Noordoostpolder,Flevoland,VBO,5.748863,52.653221
Oud Emmeloorderweg,13,,TR,8308PH,Nagele,Noordoostpolder,Flevoland,VBO,5.757303,52.653401
Oud Emmeloorderweg,13,,,8308PH,Nagele,Noordoostpolder,Flevoland,VBO,5.756828,52.653196
Oud Emmeloorderweg,15,A,,8308PJ,Nagele,Noordoostpolder,Flevoland,VBO,5.757657,52.653328
Oud Emmeloorderweg,15,B,,8308PJ,Nagele,Noordoostpolder,Flevoland,VBO,5.757760,52.653328
Oud Emmeloorderweg,15,C,,8308PJ,Nagele,Noordoostpolder,Flevoland,VBO,5.757864,52.653328
Oud Emmeloorderweg,15,D,,8308PJ,Nagele,Noordoostpolder,Flevoland,VBO,5.757953,52.653328
Oud Emmeloorderweg,17,,TR,8308PJ,Nagele,Noordoostpolder,Flevoland,VBO,5.766182,52.653086
Oud Emmeloorderweg,17,,,8308PJ,Nagele,Noordoostpolder,Flevoland,VBO,5.765784,52.653177
Oud Emmeloorderweg,21,A,,8308PJ,Nagele,Noordoostpolder,Flevoland,VBO,5.772479,52.653281
Oud Emmeloorderweg,21,B,,8308PJ,Nagele,Noordoostpolder,Flevoland,VBO,5.772597,52.653281
Oud Emmeloorderweg,21,D,,8308PJ,Nagele,Noordoostpolder,Flevoland,VBO,5.772804,52.653280
Oud Emmeloorderweg,21,,,8308PJ,Nagele,Noordoostpolder,Flevoland,VBO,5.771118,52.653142
Oud Emmeloorderweg,2,,,8308PK,Nagele,Noordoostpolder,Flevoland,VBO,5.729944,52.652729
Oud Emmeloorderweg,6,,TR,8308PK,Nagele,Noordoostpolder,Flevoland,VBO,5.739579,52.652727
Oud Emmeloorderweg,6,,,8308PK,Nagele,Noordoostpolder,Flevoland,VBO,5.738648,52.652730
Oud Emmeloorderweg,10,,TR,8308PK,Nagele,Noordoostpolder,Flevoland,VBO,5.748429,52.652539
Oud Emmeloorderweg,10,,,8308PK,Nagele,Noordoostpolder,Flevoland,VBO,5.748046,52.652720
Oud Emmeloorderweg,12,,,8308PK,Nagele,Noordoostpolder,Flevoland,VBO,5.749110,52.652708
Oud Emmeloorderweg,14,,1,8308PK,Nagele,Noordoostpolder,Flevoland,VBO,5.757076,52.652148
Oud Emmeloorderweg,14,,,8308PK,Nagele,Noordoostpolder,Flevoland,VBO,5.756913,52.652666
Oud Emmeloorderweg,16,,,8308PK,Nagele,Noordoostpolder,Flevoland,VBO,5.761271,52.652598
Oud Emmeloorderweg,18,,,8308PK,Nagele,Noordoostpolder,Flevoland,VBO,5.765350,52.652558
Vliegtuigweg,1,,TR,8308PL,Nagele,Noordoostpolder,Flevoland,VBO,5.748588,52.668221
Vliegtuigweg,1,,,8308PL,Nagele,Noordoostpolder,Flevoland,VBO,5.748099,52.668133
Vliegtuigweg,3,A,,8308PL,Nagele,Noordoostpolder,Flevoland,VBO,5.748913,52.668238
Vliegtuigweg,3,B,,8308PL,Nagele,Noordoostpolder,Flevoland,VBO,5.749046,52.668238
Vliegtuigweg,3,C,,8308PL,Nagele,Noordoostpolder,Flevoland,VBO,5.749149,52.668237
Vliegtuigweg,3,D,,8308PL,Nagele,Noordoostpolder,Flevoland,VBO,5.749268,52.668228
Vliegtuigweg,5,,,8308PL,Nagele,Noordoostpolder,Flevoland,VBO,5.756954,52.668105
Vliegtuigweg,7,A,,8308PL,Nagele,Noordoostpolder,Flevoland,VBO,5.758921,52.668198
Vliegtuigweg,7,B,,8308PL,Nagele,Noordoostpolder,Flevoland,VBO,5.759024,52.668198
Vliegtuigweg,7,C,,8308PL,Nagele,Noordoostpolder,Flevoland,VBO,5.759142,52.668197
Vliegtuigweg,7,D,,8308PL,Nagele,Noordoostpolder,Flevoland,VBO,5.759261,52.668197
Vliegtuigweg,7,,,8308PL,Nagele,Noordoostpolder,Flevoland,VBO,5.758033,52.668102
Vliegtuigweg,9,,,8308PM,Nagele,Noordoostpolder,Flevoland,VBO,5.762497,52.668079
Vliegtuigweg,11,A,,8308PM,Nagele,Noordoostpolder,Flevoland,VBO,5.768810,52.668176
Vliegtuigweg,11,B,,8308PM,Nagele,Noordoostpolder,Flevoland,VBO,5.768914,52.668175
Vliegtuigweg,11,C,,8308PM,Nagele,Noordoostpolder,Flevoland,VBO,5.769032,52.668166
Vliegtuigweg,11,,,8308PM,Nagele,Noordoostpolder,Flevoland,VBO,5.770213,52.668036
Vliegtuigweg,13,A,,8308PM,Nagele,Noordoostpolder,Flevoland,VBO,5.772536,52.668173
Vliegtuigweg,13,B,,8308PM,Nagele,Noordoostpolder,Flevoland,VBO,5.772639,52.668163
Vliegtuigweg,13,C,,8308PM,Nagele,Noordoostpolder,Flevoland,VBO,5.772757,52.668163
Vliegtuigweg,13,,,8308PM,Nagele,Noordoostpolder,Flevoland,VBO,5.771263,52.668051
Vliegtuigweg,2,,,8308PN,Nagele,Noordoostpolder,Flevoland,VBO,5.748138,52.667521
Vliegtuigweg,4,,,8308PN,Nagele,Noordoostpolder,Flevoland,VBO,5.752558,52.667499
Vliegtuigweg,8,,,8308PN,Nagele,Noordoostpolder,Flevoland,VBO,5.757954,52.667527
Vliegtuigweg,10,,,8308PN,Nagele,Noordoostpolder,Flevoland,VBO,5.765109,52.667505
Vliegtuigweg,14,,,8308PN,Nagele,Noordoostpolder,Flevoland,VBO,5.771110,52.667404
Schokkerringweg,5,,1,8308PP,Nagele,Noordoostpolder,Flevoland,VBO,5.730756,52.639434
Schokkerringweg,5,,2,8308PP,Nagele,Noordoostpolder,Flevoland,VBO,5.733843,52.639371
Schokkerringweg,5,,2A,8308PP,Nagele,Noordoostpolder,Flevoland,VBO,5.733829,52.639506
Schokkerringweg,7,,,8308PP,Nagele,Noordoostpolder,Flevoland,VBO,5.738496,52.639331
Schokkerringweg,11,,TR,8308PP,Nagele,Noordoostpolder,Flevoland,VBO,5.743889,52.639432
Schokkerringweg,11,,,8308PP,Nagele,Noordoostpolder,Flevoland,VBO,5.744377,52.639376
Schokkerringweg,13,A,,8308PP,Nagele,Noordoostpolder,Flevoland,VBO,5.752695,52.639558
Schokkerringweg,13,,TR,8308PP,Nagele,Noordoostpolder,Flevoland,VBO,5.753151,52.639251
Schokkerringweg,13,,,8308PP,Nagele,Noordoostpolder,Flevoland,VBO,5.752664,52.639297
Schokkerringweg,15,A,,8308PR,Nagele,Noordoostpolder,Flevoland,VBO,5.754955,52.639425
Schokkerringweg,15,B,,8308PR,Nagele,Noordoostpolder,Flevoland,VBO,5.755058,52.639425
Schokkerringweg,15,C,,8308PR,Nagele,Noordoostpolder,Flevoland,VBO,5.755147,52.639424
Schokkerringweg,15,D,,8308PR,Nagele,Noordoostpolder,Flevoland,VBO,5.755250,52.639424
Schokkerringweg,15,,,8308PR,Nagele,Noordoostpolder,Flevoland,VBO,5.753698,52.639285
Schokkerringweg,17,,,8308PR,Nagele,Noordoostpolder,Flevoland,VBO,5.761830,52.640095
Schokkerringweg,21,,TR,8308PR,Nagele,Noordoostpolder,Flevoland,VBO,5.766903,52.639028
Schokkerringweg,21,,,8308PR,Nagele,Noordoostpolder,Flevoland,VBO,5.767266,52.640078
Schokkerringweg,2,,1,8308PS,Nagele,Noordoostpolder,Flevoland,VBO,5.729524,52.638728
Schokkerringweg,2,,2,8308PS,Nagele,Noordoostpolder,Flevoland,VBO,5.730943,52.638724
Schokkerringweg,2,,TR,8308PS,Nagele,Noordoostpolder,Flevoland,VBO,5.730441,52.638860
Schokkerringweg,4,,1,8308PS,Nagele,Noordoostpolder,Flevoland,VBO,5.737383,52.638705
Schokkerringweg,4,,2,8308PS,Nagele,Noordoostpolder,Flevoland,VBO,5.738683,52.638701
Schokkerringweg,4,,TR,8308PS,Nagele,Noordoostpolder,Flevoland,VBO,5.738417,52.638889
Schokkerringweg,6,,1,8308PS,Nagele,Noordoostpolder,Flevoland,VBO,5.753161,52.638711
Schokkerringweg,6,,2,8308PS,Nagele,Noordoostpolder,Flevoland,VBO,5.754608,52.638653
Palenweg,2,,TR,8308PT,Nagele,Noordoostpolder,Flevoland,VBO,5.766741,52.636348
Palenweg,2,,,8308PT,Nagele,Noordoostpolder,Flevoland,VBO,5.767148,52.636592
Palenweg,4,,,8308PT,Nagele,Noordoostpolder,Flevoland,VBO,5.766906,52.636017
Palenweg,6,A,,8308PT,Nagele,Noordoostpolder,Flevoland,VBO,5.766913,52.633366
Palenweg,6,B,,8308PT,Nagele,Noordoostpolder,Flevoland,VBO,5.766795,52.633357
Palenweg,6,C,,8308PT,Nagele,Noordoostpolder,Flevoland,VBO,5.766529,52.633367
Palenweg,6,D,,8308PT,Nagele,Noordoostpolder,Flevoland,VBO,5.766426,52.633367
Palenweg,6,E,,8308PT,Nagele,Noordoostpolder,Flevoland,VBO,5.766322,52.633359
Palenweg,6,,,8308PT,Nagele,Noordoostpolder,Flevoland,VBO,5.766763,52.631371
Palenweg,8,,TR,8308PT,Nagele,Noordoostpolder,Flevoland,VBO,5.766758,52.630859
Palenweg,8,,,8308PT,Nagele,Noordoostpolder,Flevoland,VBO,5.766815,52.630616
Palenweg,10,,,8308PT,Nagele,Noordoostpolder,Flevoland,VBO,5.766700,52.625808
Palenweg,12,,TR,8308PT,Nagele,Noordoostpolder,Flevoland,VBO,5.766741,52.625467
Palenweg,12,,,8308PT,Nagele,Noordoostpolder,Flevoland,VBO,5.766784,52.625224
Palenweg,14,,,8308PT,Nagele,Noordoostpolder,Flevoland,VBO,5.766775,52.622537
Palenweg,3,,,8308PV,Nagele,Noordoostpolder,Flevoland,VBO,5.767659,52.625697
Palenweg,5,,,8308PV,Nagele,Noordoostpolder,Flevoland,VBO,5.767656,52.625293
Ramsweg,17,,TR,8308PW,Nagele,Noordoostpolder,Flevoland,VBO,5.771485,52.613993
Ramsweg,17,,,8308PW,Nagele,Noordoostpolder,Flevoland,VBO,5.771217,52.613715
Ramsweg,18,,,8308PW,Nagele,Noordoostpolder,Flevoland,VBO,5.763038,52.613732
Ramsweg,19,,TR,8308PW,Nagele,Noordoostpolder,Flevoland,VBO,5.762653,52.613836
Ramsweg,19,,,8308PW,Nagele,Noordoostpolder,Flevoland,VBO,5.762359,52.613743
Ramsweg,21,,,8308PW,Nagele,Noordoostpolder,Flevoland,VBO,5.753234,52.613772
Ramsweg,22,,TR,8308PW,Nagele,Noordoostpolder,Flevoland,VBO,5.749352,52.613829
Ramsweg,22,,,8308PW,Nagele,Noordoostpolder,Flevoland,VBO,5.748819,52.613758
Ramsweg,23,A,,8308PW,Nagele,Noordoostpolder,Flevoland,VBO,5.744790,52.613905
Ramsweg,23,B,,8308PW,Nagele,Noordoostpolder,Flevoland,VBO,5.744686,52.613897
Schokkerhaven,1,,,8308PX,Nagele,Noordoostpolder,Flevoland,VBO,5.745043,52.612305
Schokkerhaven,2,,,8308PX,Nagele,Noordoostpolder,Flevoland,VBO,5.745057,52.612251
Schokkerhaven,3,,,8308PX,Nagele,Noordoostpolder,Flevoland,VBO,5.745176,52.612314
Schokkerhaven,4,,,8308PX,Nagele,Noordoostpolder,Flevoland,VBO,5.745017,52.612808
Schokkerhaven,5,,,8308PX,Nagele,Noordoostpolder,Flevoland,VBO,5.745238,52.612772
Schokkerhaven,6,,,8308PX,Nagele,Noordoostpolder,Flevoland,VBO,5.745445,52.612753
Schokkerhaven,7,,,8308PX,Nagele,Noordoostpolder,Flevoland,VBO,5.745666,52.612726
Schokkerhaven,8,,,8308PX,Nagele,Noordoostpolder,Flevoland,VBO,5.745888,52.612725
Schokkerhaven,9,,,8308PX,Nagele,Noordoostpolder,Flevoland,VBO,5.746109,52.612751
Schokkerhaven,10,,,8308PX,Nagele,Noordoostpolder,Flevoland,VBO,5.746316,52.612768
Schokkerhaven,11,,,8308PX,Nagele,Noordoostpolder,Flevoland,VBO,5.746538,52.612786
Schokkerhaven,12,,,8308PX,Nagele,Noordoostpolder,Flevoland,VBO,5.746745,52.612812
Schokkerhaven,13,,,8308PX,Nagele,Noordoostpolder,Flevoland,VBO,5.746966,52.612811
Schokkerhaven,14,,,8308PX,Nagele,Noordoostpolder,Flevoland,VBO,5.747173,52.612811
Schokkerhaven,15,,,8308PX,Nagele,Noordoostpolder,Flevoland,VBO,5.747394,52.612810
Schokkerhaven,16,,,8308PX,Nagele,Noordoostpolder,Flevoland,VBO,5.747630,52.612809
Schokkerhaven,17,,,8308PX,Nagele,Noordoostpolder,Flevoland,VBO,5.747837,52.612809
Schokkerhaven,18,,,8308PX,Nagele,Noordoostpolder,Flevoland,VBO,5.748059,52.612808
Schokkerhaven,19,,,8308PX,Nagele,Noordoostpolder,Flevoland,VBO,5.748310,52.612807
Schokkerhaven,20,,,8308PX,Nagele,Noordoostpolder,Flevoland,VBO,5.748531,52.612735
Schokkerhaven,21,,,8308PX,Nagele,Noordoostpolder,Flevoland,VBO,5.748663,52.612734
Schokkerhaven,22,,,8308PX,Nagele,Noordoostpolder,Flevoland,VBO,5.748915,52.612815
Schokkerhaven,23,,,8308PX,Nagele,Noordoostpolder,Flevoland,VBO,5.749727,52.612830
Schokkerhaven,24,,,8308PX,Nagele,Noordoostpolder,Flevoland,VBO,5.749490,52.612768
Schokkerhaven,25,,,8308PX,Nagele,Noordoostpolder,Flevoland,VBO,5.749283,52.612697
Schokkerhaven,26,,,8308PX,Nagele,Noordoostpolder,Flevoland,VBO,5.749061,52.612625
Schokkerhaven,27,,,8308PX,Nagele,Noordoostpolder,Flevoland,VBO,5.748854,52.612563
Schokkerhaven,28,,,8308PX,Nagele,Noordoostpolder,Flevoland,VBO,5.748617,52.612492
Schokkerhaven,29,,,8308PX,Nagele,Noordoostpolder,Flevoland,VBO,5.748425,52.612474
Schokkerhaven,30,,,8308PX,Nagele,Noordoostpolder,Flevoland,VBO,5.748189,52.612475
Schokkerhaven,31,,,8308PX,Nagele,Noordoostpolder,Flevoland,VBO,5.747982,52.612467
Schokkerhaven,33,,TR,8308PX,Nagele,Noordoostpolder,Flevoland,VBO,5.745499,52.612124
Schokkerhaven,34,,,8308PX,Nagele,Noordoostpolder,Flevoland,VBO,5.745432,52.611144
Schokkerhaven,35,,,8308PX,Nagele,Noordoostpolder,Flevoland,VBO,5.745653,52.611054
Schokkerhaven,36,,,8308PX,Nagele,Noordoostpolder,Flevoland,VBO,5.745874,52.610999
Schokkerhaven,37,,,8308PX,Nagele,Noordoostpolder,Flevoland,VBO,5.746095,52.610999
Schokkerhaven,38,,,8308PX,Nagele,Noordoostpolder,Flevoland,VBO,5.746302,52.610989
Schokkerhaven,39,,,8308PX,Nagele,Noordoostpolder,Flevoland,VBO,5.746523,52.610997
Schokkerhaven,40,,,8308PX,Nagele,Noordoostpolder,Flevoland,VBO,5.746745,52.611006
Schokkerhaven,41,,,8308PX,Nagele,Noordoostpolder,Flevoland,VBO,5.746951,52.611014
Schokkerhaven,42,,,8308PX,Nagele,Noordoostpolder,Flevoland,VBO,5.747173,52.611013
Schokkerhaven,43,,,8308PX,Nagele,Noordoostpolder,Flevoland,VBO,5.747409,52.611013
Schokkerhaven,44,,,8308PX,Nagele,Noordoostpolder,Flevoland,VBO,5.747616,52.611012
Schokkerhaven,45,,,8308PX,Nagele,Noordoostpolder,Flevoland,VBO,5.747837,52.611011
Schokkerhaven,46,,,8308PX,Nagele,Noordoostpolder,Flevoland,VBO,5.748103,52.611002
Schokkerhaven,47,,,8308PX,Nagele,Noordoostpolder,Flevoland,VBO,5.748265,52.611001
Schokkerhaven,48,,,8308PX,Nagele,Noordoostpolder,Flevoland,VBO,5.748487,52.610991
Schokkerhaven,49,,,8308PX,Nagele,Noordoostpolder,Flevoland,VBO,5.748708,52.610991
Schokkerhaven,50,,,8308PX,Nagele,Noordoostpolder,Flevoland,VBO,5.748930,52.610990
Schokkerhaven,51,,,8308PX,Nagele,Noordoostpolder,Flevoland,VBO,5.749181,52.610998
Schokkerhaven,52,,,8308PX,Nagele,Noordoostpolder,Flevoland,VBO,5.749358,52.610989
Schokkerhaven,53,,,8308PX,Nagele,Noordoostpolder,Flevoland,VBO,5.749579,52.610979
Schokkerhaven,54,,,8308PX,Nagele,Noordoostpolder,Flevoland,VBO,5.749801,52.610978
Zuidermeerweg,14,A,,8308PZ,Nagele,Noordoostpolder,Flevoland,VBO,5.659595,52.625455
Zuidermeerweg,14,B,,8308PZ,Nagele,Noordoostpolder,Flevoland,VBO,5.659551,52.625500
Zuidermeerweg,14,C,,8308PZ,Nagele,Noordoostpolder,Flevoland,VBO,5.659493,52.625554
Zuidermeerweg,14,D,,8308PZ,Nagele,Noordoostpolder,Flevoland,VBO,5.659448,52.625599
Zuidermeerweg,16,,TR,8308PZ,Nagele,Noordoostpolder,Flevoland,VBO,5.659347,52.625824
Zuidermeerweg,16,,,8308PZ,Nagele,Noordoostpolder,Flevoland,VBO,5.658860,52.625888
Zuidermeerweg,31,,,8308PZ,Nagele,Noordoostpolder,Flevoland,VBO,5.659617,52.623835
Zuidermeerweg,33,,,8308PZ,Nagele,Noordoostpolder,Flevoland,VBO,5.657296,52.626134
Zuidermeerweg,37,,,8308PZ,Nagele,Noordoostpolder,Flevoland,VBO,5.654462,52.628864
Zuidermeerweg,39,,TR,8308PZ,Nagele,Noordoostpolder,Flevoland,VBO,5.648916,52.632570
Zuidermeerweg,39,,,8308PZ,Nagele,Noordoostpolder,Flevoland,VBO,5.650173,52.632954
Zuidermeerweg,43,,,8308PZ,Nagele,Noordoostpolder,Flevoland,VBO,5.647147,52.635800
Zuidermeerweg,45,,TR,8308PZ,Nagele,Noordoostpolder,Flevoland,VBO,5.642903,52.639997
Zuidermeerweg,45,,TR2,8308PZ,Nagele,Noordoostpolder,Flevoland,VBO,5.641717,52.639326
Zuidermeerweg,45,,,8308PZ,Nagele,Noordoostpolder,Flevoland,VBO,5.643005,52.639791
Ketelmeerweg,1,A,,8308RA,Nagele,Noordoostpolder,Flevoland,VBO,5.721587,52.620749
Ketelmeerweg,1,B,,8308RA,Nagele,Noordoostpolder,Flevoland,VBO,5.721587,52.620695
Ketelmeerweg,1,C,,8308RA,Nagele,Noordoostpolder,Flevoland,VBO,5.721572,52.620633
Ketelmeerweg,1,D,,8308RA,Nagele,Noordoostpolder,Flevoland,VBO,5.721600,52.620471
Ketelmeerweg,1,E,,8308RA,Nagele,Noordoostpolder,Flevoland,VBO,5.721585,52.620408
Ketelmeerweg,1,F,,8308RA,Nagele,Noordoostpolder,Flevoland,VBO,5.721584,52.620354
Ketelmeerweg,1,,,8308RA,Nagele,Noordoostpolder,Flevoland,VBO,5.722416,52.620900
Ketelmeerweg,3,,,8308RA,Nagele,Noordoostpolder,Flevoland,VBO,5.717069,52.620744
Ketelmeerweg,5,,,8308RB,Nagele,Noordoostpolder,Flevoland,VBO,5.712875,52.620765
Ketelmeerweg,11,,TR,8308RB,Nagele,Noordoostpolder,Flevoland,VBO,5.702019,52.620452
Ketelmeerweg,11,,,8308RB,Nagele,Noordoostpolder,Flevoland,VBO,5.702878,52.620738
Ketelmeerweg,13,,,8308RB,Nagele,Noordoostpolder,Flevoland,VBO,5.695125,52.620812
Ketelmeerweg,17,,,8308RB,Nagele,Noordoostpolder,Flevoland,VBO,5.686251,52.620835
Ketelmeerweg,23,,TR,8308RB,Nagele,Noordoostpolder,Flevoland,VBO,5.676608,52.620912
Ketelmeerweg,23,,,8308RB,Nagele,Noordoostpolder,Flevoland,VBO,5.676268,52.620805
Ketelmeerweg,25,,TR,8308RB,Nagele,Noordoostpolder,Flevoland,VBO,5.667776,52.620628
Ketelmeerweg,25,,,8308RB,Nagele,Noordoostpolder,Flevoland,VBO,5.668117,52.620861
Ketelmeerweg,27,,,8308RB,Nagele,Noordoostpolder,Flevoland,VBO,5.667098,52.620845
Sluitgatweg,3,,,8308RC,Nagele,Noordoostpolder,Flevoland,VBO,5.746653,52.634076
Sluitgatweg,5,,,8308RC,Nagele,Noordoostpolder,Flevoland,VBO,5.746603,52.633402
Sluitgatweg,7,A,,8308RC,Nagele,Noordoostpolder,Flevoland,VBO,5.746811,52.629959
Sluitgatweg,7,B,,8308RC,Nagele,Noordoostpolder,Flevoland,VBO,5.746825,52.629887
Sluitgatweg,7,C,,8308RC,Nagele,Noordoostpolder,Flevoland,VBO,5.746810,52.629825
Sluitgatweg,7,D,,8308RC,Nagele,Noordoostpolder,Flevoland,VBO,5.746795,52.629771
Sluitgatweg,7,,,8308RC,Nagele,Noordoostpolder,Flevoland,VBO,5.746565,52.630598
Sluitgatweg,9,,,8308RC,Nagele,Noordoostpolder,Flevoland,VBO,5.746558,52.627902
Sluitgatweg,11,A,,8308RD,Nagele,Noordoostpolder,Flevoland,VBO,5.746770,52.623129
Sluitgatweg,11,B,,8308RD,Nagele,Noordoostpolder,Flevoland,VBO,5.746769,52.623075
Sluitgatweg,11,C,,8308RD,Nagele,Noordoostpolder,Flevoland,VBO,5.746769,52.623012
Sluitgatweg,13,,TR,8308RD,Nagele,Noordoostpolder,Flevoland,VBO,5.745503,52.621758
Sluitgatweg,13,,,8308RD,Nagele,Noordoostpolder,Flevoland,VBO,5.744894,52.621230
Sluitgatweg,15,,,8308RD,Nagele,Noordoostpolder,Flevoland,VBO,5.741096,52.619120
Sluitgatweg,17,,,8308RD,Nagele,Noordoostpolder,Flevoland,VBO,5.739820,52.618369
Sluitgatweg,4,,,8308RE,Nagele,Noordoostpolder,Flevoland,VBO,5.745809,52.633917
Sluitgatweg,6,,TR,8308RE,Nagele,Noordoostpolder,Flevoland,VBO,5.745704,52.633605
Sluitgatweg,6,,,8308RE,Nagele,Noordoostpolder,Flevoland,VBO,5.745567,52.633208
Sluitgatweg,8,,,8308RE,Nagele,Noordoostpolder,Flevoland,VBO,5.745753,52.630601
Sluitgatweg,10,,TR,8308RE,Nagele,Noordoostpolder,Flevoland,VBO,5.745394,52.628229
Sluitgatweg,10,,,8308RE,Nagele,Noordoostpolder,Flevoland,VBO,5.745746,52.628012
Sluitgatweg,12,,TR,8308RE,Nagele,Noordoostpolder,Flevoland,VBO,5.745549,52.625568
Sluitgatweg,12,,,8308RE,Nagele,Noordoostpolder,Flevoland,VBO,5.745577,52.625317
Sluitgatweg,16,,,8308RE,Nagele,Noordoostpolder,Flevoland,VBO,5.742127,52.620537
Sluitgatweg,18,,TR,8308RE,Nagele,Noordoostpolder,Flevoland,VBO,5.736031,52.617230
Sluitgatweg,18,,,8308RE,Nagele,Noordoostpolder,Flevoland,VBO,5.736533,52.617228
Sluitgatweg,20,,,8308RE,Nagele,Noordoostpolder,Flevoland,VBO,5.735777,52.616790
Havenweg,3,,,8308RG,Nagele,Noordoostpolder,Flevoland,VBO,5.722975,52.634181
Havenweg,5,,,8308RG,Nagele,Noordoostpolder,Flevoland,VBO,5.722969,52.633471
Havenweg,7,,,8308RG,Nagele,Noordoostpolder,Flevoland,VBO,5.722948,52.630685
Havenweg,9,,,8308RG,Nagele,Noordoostpolder,Flevoland,VBO,5.722912,52.625904
Havenweg,11,,,8308RG,Nagele,Noordoostpolder,Flevoland,VBO,5.724264,52.623204
Havenweg,2,,TR,8308RH,Nagele,Noordoostpolder,Flevoland,VBO,5.721914,52.636467
Havenweg,2,,,8308RH,Nagele,Noordoostpolder,Flevoland,VBO,5.722123,52.636817
Havenweg,4,A,,8308RH,Nagele,Noordoostpolder,Flevoland,VBO,5.721865,52.633969
Havenweg,4,B,,8308RH,Nagele,Noordoostpolder,Flevoland,VBO,5.721865,52.633915
Havenweg,4,C,,8308RH,Nagele,Noordoostpolder,Flevoland,VBO,5.721864,52.633852
Havenweg,4,,,8308RH,Nagele,Noordoostpolder,Flevoland,VBO,5.721983,52.635910
Havenweg,6,,TR,8308RH,Nagele,Noordoostpolder,Flevoland,VBO,5.721893,52.633690
Havenweg,6,,,8308RH,Nagele,Noordoostpolder,Flevoland,VBO,5.722068,52.633456
Havenweg,8,,1,8308RH,Nagele,Noordoostpolder,Flevoland,VBO,5.722077,52.630742
Havenweg,8,,2,8308RH,Nagele,Noordoostpolder,Flevoland,VBO,5.721958,52.628702
Havenweg,8,,TR,8308RH,Nagele,Noordoostpolder,Flevoland,VBO,5.721945,52.631003
Havenweg,10,,,8308RJ,Nagele,Noordoostpolder,Flevoland,VBO,5.722072,52.626203
Havenweg,12,A,,8308RJ,Nagele,Noordoostpolder,Flevoland,VBO,5.721833,52.623948
Havenweg,12,B,,8308RJ,Nagele,Noordoostpolder,Flevoland,VBO,5.721848,52.623885
Havenweg,12,C,,8308RJ,Nagele,Noordoostpolder,Flevoland,VBO,5.721847,52.623813
Havenweg,12,D,,8308RJ,Nagele,Noordoostpolder,Flevoland,VBO,5.721847,52.623750
Havenweg,14,,TR,8308RJ,Nagele,Noordoostpolder,Flevoland,VBO,5.722288,52.623533
Havenweg,14,,,8308RJ,Nagele,Noordoostpolder,Flevoland,VBO,5.722034,52.623211
Havenweg,20,,,8308RJ,Nagele,Noordoostpolder,Flevoland,VBO,5.730634,52.616257
Havenweg,22,,,8308RJ,Nagele,Noordoostpolder,Flevoland,VBO,5.733410,52.614424
Monnikenweg,3,,,8308RK,Nagele,Noordoostpolder,Flevoland,VBO,5.666390,52.634993
Monnikenweg,7,,,8308RK,Nagele,Noordoostpolder,Flevoland,VBO,5.657114,52.635032
Monnikenweg,4,A,,8308RL,Nagele,Noordoostpolder,Flevoland,VBO,5.666158,52.635631
Monnikenweg,4,B,,8308RL,Nagele,Noordoostpolder,Flevoland,VBO,5.666055,52.635632
Monnikenweg,4,C,,8308RL,Nagele,Noordoostpolder,Flevoland,VBO,5.665966,52.635632
Monnikenweg,4,D,,8308RL,Nagele,Noordoostpolder,Flevoland,VBO,5.665863,52.635641
Monnikenweg,4,,TR,8308RL,Nagele,Noordoostpolder,Flevoland,VBO,5.667767,52.635448
Monnikenweg,4,,,8308RL,Nagele,Noordoostpolder,Flevoland,VBO,5.667221,52.635503
Monnikenweg,6,,,8308RL,Nagele,Noordoostpolder,Flevoland,VBO,5.662774,52.635504
Monnikenweg,8,A,,8308RL,Nagele,Noordoostpolder,Flevoland,VBO,5.656291,52.635672
Monnikenweg,8,B,,8308RL,Nagele,Noordoostpolder,Flevoland,VBO,5.656172,52.635672
Monnikenweg,8,,,8308RL,Nagele,Noordoostpolder,Flevoland,VBO,5.655049,52.635549
Monnikenweg,10,A,,8308RM,Nagele,Noordoostpolder,Flevoland,VBO,5.650913,52.635558
Monnikenweg,10,B,,8308RM,Nagele,Noordoostpolder,Flevoland,VBO,5.650809,52.635559
Monnikenweg,10,C,,8308RM,Nagele,Noordoostpolder,Flevoland,VBO,5.650721,52.635559
Monnikenweg,10,D,,8308RM,Nagele,Noordoostpolder,Flevoland,VBO,5.650455,52.635559
Monnikenweg,10,E,,8308RM,Nagele,Noordoostpolder,Flevoland,VBO,5.650366,52.635560
Monnikenweg,10,F,,8308RM,Nagele,Noordoostpolder,Flevoland,VBO,5.650263,52.635560
Monnikenweg,12,,TR,8308RM,Nagele,Noordoostpolder,Flevoland,VBO,5.649998,52.635668
Monnikenweg,12,,,8308RM,Nagele,Noordoostpolder,Flevoland,VBO,5.649522,52.635184
Abtsweg,3,,,8308RN,Nagele,Noordoostpolder,Flevoland,VBO,5.675709,52.641450
Abtsweg,5,A,,8308RN,Nagele,Noordoostpolder,Flevoland,VBO,5.675546,52.636759
Abtsweg,7,,,8308RN,Nagele,Noordoostpolder,Flevoland,VBO,5.675644,52.636031
Abtsweg,9,,,8308RN,Nagele,Noordoostpolder,Flevoland,VBO,5.675585,52.631439
Abtsweg,11,A,,8308RN,Nagele,Noordoostpolder,Flevoland,VBO,5.675827,52.630153
Abtsweg,11,B,,8308RN,Nagele,Noordoostpolder,Flevoland,VBO,5.675827,52.630099
Abtsweg,11,C,,8308RN,Nagele,Noordoostpolder,Flevoland,VBO,5.675827,52.630045
Abtsweg,11,,TR,8308RN,Nagele,Noordoostpolder,Flevoland,VBO,5.675488,52.631140
Abtsweg,11,,,8308RN,Nagele,Noordoostpolder,Flevoland,VBO,5.675580,52.630801
Abtsweg,15,A,,8308RP,Nagele,Noordoostpolder,Flevoland,VBO,5.675831,52.624024
Abtsweg,15,B,,8308RP,Nagele,Noordoostpolder,Flevoland,VBO,5.675772,52.623970
Abtsweg,15,C,,8308RP,Nagele,Noordoostpolder,Flevoland,VBO,5.675786,52.623916
Abtsweg,15,D,,8308RP,Nagele,Noordoostpolder,Flevoland,VBO,5.675786,52.623862
Abtsweg,15,,,8308RP,Nagele,Noordoostpolder,Flevoland,VBO,5.675532,52.625705
Abtsweg,17,A,,8308RP,Nagele,Noordoostpolder,Flevoland,VBO,5.675749,52.622667
Abtsweg,17,B,,8308RP,Nagele,Noordoostpolder,Flevoland,VBO,5.675763,52.622604
Abtsweg,17,C,,8308RP,Nagele,Noordoostpolder,Flevoland,VBO,5.675748,52.622550
Abtsweg,17,,1,8308RP,Nagele,Noordoostpolder,Flevoland,VBO,5.677423,52.623199
Abtsweg,17,,TR,8308RP,Nagele,Noordoostpolder,Flevoland,VBO,5.675686,52.623602
Abtsweg,17,,,8308RP,Nagele,Noordoostpolder,Flevoland,VBO,5.675546,52.623306
Abtsweg,10,,,8308RR,Nagele,Noordoostpolder,Flevoland,VBO,5.672284,52.634988
Abtsweg,16,,,8308RR,Nagele,Noordoostpolder,Flevoland,VBO,5.674712,52.626534
Abtsweg,18,,,8308RR,Nagele,Noordoostpolder,Flevoland,VBO,5.674722,52.623703
Professor Brandsmaweg,1,,,8308RS,Nagele,Noordoostpolder,Flevoland,VBO,5.699355,52.642442
Professor Brandsmaweg,3,,1,8308RS,Nagele,Noordoostpolder,Flevoland,VBO,5.699349,52.641678
Professor Brandsmaweg,3,,2,8308RS,Nagele,Noordoostpolder,Flevoland,VBO,5.699422,52.639449
Professor Brandsmaweg,5,,1,8308RS,Nagele,Noordoostpolder,Flevoland,VBO,5.699374,52.638901
Professor Brandsmaweg,5,,2,8308RS,Nagele,Noordoostpolder,Flevoland,VBO,5.699418,52.636744
Professor Brandsmaweg,7,,1,8308RS,Nagele,Noordoostpolder,Flevoland,VBO,5.699355,52.636205
Professor Brandsmaweg,7,,2,8308RS,Nagele,Noordoostpolder,Flevoland,VBO,5.699413,52.634075
Professor Brandsmaweg,9,,1,8308RS,Nagele,Noordoostpolder,Flevoland,VBO,5.699321,52.633509
Professor Brandsmaweg,9,,2,8308RS,Nagele,Noordoostpolder,Flevoland,VBO,5.699379,52.631379
Professor Brandsmaweg,11,,1,8308RS,Nagele,Noordoostpolder,Flevoland,VBO,5.699302,52.630813
Professor Brandsmaweg,11,,2,8308RS,Nagele,Noordoostpolder,Flevoland,VBO,5.699360,52.628683
Professor Brandsmaweg,13,,1,8308RT,Nagele,Noordoostpolder,Flevoland,VBO,5.699792,52.626993
Professor Brandsmaweg,13,,,8308RT,Nagele,Noordoostpolder,Flevoland,VBO,5.699210,52.626220
Professor Brandsmaweg,13,,,8308RT,Nagele,Noordoostpolder,Flevoland,VBO,5.699300,52.626254
Professor Brandsmaweg,15,A,,8308RT,Nagele,Noordoostpolder,Flevoland,VBO,5.699473,52.625833
Professor Brandsmaweg,15,B,,8308RT,Nagele,Noordoostpolder,Flevoland,VBO,5.699473,52.625779
Professor Brandsmaweg,15,C,,8308RT,Nagele,Noordoostpolder,Flevoland,VBO,5.699472,52.625717
Professor Brandsmaweg,17,A,,8308RT,Nagele,Noordoostpolder,Flevoland,VBO,5.699435,52.622589
Professor Brandsmaweg,17,,,8308RT,Nagele,Noordoostpolder,Flevoland,VBO,5.699175,52.623417
Professor Brandsmaweg,2,,TR,8308RV,Nagele,Noordoostpolder,Flevoland,VBO,5.698436,52.642004
Professor Brandsmaweg,2,,,8308RV,Nagele,Noordoostpolder,Flevoland,VBO,5.698558,52.642570
Professor Brandsmaweg,4,A,,8308RV,Nagele,Noordoostpolder,Flevoland,VBO,5.698627,52.641878
Professor Brandsmaweg,4,B,,8308RV,Nagele,Noordoostpolder,Flevoland,VBO,5.698567,52.641806
Professor Brandsmaweg,6,,TR,8308RV,Nagele,Noordoostpolder,Flevoland,VBO,5.698308,52.636531
Professor Brandsmaweg,6,,,8308RV,Nagele,Noordoostpolder,Flevoland,VBO,5.698504,52.637115
Professor Brandsmaweg,10,,TR,8308RV,Nagele,Noordoostpolder,Flevoland,VBO,5.698196,52.631148
Professor Brandsmaweg,10,,,8308RV,Nagele,Noordoostpolder,Flevoland,VBO,5.698493,52.631372
Professor Brandsmaweg,12,,,8308RV,Nagele,Noordoostpolder,Flevoland,VBO,5.698475,52.630914
Professor Brandsmaweg,18,A,,8308RV,Nagele,Noordoostpolder,Flevoland,VBO,5.698180,52.622655
Professor Brandsmaweg,18,B,,8308RV,Nagele,Noordoostpolder,Flevoland,VBO,5.698180,52.622592
Professor Brandsmaweg,18,,TR,8308RV,Nagele,Noordoostpolder,Flevoland,VBO,5.698423,52.623571
Professor Brandsmaweg,18,,,8308RV,Nagele,Noordoostpolder,Flevoland,VBO,5.698421,52.623239
Rijksweg A6,3,,,8308TA,Nagele,Noordoostpolder,Flevoland,VBO,5.665963,52.625782
Rijksweg A6,4,,,8308TA,Nagele,Noordoostpolder,Flevoland,VBO,5.690649,52.661344
