openbareruimtenaam,huisnummer,huisletter,huisnummertoevoeging,postcode,woonplaatsnaam,gemeentenaam,provincienaam,typeadresseerbaarobject,longitude,latitude
Koningin Wilhelminalaan,1,,,8338KA,Willemsoord,Steenwijkerland,Overijssel,VBO,6.061747,52.825721
Koningin Wilhelminalaan,3,A,,8338KA,Willemsoord,Steenwijkerland,Overijssel,VBO,6.063060,52.826181
Koningin Wilhelminalaan,3,B,,8338KA,Willemsoord,Steenwijkerland,Overijssel,VBO,6.062762,52.826075
Koningin Wilhelminalaan,3,C,,8338KA,Willemsoord,Steenwijkerland,Overijssel,VBO,6.062538,52.825995
Koningin Wilhelminalaan,3,,,8338KA,Willemsoord,Steenwijkerland,Overijssel,VBO,6.062061,52.825818
Koningin Wilhelminalaan,5,,,8338KA,Willemsoord,Steenwijkerland,Overijssel,VBO,6.063239,52.826243
Koningin Wilhelminalaan,7,,,8338KA,Willemsoord,Steenwijkerland,Overijssel,VBO,6.063374,52.826296
Koningin Wilhelminalaan,9,,,8338KA,Willemsoord,Steenwijkerland,Overijssel,VBO,6.064045,52.826535
Koningin Wilhelminalaan,11,,,8338KA,Willemsoord,Steenwijkerland,Overijssel,VBO,6.064522,52.826712
Koningin Wilhelminalaan,17,,,8338KA,Willemsoord,Steenwijkerland,Overijssel,VBO,6.067014,52.827614
Koningin Wilhelminalaan,19,B,,8338KA,Willemsoord,Steenwijkerland,Overijssel,VBO,6.068342,52.829027
Koningin Wilhelminalaan,19,,,8338KA,Willemsoord,Steenwijkerland,Overijssel,VBO,6.068462,52.828154
Koningin Wilhelminalaan,21,,,8338KA,Willemsoord,Steenwijkerland,Overijssel,VBO,6.071416,52.829225
Koningin Wilhelminalaan,23,,,8338KA,Willemsoord,Steenwijkerland,Overijssel,VBO,6.072313,52.829651
Koningin Wilhelminalaan,25,t,,8338KA,Willemsoord,Steenwijkerland,Overijssel,VBO,6.073834,52.830354
Koningin Wilhelminalaan,25,,,8338KA,Willemsoord,Steenwijkerland,Overijssel,VBO,6.074013,52.830162
Koningin Wilhelminalaan,27,,,8338KB,Willemsoord,Steenwijkerland,Overijssel,VBO,6.074296,52.830260
Koningin Wilhelminalaan,29,,,8338KB,Willemsoord,Steenwijkerland,Overijssel,VBO,6.074640,52.830392
Koningin Wilhelminalaan,31,,,8338KB,Willemsoord,Steenwijkerland,Overijssel,VBO,6.075341,52.830649
Koningin Wilhelminalaan,33,,,8338KB,Willemsoord,Steenwijkerland,Overijssel,VBO,6.076716,52.831252
Koningin Wilhelminalaan,37,,,8338KB,Willemsoord,Steenwijkerland,Overijssel,VBO,6.077251,52.831348
Koningin Wilhelminalaan,39,,,8338KB,Willemsoord,Steenwijkerland,Overijssel,VBO,6.078909,52.831994
Koningin Wilhelminalaan,41,,,8338KB,Willemsoord,Steenwijkerland,Overijssel,VBO,6.080595,52.832578
Koningin Wilhelminalaan,43,t,,8338KB,Willemsoord,Steenwijkerland,Overijssel,VBO,6.082687,52.833384
Koningin Wilhelminalaan,43,,,8338KB,Willemsoord,Steenwijkerland,Overijssel,VBO,6.081954,52.833118
Koningin Wilhelminalaan,45,,,8338KB,Willemsoord,Steenwijkerland,Overijssel,VBO,6.084789,52.834126
Koningin Wilhelminalaan,47,,,8338KB,Willemsoord,Steenwijkerland,Overijssel,VBO,6.086162,52.834630
Koningin Wilhelminalaan,49,,,8338KB,Willemsoord,Steenwijkerland,Overijssel,VBO,6.089148,52.835736
Koningin Wilhelminalaan,51,,,8338KB,Willemsoord,Steenwijkerland,Overijssel,VBO,6.092359,52.837011
Koningin Wilhelminalaan,53,,,8338KB,Willemsoord,Steenwijkerland,Overijssel,VBO,6.092868,52.840019
Koningin Wilhelminalaan,55,,,8338KB,Willemsoord,Steenwijkerland,Overijssel,VBO,6.092468,52.841935
Koningin Wilhelminalaan,57,,,8338KB,Willemsoord,Steenwijkerland,Overijssel,VBO,6.092141,52.842782
Koningin Wilhelminalaan,59,,,8338KB,Willemsoord,Steenwijkerland,Overijssel,VBO,6.092144,52.843905
Ronde Blesse,1,,,8338KB,Willemsoord,Steenwijkerland,Overijssel,VBO,6.072216,52.833893
Ronde Blesse,2,,,8338KB,Willemsoord,Steenwijkerland,Overijssel,VBO,6.070306,52.834129
Ronde Blesse,3,,,8338KB,Willemsoord,Steenwijkerland,Overijssel,VBO,6.068945,52.835350
Ronde Blesse,4,,,8338KB,Willemsoord,Steenwijkerland,Overijssel,VBO,6.068416,52.837121
Ronde Blesse,5,,,8338KB,Willemsoord,Steenwijkerland,Overijssel,VBO,6.068475,52.838516
Ronde Blesse,6,,,8338KB,Willemsoord,Steenwijkerland,Overijssel,VBO,6.063023,52.838463
Ronde Blesse,7,t,,8338KB,Willemsoord,Steenwijkerland,Overijssel,VBO,6.061879,52.834471
Ronde Blesse,7,,,8338KB,Willemsoord,Steenwijkerland,Overijssel,VBO,6.062317,52.834714
Ronde Blesse,10,,,8338KB,Willemsoord,Steenwijkerland,Overijssel,VBO,6.057958,52.838261
Amsterdamselaan,2,,,8338KC,Willemsoord,Steenwijkerland,Overijssel,VBO,6.091299,52.839390
Amsterdamselaan,4,,,8338KC,Willemsoord,Steenwijkerland,Overijssel,VBO,6.085657,52.837365
Amsterdamselaan,6,,,8338KC,Willemsoord,Steenwijkerland,Overijssel,VBO,6.085001,52.837153
Koningin Wilhelminalaan,2,,,8338KD,Willemsoord,Steenwijkerland,Overijssel,VBO,6.062503,52.825636
Koningin Wilhelminalaan,6,,,8338KD,Willemsoord,Steenwijkerland,Overijssel,VBO,6.062786,52.825751
Koningin Wilhelminalaan,8,,,8338KD,Willemsoord,Steenwijkerland,Overijssel,VBO,6.062995,52.825822
Koningin Wilhelminalaan,10,,,8338KD,Willemsoord,Steenwijkerland,Overijssel,VBO,6.063219,52.825901
Koningin Wilhelminalaan,12,,,8338KD,Willemsoord,Steenwijkerland,Overijssel,VBO,6.063413,52.825972
Koningin Wilhelminalaan,14,,,8338KD,Willemsoord,Steenwijkerland,Overijssel,VBO,6.063592,52.826034
Koningin Wilhelminalaan,16,,,8338KD,Willemsoord,Steenwijkerland,Overijssel,VBO,6.063935,52.826167
Koningin Wilhelminalaan,18,A,,8338KD,Willemsoord,Steenwijkerland,Overijssel,VBO,6.064308,52.826291
Koningin Wilhelminalaan,18,,,8338KD,Willemsoord,Steenwijkerland,Overijssel,VBO,6.064084,52.826211
Koningin Wilhelminalaan,20,,,8338KD,Willemsoord,Steenwijkerland,Overijssel,VBO,6.064622,52.826415
Koningin Wilhelminalaan,24,,,8338KD,Willemsoord,Steenwijkerland,Overijssel,VBO,6.067218,52.827370
Koningin Wilhelminalaan,26,,,8338KD,Willemsoord,Steenwijkerland,Overijssel,VBO,6.068112,52.827608
Koningin Wilhelminalaan,28,,,8338KD,Willemsoord,Steenwijkerland,Overijssel,VBO,6.068651,52.827892
Koningin Wilhelminalaan,30,A,,8338KD,Willemsoord,Steenwijkerland,Overijssel,VBO,6.069407,52.827888
Koningin Wilhelminalaan,30,B,,8338KD,Willemsoord,Steenwijkerland,Overijssel,VBO,6.070589,52.828519
Koningin Wilhelminalaan,30,,,8338KD,Willemsoord,Steenwijkerland,Overijssel,VBO,6.068964,52.828008
Koningin Wilhelminalaan,32,,,8338KE,Willemsoord,Steenwijkerland,Overijssel,VBO,6.071516,52.828937
Koningin Wilhelminalaan,34,,,8338KE,Willemsoord,Steenwijkerland,Overijssel,VBO,6.073053,52.829503
Koningin Wilhelminalaan,36,,,8338KE,Willemsoord,Steenwijkerland,Overijssel,VBO,6.073680,52.829733
Koningin Wilhelminalaan,38,,,8338KE,Willemsoord,Steenwijkerland,Overijssel,VBO,6.074500,52.830034
Koningin Wilhelminalaan,42,,,8338KE,Willemsoord,Steenwijkerland,Overijssel,VBO,6.076276,52.830680
Koningin Wilhelminalaan,44,A,,8338KE,Willemsoord,Steenwijkerland,Overijssel,VBO,6.078768,52.831573
Koningin Wilhelminalaan,44,B,,8338KE,Willemsoord,Steenwijkerland,Overijssel,VBO,6.078556,52.831250
Koningin Wilhelminalaan,44,,,8338KE,Willemsoord,Steenwijkerland,Overijssel,VBO,6.076829,52.830883
Koningin Wilhelminalaan,46,A,,8338KE,Willemsoord,Steenwijkerland,Overijssel,VBO,6.079851,52.831928
Koningin Wilhelminalaan,46,,,8338KE,Willemsoord,Steenwijkerland,Overijssel,VBO,6.079396,52.831821
Koningin Wilhelminalaan,48,,,8338KE,Willemsoord,Steenwijkerland,Overijssel,VBO,6.080828,52.832343
Koningin Wilhelminalaan,50,,,8338KE,Willemsoord,Steenwijkerland,Overijssel,VBO,6.082231,52.832865
Koningin Wilhelminalaan,52,,,8338KE,Willemsoord,Steenwijkerland,Overijssel,VBO,6.083635,52.833378
Koningin Wilhelminalaan,54,A,,8338KE,Willemsoord,Steenwijkerland,Overijssel,VBO,6.087111,52.831758
Koningin Wilhelminalaan,54,,,8338KE,Willemsoord,Steenwijkerland,Overijssel,VBO,6.085008,52.833882
Koningin Wilhelminalaan,56,,,8338KE,Willemsoord,Steenwijkerland,Overijssel,VBO,6.086411,52.834395
Koningin Wilhelminalaan,58,t,,8338KE,Willemsoord,Steenwijkerland,Overijssel,VBO,6.087462,52.834793
Koningin Wilhelminalaan,58,,,8338KE,Willemsoord,Steenwijkerland,Overijssel,VBO,6.087693,52.834783
Koningin Wilhelminalaan,60,,,8338KE,Willemsoord,Steenwijkerland,Overijssel,VBO,6.089396,52.835492
Koningin Wilhelminalaan,62,,,8338KE,Willemsoord,Steenwijkerland,Overijssel,VBO,6.090830,52.836023
Koningin Wilhelminalaan,64,,,8338KE,Willemsoord,Steenwijkerland,Overijssel,VBO,6.093953,52.837370
Koningin Wilhelminalaan,66,,,8338KE,Willemsoord,Steenwijkerland,Overijssel,VBO,6.092842,52.843928
Koningin Wilhelminalaan,68,,,8338KE,Willemsoord,Steenwijkerland,Overijssel,VBO,6.092742,52.844153
Kerkhoflaan,4,A,,8338KG,Willemsoord,Steenwijkerland,Overijssel,VBO,6.069988,52.826139
Kerkhoflaan,4,,,8338KG,Willemsoord,Steenwijkerland,Overijssel,VBO,6.072313,52.824906
Engelsesteeg,2,,,8338KH,Willemsoord,Steenwijkerland,Overijssel,VBO,6.053912,52.836298
Steenwijkerweg,125,A,,8338LA,Willemsoord,Steenwijkerland,Overijssel,VBO,6.053553,52.836138
Steenwijkerweg,127,,,8338LA,Willemsoord,Steenwijkerland,Overijssel,VBO,6.054860,52.832338
Steenwijkerweg,129,A,,8338LA,Willemsoord,Steenwijkerland,Overijssel,VBO,6.056450,52.832473
Steenwijkerweg,129,,,8338LA,Willemsoord,Steenwijkerland,Overijssel,VBO,6.055152,52.832022
Steenwijkerweg,131,,,8338LA,Willemsoord,Steenwijkerland,Overijssel,VBO,6.055505,52.831768
Steenwijkerweg,133,,,8338LA,Willemsoord,Steenwijkerland,Overijssel,VBO,6.055782,52.831452
Steenwijkerweg,135,,,8338LA,Willemsoord,Steenwijkerland,Overijssel,VBO,6.056075,52.831190
Steenwijkerweg,137,a,,8338LA,Willemsoord,Steenwijkerland,Overijssel,VBO,6.057642,52.830452
Steenwijkerweg,137,,,8338LA,Willemsoord,Steenwijkerland,Overijssel,VBO,6.056569,52.830882
Steenwijkerweg,139,,,8338LA,Willemsoord,Steenwijkerland,Overijssel,VBO,6.057770,52.829491
Steenwijkerweg,141,,,8338LA,Willemsoord,Steenwijkerland,Overijssel,VBO,6.058632,52.828623
Steenwijkerweg,143,,,8338LA,Willemsoord,Steenwijkerland,Overijssel,VBO,6.059479,52.827747
Steenwijkerweg,145,,,8338LA,Willemsoord,Steenwijkerland,Overijssel,VBO,6.060389,52.827031
Steenwijkerweg,147,A,,8338LA,Willemsoord,Steenwijkerland,Overijssel,VBO,6.061029,52.826264
Steenwijkerweg,147,,,8338LA,Willemsoord,Steenwijkerland,Overijssel,VBO,6.060883,52.826418
Steenwijkerweg,149,,,8338LA,Willemsoord,Steenwijkerland,Overijssel,VBO,6.061146,52.826147
Steenwijkerweg,151,,,8338LA,Willemsoord,Steenwijkerland,Overijssel,VBO,6.061262,52.825984
Steenwijkerweg,153,,,8338LA,Willemsoord,Steenwijkerland,Overijssel,VBO,6.061481,52.825758
Steenwijkerweg,155,,,8338LB,Willemsoord,Steenwijkerland,Overijssel,VBO,6.062097,52.825270
Steenwijkerweg,157,,,8338LB,Willemsoord,Steenwijkerland,Overijssel,VBO,6.062595,52.824862
Steenwijkerweg,159,,,8338LB,Willemsoord,Steenwijkerland,Overijssel,VBO,6.063007,52.824644
Steenwijkerweg,161,,,8338LB,Willemsoord,Steenwijkerland,Overijssel,VBO,6.062985,52.824168
Steenwijkerweg,163,,,8338LB,Willemsoord,Steenwijkerland,Overijssel,VBO,6.063190,52.824032
Steenwijkerweg,165,,,8338LB,Willemsoord,Steenwijkerland,Overijssel,VBO,6.063320,52.823825
Steenwijkerweg,167,,,8338LB,Willemsoord,Steenwijkerland,Overijssel,VBO,6.063408,52.823734
Steenwijkerweg,169,,,8338LB,Willemsoord,Steenwijkerland,Overijssel,VBO,6.063672,52.823535
Steenwijkerweg,171,,,8338LB,Willemsoord,Steenwijkerland,Overijssel,VBO,6.063789,52.823454
Steenwijkerweg,173,,,8338LB,Willemsoord,Steenwijkerland,Overijssel,VBO,6.063949,52.823201
Steenwijkerweg,175,,,8338LB,Willemsoord,Steenwijkerland,Overijssel,VBO,6.065090,52.822170
Steenwijkerweg,177,,,8338LC,Willemsoord,Steenwijkerland,Overijssel,VBO,6.066432,52.820671
Steenwijkerweg,179,,,8338LC,Willemsoord,Steenwijkerland,Overijssel,VBO,6.067279,52.819812
Steenwijkerweg,181,,,8338LC,Willemsoord,Steenwijkerland,Overijssel,VBO,6.068140,52.818927
Steenwijkerweg,183,,,8338LC,Willemsoord,Steenwijkerland,Overijssel,VBO,6.069002,52.818050
Steenwijkerweg,185,,,8338LC,Willemsoord,Steenwijkerland,Overijssel,VBO,6.070245,52.816910
Steenwijkerweg,187,A,,8338LC,Willemsoord,Steenwijkerland,Overijssel,VBO,6.070884,52.816355
Steenwijkerweg,187,,,8338LC,Willemsoord,Steenwijkerland,Overijssel,VBO,6.070754,52.816278
Steenwijkerweg,189,,,8338LC,Willemsoord,Steenwijkerland,Overijssel,VBO,6.071572,52.815438
Steenwijkerweg,191,,,8338LC,Willemsoord,Steenwijkerland,Overijssel,VBO,6.072054,52.814968
Steenwijkerweg,193,,,8338LC,Willemsoord,Steenwijkerland,Overijssel,VBO,6.072433,52.814570
Steenwijkerweg,197,,,8338LC,Willemsoord,Steenwijkerland,Overijssel,VBO,6.073294,52.813676
Steenwijkerweg,162,,,8338LD,Willemsoord,Steenwijkerland,Overijssel,VBO,6.059878,52.826684
Steenwijkerweg,164,A,,8338LD,Willemsoord,Steenwijkerland,Overijssel,VBO,6.060213,52.826287
Steenwijkerweg,164,,,8338LD,Willemsoord,Steenwijkerland,Overijssel,VBO,6.060068,52.826494
Steenwijkerweg,166,A,,8338LD,Willemsoord,Steenwijkerland,Overijssel,VBO,6.060547,52.826045
Steenwijkerweg,166,,,8338LD,Willemsoord,Steenwijkerland,Overijssel,VBO,6.060390,52.826187
Steenwijkerweg,168,A,,8338LD,Willemsoord,Steenwijkerland,Overijssel,VBO,6.060843,52.825726
Steenwijkerweg,168,,,8338LD,Willemsoord,Steenwijkerland,Overijssel,VBO,6.060726,52.825844
Steenwijkerweg,170,,,8338LD,Willemsoord,Steenwijkerland,Overijssel,VBO,6.060899,52.825510
Steenwijkerweg,172,,,8338LD,Willemsoord,Steenwijkerland,Overijssel,VBO,6.061500,52.825075
Steenwijkerweg,174,B,,8338LD,Willemsoord,Steenwijkerland,Overijssel,VBO,6.061763,52.824804
Steenwijkerweg,174,,,8338LD,Willemsoord,Steenwijkerland,Overijssel,VBO,6.061691,52.824948
Steenwijkerweg,176,,,8338LD,Willemsoord,Steenwijkerland,Overijssel,VBO,6.061924,52.824660
Steenwijkerweg,178,,,8338LD,Willemsoord,Steenwijkerland,Overijssel,VBO,6.062217,52.824415
Steenwijkerweg,180,,,8338LD,Willemsoord,Steenwijkerland,Overijssel,VBO,6.062319,52.824325
Steenwijkerweg,182,,,8338LD,Willemsoord,Steenwijkerland,Overijssel,VBO,6.062480,52.824144
Steenwijkerweg,184,,,8338LD,Willemsoord,Steenwijkerland,Overijssel,VBO,6.062582,52.824054
Steenwijkerweg,186,,,8338LD,Willemsoord,Steenwijkerland,Overijssel,VBO,6.062725,52.823894
Steenwijkerweg,188,,,8338LD,Willemsoord,Steenwijkerland,Overijssel,VBO,6.062816,52.823819
Steenwijkerweg,190,,,8338LD,Willemsoord,Steenwijkerland,Overijssel,VBO,6.062961,52.823575
Steenwijkerweg,192,,,8338LD,Willemsoord,Steenwijkerland,Overijssel,VBO,6.063152,52.823466
Steenwijkerweg,194,,,8338LD,Willemsoord,Steenwijkerland,Overijssel,VBO,6.063429,52.823186
Steenwijkerweg,196,,,8338LD,Willemsoord,Steenwijkerland,Overijssel,VBO,6.063955,52.822644
Steenwijkerweg,198,,,8338LD,Willemsoord,Steenwijkerland,Overijssel,VBO,6.064320,52.822282
Steenwijkerweg,200,,,8338LE,Willemsoord,Steenwijkerland,Overijssel,VBO,6.065633,52.820837
Steenwijkerweg,202,t,,8338LE,Willemsoord,Steenwijkerland,Overijssel,VBO,6.065768,52.820505
Steenwijkerweg,202,,,8338LE,Willemsoord,Steenwijkerland,Overijssel,VBO,6.066014,52.820556
Steenwijkerweg,204,,,8338LE,Willemsoord,Steenwijkerland,Overijssel,VBO,6.067679,52.818821
Steenwijkerweg,206,,,8338LE,Willemsoord,Steenwijkerland,Overijssel,VBO,6.068584,52.817935
Steenwijkerweg,208,,,8338LE,Willemsoord,Steenwijkerland,Overijssel,VBO,6.069446,52.817041
Steenwijkerweg,210,,,8338LE,Willemsoord,Steenwijkerland,Overijssel,VBO,6.070293,52.816173
Steenwijkerweg,212,,,8338LE,Willemsoord,Steenwijkerland,Overijssel,VBO,6.071201,52.815300
Steenwijkerweg,214,t,,8338LE,Willemsoord,Steenwijkerland,Overijssel,VBO,6.071887,52.814564
Steenwijkerweg,214,,,8338LE,Willemsoord,Steenwijkerland,Overijssel,VBO,6.072001,52.814429
Steenwijkerweg,142,,,8338LH,Willemsoord,Steenwijkerland,Overijssel,VBO,6.055232,52.831383
Steenwijkerweg,152,,,8338LH,Willemsoord,Steenwijkerland,Overijssel,VBO,6.058096,52.828501
Steenwijkerweg,156,,,8338LH,Willemsoord,Steenwijkerland,Overijssel,VBO,6.058959,52.827723
Ir. C.A. Kloosterhuisstraat,1,,,8338SB,Willemsoord,Steenwijkerland,Overijssel,VBO,6.057497,52.823336
Ir. C.A. Kloosterhuisstraat,3,,,8338SB,Willemsoord,Steenwijkerland,Overijssel,VBO,6.057557,52.823354
Ir. C.A. Kloosterhuisstraat,5,,,8338SB,Willemsoord,Steenwijkerland,Overijssel,VBO,6.057617,52.823381
Ir. C.A. Kloosterhuisstraat,7,,,8338SB,Willemsoord,Steenwijkerland,Overijssel,VBO,6.057691,52.823407
Ir. C.A. Kloosterhuisstraat,9,,,8338SB,Willemsoord,Steenwijkerland,Overijssel,VBO,6.057751,52.823425
Ir. C.A. Kloosterhuisstraat,11,,,8338SB,Willemsoord,Steenwijkerland,Overijssel,VBO,6.057900,52.823460
Ir. C.A. Kloosterhuisstraat,13,,,8338SB,Willemsoord,Steenwijkerland,Overijssel,VBO,6.057959,52.823478
Ir. C.A. Kloosterhuisstraat,15,,,8338SB,Willemsoord,Steenwijkerland,Overijssel,VBO,6.058019,52.823504
Ir. C.A. Kloosterhuisstraat,17,,,8338SB,Willemsoord,Steenwijkerland,Overijssel,VBO,6.058079,52.823540
Ir. C.A. Kloosterhuisstraat,19,,,8338SB,Willemsoord,Steenwijkerland,Overijssel,VBO,6.058139,52.823567
Ir. C.A. Kloosterhuisstraat,21,,,8338SB,Willemsoord,Steenwijkerland,Overijssel,VBO,6.058213,52.823593
Ir. C.A. Kloosterhuisstraat,23,,,8338SB,Willemsoord,Steenwijkerland,Overijssel,VBO,6.058348,52.823637
Ir. C.A. Kloosterhuisstraat,27,,,8338SB,Willemsoord,Steenwijkerland,Overijssel,VBO,6.058418,52.823412
Ir. C.A. Kloosterhuisstraat,29,,,8338SB,Willemsoord,Steenwijkerland,Overijssel,VBO,6.058447,52.823367
Ir. C.A. Kloosterhuisstraat,31,,,8338SB,Willemsoord,Steenwijkerland,Overijssel,VBO,6.058520,52.823259
Ir. C.A. Kloosterhuisstraat,33,,,8338SB,Willemsoord,Steenwijkerland,Overijssel,VBO,6.058564,52.823214
Ir. C.A. Kloosterhuisstraat,35,,,8338SB,Willemsoord,Steenwijkerland,Overijssel,VBO,6.058681,52.823096
Ir. C.A. Kloosterhuisstraat,37,,,8338SB,Willemsoord,Steenwijkerland,Overijssel,VBO,6.058841,52.822933
Ir. C.A. Kloosterhuisstraat,39,,,8338SB,Willemsoord,Steenwijkerland,Overijssel,VBO,6.058885,52.822888
Ir. C.A. Kloosterhuisstraat,41,,,8338SC,Willemsoord,Steenwijkerland,Overijssel,VBO,6.059031,52.822735
Ir. C.A. Kloosterhuisstraat,43,,,8338SC,Willemsoord,Steenwijkerland,Overijssel,VBO,6.059075,52.822690
Ir. C.A. Kloosterhuisstraat,45,,,8338SC,Willemsoord,Steenwijkerland,Overijssel,VBO,6.059221,52.822545
Ir. C.A. Kloosterhuisstraat,47,,,8338SC,Willemsoord,Steenwijkerland,Overijssel,VBO,6.059265,52.822491
Ir. C.A. Kloosterhuisstraat,49,,,8338SC,Willemsoord,Steenwijkerland,Overijssel,VBO,6.058849,52.822448
Ir. C.A. Kloosterhuisstraat,51,,,8338SC,Willemsoord,Steenwijkerland,Overijssel,VBO,6.058536,52.822405
Ir. C.A. Kloosterhuisstraat,53,,,8338SC,Willemsoord,Steenwijkerland,Overijssel,VBO,6.058195,52.822416
Ir. C.A. Kloosterhuisstraat,61,,,8338SC,Willemsoord,Steenwijkerland,Overijssel,VBO,6.057973,52.822426
Ir. C.A. Kloosterhuisstraat,63,,,8338SC,Willemsoord,Steenwijkerland,Overijssel,VBO,6.057899,52.822427
Ir. C.A. Kloosterhuisstraat,65,,,8338SC,Willemsoord,Steenwijkerland,Overijssel,VBO,6.057662,52.822437
Ir. C.A. Kloosterhuisstraat,69,,,8338SC,Willemsoord,Steenwijkerland,Overijssel,VBO,6.057379,52.822420
Ir. C.A. Kloosterhuisstraat,91,,,8338SE,Willemsoord,Steenwijkerland,Overijssel,VBO,6.057024,52.822431
Ir. C.A. Kloosterhuisstraat,93,,,8338SE,Willemsoord,Steenwijkerland,Overijssel,VBO,6.056994,52.822468
Ir. C.A. Kloosterhuisstraat,95,,,8338SE,Willemsoord,Steenwijkerland,Overijssel,VBO,6.056951,52.822504
Ir. C.A. Kloosterhuisstraat,97,,,8338SE,Willemsoord,Steenwijkerland,Overijssel,VBO,6.056907,52.822549
Ir. C.A. Kloosterhuisstraat,99,t,,8338SE,Willemsoord,Steenwijkerland,Overijssel,VBO,6.057194,52.822669
Ir. C.A. Kloosterhuisstraat,99,,,8338SE,Willemsoord,Steenwijkerland,Overijssel,VBO,6.056819,52.822603
Ir. C.A. Kloosterhuisstraat,101,,,8338SE,Willemsoord,Steenwijkerland,Overijssel,VBO,6.056775,52.822649
Ir. C.A. Kloosterhuisstraat,103,,,8338SE,Willemsoord,Steenwijkerland,Overijssel,VBO,6.056731,52.822685
Ir. C.A. Kloosterhuisstraat,105,,,8338SE,Willemsoord,Steenwijkerland,Overijssel,VBO,6.056702,52.822721
Ir. C.A. Kloosterhuisstraat,2,,,8338SG,Willemsoord,Steenwijkerland,Overijssel,VBO,6.057806,52.823137
Ir. C.A. Kloosterhuisstraat,4,,,8338SG,Willemsoord,Steenwijkerland,Overijssel,VBO,6.057865,52.823155
Ir. C.A. Kloosterhuisstraat,6,,,8338SG,Willemsoord,Steenwijkerland,Overijssel,VBO,6.057940,52.823181
Ir. C.A. Kloosterhuisstraat,8,,,8338SG,Willemsoord,Steenwijkerland,Overijssel,VBO,6.058000,52.823208
Ir. C.A. Kloosterhuisstraat,10,,,8338SG,Willemsoord,Steenwijkerland,Overijssel,VBO,6.058059,52.823225
Ir. C.A. Kloosterhuisstraat,12,,,8338SG,Willemsoord,Steenwijkerland,Overijssel,VBO,6.058250,52.823063
Ir. C.A. Kloosterhuisstraat,14,,,8338SG,Willemsoord,Steenwijkerland,Overijssel,VBO,6.058294,52.823017
Ir. C.A. Kloosterhuisstraat,16,,,8338SG,Willemsoord,Steenwijkerland,Overijssel,VBO,6.058338,52.822981
Ir. C.A. Kloosterhuisstraat,18,,,8338SG,Willemsoord,Steenwijkerland,Overijssel,VBO,6.058381,52.822936
Ir. C.A. Kloosterhuisstraat,20,,,8338SG,Willemsoord,Steenwijkerland,Overijssel,VBO,6.058425,52.822891
Ir. C.A. Kloosterhuisstraat,22,,,8338SG,Willemsoord,Steenwijkerland,Overijssel,VBO,6.058229,52.822649
Ir. C.A. Kloosterhuisstraat,24,,,8338SG,Willemsoord,Steenwijkerland,Overijssel,VBO,6.058154,52.822650
Ir. C.A. Kloosterhuisstraat,26,,,8338SG,Willemsoord,Steenwijkerland,Overijssel,VBO,6.058051,52.822650
Ir. C.A. Kloosterhuisstraat,28,,,8338SG,Willemsoord,Steenwijkerland,Overijssel,VBO,6.057977,52.822660
Ir. C.A. Kloosterhuisstraat,30,,,8338SG,Willemsoord,Steenwijkerland,Overijssel,VBO,6.057888,52.822660
Ir. C.A. Kloosterhuisstraat,32,,,8338SG,Willemsoord,Steenwijkerland,Overijssel,VBO,6.057680,52.822688
Ir. C.A. Kloosterhuisstraat,34,,,8338SG,Willemsoord,Steenwijkerland,Overijssel,VBO,6.057576,52.822689
Ir. C.A. Kloosterhuisstraat,36,,,8338SG,Willemsoord,Steenwijkerland,Overijssel,VBO,6.057487,52.822689
Olde Meinenbos,1,,,8338SH,Willemsoord,Steenwijkerland,Overijssel,VBO,6.056134,52.822463
Olde Meinenbos,3,,,8338SH,Willemsoord,Steenwijkerland,Overijssel,VBO,6.056251,52.822355
Olde Meinenbos,5,,,8338SH,Willemsoord,Steenwijkerland,Overijssel,VBO,6.056427,52.822237
Olde Meinenbos,7,,,8338SH,Willemsoord,Steenwijkerland,Overijssel,VBO,6.056640,52.821957
Olde Meinenbos,9,,,8338SH,Willemsoord,Steenwijkerland,Overijssel,VBO,6.056841,52.821829
Annie Klijzinglaan,2,,,8338SK,Willemsoord,Steenwijkerland,Overijssel,VBO,6.057017,52.822146
Annie Klijzinglaan,4,,,8338SK,Willemsoord,Steenwijkerland,Overijssel,VBO,6.057060,52.822111
Annie Klijzinglaan,6,,,8338SK,Willemsoord,Steenwijkerland,Overijssel,VBO,6.057109,52.822074
Annie Klijzinglaan,8,,,8338SK,Willemsoord,Steenwijkerland,Overijssel,VBO,6.057207,52.821969
Annie Klijzinglaan,10,,,8338SK,Willemsoord,Steenwijkerland,Overijssel,VBO,6.057256,52.821924
Annie Klijzinglaan,12,,,8338SK,Willemsoord,Steenwijkerland,Overijssel,VBO,6.057307,52.821878
Annie Klijzinglaan,14,,,8338SK,Willemsoord,Steenwijkerland,Overijssel,VBO,6.057404,52.821779
Annie Klijzinglaan,16,,,8338SK,Willemsoord,Steenwijkerland,Overijssel,VBO,6.057450,52.821729
Annie Klijzinglaan,18,,,8338SK,Willemsoord,Steenwijkerland,Overijssel,VBO,6.057492,52.821688
Annie Klijzinglaan,20,,,8338SK,Willemsoord,Steenwijkerland,Overijssel,VBO,6.057617,52.821570
Annie Klijzinglaan,22,,,8338SK,Willemsoord,Steenwijkerland,Overijssel,VBO,6.057689,52.821518
Ds. Schipperstraat,1,,,8338SL,Willemsoord,Steenwijkerland,Overijssel,VBO,6.057672,52.823093
Ds. Schipperstraat,3,,,8338SL,Willemsoord,Steenwijkerland,Overijssel,VBO,6.057597,52.823057
Ds. Schipperstraat,5,,,8338SL,Willemsoord,Steenwijkerland,Overijssel,VBO,6.057508,52.823031
Ds. Schipperstraat,7,,,8338SL,Willemsoord,Steenwijkerland,Overijssel,VBO,6.057433,52.823004
Ds. Schipperstraat,9,,,8338SL,Willemsoord,Steenwijkerland,Overijssel,VBO,6.057313,52.822942
Ds. Schipperstraat,11,,,8338SL,Willemsoord,Steenwijkerland,Overijssel,VBO,6.057224,52.822907
Ds. Schipperstraat,13,,,8338SL,Willemsoord,Steenwijkerland,Overijssel,VBO,6.057134,52.822880
Ds. Schipperstraat,15,,,8338SL,Willemsoord,Steenwijkerland,Overijssel,VBO,6.057060,52.822854
Ds. Schipperstraat,2,,,8338SM,Willemsoord,Steenwijkerland,Overijssel,VBO,6.056949,52.823376
Ds. Schipperstraat,4,,,8338SM,Willemsoord,Steenwijkerland,Overijssel,VBO,6.056993,52.823330
Ds. Schipperstraat,6,,,8338SM,Willemsoord,Steenwijkerland,Overijssel,VBO,6.057051,52.823276
Ds. Schipperstraat,8,,,8338SM,Willemsoord,Steenwijkerland,Overijssel,VBO,6.057095,52.823231
Ds. Schipperstraat,10,,,8338SM,Willemsoord,Steenwijkerland,Overijssel,VBO,6.056812,52.823143
Ds. Schipperstraat,12,,,8338SM,Willemsoord,Steenwijkerland,Overijssel,VBO,6.056723,52.823116
Ds. Schipperstraat,14,,,8338SM,Willemsoord,Steenwijkerland,Overijssel,VBO,6.056648,52.823090
Ds. Schipperstraat,16,,,8338SM,Willemsoord,Steenwijkerland,Overijssel,VBO,6.056366,52.823091
Ds. Schipperstraat,18,A,,8338SM,Willemsoord,Steenwijkerland,Overijssel,VBO,6.056008,52.822958
Ds. Schipperstraat,18,,,8338SM,Willemsoord,Steenwijkerland,Overijssel,VBO,6.056098,52.822994
Ds. Schipperstraat,20,,,8338SM,Willemsoord,Steenwijkerland,Overijssel,VBO,6.055770,52.822915
Ds. Schipperstraat,22,,,8338SM,Willemsoord,Steenwijkerland,Overijssel,VBO,6.056033,52.822644
Ds. Schipperstraat,24,,,8338SM,Willemsoord,Steenwijkerland,Overijssel,VBO,6.056242,52.822732
Ds. Schipperstraat,26,,,8338SM,Willemsoord,Steenwijkerland,Overijssel,VBO,6.056317,52.822759
Ds. Schipperstraat,28,,,8338SM,Willemsoord,Steenwijkerland,Overijssel,VBO,6.056391,52.822786
Prins Frederikstraat,1,,,8338SP,Willemsoord,Steenwijkerland,Overijssel,VBO,6.059678,52.825229
Prins Frederikstraat,3,,,8338SP,Willemsoord,Steenwijkerland,Overijssel,VBO,6.059532,52.825392
Prins Frederikstraat,7,,,8338SP,Willemsoord,Steenwijkerland,Overijssel,VBO,6.059159,52.825295
Prins Frederikstraat,9,,,8338SP,Willemsoord,Steenwijkerland,Overijssel,VBO,6.059085,52.825260
Prins Frederikstraat,11,,,8338SP,Willemsoord,Steenwijkerland,Overijssel,VBO,6.058995,52.825233
Prins Frederikstraat,13,,,8338SP,Willemsoord,Steenwijkerland,Overijssel,VBO,6.058906,52.825198
Prins Frederikstraat,15,,,8338SP,Willemsoord,Steenwijkerland,Overijssel,VBO,6.058831,52.825171
Prins Frederikstraat,17,,,8338SP,Willemsoord,Steenwijkerland,Overijssel,VBO,6.058756,52.825145
Prins Frederikstraat,19,,,8338SP,Willemsoord,Steenwijkerland,Overijssel,VBO,6.058577,52.825083
Prins Frederikstraat,21,,,8338SP,Willemsoord,Steenwijkerland,Overijssel,VBO,6.058503,52.825047
Prins Frederikstraat,23,,,8338SP,Willemsoord,Steenwijkerland,Overijssel,VBO,6.058428,52.825021
Prins Frederikstraat,25,,,8338SP,Willemsoord,Steenwijkerland,Overijssel,VBO,6.058339,52.824994
Prins Frederikstraat,27,,,8338SP,Willemsoord,Steenwijkerland,Overijssel,VBO,6.058264,52.824959
Prins Frederikstraat,29,,,8338SP,Willemsoord,Steenwijkerland,Overijssel,VBO,6.058189,52.824932
Prins Frederikstraat,31,,,8338SP,Willemsoord,Steenwijkerland,Overijssel,VBO,6.057876,52.824790
Prins Frederikstraat,33,,,8338SP,Willemsoord,Steenwijkerland,Overijssel,VBO,6.057920,52.824745
Prins Frederikstraat,35,,,8338SP,Willemsoord,Steenwijkerland,Overijssel,VBO,6.057948,52.824691
Prins Frederikstraat,37,,,8338SP,Willemsoord,Steenwijkerland,Overijssel,VBO,6.057977,52.824637
Prins Frederikstraat,39,,,8338SP,Willemsoord,Steenwijkerland,Overijssel,VBO,6.058035,52.824556
Prins Frederikstraat,41,,,8338SP,Willemsoord,Steenwijkerland,Overijssel,VBO,6.058079,52.824502
Prins Frederikstraat,43,,,8338SP,Willemsoord,Steenwijkerland,Overijssel,VBO,6.058108,52.824447
Prins Frederikstraat,45,,,8338SP,Willemsoord,Steenwijkerland,Overijssel,VBO,6.058137,52.824393
Prins Frederikstraat,2,,,8338SR,Willemsoord,Steenwijkerland,Overijssel,VBO,6.060035,52.825326
Prins Frederikstraat,4,,,8338SR,Willemsoord,Steenwijkerland,Overijssel,VBO,6.059933,52.825426
Prins Frederikstraat,6,,,8338SR,Willemsoord,Steenwijkerland,Overijssel,VBO,6.059831,52.825525
Prins Frederikstraat,8,A,,8338SR,Willemsoord,Steenwijkerland,Overijssel,VBO,6.059612,52.825787
Prins Frederikstraat,8,B,,8338SR,Willemsoord,Steenwijkerland,Overijssel,VBO,6.059568,52.825841
Prins Frederikstraat,8,,,8338SR,Willemsoord,Steenwijkerland,Overijssel,VBO,6.059728,52.825625
Prins Frederikstraat,10,,,8338SR,Willemsoord,Steenwijkerland,Overijssel,VBO,6.059373,52.825654
Prins Frederikstraat,12,,,8338SR,Willemsoord,Steenwijkerland,Overijssel,VBO,6.059104,52.825547
Prins Frederikstraat,14,,,8338SR,Willemsoord,Steenwijkerland,Overijssel,VBO,6.058835,52.825450
Prins Frederikstraat,16,,,8338SR,Willemsoord,Steenwijkerland,Overijssel,VBO,6.058611,52.825361
Prins Frederikstraat,18,,,8338SR,Willemsoord,Steenwijkerland,Overijssel,VBO,6.058343,52.825264
Prins Frederikstraat,20,,,8338SR,Willemsoord,Steenwijkerland,Overijssel,VBO,6.058074,52.825167
Prins Frederikstraat,22,,,8338SR,Willemsoord,Steenwijkerland,Overijssel,VBO,6.057806,52.825069
Prins Frederikstraat,24,,,8338SR,Willemsoord,Steenwijkerland,Overijssel,VBO,6.057582,52.824990
Prins Frederikstraat,26,,,8338SR,Willemsoord,Steenwijkerland,Overijssel,VBO,6.057492,52.824954
Prins Frederikstraat,38,,,8338SR,Willemsoord,Steenwijkerland,Overijssel,VBO,6.056856,52.825066
Prins Frederikstraat,40,,,8338SR,Willemsoord,Steenwijkerland,Overijssel,VBO,6.057017,52.824912
Prins Frederikstraat,42,,,8338SR,Willemsoord,Steenwijkerland,Overijssel,VBO,6.057163,52.824758
Prins Frederikstraat,44,,,8338SR,Willemsoord,Steenwijkerland,Overijssel,VBO,6.057309,52.824623
Prins Frederikstraat,46,,,8338SR,Willemsoord,Steenwijkerland,Overijssel,VBO,6.057441,52.824478
Paasloregel,1,t,,8338ST,Willemsoord,Steenwijkerland,Overijssel,VBO,6.060614,52.824833
Paasloregel,1,,,8338ST,Willemsoord,Steenwijkerland,Overijssel,VBO,6.060831,52.824998
Paasloregel,3,A,,8338ST,Willemsoord,Steenwijkerland,Overijssel,VBO,6.059900,52.824231
Paasloregel,3,B,,8338ST,Willemsoord,Steenwijkerland,Overijssel,VBO,6.060073,52.823942
Paasloregel,3,,,8338ST,Willemsoord,Steenwijkerland,Overijssel,VBO,6.060160,52.824750
Paasloregel,5,,,8338ST,Willemsoord,Steenwijkerland,Overijssel,VBO,6.059579,52.824583
Paasloregel,7,,,8338ST,Willemsoord,Steenwijkerland,Overijssel,VBO,6.059370,52.824503
Paasloregel,9,,,8338ST,Willemsoord,Steenwijkerland,Overijssel,VBO,6.059116,52.824415
Paasloregel,11,,,8338ST,Willemsoord,Steenwijkerland,Overijssel,VBO,6.058803,52.824300
Paasloregel,13,,,8338ST,Willemsoord,Steenwijkerland,Overijssel,VBO,6.058579,52.824211
Paasloregel,15,,,8338ST,Willemsoord,Steenwijkerland,Overijssel,VBO,6.058370,52.824140
Paasloregel,19,,,8338SV,Willemsoord,Steenwijkerland,Overijssel,VBO,6.057908,52.823972
Paasloregel,21,,,8338SV,Willemsoord,Steenwijkerland,Overijssel,VBO,6.057341,52.823769
Paasloregel,23,,,8338SV,Willemsoord,Steenwijkerland,Overijssel,VBO,6.056490,52.823459
Paasloregel,27,,,8338SV,Willemsoord,Steenwijkerland,Overijssel,VBO,6.056147,52.823344
Paasloregel,29,,,8338SV,Willemsoord,Steenwijkerland,Overijssel,VBO,6.055924,52.823273
Paasloregel,31,,,8338SV,Willemsoord,Steenwijkerland,Overijssel,VBO,6.055715,52.823194
Paasloregel,33,,,8338SV,Willemsoord,Steenwijkerland,Overijssel,VBO,6.055133,52.822963
Paasloregel,35,,,8338SV,Willemsoord,Steenwijkerland,Overijssel,VBO,6.054462,52.822724
Paasloregel,39,,,8338SV,Willemsoord,Steenwijkerland,Overijssel,VBO,6.053015,52.822202
Paasloregel,45,,,8338SV,Willemsoord,Steenwijkerland,Overijssel,VBO,6.050120,52.821140
Paasloregel,47,,,8338SV,Willemsoord,Steenwijkerland,Overijssel,VBO,6.048659,52.820609
Paasloregel,51,,,8338SV,Willemsoord,Steenwijkerland,Overijssel,VBO,6.045780,52.819555
Paasloregel,53,,,8338SV,Willemsoord,Steenwijkerland,Overijssel,VBO,6.044318,52.819024
Paasloregel,55,,,8338SV,Willemsoord,Steenwijkerland,Overijssel,VBO,6.042871,52.818511
Paasloregel,57,,,8338SV,Willemsoord,Steenwijkerland,Overijssel,VBO,6.041424,52.817980
Paasloregel,59,,,8338SV,Willemsoord,Steenwijkerland,Overijssel,VBO,6.039993,52.817457
Paasloregel,4,,,8338SW,Willemsoord,Steenwijkerland,Overijssel,VBO,6.060554,52.825296
Paasloregel,6,,,8338SW,Willemsoord,Steenwijkerland,Overijssel,VBO,6.060241,52.825181
Paasloregel,8,,,8338SW,Willemsoord,Steenwijkerland,Overijssel,VBO,6.059912,52.825012
Paasloregel,10,,,8338SW,Willemsoord,Steenwijkerland,Overijssel,VBO,6.059762,52.824959
Paasloregel,12,,,8338SW,Willemsoord,Steenwijkerland,Overijssel,VBO,6.059613,52.824906
Paasloregel,14,,,8338SW,Willemsoord,Steenwijkerland,Overijssel,VBO,6.059449,52.824844
Paasloregel,16,,,8338SW,Willemsoord,Steenwijkerland,Overijssel,VBO,6.059375,52.824818
Paasloregel,18,,,8338SW,Willemsoord,Steenwijkerland,Overijssel,VBO,6.059300,52.824791
Paasloregel,20,,,8338SW,Willemsoord,Steenwijkerland,Overijssel,VBO,6.059225,52.824765
Paasloregel,22,A,,8338SW,Willemsoord,Steenwijkerland,Overijssel,VBO,6.059076,52.824712
Paasloregel,22,,,8338SW,Willemsoord,Steenwijkerland,Overijssel,VBO,6.059106,52.824720
Paasloregel,24,A,,8338SW,Willemsoord,Steenwijkerland,Overijssel,VBO,6.059002,52.824721
Paasloregel,24,,,8338SW,Willemsoord,Steenwijkerland,Overijssel,VBO,6.059016,52.824685
Paasloregel,26,A,,8338SW,Willemsoord,Steenwijkerland,Overijssel,VBO,6.058927,52.824685
Paasloregel,26,,,8338SW,Willemsoord,Steenwijkerland,Overijssel,VBO,6.058942,52.824658
Paasloregel,28,A,,8338SW,Willemsoord,Steenwijkerland,Overijssel,VBO,6.058852,52.824632
Paasloregel,28,,,8338SW,Willemsoord,Steenwijkerland,Overijssel,VBO,6.058882,52.824650
Paasloregel,30,,,8338SX,Willemsoord,Steenwijkerland,Overijssel,VBO,6.058733,52.824588
Paasloregel,32,,,8338SX,Willemsoord,Steenwijkerland,Overijssel,VBO,6.058659,52.824561
Paasloregel,34,,,8338SX,Willemsoord,Steenwijkerland,Overijssel,VBO,6.058584,52.824526
Paasloregel,36,,,8338SX,Willemsoord,Steenwijkerland,Overijssel,VBO,6.058494,52.824499
Paasloregel,38,,,8338SX,Willemsoord,Steenwijkerland,Overijssel,VBO,6.057719,52.824243
Paasloregel,40,,,8338SX,Willemsoord,Steenwijkerland,Overijssel,VBO,6.057510,52.824163
Paasloregel,42,,,8338SX,Willemsoord,Steenwijkerland,Overijssel,VBO,6.057286,52.824084
Paasloregel,44,,,8338SX,Willemsoord,Steenwijkerland,Overijssel,VBO,6.056824,52.823915
Paasloregel,46,,,8338SX,Willemsoord,Steenwijkerland,Overijssel,VBO,6.056705,52.823880
Paasloregel,48,,,8338SX,Willemsoord,Steenwijkerland,Overijssel,VBO,6.056406,52.823756
Paasloregel,50,,,8338SX,Willemsoord,Steenwijkerland,Overijssel,VBO,6.055943,52.823588
Paasloregel,52,,,8338SX,Willemsoord,Steenwijkerland,Overijssel,VBO,6.055556,52.823446
Paasloregel,54,,,8338SX,Willemsoord,Steenwijkerland,Overijssel,VBO,6.055377,52.823384
Paasloregel,56,,,8338SX,Willemsoord,Steenwijkerland,Overijssel,VBO,6.055108,52.823287
Paasloregel,58,,,8338SX,Willemsoord,Steenwijkerland,Overijssel,VBO,6.054184,52.823032
Paasloregel,60,,,8338SX,Willemsoord,Steenwijkerland,Overijssel,VBO,6.053498,52.822784
Paasloregel,62,,,8338SX,Willemsoord,Steenwijkerland,Overijssel,VBO,6.052873,52.822867
Paasloregel,64,t,,8338SX,Willemsoord,Steenwijkerland,Overijssel,VBO,6.051797,52.822369
Paasloregel,64,,,8338SX,Willemsoord,Steenwijkerland,Overijssel,VBO,6.051753,52.822146
Paasloregel,74,,,8338SX,Willemsoord,Steenwijkerland,Overijssel,VBO,6.046695,52.820224
Paasloregel,76,,,8338SX,Willemsoord,Steenwijkerland,Overijssel,VBO,6.045591,52.819817
Paasloregel,78,,,8338SX,Willemsoord,Steenwijkerland,Overijssel,VBO,6.044801,52.819561
Paasloregel,80,A,,8338SX,Willemsoord,Steenwijkerland,Overijssel,VBO,6.044166,52.819589
Paasloregel,80,,,8338SX,Willemsoord,Steenwijkerland,Overijssel,VBO,6.044323,52.819357
Paasloregel,82,,,8338SX,Willemsoord,Steenwijkerland,Overijssel,VBO,6.043816,52.819171
Paasloregel,86,t,,8338SX,Willemsoord,Steenwijkerland,Overijssel,VBO,6.042534,52.818784
Paasloregel,86,,,8338SX,Willemsoord,Steenwijkerland,Overijssel,VBO,6.043055,52.818896
Paasloregel,92,,,8338SX,Willemsoord,Steenwijkerland,Overijssel,VBO,6.040818,52.818082
Paasloregel,96,,,8338SX,Willemsoord,Steenwijkerland,Overijssel,VBO,6.039446,52.817622
