openbareruimtenaam,huisnummer,huisletter,huisnummertoevoeging,postcode,woonplaatsnaam,gemeentenaam,provincienaam,typeadresseerbaarobject,longitude,latitude
Beulakerweg,3,,,8355AA,Giethoorn,Steenwijkerland,Overijssel,VBO,6.086214,52.763597
Beulakerweg,5,,,8355AA,Giethoorn,Steenwijkerland,Overijssel,VBO,6.085876,52.762835
Beulakerweg,7,,,8355AA,Giethoorn,Steenwijkerland,Overijssel,VBO,6.085169,52.761239
Beulakerweg,9,,,8355AA,Giethoorn,Steenwijkerland,Overijssel,VBO,6.085045,52.760908
Beulakerweg,11,,,8355AA,Giethoorn,Steenwijkerland,Overijssel,VBO,6.084691,52.760074
Beulakerweg,13,,,8355AA,Giethoorn,Steenwijkerland,Overijssel,VBO,6.084523,52.759760
Beulakerweg,15,,,8355AA,Giethoorn,Steenwijkerland,Overijssel,VBO,6.084180,52.758684
Beulakerweg,17,,,8355AA,Giethoorn,Steenwijkerland,Overijssel,VBO,6.084042,52.758388
Beulakerweg,19,,,8355AA,Giethoorn,Steenwijkerland,Overijssel,VBO,6.083919,52.758074
Beulakerweg,21,,,8355AA,Giethoorn,Steenwijkerland,Overijssel,VBO,6.083811,52.757796
Beulakerweg,23,a,,8355AA,Giethoorn,Steenwijkerland,Overijssel,VBO,6.083590,52.756679
Beulakerweg,23,,,8355AA,Giethoorn,Steenwijkerland,Overijssel,VBO,6.083332,52.756559
Beulakerweg,25,,,8355AA,Giethoorn,Steenwijkerland,Overijssel,VBO,6.083269,52.756299
Kloostersteeg,1,t,,8355AA,Giethoorn,Steenwijkerland,Overijssel,VBO,6.083977,52.747831
Kloostersteeg,2,,,8355AA,Giethoorn,Steenwijkerland,Overijssel,VBO,6.081120,52.746884
Kloostersteeg,4,g,a,8355AA,Giethoorn,Steenwijkerland,Overijssel,VBO,6.084153,52.747641
Kloostersteeg,4,g,b,8355AA,Giethoorn,Steenwijkerland,Overijssel,VBO,6.084164,52.747619
Kloostersteeg,4,g,c,8355AA,Giethoorn,Steenwijkerland,Overijssel,VBO,6.084175,52.747596
Kloostersteeg,4,g,d,8355AA,Giethoorn,Steenwijkerland,Overijssel,VBO,6.084186,52.747574
Kloostersteeg,4,g,e,8355AA,Giethoorn,Steenwijkerland,Overijssel,VBO,6.084196,52.747550
Kloostersteeg,4,g,f,8355AA,Giethoorn,Steenwijkerland,Overijssel,VBO,6.084377,52.747683
Kloostersteeg,4,g,g,8355AA,Giethoorn,Steenwijkerland,Overijssel,VBO,6.084388,52.747659
Kloostersteeg,4,g,h,8355AA,Giethoorn,Steenwijkerland,Overijssel,VBO,6.084400,52.747635
Kloostersteeg,4,g,i,8355AA,Giethoorn,Steenwijkerland,Overijssel,VBO,6.084412,52.747611
Kloostersteeg,4,g,j,8355AA,Giethoorn,Steenwijkerland,Overijssel,VBO,6.084421,52.747588
Beulakerweg,27,,,8355AB,Giethoorn,Steenwijkerland,Overijssel,VBO,6.082882,52.755294
Beulakerweg,29,,,8355AB,Giethoorn,Steenwijkerland,Overijssel,VBO,6.082761,52.755097
Beulakerweg,33,,,8355AB,Giethoorn,Steenwijkerland,Overijssel,VBO,6.082772,52.754873
Beulakerweg,35,,,8355AB,Giethoorn,Steenwijkerland,Overijssel,VBO,6.082741,52.754765
Beulakerweg,37,,,8355AB,Giethoorn,Steenwijkerland,Overijssel,VBO,6.082694,52.754648
Beulakerweg,39,,,8355AB,Giethoorn,Steenwijkerland,Overijssel,VBO,6.082663,52.754541
Beulakerweg,41,,,8355AB,Giethoorn,Steenwijkerland,Overijssel,VBO,6.082617,52.754433
Beulakerweg,43,,,8355AB,Giethoorn,Steenwijkerland,Overijssel,VBO,6.082571,52.754317
Beulakerweg,45,,,8355AB,Giethoorn,Steenwijkerland,Overijssel,VBO,6.082508,52.754092
Beulakerweg,47,t,,8355AB,Giethoorn,Steenwijkerland,Overijssel,VBO,6.082192,52.753828
Beulakerweg,47,,,8355AB,Giethoorn,Steenwijkerland,Overijssel,VBO,6.082339,52.753716
Beulakerweg,49,,,8355AB,Giethoorn,Steenwijkerland,Overijssel,VBO,6.083168,52.753693
Beulakerweg,51,,,8355AB,Giethoorn,Steenwijkerland,Overijssel,VBO,6.082464,52.753203
Beulakerweg,53,,,8355AB,Giethoorn,Steenwijkerland,Overijssel,VBO,6.082056,52.752711
Beulakerweg,55,a,,8355AB,Giethoorn,Steenwijkerland,Overijssel,VBO,6.082141,52.751556
Beulakerweg,55,,,8355AB,Giethoorn,Steenwijkerland,Overijssel,VBO,6.081536,52.751636
Beulakerweg,57,,,8355AB,Giethoorn,Steenwijkerland,Overijssel,VBO,6.081394,52.751079
Beulakerweg,59,,,8355AB,Giethoorn,Steenwijkerland,Overijssel,VBO,6.081270,52.750765
Beulakerweg,61,,,8355AC,Giethoorn,Steenwijkerland,Overijssel,VBO,6.081128,52.750182
Beulakerweg,63,a,,8355AC,Giethoorn,Steenwijkerland,Overijssel,VBO,6.081064,52.749931
Beulakerweg,63,,,8355AC,Giethoorn,Steenwijkerland,Overijssel,VBO,6.080991,52.749949
Beulakerweg,65,,,8355AC,Giethoorn,Steenwijkerland,Overijssel,VBO,6.080867,52.749608
Beulakerweg,67,,,8355AC,Giethoorn,Steenwijkerland,Overijssel,VBO,6.080759,52.749330
Beulakerweg,67,,,8355AC,Giethoorn,Steenwijkerland,Overijssel,VBO,6.081065,52.749409
Beulakerweg,69,,,8355AC,Giethoorn,Steenwijkerland,Overijssel,VBO,6.080682,52.749142
Beulakerweg,71,,,8355AC,Giethoorn,Steenwijkerland,Overijssel,VBO,6.080619,52.748936
Beulakerweg,73,,,8355AC,Giethoorn,Steenwijkerland,Overijssel,VBO,6.080294,52.748021
Beulakerweg,75,b,,8355AC,Giethoorn,Steenwijkerland,Overijssel,VBO,6.080274,52.746763
Beulakerweg,75,t,,8355AC,Giethoorn,Steenwijkerland,Overijssel,VBO,6.079869,52.746844
Beulakerweg,75,,,8355AC,Giethoorn,Steenwijkerland,Overijssel,VBO,6.080123,52.747510
Beulakerweg,77,a,,8355AC,Giethoorn,Steenwijkerland,Overijssel,VBO,6.079700,52.746083
Beulakerweg,77,b,,8355AC,Giethoorn,Steenwijkerland,Overijssel,VBO,6.079682,52.745877
Beulakerweg,77,,,8355AC,Giethoorn,Steenwijkerland,Overijssel,VBO,6.079779,52.746388
Beulakerweg,79,,,8355AC,Giethoorn,Steenwijkerland,Overijssel,VBO,6.079515,52.745626
Beulakerweg,81,,,8355AC,Giethoorn,Steenwijkerland,Overijssel,VBO,6.079466,52.745339
Beulakerweg,83,,,8355AC,Giethoorn,Steenwijkerland,Overijssel,VBO,6.079623,52.744933
Beulakerweg,85,,,8355AD,Giethoorn,Steenwijkerland,Overijssel,VBO,6.079112,52.744496
Beulakerweg,87,,,8355AD,Giethoorn,Steenwijkerland,Overijssel,VBO,6.078958,52.744083
Beulakerweg,89,,,8355AD,Giethoorn,Steenwijkerland,Overijssel,VBO,6.078835,52.743824
Beulakerweg,91,,,8355AD,Giethoorn,Steenwijkerland,Overijssel,VBO,6.078772,52.743599
Beulakerweg,93,,,8355AD,Giethoorn,Steenwijkerland,Overijssel,VBO,6.078665,52.743357
Beulakerweg,95,,,8355AD,Giethoorn,Steenwijkerland,Overijssel,VBO,6.078661,52.743124
Beulakerweg,97,,,8355AD,Giethoorn,Steenwijkerland,Overijssel,VBO,6.078493,52.742801
Beulakerweg,99,a,,8355AD,Giethoorn,Steenwijkerland,Overijssel,VBO,6.078381,52.742271
Beulakerweg,99,,,8355AD,Giethoorn,Steenwijkerland,Overijssel,VBO,6.078401,52.742577
Beulakerweg,101,,,8355AD,Giethoorn,Steenwijkerland,Overijssel,VBO,6.078243,52.741958
Beulakerweg,103,,,8355AD,Giethoorn,Steenwijkerland,Overijssel,VBO,6.078047,52.741707
Beulakerweg,105,,,8355AD,Giethoorn,Steenwijkerland,Overijssel,VBO,6.077739,52.740981
Beulakerweg,107,,,8355AD,Giethoorn,Steenwijkerland,Overijssel,VBO,6.077631,52.740703
Beulakerweg,109,,,8355AD,Giethoorn,Steenwijkerland,Overijssel,VBO,6.077568,52.740461
Beulakerweg,113,,,8355AE,Giethoorn,Steenwijkerland,Overijssel,VBO,6.077619,52.739948
Beulakerweg,115,,,8355AE,Giethoorn,Steenwijkerland,Overijssel,VBO,6.077618,52.739885
Beulakerweg,117,,,8355AE,Giethoorn,Steenwijkerland,Overijssel,VBO,6.077660,52.739723
Beulakerweg,119,a,,8355AE,Giethoorn,Steenwijkerland,Overijssel,VBO,6.077924,52.738607
Beulakerweg,119,,,8355AE,Giethoorn,Steenwijkerland,Overijssel,VBO,6.077717,52.739552
Beulakerweg,121,a,,8355AE,Giethoorn,Steenwijkerland,Overijssel,VBO,6.078075,52.734104
Beulakerweg,121,,,8355AE,Giethoorn,Steenwijkerland,Overijssel,VBO,6.077797,52.734348
Beulakerweg,123,,,8355AE,Giethoorn,Steenwijkerland,Overijssel,VBO,6.077689,52.731212
Beulakerweg,125,,,8355AE,Giethoorn,Steenwijkerland,Overijssel,VBO,6.077805,52.729163
Beulakerweg,127,a,,8355AE,Giethoorn,Steenwijkerland,Overijssel,VBO,6.078385,52.726544
Beulakerweg,127,b,,8355AE,Giethoorn,Steenwijkerland,Overijssel,VBO,6.077638,52.726117
Beulakerweg,127,c,,8355AE,Giethoorn,Steenwijkerland,Overijssel,VBO,6.077680,52.725955
Beulakerweg,127,,,8355AE,Giethoorn,Steenwijkerland,Overijssel,VBO,6.077570,52.726486
Beulakerweg,129,a,,8355AE,Giethoorn,Steenwijkerland,Overijssel,VBO,6.077837,52.725559
Beulakerweg,129,b,,8355AE,Giethoorn,Steenwijkerland,Overijssel,VBO,6.077668,52.725200
Beulakerweg,129,c,,8355AE,Giethoorn,Steenwijkerland,Overijssel,VBO,6.077799,52.725029
Beulakerweg,129,d,,8355AE,Giethoorn,Steenwijkerland,Overijssel,VBO,6.077715,52.724675
Beulakerweg,129,,,8355AE,Giethoorn,Steenwijkerland,Overijssel,VBO,6.077632,52.725748
Beulakerweg,131,a,,8355AE,Giethoorn,Steenwijkerland,Overijssel,VBO,6.077701,52.724463
Beulakerweg,131,b,,8355AE,Giethoorn,Steenwijkerland,Overijssel,VBO,6.077889,52.724201
Beulakerweg,131,c,,8355AE,Giethoorn,Steenwijkerland,Overijssel,VBO,6.077778,52.723762
Beulakerweg,133,a,,8355AG,Giethoorn,Steenwijkerland,Overijssel,VBO,6.077887,52.723096
Beulakerweg,133,b,,8355AG,Giethoorn,Steenwijkerland,Overijssel,VBO,6.077868,52.722835
Beulakerweg,133,c,,8355AG,Giethoorn,Steenwijkerland,Overijssel,VBO,6.077969,52.722682
Beulakerweg,133,,,8355AG,Giethoorn,Steenwijkerland,Overijssel,VBO,6.078069,52.723409
Beulakerweg,135,,,8355AG,Giethoorn,Steenwijkerland,Overijssel,VBO,6.077828,52.721272
Beulakerweg,137,a,,8355AG,Giethoorn,Steenwijkerland,Overijssel,VBO,6.077926,52.720921
Beulakerweg,137,,,8355AG,Giethoorn,Steenwijkerland,Overijssel,VBO,6.077883,52.720948
Beulakerweg,141,,,8355AG,Giethoorn,Steenwijkerland,Overijssel,VBO,6.077924,52.719851
Beulakerweg,143,,,8355AG,Giethoorn,Steenwijkerland,Overijssel,VBO,6.078010,52.719617
Beulakerweg,145,,,8355AG,Giethoorn,Steenwijkerland,Overijssel,VBO,6.077977,52.719411
Beulakerweg,147,,,8355AG,Giethoorn,Steenwijkerland,Overijssel,VBO,6.077958,52.719150
Beulakerweg,149,a,,8355AG,Giethoorn,Steenwijkerland,Overijssel,VBO,6.078054,52.718673
Beulakerweg,149,,,8355AG,Giethoorn,Steenwijkerland,Overijssel,VBO,6.077998,52.718880
Beulakerweg,151,,,8355AG,Giethoorn,Steenwijkerland,Overijssel,VBO,6.078051,52.718475
Beulakerweg,153,,,8355AG,Giethoorn,Steenwijkerland,Overijssel,VBO,6.078000,52.718089
Beulakerweg,155,,,8355AG,Giethoorn,Steenwijkerland,Overijssel,VBO,6.078041,52.717837
Beulakerweg,157,,,8355AG,Giethoorn,Steenwijkerland,Overijssel,VBO,6.077855,52.717290
Beulakerweg,159,,,8355AG,Giethoorn,Steenwijkerland,Overijssel,VBO,6.077746,52.716994
Beulakerweg,161,,,8355AG,Giethoorn,Steenwijkerland,Overijssel,VBO,6.077700,52.716851
Beulakerweg,163,,,8355AG,Giethoorn,Steenwijkerland,Overijssel,VBO,6.077682,52.716698
Beulakerweg,165,a,,8355AG,Giethoorn,Steenwijkerland,Overijssel,VBO,6.077618,52.716393
Beulakerweg,165,,,8355AG,Giethoorn,Steenwijkerland,Overijssel,VBO,6.077577,52.716564
Beulakerweg,167,,,8355AG,Giethoorn,Steenwijkerland,Overijssel,VBO,6.079125,52.716222
Beulakerweg,169,b,,8355AG,Giethoorn,Steenwijkerland,Overijssel,VBO,6.079409,52.714282
Beulakerweg,169,,,8355AG,Giethoorn,Steenwijkerland,Overijssel,VBO,6.077087,52.715041
Beulakerweg,171,,,8355AG,Giethoorn,Steenwijkerland,Overijssel,VBO,6.074149,52.707480
Beulakerweg,2,,,8355AH,Giethoorn,Steenwijkerland,Overijssel,VBO,6.084947,52.762193
Beulakerweg,4,,,8355AH,Giethoorn,Steenwijkerland,Overijssel,VBO,6.084762,52.761745
Beulakerweg,6,b,,8355AH,Giethoorn,Steenwijkerland,Overijssel,VBO,6.083447,52.759156
Beulakerweg,6,t,,8355AH,Giethoorn,Steenwijkerland,Overijssel,VBO,6.084055,52.760405
Beulakerweg,6,,,8355AH,Giethoorn,Steenwijkerland,Overijssel,VBO,6.084362,52.760813
Beulakerweg,8,a,,8355AH,Giethoorn,Steenwijkerland,Overijssel,VBO,6.082656,52.756931
Beulakerweg,8,,,8355AH,Giethoorn,Steenwijkerland,Overijssel,VBO,6.083620,52.758813
Beulakerweg,10,,,8355AH,Giethoorn,Steenwijkerland,Overijssel,VBO,6.081285,52.756867
Beulakerweg,12,,,8355AH,Giethoorn,Steenwijkerland,Overijssel,VBO,6.081047,52.755404
Beulakerweg,14,,,8355AH,Giethoorn,Steenwijkerland,Overijssel,VBO,6.082382,52.755486
Beulakerweg,16,a,,8355AH,Giethoorn,Steenwijkerland,Overijssel,VBO,6.082060,52.755254
Beulakerweg,16,,,8355AH,Giethoorn,Steenwijkerland,Overijssel,VBO,6.082201,52.755280
Beulakerweg,18,,,8355AH,Giethoorn,Steenwijkerland,Overijssel,VBO,6.082101,52.754571
Beulakerweg,20,,,8355AH,Giethoorn,Steenwijkerland,Overijssel,VBO,6.081845,52.753942
Beulakerweg,22,,,8355AH,Giethoorn,Steenwijkerland,Overijssel,VBO,6.081673,52.753747
Beulakerweg,24,,,8355AH,Giethoorn,Steenwijkerland,Overijssel,VBO,6.081728,52.753486
Beulakerweg,26,,,8355AH,Giethoorn,Steenwijkerland,Overijssel,VBO,6.081479,52.752759
Beulakerweg,28,,,8355AH,Giethoorn,Steenwijkerland,Overijssel,VBO,6.081358,52.752571
Beulakerweg,30,,,8355AH,Giethoorn,Steenwijkerland,Overijssel,VBO,6.080911,52.751468
Beulakerweg,32,,,8355AH,Giethoorn,Steenwijkerland,Overijssel,VBO,6.080847,52.751199
Beulakerweg,34,,,8355AH,Giethoorn,Steenwijkerland,Overijssel,VBO,6.080816,52.751083
Beulakerweg,36,,,8355AH,Giethoorn,Steenwijkerland,Overijssel,VBO,6.080769,52.750921
Beulakerweg,38,,,8355AH,Giethoorn,Steenwijkerland,Overijssel,VBO,6.080723,52.750822
Beulakerweg,40,,,8355AH,Giethoorn,Steenwijkerland,Overijssel,VBO,6.080331,52.749477
Beulakerweg,42,,,8355AH,Giethoorn,Steenwijkerland,Overijssel,VBO,6.080117,52.749020
Beulakerweg,44,,,8355AH,Giethoorn,Steenwijkerland,Overijssel,VBO,6.080069,52.748831
Beulakerweg,46,a,,8355AJ,Giethoorn,Steenwijkerland,Overijssel,VBO,6.079606,52.748546
Beulakerweg,46,,,8355AJ,Giethoorn,Steenwijkerland,Overijssel,VBO,6.080081,52.748615
Beulakerweg,48,,,8355AJ,Giethoorn,Steenwijkerland,Overijssel,VBO,6.079775,52.747979
Beulakerweg,50,a,,8355AJ,Giethoorn,Steenwijkerland,Overijssel,VBO,6.079421,52.747154
Beulakerweg,50,b,,8355AJ,Giethoorn,Steenwijkerland,Overijssel,VBO,6.079342,52.746876
Beulakerweg,50,,,8355AJ,Giethoorn,Steenwijkerland,Overijssel,VBO,6.079635,52.747558
Beulakerweg,52,,,8355AJ,Giethoorn,Steenwijkerland,Overijssel,VBO,6.079280,52.746643
Beulakerweg,54,,,8355AJ,Giethoorn,Steenwijkerland,Overijssel,VBO,6.079249,52.746334
Beulakerweg,56,,,8355AJ,Giethoorn,Steenwijkerland,Overijssel,VBO,6.079121,52.745988
Beulakerweg,58,,,8355AJ,Giethoorn,Steenwijkerland,Overijssel,VBO,6.078953,52.745629
Beulakerweg,60,,,8355AJ,Giethoorn,Steenwijkerland,Overijssel,VBO,6.078770,52.745325
Beulakerweg,62,a,,8355AJ,Giethoorn,Steenwijkerland,Overijssel,VBO,6.078585,52.744876
Beulakerweg,62,,,8355AJ,Giethoorn,Steenwijkerland,Overijssel,VBO,6.078707,52.745100
Beulakerweg,64,,,8355AJ,Giethoorn,Steenwijkerland,Overijssel,VBO,6.078134,52.744412
Beulakerweg,66,,,8355AJ,Giethoorn,Steenwijkerland,Overijssel,VBO,6.078473,52.744302
Beulakerweg,68,a,,8355AJ,Giethoorn,Steenwijkerland,Overijssel,VBO,6.078241,52.743719
Beulakerweg,68,,,8355AJ,Giethoorn,Steenwijkerland,Overijssel,VBO,6.078470,52.744131
Beulakerweg,70,,,8355AJ,Giethoorn,Steenwijkerland,Overijssel,VBO,6.078148,52.743432
Beulakerweg,72,a,,8355AJ,Giethoorn,Steenwijkerland,Overijssel,VBO,6.077679,52.742585
Beulakerweg,72,b,,8355AJ,Giethoorn,Steenwijkerland,Overijssel,VBO,6.077685,52.742275
Beulakerweg,72,,,8355AJ,Giethoorn,Steenwijkerland,Overijssel,VBO,6.077951,52.743182
Beulakerweg,74,a,,8355AJ,Giethoorn,Steenwijkerland,Overijssel,VBO,6.077530,52.741845
Beulakerweg,74,,,8355AJ,Giethoorn,Steenwijkerland,Overijssel,VBO,6.077623,52.742060
Beulakerweg,76,,,8355AJ,Giethoorn,Steenwijkerland,Overijssel,VBO,6.077466,52.741522
Beulakerweg,78,a,,8355AK,Giethoorn,Steenwijkerland,Overijssel,VBO,6.076749,52.740151
Beulakerweg,78,,,8355AK,Giethoorn,Steenwijkerland,Overijssel,VBO,6.076854,52.739880
Beulakerweg,80,,,8355AK,Giethoorn,Steenwijkerland,Overijssel,VBO,6.076297,52.739686
Beulakerweg,82,,,8355AK,Giethoorn,Steenwijkerland,Overijssel,VBO,6.076989,52.739440
Beulakerweg,84,a,,8355AK,Giethoorn,Steenwijkerland,Overijssel,VBO,6.076981,52.738945
Beulakerweg,84,,,8355AK,Giethoorn,Steenwijkerland,Overijssel,VBO,6.077029,52.739179
Beulakerweg,86,a,,8355AK,Giethoorn,Steenwijkerland,Overijssel,VBO,6.076513,52.738364
Beulakerweg,86,b,,8355AK,Giethoorn,Steenwijkerland,Overijssel,VBO,6.075638,52.738270
Beulakerweg,86,c,,8355AK,Giethoorn,Steenwijkerland,Overijssel,VBO,6.075619,52.738019
Beulakerweg,86,d,,8355AK,Giethoorn,Steenwijkerland,Overijssel,VBO,6.076496,52.738193
Beulakerweg,86,,,8355AK,Giethoorn,Steenwijkerland,Overijssel,VBO,6.076978,52.738721
Beulakerweg,88,,,8355AK,Giethoorn,Steenwijkerland,Overijssel,VBO,6.076804,52.738021
Beulakerweg,90,a,,8355AK,Giethoorn,Steenwijkerland,Overijssel,VBO,6.077093,52.737588
Beulakerweg,90,,,8355AK,Giethoorn,Steenwijkerland,Overijssel,VBO,6.077053,52.737822
Beulakerweg,92,a,,8355AK,Giethoorn,Steenwijkerland,Overijssel,VBO,6.077087,52.737156
Beulakerweg,92,b,,8355AK,Giethoorn,Steenwijkerland,Overijssel,VBO,6.077084,52.737003
Beulakerweg,92,,,8355AK,Giethoorn,Steenwijkerland,Overijssel,VBO,6.077095,52.737373
Beulakerweg,94,a,,8355AL,Giethoorn,Steenwijkerland,Overijssel,VBO,6.075936,52.736480
Beulakerweg,94,,,8355AL,Giethoorn,Steenwijkerland,Overijssel,VBO,6.076162,52.736730
Beulakerweg,96,a,,8355AL,Giethoorn,Steenwijkerland,Overijssel,VBO,6.077061,52.736464
Beulakerweg,96,,,8355AL,Giethoorn,Steenwijkerland,Overijssel,VBO,6.077109,52.736707
Beulakerweg,98,a,,8355AL,Giethoorn,Steenwijkerland,Overijssel,VBO,6.076906,52.736025
Beulakerweg,98,b,,8355AL,Giethoorn,Steenwijkerland,Overijssel,VBO,6.076859,52.735845
Beulakerweg,98,t,,8355AL,Giethoorn,Steenwijkerland,Overijssel,VBO,6.076730,52.735650
Beulakerweg,98,,,8355AL,Giethoorn,Steenwijkerland,Overijssel,VBO,6.077043,52.736285
Beulakerweg,100,a,,8355AL,Giethoorn,Steenwijkerland,Overijssel,VBO,6.076926,52.735405
Beulakerweg,100,,,8355AL,Giethoorn,Steenwijkerland,Overijssel,VBO,6.076938,52.735617
Beulakerweg,102,,,8355AL,Giethoorn,Steenwijkerland,Overijssel,VBO,6.076938,52.735225
Beulakerweg,104,,,8355AL,Giethoorn,Steenwijkerland,Overijssel,VBO,6.076935,52.735045
Beulakerweg,106,,,8355AL,Giethoorn,Steenwijkerland,Overijssel,VBO,6.076900,52.734731
Beulakerweg,108,,,8355AL,Giethoorn,Steenwijkerland,Overijssel,VBO,6.076881,52.734470
Beulakerweg,110,,,8355AL,Giethoorn,Steenwijkerland,Overijssel,VBO,6.076879,52.734291
Beulakerweg,112,,,8355AL,Giethoorn,Steenwijkerland,Overijssel,VBO,6.076934,52.734021
Beulakerweg,114,,,8355AL,Giethoorn,Steenwijkerland,Overijssel,VBO,6.076942,52.733825
Beulakerweg,116,,,8355AM,Giethoorn,Steenwijkerland,Overijssel,VBO,6.074772,52.710388
Beulakerweg,118,a,,8355AM,Giethoorn,Steenwijkerland,Overijssel,VBO,6.074555,52.709796
Beulakerweg,118,,,8355AM,Giethoorn,Steenwijkerland,Overijssel,VBO,6.074619,52.710092
Beulakerweg,120,,,8355AM,Giethoorn,Steenwijkerland,Overijssel,VBO,6.074494,52.709644
Beulakerweg,122,,,8355AM,Giethoorn,Steenwijkerland,Overijssel,VBO,6.074431,52.709446
Beulakerweg,124,a,,8355AM,Giethoorn,Steenwijkerland,Overijssel,VBO,6.073764,52.709309
Beulakerweg,124,,,8355AM,Giethoorn,Steenwijkerland,Overijssel,VBO,6.074385,52.709303
Beulakerweg,126,b,,8355AM,Giethoorn,Steenwijkerland,Overijssel,VBO,6.073569,52.709191
Beulakerweg,126,t,,8355AM,Giethoorn,Steenwijkerland,Overijssel,VBO,6.074209,52.708978
Beulakerweg,126,,,8355AM,Giethoorn,Steenwijkerland,Overijssel,VBO,6.074338,52.709132
Beulakerweg,128,a,,8355AM,Giethoorn,Steenwijkerland,Overijssel,VBO,6.073477,52.708005
Beulakerweg,128,b,,8355AM,Giethoorn,Steenwijkerland,Overijssel,VBO,6.073042,52.705788
Beulakerweg,128,d,,8355AM,Giethoorn,Steenwijkerland,Overijssel,VBO,6.072585,52.708353
Appensteeg,1,,,8355AN,Giethoorn,Steenwijkerland,Overijssel,VBO,6.081811,52.750331
Appensteeg,2,,,8355AN,Giethoorn,Steenwijkerland,Overijssel,VBO,6.082049,52.750383
Appensteeg,3,,,8355AN,Giethoorn,Steenwijkerland,Overijssel,VBO,6.082584,52.750470
Appensteeg,4,,,8355AN,Giethoorn,Steenwijkerland,Overijssel,VBO,6.083297,52.750655
Noorderpad,1,,,8355AP,Giethoorn,Steenwijkerland,Overijssel,VBO,6.084810,52.747977
Noorderpad,2,,,8355AP,Giethoorn,Steenwijkerland,Overijssel,VBO,6.085042,52.748586
Noorderpad,3,,,8355AP,Giethoorn,Steenwijkerland,Overijssel,VBO,6.084709,52.748157
Noorderpad,4,,,8355AP,Giethoorn,Steenwijkerland,Overijssel,VBO,6.084912,52.748794
Noorderpad,5,,,8355AP,Giethoorn,Steenwijkerland,Overijssel,VBO,6.084625,52.748472
Noorderpad,6,,,8355AP,Giethoorn,Steenwijkerland,Overijssel,VBO,6.084783,52.749046
Noorderpad,8,,,8355AP,Giethoorn,Steenwijkerland,Overijssel,VBO,6.084667,52.749209
Noorderpad,9,,,8355AP,Giethoorn,Steenwijkerland,Overijssel,VBO,6.084583,52.748589
Noorderpad,10,,,8355AP,Giethoorn,Steenwijkerland,Overijssel,VBO,6.084463,52.749417
Noorderpad,11,,,8355AP,Giethoorn,Steenwijkerland,Overijssel,VBO,6.084511,52.748733
Noorderpad,12,,,8355AP,Giethoorn,Steenwijkerland,Overijssel,VBO,6.084362,52.749579
Noorderpad,13,,,8355AP,Giethoorn,Steenwijkerland,Overijssel,VBO,6.084441,52.748958
Noorderpad,14,,,8355AP,Giethoorn,Steenwijkerland,Overijssel,VBO,6.084261,52.749768
Noorderpad,15,,,8355AP,Giethoorn,Steenwijkerland,Overijssel,VBO,6.084265,52.749112
Noorderpad,16,,,8355AP,Giethoorn,Steenwijkerland,Overijssel,VBO,6.084203,52.749841
Noorderpad,17,,,8355AP,Giethoorn,Steenwijkerland,Overijssel,VBO,6.084034,52.749482
Noorderpad,18,,,8355AP,Giethoorn,Steenwijkerland,Overijssel,VBO,6.084266,52.750092
Noorderpad,19,,,8355AP,Giethoorn,Steenwijkerland,Overijssel,VBO,6.083889,52.749663
Noorderpad,20,,,8355AP,Giethoorn,Steenwijkerland,Overijssel,VBO,6.084165,52.750290
Noorderpad,21,,,8355AP,Giethoorn,Steenwijkerland,Overijssel,VBO,6.083862,52.749834
Noorderpad,22,,,8355AP,Giethoorn,Steenwijkerland,Overijssel,VBO,6.083890,52.750633
Noorderpad,24,,,8355AP,Giethoorn,Steenwijkerland,Overijssel,VBO,6.083760,52.750850
't Klooster,1,,,8355AR,Giethoorn,Steenwijkerland,Overijssel,VBO,6.089042,52.749217
't Klooster,2,,,8355AR,Giethoorn,Steenwijkerland,Overijssel,VBO,6.088997,52.748617
't Klooster,3,,,8355AR,Giethoorn,Steenwijkerland,Overijssel,VBO,6.089670,52.749036
't Klooster,4,,,8355AR,Giethoorn,Steenwijkerland,Overijssel,VBO,6.090031,52.749420
't Klooster,5,,,8355AR,Giethoorn,Steenwijkerland,Overijssel,VBO,6.089838,52.749385
't Klooster,7,,,8355AR,Giethoorn,Steenwijkerland,Overijssel,VBO,6.089739,52.749646
Molenweg,1,,,8355AS,Giethoorn,Steenwijkerland,Overijssel,VBO,6.080642,52.741962
Molenweg,3,b,,8355AS,Giethoorn,Steenwijkerland,Overijssel,VBO,6.081672,52.742155
Molenweg,3,,,8355AS,Giethoorn,Steenwijkerland,Overijssel,VBO,6.081176,52.742012
Molenweg,5,,,8355AS,Giethoorn,Steenwijkerland,Overijssel,VBO,6.082095,52.742097
Molenweg,7,,,8355AS,Giethoorn,Steenwijkerland,Overijssel,VBO,6.082452,52.742185
Molenweg,9,,,8355AS,Giethoorn,Steenwijkerland,Overijssel,VBO,6.083346,52.742548
Molenweg,11,,,8355AS,Giethoorn,Steenwijkerland,Overijssel,VBO,6.083445,52.742701
Molenweg,13,,,8355AS,Giethoorn,Steenwijkerland,Overijssel,VBO,6.083602,52.742762
Molenweg,15,,,8355AS,Giethoorn,Steenwijkerland,Overijssel,VBO,6.083724,52.743040
Molenweg,17,,,8355AS,Giethoorn,Steenwijkerland,Overijssel,VBO,6.084114,52.743316
Molenweg,19,,,8355AS,Giethoorn,Steenwijkerland,Overijssel,VBO,6.083984,52.743560
Molenweg,21,,,8355AS,Giethoorn,Steenwijkerland,Overijssel,VBO,6.083841,52.743830
Molenweg,23,,,8355AS,Giethoorn,Steenwijkerland,Overijssel,VBO,6.083800,52.744073
Molenweg,25,a,,8355AS,Giethoorn,Steenwijkerland,Overijssel,VBO,6.083844,52.744963
Molenweg,25,b,,8355AS,Giethoorn,Steenwijkerland,Overijssel,VBO,6.083823,52.744603
Molenweg,25,,,8355AS,Giethoorn,Steenwijkerland,Overijssel,VBO,6.083790,52.744343
Molenweg,27,,,8355AS,Giethoorn,Steenwijkerland,Overijssel,VBO,6.083893,52.745286
Molenweg,29,,,8355AS,Giethoorn,Steenwijkerland,Overijssel,VBO,6.083911,52.745475
Molenweg,31,,,8355AS,Giethoorn,Steenwijkerland,Overijssel,VBO,6.083887,52.745789
Molenweg,33,,,8355AS,Giethoorn,Steenwijkerland,Overijssel,VBO,6.083966,52.746121
Molenweg,35,a,,8355AS,Giethoorn,Steenwijkerland,Overijssel,VBO,6.083177,52.746349
Molenweg,35,,,8355AS,Giethoorn,Steenwijkerland,Overijssel,VBO,6.083825,52.746562
Molenweg,37,,,8355AS,Giethoorn,Steenwijkerland,Overijssel,VBO,6.083873,52.746787
Molenweg,39,,,8355AS,Giethoorn,Steenwijkerland,Overijssel,VBO,6.085066,52.747301
Molenweg,41,a,,8355AS,Giethoorn,Steenwijkerland,Overijssel,VBO,6.084663,52.747684
Molenweg,41,,,8355AS,Giethoorn,Steenwijkerland,Overijssel,VBO,6.084896,52.747796
Molenweg,2,a,,8355AT,Giethoorn,Steenwijkerland,Overijssel,VBO,6.082546,52.741591
Molenweg,2,,,8355AT,Giethoorn,Steenwijkerland,Overijssel,VBO,6.081423,52.741688
Molenweg,4,a,,8355AT,Giethoorn,Steenwijkerland,Overijssel,VBO,6.083195,52.742073
Molenweg,4,b,,8355AT,Giethoorn,Steenwijkerland,Overijssel,VBO,6.083949,52.742206
Molenweg,4,,,8355AT,Giethoorn,Steenwijkerland,Overijssel,VBO,6.082612,52.741977
Molenweg,6,,,8355AT,Giethoorn,Steenwijkerland,Overijssel,VBO,6.083746,52.742501
Molenweg,8,,,8355AT,Giethoorn,Steenwijkerland,Overijssel,VBO,6.083808,52.742725
Molenweg,10,,,8355AT,Giethoorn,Steenwijkerland,Overijssel,VBO,6.084390,52.742991
Molenweg,12,,,8355AT,Giethoorn,Steenwijkerland,Overijssel,VBO,6.084426,52.743360
Molenweg,14,,,8355AT,Giethoorn,Steenwijkerland,Overijssel,VBO,6.084126,52.744071
Molenweg,16,,,8355AT,Giethoorn,Steenwijkerland,Overijssel,VBO,6.084392,52.744950
Molenweg,18,,,8355AT,Giethoorn,Steenwijkerland,Overijssel,VBO,6.084293,52.746182
Molenweg,20,,,8355AT,Giethoorn,Steenwijkerland,Overijssel,VBO,6.084265,52.746308
Molenweg,22,,,8355AT,Giethoorn,Steenwijkerland,Overijssel,VBO,6.084136,52.746543
Molenweg,24,,,8355AT,Giethoorn,Steenwijkerland,Overijssel,VBO,6.084184,52.746767
Molenweg,26,,,8355AT,Giethoorn,Steenwijkerland,Overijssel,VBO,6.084537,52.746639
Molenweg,28,,,8355AT,Giethoorn,Steenwijkerland,Overijssel,VBO,6.085368,52.746751
Molenweg,30,,,8355AT,Giethoorn,Steenwijkerland,Overijssel,VBO,6.085828,52.746802
Molenweg,32,,,8355AT,Giethoorn,Steenwijkerland,Overijssel,VBO,6.085524,52.747245
Molenweg,34,,,8355AT,Giethoorn,Steenwijkerland,Overijssel,VBO,6.085382,52.747641
Molenweg,36,,,8355AT,Giethoorn,Steenwijkerland,Overijssel,VBO,6.085297,52.747848
Veldweg,1,,,8355AV,Giethoorn,Steenwijkerland,Overijssel,VBO,6.080076,52.741758
Veldweg,2,,,8355AV,Giethoorn,Steenwijkerland,Overijssel,VBO,6.078358,52.740816
Veldweg,3,,,8355AV,Giethoorn,Steenwijkerland,Overijssel,VBO,6.080104,52.741677
Veldweg,4,,,8355AV,Giethoorn,Steenwijkerland,Overijssel,VBO,6.078300,52.740852
Veldweg,6,,,8355AV,Giethoorn,Steenwijkerland,Overijssel,VBO,6.078346,52.740977
Veldweg,8,,,8355AV,Giethoorn,Steenwijkerland,Overijssel,VBO,6.078288,52.741023
Veldweg,10,,,8355AV,Giethoorn,Steenwijkerland,Overijssel,VBO,6.078334,52.741148
Veldweg,12,,,8355AV,Giethoorn,Steenwijkerland,Overijssel,VBO,6.078260,52.741185
Veldweg,14,,,8355AV,Giethoorn,Steenwijkerland,Overijssel,VBO,6.078368,52.741445
Veldweg,16,,,8355AV,Giethoorn,Steenwijkerland,Overijssel,VBO,6.078843,52.741532
Veldweg,18,,,8355AV,Giethoorn,Steenwijkerland,Overijssel,VBO,6.079229,52.741592
Veldweg,20,,,8355AV,Giethoorn,Steenwijkerland,Overijssel,VBO,6.079645,52.741671
Essendreef,1,,,8355AW,Giethoorn,Steenwijkerland,Overijssel,VBO,6.080923,52.740998
Essendreef,2,,,8355AW,Giethoorn,Steenwijkerland,Overijssel,VBO,6.081398,52.741086
Essendreef,3,,,8355AW,Giethoorn,Steenwijkerland,Overijssel,VBO,6.080924,52.741061
Essendreef,4,,,8355AW,Giethoorn,Steenwijkerland,Overijssel,VBO,6.081354,52.741131
Essendreef,5,,,8355AW,Giethoorn,Steenwijkerland,Overijssel,VBO,6.080910,52.741115
Essendreef,6,,,8355AW,Giethoorn,Steenwijkerland,Overijssel,VBO,6.081341,52.741185
Essendreef,7,,,8355AW,Giethoorn,Steenwijkerland,Overijssel,VBO,6.080881,52.741169
Essendreef,8,,,8355AW,Giethoorn,Steenwijkerland,Overijssel,VBO,6.081312,52.741239
Essendreef,9,,,8355AW,Giethoorn,Steenwijkerland,Overijssel,VBO,6.080853,52.741250
Essendreef,10,,,8355AW,Giethoorn,Steenwijkerland,Overijssel,VBO,6.081269,52.741338
Essendreef,11,,,8355AW,Giethoorn,Steenwijkerland,Overijssel,VBO,6.080824,52.741314
Essendreef,12,t,,8355AW,Giethoorn,Steenwijkerland,Overijssel,VBO,6.081631,52.741409
Essendreef,12,,,8355AW,Giethoorn,Steenwijkerland,Overijssel,VBO,6.081264,52.741378
Essendreef,13,,,8355AW,Giethoorn,Steenwijkerland,Overijssel,VBO,6.080810,52.741368
Essendreef,14,,,8355AW,Giethoorn,Steenwijkerland,Overijssel,VBO,6.081241,52.741446
Brinklaan,1,,,8355AX,Giethoorn,Steenwijkerland,Overijssel,VBO,6.080249,52.741434
Brinklaan,3,,,8355AX,Giethoorn,Steenwijkerland,Overijssel,VBO,6.080338,52.741451
Brinklaan,5,,,8355AX,Giethoorn,Steenwijkerland,Overijssel,VBO,6.080427,52.741469
Brinklaan,7,,,8355AX,Giethoorn,Steenwijkerland,Overijssel,VBO,6.080575,52.741495
Brinklaan,9,,,8355AX,Giethoorn,Steenwijkerland,Overijssel,VBO,6.080664,52.741503
Brinklaan,11,,,8355AX,Giethoorn,Steenwijkerland,Overijssel,VBO,6.080754,52.741521
Brinklaan,13,,,8355AX,Giethoorn,Steenwijkerland,Overijssel,VBO,6.080902,52.741547
Brinklaan,15,,,8355AX,Giethoorn,Steenwijkerland,Overijssel,VBO,6.080991,52.741564
Brink,1,,,8355AZ,Giethoorn,Steenwijkerland,Overijssel,VBO,6.080433,52.740920
Brink,2,,,8355AZ,Giethoorn,Steenwijkerland,Overijssel,VBO,6.080419,52.740974
Brink,3,,,8355AZ,Giethoorn,Steenwijkerland,Overijssel,VBO,6.080405,52.741028
Brink,4,,,8355AZ,Giethoorn,Steenwijkerland,Overijssel,VBO,6.080391,52.741082
Brink,5,,,8355AZ,Giethoorn,Steenwijkerland,Overijssel,VBO,6.080363,52.741163
Brink,6,,,8355AZ,Giethoorn,Steenwijkerland,Overijssel,VBO,6.080349,52.741217
Brink,7,,,8355AZ,Giethoorn,Steenwijkerland,Overijssel,VBO,6.080320,52.741272
Brink,8,,,8355AZ,Giethoorn,Steenwijkerland,Overijssel,VBO,6.079877,52.741364
Brink,9,,,8355AZ,Giethoorn,Steenwijkerland,Overijssel,VBO,6.079788,52.741347
Brink,10,,,8355AZ,Giethoorn,Steenwijkerland,Overijssel,VBO,6.079610,52.741312
Brink,11,,,8355AZ,Giethoorn,Steenwijkerland,Overijssel,VBO,6.079521,52.741303
Brink,12,,,8355AZ,Giethoorn,Steenwijkerland,Overijssel,VBO,6.079343,52.741268
Brink,13,,,8355AZ,Giethoorn,Steenwijkerland,Overijssel,VBO,6.079269,52.741260
Brink,14,,,8355AZ,Giethoorn,Steenwijkerland,Overijssel,VBO,6.079090,52.741225
Brink,15,,,8355AZ,Giethoorn,Steenwijkerland,Overijssel,VBO,6.079001,52.741216
Brink,16,,,8355AZ,Giethoorn,Steenwijkerland,Overijssel,VBO,6.078867,52.741118
Brink,17,,,8355AZ,Giethoorn,Steenwijkerland,Overijssel,VBO,6.078909,52.741001
Brink,18,,,8355AZ,Giethoorn,Steenwijkerland,Overijssel,VBO,6.078952,52.740893
Brink,19,,,8355AZ,Giethoorn,Steenwijkerland,Overijssel,VBO,6.078990,52.740796
Brink,21,,,8355AZ,Giethoorn,Steenwijkerland,Overijssel,VBO,6.079009,52.740731
De Wilgen,1,,,8355BA,Giethoorn,Steenwijkerland,Overijssel,VBO,6.078539,52.740078
De Wilgen,3,,,8355BA,Giethoorn,Steenwijkerland,Overijssel,VBO,6.078567,52.739970
De Wilgen,5,,,8355BA,Giethoorn,Steenwijkerland,Overijssel,VBO,6.078580,52.739862
De Wilgen,7,,,8355BA,Giethoorn,Steenwijkerland,Overijssel,VBO,6.078608,52.739754
De Wilgen,13,,,8355BA,Giethoorn,Steenwijkerland,Overijssel,VBO,6.078675,52.739331
De Wilgen,15,,,8355BA,Giethoorn,Steenwijkerland,Overijssel,VBO,6.078688,52.739214
De Wilgen,17,,,8355BA,Giethoorn,Steenwijkerland,Overijssel,VBO,6.078671,52.739043
De Wilgen,19,,,8355BA,Giethoorn,Steenwijkerland,Overijssel,VBO,6.078685,52.738989
De Wilgen,21,,,8355BA,Giethoorn,Steenwijkerland,Overijssel,VBO,6.078714,52.738926
De Wilgen,23,,,8355BA,Giethoorn,Steenwijkerland,Overijssel,VBO,6.078742,52.738872
De Wilgen,26,,,8355BA,Giethoorn,Steenwijkerland,Overijssel,VBO,6.078252,52.738767
De Wilgen,28,,,8355BA,Giethoorn,Steenwijkerland,Overijssel,VBO,6.078281,52.738713
De Wilgen,30,,,8355BA,Giethoorn,Steenwijkerland,Overijssel,VBO,6.078295,52.738650
De Wilgen,32,,,8355BA,Giethoorn,Steenwijkerland,Overijssel,VBO,6.078323,52.738596
De Wilgen,2,,,8355BB,Giethoorn,Steenwijkerland,Overijssel,VBO,6.078111,52.740161
De Wilgen,4,,,8355BB,Giethoorn,Steenwijkerland,Overijssel,VBO,6.078125,52.740098
De Wilgen,6,,,8355BB,Giethoorn,Steenwijkerland,Overijssel,VBO,6.078167,52.739963
De Wilgen,8,,,8355BB,Giethoorn,Steenwijkerland,Overijssel,VBO,6.078166,52.739900
De Wilgen,10,,,8355BB,Giethoorn,Steenwijkerland,Overijssel,VBO,6.078194,52.739765
De Wilgen,12,,,8355BB,Giethoorn,Steenwijkerland,Overijssel,VBO,6.078208,52.739702
De Wilgen,14,,,8355BB,Giethoorn,Steenwijkerland,Overijssel,VBO,6.078206,52.739576
De Wilgen,16,,,8355BB,Giethoorn,Steenwijkerland,Overijssel,VBO,6.078231,52.739298
De Wilgen,18,,,8355BB,Giethoorn,Steenwijkerland,Overijssel,VBO,6.078150,52.738903
De Wilgen,20,,,8355BB,Giethoorn,Steenwijkerland,Overijssel,VBO,6.078047,52.738885
De Wilgen,22,,,8355BB,Giethoorn,Steenwijkerland,Overijssel,VBO,6.077957,52.738868
De Wilgen,24,,,8355BB,Giethoorn,Steenwijkerland,Overijssel,VBO,6.077854,52.738859
De Berken,1,,,8355BC,Giethoorn,Steenwijkerland,Overijssel,VBO,6.079623,52.740269
De Berken,3,,,8355BC,Giethoorn,Steenwijkerland,Overijssel,VBO,6.079637,52.740215
De Berken,5,,,8355BC,Giethoorn,Steenwijkerland,Overijssel,VBO,6.079651,52.740161
De Berken,7,,,8355BC,Giethoorn,Steenwijkerland,Overijssel,VBO,6.079679,52.740071
De Berken,9,,,8355BC,Giethoorn,Steenwijkerland,Overijssel,VBO,6.079693,52.740017
De Berken,11,,,8355BC,Giethoorn,Steenwijkerland,Overijssel,VBO,6.079693,52.739972
De Berken,13,,,8355BC,Giethoorn,Steenwijkerland,Overijssel,VBO,6.079721,52.739882
De Berken,15,,,8355BC,Giethoorn,Steenwijkerland,Overijssel,VBO,6.079735,52.739837
De Berken,17,,,8355BC,Giethoorn,Steenwijkerland,Overijssel,VBO,6.079763,52.739747
De Berken,19,,,8355BC,Giethoorn,Steenwijkerland,Overijssel,VBO,6.079777,52.739693
De Berken,21,,,8355BC,Giethoorn,Steenwijkerland,Overijssel,VBO,6.079791,52.739639
De Berken,23,,,8355BC,Giethoorn,Steenwijkerland,Overijssel,VBO,6.079833,52.739495
De Berken,25,,,8355BC,Giethoorn,Steenwijkerland,Overijssel,VBO,6.079847,52.739441
De Berken,27,,,8355BC,Giethoorn,Steenwijkerland,Overijssel,VBO,6.079861,52.739387
De Berken,29,,,8355BC,Giethoorn,Steenwijkerland,Overijssel,VBO,6.079888,52.739216
De Berken,31,,,8355BC,Giethoorn,Steenwijkerland,Overijssel,VBO,6.079917,52.739162
De Berken,33,,,8355BC,Giethoorn,Steenwijkerland,Overijssel,VBO,6.079945,52.739099
De Berken,35,,,8355BC,Giethoorn,Steenwijkerland,Overijssel,VBO,6.079959,52.739045
De Berken,2,,,8355BD,Giethoorn,Steenwijkerland,Overijssel,VBO,6.079163,52.740218
De Berken,4,,,8355BD,Giethoorn,Steenwijkerland,Overijssel,VBO,6.079177,52.740164
De Berken,6,,,8355BD,Giethoorn,Steenwijkerland,Overijssel,VBO,6.079191,52.740110
De Berken,8,,,8355BD,Giethoorn,Steenwijkerland,Overijssel,VBO,6.079205,52.740020
De Berken,10,,,8355BD,Giethoorn,Steenwijkerland,Overijssel,VBO,6.079219,52.739975
De Berken,12,,,8355BD,Giethoorn,Steenwijkerland,Overijssel,VBO,6.079218,52.739921
De Berken,14,,,8355BD,Giethoorn,Steenwijkerland,Overijssel,VBO,6.079246,52.739831
De Berken,16,,,8355BD,Giethoorn,Steenwijkerland,Overijssel,VBO,6.079245,52.739777
De Berken,18,,,8355BD,Giethoorn,Steenwijkerland,Overijssel,VBO,6.079259,52.739723
De Berken,20,,,8355BD,Giethoorn,Steenwijkerland,Overijssel,VBO,6.079273,52.739633
De Berken,22,,,8355BD,Giethoorn,Steenwijkerland,Overijssel,VBO,6.079287,52.739579
De Berken,24,,,8355BD,Giethoorn,Steenwijkerland,Overijssel,VBO,6.079300,52.739525
De Berken,26,,,8355BD,Giethoorn,Steenwijkerland,Overijssel,VBO,6.079314,52.739435
De Berken,28,,,8355BD,Giethoorn,Steenwijkerland,Overijssel,VBO,6.079328,52.739381
De Berken,30,,,8355BD,Giethoorn,Steenwijkerland,Overijssel,VBO,6.079342,52.739336
De Berken,32,g,1,8355BD,Giethoorn,Steenwijkerland,Overijssel,VBO,6.079390,52.739217
De Berken,32,g,2,8355BD,Giethoorn,Steenwijkerland,Overijssel,VBO,6.079401,52.739191
De Berken,32,g,3,8355BD,Giethoorn,Steenwijkerland,Overijssel,VBO,6.079412,52.739165
De Berken,32,g,4,8355BD,Giethoorn,Steenwijkerland,Overijssel,VBO,6.079416,52.739137
De Berken,32,g,5,8355BD,Giethoorn,Steenwijkerland,Overijssel,VBO,6.079427,52.739111
De Berken,32,,,8355BD,Giethoorn,Steenwijkerland,Overijssel,VBO,6.079308,52.739067
De Berken,34,,,8355BD,Giethoorn,Steenwijkerland,Overijssel,VBO,6.079204,52.739049
De Berken,36,,,8355BD,Giethoorn,Steenwijkerland,Overijssel,VBO,6.079115,52.739032
De Berken,38,,,8355BD,Giethoorn,Steenwijkerland,Overijssel,VBO,6.079011,52.739023
Sportlaan,1,,,8355BE,Giethoorn,Steenwijkerland,Overijssel,VBO,6.080276,52.740346
Sportlaan,2,,,8355BE,Giethoorn,Steenwijkerland,Overijssel,VBO,6.080290,52.740301
Sportlaan,3,,,8355BE,Giethoorn,Steenwijkerland,Overijssel,VBO,6.080318,52.740211
Sportlaan,4,,,8355BE,Giethoorn,Steenwijkerland,Overijssel,VBO,6.080332,52.740157
Sportlaan,5,,,8355BE,Giethoorn,Steenwijkerland,Overijssel,VBO,6.080360,52.740058
Sportlaan,6,,,8355BE,Giethoorn,Steenwijkerland,Overijssel,VBO,6.080374,52.740004
Sportlaan,7,,,8355BE,Giethoorn,Steenwijkerland,Overijssel,VBO,6.080402,52.739923
Sportlaan,8,,,8355BE,Giethoorn,Steenwijkerland,Overijssel,VBO,6.080416,52.739869
Sportlaan,9,,,8355BE,Giethoorn,Steenwijkerland,Overijssel,VBO,6.080444,52.739770
Sportlaan,10,,,8355BE,Giethoorn,Steenwijkerland,Overijssel,VBO,6.080459,52.739725
Sportlaan,11,,,8355BE,Giethoorn,Steenwijkerland,Overijssel,VBO,6.080487,52.739635
Sportlaan,12,,,8355BE,Giethoorn,Steenwijkerland,Overijssel,VBO,6.080501,52.739581
Sportlaan,13,,,8355BE,Giethoorn,Steenwijkerland,Overijssel,VBO,6.080543,52.739437
Sportlaan,14,,,8355BE,Giethoorn,Steenwijkerland,Overijssel,VBO,6.080540,52.739239
Sportlaan,15,,,8355BE,Giethoorn,Steenwijkerland,Overijssel,VBO,6.080436,52.739222
Sportlaan,16,,,8355BE,Giethoorn,Steenwijkerland,Overijssel,VBO,6.080347,52.739213
Sportlaan,17,,,8355BE,Giethoorn,Steenwijkerland,Overijssel,VBO,6.080243,52.739196
Sportlaan,18,,,8355BE,Giethoorn,Steenwijkerland,Overijssel,VBO,6.080775,52.739130
Sportlaan,19,,,8355BE,Giethoorn,Steenwijkerland,Overijssel,VBO,6.080864,52.739147
Sportlaan,20,a,,8355BE,Giethoorn,Steenwijkerland,Overijssel,VBO,6.081426,52.739138
Sportlaan,20,b,,8355BE,Giethoorn,Steenwijkerland,Overijssel,VBO,6.081760,52.739096
Sportlaan,20,,,8355BE,Giethoorn,Steenwijkerland,Overijssel,VBO,6.081620,52.739199
Kerkweg,1,a,,8355BG,Giethoorn,Steenwijkerland,Overijssel,VBO,6.078370,52.740600
Kerkweg,1,t,,8355BG,Giethoorn,Steenwijkerland,Overijssel,VBO,6.078061,52.740493
Kerkweg,3,,,8355BG,Giethoorn,Steenwijkerland,Overijssel,VBO,6.078473,52.740599
Kerkweg,5,,,8355BG,Giethoorn,Steenwijkerland,Overijssel,VBO,6.078562,52.740617
Kerkweg,7,,,8355BG,Giethoorn,Steenwijkerland,Overijssel,VBO,6.078652,52.740634
Kerkweg,9,,,8355BG,Giethoorn,Steenwijkerland,Overijssel,VBO,6.078741,52.740652
Kerkweg,11,a,,8355BH,Giethoorn,Steenwijkerland,Overijssel,VBO,6.083023,52.741601
Kerkweg,11,,,8355BH,Giethoorn,Steenwijkerland,Overijssel,VBO,6.082011,52.741441
Kerkweg,13,,,8355BH,Giethoorn,Steenwijkerland,Overijssel,VBO,6.083226,52.741470
Kerkweg,15,,,8355BH,Giethoorn,Steenwijkerland,Overijssel,VBO,6.083612,52.741531
Kerkweg,17,a,,8355BH,Giethoorn,Steenwijkerland,Overijssel,VBO,6.084235,52.741635
Kerkweg,17,b,,8355BH,Giethoorn,Steenwijkerland,Overijssel,VBO,6.087976,52.742439
Kerkweg,17,,,8355BH,Giethoorn,Steenwijkerland,Overijssel,VBO,6.083894,52.741592
Kerkweg,19,,,8355BH,Giethoorn,Steenwijkerland,Overijssel,VBO,6.088333,52.742276
Kerkweg,21,,,8355BH,Giethoorn,Steenwijkerland,Overijssel,VBO,6.088762,52.742301
Kerkweg,23,t,,8355BH,Giethoorn,Steenwijkerland,Overijssel,VBO,6.089232,52.742055
Kerkweg,23,,,8355BH,Giethoorn,Steenwijkerland,Overijssel,VBO,6.089214,52.742423
Kerkweg,25,,,8355BH,Giethoorn,Steenwijkerland,Overijssel,VBO,6.089408,52.741928
Kerkweg,27,,,8355BH,Giethoorn,Steenwijkerland,Overijssel,VBO,6.089608,52.740570
Kerkweg,29,,,8355BJ,Giethoorn,Steenwijkerland,Overijssel,VBO,6.090539,52.738569
Kerkweg,31,,,8355BJ,Giethoorn,Steenwijkerland,Overijssel,VBO,6.090497,52.737788
Kerkweg,33,,,8355BJ,Giethoorn,Steenwijkerland,Overijssel,VBO,6.090403,52.737519
Kerkweg,35,a,,8355BJ,Giethoorn,Steenwijkerland,Overijssel,VBO,6.090604,52.735271
Kerkweg,35,R,14,8355BJ,Giethoorn,Steenwijkerland,Overijssel,VBO,6.091865,52.736605
Kerkweg,35,R,34,8355BJ,Giethoorn,Steenwijkerland,Overijssel,VBO,6.092103,52.736927
Kerkweg,35,,,8355BJ,Giethoorn,Steenwijkerland,Overijssel,VBO,6.090457,52.736233
Kerkweg,38,,,8355BJ,Giethoorn,Steenwijkerland,Overijssel,VBO,6.082150,52.740901
Kerkweg,40,,,8355BJ,Giethoorn,Steenwijkerland,Overijssel,VBO,6.088786,52.741950
Kerkweg,42,t,,8355BJ,Giethoorn,Steenwijkerland,Overijssel,VBO,6.089913,52.739362
Kerkweg,42,,,8355BJ,Giethoorn,Steenwijkerland,Overijssel,VBO,6.089377,52.740005
Kerkweg,44,,,8355BJ,Giethoorn,Steenwijkerland,Overijssel,VBO,6.090024,52.736946
Kerkweg,46,a,,8355BJ,Giethoorn,Steenwijkerland,Overijssel,VBO,6.089837,52.736354
Kerkweg,46,b,,8355BJ,Giethoorn,Steenwijkerland,Overijssel,VBO,6.089813,52.735761
Kerkweg,46,c,,8355BJ,Giethoorn,Steenwijkerland,Overijssel,VBO,6.089702,52.735357
Kerkweg,46,,,8355BJ,Giethoorn,Steenwijkerland,Overijssel,VBO,6.089917,52.736704
Kerkweg,48,a,,8355BJ,Giethoorn,Steenwijkerland,Overijssel,VBO,6.089952,52.733351
Kerkweg,48,t,,8355BJ,Giethoorn,Steenwijkerland,Overijssel,VBO,6.090004,52.734472
Kerkweg,48,,,8355BJ,Giethoorn,Steenwijkerland,Overijssel,VBO,6.089855,52.733810
Kerkweg,2,a,,8355BK,Giethoorn,Steenwijkerland,Overijssel,VBO,6.077504,52.740156
Kerkweg,2,b,,8355BK,Giethoorn,Steenwijkerland,Overijssel,VBO,6.077697,52.740190
Kerkweg,2,,,8355BK,Giethoorn,Steenwijkerland,Overijssel,VBO,6.078038,52.740233
Kerkweg,4,,,8355BK,Giethoorn,Steenwijkerland,Overijssel,VBO,6.078469,52.740312
Kerkweg,6,,,8355BK,Giethoorn,Steenwijkerland,Overijssel,VBO,6.078543,52.740329
Kerkweg,8,,,8355BK,Giethoorn,Steenwijkerland,Overijssel,VBO,6.078632,52.740338
Kerkweg,10,,,8355BK,Giethoorn,Steenwijkerland,Overijssel,VBO,6.078766,52.740364
Kerkweg,12,,,8355BK,Giethoorn,Steenwijkerland,Overijssel,VBO,6.078855,52.740372
Kerkweg,14,,,8355BK,Giethoorn,Steenwijkerland,Overijssel,VBO,6.079003,52.740398
Kerkweg,16,,,8355BK,Giethoorn,Steenwijkerland,Overijssel,VBO,6.079092,52.740416
Kerkweg,18,,,8355BL,Giethoorn,Steenwijkerland,Overijssel,VBO,6.079463,52.740468
Kerkweg,20,,,8355BL,Giethoorn,Steenwijkerland,Overijssel,VBO,6.079552,52.740476
Kerkweg,22,,,8355BL,Giethoorn,Steenwijkerland,Overijssel,VBO,6.079641,52.740485
Kerkweg,24,,,8355BL,Giethoorn,Steenwijkerland,Overijssel,VBO,6.079790,52.740502
Kerkweg,26,,,8355BL,Giethoorn,Steenwijkerland,Overijssel,VBO,6.079864,52.740519
Kerkweg,28,,,8355BL,Giethoorn,Steenwijkerland,Overijssel,VBO,6.080012,52.740536
Kerkweg,30,,,8355BL,Giethoorn,Steenwijkerland,Overijssel,VBO,6.080101,52.740545
Kerkweg,32,,,8355BL,Giethoorn,Steenwijkerland,Overijssel,VBO,6.080190,52.740553
Kerkweg,34,,,8355BL,Giethoorn,Steenwijkerland,Overijssel,VBO,6.080696,52.740667
Kerkweg,36,a,,8355BL,Giethoorn,Steenwijkerland,Overijssel,VBO,6.081408,52.740789
Kerkweg,36,b,,8355BL,Giethoorn,Steenwijkerland,Overijssel,VBO,6.082358,52.740513
Kerkweg,36,,,8355BL,Giethoorn,Steenwijkerland,Overijssel,VBO,6.081052,52.740728
De Deukten,1,,,8355BM,Giethoorn,Steenwijkerland,Overijssel,VBO,6.089161,52.734432
De Deukten,2,,,8355BM,Giethoorn,Steenwijkerland,Overijssel,VBO,6.084442,52.732296
De Deukten,3,,,8355BM,Giethoorn,Steenwijkerland,Overijssel,STA,6.089499,52.734330
De Deukten,5,,,8355BM,Giethoorn,Steenwijkerland,Overijssel,STA,6.089800,52.734375
Kerkweg,37,,,8355BM,Giethoorn,Steenwijkerland,Overijssel,VBO,6.090423,52.735038
Kerkweg,39,b,,8355BM,Giethoorn,Steenwijkerland,Overijssel,VBO,6.091431,52.731455
Kerkweg,39,c,,8355BM,Giethoorn,Steenwijkerland,Overijssel,VBO,6.091541,52.730933
Kerkweg,39,,,8355BM,Giethoorn,Steenwijkerland,Overijssel,VBO,6.090383,52.734382
Kerkweg,41,,,8355BM,Giethoorn,Steenwijkerland,Overijssel,VBO,6.091029,52.730379
Kerkweg,43,,,8355BM,Giethoorn,Steenwijkerland,Overijssel,VBO,6.091155,52.729893
Kerkweg,45,,,8355BM,Giethoorn,Steenwijkerland,Overijssel,VBO,6.091165,52.729615
Kerkweg,47,,,8355BM,Giethoorn,Steenwijkerland,Overijssel,VBO,6.091950,52.729664
Kerkweg,49,,,8355BM,Giethoorn,Steenwijkerland,Overijssel,VBO,6.091683,52.729332
Kerkweg,50,a,,8355BM,Giethoorn,Steenwijkerland,Overijssel,VBO,6.090465,52.731227
Kerkweg,50,b,,8355BM,Giethoorn,Steenwijkerland,Overijssel,VBO,6.090665,52.729806
Kerkweg,50,,,8355BM,Giethoorn,Steenwijkerland,Overijssel,VBO,6.090353,52.732513
Kerkweg,51,,,8355BM,Giethoorn,Steenwijkerland,Overijssel,VBO,6.091422,52.729011
Kerkweg,52,a,,8355BM,Giethoorn,Steenwijkerland,Overijssel,VBO,6.090483,52.729547
Kerkweg,52,b,,8355BM,Giethoorn,Steenwijkerland,Overijssel,VBO,6.090512,52.729493
Kerkweg,52,c,,8355BM,Giethoorn,Steenwijkerland,Overijssel,VBO,6.090804,52.729266
Kerkweg,52,,,8355BM,Giethoorn,Steenwijkerland,Overijssel,VBO,6.090705,52.729527
Kerkweg,53,,,8355BM,Giethoorn,Steenwijkerland,Overijssel,VBO,6.090919,52.729059
Kerkweg,54,,,8355BM,Giethoorn,Steenwijkerland,Overijssel,VBO,6.090463,52.729223
Kerkweg,55,,,8355BM,Giethoorn,Steenwijkerland,Overijssel,VBO,6.090400,52.729017
Kerkweg,56,,,8355BM,Giethoorn,Steenwijkerland,Overijssel,VBO,6.089546,52.729265
Kerkweg,58,,,8355BM,Giethoorn,Steenwijkerland,Overijssel,VBO,6.089378,52.728987
Kerkweg,60,,,8355BM,Giethoorn,Steenwijkerland,Overijssel,VBO,6.088963,52.728945
Middenbuurt,1,,,8355BN,Giethoorn,Steenwijkerland,Overijssel,VBO,6.090778,52.740554
Middenbuurt,2,,,8355BN,Giethoorn,Steenwijkerland,Overijssel,VBO,6.090304,52.739631
Middenbuurt,3,,,8355BN,Giethoorn,Steenwijkerland,Overijssel,VBO,6.090832,52.740266
Middenbuurt,5,,,8355BN,Giethoorn,Steenwijkerland,Overijssel,VBO,6.090755,52.740051
Middenbuurt,7,,,8355BN,Giethoorn,Steenwijkerland,Overijssel,VBO,6.090762,52.739575
Middenbuurt,9,,,8355BN,Giethoorn,Steenwijkerland,Overijssel,VBO,6.090654,52.739306
Middenbuurt,11,,,8355BN,Giethoorn,Steenwijkerland,Overijssel,VBO,6.090532,52.739091
Binnenpad,1,a,,8355BP,Giethoorn,Steenwijkerland,Overijssel,VBO,6.090237,52.728991
Binnenpad,1,b,,8355BP,Giethoorn,Steenwijkerland,Overijssel,VBO,6.089866,52.728912
Binnenpad,1,,,8355BP,Giethoorn,Steenwijkerland,Overijssel,VBO,6.090133,52.728983
Binnenpad,2,a,,8355BP,Giethoorn,Steenwijkerland,Overijssel,VBO,6.089546,52.728384
Binnenpad,2,,,8355BP,Giethoorn,Steenwijkerland,Overijssel,VBO,6.089660,52.728069
Binnenpad,3,,,8355BP,Giethoorn,Steenwijkerland,Overijssel,VBO,6.089968,52.728804
Binnenpad,4,,,8355BP,Giethoorn,Steenwijkerland,Overijssel,VBO,6.089701,52.727821
Binnenpad,5,,,8355BP,Giethoorn,Steenwijkerland,Overijssel,VBO,6.089965,52.728660
Binnenpad,7,,,8355BP,Giethoorn,Steenwijkerland,Overijssel,VBO,6.090155,52.728461
Binnenpad,8,,,8355BP,Giethoorn,Steenwijkerland,Overijssel,VBO,6.089768,52.727421
Binnenpad,9,a,,8355BP,Giethoorn,Steenwijkerland,Overijssel,VBO,6.090175,52.727904
Binnenpad,9,,,8355BP,Giethoorn,Steenwijkerland,Overijssel,VBO,6.090078,52.728327
Binnenpad,11,,,8355BP,Giethoorn,Steenwijkerland,Overijssel,VBO,6.090188,52.727778
Binnenpad,12,g,a,8355BP,Giethoorn,Steenwijkerland,Overijssel,VBO,6.089547,52.727072
Binnenpad,12,g,b,8355BP,Giethoorn,Steenwijkerland,Overijssel,VBO,6.089498,52.727069
Binnenpad,12,g,c,8355BP,Giethoorn,Steenwijkerland,Overijssel,VBO,6.089449,52.727065
Binnenpad,12,g,d,8355BP,Giethoorn,Steenwijkerland,Overijssel,VBO,6.089400,52.727062
Binnenpad,12,g,e,8355BP,Giethoorn,Steenwijkerland,Overijssel,VBO,6.089352,52.727059
Binnenpad,12,g,f,8355BP,Giethoorn,Steenwijkerland,Overijssel,VBO,6.089303,52.727055
Binnenpad,12,g,g,8355BP,Giethoorn,Steenwijkerland,Overijssel,VBO,6.089254,52.727052
Binnenpad,12,g,h,8355BP,Giethoorn,Steenwijkerland,Overijssel,VBO,6.089205,52.727049
Binnenpad,12,g,i,8355BP,Giethoorn,Steenwijkerland,Overijssel,VBO,6.089157,52.727046
Binnenpad,12,g,j,8355BP,Giethoorn,Steenwijkerland,Overijssel,VBO,6.089108,52.727042
Binnenpad,12,g,k,8355BP,Giethoorn,Steenwijkerland,Overijssel,VBO,6.088999,52.727067
Binnenpad,12,,,8355BP,Giethoorn,Steenwijkerland,Overijssel,VBO,6.089801,52.727156
Binnenpad,13,,,8355BP,Giethoorn,Steenwijkerland,Overijssel,VBO,6.090228,52.727499
Binnenpad,14,,,8355BP,Giethoorn,Steenwijkerland,Overijssel,VBO,6.089773,52.726828
Binnenpad,15,,,8355BP,Giethoorn,Steenwijkerland,Overijssel,VBO,6.090225,52.727283
Binnenpad,17,a,,8355BP,Giethoorn,Steenwijkerland,Overijssel,VBO,6.092564,52.727324
Binnenpad,17,,,8355BP,Giethoorn,Steenwijkerland,Overijssel,VBO,6.091171,52.727242
Binnenpad,19,,,8355BP,Giethoorn,Steenwijkerland,Overijssel,VBO,6.090858,52.727082
Binnenpad,21,a,,8355BP,Giethoorn,Steenwijkerland,Overijssel,VBO,6.090412,52.726841
Binnenpad,21,,,8355BP,Giethoorn,Steenwijkerland,Overijssel,VBO,6.090247,52.726834
Binnenpad,23,,,8355BP,Giethoorn,Steenwijkerland,Overijssel,VBO,6.090910,52.726668
Binnenpad,25,a,,8355BP,Giethoorn,Steenwijkerland,Overijssel,VBO,6.091113,52.726740
Binnenpad,25,,,8355BP,Giethoorn,Steenwijkerland,Overijssel,VBO,6.091060,52.726757
Binnenpad,27,,,8355BP,Giethoorn,Steenwijkerland,Overijssel,VBO,6.090611,52.726481
Bovenwijde,10,R,,8355BP,Giethoorn,Steenwijkerland,Overijssel,VBO,6.094795,52.722452
Bovenwijde,16,R,,8355BP,Giethoorn,Steenwijkerland,Overijssel,VBO,6.098050,52.719854
Bovenwijde,18,,,8355BP,Giethoorn,Steenwijkerland,Overijssel,VBO,6.096289,52.719220
Bovenwijde,20,,,8355BP,Giethoorn,Steenwijkerland,Overijssel,VBO,6.101400,52.717135
Bovenwijde,22,R,,8355BP,Giethoorn,Steenwijkerland,Overijssel,VBO,6.102238,52.719501
Bovenwijde,24,,,8355BP,Giethoorn,Steenwijkerland,Overijssel,VBO,6.105004,52.720007
Bovenwijde,26,,,8355BP,Giethoorn,Steenwijkerland,Overijssel,VBO,6.106612,52.721157
Bovenwijde,28,,,8355BP,Giethoorn,Steenwijkerland,Overijssel,VBO,6.102941,52.733669
Bovenwijde,29,,,8355BP,Giethoorn,Steenwijkerland,Overijssel,VBO,6.099645,52.734911
Binnenpad,16,a,,8355BR,Giethoorn,Steenwijkerland,Overijssel,VBO,6.089873,52.726435
Binnenpad,16,b,,8355BR,Giethoorn,Steenwijkerland,Overijssel,VBO,6.089682,52.726492
Binnenpad,16,c,,8355BR,Giethoorn,Steenwijkerland,Overijssel,VBO,6.089685,52.726441
Binnenpad,16,,,8355BR,Giethoorn,Steenwijkerland,Overijssel,VBO,6.089871,52.726477
Binnenpad,18,,,8355BR,Giethoorn,Steenwijkerland,Overijssel,VBO,6.089806,52.726082
Binnenpad,20,,,8355BR,Giethoorn,Steenwijkerland,Overijssel,VBO,6.089937,52.725955
Binnenpad,22,,,8355BR,Giethoorn,Steenwijkerland,Overijssel,VBO,6.089860,52.725812
Binnenpad,26,,,8355BR,Giethoorn,Steenwijkerland,Overijssel,VBO,6.090005,52.725586
Binnenpad,28,,,8355BR,Giethoorn,Steenwijkerland,Overijssel,VBO,6.090001,52.725370
Binnenpad,29,a,,8355BR,Giethoorn,Steenwijkerland,Overijssel,VBO,6.094682,52.726457
Binnenpad,29,b,,8355BR,Giethoorn,Steenwijkerland,Overijssel,VBO,6.090921,52.726381
Binnenpad,29,c,,8355BR,Giethoorn,Steenwijkerland,Overijssel,VBO,6.090907,52.726462
Binnenpad,29,,,8355BR,Giethoorn,Steenwijkerland,Overijssel,VBO,6.090492,52.726446
Binnenpad,30,a,,8355BR,Giethoorn,Steenwijkerland,Overijssel,VBO,6.089659,52.725138
Binnenpad,30,t,,8355BR,Giethoorn,Steenwijkerland,Overijssel,VBO,6.088808,52.725153
Binnenpad,30,,,8355BR,Giethoorn,Steenwijkerland,Overijssel,VBO,6.090029,52.725253
Binnenpad,31,,,8355BR,Giethoorn,Steenwijkerland,Overijssel,VBO,6.090369,52.726123
Binnenpad,32,,,8355BR,Giethoorn,Steenwijkerland,Overijssel,VBO,6.090039,52.724939
Binnenpad,33,a,10,8355BR,Giethoorn,Steenwijkerland,Overijssel,VBO,6.092505,52.726253
Binnenpad,33,a,11,8355BR,Giethoorn,Steenwijkerland,Overijssel,VBO,6.092682,52.726268
Binnenpad,33,a,12,8355BR,Giethoorn,Steenwijkerland,Overijssel,VBO,6.092838,52.726287
Binnenpad,33,a,13,8355BR,Giethoorn,Steenwijkerland,Overijssel,VBO,6.093079,52.726309
Binnenpad,33,a,14,8355BR,Giethoorn,Steenwijkerland,Overijssel,VBO,6.093246,52.726310
Binnenpad,33,a,15,8355BR,Giethoorn,Steenwijkerland,Overijssel,VBO,6.093385,52.726327
Binnenpad,33,a,16,8355BR,Giethoorn,Steenwijkerland,Overijssel,VBO,6.093602,52.726300
Binnenpad,33,a,2,8355BR,Giethoorn,Steenwijkerland,Overijssel,VBO,6.091381,52.726186
Binnenpad,33,a,22,8355BR,Giethoorn,Steenwijkerland,Overijssel,VBO,6.092932,52.726127
Binnenpad,33,a,25,8355BR,Giethoorn,Steenwijkerland,Overijssel,VBO,6.092538,52.726093
Binnenpad,33,a,29,8355BR,Giethoorn,Steenwijkerland,Overijssel,VBO,6.091892,52.726015
Binnenpad,33,a,3,8355BR,Giethoorn,Steenwijkerland,Overijssel,VBO,6.091502,52.726150
Binnenpad,33,a,30,8355BR,Giethoorn,Steenwijkerland,Overijssel,VBO,6.091779,52.726001
Binnenpad,33,a,32,8355BR,Giethoorn,Steenwijkerland,Overijssel,VBO,6.091442,52.725941
Binnenpad,33,a,33,8355BR,Giethoorn,Steenwijkerland,Overijssel,VBO,6.090951,52.725660
Binnenpad,33,a,34,8355BR,Giethoorn,Steenwijkerland,Overijssel,VBO,6.091241,52.725656
Binnenpad,33,a,35,8355BR,Giethoorn,Steenwijkerland,Overijssel,VBO,6.091481,52.725692
Binnenpad,33,a,36,8355BR,Giethoorn,Steenwijkerland,Overijssel,VBO,6.091718,52.725708
Binnenpad,33,a,37,8355BR,Giethoorn,Steenwijkerland,Overijssel,VBO,6.092016,52.725726
Binnenpad,33,a,38,8355BR,Giethoorn,Steenwijkerland,Overijssel,VBO,6.092183,52.725766
Binnenpad,33,a,39,8355BR,Giethoorn,Steenwijkerland,Overijssel,VBO,6.092319,52.725754
Binnenpad,33,a,4,8355BR,Giethoorn,Steenwijkerland,Overijssel,VBO,6.091655,52.726192
Binnenpad,33,a,43,8355BR,Giethoorn,Steenwijkerland,Overijssel,VBO,6.092929,52.725856
Binnenpad,33,a,44,8355BR,Giethoorn,Steenwijkerland,Overijssel,VBO,6.093120,52.725831
Binnenpad,33,a,45,8355BR,Giethoorn,Steenwijkerland,Overijssel,VBO,6.093267,52.725942
Binnenpad,33,a,46,8355BR,Giethoorn,Steenwijkerland,Overijssel,VBO,6.093295,52.725851
Binnenpad,33,a,47,8355BR,Giethoorn,Steenwijkerland,Overijssel,VBO,6.093546,52.725981
Binnenpad,33,a,48,8355BR,Giethoorn,Steenwijkerland,Overijssel,VBO,6.093579,52.725890
Binnenpad,33,a,49,8355BR,Giethoorn,Steenwijkerland,Overijssel,VBO,6.093813,52.726054
Binnenpad,33,a,5,8355BR,Giethoorn,Steenwijkerland,Overijssel,VBO,6.091796,52.726198
Binnenpad,33,a,50,8355BR,Giethoorn,Steenwijkerland,Overijssel,VBO,6.093845,52.725966
Binnenpad,33,a,6,8355BR,Giethoorn,Steenwijkerland,Overijssel,VBO,6.091971,52.726227
Binnenpad,33,a,7,8355BR,Giethoorn,Steenwijkerland,Overijssel,VBO,6.092119,52.726238
Binnenpad,33,a,8,8355BR,Giethoorn,Steenwijkerland,Overijssel,VBO,6.092238,52.726252
Binnenpad,33,a,9,8355BR,Giethoorn,Steenwijkerland,Overijssel,VBO,6.092393,52.726244
Binnenpad,33,a,,8355BR,Giethoorn,Steenwijkerland,Overijssel,VBO,6.091179,52.725867
Binnenpad,33,,,8355BR,Giethoorn,Steenwijkerland,Overijssel,VBO,6.090420,52.725934
Binnenpad,35,,,8355BR,Giethoorn,Steenwijkerland,Overijssel,VBO,6.090379,52.725827
Binnenpad,37,,,8355BR,Giethoorn,Steenwijkerland,Overijssel,VBO,6.090391,52.725638
Binnenpad,39,,,8355BR,Giethoorn,Steenwijkerland,Overijssel,VBO,6.090374,52.725539
Binnenpad,41,,,8355BR,Giethoorn,Steenwijkerland,Overijssel,VBO,6.090371,52.725368
Binnenpad,43,,,8355BR,Giethoorn,Steenwijkerland,Overijssel,VBO,6.090487,52.725206
Binnenpad,45,,,8355BR,Giethoorn,Steenwijkerland,Overijssel,VBO,6.090439,52.724990
Binnenpad,47,a,,8355BR,Giethoorn,Steenwijkerland,Overijssel,VBO,6.091076,52.725023
Binnenpad,47,,,8355BR,Giethoorn,Steenwijkerland,Overijssel,VBO,6.090481,52.724819
Binnenpad,49,R,36,8355BR,Giethoorn,Steenwijkerland,Overijssel,VBO,6.091296,52.724902
Binnenpad,49,,,8355BR,Giethoorn,Steenwijkerland,Overijssel,VBO,6.090581,52.724585
Bovenwijde,1,,,8355BR,Giethoorn,Steenwijkerland,Overijssel,VBO,6.092724,52.733569
Bovenwijde,2,R,,8355BR,Giethoorn,Steenwijkerland,Overijssel,VBO,6.092896,52.733204
Bovenwijde,3,,,8355BR,Giethoorn,Steenwijkerland,Overijssel,VBO,6.092494,52.732141
Bovenwijde,6,R,,8355BR,Giethoorn,Steenwijkerland,Overijssel,VBO,6.092379,52.730308
Bovenwijde,9,,,8355BR,Giethoorn,Steenwijkerland,Overijssel,VBO,6.094202,52.724240
Bovenwijde,11,,,8355BR,Giethoorn,Steenwijkerland,Overijssel,VBO,6.094215,52.722317
Bovenwijde,12,,,8355BR,Giethoorn,Steenwijkerland,Overijssel,VBO,6.094319,52.721879
Bovenwijde,13,,,8355BR,Giethoorn,Steenwijkerland,Overijssel,VBO,6.094496,52.721372
Bovenwijde,14,R,,8355BR,Giethoorn,Steenwijkerland,Overijssel,VBO,6.095304,52.719986
Bovenwijde,15,,,8355BR,Giethoorn,Steenwijkerland,Overijssel,VBO,6.095505,52.719703
Bovenwijde,17,,,8355BR,Giethoorn,Steenwijkerland,Overijssel,VBO,6.096625,52.719382
Bovenwijde,19,,,8355BR,Giethoorn,Steenwijkerland,Overijssel,VBO,6.096421,52.715941
Bovenwijde,21,,,8355BR,Giethoorn,Steenwijkerland,Overijssel,VBO,6.102890,52.717852
Bovenwijde,23,,,8355BR,Giethoorn,Steenwijkerland,Overijssel,VBO,6.104524,52.719990
Bovenwijde,25,,,8355BR,Giethoorn,Steenwijkerland,Overijssel,VBO,6.105437,52.719760
Binnenpad,34,,,8355BS,Giethoorn,Steenwijkerland,Overijssel,VBO,6.089932,52.724706
Binnenpad,36,,,8355BS,Giethoorn,Steenwijkerland,Overijssel,VBO,6.089630,52.724384
Binnenpad,38,,,8355BS,Giethoorn,Steenwijkerland,Overijssel,VBO,6.089999,52.724265
Binnenpad,40,,,8355BS,Giethoorn,Steenwijkerland,Overijssel,VBO,6.089964,52.723942
Binnenpad,42,a,,8355BS,Giethoorn,Steenwijkerland,Overijssel,VBO,6.089971,52.723474
Binnenpad,42,,,8355BS,Giethoorn,Steenwijkerland,Overijssel,VBO,6.090035,52.723780
Binnenpad,44,,,8355BS,Giethoorn,Steenwijkerland,Overijssel,VBO,6.089966,52.723178
Binnenpad,46,,,8355BS,Giethoorn,Steenwijkerland,Overijssel,VBO,6.089948,52.722971
Binnenpad,48,,,8355BS,Giethoorn,Steenwijkerland,Overijssel,VBO,6.089677,52.722676
Binnenpad,51,,,8355BS,Giethoorn,Steenwijkerland,Overijssel,VBO,6.090443,52.724271
Binnenpad,53,,,8355BS,Giethoorn,Steenwijkerland,Overijssel,VBO,6.090469,52.724083
Binnenpad,55,,,8355BS,Giethoorn,Steenwijkerland,Overijssel,VBO,6.091803,52.724165
Binnenpad,57,,,8355BS,Giethoorn,Steenwijkerland,Overijssel,VBO,6.090482,52.723975
Binnenpad,59,,,8355BS,Giethoorn,Steenwijkerland,Overijssel,VBO,6.090553,52.723794
Binnenpad,61,,,8355BS,Giethoorn,Steenwijkerland,Overijssel,VBO,6.090548,52.723471
Binnenpad,63,,,8355BS,Giethoorn,Steenwijkerland,Overijssel,VBO,6.090501,52.723265
Binnenpad,65,,,8355BS,Giethoorn,Steenwijkerland,Overijssel,VBO,6.090469,52.723121
Binnenpad,67,,,8355BS,Giethoorn,Steenwijkerland,Overijssel,VBO,6.090436,52.722959
Binnenpad,69,,,8355BS,Giethoorn,Steenwijkerland,Overijssel,VBO,6.090315,52.722753
Binnenpad,71,,,8355BS,Giethoorn,Steenwijkerland,Overijssel,VBO,6.090489,52.722546
Binnenpad,50,,,8355BT,Giethoorn,Steenwijkerland,Overijssel,VBO,6.089896,52.722513
Binnenpad,52,,,8355BT,Giethoorn,Steenwijkerland,Overijssel,VBO,6.089818,52.722235
Binnenpad,54,,,8355BT,Giethoorn,Steenwijkerland,Overijssel,VBO,6.089917,52.721929
Binnenpad,56,,,8355BT,Giethoorn,Steenwijkerland,Overijssel,VBO,6.089124,52.721385
Binnenpad,73,,,8355BT,Giethoorn,Steenwijkerland,Overijssel,VBO,6.090366,52.722268
Binnenpad,75,a,,8355BT,Giethoorn,Steenwijkerland,Overijssel,VBO,6.091876,52.722277
Binnenpad,75,b,,8355BT,Giethoorn,Steenwijkerland,Overijssel,VBO,6.092275,52.722247
Binnenpad,75,c,,8355BT,Giethoorn,Steenwijkerland,Overijssel,VBO,6.092660,52.722245
Binnenpad,75,d,,8355BT,Giethoorn,Steenwijkerland,Overijssel,VBO,6.092577,52.722014
Binnenpad,75,e,,8355BT,Giethoorn,Steenwijkerland,Overijssel,VBO,6.092923,52.722010
Binnenpad,75,f,,8355BT,Giethoorn,Steenwijkerland,Overijssel,VBO,6.093293,52.722017
Binnenpad,75,g,,8355BT,Giethoorn,Steenwijkerland,Overijssel,VBO,6.093693,52.722077
Binnenpad,75,h,,8355BT,Giethoorn,Steenwijkerland,Overijssel,VBO,6.093149,52.722251
Binnenpad,75,i,,8355BT,Giethoorn,Steenwijkerland,Overijssel,VBO,6.094789,52.722107
Binnenpad,75,j,,8355BT,Giethoorn,Steenwijkerland,Overijssel,VBO,6.093474,52.722258
Binnenpad,75,k,,8355BT,Giethoorn,Steenwijkerland,Overijssel,VBO,6.093771,52.722275
Binnenpad,75,l,,8355BT,Giethoorn,Steenwijkerland,Overijssel,VBO,6.092902,52.722256
Binnenpad,75,m,,8355BT,Giethoorn,Steenwijkerland,Overijssel,VBO,6.094229,52.722085
Binnenpad,75,n,,8355BT,Giethoorn,Steenwijkerland,Overijssel,VBO,6.094515,52.722099
Binnenpad,75,,,8355BT,Giethoorn,Steenwijkerland,Overijssel,VBO,6.091033,52.722309
Binnenpad,77,,,8355BT,Giethoorn,Steenwijkerland,Overijssel,VBO,6.091015,52.722111
Binnenpad,79,,,8355BT,Giethoorn,Steenwijkerland,Overijssel,VBO,6.091725,52.722080
Binnenpad,81,,,8355BT,Giethoorn,Steenwijkerland,Overijssel,VBO,6.091990,52.722016
Binnenpad,83,,,8355BT,Giethoorn,Steenwijkerland,Overijssel,VBO,6.091545,52.721910
Binnenpad,85,,,8355BT,Giethoorn,Steenwijkerland,Overijssel,VBO,6.091959,52.721935
Binnenpad,87,,,8355BT,Giethoorn,Steenwijkerland,Overijssel,VBO,6.091501,52.721982
Binnenpad,89,,,8355BT,Giethoorn,Steenwijkerland,Overijssel,VBO,6.091250,52.721984
Binnenpad,91,,,8355BT,Giethoorn,Steenwijkerland,Overijssel,VBO,6.090703,52.722014
Binnenpad,93,,,8355BT,Giethoorn,Steenwijkerland,Overijssel,VBO,6.090731,52.721951
Binnenpad,95,,,8355BT,Giethoorn,Steenwijkerland,Overijssel,VBO,6.090421,52.721971
Binnenpad,97,,,8355BT,Giethoorn,Steenwijkerland,Overijssel,VBO,6.090595,52.721745
Binnenpad,99,,,8355BT,Giethoorn,Steenwijkerland,Overijssel,VBO,6.090444,52.721584
Binnenpad,101,,,8355BT,Giethoorn,Steenwijkerland,Overijssel,VBO,6.090841,52.721411
Binnenpad,103,,,8355BT,Giethoorn,Steenwijkerland,Overijssel,VBO,6.090441,52.721423
Binnenpad,58,,,8355BV,Giethoorn,Steenwijkerland,Overijssel,VBO,6.090041,52.721362
Binnenpad,60,,,8355BV,Giethoorn,Steenwijkerland,Overijssel,VBO,6.090084,52.721272
Binnenpad,62,,,8355BV,Giethoorn,Steenwijkerland,Overijssel,VBO,6.090113,52.721218
Binnenpad,64,,,8355BV,Giethoorn,Steenwijkerland,Overijssel,VBO,6.090110,52.721056
Binnenpad,66,g,1,8355BV,Giethoorn,Steenwijkerland,Overijssel,VBO,6.089751,52.720889
Binnenpad,66,g,2,8355BV,Giethoorn,Steenwijkerland,Overijssel,VBO,6.089707,52.720889
Binnenpad,66,g,3,8355BV,Giethoorn,Steenwijkerland,Overijssel,VBO,6.089662,52.720890
Binnenpad,66,g,4,8355BV,Giethoorn,Steenwijkerland,Overijssel,VBO,6.089618,52.720890
Binnenpad,66,g,5,8355BV,Giethoorn,Steenwijkerland,Overijssel,VBO,6.089573,52.720890
Binnenpad,66,g,6,8355BV,Giethoorn,Steenwijkerland,Overijssel,VBO,6.089529,52.720890
Binnenpad,66,g,7,8355BV,Giethoorn,Steenwijkerland,Overijssel,VBO,6.089484,52.720891
Binnenpad,66,,,8355BV,Giethoorn,Steenwijkerland,Overijssel,VBO,6.090122,52.720885
Binnenpad,68,a,,8355BV,Giethoorn,Steenwijkerland,Overijssel,VBO,6.090041,52.720445
Binnenpad,68,,,8355BV,Giethoorn,Steenwijkerland,Overijssel,VBO,6.090177,52.720651
Binnenpad,70,,,8355BV,Giethoorn,Steenwijkerland,Overijssel,VBO,6.090172,52.720301
Binnenpad,72,,,8355BV,Giethoorn,Steenwijkerland,Overijssel,VBO,6.090109,52.720085
Binnenpad,74,,,8355BV,Giethoorn,Steenwijkerland,Overijssel,VBO,6.090047,52.719888
Binnenpad,105,,,8355BV,Giethoorn,Steenwijkerland,Overijssel,VBO,6.090569,52.721098
Binnenpad,107,,,8355BV,Giethoorn,Steenwijkerland,Overijssel,VBO,6.091178,52.721220
Binnenpad,109,,,8355BV,Giethoorn,Steenwijkerland,Overijssel,VBO,6.091135,52.721016
Binnenpad,111,,,8355BV,Giethoorn,Steenwijkerland,Overijssel,VBO,6.090566,52.720901
Binnenpad,113,,,8355BV,Giethoorn,Steenwijkerland,Overijssel,VBO,6.090548,52.720658
Binnenpad,115,,,8355BV,Giethoorn,Steenwijkerland,Overijssel,VBO,6.090544,52.720415
Binnenpad,117,a,,8355BV,Giethoorn,Steenwijkerland,Overijssel,VBO,6.092365,52.720536
Binnenpad,117,,,8355BV,Giethoorn,Steenwijkerland,Overijssel,VBO,6.092067,52.720343
Binnenpad,121,,,8355BV,Giethoorn,Steenwijkerland,Overijssel,VBO,6.090628,52.720109
Binnenpad,123,,,8355BV,Giethoorn,Steenwijkerland,Overijssel,VBO,6.090594,52.719876
Binnenpad,76,,,8355BW,Giethoorn,Steenwijkerland,Overijssel,VBO,6.090131,52.719618
Binnenpad,78,,,8355BW,Giethoorn,Steenwijkerland,Overijssel,VBO,6.090158,52.719420
Binnenpad,80,a,,8355BW,Giethoorn,Steenwijkerland,Overijssel,VBO,6.090092,52.719016
Binnenpad,80,,,8355BW,Giethoorn,Steenwijkerland,Overijssel,VBO,6.090255,52.719033
Binnenpad,82,a,,8355BW,Giethoorn,Steenwijkerland,Overijssel,VBO,6.090174,52.718815
Binnenpad,82,b,,8355BW,Giethoorn,Steenwijkerland,Overijssel,VBO,6.090351,52.718529
Binnenpad,82,,,8355BW,Giethoorn,Steenwijkerland,Overijssel,VBO,6.090326,52.718817
Binnenpad,84,,,8355BW,Giethoorn,Steenwijkerland,Overijssel,VBO,6.090479,52.718241
Binnenpad,86,,,8355BW,Giethoorn,Steenwijkerland,Overijssel,VBO,6.090313,52.717999
Binnenpad,88,,,8355BW,Giethoorn,Steenwijkerland,Overijssel,VBO,6.090155,52.717416
Binnenpad,90,,,8355BW,Giethoorn,Steenwijkerland,Overijssel,VBO,6.090064,52.717246
Binnenpad,125,,,8355BW,Giethoorn,Steenwijkerland,Overijssel,VBO,6.090591,52.719678
Binnenpad,127,,,8355BW,Giethoorn,Steenwijkerland,Overijssel,VBO,6.091006,52.719703
Binnenpad,129,,,8355BW,Giethoorn,Steenwijkerland,Overijssel,VBO,6.090631,52.719381
Binnenpad,131,,,8355BW,Giethoorn,Steenwijkerland,Overijssel,VBO,6.090671,52.719111
Binnenpad,133,,,8355BW,Giethoorn,Steenwijkerland,Overijssel,VBO,6.090785,52.718832
Binnenpad,135,,,8355BW,Giethoorn,Steenwijkerland,Overijssel,VBO,6.090925,52.718364
Binnenpad,137,,,8355BW,Giethoorn,Steenwijkerland,Overijssel,VBO,6.091012,52.718265
Binnenpad,139,,,8355BW,Giethoorn,Steenwijkerland,Overijssel,VBO,6.090860,52.718005
Binnenpad,141,a,,8355BW,Giethoorn,Steenwijkerland,Overijssel,VBO,6.091419,52.717982
Binnenpad,141,,,8355BW,Giethoorn,Steenwijkerland,Overijssel,VBO,6.090738,52.717754
Binnenpad,143,,,8355BW,Giethoorn,Steenwijkerland,Overijssel,VBO,6.090675,52.717512
Binnenpad,92,,,8355BX,Giethoorn,Steenwijkerland,Overijssel,VBO,6.090104,52.717012
Binnenpad,94,,,8355BX,Giethoorn,Steenwijkerland,Overijssel,VBO,6.090088,52.716931
Binnenpad,96,,,8355BX,Giethoorn,Steenwijkerland,Overijssel,VBO,6.089952,52.716734
Binnenpad,98,,,8355BX,Giethoorn,Steenwijkerland,Overijssel,VBO,6.089874,52.716474
Binnenpad,100,,,8355BX,Giethoorn,Steenwijkerland,Overijssel,VBO,6.089678,52.716241
Binnenpad,102,,,8355BX,Giethoorn,Steenwijkerland,Overijssel,VBO,6.088109,52.716242
Binnenpad,104,,,8355BX,Giethoorn,Steenwijkerland,Overijssel,VBO,6.087354,52.716219
Binnenpad,145,,,8355BX,Giethoorn,Steenwijkerland,Overijssel,VBO,6.090318,52.716462
Binnenpad,147,,,8355BX,Giethoorn,Steenwijkerland,Overijssel,VBO,6.090195,52.716202
Langesteeg,1,t,,8355BZ,Giethoorn,Steenwijkerland,Overijssel,VBO,6.089647,52.715705
Langesteeg,1,,,8355BZ,Giethoorn,Steenwijkerland,Overijssel,VBO,6.089880,52.715962
Langesteeg,2,,,8355BZ,Giethoorn,Steenwijkerland,Overijssel,VBO,6.089303,52.715938
Langesteeg,3,,,8355BZ,Giethoorn,Steenwijkerland,Overijssel,VBO,6.088091,52.715109
Langesteeg,4,,,8355BZ,Giethoorn,Steenwijkerland,Overijssel,VBO,6.088593,52.715978
Langesteeg,5,,,8355BZ,Giethoorn,Steenwijkerland,Overijssel,VBO,6.085948,52.715320
Langesteeg,6,,,8355BZ,Giethoorn,Steenwijkerland,Overijssel,VBO,6.088103,52.715864
Langesteeg,7,,,8355BZ,Giethoorn,Steenwijkerland,Overijssel,VBO,6.085713,52.715384
Langesteeg,9,,,8355BZ,Giethoorn,Steenwijkerland,Overijssel,VBO,6.085402,52.715386
Langesteeg,10,,,8355BZ,Giethoorn,Steenwijkerland,Overijssel,VBO,6.087891,52.715569
Langesteeg,12,a,,8355BZ,Giethoorn,Steenwijkerland,Overijssel,VBO,6.086515,52.715604
Langesteeg,12,b,,8355BZ,Giethoorn,Steenwijkerland,Overijssel,VBO,6.086204,52.715606
Langesteeg,12,c,,8355BZ,Giethoorn,Steenwijkerland,Overijssel,VBO,6.086162,52.715759
Langesteeg,12,d,,8355BZ,Giethoorn,Steenwijkerland,Overijssel,VBO,6.085701,52.715609
Langesteeg,12,e,,8355BZ,Giethoorn,Steenwijkerland,Overijssel,VBO,6.085733,52.715734
Langesteeg,12,f,,8355BZ,Giethoorn,Steenwijkerland,Overijssel,VBO,6.085435,52.715628
Langesteeg,12,g,,8355BZ,Giethoorn,Steenwijkerland,Overijssel,VBO,6.085467,52.715763
Langesteeg,12,h,,8355BZ,Giethoorn,Steenwijkerland,Overijssel,VBO,6.084991,52.715640
Langesteeg,12,i,,8355BZ,Giethoorn,Steenwijkerland,Overijssel,VBO,6.084994,52.715775
Langesteeg,12,,,8355BZ,Giethoorn,Steenwijkerland,Overijssel,VBO,6.086940,52.715926
Langesteeg,13,,,8355BZ,Giethoorn,Steenwijkerland,Overijssel,VBO,6.084928,52.715398
Langesteeg,14,,,8355BZ,Giethoorn,Steenwijkerland,Overijssel,VBO,6.084656,52.715938
Langesteeg,15,,,8355BZ,Giethoorn,Steenwijkerland,Overijssel,VBO,6.084692,52.715408
Langesteeg,16,,,8355BZ,Giethoorn,Steenwijkerland,Overijssel,VBO,6.084389,52.715931
Langesteeg,17,,,8355BZ,Giethoorn,Steenwijkerland,Overijssel,VBO,6.084419,52.715497
Langesteeg,18,,,8355BZ,Giethoorn,Steenwijkerland,Overijssel,VBO,6.084078,52.715888
Langesteeg,19,,,8355BZ,Giethoorn,Steenwijkerland,Overijssel,VBO,6.083968,52.715484
Langesteeg,20,,,8355BZ,Giethoorn,Steenwijkerland,Overijssel,VBO,6.083808,52.715647
Langesteeg,21,,,8355BZ,Giethoorn,Steenwijkerland,Overijssel,VBO,6.083346,52.715443
Langesteeg,22,,,8355BZ,Giethoorn,Steenwijkerland,Overijssel,VBO,6.083527,52.715666
Langesteeg,23,,,8355BZ,Giethoorn,Steenwijkerland,Overijssel,VBO,6.083198,52.715453
Zuiderpad,1,a,,8355CA,Giethoorn,Steenwijkerland,Overijssel,VBO,6.083681,52.715144
Zuiderpad,1,,,8355CA,Giethoorn,Steenwijkerland,Overijssel,VBO,6.083029,52.715058
Zuiderpad,2,,,8355CA,Giethoorn,Steenwijkerland,Overijssel,VBO,6.082876,52.715670
Zuiderpad,3,,,8355CA,Giethoorn,Steenwijkerland,Overijssel,VBO,6.083015,52.714178
Zuiderpad,4,,,8355CA,Giethoorn,Steenwijkerland,Overijssel,VBO,6.083029,52.716029
Zuiderpad,5,a,,8355CA,Giethoorn,Steenwijkerland,Overijssel,VBO,6.082457,52.713516
Zuiderpad,5,,,8355CA,Giethoorn,Steenwijkerland,Overijssel,VBO,6.082357,52.713777
Zuiderpad,6,,,8355CA,Giethoorn,Steenwijkerland,Overijssel,VBO,6.082659,52.716031
Zuiderpad,7,,,8355CA,Giethoorn,Steenwijkerland,Overijssel,VBO,6.082229,52.713158
Zuiderpad,8,,,8355CA,Giethoorn,Steenwijkerland,Overijssel,VBO,6.082662,52.715927
Zuiderpad,10,,,8355CA,Giethoorn,Steenwijkerland,Overijssel,VBO,6.082609,52.715681
Zuiderpad,14,,,8355CA,Giethoorn,Steenwijkerland,Overijssel,VBO,6.082799,52.715509
Zuiderpad,16,a,,8355CA,Giethoorn,Steenwijkerland,Overijssel,VBO,6.082556,52.715106
Zuiderpad,16,,,8355CA,Giethoorn,Steenwijkerland,Overijssel,VBO,6.082708,52.715375
Zuiderpad,18,,,8355CA,Giethoorn,Steenwijkerland,Overijssel,VBO,6.082567,52.714872
Zuiderpad,20,a,,8355CA,Giethoorn,Steenwijkerland,Overijssel,VBO,6.082031,52.714669
Zuiderpad,20,,,8355CA,Giethoorn,Steenwijkerland,Overijssel,VBO,6.082401,52.714667
Zuiderpad,22,,,8355CA,Giethoorn,Steenwijkerland,Overijssel,VBO,6.082311,52.714586
Zuiderpad,24,t,,8355CA,Giethoorn,Steenwijkerland,Overijssel,VBO,6.082186,52.714529
Zuiderpad,26,,,8355CA,Giethoorn,Steenwijkerland,Overijssel,VBO,6.082009,52.714210
Zuiderpad,28,,,8355CA,Giethoorn,Steenwijkerland,Overijssel,VBO,6.081945,52.713914
Zuiderpad,30,,,8355CA,Giethoorn,Steenwijkerland,Overijssel,VBO,6.081869,52.713816
Zuiderpad,32,,,8355CA,Giethoorn,Steenwijkerland,Overijssel,VBO,6.081821,52.713582
Zuiderpad,36,,,8355CA,Giethoorn,Steenwijkerland,Overijssel,VBO,6.081746,52.713466
Zuiderpad,38,,,8355CA,Giethoorn,Steenwijkerland,Overijssel,VBO,6.081682,52.713215
Petersteeg,1,,,8355CB,Giethoorn,Steenwijkerland,Overijssel,VBO,6.079708,52.714727
Petersteeg,2,,,8355CB,Giethoorn,Steenwijkerland,Overijssel,VBO,6.080314,52.714643
Petersteeg,3,a,,8355CB,Giethoorn,Steenwijkerland,Overijssel,VBO,6.081217,52.714519
Petersteeg,3,,,8355CB,Giethoorn,Steenwijkerland,Overijssel,VBO,6.081007,52.714504
Petersteeg,4,,,8355CB,Giethoorn,Steenwijkerland,Overijssel,VBO,6.081495,52.714474
Zuiderpad,9,,,8355CB,Giethoorn,Steenwijkerland,Overijssel,VBO,6.082121,52.712889
Zuiderpad,13,,,8355CB,Giethoorn,Steenwijkerland,Overijssel,VBO,6.081953,52.712539
Zuiderpad,15,,,8355CB,Giethoorn,Steenwijkerland,Overijssel,VBO,6.081799,52.712136
Zuiderpad,17,,,8355CB,Giethoorn,Steenwijkerland,Overijssel,VBO,6.081584,52.711688
Zuiderpad,40,,,8355CB,Giethoorn,Steenwijkerland,Overijssel,VBO,6.081590,52.712973
Zuiderpad,42,,,8355CB,Giethoorn,Steenwijkerland,Overijssel,VBO,6.081392,52.712614
Zuiderpad,44,,,8355CB,Giethoorn,Steenwijkerland,Overijssel,VBO,6.081315,52.712453
Zuiderpad,46,,,8355CB,Giethoorn,Steenwijkerland,Overijssel,VBO,6.081177,52.712130
Zuiderpad,48,a,,8355CB,Giethoorn,Steenwijkerland,Overijssel,VBO,6.080813,52.711776
Zuiderpad,48,,,8355CB,Giethoorn,Steenwijkerland,Overijssel,VBO,6.080991,52.711619
Maaiensteeg,1,,,8355CC,Giethoorn,Steenwijkerland,Overijssel,VBO,6.074684,52.708564
Zuiderpad,19,,,8355CC,Giethoorn,Steenwijkerland,Overijssel,VBO,6.081294,52.711123
Zuiderpad,23,,,8355CC,Giethoorn,Steenwijkerland,Overijssel,VBO,6.080899,52.710433
Zuiderpad,25,,,8355CC,Giethoorn,Steenwijkerland,Overijssel,VBO,6.080733,52.710264
Zuiderpad,27,,,8355CC,Giethoorn,Steenwijkerland,Overijssel,VBO,6.080619,52.709599
Zuiderpad,29,,,8355CC,Giethoorn,Steenwijkerland,Overijssel,VBO,6.080521,52.709034
Zuiderpad,31,,,8355CC,Giethoorn,Steenwijkerland,Overijssel,VBO,6.080339,52.708765
Zuiderpad,33,,,8355CC,Giethoorn,Steenwijkerland,Overijssel,VBO,6.080204,52.708613
Zuiderpad,35,,,8355CC,Giethoorn,Steenwijkerland,Overijssel,VBO,6.080112,52.708407
Zuiderpad,37,,,8355CC,Giethoorn,Steenwijkerland,Overijssel,VBO,6.079946,52.708210
Zuiderpad,39,,,8355CC,Giethoorn,Steenwijkerland,Overijssel,VBO,6.079734,52.707915
Zuiderpad,41,,,8355CC,Giethoorn,Steenwijkerland,Overijssel,VBO,6.079284,52.706578
Zuiderpad,50,,,8355CC,Giethoorn,Steenwijkerland,Overijssel,VBO,6.080826,52.711476
Zuiderpad,52,,,8355CC,Giethoorn,Steenwijkerland,Overijssel,VBO,6.080779,52.711279
Zuiderpad,54,,,8355CC,Giethoorn,Steenwijkerland,Overijssel,VBO,6.080672,52.711109
Zuiderpad,58,t,,8355CC,Giethoorn,Steenwijkerland,Overijssel,VBO,6.079987,52.710954
Zuiderpad,58,,,8355CC,Giethoorn,Steenwijkerland,Overijssel,VBO,6.080508,52.710856
Zuiderpad,60,a,,8355CC,Giethoorn,Steenwijkerland,Overijssel,VBO,6.080308,52.710491
Zuiderpad,60,,,8355CC,Giethoorn,Steenwijkerland,Overijssel,VBO,6.080485,52.710499
Zuiderpad,62,,,8355CC,Giethoorn,Steenwijkerland,Overijssel,VBO,6.079920,52.709388
Zuiderpad,64,,,8355CC,Giethoorn,Steenwijkerland,Overijssel,VBO,6.079497,52.708815
Zuiderpad,66,,,8355CC,Giethoorn,Steenwijkerland,Overijssel,VBO,6.079345,52.707656
Zuiderpad,68,a,,8355CC,Giethoorn,Steenwijkerland,Overijssel,VBO,6.078034,52.706334
Zuiderpad,68,,,8355CC,Giethoorn,Steenwijkerland,Overijssel,VBO,6.079224,52.707468
Ds. T.O.Hylkemaweg,1,t,,8355CD,Giethoorn,Steenwijkerland,Overijssel,VBO,6.078397,52.722174
Ds. T.O.Hylkemaweg,1,,,8355CD,Giethoorn,Steenwijkerland,Overijssel,VBO,6.078226,52.722096
Ds. T.O.Hylkemaweg,2,,,8355CD,Giethoorn,Steenwijkerland,Overijssel,VBO,6.079486,52.722197
Ds. T.O.Hylkemaweg,3,,,8355CD,Giethoorn,Steenwijkerland,Overijssel,VBO,6.079693,52.722205
Ds. T.O.Hylkemaweg,4,,,8355CD,Giethoorn,Steenwijkerland,Overijssel,VBO,6.079960,52.722212
Ds. T.O.Hylkemaweg,5,,,8355CD,Giethoorn,Steenwijkerland,Overijssel,VBO,6.080034,52.722221
Ds. T.O.Hylkemaweg,6,,,8355CD,Giethoorn,Steenwijkerland,Overijssel,VBO,6.080309,52.722233
Ds. T.O.Hylkemaweg,7,,,8355CD,Giethoorn,Steenwijkerland,Overijssel,VBO,6.080449,52.722236
Ds. T.O.Hylkemaweg,8,,,8355CD,Giethoorn,Steenwijkerland,Overijssel,VBO,6.080700,52.722226
Ds. T.O.Hylkemaweg,9,,,8355CD,Giethoorn,Steenwijkerland,Overijssel,VBO,6.080849,52.722261
Ds. T.O.Hylkemaweg,10,a,,8355CD,Giethoorn,Steenwijkerland,Overijssel,VBO,6.081058,52.722224
Ds. T.O.Hylkemaweg,10,b,,8355CD,Giethoorn,Steenwijkerland,Overijssel,VBO,6.081260,52.722092
Ds. T.O.Hylkemaweg,10,c,,8355CD,Giethoorn,Steenwijkerland,Overijssel,VBO,6.081103,52.722098
Ds. T.O.Hylkemaweg,10,,,8355CD,Giethoorn,Steenwijkerland,Overijssel,VBO,6.081115,52.722259
Ds. T.O.Hylkemaweg,11,,,8355CD,Giethoorn,Steenwijkerland,Overijssel,VBO,6.081337,52.722267
Ds. T.O.Hylkemaweg,12,a,,8355CD,Giethoorn,Steenwijkerland,Overijssel,VBO,6.081586,52.722104
Ds. T.O.Hylkemaweg,12,,,8355CD,Giethoorn,Steenwijkerland,Overijssel,VBO,6.081500,52.722248
Ds. T.O.Hylkemaweg,13,,,8355CD,Giethoorn,Steenwijkerland,Overijssel,VBO,6.082122,52.722289
Ds. T.O.Hylkemaweg,15,,,8355CE,Giethoorn,Steenwijkerland,Overijssel,VBO,6.082448,52.722332
Ds. T.O.Hylkemaweg,16,,,8355CE,Giethoorn,Steenwijkerland,Overijssel,VBO,6.082656,52.722331
Ds. T.O.Hylkemaweg,17,,,8355CE,Giethoorn,Steenwijkerland,Overijssel,VBO,6.082759,52.722303
Ds. T.O.Hylkemaweg,18,,,8355CE,Giethoorn,Steenwijkerland,Overijssel,VBO,6.082848,52.722312
Ds. T.O.Hylkemaweg,19,,,8355CE,Giethoorn,Steenwijkerland,Overijssel,VBO,6.082996,52.722329
Ds. T.O.Hylkemaweg,20,,,8355CE,Giethoorn,Steenwijkerland,Overijssel,VBO,6.083070,52.722338
Ds. T.O.Hylkemaweg,21,,,8355CE,Giethoorn,Steenwijkerland,Overijssel,VBO,6.083233,52.722319
Ds. T.O.Hylkemaweg,22,,,8355CE,Giethoorn,Steenwijkerland,Overijssel,VBO,6.083307,52.722327
Ds. T.O.Hylkemaweg,23,,,8355CE,Giethoorn,Steenwijkerland,Overijssel,VBO,6.083455,52.722335
Ds. T.O.Hylkemaweg,24,,,8355CE,Giethoorn,Steenwijkerland,Overijssel,VBO,6.083544,52.722335
Ds. T.O.Hylkemaweg,25,,,8355CE,Giethoorn,Steenwijkerland,Overijssel,VBO,6.083678,52.722397
Ds. T.O.Hylkemaweg,26,,,8355CE,Giethoorn,Steenwijkerland,Overijssel,VBO,6.083782,52.722396
Ds. T.O.Hylkemaweg,27,,,8355CE,Giethoorn,Steenwijkerland,Overijssel,VBO,6.083989,52.722422
Ds. T.O.Hylkemaweg,28,,,8355CE,Giethoorn,Steenwijkerland,Overijssel,VBO,6.084196,52.722403
Ds. T.O.Hylkemaweg,29,,,8355CE,Giethoorn,Steenwijkerland,Overijssel,VBO,6.084270,52.722402
Ds. T.O.Hylkemaweg,30,,,8355CE,Giethoorn,Steenwijkerland,Overijssel,VBO,6.084478,52.722428
Ds. T.O.Hylkemaweg,31,,,8355CE,Giethoorn,Steenwijkerland,Overijssel,VBO,6.084730,52.722463
Ds. T.O.Hylkemaweg,32,,,8355CE,Giethoorn,Steenwijkerland,Overijssel,VBO,6.084922,52.722471
Ds. T.O.Hylkemaweg,34,,,8355CE,Giethoorn,Steenwijkerland,Overijssel,VBO,6.085293,52.722486
Ds. T.O.Hylkemaweg,35,,,8355CE,Giethoorn,Steenwijkerland,Overijssel,VBO,6.085515,52.722485
Ds. T.O.Hylkemaweg,36,,,8355CE,Giethoorn,Steenwijkerland,Overijssel,VBO,6.085574,52.722485
Ds. T.O.Hylkemaweg,37,a,,8355CE,Giethoorn,Steenwijkerland,Overijssel,VBO,6.085789,52.722430
Ds. T.O.Hylkemaweg,37,,,8355CE,Giethoorn,Steenwijkerland,Overijssel,VBO,6.085811,52.722501
Ds. T.O.Hylkemaweg,38,,,8355CE,Giethoorn,Steenwijkerland,Overijssel,VBO,6.086107,52.722500
Ds. T.O.Hylkemaweg,39,a,,8355CE,Giethoorn,Steenwijkerland,Overijssel,VBO,6.086945,52.722565
Ds. T.O.Hylkemaweg,39,,,8355CE,Giethoorn,Steenwijkerland,Overijssel,VBO,6.086774,52.722541
Ds. T.O.Hylkemaweg,40,a,,8355CE,Giethoorn,Steenwijkerland,Overijssel,VBO,6.087455,52.722537
Ds. T.O.Hylkemaweg,40,,,8355CE,Giethoorn,Steenwijkerland,Overijssel,VBO,6.087070,52.722557
Ds. T.O.Hylkemaweg,41,a,,8355CE,Giethoorn,Steenwijkerland,Overijssel,VBO,6.087977,52.722560
Ds. T.O.Hylkemaweg,41,,,8355CE,Giethoorn,Steenwijkerland,Overijssel,VBO,6.087751,52.722553
Ds. T.O.Hylkemaweg,42,g,1,8355CE,Giethoorn,Steenwijkerland,Overijssel,VBO,6.087803,52.722196
Ds. T.O.Hylkemaweg,42,g,10,8355CE,Giethoorn,Steenwijkerland,Overijssel,VBO,6.087641,52.722081
Ds. T.O.Hylkemaweg,42,g,11,8355CE,Giethoorn,Steenwijkerland,Overijssel,VBO,6.087582,52.722078
Ds. T.O.Hylkemaweg,42,g,12,8355CE,Giethoorn,Steenwijkerland,Overijssel,VBO,6.087522,52.722075
Ds. T.O.Hylkemaweg,42,g,2,8355CE,Giethoorn,Steenwijkerland,Overijssel,VBO,6.087748,52.722193
Ds. T.O.Hylkemaweg,42,g,3,8355CE,Giethoorn,Steenwijkerland,Overijssel,VBO,6.087686,52.722187
Ds. T.O.Hylkemaweg,42,g,4,8355CE,Giethoorn,Steenwijkerland,Overijssel,VBO,6.087628,52.722189
Ds. T.O.Hylkemaweg,42,g,5,8355CE,Giethoorn,Steenwijkerland,Overijssel,VBO,6.087568,52.722186
Ds. T.O.Hylkemaweg,42,g,6,8355CE,Giethoorn,Steenwijkerland,Overijssel,VBO,6.087509,52.722184
Ds. T.O.Hylkemaweg,42,g,7,8355CE,Giethoorn,Steenwijkerland,Overijssel,VBO,6.087816,52.722090
Ds. T.O.Hylkemaweg,42,g,8,8355CE,Giethoorn,Steenwijkerland,Overijssel,VBO,6.087757,52.722086
Ds. T.O.Hylkemaweg,42,g,9,8355CE,Giethoorn,Steenwijkerland,Overijssel,VBO,6.087701,52.722082
Ds. T.O.Hylkemaweg,42,,,8355CE,Giethoorn,Steenwijkerland,Overijssel,VBO,6.088384,52.722351
Ds. T.O.Hylkemaweg,43,,,8355CE,Giethoorn,Steenwijkerland,Overijssel,VBO,6.088551,52.722602
Ds. T.O.Hylkemaweg,44,t,,8355CE,Giethoorn,Steenwijkerland,Overijssel,VBO,6.089204,52.722706
Cornelisgracht,1,,,8355CG,Giethoorn,Steenwijkerland,Overijssel,VBO,6.076761,52.723351
Cornelisgracht,2,,,8355CG,Giethoorn,Steenwijkerland,Overijssel,VBO,6.075273,52.723461
Cornelisgracht,3,,,8355CG,Giethoorn,Steenwijkerland,Overijssel,VBO,6.074952,52.722861
Cornelisgracht,4,,,8355CG,Giethoorn,Steenwijkerland,Overijssel,VBO,6.074810,52.723230
Cornelisgracht,5,,,8355CG,Giethoorn,Steenwijkerland,Overijssel,VBO,6.074878,52.722826
Cornelisgracht,6,,,8355CG,Giethoorn,Steenwijkerland,Overijssel,VBO,6.074691,52.723159
Cornelisgracht,7,,,8355CG,Giethoorn,Steenwijkerland,Overijssel,VBO,6.074758,52.722745
Cornelisgracht,8,,,8355CG,Giethoorn,Steenwijkerland,Overijssel,VBO,6.074451,52.723008
Cornelisgracht,9,,,8355CG,Giethoorn,Steenwijkerland,Overijssel,VBO,6.074683,52.722710
Cornelisgracht,10,,,8355CG,Giethoorn,Steenwijkerland,Overijssel,VBO,6.074302,52.722928
Cornelisgracht,11,,,8355CG,Giethoorn,Steenwijkerland,Overijssel,VBO,6.074564,52.722630
Cornelisgracht,12,,,8355CG,Giethoorn,Steenwijkerland,Overijssel,VBO,6.074063,52.722785
Cornelisgracht,13,,,8355CG,Giethoorn,Steenwijkerland,Overijssel,VBO,6.074489,52.722594
Cornelisgracht,14,,,8355CG,Giethoorn,Steenwijkerland,Overijssel,VBO,6.073929,52.722705
Cornelisgracht,15,,,8355CG,Giethoorn,Steenwijkerland,Overijssel,VBO,6.074370,52.722514
Cornelisgracht,16,,,8355CG,Giethoorn,Steenwijkerland,Overijssel,VBO,6.073690,52.722572
Cornelisgracht,17,,,8355CG,Giethoorn,Steenwijkerland,Overijssel,VBO,6.074295,52.722478
Cornelisgracht,18,,,8355CG,Giethoorn,Steenwijkerland,Overijssel,VBO,6.073511,52.722519
Cornelisgracht,19,a,,8355CG,Giethoorn,Steenwijkerland,Overijssel,VBO,6.073581,52.722215
Cornelisgracht,19,,,8355CG,Giethoorn,Steenwijkerland,Overijssel,VBO,6.074131,52.722381
Cornelisgracht,21,t,,8355CG,Giethoorn,Steenwijkerland,Overijssel,VBO,6.073267,52.722169
Cornelisgracht,20,,,8355CH,Giethoorn,Steenwijkerland,Overijssel,VBO,6.070015,52.722350
Cornelisgracht,22,,,8355CH,Giethoorn,Steenwijkerland,Overijssel,VBO,6.066994,52.722206
Cornelisgracht,24,,,8355CH,Giethoorn,Steenwijkerland,Overijssel,VBO,6.066683,52.722199
Cornelisgracht,26,,,8355CH,Giethoorn,Steenwijkerland,Overijssel,VBO,6.065853,52.722149
Cornelisgracht,28,,,8355CH,Giethoorn,Steenwijkerland,Overijssel,VBO,6.065513,52.722142
Cornelisgracht,30,,,8355CH,Giethoorn,Steenwijkerland,Overijssel,VBO,6.064520,52.722094
Cornelisgracht,32,a,,8355CH,Giethoorn,Steenwijkerland,Overijssel,VBO,6.057724,52.721944
Cornelisgracht,32,b,,8355CH,Giethoorn,Steenwijkerland,Overijssel,LIG,6.061364,52.721759
Cornelisgracht,32,c,,8355CH,Giethoorn,Steenwijkerland,Overijssel,LIG,6.061084,52.721819
Cornelisgracht,32,d,,8355CH,Giethoorn,Steenwijkerland,Overijssel,LIG,6.060811,52.721767
Cornelisgracht,32,e,,8355CH,Giethoorn,Steenwijkerland,Overijssel,LIG,6.060545,52.721712
Cornelisgracht,32,f,,8355CH,Giethoorn,Steenwijkerland,Overijssel,LIG,6.060206,52.721658
Cornelisgracht,32,t,,8355CH,Giethoorn,Steenwijkerland,Overijssel,VBO,6.063768,52.722239
Cornelisgracht,32,,,8355CH,Giethoorn,Steenwijkerland,Overijssel,VBO,6.064239,52.722123
Cornelisgracht,34,a,,8355CH,Giethoorn,Steenwijkerland,Overijssel,VBO,6.056685,52.722285
Cornelisgracht,34,t,,8355CH,Giethoorn,Steenwijkerland,Overijssel,VBO,6.055069,52.721608
Cornelisgracht,34,,,8355CH,Giethoorn,Steenwijkerland,Overijssel,VBO,6.056980,52.722150
Cornelisgracht,36,,,8355CH,Giethoorn,Steenwijkerland,Overijssel,VBO,6.051747,52.725087
Cornelisgracht,38,,,8355CH,Giethoorn,Steenwijkerland,Overijssel,VBO,6.051798,52.726498
Cornelisgracht,40,a,,8355CH,Giethoorn,Steenwijkerland,Overijssel,VBO,6.052055,52.727838
Cornelisgracht,40,,,8355CH,Giethoorn,Steenwijkerland,Overijssel,VBO,6.051863,52.727836
Cornelisgracht,42,,,8355CH,Giethoorn,Steenwijkerland,Overijssel,VBO,6.052176,52.728949
Cornelisgracht,44,t,,8355CH,Giethoorn,Steenwijkerland,Overijssel,VBO,6.051682,52.729660
Cornelisgracht,44,,,8355CH,Giethoorn,Steenwijkerland,Overijssel,VBO,6.051949,52.729588
Van der Gootplantsoen,1,,,8355CJ,Giethoorn,Steenwijkerland,Overijssel,VBO,6.074338,52.723332
Van der Gootplantsoen,3,,,8355CJ,Giethoorn,Steenwijkerland,Overijssel,VBO,6.074249,52.723315
Van der Gootplantsoen,5,,,8355CJ,Giethoorn,Steenwijkerland,Overijssel,VBO,6.074160,52.723306
Van der Gootplantsoen,7,,,8355CJ,Giethoorn,Steenwijkerland,Overijssel,VBO,6.074071,52.723289
Van der Gootplantsoen,9,,,8355CJ,Giethoorn,Steenwijkerland,Overijssel,VBO,6.073893,52.723254
Van der Gootplantsoen,11,,,8355CJ,Giethoorn,Steenwijkerland,Overijssel,VBO,6.073803,52.723218
Van der Gootplantsoen,13,,,8355CJ,Giethoorn,Steenwijkerland,Overijssel,VBO,6.073714,52.723192
Van der Gootplantsoen,15,,,8355CJ,Giethoorn,Steenwijkerland,Overijssel,VBO,6.073640,52.723165
Van der Gootplantsoen,17,,,8355CJ,Giethoorn,Steenwijkerland,Overijssel,VBO,6.073476,52.723103
Van der Gootplantsoen,19,,,8355CJ,Giethoorn,Steenwijkerland,Overijssel,VBO,6.073401,52.723077
Van der Gootplantsoen,21,,,8355CJ,Giethoorn,Steenwijkerland,Overijssel,VBO,6.073327,52.723041
Van der Gootplantsoen,23,,,8355CJ,Giethoorn,Steenwijkerland,Overijssel,VBO,6.073253,52.723015
Van der Gootplantsoen,25,,,8355CJ,Giethoorn,Steenwijkerland,Overijssel,VBO,6.073088,52.722935
Van der Gootplantsoen,27,,,8355CJ,Giethoorn,Steenwijkerland,Overijssel,VBO,6.073087,52.722863
Van der Gootplantsoen,29,,,8355CJ,Giethoorn,Steenwijkerland,Overijssel,VBO,6.073086,52.722791
Van der Gootplantsoen,31,,,8355CJ,Giethoorn,Steenwijkerland,Overijssel,VBO,6.073085,52.722728
Van der Gootplantsoen,33,,,8355CJ,Giethoorn,Steenwijkerland,Overijssel,VBO,6.073084,52.722647
Van der Gootplantsoen,35,,,8355CJ,Giethoorn,Steenwijkerland,Overijssel,VBO,6.073083,52.722584
Van der Gootplantsoen,37,,,8355CJ,Giethoorn,Steenwijkerland,Overijssel,VBO,6.073067,52.722530
Van der Gootplantsoen,39,,,8355CJ,Giethoorn,Steenwijkerland,Overijssel,VBO,6.073066,52.722468
Van der Gootplantsoen,2,,,8355CK,Giethoorn,Steenwijkerland,Overijssel,VBO,6.074745,52.723788
Van der Gootplantsoen,4,,,8355CK,Giethoorn,Steenwijkerland,Overijssel,VBO,6.074448,52.723745
Van der Gootplantsoen,6,,,8355CK,Giethoorn,Steenwijkerland,Overijssel,VBO,6.074181,52.723701
Van der Gootplantsoen,8,,,8355CK,Giethoorn,Steenwijkerland,Overijssel,VBO,6.073840,52.723649
Van der Gootplantsoen,10,,,8355CK,Giethoorn,Steenwijkerland,Overijssel,VBO,6.073513,52.723588
Van der Gootplantsoen,12,,,8355CK,Giethoorn,Steenwijkerland,Overijssel,VBO,6.073231,52.723545
Van der Gootplantsoen,14,,,8355CK,Giethoorn,Steenwijkerland,Overijssel,VBO,6.072920,52.723493
Van der Gootplantsoen,16,,,8355CK,Giethoorn,Steenwijkerland,Overijssel,VBO,6.072304,52.723489
Van der Gootplantsoen,18,,,8355CK,Giethoorn,Steenwijkerland,Overijssel,VBO,6.072308,52.723329
Van der Gootplantsoen,20,,,8355CK,Giethoorn,Steenwijkerland,Overijssel,VBO,6.072294,52.722982
Van der Gootplantsoen,22,,,8355CK,Giethoorn,Steenwijkerland,Overijssel,VBO,6.072323,52.722851
Van der Gootplantsoen,24,,,8355CK,Giethoorn,Steenwijkerland,Overijssel,VBO,6.072299,52.722721
Van der Gootplantsoen,26,,,8355CK,Giethoorn,Steenwijkerland,Overijssel,VBO,6.072305,52.722592
Van der Gootplantsoen,28,,,8355CK,Giethoorn,Steenwijkerland,Overijssel,VBO,6.072305,52.722469
Van der Gootplantsoen,30,,,8355CK,Giethoorn,Steenwijkerland,Overijssel,VBO,6.072297,52.722343
Jonenweg,1,a,,8355CL,Giethoorn,Steenwijkerland,Overijssel,VBO,6.075813,52.722991
Jonenweg,1,b,,8355CL,Giethoorn,Steenwijkerland,Overijssel,VBO,6.076470,52.722448
Jonenweg,1,c,,8355CL,Giethoorn,Steenwijkerland,Overijssel,VBO,6.076143,52.722581
Jonenweg,1,d,,8355CL,Giethoorn,Steenwijkerland,Overijssel,VBO,6.076819,52.722024
Jonenweg,1,e,,8355CL,Giethoorn,Steenwijkerland,Overijssel,VBO,6.076739,52.721664
Jonenweg,1,f,,8355CL,Giethoorn,Steenwijkerland,Overijssel,VBO,6.075051,52.721602
Jonenweg,1,g,,8355CL,Giethoorn,Steenwijkerland,Overijssel,VBO,6.074744,52.721130
Jonenweg,1,,,8355CL,Giethoorn,Steenwijkerland,Overijssel,VBO,6.075991,52.722999
Jonenweg,2,,,8355CL,Giethoorn,Steenwijkerland,Overijssel,VBO,6.075221,52.723003
Jonenweg,4,,,8355CL,Giethoorn,Steenwijkerland,Overijssel,VBO,6.075308,52.722859
Jonenweg,6,,,8355CL,Giethoorn,Steenwijkerland,Overijssel,VBO,6.075320,52.722742
Jonenweg,8,,,8355CL,Giethoorn,Steenwijkerland,Overijssel,VBO,6.075319,52.722625
Jonenweg,10,,,8355CL,Giethoorn,Steenwijkerland,Overijssel,VBO,6.075332,52.722517
Jonenweg,12,,,8355CL,Giethoorn,Steenwijkerland,Overijssel,VBO,6.075345,52.722401
Jonenweg,14,,,8355CL,Giethoorn,Steenwijkerland,Overijssel,VBO,6.074870,52.722322
Jonenweg,16,,,8355CL,Giethoorn,Steenwijkerland,Overijssel,VBO,6.074633,52.722306
Jonenweg,18,,,8355CL,Giethoorn,Steenwijkerland,Overijssel,VBO,6.075309,52.721996
Jonenweg,20,,,8355CL,Giethoorn,Steenwijkerland,Overijssel,VBO,6.075308,52.721915
Jonenweg,22,,,8355CL,Giethoorn,Steenwijkerland,Overijssel,VBO,6.074922,52.721864
Jonenweg,24,,,8355CL,Giethoorn,Steenwijkerland,Overijssel,VBO,6.074833,52.721864
Jonenweg,26,,,8355CL,Giethoorn,Steenwijkerland,Overijssel,VBO,6.074611,52.721839
Jonenweg,28,,,8355CL,Giethoorn,Steenwijkerland,Overijssel,VBO,6.074522,52.721830
Jonenweg,30,,,8355CL,Giethoorn,Steenwijkerland,Overijssel,VBO,6.074315,52.721840
Jonenweg,32,,,8355CL,Giethoorn,Steenwijkerland,Overijssel,VBO,6.074241,52.721859
Jonenweg,34,,,8355CL,Giethoorn,Steenwijkerland,Overijssel,VBO,6.073887,52.721924
Jonenweg,36,,,8355CL,Giethoorn,Steenwijkerland,Overijssel,VBO,6.073888,52.721987
Vosjacht,1,,,8355CM,Giethoorn,Steenwijkerland,Overijssel,VBO,6.075165,52.721350
Vosjacht,2,,,8355CM,Giethoorn,Steenwijkerland,Overijssel,VBO,6.076692,52.719589
Vosjacht,3,a,,8355CM,Giethoorn,Steenwijkerland,Overijssel,VBO,6.075330,52.721189
Vosjacht,3,,,8355CM,Giethoorn,Steenwijkerland,Overijssel,VBO,6.076659,52.721261
Vosjacht,4,,,8355CM,Giethoorn,Steenwijkerland,Overijssel,VBO,6.076689,52.719435
Vosjacht,5,,,8355CM,Giethoorn,Steenwijkerland,Overijssel,VBO,6.075412,52.721007
Vosjacht,6,a,,8355CM,Giethoorn,Steenwijkerland,Overijssel,VBO,6.076341,52.718726
Vosjacht,6,b,,8355CM,Giethoorn,Steenwijkerland,Overijssel,VBO,6.076662,52.718692
Vosjacht,6,,,8355CM,Giethoorn,Steenwijkerland,Overijssel,VBO,6.076696,52.718888
Vosjacht,7,,,8355CM,Giethoorn,Steenwijkerland,Overijssel,VBO,6.076863,52.721053
Vosjacht,8,a,,8355CM,Giethoorn,Steenwijkerland,Overijssel,VBO,6.076400,52.718175
Vosjacht,8,b,,8355CM,Giethoorn,Steenwijkerland,Overijssel,VBO,6.076385,52.717900
Vosjacht,8,c,,8355CM,Giethoorn,Steenwijkerland,Overijssel,VBO,6.076265,52.717702
Vosjacht,8,e,,8355CM,Giethoorn,Steenwijkerland,Overijssel,VBO,6.076266,52.717230
Vosjacht,8,,,8355CM,Giethoorn,Steenwijkerland,Overijssel,VBO,6.076704,52.718447
Vosjacht,9,,,8355CM,Giethoorn,Steenwijkerland,Overijssel,VBO,6.076680,52.720703
Vosjacht,10,,,8355CM,Giethoorn,Steenwijkerland,Overijssel,VBO,6.076321,52.716715
Vosjacht,11,,1,8355CM,Giethoorn,Steenwijkerland,Overijssel,VBO,6.075907,52.720510
Vosjacht,11,,10,8355CM,Giethoorn,Steenwijkerland,Overijssel,VBO,6.075892,52.720501
Vosjacht,11,,2,8355CM,Giethoorn,Steenwijkerland,Overijssel,VBO,6.075907,52.720510
Vosjacht,11,,3,8355CM,Giethoorn,Steenwijkerland,Overijssel,VBO,6.075907,52.720510
Vosjacht,11,,4,8355CM,Giethoorn,Steenwijkerland,Overijssel,VBO,6.075907,52.720510
Vosjacht,11,,5,8355CM,Giethoorn,Steenwijkerland,Overijssel,VBO,6.075907,52.720510
Vosjacht,11,,6,8355CM,Giethoorn,Steenwijkerland,Overijssel,VBO,6.075907,52.720510
Vosjacht,11,,7,8355CM,Giethoorn,Steenwijkerland,Overijssel,VBO,6.075907,52.720510
Vosjacht,11,,8,8355CM,Giethoorn,Steenwijkerland,Overijssel,VBO,6.075907,52.720510
Vosjacht,11,,9,8355CM,Giethoorn,Steenwijkerland,Overijssel,VBO,6.075907,52.720510
Vosjacht,11,,,8355CM,Giethoorn,Steenwijkerland,Overijssel,VBO,6.075703,52.720700
Vosjacht,12,,,8355CM,Giethoorn,Steenwijkerland,Overijssel,VBO,6.075086,52.713433
Jonenweg,3,,,8355CN,Giethoorn,Steenwijkerland,Overijssel,VBO,6.072301,52.721771
Jonenweg,5,a,,8355CN,Giethoorn,Steenwijkerland,Overijssel,VBO,6.071408,52.720550
Jonenweg,5,R,101,8355CN,Giethoorn,Steenwijkerland,Overijssel,VBO,6.070584,52.720655
Jonenweg,5,R,102,8355CN,Giethoorn,Steenwijkerland,Overijssel,VBO,6.070245,52.720650
Jonenweg,5,R,103,8355CN,Giethoorn,Steenwijkerland,Overijssel,VBO,6.069983,52.720653
Jonenweg,5,R,104,8355CN,Giethoorn,Steenwijkerland,Overijssel,VBO,6.069679,52.720650
Jonenweg,5,R,105,8355CN,Giethoorn,Steenwijkerland,Overijssel,VBO,6.069371,52.720659
Jonenweg,5,R,106,8355CN,Giethoorn,Steenwijkerland,Overijssel,VBO,6.069133,52.720664
Jonenweg,5,R,107,8355CN,Giethoorn,Steenwijkerland,Overijssel,VBO,6.068884,52.720670
Jonenweg,5,R,108,8355CN,Giethoorn,Steenwijkerland,Overijssel,VBO,6.068647,52.720672
Jonenweg,5,R,109,8355CN,Giethoorn,Steenwijkerland,Overijssel,VBO,6.068445,52.720636
Jonenweg,5,R,110,8355CN,Giethoorn,Steenwijkerland,Overijssel,VBO,6.068179,52.720643
Jonenweg,5,R,111,8355CN,Giethoorn,Steenwijkerland,Overijssel,VBO,6.067884,52.720664
Jonenweg,5,R,112,8355CN,Giethoorn,Steenwijkerland,Overijssel,VBO,6.067647,52.720663
Jonenweg,5,R,114,8355CN,Giethoorn,Steenwijkerland,Overijssel,VBO,6.067387,52.720619
Jonenweg,5,R,115,8355CN,Giethoorn,Steenwijkerland,Overijssel,VBO,6.066443,52.720252
Jonenweg,5,R,116,8355CN,Giethoorn,Steenwijkerland,Overijssel,VBO,6.066165,52.720289
Jonenweg,5,R,117,8355CN,Giethoorn,Steenwijkerland,Overijssel,VBO,6.065896,52.720296
Jonenweg,5,R,118,8355CN,Giethoorn,Steenwijkerland,Overijssel,VBO,6.065629,52.720288
Jonenweg,5,R,119,8355CN,Giethoorn,Steenwijkerland,Overijssel,VBO,6.065371,52.720245
Jonenweg,5,R,120,8355CN,Giethoorn,Steenwijkerland,Overijssel,VBO,6.065100,52.720281
Jonenweg,5,R,121,8355CN,Giethoorn,Steenwijkerland,Overijssel,VBO,6.064617,52.720307
Jonenweg,5,R,122,8355CN,Giethoorn,Steenwijkerland,Overijssel,VBO,6.070095,52.720263
Jonenweg,5,R,123,8355CN,Giethoorn,Steenwijkerland,Overijssel,VBO,6.069812,52.720265
Jonenweg,5,R,124,8355CN,Giethoorn,Steenwijkerland,Overijssel,VBO,6.069492,52.720261
Jonenweg,5,R,125,8355CN,Giethoorn,Steenwijkerland,Overijssel,VBO,6.069155,52.720260
Jonenweg,5,R,126,8355CN,Giethoorn,Steenwijkerland,Overijssel,VBO,6.068915,52.720261
Jonenweg,5,R,127,8355CN,Giethoorn,Steenwijkerland,Overijssel,VBO,6.068669,52.720264
Jonenweg,5,R,128,8355CN,Giethoorn,Steenwijkerland,Overijssel,VBO,6.068365,52.720268
Jonenweg,5,R,129,8355CN,Giethoorn,Steenwijkerland,Overijssel,VBO,6.068091,52.720275
Jonenweg,5,R,130,8355CN,Giethoorn,Steenwijkerland,Overijssel,VBO,6.067598,52.720189
Jonenweg,5,R,132,8355CN,Giethoorn,Steenwijkerland,Overijssel,VBO,6.065537,52.719805
Jonenweg,5,R,133,8355CN,Giethoorn,Steenwijkerland,Overijssel,VBO,6.065118,52.719792
Jonenweg,5,R,134,8355CN,Giethoorn,Steenwijkerland,Overijssel,VBO,6.064806,52.719843
Jonenweg,5,R,135,8355CN,Giethoorn,Steenwijkerland,Overijssel,VBO,6.064403,52.719918
Jonenweg,5,R,136,8355CN,Giethoorn,Steenwijkerland,Overijssel,VBO,6.065202,52.719242
Jonenweg,5,R,137,8355CN,Giethoorn,Steenwijkerland,Overijssel,VBO,6.064887,52.719276
Jonenweg,5,R,138,8355CN,Giethoorn,Steenwijkerland,Overijssel,VBO,6.064593,52.719287
Jonenweg,5,R,139,8355CN,Giethoorn,Steenwijkerland,Overijssel,VBO,6.064245,52.719319
Jonenweg,5,R,140,8355CN,Giethoorn,Steenwijkerland,Overijssel,VBO,6.064809,52.718720
Jonenweg,5,R,141,8355CN,Giethoorn,Steenwijkerland,Overijssel,VBO,6.064439,52.718794
Jonenweg,5,R,142,8355CN,Giethoorn,Steenwijkerland,Overijssel,VBO,6.064885,52.718153
Jonenweg,5,R,143,8355CN,Giethoorn,Steenwijkerland,Overijssel,VBO,6.064640,52.718172
Jonenweg,5,R,144,8355CN,Giethoorn,Steenwijkerland,Overijssel,VBO,6.064234,52.718266
Jonenweg,5,R,145,8355CN,Giethoorn,Steenwijkerland,Overijssel,VBO,6.065435,52.718852
Jonenweg,5,R,146,8355CN,Giethoorn,Steenwijkerland,Overijssel,VBO,6.065814,52.718860
Jonenweg,5,R,147,8355CN,Giethoorn,Steenwijkerland,Overijssel,VBO,6.066160,52.718907
Jonenweg,5,R,148,8355CN,Giethoorn,Steenwijkerland,Overijssel,VBO,6.065864,52.719428
Jonenweg,5,R,149,8355CN,Giethoorn,Steenwijkerland,Overijssel,VBO,6.066109,52.719414
Jonenweg,5,R,150,8355CN,Giethoorn,Steenwijkerland,Overijssel,VBO,6.066419,52.719432
Jonenweg,5,R,151,8355CN,Giethoorn,Steenwijkerland,Overijssel,VBO,6.066308,52.719818
Jonenweg,5,R,152,8355CN,Giethoorn,Steenwijkerland,Overijssel,VBO,6.069254,52.719997
Jonenweg,5,R,153,8355CN,Giethoorn,Steenwijkerland,Overijssel,VBO,6.069638,52.720017
Jonenweg,5,R,154,8355CN,Giethoorn,Steenwijkerland,Overijssel,VBO,6.070129,52.719994
Jonenweg,5,R,201,8355CN,Giethoorn,Steenwijkerland,Overijssel,VBO,6.069728,52.719475
Jonenweg,5,R,202,8355CN,Giethoorn,Steenwijkerland,Overijssel,VBO,6.069224,52.719504
Jonenweg,5,R,203,8355CN,Giethoorn,Steenwijkerland,Overijssel,VBO,6.068633,52.719574
Jonenweg,5,R,204,8355CN,Giethoorn,Steenwijkerland,Overijssel,VBO,6.068239,52.719636
Jonenweg,5,R,205,8355CN,Giethoorn,Steenwijkerland,Overijssel,VBO,6.067758,52.719673
Jonenweg,5,R,206,8355CN,Giethoorn,Steenwijkerland,Overijssel,VBO,6.069390,52.718947
Jonenweg,5,R,207,8355CN,Giethoorn,Steenwijkerland,Overijssel,VBO,6.069097,52.718949
Jonenweg,5,R,208,8355CN,Giethoorn,Steenwijkerland,Overijssel,VBO,6.068789,52.718952
Jonenweg,5,R,209,8355CN,Giethoorn,Steenwijkerland,Overijssel,VBO,6.068426,52.719066
Jonenweg,5,R,210,8355CN,Giethoorn,Steenwijkerland,Overijssel,VBO,6.068171,52.719091
Jonenweg,5,R,211,8355CN,Giethoorn,Steenwijkerland,Overijssel,VBO,6.067911,52.719084
Jonenweg,5,R,212,8355CN,Giethoorn,Steenwijkerland,Overijssel,VBO,6.067653,52.719086
Jonenweg,5,R,214,8355CN,Giethoorn,Steenwijkerland,Overijssel,VBO,6.067383,52.719087
Jonenweg,5,R,215,8355CN,Giethoorn,Steenwijkerland,Overijssel,VBO,6.067062,52.719133
Jonenweg,5,R,216,8355CN,Giethoorn,Steenwijkerland,Overijssel,VBO,6.069289,52.718523
Jonenweg,5,R,217,8355CN,Giethoorn,Steenwijkerland,Overijssel,VBO,6.068998,52.718521
Jonenweg,5,R,218,8355CN,Giethoorn,Steenwijkerland,Overijssel,VBO,6.068747,52.718514
Jonenweg,5,R,219,8355CN,Giethoorn,Steenwijkerland,Overijssel,VBO,6.068449,52.718506
Jonenweg,5,R,220,8355CN,Giethoorn,Steenwijkerland,Overijssel,VBO,6.068118,52.718513
Jonenweg,5,R,221,8355CN,Giethoorn,Steenwijkerland,Overijssel,VBO,6.067769,52.718517
Jonenweg,5,R,222,8355CN,Giethoorn,Steenwijkerland,Overijssel,VBO,6.067363,52.718641
Jonenweg,5,R,223,8355CN,Giethoorn,Steenwijkerland,Overijssel,VBO,6.067070,52.718636
Jonenweg,5,R,224,8355CN,Giethoorn,Steenwijkerland,Overijssel,VBO,6.066740,52.718606
Jonenweg,5,R,225,8355CN,Giethoorn,Steenwijkerland,Overijssel,VBO,6.066322,52.718509
Jonenweg,5,R,226,8355CN,Giethoorn,Steenwijkerland,Overijssel,VBO,6.066807,52.718409
Jonenweg,5,R,227,8355CN,Giethoorn,Steenwijkerland,Overijssel,VBO,6.067223,52.718365
Jonenweg,5,R,228,8355CN,Giethoorn,Steenwijkerland,Overijssel,VBO,6.067779,52.718291
Jonenweg,5,R,229,8355CN,Giethoorn,Steenwijkerland,Overijssel,VBO,6.068219,52.718275
Jonenweg,5,R,230,8355CN,Giethoorn,Steenwijkerland,Overijssel,VBO,6.068622,52.718259
Jonenweg,5,R,231,8355CN,Giethoorn,Steenwijkerland,Overijssel,VBO,6.069038,52.718261
Jonenweg,5,R,301,8355CN,Giethoorn,Steenwijkerland,Overijssel,VBO,6.068201,52.717835
Jonenweg,5,R,302,8355CN,Giethoorn,Steenwijkerland,Overijssel,VBO,6.067709,52.717800
Jonenweg,5,R,303,8355CN,Giethoorn,Steenwijkerland,Overijssel,VBO,6.067304,52.717797
Jonenweg,5,R,304,8355CN,Giethoorn,Steenwijkerland,Overijssel,VBO,6.066791,52.717866
Jonenweg,5,R,305,8355CN,Giethoorn,Steenwijkerland,Overijssel,VBO,6.066447,52.717938
Jonenweg,5,R,306,8355CN,Giethoorn,Steenwijkerland,Overijssel,VBO,6.066109,52.717935
Jonenweg,5,R,307,8355CN,Giethoorn,Steenwijkerland,Overijssel,VBO,6.065601,52.718028
Jonenweg,5,R,308,8355CN,Giethoorn,Steenwijkerland,Overijssel,VBO,6.067744,52.717218
Jonenweg,5,R,309,8355CN,Giethoorn,Steenwijkerland,Overijssel,VBO,6.067450,52.717340
Jonenweg,5,R,310,8355CN,Giethoorn,Steenwijkerland,Overijssel,VBO,6.067038,52.717326
Jonenweg,5,R,311,8355CN,Giethoorn,Steenwijkerland,Overijssel,VBO,6.066394,52.717367
Jonenweg,5,R,312,8355CN,Giethoorn,Steenwijkerland,Overijssel,VBO,6.066065,52.717443
Jonenweg,5,R,314,8355CN,Giethoorn,Steenwijkerland,Overijssel,VBO,6.065709,52.717379
Jonenweg,5,R,315,8355CN,Giethoorn,Steenwijkerland,Overijssel,VBO,6.065371,52.717468
Jonenweg,5,R,316,8355CN,Giethoorn,Steenwijkerland,Overijssel,VBO,6.065088,52.717471
Jonenweg,5,R,317,8355CN,Giethoorn,Steenwijkerland,Overijssel,VBO,6.064868,52.717471
Jonenweg,5,R,318,8355CN,Giethoorn,Steenwijkerland,Overijssel,VBO,6.064527,52.717525
Jonenweg,5,R,319,8355CN,Giethoorn,Steenwijkerland,Overijssel,VBO,6.067341,52.716766
Jonenweg,5,R,320,8355CN,Giethoorn,Steenwijkerland,Overijssel,VBO,6.067015,52.716792
Jonenweg,5,R,321,8355CN,Giethoorn,Steenwijkerland,Overijssel,VBO,6.066778,52.716807
Jonenweg,5,R,322,8355CN,Giethoorn,Steenwijkerland,Overijssel,VBO,6.066413,52.716784
Jonenweg,5,R,323,8355CN,Giethoorn,Steenwijkerland,Overijssel,VBO,6.066120,52.716777
Jonenweg,5,R,324,8355CN,Giethoorn,Steenwijkerland,Overijssel,VBO,6.065861,52.716859
Jonenweg,5,R,325,8355CN,Giethoorn,Steenwijkerland,Overijssel,VBO,6.065558,52.716897
Jonenweg,5,R,326,8355CN,Giethoorn,Steenwijkerland,Overijssel,VBO,6.065319,52.716819
Jonenweg,5,R,327,8355CN,Giethoorn,Steenwijkerland,Overijssel,VBO,6.065088,52.716926
Jonenweg,5,R,328,8355CN,Giethoorn,Steenwijkerland,Overijssel,VBO,6.064722,52.716955
Jonenweg,5,R,329,8355CN,Giethoorn,Steenwijkerland,Overijssel,VBO,6.064457,52.717032
Jonenweg,5,R,330,8355CN,Giethoorn,Steenwijkerland,Overijssel,VBO,6.066527,52.716117
Jonenweg,5,R,331,8355CN,Giethoorn,Steenwijkerland,Overijssel,VBO,6.066227,52.716244
Jonenweg,5,R,332,8355CN,Giethoorn,Steenwijkerland,Overijssel,VBO,6.065884,52.716217
Jonenweg,5,R,333,8355CN,Giethoorn,Steenwijkerland,Overijssel,VBO,6.065484,52.716247
Jonenweg,5,R,334,8355CN,Giethoorn,Steenwijkerland,Overijssel,VBO,6.065028,52.716248
Jonenweg,5,R,335,8355CN,Giethoorn,Steenwijkerland,Overijssel,VBO,6.064455,52.716346
Jonenweg,5,R,336,8355CN,Giethoorn,Steenwijkerland,Overijssel,VBO,6.066146,52.715721
Jonenweg,5,R,337,8355CN,Giethoorn,Steenwijkerland,Overijssel,VBO,6.065701,52.715726
Jonenweg,5,R,338,8355CN,Giethoorn,Steenwijkerland,Overijssel,VBO,6.065264,52.715685
Jonenweg,5,R,339,8355CN,Giethoorn,Steenwijkerland,Overijssel,VBO,6.064926,52.715748
Jonenweg,5,R,340,8355CN,Giethoorn,Steenwijkerland,Overijssel,VBO,6.064357,52.715826
Jonenweg,5,R,341,8355CN,Giethoorn,Steenwijkerland,Overijssel,VBO,6.065726,52.715164
Jonenweg,5,R,342,8355CN,Giethoorn,Steenwijkerland,Overijssel,VBO,6.065468,52.715162
Jonenweg,5,R,343,8355CN,Giethoorn,Steenwijkerland,Overijssel,VBO,6.065146,52.715105
Jonenweg,5,R,344,8355CN,Giethoorn,Steenwijkerland,Overijssel,VBO,6.064886,52.715171
Jonenweg,5,R,345,8355CN,Giethoorn,Steenwijkerland,Overijssel,VBO,6.064584,52.715176
Jonenweg,5,R,346,8355CN,Giethoorn,Steenwijkerland,Overijssel,VBO,6.064401,52.715313
Jonenweg,5,R,401,8355CN,Giethoorn,Steenwijkerland,Overijssel,VBO,6.070463,52.719874
Jonenweg,5,R,402,8355CN,Giethoorn,Steenwijkerland,Overijssel,VBO,6.070413,52.719794
Jonenweg,5,R,403,8355CN,Giethoorn,Steenwijkerland,Overijssel,VBO,6.070365,52.719718
Jonenweg,5,R,404,8355CN,Giethoorn,Steenwijkerland,Overijssel,VBO,6.070316,52.719639
Jonenweg,5,R,405,8355CN,Giethoorn,Steenwijkerland,Overijssel,VBO,6.070267,52.719565
Jonenweg,5,R,406,8355CN,Giethoorn,Steenwijkerland,Overijssel,VBO,6.069917,52.719099
Jonenweg,5,R,407,8355CN,Giethoorn,Steenwijkerland,Overijssel,VBO,6.069817,52.718934
Jonenweg,5,R,408,8355CN,Giethoorn,Steenwijkerland,Overijssel,VBO,6.069764,52.718769
Jonenweg,5,R,409,8355CN,Giethoorn,Steenwijkerland,Overijssel,VBO,6.069639,52.718654
Jonenweg,5,R,410,8355CN,Giethoorn,Steenwijkerland,Overijssel,VBO,6.069493,52.718420
Jonenweg,5,R,411,8355CN,Giethoorn,Steenwijkerland,Overijssel,VBO,6.069395,52.718253
Jonenweg,5,R,412,8355CN,Giethoorn,Steenwijkerland,Overijssel,VBO,6.069359,52.718109
Jonenweg,5,R,413,8355CN,Giethoorn,Steenwijkerland,Overijssel,VBO,6.069208,52.717839
Jonenweg,5,R,414,8355CN,Giethoorn,Steenwijkerland,Overijssel,VBO,6.068693,52.717785
Jonenweg,5,R,415,8355CN,Giethoorn,Steenwijkerland,Overijssel,VBO,6.068592,52.717674
Jonenweg,5,R,416,8355CN,Giethoorn,Steenwijkerland,Overijssel,VBO,6.068455,52.717498
Jonenweg,5,R,417,8355CN,Giethoorn,Steenwijkerland,Overijssel,VBO,6.068343,52.717353
Jonenweg,5,R,418,8355CN,Giethoorn,Steenwijkerland,Overijssel,VBO,6.068220,52.717218
Jonenweg,5,R,419,8355CN,Giethoorn,Steenwijkerland,Overijssel,VBO,6.068087,52.717040
Jonenweg,5,R,420,8355CN,Giethoorn,Steenwijkerland,Overijssel,VBO,6.067974,52.716896
Jonenweg,5,R,421,8355CN,Giethoorn,Steenwijkerland,Overijssel,VBO,6.067829,52.716725
Jonenweg,5,R,422,8355CN,Giethoorn,Steenwijkerland,Overijssel,VBO,6.067708,52.716498
Jonenweg,5,R,423,8355CN,Giethoorn,Steenwijkerland,Overijssel,VBO,6.067498,52.716363
Jonenweg,5,R,424,8355CN,Giethoorn,Steenwijkerland,Overijssel,VBO,6.067338,52.716238
Jonenweg,5,R,425,8355CN,Giethoorn,Steenwijkerland,Overijssel,VBO,6.067054,52.716020
Jonenweg,5,R,426,8355CN,Giethoorn,Steenwijkerland,Overijssel,VBO,6.066859,52.715831
Jonenweg,5,R,427,8355CN,Giethoorn,Steenwijkerland,Overijssel,VBO,6.066691,52.715682
Jonenweg,5,R,428,8355CN,Giethoorn,Steenwijkerland,Overijssel,VBO,6.066565,52.715529
Jonenweg,5,R,429,8355CN,Giethoorn,Steenwijkerland,Overijssel,VBO,6.066412,52.715349
Jonenweg,5,R,430,8355CN,Giethoorn,Steenwijkerland,Overijssel,VBO,6.066164,52.715241
Jonenweg,5,R,501,8355CN,Giethoorn,Steenwijkerland,Overijssel,VBO,6.071975,52.718818
Jonenweg,5,R,502,8355CN,Giethoorn,Steenwijkerland,Overijssel,VBO,6.071703,52.718850
Jonenweg,5,R,503,8355CN,Giethoorn,Steenwijkerland,Overijssel,VBO,6.071394,52.718875
Jonenweg,5,R,504,8355CN,Giethoorn,Steenwijkerland,Overijssel,VBO,6.071017,52.718962
Jonenweg,5,R,505,8355CN,Giethoorn,Steenwijkerland,Overijssel,VBO,6.070744,52.718959
Jonenweg,5,R,506,8355CN,Giethoorn,Steenwijkerland,Overijssel,VBO,6.072105,52.718379
Jonenweg,5,R,507,8355CN,Giethoorn,Steenwijkerland,Overijssel,VBO,6.071587,52.718373
Jonenweg,5,R,508,8355CN,Giethoorn,Steenwijkerland,Overijssel,VBO,6.071132,52.718477
Jonenweg,5,R,509,8355CN,Giethoorn,Steenwijkerland,Overijssel,VBO,6.070887,52.718488
Jonenweg,5,R,510,8355CN,Giethoorn,Steenwijkerland,Overijssel,VBO,6.070587,52.718520
Jonenweg,5,R,511,8355CN,Giethoorn,Steenwijkerland,Overijssel,VBO,6.072131,52.717894
Jonenweg,5,R,512,8355CN,Giethoorn,Steenwijkerland,Overijssel,VBO,6.071795,52.717938
Jonenweg,5,R,514,8355CN,Giethoorn,Steenwijkerland,Overijssel,VBO,6.071458,52.717953
Jonenweg,5,R,515,8355CN,Giethoorn,Steenwijkerland,Overijssel,VBO,6.070863,52.718065
Jonenweg,5,R,516,8355CN,Giethoorn,Steenwijkerland,Overijssel,VBO,6.070415,52.718121
Jonenweg,5,R,517,8355CN,Giethoorn,Steenwijkerland,Overijssel,VBO,6.072304,52.717395
Jonenweg,5,R,518,8355CN,Giethoorn,Steenwijkerland,Overijssel,VBO,6.071906,52.717403
Jonenweg,5,R,519,8355CN,Giethoorn,Steenwijkerland,Overijssel,VBO,6.071572,52.717397
Jonenweg,5,R,520,8355CN,Giethoorn,Steenwijkerland,Overijssel,VBO,6.071042,52.717501
Jonenweg,5,R,521,8355CN,Giethoorn,Steenwijkerland,Overijssel,VBO,6.070699,52.717541
Jonenweg,5,R,522,8355CN,Giethoorn,Steenwijkerland,Overijssel,VBO,6.070342,52.717553
Jonenweg,5,R,523,8355CN,Giethoorn,Steenwijkerland,Overijssel,VBO,6.069988,52.717615
Jonenweg,5,R,524,8355CN,Giethoorn,Steenwijkerland,Overijssel,VBO,6.072405,52.716883
Jonenweg,5,R,525,8355CN,Giethoorn,Steenwijkerland,Overijssel,VBO,6.072168,52.716897
Jonenweg,5,R,526,8355CN,Giethoorn,Steenwijkerland,Overijssel,VBO,6.071857,52.716917
Jonenweg,5,R,527,8355CN,Giethoorn,Steenwijkerland,Overijssel,VBO,6.071557,52.716913
Jonenweg,5,R,528,8355CN,Giethoorn,Steenwijkerland,Overijssel,VBO,6.071316,52.716931
Jonenweg,5,R,529,8355CN,Giethoorn,Steenwijkerland,Overijssel,VBO,6.070870,52.716940
Jonenweg,5,R,530,8355CN,Giethoorn,Steenwijkerland,Overijssel,VBO,6.070599,52.717038
Jonenweg,5,R,531,8355CN,Giethoorn,Steenwijkerland,Overijssel,VBO,6.070309,52.717040
Jonenweg,5,R,532,8355CN,Giethoorn,Steenwijkerland,Overijssel,VBO,6.070060,52.717035
Jonenweg,5,R,533,8355CN,Giethoorn,Steenwijkerland,Overijssel,VBO,6.069817,52.716924
Jonenweg,5,R,534,8355CN,Giethoorn,Steenwijkerland,Overijssel,VBO,6.069573,52.717040
Jonenweg,5,R,535,8355CN,Giethoorn,Steenwijkerland,Overijssel,VBO,6.069302,52.717151
Jonenweg,5,,,8355CN,Giethoorn,Steenwijkerland,Overijssel,VBO,6.070846,52.721510
Jonenweg,7,a,,8355CN,Giethoorn,Steenwijkerland,Overijssel,VBO,6.065814,52.721548
Jonenweg,7,,,8355CN,Giethoorn,Steenwijkerland,Overijssel,VBO,6.069839,52.721489
Jonenweg,9,,,8355CN,Giethoorn,Steenwijkerland,Overijssel,VBO,6.064630,52.721572
Jonenweg,11,a,,8355CN,Giethoorn,Steenwijkerland,Overijssel,VBO,6.062298,52.721327
Jonenweg,11,,,8355CN,Giethoorn,Steenwijkerland,Overijssel,VBO,6.062519,52.721333
Jonenweg,13,,,8355CN,Giethoorn,Steenwijkerland,Overijssel,VBO,6.058008,52.721142
Jonenweg,15,,,8355CN,Giethoorn,Steenwijkerland,Overijssel,VBO,6.056971,52.721085
Jonenweg,17,a,,8355CN,Giethoorn,Steenwijkerland,Overijssel,VBO,6.039792,52.720453
Jonenweg,17,b,,8355CN,Giethoorn,Steenwijkerland,Overijssel,VBO,6.039511,52.720436
Jonenweg,17,,,8355CN,Giethoorn,Steenwijkerland,Overijssel,VBO,6.052039,52.720915
De Rietlanden,1,a,,8355CP,Giethoorn,Steenwijkerland,Overijssel,LIG,6.050734,52.721289
De Rietlanden,1,b,,8355CP,Giethoorn,Steenwijkerland,Overijssel,LIG,6.049365,52.721271
De Rietlanden,1,c,,8355CP,Giethoorn,Steenwijkerland,Overijssel,LIG,6.048980,52.721253
De Rietlanden,1,d,,8355CP,Giethoorn,Steenwijkerland,Overijssel,LIG,6.048383,52.721232
De Rietlanden,1,e,,8355CP,Giethoorn,Steenwijkerland,Overijssel,LIG,6.047905,52.721213
De Rietlanden,1,f,,8355CP,Giethoorn,Steenwijkerland,Overijssel,LIG,6.047440,52.721195
De Rietlanden,1,g,,8355CP,Giethoorn,Steenwijkerland,Overijssel,LIG,6.046903,52.721187
De Rietlanden,1,h,,8355CP,Giethoorn,Steenwijkerland,Overijssel,LIG,6.046454,52.721166
De Rietlanden,1,j,,8355CP,Giethoorn,Steenwijkerland,Overijssel,LIG,6.046107,52.721147
De Rietlanden,1,k,,8355CP,Giethoorn,Steenwijkerland,Overijssel,LIG,6.045797,52.721126
De Rietlanden,1,l,,8355CP,Giethoorn,Steenwijkerland,Overijssel,LIG,6.045354,52.721115
De Rietlanden,1,m,,8355CP,Giethoorn,Steenwijkerland,Overijssel,LIG,6.044866,52.721096
De Rietlanden,1,,,8355CP,Giethoorn,Steenwijkerland,Overijssel,VBO,6.042008,52.721169
De Rietlanden,2,,,8355CP,Giethoorn,Steenwijkerland,Overijssel,VBO,6.041448,52.721342
De Rietlanden,3,,,8355CP,Giethoorn,Steenwijkerland,Overijssel,VBO,6.041076,52.721219
De Rietlanden,4,,,8355CP,Giethoorn,Steenwijkerland,Overijssel,VBO,6.040765,52.721202
De Rietlanden,5,g,a,8355CP,Giethoorn,Steenwijkerland,Overijssel,VBO,6.040483,52.721580
De Rietlanden,5,g,b,8355CP,Giethoorn,Steenwijkerland,Overijssel,VBO,6.040439,52.721578
De Rietlanden,5,g,c,8355CP,Giethoorn,Steenwijkerland,Overijssel,VBO,6.040391,52.721572
De Rietlanden,5,g,d,8355CP,Giethoorn,Steenwijkerland,Overijssel,VBO,6.040351,52.721567
De Rietlanden,5,g,e,8355CP,Giethoorn,Steenwijkerland,Overijssel,VBO,6.040307,52.721570
De Rietlanden,5,g,f,8355CP,Giethoorn,Steenwijkerland,Overijssel,VBO,6.040262,52.721563
De Rietlanden,5,g,g,8355CP,Giethoorn,Steenwijkerland,Overijssel,VBO,6.040219,52.721561
De Rietlanden,5,g,h,8355CP,Giethoorn,Steenwijkerland,Overijssel,VBO,6.040175,52.721557
De Rietlanden,5,t,,8355CP,Giethoorn,Steenwijkerland,Overijssel,VBO,6.040045,52.721564
De Rietlanden,5,,,8355CP,Giethoorn,Steenwijkerland,Overijssel,VBO,6.040454,52.721195
De Rietlanden,6,,,8355CP,Giethoorn,Steenwijkerland,Overijssel,VBO,6.040099,52.721152
De Rietlanden,7,,,8355CP,Giethoorn,Steenwijkerland,Overijssel,VBO,6.039710,52.720903
De Rietlanden,8,,,8355CP,Giethoorn,Steenwijkerland,Overijssel,VBO,6.039417,52.721093
De Rietlanden,9,,,8355CP,Giethoorn,Steenwijkerland,Overijssel,VBO,6.039212,52.721274
De Rietlanden,10,A,,8355CP,Giethoorn,Steenwijkerland,Overijssel,VBO,6.038862,52.721617
De Rietlanden,10,,,8355CP,Giethoorn,Steenwijkerland,Overijssel,VBO,6.038978,52.721446
De Rietlanden,11,,,8355CP,Giethoorn,Steenwijkerland,Overijssel,VBO,6.038496,52.721907
De Rietlanden,12,,,8355CP,Giethoorn,Steenwijkerland,Overijssel,VBO,6.038234,52.722151
Dwarsgracht,1,,,8355CR,Giethoorn,Steenwijkerland,Overijssel,VBO,6.039417,52.718118
Dwarsgracht,2,,,8355CR,Giethoorn,Steenwijkerland,Overijssel,VBO,6.040005,52.717845
Dwarsgracht,3,,,8355CR,Giethoorn,Steenwijkerland,Overijssel,VBO,6.039326,52.718991
Dwarsgracht,4,a,,8355CR,Giethoorn,Steenwijkerland,Overijssel,VBO,6.040096,52.717998
Dwarsgracht,4,,,8355CR,Giethoorn,Steenwijkerland,Overijssel,VBO,6.040007,52.717989
Dwarsgracht,5,,,8355CR,Giethoorn,Steenwijkerland,Overijssel,VBO,6.039116,52.719810
Dwarsgracht,6,,,8355CR,Giethoorn,Steenwijkerland,Overijssel,VBO,6.039729,52.718197
Dwarsgracht,7,,,8355CR,Giethoorn,Steenwijkerland,Overijssel,VBO,6.038901,52.720260
Dwarsgracht,8,,,8355CR,Giethoorn,Steenwijkerland,Overijssel,VBO,6.039824,52.718628
Dwarsgracht,10,,,8355CR,Giethoorn,Steenwijkerland,Overijssel,VBO,6.039712,52.719033
Dwarsgracht,12,,,8355CR,Giethoorn,Steenwijkerland,Overijssel,VBO,6.039593,52.720005
Dwarsgracht,9,,,8355CS,Giethoorn,Steenwijkerland,Overijssel,VBO,6.038288,52.720830
Dwarsgracht,11,,,8355CS,Giethoorn,Steenwijkerland,Overijssel,VBO,6.037315,52.722102
Dwarsgracht,13,,,8355CS,Giethoorn,Steenwijkerland,Overijssel,VBO,6.037185,52.722292
Dwarsgracht,15,,,8355CS,Giethoorn,Steenwijkerland,Overijssel,VBO,6.037028,52.722733
Jonenweg,19,,,8355CS,Giethoorn,Steenwijkerland,Overijssel,VBO,6.018641,52.719399
Jonenweg,21,,,8355CS,Giethoorn,Steenwijkerland,Overijssel,VBO,6.017931,52.719420
Jonenweg,23,,,8355CS,Giethoorn,Steenwijkerland,Overijssel,VBO,6.017531,52.719360
Jonenweg,25,,,8355CS,Giethoorn,Steenwijkerland,Overijssel,VBO,6.017203,52.719209
Jonenweg,27,a,,8355CS,Giethoorn,Steenwijkerland,Overijssel,VBO,6.016317,52.719088
Jonenweg,27,,,8355CS,Giethoorn,Steenwijkerland,Overijssel,VBO,6.017260,52.719046
Jonenweg,29,a,,8355CS,Giethoorn,Steenwijkerland,Overijssel,VBO,6.017789,52.718801
Jonenweg,29,,,8355CS,Giethoorn,Steenwijkerland,Overijssel,VBO,6.017790,52.718855
Jonenweg,31,,,8355CS,Giethoorn,Steenwijkerland,Overijssel,VBO,6.017934,52.718558
Jonenweg,33,,,8355CS,Giethoorn,Steenwijkerland,Overijssel,VBO,6.016873,52.719920
Jonenweg,35,,,8355CS,Giethoorn,Steenwijkerland,Overijssel,VBO,6.016988,52.719731
Dwarsgracht,14,a,,8355CT,Giethoorn,Steenwijkerland,Overijssel,VBO,6.037915,52.722638
Dwarsgracht,14,b,,8355CT,Giethoorn,Steenwijkerland,Overijssel,VBO,6.037549,52.722901
Dwarsgracht,14,c,,8355CT,Giethoorn,Steenwijkerland,Overijssel,VBO,6.037390,52.723135
Dwarsgracht,14,,,8355CT,Giethoorn,Steenwijkerland,Overijssel,VBO,6.038161,52.722373
Dwarsgracht,16,,,8355CT,Giethoorn,Steenwijkerland,Overijssel,VBO,6.037127,52.723406
Dwarsgracht,17,,,8355CT,Giethoorn,Steenwijkerland,Overijssel,VBO,6.036736,52.722986
Dwarsgracht,18,,,8355CT,Giethoorn,Steenwijkerland,Overijssel,VBO,6.037027,52.723622
Dwarsgracht,19,,,8355CT,Giethoorn,Steenwijkerland,Overijssel,VBO,6.036550,52.723400
Dwarsgracht,20,,,8355CT,Giethoorn,Steenwijkerland,Overijssel,VBO,6.036735,52.723876
Dwarsgracht,21,,,8355CT,Giethoorn,Steenwijkerland,Overijssel,VBO,6.036332,52.723707
Dwarsgracht,22,,,8355CT,Giethoorn,Steenwijkerland,Overijssel,VBO,6.036595,52.724252
Dwarsgracht,24,,,8355CT,Giethoorn,Steenwijkerland,Overijssel,VBO,6.036551,52.724443
Dwarsgracht,26,a,,8355CT,Giethoorn,Steenwijkerland,Overijssel,VBO,6.036081,52.724911
Dwarsgracht,26,,,8355CT,Giethoorn,Steenwijkerland,Overijssel,VBO,6.036437,52.724740
Dwarsgracht,28,g,1,8355CT,Giethoorn,Steenwijkerland,Overijssel,VBO,6.036984,52.725201
Dwarsgracht,28,g,2,8355CT,Giethoorn,Steenwijkerland,Overijssel,VBO,6.037002,52.725174
Dwarsgracht,28,g,3,8355CT,Giethoorn,Steenwijkerland,Overijssel,VBO,6.037013,52.725148
Dwarsgracht,28,g,4,8355CT,Giethoorn,Steenwijkerland,Overijssel,VBO,6.037030,52.725123
Dwarsgracht,28,g,5,8355CT,Giethoorn,Steenwijkerland,Overijssel,VBO,6.037042,52.725098
Dwarsgracht,28,g,6,8355CT,Giethoorn,Steenwijkerland,Overijssel,VBO,6.037059,52.725071
Dwarsgracht,28,g,a,8355CT,Giethoorn,Steenwijkerland,Overijssel,VBO,6.036829,52.725310
Dwarsgracht,28,,,8355CT,Giethoorn,Steenwijkerland,Overijssel,VBO,6.036487,52.725180
Dwarsgracht,30,a,,8355CT,Giethoorn,Steenwijkerland,Overijssel,VBO,6.036179,52.725326
Dwarsgracht,30,,,8355CT,Giethoorn,Steenwijkerland,Overijssel,VBO,6.036027,52.725093
Dwarsgracht,32,,,8355CT,Giethoorn,Steenwijkerland,Overijssel,VBO,6.036551,52.725503
Dwarsgracht,34,,,8355CT,Giethoorn,Steenwijkerland,Overijssel,VBO,6.036347,52.725693
Dwarsgracht,36,,,8355CT,Giethoorn,Steenwijkerland,Overijssel,VBO,6.035797,52.725534
Dwarsgracht,38,t,,8355CT,Giethoorn,Steenwijkerland,Overijssel,VBO,6.035791,52.725769
Dwarsgracht,38,,,8355CT,Giethoorn,Steenwijkerland,Overijssel,VBO,6.035620,52.725571
Dwarsgracht,40,,,8355CT,Giethoorn,Steenwijkerland,Overijssel,VBO,6.035268,52.725816
Dwarsgracht,23,,,8355CV,Giethoorn,Steenwijkerland,Overijssel,VBO,6.035420,52.725078
Dwarsgracht,25,,,8355CV,Giethoorn,Steenwijkerland,Overijssel,VBO,6.035319,52.725214
Dwarsgracht,27,,,8355CV,Giethoorn,Steenwijkerland,Overijssel,VBO,6.035159,52.725421
Dwarsgracht,29,,,8355CV,Giethoorn,Steenwijkerland,Overijssel,VBO,6.035027,52.725539
Dwarsgracht,31,,,8355CV,Giethoorn,Steenwijkerland,Overijssel,VBO,6.034807,52.725666
Dwarsgracht,33,,,8355CV,Giethoorn,Steenwijkerland,Overijssel,VBO,6.034810,52.725863
Dwarsgracht,35,a,,8355CV,Giethoorn,Steenwijkerland,Overijssel,VBO,6.034507,52.726368
Dwarsgracht,35,,,8355CV,Giethoorn,Steenwijkerland,Overijssel,VBO,6.034578,52.726197
Dwarsgracht,37,,,8355CV,Giethoorn,Steenwijkerland,Overijssel,VBO,6.034436,52.726566
Dwarsgracht,39,,,8355CV,Giethoorn,Steenwijkerland,Overijssel,VBO,6.034306,52.726819
Frensensteeg,1,,,8355CV,Giethoorn,Steenwijkerland,Overijssel,VBO,6.082545,52.712657
Dwarsgracht,41,,,8355CW,Giethoorn,Steenwijkerland,Overijssel,VBO,6.033985,52.727108
Dwarsgracht,42,,,8355CW,Giethoorn,Steenwijkerland,Overijssel,VBO,6.035347,52.726130
Dwarsgracht,43,,,8355CW,Giethoorn,Steenwijkerland,Overijssel,VBO,6.033974,52.727378
Dwarsgracht,44,a,,8355CW,Giethoorn,Steenwijkerland,Overijssel,VBO,6.035127,52.726266
Dwarsgracht,44,b,,8355CW,Giethoorn,Steenwijkerland,Overijssel,VBO,6.035171,52.726275
Dwarsgracht,44,c,,8355CW,Giethoorn,Steenwijkerland,Overijssel,VBO,6.035216,52.726275
Dwarsgracht,44,d,,8355CW,Giethoorn,Steenwijkerland,Overijssel,VBO,6.035215,52.726239
Dwarsgracht,44,,,8355CW,Giethoorn,Steenwijkerland,Overijssel,VBO,6.035037,52.726222
Dwarsgracht,45,,,8355CW,Giethoorn,Steenwijkerland,Overijssel,VBO,6.033830,52.727657
Dwarsgracht,46,,,8355CW,Giethoorn,Steenwijkerland,Overijssel,VBO,6.035044,52.726644
Dwarsgracht,47,,,8355CW,Giethoorn,Steenwijkerland,Overijssel,VBO,6.033452,52.727008
Dwarsgracht,48,,,8355CW,Giethoorn,Steenwijkerland,Overijssel,VBO,6.034913,52.726833
Dwarsgracht,50,,,8355CW,Giethoorn,Steenwijkerland,Overijssel,VBO,6.034827,52.726996
Dwarsgracht,52,,,8355CW,Giethoorn,Steenwijkerland,Overijssel,VBO,6.034638,52.727248
Dwarsgracht,54,a,,8355CW,Giethoorn,Steenwijkerland,Overijssel,VBO,6.034600,52.727680
Dwarsgracht,54,,,8355CW,Giethoorn,Steenwijkerland,Overijssel,VBO,6.035042,52.727534
Dwarsgracht,56,,,8355CW,Giethoorn,Steenwijkerland,Overijssel,VBO,6.034268,52.728221
Oude Kerkweg,2,,,8355CW,Giethoorn,Steenwijkerland,Overijssel,VBO,6.035030,52.727722
Oude Kerkweg,4,A,,8355CW,Giethoorn,Steenwijkerland,Overijssel,VBO,6.035865,52.728550
Oude Kerkweg,4,B,,8355CW,Giethoorn,Steenwijkerland,Overijssel,VBO,6.035997,52.728566
Oude Kerkweg,4,C,,8355CW,Giethoorn,Steenwijkerland,Overijssel,VBO,6.036158,52.728585
Oude Kerkweg,4,D,,8355CW,Giethoorn,Steenwijkerland,Overijssel,VBO,6.036320,52.728603
Oude Kerkweg,4,E,,8355CW,Giethoorn,Steenwijkerland,Overijssel,VBO,6.036473,52.728633
Oude Kerkweg,4,F,,8355CW,Giethoorn,Steenwijkerland,Overijssel,VBO,6.036625,52.728655
Oude Kerkweg,4,G,,8355CW,Giethoorn,Steenwijkerland,Overijssel,VBO,6.036781,52.728672
Oude Kerkweg,6,,,8355CW,Giethoorn,Steenwijkerland,Overijssel,VBO,6.035645,52.728258
De Elzen,1,,,8355CX,Giethoorn,Steenwijkerland,Overijssel,VBO,6.080000,52.738811
De Elzen,2,,,8355CX,Giethoorn,Steenwijkerland,Overijssel,VBO,6.078590,52.738585
De Elzen,3,,,8355CX,Giethoorn,Steenwijkerland,Overijssel,VBO,6.080089,52.738819
De Elzen,4,,,8355CX,Giethoorn,Steenwijkerland,Overijssel,VBO,6.078679,52.738594
De Elzen,5,,,8355CX,Giethoorn,Steenwijkerland,Overijssel,VBO,6.080178,52.738837
De Elzen,6,,,8355CX,Giethoorn,Steenwijkerland,Overijssel,VBO,6.078842,52.738620
De Elzen,7,,,8355CX,Giethoorn,Steenwijkerland,Overijssel,VBO,6.080282,52.738854
De Elzen,8,,,8355CX,Giethoorn,Steenwijkerland,Overijssel,VBO,6.078931,52.738637
De Elzen,9,,,8355CX,Giethoorn,Steenwijkerland,Overijssel,VBO,6.080698,52.738960
De Elzen,10,,,8355CX,Giethoorn,Steenwijkerland,Overijssel,VBO,6.079032,52.738475
De Elzen,11,,,8355CX,Giethoorn,Steenwijkerland,Overijssel,VBO,6.080712,52.738906
De Elzen,12,,,8355CX,Giethoorn,Steenwijkerland,Overijssel,VBO,6.079061,52.738421
De Elzen,13,,,8355CX,Giethoorn,Steenwijkerland,Overijssel,VBO,6.080741,52.738852
De Elzen,14,,,8355CX,Giethoorn,Steenwijkerland,Overijssel,VBO,6.079461,52.738419
De Elzen,15,,,8355CX,Giethoorn,Steenwijkerland,Overijssel,VBO,6.080755,52.738789
De Elzen,16,,,8355CX,Giethoorn,Steenwijkerland,Overijssel,VBO,6.079432,52.738491
De Elzen,17,,,8355CX,Giethoorn,Steenwijkerland,Overijssel,VBO,6.080857,52.738689
De Elzen,18,,,8355CX,Giethoorn,Steenwijkerland,Overijssel,VBO,6.079744,52.738534
De Elzen,19,,,8355CX,Giethoorn,Steenwijkerland,Overijssel,VBO,6.080886,52.738635
De Elzen,20,,,8355CX,Giethoorn,Steenwijkerland,Overijssel,VBO,6.079848,52.738551
De Elzen,22,,,8355CX,Giethoorn,Steenwijkerland,Overijssel,VBO,6.080027,52.738640
De Elzen,24,,,8355CX,Giethoorn,Steenwijkerland,Overijssel,VBO,6.080101,52.738658
De Elzen,26,,,8355CX,Giethoorn,Steenwijkerland,Overijssel,VBO,6.080383,52.738719
De Elzen,28,,,8355CX,Giethoorn,Steenwijkerland,Overijssel,VBO,6.080412,52.738665
De Elzen,30,,,8355CX,Giethoorn,Steenwijkerland,Overijssel,VBO,6.080440,52.738575
De Elzen,32,,,8355CX,Giethoorn,Steenwijkerland,Overijssel,VBO,6.080455,52.738530
Bartus Warnersweg,1,,,8355CZ,Giethoorn,Steenwijkerland,Overijssel,VBO,6.079613,52.721810
Bartus Warnersweg,2,,,8355CZ,Giethoorn,Steenwijkerland,Overijssel,VBO,6.078433,52.721002
Bartus Warnersweg,3,,,8355CZ,Giethoorn,Steenwijkerland,Overijssel,VBO,6.078699,52.720143
Bartus Warnersweg,5,,,8355CZ,Giethoorn,Steenwijkerland,Overijssel,VBO,6.078165,52.720083
Bartus Warnersweg,6,,,8355CZ,Giethoorn,Steenwijkerland,Overijssel,VBO,6.078675,52.720548
Bartus Warnersweg,7,,,8355CZ,Giethoorn,Steenwijkerland,Overijssel,VBO,6.078909,52.719423
Bartus Warnersweg,8,,,8355CZ,Giethoorn,Steenwijkerland,Overijssel,VBO,6.078173,52.720569
Meester Hofstraat,1,a,,8355DA,Giethoorn,Steenwijkerland,Overijssel,VBO,6.082275,52.721641
Meester Hofstraat,1,,,8355DA,Giethoorn,Steenwijkerland,Overijssel,VBO,6.082275,52.721686
Meester Hofstraat,3,a,,8355DA,Giethoorn,Steenwijkerland,Overijssel,VBO,6.082290,52.721538
Meester Hofstraat,3,,,8355DA,Giethoorn,Steenwijkerland,Overijssel,VBO,6.082293,52.721583
Meester Hofstraat,5,,,8355DA,Giethoorn,Steenwijkerland,Overijssel,VBO,6.082298,52.721487
Meester Hofstraat,7,,,8355DA,Giethoorn,Steenwijkerland,Overijssel,VBO,6.082301,52.721434
Meester Hofstraat,9,,,8355DA,Giethoorn,Steenwijkerland,Overijssel,VBO,6.082270,52.721354
Meester Hofstraat,11,,,8355DA,Giethoorn,Steenwijkerland,Overijssel,VBO,6.082269,52.721309
Meester Hofstraat,13,,,8355DA,Giethoorn,Steenwijkerland,Overijssel,VBO,6.082269,52.721264
Meester Hofstraat,15,,,8355DA,Giethoorn,Steenwijkerland,Overijssel,VBO,6.082283,52.721219
Meester Hofstraat,17,,,8355DA,Giethoorn,Steenwijkerland,Overijssel,VBO,6.082282,52.721174
Meester Hofstraat,19,,,8355DA,Giethoorn,Steenwijkerland,Overijssel,VBO,6.081897,52.721185
Meester Hofstraat,21,,,8355DA,Giethoorn,Steenwijkerland,Overijssel,VBO,6.081764,52.721186
Meester Hofstraat,23,,,8355DA,Giethoorn,Steenwijkerland,Overijssel,VBO,6.081616,52.721178
Meester Hofstraat,25,,,8355DA,Giethoorn,Steenwijkerland,Overijssel,VBO,6.081483,52.721170
Meester Hofstraat,2,,,8355DB,Giethoorn,Steenwijkerland,Overijssel,VBO,6.081900,52.721383
Meester Hofstraat,4,,,8355DB,Giethoorn,Steenwijkerland,Overijssel,VBO,6.081812,52.721374
Meester Hofstraat,6,,,8355DB,Giethoorn,Steenwijkerland,Overijssel,VBO,6.081723,52.721375
Meester Hofstraat,8,,,8355DB,Giethoorn,Steenwijkerland,Overijssel,VBO,6.081634,52.721375
Meester Hofstraat,10,,,8355DB,Giethoorn,Steenwijkerland,Overijssel,VBO,6.081530,52.721367
Ds. J.J. Ketstraat,1,a,,8355DC,Giethoorn,Steenwijkerland,Overijssel,VBO,6.080737,52.722060
Ds. J.J. Ketstraat,1,,,8355DC,Giethoorn,Steenwijkerland,Overijssel,VBO,6.082086,52.721885
Ds. J.J. Ketstraat,5,a,,8355DC,Giethoorn,Steenwijkerland,Overijssel,VBO,6.082382,52.721901
Ds. J.J. Ketstraat,5,,,8355DC,Giethoorn,Steenwijkerland,Overijssel,VBO,6.082308,52.721902
Ds. J.J. Ketstraat,7,a,,8355DC,Giethoorn,Steenwijkerland,Overijssel,VBO,6.082560,52.721909
Ds. J.J. Ketstraat,7,,,8355DC,Giethoorn,Steenwijkerland,Overijssel,VBO,6.082471,52.721910
Ds. J.J. Ketstraat,9,a,,8355DC,Giethoorn,Steenwijkerland,Overijssel,VBO,6.082768,52.721935
Ds. J.J. Ketstraat,9,,,8355DC,Giethoorn,Steenwijkerland,Overijssel,VBO,6.082634,52.721918
Ds. J.J. Ketstraat,11,a,,8355DC,Giethoorn,Steenwijkerland,Overijssel,VBO,6.082974,52.721937
Ds. J.J. Ketstraat,11,,,8355DC,Giethoorn,Steenwijkerland,Overijssel,VBO,6.082885,52.721940
Ds. J.J. Ketstraat,13,a,,8355DC,Giethoorn,Steenwijkerland,Overijssel,VBO,6.083057,52.721981
Ds. J.J. Ketstraat,13,,,8355DC,Giethoorn,Steenwijkerland,Overijssel,VBO,6.083056,52.721940
Ds. J.J. Ketstraat,15,t,,8355DC,Giethoorn,Steenwijkerland,Overijssel,VBO,6.083133,52.722052
Ds. J.J. Ketstraat,17,,,8355DC,Giethoorn,Steenwijkerland,Overijssel,VBO,6.083332,52.722057
Ds. J.J. Ketstraat,19,,,8355DC,Giethoorn,Steenwijkerland,Overijssel,VBO,6.083344,52.722015
Ds. J.J. Ketstraat,21,,,8355DC,Giethoorn,Steenwijkerland,Overijssel,VBO,6.083348,52.721969
Ds. J.J. Ketstraat,23,,,8355DC,Giethoorn,Steenwijkerland,Overijssel,VBO,6.083266,52.721873
Ds. J.J. Ketstraat,25,,,8355DC,Giethoorn,Steenwijkerland,Overijssel,VBO,6.083267,52.721826
Ds. J.J. Ketstraat,27,,,8355DC,Giethoorn,Steenwijkerland,Overijssel,VBO,6.083268,52.721770
Ds. J.J. Ketstraat,29,,,8355DC,Giethoorn,Steenwijkerland,Overijssel,VBO,6.083268,52.721734
Ds. J.J. Ketstraat,31,,,8355DC,Giethoorn,Steenwijkerland,Overijssel,VBO,6.083282,52.721689
Ds. J.J. Ketstraat,33,,,8355DC,Giethoorn,Steenwijkerland,Overijssel,VBO,6.083281,52.721653
Ds. J.J. Ketstraat,35,,,8355DC,Giethoorn,Steenwijkerland,Overijssel,VBO,6.083278,52.721438
Ds. J.J. Ketstraat,37,,,8355DC,Giethoorn,Steenwijkerland,Overijssel,VBO,6.083352,52.721437
Ds. J.J. Ketstraat,39,,,8355DC,Giethoorn,Steenwijkerland,Overijssel,VBO,6.083441,52.721446
Ds. J.J. Ketstraat,41,,,8355DC,Giethoorn,Steenwijkerland,Overijssel,VBO,6.083515,52.721445
Ds. J.J. Ketstraat,2,,,8355DD,Giethoorn,Steenwijkerland,Overijssel,VBO,6.081520,52.721655
Ds. J.J. Ketstraat,4,,,8355DD,Giethoorn,Steenwijkerland,Overijssel,VBO,6.081816,52.721662
Ds. J.J. Ketstraat,12,,,8355DD,Giethoorn,Steenwijkerland,Overijssel,VBO,6.082640,52.721702
Ds. J.J. Ketstraat,14,,,8355DD,Giethoorn,Steenwijkerland,Overijssel,VBO,6.082705,52.721702
Ds. J.J. Ketstraat,16,,,8355DD,Giethoorn,Steenwijkerland,Overijssel,VBO,6.082779,52.721710
Ds. J.J. Ketstraat,18,,,8355DD,Giethoorn,Steenwijkerland,Overijssel,VBO,6.082761,52.721531
Ds. J.J. Ketstraat,20,,,8355DD,Giethoorn,Steenwijkerland,Overijssel,VBO,6.082775,52.721477
Ds. J.J. Ketstraat,22,,,8355DD,Giethoorn,Steenwijkerland,Overijssel,VBO,6.082774,52.721423
Ds. J.J. Ketstraat,24,,,8355DD,Giethoorn,Steenwijkerland,Overijssel,VBO,6.082744,52.721387
Ds. J.J. Ketstraat,26,,,8355DD,Giethoorn,Steenwijkerland,Overijssel,VBO,6.082623,52.721208
Ds. J.J. Ketstraat,28,,,8355DD,Giethoorn,Steenwijkerland,Overijssel,VBO,6.082771,52.721216
Ds. J.J. Ketstraat,30,,,8355DD,Giethoorn,Steenwijkerland,Overijssel,VBO,6.082919,52.721224
Ds. J.J. Ketstraat,32,,,8355DD,Giethoorn,Steenwijkerland,Overijssel,VBO,6.083067,52.721232
Ds. J.J. Ketstraat,34,,,8355DD,Giethoorn,Steenwijkerland,Overijssel,VBO,6.083216,52.721240
Ds. J.J. Ketstraat,36,,,8355DD,Giethoorn,Steenwijkerland,Overijssel,VBO,6.083349,52.721249
Ds. J.J. Ketstraat,38,,,8355DD,Giethoorn,Steenwijkerland,Overijssel,VBO,6.083527,52.721256
Ds. J.J. Ketstraat,40,,,8355DD,Giethoorn,Steenwijkerland,Overijssel,VBO,6.084060,52.721262
Ds. J.J. Ketstraat,42,,,8355DD,Giethoorn,Steenwijkerland,Overijssel,VBO,6.084252,52.721279
Ds. J.J. Ketstraat,44,,,8355DD,Giethoorn,Steenwijkerland,Overijssel,VBO,6.084519,52.721287
Ds. J.J. Ketstraat,46,,,8355DD,Giethoorn,Steenwijkerland,Overijssel,VBO,6.084579,52.721331
Ds. J.J. Ketstraat,48,,,8355DD,Giethoorn,Steenwijkerland,Overijssel,VBO,6.084817,52.721456
Ds. J.J. Ketstraat,50,,,8355DD,Giethoorn,Steenwijkerland,Overijssel,VBO,6.084877,52.721491
Ds. J.J. Ketstraat,52,,,8355DD,Giethoorn,Steenwijkerland,Overijssel,VBO,6.085133,52.721732
Ds. J.J. Ketstraat,54,,,8355DD,Giethoorn,Steenwijkerland,Overijssel,VBO,6.085401,52.721830
Ds. J.J. Ketstraat,56,,,8355DD,Giethoorn,Steenwijkerland,Overijssel,VBO,6.085549,52.721829
Ds. J.J. Ketstraat,58,,,8355DD,Giethoorn,Steenwijkerland,Overijssel,VBO,6.085860,52.721845
Ds. J.J. Ketstraat,60,,,8355DD,Giethoorn,Steenwijkerland,Overijssel,VBO,6.085993,52.721853
Ds. J.J. Ketstraat,43,,k001,8355DE,Giethoorn,Steenwijkerland,Overijssel,VBO,6.084211,52.721496
Ds. J.J. Ketstraat,43,,k002,8355DE,Giethoorn,Steenwijkerland,Overijssel,VBO,6.084207,52.721525
Ds. J.J. Ketstraat,43,,k003,8355DE,Giethoorn,Steenwijkerland,Overijssel,VBO,6.084193,52.721561
Ds. J.J. Ketstraat,43,,k004,8355DE,Giethoorn,Steenwijkerland,Overijssel,VBO,6.084118,52.721507
Ds. J.J. Ketstraat,43,,k005,8355DE,Giethoorn,Steenwijkerland,Overijssel,VBO,6.084119,52.721545
Ds. J.J. Ketstraat,43,,k006,8355DE,Giethoorn,Steenwijkerland,Overijssel,VBO,6.084108,52.721577
Ds. J.J. Ketstraat,43,,k007,8355DE,Giethoorn,Steenwijkerland,Overijssel,VBO,6.084097,52.721610
Ds. J.J. Ketstraat,43,,k008,8355DE,Giethoorn,Steenwijkerland,Overijssel,VBO,6.084090,52.721644
Ds. J.J. Ketstraat,43,,k009,8355DE,Giethoorn,Steenwijkerland,Overijssel,VBO,6.084083,52.721674
Ds. J.J. Ketstraat,43,,k010,8355DE,Giethoorn,Steenwijkerland,Overijssel,VBO,6.084081,52.721705
Ds. J.J. Ketstraat,43,,k011,8355DE,Giethoorn,Steenwijkerland,Overijssel,VBO,6.084141,52.721709
Ds. J.J. Ketstraat,43,,k012,8355DE,Giethoorn,Steenwijkerland,Overijssel,VBO,6.084140,52.721679
Ds. J.J. Ketstraat,43,,k013,8355DE,Giethoorn,Steenwijkerland,Overijssel,VBO,6.084143,52.721647
Ds. J.J. Ketstraat,43,,k014,8355DE,Giethoorn,Steenwijkerland,Overijssel,VBO,6.084144,52.721619
Ds. J.J. Ketstraat,43,,k015,8355DE,Giethoorn,Steenwijkerland,Overijssel,VBO,6.084161,52.721595
Ds. J.J. Ketstraat,43,,k016,8355DE,Giethoorn,Steenwijkerland,Overijssel,VBO,6.084211,52.721588
Ds. J.J. Ketstraat,43,,k017,8355DE,Giethoorn,Steenwijkerland,Overijssel,VBO,6.084201,52.721621
Ds. J.J. Ketstraat,43,,k018,8355DE,Giethoorn,Steenwijkerland,Overijssel,VBO,6.084194,52.721654
Ds. J.J. Ketstraat,43,,k019,8355DE,Giethoorn,Steenwijkerland,Overijssel,VBO,6.084195,52.721687
Ds. J.J. Ketstraat,43,,k020,8355DE,Giethoorn,Steenwijkerland,Overijssel,VBO,6.084183,52.721717
Ds. J.J. Ketstraat,43,,k021,8355DE,Giethoorn,Steenwijkerland,Overijssel,VBO,6.084244,52.721691
Ds. J.J. Ketstraat,43,,k022,8355DE,Giethoorn,Steenwijkerland,Overijssel,VBO,6.084252,52.721720
Ds. J.J. Ketstraat,43,,k023,8355DE,Giethoorn,Steenwijkerland,Overijssel,VBO,6.084288,52.721739
Ds. J.J. Ketstraat,43,,,8355DE,Giethoorn,Steenwijkerland,Overijssel,VBO,6.084078,52.721478
Ds. J.J. Ketstraat,45,,,8355DE,Giethoorn,Steenwijkerland,Overijssel,VBO,6.084035,52.721550
Ds. J.J. Ketstraat,47,,,8355DE,Giethoorn,Steenwijkerland,Overijssel,VBO,6.084020,52.721595
Ds. J.J. Ketstraat,49,,,8355DE,Giethoorn,Steenwijkerland,Overijssel,VBO,6.084006,52.721640
Ds. J.J. Ketstraat,51,,,8355DE,Giethoorn,Steenwijkerland,Overijssel,VBO,6.084007,52.721667
Ds. J.J. Ketstraat,53,,,8355DE,Giethoorn,Steenwijkerland,Overijssel,VBO,6.084007,52.721712
Ds. J.J. Ketstraat,55,,,8355DE,Giethoorn,Steenwijkerland,Overijssel,VBO,6.083993,52.721748
Ds. J.J. Ketstraat,57,,,8355DE,Giethoorn,Steenwijkerland,Overijssel,VBO,6.083964,52.721784
Ds. J.J. Ketstraat,59,,,8355DE,Giethoorn,Steenwijkerland,Overijssel,VBO,6.083920,52.721820
Ds. J.J. Ketstraat,61,,,8355DE,Giethoorn,Steenwijkerland,Overijssel,VBO,6.083921,52.721847
Ds. J.J. Ketstraat,63,,,8355DE,Giethoorn,Steenwijkerland,Overijssel,VBO,6.083906,52.721874
Ds. J.J. Ketstraat,65,,,8355DE,Giethoorn,Steenwijkerland,Overijssel,VBO,6.083907,52.721901
Ds. J.J. Ketstraat,67,,,8355DE,Giethoorn,Steenwijkerland,Overijssel,VBO,6.083893,52.721928
Ds. J.J. Ketstraat,69,,,8355DE,Giethoorn,Steenwijkerland,Overijssel,VBO,6.083893,52.721955
Ds. J.J. Ketstraat,71,,,8355DE,Giethoorn,Steenwijkerland,Overijssel,VBO,6.083879,52.721991
Ds. J.J. Ketstraat,73,,,8355DE,Giethoorn,Steenwijkerland,Overijssel,VBO,6.083879,52.722018
Ds. J.J. Ketstraat,75,,,8355DG,Giethoorn,Steenwijkerland,Overijssel,VBO,6.084042,52.722044
Ds. J.J. Ketstraat,77,,,8355DG,Giethoorn,Steenwijkerland,Overijssel,VBO,6.084042,52.722026
Ds. J.J. Ketstraat,79,,,8355DG,Giethoorn,Steenwijkerland,Overijssel,VBO,6.084056,52.721990
Ds. J.J. Ketstraat,81,,,8355DG,Giethoorn,Steenwijkerland,Overijssel,VBO,6.084041,52.721972
Ds. J.J. Ketstraat,83,,,8355DG,Giethoorn,Steenwijkerland,Overijssel,VBO,6.084041,52.721928
Ds. J.J. Ketstraat,85,,,8355DG,Giethoorn,Steenwijkerland,Overijssel,VBO,6.084055,52.721891
Ds. J.J. Ketstraat,87,,,8355DG,Giethoorn,Steenwijkerland,Overijssel,VBO,6.084069,52.721873
Ds. J.J. Ketstraat,89,,,8355DG,Giethoorn,Steenwijkerland,Overijssel,VBO,6.084069,52.721855
Ds. J.J. Ketstraat,91,,,8355DG,Giethoorn,Steenwijkerland,Overijssel,VBO,6.084083,52.721819
Ds. J.J. Ketstraat,93,,,8355DG,Giethoorn,Steenwijkerland,Overijssel,VBO,6.084097,52.721774
Ds. J.J. Ketstraat,95,,,8355DG,Giethoorn,Steenwijkerland,Overijssel,VBO,6.084097,52.721729
Ds. J.J. Ketstraat,97,,,8355DG,Giethoorn,Steenwijkerland,Overijssel,VBO,6.084571,52.721763
Ds. J.J. Ketstraat,99,,,8355DG,Giethoorn,Steenwijkerland,Overijssel,VBO,6.084557,52.721799
Ds. J.J. Ketstraat,101,,,8355DG,Giethoorn,Steenwijkerland,Overijssel,VBO,6.084557,52.721826
Ds. J.J. Ketstraat,103,,,8355DG,Giethoorn,Steenwijkerland,Overijssel,VBO,6.084543,52.721871
Ds. J.J. Ketstraat,105,,,8355DG,Giethoorn,Steenwijkerland,Overijssel,VBO,6.084543,52.721898
Ds. J.J. Ketstraat,107,,,8355DG,Giethoorn,Steenwijkerland,Overijssel,VBO,6.084529,52.721925
Ds. J.J. Ketstraat,109,,,8355DG,Giethoorn,Steenwijkerland,Overijssel,VBO,6.084529,52.721961
Ds. J.J. Ketstraat,111,,,8355DG,Giethoorn,Steenwijkerland,Overijssel,VBO,6.084530,52.721988
Ds. J.J. Ketstraat,113,,,8355DG,Giethoorn,Steenwijkerland,Overijssel,VBO,6.084677,52.721906
Ds. J.J. Ketstraat,115,,,8355DH,Giethoorn,Steenwijkerland,Overijssel,VBO,6.085227,52.722064
Ds. J.J. Ketstraat,117,,,8355DH,Giethoorn,Steenwijkerland,Overijssel,VBO,6.085345,52.722046
Ds. J.J. Ketstraat,119,,,8355DH,Giethoorn,Steenwijkerland,Overijssel,VBO,6.085449,52.722054
Ds. J.J. Ketstraat,121,,,8355DH,Giethoorn,Steenwijkerland,Overijssel,VBO,6.085671,52.722071
Ds. J.J. Ketstraat,123,,,8355DH,Giethoorn,Steenwijkerland,Overijssel,VBO,6.085760,52.722079
Meester K. Hoekstraweg,1,,,8355DJ,Giethoorn,Steenwijkerland,Overijssel,VBO,6.085146,52.721633
Meester K. Hoekstraweg,2,,,8355DJ,Giethoorn,Steenwijkerland,Overijssel,VBO,6.085097,52.721355
Meester K. Hoekstraweg,3,,,8355DJ,Giethoorn,Steenwijkerland,Overijssel,VBO,6.085470,52.721533
Meester K. Hoekstraweg,4,,,8355DJ,Giethoorn,Steenwijkerland,Overijssel,VBO,6.085274,52.721291
Meester K. Hoekstraweg,5,,,8355DJ,Giethoorn,Steenwijkerland,Overijssel,VBO,6.085574,52.721541
Meester K. Hoekstraweg,6,,,8355DJ,Giethoorn,Steenwijkerland,Overijssel,VBO,6.085466,52.721308
Meester K. Hoekstraweg,8,,,8355DJ,Giethoorn,Steenwijkerland,Overijssel,VBO,6.085659,52.721316
Meester K. Hoekstraweg,10,,,8355DJ,Giethoorn,Steenwijkerland,Overijssel,VBO,6.085986,52.721395
Meester K. Hoekstraweg,12,,,8355DJ,Giethoorn,Steenwijkerland,Overijssel,VBO,6.085943,52.721467
Meester K. Hoekstraweg,14,,,8355DJ,Giethoorn,Steenwijkerland,Overijssel,VBO,6.085930,52.721584
Meester K. Hoekstraweg,16,,,8355DJ,Giethoorn,Steenwijkerland,Overijssel,VBO,6.085916,52.721665
Nering,4,,,8355DK,Giethoorn,Steenwijkerland,Overijssel,VBO,6.079232,52.724423
Nering,10,,,8355DK,Giethoorn,Steenwijkerland,Overijssel,VBO,6.079043,52.723881
Eendrachtsplein,1,,,8355DL,Giethoorn,Steenwijkerland,Overijssel,VBO,6.078552,52.721214
Eendrachtsplein,2,,,8355DL,Giethoorn,Steenwijkerland,Overijssel,VBO,6.079365,52.721286
Eendrachtsplein,4,,,8355DL,Giethoorn,Steenwijkerland,Overijssel,VBO,6.079361,52.721335
Eendrachtsplein,6,,,8355DL,Giethoorn,Steenwijkerland,Overijssel,VBO,6.079343,52.721209
Eendrachtsplein,8,,,8355DL,Giethoorn,Steenwijkerland,Overijssel,VBO,6.079462,52.721151
Eendrachtsplein,10,,,8355DL,Giethoorn,Steenwijkerland,Overijssel,VBO,6.079607,52.721157
Eendrachtsplein,12,,,8355DL,Giethoorn,Steenwijkerland,Overijssel,VBO,6.079700,52.721256
Eendrachtsplein,14,,,8355DL,Giethoorn,Steenwijkerland,Overijssel,VBO,6.079712,52.721400
Eendrachtsplein,16,,,8355DL,Giethoorn,Steenwijkerland,Overijssel,VBO,6.079662,52.721458
Eendrachtsplein,18,,,8355DL,Giethoorn,Steenwijkerland,Overijssel,VBO,6.079442,52.721463
Eendrachtsplein,20,,,8355DL,Giethoorn,Steenwijkerland,Overijssel,VBO,6.079368,52.721389
Eendrachtsplein,22,,,8355DL,Giethoorn,Steenwijkerland,Overijssel,VBO,6.079431,52.721427
Eendrachtsplein,24,,,8355DL,Giethoorn,Steenwijkerland,Overijssel,VBO,6.079437,52.721388
Eendrachtsplein,26,,,8355DL,Giethoorn,Steenwijkerland,Overijssel,VBO,6.079416,52.721224
Eendrachtsplein,28,,,8355DL,Giethoorn,Steenwijkerland,Overijssel,VBO,6.079482,52.721208
Eendrachtsplein,30,,,8355DL,Giethoorn,Steenwijkerland,Overijssel,VBO,6.079624,52.721209
Eendrachtsplein,32,,,8355DL,Giethoorn,Steenwijkerland,Overijssel,VBO,6.079615,52.721274
Eendrachtsplein,34,,,8355DL,Giethoorn,Steenwijkerland,Overijssel,VBO,6.079630,52.721397
Eendrachtsplein,36,,,8355DL,Giethoorn,Steenwijkerland,Overijssel,VBO,6.079574,52.721445
Rietkragge,4,,,8355DZ,Giethoorn,Steenwijkerland,Overijssel,VBO,6.073056,52.720096
Rietkragge,6,,,8355DZ,Giethoorn,Steenwijkerland,Overijssel,VBO,6.072849,52.719854
Rietkragge,8,,,8355DZ,Giethoorn,Steenwijkerland,Overijssel,VBO,6.072952,52.719655
Rietkragge,10,,,8355DZ,Giethoorn,Steenwijkerland,Overijssel,VBO,6.073375,52.719799
Rietkragge,18,,,8355DZ,Giethoorn,Steenwijkerland,Overijssel,VBO,6.074678,52.719594
Rietkragge,22,,,8355DZ,Giethoorn,Steenwijkerland,Overijssel,VBO,6.075272,52.719682
Rietkragge,24,,,8355DZ,Giethoorn,Steenwijkerland,Overijssel,VBO,6.072921,52.718891
Rietkragge,38,,,8355DZ,Giethoorn,Steenwijkerland,Overijssel,VBO,6.073218,52.718112
Rietkragge,40,,,8355DZ,Giethoorn,Steenwijkerland,Overijssel,VBO,6.073536,52.718112
Rietkragge,42,,,8355DZ,Giethoorn,Steenwijkerland,Overijssel,VBO,6.073910,52.718050
Rietkragge,60,,,8355DZ,Giethoorn,Steenwijkerland,Overijssel,VBO,6.074896,52.717405
Hazelaar,1,,,8355EA,Giethoorn,Steenwijkerland,Overijssel,VBO,6.078938,52.737984
Hazelaar,3,,,8355EA,Giethoorn,Steenwijkerland,Overijssel,VBO,6.079195,52.738012
Hazelaar,5,,,8355EA,Giethoorn,Steenwijkerland,Overijssel,VBO,6.079595,52.738054
Hazelaar,7,,,8355EA,Giethoorn,Steenwijkerland,Overijssel,VBO,6.079924,52.738106
Hazelaar,9,,,8355EA,Giethoorn,Steenwijkerland,Overijssel,VBO,6.080203,52.738132
Hazelaar,13,,,8355EA,Giethoorn,Steenwijkerland,Overijssel,VBO,6.080925,52.738311
Hazelaar,15,,,8355EA,Giethoorn,Steenwijkerland,Overijssel,VBO,6.080968,52.738257
Hazelaar,2,,,8355EB,Giethoorn,Steenwijkerland,Overijssel,VBO,6.078592,52.736944
Hazelaar,4,,,8355EB,Giethoorn,Steenwijkerland,Overijssel,VBO,6.078571,52.737010
Hazelaar,6,,,8355EB,Giethoorn,Steenwijkerland,Overijssel,VBO,6.078595,52.737156
Hazelaar,8,,,8355EB,Giethoorn,Steenwijkerland,Overijssel,VBO,6.078568,52.737219
Hazelaar,10,,,8355EB,Giethoorn,Steenwijkerland,Overijssel,VBO,6.078585,52.737349
Hazelaar,12,,,8355EB,Giethoorn,Steenwijkerland,Overijssel,VBO,6.078559,52.737425
Hazelaar,14,,,8355EB,Giethoorn,Steenwijkerland,Overijssel,VBO,6.078498,52.737661
Hazelaar,18,,,8355EB,Giethoorn,Steenwijkerland,Overijssel,VBO,6.079525,52.737791
Hazelaar,20,,,8355EB,Giethoorn,Steenwijkerland,Overijssel,VBO,6.079798,52.737825
Hazelaar,22,,,8355EB,Giethoorn,Steenwijkerland,Overijssel,VBO,6.080370,52.737865
Hazelaar,24,,,8355EB,Giethoorn,Steenwijkerland,Overijssel,VBO,6.080444,52.737892
Hazelaar,26,,,8355EB,Giethoorn,Steenwijkerland,Overijssel,VBO,6.080637,52.737918
Hazelaar,28,,,8355EB,Giethoorn,Steenwijkerland,Overijssel,VBO,6.080726,52.737935
Hazelaar,30,,,8355EB,Giethoorn,Steenwijkerland,Overijssel,VBO,6.080815,52.737934
Sleedoorn,1,,,8355EC,Giethoorn,Steenwijkerland,Overijssel,VBO,6.079477,52.737547
Sleedoorn,3,,,8355EC,Giethoorn,Steenwijkerland,Overijssel,VBO,6.079504,52.737421
Sleedoorn,5,,,8355EC,Giethoorn,Steenwijkerland,Overijssel,VBO,6.079561,52.737268
Sleedoorn,7,t,,8355EC,Giethoorn,Steenwijkerland,Overijssel,VBO,6.079776,52.736904
Sleedoorn,7,,,8355EC,Giethoorn,Steenwijkerland,Overijssel,VBO,6.079618,52.737106
Sleedoorn,9,,,8355EC,Giethoorn,Steenwijkerland,Overijssel,VBO,6.080122,52.737139
Sleedoorn,11,,,8355EC,Giethoorn,Steenwijkerland,Overijssel,VBO,6.080051,52.737337
Sleedoorn,13,,,8355EC,Giethoorn,Steenwijkerland,Overijssel,VBO,6.080009,52.737481
Sleedoorn,15,,,8355EC,Giethoorn,Steenwijkerland,Overijssel,VBO,6.079952,52.737643
Sleedoorn,2,,,8355ED,Giethoorn,Steenwijkerland,Overijssel,VBO,6.079061,52.737468
Sleedoorn,4,,,8355ED,Giethoorn,Steenwijkerland,Overijssel,VBO,6.079075,52.737414
Sleedoorn,6,,,8355ED,Giethoorn,Steenwijkerland,Overijssel,VBO,6.079117,52.737279
Sleedoorn,8,,,8355ED,Giethoorn,Steenwijkerland,Overijssel,VBO,6.079146,52.737225
Sleedoorn,10,,,8355ED,Giethoorn,Steenwijkerland,Overijssel,VBO,6.079203,52.737090
Sleedoorn,12,,,8355ED,Giethoorn,Steenwijkerland,Overijssel,VBO,6.079217,52.737036
Sleedoorn,14,,,8355ED,Giethoorn,Steenwijkerland,Overijssel,VBO,6.080565,52.737109
Sleedoorn,16,,,8355ED,Giethoorn,Steenwijkerland,Overijssel,VBO,6.080537,52.737163
Sleedoorn,18,,,8355ED,Giethoorn,Steenwijkerland,Overijssel,VBO,6.080509,52.737289
Sleedoorn,20,,,8355ED,Giethoorn,Steenwijkerland,Overijssel,VBO,6.080480,52.737343
Sleedoorn,22,,,8355ED,Giethoorn,Steenwijkerland,Overijssel,VBO,6.080438,52.737460
Sleedoorn,24,,,8355ED,Giethoorn,Steenwijkerland,Overijssel,VBO,6.080424,52.737514
Sleedoorn,26,,,8355ED,Giethoorn,Steenwijkerland,Overijssel,VBO,6.080381,52.737640
Sleedoorn,28,,,8355ED,Giethoorn,Steenwijkerland,Overijssel,VBO,6.080367,52.737694
Brem,1,,,8355EE,Giethoorn,Steenwijkerland,Overijssel,VBO,6.081682,52.737516
Brem,3,,,8355EE,Giethoorn,Steenwijkerland,Overijssel,VBO,6.081696,52.737462
Brem,5,,,8355EE,Giethoorn,Steenwijkerland,Overijssel,VBO,6.081710,52.737399
Brem,7,,,8355EE,Giethoorn,Steenwijkerland,Overijssel,VBO,6.081739,52.737345
Brem,9,,,8355EE,Giethoorn,Steenwijkerland,Overijssel,VBO,6.081767,52.737255
Brem,11,,,8355EE,Giethoorn,Steenwijkerland,Overijssel,VBO,6.081781,52.737201
Brem,13,,,8355EE,Giethoorn,Steenwijkerland,Overijssel,VBO,6.081795,52.737147
Brem,15,,,8355EE,Giethoorn,Steenwijkerland,Overijssel,VBO,6.081824,52.737093
Brem,17,,,8355EE,Giethoorn,Steenwijkerland,Overijssel,VBO,6.081838,52.737039
Brem,2,,,8355EG,Giethoorn,Steenwijkerland,Overijssel,VBO,6.080886,52.737754
Brem,4,,,8355EG,Giethoorn,Steenwijkerland,Overijssel,VBO,6.080901,52.737709
Brem,6,,,8355EG,Giethoorn,Steenwijkerland,Overijssel,VBO,6.080914,52.737655
Brem,8,,,8355EG,Giethoorn,Steenwijkerland,Overijssel,VBO,6.080929,52.737610
Brem,10,,,8355EG,Giethoorn,Steenwijkerland,Overijssel,VBO,6.080943,52.737565
Brem,12,,,8355EG,Giethoorn,Steenwijkerland,Overijssel,VBO,6.080985,52.737439
Brem,14,,,8355EG,Giethoorn,Steenwijkerland,Overijssel,VBO,6.081014,52.737385
Brem,16,,,8355EG,Giethoorn,Steenwijkerland,Overijssel,VBO,6.081028,52.737331
Brem,18,,,8355EG,Giethoorn,Steenwijkerland,Overijssel,VBO,6.081042,52.737277
Brem,20,,,8355EG,Giethoorn,Steenwijkerland,Overijssel,VBO,6.081071,52.737223
Brem,22,,,8355EG,Giethoorn,Steenwijkerland,Overijssel,VBO,6.081084,52.737160
Brem,24,,,8355EG,Giethoorn,Steenwijkerland,Overijssel,VBO,6.081098,52.737106
Vlier,1,a,,8355EH,Giethoorn,Steenwijkerland,Overijssel,VBO,6.082622,52.737583
Vlier,1,,,8355EH,Giethoorn,Steenwijkerland,Overijssel,VBO,6.082598,52.737632
Vlier,3,,,8355EH,Giethoorn,Steenwijkerland,Overijssel,VBO,6.082639,52.737535
Vlier,5,,,8355EH,Giethoorn,Steenwijkerland,Overijssel,VBO,6.082663,52.737486
Vlier,7,,,8355EH,Giethoorn,Steenwijkerland,Overijssel,VBO,6.082688,52.737441
Vlier,9,,,8355EH,Giethoorn,Steenwijkerland,Overijssel,VBO,6.082708,52.737389
Vlier,11,,,8355EH,Giethoorn,Steenwijkerland,Overijssel,VBO,6.082712,52.737266
Vlier,13,,,8355EH,Giethoorn,Steenwijkerland,Overijssel,VBO,6.082728,52.737216
Vlier,15,,,8355EH,Giethoorn,Steenwijkerland,Overijssel,VBO,6.082753,52.737179
Vlier,17,,,8355EH,Giethoorn,Steenwijkerland,Overijssel,VBO,6.082775,52.737124
Vlier,19,,,8355EH,Giethoorn,Steenwijkerland,Overijssel,VBO,6.082782,52.737070
Vlier,21,,,8355EH,Giethoorn,Steenwijkerland,Overijssel,VBO,6.082794,52.737024
Vlier,2,,,8355EJ,Giethoorn,Steenwijkerland,Overijssel,VBO,6.082245,52.737550
Vlier,4,,,8355EJ,Giethoorn,Steenwijkerland,Overijssel,VBO,6.082259,52.737497
Heerendijk,1,,,8355TA,Giethoorn,Steenwijkerland,Overijssel,VBO,6.082949,52.771597
Jan van Nassauweg,1,t,,8355VA,Giethoorn,Steenwijkerland,Overijssel,VBO,6.051842,52.742766
Jan van Nassauweg,1,,,8355VA,Giethoorn,Steenwijkerland,Overijssel,VBO,6.051595,52.742370
Jan van Nassauweg,2,,,8355VA,Giethoorn,Steenwijkerland,Overijssel,VBO,6.052684,52.739964
Jan van Nassauweg,3,,,8355VA,Giethoorn,Steenwijkerland,Overijssel,VBO,6.051691,52.744787
Jan van Nassauweg,4,,,8355VA,Giethoorn,Steenwijkerland,Overijssel,VBO,6.052724,52.745527
Jan van Nassauweg,5,,,8355VA,Giethoorn,Steenwijkerland,Overijssel,VBO,6.051511,52.748581
Jan van Nassauweg,6,,,8355VA,Giethoorn,Steenwijkerland,Overijssel,VBO,6.052588,52.747316
Jan van Nassauweg,8,,,8355VA,Giethoorn,Steenwijkerland,Overijssel,VBO,6.052854,52.748240
Jan van Nassauweg,9,t,,8355VA,Giethoorn,Steenwijkerland,Overijssel,VBO,6.052321,52.752063
Jan van Nassauweg,9,,,8355VA,Giethoorn,Steenwijkerland,Overijssel,VBO,6.051943,52.751670
Jan van Nassauweg,10,a,,8355VA,Giethoorn,Steenwijkerland,Overijssel,VBO,6.053026,52.753758
Jan van Nassauweg,10,,,8355VA,Giethoorn,Steenwijkerland,Overijssel,VBO,6.052926,52.751026
Jan van Nassauweg,11,,,8355VA,Giethoorn,Steenwijkerland,Overijssel,VBO,6.052041,52.753278
Jan van Nassauweg,12,,,8355VA,Giethoorn,Steenwijkerland,Overijssel,VBO,6.053068,52.754584
Jan van Nassauweg,13,,,8355VA,Giethoorn,Steenwijkerland,Overijssel,VBO,6.052212,52.758678
Jan van Nassauweg,14,a,,8355VA,Giethoorn,Steenwijkerland,Overijssel,VBO,6.053292,52.760532
Jan van Nassauweg,14,,,8355VA,Giethoorn,Steenwijkerland,Overijssel,VBO,6.053226,52.758142
Jan van Nassauweg,15,t,,8355VA,Giethoorn,Steenwijkerland,Overijssel,VBO,6.052821,52.763182
Jan van Nassauweg,15,,,8355VA,Giethoorn,Steenwijkerland,Overijssel,VBO,6.052401,52.763278
Jan van Nassauweg,16,,,8355VA,Giethoorn,Steenwijkerland,Overijssel,VBO,6.053349,52.761341
Jan van Nassauweg,18,,,8355VA,Giethoorn,Steenwijkerland,Overijssel,VBO,6.053486,52.765492
Smalleweg,1,a,,8355VB,Giethoorn,Steenwijkerland,Overijssel,VBO,6.065906,52.756165
Smalleweg,1,t,,8355VB,Giethoorn,Steenwijkerland,Overijssel,VBO,6.065866,52.756554
Smalleweg,1,,,8355VB,Giethoorn,Steenwijkerland,Overijssel,VBO,6.046370,52.749409
Smalleweg,3,t,,8355VB,Giethoorn,Steenwijkerland,Overijssel,VBO,6.045202,52.750913
Smalleweg,3,,,8355VB,Giethoorn,Steenwijkerland,Overijssel,VBO,6.045112,52.750521
Smalleweg,5,,,8355VB,Giethoorn,Steenwijkerland,Overijssel,VBO,6.043959,52.751651
Smalleweg,7,,,8355VB,Giethoorn,Steenwijkerland,Overijssel,VBO,6.042647,52.753051
Smalleweg,9,t,,8355VB,Giethoorn,Steenwijkerland,Overijssel,VBO,6.041271,52.755078
Smalleweg,9,,,8355VB,Giethoorn,Steenwijkerland,Overijssel,VBO,6.041059,52.754785
Oeverweg,1,a,,8355VC,Giethoorn,Steenwijkerland,Overijssel,VBO,6.004407,52.740937
Oeverweg,1,,,8355VC,Giethoorn,Steenwijkerland,Overijssel,VBO,6.003984,52.741152
Oeverweg,2,a,,8355VC,Giethoorn,Steenwijkerland,Overijssel,VBO,6.010757,52.735311
Oeverweg,2,,,8355VC,Giethoorn,Steenwijkerland,Overijssel,VBO,6.011166,52.734959
Oeverweg,4,t,,8355VC,Giethoorn,Steenwijkerland,Overijssel,VBO,6.009806,52.736098
Oeverweg,4,,,8355VC,Giethoorn,Steenwijkerland,Overijssel,VBO,6.008980,52.737840
Oeverweg,6,,,8355VC,Giethoorn,Steenwijkerland,Overijssel,VBO,6.006707,52.739979
Oeverweg,8,t,,8355VC,Giethoorn,Steenwijkerland,Overijssel,VBO,6.003298,52.744781
Oeverweg,8,,,8355VC,Giethoorn,Steenwijkerland,Overijssel,VBO,6.003602,52.744551
Kooiweg,1,,,8355VD,Giethoorn,Steenwijkerland,Overijssel,VBO,6.030308,52.738874
Kooiweg,2,,,8355VD,Giethoorn,Steenwijkerland,Overijssel,VBO,6.030748,52.739600
Kooiweg,3,t,,8355VD,Giethoorn,Steenwijkerland,Overijssel,VBO,6.028251,52.741501
Kooiweg,3,,,8355VD,Giethoorn,Steenwijkerland,Overijssel,VBO,6.029315,52.739769
Kooiweg,4,,,8355VD,Giethoorn,Steenwijkerland,Overijssel,VBO,6.029129,52.741226
Kooiweg,5,,,8355VD,Giethoorn,Steenwijkerland,Overijssel,VBO,6.027197,52.741821
Kooiweg,6,,,8355VD,Giethoorn,Steenwijkerland,Overijssel,VBO,6.027835,52.742860
Kooiweg,7,,,8355VD,Giethoorn,Steenwijkerland,Overijssel,VBO,6.026488,52.742939
Kooiweg,8,,,8355VD,Giethoorn,Steenwijkerland,Overijssel,VBO,6.025501,52.745290
Kooiweg,9,,,8355VD,Giethoorn,Steenwijkerland,Overijssel,VBO,6.025529,52.744193
Kooiweg,10,,,8355VD,Giethoorn,Steenwijkerland,Overijssel,VBO,6.024051,52.748461
Kooiweg,11,,,8355VD,Giethoorn,Steenwijkerland,Overijssel,VBO,6.024288,52.745431
Kooiweg,13,,,8355VD,Giethoorn,Steenwijkerland,Overijssel,VBO,6.023680,52.746342
Kooiweg,15,,,8355VD,Giethoorn,Steenwijkerland,Overijssel,VBO,6.022793,52.748504
Thijssengracht,1,,,8355VE,Giethoorn,Steenwijkerland,Overijssel,VBO,6.064146,52.741949
Kapelweg,1,,,8355VG,Giethoorn,Steenwijkerland,Overijssel,VBO,6.064282,52.740240
Kapelweg,3,,,8355VG,Giethoorn,Steenwijkerland,Overijssel,VBO,6.057751,52.740010
Kanaaldijk,1,t,,8355VH,Giethoorn,Steenwijkerland,Overijssel,VBO,6.085395,52.771520
Kanaaldijk,1,,,8355VH,Giethoorn,Steenwijkerland,Overijssel,VBO,6.085460,52.772022
Kanaaldijk,2,a,,8355VH,Giethoorn,Steenwijkerland,Overijssel,VBO,6.084331,52.769590
Kanaaldijk,2,,,8355VH,Giethoorn,Steenwijkerland,Overijssel,VBO,6.083764,52.768806
Kanaaldijk,3,,,8355VH,Giethoorn,Steenwijkerland,Overijssel,VBO,6.082823,52.766502
Kanaaldijk,4,a,,8355VH,Giethoorn,Steenwijkerland,Overijssel,VBO,6.082646,52.765604
Kanaaldijk,4,,,8355VH,Giethoorn,Steenwijkerland,Overijssel,VBO,6.082739,52.765873
Kanaaldijk,5,,,8355VH,Giethoorn,Steenwijkerland,Overijssel,VBO,6.081145,52.762512
Kanaaldijk,6,,,8355VH,Giethoorn,Steenwijkerland,Overijssel,VBO,6.080479,52.760665
Kanaaldijk,7,,,8355VH,Giethoorn,Steenwijkerland,Overijssel,VBO,6.078140,52.755133
Kanaaldijk,8,,,8355VH,Giethoorn,Steenwijkerland,Overijssel,VBO,6.078015,52.753818
Kanaaldijk,9,t,,8355VH,Giethoorn,Steenwijkerland,Overijssel,VBO,6.077106,52.748863
Kanaaldijk,9,,,8355VH,Giethoorn,Steenwijkerland,Overijssel,VBO,6.076931,52.749883
Kanaaldijk,10,,,8355VH,Giethoorn,Steenwijkerland,Overijssel,VBO,6.075985,52.746213
Kanaaldijk,11,,,8355VJ,Giethoorn,Steenwijkerland,Overijssel,VBO,6.075482,52.742495
Kanaaldijk,12,a,,8355VJ,Giethoorn,Steenwijkerland,Overijssel,VBO,6.074366,52.736687
Kanaaldijk,12,,,8355VJ,Giethoorn,Steenwijkerland,Overijssel,VBO,6.074161,52.738476
Kanaaldijk,13,a,,8355VJ,Giethoorn,Steenwijkerland,Overijssel,VBO,6.075755,52.733470
Kanaaldijk,13,,,8355VJ,Giethoorn,Steenwijkerland,Overijssel,VBO,6.074599,52.736209
Kanaaldijk,14,,,8355VJ,Giethoorn,Steenwijkerland,Overijssel,VBO,6.075700,52.732761
Kanaaldijk,15,,,8355VJ,Giethoorn,Steenwijkerland,Overijssel,VBO,6.076268,52.732182
Kanaaldijk,16,,,8355VJ,Giethoorn,Steenwijkerland,Overijssel,VBO,6.076176,52.731023
Kanaaldijk,17,,,8355VJ,Giethoorn,Steenwijkerland,Overijssel,VBO,6.076152,52.728561
Kanaaldijk,18,,,8355VJ,Giethoorn,Steenwijkerland,Overijssel,VBO,6.076107,52.726647
Kanaaldijk,19,,,8355VJ,Giethoorn,Steenwijkerland,Overijssel,VBO,6.076229,52.725918
Kanaaldijk,20,,,8355VJ,Giethoorn,Steenwijkerland,Overijssel,VBO,6.076253,52.725595
Kanaaldijk,21,,,8355VJ,Giethoorn,Steenwijkerland,Overijssel,VBO,6.076252,52.725478
Kanaaldijk,22,,,8355VJ,Giethoorn,Steenwijkerland,Overijssel,VBO,6.076274,52.725028
Kanaaldijk,23,a,,8355VJ,Giethoorn,Steenwijkerland,Overijssel,VBO,6.076298,52.724687
Kanaaldijk,23,,,8355VJ,Giethoorn,Steenwijkerland,Overijssel,VBO,6.076287,52.724885
Kanaaldijk,24,,,8355VJ,Giethoorn,Steenwijkerland,Overijssel,VBO,6.076318,52.724049
Kanaaldijk,25,,,8355VJ,Giethoorn,Steenwijkerland,Overijssel,VBO,6.076401,52.723698
Kikkerij,1,,,8355VK,Giethoorn,Steenwijkerland,Overijssel,VBO,5.999956,52.744310
