openbareruimtenaam,huisnummer,huisletter,huisnummertoevoeging,postcode,woonplaatsnaam,gemeentenaam,provincienaam,typeadresseerbaarobject,longitude,latitude
J. Polstraat,1,,,8384DA,Wilhelminaoord,Westerveld,Drenthe,VBO,6.160265,52.856946
J. Polstraat,2,,,8384DA,Wilhelminaoord,Westerveld,Drenthe,VBO,6.160243,52.857386
J. Polstraat,3,,,8384DA,Wilhelminaoord,Westerveld,Drenthe,VBO,6.160175,52.856910
J. Polstraat,4,,,8384DA,Wilhelminaoord,Westerveld,Drenthe,VBO,6.160122,52.857216
J. Polstraat,5,,,8384DA,Wilhelminaoord,Westerveld,Drenthe,VBO,6.160011,52.856848
J. Polstraat,7,,,8384DA,Wilhelminaoord,Westerveld,Drenthe,VBO,6.159936,52.856813
J. Polstraat,9,,,8384DA,Wilhelminaoord,Westerveld,Drenthe,VBO,6.159786,52.856724
J. Polstraat,11,,,8384DA,Wilhelminaoord,Westerveld,Drenthe,VBO,6.159711,52.856688
Job van der Havestraat,2,a,,8384DB,Wilhelminaoord,Westerveld,Drenthe,VBO,6.158556,52.857667
Job van der Havestraat,2,,,8384DB,Wilhelminaoord,Westerveld,Drenthe,VBO,6.158659,52.857648
Job van der Havestraat,3,,,8384DB,Wilhelminaoord,Westerveld,Drenthe,VBO,6.159253,52.857662
Job van der Havestraat,4,,,8384DB,Wilhelminaoord,Westerveld,Drenthe,VBO,6.158424,52.857775
Job van der Havestraat,5,,,8384DB,Wilhelminaoord,Westerveld,Drenthe,VBO,6.159119,52.857609
Job van der Havestraat,6,,,8384DB,Wilhelminaoord,Westerveld,Drenthe,VBO,6.158350,52.857794
Job van der Havestraat,7,a,,8384DB,Wilhelminaoord,Westerveld,Drenthe,VBO,6.158923,52.857439
Job van der Havestraat,7,,,8384DB,Wilhelminaoord,Westerveld,Drenthe,VBO,6.159028,52.857502
Job van der Havestraat,8,,,8384DB,Wilhelminaoord,Westerveld,Drenthe,VBO,6.158203,52.857885
Job van der Havestraat,9,,,8384DB,Wilhelminaoord,Westerveld,Drenthe,VBO,6.158196,52.857498
Job van der Havestraat,10,,,8384DB,Wilhelminaoord,Westerveld,Drenthe,VBO,6.157904,52.857770
Job van der Havestraat,11,,,8384DB,Wilhelminaoord,Westerveld,Drenthe,VBO,6.158123,52.857544
Job van der Havestraat,12,,,8384DB,Wilhelminaoord,Westerveld,Drenthe,VBO,6.157680,52.857681
Job van der Havestraat,13,,,8384DB,Wilhelminaoord,Westerveld,Drenthe,VBO,6.157913,52.857419
Job van der Havestraat,14,,,8384DB,Wilhelminaoord,Westerveld,Drenthe,VBO,6.157320,52.857468
Job van der Havestraat,15,,,8384DB,Wilhelminaoord,Westerveld,Drenthe,VBO,6.157853,52.857392
Job van der Havestraat,16,,,8384DB,Wilhelminaoord,Westerveld,Drenthe,VBO,6.157525,52.857332
J.H. van Woldastraat,2,,,8384DC,Wilhelminaoord,Westerveld,Drenthe,VBO,6.158471,52.857092
J.H. van Woldastraat,3,,,8384DC,Wilhelminaoord,Westerveld,Drenthe,VBO,6.159203,52.857303
J.H. van Woldastraat,4,,,8384DC,Wilhelminaoord,Westerveld,Drenthe,VBO,6.158546,52.857127
J.H. van Woldastraat,5,,,8384DC,Wilhelminaoord,Westerveld,Drenthe,VBO,6.159526,52.857139
J.H. van Woldastraat,6,,,8384DC,Wilhelminaoord,Westerveld,Drenthe,VBO,6.158696,52.857198
J.H. van Woldastraat,7,,,8384DC,Wilhelminaoord,Westerveld,Drenthe,VBO,6.159629,52.857093
J.H. van Woldastraat,8,,,8384DC,Wilhelminaoord,Westerveld,Drenthe,VBO,6.158771,52.857234
J.H. van Woldastraat,10,,,8384DC,Wilhelminaoord,Westerveld,Drenthe,VBO,6.159051,52.857115
J.H. van Woldastraat,12,,,8384DC,Wilhelminaoord,Westerveld,Drenthe,VBO,6.159094,52.857070
J.H. van Woldastraat,14,,,8384DC,Wilhelminaoord,Westerveld,Drenthe,VBO,6.159257,52.857015
J.H. van Woldastraat,16,,,8384DC,Wilhelminaoord,Westerveld,Drenthe,VBO,6.159301,52.856979
J.H. van Woldastraat,18,,,8384DC,Wilhelminaoord,Westerveld,Drenthe,VBO,6.159418,52.856888
J.H. van Woldastraat,20,,,8384DC,Wilhelminaoord,Westerveld,Drenthe,VBO,6.159462,52.856843
Dirk de Ruiterpad,2,,,8384DD,Wilhelminaoord,Westerveld,Drenthe,VBO,6.158091,52.856135
Dirk de Ruiterpad,4,,,8384DD,Wilhelminaoord,Westerveld,Drenthe,VBO,6.156305,52.855470
M.A. van Naamen van Eemneslaan,1,,,8384EA,Wilhelminaoord,Westerveld,Drenthe,VBO,6.148689,52.866600
M.A. van Naamen van Eemneslaan,2,a,,8384EA,Wilhelminaoord,Westerveld,Drenthe,VBO,6.148798,52.865832
M.A. van Naamen van Eemneslaan,2,b,,8384EA,Wilhelminaoord,Westerveld,Drenthe,VBO,6.147288,52.866083
M.A. van Naamen van Eemneslaan,2,,,8384EA,Wilhelminaoord,Westerveld,Drenthe,VBO,6.148078,52.866460
M.A. van Naamen van Eemneslaan,3,b,,8384EA,Wilhelminaoord,Westerveld,Drenthe,VBO,6.151477,52.864407
M.A. van Naamen van Eemneslaan,3,,,8384EA,Wilhelminaoord,Westerveld,Drenthe,VBO,6.149538,52.865894
M.A. van Naamen van Eemneslaan,4,,,8384EA,Wilhelminaoord,Westerveld,Drenthe,VBO,6.149924,52.865001
M.A. van Naamen van Eemneslaan,5,a,,8384EA,Wilhelminaoord,Westerveld,Drenthe,VBO,6.153540,52.864074
M.A. van Naamen van Eemneslaan,5,,,8384EA,Wilhelminaoord,Westerveld,Drenthe,VBO,6.152114,52.863738
M.A. van Naamen van Eemneslaan,6,a,,8384EA,Wilhelminaoord,Westerveld,Drenthe,VBO,6.151782,52.863417
M.A. van Naamen van Eemneslaan,6,,,8384EA,Wilhelminaoord,Westerveld,Drenthe,VBO,6.150802,52.864250
M.A. van Naamen van Eemneslaan,7,,,8384EA,Wilhelminaoord,Westerveld,Drenthe,VBO,6.153153,52.862860
M.A. van Naamen van Eemneslaan,8,,,8384EA,Wilhelminaoord,Westerveld,Drenthe,VBO,6.152514,52.862828
M.A. van Naamen van Eemneslaan,9,,,8384EA,Wilhelminaoord,Westerveld,Drenthe,VBO,6.154251,52.861963
M.A. van Naamen van Eemneslaan,10,,,8384EA,Wilhelminaoord,Westerveld,Drenthe,VBO,6.153363,52.862122
M.A. van Naamen van Eemneslaan,11,a,,8384EA,Wilhelminaoord,Westerveld,Drenthe,VBO,6.157409,52.859432
M.A. van Naamen van Eemneslaan,11,b,,8384EA,Wilhelminaoord,Westerveld,Drenthe,VBO,6.158081,52.859032
M.A. van Naamen van Eemneslaan,11,d,,8384EA,Wilhelminaoord,Westerveld,Drenthe,VBO,6.160142,52.857967
M.A. van Naamen van Eemneslaan,11,e,,8384EA,Wilhelminaoord,Westerveld,Drenthe,VBO,6.160467,52.857755
M.A. van Naamen van Eemneslaan,11,,,8384EA,Wilhelminaoord,Westerveld,Drenthe,VBO,6.156417,52.860179
M.A. van Naamen van Eemneslaan,12,a,,8384EA,Wilhelminaoord,Westerveld,Drenthe,VBO,6.154494,52.860578
M.A. van Naamen van Eemneslaan,12,b,,8384EA,Wilhelminaoord,Westerveld,Drenthe,VBO,6.154942,52.860204
M.A. van Naamen van Eemneslaan,12,,,8384EA,Wilhelminaoord,Westerveld,Drenthe,VBO,6.154226,52.861397
M.A. van Naamen van Eemneslaan,13,a,,8384EA,Wilhelminaoord,Westerveld,Drenthe,VBO,6.160964,52.857460
M.A. van Naamen van Eemneslaan,13,,,8384EA,Wilhelminaoord,Westerveld,Drenthe,VBO,6.160648,52.857608
M.A. van Naamen van Eemneslaan,14,,,8384EA,Wilhelminaoord,Westerveld,Drenthe,VBO,6.155924,52.859966
M.A. van Naamen van Eemneslaan,15,,,8384EA,Wilhelminaoord,Westerveld,Drenthe,VBO,6.161356,52.857361
M.A. van Naamen van Eemneslaan,16,,,8384EA,Wilhelminaoord,Westerveld,Drenthe,VBO,6.156787,52.859242
M.A. van Naamen van Eemneslaan,18,,,8384EA,Wilhelminaoord,Westerveld,Drenthe,VBO,6.157740,52.858588
M.A. van Naamen van Eemneslaan,20,a,,8384EA,Wilhelminaoord,Westerveld,Drenthe,VBO,6.159433,52.857769
M.A. van Naamen van Eemneslaan,20,b,,8384EA,Wilhelminaoord,Westerveld,Drenthe,VBO,6.158722,52.858087
M.A. van Naamen van Eemneslaan,20,,,8384EA,Wilhelminaoord,Westerveld,Drenthe,VBO,6.158918,52.858024
M.A. van Naamen van Eemneslaan,22,,,8384EA,Wilhelminaoord,Westerveld,Drenthe,VBO,6.159934,52.857523
M.A. van Naamen van Eemneslaan,24,,,8384EA,Wilhelminaoord,Westerveld,Drenthe,VBO,6.160832,52.857077
M.A. van Naamen van Eemneslaan,26,,,8384EA,Wilhelminaoord,Westerveld,Drenthe,VBO,6.161420,52.856758
M.A. van Naamen van Eemneslaan,21,,,8384EB,Wilhelminaoord,Westerveld,Drenthe,VBO,6.162855,52.856497
M.A. van Naamen van Eemneslaan,23,,,8384EB,Wilhelminaoord,Westerveld,Drenthe,VBO,6.162929,52.856461
M.A. van Naamen van Eemneslaan,25,,,8384EB,Wilhelminaoord,Westerveld,Drenthe,VBO,6.163018,52.856424
M.A. van Naamen van Eemneslaan,27,,,8384EB,Wilhelminaoord,Westerveld,Drenthe,VBO,6.163076,52.856388
M.A. van Naamen van Eemneslaan,28,,,8384EB,Wilhelminaoord,Westerveld,Drenthe,VBO,6.162098,52.856502
M.A. van Naamen van Eemneslaan,29,,,8384EB,Wilhelminaoord,Westerveld,Drenthe,VBO,6.163269,52.856360
M.A. van Naamen van Eemneslaan,30,,,8384EB,Wilhelminaoord,Westerveld,Drenthe,VBO,6.162172,52.856466
M.A. van Naamen van Eemneslaan,31,,,8384EB,Wilhelminaoord,Westerveld,Drenthe,VBO,6.163342,52.856323
M.A. van Naamen van Eemneslaan,32,,,8384EB,Wilhelminaoord,Westerveld,Drenthe,VBO,6.162246,52.856429
M.A. van Naamen van Eemneslaan,33,,,8384EB,Wilhelminaoord,Westerveld,Drenthe,VBO,6.163431,52.856287
M.A. van Naamen van Eemneslaan,34,,,8384EB,Wilhelminaoord,Westerveld,Drenthe,VBO,6.162304,52.856402
M.A. van Naamen van Eemneslaan,35,,,8384EB,Wilhelminaoord,Westerveld,Drenthe,VBO,6.163490,52.856251
M.A. van Naamen van Eemneslaan,36,,,8384EB,Wilhelminaoord,Westerveld,Drenthe,VBO,6.162452,52.856329
M.A. van Naamen van Eemneslaan,37,,,8384EB,Wilhelminaoord,Westerveld,Drenthe,VBO,6.163592,52.856160
M.A. van Naamen van Eemneslaan,38,,,8384EB,Wilhelminaoord,Westerveld,Drenthe,VBO,6.162525,52.856293
M.A. van Naamen van Eemneslaan,39,,,8384EB,Wilhelminaoord,Westerveld,Drenthe,VBO,6.163665,52.856115
M.A. van Naamen van Eemneslaan,40,,,8384EB,Wilhelminaoord,Westerveld,Drenthe,VBO,6.162599,52.856247
M.A. van Naamen van Eemneslaan,41,,,8384EB,Wilhelminaoord,Westerveld,Drenthe,VBO,6.163739,52.856078
M.A. van Naamen van Eemneslaan,42,,,8384EB,Wilhelminaoord,Westerveld,Drenthe,VBO,6.162672,52.856220
M.A. van Naamen van Eemneslaan,43,,,8384EB,Wilhelminaoord,Westerveld,Drenthe,VBO,6.163813,52.856051
M.A. van Naamen van Eemneslaan,44,,,8384EC,Wilhelminaoord,Westerveld,Drenthe,VBO,6.163392,52.855784
M.A. van Naamen van Eemneslaan,45,,,8384EC,Wilhelminaoord,Westerveld,Drenthe,VBO,6.164577,52.855632
M.A. van Naamen van Eemneslaan,46,,,8384EC,Wilhelminaoord,Westerveld,Drenthe,VBO,6.163466,52.855774
M.A. van Naamen van Eemneslaan,47,,,8384EC,Wilhelminaoord,Westerveld,Drenthe,VBO,6.164622,52.855668
M.A. van Naamen van Eemneslaan,48,,,8384EC,Wilhelminaoord,Westerveld,Drenthe,VBO,6.163643,52.855692
M.A. van Naamen van Eemneslaan,49,,,8384EC,Wilhelminaoord,Westerveld,Drenthe,VBO,6.164711,52.855623
M.A. van Naamen van Eemneslaan,50,,,8384EC,Wilhelminaoord,Westerveld,Drenthe,VBO,6.163717,52.855665
M.A. van Naamen van Eemneslaan,51,,,8384EC,Wilhelminaoord,Westerveld,Drenthe,VBO,6.164665,52.855587
M.A. van Naamen van Eemneslaan,52,,,8384EC,Wilhelminaoord,Westerveld,Drenthe,VBO,6.163818,52.855494
M.A. van Naamen van Eemneslaan,53,,,8384EC,Wilhelminaoord,Westerveld,Drenthe,VBO,6.164886,52.855478
M.A. van Naamen van Eemneslaan,54,,,8384EC,Wilhelminaoord,Westerveld,Drenthe,VBO,6.164113,52.855411
M.A. van Naamen van Eemneslaan,55,,,8384EC,Wilhelminaoord,Westerveld,Drenthe,VBO,6.165034,52.855414
M.A. van Naamen van Eemneslaan,56,,,8384EC,Wilhelminaoord,Westerveld,Drenthe,VBO,6.164363,52.855292
M.A. van Naamen van Eemneslaan,58,,,8384EC,Wilhelminaoord,Westerveld,Drenthe,VBO,6.164762,52.855146
M.A. van Naamen van Eemneslaan,60,,,8384EC,Wilhelminaoord,Westerveld,Drenthe,VBO,6.164938,52.855064
M.A. van Naamen van Eemneslaan,61,,,8384EC,Wilhelminaoord,Westerveld,Drenthe,VBO,6.165269,52.855277
M.A. van Naamen van Eemneslaan,62,,,8384EC,Wilhelminaoord,Westerveld,Drenthe,VBO,6.165144,52.854955
Linthorst Homanstraat,1,,,8384ED,Wilhelminaoord,Westerveld,Drenthe,VBO,6.166000,52.857160
Linthorst Homanstraat,3,,,8384EE,Wilhelminaoord,Westerveld,Drenthe,VBO,6.165847,52.856064
Linthorst Homanstraat,5,,,8384EE,Wilhelminaoord,Westerveld,Drenthe,VBO,6.165962,52.855848
Linthorst Homanstraat,7,,,8384EE,Wilhelminaoord,Westerveld,Drenthe,VBO,6.165634,52.855778
Linthorst Homanstraat,9,,,8384EE,Wilhelminaoord,Westerveld,Drenthe,VBO,6.165794,52.855606
Linthorst Homanstraat,11,,,8384EE,Wilhelminaoord,Westerveld,Drenthe,VBO,6.165481,52.855546
Linthorst Homanstraat,13,a,,8384EE,Wilhelminaoord,Westerveld,Drenthe,VBO,6.165200,52.854775
Linthorst Homanstraat,13,,,8384EE,Wilhelminaoord,Westerveld,Drenthe,VBO,6.165641,52.855356
Linthorst Homanstraat,14,,,8384EE,Wilhelminaoord,Westerveld,Drenthe,VBO,6.167308,52.856387
Linthorst Homanstraat,15,,,8384EE,Wilhelminaoord,Westerveld,Drenthe,VBO,6.165079,52.854641
Linthorst Homanstraat,18,,,8384EE,Wilhelminaoord,Westerveld,Drenthe,VBO,6.167255,52.855642
Linthorst Homanstraat,20,,,8384EE,Wilhelminaoord,Westerveld,Drenthe,VBO,6.166556,52.855844
Linthorst Homanstraat,22,,,8384EE,Wilhelminaoord,Westerveld,Drenthe,VBO,6.166833,52.855582
Linthorst Homanstraat,24,,,8384EE,Wilhelminaoord,Westerveld,Drenthe,VBO,6.166275,52.855109
Linthorst Homanstraat,17,,,8384EG,Wilhelminaoord,Westerveld,Drenthe,VBO,6.165047,52.854479
Linthorst Homanstraat,19,,,8384EG,Wilhelminaoord,Westerveld,Drenthe,VBO,6.164940,52.854327
Linthorst Homanstraat,21,,,8384EG,Wilhelminaoord,Westerveld,Drenthe,VBO,6.164833,52.854166
Linthorst Homanstraat,23,,,8384EG,Wilhelminaoord,Westerveld,Drenthe,VBO,6.164666,52.853924
Linthorst Homanstraat,25,,,8384EG,Wilhelminaoord,Westerveld,Drenthe,VBO,6.164650,52.853870
Linthorst Homanstraat,26,,,8384EG,Wilhelminaoord,Westerveld,Drenthe,VBO,6.165703,52.854654
Linthorst Homanstraat,27,,,8384EG,Wilhelminaoord,Westerveld,Drenthe,VBO,6.164573,52.853745
Linthorst Homanstraat,28,,,8384EG,Wilhelminaoord,Westerveld,Drenthe,VBO,6.165672,52.854592
Linthorst Homanstraat,29,,,8384EG,Wilhelminaoord,Westerveld,Drenthe,VBO,6.164543,52.853691
Linthorst Homanstraat,30,,,8384EG,Wilhelminaoord,Westerveld,Drenthe,VBO,6.165581,52.854449
Linthorst Homanstraat,32,,,8384EG,Wilhelminaoord,Westerveld,Drenthe,VBO,6.165505,52.854350
Linthorst Homanstraat,34,,,8384EG,Wilhelminaoord,Westerveld,Drenthe,VBO,6.165474,52.854287
Linthorst Homanstraat,36,,,8384EG,Wilhelminaoord,Westerveld,Drenthe,VBO,6.165397,52.854162
Linthorst Homanstraat,38,,,8384EG,Wilhelminaoord,Westerveld,Drenthe,VBO,6.165352,52.854109
Linthorst Homanstraat,40,,,8384EG,Wilhelminaoord,Westerveld,Drenthe,VBO,6.165290,52.853974
Linthorst Homanstraat,42,,,8384EG,Wilhelminaoord,Westerveld,Drenthe,VBO,6.165259,52.853920
Linthorst Homanstraat,44,,,8384EG,Wilhelminaoord,Westerveld,Drenthe,VBO,6.165168,52.853795
Linthorst Homanstraat,46,,,8384EG,Wilhelminaoord,Westerveld,Drenthe,VBO,6.165137,52.853741
Linthorst Homanstraat,48,,,8384EG,Wilhelminaoord,Westerveld,Drenthe,VBO,6.165046,52.853607
Linthorst Homanstraat,50,,,8384EG,Wilhelminaoord,Westerveld,Drenthe,VBO,6.165015,52.853554
Vaartweg,1,,,8384EH,Wilhelminaoord,Westerveld,Drenthe,VBO,6.165470,52.858233
Vaartweg,3,,,8384EH,Wilhelminaoord,Westerveld,Drenthe,VBO,6.165397,52.858208
Vaartweg,5,,,8384EH,Wilhelminaoord,Westerveld,Drenthe,VBO,6.165344,52.858183
Vaartweg,6,,,8384EH,Wilhelminaoord,Westerveld,Drenthe,VBO,6.159046,52.855624
Vaartweg,7,,,8384EH,Wilhelminaoord,Westerveld,Drenthe,VBO,6.165276,52.858171
Vaartweg,8,,,8384EH,Wilhelminaoord,Westerveld,Drenthe,VBO,6.160193,52.854902
Vaartweg,9,,,8384EH,Wilhelminaoord,Westerveld,Drenthe,VBO,6.165216,52.858136
Vaartweg,12,,,8384EH,Wilhelminaoord,Westerveld,Drenthe,VBO,6.162375,52.853706
Vaartweg,20,,,8384EH,Wilhelminaoord,Westerveld,Drenthe,VBO,6.163587,52.853401
Vaartweg,22,,,8384EH,Wilhelminaoord,Westerveld,Drenthe,VBO,6.164297,52.853217
van Holthe tot Echtenstraat,1,,,8384EJ,Wilhelminaoord,Westerveld,Drenthe,VBO,6.164315,52.854268
van Holthe tot Echtenstraat,2,,,8384EJ,Wilhelminaoord,Westerveld,Drenthe,VBO,6.164252,52.854026
van Holthe tot Echtenstraat,4,,,8384EJ,Wilhelminaoord,Westerveld,Drenthe,VBO,6.164178,52.854035
van Holthe tot Echtenstraat,6,,,8384EJ,Wilhelminaoord,Westerveld,Drenthe,VBO,6.163971,52.854091
van Holthe tot Echtenstraat,8,,,8384EJ,Wilhelminaoord,Westerveld,Drenthe,VBO,6.163882,52.854109
van Holthe tot Echtenstraat,10,,,8384EJ,Wilhelminaoord,Westerveld,Drenthe,VBO,6.163690,52.854137
van Holthe tot Echtenstraat,12,,,8384EJ,Wilhelminaoord,Westerveld,Drenthe,VBO,6.163586,52.854156
van Holthe tot Echtenstraat,14,,,8384EJ,Wilhelminaoord,Westerveld,Drenthe,VBO,6.163394,52.854211
van Holthe tot Echtenstraat,16,,,8384EJ,Wilhelminaoord,Westerveld,Drenthe,VBO,6.163305,52.854221
van Holthe tot Echtenstraat,18,,,8384EJ,Wilhelminaoord,Westerveld,Drenthe,VBO,6.163098,52.854276
van Holthe tot Echtenstraat,20,,,8384EJ,Wilhelminaoord,Westerveld,Drenthe,VBO,6.163024,52.854285
van Holthe tot Echtenstraat,22,,,8384EJ,Wilhelminaoord,Westerveld,Drenthe,VBO,6.162817,52.854341
van Holthe tot Echtenstraat,24,,,8384EJ,Wilhelminaoord,Westerveld,Drenthe,VBO,6.162728,52.854359
van Holthe tot Echtenstraat,26,,,8384EJ,Wilhelminaoord,Westerveld,Drenthe,VBO,6.162506,52.854379
van Holthe tot Echtenstraat,28,,,8384EJ,Wilhelminaoord,Westerveld,Drenthe,VBO,6.162417,52.854397
van Holthe tot Echtenstraat,38,,,8384EK,Wilhelminaoord,Westerveld,Drenthe,VBO,6.162232,52.854803
van Holthe tot Echtenstraat,40,,,8384EK,Wilhelminaoord,Westerveld,Drenthe,VBO,6.162262,52.854848
van Holthe tot Echtenstraat,42,,,8384EK,Wilhelminaoord,Westerveld,Drenthe,VBO,6.162339,52.854982
van Holthe tot Echtenstraat,44,,,8384EK,Wilhelminaoord,Westerveld,Drenthe,VBO,6.162369,52.855027
van Holthe tot Echtenstraat,46,,,8384EK,Wilhelminaoord,Westerveld,Drenthe,VBO,6.162461,52.855161
van Holthe tot Echtenstraat,48,,,8384EK,Wilhelminaoord,Westerveld,Drenthe,VBO,6.162491,52.855197
van Holthe tot Echtenstraat,50,,,8384EK,Wilhelminaoord,Westerveld,Drenthe,VBO,6.162597,52.855304
van Holthe tot Echtenstraat,52,,,8384EK,Wilhelminaoord,Westerveld,Drenthe,VBO,6.162612,52.855349
van Holthe tot Echtenstraat,54,,,8384EK,Wilhelminaoord,Westerveld,Drenthe,VBO,6.162689,52.855456
van Holthe tot Echtenstraat,56,,,8384EK,Wilhelminaoord,Westerveld,Drenthe,VBO,6.162704,52.855510
van Holthe tot Echtenstraat,58,,,8384EK,Wilhelminaoord,Westerveld,Drenthe,VBO,6.162780,52.855617
van Holthe tot Echtenstraat,60,,,8384EK,Wilhelminaoord,Westerveld,Drenthe,VBO,6.162826,52.855680
van Holthe tot Echtenstraat,62,,,8384EK,Wilhelminaoord,Westerveld,Drenthe,VBO,6.162887,52.855778
van Holthe tot Echtenstraat,64,,,8384EK,Wilhelminaoord,Westerveld,Drenthe,VBO,6.162918,52.855832
van Holthe tot Echtenstraat,66,,,8384EK,Wilhelminaoord,Westerveld,Drenthe,VBO,6.162994,52.855939
van Holthe tot Echtenstraat,68,,,8384EK,Wilhelminaoord,Westerveld,Drenthe,VBO,6.163025,52.855993
Kooimanstraat,1,,,8384EL,Wilhelminaoord,Westerveld,Drenthe,VBO,6.163174,52.855438
Kooimanstraat,3,,,8384EL,Wilhelminaoord,Westerveld,Drenthe,VBO,6.163251,52.855397
Kooimanstraat,5,,,8384EL,Wilhelminaoord,Westerveld,Drenthe,VBO,6.163402,52.855319
Kooimanstraat,7,,,8384EL,Wilhelminaoord,Westerveld,Drenthe,VBO,6.163470,52.855283
Kooimanstraat,9,,,8384EL,Wilhelminaoord,Westerveld,Drenthe,VBO,6.163533,52.855248
Kooimanstraat,11,,,8384EL,Wilhelminaoord,Westerveld,Drenthe,VBO,6.163595,52.855215
Kooimanstraat,13,t,,8384EL,Wilhelminaoord,Westerveld,Drenthe,VBO,6.164842,52.854809
Kooimanstraat,13,,,8384EL,Wilhelminaoord,Westerveld,Drenthe,VBO,6.163747,52.855137
Kooimanstraat,15,,,8384EL,Wilhelminaoord,Westerveld,Drenthe,VBO,6.163827,52.855095
Kooimanstraat,17,,,8384EL,Wilhelminaoord,Westerveld,Drenthe,VBO,6.163998,52.855021
Kooimanstraat,19,,,8384EL,Wilhelminaoord,Westerveld,Drenthe,VBO,6.164070,52.854979
Kooimanstraat,21,,,8384EL,Wilhelminaoord,Westerveld,Drenthe,VBO,6.164454,52.854883
Kooimanstraat,23,,,8384EL,Wilhelminaoord,Westerveld,Drenthe,VBO,6.164411,52.854830
Kooimanstraat,25,,,8384EL,Wilhelminaoord,Westerveld,Drenthe,VBO,6.164283,52.854683
Kooimanstraat,27,,,8384EL,Wilhelminaoord,Westerveld,Drenthe,VBO,6.164253,52.854634
Kooimanstraat,29,,,8384EL,Wilhelminaoord,Westerveld,Drenthe,VBO,6.164221,52.854582
Kooimanstraat,31,,,8384EL,Wilhelminaoord,Westerveld,Drenthe,VBO,6.164186,52.854520
Kooimanstraat,33,,,8384EL,Wilhelminaoord,Westerveld,Drenthe,VBO,6.164037,52.854381
Kooimanstraat,35,,,8384EL,Wilhelminaoord,Westerveld,Drenthe,VBO,6.164000,52.854321
Schumerstraat,1,,,8384EM,Wilhelminaoord,Westerveld,Drenthe,VBO,6.161277,52.856247
Schumerstraat,2,,,8384EM,Wilhelminaoord,Westerveld,Drenthe,VBO,6.161449,52.855895
Schumerstraat,3,,,8384EM,Wilhelminaoord,Westerveld,Drenthe,VBO,6.161351,52.856211
Schumerstraat,4,,,8384EM,Wilhelminaoord,Westerveld,Drenthe,VBO,6.161389,52.855851
Schumerstraat,5,,,8384EM,Wilhelminaoord,Westerveld,Drenthe,VBO,6.161439,52.856174
Schumerstraat,6,,,8384EM,Wilhelminaoord,Westerveld,Drenthe,VBO,6.161314,52.855806
Schumerstraat,7,,,8384EM,Wilhelminaoord,Westerveld,Drenthe,VBO,6.161528,52.856146
Schumerstraat,8,a,,8384EM,Wilhelminaoord,Westerveld,Drenthe,VBO,6.161057,52.855756
Schumerstraat,8,b,,8384EM,Wilhelminaoord,Westerveld,Drenthe,VBO,6.161034,52.855736
Schumerstraat,8,c,,8384EM,Wilhelminaoord,Westerveld,Drenthe,VBO,6.161010,52.855717
Schumerstraat,8,d,,8384EM,Wilhelminaoord,Westerveld,Drenthe,VBO,6.160981,52.855697
Schumerstraat,8,e,,8384EM,Wilhelminaoord,Westerveld,Drenthe,VBO,6.160955,52.855680
Schumerstraat,8,f,,8384EM,Wilhelminaoord,Westerveld,Drenthe,VBO,6.160929,52.855660
Schumerstraat,8,g,,8384EM,Wilhelminaoord,Westerveld,Drenthe,VBO,6.160902,52.855639
Schumerstraat,8,,,8384EM,Wilhelminaoord,Westerveld,Drenthe,VBO,6.161269,52.855756
Schumerstraat,10,,,8384EM,Wilhelminaoord,Westerveld,Drenthe,VBO,6.161281,52.855609
Schumerstraat,12,,,8384EM,Wilhelminaoord,Westerveld,Drenthe,VBO,6.161354,52.855563
Schumerstraat,14,,,8384EM,Wilhelminaoord,Westerveld,Drenthe,VBO,6.161413,52.855536
Schumerstraat,16,,,8384EM,Wilhelminaoord,Westerveld,Drenthe,VBO,6.161487,52.855509
Schumerstraat,9,,,8384EN,Wilhelminaoord,Westerveld,Drenthe,VBO,6.161661,52.856092
Schumerstraat,11,,,8384EN,Wilhelminaoord,Westerveld,Drenthe,VBO,6.161734,52.856055
Schumerstraat,13,,,8384EN,Wilhelminaoord,Westerveld,Drenthe,VBO,6.161793,52.856019
Schumerstraat,15,,,8384EN,Wilhelminaoord,Westerveld,Drenthe,VBO,6.161866,52.855983
Schumerstraat,17,,,8384EN,Wilhelminaoord,Westerveld,Drenthe,VBO,6.161940,52.855946
Schumerstraat,19,a,,8384EN,Wilhelminaoord,Westerveld,Drenthe,VBO,6.162301,52.855688
Schumerstraat,19,b,,8384EN,Wilhelminaoord,Westerveld,Drenthe,VBO,6.162316,52.855717
Schumerstraat,19,c,,8384EN,Wilhelminaoord,Westerveld,Drenthe,VBO,6.162329,52.855744
Schumerstraat,19,d,,8384EN,Wilhelminaoord,Westerveld,Drenthe,VBO,6.162353,52.855768
Schumerstraat,19,e,,8384EN,Wilhelminaoord,Westerveld,Drenthe,VBO,6.162371,52.855796
Schumerstraat,19,f,,8384EN,Wilhelminaoord,Westerveld,Drenthe,VBO,6.162381,52.855822
Schumerstraat,19,g,,8384EN,Wilhelminaoord,Westerveld,Drenthe,VBO,6.162402,52.855846
Schumerstraat,19,h,,8384EN,Wilhelminaoord,Westerveld,Drenthe,VBO,6.162417,52.855872
Schumerstraat,19,i,,8384EN,Wilhelminaoord,Westerveld,Drenthe,VBO,6.162433,52.855902
Schumerstraat,19,j,,8384EN,Wilhelminaoord,Westerveld,Drenthe,VBO,6.162440,52.855926
Schumerstraat,19,k,,8384EN,Wilhelminaoord,Westerveld,Drenthe,VBO,6.162457,52.855955
Schumerstraat,19,,,8384EN,Wilhelminaoord,Westerveld,Drenthe,VBO,6.162014,52.855910
Schumerstraat,21,,,8384EN,Wilhelminaoord,Westerveld,Drenthe,VBO,6.162112,52.855612
Schumerstraat,23,,,8384EN,Wilhelminaoord,Westerveld,Drenthe,VBO,6.162052,52.855577
Schumerstraat,25,,,8384EN,Wilhelminaoord,Westerveld,Drenthe,VBO,6.161977,52.855523
Schumerstraat,27,,,8384EN,Wilhelminaoord,Westerveld,Drenthe,VBO,6.161932,52.855470
Schumerstraat,29,,,8384EN,Wilhelminaoord,Westerveld,Drenthe,VBO,6.161782,52.855399
Schumerstraat,31,,,8384EN,Wilhelminaoord,Westerveld,Drenthe,VBO,6.161722,52.855345
Schumerstraat,33,,,8384EN,Wilhelminaoord,Westerveld,Drenthe,VBO,6.161661,52.855301
Schumerstraat,35,,,8384EN,Wilhelminaoord,Westerveld,Drenthe,VBO,6.161601,52.855265
Schumerstraat,37,,,8384EN,Wilhelminaoord,Westerveld,Drenthe,VBO,6.161541,52.855221
Schumerstraat,39,,,8384EN,Wilhelminaoord,Westerveld,Drenthe,VBO,6.161481,52.855176
de Jongestraat,1,,,8384EP,Wilhelminaoord,Westerveld,Drenthe,VBO,6.161789,52.856630
de Jongestraat,3,,,8384EP,Wilhelminaoord,Westerveld,Drenthe,VBO,6.161729,52.856586
de Jongestraat,5,,,8384EP,Wilhelminaoord,Westerveld,Drenthe,VBO,6.161669,52.856541
de Jongestraat,7,,,8384EP,Wilhelminaoord,Westerveld,Drenthe,VBO,6.161608,52.856487
de Jongestraat,9,,,8384EP,Wilhelminaoord,Westerveld,Drenthe,VBO,6.161081,52.856051
de Jongestraat,11,,,8384EP,Wilhelminaoord,Westerveld,Drenthe,VBO,6.161021,52.856006
de Jongestraat,13,,,8384EP,Wilhelminaoord,Westerveld,Drenthe,VBO,6.160960,52.855961
de Jongestraat,15,,,8384EP,Wilhelminaoord,Westerveld,Drenthe,VBO,6.160900,52.855917
de Jongestraat,17,,,8384EP,Wilhelminaoord,Westerveld,Drenthe,VBO,6.160825,52.855863
de Jongestraat,19,,,8384EP,Wilhelminaoord,Westerveld,Drenthe,VBO,6.160765,52.855819
de Jongestraat,2,,,8384ER,Wilhelminaoord,Westerveld,Drenthe,VBO,6.161088,52.856482
de Jongestraat,4,,,8384ER,Wilhelminaoord,Westerveld,Drenthe,VBO,6.160999,52.856482
de Jongestraat,6,,,8384ER,Wilhelminaoord,Westerveld,Drenthe,VBO,6.160896,52.856492
de Jongestraat,8,,,8384ER,Wilhelminaoord,Westerveld,Drenthe,VBO,6.160792,52.856493
de Jongestraat,10,,,8384ER,Wilhelminaoord,Westerveld,Drenthe,VBO,6.160581,52.856359
de Jongestraat,12,,,8384ER,Wilhelminaoord,Westerveld,Drenthe,VBO,6.160492,52.856360
de Jongestraat,14,,,8384ER,Wilhelminaoord,Westerveld,Drenthe,VBO,6.160388,52.856361
de Jongestraat,16,,,8384ER,Wilhelminaoord,Westerveld,Drenthe,VBO,6.160285,52.856370
de Jongestraat,18,,,8384ER,Wilhelminaoord,Westerveld,Drenthe,VBO,6.160165,52.856290
de Jongestraat,20,,,8384ER,Wilhelminaoord,Westerveld,Drenthe,VBO,6.160104,52.856246
de Jongestraat,22,,,8384ER,Wilhelminaoord,Westerveld,Drenthe,VBO,6.160029,52.856183
de Jongestraat,24,,,8384ER,Wilhelminaoord,Westerveld,Drenthe,VBO,6.159984,52.856148
de Jongestraat,26,,,8384ER,Wilhelminaoord,Westerveld,Drenthe,VBO,6.159924,52.856112
de Jongestraat,28,,,8384ER,Wilhelminaoord,Westerveld,Drenthe,VBO,6.159863,52.856058
de Jongestraat,30,,,8384ER,Wilhelminaoord,Westerveld,Drenthe,VBO,6.160113,52.855895
de Jongestraat,32,,,8384ER,Wilhelminaoord,Westerveld,Drenthe,VBO,6.160157,52.855859
de Jongestraat,34,,,8384ER,Wilhelminaoord,Westerveld,Drenthe,VBO,6.160216,52.855822
de Jongestraat,36,,,8384ER,Wilhelminaoord,Westerveld,Drenthe,VBO,6.160289,52.855768
de Jongestraat,38,,,8384ER,Wilhelminaoord,Westerveld,Drenthe,VBO,6.160361,52.855669
de Jongestraat,40,,,8384ER,Wilhelminaoord,Westerveld,Drenthe,VBO,6.160435,52.855623
de Jongestraat,42,,,8384ER,Wilhelminaoord,Westerveld,Drenthe,VBO,6.160479,52.855587
de Jongestraat,44,,,8384ES,Wilhelminaoord,Westerveld,Drenthe,VBO,6.160582,52.855559
de Jongestraat,46,,,8384ES,Wilhelminaoord,Westerveld,Drenthe,VBO,6.160714,52.855478
de Jongestraat,48,,,8384ES,Wilhelminaoord,Westerveld,Drenthe,VBO,6.160788,52.855423
de Jongestraat,50,,,8384ES,Wilhelminaoord,Westerveld,Drenthe,VBO,6.160831,52.855378
de Jongestraat,52,,,8384ES,Wilhelminaoord,Westerveld,Drenthe,VBO,6.160905,52.855333
de Jongestraat,54,,,8384ES,Wilhelminaoord,Westerveld,Drenthe,VBO,6.161045,52.855200
de Jongestraat,56,,,8384ES,Wilhelminaoord,Westerveld,Drenthe,VBO,6.161108,52.855148
de Jongestraat,58,,,8384ES,Wilhelminaoord,Westerveld,Drenthe,VBO,6.161168,52.855097
de Jongestraat,60,,,8384ES,Wilhelminaoord,Westerveld,Drenthe,VBO,6.161219,52.855061
de Jongestraat,62,,,8384ES,Wilhelminaoord,Westerveld,Drenthe,VBO,6.161344,52.854979
de Jongestraat,64,,,8384ES,Wilhelminaoord,Westerveld,Drenthe,VBO,6.161373,52.854934
de Jongestraat,66,,,8384ES,Wilhelminaoord,Westerveld,Drenthe,VBO,6.161430,52.854881
de Jongestraat,68,,,8384ES,Wilhelminaoord,Westerveld,Drenthe,VBO,6.161478,52.854839
de Jongestraat,70,,,8384ES,Wilhelminaoord,Westerveld,Drenthe,VBO,6.161551,52.854791
de Jongestraat,72,,,8384ES,Wilhelminaoord,Westerveld,Drenthe,VBO,6.161601,52.854748
de Jongestraat,74,,,8384ES,Wilhelminaoord,Westerveld,Drenthe,VBO,6.161755,52.854707
de Jongestraat,76,,,8384ES,Wilhelminaoord,Westerveld,Drenthe,VBO,6.161813,52.854644
de Jongestraat,78,,,8384ES,Wilhelminaoord,Westerveld,Drenthe,VBO,6.161872,52.854598
de Jongestraat,80,,,8384ES,Wilhelminaoord,Westerveld,Drenthe,VBO,6.161931,52.854571
de Jongestraat,82,,,8384ES,Wilhelminaoord,Westerveld,Drenthe,VBO,6.161989,52.854535
de Jongestraat,84,,,8384ES,Wilhelminaoord,Westerveld,Drenthe,VBO,6.162033,52.854490
K.J.Blokstraat,1,,,8384ET,Wilhelminaoord,Westerveld,Drenthe,VBO,6.162197,52.857023
K.J.Blokstraat,2,,,8384ET,Wilhelminaoord,Westerveld,Drenthe,VBO,6.162561,52.856616
K.J.Blokstraat,3,,,8384ET,Wilhelminaoord,Westerveld,Drenthe,VBO,6.162572,52.857227
K.J.Blokstraat,4,,,8384ET,Wilhelminaoord,Westerveld,Drenthe,VBO,6.162636,52.856661
K.J.Blokstraat,5,,,8384ET,Wilhelminaoord,Westerveld,Drenthe,VBO,6.162796,52.857351
K.J.Blokstraat,6,,,8384ET,Wilhelminaoord,Westerveld,Drenthe,VBO,6.162711,52.856714
K.J.Blokstraat,7,,,8384ET,Wilhelminaoord,Westerveld,Drenthe,VBO,6.163066,52.857493
K.J.Blokstraat,8,,,8384ET,Wilhelminaoord,Westerveld,Drenthe,VBO,6.162756,52.856759
K.J.Blokstraat,9,,,8384ET,Wilhelminaoord,Westerveld,Drenthe,VBO,6.163348,52.857483
K.J.Blokstraat,10,,,8384ET,Wilhelminaoord,Westerveld,Drenthe,VBO,6.162832,52.856866
K.J.Blokstraat,11,,,8384ET,Wilhelminaoord,Westerveld,Drenthe,VBO,6.163423,52.857509
K.J.Blokstraat,12,,,8384ET,Wilhelminaoord,Westerveld,Drenthe,VBO,6.162878,52.856911
K.J.Blokstraat,13,,,8384ET,Wilhelminaoord,Westerveld,Drenthe,VBO,6.163661,52.857553
K.J.Blokstraat,14,,,8384ET,Wilhelminaoord,Westerveld,Drenthe,VBO,6.162953,52.856955
K.J.Blokstraat,15,,,8384ET,Wilhelminaoord,Westerveld,Drenthe,VBO,6.163751,52.857579
K.J.Blokstraat,16,,,8384ET,Wilhelminaoord,Westerveld,Drenthe,VBO,6.162998,52.857000
K.J.Blokstraat,17,,,8384ET,Wilhelminaoord,Westerveld,Drenthe,VBO,6.163894,52.857290
K.J.Blokstraat,18,,,8384ET,Wilhelminaoord,Westerveld,Drenthe,VBO,6.163223,52.857133
K.J.Blokstraat,19,,,8384ET,Wilhelminaoord,Westerveld,Drenthe,VBO,6.163922,52.857209
K.J.Blokstraat,20,,,8384ET,Wilhelminaoord,Westerveld,Drenthe,VBO,6.163297,52.857097
K.J.Blokstraat,21,,,8384ET,Wilhelminaoord,Westerveld,Drenthe,VBO,6.164038,52.857047
K.J.Blokstraat,22,,,8384ET,Wilhelminaoord,Westerveld,Drenthe,VBO,6.163370,52.857060
K.J.Blokstraat,23,,,8384ET,Wilhelminaoord,Westerveld,Drenthe,VBO,6.164081,52.856975
K.J.Blokstraat,24,,,8384ET,Wilhelminaoord,Westerveld,Drenthe,VBO,6.163444,52.857033
K.J.Blokstraat,25,,,8384ET,Wilhelminaoord,Westerveld,Drenthe,VBO,6.164213,52.856884
K.J.Blokstraat,27,,,8384ET,Wilhelminaoord,Westerveld,Drenthe,VBO,6.164257,52.856821
K.J.Blokstraat,29,,,8384ET,Wilhelminaoord,Westerveld,Drenthe,VBO,6.165445,52.856013
K.J.Blokstraat,31,,,8384ET,Wilhelminaoord,Westerveld,Drenthe,VBO,6.165297,52.856050
K.J.Blokstraat,33,,,8384ET,Wilhelminaoord,Westerveld,Drenthe,VBO,6.165164,52.856078
K.J.Blokstraat,35,,,8384ET,Wilhelminaoord,Westerveld,Drenthe,VBO,6.165046,52.856106
K.J.Blokstraat,37,,,8384ET,Wilhelminaoord,Westerveld,Drenthe,VBO,6.164678,52.856297
K.J.Blokstraat,39,,,8384ET,Wilhelminaoord,Westerveld,Drenthe,VBO,6.164647,52.856243
K.J.Blokstraat,41,,,8384ET,Wilhelminaoord,Westerveld,Drenthe,VBO,6.164586,52.856145
K.J.Blokstraat,43,,,8384ET,Wilhelminaoord,Westerveld,Drenthe,VBO,6.164541,52.856082
K.J.Blokstraat,45,,,8384ET,Wilhelminaoord,Westerveld,Drenthe,VBO,6.164391,52.856011
K.J.Blokstraat,26,,,8384EV,Wilhelminaoord,Westerveld,Drenthe,VBO,6.163589,52.856861
K.J.Blokstraat,28,,,8384EV,Wilhelminaoord,Westerveld,Drenthe,VBO,6.163574,52.856816
K.J.Blokstraat,30,,,8384EV,Wilhelminaoord,Westerveld,Drenthe,VBO,6.163528,52.856754
K.J.Blokstraat,32,,,8384EV,Wilhelminaoord,Westerveld,Drenthe,VBO,6.163498,52.856700
K.J.Blokstraat,34,,,8384EV,Wilhelminaoord,Westerveld,Drenthe,VBO,6.163665,52.856589
K.J.Blokstraat,36,,,8384EV,Wilhelminaoord,Westerveld,Drenthe,VBO,6.163747,52.856563
K.J.Blokstraat,38,,,8384EV,Wilhelminaoord,Westerveld,Drenthe,VBO,6.163806,52.856536
K.J.Blokstraat,40,,,8384EV,Wilhelminaoord,Westerveld,Drenthe,VBO,6.163895,52.856500
K.J.Blokstraat,42,,,8384EV,Wilhelminaoord,Westerveld,Drenthe,VBO,6.164130,52.856390
K.J.Blokstraat,44,,,8384EV,Wilhelminaoord,Westerveld,Drenthe,VBO,6.164114,52.856327
K.J.Blokstraat,46,,,8384EV,Wilhelminaoord,Westerveld,Drenthe,VBO,6.164054,52.856265
K.J.Blokstraat,47,,,8384EV,Wilhelminaoord,Westerveld,Drenthe,VBO,6.164360,52.855957
K.J.Blokstraat,48,,,8384EV,Wilhelminaoord,Westerveld,Drenthe,VBO,6.164023,52.856211
K.J.Blokstraat,49,,,8384EV,Wilhelminaoord,Westerveld,Drenthe,VBO,6.164299,52.855859
K.J.Blokstraat,51,,,8384EV,Wilhelminaoord,Westerveld,Drenthe,VBO,6.164254,52.855796
De Hof,1,,,8384EW,Wilhelminaoord,Westerveld,Drenthe,VBO,6.165242,52.857129
De Hof,2,,,8384EW,Wilhelminaoord,Westerveld,Drenthe,VBO,6.165197,52.857066
De Hof,3,,,8384EW,Wilhelminaoord,Westerveld,Drenthe,VBO,6.165166,52.857004
De Hof,4,,,8384EW,Wilhelminaoord,Westerveld,Drenthe,VBO,6.165105,52.856941
De Hof,5,,,8384EW,Wilhelminaoord,Westerveld,Drenthe,VBO,6.165000,52.856861
De Hof,6,,,8384EW,Wilhelminaoord,Westerveld,Drenthe,VBO,6.164939,52.856789
De Hof,7,,,8384EW,Wilhelminaoord,Westerveld,Drenthe,VBO,6.164784,52.856626
De Hof,8,,,8384EW,Wilhelminaoord,Westerveld,Drenthe,VBO,6.164878,52.856605
De Hof,9,,,8384EW,Wilhelminaoord,Westerveld,Drenthe,VBO,6.164974,52.856585
De Hof,10,,,8384EW,Wilhelminaoord,Westerveld,Drenthe,VBO,6.165085,52.856560
Hazenpad,1,,,8384EX,Wilhelminaoord,Westerveld,Drenthe,VBO,6.159009,52.856414
Hazenpad,3,,,8384EX,Wilhelminaoord,Westerveld,Drenthe,VBO,6.159043,52.856340
Hazenpad,5,,,8384EX,Wilhelminaoord,Westerveld,Drenthe,VBO,6.158966,52.856314
Hazenpad,7,,,8384EX,Wilhelminaoord,Westerveld,Drenthe,VBO,6.158956,52.856374
Hazenpad,9,,,8384EX,Wilhelminaoord,Westerveld,Drenthe,VBO,6.158607,52.856291
Hazenpad,11,,,8384EX,Wilhelminaoord,Westerveld,Drenthe,VBO,6.158531,52.856265
Hazenpad,13,,,8384EX,Wilhelminaoord,Westerveld,Drenthe,VBO,6.158520,52.856325
Hazenpad,15,,,8384EX,Wilhelminaoord,Westerveld,Drenthe,VBO,6.158498,52.856385
Hazenpad,17,,,8384EX,Wilhelminaoord,Westerveld,Drenthe,VBO,6.158427,52.856359
Hazenpad,19,,,8384EX,Wilhelminaoord,Westerveld,Drenthe,VBO,6.158473,52.856655
Hazenpad,21,,,8384EX,Wilhelminaoord,Westerveld,Drenthe,VBO,6.158397,52.856629
Hazenpad,23,,,8384EX,Wilhelminaoord,Westerveld,Drenthe,VBO,6.158386,52.856688
Hazenpad,25,,,8384EX,Wilhelminaoord,Westerveld,Drenthe,VBO,6.158364,52.856748
Hazenpad,27,,,8384EX,Wilhelminaoord,Westerveld,Drenthe,VBO,6.158293,52.856722
Hazenpad,41,,,8384EX,Wilhelminaoord,Westerveld,Drenthe,STA,6.157968,52.856807
Hazenpad,43,,,8384EX,Wilhelminaoord,Westerveld,Drenthe,STA,6.157883,52.856883
Hazenpad,45,,,8384EX,Wilhelminaoord,Westerveld,Drenthe,STA,6.157796,52.856955
Hazenpad,47,,,8384EX,Wilhelminaoord,Westerveld,Drenthe,STA,6.157708,52.857034
Hazenpad,2,,,8384EZ,Wilhelminaoord,Westerveld,Drenthe,VBO,6.159471,52.856510
Hazenpad,4,,,8384EZ,Wilhelminaoord,Westerveld,Drenthe,VBO,6.159427,52.856556
Hazenpad,6,,,8384EZ,Wilhelminaoord,Westerveld,Drenthe,VBO,6.158924,52.856694
Hazenpad,8,,,8384EZ,Wilhelminaoord,Westerveld,Drenthe,VBO,6.158881,52.856748
Hazenpad,10,,,8384EZ,Wilhelminaoord,Westerveld,Drenthe,VBO,6.158689,52.856830
Hazenpad,12,,,8384EZ,Wilhelminaoord,Westerveld,Drenthe,VBO,6.158616,52.856893
Oranjelaan,1,,,8384GE,Wilhelminaoord,Westerveld,Drenthe,VBO,6.160221,52.862859
Oranjelaan,2,,,8384GE,Wilhelminaoord,Westerveld,Drenthe,VBO,6.157819,52.861706
Oranjelaan,4,,,8384GE,Wilhelminaoord,Westerveld,Drenthe,VBO,6.160122,52.862285
Oranjelaan,6,,,8384GE,Wilhelminaoord,Westerveld,Drenthe,VBO,6.160966,52.862153
Oranjelaan,8,,,8384GE,Wilhelminaoord,Westerveld,Drenthe,VBO,6.161235,52.862232
Koningin Wilhelminalaan,21,,,8384GG,Wilhelminaoord,Westerveld,Drenthe,VBO,6.157892,52.867197
Koningin Wilhelminalaan,23,,,8384GG,Wilhelminaoord,Westerveld,Drenthe,VBO,6.158183,52.866845
Koningin Wilhelminalaan,27,,,8384GG,Wilhelminaoord,Westerveld,Drenthe,VBO,6.158504,52.866501
Koningin Wilhelminalaan,29,,,8384GG,Wilhelminaoord,Westerveld,Drenthe,VBO,6.158796,52.866229
Koningin Wilhelminalaan,31,,,8384GG,Wilhelminaoord,Westerveld,Drenthe,VBO,6.159431,52.866402
Koningin Wilhelminalaan,33,,,8384GG,Wilhelminaoord,Westerveld,Drenthe,VBO,6.159382,52.865794
Koningin Wilhelminalaan,35,,,8384GG,Wilhelminaoord,Westerveld,Drenthe,VBO,6.160013,52.865058
Koningin Wilhelminalaan,37,,,8384GG,Wilhelminaoord,Westerveld,Drenthe,VBO,6.160664,52.864402
Koningin Wilhelminalaan,39,,,8384GG,Wilhelminaoord,Westerveld,Drenthe,VBO,6.161261,52.863733
Koningin Wilhelminalaan,41,,,8384GG,Wilhelminaoord,Westerveld,Drenthe,VBO,6.162035,52.862964
Koningin Wilhelminalaan,43,,,8384GG,Wilhelminaoord,Westerveld,Drenthe,VBO,6.162896,52.862105
Koningin Wilhelminalaan,45,,,8384GG,Wilhelminaoord,Westerveld,Drenthe,VBO,6.163157,52.861744
Koningin Wilhelminalaan,47,,,8384GG,Wilhelminaoord,Westerveld,Drenthe,VBO,6.163869,52.860894
Koningin Wilhelminalaan,49,,,8384GG,Wilhelminaoord,Westerveld,Drenthe,VBO,6.166814,52.857864
Koningin Wilhelminalaan,51,,,8384GG,Wilhelminaoord,Westerveld,Drenthe,VBO,6.167060,52.857467
Koningin Wilhelminalaan,53,,,8384GG,Wilhelminaoord,Westerveld,Drenthe,VBO,6.167220,52.857305
Koningin Wilhelminalaan,55,,,8384GG,Wilhelminaoord,Westerveld,Drenthe,VBO,6.167806,52.856869
Koningin Wilhelminalaan,2,,,8384GH,Wilhelminaoord,Westerveld,Drenthe,VBO,6.154595,52.869690
Koningin Wilhelminalaan,4,a,,8384GH,Wilhelminaoord,Westerveld,Drenthe,VBO,6.155008,52.869329
Koningin Wilhelminalaan,6,a,,8384GH,Wilhelminaoord,Westerveld,Drenthe,VBO,6.155718,52.868240
Koningin Wilhelminalaan,6,,,8384GH,Wilhelminaoord,Westerveld,Drenthe,VBO,6.155204,52.868868
Koningin Wilhelminalaan,8,,,8384GH,Wilhelminaoord,Westerveld,Drenthe,VBO,6.157199,52.866635
Koningin Wilhelminalaan,10,a,,8384GH,Wilhelminaoord,Westerveld,Drenthe,VBO,6.158549,52.865528
Koningin Wilhelminalaan,10,,,8384GH,Wilhelminaoord,Westerveld,Drenthe,VBO,6.158121,52.865838
Koningin Wilhelminalaan,12,,,8384GH,Wilhelminaoord,Westerveld,Drenthe,VBO,6.159922,52.863840
Koningin Wilhelminalaan,18,,,8384GH,Wilhelminaoord,Westerveld,Drenthe,VBO,6.160457,52.863365
Koningin Wilhelminalaan,20,a,,8384GH,Wilhelminaoord,Westerveld,Drenthe,VBO,6.160723,52.863021
Koningin Wilhelminalaan,20,b,,8384GH,Wilhelminaoord,Westerveld,Drenthe,VBO,6.160826,52.862911
Koningin Wilhelminalaan,20,c,,8384GH,Wilhelminaoord,Westerveld,Drenthe,VBO,6.160657,52.862882
Koningin Wilhelminalaan,20,d,,8384GH,Wilhelminaoord,Westerveld,Drenthe,VBO,6.160576,52.862855
Koningin Wilhelminalaan,20,e,,8384GH,Wilhelminaoord,Westerveld,Drenthe,VBO,6.160500,52.862830
Koningin Wilhelminalaan,20,f,,8384GH,Wilhelminaoord,Westerveld,Drenthe,VBO,6.160431,52.862902
Koningin Wilhelminalaan,20,g,,8384GH,Wilhelminaoord,Westerveld,Drenthe,VBO,6.160505,52.862927
Koningin Wilhelminalaan,20,h,,8384GH,Wilhelminaoord,Westerveld,Drenthe,VBO,6.160577,52.862955
Koningin Wilhelminalaan,20,i,,8384GH,Wilhelminaoord,Westerveld,Drenthe,VBO,6.160797,52.862900
Koningin Wilhelminalaan,20,j,,8384GH,Wilhelminaoord,Westerveld,Drenthe,VBO,6.160743,52.862954
Koningin Wilhelminalaan,20,k,,8384GH,Wilhelminaoord,Westerveld,Drenthe,VBO,6.160693,52.863009
Koningin Wilhelminalaan,20,l,,8384GH,Wilhelminaoord,Westerveld,Drenthe,VBO,6.160767,52.862888
Koningin Wilhelminalaan,20,m,,8384GH,Wilhelminaoord,Westerveld,Drenthe,VBO,6.160662,52.862996
Koningin Wilhelminalaan,22,,,8384GH,Wilhelminaoord,Westerveld,Drenthe,VBO,6.160715,52.862910
Koningin Wilhelminalaan,24,,,8384GH,Wilhelminaoord,Westerveld,Drenthe,VBO,6.161732,52.861798
Koningin Wilhelminalaan,26,t,,8384GH,Wilhelminaoord,Westerveld,Drenthe,VBO,6.162647,52.861403
Koningin Wilhelminalaan,26,,,8384GH,Wilhelminaoord,Westerveld,Drenthe,VBO,6.162277,52.861534
Koningin Wilhelminalaan,30,,,8384GH,Wilhelminaoord,Westerveld,Drenthe,VBO,6.162817,52.861036
Koningin Wilhelminalaan,32,,,8384GH,Wilhelminaoord,Westerveld,Drenthe,VBO,6.162905,52.860946
Koningin Wilhelminalaan,34,,,8384GH,Wilhelminaoord,Westerveld,Drenthe,VBO,6.163022,52.860837
Koningin Wilhelminalaan,36,,,8384GH,Wilhelminaoord,Westerveld,Drenthe,VBO,6.163109,52.860737
Koningin Wilhelminalaan,46,,,8384GH,Wilhelminaoord,Westerveld,Drenthe,VBO,6.163300,52.860251
Koningin Wilhelminalaan,48,a,,8384GH,Wilhelminaoord,Westerveld,Drenthe,VBO,6.164871,52.858794
Koningin Wilhelminalaan,48,,,8384GH,Wilhelminaoord,Westerveld,Drenthe,VBO,6.163396,52.860151
Hooiweg,1,,,8384GJ,Wilhelminaoord,Westerveld,Drenthe,VBO,6.167728,52.863314
Hooiweg,2,,,8384GJ,Wilhelminaoord,Westerveld,Drenthe,VBO,6.168400,52.861844
Hooiweg,4,,,8384GJ,Wilhelminaoord,Westerveld,Drenthe,VBO,6.169907,52.858876
De Kolk,2,,,8384GK,Wilhelminaoord,Westerveld,Drenthe,VBO,6.165276,52.857667
De Kolk,4,,,8384GK,Wilhelminaoord,Westerveld,Drenthe,VBO,6.165392,52.857708
De Kolk,6,,,8384GK,Wilhelminaoord,Westerveld,Drenthe,VBO,6.165493,52.857739
De Kolk,8,,,8384GK,Wilhelminaoord,Westerveld,Drenthe,VBO,6.165573,52.857776
De Kolk,10,,,8384GK,Wilhelminaoord,Westerveld,Drenthe,VBO,6.165739,52.857646
De Kolk,12,,,8384GK,Wilhelminaoord,Westerveld,Drenthe,VBO,6.165630,52.857614
De Kolk,14,,,8384GK,Wilhelminaoord,Westerveld,Drenthe,VBO,6.165536,52.857572
De Kolk,16,,,8384GK,Wilhelminaoord,Westerveld,Drenthe,VBO,6.165432,52.857538
De Kolk,18,,,8384GK,Wilhelminaoord,Westerveld,Drenthe,VBO,6.165286,52.857653
De Kolk,20,,,8384GK,Wilhelminaoord,Westerveld,Drenthe,VBO,6.165410,52.857694
De Kolk,22,,,8384GK,Wilhelminaoord,Westerveld,Drenthe,VBO,6.165500,52.857725
De Kolk,24,,,8384GK,Wilhelminaoord,Westerveld,Drenthe,VBO,6.165586,52.857755
De Kolk,26,,,8384GK,Wilhelminaoord,Westerveld,Drenthe,VBO,6.165726,52.857660
De Kolk,28,,,8384GK,Wilhelminaoord,Westerveld,Drenthe,VBO,6.165616,52.857628
De Kolk,30,,,8384GK,Wilhelminaoord,Westerveld,Drenthe,VBO,6.165525,52.857587
De Kolk,32,,,8384GK,Wilhelminaoord,Westerveld,Drenthe,VBO,6.165416,52.857555
De Kolk,34,,,8384GK,Wilhelminaoord,Westerveld,Drenthe,VBO,6.165422,52.857438
De Kolk,36,,,8384GK,Wilhelminaoord,Westerveld,Drenthe,VBO,6.165310,52.857401
De Kolk,38,,,8384GK,Wilhelminaoord,Westerveld,Drenthe,VBO,6.165186,52.857351
De Kolk,40,,,8384GK,Wilhelminaoord,Westerveld,Drenthe,VBO,6.165072,52.857310
De Kolk,42,,,8384GK,Wilhelminaoord,Westerveld,Drenthe,VBO,6.164964,52.857274
De Kolk,44,,,8384GK,Wilhelminaoord,Westerveld,Drenthe,VBO,6.165407,52.857454
De Kolk,46,,,8384GK,Wilhelminaoord,Westerveld,Drenthe,VBO,6.165300,52.857412
De Kolk,48,,,8384GK,Wilhelminaoord,Westerveld,Drenthe,VBO,6.165175,52.857364
De Kolk,50,,,8384GK,Wilhelminaoord,Westerveld,Drenthe,VBO,6.165068,52.857325
De Kolk,52,,,8384GK,Wilhelminaoord,Westerveld,Drenthe,VBO,6.164945,52.857288
De Kolk,1,,,8384GL,Wilhelminaoord,Westerveld,Drenthe,VBO,6.164989,52.857903
De Kolk,3,,,8384GL,Wilhelminaoord,Westerveld,Drenthe,VBO,6.164945,52.857958
De Kolk,5,,,8384GL,Wilhelminaoord,Westerveld,Drenthe,VBO,6.164665,52.858049
De Kolk,7,,,8384GL,Wilhelminaoord,Westerveld,Drenthe,VBO,6.164576,52.858050
De Kolk,9,,,8384GL,Wilhelminaoord,Westerveld,Drenthe,VBO,6.164248,52.857989
De Kolk,11,,,8384GL,Wilhelminaoord,Westerveld,Drenthe,VBO,6.164188,52.857945
De Kolk,13,,,8384GL,Wilhelminaoord,Westerveld,Drenthe,VBO,6.164095,52.857747
De Kolk,15,,,8384GL,Wilhelminaoord,Westerveld,Drenthe,VBO,6.164154,52.857693
De Kolk,17,,,8384GL,Wilhelminaoord,Westerveld,Drenthe,VBO,6.164387,52.857458
De Kolk,19,,,8384GL,Wilhelminaoord,Westerveld,Drenthe,VBO,6.164431,52.857413
De Kolk,21,,,8384GL,Wilhelminaoord,Westerveld,Drenthe,VBO,6.164636,52.857259
