openbareruimtenaam,huisnummer,huisletter,huisnummertoevoeging,postcode,woonplaatsnaam,gemeentenaam,provincienaam,typeadresseerbaarobject,longitude,latitude
De Brink,2,,,8392MA,Boijl,Weststellingwerf,Friesland,VBO,6.199471,52.909781
De Brink,4,,,8392MA,Boijl,Weststellingwerf,Friesland,VBO,6.199234,52.910182
De Brink,6,,,8392MA,Boijl,Weststellingwerf,Friesland,VBO,6.199186,52.910243
De Brink,8,,,8392MA,Boijl,Weststellingwerf,Friesland,VBO,6.199187,52.910295
De Brink,10,,,8392MA,Boijl,Weststellingwerf,Friesland,VBO,6.199144,52.910354
De Brink,12,,,8392MA,Boijl,Weststellingwerf,Friesland,VBO,6.199045,52.910513
De Brink,14,,,8392MA,Boijl,Weststellingwerf,Friesland,VBO,6.198948,52.910490
De Brink,16,,,8392MA,Boijl,Weststellingwerf,Friesland,VBO,6.198883,52.910447
De Brink,18,,,8392MA,Boijl,Weststellingwerf,Friesland,VBO,6.198774,52.910420
De Brink,20,,,8392MA,Boijl,Weststellingwerf,Friesland,VBO,6.198562,52.910644
De Brink,22,,,8392MA,Boijl,Weststellingwerf,Friesland,VBO,6.198521,52.910709
De Brink,24,,,8392MA,Boijl,Weststellingwerf,Friesland,VBO,6.198507,52.910768
De Brink,26,,,8392MA,Boijl,Weststellingwerf,Friesland,VBO,6.198478,52.910814
De Brink,28,,,8392MA,Boijl,Weststellingwerf,Friesland,VBO,6.198419,52.910897
De Brink,30,,,8392MA,Boijl,Weststellingwerf,Friesland,VBO,6.198374,52.910959
De Brink,32,,,8392MA,Boijl,Weststellingwerf,Friesland,VBO,6.198286,52.911029
De Brink,34,,,8392MA,Boijl,Weststellingwerf,Friesland,VBO,6.198246,52.911089
De Brink,36,,,8392MA,Boijl,Weststellingwerf,Friesland,VBO,6.198316,52.911166
De Brink,38,,,8392MA,Boijl,Weststellingwerf,Friesland,VBO,6.198281,52.911213
De Brink,1,,,8392MB,Boijl,Weststellingwerf,Friesland,VBO,6.199074,52.909715
De Brink,5,,,8392MB,Boijl,Weststellingwerf,Friesland,VBO,6.198552,52.910149
De Brink,7,,,8392MB,Boijl,Weststellingwerf,Friesland,VBO,6.198447,52.910289
De Brink,9,,,8392MB,Boijl,Weststellingwerf,Friesland,VBO,6.198345,52.910417
De Brink,11,,,8392MB,Boijl,Weststellingwerf,Friesland,VBO,6.198220,52.910583
De Brink,13,,,8392MB,Boijl,Weststellingwerf,Friesland,VBO,6.198165,52.910741
De Brink,15,,,8392MB,Boijl,Weststellingwerf,Friesland,VBO,6.198066,52.910898
De Brink,17,,,8392MB,Boijl,Weststellingwerf,Friesland,VBO,6.197929,52.911033
De Brink,19,,,8392MB,Boijl,Weststellingwerf,Friesland,VBO,6.198117,52.911412
De Brink,21,,,8392MB,Boijl,Weststellingwerf,Friesland,VBO,6.198245,52.911440
De Brink,23,,,8392MB,Boijl,Weststellingwerf,Friesland,VBO,6.198530,52.911485
De Daoken,1,,,8392MC,Boijl,Weststellingwerf,Friesland,VBO,6.200250,52.908457
De Daoken,3,,,8392MC,Boijl,Weststellingwerf,Friesland,VBO,6.200108,52.908407
De Daoken,5,,,8392MC,Boijl,Weststellingwerf,Friesland,VBO,6.199995,52.908381
De Daoken,7,,,8392MC,Boijl,Weststellingwerf,Friesland,VBO,6.199865,52.908349
De Daoken,9,,,8392MC,Boijl,Weststellingwerf,Friesland,VBO,6.199739,52.908325
De Daoken,11,,,8392MC,Boijl,Weststellingwerf,Friesland,VBO,6.199500,52.908269
De Daoken,13,,,8392MC,Boijl,Weststellingwerf,Friesland,VBO,6.199689,52.907818
De Daoken,15,,,8392MC,Boijl,Weststellingwerf,Friesland,VBO,6.199904,52.907868
De Daoken,17,,,8392MC,Boijl,Weststellingwerf,Friesland,VBO,6.200016,52.907894
De Daoken,19,,,8392MC,Boijl,Weststellingwerf,Friesland,VBO,6.200208,52.907941
De Daoken,21,,,8392MC,Boijl,Weststellingwerf,Friesland,VBO,6.200317,52.907969
De Daoken,23,,,8392MC,Boijl,Weststellingwerf,Friesland,VBO,6.200505,52.908018
De Daoken,25,,,8392MC,Boijl,Weststellingwerf,Friesland,VBO,6.200616,52.908045
De Daoken,10,,,8392MD,Boijl,Weststellingwerf,Friesland,VBO,6.199725,52.908594
De Daoken,12,,,8392MD,Boijl,Weststellingwerf,Friesland,VBO,6.199609,52.908761
De Daoken,16,,,8392MD,Boijl,Weststellingwerf,Friesland,VBO,6.199433,52.908618
De Daoken,18,,,8392MD,Boijl,Weststellingwerf,Friesland,VBO,6.199311,52.908589
De Daoken,20,,,8392MD,Boijl,Weststellingwerf,Friesland,VBO,6.199166,52.908555
De Daoken,22,,,8392MD,Boijl,Weststellingwerf,Friesland,VBO,6.199047,52.908527
De Daoken,24,,,8392MD,Boijl,Weststellingwerf,Friesland,VBO,6.198891,52.908484
De Daoken,30,,,8392MD,Boijl,Weststellingwerf,Friesland,VBO,6.198936,52.908298
De Daoken,32,,,8392MD,Boijl,Weststellingwerf,Friesland,VBO,6.199036,52.908164
De Daoken,34,,,8392MD,Boijl,Weststellingwerf,Friesland,VBO,6.199118,52.908054
De Daoken,36,,,8392MD,Boijl,Weststellingwerf,Friesland,VBO,6.199235,52.907887
De Daoken,38,,,8392MD,Boijl,Weststellingwerf,Friesland,VBO,6.199353,52.907713
De Daoken,40,,,8392MD,Boijl,Weststellingwerf,Friesland,VBO,6.199440,52.907576
De Daoken,42,,,8392MD,Boijl,Weststellingwerf,Friesland,VBO,6.199555,52.907399
De Daoken,44,,,8392MD,Boijl,Weststellingwerf,Friesland,VBO,6.199840,52.907651
De Daoken,46,,,8392MD,Boijl,Weststellingwerf,Friesland,VBO,6.200078,52.907708
De Daoken,48,,,8392MD,Boijl,Weststellingwerf,Friesland,VBO,6.200324,52.907769
De Daoken,50,,,8392MD,Boijl,Weststellingwerf,Friesland,VBO,6.200522,52.907818
De Daoken,52,,,8392MD,Boijl,Weststellingwerf,Friesland,VBO,6.200768,52.907883
De Daoken,54,,,8392MD,Boijl,Weststellingwerf,Friesland,VBO,6.200978,52.907935
De Groene Zoom,1,,,8392MN,Boijl,Weststellingwerf,Friesland,VBO,6.202598,52.908240
De Groene Zoom,2,,,8392MN,Boijl,Weststellingwerf,Friesland,VBO,6.202500,52.908413
De Groene Zoom,3,,,8392MN,Boijl,Weststellingwerf,Friesland,VBO,6.202414,52.908534
De Groene Zoom,4,,,8392MN,Boijl,Weststellingwerf,Friesland,VBO,6.202336,52.908697
De Groene Zoom,5,,,8392MN,Boijl,Weststellingwerf,Friesland,VBO,6.202805,52.908635
De Groene Zoom,6,,,8392MN,Boijl,Weststellingwerf,Friesland,VBO,6.202790,52.908805
De Groene Zoom,7,,,8392MN,Boijl,Weststellingwerf,Friesland,VBO,6.203211,52.908839
De Groene Zoom,8,,,8392MN,Boijl,Weststellingwerf,Friesland,VBO,6.203188,52.908711
De Groene Zoom,9,,,8392MN,Boijl,Weststellingwerf,Friesland,VBO,6.203084,52.908584
De Groene Zoom,10,,,8392MN,Boijl,Weststellingwerf,Friesland,VBO,6.202913,52.908459
De Groene Zoom,11,,,8392MN,Boijl,Weststellingwerf,Friesland,VBO,6.202758,52.908338
De Groene Zoom,12,,,8392MN,Boijl,Weststellingwerf,Friesland,VBO,6.203277,52.908130
De Groene Zoom,13,,,8392MN,Boijl,Weststellingwerf,Friesland,VBO,6.203472,52.908215
De Groene Zoom,14,,,8392MN,Boijl,Weststellingwerf,Friesland,VBO,6.203646,52.908305
De Groene Zoom,15,,,8392MN,Boijl,Weststellingwerf,Friesland,VBO,6.203844,52.908120
De Groene Zoom,16,,,8392MN,Boijl,Weststellingwerf,Friesland,VBO,6.203684,52.908043
De Groene Zoom,17,,,8392MN,Boijl,Weststellingwerf,Friesland,VBO,6.203422,52.907928
De Groene Zoom,18,,,8392MN,Boijl,Weststellingwerf,Friesland,VBO,6.203587,52.907694
De Groene Zoom,19,,,8392MN,Boijl,Weststellingwerf,Friesland,VBO,6.203881,52.907688
De Groene Zoom,20,,,8392MN,Boijl,Weststellingwerf,Friesland,VBO,6.204089,52.907690
De Groene Zoom,21,,,8392MN,Boijl,Weststellingwerf,Friesland,VBO,6.204243,52.907564
De Groene Zoom,22,,,8392MN,Boijl,Weststellingwerf,Friesland,VBO,6.204028,52.907542
De Groene Zoom,23,,,8392MN,Boijl,Weststellingwerf,Friesland,VBO,6.203739,52.907505
De Groene Zoom,24,,,8392MN,Boijl,Weststellingwerf,Friesland,VBO,6.203515,52.907349
De Groene Zoom,25,,,8392MN,Boijl,Weststellingwerf,Friesland,VBO,6.203307,52.907224
De Groene Zoom,26,,,8392MN,Boijl,Weststellingwerf,Friesland,VBO,6.203122,52.907335
De Groene Zoom,27,,,8392MN,Boijl,Weststellingwerf,Friesland,VBO,6.203231,52.907463
De Groene Zoom,28,,,8392MN,Boijl,Weststellingwerf,Friesland,VBO,6.203422,52.907604
De Groene Zoom,29,,,8392MN,Boijl,Weststellingwerf,Friesland,VBO,6.202928,52.907596
De Groene Zoom,30,,,8392MN,Boijl,Weststellingwerf,Friesland,VBO,6.202784,52.907790
De Groene Zoom,31,,,8392MN,Boijl,Weststellingwerf,Friesland,VBO,6.203029,52.907810
De Groene Zoom,32,,,8392MN,Boijl,Weststellingwerf,Friesland,VBO,6.203281,52.907843
Boschoordweg,2,,,8392MP,Boijl,Weststellingwerf,Friesland,VBO,6.200195,52.909116
Boschoordweg,3,,TR01,8392MP,Boijl,Weststellingwerf,Friesland,VBO,6.204081,52.904158
Boschoordweg,3,,,8392MP,Boijl,Weststellingwerf,Friesland,VBO,6.204392,52.904164
Boschoordweg,4,,,8392MP,Boijl,Weststellingwerf,Friesland,VBO,6.200248,52.909047
Boschoordweg,6,,,8392MP,Boijl,Weststellingwerf,Friesland,VBO,6.200311,52.908957
Boschoordweg,8,,,8392MP,Boijl,Weststellingwerf,Friesland,VBO,6.200363,52.908886
Boschoordweg,10,A,,8392MP,Boijl,Weststellingwerf,Friesland,VBO,6.200484,52.908717
Boschoordweg,10,B,,8392MP,Boijl,Weststellingwerf,Friesland,VBO,6.200592,52.908499
Boschoordweg,10,C,,8392MP,Boijl,Weststellingwerf,Friesland,VBO,6.200621,52.908454
Boschoordweg,10,D,,8392MP,Boijl,Weststellingwerf,Friesland,VBO,6.200679,52.908416
Boschoordweg,10,E,,8392MP,Boijl,Weststellingwerf,Friesland,VBO,6.200712,52.908364
Boschoordweg,10,F,,8392MP,Boijl,Weststellingwerf,Friesland,VBO,6.200866,52.908143
Boschoordweg,10,,,8392MP,Boijl,Weststellingwerf,Friesland,VBO,6.200431,52.908788
Boschoordweg,12,,,8392MP,Boijl,Weststellingwerf,Friesland,VBO,6.201976,52.906305
Boschoordweg,14,,,8392MP,Boijl,Weststellingwerf,Friesland,VBO,6.201593,52.902511
Boschoordweg,16,,,8392MP,Boijl,Weststellingwerf,Friesland,VBO,6.205579,52.901353
Boschoordweg,18,,,8392MP,Boijl,Weststellingwerf,Friesland,VBO,6.205546,52.900843
Boschoordweg,20,A,,8392MP,Boijl,Weststellingwerf,Friesland,VBO,6.207680,52.898410
Boschoordweg,20,,,8392MP,Boijl,Weststellingwerf,Friesland,VBO,6.204475,52.900599
Boschoordweg,22,A,,8392MP,Boijl,Weststellingwerf,Friesland,VBO,6.208144,52.896235
Boschoordweg,22,,,8392MP,Boijl,Weststellingwerf,Friesland,VBO,6.208858,52.896768
Boschoordweg,24,,,8392MP,Boijl,Weststellingwerf,Friesland,VBO,6.210139,52.894677
Boschoordweg,26,,,8392MP,Boijl,Weststellingwerf,Friesland,VBO,6.207922,52.892251
Boschoordweg,28,,,8392MP,Boijl,Weststellingwerf,Friesland,VBO,6.207031,52.892095
Doldersumsestraat,2,,,8392MR,Boijl,Weststellingwerf,Friesland,VBO,6.206539,52.909545
Doldersumsestraat,4,,TR01,8392MR,Boijl,Weststellingwerf,Friesland,VBO,6.205970,52.910727
Doldersumsestraat,4,,,8392MR,Boijl,Weststellingwerf,Friesland,VBO,6.205783,52.910916
Doldersumsestraat,6,,,8392MR,Boijl,Weststellingwerf,Friesland,VBO,6.206478,52.910779
Doldersumsestraat,7,,,8392MR,Boijl,Weststellingwerf,Friesland,VBO,6.217548,52.906454
Doldersumsestraat,8,,,8392MR,Boijl,Weststellingwerf,Friesland,VBO,6.209415,52.906757
Doldersumsestraat,9,,,8392MR,Boijl,Weststellingwerf,Friesland,VBO,6.218511,52.905394
Doldersumsestraat,10,,,8392MR,Boijl,Weststellingwerf,Friesland,VBO,6.207202,52.910750
Doldersumsestraat,11,,,8392MR,Boijl,Weststellingwerf,Friesland,VBO,6.218894,52.904709
Doldersumsestraat,12,,,8392MR,Boijl,Weststellingwerf,Friesland,VBO,6.207593,52.910680
Doldersumsestraat,13,,,8392MR,Boijl,Weststellingwerf,Friesland,VBO,6.220761,52.904563
Doldersumsestraat,14,,,8392MR,Boijl,Weststellingwerf,Friesland,VBO,6.208875,52.910437
Doldersumsestraat,15,,,8392MR,Boijl,Weststellingwerf,Friesland,VBO,6.228428,52.910489
Doldersumsestraat,16,,,8392MR,Boijl,Weststellingwerf,Friesland,VBO,6.210749,52.909973
Doldersumsestraat,18,,TR01,8392MR,Boijl,Weststellingwerf,Friesland,VBO,6.214545,52.908589
Doldersumsestraat,18,,,8392MR,Boijl,Weststellingwerf,Friesland,VBO,6.214926,52.908275
Doldersumsestraat,20,,,8392MR,Boijl,Weststellingwerf,Friesland,VBO,6.216334,52.906780
Doldersumsestraat,24,,,8392MR,Boijl,Weststellingwerf,Friesland,VBO,6.218160,52.904022
Doldersumsestraat,28,,,8392MR,Boijl,Weststellingwerf,Friesland,VBO,6.218586,52.902770
Doldersumsestraat,30,,,8392MR,Boijl,Weststellingwerf,Friesland,VBO,6.218807,52.902597
Doldersumsestraat,34,,,8392MR,Boijl,Weststellingwerf,Friesland,VBO,6.219643,52.902450
Doldersumsestraat,36,,,8392MR,Boijl,Weststellingwerf,Friesland,VBO,6.215122,52.899065
Alteveersweg,5,,,8392MS,Boijl,Weststellingwerf,Friesland,VBO,6.195270,52.896293
Alteveersweg,11,,,8392MS,Boijl,Weststellingwerf,Friesland,VBO,6.200198,52.894998
Alteveersweg,12,,,8392MS,Boijl,Weststellingwerf,Friesland,VBO,6.201213,52.893974
Alteveersweg,17,,,8392MS,Boijl,Weststellingwerf,Friesland,VBO,6.203571,52.896664
Alteveersweg,18,,,8392MS,Boijl,Weststellingwerf,Friesland,VBO,6.205181,52.896332
Alteveersweg,23,,,8392MS,Boijl,Weststellingwerf,Friesland,VBO,6.212744,52.901013
Alteveersweg,24,,BEDR,8392MS,Boijl,Weststellingwerf,Friesland,VBO,6.206467,52.897760
Alteveersweg,24,,,8392MS,Boijl,Weststellingwerf,Friesland,VBO,6.206100,52.897630
Alteveersweg,30,,,8392MS,Boijl,Weststellingwerf,Friesland,VBO,6.206989,52.898312
Alteveersweg,42,A,,8392MS,Boijl,Weststellingwerf,Friesland,VBO,6.215593,52.901658
Alteveersweg,42,,,8392MS,Boijl,Weststellingwerf,Friesland,VBO,6.213980,52.901078
Alteveersweg,44,,,8392MS,Boijl,Weststellingwerf,Friesland,VBO,6.216826,52.901918
Dwarsvaartweg,71,,BEDR,8392MT,Boijl,Weststellingwerf,Friesland,VBO,6.187930,52.895902
Dwarsvaartweg,71,,TR01,8392MT,Boijl,Weststellingwerf,Friesland,VBO,6.188504,52.895923
Dwarsvaartweg,71,,,8392MT,Boijl,Weststellingwerf,Friesland,VBO,6.187668,52.895804
Dwarsvaartweg,84,,,8392MT,Boijl,Weststellingwerf,Friesland,VBO,6.188390,52.895508
Boijlerweg,1,,,8392NA,Boijl,Weststellingwerf,Friesland,VBO,6.175233,52.901974
Boijlerweg,3,,,8392NA,Boijl,Weststellingwerf,Friesland,VBO,6.175856,52.902031
Boijlerweg,5,,,8392NA,Boijl,Weststellingwerf,Friesland,VBO,6.178274,52.902865
Boijlerweg,7,,,8392NA,Boijl,Weststellingwerf,Friesland,VBO,6.179997,52.903594
Boijlerweg,9,,,8392NA,Boijl,Weststellingwerf,Friesland,VBO,6.180520,52.903433
Boijlerweg,11,,,8392NA,Boijl,Weststellingwerf,Friesland,VBO,6.180795,52.903498
Boijlerweg,13,,,8392NA,Boijl,Weststellingwerf,Friesland,VBO,6.180984,52.903549
Boijlerweg,15,,,8392NA,Boijl,Weststellingwerf,Friesland,VBO,6.181365,52.903739
Boijlerweg,17,,,8392NA,Boijl,Weststellingwerf,Friesland,VBO,6.182399,52.904690
Boijlerweg,21,A,,8392NA,Boijl,Weststellingwerf,Friesland,VBO,6.186301,52.905413
Boijlerweg,21,,,8392NA,Boijl,Weststellingwerf,Friesland,VBO,6.185542,52.905109
Boijlerweg,23,A,,8392NA,Boijl,Weststellingwerf,Friesland,VBO,6.187226,52.905700
Boijlerweg,23,,,8392NA,Boijl,Weststellingwerf,Friesland,VBO,6.186435,52.905452
Boijlerweg,25,,TR01,8392NB,Boijl,Weststellingwerf,Friesland,VBO,6.188074,52.905928
Boijlerweg,25,,,8392NB,Boijl,Weststellingwerf,Friesland,VBO,6.187571,52.905776
Boijlerweg,27,,,8392NB,Boijl,Weststellingwerf,Friesland,VBO,6.188937,52.906166
Boijlerweg,29,,,8392NB,Boijl,Weststellingwerf,Friesland,VBO,6.189321,52.906301
Boijlerweg,31,,,8392NB,Boijl,Weststellingwerf,Friesland,VBO,6.189737,52.906487
Boijlerweg,33,,,8392NB,Boijl,Weststellingwerf,Friesland,VBO,6.190346,52.906594
Boijlerweg,35,,,8392NB,Boijl,Weststellingwerf,Friesland,VBO,6.190963,52.906960
Boijlerweg,35,,,8392NB,Boijl,Weststellingwerf,Friesland,VBO,6.191180,52.906827
Boijlerweg,37,,,8392NB,Boijl,Weststellingwerf,Friesland,VBO,6.192204,52.907259
Boijlerweg,39,,,8392NB,Boijl,Weststellingwerf,Friesland,VBO,6.192958,52.907469
Boijlerweg,43,,,8392NB,Boijl,Weststellingwerf,Friesland,VBO,6.193687,52.907663
Boijlerweg,45,,,8392NB,Boijl,Weststellingwerf,Friesland,VBO,6.193971,52.907814
Boijlerweg,47,,,8392NB,Boijl,Weststellingwerf,Friesland,VBO,6.194073,52.908170
Boijlerweg,49,,,8392NB,Boijl,Weststellingwerf,Friesland,VBO,6.194434,52.908084
Boijlerweg,51,,,8392NB,Boijl,Weststellingwerf,Friesland,VBO,6.194716,52.908203
Boijlerweg,53,,,8392NB,Boijl,Weststellingwerf,Friesland,VBO,6.195203,52.908238
Boijlerweg,55,,,8392NB,Boijl,Weststellingwerf,Friesland,VBO,6.195611,52.908387
Boijlerweg,57,,,8392NC,Boijl,Weststellingwerf,Friesland,VBO,6.196376,52.908489
Boijlerweg,63,,,8392NC,Boijl,Weststellingwerf,Friesland,VBO,6.197068,52.908707
Boijlerweg,65,,,8392NC,Boijl,Weststellingwerf,Friesland,VBO,6.197247,52.908809
Boijlerweg,67,A,,8392NC,Boijl,Weststellingwerf,Friesland,VBO,6.197940,52.909026
Boijlerweg,67,,,8392NC,Boijl,Weststellingwerf,Friesland,VBO,6.197642,52.908916
Boijlerweg,69,,,8392NC,Boijl,Weststellingwerf,Friesland,VBO,6.198177,52.909124
Boijlerweg,71,,,8392NC,Boijl,Weststellingwerf,Friesland,VBO,6.198485,52.909229
Boijlerweg,73,,,8392NC,Boijl,Weststellingwerf,Friesland,VBO,6.198754,52.909326
Boijlerweg,75,,,8392NC,Boijl,Weststellingwerf,Friesland,VBO,6.198931,52.909412
Boijlerweg,77,,,8392NC,Boijl,Weststellingwerf,Friesland,VBO,6.199232,52.909487
Boijlerweg,81,,CAF,8392NC,Boijl,Weststellingwerf,Friesland,VBO,6.199730,52.909636
Boijlerweg,81,,,8392NC,Boijl,Weststellingwerf,Friesland,VBO,6.199738,52.909630
Boijlerweg,83,,,8392NC,Boijl,Weststellingwerf,Friesland,VBO,6.200095,52.909681
Boijlerweg,85,,,8392NC,Boijl,Weststellingwerf,Friesland,VBO,6.200224,52.909706
Boijlerweg,87,,,8392NC,Boijl,Weststellingwerf,Friesland,VBO,6.200408,52.910001
Boijlerweg,89,,,8392ND,Boijl,Weststellingwerf,Friesland,VBO,6.201182,52.910095
Boijlerweg,91,,,8392ND,Boijl,Weststellingwerf,Friesland,VBO,6.201385,52.910117
Boijlerweg,93,,,8392ND,Boijl,Weststellingwerf,Friesland,VBO,6.201596,52.910186
Boijlerweg,95,,,8392ND,Boijl,Weststellingwerf,Friesland,VBO,6.201847,52.910268
Boijlerweg,97,,,8392ND,Boijl,Weststellingwerf,Friesland,VBO,6.202019,52.910324
Boijlerweg,99,,,8392ND,Boijl,Weststellingwerf,Friesland,VBO,6.202299,52.910625
Boijlerweg,101,,,8392ND,Boijl,Weststellingwerf,Friesland,VBO,6.202729,52.910564
Boijlerweg,103,,,8392ND,Boijl,Weststellingwerf,Friesland,VBO,6.202913,52.910652
Boijlerweg,105,,,8392ND,Boijl,Weststellingwerf,Friesland,VBO,6.203084,52.910684
Boijlerweg,107,,,8392ND,Boijl,Weststellingwerf,Friesland,VBO,6.203183,52.910716
Boijlerweg,109,,,8392ND,Boijl,Weststellingwerf,Friesland,VBO,6.203318,52.910787
Boijlerweg,111,,,8392ND,Boijl,Weststellingwerf,Friesland,VBO,6.203561,52.910835
Boijlerweg,113,,,8392ND,Boijl,Weststellingwerf,Friesland,VBO,6.203703,52.910936
Boijlerweg,115,,,8392ND,Boijl,Weststellingwerf,Friesland,VBO,6.203809,52.910970
Boijlerweg,117,,,8392NE,Boijl,Weststellingwerf,Friesland,VBO,6.203978,52.911011
Boijlerweg,119,,,8392NE,Boijl,Weststellingwerf,Friesland,VBO,6.204177,52.911057
Boijlerweg,121,,,8392NE,Boijl,Weststellingwerf,Friesland,VBO,6.204369,52.911123
Boijlerweg,123,,,8392NE,Boijl,Weststellingwerf,Friesland,VBO,6.204534,52.911180
Boijlerweg,125,,,8392NE,Boijl,Weststellingwerf,Friesland,VBO,6.204730,52.911244
Boijlerweg,127,,,8392NE,Boijl,Weststellingwerf,Friesland,VBO,6.204935,52.911313
Boijlerweg,135,,,8392NE,Boijl,Weststellingwerf,Friesland,VBO,6.211619,52.914961
Boijlerweg,137,,TR01,8392NE,Boijl,Weststellingwerf,Friesland,VBO,6.213069,52.915932
Boijlerweg,137,,,8392NE,Boijl,Weststellingwerf,Friesland,VBO,6.212071,52.915219
Boijlerweg,139,,,8392NE,Boijl,Weststellingwerf,Friesland,VBO,6.213159,52.916024
Boijlerweg,141,,,8392NE,Boijl,Weststellingwerf,Friesland,VBO,6.213553,52.916075
Boijlerweg,143,,,8392NE,Boijl,Weststellingwerf,Friesland,VBO,6.214021,52.916330
Boijlerweg,145,,,8392NE,Boijl,Weststellingwerf,Friesland,VBO,6.214922,52.916788
Boijlerweg,147,,,8392NG,Boijl,Weststellingwerf,Friesland,VBO,6.215743,52.917289
Boijlerweg,149,,,8392NG,Boijl,Weststellingwerf,Friesland,VBO,6.216443,52.917675
Boijlerweg,155,,,8392NG,Boijl,Weststellingwerf,Friesland,VBO,6.220877,52.919833
Boijlerweg,157,,,8392NG,Boijl,Weststellingwerf,Friesland,VBO,6.221873,52.920135
Boijlerweg,163,,,8392NG,Boijl,Weststellingwerf,Friesland,VBO,6.228095,52.922523
Boijlerweg,165,,,8392NG,Boijl,Weststellingwerf,Friesland,VBO,6.228965,52.922887
Boijlerweg,167,,,8392NG,Boijl,Weststellingwerf,Friesland,VBO,6.229837,52.923212
Boijlerweg,169,,,8392NG,Boijl,Weststellingwerf,Friesland,VBO,6.230980,52.923622
Boijlerweg,171,,,8392NG,Boijl,Weststellingwerf,Friesland,VBO,6.231778,52.923907
Boijlerweg,173,,,8392NG,Boijl,Weststellingwerf,Friesland,VBO,6.232271,52.924108
Boijlerweg,175,,,8392NG,Boijl,Weststellingwerf,Friesland,VBO,6.232482,52.924160
Boijlerweg,177,,,8392NG,Boijl,Weststellingwerf,Friesland,VBO,6.232797,52.924208
Boijlerweg,2,,,8392NH,Boijl,Weststellingwerf,Friesland,VBO,6.175779,52.901458
Boijlerweg,4,,TR01,8392NH,Boijl,Weststellingwerf,Friesland,VBO,6.176786,52.901577
Boijlerweg,4,,,8392NH,Boijl,Weststellingwerf,Friesland,VBO,6.177280,52.901869
Boijlerweg,6,,,8392NH,Boijl,Weststellingwerf,Friesland,VBO,6.178257,52.902293
Boijlerweg,8,,,8392NH,Boijl,Weststellingwerf,Friesland,VBO,6.180703,52.902097
Boijlerweg,10,,,8392NH,Boijl,Weststellingwerf,Friesland,VBO,6.180470,52.903083
Boijlerweg,12,,,8392NH,Boijl,Weststellingwerf,Friesland,VBO,6.181569,52.903281
Boijlerweg,14,,TR01,8392NH,Boijl,Weststellingwerf,Friesland,VBO,6.183324,52.903602
Boijlerweg,14,,,8392NH,Boijl,Weststellingwerf,Friesland,VBO,6.182378,52.903532
Boijlerweg,16,,,8392NH,Boijl,Weststellingwerf,Friesland,VBO,6.183367,52.903829
Boijlerweg,20,,,8392NJ,Boijl,Weststellingwerf,Friesland,VBO,6.187097,52.905109
Boijlerweg,22,,,8392NJ,Boijl,Weststellingwerf,Friesland,VBO,6.188112,52.905423
Boijlerweg,24,,,8392NJ,Boijl,Weststellingwerf,Friesland,VBO,6.189274,52.905825
Boijlerweg,30,,,8392NJ,Boijl,Weststellingwerf,Friesland,VBO,6.191827,52.906623
Boijlerweg,32,,,8392NJ,Boijl,Weststellingwerf,Friesland,VBO,6.194101,52.904436
Boijlerweg,34,,,8392NJ,Boijl,Weststellingwerf,Friesland,VBO,6.194212,52.906108
Boijlerweg,36,,,8392NJ,Boijl,Weststellingwerf,Friesland,VBO,6.193817,52.907378
Boijlerweg,38,,,8392NJ,Boijl,Weststellingwerf,Friesland,VBO,6.194238,52.907535
Boijlerweg,40,,TR01,8392NJ,Boijl,Weststellingwerf,Friesland,VBO,6.194985,52.907516
Boijlerweg,40,,,8392NJ,Boijl,Weststellingwerf,Friesland,VBO,6.195173,52.907654
Boijlerweg,42,,,8392NJ,Boijl,Weststellingwerf,Friesland,VBO,6.196476,52.907950
Boijlerweg,44,,,8392NJ,Boijl,Weststellingwerf,Friesland,VBO,6.196946,52.908304
Boijlerweg,46,,,8392NJ,Boijl,Weststellingwerf,Friesland,VBO,6.197258,52.908394
Boijlerweg,48,,11,8392NJ,Boijl,Weststellingwerf,Friesland,VBO,6.197614,52.908410
Boijlerweg,48,,12A,8392NJ,Boijl,Weststellingwerf,Friesland,VBO,6.197588,52.908439
Boijlerweg,48,,13,8392NJ,Boijl,Weststellingwerf,Friesland,VBO,6.199289,52.905912
Boijlerweg,48,,14,8392NJ,Boijl,Weststellingwerf,Friesland,VBO,6.199042,52.906103
Boijlerweg,48,,15,8392NJ,Boijl,Weststellingwerf,Friesland,VBO,6.199350,52.906313
Boijlerweg,48,,2,8392NJ,Boijl,Weststellingwerf,Friesland,VBO,6.199288,52.907192
Boijlerweg,48,,25,8392NJ,Boijl,Weststellingwerf,Friesland,VBO,6.198592,52.907440
Boijlerweg,48,,27,8392NJ,Boijl,Weststellingwerf,Friesland,VBO,6.198183,52.907387
Boijlerweg,48,,29,8392NJ,Boijl,Weststellingwerf,Friesland,VBO,6.198460,52.907060
Boijlerweg,48,,30,8392NJ,Boijl,Weststellingwerf,Friesland,VBO,6.198500,52.906933
Boijlerweg,48,,33,8392NJ,Boijl,Weststellingwerf,Friesland,VBO,6.197599,52.908427
Boijlerweg,48,,34,8392NJ,Boijl,Weststellingwerf,Friesland,VBO,6.197604,52.908422
Boijlerweg,48,,35,8392NJ,Boijl,Weststellingwerf,Friesland,VBO,6.197608,52.908416
Boijlerweg,48,,39,8392NJ,Boijl,Weststellingwerf,Friesland,VBO,6.197594,52.908433
Boijlerweg,48,,7,8392NJ,Boijl,Weststellingwerf,Friesland,VBO,6.199038,52.907330
Boijlerweg,48,,BEDR,8392NJ,Boijl,Weststellingwerf,Friesland,VBO,6.198015,52.908273
Boijlerweg,48,,,8392NJ,Boijl,Weststellingwerf,Friesland,VBO,6.197552,52.908516
Boijlerweg,50,,,8392NJ,Boijl,Weststellingwerf,Friesland,VBO,6.197858,52.908718
Boijlerweg,52,,,8392NJ,Boijl,Weststellingwerf,Friesland,VBO,6.198261,52.908706
Boijlerweg,56,,,8392NJ,Boijl,Weststellingwerf,Friesland,VBO,6.198453,52.908864
Boijlerweg,58,,,8392NJ,Boijl,Weststellingwerf,Friesland,VBO,6.198654,52.908972
Boijlerweg,60,,,8392NJ,Boijl,Weststellingwerf,Friesland,VBO,6.199126,52.909114
Boijlerweg,62,,,8392NJ,Boijl,Weststellingwerf,Friesland,VBO,6.199508,52.909219
Boijlerweg,64,,,8392NJ,Boijl,Weststellingwerf,Friesland,VBO,6.199780,52.909323
Boijlerweg,66,,,8392NJ,Boijl,Weststellingwerf,Friesland,VBO,6.199967,52.909355
Boijlerweg,72,A,,8392NK,Boijl,Weststellingwerf,Friesland,VBO,6.200884,52.909306
Boijlerweg,72,,TR01,8392NK,Boijl,Weststellingwerf,Friesland,VBO,6.201040,52.909536
Boijlerweg,72,,,8392NK,Boijl,Weststellingwerf,Friesland,VBO,6.200593,52.909414
Boijlerweg,74,,,8392NK,Boijl,Weststellingwerf,Friesland,VBO,6.200995,52.909721
Boijlerweg,76,,,8392NK,Boijl,Weststellingwerf,Friesland,VBO,6.201195,52.909794
Boijlerweg,78,,,8392NK,Boijl,Weststellingwerf,Friesland,VBO,6.201373,52.909844
Boijlerweg,80,,,8392NK,Boijl,Weststellingwerf,Friesland,VBO,6.201507,52.909892
Boijlerweg,82,,,8392NK,Boijl,Weststellingwerf,Friesland,VBO,6.202350,52.909897
Boijlerweg,86,,,8392NK,Boijl,Weststellingwerf,Friesland,VBO,6.202695,52.910169
Boijlerweg,88,A,,8392NK,Boijl,Weststellingwerf,Friesland,VBO,6.205333,52.910064
Boijlerweg,88,,,8392NK,Boijl,Weststellingwerf,Friesland,VBO,6.203144,52.910195
Boijlerweg,90,,,8392NK,Boijl,Weststellingwerf,Friesland,VBO,6.204412,52.910855
Boijlerweg,92,,,8392NK,Boijl,Weststellingwerf,Friesland,VBO,6.204655,52.910897
Boijlerweg,94,,,8392NK,Boijl,Weststellingwerf,Friesland,VBO,6.204806,52.910970
Boijlerweg,96,,,8392NK,Boijl,Weststellingwerf,Friesland,VBO,6.205064,52.911027
Boijlerweg,98,,,8392NL,Boijl,Weststellingwerf,Friesland,VBO,6.205545,52.911261
Boijlerweg,100,,,8392NL,Boijl,Weststellingwerf,Friesland,VBO,6.205778,52.911361
Boijlerweg,102,,,8392NL,Boijl,Weststellingwerf,Friesland,VBO,6.206064,52.911495
Boijlerweg,108,,,8392NL,Boijl,Weststellingwerf,Friesland,VBO,6.209985,52.913477
Boijlerweg,110,,,8392NL,Boijl,Weststellingwerf,Friesland,VBO,6.211262,52.913611
Boijlerweg,112,,,8392NL,Boijl,Weststellingwerf,Friesland,VBO,6.212200,52.914661
Boijlerweg,114,,,8392NL,Boijl,Weststellingwerf,Friesland,VBO,6.213676,52.915239
Boijlerweg,116,,,8392NL,Boijl,Weststellingwerf,Friesland,VBO,6.214786,52.916152
Boijlerweg,118,,,8392NL,Boijl,Weststellingwerf,Friesland,VBO,6.215722,52.916716
Boijlerweg,120,,,8392NL,Boijl,Weststellingwerf,Friesland,VBO,6.216464,52.917161
Boijlerweg,122,,,8392NL,Boijl,Weststellingwerf,Friesland,VBO,6.217351,52.917645
Boijlerweg,124,,TR01,8392NL,Boijl,Weststellingwerf,Friesland,VBO,6.218352,52.917940
Boijlerweg,124,,,8392NL,Boijl,Weststellingwerf,Friesland,VBO,6.218053,52.917827
Boijlerweg,128,,,8392NL,Boijl,Weststellingwerf,Friesland,VBO,6.221283,52.919345
Boijlerweg,130,,,8392NL,Boijl,Weststellingwerf,Friesland,VBO,6.223879,52.920453
Boijlerweg,132,,,8392NL,Boijl,Weststellingwerf,Friesland,VBO,6.227451,52.921636
Schoollaan,1,,,8392NM,Boijl,Weststellingwerf,Friesland,VBO,6.185559,52.902147
Schoollaan,2,,,8392NM,Boijl,Weststellingwerf,Friesland,VBO,6.184323,52.902699
Veurmansweg,1,,,8392NN,Boijl,Weststellingwerf,Friesland,VBO,6.189081,52.902743
Veurmansweg,2,,,8392NN,Boijl,Weststellingwerf,Friesland,VBO,6.188554,52.903010
Veurmansweg,4,,,8392NN,Boijl,Weststellingwerf,Friesland,VBO,6.190244,52.899845
Kerkweg,1,,,8392NP,Boijl,Weststellingwerf,Friesland,VBO,6.200192,52.910986
Kerkweg,2,,,8392NP,Boijl,Weststellingwerf,Friesland,VBO,6.201177,52.910289
Kerkweg,3,,,8392NP,Boijl,Weststellingwerf,Friesland,VBO,6.200079,52.911119
Kerkweg,4,,,8392NP,Boijl,Weststellingwerf,Friesland,VBO,6.201034,52.910350
Kerkweg,5,,,8392NP,Boijl,Weststellingwerf,Friesland,VBO,6.199982,52.911225
Kerkweg,6,,,8392NP,Boijl,Weststellingwerf,Friesland,VBO,6.200840,52.910512
Kerkweg,7,,,8392NP,Boijl,Weststellingwerf,Friesland,VBO,6.199896,52.911359
Kerkweg,8,,,8392NP,Boijl,Weststellingwerf,Friesland,VBO,6.200843,52.910639
Kerkweg,9,,,8392NP,Boijl,Weststellingwerf,Friesland,VBO,6.199837,52.911474
Kerkweg,10,,,8392NP,Boijl,Weststellingwerf,Friesland,VBO,6.200689,52.910749
Kerkweg,12,,,8392NP,Boijl,Weststellingwerf,Friesland,VBO,6.200638,52.910860
Kerkweg,14,,,8392NP,Boijl,Weststellingwerf,Friesland,VBO,6.200541,52.911019
Kerkweg,16,,,8392NP,Boijl,Weststellingwerf,Friesland,VBO,6.200410,52.911229
Kerkweg,18,,,8392NP,Boijl,Weststellingwerf,Friesland,VBO,6.200368,52.911354
Kerkweg,20,,,8392NP,Boijl,Weststellingwerf,Friesland,VBO,6.200254,52.911475
Kerkweg,22,,,8392NP,Boijl,Weststellingwerf,Friesland,VBO,6.200186,52.911588
Kerkweg,24,,,8392NP,Boijl,Weststellingwerf,Friesland,VBO,6.200095,52.911688
Kerkweg,26,,,8392NP,Boijl,Weststellingwerf,Friesland,VBO,6.200055,52.911755
Kerkweg,28,,,8392NP,Boijl,Weststellingwerf,Friesland,VBO,6.199984,52.911864
Kerkweg,30,,,8392NP,Boijl,Weststellingwerf,Friesland,VBO,6.199927,52.911922
Kerkweg,32,,,8392NP,Boijl,Weststellingwerf,Friesland,VBO,6.199846,52.912018
Klokkeweg,5,,,8392NR,Boijl,Weststellingwerf,Friesland,VBO,6.199381,52.910654
Klokkeweg,7,,,8392NR,Boijl,Weststellingwerf,Friesland,VBO,6.199355,52.910695
Klokkeweg,9,,,8392NR,Boijl,Weststellingwerf,Friesland,VBO,6.199273,52.910807
Klokkeweg,11,,,8392NR,Boijl,Weststellingwerf,Friesland,VBO,6.199245,52.910852
Klokkeweg,13,,,8392NR,Boijl,Weststellingwerf,Friesland,VBO,6.199164,52.910968
Klokkeweg,15,,,8392NR,Boijl,Weststellingwerf,Friesland,VBO,6.199144,52.911003
Klokkeweg,17,,,8392NR,Boijl,Weststellingwerf,Friesland,VBO,6.199053,52.911126
Klokkeweg,19,,,8392NR,Boijl,Weststellingwerf,Friesland,VBO,6.199028,52.911168
Klokkeweg,21,,,8392NR,Boijl,Weststellingwerf,Friesland,VBO,6.198958,52.911271
Klokkeweg,23,,,8392NR,Boijl,Weststellingwerf,Friesland,VBO,6.198924,52.911316
Klokkeweg,27,,,8392NR,Boijl,Weststellingwerf,Friesland,VBO,6.198805,52.911580
Klokkeweg,29,,,8392NR,Boijl,Weststellingwerf,Friesland,VBO,6.198898,52.911600
Klokkeweg,31,,,8392NR,Boijl,Weststellingwerf,Friesland,VBO,6.199002,52.911629
Klokkeweg,33,,,8392NR,Boijl,Weststellingwerf,Friesland,VBO,6.199105,52.911655
Klokkeweg,35,,,8392NR,Boijl,Weststellingwerf,Friesland,VBO,6.199241,52.911738
Klokkeweg,37,,,8392NR,Boijl,Weststellingwerf,Friesland,VBO,6.199352,52.911765
Klokkeweg,39,,,8392NR,Boijl,Weststellingwerf,Friesland,VBO,6.199435,52.911785
Klokkeweg,41,,,8392NR,Boijl,Weststellingwerf,Friesland,VBO,6.199555,52.911815
Klokkeweg,2,A,,8392NS,Boijl,Weststellingwerf,Friesland,VBO,6.200102,52.910722
Klokkeweg,2,B,,8392NS,Boijl,Weststellingwerf,Friesland,VBO,6.200003,52.910711
Klokkeweg,2,C,,8392NS,Boijl,Weststellingwerf,Friesland,VBO,6.199661,52.910783
Klokkeweg,2,D,,8392NS,Boijl,Weststellingwerf,Friesland,VBO,6.199617,52.910840
Klokkeweg,2,E,,8392NS,Boijl,Weststellingwerf,Friesland,VBO,6.199557,52.910927
Klokkeweg,2,,,8392NS,Boijl,Weststellingwerf,Friesland,VBO,6.200219,52.910734
Klokkeweg,4,,,8392NS,Boijl,Weststellingwerf,Friesland,VBO,6.199506,52.910997
Klokkeweg,6,,,8392NS,Boijl,Weststellingwerf,Friesland,VBO,6.199455,52.911069
Klokkeweg,8,,,8392NS,Boijl,Weststellingwerf,Friesland,VBO,6.199405,52.911135
Klokkeweg,10,,,8392NS,Boijl,Weststellingwerf,Friesland,VBO,6.199359,52.911206
Klokkeweg,12,A,B008,8392NS,Boijl,Weststellingwerf,Friesland,VBO,6.199518,52.911393
Klokkeweg,12,A,B012,8392NS,Boijl,Weststellingwerf,Friesland,VBO,6.199535,52.911368
Klokkeweg,12,A,B016,8392NS,Boijl,Weststellingwerf,Friesland,VBO,6.199560,52.911342
Klokkeweg,12,A,B018,8392NS,Boijl,Weststellingwerf,Friesland,VBO,6.199589,52.911410
Klokkeweg,12,A,B020,8392NS,Boijl,Weststellingwerf,Friesland,VBO,6.199630,52.911421
Klokkeweg,12,,,8392NS,Boijl,Weststellingwerf,Friesland,VBO,6.199309,52.911280
Klokkeweg,14,,,8392NS,Boijl,Weststellingwerf,Friesland,VBO,6.199226,52.911455
Klokkeweg,16,,,8392NS,Boijl,Weststellingwerf,Friesland,VBO,6.199321,52.911486
Klokkeweg,18,,,8392NS,Boijl,Weststellingwerf,Friesland,VBO,6.199425,52.911524
Klokkeweg,20,,,8392NS,Boijl,Weststellingwerf,Friesland,VBO,6.199573,52.911580
Klokkeweg,22,,,8392NS,Boijl,Weststellingwerf,Friesland,VBO,6.199666,52.911615
Verwersweg,5,,,8392NT,Boijl,Weststellingwerf,Friesland,VBO,6.235773,52.924074
Verwersweg,7,,,8392NT,Boijl,Weststellingwerf,Friesland,VBO,6.237267,52.923890
Verwersweg,11,,,8392NT,Boijl,Weststellingwerf,Friesland,VBO,6.244322,52.922537
Verwersweg,12,,,8392NT,Boijl,Weststellingwerf,Friesland,VBO,6.244351,52.922136
Verwersweg,13,,,8392NT,Boijl,Weststellingwerf,Friesland,VBO,6.245927,52.922146
Verwersweg,14,,,8392NT,Boijl,Weststellingwerf,Friesland,VBO,6.244998,52.921983
Verwersweg,16,,,8392NT,Boijl,Weststellingwerf,Friesland,VBO,6.245618,52.921883
Reeweg,1,,TR01,8392NV,Boijl,Weststellingwerf,Friesland,VBO,6.238014,52.921689
Reeweg,1,,,8392NV,Boijl,Weststellingwerf,Friesland,VBO,6.238207,52.921297
Reeweg,2,,,8392NV,Boijl,Weststellingwerf,Friesland,VBO,6.236358,52.922359
Reeweg,4,A,,8392NV,Boijl,Weststellingwerf,Friesland,VBO,6.237326,52.921331
Reeweg,4,,,8392NV,Boijl,Weststellingwerf,Friesland,VBO,6.236654,52.921801
Reeweg,6,,,8392NV,Boijl,Weststellingwerf,Friesland,VBO,6.237393,52.920870
Reeweg,9,,,8392NV,Boijl,Weststellingwerf,Friesland,VBO,6.240300,52.918160
Reeweg,10,,,8392NV,Boijl,Weststellingwerf,Friesland,VBO,6.238097,52.919846
Reeweg,14,,,8392NV,Boijl,Weststellingwerf,Friesland,VBO,6.239905,52.917474
Meuleveldweg,1,,TR01,8392TN,Boijl,Weststellingwerf,Friesland,VBO,6.179015,52.917537
Meuleveldweg,11,,,8392TN,Boijl,Weststellingwerf,Friesland,VBO,6.187486,52.920626
Rijsberkamperweg,4,,,8392TP,Boijl,Weststellingwerf,Friesland,VBO,6.214241,52.923662
Rijsberkamperweg,5,,,8392TP,Boijl,Weststellingwerf,Friesland,VBO,6.207706,52.924657
Rijsberkamperweg,6,,,8392TP,Boijl,Weststellingwerf,Friesland,VBO,6.214905,52.923743
Rijsberkamperweg,7,,,8392TP,Boijl,Weststellingwerf,Friesland,VBO,6.206933,52.925215
Rijsberkamperweg,10,,BEDR,8392TP,Boijl,Weststellingwerf,Friesland,VBO,6.207575,52.926187
Rijsberkamperweg,10,,,8392TP,Boijl,Weststellingwerf,Friesland,VBO,6.207478,52.925801
Kerkweg,13,,,8392TR,Boijl,Weststellingwerf,Friesland,VBO,6.193037,52.923481
Kerkweg,15,,,8392TR,Boijl,Weststellingwerf,Friesland,VBO,6.192329,52.924498
Meulepolle,3,,,8392TR,Boijl,Weststellingwerf,Friesland,VBO,6.197919,52.927436
Meulepolle,4,,,8392TR,Boijl,Weststellingwerf,Friesland,VBO,6.198149,52.926275
Meuleveldweg,8,,TR01,8392TR,Boijl,Weststellingwerf,Friesland,VBO,6.195834,52.922307
Meuleveldweg,8,,,8392TR,Boijl,Weststellingwerf,Friesland,VBO,6.194681,52.922022
Meuleveldweg,10,,,8392TR,Boijl,Weststellingwerf,Friesland,VBO,6.197151,52.922935
Meuleveldweg,12,,,8392TR,Boijl,Weststellingwerf,Friesland,VBO,6.199502,52.923911
Rijsberkamperweg,9,,TR01,8392TS,Boijl,Weststellingwerf,Friesland,VBO,6.207032,52.926227
Rijsberkamperweg,9,,,8392TS,Boijl,Weststellingwerf,Friesland,VBO,6.207108,52.926622
Rijsberkamperweg,11,,,8392TS,Boijl,Weststellingwerf,Friesland,VBO,6.205635,52.929029
Rijsberkamperweg,12,,,8392TS,Boijl,Weststellingwerf,Friesland,VBO,6.207291,52.927356
Rijsberkamperweg,14,A,,8392TS,Boijl,Weststellingwerf,Friesland,VBO,6.206941,52.927936
Rijsberkamperweg,14,,,8392TS,Boijl,Weststellingwerf,Friesland,VBO,6.207009,52.927712
Rijsberkamperweg,16,,,8392TS,Boijl,Weststellingwerf,Friesland,VBO,6.206739,52.928058
Rijsberkamperweg,24,,,8392TS,Boijl,Weststellingwerf,Friesland,VBO,6.201322,52.935055
Boekelterweg,2,,,8392TT,Boijl,Weststellingwerf,Friesland,VBO,6.199351,52.935196
Boekelterweg,3,A,,8392TT,Boijl,Weststellingwerf,Friesland,VBO,6.185561,52.929262
Boekelterweg,3,,,8392TT,Boijl,Weststellingwerf,Friesland,VBO,6.186116,52.929475
Boekelterweg,4,,TR01,8392TT,Boijl,Weststellingwerf,Friesland,VBO,6.197389,52.934864
Boekelterweg,4,,,8392TT,Boijl,Weststellingwerf,Friesland,VBO,6.196744,52.934616
Boekelterweg,5,A,,8392TT,Boijl,Weststellingwerf,Friesland,VBO,6.184225,52.928995
Boekelterweg,5,,,8392TT,Boijl,Weststellingwerf,Friesland,VBO,6.184780,52.929198
Boekelterweg,6,,,8392TT,Boijl,Weststellingwerf,Friesland,VBO,6.195380,52.933235
Boekelterweg,7,,TR01,8392TT,Boijl,Weststellingwerf,Friesland,VBO,6.182822,52.928414
Boekelterweg,7,,,8392TT,Boijl,Weststellingwerf,Friesland,VBO,6.182576,52.928272
Boekelterweg,8,,,8392TT,Boijl,Weststellingwerf,Friesland,VBO,6.189658,52.931227
Boekelterweg,9,,,8392TT,Boijl,Weststellingwerf,Friesland,VBO,6.179558,52.926854
Boekelterweg,10,,TR01,8392TT,Boijl,Weststellingwerf,Friesland,VBO,6.187652,52.930740
Boekelterweg,10,,,8392TT,Boijl,Weststellingwerf,Friesland,VBO,6.188184,52.930709
Boekelterweg,11,,,8392TT,Boijl,Weststellingwerf,Friesland,VBO,6.177890,52.926243
Boekelterweg,12,,,8392TT,Boijl,Weststellingwerf,Friesland,VBO,6.185048,52.929739
Boekelterweg,13,,,8392TT,Boijl,Weststellingwerf,Friesland,VBO,6.177142,52.925867
Boekelterweg,14,,,8392TT,Boijl,Weststellingwerf,Friesland,VBO,6.181198,52.931708
Boekelterweg,15,,,8392TT,Boijl,Weststellingwerf,Friesland,VBO,6.176044,52.925438
Boekelterweg,16,,,8392TT,Boijl,Weststellingwerf,Friesland,VBO,6.179835,52.932061
Boekelterweg,18,,,8392TT,Boijl,Weststellingwerf,Friesland,VBO,6.181147,52.930380
Boekelterweg,20,,,8392TT,Boijl,Weststellingwerf,Friesland,VBO,6.180542,52.927918
Boekelterweg,22,,,8392TT,Boijl,Weststellingwerf,Friesland,VBO,6.179031,52.928083
Boekelterweg,24,,,8392TT,Boijl,Weststellingwerf,Friesland,VBO,6.178525,52.927035
Bekhofweg,1,,,8392TV,Boijl,Weststellingwerf,Friesland,VBO,6.180671,52.915131
Bekhofweg,2,,,8392TV,Boijl,Weststellingwerf,Friesland,VBO,6.181250,52.915551
Bekhofweg,3,,,8392TV,Boijl,Weststellingwerf,Friesland,VBO,6.180333,52.915735
Bekhofweg,12,,,8392TV,Boijl,Weststellingwerf,Friesland,VBO,6.169283,52.933083
Oostvierdeparten,38,,,8392XT,Boijl,Weststellingwerf,Friesland,VBO,6.188873,52.886006
Oostvierdeparten,43,,,8392XT,Boijl,Weststellingwerf,Friesland,VBO,6.189531,52.885679
Oostvierdeparten,44,,LIGB,8392XT,Boijl,Weststellingwerf,Friesland,VBO,6.197122,52.889216
Oostvierdeparten,44,,TR01,8392XT,Boijl,Weststellingwerf,Friesland,VBO,6.196269,52.888938
Oostvierdeparten,44,,,8392XT,Boijl,Weststellingwerf,Friesland,VBO,6.196614,52.888901
Oostvierdeparten,45,,,8392XT,Boijl,Weststellingwerf,Friesland,VBO,6.192499,52.886628
Oostvierdeparten,47,,,8392XT,Boijl,Weststellingwerf,Friesland,VBO,6.195349,52.887618
Oostvierdeparten,50,,,8392XT,Boijl,Weststellingwerf,Friesland,VBO,6.199124,52.889870
Oostvierdeparten,52,,,8392XT,Boijl,Weststellingwerf,Friesland,VBO,6.201597,52.889357
Oostvierdeparten,54,A,,8392XT,Boijl,Weststellingwerf,Friesland,VBO,6.203584,52.889617
Oostvierdeparten,54,,,8392XT,Boijl,Weststellingwerf,Friesland,VBO,6.202470,52.889295
Oostvierdeparten,56,,,8392XT,Boijl,Weststellingwerf,Friesland,VBO,6.204070,52.889720
Oostvierdeparten,58,,,8392XT,Boijl,Weststellingwerf,Friesland,VBO,6.204868,52.890297
Oostvierdeparten,60,A,,8392XT,Boijl,Weststellingwerf,Friesland,VBO,6.206226,52.890908
Oostvierdeparten,60,,,8392XT,Boijl,Weststellingwerf,Friesland,VBO,6.206202,52.890571
Oostvierdeparten,62,,,8392XT,Boijl,Weststellingwerf,Friesland,VBO,6.206209,52.892099
