openbareruimtenaam,huisnummer,huisletter,huisnummertoevoeging,postcode,woonplaatsnaam,gemeentenaam,provincienaam,typeadresseerbaarobject,longitude,latitude
Honk,1,,,8409CJ,Hemrik,Opsterland,Friesland,STA,6.147278,53.042166
Honk,2,,,8409CJ,Hemrik,Opsterland,Friesland,STA,6.147170,53.042153
Honk,3,,,8409CJ,Hemrik,Opsterland,Friesland,STA,6.146987,53.042139
Honk,4,,,8409CJ,Hemrik,Opsterland,Friesland,STA,6.146828,53.042122
Honk,5,,,8409CJ,Hemrik,Opsterland,Friesland,STA,6.146692,53.042103
Honk,6,,,8409CJ,Hemrik,Opsterland,Friesland,STA,6.146539,53.042081
Honk,7,,,8409CJ,Hemrik,Opsterland,Friesland,STA,6.146385,53.042055
Honk,8,,,8409CJ,Hemrik,Opsterland,Friesland,STA,6.146300,53.042043
Honk,9,,,8409CJ,Hemrik,Opsterland,Friesland,STA,6.146776,53.041865
Honk,10,,,8409CJ,Hemrik,Opsterland,Friesland,STA,6.147067,53.041917
Honk,11,,,8409CJ,Hemrik,Opsterland,Friesland,STA,6.147506,53.041971
Sparjeburd,1,,,8409CK,Hemrik,Opsterland,Friesland,VBO,6.156115,53.033614
Sparjeburd,2,,GA01,8409CK,Hemrik,Opsterland,Friesland,VBO,6.153141,53.037552
Sparjeburd,2,,,8409CK,Hemrik,Opsterland,Friesland,VBO,6.154628,53.038392
Sparjeburd,3,,,8409CK,Hemrik,Opsterland,Friesland,VBO,6.155597,53.033806
Sparjeburd,4,,,8409CK,Hemrik,Opsterland,Friesland,VBO,6.151392,53.038847
Sparjeburd,5,,,8409CK,Hemrik,Opsterland,Friesland,VBO,6.155111,53.034115
Sparjeburd,7,,,8409CK,Hemrik,Opsterland,Friesland,VBO,6.154963,53.034206
Sparjeburd,9,,,8409CK,Hemrik,Opsterland,Friesland,VBO,6.154300,53.034668
Sparjeburd,11,,,8409CK,Hemrik,Opsterland,Friesland,VBO,6.154128,53.035038
Sparjeburd,13,,,8409CK,Hemrik,Opsterland,Friesland,VBO,6.154040,53.035137
Sparjeburd,15,,,8409CK,Hemrik,Opsterland,Friesland,VBO,6.153791,53.035390
Sparjeburd,17,,TR01,8409CK,Hemrik,Opsterland,Friesland,VBO,6.153097,53.035345
Sparjeburd,19,,,8409CK,Hemrik,Opsterland,Friesland,VBO,6.153347,53.035555
Sparjeburd,21,,,8409CK,Hemrik,Opsterland,Friesland,VBO,6.153085,53.035934
Sparjeburd,23,,,8409CK,Hemrik,Opsterland,Friesland,VBO,6.151141,53.038139
Sparjeburd,25,,,8409CK,Hemrik,Opsterland,Friesland,VBO,6.150161,53.039170
Sparjeburd,27,,,8409CK,Hemrik,Opsterland,Friesland,VBO,6.149265,53.039957
Sparjeburd,29,,,8409CK,Hemrik,Opsterland,Friesland,VBO,6.148888,53.040562
Sparjeburd,31,,,8409CK,Hemrik,Opsterland,Friesland,VBO,6.148741,53.040689
Sparjeburd,33,,,8409CK,Hemrik,Opsterland,Friesland,VBO,6.148067,53.041376
Poasen,2,,,8409CL,Hemrik,Opsterland,Friesland,VBO,6.137475,53.053970
Poasen,3,,,8409CL,Hemrik,Opsterland,Friesland,VBO,6.146314,53.043454
Poasen,4,,,8409CL,Hemrik,Opsterland,Friesland,VBO,6.135255,53.056724
Poasen,5,,,8409CL,Hemrik,Opsterland,Friesland,VBO,6.146271,53.043526
Poasen,6,,,8409CL,Hemrik,Opsterland,Friesland,VBO,6.135006,53.056987
Poasen,7,,,8409CL,Hemrik,Opsterland,Friesland,VBO,6.146124,53.043680
Poasen,9,,,8409CL,Hemrik,Opsterland,Friesland,VBO,6.146051,53.043743
Poasen,11,,,8409CL,Hemrik,Opsterland,Friesland,VBO,6.145407,53.044430
Poasen,11,,,8409CL,Hemrik,Opsterland,Friesland,VBO,6.145454,53.044353
Poasen,13,,,8409CL,Hemrik,Opsterland,Friesland,VBO,6.145054,53.044747
Poasen,15,A,,8409CL,Hemrik,Opsterland,Friesland,VBO,6.138243,53.049348
Poasen,15,,,8409CL,Hemrik,Opsterland,Friesland,VBO,6.144042,53.045670
Poasen,17,,,8409CL,Hemrik,Opsterland,Friesland,VBO,6.139997,53.050602
Poasen,19,,,8409CL,Hemrik,Opsterland,Friesland,VBO,6.139570,53.050937
Poasen,21,,,8409CL,Hemrik,Opsterland,Friesland,VBO,6.131708,53.050771
Poasen,23,,,8409CL,Hemrik,Opsterland,Friesland,VBO,6.133532,53.051065
Poasen,25,,TR01,8409CL,Hemrik,Opsterland,Friesland,VBO,6.137136,53.053590
Poasen,25,,,8409CL,Hemrik,Opsterland,Friesland,VBO,6.137328,53.053270
Poasen,27,,,8409CL,Hemrik,Opsterland,Friesland,VBO,6.132741,53.057998
Tjalling Harkeswei,41,,,8409CM,Hemrik,Opsterland,Friesland,VBO,6.128642,53.024909
Tjalling Harkeswei,42,,,8409CM,Hemrik,Opsterland,Friesland,VBO,6.129693,53.025388
Tjalling Harkeswei,43,,,8409CM,Hemrik,Opsterland,Friesland,VBO,6.133421,53.022884
Tjalling Harkeswei,44,,,8409CM,Hemrik,Opsterland,Friesland,VBO,6.130368,53.025626
Tjalling Harkeswei,45,,,8409CM,Hemrik,Opsterland,Friesland,VBO,6.132106,53.026145
Tjalling Harkeswei,46,,,8409CM,Hemrik,Opsterland,Friesland,VBO,6.132510,53.026251
Tjalling Harkeswei,47,,,8409CM,Hemrik,Opsterland,Friesland,VBO,6.132872,53.026509
Tjalling Harkeswei,48,,,8409CM,Hemrik,Opsterland,Friesland,VBO,6.133036,53.026526
Tjalling Harkeswei,49,,,8409CM,Hemrik,Opsterland,Friesland,VBO,6.133232,53.026615
Tjalling Harkeswei,50,A,,8409CM,Hemrik,Opsterland,Friesland,VBO,6.138848,53.023030
Tjalling Harkeswei,50,,,8409CM,Hemrik,Opsterland,Friesland,VBO,6.135320,53.026728
Tjalling Harkeswei,51,,,8409CM,Hemrik,Opsterland,Friesland,VBO,6.137694,53.026946
Tjalling Harkeswei,52,,,8409CM,Hemrik,Opsterland,Friesland,VBO,6.141768,53.027217
Tjalling Harkeswei,53,,,8409CM,Hemrik,Opsterland,Friesland,VBO,6.141775,53.027640
Tjalling Harkeswei,54,A,,8409CM,Hemrik,Opsterland,Friesland,VBO,6.143546,53.027892
Tjalling Harkeswei,54,,,8409CM,Hemrik,Opsterland,Friesland,VBO,6.142628,53.027841
Tjalling Harkeswei,55,,,8409CM,Hemrik,Opsterland,Friesland,VBO,6.143988,53.028039
Tjalling Harkeswei,56,,,8409CN,Hemrik,Opsterland,Friesland,VBO,6.144751,53.028196
Tjalling Harkeswei,57,,,8409CN,Hemrik,Opsterland,Friesland,VBO,6.145525,53.028164
Tjalling Harkeswei,58,,,8409CN,Hemrik,Opsterland,Friesland,VBO,6.147767,53.027629
Tjalling Harkeswei,60,,,8409CN,Hemrik,Opsterland,Friesland,VBO,6.156889,53.023391
Tjalling Harkeswei,61,,,8409CN,Hemrik,Opsterland,Friesland,VBO,6.151952,53.029156
Tjalling Harkeswei,62,,,8409CN,Hemrik,Opsterland,Friesland,VBO,6.152833,53.029223
Tjalling Harkeswei,63,,,8409CN,Hemrik,Opsterland,Friesland,VBO,6.153835,53.029414
Tjalling Harkeswei,64,,,8409CN,Hemrik,Opsterland,Friesland,VBO,6.157447,53.025473
Tjalling Harkeswei,65,,,8409CN,Hemrik,Opsterland,Friesland,VBO,6.156043,53.027818
Tjalling Harkeswei,66,,,8409CN,Hemrik,Opsterland,Friesland,VBO,6.158180,53.025621
Tjalling Harkeswei,67,,,8409CN,Hemrik,Opsterland,Friesland,VBO,6.155002,53.029649
Tjalling Harkeswei,68,,,8409CN,Hemrik,Opsterland,Friesland,VBO,6.157600,53.029920
Tjalling Harkeswei,69,,,8409CN,Hemrik,Opsterland,Friesland,VBO,6.158663,53.030174
Compagnonsfeart,21,,,8409CP,Hemrik,Opsterland,Friesland,VBO,6.126630,53.024930
Compagnonsfeart,22,,,8409CP,Hemrik,Opsterland,Friesland,VBO,6.127471,53.025339
Compagnonsfeart,24,,,8409CP,Hemrik,Opsterland,Friesland,VBO,6.128232,53.025361
Compagnonsfeart,25,,,8409CP,Hemrik,Opsterland,Friesland,VBO,6.128547,53.025476
Compagnonsfeart,26,,,8409CP,Hemrik,Opsterland,Friesland,VBO,6.128895,53.025788
Compagnonsfeart,27,,,8409CP,Hemrik,Opsterland,Friesland,VBO,6.129612,53.025864
Compagnonsfeart,28,,,8409CP,Hemrik,Opsterland,Friesland,VBO,6.132401,53.026881
Compagnonsfeart,29,,,8409CP,Hemrik,Opsterland,Friesland,VBO,6.132747,53.027049
Compagnonsfeart,30,,,8409CP,Hemrik,Opsterland,Friesland,VBO,6.133223,53.027001
Compagnonsfeart,31,,,8409CR,Hemrik,Opsterland,Friesland,VBO,6.133779,53.027267
Compagnonsfeart,32,,,8409CR,Hemrik,Opsterland,Friesland,VBO,6.134616,53.027406
Compagnonsfeart,33,,,8409CR,Hemrik,Opsterland,Friesland,VBO,6.135421,53.027410
Compagnonsfeart,34,,,8409CR,Hemrik,Opsterland,Friesland,VBO,6.136437,53.027502
Compagnonsfeart,36,,,8409CR,Hemrik,Opsterland,Friesland,VBO,6.138142,53.027878
Compagnonsfeart,37,,,8409CR,Hemrik,Opsterland,Friesland,VBO,6.138363,53.027724
Compagnonsfeart,38,A,,8409CR,Hemrik,Opsterland,Friesland,VBO,6.138861,53.027786
Compagnonsfeart,38,C,,8409CR,Hemrik,Opsterland,Friesland,VBO,6.138411,53.028012
Compagnonsfeart,38,,TR01,8409CR,Hemrik,Opsterland,Friesland,VBO,6.138705,53.028127
Compagnonsfeart,38,,,8409CR,Hemrik,Opsterland,Friesland,VBO,6.138647,53.027731
Compagnonsfeart,39,,,8409CS,Hemrik,Opsterland,Friesland,VBO,6.139801,53.028128
Compagnonsfeart,40,,,8409CS,Hemrik,Opsterland,Friesland,VBO,6.151564,53.029986
Compagnonsfeart,41,,,8409CS,Hemrik,Opsterland,Friesland,VBO,6.153470,53.029830
Compagnonsfeart,42,,,8409CS,Hemrik,Opsterland,Friesland,VBO,6.153875,53.029962
Compagnonsfeart,43,,,8409CS,Hemrik,Opsterland,Friesland,VBO,6.154367,53.030022
Compagnonsfeart,45,,,8409CS,Hemrik,Opsterland,Friesland,VBO,6.154741,53.030055
Compagnonsfeart,46,,,8409CS,Hemrik,Opsterland,Friesland,VBO,6.154815,53.030064
Compagnonsfeart,47,,,8409CS,Hemrik,Opsterland,Friesland,VBO,6.154935,53.030081
Compagnonsfeart,48,,,8409CS,Hemrik,Opsterland,Friesland,VBO,6.156507,53.030448
Compagnonsfeart,49,,,8409CS,Hemrik,Opsterland,Friesland,VBO,6.158821,53.030685
Compagnonsfeart,51,,,8409CS,Hemrik,Opsterland,Friesland,VBO,6.159164,53.030665
Jan Evertswyk,1,,,8409CT,Hemrik,Opsterland,Friesland,VBO,6.162922,53.026561
Jan Evertswyk,2,,,8409CT,Hemrik,Opsterland,Friesland,VBO,6.163398,53.027256
Jan Evertswyk,3,,,8409CT,Hemrik,Opsterland,Friesland,VBO,6.162206,53.027401
Jan Evertswyk,5,,,8409CT,Hemrik,Opsterland,Friesland,VBO,6.159674,53.028326
Welgelegen,21,,,8409CV,Hemrik,Opsterland,Friesland,VBO,6.140495,53.013988
Bij de Leijwei,125,,,8409CW,Hemrik,Opsterland,Friesland,VBO,6.164911,53.018622
Fabryksleane,1,,,8409JA,Hemrik,Opsterland,Friesland,VBO,6.136245,53.031199
Fabryksleane,3,,,8409JA,Hemrik,Opsterland,Friesland,VBO,6.136395,53.031124
Fabryksleane,5,,,8409JA,Hemrik,Opsterland,Friesland,VBO,6.136571,53.030988
Ikesingel,1,,,8409JC,Hemrik,Opsterland,Friesland,VBO,6.140704,53.031196
Ikesingel,2,,,8409JC,Hemrik,Opsterland,Friesland,VBO,6.139976,53.031150
Ikesingel,3,,,8409JC,Hemrik,Opsterland,Friesland,VBO,6.140938,53.030925
Ikesingel,4,,,8409JC,Hemrik,Opsterland,Friesland,VBO,6.139849,53.031285
Ikesingel,5,,,8409JC,Hemrik,Opsterland,Friesland,VBO,6.140697,53.030857
Ikesingel,6,,,8409JC,Hemrik,Opsterland,Friesland,VBO,6.139696,53.031401
Ikesingel,7,,,8409JC,Hemrik,Opsterland,Friesland,VBO,6.139502,53.030673
Ikesingel,9,,,8409JC,Hemrik,Opsterland,Friesland,VBO,6.139352,53.030620
Ikesingel,11,,,8409JC,Hemrik,Opsterland,Friesland,VBO,6.139082,53.030505
Ikesingel,13,,,8409JC,Hemrik,Opsterland,Friesland,VBO,6.139277,53.030312
Ikesingel,15,,,8409JC,Hemrik,Opsterland,Friesland,VBO,6.139337,53.030249
Ikesingel,16,,,8409JC,Hemrik,Opsterland,Friesland,VBO,6.140959,53.030007
Ikesingel,17,,,8409JC,Hemrik,Opsterland,Friesland,VBO,6.139436,53.030153
Ikesingel,19,,,8409JC,Hemrik,Opsterland,Friesland,VBO,6.139488,53.030086
Ikesingel,20,,,8409JC,Hemrik,Opsterland,Friesland,VBO,6.140647,53.030504
Ikesingel,21,,,8409JC,Hemrik,Opsterland,Friesland,VBO,6.139591,53.029988
Ikesingel,22,,,8409JC,Hemrik,Opsterland,Friesland,VBO,6.140872,53.030602
Ikesingel,23,,,8409JC,Hemrik,Opsterland,Friesland,VBO,6.139647,53.029929
Ikesingel,24,,,8409JC,Hemrik,Opsterland,Friesland,VBO,6.141172,53.030690
Ikesingel,31,,,8409JC,Hemrik,Opsterland,Friesland,VBO,6.140138,53.030094
Ikesingel,33,,,8409JC,Hemrik,Opsterland,Friesland,VBO,6.140078,53.030153
Ikesingel,35,,,8409JC,Hemrik,Opsterland,Friesland,VBO,6.139983,53.030256
Ikesingel,37,,,8409JC,Hemrik,Opsterland,Friesland,VBO,6.139923,53.030319
Ikesingel,39,,,8409JC,Hemrik,Opsterland,Friesland,VBO,6.139824,53.030419
Ikesingel,41,,,8409JC,Hemrik,Opsterland,Friesland,VBO,6.139772,53.030476
Andryssingel,2,,,8409JD,Hemrik,Opsterland,Friesland,VBO,6.136922,53.030582
Andryssingel,4,,,8409JD,Hemrik,Opsterland,Friesland,VBO,6.137055,53.030500
Andryssingel,5,,,8409JD,Hemrik,Opsterland,Friesland,VBO,6.136686,53.030718
Andryssingel,6,,,8409JD,Hemrik,Opsterland,Friesland,VBO,6.137142,53.030356
Andryssingel,7,,,8409JD,Hemrik,Opsterland,Friesland,VBO,6.136898,53.030896
Andryssingel,8,,,8409JD,Hemrik,Opsterland,Friesland,VBO,6.137274,53.030265
Andryssingel,10,,,8409JD,Hemrik,Opsterland,Friesland,VBO,6.137347,53.030139
Andryssingel,11,,,8409JD,Hemrik,Opsterland,Friesland,VBO,6.137255,53.030867
Andryssingel,12,,,8409JD,Hemrik,Opsterland,Friesland,VBO,6.137766,53.030235
Andryssingel,13,,,8409JD,Hemrik,Opsterland,Friesland,VBO,6.137284,53.030831
Andryssingel,14,,,8409JD,Hemrik,Opsterland,Friesland,VBO,6.137961,53.030315
Andryssingel,15,,,8409JD,Hemrik,Opsterland,Friesland,VBO,6.137328,53.030786
Andryssingel,16,,,8409JD,Hemrik,Opsterland,Friesland,VBO,6.138171,53.030394
Andryssingel,17,,,8409JD,Hemrik,Opsterland,Friesland,VBO,6.137357,53.030759
Andryssingel,19,,,8409JD,Hemrik,Opsterland,Friesland,VBO,6.137473,53.030533
Andryssingel,20,,,8409JD,Hemrik,Opsterland,Friesland,VBO,6.137492,53.029940
Andryssingel,21,,,8409JD,Hemrik,Opsterland,Friesland,VBO,6.137653,53.030595
Andryssingel,22,,,8409JD,Hemrik,Opsterland,Friesland,VBO,6.137904,53.029632
Andryssingel,23,,,8409JD,Hemrik,Opsterland,Friesland,VBO,6.137847,53.030639
Andryssingel,24,,,8409JD,Hemrik,Opsterland,Friesland,VBO,6.138204,53.029729
Andryssingel,25,,,8409JD,Hemrik,Opsterland,Friesland,VBO,6.138000,53.030018
Andryssingel,26,,,8409JD,Hemrik,Opsterland,Friesland,VBO,6.138429,53.029799
Andryssingel,27,,,8409JD,Hemrik,Opsterland,Friesland,VBO,6.138211,53.030124
Andryssingel,28,,,8409JD,Hemrik,Opsterland,Friesland,VBO,6.138639,53.029879
Andryssingel,29,,,8409JD,Hemrik,Opsterland,Friesland,VBO,6.138390,53.030141
Binnenwei,1,,,8409JE,Hemrik,Opsterland,Friesland,VBO,6.118828,53.032500
Binnenwei,2,,,8409JE,Hemrik,Opsterland,Friesland,VBO,6.120914,53.030672
Binnenwei,3,,,8409JE,Hemrik,Opsterland,Friesland,VBO,6.120223,53.032343
Binnenwei,4,,,8409JE,Hemrik,Opsterland,Friesland,VBO,6.120160,53.031944
Binnenwei,5,,,8409JE,Hemrik,Opsterland,Friesland,VBO,6.121688,53.032375
Binnenwei,6,,,8409JE,Hemrik,Opsterland,Friesland,VBO,6.120904,53.031876
Binnenwei,7,,,8409JE,Hemrik,Opsterland,Friesland,VBO,6.122308,53.033782
Binnenwei,9,,,8409JE,Hemrik,Opsterland,Friesland,VBO,6.124000,53.034239
Binnenwei,11,,,8409JE,Hemrik,Opsterland,Friesland,VBO,6.127247,53.032304
Binnenwei,8,,,8409JG,Hemrik,Opsterland,Friesland,VBO,6.122245,53.031823
Binnenwei,10,,,8409JG,Hemrik,Opsterland,Friesland,VBO,6.132453,53.031643
Binnenwei,13,A,,8409JG,Hemrik,Opsterland,Friesland,VBO,6.129046,53.032913
Binnenwei,13,,,8409JG,Hemrik,Opsterland,Friesland,VBO,6.130226,53.032142
Binnenwei,15,,,8409JG,Hemrik,Opsterland,Friesland,VBO,6.132283,53.032138
Binnenwei,17,,,8409JG,Hemrik,Opsterland,Friesland,VBO,6.133043,53.032125
Binnenwei,19,,,8409JG,Hemrik,Opsterland,Friesland,VBO,6.134475,53.032197
Binnenwei,14,,,8409JH,Hemrik,Opsterland,Friesland,VBO,6.135865,53.031514
Binnenwei,16,,,8409JH,Hemrik,Opsterland,Friesland,VBO,6.136237,53.031503
Binnenwei,18,,,8409JH,Hemrik,Opsterland,Friesland,VBO,6.136653,53.031401
Binnenwei,20,,,8409JH,Hemrik,Opsterland,Friesland,VBO,6.137041,53.031435
Binnenwei,22,,,8409JH,Hemrik,Opsterland,Friesland,VBO,6.138040,53.031455
Binnenwei,24,,,8409JH,Hemrik,Opsterland,Friesland,VBO,6.138657,53.031802
Binnenwei,27,,,8409JH,Hemrik,Opsterland,Friesland,VBO,6.136109,53.031827
Binnenwei,29,,,8409JH,Hemrik,Opsterland,Friesland,VBO,6.136362,53.031807
Binnenwei,31,,,8409JH,Hemrik,Opsterland,Friesland,VBO,6.136570,53.031788
Binnenwei,33,,,8409JH,Hemrik,Opsterland,Friesland,VBO,6.136809,53.031787
Binnenwei,35,,,8409JH,Hemrik,Opsterland,Friesland,VBO,6.137123,53.031874
Binnenwei,37,,,8409JH,Hemrik,Opsterland,Friesland,VBO,6.137495,53.031818
Binnenwei,39,,,8409JH,Hemrik,Opsterland,Friesland,VBO,6.137660,53.031898
Binnenwei,41,,,8409JH,Hemrik,Opsterland,Friesland,VBO,6.137825,53.031951
Binnenwei,45,,,8409JH,Hemrik,Opsterland,Friesland,VBO,6.138245,53.032101
Binnenwei,26,A,01,8409JJ,Hemrik,Opsterland,Friesland,VBO,6.139371,53.031612
Binnenwei,26,A,02,8409JJ,Hemrik,Opsterland,Friesland,VBO,6.139313,53.031596
Binnenwei,26,A,03,8409JJ,Hemrik,Opsterland,Friesland,VBO,6.139252,53.031575
Binnenwei,26,A,04,8409JJ,Hemrik,Opsterland,Friesland,VBO,6.139206,53.031558
Binnenwei,26,A,05,8409JJ,Hemrik,Opsterland,Friesland,VBO,6.139168,53.031543
Binnenwei,26,A,06,8409JJ,Hemrik,Opsterland,Friesland,VBO,6.138932,53.031447
Binnenwei,26,A,07,8409JJ,Hemrik,Opsterland,Friesland,VBO,6.138893,53.031481
Binnenwei,26,A,08,8409JJ,Hemrik,Opsterland,Friesland,VBO,6.138854,53.031517
Binnenwei,26,A,09,8409JJ,Hemrik,Opsterland,Friesland,VBO,6.138815,53.031551
Binnenwei,26,A,10,8409JJ,Hemrik,Opsterland,Friesland,VBO,6.138769,53.031592
Binnenwei,26,A,11,8409JJ,Hemrik,Opsterland,Friesland,VBO,6.138868,53.031618
Binnenwei,26,A,12,8409JJ,Hemrik,Opsterland,Friesland,VBO,6.138905,53.031586
Binnenwei,26,A,13,8409JJ,Hemrik,Opsterland,Friesland,VBO,6.138940,53.031560
Binnenwei,26,,,8409JJ,Hemrik,Opsterland,Friesland,VBO,6.139139,53.031572
Binnenwei,28,,,8409JJ,Hemrik,Opsterland,Friesland,VBO,6.140132,53.031739
Binnenwei,30,,,8409JJ,Hemrik,Opsterland,Friesland,VBO,6.141812,53.034083
Binnenwei,32,,,8409JJ,Hemrik,Opsterland,Friesland,VBO,6.142171,53.034125
Binnenwei,34,,,8409JJ,Hemrik,Opsterland,Friesland,VBO,6.142024,53.034279
Binnenwei,47,,,8409JJ,Hemrik,Opsterland,Friesland,VBO,6.138622,53.032223
Binnenwei,51,,,8409JJ,Hemrik,Opsterland,Friesland,VBO,6.138863,53.032466
Binnenwei,53,,,8409JJ,Hemrik,Opsterland,Friesland,VBO,6.138983,53.032546
Binnenwei,55,,,8409JJ,Hemrik,Opsterland,Friesland,VBO,6.139044,53.032590
Binnenwei,57,,,8409JJ,Hemrik,Opsterland,Friesland,VBO,6.140088,53.033500
Binnenwei,59,,,8409JJ,Hemrik,Opsterland,Friesland,VBO,6.139696,53.034096
Binnenwei,61,,,8409JJ,Hemrik,Opsterland,Friesland,VBO,6.138753,53.034776
Binnenwei,63,,,8409JJ,Hemrik,Opsterland,Friesland,VBO,6.138513,53.034678
Binnenwei,65,,,8409JJ,Hemrik,Opsterland,Friesland,VBO,6.140586,53.033866
Binnenwei,67,,,8409JJ,Hemrik,Opsterland,Friesland,VBO,6.141088,53.034456
Binnenwei,69,,,8409JJ,Hemrik,Opsterland,Friesland,VBO,6.142086,53.035231
Binnenwei,71,,,8409JJ,Hemrik,Opsterland,Friesland,VBO,6.143008,53.035108
Binnenwei,36,,,8409JK,Hemrik,Opsterland,Friesland,VBO,6.146365,53.035294
Binnenwei,38,,,8409JK,Hemrik,Opsterland,Friesland,VBO,6.146545,53.035320
Binnenwei,40,,,8409JK,Hemrik,Opsterland,Friesland,VBO,6.147188,53.035459
Binnenwei,42,,,8409JK,Hemrik,Opsterland,Friesland,VBO,6.147937,53.035634
Binnenwei,44,,,8409JK,Hemrik,Opsterland,Friesland,VBO,6.148250,53.035668
Binnenwei,46,,,8409JK,Hemrik,Opsterland,Friesland,VBO,6.148730,53.035809
Binnenwei,73,,,8409JK,Hemrik,Opsterland,Friesland,VBO,6.141203,53.037654
Binnenwei,75,,,8409JK,Hemrik,Opsterland,Friesland,VBO,6.142856,53.038362
Binnenwei,77,,,8409JK,Hemrik,Opsterland,Friesland,VBO,6.146642,53.035777
Binnenwei,79,,,8409JK,Hemrik,Opsterland,Friesland,VBO,6.146837,53.035821
Binnenwei,81,,,8409JK,Hemrik,Opsterland,Friesland,VBO,6.147061,53.035856
Binnenwei,83,,,8409JK,Hemrik,Opsterland,Friesland,VBO,6.147241,53.035899
Binnenwei,85,,,8409JK,Hemrik,Opsterland,Friesland,VBO,6.147510,53.035934
Binnenwei,87,,,8409JK,Hemrik,Opsterland,Friesland,VBO,6.147690,53.036040
Binnenwei,89,,,8409JK,Hemrik,Opsterland,Friesland,VBO,6.147944,53.036039
Binnenwei,48,,,8409JL,Hemrik,Opsterland,Friesland,VBO,6.149118,53.035851
Binnenwei,50,,,8409JL,Hemrik,Opsterland,Friesland,VBO,6.150090,53.035980
Binnenwei,52,,,8409JL,Hemrik,Opsterland,Friesland,VBO,6.150674,53.036147
Binnenwei,54,,,8409JL,Hemrik,Opsterland,Friesland,VBO,6.150988,53.036217
Binnenwei,91,,,8409JL,Hemrik,Opsterland,Friesland,VBO,6.148183,53.036091
Binnenwei,93,,,8409JL,Hemrik,Opsterland,Friesland,VBO,6.148363,53.036144
Binnenwei,95,,,8409JL,Hemrik,Opsterland,Friesland,VBO,6.148857,53.036267
Binnenwei,97,,,8409JL,Hemrik,Opsterland,Friesland,VBO,6.149216,53.036327
Binnenwei,99,,,8409JL,Hemrik,Opsterland,Friesland,VBO,6.149638,53.036585
Binnenwei,101,A,,8409JL,Hemrik,Opsterland,Friesland,VBO,6.149997,53.036771
Binnenwei,101,,,8409JL,Hemrik,Opsterland,Friesland,VBO,6.149970,53.036944
Binnenwei,103,,,8409JL,Hemrik,Opsterland,Friesland,VBO,6.150294,53.036608
Binnenwei,105,,,8409JL,Hemrik,Opsterland,Friesland,VBO,6.150416,53.036733
Binnenwei,107,,,8409JL,Hemrik,Opsterland,Friesland,VBO,6.150653,53.036677
Binnenwei,109,,,8409JL,Hemrik,Opsterland,Friesland,VBO,6.150788,53.036713
Binnenwei,111,,,8409JL,Hemrik,Opsterland,Friesland,VBO,6.151027,53.036738
Binnenwei,113,,,8409JL,Hemrik,Opsterland,Friesland,VBO,6.151313,53.036853
Binnenwei,115,,,8409JL,Hemrik,Opsterland,Friesland,VBO,6.151611,53.036887
Binnenwei,117,,,8409JL,Hemrik,Opsterland,Friesland,VBO,6.152313,53.036954
Himrikerpaed,1,,,8409JM,Hemrik,Opsterland,Friesland,VBO,6.124912,53.034341
Himrikerpaed,2,,,8409JM,Hemrik,Opsterland,Friesland,VBO,6.126722,53.035624
Himrikerpaed,4,,,8409JM,Hemrik,Opsterland,Friesland,VBO,6.125772,53.034946
Bûtewei,47,,,8409JN,Hemrik,Opsterland,Friesland,VBO,6.119591,53.035299
Bûtewei,49,,,8409JN,Hemrik,Opsterland,Friesland,VBO,6.125135,53.036990
Bûtewei,51,,,8409JN,Hemrik,Opsterland,Friesland,VBO,6.126078,53.037173
Bûtewei,53,,,8409JN,Hemrik,Opsterland,Friesland,VBO,6.126557,53.037278
Bûtewei,55,,,8409JN,Hemrik,Opsterland,Friesland,VBO,6.133862,53.038994
Bûtewei,57,,,8409JN,Hemrik,Opsterland,Friesland,VBO,6.141139,53.040800
De Manege,1,,,8409JP,Hemrik,Opsterland,Friesland,VBO,6.135490,53.032280
De Manege,3,,,8409JP,Hemrik,Opsterland,Friesland,VBO,6.135745,53.032368
De Manege,5,,,8409JP,Hemrik,Opsterland,Friesland,VBO,6.136001,53.032475
De Manege,7,,,8409JP,Hemrik,Opsterland,Friesland,VBO,6.136345,53.032562
De Manege,9,,,8409JP,Hemrik,Opsterland,Friesland,VBO,6.136616,53.032704
De Manege,19,,,8409JP,Hemrik,Opsterland,Friesland,VBO,6.137110,53.032818
De Manege,21,,,8409JP,Hemrik,Opsterland,Friesland,VBO,6.137214,53.032844
De Manege,23,,,8409JP,Hemrik,Opsterland,Friesland,VBO,6.137334,53.032880
De Manege,25,,,8409JP,Hemrik,Opsterland,Friesland,VBO,6.137439,53.032924
De Manege,27,,,8409JP,Hemrik,Opsterland,Friesland,VBO,6.138095,53.033773
De Manege,29,,,8409JP,Hemrik,Opsterland,Friesland,VBO,6.139016,53.033579
De Manege,2,,,8409JR,Hemrik,Opsterland,Friesland,VBO,6.135677,53.031892
De Manege,4,,,8409JR,Hemrik,Opsterland,Friesland,VBO,6.136113,53.032105
De Manege,6,,,8409JR,Hemrik,Opsterland,Friesland,VBO,6.136368,53.032176
De Manege,8,,,8409JR,Hemrik,Opsterland,Friesland,VBO,6.136728,53.032290
De Manege,10,,,8409JR,Hemrik,Opsterland,Friesland,VBO,6.136837,53.032322
De Manege,12,,,8409JR,Hemrik,Opsterland,Friesland,VBO,6.137024,53.032382
De Manege,14,,,8409JR,Hemrik,Opsterland,Friesland,VBO,6.137128,53.032420
De Manege,16,,,8409JR,Hemrik,Opsterland,Friesland,VBO,6.137322,53.032484
De Manege,18,,,8409JR,Hemrik,Opsterland,Friesland,VBO,6.137426,53.032518
De Manege,28,,,8409JR,Hemrik,Opsterland,Friesland,VBO,6.137568,53.032600
De Manege,30,,,8409JR,Hemrik,Opsterland,Friesland,VBO,6.137643,53.032626
De Manege,32,,,8409JS,Hemrik,Opsterland,Friesland,VBO,6.137823,53.032670
De Manege,34,,,8409JS,Hemrik,Opsterland,Friesland,VBO,6.137898,53.032696
De Manege,36,,,8409JS,Hemrik,Opsterland,Friesland,VBO,6.138062,53.032722
De Manege,38,,,8409JS,Hemrik,Opsterland,Friesland,VBO,6.138166,53.032731
De Manege,40,,,8409JS,Hemrik,Opsterland,Friesland,VBO,6.138286,53.032757
De Manege,42,,,8409JS,Hemrik,Opsterland,Friesland,VBO,6.138420,53.032765
De Manege,44,,,8409JS,Hemrik,Opsterland,Friesland,VBO,6.138555,53.032800
De Manege,46,,,8409JS,Hemrik,Opsterland,Friesland,VBO,6.138645,53.032808
De Manege,48,,,8409JS,Hemrik,Opsterland,Friesland,VBO,6.138824,53.032852
De Manege,50,,,8409JS,Hemrik,Opsterland,Friesland,VBO,6.139063,53.032851
De Manege,52,,,8409JS,Hemrik,Opsterland,Friesland,VBO,6.139287,53.032793
Ds. de Boerwei,1,,,8409JT,Hemrik,Opsterland,Friesland,VBO,6.135323,53.032928
Ds. de Boerwei,3,,,8409JT,Hemrik,Opsterland,Friesland,VBO,6.135533,53.033008
Ds. de Boerwei,5,,,8409JT,Hemrik,Opsterland,Friesland,VBO,6.135742,53.033069
Ds. de Boerwei,7,,,8409JT,Hemrik,Opsterland,Friesland,VBO,6.135923,53.033194
Ds. de Boerwei,9,,,8409JT,Hemrik,Opsterland,Friesland,VBO,6.136178,53.033255
Ds. de Boerwei,11,,,8409JT,Hemrik,Opsterland,Friesland,VBO,6.136818,53.033197
Ds. de Boerwei,13,,,8409JT,Hemrik,Opsterland,Friesland,VBO,6.136891,53.033134
Ds. de Boerwei,15,,,8409JT,Hemrik,Opsterland,Friesland,VBO,6.136904,53.032999
Ds. de Boerwei,17,,,8409JT,Hemrik,Opsterland,Friesland,VBO,6.136963,53.032954
Ds. de Boerwei,4,,,8409JV,Hemrik,Opsterland,Friesland,VBO,6.135271,53.032551
Ds. de Boerwei,6,,,8409JV,Hemrik,Opsterland,Friesland,VBO,6.135392,53.032649
Ds. de Boerwei,8,,,8409JV,Hemrik,Opsterland,Friesland,VBO,6.135497,53.032666
Ds. de Boerwei,10,,,8409JV,Hemrik,Opsterland,Friesland,VBO,6.135588,53.032747
Ds. de Boerwei,12,,,8409JV,Hemrik,Opsterland,Friesland,VBO,6.135692,53.032755
Ds. de Boerwei,14,,,8409JV,Hemrik,Opsterland,Friesland,VBO,6.135842,53.032808
Ds. de Boerwei,16,,,8409JV,Hemrik,Opsterland,Friesland,VBO,6.135917,53.032835
Ds. de Boerwei,18,,,8409JV,Hemrik,Opsterland,Friesland,VBO,6.136052,53.032870
Ds. de Boerwei,20,,,8409JV,Hemrik,Opsterland,Friesland,VBO,6.136157,53.032896
Ds. de Boerwei,22,,,8409JV,Hemrik,Opsterland,Friesland,VBO,6.136307,53.032940
Ds. de Boerwei,24,,,8409JV,Hemrik,Opsterland,Friesland,VBO,6.136397,53.032966
Engbert Pierswei,1,,TR01,8409JW,Hemrik,Opsterland,Friesland,VBO,6.134691,53.032535
Engbert Pierswei,2,,,8409JW,Hemrik,Opsterland,Friesland,VBO,6.134317,53.033572
Engbert Pierswei,4,,,8409JW,Hemrik,Opsterland,Friesland,VBO,6.134786,53.033226
Engbert Pierswei,5,,,8409JW,Hemrik,Opsterland,Friesland,VBO,6.134116,53.033008
Engbert Pierswei,7,,,8409JW,Hemrik,Opsterland,Friesland,VBO,6.134099,53.032882
Engbert Pierswei,9,,,8409JW,Hemrik,Opsterland,Friesland,VBO,6.133813,53.032713
Engbert Pierswei,11,,,8409JW,Hemrik,Opsterland,Friesland,VBO,6.133456,53.032769
Engbert Pierswei,13,,,8409JW,Hemrik,Opsterland,Friesland,VBO,6.133519,53.032948
Engbert Pierswei,15,,,8409JW,Hemrik,Opsterland,Friesland,VBO,6.133207,53.033013
Engbert Pierswei,17,,,8409JW,Hemrik,Opsterland,Friesland,VBO,6.133120,53.033140
Engbert Pierswei,19,,,8409JW,Hemrik,Opsterland,Friesland,VBO,6.133587,53.033451
Engbert Pierswei,21,,,8409JW,Hemrik,Opsterland,Friesland,VBO,6.133600,53.033325
Engbert Pierswei,23,,,8409JW,Hemrik,Opsterland,Friesland,VBO,6.133279,53.033723
Engbert Pierswei,25,,,8409JW,Hemrik,Opsterland,Friesland,VBO,6.133247,53.033597
Engbert Pierswei,27,,,8409JW,Hemrik,Opsterland,Friesland,VBO,6.132801,53.033410
Engbert Pierswei,29,,,8409JW,Hemrik,Opsterland,Friesland,VBO,6.132769,53.033519
Engbert Pierswei,31,,,8409JW,Hemrik,Opsterland,Friesland,VBO,6.132802,53.033699
Engbert Pierswei,33,,,8409JW,Hemrik,Opsterland,Friesland,VBO,6.132555,53.033771
Engbert Pierswei,35,,,8409JW,Hemrik,Opsterland,Friesland,VBO,6.132402,53.033845
Engbert Pierswei,37,,,8409JW,Hemrik,Opsterland,Friesland,VBO,6.132211,53.034053
Engbert Pierswei,39,,,8409JW,Hemrik,Opsterland,Friesland,VBO,6.132526,53.034159
Engbert Pierswei,41,,,8409JW,Hemrik,Opsterland,Friesland,VBO,6.132915,53.034210
Engbert Pierswei,43,,,8409JW,Hemrik,Opsterland,Friesland,VBO,6.132912,53.034066
Engbert Pierswei,45,,,8409JW,Hemrik,Opsterland,Friesland,VBO,6.130460,53.036229
