openbareruimtenaam,huisnummer,huisletter,huisnummertoevoeging,postcode,woonplaatsnaam,gemeentenaam,provincienaam,typeadresseerbaarobject,longitude,latitude
Popmawijk,1,,,8411CH,Jubbega,Heerenveen,Friesland,VBO,6.097754,52.992646
Singel,1,,,8411CJ,Jubbega,Heerenveen,Friesland,VBO,6.119942,53.004833
Singel,3,,,8411CJ,Jubbega,Heerenveen,Friesland,VBO,6.119792,53.004771
Singel,5,,,8411CJ,Jubbega,Heerenveen,Friesland,VBO,6.119627,53.004691
Singel,7,,,8411CJ,Jubbega,Heerenveen,Friesland,VBO,6.119521,53.004638
Singel,9,,,8411CJ,Jubbega,Heerenveen,Friesland,VBO,6.119371,53.004576
Singel,11,,,8411CJ,Jubbega,Heerenveen,Friesland,VBO,6.119161,53.004478
Singel,13,A,,8411CJ,Jubbega,Heerenveen,Friesland,VBO,6.117773,53.003780
Singel,13,B,,8411CJ,Jubbega,Heerenveen,Friesland,VBO,6.117072,53.003350
Singel,13,,,8411CJ,Jubbega,Heerenveen,Friesland,VBO,6.118906,53.004363
Singel,15,A,,8411CJ,Jubbega,Heerenveen,Friesland,VBO,6.116170,53.002897
Singel,15,B,,8411CJ,Jubbega,Heerenveen,Friesland,VBO,6.116411,53.003030
Singel,15,C,,8411CJ,Jubbega,Heerenveen,Friesland,VBO,6.115959,53.002718
Singel,15,,,8411CJ,Jubbega,Heerenveen,Friesland,VBO,6.116786,53.003208
Singel,17,,,8411CJ,Jubbega,Heerenveen,Friesland,VBO,6.115652,53.002217
Singel,19,,,8411CJ,Jubbega,Heerenveen,Friesland,VBO,6.114890,53.002060
Singel,21,,,8411CJ,Jubbega,Heerenveen,Friesland,VBO,6.106578,52.998507
Singel,23,,,8411CJ,Jubbega,Heerenveen,Friesland,VBO,6.102968,52.996363
Singel,25,,,8411CJ,Jubbega,Heerenveen,Friesland,VBO,6.101028,52.995215
Singel,27,,,8411CJ,Jubbega,Heerenveen,Friesland,VBO,6.099850,52.994207
Singel,29,,,8411CJ,Jubbega,Heerenveen,Friesland,VBO,6.099111,52.993645
Singel,31,,,8411CJ,Jubbega,Heerenveen,Friesland,VBO,6.098568,52.993217
Tjongervallei,14,,,8411CK,Jubbega,Heerenveen,Friesland,VBO,6.117706,52.957712
Tjongervallei,16,,,8411CK,Jubbega,Heerenveen,Friesland,VBO,6.132805,52.968672
Tjongervallei,18,,,8411CK,Jubbega,Heerenveen,Friesland,VBO,6.133720,52.969125
Oude Groningerweg,1,,,8411CL,Jubbega,Heerenveen,Friesland,VBO,6.103309,52.963668
Oude Groningerweg,2,,,8411CL,Jubbega,Heerenveen,Friesland,VBO,6.107387,52.964560
Oude Groningerweg,4,,,8411CL,Jubbega,Heerenveen,Friesland,VBO,6.108587,52.963312
Oude Groningerweg,6,A,,8411CL,Jubbega,Heerenveen,Friesland,VBO,6.116466,52.968090
Oude Groningerweg,6,B,,8411CL,Jubbega,Heerenveen,Friesland,VBO,6.117095,52.968329
Oude Groningerweg,6,,,8411CL,Jubbega,Heerenveen,Friesland,VBO,6.111688,52.966331
Oude Groningerweg,10,,,8411CL,Jubbega,Heerenveen,Friesland,VBO,6.121302,52.969768
Suurdreed,1,,,8411CM,Jubbega,Heerenveen,Friesland,VBO,6.114390,52.974816
Suurdreed,3,,,8411CM,Jubbega,Heerenveen,Friesland,VBO,6.117692,52.971974
Suurdreed,5,,,8411CM,Jubbega,Heerenveen,Friesland,VBO,6.121558,52.968194
Nijeberkoperweg,1,A,,8411CN,Jubbega,Heerenveen,Friesland,VBO,6.143775,52.984968
Nijeberkoperweg,1,,,8411CN,Jubbega,Heerenveen,Friesland,VBO,6.143703,52.985076
Nijeberkoperweg,2,,,8411CN,Jubbega,Heerenveen,Friesland,VBO,6.143410,52.984512
Nijeberkoperweg,3,,,8411CN,Jubbega,Heerenveen,Friesland,VBO,6.143897,52.984883
Nijeberkoperweg,4,,,8411CN,Jubbega,Heerenveen,Friesland,VBO,6.147550,52.977737
Nijeberkoperweg,5,,,8411CN,Jubbega,Heerenveen,Friesland,VBO,6.143891,52.984779
Nijeberkoperweg,6,,,8411CN,Jubbega,Heerenveen,Friesland,VBO,6.149359,52.974733
Nijeberkoperweg,7,,,8411CN,Jubbega,Heerenveen,Friesland,VBO,6.143920,52.984716
Nijeberkoperweg,8,,,8411CN,Jubbega,Heerenveen,Friesland,VBO,6.150560,52.972766
Nijeberkoperweg,9,,,8411CN,Jubbega,Heerenveen,Friesland,VBO,6.143978,52.984616
Nijeberkoperweg,10,A,,8411CN,Jubbega,Heerenveen,Friesland,VBO,6.150558,52.972316
Nijeberkoperweg,10,,,8411CN,Jubbega,Heerenveen,Friesland,VBO,6.150926,52.972422
Nijeberkoperweg,11,,,8411CN,Jubbega,Heerenveen,Friesland,VBO,6.144021,52.984562
Nijeberkoperweg,12,,,8411CN,Jubbega,Heerenveen,Friesland,VBO,6.150830,52.972009
Nijeberkoperweg,13,,,8411CN,Jubbega,Heerenveen,Friesland,VBO,6.144079,52.984454
Nijeberkoperweg,15,,,8411CN,Jubbega,Heerenveen,Friesland,VBO,6.144166,52.984310
Nijeberkoperweg,21,,,8411CN,Jubbega,Heerenveen,Friesland,VBO,6.145960,52.981315
Nijeberkoperweg,23,,,8411CN,Jubbega,Heerenveen,Friesland,VBO,6.148233,52.977616
Nijeberkoperweg,25,,,8411CN,Jubbega,Heerenveen,Friesland,VBO,6.148437,52.977363
Nijeberkoperweg,27,,,8411CN,Jubbega,Heerenveen,Friesland,VBO,6.148596,52.977101
Nijeberkoperweg,29,,,8411CN,Jubbega,Heerenveen,Friesland,VBO,6.148711,52.976822
Nijeberkoperweg,31,,,8411CN,Jubbega,Heerenveen,Friesland,VBO,6.151021,52.972736
Groeneboomsreed,1,,,8411CP,Jubbega,Heerenveen,Friesland,VBO,6.136513,52.990424
Groeneboomsreed,2,,,8411CP,Jubbega,Heerenveen,Friesland,VBO,6.139070,52.987541
Groeneboomsreed,4,,,8411CP,Jubbega,Heerenveen,Friesland,VBO,6.137758,52.989185
Groeneboomsreed,6,,,8411CP,Jubbega,Heerenveen,Friesland,VBO,6.136509,52.991062
Groeneboomsreed,8,,,8411CP,Jubbega,Heerenveen,Friesland,VBO,6.135347,52.992750
Luxemburg,1,,,8411CR,Jubbega,Heerenveen,Friesland,VBO,6.135331,52.994421
Luxemburg,2,,,8411CR,Jubbega,Heerenveen,Friesland,VBO,6.133882,52.993289
Luxemburg,3,,,8411CR,Jubbega,Heerenveen,Friesland,VBO,6.135792,52.994364
Boekweitreed,1,,,8411CS,Jubbega,Heerenveen,Friesland,VBO,6.111452,52.973079
Boekweitreed,2,,,8411CS,Jubbega,Heerenveen,Friesland,VBO,6.110278,52.973311
Gorredijksterweg,3,,,8411KA,Jubbega,Heerenveen,Friesland,VBO,6.108759,52.973727
Gorredijksterweg,5,,,8411KA,Jubbega,Heerenveen,Friesland,VBO,6.108642,52.973817
Gorredijksterweg,7,,,8411KA,Jubbega,Heerenveen,Friesland,VBO,6.108583,52.973881
Gorredijksterweg,9,,,8411KA,Jubbega,Heerenveen,Friesland,VBO,6.108451,52.973989
Gorredijksterweg,11,,,8411KA,Jubbega,Heerenveen,Friesland,VBO,6.108393,52.974052
Gorredijksterweg,13,,,8411KA,Jubbega,Heerenveen,Friesland,VBO,6.108290,52.974170
Gorredijksterweg,15,,,8411KA,Jubbega,Heerenveen,Friesland,VBO,6.108232,52.974233
Gorredijksterweg,17,,,8411KA,Jubbega,Heerenveen,Friesland,VBO,6.108144,52.974351
Gorredijksterweg,19,,,8411KA,Jubbega,Heerenveen,Friesland,VBO,6.108071,52.974423
Gorredijksterweg,21,,,8411KA,Jubbega,Heerenveen,Friesland,VBO,6.107925,52.974577
Gorredijksterweg,23,,,8411KA,Jubbega,Heerenveen,Friesland,VBO,6.107749,52.974766
Gorredijksterweg,25,,,8411KA,Jubbega,Heerenveen,Friesland,VBO,6.106197,52.976303
Gorredijksterweg,27,,,8411KA,Jubbega,Heerenveen,Friesland,VBO,6.105100,52.977487
Gorredijksterweg,29,,,8411KA,Jubbega,Heerenveen,Friesland,VBO,6.104880,52.977731
Gorredijksterweg,31,,,8411KA,Jubbega,Heerenveen,Friesland,VBO,6.104646,52.977966
Gorredijksterweg,33,,,8411KA,Jubbega,Heerenveen,Friesland,VBO,6.104412,52.978201
Gorredijksterweg,35,A,,8411KA,Jubbega,Heerenveen,Friesland,VBO,6.103059,52.979234
Gorredijksterweg,35,,,8411KA,Jubbega,Heerenveen,Friesland,VBO,6.103132,52.979179
Gorredijksterweg,37,,,8411KB,Jubbega,Heerenveen,Friesland,VBO,6.102796,52.979568
Gorredijksterweg,39,A,,8411KB,Jubbega,Heerenveen,Friesland,VBO,6.101592,52.980555
Gorredijksterweg,39,B,,8411KB,Jubbega,Heerenveen,Friesland,VBO,6.101282,52.980718
Gorredijksterweg,39,,,8411KB,Jubbega,Heerenveen,Friesland,VBO,6.102122,52.980192
Gorredijksterweg,41,,,8411KB,Jubbega,Heerenveen,Friesland,VBO,6.101211,52.980934
Gorredijksterweg,43,,,8411KB,Jubbega,Heerenveen,Friesland,VBO,6.100858,52.981233
Gorredijksterweg,45,A,,8411KB,Jubbega,Heerenveen,Friesland,VBO,6.100243,52.981340
Gorredijksterweg,45,,,8411KB,Jubbega,Heerenveen,Friesland,VBO,6.100301,52.981506
Gorredijksterweg,47,,,8411KB,Jubbega,Heerenveen,Friesland,VBO,6.100168,52.981812
Gorredijksterweg,49,,,8411KB,Jubbega,Heerenveen,Friesland,VBO,6.100095,52.981876
Gorredijksterweg,51,,,8411KB,Jubbega,Heerenveen,Friesland,VBO,6.099977,52.981966
Gorredijksterweg,53,,,8411KB,Jubbega,Heerenveen,Friesland,VBO,6.099903,52.982021
Gorredijksterweg,55,,,8411KB,Jubbega,Heerenveen,Friesland,VBO,6.099786,52.982120
Gorredijksterweg,57,,,8411KB,Jubbega,Heerenveen,Friesland,VBO,6.099712,52.982174
Gorredijksterweg,59,,,8411KB,Jubbega,Heerenveen,Friesland,VBO,6.099639,52.982265
Gorredijksterweg,61,,,8411KB,Jubbega,Heerenveen,Friesland,VBO,6.099567,52.982373
Gorredijksterweg,63,,,8411KB,Jubbega,Heerenveen,Friesland,VBO,6.099435,52.982491
Gorredijksterweg,65,,,8411KC,Jubbega,Heerenveen,Friesland,VBO,6.098428,52.982847
Gorredijksterweg,67,A,,8411KC,Jubbega,Heerenveen,Friesland,VBO,6.098654,52.982943
Gorredijksterweg,67,,,8411KC,Jubbega,Heerenveen,Friesland,VBO,6.098730,52.983106
Gorredijksterweg,69,,,8411KC,Jubbega,Heerenveen,Friesland,VBO,6.097614,52.983175
Gorredijksterweg,71,,,8411KC,Jubbega,Heerenveen,Friesland,VBO,6.097674,52.983157
Gorredijksterweg,73,A,,8411KC,Jubbega,Heerenveen,Friesland,VBO,6.098259,52.983459
Gorredijksterweg,73,B,,8411KC,Jubbega,Heerenveen,Friesland,VBO,6.098142,52.983568
Gorredijksterweg,73,,,8411KC,Jubbega,Heerenveen,Friesland,VBO,6.098391,52.983342
Gorredijksterweg,75,,,8411KC,Jubbega,Heerenveen,Friesland,VBO,6.098025,52.983676
Gorredijksterweg,77,,,8411KC,Jubbega,Heerenveen,Friesland,VBO,6.097966,52.983722
Gorredijksterweg,79,,,8411KC,Jubbega,Heerenveen,Friesland,VBO,6.097581,52.983868
Gorredijksterweg,81,,,8411KC,Jubbega,Heerenveen,Friesland,VBO,6.096762,52.984753
Gorredijksterweg,83,,,8411KC,Jubbega,Heerenveen,Friesland,VBO,6.096468,52.985024
Gorredijksterweg,85,,,8411KC,Jubbega,Heerenveen,Friesland,VBO,6.096218,52.985188
Gorredijksterweg,87,,,8411KC,Jubbega,Heerenveen,Friesland,VBO,6.095498,52.985803
Gorredijksterweg,2,,,8411KD,Jubbega,Heerenveen,Friesland,VBO,6.109163,52.973859
Gorredijksterweg,4,,,8411KD,Jubbega,Heerenveen,Friesland,VBO,6.109120,52.973913
Gorredijksterweg,6,,,8411KD,Jubbega,Heerenveen,Friesland,VBO,6.109018,52.974040
Gorredijksterweg,8,,,8411KD,Jubbega,Heerenveen,Friesland,VBO,6.108974,52.974085
Gorredijksterweg,10,,,8411KD,Jubbega,Heerenveen,Friesland,VBO,6.108886,52.974193
Gorredijksterweg,12,,,8411KD,Jubbega,Heerenveen,Friesland,VBO,6.108828,52.974248
Gorredijksterweg,14,,,8411KD,Jubbega,Heerenveen,Friesland,VBO,6.108710,52.974347
Gorredijksterweg,16,A,,8411KD,Jubbega,Heerenveen,Friesland,VBO,6.108914,52.974957
Gorredijksterweg,16,,,8411KD,Jubbega,Heerenveen,Friesland,VBO,6.108666,52.974401
Gorredijksterweg,18,,,8411KD,Jubbega,Heerenveen,Friesland,VBO,6.106501,52.976679
Gorredijksterweg,20,,,8411KD,Jubbega,Heerenveen,Friesland,VBO,6.103806,52.979409
Gorredijksterweg,22,,,8411KD,Jubbega,Heerenveen,Friesland,VBO,6.103218,52.979862
Gorredijksterweg,24,,,8411KD,Jubbega,Heerenveen,Friesland,VBO,6.102998,52.980034
Gorredijksterweg,26,,,8411KE,Jubbega,Heerenveen,Friesland,VBO,6.102763,52.980251
Gorredijksterweg,28,,,8411KE,Jubbega,Heerenveen,Friesland,VBO,6.102734,52.980278
Gorredijksterweg,30,,,8411KE,Jubbega,Heerenveen,Friesland,VBO,6.102601,52.980387
Gorredijksterweg,32,,,8411KE,Jubbega,Heerenveen,Friesland,VBO,6.102469,52.980486
Gorredijksterweg,34,,,8411KE,Jubbega,Heerenveen,Friesland,VBO,6.101529,52.981247
Gorredijksterweg,36,,,8411KE,Jubbega,Heerenveen,Friesland,VBO,6.100882,52.981745
Gorredijksterweg,38,,,8411KE,Jubbega,Heerenveen,Friesland,VBO,6.100779,52.981836
Gorredijksterweg,40,,,8411KE,Jubbega,Heerenveen,Friesland,VBO,6.100602,52.981971
Gorredijksterweg,42,,,8411KE,Jubbega,Heerenveen,Friesland,VBO,6.100500,52.982071
Gorredijksterweg,44,,,8411KE,Jubbega,Heerenveen,Friesland,VBO,6.100235,52.982297
Gorredijksterweg,46,,,8411KE,Jubbega,Heerenveen,Friesland,VBO,6.100118,52.982388
Gorredijksterweg,48,,,8411KE,Jubbega,Heerenveen,Friesland,VBO,6.100030,52.982469
Gorredijksterweg,54,,,8411KG,Jubbega,Heerenveen,Friesland,VBO,6.099300,52.983336
Gorredijksterweg,56,A,,8411KG,Jubbega,Heerenveen,Friesland,VBO,6.099278,52.983591
Gorredijksterweg,58,A,,8411KG,Jubbega,Heerenveen,Friesland,VBO,6.098782,52.983537
Gorredijksterweg,58,,,8411KG,Jubbega,Heerenveen,Friesland,VBO,6.098841,52.983501
Gorredijksterweg,60,,,8411KG,Jubbega,Heerenveen,Friesland,VBO,6.098679,52.983645
Gorredijksterweg,62,,,8411KG,Jubbega,Heerenveen,Friesland,VBO,6.098635,52.983691
Gorredijksterweg,64,,,8411KG,Jubbega,Heerenveen,Friesland,VBO,6.098533,52.983781
Gorredijksterweg,66,,,8411KG,Jubbega,Heerenveen,Friesland,VBO,6.098474,52.983835
Gorredijksterweg,68,,,8411KG,Jubbega,Heerenveen,Friesland,VBO,6.098341,52.983935
Gorredijksterweg,70,B,,8411KG,Jubbega,Heerenveen,Friesland,VBO,6.097652,52.984595
Gorredijksterweg,70,,,8411KG,Jubbega,Heerenveen,Friesland,VBO,6.098196,52.984134
Gorredijksterweg,72,,,8411KG,Jubbega,Heerenveen,Friesland,VBO,6.097284,52.984849
Gorredijksterweg,74,,,8411KG,Jubbega,Heerenveen,Friesland,VBO,6.097049,52.985057
Gorredijksterweg,78,A,,8411KG,Jubbega,Heerenveen,Friesland,VBO,6.097041,52.985392
Gorredijksterweg,78,,,8411KG,Jubbega,Heerenveen,Friesland,VBO,6.096888,52.985184
Gorredijksterweg,80,,,8411KG,Jubbega,Heerenveen,Friesland,VBO,6.096682,52.985365
Gorredijksterweg,82,,,8411KG,Jubbega,Heerenveen,Friesland,VBO,6.096198,52.985808
Gorredijksterweg,84,,,8411KG,Jubbega,Heerenveen,Friesland,VBO,6.095963,52.985989
Hendrik de Vosweg,1,,,8411KH,Jubbega,Heerenveen,Friesland,VBO,6.084152,52.977494
Hendrik de Vosweg,3,,,8411KH,Jubbega,Heerenveen,Friesland,VBO,6.086667,52.978351
Hendrik de Vosweg,5,,,8411KH,Jubbega,Heerenveen,Friesland,VBO,6.088120,52.978891
Hendrik de Vosweg,7,,,8411KH,Jubbega,Heerenveen,Friesland,VBO,6.089154,52.979289
Hendrik de Vosweg,11,,,8411KH,Jubbega,Heerenveen,Friesland,VBO,6.090697,52.979882
Hendrik de Vosweg,2,,,8411KJ,Jubbega,Heerenveen,Friesland,VBO,6.084428,52.977061
Hendrik de Vosweg,4,,,8411KJ,Jubbega,Heerenveen,Friesland,VBO,6.086042,52.976540
Hendrik de Vosweg,6,,,8411KJ,Jubbega,Heerenveen,Friesland,VBO,6.085208,52.977398
Hendrik de Vosweg,14,,,8411KJ,Jubbega,Heerenveen,Friesland,VBO,6.086286,52.977787
Hendrik de Vosweg,16,,,8411KK,Jubbega,Heerenveen,Friesland,VBO,6.087289,52.978132
Hendrik de Vosweg,18,,,8411KK,Jubbega,Heerenveen,Friesland,VBO,6.088847,52.978752
Hendrik de Vosweg,20,,,8411KK,Jubbega,Heerenveen,Friesland,VBO,6.090345,52.979309
Hendrik de Vosweg,22,,,8411KK,Jubbega,Heerenveen,Friesland,VBO,6.090914,52.979504
Hendrik de Vosweg,24,,,8411KK,Jubbega,Heerenveen,Friesland,VBO,6.091947,52.979839
Hendrik de Vosweg,26,,,8411KK,Jubbega,Heerenveen,Friesland,VBO,6.092487,52.980114
Hendrik de Vosweg,28,,,8411KK,Jubbega,Heerenveen,Friesland,VBO,6.093566,52.980539
Kromhoutsreed,1,,,8411KK,Jubbega,Heerenveen,Friesland,VBO,6.092624,52.979341
Kromhoutsreed,2,,,8411KK,Jubbega,Heerenveen,Friesland,VBO,6.093245,52.978160
Kromhoutsreed,3,,,8411KK,Jubbega,Heerenveen,Friesland,VBO,6.095793,52.976509
Kromhoutsreed,4,,,8411KK,Jubbega,Heerenveen,Friesland,VBO,6.093993,52.977490
Kromhoutsreed,5,,,8411KK,Jubbega,Heerenveen,Friesland,VBO,6.096798,52.976045
Kromhoutsreed,6,A,,8411KK,Jubbega,Heerenveen,Friesland,VBO,6.095732,52.974146
Kromhoutsreed,6,,,8411KK,Jubbega,Heerenveen,Friesland,VBO,6.096172,52.974236
Kromhoutsreed,7,,,8411KK,Jubbega,Heerenveen,Friesland,VBO,6.098358,52.972616
Kromhoutsreed,8,,,8411KK,Jubbega,Heerenveen,Friesland,VBO,6.096533,52.971661
Hendrik de Vosweg,30,,,8411KL,Jubbega,Heerenveen,Friesland,VBO,6.094345,52.980822
Hendrik de Vosweg,32,,,8411KL,Jubbega,Heerenveen,Friesland,VBO,6.095289,52.981167
Hendrik de Vosweg,34,,,8411KL,Jubbega,Heerenveen,Friesland,VBO,6.096636,52.981591
Hendrik de Vosweg,44,,,8411KL,Jubbega,Heerenveen,Friesland,VBO,6.097293,52.981757
Hendrik de Vosweg,46,,,8411KL,Jubbega,Heerenveen,Friesland,VBO,6.097743,52.981935
Hendrik de Vosweg,48,,,8411KL,Jubbega,Heerenveen,Friesland,VBO,6.098328,52.982219
Hendrik de Vosweg,50,,,8411KL,Jubbega,Heerenveen,Friesland,VBO,6.098643,52.982343
Hendrik de Vosweg,52,,,8411KL,Jubbega,Heerenveen,Friesland,VBO,6.098718,52.982360
Hendrik de Vosweg,54,,,8411KL,Jubbega,Heerenveen,Friesland,VBO,6.098853,52.982413
Hendrik de Vosweg,56,,,8411KL,Jubbega,Heerenveen,Friesland,VBO,6.098912,52.982431
Hendrik de Vosweg,58,,,8411KL,Jubbega,Heerenveen,Friesland,VBO,6.099047,52.982484
Koolboswijk,2,A,,8411KL,Jubbega,Heerenveen,Friesland,VBO,6.094487,52.979456
Koolboswijk,2,,,8411KL,Jubbega,Heerenveen,Friesland,VBO,6.095381,52.979513
Koolboswijk,3,,,8411KL,Jubbega,Heerenveen,Friesland,VBO,6.096535,52.979057
Koolboswijk,4,,,8411KL,Jubbega,Heerenveen,Friesland,VBO,6.095911,52.979142
Koolboswijk,5,,,8411KL,Jubbega,Heerenveen,Friesland,VBO,6.097079,52.978658
Koolboswijk,6,,,8411KL,Jubbega,Heerenveen,Friesland,VBO,6.096655,52.978239
Koolboswijk,7,A,,8411KL,Jubbega,Heerenveen,Friesland,VBO,6.098221,52.978456
Koolboswijk,7,,,8411KL,Jubbega,Heerenveen,Friesland,VBO,6.097577,52.978215
Koolboswijk,9,,,8411KL,Jubbega,Heerenveen,Friesland,VBO,6.099340,52.976677
Koolboswijk,9,,,8411KL,Jubbega,Heerenveen,Friesland,VBO,6.099379,52.976700
Koolboswijk,10,,,8411KL,Jubbega,Heerenveen,Friesland,VBO,6.097877,52.977240
Hendrik de Vosweg,13,,,8411KM,Jubbega,Heerenveen,Friesland,VBO,6.102422,52.989428
Hendrik de Vosweg,15,,,8411KM,Jubbega,Heerenveen,Friesland,VBO,6.102869,52.990342
Hendrik de Vosweg,60,A,,8411KM,Jubbega,Heerenveen,Friesland,VBO,6.100201,52.982890
Hendrik de Vosweg,60,,,8411KM,Jubbega,Heerenveen,Friesland,VBO,6.099873,52.982883
Hendrik de Vosweg,62,,,8411KM,Jubbega,Heerenveen,Friesland,VBO,6.100486,52.983059
Hendrik de Vosweg,64,,,8411KM,Jubbega,Heerenveen,Friesland,VBO,6.100609,52.983265
Hendrik de Vosweg,66,,,8411KM,Jubbega,Heerenveen,Friesland,VBO,6.100700,52.983391
Hendrik de Vosweg,72,,,8411KM,Jubbega,Heerenveen,Friesland,VBO,6.101399,52.985148
Hendrik de Vosweg,74,,,8411KM,Jubbega,Heerenveen,Friesland,VBO,6.101561,52.985974
Hendrik de Vosweg,76,,,8411KM,Jubbega,Heerenveen,Friesland,VBO,6.101733,52.986467
Hendrik de Vosweg,78,,,8411KM,Jubbega,Heerenveen,Friesland,VBO,6.102273,52.987578
Hendrik de Vosweg,80,,,8411KM,Jubbega,Heerenveen,Friesland,VBO,6.102771,52.988923
Hendrik de Vosweg,82,,,8411KM,Jubbega,Heerenveen,Friesland,VBO,6.103079,52.989514
Hendrik de Vosweg,84,,,8411KM,Jubbega,Heerenveen,Friesland,VBO,6.103429,52.989979
Hendrik de Vosweg,86,,,8411KM,Jubbega,Heerenveen,Friesland,VBO,6.103778,52.990382
Rozenbergswijk,3,,,8411KN,Jubbega,Heerenveen,Friesland,VBO,6.086806,52.975888
Rozenbergswijk,7,,,8411KN,Jubbega,Heerenveen,Friesland,VBO,6.086517,52.975477
Rozenbergswijk,9,,,8411KN,Jubbega,Heerenveen,Friesland,VBO,6.086840,52.975223
Rozenbergswijk,11,,,8411KN,Jubbega,Heerenveen,Friesland,VBO,6.087566,52.974994
Rozenbergswijk,13,,,8411KN,Jubbega,Heerenveen,Friesland,VBO,6.089091,52.974500
Rozenbergswijk,15,,,8411KN,Jubbega,Heerenveen,Friesland,VBO,6.089634,52.974919
Rozenbergswijk,19,,,8411KN,Jubbega,Heerenveen,Friesland,VBO,6.089811,52.975406
Rozenbergswijk,21,,,8411KN,Jubbega,Heerenveen,Friesland,VBO,6.091984,52.974513
Rozenbergswijk,23,,,8411KN,Jubbega,Heerenveen,Friesland,VBO,6.090767,52.974104
Rozenbergswijk,25,,,8411KN,Jubbega,Heerenveen,Friesland,VBO,6.089492,52.974426
Rozenbergswijk,27,,,8411KN,Jubbega,Heerenveen,Friesland,VBO,6.090136,52.973730
Rozenbergswijk,29,,,8411KN,Jubbega,Heerenveen,Friesland,VBO,6.089611,52.972583
Rozenbergswijk,31,,,8411KN,Jubbega,Heerenveen,Friesland,VBO,6.094748,52.969910
Jonkerspad,6,,,8411KP,Jubbega,Heerenveen,Friesland,VBO,6.094912,52.976299
Kortewijksreed,1,,,8411KP,Jubbega,Heerenveen,Friesland,VBO,6.088339,52.976769
Kortewijksreed,2,,,8411KP,Jubbega,Heerenveen,Friesland,VBO,6.089043,52.975629
Hussekamp,2,,,8411KR,Jubbega,Heerenveen,Friesland,VBO,6.108878,52.974580
Hussekamp,4,,,8411KR,Jubbega,Heerenveen,Friesland,VBO,6.108952,52.974597
Hussekamp,6,,,8411KR,Jubbega,Heerenveen,Friesland,VBO,6.109087,52.974632
Hussekamp,8,,,8411KR,Jubbega,Heerenveen,Friesland,VBO,6.109162,52.974659
Hussekamp,10,,,8411KR,Jubbega,Heerenveen,Friesland,VBO,6.109308,52.974514
Hussekamp,12,,,8411KR,Jubbega,Heerenveen,Friesland,VBO,6.109382,52.974460
Hussekamp,14,,,8411KR,Jubbega,Heerenveen,Friesland,VBO,6.109440,52.974379
Hussekamp,16,,,8411KR,Jubbega,Heerenveen,Friesland,VBO,6.109499,52.974324
Hussekamp,18,,,8411KR,Jubbega,Heerenveen,Friesland,VBO,6.109572,52.974252
Hussekamp,20,,,8411KR,Jubbega,Heerenveen,Friesland,VBO,6.109676,52.974224
Hussekamp,22,,,8411KR,Jubbega,Heerenveen,Friesland,VBO,6.109870,52.974250
Hussekamp,24,,,8411KR,Jubbega,Heerenveen,Friesland,VBO,6.109959,52.974277
Hussekamp,26,,,8411KR,Jubbega,Heerenveen,Friesland,VBO,6.109843,52.974457
Hussekamp,28,,,8411KR,Jubbega,Heerenveen,Friesland,VBO,6.109800,52.974511
Hussekamp,30,,,8411KR,Jubbega,Heerenveen,Friesland,VBO,6.109757,52.974646
Hussekamp,34,,,8411KR,Jubbega,Heerenveen,Friesland,VBO,6.109655,52.974755
Hussekamp,36,,,8411KR,Jubbega,Heerenveen,Friesland,VBO,6.109538,52.974881
Kikkerbos,1,,,8411ML,Jubbega,Heerenveen,Friesland,VBO,6.089072,52.981608
Kikkerbos,3,,,8411ML,Jubbega,Heerenveen,Friesland,VBO,6.088471,52.982232
Oude Singel,5,,,8411ML,Jubbega,Heerenveen,Friesland,VBO,6.094689,52.984882
Oude Singel,9,,,8411ML,Jubbega,Heerenveen,Friesland,VBO,6.082026,52.981425
Bramenstraat,2,,,8411RA,Jubbega,Heerenveen,Friesland,VBO,6.125424,53.000459
Bramenstraat,4,,,8411RA,Jubbega,Heerenveen,Friesland,VBO,6.125635,53.000556
Bramenstraat,6,,,8411RA,Jubbega,Heerenveen,Friesland,VBO,6.125814,53.000618
Bramenstraat,8,,,8411RA,Jubbega,Heerenveen,Friesland,VBO,6.125994,53.000680
Bramenstraat,10,,,8411RA,Jubbega,Heerenveen,Friesland,VBO,6.126189,53.000751
Bramenstraat,12,,,8411RA,Jubbega,Heerenveen,Friesland,VBO,6.126369,53.000812
Bramenstraat,14,,,8411RA,Jubbega,Heerenveen,Friesland,VBO,6.126951,53.000908
Bramenstraat,16,,,8411RA,Jubbega,Heerenveen,Friesland,VBO,6.127159,53.000843
Bramenstraat,18,,,8411RA,Jubbega,Heerenveen,Friesland,VBO,6.127489,53.000958
Bramenstraat,20,,,8411RA,Jubbega,Heerenveen,Friesland,VBO,6.127892,53.001019
Bramenstraat,22,,,8411RA,Jubbega,Heerenveen,Friesland,VBO,6.127805,53.001190
Bramenstraat,24,,,8411RA,Jubbega,Heerenveen,Friesland,VBO,6.127628,53.001272
Bramenstraat,26,,,8411RA,Jubbega,Heerenveen,Friesland,VBO,6.127511,53.001398
Bramenstraat,1,,,8411RB,Jubbega,Heerenveen,Friesland,VBO,6.124751,53.001128
Bramenstraat,3,,,8411RB,Jubbega,Heerenveen,Friesland,VBO,6.124780,53.001092
Bramenstraat,5,,,8411RB,Jubbega,Heerenveen,Friesland,VBO,6.124809,53.001056
Bramenstraat,7,,,8411RB,Jubbega,Heerenveen,Friesland,VBO,6.124853,53.001010
Bramenstraat,9,,,8411RB,Jubbega,Heerenveen,Friesland,VBO,6.124882,53.000974
Bramenstraat,11,,,8411RB,Jubbega,Heerenveen,Friesland,VBO,6.124926,53.000938
Bramenstraat,13,,,8411RB,Jubbega,Heerenveen,Friesland,VBO,6.124985,53.000884
Bramenstraat,15,,,8411RB,Jubbega,Heerenveen,Friesland,VBO,6.125029,53.000839
Bramenstraat,17,,,8411RB,Jubbega,Heerenveen,Friesland,VBO,6.125073,53.000793
Bramenstraat,19,,,8411RB,Jubbega,Heerenveen,Friesland,VBO,6.125102,53.000757
Bramenstraat,21,,,8411RB,Jubbega,Heerenveen,Friesland,VBO,6.125146,53.000721
Bramenstraat,23,,,8411RB,Jubbega,Heerenveen,Friesland,VBO,6.125265,53.000738
Bramenstraat,25,,,8411RB,Jubbega,Heerenveen,Friesland,VBO,6.125680,53.001464
Bramenstraat,27,,,8411RB,Jubbega,Heerenveen,Friesland,VBO,6.125724,53.001427
Bramenstraat,29,,,8411RB,Jubbega,Heerenveen,Friesland,VBO,6.125753,53.001391
Bramenstraat,31,,,8411RB,Jubbega,Heerenveen,Friesland,VBO,6.125782,53.001355
Bramenstraat,33,,,8411RB,Jubbega,Heerenveen,Friesland,VBO,6.125811,53.001319
Bramenstraat,35,,,8411RB,Jubbega,Heerenveen,Friesland,VBO,6.125841,53.001283
Bramenstraat,37,,,8411RB,Jubbega,Heerenveen,Friesland,VBO,6.125899,53.001229
Bramenstraat,39,,,8411RB,Jubbega,Heerenveen,Friesland,VBO,6.125943,53.001192
Bramenstraat,41,,,8411RB,Jubbega,Heerenveen,Friesland,VBO,6.125987,53.001156
Bramenstraat,43,,,8411RB,Jubbega,Heerenveen,Friesland,VBO,6.126017,53.001120
Bramenstraat,45,,,8411RB,Jubbega,Heerenveen,Friesland,VBO,6.126061,53.001075
Bramenstraat,47,,,8411RB,Jubbega,Heerenveen,Friesland,VBO,6.126090,53.001039
Bramenstraat,49,,,8411RB,Jubbega,Heerenveen,Friesland,VBO,6.127033,53.001293
Bramenstraat,51,,,8411RB,Jubbega,Heerenveen,Friesland,VBO,6.128416,53.002085
Bramenstraat,53,,,8411RB,Jubbega,Heerenveen,Friesland,VBO,6.128299,53.002202
Bramenstraat,55,,,8411RB,Jubbega,Heerenveen,Friesland,VBO,6.128255,53.002247
Bramenstraat,57,,,8411RB,Jubbega,Heerenveen,Friesland,VBO,6.128153,53.002347
Bramenstraat,59,,,8411RB,Jubbega,Heerenveen,Friesland,VBO,6.128109,53.002401
Bramenstraat,61,,,8411RB,Jubbega,Heerenveen,Friesland,VBO,6.127992,53.002501
Bramenstraat,63,,,8411RB,Jubbega,Heerenveen,Friesland,VBO,6.127963,53.002546
Bramenstraat,65,,,8411RB,Jubbega,Heerenveen,Friesland,VBO,6.127831,53.002672
Wolfsklauw,1,,,8411RC,Jubbega,Heerenveen,Friesland,VBO,6.126673,53.001161
Wolfsklauw,2,,,8411RC,Jubbega,Heerenveen,Friesland,VBO,6.126512,53.001333
Wolfsklauw,3,,,8411RC,Jubbega,Heerenveen,Friesland,VBO,6.126380,53.001468
Wolfsklauw,4,,,8411RC,Jubbega,Heerenveen,Friesland,VBO,6.126219,53.001631
Wolfsklauw,5,,,8411RC,Jubbega,Heerenveen,Friesland,VBO,6.126072,53.001776
Wolfsklauw,6,,,8411RC,Jubbega,Heerenveen,Friesland,VBO,6.125941,53.001920
Wolfsklauw,7,,,8411RC,Jubbega,Heerenveen,Friesland,VBO,6.125824,53.002038
Wolfsklauw,8,,,8411RC,Jubbega,Heerenveen,Friesland,VBO,6.127306,53.002487
Wolfsklauw,9,,,8411RC,Jubbega,Heerenveen,Friesland,VBO,6.127438,53.002351
Wolfsklauw,10,,,8411RC,Jubbega,Heerenveen,Friesland,VBO,6.127482,53.002315
Wolfsklauw,11,,,8411RC,Jubbega,Heerenveen,Friesland,VBO,6.127584,53.002207
Wolfsklauw,12,,,8411RC,Jubbega,Heerenveen,Friesland,VBO,6.127613,53.002162
Wolfsklauw,13,,,8411RC,Jubbega,Heerenveen,Friesland,VBO,6.127731,53.002053
Wolfsklauw,14,,,8411RC,Jubbega,Heerenveen,Friesland,VBO,6.127775,53.002008
Wolfsklauw,15,,,8411RC,Jubbega,Heerenveen,Friesland,VBO,6.127892,53.001899
Wolfsklauw,25,,,8411RC,Jubbega,Heerenveen,Friesland,VBO,6.125736,53.002537
Wolfsklauw,26,,,8411RC,Jubbega,Heerenveen,Friesland,VBO,6.125862,53.002667
Wolfsklauw,27,,,8411RC,Jubbega,Heerenveen,Friesland,VBO,6.126020,53.002711
Wolfsklauw,28,,,8411RC,Jubbega,Heerenveen,Friesland,VBO,6.126258,53.002812
Kamperfoelie,1,,,8411RD,Jubbega,Heerenveen,Friesland,VBO,6.126948,53.001591
Kamperfoelie,2,,,8411RD,Jubbega,Heerenveen,Friesland,VBO,6.127248,53.001724
Kamperfoelie,3,,,8411RD,Jubbega,Heerenveen,Friesland,VBO,6.126773,53.001789
Kamperfoelie,4,,,8411RD,Jubbega,Heerenveen,Friesland,VBO,6.127043,53.001913
Kamperfoelie,5,,,8411RD,Jubbega,Heerenveen,Friesland,VBO,6.126729,53.001835
Kamperfoelie,7,,,8411RD,Jubbega,Heerenveen,Friesland,VBO,6.126597,53.001952
Kamperfoelie,9,,,8411RD,Jubbega,Heerenveen,Friesland,VBO,6.126568,53.001997
Kamperfoelie,11,,,8411RD,Jubbega,Heerenveen,Friesland,VBO,6.126465,53.002097
Kamperfoelie,13,,,8411RD,Jubbega,Heerenveen,Friesland,VBO,6.126348,53.002223
de Tieme,2,,,8411RE,Jubbega,Heerenveen,Friesland,VBO,6.129210,53.002322
de Tieme,4,,,8411RE,Jubbega,Heerenveen,Friesland,VBO,6.129064,53.002476
de Tieme,6,,,8411RE,Jubbega,Heerenveen,Friesland,VBO,6.128918,53.002639
de Wudze,1,,,8411RG,Jubbega,Heerenveen,Friesland,VBO,6.129589,53.002724
de Wudze,2,,,8411RG,Jubbega,Heerenveen,Friesland,VBO,6.129816,53.002921
de Wudze,3,,,8411RG,Jubbega,Heerenveen,Friesland,VBO,6.129472,53.002851
de Freding,2,,,8411RH,Jubbega,Heerenveen,Friesland,VBO,6.129108,53.004210
de Freding,4,,,8411RH,Jubbega,Heerenveen,Friesland,VBO,6.129167,53.004156
de Freding,6,,,8411RH,Jubbega,Heerenveen,Friesland,VBO,6.129299,53.004047
de Freding,8,,,8411RH,Jubbega,Heerenveen,Friesland,VBO,6.129328,53.003993
de Freding,14,,,8411RH,Jubbega,Heerenveen,Friesland,VBO,6.129841,53.003505
de Freding,16,,,8411RH,Jubbega,Heerenveen,Friesland,VBO,6.129958,53.003378
de Freding,18,,,8411RH,Jubbega,Heerenveen,Friesland,VBO,6.130075,53.003261
de Freding,28,,,8411RH,Jubbega,Heerenveen,Friesland,VBO,6.130763,53.002537
de Freding,30,,,8411RH,Jubbega,Heerenveen,Friesland,VBO,6.130939,53.002375
de Freding,32,,,8411RH,Jubbega,Heerenveen,Friesland,VBO,6.131071,53.002239
de Freding,36,,,8411RH,Jubbega,Heerenveen,Friesland,VBO,6.131580,53.002187
de Freding,38,,,8411RH,Jubbega,Heerenveen,Friesland,VBO,6.131786,53.002270
de Freding,40,,,8411RH,Jubbega,Heerenveen,Friesland,VBO,6.132056,53.002368
de Freding,3,,,8411RJ,Jubbega,Heerenveen,Friesland,VBO,6.129542,53.004324
de Freding,5,,,8411RJ,Jubbega,Heerenveen,Friesland,VBO,6.129659,53.004189
de Freding,7,,,8411RJ,Jubbega,Heerenveen,Friesland,VBO,6.129776,53.004080
de Freding,9,,,8411RJ,Jubbega,Heerenveen,Friesland,VBO,6.129952,53.003890
de Freding,11,,,8411RJ,Jubbega,Heerenveen,Friesland,VBO,6.129996,53.003845
de Freding,13,,,8411RJ,Jubbega,Heerenveen,Friesland,VBO,6.130142,53.003692
de Freding,15,,,8411RJ,Jubbega,Heerenveen,Friesland,VBO,6.130186,53.003646
de Freding,17,,,8411RJ,Jubbega,Heerenveen,Friesland,VBO,6.131403,53.002507
de Freding,19,,,8411RJ,Jubbega,Heerenveen,Friesland,VBO,6.131447,53.002461
de Hikke,1,,,8411RK,Jubbega,Heerenveen,Friesland,VBO,6.130241,53.004221
de Hikke,2,,,8411RK,Jubbega,Heerenveen,Friesland,VBO,6.130282,53.004050
de Hikke,4,,,8411RK,Jubbega,Heerenveen,Friesland,VBO,6.130357,53.004077
it Swee,1,,,8411RL,Jubbega,Heerenveen,Friesland,VBO,6.130575,53.003743
it Swee,2,,,8411RL,Jubbega,Heerenveen,Friesland,VBO,6.130362,53.003484
it Swee,3,,,8411RL,Jubbega,Heerenveen,Friesland,VBO,6.130650,53.003778
it Swee,4,,,8411RL,Jubbega,Heerenveen,Friesland,VBO,6.130497,53.003528
it Swee,6,,,8411RL,Jubbega,Heerenveen,Friesland,VBO,6.130677,53.003589
it Swee,8,,,8411RL,Jubbega,Heerenveen,Friesland,VBO,6.130812,53.003642
de Strikel,1,,,8411RM,Jubbega,Heerenveen,Friesland,VBO,6.131153,53.002670
de Strikel,2,,,8411RM,Jubbega,Heerenveen,Friesland,VBO,6.131704,53.002675
de Strikel,3,,,8411RM,Jubbega,Heerenveen,Friesland,VBO,6.131273,53.002723
de Strikel,4,,,8411RM,Jubbega,Heerenveen,Friesland,VBO,6.131821,53.002549
de Strikel,5,,,8411RM,Jubbega,Heerenveen,Friesland,VBO,6.131452,53.002785
de Strikel,7,,,8411RM,Jubbega,Heerenveen,Friesland,VBO,6.131587,53.002829
it Harspit,2,,,8411RN,Jubbega,Heerenveen,Friesland,VBO,6.131203,53.002112
it Harspit,4,,,8411RN,Jubbega,Heerenveen,Friesland,VBO,6.131305,53.002004
it Harspit,6,,,8411RN,Jubbega,Heerenveen,Friesland,VBO,6.131467,53.001886
Berenklauw,1,,,8411RP,Jubbega,Heerenveen,Friesland,VBO,6.125138,53.001920
Berenklauw,2,,,8411RP,Jubbega,Heerenveen,Friesland,VBO,6.124705,53.001814
Berenklauw,3,,,8411RP,Jubbega,Heerenveen,Friesland,VBO,6.125202,53.001853
Berenklauw,4,,,8411RP,Jubbega,Heerenveen,Friesland,VBO,6.124780,53.001741
Berenklauw,5,,,8411RP,Jubbega,Heerenveen,Friesland,VBO,6.125278,53.001765
Berenklauw,6,,,8411RP,Jubbega,Heerenveen,Friesland,VBO,6.124865,53.001662
Berenklauw,7,,,8411RP,Jubbega,Heerenveen,Friesland,VBO,6.125348,53.001703
Berenklauw,8,,,8411RP,Jubbega,Heerenveen,Friesland,VBO,6.124941,53.001591
Berenklauw,9,,,8411RP,Jubbega,Heerenveen,Friesland,VBO,6.125432,53.001615
Berenklauw,10,,,8411RP,Jubbega,Heerenveen,Friesland,VBO,6.125011,53.001509
Berenklauw,11,,,8411RP,Jubbega,Heerenveen,Friesland,VBO,6.125496,53.001539
Berenklauw,12,,,8411RP,Jubbega,Heerenveen,Friesland,VBO,6.125083,53.001433
Expansielaan,1,A,,8411TA,Jubbega,Heerenveen,Friesland,VBO,6.130095,53.005273
Expansielaan,1,,,8411TA,Jubbega,Heerenveen,Friesland,VBO,6.129949,53.005281
Expansielaan,3,,,8411TA,Jubbega,Heerenveen,Friesland,VBO,6.130259,53.005326
Expansielaan,5,,,8411TA,Jubbega,Heerenveen,Friesland,VBO,6.130364,53.005344
Expansielaan,7,,,8411TA,Jubbega,Heerenveen,Friesland,VBO,6.130545,53.005486
Expansielaan,9,,,8411TA,Jubbega,Heerenveen,Friesland,VBO,6.130546,53.005540
Expansielaan,11,,,8411TA,Jubbega,Heerenveen,Friesland,VBO,6.131204,53.005689
Expansielaan,13,,,8411TA,Jubbega,Heerenveen,Friesland,VBO,6.131294,53.005688
Expansielaan,15,,,8411TA,Jubbega,Heerenveen,Friesland,VBO,6.131398,53.005706
Expansielaan,17,,,8411TA,Jubbega,Heerenveen,Friesland,VBO,6.131517,53.005705
Expansielaan,19,,,8411TA,Jubbega,Heerenveen,Friesland,VBO,6.131751,53.005549
Expansielaan,21,,,8411TA,Jubbega,Heerenveen,Friesland,VBO,6.131723,53.005612
Expansielaan,23,,,8411TA,Jubbega,Heerenveen,Friesland,VBO,6.131725,53.005564
Expansielaan,25,,,8411TA,Jubbega,Heerenveen,Friesland,VBO,6.131745,53.005631
Expansielaan,27,,,8411TA,Jubbega,Heerenveen,Friesland,VBO,6.132156,53.005611
Expansielaan,29,,,8411TA,Jubbega,Heerenveen,Friesland,VBO,6.132127,53.005665
Expansielaan,35,,,8411TA,Jubbega,Heerenveen,Friesland,VBO,6.131817,53.005829
Expansielaan,37,,,8411TA,Jubbega,Heerenveen,Friesland,VBO,6.131759,53.005883
Expansielaan,39,,,8411TA,Jubbega,Heerenveen,Friesland,VBO,6.131670,53.005947
Expansielaan,2,,,8411TB,Jubbega,Heerenveen,Friesland,VBO,6.130435,53.005119
Expansielaan,4,,,8411TB,Jubbega,Heerenveen,Friesland,VBO,6.130477,53.004966
Expansielaan,6,,,8411TB,Jubbega,Heerenveen,Friesland,VBO,6.130431,53.004912
Expansielaan,8,,,8411TB,Jubbega,Heerenveen,Friesland,VBO,6.130281,53.004841
Expansielaan,10,,,8411TB,Jubbega,Heerenveen,Friesland,VBO,6.130689,53.005198
Expansielaan,12,,,8411TB,Jubbega,Heerenveen,Friesland,VBO,6.130779,53.005233
Expansielaan,14,,,8411TB,Jubbega,Heerenveen,Friesland,VBO,6.130869,53.005260
Expansielaan,16,,,8411TB,Jubbega,Heerenveen,Friesland,VBO,6.130959,53.005304
Expansielaan,18,,,8411TB,Jubbega,Heerenveen,Friesland,VBO,6.131006,53.005412
Expansielaan,20,,,8411TB,Jubbega,Heerenveen,Friesland,VBO,6.131007,53.005475
Expansielaan,22,,,8411TB,Jubbega,Heerenveen,Friesland,VBO,6.131853,53.005290
Expansielaan,28,,,8411TB,Jubbega,Heerenveen,Friesland,VBO,6.132542,53.005510
Expansielaan,30,,,8411TB,Jubbega,Heerenveen,Friesland,VBO,6.132470,53.005663
Expansielaan,32,,,8411TB,Jubbega,Heerenveen,Friesland,VBO,6.132220,53.005862
Expansielaan,34,,,8411TB,Jubbega,Heerenveen,Friesland,VBO,6.132058,53.005980
Expansielaan,36,,,8411TB,Jubbega,Heerenveen,Friesland,VBO,6.131941,53.006089
Expansielaan,38,,,8411TB,Jubbega,Heerenveen,Friesland,VBO,6.131779,53.006198
Expansielaan,40,,,8411TB,Jubbega,Heerenveen,Friesland,VBO,6.131677,53.006306
Expansielaan,42,,,8411TB,Jubbega,Heerenveen,Friesland,VBO,6.131588,53.006379
Expansielaan,44,,,8411TB,Jubbega,Heerenveen,Friesland,VBO,6.131515,53.006451
Expansielaan,46,,,8411TB,Jubbega,Heerenveen,Friesland,VBO,6.131413,53.006577
Expansielaan,48,,,8411TB,Jubbega,Heerenveen,Friesland,VBO,6.131460,53.006685
Loete,2,,,8411TC,Jubbega,Heerenveen,Friesland,VBO,6.129292,53.006231
Loete,4,,,8411TC,Jubbega,Heerenveen,Friesland,VBO,6.129381,53.006257
Loete,6,,,8411TC,Jubbega,Heerenveen,Friesland,VBO,6.129486,53.006293
Loete,8,,,8411TC,Jubbega,Heerenveen,Friesland,VBO,6.129591,53.006328
Loete,10,,,8411TC,Jubbega,Heerenveen,Friesland,VBO,6.129663,53.006139
Loete,12,,,8411TC,Jubbega,Heerenveen,Friesland,VBO,6.129721,53.006076
Loete,14,,,8411TC,Jubbega,Heerenveen,Friesland,VBO,6.129780,53.006012
Loete,16,,,8411TC,Jubbega,Heerenveen,Friesland,VBO,6.129823,53.005958
Loete,18,,,8411TC,Jubbega,Heerenveen,Friesland,VBO,6.130016,53.005912
Loete,20,,,8411TC,Jubbega,Heerenveen,Friesland,VBO,6.130090,53.005849
Loete,22,,,8411TC,Jubbega,Heerenveen,Friesland,VBO,6.130356,53.005775
Loete,24,,,8411TC,Jubbega,Heerenveen,Friesland,VBO,6.130489,53.005684
Loete,1,,,8411TD,Jubbega,Heerenveen,Friesland,VBO,6.130213,53.006117
Loete,3,,,8411TD,Jubbega,Heerenveen,Friesland,VBO,6.130303,53.006144
Loete,13,,,8411TD,Jubbega,Heerenveen,Friesland,VBO,6.130927,53.006059
Loete,15,,,8411TD,Jubbega,Heerenveen,Friesland,VBO,6.130938,53.005816
Loete,17,,,8411TD,Jubbega,Heerenveen,Friesland,VBO,6.131011,53.005744
Krabber,3,,,8411TE,Jubbega,Heerenveen,Friesland,VBO,6.131432,53.004196
Krabber,5,A,,8411TE,Jubbega,Heerenveen,Friesland,VBO,6.131778,53.004382
Krabber,5,,,8411TE,Jubbega,Heerenveen,Friesland,VBO,6.131762,53.004346
Krabber,7,A,,8411TE,Jubbega,Heerenveen,Friesland,VBO,6.131673,53.004383
Krabber,7,,,8411TE,Jubbega,Heerenveen,Friesland,VBO,6.131719,53.004410
Krabber,9,A,,8411TE,Jubbega,Heerenveen,Friesland,VBO,6.131512,53.004510
Krabber,9,,,8411TE,Jubbega,Heerenveen,Friesland,VBO,6.131556,53.004483
Krabber,11,A,,8411TE,Jubbega,Heerenveen,Friesland,VBO,6.131466,53.004456
Krabber,11,,,8411TE,Jubbega,Heerenveen,Friesland,VBO,6.131452,53.004501
Krabber,13,,,8411TE,Jubbega,Heerenveen,Friesland,VBO,6.131184,53.004530
Krabber,15,,,8411TE,Jubbega,Heerenveen,Friesland,VBO,6.131126,53.004575
Krabber,17,,,8411TE,Jubbega,Heerenveen,Friesland,VBO,6.131067,53.004620
Krabber,19,,,8411TE,Jubbega,Heerenveen,Friesland,VBO,6.131008,53.004684
Krabber,21,,,8411TE,Jubbega,Heerenveen,Friesland,VBO,6.130981,53.004846
Krabber,23,,,8411TE,Jubbega,Heerenveen,Friesland,VBO,6.131012,53.004908
Krabber,25,,,8411TE,Jubbega,Heerenveen,Friesland,VBO,6.131028,53.004962
Krabber,27,,,8411TE,Jubbega,Heerenveen,Friesland,VBO,6.131059,53.005034
Krabber,29,,,8411TE,Jubbega,Heerenveen,Friesland,VBO,6.131073,53.005094
Krabber,2,,,8411TG,Jubbega,Heerenveen,Friesland,VBO,6.131549,53.004060
Krabber,4,,,8411TG,Jubbega,Heerenveen,Friesland,VBO,6.131744,53.004122
Krabber,8,,,8411TG,Jubbega,Heerenveen,Friesland,VBO,6.132121,53.004443
Krabber,10,,,8411TG,Jubbega,Heerenveen,Friesland,VBO,6.132063,53.004488
Krabber,12,,,8411TG,Jubbega,Heerenveen,Friesland,VBO,6.132050,53.004623
Krabber,14,,,8411TG,Jubbega,Heerenveen,Friesland,VBO,6.132081,53.004686
Krabber,16,,,8411TG,Jubbega,Heerenveen,Friesland,VBO,6.131978,53.004785
Krabber,18,,,8411TG,Jubbega,Heerenveen,Friesland,VBO,6.131935,53.004840
Krabber,20,,,8411TG,Jubbega,Heerenveen,Friesland,VBO,6.131847,53.004930
Krabber,22,,,8411TG,Jubbega,Heerenveen,Friesland,VBO,6.131803,53.004984
Krabber,24,,,8411TG,Jubbega,Heerenveen,Friesland,VBO,6.131640,53.005039
Krabber,26,,,8411TG,Jubbega,Heerenveen,Friesland,VBO,6.131536,53.005058
Krabber,28,,,8411TG,Jubbega,Heerenveen,Friesland,VBO,6.131447,53.005085
Krabber,30,,,8411TG,Jubbega,Heerenveen,Friesland,VBO,6.131585,53.005300
Expansielaan,41,,,8411TH,Jubbega,Heerenveen,Friesland,VBO,6.131612,53.006001
Expansielaan,43,,,8411TH,Jubbega,Heerenveen,Friesland,VBO,6.131479,53.006065
Expansielaan,45,,,8411TH,Jubbega,Heerenveen,Friesland,VBO,6.131435,53.006110
Expansielaan,47,,,8411TH,Jubbega,Heerenveen,Friesland,VBO,6.131362,53.006191
Expansielaan,49,,,8411TH,Jubbega,Heerenveen,Friesland,VBO,6.131318,53.006245
Expansielaan,51,,,8411TH,Jubbega,Heerenveen,Friesland,VBO,6.131215,53.006336
Expansielaan,53,,,8411TH,Jubbega,Heerenveen,Friesland,VBO,6.131186,53.006381
Expansielaan,55,,,8411TH,Jubbega,Heerenveen,Friesland,VBO,6.131040,53.006517
Expansielaan,57,,,8411TH,Jubbega,Heerenveen,Friesland,VBO,6.130965,53.006499
Expansielaan,59,,,8411TH,Jubbega,Heerenveen,Friesland,VBO,6.130845,53.006437
Expansielaan,61,,,8411TH,Jubbega,Heerenveen,Friesland,VBO,6.130740,53.006402
2e Wijk,1,,,8411TK,Jubbega,Heerenveen,Friesland,VBO,6.128992,53.006125
2e Wijk,5,,,8411TK,Jubbega,Heerenveen,Friesland,VBO,6.129197,53.005917
2e Wijk,7,,,8411TK,Jubbega,Heerenveen,Friesland,VBO,6.129359,53.005835
2e Wijk,9,,,8411TK,Jubbega,Heerenveen,Friesland,VBO,6.129388,53.005790
2e Wijk,11,A,,8411TK,Jubbega,Heerenveen,Friesland,VBO,6.129505,53.005664
2e Wijk,11,,,8411TK,Jubbega,Heerenveen,Friesland,VBO,6.129476,53.005709
2e Wijk,13,A,,8411TK,Jubbega,Heerenveen,Friesland,VBO,6.129637,53.005546
2e Wijk,13,,,8411TK,Jubbega,Heerenveen,Friesland,VBO,6.129593,53.005582
2e Wijk,15,,,8411TK,Jubbega,Heerenveen,Friesland,VBO,6.129680,53.005438
2e Wijk,17,,,8411TK,Jubbega,Heerenveen,Friesland,VBO,6.129739,53.005384
2e Wijk,19,,,8411TK,Jubbega,Heerenveen,Friesland,VBO,6.130486,53.004624
2e Wijk,21,,,8411TK,Jubbega,Heerenveen,Friesland,VBO,6.130530,53.004588
2e Wijk,23,,,8411TK,Jubbega,Heerenveen,Friesland,VBO,6.130632,53.004479
2e Wijk,25,,,8411TK,Jubbega,Heerenveen,Friesland,VBO,6.130676,53.004443
2e Wijk,27,,,8411TK,Jubbega,Heerenveen,Friesland,VBO,6.130765,53.004398
2e Wijk,29,,,8411TK,Jubbega,Heerenveen,Friesland,VBO,6.130852,53.004235
1e Wijk,1,,,8411TL,Jubbega,Heerenveen,Friesland,VBO,6.128519,53.002866
Welgelegen,1,A,,8411TN,Jubbega,Heerenveen,Friesland,VBO,6.130435,53.007752
Welgelegen,2,A,,8411TN,Jubbega,Heerenveen,Friesland,VBO,6.130868,53.007830
Welgelegen,2,,,8411TN,Jubbega,Heerenveen,Friesland,VBO,6.130653,53.008298
Welgelegen,4,,,8411TN,Jubbega,Heerenveen,Friesland,VBO,6.130168,53.008706
Welgelegen,6,,,8411TN,Jubbega,Heerenveen,Friesland,VBO,6.129860,53.008968
Stekker,2,,,8411TR,Jubbega,Heerenveen,Friesland,VBO,6.132150,53.005252
Stekker,4,,,8411TR,Jubbega,Heerenveen,Friesland,VBO,6.132209,53.005179
Stekker,6,,,8411TR,Jubbega,Heerenveen,Friesland,VBO,6.132282,53.005107
Stekker,8,,,8411TR,Jubbega,Heerenveen,Friesland,VBO,6.132385,53.005017
Stekker,10,,,8411TR,Jubbega,Heerenveen,Friesland,VBO,6.132458,53.004944
Stekker,12,,,8411TR,Jubbega,Heerenveen,Friesland,VBO,6.132531,53.004863
Stekker,14,,,8411TR,Jubbega,Heerenveen,Friesland,VBO,6.132721,53.004682
Stekker,16,,,8411TR,Jubbega,Heerenveen,Friesland,VBO,6.132646,53.004656
Stekker,18,,,8411TR,Jubbega,Heerenveen,Friesland,VBO,6.132587,53.004638
Stekker,20,,,8411TR,Jubbega,Heerenveen,Friesland,VBO,6.132512,53.004611
Stekker,22,,,8411TR,Jubbega,Heerenveen,Friesland,VBO,6.132928,53.004546
Stekker,24,,,8411TR,Jubbega,Heerenveen,Friesland,VBO,6.133059,53.004410
Stekker,26,,,8411TR,Jubbega,Heerenveen,Friesland,VBO,6.133103,53.004365
Stekker,28,,,8411TR,Jubbega,Heerenveen,Friesland,VBO,6.133279,53.004175
Stekker,1,,,8411TS,Jubbega,Heerenveen,Friesland,VBO,6.132689,53.005419
Stekker,3,,,8411TS,Jubbega,Heerenveen,Friesland,VBO,6.132746,53.005275
Stekker,5,,,8411TS,Jubbega,Heerenveen,Friesland,VBO,6.132878,53.005139
Stekker,7,,,8411TS,Jubbega,Heerenveen,Friesland,VBO,6.133039,53.004977
Stekker,9,,,8411TS,Jubbega,Heerenveen,Friesland,VBO,6.133156,53.004859
Stekker,11,,,8411TS,Jubbega,Heerenveen,Friesland,VBO,6.133318,53.004705
Stekker,13,,,8411TS,Jubbega,Heerenveen,Friesland,VBO,6.133449,53.004570
Stekker,15,,,8411TS,Jubbega,Heerenveen,Friesland,VBO,6.133611,53.004416
Stekker,17,,,8411TS,Jubbega,Heerenveen,Friesland,VBO,6.133728,53.004298
Stekker,19,,,8411TS,Jubbega,Heerenveen,Friesland,VBO,6.133904,53.004117
Stekker,21,,,8411TS,Jubbega,Heerenveen,Friesland,VBO,6.134006,53.004009
de Kroade,1,,,8411TT,Jubbega,Heerenveen,Friesland,VBO,6.132388,53.004343
de Kroade,2,,,8411TT,Jubbega,Heerenveen,Friesland,VBO,6.132337,53.003956
de Kroade,3,,,8411TT,Jubbega,Heerenveen,Friesland,VBO,6.132505,53.004216
de Kroade,4,,,8411TT,Jubbega,Heerenveen,Friesland,VBO,6.132380,53.003902
de Kroade,5,,,8411TT,Jubbega,Heerenveen,Friesland,VBO,6.132637,53.004098
de Kroade,7,,,8411TT,Jubbega,Heerenveen,Friesland,VBO,6.132739,53.003981
de Line,1,,,8411TV,Jubbega,Heerenveen,Friesland,VBO,6.133424,53.003932
de Line,2,,,8411TV,Jubbega,Heerenveen,Friesland,VBO,6.132080,53.003742
de Line,3,,,8411TV,Jubbega,Heerenveen,Friesland,VBO,6.133109,53.003808
de Line,4,,,8411TV,Jubbega,Heerenveen,Friesland,VBO,6.131900,53.003681
de Line,5,,,8411TV,Jubbega,Heerenveen,Friesland,VBO,6.132747,53.003594
de Line,6,,,8411TV,Jubbega,Heerenveen,Friesland,VBO,6.131075,53.003362
de Line,7,,,8411TV,Jubbega,Heerenveen,Friesland,VBO,6.132389,53.003516
de Line,8,,,8411TV,Jubbega,Heerenveen,Friesland,VBO,6.131000,53.003345
de Line,9,,,8411TV,Jubbega,Heerenveen,Friesland,VBO,6.132119,53.003410
de Line,10,,,8411TV,Jubbega,Heerenveen,Friesland,VBO,6.130745,53.003247
de Line,11,,,8411TV,Jubbega,Heerenveen,Friesland,VBO,6.131849,53.003313
de Line,12,,,8411TV,Jubbega,Heerenveen,Friesland,VBO,6.130685,53.003221
de Line,13,,,8411TV,Jubbega,Heerenveen,Friesland,VBO,6.131309,53.003118
de Line,14,,,8411TV,Jubbega,Heerenveen,Friesland,VBO,6.130310,53.003026
de Line,15,,,8411TV,Jubbega,Heerenveen,Friesland,VBO,6.131234,53.003101
de Line,16,,,8411TV,Jubbega,Heerenveen,Friesland,VBO,6.130070,53.002946
de Line,17,,,8411TV,Jubbega,Heerenveen,Friesland,VBO,6.130994,53.003003
de Line,18,,,8411TV,Jubbega,Heerenveen,Friesland,VBO,6.129764,53.002508
de Line,19,,,8411TV,Jubbega,Heerenveen,Friesland,VBO,6.130935,53.002986
de Koer,1,,,8411TW,Jubbega,Heerenveen,Friesland,VBO,6.131323,53.003900
de Koer,3,,,8411TW,Jubbega,Heerenveen,Friesland,VBO,6.131469,53.003746
de Koer,5,,,8411TW,Jubbega,Heerenveen,Friesland,VBO,6.131586,53.003611
Boudewijn Leenheerstraat,2,,,8411VA,Jubbega,Heerenveen,Friesland,VBO,6.120375,53.003150
Boudewijn Leenheerstraat,4,,,8411VA,Jubbega,Heerenveen,Friesland,VBO,6.120507,53.003005
Boudewijn Leenheerstraat,6,,,8411VA,Jubbega,Heerenveen,Friesland,VBO,6.120815,53.002698
Boudewijn Leenheerstraat,8,,,8411VA,Jubbega,Heerenveen,Friesland,VBO,6.120975,53.002472
Boudewijn Leenheerstraat,10,,,8411VA,Jubbega,Heerenveen,Friesland,VBO,6.121165,53.002264
Boudewijn Leenheerstraat,12,,,8411VA,Jubbega,Heerenveen,Friesland,VBO,6.121620,53.001848
Boudewijn Leenheerstraat,1,,,8411VB,Jubbega,Heerenveen,Friesland,VBO,6.120913,53.003245
Boudewijn Leenheerstraat,3,,,8411VB,Jubbega,Heerenveen,Friesland,VBO,6.120957,53.003200
Boudewijn Leenheerstraat,5,,,8411VB,Jubbega,Heerenveen,Friesland,VBO,6.121030,53.003119
Boudewijn Leenheerstraat,7,,,8411VB,Jubbega,Heerenveen,Friesland,VBO,6.121074,53.003065
Boudewijn Leenheerstraat,9,,,8411VB,Jubbega,Heerenveen,Friesland,VBO,6.121162,53.002992
Boudewijn Leenheerstraat,11,,,8411VB,Jubbega,Heerenveen,Friesland,VBO,6.121191,53.002956
Boudewijn Leenheerstraat,13,,,8411VB,Jubbega,Heerenveen,Friesland,VBO,6.121279,53.002866
Boudewijn Leenheerstraat,15,,,8411VB,Jubbega,Heerenveen,Friesland,VBO,6.121323,53.002811
Boudewijn Leenheerstraat,17,,,8411VB,Jubbega,Heerenveen,Friesland,VBO,6.121396,53.002739
Boudewijn Leenheerstraat,19,,,8411VB,Jubbega,Heerenveen,Friesland,VBO,6.121425,53.002694
Boudewijn Leenheerstraat,21,,,8411VB,Jubbega,Heerenveen,Friesland,VBO,6.121572,53.002531
Boudewijn Leenheerstraat,23,,,8411VB,Jubbega,Heerenveen,Friesland,VBO,6.121766,53.002557
Boudewijn Leenheerstraat,25,,,8411VB,Jubbega,Heerenveen,Friesland,VBO,6.121961,53.002628
Boudewijn Leenheerstraat,27,,,8411VB,Jubbega,Heerenveen,Friesland,VBO,6.122125,53.002690
Ericalaan,1,,,8411VC,Jubbega,Heerenveen,Friesland,VBO,6.123484,53.002843
Ericalaan,3,,,8411VC,Jubbega,Heerenveen,Friesland,VBO,6.123649,53.002905
Ericalaan,5,,,8411VC,Jubbega,Heerenveen,Friesland,VBO,6.123978,53.003020
Ericalaan,7,,,8411VC,Jubbega,Heerenveen,Friesland,VBO,6.124158,53.003091
Ericalaan,9,,,8411VD,Jubbega,Heerenveen,Friesland,VBO,6.124518,53.003232
Ericalaan,11,,,8411VD,Jubbega,Heerenveen,Friesland,VBO,6.124623,53.003267
Ericalaan,13,,,8411VD,Jubbega,Heerenveen,Friesland,VBO,6.124743,53.003312
Ericalaan,15,,,8411VD,Jubbega,Heerenveen,Friesland,VBO,6.124835,53.003354
Ericalaan,17,,,8411VD,Jubbega,Heerenveen,Friesland,VBO,6.124966,53.003406
Ericalaan,19,,,8411VD,Jubbega,Heerenveen,Friesland,VBO,6.125057,53.003409
Ericalaan,21,,,8411VE,Jubbega,Heerenveen,Friesland,VBO,6.125388,53.003550
Ericalaan,23,,,8411VE,Jubbega,Heerenveen,Friesland,VBO,6.125551,53.003622
Ericalaan,25,,,8411VE,Jubbega,Heerenveen,Friesland,VBO,6.125648,53.003640
Ericalaan,27,,,8411VG,Jubbega,Heerenveen,Friesland,VBO,6.125807,53.003682
Ericalaan,29,,,8411VG,Jubbega,Heerenveen,Friesland,VBO,6.126137,53.003797
Ericalaan,31,,,8411VG,Jubbega,Heerenveen,Friesland,VBO,6.126241,53.003815
Ericalaan,33,,,8411VG,Jubbega,Heerenveen,Friesland,VBO,6.126361,53.003859
Ericalaan,35,,,8411VG,Jubbega,Heerenveen,Friesland,VBO,6.126451,53.003885
Ericalaan,37,,,8411VG,Jubbega,Heerenveen,Friesland,VBO,6.126582,53.003947
Ericalaan,39,,,8411VG,Jubbega,Heerenveen,Friesland,VBO,6.126690,53.003956
Ericalaan,41,,,8411VG,Jubbega,Heerenveen,Friesland,VBO,6.127218,53.004144
Ericalaan,43,,,8411VG,Jubbega,Heerenveen,Friesland,VBO,6.127320,53.004175
Ericalaan,45,,,8411VH,Jubbega,Heerenveen,Friesland,VBO,6.127786,53.004398
Ericalaan,47,,,8411VH,Jubbega,Heerenveen,Friesland,VBO,6.127727,53.004452
Ericalaan,49,,,8411VH,Jubbega,Heerenveen,Friesland,VBO,6.127653,53.004507
Ericalaan,51,,,8411VH,Jubbega,Heerenveen,Friesland,VBO,6.127595,53.004570
Ericalaan,53,,,8411VH,Jubbega,Heerenveen,Friesland,VBO,6.128175,53.004549
Ericalaan,55,,,8411VH,Jubbega,Heerenveen,Friesland,VBO,6.128117,53.004594
Ericalaan,57,,,8411VH,Jubbega,Heerenveen,Friesland,VBO,6.128043,53.004666
Ericalaan,59,,,8411VH,Jubbega,Heerenveen,Friesland,VBO,6.127985,53.004729
Ericalaan,61,,,8411VH,Jubbega,Heerenveen,Friesland,VBO,6.128460,53.004655
Ericalaan,63,,,8411VH,Jubbega,Heerenveen,Friesland,VBO,6.128416,53.004709
Ericalaan,65,,,8411VH,Jubbega,Heerenveen,Friesland,VBO,6.128358,53.004772
Ericalaan,67,,,8411VH,Jubbega,Heerenveen,Friesland,VBO,6.128284,53.004826
Ericalaan,69,,,8411VH,Jubbega,Heerenveen,Friesland,VBO,6.128865,53.004823
Ericalaan,71,,,8411VH,Jubbega,Heerenveen,Friesland,VBO,6.128807,53.004868
Ericalaan,73,,,8411VH,Jubbega,Heerenveen,Friesland,VBO,6.128748,53.004940
Ericalaan,75,,,8411VH,Jubbega,Heerenveen,Friesland,VBO,6.128675,53.004995
Ericalaan,77,,,8411VH,Jubbega,Heerenveen,Friesland,VBO,6.129300,53.004991
Ericalaan,79,,,8411VH,Jubbega,Heerenveen,Friesland,VBO,6.129256,53.005027
Ericalaan,81,,,8411VH,Jubbega,Heerenveen,Friesland,VBO,6.129198,53.005081
Ericalaan,83,,,8411VH,Jubbega,Heerenveen,Friesland,VBO,6.129121,53.005161
Ericalaan,2,,,8411VJ,Jubbega,Heerenveen,Friesland,VBO,6.123374,53.002502
Ericalaan,4,,,8411VJ,Jubbega,Heerenveen,Friesland,VBO,6.123509,53.002591
Ericalaan,6,,,8411VJ,Jubbega,Heerenveen,Friesland,VBO,6.123644,53.002635
Ericalaan,8,,,8411VJ,Jubbega,Heerenveen,Friesland,VBO,6.123749,53.002671
Ericalaan,10,,,8411VJ,Jubbega,Heerenveen,Friesland,VBO,6.123854,53.002706
Ericalaan,12,,,8411VK,Jubbega,Heerenveen,Friesland,VBO,6.124214,53.002848
Ericalaan,14,,,8411VK,Jubbega,Heerenveen,Friesland,VBO,6.124319,53.002883
Ericalaan,16,A,,8411VK,Jubbega,Heerenveen,Friesland,VBO,6.124775,53.003002
Ericalaan,16,B,,8411VK,Jubbega,Heerenveen,Friesland,VBO,6.124841,53.002932
Ericalaan,16,C,,8411VK,Jubbega,Heerenveen,Friesland,VBO,6.124899,53.002876
Ericalaan,16,D,,8411VK,Jubbega,Heerenveen,Friesland,VBO,6.124945,53.002817
Ericalaan,16,E,,8411VK,Jubbega,Heerenveen,Friesland,VBO,6.125058,53.002726
Ericalaan,16,F,,8411VK,Jubbega,Heerenveen,Friesland,VBO,6.125104,53.002670
Ericalaan,16,G,,8411VK,Jubbega,Heerenveen,Friesland,VBO,6.125172,53.002599
Ericalaan,16,H,,8411VK,Jubbega,Heerenveen,Friesland,VBO,6.125217,53.002542
Ericalaan,16,I,,8411VK,Jubbega,Heerenveen,Friesland,VBO,6.125313,53.002461
Ericalaan,16,J,,8411VK,Jubbega,Heerenveen,Friesland,VBO,6.125377,53.002389
Ericalaan,16,K,,8411VK,Jubbega,Heerenveen,Friesland,VBO,6.125429,53.002326
Ericalaan,16,L,,8411VK,Jubbega,Heerenveen,Friesland,VBO,6.125503,53.002268
Ericalaan,18,,,8411VK,Jubbega,Heerenveen,Friesland,VBO,6.125534,53.003109
Ericalaan,20,,,8411VK,Jubbega,Heerenveen,Friesland,VBO,6.125450,53.002859
Ericalaan,22,A,,8411VK,Jubbega,Heerenveen,Friesland,VBO,6.124974,53.002931
Ericalaan,22,B,,8411VK,Jubbega,Heerenveen,Friesland,VBO,6.125227,53.002661
Ericalaan,22,C,,8411VK,Jubbega,Heerenveen,Friesland,VBO,6.125507,53.002380
Ericalaan,22,,,8411VK,Jubbega,Heerenveen,Friesland,VBO,6.125359,53.002983
Ericalaan,24,A,,8411VK,Jubbega,Heerenveen,Friesland,VBO,6.126007,53.003035
Ericalaan,26,,,8411VK,Jubbega,Heerenveen,Friesland,VBO,6.126338,53.003562
Ericalaan,28,,,8411VK,Jubbega,Heerenveen,Friesland,VBO,6.126437,53.003597
Ericalaan,30,,,8411VK,Jubbega,Heerenveen,Friesland,VBO,6.126579,53.003663
Ericalaan,32,,,8411VK,Jubbega,Heerenveen,Friesland,VBO,6.126672,53.003667
Ericalaan,34,,,8411VK,Jubbega,Heerenveen,Friesland,VBO,6.126819,53.003711
Ericalaan,36,,,8411VK,Jubbega,Heerenveen,Friesland,VBO,6.126921,53.003741
Ericalaan,38,,,8411VK,Jubbega,Heerenveen,Friesland,VBO,6.127471,53.003881
Ericalaan,40,,,8411VK,Jubbega,Heerenveen,Friesland,VBO,6.127577,53.003928
Ericalaan,42,,,8411VK,Jubbega,Heerenveen,Friesland,VBO,6.127710,53.003973
Ericalaan,44,,,8411VK,Jubbega,Heerenveen,Friesland,VBO,6.127812,53.004015
Ericalaan,46,,,8411VK,Jubbega,Heerenveen,Friesland,VBO,6.127951,53.004063
Ericalaan,48,,,8411VK,Jubbega,Heerenveen,Friesland,VBO,6.128055,53.004102
Ericalaan,50,,,8411VK,Jubbega,Heerenveen,Friesland,VBO,6.128359,53.004218
Ericalaan,52,,,8411VK,Jubbega,Heerenveen,Friesland,VBO,6.128442,53.004252
Ericalaan,54,,,8411VK,Jubbega,Heerenveen,Friesland,VBO,6.128502,53.004279
Ericalaan,56,,,8411VK,Jubbega,Heerenveen,Friesland,VBO,6.128600,53.004313
Ericalaan,58,,,8411VK,Jubbega,Heerenveen,Friesland,VBO,6.128742,53.004368
Ericalaan,60,,,8411VK,Jubbega,Heerenveen,Friesland,VBO,6.128825,53.004401
Ericalaan,62,,,8411VK,Jubbega,Heerenveen,Friesland,VBO,6.128892,53.004429
Ericalaan,64,,,8411VK,Jubbega,Heerenveen,Friesland,VBO,6.128970,53.004464
Ericalaan,66,,,8411VK,Jubbega,Heerenveen,Friesland,VBO,6.129278,53.004571
Ericalaan,68,,,8411VK,Jubbega,Heerenveen,Friesland,VBO,6.129355,53.004606
Ericalaan,70,,,8411VK,Jubbega,Heerenveen,Friesland,VBO,6.129435,53.004637
Ericalaan,72,,,8411VK,Jubbega,Heerenveen,Friesland,VBO,6.129578,53.004693
Ericalaan,74,,,8411VK,Jubbega,Heerenveen,Friesland,VBO,6.129660,53.004728
Ericalaan,76,,,8411VK,Jubbega,Heerenveen,Friesland,VBO,6.129753,53.004758
Wollegrasstraat,3,,,8411VL,Jubbega,Heerenveen,Friesland,VBO,6.124351,53.002709
Wollegrasstraat,4,,,8411VL,Jubbega,Heerenveen,Friesland,VBO,6.123996,53.002582
Wollegrasstraat,5,,,8411VL,Jubbega,Heerenveen,Friesland,VBO,6.124401,53.002649
Wollegrasstraat,6,,,8411VL,Jubbega,Heerenveen,Friesland,VBO,6.124081,53.002522
Wollegrasstraat,7,,,8411VL,Jubbega,Heerenveen,Friesland,VBO,6.124495,53.002570
Wollegrasstraat,8,,,8411VL,Jubbega,Heerenveen,Friesland,VBO,6.124170,53.002441
Wollegrasstraat,9,,,8411VL,Jubbega,Heerenveen,Friesland,VBO,6.124555,53.002508
Wollegrasstraat,10,,,8411VL,Jubbega,Heerenveen,Friesland,VBO,6.124228,53.002380
Wollegrasstraat,11,,,8411VL,Jubbega,Heerenveen,Friesland,VBO,6.124650,53.002436
Wollegrasstraat,12,,,8411VL,Jubbega,Heerenveen,Friesland,VBO,6.124258,53.002276
Wollegrasstraat,13,,,8411VL,Jubbega,Heerenveen,Friesland,VBO,6.124716,53.002366
Wollegrasstraat,15,,,8411VL,Jubbega,Heerenveen,Friesland,VBO,6.124955,53.002191
Wollegrasstraat,17,,,8411VL,Jubbega,Heerenveen,Friesland,VBO,6.124868,53.002162
Wollegrasstraat,19,,,8411VL,Jubbega,Heerenveen,Friesland,VBO,6.124786,53.002132
Wollegrasstraat,21,,,8411VL,Jubbega,Heerenveen,Friesland,VBO,6.124708,53.002126
Wollegrasstraat,23,,,8411VL,Jubbega,Heerenveen,Friesland,VBO,6.124543,53.002064
Wollegrasstraat,25,,,8411VL,Jubbega,Heerenveen,Friesland,VBO,6.124468,53.002037
Wollegrasstraat,27,,,8411VL,Jubbega,Heerenveen,Friesland,VBO,6.124378,53.002011
Wollegrasstraat,29,,,8411VL,Jubbega,Heerenveen,Friesland,VBO,6.124303,53.001984
Gentiaansingel,2,A,,8411VM,Jubbega,Heerenveen,Friesland,VBO,6.125812,53.004887
Gentiaansingel,2,,,8411VM,Jubbega,Heerenveen,Friesland,VBO,6.125960,53.004787
Gentiaansingel,4,,,8411VM,Jubbega,Heerenveen,Friesland,VBO,6.126091,53.004633
Gentiaansingel,6,,,8411VM,Jubbega,Heerenveen,Friesland,VBO,6.126135,53.004579
Gentiaansingel,8,,,8411VM,Jubbega,Heerenveen,Friesland,VBO,6.126223,53.004489
Gentiaansingel,10,,,8411VM,Jubbega,Heerenveen,Friesland,VBO,6.126252,53.004435
Gentiaansingel,12,,,8411VM,Jubbega,Heerenveen,Friesland,VBO,6.126355,53.004353
Gentiaansingel,14,,,8411VM,Jubbega,Heerenveen,Friesland,VBO,6.126383,53.004290
Gentiaansingel,16,,,8411VM,Jubbega,Heerenveen,Friesland,VBO,6.126486,53.004200
Gentiaansingel,18,,,8411VM,Jubbega,Heerenveen,Friesland,VBO,6.126530,53.004145
Gentiaansingel,20,,,8411VN,Jubbega,Heerenveen,Friesland,VBO,6.127028,53.003630
Gentiaansingel,22,,,8411VN,Jubbega,Heerenveen,Friesland,VBO,6.127101,53.003567
Gentiaansingel,24,,,8411VN,Jubbega,Heerenveen,Friesland,VBO,6.127174,53.003485
Gentiaansingel,26,,,8411VN,Jubbega,Heerenveen,Friesland,VBO,6.127262,53.003422
Gentiaansingel,28,,,8411VN,Jubbega,Heerenveen,Friesland,VBO,6.127321,53.003341
Gentiaansingel,30,,,8411VN,Jubbega,Heerenveen,Friesland,VBO,6.127409,53.003268
Gentiaansingel,32,,,8411VN,Jubbega,Heerenveen,Friesland,VBO,6.127467,53.003196
Gentiaansingel,34,,,8411VN,Jubbega,Heerenveen,Friesland,VBO,6.127540,53.003124
Gentiaansingel,36,,,8411VN,Jubbega,Heerenveen,Friesland,VBO,6.127613,53.003042
Gentiaansingel,38,,,8411VN,Jubbega,Heerenveen,Friesland,VBO,6.127702,53.002970
Gentiaansingel,40,,,8411VN,Jubbega,Heerenveen,Friesland,VBO,6.127357,53.002882
Gentiaansingel,42,,,8411VN,Jubbega,Heerenveen,Friesland,VBO,6.127253,53.002847
Gentiaansingel,44,,,8411VN,Jubbega,Heerenveen,Friesland,VBO,6.127118,53.002803
Gentiaansingel,46,,,8411VN,Jubbega,Heerenveen,Friesland,VBO,6.127013,53.002776
Gentiaansingel,5,,,8411VP,Jubbega,Heerenveen,Friesland,VBO,6.126405,53.002956
Gentiaansingel,7,,,8411VP,Jubbega,Heerenveen,Friesland,VBO,6.126327,53.003081
Gentiaansingel,9,,,8411VP,Jubbega,Heerenveen,Friesland,VBO,6.126281,53.003116
Gentiaansingel,11,,,8411VP,Jubbega,Heerenveen,Friesland,VBO,6.126234,53.003180
Gentiaansingel,13,,,8411VP,Jubbega,Heerenveen,Friesland,VBO,6.126203,53.003215
Gentiaansingel,15,,,8411VP,Jubbega,Heerenveen,Friesland,VBO,6.126177,53.003250
Gentiaansingel,48,,,8411VP,Jubbega,Heerenveen,Friesland,VBO,6.126867,53.002930
Gentiaansingel,50,,,8411VP,Jubbega,Heerenveen,Friesland,VBO,6.126823,53.002993
Gentiaansingel,52,,,8411VP,Jubbega,Heerenveen,Friesland,VBO,6.126750,53.003066
Gentiaansingel,54,,,8411VP,Jubbega,Heerenveen,Friesland,VBO,6.126691,53.003129
Gentiaansingel,56,,,8411VP,Jubbega,Heerenveen,Friesland,VBO,6.126618,53.003210
Gentiaansingel,58,,,8411VP,Jubbega,Heerenveen,Friesland,VBO,6.126589,53.003264
Gentiaansingel,60,,,8411VP,Jubbega,Heerenveen,Friesland,VBO,6.126516,53.003346
Gentiaansingel,62,,,8411VP,Jubbega,Heerenveen,Friesland,VBO,6.126443,53.003418
Warkruid,1,,,8411VR,Jubbega,Heerenveen,Friesland,VBO,6.128525,53.004070
Warkruid,3,,,8411VR,Jubbega,Heerenveen,Friesland,VBO,6.128584,53.004025
Warkruid,5,,,8411VR,Jubbega,Heerenveen,Friesland,VBO,6.128628,53.003980
Warkruid,7,,,8411VR,Jubbega,Heerenveen,Friesland,VBO,6.128716,53.003916
Warkruid,9,,,8411VR,Jubbega,Heerenveen,Friesland,VBO,6.128745,53.003871
Warkruid,11,,,8411VR,Jubbega,Heerenveen,Friesland,VBO,6.128789,53.003826
Warkruid,13,,,8411VR,Jubbega,Heerenveen,Friesland,VBO,6.128833,53.003781
Warkruid,15,,,8411VR,Jubbega,Heerenveen,Friesland,VBO,6.128876,53.003726
Warkruid,17,,,8411VR,Jubbega,Heerenveen,Friesland,VBO,6.129102,53.003824
Warkruid,19,,,8411VR,Jubbega,Heerenveen,Friesland,VBO,6.129237,53.003877
Warkruid,2,,,8411VS,Jubbega,Heerenveen,Friesland,VBO,6.128297,53.003829
Warkruid,4,,,8411VS,Jubbega,Heerenveen,Friesland,VBO,6.128208,53.003811
Warkruid,6,,,8411VS,Jubbega,Heerenveen,Friesland,VBO,6.128118,53.003776
Warkruid,8,,,8411VS,Jubbega,Heerenveen,Friesland,VBO,6.128057,53.003740
Warkruid,10,,,8411VS,Jubbega,Heerenveen,Friesland,VBO,6.127982,53.003714
Warkruid,12,,,8411VS,Jubbega,Heerenveen,Friesland,VBO,6.128025,53.003561
Warkruid,14,,,8411VS,Jubbega,Heerenveen,Friesland,VBO,6.128098,53.003507
Warkruid,16,,,8411VS,Jubbega,Heerenveen,Friesland,VBO,6.128157,53.003470
Warkruid,18,,,8411VS,Jubbega,Heerenveen,Friesland,VBO,6.128138,53.003219
Warkruid,20,,,8411VS,Jubbega,Heerenveen,Friesland,VBO,6.128228,53.003245
Warkruid,22,,,8411VS,Jubbega,Heerenveen,Friesland,VBO,6.128318,53.003281
Warkruid,24,,,8411VS,Jubbega,Heerenveen,Friesland,VBO,6.128423,53.003316
Warkruid,26,,,8411VS,Jubbega,Heerenveen,Friesland,VBO,6.128558,53.003369
Warkruid,28,,,8411VS,Jubbega,Heerenveen,Friesland,VBO,6.128632,53.003395
Warkruid,30,,,8411VS,Jubbega,Heerenveen,Friesland,VBO,6.128752,53.003440
Warkruid,32,,,8411VS,Jubbega,Heerenveen,Friesland,VBO,6.128902,53.003466
Warkruid,34,,,8411VS,Jubbega,Heerenveen,Friesland,VBO,6.129007,53.003501
Warkruid,36,,,8411VS,Jubbega,Heerenveen,Friesland,VBO,6.129097,53.003536
Warkruid,38,,,8411VS,Jubbega,Heerenveen,Friesland,VBO,6.129187,53.003572
Warkruid,40,,,8411VS,Jubbega,Heerenveen,Friesland,VBO,6.129336,53.003616
Warkruid,42,,,8411VS,Jubbega,Heerenveen,Friesland,VBO,6.129411,53.003651
Warkruid,44,,,8411VS,Jubbega,Heerenveen,Friesland,VBO,6.129501,53.003687
Warkruid,46,,,8411VS,Jubbega,Heerenveen,Friesland,VBO,6.129591,53.003722
Buntgras,1,A,,8411VT,Jubbega,Heerenveen,Friesland,VBO,6.127141,53.004396
Buntgras,1,,,8411VT,Jubbega,Heerenveen,Friesland,VBO,6.127209,53.004350
Buntgras,3,A,,8411VT,Jubbega,Heerenveen,Friesland,VBO,6.127052,53.004580
Buntgras,3,,,8411VT,Jubbega,Heerenveen,Friesland,VBO,6.127101,53.004519
Buntgras,5,,,8411VT,Jubbega,Heerenveen,Friesland,VBO,6.126717,53.004656
Buntgras,7,,,8411VT,Jubbega,Heerenveen,Friesland,VBO,6.126807,53.004683
Buntgras,9,,,8411VT,Jubbega,Heerenveen,Friesland,VBO,6.126882,53.004718
Buntgras,11,,,8411VT,Jubbega,Heerenveen,Friesland,VBO,6.126972,53.004754
Buntgras,13,,,8411VT,Jubbega,Heerenveen,Friesland,VBO,6.127107,53.004807
Buntgras,15,,,8411VT,Jubbega,Heerenveen,Friesland,VBO,6.127182,53.004842
Buntgras,17,,,8411VT,Jubbega,Heerenveen,Friesland,VBO,6.127255,53.004895
Buntgras,19,,,8411VT,Jubbega,Heerenveen,Friesland,VBO,6.127347,53.004895
Buntgras,21,,,8411VT,Jubbega,Heerenveen,Friesland,VBO,6.127497,53.004957
Buntgras,23,,,8411VT,Jubbega,Heerenveen,Friesland,VBO,6.127572,53.004993
Buntgras,25,,,8411VT,Jubbega,Heerenveen,Friesland,VBO,6.127664,53.005042
Buntgras,27,,,8411VV,Jubbega,Heerenveen,Friesland,VBO,6.127752,53.005054
Buntgras,29,,,8411VV,Jubbega,Heerenveen,Friesland,VBO,6.127961,53.005062
Buntgras,31,,,8411VV,Jubbega,Heerenveen,Friesland,VBO,6.128051,53.005088
Buntgras,33,,,8411VV,Jubbega,Heerenveen,Friesland,VBO,6.128155,53.005124
Buntgras,35,,,8411VV,Jubbega,Heerenveen,Friesland,VBO,6.128230,53.005141
Buntgras,37,,,8411VV,Jubbega,Heerenveen,Friesland,VBO,6.128380,53.005194
Buntgras,39,,,8411VV,Jubbega,Heerenveen,Friesland,VBO,6.128470,53.005230
Buntgras,41,,,8411VV,Jubbega,Heerenveen,Friesland,VBO,6.128575,53.005256
Buntgras,43,,,8411VV,Jubbega,Heerenveen,Friesland,VBO,6.128635,53.005274
Buntgras,45,,,8411VV,Jubbega,Heerenveen,Friesland,VBO,6.128814,53.005317
Buntgras,47,,,8411VV,Jubbega,Heerenveen,Friesland,VBO,6.128904,53.005362
Buntgras,49,,,8411VV,Jubbega,Heerenveen,Friesland,VBO,6.128979,53.005388
Buntgras,51,,,8411VV,Jubbega,Heerenveen,Friesland,VBO,6.129054,53.005415
Veenbesstraat,1,,,8411VW,Jubbega,Heerenveen,Friesland,VBO,6.125691,53.003881
Veenbesstraat,2,,,8411VW,Jubbega,Heerenveen,Friesland,VBO,6.125976,53.003987
Veenbesstraat,3,,,8411VW,Jubbega,Heerenveen,Friesland,VBO,6.125588,53.003971
Veenbesstraat,4,,,8411VW,Jubbega,Heerenveen,Friesland,VBO,6.125945,53.004056
Veenbesstraat,5,,,8411VW,Jubbega,Heerenveen,Friesland,VBO,6.125545,53.004026
Veenbesstraat,6,,,8411VW,Jubbega,Heerenveen,Friesland,VBO,6.125844,53.004123
Veenbesstraat,8,,,8411VW,Jubbega,Heerenveen,Friesland,VBO,6.125800,53.004177
Veenbesstraat,10,,,8411VW,Jubbega,Heerenveen,Friesland,VBO,6.125742,53.004258
Veenbesstraat,12,,,8411VW,Jubbega,Heerenveen,Friesland,VBO,6.125684,53.004321
Veenbesstraat,14,,,8411VW,Jubbega,Heerenveen,Friesland,VBO,6.125460,53.004305
Veenbesstraat,16,,,8411VW,Jubbega,Heerenveen,Friesland,VBO,6.125385,53.004269
Veenbesstraat,18,,,8411VW,Jubbega,Heerenveen,Friesland,VBO,6.125235,53.004225
Veenbesstraat,20,,,8411VW,Jubbega,Heerenveen,Friesland,VBO,6.125145,53.004199
Bremsingel,1,,,8411VX,Jubbega,Heerenveen,Friesland,VBO,6.124863,53.003598
Bremsingel,2,,,8411VX,Jubbega,Heerenveen,Friesland,VBO,6.125197,53.003749
Bremsingel,3,,,8411VX,Jubbega,Heerenveen,Friesland,VBO,6.124822,53.003651
Bremsingel,4,,,8411VX,Jubbega,Heerenveen,Friesland,VBO,6.125187,53.003815
Bremsingel,5,,,8411VX,Jubbega,Heerenveen,Friesland,VBO,6.124735,53.003734
Bremsingel,6,,,8411VX,Jubbega,Heerenveen,Friesland,VBO,6.125080,53.003885
Bremsingel,7,,,8411VX,Jubbega,Heerenveen,Friesland,VBO,6.124691,53.003779
Bremsingel,8,,,8411VX,Jubbega,Heerenveen,Friesland,VBO,6.125022,53.003939
Bremsingel,9,,,8411VX,Jubbega,Heerenveen,Friesland,VBO,6.124594,53.003859
Bremsingel,10,,,8411VX,Jubbega,Heerenveen,Friesland,VBO,6.124990,53.004039
Bremsingel,11,,,8411VX,Jubbega,Heerenveen,Friesland,VBO,6.124546,53.003912
Bremsingel,12,,,8411VX,Jubbega,Heerenveen,Friesland,VBO,6.124931,53.004090
Bremsingel,13,,,8411VX,Jubbega,Heerenveen,Friesland,VBO,6.124457,53.004032
Bremsingel,14,,,8411VX,Jubbega,Heerenveen,Friesland,VBO,6.124832,53.004147
Bremsingel,16,,,8411VX,Jubbega,Heerenveen,Friesland,VBO,6.124788,53.004192
Bremsingel,18,A,,8411VX,Jubbega,Heerenveen,Friesland,VBO,6.124804,53.004426
Bremsingel,18,,,8411VX,Jubbega,Heerenveen,Friesland,VBO,6.124569,53.004486
Bremsingel,20,,,8411VX,Jubbega,Heerenveen,Friesland,VBO,6.124725,53.004323
Bremsingel,22,,,8411VX,Jubbega,Heerenveen,Friesland,VBO,6.124652,53.004374
Bremsingel,24,,,8411VX,Jubbega,Heerenveen,Friesland,VBO,6.124584,53.004454
Bremsingel,26,,,8411VX,Jubbega,Heerenveen,Friesland,VBO,6.124437,53.004590
Bosbesstraat,1,,,8411VZ,Jubbega,Heerenveen,Friesland,VBO,6.124342,53.003404
Bosbesstraat,2,,,8411VZ,Jubbega,Heerenveen,Friesland,VBO,6.124321,53.003473
Bosbesstraat,3,,,8411VZ,Jubbega,Heerenveen,Friesland,VBO,6.124211,53.003558
Bosbesstraat,4,,,8411VZ,Jubbega,Heerenveen,Friesland,VBO,6.124167,53.003603
Bosbesstraat,5,A,,8411VZ,Jubbega,Heerenveen,Friesland,VBO,6.124065,53.003729
Bosbesstraat,5,,,8411VZ,Jubbega,Heerenveen,Friesland,VBO,6.124109,53.003684
Bosbesstraat,6,,,8411VZ,Jubbega,Heerenveen,Friesland,VBO,6.123977,53.003820
Bosbesstraat,7,,,8411VZ,Jubbega,Heerenveen,Friesland,VBO,6.123933,53.003865
Zonnedauwstraat,1,,,8411WB,Jubbega,Heerenveen,Friesland,VBO,6.123473,53.003086
Zonnedauwstraat,2,,,8411WB,Jubbega,Heerenveen,Friesland,VBO,6.123773,53.003201
Zonnedauwstraat,3,,,8411WB,Jubbega,Heerenveen,Friesland,VBO,6.123399,53.003140
Zonnedauwstraat,4,,,8411WB,Jubbega,Heerenveen,Friesland,VBO,6.123729,53.003246
Zonnedauwstraat,5,,,8411WB,Jubbega,Heerenveen,Friesland,VBO,6.123356,53.003221
Zonnedauwstraat,6,,,8411WB,Jubbega,Heerenveen,Friesland,VBO,6.123641,53.003345
Zonnedauwstraat,7,,,8411WB,Jubbega,Heerenveen,Friesland,VBO,6.123268,53.003285
Zonnedauwstraat,8,,,8411WB,Jubbega,Heerenveen,Friesland,VBO,6.123582,53.003400
Zonnedauwstraat,10,,,8411WB,Jubbega,Heerenveen,Friesland,VBO,6.123480,53.003499
Zonnedauwstraat,12,,,8411WB,Jubbega,Heerenveen,Friesland,VBO,6.123436,53.003535
Zonnedauwstraat,14,,,8411WB,Jubbega,Heerenveen,Friesland,VBO,6.123257,53.003536
Zonnedauwstraat,16,,,8411WB,Jubbega,Heerenveen,Friesland,VBO,6.123167,53.003501
Zonnedauwstraat,18,,,8411WB,Jubbega,Heerenveen,Friesland,VBO,6.123017,53.003448
Zonnedauwstraat,20,,,8411WB,Jubbega,Heerenveen,Friesland,VBO,6.122912,53.003413
Jogchem Alberdaweg,2,,,8411WC,Jubbega,Heerenveen,Friesland,VBO,6.106328,52.990591
Jogchem Alberdaweg,3,,,8411WC,Jubbega,Heerenveen,Friesland,VBO,6.103896,52.991226
Jogchem Alberdaweg,4,,,8411WC,Jubbega,Heerenveen,Friesland,VBO,6.104767,52.991625
Jogchem Alberdaweg,5,,,8411WC,Jubbega,Heerenveen,Friesland,VBO,6.104215,52.991592
Jogchem Alberdaweg,6,,,8411WC,Jubbega,Heerenveen,Friesland,VBO,6.105252,52.992161
Jogchem Alberdaweg,7,A,,8411WD,Jubbega,Heerenveen,Friesland,VBO,6.108250,52.996429
Jogchem Alberdaweg,7,,,8411WD,Jubbega,Heerenveen,Friesland,VBO,6.108722,52.996634
Jogchem Alberdaweg,8,,,8411WD,Jubbega,Heerenveen,Friesland,VBO,6.106765,52.993572
Jogchem Alberdaweg,9,,,8411WD,Jubbega,Heerenveen,Friesland,VBO,6.113064,53.000669
Jogchem Alberdaweg,10,A,,8411WD,Jubbega,Heerenveen,Friesland,VBO,6.107321,52.993999
Jogchem Alberdaweg,10,,,8411WD,Jubbega,Heerenveen,Friesland,VBO,6.107296,52.994144
Jogchem Alberdaweg,11,,,8411WD,Jubbega,Heerenveen,Friesland,VBO,6.113605,53.000944
Jogchem Alberdaweg,12,,,8411WD,Jubbega,Heerenveen,Friesland,VBO,6.107664,52.994816
Jogchem Alberdaweg,13,,,8411WD,Jubbega,Heerenveen,Friesland,VBO,6.114047,53.001146
Jogchem Alberdaweg,15,,,8411WD,Jubbega,Heerenveen,Friesland,VBO,6.114341,53.001290
Jogchem Alberdaweg,16,,,8411WD,Jubbega,Heerenveen,Friesland,VBO,6.107953,52.995191
Jogchem Alberdaweg,17,,,8411WD,Jubbega,Heerenveen,Friesland,VBO,6.114581,53.001424
Jogchem Alberdaweg,18,,,8411WD,Jubbega,Heerenveen,Friesland,VBO,6.109558,52.996754
Jogchem Alberdaweg,20,A,,8411WD,Jubbega,Heerenveen,Friesland,VBO,6.110955,52.998345
Jogchem Alberdaweg,20,,,8411WD,Jubbega,Heerenveen,Friesland,VBO,6.110337,52.997882
Jogchem Alberdaweg,22,,,8411WD,Jubbega,Heerenveen,Friesland,VBO,6.112186,52.999830
Jogchem Alberdaweg,24,,,8411WD,Jubbega,Heerenveen,Friesland,VBO,6.113058,53.000310
Jogchem Alberdaweg,26,,,8411WD,Jubbega,Heerenveen,Friesland,VBO,6.113372,53.000389
Jogchem Alberdaweg,28,,,8411WD,Jubbega,Heerenveen,Friesland,VBO,6.113689,53.000594
Jogchem Alberdaweg,30,,,8411WD,Jubbega,Heerenveen,Friesland,VBO,6.113779,53.000638
Jogchem Alberdaweg,32,,,8411WD,Jubbega,Heerenveen,Friesland,VBO,6.113914,53.000700
Jogchem Alberdaweg,34,,,8411WD,Jubbega,Heerenveen,Friesland,VBO,6.113989,53.000735
Jogchem Alberdaweg,36,,,8411WD,Jubbega,Heerenveen,Friesland,VBO,6.114049,53.000762
Jogchem Alberdaweg,38,,,8411WD,Jubbega,Heerenveen,Friesland,VBO,6.114229,53.000842
Jogchem Alberdaweg,40,,,8411WD,Jubbega,Heerenveen,Friesland,VBO,6.114289,53.000868
Jogchem Alberdaweg,42,,,8411WD,Jubbega,Heerenveen,Friesland,VBO,6.114781,53.000883
Jogchem Alberdaweg,44,,,8411WD,Jubbega,Heerenveen,Friesland,VBO,6.115214,53.001003
Jogchem Alberdaweg,46,,,8411WD,Jubbega,Heerenveen,Friesland,VBO,6.115622,53.001292
Jogchem Alberdaweg,50,A,,8411WE,Jubbega,Heerenveen,Friesland,VBO,6.116582,53.001708
Jogchem Alberdaweg,50,B,,8411WE,Jubbega,Heerenveen,Friesland,VBO,6.116868,53.001868
Jogchem Alberdaweg,50,,,8411WE,Jubbega,Heerenveen,Friesland,VBO,6.115835,53.001542
Jogchem Alberdaweg,52,A,,8411WE,Jubbega,Heerenveen,Friesland,VBO,6.118009,53.002391
Jogchem Alberdaweg,52,,,8411WE,Jubbega,Heerenveen,Friesland,VBO,6.117125,53.002091
Jogchem Alberdaweg,54,A,,8411WE,Jubbega,Heerenveen,Friesland,VBO,6.118280,53.002596
Jogchem Alberdaweg,54,,,8411WE,Jubbega,Heerenveen,Friesland,VBO,6.118205,53.002561
Jogchem Alberdaweg,56,,,8411WE,Jubbega,Heerenveen,Friesland,VBO,6.118446,53.002676
Jogchem Alberdaweg,58,,,8411WE,Jubbega,Heerenveen,Friesland,VBO,6.118656,53.002774
Jogchem Alberdaweg,60,,,8411WE,Jubbega,Heerenveen,Friesland,VBO,6.118866,53.002862
Jogchem Alberdaweg,62,A,,8411WE,Jubbega,Heerenveen,Friesland,VBO,6.119600,53.003092
Jogchem Alberdaweg,62,,,8411WE,Jubbega,Heerenveen,Friesland,VBO,6.119180,53.002914
Jogchem Alberdaweg,64,,,8411WE,Jubbega,Heerenveen,Friesland,VBO,6.119825,53.003189
Jogchem Alberdaweg,66,,,8411WE,Jubbega,Heerenveen,Friesland,VBO,6.120169,53.003286
Jogchem Alberdaweg,68,,,8411WE,Jubbega,Heerenveen,Friesland,VBO,6.120768,53.003489
Jogchem Alberdaweg,70,,,8411WE,Jubbega,Heerenveen,Friesland,VBO,6.120933,53.003542
Jogchem Alberdaweg,72,,,8411WE,Jubbega,Heerenveen,Friesland,VBO,6.121117,53.003592
Jogchem Alberdaweg,74,,,8411WE,Jubbega,Heerenveen,Friesland,VBO,6.121233,53.003666
Jogchem Alberdaweg,76,A,,8411WE,Jubbega,Heerenveen,Friesland,VBO,6.121582,53.003687
Jogchem Alberdaweg,76,,,8411WE,Jubbega,Heerenveen,Friesland,VBO,6.121488,53.003736
Peperswijk,1,,,8411WG,Jubbega,Heerenveen,Friesland,VBO,6.108791,52.989111
Peperswijk,3,,,8411WG,Jubbega,Heerenveen,Friesland,VBO,6.109142,52.988696
Peperswijk,5,,,8411WG,Jubbega,Heerenveen,Friesland,VBO,6.109420,52.988452
Peperswijk,7,,,8411WG,Jubbega,Heerenveen,Friesland,VBO,6.110269,52.987566
Peperswijk,9,,,8411WG,Jubbega,Heerenveen,Friesland,VBO,6.110855,52.986969
Auke Hartstraweg,1,,,8411WH,Jubbega,Heerenveen,Friesland,VBO,6.107910,52.988946
Auke Hartstraweg,2,,,8411WH,Jubbega,Heerenveen,Friesland,VBO,6.106828,52.988350
Auke Hartstraweg,3,,,8411WH,Jubbega,Heerenveen,Friesland,VBO,6.110458,52.986361
Auke Hartstraweg,4,,,8411WH,Jubbega,Heerenveen,Friesland,VBO,6.107401,52.987916
Auke Hartstraweg,5,,,8411WH,Jubbega,Heerenveen,Friesland,VBO,6.113396,52.986639
Auke Hartstraweg,6,,,8411WH,Jubbega,Heerenveen,Friesland,VBO,6.107032,52.987181
Auke Hartstraweg,8,,,8411WH,Jubbega,Heerenveen,Friesland,VBO,6.108655,52.985374
Auke Hartstraweg,10,,,8411WH,Jubbega,Heerenveen,Friesland,VBO,6.110257,52.985005
Auke Hartstraweg,18,,,8411WH,Jubbega,Heerenveen,Friesland,VBO,6.113174,52.985841
Bloksreed,1,,,8411WJ,Jubbega,Heerenveen,Friesland,VBO,6.117691,52.982560
Bloksreed,2,,,8411WJ,Jubbega,Heerenveen,Friesland,VBO,6.120303,52.980262
Bloksreed,3,,,8411WJ,Jubbega,Heerenveen,Friesland,VBO,6.116623,52.983717
Bloksreed,4,,,8411WJ,Jubbega,Heerenveen,Friesland,VBO,6.118173,52.982908
Bloksreed,5,,,8411WJ,Jubbega,Heerenveen,Friesland,VBO,6.116506,52.983826
Bloksreed,6,,,8411WJ,Jubbega,Heerenveen,Friesland,VBO,6.116902,52.984353
Bloksreed,7,,,8411WJ,Jubbega,Heerenveen,Friesland,VBO,6.116023,52.984332
Bloksreed,8,,,8411WJ,Jubbega,Heerenveen,Friesland,VBO,6.115867,52.985690
Bloksreed,9,,,8411WJ,Jubbega,Heerenveen,Friesland,VBO,6.115760,52.984621
Bloksreed,11,,,8411WJ,Jubbega,Heerenveen,Friesland,VBO,6.115438,52.984955
Bloksreed,13,,,8411WJ,Jubbega,Heerenveen,Friesland,VBO,6.115028,52.985353
Bloksreed,15,,,8411WJ,Jubbega,Heerenveen,Friesland,VBO,6.114443,52.986004
Bloksreed,17,,,8411WJ,Jubbega,Heerenveen,Friesland,VBO,6.114136,52.986329
Job Holkemawijk,2,,,8411WK,Jubbega,Heerenveen,Friesland,VBO,6.109767,52.991415
Job Holkemawijk,3,,,8411WK,Jubbega,Heerenveen,Friesland,VBO,6.110993,52.990806
Job Holkemawijk,5,,,8411WK,Jubbega,Heerenveen,Friesland,VBO,6.111197,52.990517
Job Holkemawijk,6,,,8411WK,Jubbega,Heerenveen,Friesland,VBO,6.111216,52.989852
Job Holkemawijk,7,,,8411WK,Jubbega,Heerenveen,Friesland,VBO,6.111842,52.989884
Job Holkemawijk,8,,,8411WK,Jubbega,Heerenveen,Friesland,VBO,6.112111,52.989046
Job Holkemawijk,11,,,8411WK,Jubbega,Heerenveen,Friesland,VBO,6.112737,52.989061
Job Holkemawijk,12,A,,8411WK,Jubbega,Heerenveen,Friesland,VBO,6.113052,52.988076
Job Holkemawijk,12,,,8411WK,Jubbega,Heerenveen,Friesland,VBO,6.112398,52.988425
Job Holkemawijk,13,,,8411WK,Jubbega,Heerenveen,Friesland,VBO,6.113209,52.988733
Job Holkemawijk,14,,,8411WK,Jubbega,Heerenveen,Friesland,VBO,6.113239,52.987916
Job Holkemawijk,16,,,8411WK,Jubbega,Heerenveen,Friesland,VBO,6.114072,52.986959
Job Holkemawijk,17,,,8411WK,Jubbega,Heerenveen,Friesland,VBO,6.113630,52.988139
Job Holkemawijk,19,,,8411WK,Jubbega,Heerenveen,Friesland,VBO,6.114306,52.987640
Wolter Jagerswijk,2,A,,8411WL,Jubbega,Heerenveen,Friesland,VBO,6.110153,52.994732
Wolter Jagerswijk,2,,,8411WL,Jubbega,Heerenveen,Friesland,VBO,6.110778,52.993952
Wolter Jagerswijk,3,,,8411WL,Jubbega,Heerenveen,Friesland,VBO,6.113047,52.992501
Wolter Jagerswijk,4,,,8411WL,Jubbega,Heerenveen,Friesland,VBO,6.111454,52.993427
Wolter Jagerswijk,5,,,8411WL,Jubbega,Heerenveen,Friesland,VBO,6.113545,52.991976
Wolter Jagerswijk,7,,,8411WL,Jubbega,Heerenveen,Friesland,VBO,6.113676,52.991832
Wolter Jagerswijk,8,A,,8411WL,Jubbega,Heerenveen,Friesland,VBO,6.112120,52.992282
Wolter Jagerswijk,8,,,8411WL,Jubbega,Heerenveen,Friesland,VBO,6.112257,52.992442
Wolter Jagerswijk,9,,,8411WL,Jubbega,Heerenveen,Friesland,VBO,6.113808,52.991687
Wolter Jagerswijk,10,,,8411WL,Jubbega,Heerenveen,Friesland,VBO,6.113532,52.991213
Wolter Jagerswijk,11,,,8411WL,Jubbega,Heerenveen,Friesland,VBO,6.113970,52.991551
Wolter Jagerswijk,12,,,8411WL,Jubbega,Heerenveen,Friesland,VBO,6.113646,52.990915
Wolter Jagerswijk,22,,,8411WL,Jubbega,Heerenveen,Friesland,VBO,6.115963,52.988771
Wolter Jagerswijk,24,,,8411WL,Jubbega,Heerenveen,Friesland,VBO,6.116417,52.988274
Belgische Wijk,1,,,8411WN,Jubbega,Heerenveen,Friesland,VBO,6.110922,52.998130
Belgische Wijk,3,,,8411WN,Jubbega,Heerenveen,Friesland,VBO,6.111496,52.997758
Belgische Wijk,4,,,8411WN,Jubbega,Heerenveen,Friesland,VBO,6.113014,52.995439
Belgische Wijk,5,,,8411WN,Jubbega,Heerenveen,Friesland,VBO,6.111819,52.997433
Belgische Wijk,6,,,8411WN,Jubbega,Heerenveen,Friesland,VBO,6.114622,52.994055
Belgische Wijk,7,,,8411WN,Jubbega,Heerenveen,Friesland,VBO,6.112375,52.996845
Belgische Wijk,8,,,8411WN,Jubbega,Heerenveen,Friesland,VBO,6.114988,52.993431
Belgische Wijk,9,,,8411WN,Jubbega,Heerenveen,Friesland,VBO,6.113238,52.995878
Belgische Wijk,10,,,8411WN,Jubbega,Heerenveen,Friesland,VBO,6.115470,52.993088
Belgische Wijk,11,,,8411WN,Jubbega,Heerenveen,Friesland,VBO,6.113652,52.995750
Belgische Wijk,12,,,8411WN,Jubbega,Heerenveen,Friesland,VBO,6.115616,52.992943
Belgische Wijk,13,,,8411WN,Jubbega,Heerenveen,Friesland,VBO,6.113799,52.995605
Belgische Wijk,14,,,8411WN,Jubbega,Heerenveen,Friesland,VBO,6.115733,52.992808
Belgische Wijk,16,,,8411WN,Jubbega,Heerenveen,Friesland,VBO,6.115880,52.992672
Belgische Wijk,17,,,8411WN,Jubbega,Heerenveen,Friesland,VBO,6.113960,52.995452
Belgische Wijk,18,,,8411WN,Jubbega,Heerenveen,Friesland,VBO,6.117636,52.990837
Belgische Wijk,19,,,8411WN,Jubbega,Heerenveen,Friesland,VBO,6.114161,52.995206
Belgische Wijk,20,,,8411WN,Jubbega,Heerenveen,Friesland,VBO,6.117797,52.990674
Belgische Wijk,21,,,8411WN,Jubbega,Heerenveen,Friesland,VBO,6.114602,52.994630
Nieuwedraaiswijk,1,,,8411WP,Jubbega,Heerenveen,Friesland,VBO,6.103412,52.990761
Hommedraai,1,,,8411WR,Jubbega,Heerenveen,Friesland,VBO,6.112401,53.000394
Jelle van Damweg,1,,,8411XA,Jubbega,Heerenveen,Friesland,VBO,6.121764,53.004211
Jelle van Damweg,3,,,8411XA,Jubbega,Heerenveen,Friesland,VBO,6.121898,53.004237
Jelle van Damweg,5,,,8411XA,Jubbega,Heerenveen,Friesland,VBO,6.122094,53.004334
Jelle van Damweg,7,,,8411XA,Jubbega,Heerenveen,Friesland,VBO,6.122377,53.004369
Jelle van Damweg,9,,,8411XA,Jubbega,Heerenveen,Friesland,VBO,6.122512,53.004431
Jelle van Damweg,11,,,8411XA,Jubbega,Heerenveen,Friesland,VBO,6.122782,53.004510
Jelle van Damweg,17,,,8411XA,Jubbega,Heerenveen,Friesland,VBO,6.123139,53.004631
Jelle van Damweg,19,,,8411XA,Jubbega,Heerenveen,Friesland,VBO,6.122950,53.004777
Jelle van Damweg,21,,,8411XA,Jubbega,Heerenveen,Friesland,VBO,6.123544,53.004766
Jelle van Damweg,23,A,,8411XA,Jubbega,Heerenveen,Friesland,VBO,6.123652,53.004864
Jelle van Damweg,23,,,8411XA,Jubbega,Heerenveen,Friesland,VBO,6.123696,53.004819
Jelle van Damweg,25,,,8411XA,Jubbega,Heerenveen,Friesland,VBO,6.123980,53.004898
Jelle van Damweg,27,A,,8411XA,Jubbega,Heerenveen,Friesland,VBO,6.124311,53.005067
Jelle van Damweg,27,B,,8411XA,Jubbega,Heerenveen,Friesland,VBO,6.124490,53.005119
Jelle van Damweg,27,,,8411XA,Jubbega,Heerenveen,Friesland,VBO,6.124175,53.004978
Jelle van Damweg,29,,,8411XA,Jubbega,Heerenveen,Friesland,VBO,6.124670,53.005181
Jelle van Damweg,31,,,8411XB,Jubbega,Heerenveen,Friesland,VBO,6.124805,53.005225
Jelle van Damweg,33,,,8411XB,Jubbega,Heerenveen,Friesland,VBO,6.124940,53.005269
Jelle van Damweg,35,,,8411XB,Jubbega,Heerenveen,Friesland,VBO,6.125284,53.005375
Jelle van Damweg,37,,,8411XB,Jubbega,Heerenveen,Friesland,VBO,6.125419,53.005419
Jelle van Damweg,39,,,8411XB,Jubbega,Heerenveen,Friesland,VBO,6.125554,53.005463
Jelle van Damweg,41,A,,8411XB,Jubbega,Heerenveen,Friesland,VBO,6.125853,53.005515
Jelle van Damweg,41,,,8411XB,Jubbega,Heerenveen,Friesland,VBO,6.125793,53.005489
Jelle van Damweg,43,,,8411XB,Jubbega,Heerenveen,Friesland,VBO,6.126003,53.005577
Jelle van Damweg,45,,,8411XB,Jubbega,Heerenveen,Friesland,VBO,6.126138,53.005639
Jelle van Damweg,47,,,8411XB,Jubbega,Heerenveen,Friesland,VBO,6.126332,53.005665
Jelle van Damweg,49,,,8411XB,Jubbega,Heerenveen,Friesland,VBO,6.126662,53.005780
Jelle van Damweg,53,,,8411XB,Jubbega,Heerenveen,Friesland,VBO,6.126843,53.005896
Jelle van Damweg,57,,,8411XB,Jubbega,Heerenveen,Friesland,VBO,6.127007,53.005949
Jelle van Damweg,59,,,8411XB,Jubbega,Heerenveen,Friesland,VBO,6.127367,53.006054
Jelle van Damweg,61,,,8411XB,Jubbega,Heerenveen,Friesland,VBO,6.127442,53.006081
Jelle van Damweg,63,,,8411XB,Jubbega,Heerenveen,Friesland,VBO,6.127696,53.006151
Jelle van Damweg,65,,,8411XC,Jubbega,Heerenveen,Friesland,VBO,6.127891,53.006222
Jelle van Damweg,67,A,,8411XC,Jubbega,Heerenveen,Friesland,VBO,6.128298,53.006374
Jelle van Damweg,67,,,8411XC,Jubbega,Heerenveen,Friesland,VBO,6.128146,53.006301
Jelle van Damweg,69,A,,8411XC,Jubbega,Heerenveen,Friesland,VBO,6.128730,53.006486
Jelle van Damweg,69,,1,8411XC,Jubbega,Heerenveen,Friesland,VBO,6.128565,53.006452
Jelle van Damweg,69,,,8411XC,Jubbega,Heerenveen,Friesland,VBO,6.128461,53.006436
Jelle van Damweg,71,,,8411XC,Jubbega,Heerenveen,Friesland,VBO,6.128880,53.006530
Jelle van Damweg,73,,,8411XC,Jubbega,Heerenveen,Friesland,VBO,6.129359,53.006689
Jelle van Damweg,75,,,8411XC,Jubbega,Heerenveen,Friesland,VBO,6.129554,53.006751
Jelle van Damweg,77,,,8411XC,Jubbega,Heerenveen,Friesland,VBO,6.129690,53.006894
Jelle van Damweg,79,,,8411XC,Jubbega,Heerenveen,Friesland,VBO,6.130047,53.006873
Jelle van Damweg,81,,,8411XC,Jubbega,Heerenveen,Friesland,VBO,6.130242,53.006935
Jelle van Damweg,83,,,8411XC,Jubbega,Heerenveen,Friesland,VBO,6.130362,53.006979
Jelle van Damweg,85,,,8411XC,Jubbega,Heerenveen,Friesland,VBO,6.130543,53.007095
Jelle van Damweg,87,,,8411XC,Jubbega,Heerenveen,Friesland,VBO,6.130707,53.007103
Jelle van Damweg,89,,,8411XC,Jubbega,Heerenveen,Friesland,VBO,6.130917,53.007174
Jelle van Damweg,97,,,8411XC,Jubbega,Heerenveen,Friesland,VBO,6.131201,53.007262
Jelle van Damweg,99,,,8411XC,Jubbega,Heerenveen,Friesland,VBO,6.131366,53.007314
Jelle van Damweg,101,,,8411XC,Jubbega,Heerenveen,Friesland,VBO,6.132115,53.007561
Jelle van Damweg,103,,,8411XC,Jubbega,Heerenveen,Friesland,VBO,6.132446,53.007712
Jelle van Damweg,2,A,,8411XD,Jubbega,Heerenveen,Friesland,VBO,6.121960,53.003908
Jelle van Damweg,2,,,8411XD,Jubbega,Heerenveen,Friesland,VBO,6.122057,53.003948
Jelle van Damweg,4,,,8411XD,Jubbega,Heerenveen,Friesland,VBO,6.122222,53.004001
Jelle van Damweg,6,,,8411XD,Jubbega,Heerenveen,Friesland,VBO,6.122342,53.004036
Jelle van Damweg,8,,,8411XD,Jubbega,Heerenveen,Friesland,VBO,6.122417,53.004063
Jelle van Damweg,10,,,8411XD,Jubbega,Heerenveen,Friesland,VBO,6.122626,53.004124
Jelle van Damweg,12,A,,8411XD,Jubbega,Heerenveen,Friesland,VBO,6.122746,53.004142
Jelle van Damweg,12,,,8411XD,Jubbega,Heerenveen,Friesland,VBO,6.122819,53.004069
Jelle van Damweg,14,A,,8411XD,Jubbega,Heerenveen,Friesland,VBO,6.123245,53.004027
Jelle van Damweg,14,B,,8411XD,Jubbega,Heerenveen,Friesland,VBO,6.123140,53.003961
Jelle van Damweg,14,C,,8411XD,Jubbega,Heerenveen,Friesland,VBO,6.123091,53.004015
Jelle van Damweg,14,D,,8411XD,Jubbega,Heerenveen,Friesland,VBO,6.123036,53.004086
Jelle van Damweg,14,E,,8411XD,Jubbega,Heerenveen,Friesland,VBO,6.123144,53.004065
Jelle van Damweg,14,F,,8411XD,Jubbega,Heerenveen,Friesland,VBO,6.123184,53.004104
Jelle van Damweg,14,,,8411XD,Jubbega,Heerenveen,Friesland,VBO,6.123151,53.004155
Jelle van Damweg,18,A,,8411XD,Jubbega,Heerenveen,Friesland,VBO,6.123818,53.004334
Jelle van Damweg,18,,,8411XD,Jubbega,Heerenveen,Friesland,VBO,6.123760,53.004183
Jelle van Damweg,20,,,8411XD,Jubbega,Heerenveen,Friesland,VBO,6.124109,53.004592
Jelle van Damweg,26,,,8411XE,Jubbega,Heerenveen,Friesland,VBO,6.124723,53.004750
Jelle van Damweg,28,,,8411XE,Jubbega,Heerenveen,Friesland,VBO,6.124797,53.004767
Jelle van Damweg,30,,,8411XE,Jubbega,Heerenveen,Friesland,VBO,6.124947,53.004820
Jelle van Damweg,32,,,8411XE,Jubbega,Heerenveen,Friesland,VBO,6.125008,53.004892
Jelle van Damweg,34,,,8411XE,Jubbega,Heerenveen,Friesland,VBO,6.125083,53.004909
Jelle van Damweg,36,,,8411XE,Jubbega,Heerenveen,Friesland,VBO,6.125292,53.004953
Jelle van Damweg,38,,,8411XE,Jubbega,Heerenveen,Friesland,VBO,6.125397,53.005006
Jelle van Damweg,40,A,,8411XE,Jubbega,Heerenveen,Friesland,VBO,6.126385,53.005243
Jelle van Damweg,40,,,8411XE,Jubbega,Heerenveen,Friesland,VBO,6.125622,53.005077
Jelle van Damweg,42,A,,8411XE,Jubbega,Heerenveen,Friesland,VBO,6.126894,53.005428
Jelle van Damweg,42,B,,8411XE,Jubbega,Heerenveen,Friesland,VBO,6.126999,53.005454
Jelle van Damweg,42,,,8411XE,Jubbega,Heerenveen,Friesland,VBO,6.126610,53.005349
Jelle van Damweg,44,,,8411XE,Jubbega,Heerenveen,Friesland,VBO,6.127225,53.005588
Jelle van Damweg,46,A,,8411XE,Jubbega,Heerenveen,Friesland,VBO,6.127808,53.005719
Jelle van Damweg,46,B,,8411XE,Jubbega,Heerenveen,Friesland,VBO,6.128048,53.005807
Jelle van Damweg,46,C,,8411XE,Jubbega,Heerenveen,Friesland,VBO,6.128303,53.005896
Jelle van Damweg,46,D,,8411XE,Jubbega,Heerenveen,Friesland,VBO,6.128527,53.005966
Jelle van Damweg,46,,,8411XE,Jubbega,Heerenveen,Friesland,VBO,6.127568,53.005649
Jelle van Damweg,48,,,8411XE,Jubbega,Heerenveen,Friesland,VBO,6.129907,53.006488
Jelle van Damweg,50,,,8411XE,Jubbega,Heerenveen,Friesland,VBO,6.130266,53.006584
Jelle van Damweg,52,,,8411XE,Jubbega,Heerenveen,Friesland,VBO,6.130581,53.006708
Jelle van Damweg,54,,,8411XE,Jubbega,Heerenveen,Friesland,VBO,6.130865,53.006787
Jelle van Damweg,58,,,8411XE,Jubbega,Heerenveen,Friesland,VBO,6.131120,53.006885
Ekke Dijkstraweg,1,,,8411XG,Jubbega,Heerenveen,Friesland,VBO,6.124538,53.006180
Ekke Dijkstraweg,2,,,8411XG,Jubbega,Heerenveen,Friesland,VBO,6.124517,53.005775
Ekke Dijkstraweg,3,,,8411XG,Jubbega,Heerenveen,Friesland,VBO,6.124626,53.006098
Ekke Dijkstraweg,4,,,8411XG,Jubbega,Heerenveen,Friesland,VBO,6.124736,53.005522
Ekke Dijkstraweg,5,,,8411XG,Jubbega,Heerenveen,Friesland,VBO,6.124641,53.006062
Ekke Dijkstraweg,7,,,8411XG,Jubbega,Heerenveen,Friesland,VBO,6.124743,53.005972
Ekke Dijkstraweg,9,,,8411XG,Jubbega,Heerenveen,Friesland,VBO,6.124772,53.005927
Ekke Dijkstraweg,11,,,8411XG,Jubbega,Heerenveen,Friesland,VBO,6.124845,53.005836
Ekke Dijkstraweg,13,,,8411XG,Jubbega,Heerenveen,Friesland,VBO,6.124874,53.005800
Ekke Dijkstraweg,15,,,8411XG,Jubbega,Heerenveen,Friesland,VBO,6.124977,53.005710
Ekke Dijkstraweg,17,,,8411XG,Jubbega,Heerenveen,Friesland,VBO,6.125079,53.005583
Siemen Brinksmaweg,2,A,,8411XH,Jubbega,Heerenveen,Friesland,VBO,6.120565,53.003787
Siemen Brinksmaweg,2,,,8411XH,Jubbega,Heerenveen,Friesland,VBO,6.120715,53.003831
Siemen Brinksmaweg,4,,,8411XH,Jubbega,Heerenveen,Friesland,VBO,6.120296,53.003761
Siemen Brinksmaweg,6,,,8411XH,Jubbega,Heerenveen,Friesland,VBO,6.120011,53.003637
Siemen Brinksmaweg,8,,,8411XH,Jubbega,Heerenveen,Friesland,VBO,6.119876,53.003584
Siemen Brinksmaweg,10,,,8411XH,Jubbega,Heerenveen,Friesland,VBO,6.119726,53.003540
Siemen Brinksmaweg,11,,,8411XH,Jubbega,Heerenveen,Friesland,VBO,6.118381,53.004150
Siemen Brinksmaweg,12,,,8411XH,Jubbega,Heerenveen,Friesland,VBO,6.119536,53.003739
Siemen Brinksmaweg,14,,,8411XH,Jubbega,Heerenveen,Friesland,VBO,6.119448,53.003838
Siemen Brinksmaweg,16,,,8411XH,Jubbega,Heerenveen,Friesland,VBO,6.119375,53.003929
Siemen Brinksmaweg,18,,,8411XH,Jubbega,Heerenveen,Friesland,VBO,6.119273,53.004019
Siemen Brinksmaweg,20,,,8411XH,Jubbega,Heerenveen,Friesland,VBO,6.119155,53.004128
Siemen Brinksmaweg,24,,,8411XH,Jubbega,Heerenveen,Friesland,VBO,6.118185,53.003100
Siemen Brinksmaweg,26,A,,8411XH,Jubbega,Heerenveen,Friesland,VBO,6.117644,53.002843
Siemen Brinksmaweg,26,,,8411XH,Jubbega,Heerenveen,Friesland,VBO,6.117930,53.002994
Siemen Brinksmaweg,28,,,8411XH,Jubbega,Heerenveen,Friesland,VBO,6.117329,53.002692
Siemen Brinksmaweg,32,,,8411XH,Jubbega,Heerenveen,Friesland,VBO,6.116684,53.002426
Schoolweg,1,,,8411XJ,Jubbega,Heerenveen,Friesland,VBO,6.126299,53.007211
Schoolweg,3,,,8411XJ,Jubbega,Heerenveen,Friesland,VBO,6.126402,53.007121
Schoolweg,5,,,8411XJ,Jubbega,Heerenveen,Friesland,VBO,6.126548,53.006949
Schoolweg,7,,,8411XJ,Jubbega,Heerenveen,Friesland,VBO,6.126694,53.006795
Schoolweg,9,,,8411XJ,Jubbega,Heerenveen,Friesland,VBO,6.126811,53.006651
Schoolweg,11,,,8411XJ,Jubbega,Heerenveen,Friesland,VBO,6.127074,53.006353
Schoolweg,13,,,8411XJ,Jubbega,Heerenveen,Friesland,VBO,6.127162,53.006262
Schoolweg,2,A,,8411XK,Jubbega,Heerenveen,Friesland,VBO,6.120773,53.005235
Schoolweg,2,,,8411XK,Jubbega,Heerenveen,Friesland,VBO,6.121098,53.005356
Schoolweg,4,,,8411XK,Jubbega,Heerenveen,Friesland,VBO,6.121188,53.005382
Schoolweg,6,,,8411XK,Jubbega,Heerenveen,Friesland,VBO,6.121412,53.005435
Schoolweg,8,A,,8411XK,Jubbega,Heerenveen,Friesland,VBO,6.121816,53.005531
Schoolweg,8,,,8411XK,Jubbega,Heerenveen,Friesland,VBO,6.121562,53.005488
Schoolweg,10,A,,8411XK,Jubbega,Heerenveen,Friesland,VBO,6.122116,53.005646
Schoolweg,10,,,8411XK,Jubbega,Heerenveen,Friesland,VBO,6.122041,53.005620
Schoolweg,12,A,,8411XK,Jubbega,Heerenveen,Friesland,VBO,6.122325,53.005699
Schoolweg,12,,,8411XK,Jubbega,Heerenveen,Friesland,VBO,6.122236,53.005682
Schoolweg,14,,,8411XK,Jubbega,Heerenveen,Friesland,VBO,6.122625,53.005814
Schoolweg,18,,,8411XL,Jubbega,Heerenveen,Friesland,VBO,6.124363,53.006378
Schoolweg,20,,,8411XL,Jubbega,Heerenveen,Friesland,VBO,6.124468,53.006405
Schoolweg,22,,,8411XL,Jubbega,Heerenveen,Friesland,VBO,6.124617,53.006449
Schoolweg,24,,,8411XL,Jubbega,Heerenveen,Friesland,VBO,6.124707,53.006475
Schoolweg,26,,,8411XL,Jubbega,Heerenveen,Friesland,VBO,6.124857,53.006528
Schoolweg,28,,,8411XL,Jubbega,Heerenveen,Friesland,VBO,6.124947,53.006545
Schoolweg,30,,,8411XL,Jubbega,Heerenveen,Friesland,VBO,6.125082,53.006599
Schoolweg,32,,,8411XL,Jubbega,Heerenveen,Friesland,VBO,6.125186,53.006625
Schoolweg,34,,,8411XL,Jubbega,Heerenveen,Friesland,VBO,6.125336,53.006669
Schoolweg,36,,,8411XL,Jubbega,Heerenveen,Friesland,VBO,6.125441,53.006695
Schoolweg,38,,,8411XL,Jubbega,Heerenveen,Friesland,VBO,6.125576,53.006730
Schoolweg,40,,,8411XL,Jubbega,Heerenveen,Friesland,VBO,6.125665,53.006757
Schoolweg,42,,,8411XL,Jubbega,Heerenveen,Friesland,VBO,6.125815,53.006801
Schoolweg,44,,,8411XL,Jubbega,Heerenveen,Friesland,VBO,6.125890,53.006827
Schoolweg,46,,,8411XL,Jubbega,Heerenveen,Friesland,VBO,6.126055,53.006871
Schoolweg,48,,,8411XL,Jubbega,Heerenveen,Friesland,VBO,6.126145,53.006907
Schoolweg,50,,,8411XL,Jubbega,Heerenveen,Friesland,VBO,6.126307,53.006720
Schoolweg,52,,,8411XL,Jubbega,Heerenveen,Friesland,VBO,6.126379,53.006671
Schoolweg,54,,,8411XL,Jubbega,Heerenveen,Friesland,VBO,6.126452,53.006563
Schoolweg,56,,,8411XL,Jubbega,Heerenveen,Friesland,VBO,6.126496,53.006509
Schoolweg,58,A,,8411XL,Jubbega,Heerenveen,Friesland,VBO,6.126436,53.006281
Schoolweg,58,,,8411XL,Jubbega,Heerenveen,Friesland,VBO,6.126598,53.006409
Schoolweg,60,,,8411XL,Jubbega,Heerenveen,Friesland,VBO,6.126730,53.006274
Sluiswegje,1,,,8411XM,Jubbega,Heerenveen,Friesland,VBO,6.123235,53.005729
Sluiswegje,2,,,8411XM,Jubbega,Heerenveen,Friesland,VBO,6.122802,53.005714
Sluiswegje,3,,,8411XM,Jubbega,Heerenveen,Friesland,VBO,6.123278,53.005684
Sluiswegje,4,,,8411XM,Jubbega,Heerenveen,Friesland,VBO,6.122846,53.005669
Sluiswegje,5,,,8411XM,Jubbega,Heerenveen,Friesland,VBO,6.123351,53.005585
Sluiswegje,6,,,8411XM,Jubbega,Heerenveen,Friesland,VBO,6.122919,53.005587
Sluiswegje,7,,,8411XM,Jubbega,Heerenveen,Friesland,VBO,6.123410,53.005531
Sluiswegje,8,,,8411XM,Jubbega,Heerenveen,Friesland,VBO,6.122948,53.005533
Sluiswegje,9,,,8411XM,Jubbega,Heerenveen,Friesland,VBO,6.123468,53.005440
Sluiswegje,10,,,8411XM,Jubbega,Heerenveen,Friesland,VBO,6.123051,53.005452
Sluiswegje,11,,,8411XM,Jubbega,Heerenveen,Friesland,VBO,6.123526,53.005368
Sluiswegje,12,,,8411XM,Jubbega,Heerenveen,Friesland,VBO,6.123095,53.005389
Sluiswegje,13,,,8411XM,Jubbega,Heerenveen,Friesland,VBO,6.123643,53.005242
Sluiswegje,14,,,8411XM,Jubbega,Heerenveen,Friesland,VBO,6.123168,53.005298
Sluiswegje,15,,,8411XM,Jubbega,Heerenveen,Friesland,VBO,6.123687,53.005187
Sluiswegje,16,,,8411XM,Jubbega,Heerenveen,Friesland,VBO,6.123226,53.005226
Sluiswegje,17,,,8411XM,Jubbega,Heerenveen,Friesland,VBO,6.123868,53.004990
K Molweg,1,,,8411XN,Jubbega,Heerenveen,Friesland,VBO,6.127066,53.006739
K Molweg,2,,,8411XN,Jubbega,Heerenveen,Friesland,VBO,6.127031,53.006479
K Molweg,3,,,8411XN,Jubbega,Heerenveen,Friesland,VBO,6.127155,53.006765
K Molweg,4,,,8411XN,Jubbega,Heerenveen,Friesland,VBO,6.127286,53.006558
K Molweg,5,,,8411XN,Jubbega,Heerenveen,Friesland,VBO,6.127335,53.006809
K Molweg,6,,,8411XN,Jubbega,Heerenveen,Friesland,VBO,6.127436,53.006602
K Molweg,7,,,8411XN,Jubbega,Heerenveen,Friesland,VBO,6.127425,53.006854
K Molweg,8,,,8411XN,Jubbega,Heerenveen,Friesland,VBO,6.127571,53.006646
K Molweg,9,,,8411XN,Jubbega,Heerenveen,Friesland,VBO,6.127590,53.006907
K Molweg,10,,,8411XN,Jubbega,Heerenveen,Friesland,VBO,6.127705,53.006690
K Molweg,11,,,8411XN,Jubbega,Heerenveen,Friesland,VBO,6.127695,53.006942
K Molweg,12,,,8411XN,Jubbega,Heerenveen,Friesland,VBO,6.127825,53.006734
K Molweg,14,,,8411XN,Jubbega,Heerenveen,Friesland,VBO,6.127975,53.006778
K Molweg,16,,,8411XN,Jubbega,Heerenveen,Friesland,VBO,6.128095,53.006832
K Molweg,17,,,8411XN,Jubbega,Heerenveen,Friesland,VBO,6.128040,53.007084
K Molweg,18,,,8411XN,Jubbega,Heerenveen,Friesland,VBO,6.128215,53.006867
K Molweg,19,,,8411XN,Jubbega,Heerenveen,Friesland,VBO,6.128221,53.007217
K Molweg,20,,,8411XN,Jubbega,Heerenveen,Friesland,VBO,6.128646,53.006810
K Molweg,21,,,8411XN,Jubbega,Heerenveen,Friesland,VBO,6.128963,53.007069
K Molweg,23,,,8411XN,Jubbega,Heerenveen,Friesland,VBO,6.129066,53.006969
K Molweg,25,,,8411XN,Jubbega,Heerenveen,Friesland,VBO,6.129095,53.006924
P W Janssenweg,1,,,8411XP,Jubbega,Heerenveen,Friesland,VBO,6.136840,52.984302
P W Janssenweg,2,A,,8411XP,Jubbega,Heerenveen,Friesland,VBO,6.137427,52.984717
P W Janssenweg,2,,,8411XP,Jubbega,Heerenveen,Friesland,VBO,6.137308,52.984685
P W Janssenweg,3,,,8411XP,Jubbega,Heerenveen,Friesland,VBO,6.136991,52.984445
P W Janssenweg,4,,,8411XP,Jubbega,Heerenveen,Friesland,VBO,6.137236,52.984839
P W Janssenweg,5,,,8411XP,Jubbega,Heerenveen,Friesland,VBO,6.136947,52.984517
P W Janssenweg,6,,,8411XP,Jubbega,Heerenveen,Friesland,VBO,6.137075,52.984992
P W Janssenweg,7,,,8411XP,Jubbega,Heerenveen,Friesland,VBO,6.136860,52.984634
P W Janssenweg,9,,,8411XP,Jubbega,Heerenveen,Friesland,VBO,6.136816,52.984688
P W Janssenweg,11,,,8411XP,Jubbega,Heerenveen,Friesland,VBO,6.136744,52.984797
P W Janssenweg,13,,,8411XP,Jubbega,Heerenveen,Friesland,VBO,6.136700,52.984851
P W Janssenweg,15,,,8411XP,Jubbega,Heerenveen,Friesland,VBO,6.136628,52.984959
P W Janssenweg,17,,,8411XP,Jubbega,Heerenveen,Friesland,VBO,6.136511,52.985113
P W Janssenweg,19,,,8411XP,Jubbega,Heerenveen,Friesland,VBO,6.136467,52.985167
P W Janssenweg,21,,,8411XP,Jubbega,Heerenveen,Friesland,VBO,6.136409,52.985239
P W Janssenweg,23,,,8411XP,Jubbega,Heerenveen,Friesland,VBO,6.136365,52.985302
P W Janssenweg,25,,,8411XP,Jubbega,Heerenveen,Friesland,VBO,6.136292,52.985384
P W Janssenweg,27,,,8411XP,Jubbega,Heerenveen,Friesland,VBO,6.136263,52.985438
P W Janssenweg,8,,,8411XR,Jubbega,Heerenveen,Friesland,VBO,6.137002,52.985092
P W Janssenweg,10,,,8411XR,Jubbega,Heerenveen,Friesland,VBO,6.136930,52.985245
P W Janssenweg,12,,,8411XR,Jubbega,Heerenveen,Friesland,VBO,6.136902,52.985317
P W Janssenweg,14,,,8411XR,Jubbega,Heerenveen,Friesland,VBO,6.136800,52.985443
P W Janssenweg,16,,,8411XR,Jubbega,Heerenveen,Friesland,VBO,6.136727,52.985543
P W Janssenweg,18,,,8411XR,Jubbega,Heerenveen,Friesland,VBO,6.136639,52.985651
P W Janssenweg,20,,,8411XR,Jubbega,Heerenveen,Friesland,VBO,6.134733,52.988233
P W Janssenweg,22,,,8411XR,Jubbega,Heerenveen,Friesland,VBO,6.133091,52.990625
P W Janssenweg,24,,,8411XR,Jubbega,Heerenveen,Friesland,VBO,6.132680,52.990987
P W Janssenweg,26,,,8411XR,Jubbega,Heerenveen,Friesland,VBO,6.132404,52.991348
P W Janssenweg,29,,,8411XR,Jubbega,Heerenveen,Friesland,VBO,6.136206,52.985537
P W Janssenweg,31,A,,8411XR,Jubbega,Heerenveen,Friesland,VBO,6.135707,52.985971
P W Janssenweg,31,B,,8411XR,Jubbega,Heerenveen,Friesland,VBO,6.135257,52.985821
P W Janssenweg,31,C,,8411XR,Jubbega,Heerenveen,Friesland,VBO,6.135088,52.986087
P W Janssenweg,31,,,8411XR,Jubbega,Heerenveen,Friesland,VBO,6.135983,52.985601
P W Janssenweg,33,,,8411XR,Jubbega,Heerenveen,Friesland,VBO,6.134675,52.987434
P W Janssenweg,35,A,,8411XR,Jubbega,Heerenveen,Friesland,VBO,6.133769,52.988455
P W Janssenweg,35,,,8411XR,Jubbega,Heerenveen,Friesland,VBO,6.133919,52.988508
P W Janssenweg,37,A,,8411XR,Jubbega,Heerenveen,Friesland,VBO,6.133622,52.988802
P W Janssenweg,37,,,8411XR,Jubbega,Heerenveen,Friesland,VBO,6.133802,52.988691
P W Janssenweg,39,,,8411XR,Jubbega,Heerenveen,Friesland,VBO,6.133541,52.989049
P W Janssenweg,41,,,8411XR,Jubbega,Heerenveen,Friesland,VBO,6.133133,52.989582
P W Janssenweg,43,,,8411XR,Jubbega,Heerenveen,Friesland,VBO,6.132652,52.990223
P W Janssenweg,45,,,8411XR,Jubbega,Heerenveen,Friesland,VBO,6.132026,52.991063
P W Janssenweg,47,,,8411XR,Jubbega,Heerenveen,Friesland,VBO,6.131779,52.991379
P W Janssenweg,28,,,8411XS,Jubbega,Heerenveen,Friesland,VBO,6.132171,52.991673
P W Janssenweg,30,,,8411XS,Jubbega,Heerenveen,Friesland,VBO,6.132278,52.992715
P W Janssenweg,32,,,8411XS,Jubbega,Heerenveen,Friesland,VBO,6.128140,52.998950
P W Janssenweg,34,,,8411XS,Jubbega,Heerenveen,Friesland,VBO,6.127467,52.999682
P W Janssenweg,36,,,8411XS,Jubbega,Heerenveen,Friesland,VBO,6.124545,53.001318
P W Janssenweg,38,,,8411XS,Jubbega,Heerenveen,Friesland,VBO,6.124429,53.001462
P W Janssenweg,40,,,8411XS,Jubbega,Heerenveen,Friesland,VBO,6.124282,53.001598
P W Janssenweg,42,,,8411XS,Jubbega,Heerenveen,Friesland,VBO,6.124106,53.001761
P W Janssenweg,44,,,8411XS,Jubbega,Heerenveen,Friesland,VBO,6.123974,53.001897
P W Janssenweg,46,,,8411XS,Jubbega,Heerenveen,Friesland,VBO,6.123827,53.002014
P W Janssenweg,48,,,8411XS,Jubbega,Heerenveen,Friesland,VBO,6.123702,53.002190
P W Janssenweg,49,,,8411XS,Jubbega,Heerenveen,Friesland,VBO,6.131254,52.992029
P W Janssenweg,50,,,8411XS,Jubbega,Heerenveen,Friesland,VBO,6.123578,53.002267
P W Janssenweg,51,,,8411XS,Jubbega,Heerenveen,Friesland,VBO,6.129029,52.994308
P W Janssenweg,53,,,8411XS,Jubbega,Heerenveen,Friesland,VBO,6.128648,52.996467
P W Janssenweg,55,,,8411XS,Jubbega,Heerenveen,Friesland,VBO,6.128266,52.996730
P W Janssenweg,57,,,8411XS,Jubbega,Heerenveen,Friesland,VBO,6.126891,52.997340
P W Janssenweg,59,A,,8411XS,Jubbega,Heerenveen,Friesland,VBO,6.126906,52.998257
P W Janssenweg,59,,,8411XS,Jubbega,Heerenveen,Friesland,VBO,6.127316,52.997841
P W Janssenweg,61,,,8411XS,Jubbega,Heerenveen,Friesland,VBO,6.124573,52.998559
P W Janssenweg,63,,,8411XS,Jubbega,Heerenveen,Friesland,VBO,6.124284,52.999971
P W Janssenweg,67,,,8411XS,Jubbega,Heerenveen,Friesland,VBO,6.122758,53.001347
P W Janssenweg,81,,,8411XS,Jubbega,Heerenveen,Friesland,VBO,6.122510,53.002517
P W Janssenweg,83,,,8411XT,Jubbega,Heerenveen,Friesland,VBO,6.122440,53.002814
P W Janssenweg,85,A,,8411XT,Jubbega,Heerenveen,Friesland,VBO,6.122294,53.002958
P W Janssenweg,85,,,8411XT,Jubbega,Heerenveen,Friesland,VBO,6.122396,53.002859
P W Janssenweg,87,,,8411XT,Jubbega,Heerenveen,Friesland,VBO,6.122206,53.003058
P W Janssenweg,89,,,8411XT,Jubbega,Heerenveen,Friesland,VBO,6.122133,53.003121
P W Janssenweg,91,,,8411XT,Jubbega,Heerenveen,Friesland,VBO,6.122030,53.003229
P W Janssenweg,93,,,8411XT,Jubbega,Heerenveen,Friesland,VBO,6.121943,53.003329
P W Janssenweg,95,,,8411XT,Jubbega,Heerenveen,Friesland,VBO,6.121840,53.003410
P W Janssenweg,97,,,8411XT,Jubbega,Heerenveen,Friesland,VBO,6.121752,53.003519
P W Janssenweg,101,,,8411XT,Jubbega,Heerenveen,Friesland,VBO,6.121300,53.004079
P W Janssenweg,103,,,8411XT,Jubbega,Heerenveen,Friesland,VBO,6.121080,53.004278
P W Janssenweg,105,,,8411XT,Jubbega,Heerenveen,Friesland,VBO,6.120933,53.004404
P W Janssenweg,107,,,8411XT,Jubbega,Heerenveen,Friesland,VBO,6.120874,53.004459
P W Janssenweg,109,,,8411XT,Jubbega,Heerenveen,Friesland,VBO,6.120801,53.004540
P W Janssenweg,111,,,8411XT,Jubbega,Heerenveen,Friesland,VBO,6.120713,53.004630
P W Janssenweg,113,,,8411XT,Jubbega,Heerenveen,Friesland,VBO,6.120625,53.004712
P W Janssenweg,115,,,8411XT,Jubbega,Heerenveen,Friesland,VBO,6.120537,53.004802
P W Janssenweg,117,,,8411XT,Jubbega,Heerenveen,Friesland,VBO,6.120493,53.004847
P W Janssenweg,119,,,8411XT,Jubbega,Heerenveen,Friesland,VBO,6.120346,53.004929
P W Janssenweg,52,,,8411XV,Jubbega,Heerenveen,Friesland,VBO,6.123110,53.002747
P W Janssenweg,54,,,8411XV,Jubbega,Heerenveen,Friesland,VBO,6.123007,53.002864
P W Janssenweg,56,,,8411XV,Jubbega,Heerenveen,Friesland,VBO,6.122904,53.002946
P W Janssenweg,58,,,8411XV,Jubbega,Heerenveen,Friesland,VBO,6.122742,53.003054
P W Janssenweg,60,,,8411XV,Jubbega,Heerenveen,Friesland,VBO,6.122610,53.003172
P W Janssenweg,62,,,8411XV,Jubbega,Heerenveen,Friesland,VBO,6.122508,53.003298
P W Janssenweg,64,,,8411XV,Jubbega,Heerenveen,Friesland,VBO,6.122376,53.003407
P W Janssenweg,66,,,8411XV,Jubbega,Heerenveen,Friesland,VBO,6.122299,53.003458
P W Janssenweg,68,,,8411XV,Jubbega,Heerenveen,Friesland,VBO,6.122243,53.003507
P W Janssenweg,70,,,8411XV,Jubbega,Heerenveen,Friesland,VBO,6.122170,53.003579
P W Janssenweg,72,A,,8411XV,Jubbega,Heerenveen,Friesland,VBO,6.122157,53.003700
P W Janssenweg,72,B,,8411XV,Jubbega,Heerenveen,Friesland,VBO,6.122090,53.003778
P W Janssenweg,72,C,,8411XV,Jubbega,Heerenveen,Friesland,VBO,6.121959,53.003734
P W Janssenweg,72,D,,8411XV,Jubbega,Heerenveen,Friesland,VBO,6.121876,53.003823
P W Janssenweg,72,,,8411XV,Jubbega,Heerenveen,Friesland,VBO,6.122029,53.003666
P W Janssenweg,74,A,,8411XV,Jubbega,Heerenveen,Friesland,VBO,6.121622,53.004238
P W Janssenweg,74,,,8411XV,Jubbega,Heerenveen,Friesland,VBO,6.121541,53.004230
P W Janssenweg,76,,,8411XV,Jubbega,Heerenveen,Friesland,VBO,6.121423,53.004303
P W Janssenweg,78,,,8411XV,Jubbega,Heerenveen,Friesland,VBO,6.121379,53.004357
P W Janssenweg,80,,,8411XV,Jubbega,Heerenveen,Friesland,VBO,6.121291,53.004429
P W Janssenweg,82,,,8411XV,Jubbega,Heerenveen,Friesland,VBO,6.121203,53.004538
P W Janssenweg,84,,,8411XV,Jubbega,Heerenveen,Friesland,VBO,6.121115,53.004619
P W Janssenweg,86,,,8411XV,Jubbega,Heerenveen,Friesland,VBO,6.121985,53.004937
P W Janssenweg,88,,,8411XV,Jubbega,Heerenveen,Friesland,VBO,6.120954,53.004782
P W Janssenweg,90,A,,8411XV,Jubbega,Heerenveen,Friesland,VBO,6.121063,53.005060
P W Janssenweg,90,,,8411XV,Jubbega,Heerenveen,Friesland,VBO,6.120837,53.004926
P W Janssenweg,92,A,,8411XV,Jubbega,Heerenveen,Friesland,VBO,6.120574,53.005164
P W Janssenweg,92,,,8411XV,Jubbega,Heerenveen,Friesland,VBO,6.120588,53.005152
Schoterlandseweg,1,,,8411XW,Jubbega,Heerenveen,Friesland,VBO,6.097608,52.969076
Schoterlandseweg,3,,,8411XW,Jubbega,Heerenveen,Friesland,VBO,6.098340,52.969269
Schoterlandseweg,5,,,8411XW,Jubbega,Heerenveen,Friesland,VBO,6.099882,52.969808
Schoterlandseweg,7,A,,8411XW,Jubbega,Heerenveen,Friesland,VBO,6.100559,52.970208
Schoterlandseweg,7,B,,8411XW,Jubbega,Heerenveen,Friesland,VBO,6.100770,52.970405
Schoterlandseweg,7,,,8411XW,Jubbega,Heerenveen,Friesland,VBO,6.100228,52.970040
Schoterlandseweg,9,,,8411XW,Jubbega,Heerenveen,Friesland,VBO,6.101111,52.970313
Schoterlandseweg,11,,,8411XW,Jubbega,Heerenveen,Friesland,VBO,6.101790,52.970893
Schoterlandseweg,13,,,8411XW,Jubbega,Heerenveen,Friesland,VBO,6.102956,52.971147
Schoterlandseweg,15,,,8411XW,Jubbega,Heerenveen,Friesland,VBO,6.103643,52.971331
Schoterlandseweg,17,,,8411XW,Jubbega,Heerenveen,Friesland,VBO,6.104033,52.971482
Schoterlandseweg,19,,,8411XW,Jubbega,Heerenveen,Friesland,VBO,6.104467,52.971596
Schoterlandseweg,21,,,8411XW,Jubbega,Heerenveen,Friesland,VBO,6.104766,52.971720
Schoterlandseweg,23,,,8411XW,Jubbega,Heerenveen,Friesland,VBO,6.104887,52.971791
Schoterlandseweg,25,,,8411XW,Jubbega,Heerenveen,Friesland,VBO,6.105127,52.971942
Schoterlandseweg,27,,,8411XW,Jubbega,Heerenveen,Friesland,VBO,6.105654,52.972263
Schoterlandseweg,29,,,8411XW,Jubbega,Heerenveen,Friesland,VBO,6.106011,52.972296
Schoterlandseweg,31,A,,8411XW,Jubbega,Heerenveen,Friesland,VBO,6.106584,52.972688
Schoterlandseweg,31,,,8411XW,Jubbega,Heerenveen,Friesland,VBO,6.106371,52.972429
Schoterlandseweg,33,,,8411XX,Jubbega,Heerenveen,Friesland,VBO,6.107120,52.972748
Schoterlandseweg,35,,,8411XX,Jubbega,Heerenveen,Friesland,VBO,6.107466,52.972953
Schoterlandseweg,37,,,8411XX,Jubbega,Heerenveen,Friesland,VBO,6.107960,52.973085
Schoterlandseweg,39,,,8411XX,Jubbega,Heerenveen,Friesland,VBO,6.108170,52.973173
Schoterlandseweg,41,,,8411XX,Jubbega,Heerenveen,Friesland,VBO,6.108319,52.973217
Schoterlandseweg,43,,,8411XX,Jubbega,Heerenveen,Friesland,VBO,6.108606,52.973476
Schoterlandseweg,51,,,8411XX,Jubbega,Heerenveen,Friesland,VBO,6.109382,52.973597
Schoterlandseweg,53,,,8411XX,Jubbega,Heerenveen,Friesland,VBO,6.109712,52.973730
Schoterlandseweg,55,,,8411XX,Jubbega,Heerenveen,Friesland,VBO,6.109790,52.973939
Schoterlandseweg,57,,,8411XX,Jubbega,Heerenveen,Friesland,VBO,6.110053,52.974026
Schoterlandseweg,59,,,8411XX,Jubbega,Heerenveen,Friesland,VBO,6.110464,52.974175
Schoterlandseweg,61,,,8411XX,Jubbega,Heerenveen,Friesland,VBO,6.110749,52.974281
Schoterlandseweg,63,,,8411XX,Jubbega,Heerenveen,Friesland,VBO,6.111033,52.974405
Schoterlandseweg,65,,,8411XX,Jubbega,Heerenveen,Friesland,VBO,6.111318,52.974520
Schoterlandseweg,67,,,8411XX,Jubbega,Heerenveen,Friesland,VBO,6.111603,52.974626
Schoterlandseweg,69,,,8411XX,Jubbega,Heerenveen,Friesland,VBO,6.111992,52.974777
Schoterlandseweg,71,A,,8411XX,Jubbega,Heerenveen,Friesland,VBO,6.112398,52.974990
Schoterlandseweg,71,,,8411XX,Jubbega,Heerenveen,Friesland,VBO,6.112500,52.974854
Schoterlandseweg,73,,,8411XX,Jubbega,Heerenveen,Friesland,VBO,6.113039,52.975049
Schoterlandseweg,75,,,8411XX,Jubbega,Heerenveen,Friesland,VBO,6.113264,52.975173
Schoterlandseweg,77,,,8411XX,Jubbega,Heerenveen,Friesland,VBO,6.113638,52.975270
Schoterlandseweg,79,,,8411XX,Jubbega,Heerenveen,Friesland,VBO,6.113938,52.975394
Schoterlandseweg,81,,,8411XX,Jubbega,Heerenveen,Friesland,VBO,6.114298,52.975535
Schoterlandseweg,83,,,8411XX,Jubbega,Heerenveen,Friesland,VBO,6.114462,52.975588
Schoterlandseweg,85,,,8411XX,Jubbega,Heerenveen,Friesland,VBO,6.114702,52.975677
Schoterlandseweg,87,,,8411XZ,Jubbega,Heerenveen,Friesland,VBO,6.114854,52.975735
Schoterlandseweg,89,,,8411XZ,Jubbega,Heerenveen,Friesland,VBO,6.115017,52.975801
Schoterlandseweg,91,,,8411XZ,Jubbega,Heerenveen,Friesland,VBO,6.115167,52.975854
Schoterlandseweg,93,,,8411XZ,Jubbega,Heerenveen,Friesland,VBO,6.115331,52.975916
Schoterlandseweg,95,A,,8411XZ,Jubbega,Heerenveen,Friesland,VBO,6.115557,52.976058
Schoterlandseweg,95,,,8411XZ,Jubbega,Heerenveen,Friesland,VBO,6.115467,52.976023
Schoterlandseweg,97,,,8411XZ,Jubbega,Heerenveen,Friesland,VBO,6.115872,52.976182
Schoterlandseweg,99,,,8411XZ,Jubbega,Heerenveen,Friesland,VBO,6.116067,52.976270
Schoterlandseweg,101,,,8411XZ,Jubbega,Heerenveen,Friesland,VBO,6.116306,52.976341
Schoterlandseweg,103,,,8411XZ,Jubbega,Heerenveen,Friesland,VBO,6.116770,52.976455
Schoterlandseweg,105,A,,8411XZ,Jubbega,Heerenveen,Friesland,VBO,6.117219,52.976614
Schoterlandseweg,105,,,8411XZ,Jubbega,Heerenveen,Friesland,VBO,6.117294,52.976640
Schoterlandseweg,107,,,8411XZ,Jubbega,Heerenveen,Friesland,VBO,6.117563,52.976729
Schoterlandseweg,109,,,8411XZ,Jubbega,Heerenveen,Friesland,VBO,6.117549,52.976792
Schoterlandseweg,113,,,8411XZ,Jubbega,Heerenveen,Friesland,VBO,6.119004,52.977394
Schoterlandseweg,115,,,8411XZ,Jubbega,Heerenveen,Friesland,VBO,6.119814,52.977748
Schoterlandseweg,117,,,8411XZ,Jubbega,Heerenveen,Friesland,VBO,6.120517,52.977951
Schoterlandseweg,119,,,8411XZ,Jubbega,Heerenveen,Friesland,VBO,6.121294,52.978135
Schoterlandseweg,121,,,8411ZA,Jubbega,Heerenveen,Friesland,VBO,6.121549,52.978223
Schoterlandseweg,125,,,8411ZA,Jubbega,Heerenveen,Friesland,VBO,6.123725,52.979234
Schoterlandseweg,127,A,,8411ZA,Jubbega,Heerenveen,Friesland,VBO,6.125404,52.979907
Schoterlandseweg,127,,,8411ZA,Jubbega,Heerenveen,Friesland,VBO,6.124684,52.979615
Schoterlandseweg,129,,,8411ZA,Jubbega,Heerenveen,Friesland,VBO,6.125780,52.980156
Schoterlandseweg,131,,,8411ZA,Jubbega,Heerenveen,Friesland,VBO,6.127759,52.980988
Schoterlandseweg,133,,,8411ZA,Jubbega,Heerenveen,Friesland,VBO,6.128612,52.981199
Schoterlandseweg,135,,,8411ZA,Jubbega,Heerenveen,Friesland,VBO,6.128972,52.981367
Schoterlandseweg,137,,,8411ZA,Jubbega,Heerenveen,Friesland,VBO,6.129260,52.981653
Schoterlandseweg,139,,,8411ZA,Jubbega,Heerenveen,Friesland,VBO,6.130069,52.981945
Schoterlandseweg,141,,,8411ZA,Jubbega,Heerenveen,Friesland,VBO,6.132661,52.982917
Schoterlandseweg,143,,,8411ZA,Jubbega,Heerenveen,Friesland,VBO,6.133751,52.983072
Schoterlandseweg,145,,,8411ZA,Jubbega,Heerenveen,Friesland,VBO,6.133946,52.983143
Schoterlandseweg,147,,,8411ZA,Jubbega,Heerenveen,Friesland,VBO,6.134065,52.983169
Schoterlandseweg,149,,,8411ZA,Jubbega,Heerenveen,Friesland,VBO,6.134260,52.983231
Schoterlandseweg,151,A,,8411ZA,Jubbega,Heerenveen,Friesland,VBO,6.134492,52.983633
Schoterlandseweg,151,,,8411ZA,Jubbega,Heerenveen,Friesland,VBO,6.134514,52.983310
Schoterlandseweg,153,,,8411ZA,Jubbega,Heerenveen,Friesland,VBO,6.134649,52.983354
Schoterlandseweg,155,,,8411ZB,Jubbega,Heerenveen,Friesland,VBO,6.134724,52.983380
Schoterlandseweg,157,,,8411ZB,Jubbega,Heerenveen,Friesland,VBO,6.134859,52.983416
Schoterlandseweg,159,A,,8411ZB,Jubbega,Heerenveen,Friesland,VBO,6.134192,52.983671
Schoterlandseweg,159,,,8411ZB,Jubbega,Heerenveen,Friesland,VBO,6.134949,52.983451
Schoterlandseweg,161,,,8411ZB,Jubbega,Heerenveen,Friesland,VBO,6.135355,52.983673
Schoterlandseweg,163,,,8411ZB,Jubbega,Heerenveen,Friesland,VBO,6.135981,52.983714
Schoterlandseweg,165,,,8411ZB,Jubbega,Heerenveen,Friesland,VBO,6.136100,52.983749
Schoterlandseweg,167,,,8411ZB,Jubbega,Heerenveen,Friesland,VBO,6.136370,52.983837
Schoterlandseweg,169,A,,8411ZB,Jubbega,Heerenveen,Friesland,VBO,6.136819,52.983969
Schoterlandseweg,169,,,8411ZB,Jubbega,Heerenveen,Friesland,VBO,6.136624,52.983908
Schoterlandseweg,171,,,8411ZB,Jubbega,Heerenveen,Friesland,VBO,6.136969,52.984013
Schoterlandseweg,173,,,8411ZB,Jubbega,Heerenveen,Friesland,VBO,6.137240,52.984236
Zwanenburgreed,1,,,8411ZB,Jubbega,Heerenveen,Friesland,VBO,6.128487,52.983491
Zwanenburgreed,2,,,8411ZB,Jubbega,Heerenveen,Friesland,VBO,6.129494,52.983179
Zwanenburgreed,3,,,8411ZB,Jubbega,Heerenveen,Friesland,VBO,6.126621,52.985857
Zwanenburgreed,4,,,8411ZB,Jubbega,Heerenveen,Friesland,VBO,6.128924,52.983821
Zwanenburgreed,6,,,8411ZB,Jubbega,Heerenveen,Friesland,VBO,6.128062,52.984743
Schoterlandseweg,2,,,8411ZC,Jubbega,Heerenveen,Friesland,VBO,6.094991,52.967456
Schoterlandseweg,4,,,8411ZC,Jubbega,Heerenveen,Friesland,VBO,6.096426,52.967834
Schoterlandseweg,8,,,8411ZC,Jubbega,Heerenveen,Friesland,VBO,6.098917,52.968858
Schoterlandseweg,10,,,8411ZC,Jubbega,Heerenveen,Friesland,VBO,6.103833,52.971060
Schoterlandseweg,12,,,8411ZC,Jubbega,Heerenveen,Friesland,VBO,6.104927,52.971512
Schoterlandseweg,14,,,8411ZC,Jubbega,Heerenveen,Friesland,VBO,6.105286,52.971636
Brinkreed,1,,,8411ZD,Jubbega,Heerenveen,Friesland,VBO,6.106498,52.971107
Brinkreed,2,A,,8411ZD,Jubbega,Heerenveen,Friesland,VBO,6.105665,52.971289
Brinkreed,2,,,8411ZD,Jubbega,Heerenveen,Friesland,VBO,6.106378,52.970759
Brinkreed,3,,,8411ZD,Jubbega,Heerenveen,Friesland,VBO,6.109667,52.968293
Schoterlandseweg,16,,,8411ZD,Jubbega,Heerenveen,Friesland,VBO,6.105646,52.971813
Schoterlandseweg,18,,,8411ZD,Jubbega,Heerenveen,Friesland,VBO,6.106273,52.971908
Schoterlandseweg,20,A,,8411ZD,Jubbega,Heerenveen,Friesland,VBO,6.106848,52.971979
Schoterlandseweg,20,B,,8411ZD,Jubbega,Heerenveen,Friesland,VBO,6.108705,52.971231
Schoterlandseweg,20,C,,8411ZD,Jubbega,Heerenveen,Friesland,VBO,6.108795,52.971142
Schoterlandseweg,20,D,,8411ZD,Jubbega,Heerenveen,Friesland,VBO,6.108868,52.971049
Schoterlandseweg,20,E,,8411ZD,Jubbega,Heerenveen,Friesland,VBO,6.108606,52.970960
Schoterlandseweg,20,F,,8411ZD,Jubbega,Heerenveen,Friesland,VBO,6.108412,52.971096
Schoterlandseweg,20,G,,8411ZD,Jubbega,Heerenveen,Friesland,VBO,6.108546,52.971144
Schoterlandseweg,20,,,8411ZD,Jubbega,Heerenveen,Friesland,VBO,6.106652,52.972127
Schoterlandseweg,22,,,8411ZD,Jubbega,Heerenveen,Friesland,VBO,6.107383,52.972423
Schoterlandseweg,24,A,,8411ZD,Jubbega,Heerenveen,Friesland,VBO,6.108386,52.972785
Schoterlandseweg,24,,,8411ZD,Jubbega,Heerenveen,Friesland,VBO,6.108102,52.972661
Schoterlandseweg,26,,,8411ZD,Jubbega,Heerenveen,Friesland,VBO,6.108732,52.972945
Schoterlandseweg,28,,,8411ZD,Jubbega,Heerenveen,Friesland,VBO,6.109183,52.973248
Schoterlandseweg,30,,,8411ZD,Jubbega,Heerenveen,Friesland,VBO,6.109570,52.973228
Schoterlandseweg,32,A,,8411ZD,Jubbega,Heerenveen,Friesland,VBO,6.110067,52.973584
Schoterlandseweg,32,,,8411ZD,Jubbega,Heerenveen,Friesland,VBO,6.109872,52.973513
Schoterlandseweg,34,,,8411ZD,Jubbega,Heerenveen,Friesland,VBO,6.110232,52.973646
Schoterlandseweg,36,A,,8411ZD,Jubbega,Heerenveen,Friesland,VBO,6.110978,52.973758
Schoterlandseweg,36,B,,8411ZD,Jubbega,Heerenveen,Friesland,VBO,6.111308,52.973882
Schoterlandseweg,36,C,,8411ZD,Jubbega,Heerenveen,Friesland,VBO,6.111532,52.973971
Schoterlandseweg,36,D,,8411ZD,Jubbega,Heerenveen,Friesland,VBO,6.112321,52.972781
Schoterlandseweg,36,,,8411ZD,Jubbega,Heerenveen,Friesland,VBO,6.110723,52.973661
Schoterlandseweg,38,A,,8411ZD,Jubbega,Heerenveen,Friesland,VBO,6.113047,52.974635
Schoterlandseweg,38,,,8411ZD,Jubbega,Heerenveen,Friesland,VBO,6.112373,52.974379
Schoterlandseweg,40,,,8411ZD,Jubbega,Heerenveen,Friesland,VBO,6.114098,52.975150
Schoterlandseweg,42,,,8411ZD,Jubbega,Heerenveen,Friesland,VBO,6.114563,52.975390
Schoterlandseweg,44,,,8411ZD,Jubbega,Heerenveen,Friesland,VBO,6.115084,52.975396
Schoterlandseweg,46,,,8411ZD,Jubbega,Heerenveen,Friesland,VBO,6.115205,52.975512
Schoterlandseweg,48,,,8411ZD,Jubbega,Heerenveen,Friesland,VBO,6.115394,52.975563
Schoterlandseweg,50,A,,8411ZD,Jubbega,Heerenveen,Friesland,VBO,6.115835,52.975742
Schoterlandseweg,50,,,8411ZD,Jubbega,Heerenveen,Friesland,VBO,6.115626,52.975752
Schoterlandseweg,52,,,8411ZD,Jubbega,Heerenveen,Friesland,VBO,6.116120,52.975902
Schoterlandseweg,58,,,8411ZD,Jubbega,Heerenveen,Friesland,VBO,6.116631,52.976159
Schoterlandseweg,177,,,8411ZE,Jubbega,Heerenveen,Friesland,VBO,6.137913,52.984367
Schoterlandseweg,179,,,8411ZE,Jubbega,Heerenveen,Friesland,VBO,6.138227,52.984446
Schoterlandseweg,181,,,8411ZE,Jubbega,Heerenveen,Friesland,VBO,6.138707,52.984685
Schoterlandseweg,189,A,,8411ZE,Jubbega,Heerenveen,Friesland,VBO,6.139760,52.984999
Schoterlandseweg,189,B,,8411ZE,Jubbega,Heerenveen,Friesland,VBO,6.139889,52.985015
Schoterlandseweg,189,,,8411ZE,Jubbega,Heerenveen,Friesland,VBO,6.139185,52.984736
Schoterlandseweg,191,,,8411ZE,Jubbega,Heerenveen,Friesland,VBO,6.140069,52.985045
Schoterlandseweg,193,,,8411ZE,Jubbega,Heerenveen,Friesland,VBO,6.140203,52.985080
Schoterlandseweg,195,,,8411ZE,Jubbega,Heerenveen,Friesland,VBO,6.140522,52.985438
Schoterlandseweg,197,,,8411ZE,Jubbega,Heerenveen,Friesland,VBO,6.141482,52.985800
Schoterlandseweg,199,,,8411ZE,Jubbega,Heerenveen,Friesland,VBO,6.142266,52.985526
Schoterlandseweg,201,,,8411ZE,Jubbega,Heerenveen,Friesland,VBO,6.142460,52.985560
Schoterlandseweg,203,,,8411ZE,Jubbega,Heerenveen,Friesland,VBO,6.142625,52.985604
Schoterlandseweg,205,,,8411ZE,Jubbega,Heerenveen,Friesland,VBO,6.142759,52.985630
Schoterlandseweg,207,A,,8411ZE,Jubbega,Heerenveen,Friesland,VBO,6.143121,52.985853
Schoterlandseweg,207,,,8411ZE,Jubbega,Heerenveen,Friesland,VBO,6.142969,52.985692
Schoterlandseweg,209,,,8411ZE,Jubbega,Heerenveen,Friesland,VBO,6.143522,52.985832
Schoterlandseweg,211,,,8411ZE,Jubbega,Heerenveen,Friesland,VBO,6.143926,52.985911
Schoterlandseweg,213,,,8411ZE,Jubbega,Heerenveen,Friesland,VBO,6.144120,52.985972
Schoterlandseweg,215,,,8411ZE,Jubbega,Heerenveen,Friesland,VBO,6.144255,52.986034
Schoterlandseweg,217,,,8411ZE,Jubbega,Heerenveen,Friesland,VBO,6.144558,52.986311
Schoterlandseweg,221,,,8411ZE,Jubbega,Heerenveen,Friesland,VBO,6.144121,52.986853
Kerklaan,1,,,8411ZG,Jubbega,Heerenveen,Friesland,VBO,6.117710,52.975703
Kerklaan,3,,,8411ZG,Jubbega,Heerenveen,Friesland,VBO,6.120576,52.972657
Schoterlandseweg,60,,,8411ZG,Jubbega,Heerenveen,Friesland,VBO,6.118124,52.976511
Schoterlandseweg,64,,,8411ZG,Jubbega,Heerenveen,Friesland,VBO,6.118338,52.976751
Schoterlandseweg,66,,,8411ZG,Jubbega,Heerenveen,Friesland,VBO,6.119917,52.975905
Schoterlandseweg,68,A,,8411ZG,Jubbega,Heerenveen,Friesland,VBO,6.120131,52.976273
Schoterlandseweg,68,,,8411ZG,Jubbega,Heerenveen,Friesland,VBO,6.119324,52.976988
Schoterlandseweg,70,,,8411ZG,Jubbega,Heerenveen,Friesland,VBO,6.120150,52.977369
Schoterlandseweg,72,,,8411ZG,Jubbega,Heerenveen,Friesland,VBO,6.120957,52.977562
Schoterlandseweg,74,,,8411ZG,Jubbega,Heerenveen,Friesland,VBO,6.121288,52.977766
Schoterlandseweg,76,,,8411ZG,Jubbega,Heerenveen,Friesland,VBO,6.122529,52.978100
Gagelreed,2,,,8411ZH,Jubbega,Heerenveen,Friesland,VBO,6.124263,52.975870
Hulstreed,1,,,8411ZH,Jubbega,Heerenveen,Friesland,VBO,6.130548,52.977745
Schoterlandseweg,78,,,8411ZH,Jubbega,Heerenveen,Friesland,VBO,6.124254,52.978871
Schoterlandseweg,80,,,8411ZH,Jubbega,Heerenveen,Friesland,VBO,6.127970,52.980241
Schoterlandseweg,82,,,8411ZH,Jubbega,Heerenveen,Friesland,VBO,6.128318,52.980563
Schoterlandseweg,84,,,8411ZH,Jubbega,Heerenveen,Friesland,VBO,6.131231,52.981964
Schoterlandseweg,86,,,8411ZH,Jubbega,Heerenveen,Friesland,VBO,6.134104,52.982800
Schoterlandseweg,88,,,8411ZH,Jubbega,Heerenveen,Friesland,VBO,6.136742,52.981202
Schoterlandseweg,90,,,8411ZH,Jubbega,Heerenveen,Friesland,VBO,6.136020,52.983390
Schoterlandseweg,92,,,8411ZH,Jubbega,Heerenveen,Friesland,VBO,6.136184,52.983443
Schoterlandseweg,94,,,8411ZH,Jubbega,Heerenveen,Friesland,VBO,6.136529,52.983549
Schoterlandseweg,96,,,8411ZH,Jubbega,Heerenveen,Friesland,VBO,6.136858,52.983646
Schoterlandseweg,98,,,8411ZH,Jubbega,Heerenveen,Friesland,VBO,6.137188,52.983760
Schoterlandseweg,100,,,8411ZH,Jubbega,Heerenveen,Friesland,VBO,6.137412,52.983831
Schoterlandseweg,102,,,8411ZH,Jubbega,Heerenveen,Friesland,VBO,6.137577,52.983893
Schoterlandseweg,104,,,8411ZH,Jubbega,Heerenveen,Friesland,VBO,6.137831,52.983945
Schoterlandseweg,106,,,8411ZJ,Jubbega,Heerenveen,Friesland,VBO,6.137981,52.983998
Schoterlandseweg,108,,,8411ZJ,Jubbega,Heerenveen,Friesland,VBO,6.138235,52.984041
Schoterlandseweg,110,A,,8411ZJ,Jubbega,Heerenveen,Friesland,VBO,6.139805,52.984418
Schoterlandseweg,110,,,8411ZJ,Jubbega,Heerenveen,Friesland,VBO,6.138966,52.984127
Schoterlandseweg,112,,,8411ZJ,Jubbega,Heerenveen,Friesland,VBO,6.140238,52.984496
Schoterlandseweg,114,,,8411ZJ,Jubbega,Heerenveen,Friesland,VBO,6.140646,52.984862
Schoterlandseweg,116,,,8411ZJ,Jubbega,Heerenveen,Friesland,VBO,6.142796,52.985154
Schoterlandseweg,118,,,8411ZJ,Jubbega,Heerenveen,Friesland,VBO,6.143619,52.985391
Schoterlandseweg,120,,,8411ZJ,Jubbega,Heerenveen,Friesland,VBO,6.143950,52.985569
Schoterlandseweg,124,,,8411ZJ,Jubbega,Heerenveen,Friesland,VBO,6.144144,52.985613
Schoterlandseweg,126,,,8411ZJ,Jubbega,Heerenveen,Friesland,VBO,6.144458,52.985692
Schoterlandseweg,128,,,8411ZJ,Jubbega,Heerenveen,Friesland,VBO,6.144772,52.985762
Schoterlandseweg,130,,,8411ZJ,Jubbega,Heerenveen,Friesland,VBO,6.144876,52.985779
Frederikswijk,1,,,8411ZK,Jubbega,Heerenveen,Friesland,VBO,6.118388,53.001913
Frederikswijk,2,,,8411ZK,Jubbega,Heerenveen,Friesland,VBO,6.118014,53.001825
Frederikswijk,3,,,8411ZK,Jubbega,Heerenveen,Friesland,VBO,6.119603,53.000638
Frederikswijk,5,,,8411ZK,Jubbega,Heerenveen,Friesland,VBO,6.120791,52.999508
Frederikswijk,6,,,8411ZK,Jubbega,Heerenveen,Friesland,VBO,6.125836,52.993821
Koopmanswijk,2,,,8411ZL,Jubbega,Heerenveen,Friesland,VBO,6.121355,52.991488
Koopmanswijk,5,,,8411ZL,Jubbega,Heerenveen,Friesland,VBO,6.119688,52.992406
Leidijk,1,,,8411ZM,Jubbega,Heerenveen,Friesland,VBO,6.121364,52.989331
Leidijk,2,,,8411ZM,Jubbega,Heerenveen,Friesland,VBO,6.115030,52.986378
Leidijk,3,,,8411ZM,Jubbega,Heerenveen,Friesland,VBO,6.120704,52.989956
Leidijk,5,,,8411ZM,Jubbega,Heerenveen,Friesland,VBO,6.122564,52.990717
Leidijk,6,,,8411ZM,Jubbega,Heerenveen,Friesland,VBO,6.115916,52.986858
Leidijk,7,,,8411ZM,Jubbega,Heerenveen,Friesland,VBO,6.122848,52.990787
Leidijk,8,,,8411ZM,Jubbega,Heerenveen,Friesland,VBO,6.117081,52.987066
Leidijk,9,,,8411ZM,Jubbega,Heerenveen,Friesland,VBO,6.122725,52.991426
Leidijk,11,A,,8411ZM,Jubbega,Heerenveen,Friesland,VBO,6.123149,52.990992
Leidijk,11,,,8411ZM,Jubbega,Heerenveen,Friesland,VBO,6.123162,52.990857
Leidijk,12,,,8411ZM,Jubbega,Heerenveen,Friesland,VBO,6.121264,52.988730
Leidijk,13,,,8411ZM,Jubbega,Heerenveen,Friesland,VBO,6.123894,52.991032
Leidijk,14,,,8411ZM,Jubbega,Heerenveen,Friesland,VBO,6.121583,52.989061
Leidijk,16,A,,8411ZM,Jubbega,Heerenveen,Friesland,VBO,6.124082,52.990672
Leidijk,16,B,,8411ZM,Jubbega,Heerenveen,Friesland,VBO,6.122317,52.990242
Leidijk,16,,,8411ZM,Jubbega,Heerenveen,Friesland,VBO,6.122352,52.989640
Leidijk,18,,,8411ZM,Jubbega,Heerenveen,Friesland,VBO,6.125504,52.991103
Leidijk,20,A,,8411ZM,Jubbega,Heerenveen,Friesland,VBO,6.126297,52.991285
Leidijk,20,,,8411ZM,Jubbega,Heerenveen,Friesland,VBO,6.126254,52.990550
Leidijk,22,,,8411ZM,Jubbega,Heerenveen,Friesland,VBO,6.127446,52.991469
Leidijk,24,A,1,8411ZM,Jubbega,Heerenveen,Friesland,VBO,6.128161,52.991700
Leidijk,24,A,,8411ZM,Jubbega,Heerenveen,Friesland,VBO,6.129343,52.991789
Leidijk,24,,,8411ZM,Jubbega,Heerenveen,Friesland,VBO,6.127868,52.991763
Leidijk,26,A,,8411ZM,Jubbega,Heerenveen,Friesland,VBO,6.130237,52.991775
Leidijk,26,,,8411ZM,Jubbega,Heerenveen,Friesland,VBO,6.129792,52.991921
Zwanenburgreed,5,,,8411ZN,Jubbega,Heerenveen,Friesland,VBO,6.123664,52.987107
Zwanenburgreed,10,,,8411ZN,Jubbega,Heerenveen,Friesland,VBO,6.124185,52.987987
Zwanenburgreed,12,,,8411ZN,Jubbega,Heerenveen,Friesland,VBO,6.123497,52.988671
Sjoerd Schepersweg,2,,,8411ZP,Jubbega,Heerenveen,Friesland,VBO,6.133050,52.983876
