openbareruimtenaam,huisnummer,huisletter,huisnummertoevoeging,postcode,woonplaatsnaam,gemeentenaam,provincienaam,typeadresseerbaarobject,longitude,latitude
Prikkedaem,1,,,8412CA,Hoornsterzwaag,Heerenveen,Friesland,VBO,6.180858,52.992546
Prikkedaem,2,A,,8412CA,Hoornsterzwaag,Heerenveen,Friesland,VBO,6.180549,52.982861
Prikkedaem,2,,,8412CA,Hoornsterzwaag,Heerenveen,Friesland,VBO,6.179614,52.997065
Prikkedaem,3,,,8412CA,Hoornsterzwaag,Heerenveen,Friesland,VBO,6.180251,52.986214
Miedwei,2,,,8412CB,Hoornsterzwaag,Heerenveen,Friesland,VBO,6.188275,52.994186
Miedwei,4,,,8412CB,Hoornsterzwaag,Heerenveen,Friesland,VBO,6.188621,52.994390
Miedwei,6,A,,8412CB,Hoornsterzwaag,Heerenveen,Friesland,VBO,6.195971,52.994754
Miedwei,6,,,8412CB,Hoornsterzwaag,Heerenveen,Friesland,VBO,6.195342,52.994575
Miedwei,8,,,8412CB,Hoornsterzwaag,Heerenveen,Friesland,VBO,6.201534,52.995157
Twitelderreed,8,,,8412CC,Hoornsterzwaag,Heerenveen,Friesland,VBO,6.162284,52.983277
Freulewei,1,,,8412CD,Hoornsterzwaag,Heerenveen,Friesland,VBO,6.157408,52.992124
Freulewei,3,,,8412CD,Hoornsterzwaag,Heerenveen,Friesland,VBO,6.160940,52.988920
Freulewei,4,,,8412CD,Hoornsterzwaag,Heerenveen,Friesland,VBO,6.158614,52.984559
Freulewei,5,,,8412CD,Hoornsterzwaag,Heerenveen,Friesland,VBO,6.161176,52.987930
Freulewei,6,,,8412CD,Hoornsterzwaag,Heerenveen,Friesland,VBO,6.159631,52.981470
Tjongervallei,20,,,8412CE,Hoornsterzwaag,Heerenveen,Friesland,VBO,6.160769,52.980941
Tjongervallei,22,,,8412CE,Hoornsterzwaag,Heerenveen,Friesland,VBO,6.163436,52.982721
Tjongervallei,24,,,8412CE,Hoornsterzwaag,Heerenveen,Friesland,VBO,6.168880,52.984061
Tjongervallei,25,,,8412CE,Hoornsterzwaag,Heerenveen,Friesland,VBO,6.174975,52.985171
Luxemburg,5,,,8412CG,Hoornsterzwaag,Heerenveen,Friesland,VBO,6.140444,52.997283
Luxemburg,7,A,1,8412CG,Hoornsterzwaag,Heerenveen,Friesland,VBO,6.143519,52.998652
Luxemburg,7,A,,8412CG,Hoornsterzwaag,Heerenveen,Friesland,VBO,6.143882,52.998843
Luxemburg,7,B,,8412CG,Hoornsterzwaag,Heerenveen,Friesland,VBO,6.144828,52.999268
Luxemburg,7,,,8412CG,Hoornsterzwaag,Heerenveen,Friesland,VBO,6.143161,52.998497
Luxemburg,9,,,8412CG,Hoornsterzwaag,Heerenveen,Friesland,VBO,6.149061,53.001110
Luxemburg,11,,,8412CG,Hoornsterzwaag,Heerenveen,Friesland,VBO,6.149991,53.001455
Sake Kromhoutswei,1,,,8412CG,Hoornsterzwaag,Heerenveen,Friesland,VBO,6.146414,52.991152
Sake Kromhoutswei,2,,,8412CG,Hoornsterzwaag,Heerenveen,Friesland,VBO,6.147486,52.991118
Sake Kromhoutswei,3,,,8412CG,Hoornsterzwaag,Heerenveen,Friesland,VBO,6.145884,52.992324
Sake Kromhoutswei,6,,,8412CG,Hoornsterzwaag,Heerenveen,Friesland,VBO,6.145195,52.995527
Sake Kromhoutswei,8,,,8412CG,Hoornsterzwaag,Heerenveen,Friesland,VBO,6.145124,52.995716
Sake Kromhoutswei,10,,,8412CG,Hoornsterzwaag,Heerenveen,Friesland,VBO,6.144951,52.996032
Sake Kromhoutswei,12,,,8412CG,Hoornsterzwaag,Heerenveen,Friesland,VBO,6.144807,52.996347
Bij de Leijwei,1,,,8412SC,Hoornsterzwaag,Heerenveen,Friesland,VBO,6.132836,53.007869
Bij de Leijwei,2,,,8412SC,Hoornsterzwaag,Heerenveen,Friesland,VBO,6.132631,53.007226
Bij de Leijwei,3,,,8412SC,Hoornsterzwaag,Heerenveen,Friesland,VBO,6.133511,53.008155
Bij de Leijwei,4,A,,8412SC,Hoornsterzwaag,Heerenveen,Friesland,VBO,6.133995,53.007720
Bij de Leijwei,4,,,8412SC,Hoornsterzwaag,Heerenveen,Friesland,VBO,6.133051,53.007394
Bij de Leijwei,5,,,8412SC,Hoornsterzwaag,Heerenveen,Friesland,VBO,6.134035,53.008304
Bij de Leijwei,6,,,8412SC,Hoornsterzwaag,Heerenveen,Friesland,VBO,6.134774,53.007958
Bij de Leijwei,8,,,8412SC,Hoornsterzwaag,Heerenveen,Friesland,VBO,6.135209,53.008117
Bij de Leijwei,12,,,8412SC,Hoornsterzwaag,Heerenveen,Friesland,VBO,6.136690,53.008494
Bij de Leijwei,14,,,8412SC,Hoornsterzwaag,Heerenveen,Friesland,VBO,6.137424,53.008714
4e Wyk,1,,,8412SE,Hoornsterzwaag,Heerenveen,Friesland,VBO,6.135314,53.007317
4e Wyk,5,,,8412SE,Hoornsterzwaag,Heerenveen,Friesland,VBO,6.139470,53.002977
6e Wyk,2,,,8412SE,Hoornsterzwaag,Heerenveen,Friesland,VBO,6.145161,53.003831
Bij de Leijwei,7,,,8412SE,Hoornsterzwaag,Heerenveen,Friesland,VBO,6.135684,53.008923
Bij de Leijwei,9,,,8412SE,Hoornsterzwaag,Heerenveen,Friesland,VBO,6.136552,53.009142
Bij de Leijwei,10,,,8412SE,Hoornsterzwaag,Heerenveen,Friesland,VBO,6.135643,53.008258
5e Wyk,5,,,8412SG,Hoornsterzwaag,Heerenveen,Friesland,VBO,6.141952,53.004337
Bij de Leijwei,11,,,8412SG,Hoornsterzwaag,Heerenveen,Friesland,VBO,6.136896,53.009212
Bij de Leijwei,13,,,8412SG,Hoornsterzwaag,Heerenveen,Friesland,VBO,6.137346,53.009344
Bij de Leijwei,15,,,8412SG,Hoornsterzwaag,Heerenveen,Friesland,VBO,6.136999,53.010161
Bij de Leijwei,16,,,8412SG,Hoornsterzwaag,Heerenveen,Friesland,VBO,6.138416,53.009202
Bij de Leijwei,17,,,8412SG,Hoornsterzwaag,Heerenveen,Friesland,VBO,6.138321,53.009760
Bij de Leijwei,18,,,8412SG,Hoornsterzwaag,Heerenveen,Friesland,VBO,6.138970,53.009379
Bij de Leijwei,20,,,8412SG,Hoornsterzwaag,Heerenveen,Friesland,VBO,6.139435,53.009574
Bij de Leijwei,21,,,8412SG,Hoornsterzwaag,Heerenveen,Friesland,VBO,6.139221,53.010105
Bij de Leijwei,22,,,8412SG,Hoornsterzwaag,Heerenveen,Friesland,VBO,6.142926,53.010657
Bij de Leijwei,23,,,8412SG,Hoornsterzwaag,Heerenveen,Friesland,VBO,6.139625,53.010192
Bij de Leijwei,24,,,8412SG,Hoornsterzwaag,Heerenveen,Friesland,VBO,6.145582,53.011754
Bij de Leijwei,25,,,8412SG,Hoornsterzwaag,Heerenveen,Friesland,VBO,6.140914,53.010643
Bij de Leijwei,26,,,8412SG,Hoornsterzwaag,Heerenveen,Friesland,VBO,6.146020,53.011926
Bij de Leijwei,27,,,8412SG,Hoornsterzwaag,Heerenveen,Friesland,VBO,6.141634,53.010917
Bij de Leijwei,31,,,8412SG,Hoornsterzwaag,Heerenveen,Friesland,VBO,6.143028,53.011393
Bij de Leijwei,33,,,8412SG,Hoornsterzwaag,Heerenveen,Friesland,VBO,6.143688,53.011641
Bij de Leijwei,37,,,8412SG,Hoornsterzwaag,Heerenveen,Friesland,VBO,6.144688,53.012578
Bij de Leijwei,39,,,8412SG,Hoornsterzwaag,Heerenveen,Friesland,VBO,6.145293,53.012250
Bij de Leijwei,41,,,8412SG,Hoornsterzwaag,Heerenveen,Friesland,VBO,6.145830,53.012328
Bij de Leijwei,43,,,8412SG,Hoornsterzwaag,Heerenveen,Friesland,VBO,6.146410,53.012556
Bij de Leijwei,45,,,8412SG,Hoornsterzwaag,Heerenveen,Friesland,VBO,6.147045,53.012752
Bij de Leijwei,28,,,8412SH,Hoornsterzwaag,Heerenveen,Friesland,VBO,6.148865,53.012884
Bij de Leijwei,30,,,8412SH,Hoornsterzwaag,Heerenveen,Friesland,VBO,6.149075,53.012972
Bij de Leijwei,32,,,8412SH,Hoornsterzwaag,Heerenveen,Friesland,VBO,6.149255,53.013043
Bij de Leijwei,34,,,8412SH,Hoornsterzwaag,Heerenveen,Friesland,VBO,6.149555,53.013149
Bij de Leijwei,36,,,8412SH,Hoornsterzwaag,Heerenveen,Friesland,VBO,6.150230,53.013396
Bij de Leijwei,42,,,8412SH,Hoornsterzwaag,Heerenveen,Friesland,VBO,6.152538,53.014154
Bij de Leijwei,44,,,8412SH,Hoornsterzwaag,Heerenveen,Friesland,VBO,6.153782,53.014551
Bij de Leijwei,46,,,8412SH,Hoornsterzwaag,Heerenveen,Friesland,VBO,6.154948,53.014786
Bij de Leijwei,47,,,8412SH,Hoornsterzwaag,Heerenveen,Friesland,VBO,6.147194,53.012778
Bij de Leijwei,49,,,8412SH,Hoornsterzwaag,Heerenveen,Friesland,VBO,6.147344,53.012795
Bij de Leijwei,51,,,8412SH,Hoornsterzwaag,Heerenveen,Friesland,VBO,6.147523,53.012856
Bij de Leijwei,53,,,8412SH,Hoornsterzwaag,Heerenveen,Friesland,VBO,6.147825,53.013088
Bij de Leijwei,55,,,8412SH,Hoornsterzwaag,Heerenveen,Friesland,VBO,6.150555,53.014068
Bij de Leijwei,59,,,8412SH,Hoornsterzwaag,Heerenveen,Friesland,VBO,6.151604,53.014412
Bij de Leijwei,61,,,8412SH,Hoornsterzwaag,Heerenveen,Friesland,VBO,6.152382,53.014632
Bij de Leijwei,63,,,8412SH,Hoornsterzwaag,Heerenveen,Friesland,VBO,6.152638,53.014783
Bij de Leijwei,65,,,8412SH,Hoornsterzwaag,Heerenveen,Friesland,VBO,6.151919,53.016031
13e Wyk,2,,,8412SJ,Hoornsterzwaag,Heerenveen,Friesland,VBO,6.159579,53.015466
13e Wyk,4,,,8412SJ,Hoornsterzwaag,Heerenveen,Friesland,VBO,6.161743,53.013098
Bij de Leijwei,48,,,8412SJ,Hoornsterzwaag,Heerenveen,Friesland,VBO,6.156531,53.014991
Bij de Leijwei,50,,,8412SJ,Hoornsterzwaag,Heerenveen,Friesland,VBO,6.158493,53.015554
Bij de Leijwei,52,,,8412SJ,Hoornsterzwaag,Heerenveen,Friesland,VBO,6.160212,53.015857
Bij de Leijwei,54,,,8412SJ,Hoornsterzwaag,Heerenveen,Friesland,VBO,6.161439,53.016119
Bij de Leijwei,56,,,8412SJ,Hoornsterzwaag,Heerenveen,Friesland,VBO,6.162499,53.016211
Bij de Leijwei,58,,,8412SJ,Hoornsterzwaag,Heerenveen,Friesland,VBO,6.163040,53.016468
Bij de Leijwei,60,,,8412SJ,Hoornsterzwaag,Heerenveen,Friesland,VBO,6.163892,53.016660
Bij de Leijwei,69,,,8412SJ,Hoornsterzwaag,Heerenveen,Friesland,VBO,6.154524,53.015220
Bij de Leijwei,71,,,8412SJ,Hoornsterzwaag,Heerenveen,Friesland,VBO,6.154689,53.015282
Bij de Leijwei,73,A,,8412SJ,Hoornsterzwaag,Heerenveen,Friesland,VBO,6.155062,53.015599
Bij de Leijwei,73,,,8412SJ,Hoornsterzwaag,Heerenveen,Friesland,VBO,6.155033,53.015361
Bij de Leijwei,75,A,,8412SJ,Hoornsterzwaag,Heerenveen,Friesland,VBO,6.155586,53.015465
Bij de Leijwei,75,,,8412SJ,Hoornsterzwaag,Heerenveen,Friesland,VBO,6.155585,53.015411
Bij de Leijwei,79,,,8412SJ,Hoornsterzwaag,Heerenveen,Friesland,VBO,6.156437,53.015558
Bij de Leijwei,81,,,8412SJ,Hoornsterzwaag,Heerenveen,Friesland,VBO,6.157770,53.015945
Bij de Leijwei,83,,,8412SJ,Hoornsterzwaag,Heerenveen,Friesland,VBO,6.158352,53.016013
Bij de Leijwei,85,A,,8412SJ,Hoornsterzwaag,Heerenveen,Friesland,VBO,6.158551,53.016281
Bij de Leijwei,85,,,8412SJ,Hoornsterzwaag,Heerenveen,Friesland,VBO,6.158909,53.016288
Bij de Leijwei,87,,,8412SJ,Hoornsterzwaag,Heerenveen,Friesland,VBO,6.160881,53.016599
Bij de Leijwei,89,,,8412SJ,Hoornsterzwaag,Heerenveen,Friesland,VBO,6.162001,53.016735
14e Wyk,2,,,8412SK,Hoornsterzwaag,Heerenveen,Friesland,VBO,6.163774,53.015043
Bij de Leijwei,62,,,8412SK,Hoornsterzwaag,Heerenveen,Friesland,VBO,6.165387,53.016929
Bij de Leijwei,64,,,8412SK,Hoornsterzwaag,Heerenveen,Friesland,VBO,6.165922,53.017186
Bij de Leijwei,66,,,8412SK,Hoornsterzwaag,Heerenveen,Friesland,VBO,6.167378,53.017437
Bij de Leijwei,68,,,8412SK,Hoornsterzwaag,Heerenveen,Friesland,VBO,6.168411,53.017655
Bij de Leijwei,70,,,8412SK,Hoornsterzwaag,Heerenveen,Friesland,VBO,6.169585,53.016659
Bij de Leijwei,72,,,8412SK,Hoornsterzwaag,Heerenveen,Friesland,VBO,6.169115,53.017902
Bij de Leijwei,91,,,8412SK,Hoornsterzwaag,Heerenveen,Friesland,VBO,6.162676,53.016947
Bij de Leijwei,111,,,8412SK,Hoornsterzwaag,Heerenveen,Friesland,VBO,6.164021,53.017181
Bij de Leijwei,113,,,8412SK,Hoornsterzwaag,Heerenveen,Friesland,VBO,6.164171,53.017225
Bij de Leijwei,115,,,8412SK,Hoornsterzwaag,Heerenveen,Friesland,VBO,6.164305,53.017260
Bij de Leijwei,117,,,8412SK,Hoornsterzwaag,Heerenveen,Friesland,VBO,6.164440,53.017295
Bij de Leijwei,119,,,8412SK,Hoornsterzwaag,Heerenveen,Friesland,VBO,6.164726,53.017455
Bij de Leijwei,123,,,8412SK,Hoornsterzwaag,Heerenveen,Friesland,VBO,6.165281,53.017649
Bij de Leijwei,139,,,8412SK,Hoornsterzwaag,Heerenveen,Friesland,VBO,6.166909,53.017836
Bij de Leijwei,141,,,8412SK,Hoornsterzwaag,Heerenveen,Friesland,VBO,6.168482,53.018320
19e Wyk,2,,,8412SL,Hoornsterzwaag,Heerenveen,Friesland,VBO,6.177903,53.019273
19e Wyk,4,,,8412SL,Hoornsterzwaag,Heerenveen,Friesland,VBO,6.180639,53.016523
Bij de Leijwei,74,A,,8412SL,Hoornsterzwaag,Heerenveen,Friesland,VBO,6.186381,53.022940
Bij de Leijwei,74,,,8412SL,Hoornsterzwaag,Heerenveen,Friesland,VBO,6.186419,53.022865
Bij de Leijwei,76,,,8412SL,Hoornsterzwaag,Heerenveen,Friesland,VBO,6.192515,53.026904
Bij de Leijwei,78,,,8412SL,Hoornsterzwaag,Heerenveen,Friesland,VBO,6.194418,53.028266
Bij de Leijwei,80,,,8412SL,Hoornsterzwaag,Heerenveen,Friesland,VBO,6.196261,53.029584
Bij de Leijwei,82,,,8412SL,Hoornsterzwaag,Heerenveen,Friesland,VBO,6.197892,53.030732
Bij de Leijwei,84,,,8412SL,Hoornsterzwaag,Heerenveen,Friesland,VBO,6.201039,53.027128
Bij de Leijwei,86,,,8412SL,Hoornsterzwaag,Heerenveen,Friesland,VBO,6.201356,53.031957
Bij de Leijwei,145,,,8412SL,Hoornsterzwaag,Heerenveen,Friesland,VBO,6.169873,53.018589
Bij de Leijwei,147,,,8412SL,Hoornsterzwaag,Heerenveen,Friesland,VBO,6.180259,53.021001
Bij de Leijwei,149,,,8412SL,Hoornsterzwaag,Heerenveen,Friesland,VBO,6.183223,53.021691
Bij de Leijwei,151,,,8412SL,Hoornsterzwaag,Heerenveen,Friesland,VBO,6.184749,53.022840
Bij de Leijwei,153,,,8412SL,Hoornsterzwaag,Heerenveen,Friesland,VBO,6.185277,53.023214
Bij de Leijwei,155,,,8412SL,Hoornsterzwaag,Heerenveen,Friesland,VBO,6.185508,53.023581
Bij de Leijwei,161,,,8412SL,Hoornsterzwaag,Heerenveen,Friesland,VBO,6.188188,53.025046
Bij de Leijwei,163,,,8412SL,Hoornsterzwaag,Heerenveen,Friesland,VBO,6.193536,53.029015
Kapellewei,2,A,,8412SM,Hoornsterzwaag,Heerenveen,Friesland,VBO,6.190751,53.021003
Kapellewei,2,,,8412SM,Hoornsterzwaag,Heerenveen,Friesland,VBO,6.189125,53.022551
Kapellewei,3,,,8412SM,Hoornsterzwaag,Heerenveen,Friesland,VBO,6.199641,53.016130
Kapellewei,4,,,8412SM,Hoornsterzwaag,Heerenveen,Friesland,VBO,6.191172,53.019607
Kapellewei,8,A,,8412SM,Hoornsterzwaag,Heerenveen,Friesland,VBO,6.190190,53.018734
Kapellewei,8,,,8412SM,Hoornsterzwaag,Heerenveen,Friesland,VBO,6.189954,53.018977
Kapellewei,10,,,8412SM,Hoornsterzwaag,Heerenveen,Friesland,VBO,6.192373,53.019285
Kapellewei,12,,,8412SM,Hoornsterzwaag,Heerenveen,Friesland,VBO,6.192681,53.018968
Kapellewei,14,A,,8412SM,Hoornsterzwaag,Heerenveen,Friesland,VBO,6.195819,53.016224
Kapellewei,14,B,,8412SM,Hoornsterzwaag,Heerenveen,Friesland,VBO,6.195422,53.016454
Kapellewei,14,,,8412SM,Hoornsterzwaag,Heerenveen,Friesland,VBO,6.194892,53.016859
Kapellewei,16,,,8412SM,Hoornsterzwaag,Heerenveen,Friesland,VBO,6.202926,53.015376
Kapellewei,18,,,8412SM,Hoornsterzwaag,Heerenveen,Friesland,VBO,6.203418,53.015408
Schoterlandseweg,98,,,8412SN,Hoornsterzwaag,Heerenveen,Friesland,VBO,6.192283,53.003110
Schoterlandseweg,102,,,8412SN,Hoornsterzwaag,Heerenveen,Friesland,VBO,6.194929,53.003631
Schoterlandseweg,104,,,8412SN,Hoornsterzwaag,Heerenveen,Friesland,VBO,6.201823,53.009021
Schoterlandseweg,139,,,8412SN,Hoornsterzwaag,Heerenveen,Friesland,VBO,6.201796,53.009965
Schoterlandseweg,141,,,8412SN,Hoornsterzwaag,Heerenveen,Friesland,VBO,6.202736,53.010039
Schoterlandseweg,143,,,8412SN,Hoornsterzwaag,Heerenveen,Friesland,VBO,6.203226,53.009946
Wietze Mulderreed,1,,,8412SN,Hoornsterzwaag,Heerenveen,Friesland,VBO,6.188330,53.002913
Wietze Mulderreed,2,,,8412SN,Hoornsterzwaag,Heerenveen,Friesland,VBO,6.197456,53.008098
Wietze Mulderreed,4,,,8412SN,Hoornsterzwaag,Heerenveen,Friesland,VBO,6.196458,53.008114
Wietze Mulderreed,6,,,8412SN,Hoornsterzwaag,Heerenveen,Friesland,VBO,6.192478,53.007197
Wietze Mulderreed,8,,,8412SN,Hoornsterzwaag,Heerenveen,Friesland,VBO,6.190019,53.006360
Wietze Mulderreed,10,,,8412SN,Hoornsterzwaag,Heerenveen,Friesland,VBO,6.188717,53.006063
Wietze Mulderreed,12,,,8412SN,Hoornsterzwaag,Heerenveen,Friesland,VBO,6.187279,53.005641
Jelle Heidawei,2,,,8412SP,Hoornsterzwaag,Heerenveen,Friesland,VBO,6.195801,53.015298
Jelle Heidawei,4,,,8412SP,Hoornsterzwaag,Heerenveen,Friesland,VBO,6.193992,53.014169
Jelle Heidawei,11,,,8412SP,Hoornsterzwaag,Heerenveen,Friesland,VBO,6.189412,53.008179
Jelle Heidawei,19,,,8412SP,Hoornsterzwaag,Heerenveen,Friesland,VBO,6.193143,53.012567
Schoterlandseweg,115,A,,8412SP,Hoornsterzwaag,Heerenveen,Friesland,VBO,6.177739,53.000412
Schoterlandseweg,115,,,8412SP,Hoornsterzwaag,Heerenveen,Friesland,VBO,6.178083,53.000490
Schoterlandseweg,117,,,8412SP,Hoornsterzwaag,Heerenveen,Friesland,VBO,6.179754,53.001441
Schoterlandseweg,121,,,8412SP,Hoornsterzwaag,Heerenveen,Friesland,VBO,6.181118,53.001126
Schoterlandseweg,123,,,8412SP,Hoornsterzwaag,Heerenveen,Friesland,VBO,6.182374,53.001388
Schoterlandseweg,125,A,,8412SP,Hoornsterzwaag,Heerenveen,Friesland,VBO,6.184366,53.001976
Schoterlandseweg,125,,,8412SP,Hoornsterzwaag,Heerenveen,Friesland,VBO,6.183484,53.001794
Schoterlandseweg,127,,,8412SP,Hoornsterzwaag,Heerenveen,Friesland,VBO,6.185263,53.002150
Schoterlandseweg,129,,,8412SP,Hoornsterzwaag,Heerenveen,Friesland,VBO,6.186803,53.002418
Schoterlandseweg,131,,,8412SP,Hoornsterzwaag,Heerenveen,Friesland,VBO,6.187640,53.002557
Schoterlandseweg,133,,,8412SP,Hoornsterzwaag,Heerenveen,Friesland,VBO,6.190081,53.003277
Schoterlandseweg,135,,,8412SP,Hoornsterzwaag,Heerenveen,Friesland,VBO,6.192488,53.003728
Schoterlandseweg,137,A,,8412SP,Hoornsterzwaag,Heerenveen,Friesland,VBO,6.201206,53.009474
Schoterlandseweg,137,,,8412SP,Hoornsterzwaag,Heerenveen,Friesland,VBO,6.199694,53.008281
Schoterlandseweg,85,,,8412SR,Hoornsterzwaag,Heerenveen,Friesland,VBO,6.169553,52.998336
Schoterlandseweg,87,,,8412SR,Hoornsterzwaag,Heerenveen,Friesland,VBO,6.170415,52.998240
Schoterlandseweg,89,,,8412SR,Hoornsterzwaag,Heerenveen,Friesland,VBO,6.171086,52.998236
Schoterlandseweg,91,,,8412SR,Hoornsterzwaag,Heerenveen,Friesland,VBO,6.171281,52.998333
Schoterlandseweg,93,,,8412SR,Hoornsterzwaag,Heerenveen,Friesland,VBO,6.171642,52.998502
Schoterlandseweg,95,A,,8412SR,Hoornsterzwaag,Heerenveen,Friesland,VBO,6.172913,52.999177
Schoterlandseweg,95,,,8412SR,Hoornsterzwaag,Heerenveen,Friesland,VBO,6.172123,52.998759
Schoterlandseweg,97,,,8412SR,Hoornsterzwaag,Heerenveen,Friesland,VBO,6.173394,52.999039
Schoterlandseweg,99,,,8412SR,Hoornsterzwaag,Heerenveen,Friesland,VBO,6.173604,52.999136
Schoterlandseweg,101,,,8412SR,Hoornsterzwaag,Heerenveen,Friesland,VBO,6.173814,52.999189
Schoterlandseweg,103,,,8412SR,Hoornsterzwaag,Heerenveen,Friesland,VBO,6.173964,52.999259
Schoterlandseweg,105,,,8412SR,Hoornsterzwaag,Heerenveen,Friesland,VBO,6.174129,52.999321
Schoterlandseweg,107,,,8412SR,Hoornsterzwaag,Heerenveen,Friesland,VBO,6.174264,52.999374
Schoterlandseweg,109,,,8412SR,Hoornsterzwaag,Heerenveen,Friesland,VBO,6.174399,52.999418
Schoterlandseweg,111,,,8412SR,Hoornsterzwaag,Heerenveen,Friesland,VBO,6.174549,52.999480
Schoterlandseweg,113,,,8412SR,Hoornsterzwaag,Heerenveen,Friesland,VBO,6.175515,53.000157
Rogmonepaed,3,,,8412ST,Hoornsterzwaag,Heerenveen,Friesland,VBO,6.159579,52.996972
Rogmonepaed,5,,,8412ST,Hoornsterzwaag,Heerenveen,Friesland,VBO,6.159530,52.997547
Rogmonepaed,7,,,8412ST,Hoornsterzwaag,Heerenveen,Friesland,VBO,6.159461,52.997862
Schoterlandseweg,73,A,,8412ST,Hoornsterzwaag,Heerenveen,Friesland,VBO,6.162828,52.995432
Schoterlandseweg,73,,,8412ST,Hoornsterzwaag,Heerenveen,Friesland,VBO,6.162063,52.995114
Schoterlandseweg,75,,,8412ST,Hoornsterzwaag,Heerenveen,Friesland,VBO,6.163622,52.995670
Schoterlandseweg,77,,,8412ST,Hoornsterzwaag,Heerenveen,Friesland,VBO,6.164686,52.996031
Schoterlandseweg,79,A,,8412ST,Hoornsterzwaag,Heerenveen,Friesland,VBO,6.166921,52.996915
Schoterlandseweg,79,,,8412ST,Hoornsterzwaag,Heerenveen,Friesland,VBO,6.165119,52.996200
Schoterlandseweg,81,,,8412ST,Hoornsterzwaag,Heerenveen,Friesland,VBO,6.167911,52.997286
Schoterlandseweg,83,,,8412ST,Hoornsterzwaag,Heerenveen,Friesland,VBO,6.168764,52.997541
Tsjerkepaed,9,,,8412ST,Hoornsterzwaag,Heerenveen,Friesland,VBO,6.162878,52.999889
Tsjerkepaed,13,,,8412ST,Hoornsterzwaag,Heerenveen,Friesland,VBO,6.165136,53.000378
Tsjerkepaed,15,,,8412ST,Hoornsterzwaag,Heerenveen,Friesland,VBO,6.168030,53.000583
Tsjerkepaed,17,,,8412ST,Hoornsterzwaag,Heerenveen,Friesland,VBO,6.168677,53.000993
Tsjerkepaed,19,,,8412ST,Hoornsterzwaag,Heerenveen,Friesland,VBO,6.168201,53.000196
Schoterlandseweg,43,,,8412SV,Hoornsterzwaag,Heerenveen,Friesland,VBO,6.154925,52.992374
Schoterlandseweg,45,,,8412SV,Hoornsterzwaag,Heerenveen,Friesland,VBO,6.155060,52.992427
Schoterlandseweg,47,,,8412SV,Hoornsterzwaag,Heerenveen,Friesland,VBO,6.155180,52.992498
Schoterlandseweg,49,,,8412SV,Hoornsterzwaag,Heerenveen,Friesland,VBO,6.155419,52.992514
Schoterlandseweg,51,A,,8412SV,Hoornsterzwaag,Heerenveen,Friesland,VBO,6.156110,52.992869
Schoterlandseweg,51,,,8412SV,Hoornsterzwaag,Heerenveen,Friesland,VBO,6.155615,52.992639
Schoterlandseweg,53,,,8412SV,Hoornsterzwaag,Heerenveen,Friesland,VBO,6.156427,52.993092
Schoterlandseweg,55,,,8412SV,Hoornsterzwaag,Heerenveen,Friesland,VBO,6.157264,52.993275
Schoterlandseweg,57,,,8412SV,Hoornsterzwaag,Heerenveen,Friesland,VBO,6.157653,52.993363
Schoterlandseweg,59,,,8412SV,Hoornsterzwaag,Heerenveen,Friesland,VBO,6.157714,52.993416
Schoterlandseweg,61,,,8412SV,Hoornsterzwaag,Heerenveen,Friesland,VBO,6.157849,52.993478
Schoterlandseweg,63,,,8412SV,Hoornsterzwaag,Heerenveen,Friesland,VBO,6.158133,52.993575
Schoterlandseweg,65,,,8412SV,Hoornsterzwaag,Heerenveen,Friesland,VBO,6.158224,52.994491
Schoterlandseweg,67,,,8412SV,Hoornsterzwaag,Heerenveen,Friesland,VBO,6.158779,52.993868
Schoterlandseweg,71,,,8412SV,Hoornsterzwaag,Heerenveen,Friesland,VBO,6.160083,52.994336
Skieppedrift,2,,,8412SV,Hoornsterzwaag,Heerenveen,Friesland,VBO,6.154828,52.992779
Skieppedrift,4,,,8412SV,Hoornsterzwaag,Heerenveen,Friesland,VBO,6.154785,52.992905
Skieppedrift,6,,,8412SV,Hoornsterzwaag,Heerenveen,Friesland,VBO,6.154669,52.993076
Aise Bruggenswei,1,,,8412SW,Hoornsterzwaag,Heerenveen,Friesland,VBO,6.144720,52.987074
Aise Bruggenswei,2,,,8412SW,Hoornsterzwaag,Heerenveen,Friesland,VBO,6.144831,52.987478
Aise Bruggenswei,3,,,8412SW,Hoornsterzwaag,Heerenveen,Friesland,VBO,6.144437,52.987058
Aise Bruggenswei,4,,,8412SW,Hoornsterzwaag,Heerenveen,Friesland,VBO,6.144219,52.987365
Schoterlandseweg,17,,,8412SW,Hoornsterzwaag,Heerenveen,Friesland,VBO,6.145970,52.988702
Schoterlandseweg,19,,,8412SW,Hoornsterzwaag,Heerenveen,Friesland,VBO,6.147142,52.989296
Schoterlandseweg,21,,,8412SW,Hoornsterzwaag,Heerenveen,Friesland,VBO,6.147867,52.989903
Schoterlandseweg,23,A,,8412SW,Hoornsterzwaag,Heerenveen,Friesland,VBO,6.148690,52.990140
Schoterlandseweg,23,,,8412SW,Hoornsterzwaag,Heerenveen,Friesland,VBO,6.148418,52.989890
Schoterlandseweg,25,,,8412SW,Hoornsterzwaag,Heerenveen,Friesland,VBO,6.149081,52.990317
Schoterlandseweg,27,,,8412SW,Hoornsterzwaag,Heerenveen,Friesland,VBO,6.150789,52.990908
Schoterlandseweg,31,,,8412SW,Hoornsterzwaag,Heerenveen,Friesland,VBO,6.151674,52.991289
Schoterlandseweg,33,,,8412SW,Hoornsterzwaag,Heerenveen,Friesland,VBO,6.152289,52.991510
Schoterlandseweg,35,,,8412SW,Hoornsterzwaag,Heerenveen,Friesland,VBO,6.152950,52.991883
Schoterlandseweg,37,,,8412SW,Hoornsterzwaag,Heerenveen,Friesland,VBO,6.153531,52.991879
Schoterlandseweg,39,A,,8412SW,Hoornsterzwaag,Heerenveen,Friesland,VBO,6.153664,52.992633
Schoterlandseweg,39,,,8412SW,Hoornsterzwaag,Heerenveen,Friesland,VBO,6.153745,52.992175
Schoterlandseweg,41,A,,8412SW,Hoornsterzwaag,Heerenveen,Friesland,VBO,6.154402,52.992278
Schoterlandseweg,41,,,8412SW,Hoornsterzwaag,Heerenveen,Friesland,VBO,6.154313,52.992279
Schoterlandseweg,1,,,8412SX,Hoornsterzwaag,Heerenveen,Friesland,VBO,6.144725,52.986472
Schoterlandseweg,3,,,8412SX,Hoornsterzwaag,Heerenveen,Friesland,VBO,6.144756,52.986543
Schoterlandseweg,5,,,8412SX,Hoornsterzwaag,Heerenveen,Friesland,VBO,6.144832,52.986651
Schoterlandseweg,7,,,8412SX,Hoornsterzwaag,Heerenveen,Friesland,VBO,6.144848,52.986723
Schoterlandseweg,9,,,8412SX,Hoornsterzwaag,Heerenveen,Friesland,VBO,6.144894,52.986821
Schoterlandseweg,11,,,8412SX,Hoornsterzwaag,Heerenveen,Friesland,VBO,6.144955,52.986893
Schoterlandseweg,13,,,8412SX,Hoornsterzwaag,Heerenveen,Friesland,VBO,6.145002,52.986991
Schoterlandseweg,15,,,8412SX,Hoornsterzwaag,Heerenveen,Friesland,VBO,6.145062,52.987054
Schoterlandseweg,2,,,8412SZ,Hoornsterzwaag,Heerenveen,Friesland,VBO,6.145400,52.985919
Schoterlandseweg,4,,,8412SZ,Hoornsterzwaag,Heerenveen,Friesland,VBO,6.145833,52.986815
Schoterlandseweg,8,,,8412SZ,Hoornsterzwaag,Heerenveen,Friesland,VBO,6.147780,52.989202
Schoterlandseweg,10,,,8412SZ,Hoornsterzwaag,Heerenveen,Friesland,VBO,6.148454,52.989387
Schoterlandseweg,12,,,8412SZ,Hoornsterzwaag,Heerenveen,Friesland,VBO,6.148816,52.989645
Schoterlandseweg,14,A,,8412SZ,Hoornsterzwaag,Heerenveen,Friesland,VBO,6.150448,52.990183
Schoterlandseweg,14,,,8412SZ,Hoornsterzwaag,Heerenveen,Friesland,VBO,6.149740,52.989720
Schoterlandseweg,18,,,8412SZ,Hoornsterzwaag,Heerenveen,Friesland,VBO,6.151609,52.989277
Schoterlandseweg,20,,,8412SZ,Hoornsterzwaag,Heerenveen,Friesland,VBO,6.151499,52.990625
Schoterlandseweg,22,,,8412SZ,Hoornsterzwaag,Heerenveen,Friesland,VBO,6.151989,52.990559
Schoterlandseweg,24,,,8412SZ,Hoornsterzwaag,Heerenveen,Friesland,VBO,6.152589,52.990834
Schoterlandseweg,26,,,8412SZ,Hoornsterzwaag,Heerenveen,Friesland,VBO,6.153802,52.991195
Schoterlandseweg,28,,,8412SZ,Hoornsterzwaag,Heerenveen,Friesland,VBO,6.154256,52.991596
Schoterlandseweg,30,,,8412SZ,Hoornsterzwaag,Heerenveen,Friesland,VBO,6.154614,52.991603
Schoterlandseweg,32,,,8412SZ,Hoornsterzwaag,Heerenveen,Friesland,VBO,6.155843,52.992044
Schoterlandseweg,34,,,8412TA,Hoornsterzwaag,Heerenveen,Friesland,VBO,6.157267,52.992592
Schoterlandseweg,36,A,,8412TA,Hoornsterzwaag,Heerenveen,Friesland,VBO,6.157733,52.992841
Schoterlandseweg,36,,,8412TA,Hoornsterzwaag,Heerenveen,Friesland,VBO,6.157450,52.992843
Schoterlandseweg,38,A,,8412TA,Hoornsterzwaag,Heerenveen,Friesland,VBO,6.158349,52.993151
Schoterlandseweg,38,,,8412TA,Hoornsterzwaag,Heerenveen,Friesland,VBO,6.157988,52.992929
Schoterlandseweg,40,,,8412TA,Hoornsterzwaag,Heerenveen,Friesland,VBO,6.158752,52.993176
Schoterlandseweg,42,,,8412TA,Hoornsterzwaag,Heerenveen,Friesland,VBO,6.161245,52.992674
Schoterlandseweg,44,,,8412TA,Hoornsterzwaag,Heerenveen,Friesland,VBO,6.161178,52.993070
Schoterlandseweg,46,A,,8412TA,Hoornsterzwaag,Heerenveen,Friesland,VBO,6.160505,52.993953
Schoterlandseweg,46,,,8412TA,Hoornsterzwaag,Heerenveen,Friesland,VBO,6.161003,52.994123
Schoterlandseweg,48,A,,8412TA,Hoornsterzwaag,Heerenveen,Friesland,VBO,6.163187,52.994648
Schoterlandseweg,48,B,,8412TA,Hoornsterzwaag,Heerenveen,Friesland,VBO,6.162293,52.993791
Schoterlandseweg,48,,,8412TA,Hoornsterzwaag,Heerenveen,Friesland,VBO,6.161971,52.994135
Schoterlandseweg,50,,,8412TA,Hoornsterzwaag,Heerenveen,Friesland,VBO,6.163373,52.995060
Schoterlandseweg,52,,,8412TA,Hoornsterzwaag,Heerenveen,Friesland,VBO,6.163982,52.994966
Schoterlandseweg,54,,,8412TA,Hoornsterzwaag,Heerenveen,Friesland,VBO,6.164809,52.995419
Schoterlandseweg,56,,,8412TA,Hoornsterzwaag,Heerenveen,Friesland,VBO,6.166365,52.995813
Schoterlandseweg,60,,,8412TA,Hoornsterzwaag,Heerenveen,Friesland,VBO,6.167491,52.996327
18e Wyk,1,,,8412TB,Hoornsterzwaag,Heerenveen,Friesland,VBO,6.179304,53.014958
18e Wyk,3,,,8412TB,Hoornsterzwaag,Heerenveen,Friesland,VBO,6.181525,53.012806
Schoterlandseweg,64,A,,8412TB,Hoornsterzwaag,Heerenveen,Friesland,VBO,6.169946,52.997359
Schoterlandseweg,64,,,8412TB,Hoornsterzwaag,Heerenveen,Friesland,VBO,6.170028,52.997416
Schoterlandseweg,66,,,8412TB,Hoornsterzwaag,Heerenveen,Friesland,VBO,6.170223,52.997496
Schoterlandseweg,68,,,8412TB,Hoornsterzwaag,Heerenveen,Friesland,VBO,6.170907,52.997419
Schoterlandseweg,76,A,,8412TB,Hoornsterzwaag,Heerenveen,Friesland,VBO,6.183738,53.000983
Schoterlandseweg,76,,,8412TB,Hoornsterzwaag,Heerenveen,Friesland,VBO,6.183396,53.001030
Schoterlandseweg,78,,,8412TB,Hoornsterzwaag,Heerenveen,Friesland,VBO,6.185072,53.001477
Schoterlandseweg,80,,,8412TB,Hoornsterzwaag,Heerenveen,Friesland,VBO,6.185749,52.998597
Schoterlandseweg,82,,,8412TB,Hoornsterzwaag,Heerenveen,Friesland,VBO,6.186416,52.998395
Schoterlandseweg,86,,,8412TB,Hoornsterzwaag,Heerenveen,Friesland,VBO,6.189632,53.002337
Schoterlandseweg,88,,,8412TB,Hoornsterzwaag,Heerenveen,Friesland,VBO,6.190470,53.002538
Schoterlandseweg,90,,,8412TB,Hoornsterzwaag,Heerenveen,Friesland,VBO,6.190549,53.002789
Schoterlandseweg,92,,,8412TB,Hoornsterzwaag,Heerenveen,Friesland,VBO,6.190804,53.002922
Schoterlandseweg,94,,,8412TB,Hoornsterzwaag,Heerenveen,Friesland,VBO,6.191013,53.002929
Schoterlandseweg,96,,,8412TB,Hoornsterzwaag,Heerenveen,Friesland,VBO,6.191446,53.002998
Ds ten Catewei,2,A,,8412TC,Hoornsterzwaag,Heerenveen,Friesland,VBO,6.158509,53.012223
Ds ten Catewei,2,,,8412TC,Hoornsterzwaag,Heerenveen,Friesland,VBO,6.158600,53.012336
Sint Magnuswei,3,,,8412TC,Hoornsterzwaag,Heerenveen,Friesland,VBO,6.181806,53.004510
Sint Magnuswei,4,,,8412TC,Hoornsterzwaag,Heerenveen,Friesland,VBO,6.180310,53.004160
Ds ten Catewei,1,A,,8412TD,Hoornsterzwaag,Heerenveen,Friesland,VBO,6.166975,53.008624
Ds ten Catewei,1,,,8412TD,Hoornsterzwaag,Heerenveen,Friesland,VBO,6.163306,53.008855
Ds ten Catewei,3,,,8412TD,Hoornsterzwaag,Heerenveen,Friesland,VBO,6.164518,53.005857
Ds ten Catewei,4,,,8412TD,Hoornsterzwaag,Heerenveen,Friesland,VBO,6.157209,53.010368
Ds ten Catewei,8,,,8412TD,Hoornsterzwaag,Heerenveen,Friesland,VBO,6.161282,53.009838
Ds ten Catewei,10,,,8412TD,Hoornsterzwaag,Heerenveen,Friesland,VBO,6.162630,53.008536
Ds ten Catewei,12,,,8412TD,Hoornsterzwaag,Heerenveen,Friesland,VBO,6.163156,53.007939
Ds ten Catewei,14,,,8412TD,Hoornsterzwaag,Heerenveen,Friesland,VBO,6.163522,53.007613
Ds ten Catewei,16,,,8412TD,Hoornsterzwaag,Heerenveen,Friesland,VBO,6.164019,53.007053
Ds ten Catewei,18,,,8412TD,Hoornsterzwaag,Heerenveen,Friesland,VBO,6.162420,53.004286
Ds ten Catewei,20,,,8412TD,Hoornsterzwaag,Heerenveen,Friesland,VBO,6.158900,53.004884
10e Wyk,2,,,8412TE,Hoornsterzwaag,Heerenveen,Friesland,VBO,6.158199,53.004026
10e Wyk,4,,,8412TE,Hoornsterzwaag,Heerenveen,Friesland,VBO,6.158298,53.003693
10e Wyk,6,,,8412TE,Hoornsterzwaag,Heerenveen,Friesland,VBO,6.158382,53.003414
10e Wyk,8,,,8412TE,Hoornsterzwaag,Heerenveen,Friesland,VBO,6.158436,53.003081
Ds ten Catewei,5,,,8412TE,Hoornsterzwaag,Heerenveen,Friesland,VBO,6.156788,53.000863
Ds ten Catewei,7,,,8412TE,Hoornsterzwaag,Heerenveen,Friesland,VBO,6.155690,53.002829
Skieppedrift,1,,,8412TE,Hoornsterzwaag,Heerenveen,Friesland,VBO,6.152190,52.997738
Skieppedrift,3,,,8412TE,Hoornsterzwaag,Heerenveen,Friesland,VBO,6.150693,53.000722
Tsjerkepaed,1,,,8412TG,Hoornsterzwaag,Heerenveen,Friesland,VBO,6.150759,52.997693
Tsjerkepaed,4,,,8412TG,Hoornsterzwaag,Heerenveen,Friesland,VBO,6.148804,52.997463
Tsjerkepaed,5,,,8412TG,Hoornsterzwaag,Heerenveen,Friesland,VBO,6.156349,52.998763
Tsjerkepaed,7,,,8412TG,Hoornsterzwaag,Heerenveen,Friesland,VBO,6.158514,52.999073
Tsjerkepaed,8,,,8412TG,Hoornsterzwaag,Heerenveen,Friesland,VBO,6.152488,52.996928
Tsjerkepaed,10,,,8412TG,Hoornsterzwaag,Heerenveen,Friesland,VBO,6.155984,52.997507
6e Wyk,4,,,8412TH,Hoornsterzwaag,Heerenveen,Friesland,VBO,6.146817,53.002248
6e Wyk,5,,,8412TH,Hoornsterzwaag,Heerenveen,Friesland,VBO,6.148113,53.001404
Dekamawei,1,A,,8412TJ,Hoornsterzwaag,Heerenveen,Friesland,VBO,6.145593,53.011594
Dekamawei,1,,,8412TJ,Hoornsterzwaag,Heerenveen,Friesland,VBO,6.148611,53.008617
Dekamawei,2,A,,8412TJ,Hoornsterzwaag,Heerenveen,Friesland,VBO,6.146340,53.007391
Dekamawei,2,,,8412TJ,Hoornsterzwaag,Heerenveen,Friesland,VBO,6.147087,53.009202
Dekamawei,3,,,8412TJ,Hoornsterzwaag,Heerenveen,Friesland,VBO,6.150093,53.007313
Dekamawei,4,,,8412TJ,Hoornsterzwaag,Heerenveen,Friesland,VBO,6.148921,53.007563
Dekamawei,5,,,8412TJ,Hoornsterzwaag,Heerenveen,Friesland,VBO,6.151423,53.004977
Dekamawei,8,,,8412TJ,Hoornsterzwaag,Heerenveen,Friesland,VBO,6.150544,53.005846
Dekamawei,10,,,8412TJ,Hoornsterzwaag,Heerenveen,Friesland,VBO,6.149533,53.003381
7e Wyk,6,,,8412TK,Hoornsterzwaag,Heerenveen,Friesland,VBO,6.148432,53.004295
7e Wyk,8,,,8412TK,Hoornsterzwaag,Heerenveen,Friesland,VBO,6.148607,53.004115
