openbareruimtenaam,huisnummer,huisletter,huisnummertoevoeging,postcode,woonplaatsnaam,gemeentenaam,provincienaam,typeadresseerbaarobject,longitude,latitude
Tjongervallei,5,,,8413CS,Oudehorne,Heerenveen,Friesland,VBO,6.093317,52.952323
Tjongervallei,6,,,8413CS,Oudehorne,Heerenveen,Friesland,VBO,6.081468,52.939958
Tjongervallei,7,,,8413CS,Oudehorne,Heerenveen,Friesland,VBO,6.094696,52.951147
Tjongervallei,8,A,,8413CS,Oudehorne,Heerenveen,Friesland,VBO,6.093674,52.947756
Tjongervallei,8,B,,8413CS,Oudehorne,Heerenveen,Friesland,VBO,6.094168,52.947942
Tjongervallei,8,,,8413CS,Oudehorne,Heerenveen,Friesland,VBO,6.093090,52.947526
Tjongervallei,9,,,8413CS,Oudehorne,Heerenveen,Friesland,VBO,6.099909,52.950505
Tjongervallei,10,A,,8413CS,Oudehorne,Heerenveen,Friesland,VBO,6.106624,52.950937
Tjongervallei,10,,,8413CS,Oudehorne,Heerenveen,Friesland,VBO,6.106152,52.951051
Tjongervallei,11,,,8413CS,Oudehorne,Heerenveen,Friesland,VBO,6.103472,52.950978
Tjongervallei,12,A,,8413CS,Oudehorne,Heerenveen,Friesland,VBO,6.109982,52.951406
Tjongervallei,12,,,8413CS,Oudehorne,Heerenveen,Friesland,VBO,6.106800,52.951578
Tjongervallei,13,,,8413CS,Oudehorne,Heerenveen,Friesland,VBO,6.106120,52.951824
Tjongervallei,15,,,8413CS,Oudehorne,Heerenveen,Friesland,VBO,6.108762,52.952312
Tjongervallei,17,,,8413CS,Oudehorne,Heerenveen,Friesland,VBO,6.109267,52.952270
Siebe Annesweg,1,,,8413CT,Oudehorne,Heerenveen,Friesland,VBO,6.100709,52.954876
Siebe Annesweg,2,,,8413CT,Oudehorne,Heerenveen,Friesland,VBO,6.083876,52.952810
Siebe Annesweg,3,,,8413CT,Oudehorne,Heerenveen,Friesland,VBO,6.101494,52.954665
Siebe Annesweg,4,,,8413CT,Oudehorne,Heerenveen,Friesland,VBO,6.088586,52.950518
Siebe Annesweg,5,,,8413CT,Oudehorne,Heerenveen,Friesland,VBO,6.102006,52.954096
Siebe Annesweg,6,,,8413CT,Oudehorne,Heerenveen,Friesland,VBO,6.090303,52.953689
Sevenaerpad,3,,,8413CV,Oudehorne,Heerenveen,Friesland,VBO,6.083167,52.939154
Sevenaerpad,5,,,8413CV,Oudehorne,Heerenveen,Friesland,VBO,6.085275,52.937030
Sevenaerpad,7,,,8413CV,Oudehorne,Heerenveen,Friesland,VBO,6.085419,52.936760
Rozenbergswijk,2,A,,8413CW,Oudehorne,Heerenveen,Friesland,VBO,6.084598,52.975605
Rozenbergswijk,2,,,8413CW,Oudehorne,Heerenveen,Friesland,VBO,6.085698,52.975517
Rozenbergswijk,4,A,,8413CW,Oudehorne,Heerenveen,Friesland,VBO,6.085537,52.974754
Rozenbergswijk,4,,,8413CW,Oudehorne,Heerenveen,Friesland,VBO,6.086005,52.975138
Rozenbergswijk,6,,,8413CW,Oudehorne,Heerenveen,Friesland,VBO,6.084719,52.973887
Rozenbergswijk,8,A,,8413CW,Oudehorne,Heerenveen,Friesland,VBO,6.087207,52.973945
Rozenbergswijk,8,,,8413CW,Oudehorne,Heerenveen,Friesland,VBO,6.087206,52.974276
Rozenbergswijk,10,A,,8413CW,Oudehorne,Heerenveen,Friesland,VBO,6.089128,52.970339
Rozenbergswijk,10,,,8413CW,Oudehorne,Heerenveen,Friesland,VBO,6.088708,52.970099
Schoterlandseweg,2,,,8413NA,Oudehorne,Heerenveen,Friesland,VBO,6.065003,52.954347
Schoterlandseweg,4,,,8413NA,Oudehorne,Heerenveen,Friesland,VBO,6.065138,52.954427
Schoterlandseweg,6,A,,8413NA,Oudehorne,Heerenveen,Friesland,VBO,6.065468,52.954569
Schoterlandseweg,6,,,8413NA,Oudehorne,Heerenveen,Friesland,VBO,6.065287,52.954472
Schoterlandseweg,8,A,,8413NA,Oudehorne,Heerenveen,Friesland,VBO,6.066097,52.954880
Schoterlandseweg,8,,,8413NA,Oudehorne,Heerenveen,Friesland,VBO,6.065931,52.954729
Schoterlandseweg,10,,,8413NA,Oudehorne,Heerenveen,Friesland,VBO,6.066324,52.955095
Schoterlandseweg,12,,,8413NA,Oudehorne,Heerenveen,Friesland,VBO,6.066475,52.955220
Schoterlandseweg,14,,,8413NA,Oudehorne,Heerenveen,Friesland,VBO,6.066580,52.955300
Schoterlandseweg,16,A,,8413NA,Oudehorne,Heerenveen,Friesland,VBO,6.067253,52.955521
Schoterlandseweg,16,B,,8413NA,Oudehorne,Heerenveen,Friesland,VBO,6.067433,52.955601
Schoterlandseweg,16,,,8413NA,Oudehorne,Heerenveen,Friesland,VBO,6.066940,52.955460
Schoterlandseweg,18,,,8413NA,Oudehorne,Heerenveen,Friesland,VBO,6.067869,52.955868
Schoterlandseweg,20,,,8413NA,Oudehorne,Heerenveen,Friesland,VBO,6.068303,52.956036
Schoterlandseweg,22,,,8413NA,Oudehorne,Heerenveen,Friesland,VBO,6.068696,52.956438
Schoterlandseweg,24,A,,8413NA,Oudehorne,Heerenveen,Friesland,VBO,6.069418,52.956697
Schoterlandseweg,24,,,8413NA,Oudehorne,Heerenveen,Friesland,VBO,6.069217,52.956435
Schoterlandseweg,28,,,8413NA,Oudehorne,Heerenveen,Friesland,VBO,6.070032,52.957149
Sevenaerpad,1,A,,8413NA,Oudehorne,Heerenveen,Friesland,VBO,6.066665,52.955021
Sevenaerpad,1,,,8413NA,Oudehorne,Heerenveen,Friesland,VBO,6.067444,52.954378
Schoterlandseweg,30,,,8413NB,Oudehorne,Heerenveen,Friesland,VBO,6.070362,52.957327
Schoterlandseweg,32,A,,8413NB,Oudehorne,Heerenveen,Friesland,VBO,6.070455,52.957551
Schoterlandseweg,32,,,8413NB,Oudehorne,Heerenveen,Friesland,VBO,6.070469,52.957506
Schoterlandseweg,34,A,,8413NB,Oudehorne,Heerenveen,Friesland,VBO,6.070746,52.957127
Schoterlandseweg,34,,,8413NB,Oudehorne,Heerenveen,Friesland,VBO,6.070701,52.957155
Schoterlandseweg,36,,,8413NB,Oudehorne,Heerenveen,Friesland,VBO,6.070678,52.957541
Schoterlandseweg,38,,,8413NB,Oudehorne,Heerenveen,Friesland,VBO,6.070799,52.957720
Schoterlandseweg,40,,,8413NB,Oudehorne,Heerenveen,Friesland,VBO,6.070980,52.957845
Schoterlandseweg,42,,,8413NB,Oudehorne,Heerenveen,Friesland,VBO,6.071401,52.958094
Schoterlandseweg,46,,,8413NB,Oudehorne,Heerenveen,Friesland,VBO,6.072813,52.958931
Schoterlandseweg,48,B,,8413NB,Oudehorne,Heerenveen,Friesland,VBO,6.072977,52.958984
Schoterlandseweg,48,,,8413NB,Oudehorne,Heerenveen,Friesland,VBO,6.072948,52.959002
Schoterlandseweg,50,A,,8413NB,Oudehorne,Heerenveen,Friesland,VBO,6.073127,52.959055
Schoterlandseweg,50,,,8413NB,Oudehorne,Heerenveen,Friesland,VBO,6.073171,52.958983
Schoterlandseweg,52,,,8413NB,Oudehorne,Heerenveen,Friesland,VBO,6.074576,52.959406
Schoterlandseweg,54,A,,8413NB,Oudehorne,Heerenveen,Friesland,VBO,6.080361,52.961970
Schoterlandseweg,54,,,8413NB,Oudehorne,Heerenveen,Friesland,VBO,6.076962,52.960650
Jan K Bosmalaan,1,A,,8413NC,Oudehorne,Heerenveen,Friesland,VBO,6.082217,52.961662
Jan K Bosmalaan,1,B,,8413NC,Oudehorne,Heerenveen,Friesland,VBO,6.082300,52.961264
Jan K Bosmalaan,1,,,8413NC,Oudehorne,Heerenveen,Friesland,VBO,6.081832,52.961763
Jan K Bosmalaan,2,,,8413NC,Oudehorne,Heerenveen,Friesland,VBO,6.083442,52.961053
Schoterlandseweg,56,,,8413NC,Oudehorne,Heerenveen,Friesland,VBO,6.081189,52.962256
Schoterlandseweg,58,,,8413NC,Oudehorne,Heerenveen,Friesland,VBO,6.083193,52.963113
Schoterlandseweg,60,A,,8413NC,Oudehorne,Heerenveen,Friesland,VBO,6.084507,52.963392
Schoterlandseweg,60,,,8413NC,Oudehorne,Heerenveen,Friesland,VBO,6.084487,52.963087
Schoterlandseweg,62,,,8413NC,Oudehorne,Heerenveen,Friesland,VBO,6.084686,52.963454
Schoterlandseweg,64,,,8413NC,Oudehorne,Heerenveen,Friesland,VBO,6.085089,52.963479
Schoterlandseweg,66,,,8413NC,Oudehorne,Heerenveen,Friesland,VBO,6.085225,52.963613
Schoterlandseweg,68,,,8413ND,Oudehorne,Heerenveen,Friesland,VBO,6.085523,52.963674
Schoterlandseweg,70,,,8413ND,Oudehorne,Heerenveen,Friesland,VBO,6.085794,52.963816
Schoterlandseweg,72,,,8413ND,Oudehorne,Heerenveen,Friesland,VBO,6.086062,52.963851
Schoterlandseweg,74,,,8413ND,Oudehorne,Heerenveen,Friesland,VBO,6.086242,52.963912
Schoterlandseweg,76,,,8413ND,Oudehorne,Heerenveen,Friesland,VBO,6.086390,52.963903
Schoterlandseweg,78,A,,8413ND,Oudehorne,Heerenveen,Friesland,VBO,6.087227,52.963119
Schoterlandseweg,78,,,8413ND,Oudehorne,Heerenveen,Friesland,VBO,6.087746,52.963086
Schoterlandseweg,80,,,8413ND,Oudehorne,Heerenveen,Friesland,VBO,6.087285,52.964014
Schoterlandseweg,82,,,8413ND,Oudehorne,Heerenveen,Friesland,VBO,6.088531,52.964681
Schoterlandseweg,84,A,,8413ND,Oudehorne,Heerenveen,Friesland,VBO,6.089206,52.965009
Schoterlandseweg,84,,,8413ND,Oudehorne,Heerenveen,Friesland,VBO,6.089070,52.964848
Schoterlandseweg,86,,,8413ND,Oudehorne,Heerenveen,Friesland,VBO,6.089387,52.965125
Schoterlandseweg,88,,,8413ND,Oudehorne,Heerenveen,Friesland,VBO,6.091263,52.963353
Schoterlandseweg,90,,,8413ND,Oudehorne,Heerenveen,Friesland,VBO,6.089732,52.965330
Slotlaan,1,,,8413ND,Oudehorne,Heerenveen,Friesland,VBO,6.086610,52.962769
Schoterlandseweg,92,,,8413NE,Oudehorne,Heerenveen,Friesland,VBO,6.090091,52.965418
Schoterlandseweg,94,A,,8413NE,Oudehorne,Heerenveen,Friesland,VBO,6.090344,52.965425
Schoterlandseweg,94,,,8413NE,Oudehorne,Heerenveen,Friesland,VBO,6.090360,52.965515
Schoterlandseweg,96,,,8413NE,Oudehorne,Heerenveen,Friesland,VBO,6.090586,52.965630
Schoterlandseweg,98,,,8413NE,Oudehorne,Heerenveen,Friesland,VBO,6.090899,52.965673
Schoterlandseweg,100,,,8413NE,Oudehorne,Heerenveen,Friesland,VBO,6.091138,52.965708
Schoterlandseweg,102,,,8413NE,Oudehorne,Heerenveen,Friesland,VBO,6.091574,52.965991
Schoterlandseweg,104,A,,8413NE,Oudehorne,Heerenveen,Friesland,VBO,6.092009,52.966215
Schoterlandseweg,104,,,8413NE,Oudehorne,Heerenveen,Friesland,VBO,6.091830,52.966180
Schoterlandseweg,106,,,8413NE,Oudehorne,Heerenveen,Friesland,VBO,6.092307,52.966249
Schoterlandseweg,108,,,8413NE,Oudehorne,Heerenveen,Friesland,VBO,6.092592,52.966373
Schoterlandseweg,110,A,,8413NE,Oudehorne,Heerenveen,Friesland,VBO,6.093325,52.966621
Schoterlandseweg,110,,,8413NE,Oudehorne,Heerenveen,Friesland,VBO,6.092877,52.966480
Schoterlandseweg,112,A,,8413NE,Oudehorne,Heerenveen,Friesland,VBO,6.093805,52.966816
Schoterlandseweg,112,,,8413NE,Oudehorne,Heerenveen,Friesland,VBO,6.093819,52.966780
Oldeberkoperweg,1,,,8413NG,Oudehorne,Heerenveen,Friesland,VBO,6.094675,52.967215
Oldeberkoperweg,2,,,8413NG,Oudehorne,Heerenveen,Friesland,VBO,6.094177,52.966840
Oldeberkoperweg,3,,,8413NG,Oudehorne,Heerenveen,Friesland,VBO,6.094747,52.967089
Oldeberkoperweg,4,,,8413NG,Oudehorne,Heerenveen,Friesland,VBO,6.094207,52.966804
Oldeberkoperweg,5,,,8413NG,Oudehorne,Heerenveen,Friesland,VBO,6.094686,52.966999
Oldeberkoperweg,6,,,8413NG,Oudehorne,Heerenveen,Friesland,VBO,6.094324,52.966696
Oldeberkoperweg,7,,,8413NG,Oudehorne,Heerenveen,Friesland,VBO,6.094744,52.966891
Oldeberkoperweg,8,,,8413NG,Oudehorne,Heerenveen,Friesland,VBO,6.094412,52.966623
Oldeberkoperweg,9,,,8413NG,Oudehorne,Heerenveen,Friesland,VBO,6.094906,52.966809
Oldeberkoperweg,10,,,8413NG,Oudehorne,Heerenveen,Friesland,VBO,6.094515,52.966542
Oldeberkoperweg,12,,,8413NG,Oudehorne,Heerenveen,Friesland,VBO,6.094559,52.966479
Oldeberkoperweg,13,,,8413NG,Oudehorne,Heerenveen,Friesland,VBO,6.095097,52.966619
Oldeberkoperweg,14,,,8413NG,Oudehorne,Heerenveen,Friesland,VBO,6.094646,52.966388
Oldeberkoperweg,15,A,,8413NG,Oudehorne,Heerenveen,Friesland,VBO,6.095287,52.966402
Oldeberkoperweg,15,,,8413NG,Oudehorne,Heerenveen,Friesland,VBO,6.095259,52.966537
Oldeberkoperweg,16,,,8413NG,Oudehorne,Heerenveen,Friesland,VBO,6.094705,52.966325
Oldeberkoperweg,17,,,8413NG,Oudehorne,Heerenveen,Friesland,VBO,6.096775,52.965459
Oldeberkoperweg,18,,,8413NG,Oudehorne,Heerenveen,Friesland,VBO,6.094747,52.966163
Oldeberkoperweg,19,,,8413NG,Oudehorne,Heerenveen,Friesland,VBO,6.102473,52.959871
Oldeberkoperweg,20,,,8413NG,Oudehorne,Heerenveen,Friesland,VBO,6.095040,52.965910
Oldeberkoperweg,21,,,8413NG,Oudehorne,Heerenveen,Friesland,VBO,6.106207,52.956173
Oldeberkoperweg,22,,,8413NG,Oudehorne,Heerenveen,Friesland,VBO,6.094948,52.965730
Oldeberkoperweg,24,,,8413NG,Oudehorne,Heerenveen,Friesland,VBO,6.095334,52.965638
Oldeberkoperweg,26,,,8413NG,Oudehorne,Heerenveen,Friesland,VBO,6.095496,52.965547
Oldeberkoperweg,28,,,8413NG,Oudehorne,Heerenveen,Friesland,VBO,6.095540,52.965511
Oldeberkoperweg,30,,,8413NG,Oudehorne,Heerenveen,Friesland,VBO,6.095658,52.965421
Oldeberkoperweg,32,,,8413NG,Oudehorne,Heerenveen,Friesland,VBO,6.095672,52.965385
Oldeberkoperweg,34,,,8413NG,Oudehorne,Heerenveen,Friesland,VBO,6.096032,52.964646
Schoterlandseweg,127,,,8413NH,Oudehorne,Heerenveen,Friesland,VBO,6.089123,52.965405
Schoterlandseweg,129,,,8413NH,Oudehorne,Heerenveen,Friesland,VBO,6.089333,52.965485
Schoterlandseweg,131,,,8413NH,Oudehorne,Heerenveen,Friesland,VBO,6.089695,52.965761
Schoterlandseweg,133,A,,8413NH,Oudehorne,Heerenveen,Friesland,VBO,6.090699,52.966205
Schoterlandseweg,133,,,8413NH,Oudehorne,Heerenveen,Friesland,VBO,6.090204,52.965947
Schoterlandseweg,135,A,,8413NH,Oudehorne,Heerenveen,Friesland,VBO,6.091151,52.966526
Schoterlandseweg,135,,,8413NH,Oudehorne,Heerenveen,Friesland,VBO,6.091268,52.966399
Schoterlandseweg,137,,,8413NH,Oudehorne,Heerenveen,Friesland,VBO,6.091775,52.966468
Schoterlandseweg,141,,,8413NH,Oudehorne,Heerenveen,Friesland,VBO,6.092105,52.966610
Schoterlandseweg,143,,,8413NH,Oudehorne,Heerenveen,Friesland,VBO,6.092299,52.966681
Schoterlandseweg,145,,,8413NH,Oudehorne,Heerenveen,Friesland,VBO,6.092464,52.966734
Schoterlandseweg,147,A,,8413NH,Oudehorne,Heerenveen,Friesland,VBO,6.092765,52.966912
Schoterlandseweg,147,B,,8413NH,Oudehorne,Heerenveen,Friesland,VBO,6.092989,52.966991
Schoterlandseweg,147,,,8413NH,Oudehorne,Heerenveen,Friesland,VBO,6.092614,52.966787
Schoterlandseweg,149,,,8413NH,Oudehorne,Heerenveen,Friesland,VBO,6.093199,52.967071
Schoterlandseweg,151,,,8413NH,Oudehorne,Heerenveen,Friesland,VBO,6.093544,52.967239
Schoterlandseweg,153,,,8413NH,Oudehorne,Heerenveen,Friesland,VBO,6.093754,52.967328
Schoterlandseweg,155,A,,8413NH,Oudehorne,Heerenveen,Friesland,VBO,6.094114,52.967440
Schoterlandseweg,155,B,,8413NH,Oudehorne,Heerenveen,Friesland,VBO,6.093903,52.967882
Schoterlandseweg,155,,,8413NH,Oudehorne,Heerenveen,Friesland,VBO,6.093963,52.967390
Schoterlandseweg,87,,,8413NJ,Oudehorne,Heerenveen,Friesland,VBO,6.079818,52.962413
Schoterlandseweg,91,,,8413NJ,Oudehorne,Heerenveen,Friesland,VBO,6.080177,52.962537
Schoterlandseweg,95,,,8413NJ,Oudehorne,Heerenveen,Friesland,VBO,6.080656,52.962723
Schoterlandseweg,97,,,8413NJ,Oudehorne,Heerenveen,Friesland,VBO,6.081423,52.963186
Schoterlandseweg,99,,,8413NJ,Oudehorne,Heerenveen,Friesland,VBO,6.081989,52.963236
Schoterlandseweg,101,,,8413NJ,Oudehorne,Heerenveen,Friesland,VBO,6.082231,52.963496
Schoterlandseweg,103,,,8413NJ,Oudehorne,Heerenveen,Friesland,VBO,6.082887,52.963528
Schoterlandseweg,107,,,8413NJ,Oudehorne,Heerenveen,Friesland,VBO,6.083787,52.963981
Schoterlandseweg,109,A,,8413NJ,Oudehorne,Heerenveen,Friesland,VBO,6.084612,52.964433
Schoterlandseweg,109,,,8413NJ,Oudehorne,Heerenveen,Friesland,VBO,6.084761,52.964099
Schoterlandseweg,113,,,8413NJ,Oudehorne,Heerenveen,Friesland,VBO,6.086189,52.964371
Schoterlandseweg,115,,,8413NJ,Oudehorne,Heerenveen,Friesland,VBO,6.086772,52.964520
Schoterlandseweg,117,,,8413NJ,Oudehorne,Heerenveen,Friesland,VBO,6.086822,52.964808
Schoterlandseweg,119,,,8413NJ,Oudehorne,Heerenveen,Friesland,VBO,6.087837,52.965044
Schoterlandseweg,123,,,8413NJ,Oudehorne,Heerenveen,Friesland,VBO,6.088473,52.965724
Schoterlandseweg,125,,,8413NJ,Oudehorne,Heerenveen,Friesland,VBO,6.088884,52.965362
Schoterlandseweg,61,,,8413NK,Oudehorne,Heerenveen,Friesland,VBO,6.072111,52.959753
Schoterlandseweg,63,,,8413NK,Oudehorne,Heerenveen,Friesland,VBO,6.073089,52.959477
Schoterlandseweg,65,,,8413NK,Oudehorne,Heerenveen,Friesland,VBO,6.073435,52.959700
Schoterlandseweg,67,,,8413NK,Oudehorne,Heerenveen,Friesland,VBO,6.073674,52.959762
Schoterlandseweg,69,,,8413NK,Oudehorne,Heerenveen,Friesland,VBO,6.073915,52.959949
Schoterlandseweg,71,,,8413NK,Oudehorne,Heerenveen,Friesland,VBO,6.074424,52.960135
Schoterlandseweg,73,,,8413NK,Oudehorne,Heerenveen,Friesland,VBO,6.074816,52.960429
Schoterlandseweg,75,,,8413NK,Oudehorne,Heerenveen,Friesland,VBO,6.075013,52.960689
Schoterlandseweg,77,,,8413NK,Oudehorne,Heerenveen,Friesland,VBO,6.075895,52.960944
Schoterlandseweg,79,,,8413NK,Oudehorne,Heerenveen,Friesland,VBO,6.076360,52.961139
Schoterlandseweg,81,A,,8413NK,Oudehorne,Heerenveen,Friesland,VBO,6.076392,52.962101
Schoterlandseweg,81,,,8413NK,Oudehorne,Heerenveen,Friesland,VBO,6.077003,52.961333
Schoterlandseweg,83,A,,8413NK,Oudehorne,Heerenveen,Friesland,VBO,6.078158,52.961938
Schoterlandseweg,83,,,8413NK,Oudehorne,Heerenveen,Friesland,VBO,6.077529,52.961681
Schoterlandseweg,85,A,,8413NK,Oudehorne,Heerenveen,Friesland,VBO,6.079493,52.962414
Schoterlandseweg,85,,,8413NK,Oudehorne,Heerenveen,Friesland,VBO,6.078700,52.962330
Eilewijksreed,10,,,8413NL,Oudehorne,Heerenveen,Friesland,VBO,6.068497,52.964626
Eilewijksreed,12,,,8413NL,Oudehorne,Heerenveen,Friesland,VBO,6.074064,52.961853
Schoterlandseweg,33,,,8413NL,Oudehorne,Heerenveen,Friesland,VBO,6.068380,52.957141
Schoterlandseweg,35,,,8413NL,Oudehorne,Heerenveen,Friesland,VBO,6.068752,52.957166
Schoterlandseweg,37,,,8413NL,Oudehorne,Heerenveen,Friesland,VBO,6.069463,52.957899
Schoterlandseweg,39,,,8413NL,Oudehorne,Heerenveen,Friesland,VBO,6.070135,52.958030
Schoterlandseweg,41,,,8413NL,Oudehorne,Heerenveen,Friesland,VBO,6.070690,52.958350
Schoterlandseweg,43,,,8413NL,Oudehorne,Heerenveen,Friesland,VBO,6.071004,52.958420
Schoterlandseweg,45,,,8413NL,Oudehorne,Heerenveen,Friesland,VBO,6.071199,52.958500
Schoterlandseweg,47,,,8413NL,Oudehorne,Heerenveen,Friesland,VBO,6.071320,52.958634
Schoterlandseweg,49,,,8413NL,Oudehorne,Heerenveen,Friesland,VBO,6.071544,52.958678
Schoterlandseweg,51,,,8413NL,Oudehorne,Heerenveen,Friesland,VBO,6.071724,52.958766
Schoterlandseweg,53,,,8413NL,Oudehorne,Heerenveen,Friesland,VBO,6.071875,52.958927
Schoterlandseweg,57,,,8413NL,Oudehorne,Heerenveen,Friesland,VBO,6.066620,52.963603
Schoterlandseweg,59,,,8413NL,Oudehorne,Heerenveen,Friesland,VBO,6.072357,52.959302
8e Wijk,2,A,,8413NM,Oudehorne,Heerenveen,Friesland,VBO,6.062076,52.958471
8e Wijk,2,,,8413NM,Oudehorne,Heerenveen,Friesland,VBO,6.062001,52.958444
8e Wijk,4,,,8413NM,Oudehorne,Heerenveen,Friesland,VBO,6.060919,52.959673
8e Wijk,6,,,8413NM,Oudehorne,Heerenveen,Friesland,VBO,6.059643,52.959958
8e Wijk,8,,,8413NM,Oudehorne,Heerenveen,Friesland,VBO,6.058011,52.960627
Schoterlandseweg,7,,,8413NM,Oudehorne,Heerenveen,Friesland,VBO,6.064682,52.954745
Schoterlandseweg,9,,,8413NM,Oudehorne,Heerenveen,Friesland,VBO,6.064923,52.954941
Schoterlandseweg,11,,,8413NM,Oudehorne,Heerenveen,Friesland,VBO,6.065116,52.954949
Schoterlandseweg,13,,,8413NM,Oudehorne,Heerenveen,Friesland,VBO,6.065191,52.954975
Schoterlandseweg,15,A,,8413NM,Oudehorne,Heerenveen,Friesland,VBO,6.065647,52.955267
Schoterlandseweg,15,B,,8413NM,Oudehorne,Heerenveen,Friesland,VBO,6.065719,52.955431
Schoterlandseweg,15,,,8413NM,Oudehorne,Heerenveen,Friesland,VBO,6.065413,52.955179
Schoterlandseweg,17,A,,8413NM,Oudehorne,Heerenveen,Friesland,VBO,6.066105,52.955527
Schoterlandseweg,17,B,,8413NM,Oudehorne,Heerenveen,Friesland,VBO,6.066196,52.955684
Schoterlandseweg,17,,,8413NM,Oudehorne,Heerenveen,Friesland,VBO,6.065879,52.955471
Schoterlandseweg,19,A,,8413NM,Oudehorne,Heerenveen,Friesland,VBO,6.065804,52.956604
Schoterlandseweg,19,,,8413NM,Oudehorne,Heerenveen,Friesland,VBO,6.066161,52.956111
Schoterlandseweg,21,,,8413NM,Oudehorne,Heerenveen,Friesland,VBO,6.066949,52.956071
Schoterlandseweg,23,,,8413NM,Oudehorne,Heerenveen,Friesland,VBO,6.067075,52.956483
Schoterlandseweg,25,,,8413NM,Oudehorne,Heerenveen,Friesland,VBO,6.067597,52.956606
Schoterlandseweg,27,,,8413NM,Oudehorne,Heerenveen,Friesland,VBO,6.068016,52.956712
Schoterlandseweg,29,,,8413NM,Oudehorne,Heerenveen,Friesland,VBO,6.068167,52.956837
Schoterlandseweg,31,,,8413NM,Oudehorne,Heerenveen,Friesland,VBO,6.067758,52.957342
Eilewijksreed,2,,,8413NN,Oudehorne,Heerenveen,Friesland,VBO,6.069251,52.969357
Eilewijksreed,4,,,8413NN,Oudehorne,Heerenveen,Friesland,VBO,6.068822,52.968613
Eilewijksreed,6,,,8413NN,Oudehorne,Heerenveen,Friesland,VBO,6.071606,52.967367
Eilewijksreed,8,,,8413NN,Oudehorne,Heerenveen,Friesland,VBO,6.072488,52.966652
Tweede Sluisweg,1,,,8413NN,Oudehorne,Heerenveen,Friesland,VBO,6.076740,52.972954
Tweede Sluisweg,3,,,8413NN,Oudehorne,Heerenveen,Friesland,VBO,6.076769,52.972918
Tweede Sluisweg,5,,,8413NN,Oudehorne,Heerenveen,Friesland,VBO,6.076887,52.972846
Tweede Sluisweg,7,A,,8413NN,Oudehorne,Heerenveen,Friesland,VBO,6.077180,52.972866
Tweede Sluisweg,7,,,8413NN,Oudehorne,Heerenveen,Friesland,VBO,6.076946,52.972800
Tweede Sluisweg,9,,,8413NN,Oudehorne,Heerenveen,Friesland,VBO,6.077049,52.972737
Tweede Sluisweg,11,,,8413NN,Oudehorne,Heerenveen,Friesland,VBO,6.077079,52.972701
Tweede Sluisweg,13,,,8413NN,Oudehorne,Heerenveen,Friesland,VBO,6.077211,52.972619
Tweede Sluisweg,15,,,8413NN,Oudehorne,Heerenveen,Friesland,VBO,6.077255,52.972574
Tweede Sluisweg,17,,,8413NN,Oudehorne,Heerenveen,Friesland,VBO,6.077373,52.972501
Tweede Sluisweg,19,,,8413NN,Oudehorne,Heerenveen,Friesland,VBO,6.077402,52.972447
Tweede Sluisweg,21,,,8413NN,Oudehorne,Heerenveen,Friesland,VBO,6.077475,52.972384
Tweede Sluisweg,31,,,8413NN,Oudehorne,Heerenveen,Friesland,VBO,6.078034,52.971913
Tweede Sluisweg,33,,,8413NN,Oudehorne,Heerenveen,Friesland,VBO,6.079190,52.971601
Tweede Sluisweg,35,,,8413NN,Oudehorne,Heerenveen,Friesland,VBO,6.079803,52.969899
Tweede Sluisweg,37,,,8413NN,Oudehorne,Heerenveen,Friesland,VBO,6.079532,52.969694
Jonkerslandreed,1,,,8413NP,Oudehorne,Heerenveen,Friesland,VBO,6.080496,52.971369
Jonkerslandreed,3,,,8413NP,Oudehorne,Heerenveen,Friesland,VBO,6.082669,52.971329
Jonkerslandreed,5,,,8413NP,Oudehorne,Heerenveen,Friesland,VBO,6.084018,52.971888
Zuster de Jongweg,3,,,8413NR,Oudehorne,Heerenveen,Friesland,VBO,6.080622,52.966174
Zuster de Jongweg,5,,,8413NR,Oudehorne,Heerenveen,Friesland,VBO,6.079494,52.967331
Zuster de Jongweg,7,,,8413NR,Oudehorne,Heerenveen,Friesland,VBO,6.078836,52.968979
Zuster de Jongweg,9,,,8413NR,Oudehorne,Heerenveen,Friesland,VBO,6.078272,52.967957
Zuster de Jongweg,11,,,8413NR,Oudehorne,Heerenveen,Friesland,VBO,6.077020,52.967093
Zuster de Jongweg,13,,,8413NR,Oudehorne,Heerenveen,Friesland,VBO,6.076989,52.970832
Eerste Stichtingspad,1,,,8413NS,Oudehorne,Heerenveen,Friesland,VBO,6.078756,52.978973
Eerste Stichtingspad,2,,,8413NS,Oudehorne,Heerenveen,Friesland,VBO,6.077994,52.978779
Eerste Stichtingspad,3,,,8413NS,Oudehorne,Heerenveen,Friesland,VBO,6.079388,52.978448
Eerste Stichtingspad,4,,,8413NS,Oudehorne,Heerenveen,Friesland,VBO,6.078963,52.977965
Eerste Stichtingspad,5,,,8413NS,Oudehorne,Heerenveen,Friesland,VBO,6.080461,52.977579
Eerste Stichtingspad,6,,,8413NS,Oudehorne,Heerenveen,Friesland,VBO,6.079948,52.977141
Eerste Stichtingspad,7,,,8413NS,Oudehorne,Heerenveen,Friesland,VBO,6.081327,52.976828
Eerste Stichtingspad,8,,,8413NS,Oudehorne,Heerenveen,Friesland,VBO,6.080829,52.976408
Oude Singel,1,,,8413NT,Oudehorne,Heerenveen,Friesland,VBO,6.071829,52.974915
Oude Singel,2,,,8413NT,Oudehorne,Heerenveen,Friesland,VBO,6.072145,52.975164
Oude Singel,3,,,8413NT,Oudehorne,Heerenveen,Friesland,VBO,6.072882,52.975609
Tweede Stichtingspad,1,,,8413NV,Oudehorne,Heerenveen,Friesland,VBO,6.076223,52.977909
Tweede Stichtingspad,2,,,8413NV,Oudehorne,Heerenveen,Friesland,VBO,6.077048,52.977374
Tweede Stichtingspad,3,,,8413NV,Oudehorne,Heerenveen,Friesland,VBO,6.078003,52.976577
Buitenweg,1,,,8413NW,Oudehorne,Heerenveen,Friesland,VBO,6.071083,52.953019
Buitenweg,2,,,8413NW,Oudehorne,Heerenveen,Friesland,VBO,6.070020,52.951020
Buitenweg,3,,,8413NW,Oudehorne,Heerenveen,Friesland,VBO,6.071794,52.953787
Buitenweg,4,,,8413NW,Oudehorne,Heerenveen,Friesland,VBO,6.070594,52.951260
Buitenweg,5,,,8413NW,Oudehorne,Heerenveen,Friesland,VBO,6.072673,52.953863
Buitenweg,6,,,8413NW,Oudehorne,Heerenveen,Friesland,VBO,6.081234,52.955054
Buitenweg,7,,,8413NW,Oudehorne,Heerenveen,Friesland,VBO,6.074015,52.954044
Buitenweg,9,,,8413NW,Oudehorne,Heerenveen,Friesland,VBO,6.075217,52.954729
Buitenweg,11,,,8413NW,Oudehorne,Heerenveen,Friesland,VBO,6.076648,52.954883
Buitenweg,13,,,8413NW,Oudehorne,Heerenveen,Friesland,VBO,6.076689,52.955646
Buitenweg,15,,,8413NW,Oudehorne,Heerenveen,Friesland,VBO,6.078001,52.956708
Buitenweg,8,,,8413NX,Oudehorne,Heerenveen,Friesland,VBO,6.083658,52.955921
Buitenweg,10,,,8413NX,Oudehorne,Heerenveen,Friesland,VBO,6.089086,52.957533
Buitenweg,12,,,8413NX,Oudehorne,Heerenveen,Friesland,VBO,6.094086,52.959373
Buitenweg,14,,,8413NX,Oudehorne,Heerenveen,Friesland,VBO,6.094551,52.959631
Buitenweg,16,,,8413NX,Oudehorne,Heerenveen,Friesland,VBO,6.094985,52.959772
Buitenweg,17,,,8413NX,Oudehorne,Heerenveen,Friesland,VBO,6.081317,52.955656
Buitenweg,17,,,8413NX,Oudehorne,Heerenveen,Friesland,VBO,6.081256,52.955839
Buitenweg,18,,,8413NX,Oudehorne,Heerenveen,Friesland,VBO,6.095833,52.959731
Buitenweg,19,,,8413NX,Oudehorne,Heerenveen,Friesland,VBO,6.087703,52.957595
Buitenweg,21,,,8413NX,Oudehorne,Heerenveen,Friesland,VBO,6.088646,52.957949
Buitenweg,23,A,,8413NX,Oudehorne,Heerenveen,Friesland,VBO,6.089573,52.958240
Buitenweg,23,,,8413NX,Oudehorne,Heerenveen,Friesland,VBO,6.089079,52.958055
Buitenweg,25,,,8413NX,Oudehorne,Heerenveen,Friesland,VBO,6.090502,52.958630
Oldeberkoperweg,36,,,8413NZ,Oudehorne,Heerenveen,Friesland,VBO,6.102069,52.958840
Oldeberkoperweg,38,,,8413NZ,Oudehorne,Heerenveen,Friesland,VBO,6.102141,52.958723
Oldeberkoperweg,40,,,8413NZ,Oudehorne,Heerenveen,Friesland,VBO,6.102362,52.958560
Oldeberkoperweg,42,,,8413NZ,Oudehorne,Heerenveen,Friesland,VBO,6.102507,52.958352
Oldeberkoperweg,44,,,8413NZ,Oudehorne,Heerenveen,Friesland,VBO,6.102756,52.958081
Oldeberkoperweg,46,,,8413NZ,Oudehorne,Heerenveen,Friesland,VBO,6.103227,52.957764
Oldeberkoperweg,48,,,8413NZ,Oudehorne,Heerenveen,Friesland,VBO,6.104928,52.956235
Oldeberkoperweg,50,,,8413NZ,Oudehorne,Heerenveen,Friesland,VBO,6.105222,52.956000
Oldeberkoperweg,52,,,8413NZ,Oudehorne,Heerenveen,Friesland,VBO,6.105423,52.955549
Oldeberkoperweg,54,,,8413NZ,Oudehorne,Heerenveen,Friesland,VBO,6.105896,52.955375
Oldeberkoperweg,56,A,,8413NZ,Oudehorne,Heerenveen,Friesland,VBO,6.106156,52.954889
Oldeberkoperweg,56,,,8413NZ,Oudehorne,Heerenveen,Friesland,VBO,6.106558,52.954913
Oldeberkoperweg,58,,,8413NZ,Oudehorne,Heerenveen,Friesland,VBO,6.106776,52.954624
Oldeberkoperweg,60,,,8413NZ,Oudehorne,Heerenveen,Friesland,VBO,6.109095,52.952669
Oldeberkoperweg,62,,,8413NZ,Oudehorne,Heerenveen,Friesland,VBO,6.109345,52.952470
Oldeberkoperweg,64,,,8413NZ,Oudehorne,Heerenveen,Friesland,VBO,6.109913,52.951730
Oldeberkoperweg,66,,,8413NZ,Oudehorne,Heerenveen,Friesland,VBO,6.110300,52.951745
Oldeberkoperweg,70,A,,8413NZ,Oudehorne,Heerenveen,Friesland,VBO,6.111575,52.950641
Oldeberkoperweg,70,B,,8413NZ,Oudehorne,Heerenveen,Friesland,VBO,6.111322,52.950719
Oldeberkoperweg,70,C,,8413NZ,Oudehorne,Heerenveen,Friesland,VBO,6.111504,52.950362
Oldeberkoperweg,70,,,8413NZ,Oudehorne,Heerenveen,Friesland,VBO,6.111749,52.950727
Tweede Compagnonsweg,25,,,8413RT,Oudehorne,Heerenveen,Friesland,VBO,6.067065,52.972075
Tweede Compagnonsweg,27,,,8413RT,Oudehorne,Heerenveen,Friesland,VBO,6.067212,52.971966
Tweede Compagnonsweg,29,,,8413RT,Oudehorne,Heerenveen,Friesland,VBO,6.067270,52.971858
Tweede Compagnonsweg,31,,,8413RT,Oudehorne,Heerenveen,Friesland,VBO,6.067445,52.971695
Tweede Compagnonsweg,35,,,8413RT,Oudehorne,Heerenveen,Friesland,VBO,6.068567,52.971995
Tweede Compagnonsweg,39,,,8413RT,Oudehorne,Heerenveen,Friesland,VBO,6.068019,52.971234
Tweede Compagnonsweg,41,,,8413RT,Oudehorne,Heerenveen,Friesland,VBO,6.068373,52.970980
Tweede Compagnonsweg,43,,,8413RT,Oudehorne,Heerenveen,Friesland,VBO,6.068890,52.970762
Tweede Compagnonsweg,45,,,8413RT,Oudehorne,Heerenveen,Friesland,VBO,6.068855,52.970402
Tweede Compagnonsweg,47,,,8413RT,Oudehorne,Heerenveen,Friesland,VBO,6.069092,52.970320
Tweede Compagnonsweg,49,,,8413RT,Oudehorne,Heerenveen,Friesland,VBO,6.069193,52.970131
Tweede Compagnonsweg,51,,,8413RV,Oudehorne,Heerenveen,Friesland,VBO,6.070343,52.970349
Tweede Compagnonsweg,55,,,8413RV,Oudehorne,Heerenveen,Friesland,VBO,6.071405,52.970720
Tweede Compagnonsweg,57,,,8413RV,Oudehorne,Heerenveen,Friesland,VBO,6.072577,52.971415
Tweede Compagnonsweg,59,,,8413RV,Oudehorne,Heerenveen,Friesland,VBO,6.072849,52.971638
Tweede Compagnonsweg,65,,,8413RV,Oudehorne,Heerenveen,Friesland,VBO,6.075563,52.972880
Tweede Compagnonsweg,67,,,8413RV,Oudehorne,Heerenveen,Friesland,VBO,6.075877,52.972995
Tweede Compagnonsweg,69,,,8413RV,Oudehorne,Heerenveen,Friesland,VBO,6.076240,52.973317
Tweede Compagnonsweg,71,,,8413RV,Oudehorne,Heerenveen,Friesland,VBO,6.076449,52.973360
Tweede Compagnonsweg,73,,,8413RV,Oudehorne,Heerenveen,Friesland,VBO,6.076554,52.973432
Tweede Compagnonsweg,75,,,8413RV,Oudehorne,Heerenveen,Friesland,VBO,6.076840,52.973601
Tweede Compagnonsweg,77,,,8413RV,Oudehorne,Heerenveen,Friesland,VBO,6.076990,52.973663
Tweede Compagnonsweg,79,,,8413RV,Oudehorne,Heerenveen,Friesland,VBO,6.077139,52.973725
Tweede Compagnonsweg,12,,,8413RW,Oudehorne,Heerenveen,Friesland,VBO,6.066478,52.971638
Tweede Compagnonsweg,14,,,8413RW,Oudehorne,Heerenveen,Friesland,VBO,6.066754,52.971214
Tweede Compagnonsweg,16,,,8413RW,Oudehorne,Heerenveen,Friesland,VBO,6.067684,52.970706
Tweede Compagnonsweg,18,,,8413RW,Oudehorne,Heerenveen,Friesland,VBO,6.067815,52.970543
Tweede Compagnonsweg,20,,,8413RW,Oudehorne,Heerenveen,Friesland,VBO,6.068020,52.970299
Tweede Compagnonsweg,22,,,8413RW,Oudehorne,Heerenveen,Friesland,VBO,6.068403,52.970072
Tweede Compagnonsweg,24,,,8413RW,Oudehorne,Heerenveen,Friesland,VBO,6.067620,52.969475
Tweede Compagnonsweg,30,,,8413RW,Oudehorne,Heerenveen,Friesland,VBO,6.077399,52.973166
Tweede Compagnonsweg,32,A,,8413RX,Oudehorne,Heerenveen,Friesland,VBO,6.077986,52.973585
Tweede Compagnonsweg,32,,,8413RX,Oudehorne,Heerenveen,Friesland,VBO,6.077864,52.973442
Tweede Compagnonsweg,34,A,,8413RX,Oudehorne,Heerenveen,Friesland,VBO,6.078450,52.973753
Tweede Compagnonsweg,34,,,8413RX,Oudehorne,Heerenveen,Friesland,VBO,6.078181,52.973683
Tweede Compagnonsweg,36,A,,8413RX,Oudehorne,Heerenveen,Friesland,VBO,6.078722,52.974003
Tweede Compagnonsweg,36,,,8413RX,Oudehorne,Heerenveen,Friesland,VBO,6.078557,52.973905
Tweede Compagnonsweg,38,,,8413RX,Oudehorne,Heerenveen,Friesland,VBO,6.081561,52.973072
Tweede Compagnonsweg,40,,,8413RX,Oudehorne,Heerenveen,Friesland,VBO,6.079381,52.974260
Tweede Compagnonsweg,42,A,,8413RX,Oudehorne,Heerenveen,Friesland,VBO,6.080776,52.974944
Tweede Compagnonsweg,42,,,8413RX,Oudehorne,Heerenveen,Friesland,VBO,6.080644,52.975025
Tweede Compagnonsweg,44,,,8413RX,Oudehorne,Heerenveen,Friesland,VBO,6.082220,52.975861
