openbareruimtenaam,huisnummer,huisletter,huisnummertoevoeging,postcode,woonplaatsnaam,gemeentenaam,provincienaam,typeadresseerbaarobject,longitude,latitude
Meester Brunstingweg,1,A,,8435SB,Donkerbroek,Ooststellingwerf,Friesland,VBO,6.236595,53.018808
Meester Brunstingweg,1,,,8435SB,Donkerbroek,Ooststellingwerf,Friesland,VBO,6.236701,53.018830
Meester Brunstingweg,2,,,8435SB,Donkerbroek,Ooststellingwerf,Friesland,VBO,6.236843,53.019078
Meester Brunstingweg,3,A,,8435SB,Donkerbroek,Ooststellingwerf,Friesland,VBO,6.236333,53.018869
Meester Brunstingweg,3,,,8435SB,Donkerbroek,Ooststellingwerf,Friesland,VBO,6.236423,53.018875
Meester Brunstingweg,4,,,8435SB,Donkerbroek,Ooststellingwerf,Friesland,VBO,6.236761,53.019079
Meester Brunstingweg,5,,,8435SB,Donkerbroek,Ooststellingwerf,Friesland,VBO,6.236015,53.018868
Meester Brunstingweg,6,,,8435SB,Donkerbroek,Ooststellingwerf,Friesland,VBO,6.236658,53.019066
Meester Brunstingweg,7,,,8435SB,Donkerbroek,Ooststellingwerf,Friesland,VBO,6.236053,53.019146
Meester Brunstingweg,8,,,8435SB,Donkerbroek,Ooststellingwerf,Friesland,VBO,6.236576,53.019068
Meester Brunstingweg,9,,,8435SB,Donkerbroek,Ooststellingwerf,Friesland,VBO,6.235732,53.019174
Meester Brunstingweg,10,,,8435SB,Donkerbroek,Ooststellingwerf,Friesland,VBO,6.236548,53.019348
Meester Brunstingweg,11,,,8435SB,Donkerbroek,Ooststellingwerf,Friesland,VBO,6.235542,53.019249
Meester Brunstingweg,12,A,,8435SB,Donkerbroek,Ooststellingwerf,Friesland,VBO,6.236566,53.019557
Meester Brunstingweg,12,,,8435SB,Donkerbroek,Ooststellingwerf,Friesland,VBO,6.236564,53.019495
Meester Brunstingweg,13,,,8435SB,Donkerbroek,Ooststellingwerf,Friesland,VBO,6.235460,53.019398
Meester Brunstingweg,14,A,,8435SB,Donkerbroek,Ooststellingwerf,Friesland,VBO,6.236576,53.019734
Meester Brunstingweg,14,,,8435SB,Donkerbroek,Ooststellingwerf,Friesland,VBO,6.236574,53.019671
Meester Brunstingweg,15,,,8435SB,Donkerbroek,Ooststellingwerf,Friesland,VBO,6.235531,53.019577
Meester Brunstingweg,16,,,8435SB,Donkerbroek,Ooststellingwerf,Friesland,VBO,6.236581,53.019884
Meester Brunstingweg,17,,,8435SB,Donkerbroek,Ooststellingwerf,Friesland,VBO,6.235739,53.019647
Meester Brunstingweg,19,,,8435SB,Donkerbroek,Ooststellingwerf,Friesland,VBO,6.235972,53.019667
Veerhuisweg,1,,,8435SC,Donkerbroek,Ooststellingwerf,Friesland,VBO,6.236600,53.018380
Veerhuisweg,3,,,8435SC,Donkerbroek,Ooststellingwerf,Friesland,VBO,6.236697,53.018577
Veerhuisweg,4,,,8435SC,Donkerbroek,Ooststellingwerf,Friesland,VBO,6.237040,53.018175
Veerhuisweg,6,,,8435SC,Donkerbroek,Ooststellingwerf,Friesland,VBO,6.237050,53.018239
Veerhuisweg,8,,,8435SC,Donkerbroek,Ooststellingwerf,Friesland,VBO,6.237051,53.018281
Veerhuisweg,10,,,8435SC,Donkerbroek,Ooststellingwerf,Friesland,VBO,6.237062,53.018351
Veerhuisweg,12,,,8435SC,Donkerbroek,Ooststellingwerf,Friesland,VBO,6.237173,53.018467
Veerhuisweg,13,,,8435SC,Donkerbroek,Ooststellingwerf,Friesland,VBO,6.237118,53.019205
Veerhuisweg,14,,,8435SC,Donkerbroek,Ooststellingwerf,Friesland,VBO,6.237156,53.018587
Veerhuisweg,15,,,8435SC,Donkerbroek,Ooststellingwerf,Friesland,VBO,6.237163,53.019247
Veerhuisweg,16,,,8435SC,Donkerbroek,Ooststellingwerf,Friesland,VBO,6.237071,53.018713
Veerhuisweg,17,,,8435SC,Donkerbroek,Ooststellingwerf,Friesland,VBO,6.237287,53.019423
Veerhuisweg,18,,,8435SC,Donkerbroek,Ooststellingwerf,Friesland,VBO,6.237072,53.018765
Veerhuisweg,19,,,8435SC,Donkerbroek,Ooststellingwerf,Friesland,VBO,6.237291,53.019471
Veerhuisweg,20,,,8435SC,Donkerbroek,Ooststellingwerf,Friesland,VBO,6.237217,53.018917
Veerhuisweg,21,,,8435SC,Donkerbroek,Ooststellingwerf,Friesland,VBO,6.237277,53.019690
Veerhuisweg,22,,,8435SC,Donkerbroek,Ooststellingwerf,Friesland,VBO,6.237252,53.018958
Veerhuisweg,23,,,8435SC,Donkerbroek,Ooststellingwerf,Friesland,VBO,6.237275,53.019746
Veerhuisweg,24,,,8435SC,Donkerbroek,Ooststellingwerf,Friesland,VBO,6.237371,53.019061
Veerhuisweg,25,,,8435SC,Donkerbroek,Ooststellingwerf,Friesland,VBO,6.237311,53.019795
Veerhuisweg,26,,,8435SC,Donkerbroek,Ooststellingwerf,Friesland,VBO,6.237561,53.019247
Veerhuisweg,27,,,8435SC,Donkerbroek,Ooststellingwerf,Friesland,VBO,6.237318,53.019849
Veerhuisweg,28,,,8435SC,Donkerbroek,Ooststellingwerf,Friesland,VBO,6.237574,53.019515
Veerhuisweg,29,,,8435SC,Donkerbroek,Ooststellingwerf,Friesland,VBO,6.237121,53.020134
Veerhuisweg,30,,,8435SC,Donkerbroek,Ooststellingwerf,Friesland,VBO,6.237575,53.019565
Veerhuisweg,31,,,8435SC,Donkerbroek,Ooststellingwerf,Friesland,VBO,6.237009,53.020133
Veerhuisweg,32,,,8435SC,Donkerbroek,Ooststellingwerf,Friesland,VBO,6.237576,53.019612
Veerhuisweg,33,,,8435SC,Donkerbroek,Ooststellingwerf,Friesland,VBO,6.236782,53.020131
Veerhuisweg,34,,,8435SC,Donkerbroek,Ooststellingwerf,Friesland,VBO,6.237608,53.019749
Veerhuisweg,35,,,8435SC,Donkerbroek,Ooststellingwerf,Friesland,VBO,6.236686,53.020133
Veerhuisweg,36,,,8435SC,Donkerbroek,Ooststellingwerf,Friesland,VBO,6.237603,53.019802
Veerhuisweg,38,,,8435SC,Donkerbroek,Ooststellingwerf,Friesland,VBO,6.237697,53.019903
Veerhuisweg,40,,,8435SC,Donkerbroek,Ooststellingwerf,Friesland,VBO,6.237604,53.019973
Veerhuisweg,42,,,8435SC,Donkerbroek,Ooststellingwerf,Friesland,VBO,6.237604,53.020125
Veerhuisweg,44,,,8435SC,Donkerbroek,Ooststellingwerf,Friesland,VBO,6.237609,53.020165
Veerhuisweg,46,,,8435SC,Donkerbroek,Ooststellingwerf,Friesland,VBO,6.237599,53.020360
Veerhuisweg,48,,TR01,8435SC,Donkerbroek,Ooststellingwerf,Friesland,VBO,6.237854,53.020268
Veerhuisweg,48,,,8435SC,Donkerbroek,Ooststellingwerf,Friesland,VBO,6.237284,53.020327
Veerhuisweg,50,,,8435SC,Donkerbroek,Ooststellingwerf,Friesland,VBO,6.236936,53.020327
Veerhuisweg,52,,,8435SC,Donkerbroek,Ooststellingwerf,Friesland,VBO,6.236835,53.020329
Veerhuisweg,54,,,8435SC,Donkerbroek,Ooststellingwerf,Friesland,VBO,6.236593,53.020336
Laurentiusstraat,1,,,8435SE,Donkerbroek,Ooststellingwerf,Friesland,VBO,6.235383,53.020284
Laurentiusstraat,2,,,8435SE,Donkerbroek,Ooststellingwerf,Friesland,VBO,6.235349,53.020079
Laurentiusstraat,3,,,8435SE,Donkerbroek,Ooststellingwerf,Friesland,VBO,6.235623,53.020272
Laurentiusstraat,4,,,8435SE,Donkerbroek,Ooststellingwerf,Friesland,VBO,6.235447,53.020078
Laurentiusstraat,5,,,8435SE,Donkerbroek,Ooststellingwerf,Friesland,VBO,6.235871,53.020263
Laurentiusstraat,6,,,8435SE,Donkerbroek,Ooststellingwerf,Friesland,VBO,6.235688,53.020071
Laurentiusstraat,7,,,8435SE,Donkerbroek,Ooststellingwerf,Friesland,VBO,6.236177,53.020298
Laurentiusstraat,8,,,8435SE,Donkerbroek,Ooststellingwerf,Friesland,VBO,6.235785,53.020069
Laurentiusstraat,10,,,8435SE,Donkerbroek,Ooststellingwerf,Friesland,VBO,6.236045,53.020062
Laurentiusstraat,12,,,8435SE,Donkerbroek,Ooststellingwerf,Friesland,VBO,6.236147,53.020058
Helmholtstraat,1,,,8435SG,Donkerbroek,Ooststellingwerf,Friesland,VBO,6.238541,53.019452
Helmholtstraat,2,,,8435SG,Donkerbroek,Ooststellingwerf,Friesland,VBO,6.238026,53.019265
Helmholtstraat,3,,,8435SG,Donkerbroek,Ooststellingwerf,Friesland,VBO,6.238632,53.019447
Helmholtstraat,4,,,8435SG,Donkerbroek,Ooststellingwerf,Friesland,VBO,6.238253,53.019261
Helmholtstraat,5,,,8435SG,Donkerbroek,Ooststellingwerf,Friesland,VBO,6.238855,53.019446
Helmholtstraat,6,,,8435SG,Donkerbroek,Ooststellingwerf,Friesland,VBO,6.238559,53.019250
Helmholtstraat,7,,,8435SG,Donkerbroek,Ooststellingwerf,Friesland,VBO,6.238896,53.019689
Helmholtstraat,8,,,8435SG,Donkerbroek,Ooststellingwerf,Friesland,VBO,6.238785,53.019252
Helmholtstraat,9,,,8435SG,Donkerbroek,Ooststellingwerf,Friesland,VBO,6.238909,53.019823
Helmholtstraat,10,,,8435SG,Donkerbroek,Ooststellingwerf,Friesland,VBO,6.239220,53.019322
Helmholtstraat,11,,,8435SG,Donkerbroek,Ooststellingwerf,Friesland,VBO,6.238923,53.019965
Helmholtstraat,12,,,8435SG,Donkerbroek,Ooststellingwerf,Friesland,VBO,6.239215,53.019461
Helmholtstraat,13,,,8435SG,Donkerbroek,Ooststellingwerf,Friesland,VBO,6.238825,53.020135
Helmholtstraat,14,,,8435SG,Donkerbroek,Ooststellingwerf,Friesland,VBO,6.239229,53.019591
Helmholtstraat,15,,,8435SG,Donkerbroek,Ooststellingwerf,Friesland,VBO,6.238831,53.020295
Helmholtstraat,16,,,8435SG,Donkerbroek,Ooststellingwerf,Friesland,VBO,6.239230,53.019650
Helmholtstraat,17,,,8435SG,Donkerbroek,Ooststellingwerf,Friesland,VBO,6.238842,53.020454
Helmholtstraat,18,,,8435SG,Donkerbroek,Ooststellingwerf,Friesland,VBO,6.239240,53.019759
Helmholtstraat,20,,,8435SG,Donkerbroek,Ooststellingwerf,Friesland,VBO,6.239245,53.019821
Helmholtstraat,22,,,8435SG,Donkerbroek,Ooststellingwerf,Friesland,VBO,6.239251,53.019939
Helmholtstraat,24,,,8435SG,Donkerbroek,Ooststellingwerf,Friesland,VBO,6.239252,53.019992
Helmholtstraat,26,,,8435SG,Donkerbroek,Ooststellingwerf,Friesland,VBO,6.239338,53.020153
Helmholtstraat,28,,,8435SG,Donkerbroek,Ooststellingwerf,Friesland,VBO,6.239348,53.020285
Helmholtstraat,30,,,8435SG,Donkerbroek,Ooststellingwerf,Friesland,VBO,6.239360,53.020484
Vaartweg,1,,TR01,8435TA,Donkerbroek,Ooststellingwerf,Friesland,VBO,6.234552,53.032235
Vaartweg,1,,,8435TA,Donkerbroek,Ooststellingwerf,Friesland,VBO,6.234326,53.032113
Vaartweg,2,,,8435TA,Donkerbroek,Ooststellingwerf,Friesland,VBO,6.234327,53.032537
Vaartweg,4,,,8435TA,Donkerbroek,Ooststellingwerf,Friesland,VBO,6.232777,53.033877
Ruskeweg,1,,,8435TB,Donkerbroek,Ooststellingwerf,Friesland,VBO,6.225248,53.035974
Ruskeweg,3,,,8435TB,Donkerbroek,Ooststellingwerf,Friesland,VBO,6.233017,53.036827
Mandeweg,1,,,8435TC,Donkerbroek,Ooststellingwerf,Friesland,VBO,6.229116,53.039235
Mandeweg,2,,,8435TC,Donkerbroek,Ooststellingwerf,Friesland,VBO,6.228576,53.038310
Mandeweg,3,,,8435TC,Donkerbroek,Ooststellingwerf,Friesland,VBO,6.230488,53.038171
Kerkereed,2,,,8435TD,Donkerbroek,Ooststellingwerf,Friesland,VBO,6.243986,53.018952
Kerkereed,4,A,,8435TD,Donkerbroek,Ooststellingwerf,Friesland,VBO,6.244160,53.019322
Kerkereed,4,,,8435TD,Donkerbroek,Ooststellingwerf,Friesland,VBO,6.244038,53.019151
Kerkereed,6,,,8435TD,Donkerbroek,Ooststellingwerf,Friesland,VBO,6.244201,53.020420
Kerkereed,8,A,,8435TD,Donkerbroek,Ooststellingwerf,Friesland,VBO,6.244354,53.020783
Kerkereed,8,,,8435TD,Donkerbroek,Ooststellingwerf,Friesland,VBO,6.244101,53.020726
Schansmeerweg,1,,,8435TE,Donkerbroek,Ooststellingwerf,Friesland,VBO,6.260316,53.026422
Schansmeerweg,2,,,8435TE,Donkerbroek,Ooststellingwerf,Friesland,VBO,6.261462,53.029765
Schansmeerweg,3,,,8435TE,Donkerbroek,Ooststellingwerf,Friesland,VBO,6.260175,53.035198
Molenweg,1,,,8435TG,Donkerbroek,Ooststellingwerf,Friesland,VBO,6.259167,53.028145
Molenweg,2,,,8435TG,Donkerbroek,Ooststellingwerf,Friesland,VBO,6.251589,53.030066
Molenweg,3,,,8435TG,Donkerbroek,Ooststellingwerf,Friesland,VBO,6.257097,53.028096
Moskoureed,1,A,,8435TH,Donkerbroek,Ooststellingwerf,Friesland,VBO,6.219311,53.029355
Moskoureed,1,,,8435TH,Donkerbroek,Ooststellingwerf,Friesland,VBO,6.219077,53.027149
Moskoureed,2,,,8435TH,Donkerbroek,Ooststellingwerf,Friesland,VBO,6.218038,53.029652
Moskoureed,4,,,8435TH,Donkerbroek,Ooststellingwerf,Friesland,VBO,6.217765,53.027866
Moskoureed,6,,,8435TH,Donkerbroek,Ooststellingwerf,Friesland,VBO,6.217684,53.027079
Moskoureed,8,,,8435TH,Donkerbroek,Ooststellingwerf,Friesland,VBO,6.217879,53.026629
Moskoureed,10,,,8435TH,Donkerbroek,Ooststellingwerf,Friesland,VBO,6.218537,53.026046
Moskoureed,12,,,8435TH,Donkerbroek,Ooststellingwerf,Friesland,VBO,6.217779,53.025145
Kapelweg,5,,,8435TJ,Donkerbroek,Ooststellingwerf,Friesland,VBO,6.204020,53.015935
Kapelweg,7,,,8435TJ,Donkerbroek,Ooststellingwerf,Friesland,VBO,6.205279,53.015788
Kapelweg,9,,,8435TJ,Donkerbroek,Ooststellingwerf,Friesland,VBO,6.205635,53.017362
Kapelweg,11,,,8435TJ,Donkerbroek,Ooststellingwerf,Friesland,VBO,6.206136,53.017547
Kapelweg,13,,,8435TJ,Donkerbroek,Ooststellingwerf,Friesland,VBO,6.207469,53.016205
Kapelweg,15,,,8435TJ,Donkerbroek,Ooststellingwerf,Friesland,VBO,6.208054,53.016122
Kapelweg,20,,,8435TJ,Donkerbroek,Ooststellingwerf,Friesland,VBO,6.207227,53.015721
Peelrug,1,,,8435TK,Donkerbroek,Ooststellingwerf,Friesland,VBO,6.220424,53.031680
Peelrug,2,,,8435TK,Donkerbroek,Ooststellingwerf,Friesland,VBO,6.219531,53.032555
Peelrug,4,,,8435TK,Donkerbroek,Ooststellingwerf,Friesland,VBO,6.219134,53.033085
Peelrug,6,,,8435TK,Donkerbroek,Ooststellingwerf,Friesland,VBO,6.215805,53.031778
Peelrug,8,,,8435TK,Donkerbroek,Ooststellingwerf,Friesland,VBO,6.207896,53.033819
Luitzen Oetsesweg,1,,,8435TL,Donkerbroek,Ooststellingwerf,Friesland,VBO,6.216839,53.012633
Bovenveld,1,,,8435VA,Donkerbroek,Ooststellingwerf,Friesland,VBO,6.249003,53.025199
Bovenveld,2,,,8435VA,Donkerbroek,Ooststellingwerf,Friesland,VBO,6.251139,53.025465
Bovenveld,3,,,8435VA,Donkerbroek,Ooststellingwerf,Friesland,VBO,6.249531,53.025478
Bovenveld,4,,,8435VA,Donkerbroek,Ooststellingwerf,Friesland,VBO,6.251335,53.025602
Bovenveld,5,,,8435VA,Donkerbroek,Ooststellingwerf,Friesland,VBO,6.249722,53.028544
Bovenveld,6,,,8435VA,Donkerbroek,Ooststellingwerf,Friesland,VBO,6.251567,53.027053
Bovenveld,7,,,8435VA,Donkerbroek,Ooststellingwerf,Friesland,VBO,6.250176,53.031976
Bovenveld,8,,TR01,8435VA,Donkerbroek,Ooststellingwerf,Friesland,VBO,6.250608,53.026771
Bovenveld,8,,,8435VA,Donkerbroek,Ooststellingwerf,Friesland,VBO,6.250196,53.027469
Bovenveld,10,,,8435VA,Donkerbroek,Ooststellingwerf,Friesland,VBO,6.250939,53.036221
Leidijk,2,,,8435VG,Donkerbroek,Ooststellingwerf,Friesland,VBO,6.219905,53.038301
Leidijk,4,,,8435VG,Donkerbroek,Ooststellingwerf,Friesland,VBO,6.220455,53.038999
Leidijk,6,A,,8435VG,Donkerbroek,Ooststellingwerf,Friesland,VBO,6.223940,53.039231
Leidijk,6,B,,8435VG,Donkerbroek,Ooststellingwerf,Friesland,VBO,6.224300,53.039385
Leidijk,6,,,8435VG,Donkerbroek,Ooststellingwerf,Friesland,VBO,6.220897,53.039026
Leidijk,8,,,8435VG,Donkerbroek,Ooststellingwerf,Friesland,VBO,6.230269,53.041291
Leidijk,10,,,8435VG,Donkerbroek,Ooststellingwerf,Friesland,VBO,6.235321,53.042827
Leidijk,12,,,8435VG,Donkerbroek,Ooststellingwerf,Friesland,VBO,6.238969,53.044154
Leidijk,14,,,8435VG,Donkerbroek,Ooststellingwerf,Friesland,VBO,6.242267,53.043426
Leidijk,16,,,8435VG,Donkerbroek,Ooststellingwerf,Friesland,VBO,6.242812,53.042680
Leidijk,18,,,8435VG,Donkerbroek,Ooststellingwerf,Friesland,VBO,6.243670,53.045090
Leidijk,20,,,8435VG,Donkerbroek,Ooststellingwerf,Friesland,VBO,6.245935,53.043394
Leidijk,22,,,8435VG,Donkerbroek,Ooststellingwerf,Friesland,VBO,6.246358,53.046384
Leidijk,24,,TR01,8435VG,Donkerbroek,Ooststellingwerf,Friesland,VBO,6.247546,53.046584
Leidijk,24,,,8435VG,Donkerbroek,Ooststellingwerf,Friesland,VBO,6.247306,53.046575
Leidijk,26,,,8435VG,Donkerbroek,Ooststellingwerf,Friesland,VBO,6.248096,53.046885
Leidijk,28,,,8435VG,Donkerbroek,Ooststellingwerf,Friesland,VBO,6.249833,53.047353
Petersburg,1,,,8435VH,Donkerbroek,Ooststellingwerf,Friesland,VBO,6.220432,53.032536
Petersburg,3,,,8435VH,Donkerbroek,Ooststellingwerf,Friesland,VBO,6.219593,53.033420
Petersburg,5,,,8435VH,Donkerbroek,Ooststellingwerf,Friesland,VBO,6.218962,53.034086
Petersburg,7,,,8435VH,Donkerbroek,Ooststellingwerf,Friesland,VBO,6.218377,53.034702
Petersburg,9,,,8435VH,Donkerbroek,Ooststellingwerf,Friesland,VBO,6.218146,53.034954
Petersburg,11,,,8435VH,Donkerbroek,Ooststellingwerf,Friesland,VBO,6.217745,53.035375
Petersburg,13,,,8435VH,Donkerbroek,Ooststellingwerf,Friesland,VBO,6.217399,53.035743
Petersburg,15,,,8435VH,Donkerbroek,Ooststellingwerf,Friesland,VBO,6.216796,53.036543
Petersburg,17,,,8435VH,Donkerbroek,Ooststellingwerf,Friesland,VBO,6.216657,53.038178
Petersburg,19,,,8435VH,Donkerbroek,Ooststellingwerf,Friesland,VBO,6.215112,53.038128
Petersburg,2,,,8435VJ,Donkerbroek,Ooststellingwerf,Friesland,VBO,6.231858,53.020669
Petersburg,4,,,8435VJ,Donkerbroek,Ooststellingwerf,Friesland,VBO,6.230372,53.025458
Petersburg,6,,,8435VJ,Donkerbroek,Ooststellingwerf,Friesland,VBO,6.229928,53.026189
Petersburg,8,,TR01,8435VJ,Donkerbroek,Ooststellingwerf,Friesland,VBO,6.225318,53.027855
Petersburg,8,,,8435VJ,Donkerbroek,Ooststellingwerf,Friesland,VBO,6.225315,53.027692
Petersburg,10,,,8435VJ,Donkerbroek,Ooststellingwerf,Friesland,VBO,6.223180,53.029943
Petersburg,12,,,8435VJ,Donkerbroek,Ooststellingwerf,Friesland,VBO,6.222917,53.030224
Petersburg,14,,,8435VJ,Donkerbroek,Ooststellingwerf,Friesland,VBO,6.222760,53.030389
Petersburg,16,,,8435VJ,Donkerbroek,Ooststellingwerf,Friesland,VBO,6.222685,53.030544
Petersburg,18,,,8435VJ,Donkerbroek,Ooststellingwerf,Friesland,VBO,6.222400,53.030775
Petersburg,20,,,8435VJ,Donkerbroek,Ooststellingwerf,Friesland,VBO,6.222255,53.030920
Petersburg,22,,,8435VJ,Donkerbroek,Ooststellingwerf,Friesland,VBO,6.221803,53.031491
Petersburg,24,,,8435VJ,Donkerbroek,Ooststellingwerf,Friesland,VBO,6.219354,53.035736
Petersburg,26,,,8435VJ,Donkerbroek,Ooststellingwerf,Friesland,VBO,6.220294,53.036698
Petersburg,28,,,8435VJ,Donkerbroek,Ooststellingwerf,Friesland,VBO,6.219801,53.036476
Petersburg,30,,TR01,8435VJ,Donkerbroek,Ooststellingwerf,Friesland,VBO,6.217974,53.035335
Petersburg,30,,,8435VJ,Donkerbroek,Ooststellingwerf,Friesland,VBO,6.218857,53.036426
Moskou,1,,,8435VK,Donkerbroek,Ooststellingwerf,Friesland,VBO,6.218391,53.033805
Moskou,2,,,8435VK,Donkerbroek,Ooststellingwerf,Friesland,VBO,6.215706,53.036591
Moskou,3,,,8435VK,Donkerbroek,Ooststellingwerf,Friesland,VBO,6.215009,53.037039
Moskou,4,,,8435VK,Donkerbroek,Ooststellingwerf,Friesland,VBO,6.213668,53.036384
Moskou,5,,,8435VK,Donkerbroek,Ooststellingwerf,Friesland,VBO,6.211890,53.035796
Moskou,6,,,8435VK,Donkerbroek,Ooststellingwerf,Friesland,VBO,6.214598,53.037530
't West,1,,,8435VL,Donkerbroek,Ooststellingwerf,Friesland,VBO,6.225609,53.016703
't West,3,,TR01,8435VL,Donkerbroek,Ooststellingwerf,Friesland,VBO,6.225320,53.016460
't West,3,,,8435VL,Donkerbroek,Ooststellingwerf,Friesland,VBO,6.225176,53.016675
't West,5,,,8435VL,Donkerbroek,Ooststellingwerf,Friesland,VBO,6.222407,53.016529
't West,7,,,8435VL,Donkerbroek,Ooststellingwerf,Friesland,VBO,6.219508,53.016328
't West,9,,,8435VL,Donkerbroek,Ooststellingwerf,Friesland,VBO,6.218885,53.016314
't West,11,,,8435VL,Donkerbroek,Ooststellingwerf,Friesland,VBO,6.214802,53.016204
't West,13,,,8435VL,Donkerbroek,Ooststellingwerf,Friesland,VBO,6.212500,53.016115
't West,15,,,8435VL,Donkerbroek,Ooststellingwerf,Friesland,VBO,6.211454,53.016083
't West,17,A,,8435VL,Donkerbroek,Ooststellingwerf,Friesland,VBO,6.207707,53.010613
't West,17,,,8435VL,Donkerbroek,Ooststellingwerf,Friesland,VBO,6.209505,53.016002
't West,21,,,8435VL,Donkerbroek,Ooststellingwerf,Friesland,VBO,6.204838,53.010149
't West,23,,,8435VL,Donkerbroek,Ooststellingwerf,Friesland,VBO,6.204000,53.009825
't West,2,,,8435VM,Donkerbroek,Ooststellingwerf,Friesland,VBO,6.226118,53.017110
't West,4,,,8435VM,Donkerbroek,Ooststellingwerf,Friesland,VBO,6.224668,53.016989
't West,6,A,,8435VM,Donkerbroek,Ooststellingwerf,Friesland,VBO,6.223891,53.017545
't West,6,,,8435VM,Donkerbroek,Ooststellingwerf,Friesland,VBO,6.223850,53.017088
't West,8,,,8435VM,Donkerbroek,Ooststellingwerf,Friesland,VBO,6.222972,53.016895
't West,10,,,8435VM,Donkerbroek,Ooststellingwerf,Friesland,VBO,6.222731,53.016878
't West,12,,,8435VM,Donkerbroek,Ooststellingwerf,Friesland,VBO,6.222424,53.016860
't West,14,,,8435VM,Donkerbroek,Ooststellingwerf,Friesland,VBO,6.221955,53.016894
't West,16,,,8435VM,Donkerbroek,Ooststellingwerf,Friesland,VBO,6.220976,53.016857
't West,18,A,,8435VM,Donkerbroek,Ooststellingwerf,Friesland,VBO,6.220510,53.017059
't West,18,,,8435VM,Donkerbroek,Ooststellingwerf,Friesland,VBO,6.220552,53.016945
't West,20,,,8435VM,Donkerbroek,Ooststellingwerf,Friesland,VBO,6.219359,53.016683
't West,22,,,8435VM,Donkerbroek,Ooststellingwerf,Friesland,VBO,6.217818,53.018203
't West,24,,,8435VM,Donkerbroek,Ooststellingwerf,Friesland,VBO,6.218197,53.016634
't West,26,,,8435VM,Donkerbroek,Ooststellingwerf,Friesland,VBO,6.217380,53.016627
't West,28,,,8435VM,Donkerbroek,Ooststellingwerf,Friesland,VBO,6.216512,53.016664
't West,30,A,,8435VN,Donkerbroek,Ooststellingwerf,Friesland,VBO,6.214894,53.016613
't West,30,,TR01,8435VN,Donkerbroek,Ooststellingwerf,Friesland,VBO,6.216043,53.016726
't West,30,,,8435VN,Donkerbroek,Ooststellingwerf,Friesland,VBO,6.215430,53.016617
't West,34,A,,8435VN,Donkerbroek,Ooststellingwerf,Friesland,VBO,6.213761,53.016543
't West,34,,,8435VN,Donkerbroek,Ooststellingwerf,Friesland,VBO,6.214308,53.016666
't West,36,,,8435VN,Donkerbroek,Ooststellingwerf,Friesland,VBO,6.213209,53.016465
't West,38,,,8435VN,Donkerbroek,Ooststellingwerf,Friesland,VBO,6.211971,53.016432
't West,40,,TR01,8435VN,Donkerbroek,Ooststellingwerf,Friesland,VBO,6.211541,53.016512
't West,40,,,8435VN,Donkerbroek,Ooststellingwerf,Friesland,VBO,6.211111,53.016397
't West,44,,,8435VN,Donkerbroek,Ooststellingwerf,Friesland,VBO,6.209707,53.016511
't West,46,,,8435VN,Donkerbroek,Ooststellingwerf,Friesland,VBO,6.208548,53.016237
Balkweg,1,A,,8435VP,Donkerbroek,Ooststellingwerf,Friesland,VBO,6.232188,53.012584
Balkweg,1,,,8435VP,Donkerbroek,Ooststellingwerf,Friesland,VBO,6.233014,53.014576
Balkweg,2,,,8435VP,Donkerbroek,Ooststellingwerf,Friesland,VBO,6.232851,53.011598
Balkweg,3,,,8435VP,Donkerbroek,Ooststellingwerf,Friesland,VBO,6.230709,53.011525
Balkweg,4,,,8435VP,Donkerbroek,Ooststellingwerf,Friesland,VBO,6.233359,53.007847
Balkweg,5,A,,8435VP,Donkerbroek,Ooststellingwerf,Friesland,VBO,6.231565,53.004540
Balkweg,5,,,8435VP,Donkerbroek,Ooststellingwerf,Friesland,VBO,6.231846,53.006038
Balkweg,6,,,8435VP,Donkerbroek,Ooststellingwerf,Friesland,VBO,6.232351,53.004636
Balkweg,7,,,8435VP,Donkerbroek,Ooststellingwerf,Friesland,VBO,6.231592,53.004016
Balkweg,8,,,8435VP,Donkerbroek,Ooststellingwerf,Friesland,VBO,6.232336,53.002990
Balkweg,9,,,8435VP,Donkerbroek,Ooststellingwerf,Friesland,VBO,6.232128,53.002407
Balkweg,11,,,8435VP,Donkerbroek,Ooststellingwerf,Friesland,VBO,6.231086,52.998450
't Hoogezand,1,,,8435VR,Donkerbroek,Ooststellingwerf,Friesland,VBO,6.223716,53.005065
't Hoogezand,3,,,8435VR,Donkerbroek,Ooststellingwerf,Friesland,VBO,6.223514,53.003755
't Hoogezand,4,,,8435VR,Donkerbroek,Ooststellingwerf,Friesland,VBO,6.222712,53.003668
't Hoogezand,5,,,8435VR,Donkerbroek,Ooststellingwerf,Friesland,VBO,6.223492,53.001561
't Hoogezand,6,A,,8435VR,Donkerbroek,Ooststellingwerf,Friesland,VBO,6.224488,53.001580
't Hoogezand,6,,,8435VR,Donkerbroek,Ooststellingwerf,Friesland,VBO,6.224063,53.001914
't Hoogezand,7,,TR01,8435VR,Donkerbroek,Ooststellingwerf,Friesland,VBO,6.224178,53.000763
't Hoogezand,7,,,8435VR,Donkerbroek,Ooststellingwerf,Friesland,VBO,6.223898,53.001171
Tjabbekamp,1,,,8435VS,Donkerbroek,Ooststellingwerf,Friesland,VBO,6.242467,53.005533
Tjabbekamp,2,,,8435VS,Donkerbroek,Ooststellingwerf,Friesland,VBO,6.240852,53.006040
Tjabbekamp,3,,,8435VS,Donkerbroek,Ooststellingwerf,Friesland,VBO,6.239560,53.004715
Tjabbekamp,4,,,8435VS,Donkerbroek,Ooststellingwerf,Friesland,VBO,6.243866,53.002653
Tjabbekamp,5,,,8435VS,Donkerbroek,Ooststellingwerf,Friesland,VBO,6.236367,52.999731
Tjabbekamp,6,,,8435VS,Donkerbroek,Ooststellingwerf,Friesland,VBO,6.234251,52.999185
Tjabbekamp,7,,TR01,8435VS,Donkerbroek,Ooststellingwerf,Friesland,VBO,6.230352,52.999322
Tjabbekamp,7,,,8435VS,Donkerbroek,Ooststellingwerf,Friesland,VBO,6.225000,52.998862
Tjabbekamp,8,,,8435VS,Donkerbroek,Ooststellingwerf,Friesland,VBO,6.221608,52.999203
Tjabbekamp,9,,,8435VS,Donkerbroek,Ooststellingwerf,Friesland,VBO,6.219907,52.999096
Tjabbekamp,10,,,8435VS,Donkerbroek,Ooststellingwerf,Friesland,VBO,6.219362,53.000031
Tjabbekamp,11,,TR01,8435VS,Donkerbroek,Ooststellingwerf,Friesland,VBO,6.216979,52.998407
Tjabbekamp,11,,,8435VS,Donkerbroek,Ooststellingwerf,Friesland,VBO,6.216597,52.998423
Tjabbekamp,12,,,8435VS,Donkerbroek,Ooststellingwerf,Friesland,VBO,6.215888,52.998869
Bovenweg,1,,,8435VT,Donkerbroek,Ooststellingwerf,Friesland,VBO,6.250899,53.023648
Bovenweg,2,,,8435VT,Donkerbroek,Ooststellingwerf,Friesland,VBO,6.250394,53.023020
Bovenweg,3,,,8435VT,Donkerbroek,Ooststellingwerf,Friesland,VBO,6.251687,53.023815
Bovenweg,4,,,8435VT,Donkerbroek,Ooststellingwerf,Friesland,VBO,6.252916,53.022499
Bovenweg,5,,,8435VT,Donkerbroek,Ooststellingwerf,Friesland,VBO,6.252824,53.024061
Bovenweg,6,,,8435VT,Donkerbroek,Ooststellingwerf,Friesland,VBO,6.259991,53.025811
Bovenweg,7,,,8435VT,Donkerbroek,Ooststellingwerf,Friesland,VBO,6.252829,53.025232
Bovenweg,8,,,8435VT,Donkerbroek,Ooststellingwerf,Friesland,VBO,6.263370,53.024688
Bovenweg,9,,,8435VT,Donkerbroek,Ooststellingwerf,Friesland,VBO,6.253638,53.024776
Bovenweg,10,,TR01,8435VT,Donkerbroek,Ooststellingwerf,Friesland,VBO,6.265992,53.027294
Bovenweg,10,,,8435VT,Donkerbroek,Ooststellingwerf,Friesland,VBO,6.264622,53.025273
Bovenweg,11,,,8435VT,Donkerbroek,Ooststellingwerf,Friesland,VBO,6.254625,53.025844
Bovenweg,13,,,8435VT,Donkerbroek,Ooststellingwerf,Friesland,VBO,6.255373,53.024789
Bovenweg,14,,,8435VT,Donkerbroek,Ooststellingwerf,Friesland,VBO,6.269497,53.028467
Bovenweg,15,,,8435VT,Donkerbroek,Ooststellingwerf,Friesland,VBO,6.257503,53.025384
Bovenweg,16,,,8435VT,Donkerbroek,Ooststellingwerf,Friesland,VBO,6.269954,53.023735
Bovenweg,17,,,8435VT,Donkerbroek,Ooststellingwerf,Friesland,VBO,6.258364,53.025789
Bovenweg,18,,,8435VT,Donkerbroek,Ooststellingwerf,Friesland,VBO,6.270378,53.028716
Bovenweg,19,,TR01,8435VT,Donkerbroek,Ooststellingwerf,Friesland,VBO,6.261277,53.026645
Bovenweg,19,,,8435VT,Donkerbroek,Ooststellingwerf,Friesland,VBO,6.261091,53.026417
Bovenweg,20,,TR01,8435VT,Donkerbroek,Ooststellingwerf,Friesland,VBO,6.271440,53.028709
Bovenweg,20,,,8435VT,Donkerbroek,Ooststellingwerf,Friesland,VBO,6.271337,53.028817
Bovenweg,21,,,8435VT,Donkerbroek,Ooststellingwerf,Friesland,VBO,6.261495,53.026464
Bovenweg,23,,,8435VT,Donkerbroek,Ooststellingwerf,Friesland,VBO,6.261590,53.026487
Bovenweg,25,,,8435VT,Donkerbroek,Ooststellingwerf,Friesland,VBO,6.261796,53.026557
Bovenweg,27,,,8435VT,Donkerbroek,Ooststellingwerf,Friesland,VBO,6.261905,53.026584
Bovenweg,29,,,8435VT,Donkerbroek,Ooststellingwerf,Friesland,VBO,6.262782,53.027142
Bovenweg,31,,,8435VT,Donkerbroek,Ooststellingwerf,Friesland,VBO,6.264474,53.027373
Bovenweg,33,,,8435VT,Donkerbroek,Ooststellingwerf,Friesland,VBO,6.266667,53.027975
Bovenweg,35,,,8435VT,Donkerbroek,Ooststellingwerf,Friesland,VBO,6.267356,53.030729
Bovenweg,37,,,8435VT,Donkerbroek,Ooststellingwerf,Friesland,VBO,6.269043,53.028653
Bovenweg,39,,,8435VT,Donkerbroek,Ooststellingwerf,Friesland,VBO,6.270942,53.029259
Bokkekampsweg,2,,,8435VV,Donkerbroek,Ooststellingwerf,Friesland,VBO,6.221167,53.034608
Bokkekampsweg,4,,,8435VV,Donkerbroek,Ooststellingwerf,Friesland,VBO,6.221303,53.036510
Bokkekampsweg,6,,,8435VV,Donkerbroek,Ooststellingwerf,Friesland,VBO,6.221373,53.036890
Bokkekampsweg,8,,,8435VV,Donkerbroek,Ooststellingwerf,Friesland,VBO,6.221417,53.038274
Hanestreek,1,,,8435VW,Donkerbroek,Ooststellingwerf,Friesland,VBO,6.225431,53.039528
Hanestreek,3,,,8435VW,Donkerbroek,Ooststellingwerf,Friesland,VBO,6.225396,53.038701
Hanestreek,5,,,8435VW,Donkerbroek,Ooststellingwerf,Friesland,VBO,6.225245,53.037138
Hanestreek,6,,,8435VW,Donkerbroek,Ooststellingwerf,Friesland,VBO,6.224370,53.038847
Hanestreek,7,,,8435VW,Donkerbroek,Ooststellingwerf,Friesland,VBO,6.224757,53.034234
Hanestreek,8,,,8435VW,Donkerbroek,Ooststellingwerf,Friesland,VBO,6.224502,53.036566
Hanestreek,10,,,8435VW,Donkerbroek,Ooststellingwerf,Friesland,VBO,6.223587,53.036126
Hanestreek,12,,,8435VW,Donkerbroek,Ooststellingwerf,Friesland,VBO,6.224379,53.034849
Koelandsweg,1,,,8435VX,Donkerbroek,Ooststellingwerf,Friesland,VBO,6.235992,53.024503
Koelandsweg,2,,,8435VX,Donkerbroek,Ooststellingwerf,Friesland,VBO,6.239956,53.026068
Koelandsweg,3,,,8435VX,Donkerbroek,Ooststellingwerf,Friesland,VBO,6.237458,53.025361
Koelandsweg,4,,,8435VX,Donkerbroek,Ooststellingwerf,Friesland,VBO,6.241035,53.026387
Koelandsweg,5,,TR01,8435VX,Donkerbroek,Ooststellingwerf,Friesland,VBO,6.238067,53.025523
Koelandsweg,5,,,8435VX,Donkerbroek,Ooststellingwerf,Friesland,VBO,6.238502,53.025539
Koelandsweg,6,,,8435VX,Donkerbroek,Ooststellingwerf,Friesland,VBO,6.241431,53.026412
Koelandsweg,7,,,8435VX,Donkerbroek,Ooststellingwerf,Friesland,VBO,6.240316,53.026779
Koelandsweg,8,,,8435VX,Donkerbroek,Ooststellingwerf,Friesland,VBO,6.244831,53.028114
Koelandsweg,9,,,8435VX,Donkerbroek,Ooststellingwerf,Friesland,VBO,6.241107,53.027284
Koelandsweg,11,,,8435VX,Donkerbroek,Ooststellingwerf,Friesland,VBO,6.241713,53.026708
Koelandsweg,13,,,8435VX,Donkerbroek,Ooststellingwerf,Friesland,VBO,6.244859,53.030191
Koelandsweg,15,,,8435VX,Donkerbroek,Ooststellingwerf,Friesland,VBO,6.247160,53.030327
Koelandsweg,17,,,8435VX,Donkerbroek,Ooststellingwerf,Friesland,VBO,6.249331,53.030245
Koelandsweg,19,,,8435VX,Donkerbroek,Ooststellingwerf,Friesland,VBO,6.249997,53.030253
Stobbepoelweg,1,,,8435VZ,Donkerbroek,Ooststellingwerf,Friesland,VBO,6.239455,53.040322
Stobbepoelweg,2,,,8435VZ,Donkerbroek,Ooststellingwerf,Friesland,VBO,6.240724,53.036682
Stobbepoelweg,3,,,8435VZ,Donkerbroek,Ooststellingwerf,Friesland,VBO,6.241343,53.038275
Stobbepoelweg,4,,,8435VZ,Donkerbroek,Ooststellingwerf,Friesland,VBO,6.240956,53.035846
Vaart Oz,15,,,8435WB,Donkerbroek,Ooststellingwerf,Friesland,VBO,6.242055,53.009993
Vaart Oz,16,,,8435WB,Donkerbroek,Ooststellingwerf,Friesland,VBO,6.243124,53.008724
Vaart Oz,17,,,8435WB,Donkerbroek,Ooststellingwerf,Friesland,VBO,6.246832,53.004909
Vaart Wz,1,A,,8435WB,Donkerbroek,Ooststellingwerf,Friesland,VBO,6.235606,53.013123
Vaart Wz,1,,TR01,8435WB,Donkerbroek,Ooststellingwerf,Friesland,VBO,6.236992,53.012976
Vaart Wz,1,,,8435WB,Donkerbroek,Ooststellingwerf,Friesland,VBO,6.237913,53.012578
Vaart Wz,3,,,8435WB,Donkerbroek,Ooststellingwerf,Friesland,VBO,6.239671,53.011173
Vaart Wz,4,,,8435WB,Donkerbroek,Ooststellingwerf,Friesland,VBO,6.239848,53.011115
Vaart Wz,5,,,8435WB,Donkerbroek,Ooststellingwerf,Friesland,VBO,6.239932,53.011027
Vaart Wz,6,,,8435WB,Donkerbroek,Ooststellingwerf,Friesland,VBO,6.239908,53.010685
Vaart Wz,7,,,8435WB,Donkerbroek,Ooststellingwerf,Friesland,VBO,6.240625,53.010294
Vaart Wz,8,,,8435WB,Donkerbroek,Ooststellingwerf,Friesland,VBO,6.241194,53.009713
Vaart Wz,9,,,8435WB,Donkerbroek,Ooststellingwerf,Friesland,VBO,6.243359,53.007477
Vaart Wz,11,,,8435WB,Donkerbroek,Ooststellingwerf,Friesland,VBO,6.246080,53.004427
Vaart Oz,18,,,8435WC,Donkerbroek,Ooststellingwerf,Friesland,VBO,6.247974,53.004211
Vaart Oz,21,,,8435WC,Donkerbroek,Ooststellingwerf,Friesland,VBO,6.254636,52.999512
Vaart Wz,12,,,8435WC,Donkerbroek,Ooststellingwerf,Friesland,VBO,6.246779,53.004171
Vaart Wz,14,,,8435WC,Donkerbroek,Ooststellingwerf,Friesland,VBO,6.248708,53.002805
Vaart Wz,15,A,,8435WC,Donkerbroek,Ooststellingwerf,Friesland,VBO,6.253825,52.998675
Vaart Wz,15,,TR01,8435WC,Donkerbroek,Ooststellingwerf,Friesland,VBO,6.251496,53.000375
Vaart Wz,15,,,8435WC,Donkerbroek,Ooststellingwerf,Friesland,VBO,6.251772,53.000687
Vaart Wz,16,,,8435WC,Donkerbroek,Ooststellingwerf,Friesland,VBO,6.256409,52.997502
Vaart Wz,17,,,8435WC,Donkerbroek,Ooststellingwerf,Friesland,VBO,6.259795,52.995135
Vaart Oz,1,,,8435WD,Donkerbroek,Ooststellingwerf,Friesland,VBO,6.234718,53.017243
Vaart Oz,2,,,8435WD,Donkerbroek,Ooststellingwerf,Friesland,VBO,6.235190,53.016987
Vaart Oz,3,,,8435WD,Donkerbroek,Ooststellingwerf,Friesland,VBO,6.235518,53.016564
Vaart Oz,4,,,8435WD,Donkerbroek,Ooststellingwerf,Friesland,VBO,6.235810,53.016475
Vaart Oz,5,,,8435WD,Donkerbroek,Ooststellingwerf,Friesland,VBO,6.235952,53.016320
Vaart Oz,6,,,8435WD,Donkerbroek,Ooststellingwerf,Friesland,VBO,6.236083,53.016177
Vaart Oz,7,,,8435WD,Donkerbroek,Ooststellingwerf,Friesland,VBO,6.236204,53.016046
Vaart Oz,8,,,8435WD,Donkerbroek,Ooststellingwerf,Friesland,VBO,6.236331,53.015909
Vaart Oz,9,,,8435WD,Donkerbroek,Ooststellingwerf,Friesland,VBO,6.237239,53.015603
Vaart Oz,10,,,8435WD,Donkerbroek,Ooststellingwerf,Friesland,VBO,6.237302,53.015374
Vaart Oz,11,A,,8435WD,Donkerbroek,Ooststellingwerf,Friesland,VBO,6.237302,53.015374
Vaart Oz,11,B,,8435WD,Donkerbroek,Ooststellingwerf,Friesland,VBO,6.237239,53.015603
Vaart Oz,11,,,8435WD,Donkerbroek,Ooststellingwerf,Friesland,VBO,6.237239,53.015603
Vaart Oz,12,,,8435WD,Donkerbroek,Ooststellingwerf,Friesland,VBO,6.237302,53.015374
Vaart Oz,13,,,8435WD,Donkerbroek,Ooststellingwerf,Friesland,VBO,6.237302,53.015374
Vaart Oz,14,,,8435WD,Donkerbroek,Ooststellingwerf,Friesland,VBO,6.237239,53.015603
Fruitier de Talmaweg,1,A,,8435WE,Donkerbroek,Ooststellingwerf,Friesland,VBO,6.234021,53.016563
Fruitier de Talmaweg,1,,,8435WE,Donkerbroek,Ooststellingwerf,Friesland,VBO,6.234623,53.016715
Fruitier de Talmaweg,3,A,,8435WE,Donkerbroek,Ooststellingwerf,Friesland,VBO,6.234181,53.015261
Fruitier de Talmaweg,4,A,,8435WE,Donkerbroek,Ooststellingwerf,Friesland,VBO,6.234045,53.015815
Fruitier de Talmaweg,4,,,8435WE,Donkerbroek,Ooststellingwerf,Friesland,VBO,6.234068,53.015640
Fruitier de Talmaweg,5,A,,8435WE,Donkerbroek,Ooststellingwerf,Friesland,VBO,6.234532,53.016269
Fruitier de Talmaweg,5,,,8435WE,Donkerbroek,Ooststellingwerf,Friesland,VBO,6.234053,53.015978
Fruitier de Talmaweg,6,A,,8435WE,Donkerbroek,Ooststellingwerf,Friesland,VBO,6.235087,53.015429
Fruitier de Talmaweg,6,,,8435WE,Donkerbroek,Ooststellingwerf,Friesland,VBO,6.235148,53.015970
Fruitier de Talmaweg,7,,,8435WE,Donkerbroek,Ooststellingwerf,Friesland,VBO,6.235847,53.015357
Fruitier de Talmaweg,12,,,8435WE,Donkerbroek,Ooststellingwerf,Friesland,VBO,6.236059,53.015047
Fruitier de Talmaweg,13,,,8435WE,Donkerbroek,Ooststellingwerf,Friesland,VBO,6.236603,53.014571
Fruitier de Talmaweg,14,,,8435WE,Donkerbroek,Ooststellingwerf,Friesland,VBO,6.236861,53.014394
Fruitier de Talmaweg,15,,,8435WE,Donkerbroek,Ooststellingwerf,Friesland,VBO,6.236939,53.014216
Fruitier de Talmaweg,16,,,8435WE,Donkerbroek,Ooststellingwerf,Friesland,VBO,6.237479,53.013696
Fruitier de Talmaweg,19,,,8435WE,Donkerbroek,Ooststellingwerf,Friesland,VBO,6.237791,53.013307
Geert Wolter Smitweg,1,A,,8435WG,Donkerbroek,Ooststellingwerf,Friesland,VBO,6.233526,53.016695
Geert Wolter Smitweg,1,,,8435WG,Donkerbroek,Ooststellingwerf,Friesland,VBO,6.234076,53.017270
Geert Wolter Smitweg,2,A,,8435WG,Donkerbroek,Ooststellingwerf,Friesland,VBO,6.234241,53.017435
Geert Wolter Smitweg,2,,,8435WG,Donkerbroek,Ooststellingwerf,Friesland,VBO,6.233957,53.017594
Geert Wolter Smitweg,3,,,8435WG,Donkerbroek,Ooststellingwerf,Friesland,VBO,6.233948,53.017241
Geert Wolter Smitweg,4,A,,8435WG,Donkerbroek,Ooststellingwerf,Friesland,VBO,6.233635,53.017405
Geert Wolter Smitweg,4,,,8435WG,Donkerbroek,Ooststellingwerf,Friesland,VBO,6.233646,53.017392
Geert Wolter Smitweg,5,,,8435WG,Donkerbroek,Ooststellingwerf,Friesland,VBO,6.233335,53.017032
Geert Wolter Smitweg,6,A,,8435WG,Donkerbroek,Ooststellingwerf,Friesland,VBO,6.233358,53.017409
Geert Wolter Smitweg,6,B,,8435WG,Donkerbroek,Ooststellingwerf,Friesland,VBO,6.233395,53.017448
Geert Wolter Smitweg,6,,,8435WG,Donkerbroek,Ooststellingwerf,Friesland,VBO,6.233461,53.017420
Geert Wolter Smitweg,7,,,8435WG,Donkerbroek,Ooststellingwerf,Friesland,VBO,6.232637,53.017147
Geert Wolter Smitweg,10,,,8435WG,Donkerbroek,Ooststellingwerf,Friesland,VBO,6.233124,53.017373
Geert Wolter Smitweg,12,,,8435WG,Donkerbroek,Ooststellingwerf,Friesland,VBO,6.232696,53.017349
Geert Wolter Smitweg,14,,,8435WG,Donkerbroek,Ooststellingwerf,Friesland,VBO,6.232515,53.017366
Geert Wolter Smitweg,16,,,8435WG,Donkerbroek,Ooststellingwerf,Friesland,VBO,6.232283,53.017328
Geert Wolter Smitweg,18,,,8435WG,Donkerbroek,Ooststellingwerf,Friesland,VBO,6.232016,53.017317
Geert Wolter Smitweg,20,,,8435WG,Donkerbroek,Ooststellingwerf,Friesland,VBO,6.231723,53.017301
Posthuisweg,2,,,8435WH,Donkerbroek,Ooststellingwerf,Friesland,VBO,6.232675,53.016844
Posthuisweg,4,,,8435WH,Donkerbroek,Ooststellingwerf,Friesland,VBO,6.232661,53.016727
Posthuisweg,5,,,8435WH,Donkerbroek,Ooststellingwerf,Friesland,VBO,6.233060,53.016575
Posthuisweg,6,,,8435WH,Donkerbroek,Ooststellingwerf,Friesland,VBO,6.232657,53.016514
Posthuisweg,7,,,8435WH,Donkerbroek,Ooststellingwerf,Friesland,VBO,6.233065,53.016442
Posthuisweg,8,,,8435WH,Donkerbroek,Ooststellingwerf,Friesland,VBO,6.232643,53.016364
Posthuisweg,9,,,8435WH,Donkerbroek,Ooststellingwerf,Friesland,VBO,6.233062,53.016315
Posthuisweg,10,,,8435WH,Donkerbroek,Ooststellingwerf,Friesland,VBO,6.232632,53.016234
Posthuisweg,11,,,8435WH,Donkerbroek,Ooststellingwerf,Friesland,VBO,6.233060,53.016197
Posthuisweg,12,,,8435WH,Donkerbroek,Ooststellingwerf,Friesland,VBO,6.232634,53.016112
Posthuisweg,13,,,8435WH,Donkerbroek,Ooststellingwerf,Friesland,VBO,6.233043,53.016080
Posthuisweg,15,,,8435WH,Donkerbroek,Ooststellingwerf,Friesland,VBO,6.233048,53.015976
Herenwal,2,,,8435WJ,Donkerbroek,Ooststellingwerf,Friesland,VBO,6.233550,53.017969
Herenwal,4,,,8435WJ,Donkerbroek,Ooststellingwerf,Friesland,VBO,6.233239,53.018323
Herenwal,5,,,8435WJ,Donkerbroek,Ooststellingwerf,Friesland,VBO,6.233159,53.018407
Herenwal,7,,,8435WJ,Donkerbroek,Ooststellingwerf,Friesland,VBO,6.232954,53.018619
Herenwal,9,,,8435WJ,Donkerbroek,Ooststellingwerf,Friesland,VBO,6.232711,53.018872
Herenwal,10,,,8435WJ,Donkerbroek,Ooststellingwerf,Friesland,VBO,6.232622,53.018984
Herenwal,11,,,8435WJ,Donkerbroek,Ooststellingwerf,Friesland,VBO,6.232504,53.019100
Herenwal,12,,,8435WJ,Donkerbroek,Ooststellingwerf,Friesland,VBO,6.232408,53.019212
Herenwal,14,,,8435WJ,Donkerbroek,Ooststellingwerf,Friesland,VBO,6.232123,53.019509
Schapendrift,1,A,,8435WK,Donkerbroek,Ooststellingwerf,Friesland,VBO,6.234168,53.018782
Schapendrift,1,C,,8435WK,Donkerbroek,Ooststellingwerf,Friesland,VBO,6.234019,53.018963
Schapendrift,1,D,,8435WK,Donkerbroek,Ooststellingwerf,Friesland,VBO,6.234019,53.018963
Schapendrift,1,E,,8435WK,Donkerbroek,Ooststellingwerf,Friesland,VBO,6.234015,53.019248
Schapendrift,1,G,,8435WK,Donkerbroek,Ooststellingwerf,Friesland,VBO,6.233849,53.019187
Schapendrift,1,I,,8435WK,Donkerbroek,Ooststellingwerf,Friesland,VBO,6.234143,53.019310
Schapendrift,1,J,,8435WK,Donkerbroek,Ooststellingwerf,Friesland,VBO,6.234142,53.019460
Schapendrift,1,,,8435WK,Donkerbroek,Ooststellingwerf,Friesland,VBO,6.234220,53.018648
Schapendrift,2,,,8435WK,Donkerbroek,Ooststellingwerf,Friesland,VBO,6.234499,53.017906
Schapendrift,3,,,8435WK,Donkerbroek,Ooststellingwerf,Friesland,VBO,6.234371,53.020843
Schapendrift,4,,,8435WK,Donkerbroek,Ooststellingwerf,Friesland,VBO,6.234683,53.018159
Schapendrift,5,,,8435WK,Donkerbroek,Ooststellingwerf,Friesland,VBO,6.233934,53.020758
Schapendrift,6,,,8435WK,Donkerbroek,Ooststellingwerf,Friesland,VBO,6.234549,53.018182
Schapendrift,7,,,8435WK,Donkerbroek,Ooststellingwerf,Friesland,VBO,6.234256,53.025668
Schapendrift,8,,,8435WK,Donkerbroek,Ooststellingwerf,Friesland,VBO,6.234611,53.018831
Schapendrift,9,,,8435WK,Donkerbroek,Ooststellingwerf,Friesland,VBO,6.234857,53.027292
Schapendrift,10,,,8435WK,Donkerbroek,Ooststellingwerf,Friesland,VBO,6.234598,53.018929
Schapendrift,11,,,8435WK,Donkerbroek,Ooststellingwerf,Friesland,VBO,6.234902,53.031045
Schapendrift,12,,,8435WK,Donkerbroek,Ooststellingwerf,Friesland,VBO,6.234599,53.019007
Schapendrift,13,,,8435WK,Donkerbroek,Ooststellingwerf,Friesland,VBO,6.234963,53.033064
Schapendrift,14,,,8435WK,Donkerbroek,Ooststellingwerf,Friesland,VBO,6.234617,53.019122
Schapendrift,16,,,8435WK,Donkerbroek,Ooststellingwerf,Friesland,VBO,6.234629,53.019222
Schapendrift,18,,,8435WK,Donkerbroek,Ooststellingwerf,Friesland,VBO,6.234658,53.019361
Schapendrift,20,,,8435WK,Donkerbroek,Ooststellingwerf,Friesland,VBO,6.234670,53.019486
Schapendrift,22,,,8435WK,Donkerbroek,Ooststellingwerf,Friesland,VBO,6.234663,53.019629
Schapendrift,24,,,8435WK,Donkerbroek,Ooststellingwerf,Friesland,VBO,6.234674,53.019688
Schapendrift,26,,,8435WK,Donkerbroek,Ooststellingwerf,Friesland,VBO,6.234682,53.019835
Schapendrift,28,A,,8435WK,Donkerbroek,Ooststellingwerf,Friesland,VBO,6.234697,53.020045
Schapendrift,28,B,,8435WK,Donkerbroek,Ooststellingwerf,Friesland,VBO,6.234703,53.020095
Schapendrift,28,C,,8435WK,Donkerbroek,Ooststellingwerf,Friesland,VBO,6.234754,53.020350
Schapendrift,28,D,,8435WK,Donkerbroek,Ooststellingwerf,Friesland,VBO,6.234737,53.020512
Schapendrift,28,,,8435WK,Donkerbroek,Ooststellingwerf,Friesland,VBO,6.234689,53.019893
Schapendrift,30,,,8435WK,Donkerbroek,Ooststellingwerf,Friesland,VBO,6.235588,53.033080
Schapendrift,32,,TR01,8435WK,Donkerbroek,Ooststellingwerf,Friesland,VBO,6.235832,53.036175
Schapendrift,32,,,8435WK,Donkerbroek,Ooststellingwerf,Friesland,VBO,6.235857,53.035925
Schapendrift,34,,,8435WK,Donkerbroek,Ooststellingwerf,Friesland,VBO,6.236410,53.040235
Vosseheer,1,,,8435WL,Donkerbroek,Ooststellingwerf,Friesland,VBO,6.234650,53.017570
Vosseheer,2,,,8435WL,Donkerbroek,Ooststellingwerf,Friesland,VBO,6.234563,53.017687
Vosseheer,3,,,8435WL,Donkerbroek,Ooststellingwerf,Friesland,VBO,6.234065,53.018104
Vosseheer,4,A,,8435WL,Donkerbroek,Ooststellingwerf,Friesland,VBO,6.233980,53.018287
Vosseheer,4,,,8435WL,Donkerbroek,Ooststellingwerf,Friesland,VBO,6.233984,53.018256
Vosseheer,5,,,8435WL,Donkerbroek,Ooststellingwerf,Friesland,VBO,6.233799,53.018457
Vosseheer,6,,,8435WL,Donkerbroek,Ooststellingwerf,Friesland,VBO,6.233749,53.018513
Vosseheer,7,,,8435WL,Donkerbroek,Ooststellingwerf,Friesland,VBO,6.233563,53.018694
Vosseheer,10,,,8435WL,Donkerbroek,Ooststellingwerf,Friesland,VBO,6.233356,53.018927
Vosseheer,11,,,8435WL,Donkerbroek,Ooststellingwerf,Friesland,VBO,6.233226,53.019059
Vosseheer,12,,,8435WL,Donkerbroek,Ooststellingwerf,Friesland,VBO,6.233137,53.019244
Vosseheer,13,,,8435WL,Donkerbroek,Ooststellingwerf,Friesland,VBO,6.232706,53.019906
Vosseheer,14,,,8435WL,Donkerbroek,Ooststellingwerf,Friesland,VBO,6.232363,53.020197
Herenweg,3,,,8435WN,Donkerbroek,Ooststellingwerf,Friesland,VBO,6.235048,53.017790
Herenweg,5,,,8435WN,Donkerbroek,Ooststellingwerf,Friesland,VBO,6.235321,53.017650
Herenweg,9,,,8435WN,Donkerbroek,Ooststellingwerf,Friesland,VBO,6.235550,53.017689
Herenweg,13,,,8435WN,Donkerbroek,Ooststellingwerf,Friesland,VBO,6.235843,53.017799
Herenweg,19,,,8435WN,Donkerbroek,Ooststellingwerf,Friesland,VBO,6.236241,53.017786
Herenweg,21,,,8435WN,Donkerbroek,Ooststellingwerf,Friesland,VBO,6.236422,53.017817
Herenweg,23,,,8435WN,Donkerbroek,Ooststellingwerf,Friesland,VBO,6.236659,53.017850
Herenweg,25,,,8435WN,Donkerbroek,Ooststellingwerf,Friesland,VBO,6.237101,53.017959
Herenweg,27,,,8435WN,Donkerbroek,Ooststellingwerf,Friesland,VBO,6.237389,53.018224
Herenweg,29,,,8435WN,Donkerbroek,Ooststellingwerf,Friesland,VBO,6.237555,53.018063
Herenweg,31,,,8435WN,Donkerbroek,Ooststellingwerf,Friesland,VBO,6.237833,53.018092
Herenweg,33,,,8435WN,Donkerbroek,Ooststellingwerf,Friesland,VBO,6.238032,53.018123
Herenweg,35,,,8435WP,Donkerbroek,Ooststellingwerf,Friesland,VBO,6.238344,53.018105
Herenweg,39,,,8435WP,Donkerbroek,Ooststellingwerf,Friesland,VBO,6.238726,53.018217
Herenweg,43,,,8435WP,Donkerbroek,Ooststellingwerf,Friesland,VBO,6.239013,53.018228
Herenweg,49,,,8435WP,Donkerbroek,Ooststellingwerf,Friesland,VBO,6.239406,53.018286
Herenweg,51,,,8435WP,Donkerbroek,Ooststellingwerf,Friesland,VBO,6.239866,53.019001
Herenweg,53,,,8435WP,Donkerbroek,Ooststellingwerf,Friesland,VBO,6.239770,53.018342
Herenweg,55,,,8435WP,Donkerbroek,Ooststellingwerf,Friesland,VBO,6.239905,53.018362
Herenweg,57,,,8435WP,Donkerbroek,Ooststellingwerf,Friesland,VBO,6.240119,53.018451
Herenweg,59,,,8435WP,Donkerbroek,Ooststellingwerf,Friesland,VBO,6.240359,53.018458
Herenweg,61,,,8435WP,Donkerbroek,Ooststellingwerf,Friesland,VBO,6.240729,53.018445
Herenweg,63,,,8435WP,Donkerbroek,Ooststellingwerf,Friesland,VBO,6.241068,53.018511
Herenweg,65,,,8435WP,Donkerbroek,Ooststellingwerf,Friesland,VBO,6.241253,53.018494
Herenweg,67,,,8435WP,Donkerbroek,Ooststellingwerf,Friesland,VBO,6.241502,53.018509
Herenweg,69,,,8435WP,Donkerbroek,Ooststellingwerf,Friesland,VBO,6.241679,53.018530
Herenweg,71,,,8435WP,Donkerbroek,Ooststellingwerf,Friesland,VBO,6.241887,53.018540
Herenweg,73,,,8435WP,Donkerbroek,Ooststellingwerf,Friesland,VBO,6.242251,53.018555
Herenweg,75,,,8435WP,Donkerbroek,Ooststellingwerf,Friesland,VBO,6.242445,53.018624
Herenweg,77,,,8435WR,Donkerbroek,Ooststellingwerf,Friesland,VBO,6.242622,53.018586
Herenweg,81,,,8435WR,Donkerbroek,Ooststellingwerf,Friesland,VBO,6.243147,53.018805
Herenweg,87,,,8435WR,Donkerbroek,Ooststellingwerf,Friesland,VBO,6.244087,53.018628
Herenweg,89,,,8435WR,Donkerbroek,Ooststellingwerf,Friesland,VBO,6.244336,53.018628
Herenweg,91,,,8435WR,Donkerbroek,Ooststellingwerf,Friesland,VBO,6.244635,53.018626
Herenweg,93,,,8435WR,Donkerbroek,Ooststellingwerf,Friesland,VBO,6.244872,53.018630
Herenweg,95,,,8435WR,Donkerbroek,Ooststellingwerf,Friesland,VBO,6.245206,53.018668
Herenweg,97,,,8435WR,Donkerbroek,Ooststellingwerf,Friesland,VBO,6.245592,53.018566
Herenweg,99,,,8435WR,Donkerbroek,Ooststellingwerf,Friesland,VBO,6.245876,53.018645
Herenweg,101,,,8435WR,Donkerbroek,Ooststellingwerf,Friesland,VBO,6.246127,53.018616
Herenweg,103,,,8435WR,Donkerbroek,Ooststellingwerf,Friesland,VBO,6.246335,53.018652
Herenweg,105,,,8435WR,Donkerbroek,Ooststellingwerf,Friesland,VBO,6.246643,53.018647
Herenweg,107,,,8435WR,Donkerbroek,Ooststellingwerf,Friesland,VBO,6.246842,53.018651
Herenweg,111,,,8435WR,Donkerbroek,Ooststellingwerf,Friesland,VBO,6.247220,53.018653
Herenweg,113,,,8435WR,Donkerbroek,Ooststellingwerf,Friesland,VBO,6.247883,53.018646
Herenweg,115,A,,8435WR,Donkerbroek,Ooststellingwerf,Friesland,VBO,6.248557,53.018715
Herenweg,115,B,,8435WR,Donkerbroek,Ooststellingwerf,Friesland,VBO,6.248868,53.018725
Herenweg,115,,,8435WR,Donkerbroek,Ooststellingwerf,Friesland,VBO,6.248192,53.018685
Herenweg,117,,,8435WS,Donkerbroek,Ooststellingwerf,Friesland,VBO,6.249611,53.018802
Herenweg,119,,,8435WS,Donkerbroek,Ooststellingwerf,Friesland,VBO,6.251018,53.018710
Herenweg,121,,,8435WS,Donkerbroek,Ooststellingwerf,Friesland,VBO,6.251656,53.018717
Herenweg,123,,,8435WS,Donkerbroek,Ooststellingwerf,Friesland,VBO,6.251934,53.018751
Herenweg,125,,,8435WS,Donkerbroek,Ooststellingwerf,Friesland,VBO,6.252904,53.018740
Herenweg,127,,,8435WS,Donkerbroek,Ooststellingwerf,Friesland,VBO,6.253300,53.018711
Herenweg,129,,,8435WS,Donkerbroek,Ooststellingwerf,Friesland,VBO,6.253709,53.018696
Herenweg,131,,,8435WS,Donkerbroek,Ooststellingwerf,Friesland,VBO,6.254054,53.018696
Herenweg,133,,,8435WS,Donkerbroek,Ooststellingwerf,Friesland,VBO,6.254492,53.018830
Herenweg,135,,,8435WS,Donkerbroek,Ooststellingwerf,Friesland,VBO,6.255079,53.018734
Herenweg,137,,,8435WS,Donkerbroek,Ooststellingwerf,Friesland,VBO,6.256424,53.019192
Herenweg,139,,,8435WS,Donkerbroek,Ooststellingwerf,Friesland,VBO,6.258623,53.019942
Herenweg,2,,TR01,8435WT,Donkerbroek,Ooststellingwerf,Friesland,VBO,6.234810,53.017343
Herenweg,2,,,8435WT,Donkerbroek,Ooststellingwerf,Friesland,VBO,6.235016,53.017415
Herenweg,4,,,8435WT,Donkerbroek,Ooststellingwerf,Friesland,VBO,6.235240,53.017459
Herenweg,6,,,8435WT,Donkerbroek,Ooststellingwerf,Friesland,VBO,6.235567,53.017520
Herenweg,8,,,8435WT,Donkerbroek,Ooststellingwerf,Friesland,VBO,6.235847,53.017506
Herenweg,10,,,8435WT,Donkerbroek,Ooststellingwerf,Friesland,VBO,6.236075,53.017588
Herenweg,12,,,8435WT,Donkerbroek,Ooststellingwerf,Friesland,VBO,6.236306,53.017606
Herenweg,14,,,8435WT,Donkerbroek,Ooststellingwerf,Friesland,VBO,6.236560,53.017665
Herenweg,16,,,8435WT,Donkerbroek,Ooststellingwerf,Friesland,VBO,6.236899,53.017709
Herenweg,20,,,8435WT,Donkerbroek,Ooststellingwerf,Friesland,VBO,6.237356,53.017780
Herenweg,22,,,8435WT,Donkerbroek,Ooststellingwerf,Friesland,VBO,6.237461,53.017796
Herenweg,24,,,8435WT,Donkerbroek,Ooststellingwerf,Friesland,VBO,6.237618,53.017818
Herenweg,26,,,8435WT,Donkerbroek,Ooststellingwerf,Friesland,VBO,6.237842,53.017855
Herenweg,28,,,8435WT,Donkerbroek,Ooststellingwerf,Friesland,VBO,6.238112,53.017889
Herenweg,30,,,8435WT,Donkerbroek,Ooststellingwerf,Friesland,VBO,6.238623,53.017934
Herenweg,32,,,8435WT,Donkerbroek,Ooststellingwerf,Friesland,VBO,6.238823,53.018006
Herenweg,34,,,8435WT,Donkerbroek,Ooststellingwerf,Friesland,VBO,6.239026,53.018037
Herenweg,36,,,8435WT,Donkerbroek,Ooststellingwerf,Friesland,VBO,6.239270,53.017985
Herenweg,40,,,8435WT,Donkerbroek,Ooststellingwerf,Friesland,VBO,6.239661,53.018109
Herenweg,42,,,8435WV,Donkerbroek,Ooststellingwerf,Friesland,VBO,6.239851,53.018156
Herenweg,44,,,8435WV,Donkerbroek,Ooststellingwerf,Friesland,VBO,6.240003,53.018178
Herenweg,46,,,8435WV,Donkerbroek,Ooststellingwerf,Friesland,VBO,6.240396,53.018165
Herenweg,48,,,8435WV,Donkerbroek,Ooststellingwerf,Friesland,VBO,6.240671,53.018252
Herenweg,50,,,8435WV,Donkerbroek,Ooststellingwerf,Friesland,VBO,6.240837,53.018271
Herenweg,52,,,8435WV,Donkerbroek,Ooststellingwerf,Friesland,VBO,6.241001,53.018285
Herenweg,54,,,8435WV,Donkerbroek,Ooststellingwerf,Friesland,VBO,6.241233,53.018314
Herenweg,56,,,8435WV,Donkerbroek,Ooststellingwerf,Friesland,VBO,6.241702,53.018311
Herenweg,60,A,,8435WV,Donkerbroek,Ooststellingwerf,Friesland,VBO,6.242210,53.018355
Herenweg,60,B,,8435WV,Donkerbroek,Ooststellingwerf,Friesland,VBO,6.242080,53.018250
Herenweg,60,,,8435WV,Donkerbroek,Ooststellingwerf,Friesland,VBO,6.242231,53.018398
Herenweg,62,,,8435WV,Donkerbroek,Ooststellingwerf,Friesland,VBO,6.242510,53.018401
Herenweg,64,,,8435WV,Donkerbroek,Ooststellingwerf,Friesland,VBO,6.242693,53.018402
Herenweg,66,,,8435WV,Donkerbroek,Ooststellingwerf,Friesland,VBO,6.242936,53.018396
Herenweg,70,A,,8435WV,Donkerbroek,Ooststellingwerf,Friesland,VBO,6.243235,53.017713
Herenweg,70,,,8435WV,Donkerbroek,Ooststellingwerf,Friesland,VBO,6.243324,53.017358
Herenweg,72,A,,8435WV,Donkerbroek,Ooststellingwerf,Friesland,VBO,6.243999,53.017888
Herenweg,72,,,8435WV,Donkerbroek,Ooststellingwerf,Friesland,VBO,6.243989,53.018358
Herenweg,74,,,8435WX,Donkerbroek,Ooststellingwerf,Friesland,VBO,6.244256,53.018384
Herenweg,76,,,8435WX,Donkerbroek,Ooststellingwerf,Friesland,VBO,6.244395,53.018362
Herenweg,78,,,8435WX,Donkerbroek,Ooststellingwerf,Friesland,VBO,6.244496,53.018357
Herenweg,80,,,8435WX,Donkerbroek,Ooststellingwerf,Friesland,VBO,6.244636,53.018351
Herenweg,82,,,8435WX,Donkerbroek,Ooststellingwerf,Friesland,VBO,6.244727,53.018347
Herenweg,84,,,8435WX,Donkerbroek,Ooststellingwerf,Friesland,VBO,6.244921,53.018354
Herenweg,86,,,8435WX,Donkerbroek,Ooststellingwerf,Friesland,VBO,6.245179,53.018329
Herenweg,88,,,8435WX,Donkerbroek,Ooststellingwerf,Friesland,VBO,6.245584,53.018351
Herenweg,90,,,8435WX,Donkerbroek,Ooststellingwerf,Friesland,VBO,6.245812,53.018357
Herenweg,94,,,8435WX,Donkerbroek,Ooststellingwerf,Friesland,VBO,6.246804,53.018205
Herenweg,98,,,8435WX,Donkerbroek,Ooststellingwerf,Friesland,VBO,6.247322,53.018387
Herenweg,100,,,8435WX,Donkerbroek,Ooststellingwerf,Friesland,VBO,6.247565,53.018442
Herenweg,102,,,8435WX,Donkerbroek,Ooststellingwerf,Friesland,VBO,6.247682,53.018438
Herenweg,106,,,8435WX,Donkerbroek,Ooststellingwerf,Friesland,VBO,6.247909,53.018388
Herenweg,108,,,8435WX,Donkerbroek,Ooststellingwerf,Friesland,VBO,6.248518,53.018005
Herenweg,110,,,8435WX,Donkerbroek,Ooststellingwerf,Friesland,VBO,6.248675,53.018477
Herenweg,112,,,8435WZ,Donkerbroek,Ooststellingwerf,Friesland,VBO,6.248905,53.018480
Herenweg,114,,,8435WZ,Donkerbroek,Ooststellingwerf,Friesland,VBO,6.249189,53.018496
Herenweg,118,,,8435WZ,Donkerbroek,Ooststellingwerf,Friesland,VBO,6.250093,53.018406
Herenweg,120,,,8435WZ,Donkerbroek,Ooststellingwerf,Friesland,VBO,6.250782,53.018416
Herenweg,122,,,8435WZ,Donkerbroek,Ooststellingwerf,Friesland,VBO,6.251159,53.018369
Herenweg,124,,,8435WZ,Donkerbroek,Ooststellingwerf,Friesland,VBO,6.252645,53.018481
Herenweg,126,,,8435WZ,Donkerbroek,Ooststellingwerf,Friesland,VBO,6.253606,53.016235
Herenweg,128,,,8435WZ,Donkerbroek,Ooststellingwerf,Friesland,VBO,6.253271,53.017846
Herenweg,130,,,8435WZ,Donkerbroek,Ooststellingwerf,Friesland,VBO,6.253696,53.018372
Herenweg,132,A,,8435WZ,Donkerbroek,Ooststellingwerf,Friesland,VBO,6.255019,53.018433
Herenweg,132,,,8435WZ,Donkerbroek,Ooststellingwerf,Friesland,VBO,6.254114,53.018468
Herenweg,134,,,8435WZ,Donkerbroek,Ooststellingwerf,Friesland,VBO,6.255859,53.018626
Herenweg,136,,,8435WZ,Donkerbroek,Ooststellingwerf,Friesland,VBO,6.256122,53.018725
Herenweg,138,,,8435WZ,Donkerbroek,Ooststellingwerf,Friesland,VBO,6.258901,53.019506
Herenweg,140,,,8435WZ,Donkerbroek,Ooststellingwerf,Friesland,VBO,6.259656,53.019467
Herenweg,142,,,8435WZ,Donkerbroek,Ooststellingwerf,Friesland,VBO,6.260318,53.019701
Herenweg,144,,,8435WZ,Donkerbroek,Ooststellingwerf,Friesland,VBO,6.260468,53.020166
Kloosterweg,1,,,8435WZ,Donkerbroek,Ooststellingwerf,Friesland,VBO,6.263077,53.019795
Kloosterweg,2,,,8435WZ,Donkerbroek,Ooststellingwerf,Friesland,VBO,6.262065,53.015452
Kloosterweg,3,,,8435WZ,Donkerbroek,Ooststellingwerf,Friesland,VBO,6.263353,53.018239
Wemerstraat,1,,,8435XA,Donkerbroek,Ooststellingwerf,Friesland,VBO,6.238621,53.017628
Wemerstraat,3,,,8435XA,Donkerbroek,Ooststellingwerf,Friesland,VBO,6.238611,53.017490
Wemerstraat,7,B,,8435XA,Donkerbroek,Ooststellingwerf,Friesland,VBO,6.238556,53.016835
Wemerstraat,11,,,8435XA,Donkerbroek,Ooststellingwerf,Friesland,VBO,6.238541,53.016661
Wemerstraat,13,,,8435XA,Donkerbroek,Ooststellingwerf,Friesland,VBO,6.238528,53.016535
Wemerstraat,15,,,8435XA,Donkerbroek,Ooststellingwerf,Friesland,VBO,6.238518,53.016406
Wemerstraat,17,,,8435XA,Donkerbroek,Ooststellingwerf,Friesland,VBO,6.238508,53.016276
Wemerstraat,19,,,8435XA,Donkerbroek,Ooststellingwerf,Friesland,VBO,6.238498,53.016149
Wemerstraat,21,,,8435XA,Donkerbroek,Ooststellingwerf,Friesland,VBO,6.238497,53.016070
Wemerstraat,23,,,8435XA,Donkerbroek,Ooststellingwerf,Friesland,VBO,6.238484,53.015953
Wemerstraat,25,,,8435XA,Donkerbroek,Ooststellingwerf,Friesland,VBO,6.238470,53.015837
Wemerstraat,2,,,8435XB,Donkerbroek,Ooststellingwerf,Friesland,VBO,6.238167,53.017446
Wemerstraat,4,,,8435XB,Donkerbroek,Ooststellingwerf,Friesland,VBO,6.238143,53.017343
Wemerstraat,8,,,8435XB,Donkerbroek,Ooststellingwerf,Friesland,VBO,6.238091,53.016697
Wemerstraat,10,,,8435XB,Donkerbroek,Ooststellingwerf,Friesland,VBO,6.238089,53.016636
Wemerstraat,12,,,8435XB,Donkerbroek,Ooststellingwerf,Friesland,VBO,6.238084,53.016568
Wemerstraat,14,,,8435XB,Donkerbroek,Ooststellingwerf,Friesland,VBO,6.238071,53.016430
Wemerstraat,16,,,8435XB,Donkerbroek,Ooststellingwerf,Friesland,VBO,6.238066,53.016370
Wemerstraat,18,,,8435XB,Donkerbroek,Ooststellingwerf,Friesland,VBO,6.238068,53.016303
Wemerstraat,22,,,8435XB,Donkerbroek,Ooststellingwerf,Friesland,VBO,6.238023,53.016154
Wemerstraat,24,,,8435XB,Donkerbroek,Ooststellingwerf,Friesland,VBO,6.238041,53.016040
Wemerstraat,26,,,8435XB,Donkerbroek,Ooststellingwerf,Friesland,VBO,6.238040,53.015974
Wemerstraat,28,,,8435XB,Donkerbroek,Ooststellingwerf,Friesland,VBO,6.238026,53.015842
Wemerstraat,30,,,8435XB,Donkerbroek,Ooststellingwerf,Friesland,VBO,6.238029,53.015778
Wemerstraat,32,,,8435XB,Donkerbroek,Ooststellingwerf,Friesland,VBO,6.238015,53.015638
Wemerstraat,34,,,8435XB,Donkerbroek,Ooststellingwerf,Friesland,VBO,6.238017,53.015579
Vicariestraat,1,,,8435XC,Donkerbroek,Ooststellingwerf,Friesland,VBO,6.235654,53.016902
Vicariestraat,3,,,8435XC,Donkerbroek,Ooststellingwerf,Friesland,VBO,6.236087,53.017074
Vicariestraat,5,,,8435XC,Donkerbroek,Ooststellingwerf,Friesland,VBO,6.236179,53.017093
Vicariestraat,7,,,8435XC,Donkerbroek,Ooststellingwerf,Friesland,VBO,6.236272,53.017112
Vicariestraat,9,,,8435XC,Donkerbroek,Ooststellingwerf,Friesland,VBO,6.236365,53.017131
Vicariestraat,11,,,8435XC,Donkerbroek,Ooststellingwerf,Friesland,VBO,6.236615,53.017182
Vicariestraat,13,,,8435XC,Donkerbroek,Ooststellingwerf,Friesland,VBO,6.236708,53.017201
Vicariestraat,15,,,8435XC,Donkerbroek,Ooststellingwerf,Friesland,VBO,6.236797,53.017219
Vicariestraat,17,,,8435XC,Donkerbroek,Ooststellingwerf,Friesland,VBO,6.236897,53.017240
Vicariestraat,19,,,8435XC,Donkerbroek,Ooststellingwerf,Friesland,VBO,6.237156,53.017221
Vicariestraat,21,,,8435XC,Donkerbroek,Ooststellingwerf,Friesland,VBO,6.237370,53.017265
Vicariestraat,23,A,,8435XC,Donkerbroek,Ooststellingwerf,Friesland,VBO,6.237779,53.017335
Vicariestraat,23,,,8435XC,Donkerbroek,Ooststellingwerf,Friesland,VBO,6.237566,53.017304
Vicariestraat,25,,,8435XD,Donkerbroek,Ooststellingwerf,Friesland,VBO,6.238609,53.017290
Vicariestraat,27,,,8435XD,Donkerbroek,Ooststellingwerf,Friesland,VBO,6.238725,53.017278
Vicariestraat,29,,,8435XD,Donkerbroek,Ooststellingwerf,Friesland,VBO,6.238994,53.017279
Vicariestraat,31,,,8435XD,Donkerbroek,Ooststellingwerf,Friesland,VBO,6.239067,53.017283
Vicariestraat,33,,,8435XD,Donkerbroek,Ooststellingwerf,Friesland,VBO,6.239263,53.017293
Vicariestraat,35,,,8435XD,Donkerbroek,Ooststellingwerf,Friesland,VBO,6.239660,53.017333
Vicariestraat,37,,,8435XD,Donkerbroek,Ooststellingwerf,Friesland,VBO,6.239659,53.017407
Vicariestraat,39,,,8435XD,Donkerbroek,Ooststellingwerf,Friesland,VBO,6.239663,53.017472
Vicariestraat,41,,,8435XD,Donkerbroek,Ooststellingwerf,Friesland,VBO,6.239831,53.017528
Vicariestraat,43,,,8435XD,Donkerbroek,Ooststellingwerf,Friesland,VBO,6.239957,53.017523
Vicariestraat,45,,,8435XD,Donkerbroek,Ooststellingwerf,Friesland,VBO,6.240187,53.017493
Vicariestraat,47,,,8435XD,Donkerbroek,Ooststellingwerf,Friesland,VBO,6.240183,53.017433
Vicariestraat,49,,,8435XD,Donkerbroek,Ooststellingwerf,Friesland,VBO,6.240178,53.017330
Vicariestraat,51,,,8435XD,Donkerbroek,Ooststellingwerf,Friesland,VBO,6.240133,53.017271
Vicariestraat,53,,TR01,8435XD,Donkerbroek,Ooststellingwerf,Friesland,VBO,6.239884,53.016997
Vicariestraat,53,,,8435XD,Donkerbroek,Ooststellingwerf,Friesland,VBO,6.240085,53.017212
Vicariestraat,55,,,8435XD,Donkerbroek,Ooststellingwerf,Friesland,VBO,6.240766,53.016838
Vicariestraat,57,,,8435XD,Donkerbroek,Ooststellingwerf,Friesland,VBO,6.241101,53.016788
Vicariestraat,2,,,8435XE,Donkerbroek,Ooststellingwerf,Friesland,VBO,6.236086,53.016741
Vicariestraat,4,,,8435XE,Donkerbroek,Ooststellingwerf,Friesland,VBO,6.236185,53.016761
Vicariestraat,6,,,8435XE,Donkerbroek,Ooststellingwerf,Friesland,VBO,6.236286,53.016782
Vicariestraat,8,,,8435XE,Donkerbroek,Ooststellingwerf,Friesland,VBO,6.236361,53.016801
Vicariestraat,12,,,8435XE,Donkerbroek,Ooststellingwerf,Friesland,VBO,6.237349,53.016997
Vicariestraat,14,,,8435XE,Donkerbroek,Ooststellingwerf,Friesland,VBO,6.237563,53.017039
Vicariestraat,16,,,8435XE,Donkerbroek,Ooststellingwerf,Friesland,VBO,6.237830,53.017088
Vicariestraat,18,,,8435XE,Donkerbroek,Ooststellingwerf,Friesland,VBO,6.238071,53.017083
Vicariestraat,20,,,8435XE,Donkerbroek,Ooststellingwerf,Friesland,VBO,6.238625,53.016982
Vicariestraat,22,,,8435XE,Donkerbroek,Ooststellingwerf,Friesland,VBO,6.238738,53.017008
Vicariestraat,24,,,8435XE,Donkerbroek,Ooststellingwerf,Friesland,VBO,6.239071,53.017037
Vicariestraat,26,,,8435XE,Donkerbroek,Ooststellingwerf,Friesland,VBO,6.239186,53.017042
Vicariestraat,28,,,8435XE,Donkerbroek,Ooststellingwerf,Friesland,VBO,6.240262,53.016751
Vicariestraat,30,,,8435XE,Donkerbroek,Ooststellingwerf,Friesland,VBO,6.240707,53.016540
Vicariestraat,32,,,8435XE,Donkerbroek,Ooststellingwerf,Friesland,VBO,6.241039,53.016557
Wilpkamp,1,,,8435XG,Donkerbroek,Ooststellingwerf,Friesland,VBO,6.236872,53.016894
Wilpkamp,3,,,8435XG,Donkerbroek,Ooststellingwerf,Friesland,VBO,6.236887,53.016856
Wilpkamp,5,,,8435XG,Donkerbroek,Ooststellingwerf,Friesland,VBO,6.236908,53.016806
Wilpkamp,7,,,8435XG,Donkerbroek,Ooststellingwerf,Friesland,VBO,6.236930,53.016763
Wilpkamp,9,,,8435XG,Donkerbroek,Ooststellingwerf,Friesland,VBO,6.236968,53.016637
Wilpkamp,11,,,8435XG,Donkerbroek,Ooststellingwerf,Friesland,VBO,6.236981,53.016607
Wilpkamp,13,,,8435XG,Donkerbroek,Ooststellingwerf,Friesland,VBO,6.237008,53.016567
Wilpkamp,15,,,8435XG,Donkerbroek,Ooststellingwerf,Friesland,VBO,6.237026,53.016524
Wilpkamp,17,,,8435XG,Donkerbroek,Ooststellingwerf,Friesland,VBO,6.237047,53.016480
Wilpkamp,19,,,8435XG,Donkerbroek,Ooststellingwerf,Friesland,VBO,6.237069,53.016437
Wilpkamp,21,,,8435XG,Donkerbroek,Ooststellingwerf,Friesland,VBO,6.237146,53.016284
Wilpkamp,23,,,8435XG,Donkerbroek,Ooststellingwerf,Friesland,VBO,6.237188,53.016138
Wilpkamp,25,,,8435XG,Donkerbroek,Ooststellingwerf,Friesland,VBO,6.237200,53.015983
Wilpkamp,27,,,8435XG,Donkerbroek,Ooststellingwerf,Friesland,VBO,6.236813,53.015737
Wilpkamp,2,,,8435XH,Donkerbroek,Ooststellingwerf,Friesland,VBO,6.236526,53.016586
Wilpkamp,4,,,8435XH,Donkerbroek,Ooststellingwerf,Friesland,VBO,6.236554,53.016522
Wilpkamp,6,,,8435XH,Donkerbroek,Ooststellingwerf,Friesland,VBO,6.236614,53.016410
Wilpkamp,8,,,8435XH,Donkerbroek,Ooststellingwerf,Friesland,VBO,6.236631,53.016359
Wilpkamp,10,,,8435XH,Donkerbroek,Ooststellingwerf,Friesland,VBO,6.236666,53.016298
Wilpkamp,12,,,8435XH,Donkerbroek,Ooststellingwerf,Friesland,VBO,6.236698,53.016241
Wilpkamp,14,,,8435XH,Donkerbroek,Ooststellingwerf,Friesland,VBO,6.236714,53.016039
Nijhof,1,,,8435XJ,Donkerbroek,Ooststellingwerf,Friesland,VBO,6.237571,53.015488
Nijhof,2,,,8435XJ,Donkerbroek,Ooststellingwerf,Friesland,VBO,6.237298,53.015007
Nijhof,3,,,8435XJ,Donkerbroek,Ooststellingwerf,Friesland,VBO,6.239614,53.015883
Nijhof,4,,,8435XJ,Donkerbroek,Ooststellingwerf,Friesland,VBO,6.237523,53.015082
Nijhof,6,,,8435XJ,Donkerbroek,Ooststellingwerf,Friesland,VBO,6.237722,53.015155
Nijhof,8,,,8435XJ,Donkerbroek,Ooststellingwerf,Friesland,VBO,6.237817,53.015173
Nijhof,10,,,8435XJ,Donkerbroek,Ooststellingwerf,Friesland,VBO,6.237904,53.015199
Nijhof,12,,,8435XJ,Donkerbroek,Ooststellingwerf,Friesland,VBO,6.238000,53.015223
Nijhof,14,,,8435XJ,Donkerbroek,Ooststellingwerf,Friesland,VBO,6.238187,53.015286
Nijhof,16,,,8435XJ,Donkerbroek,Ooststellingwerf,Friesland,VBO,6.238273,53.015308
Nijhof,18,,,8435XJ,Donkerbroek,Ooststellingwerf,Friesland,VBO,6.238342,53.015330
Nijhof,20,,,8435XJ,Donkerbroek,Ooststellingwerf,Friesland,VBO,6.238433,53.015355
Nijhof,22,,,8435XJ,Donkerbroek,Ooststellingwerf,Friesland,VBO,6.238700,53.015433
Nijhof,24,,,8435XJ,Donkerbroek,Ooststellingwerf,Friesland,VBO,6.238780,53.015449
Nijhof,26,,,8435XJ,Donkerbroek,Ooststellingwerf,Friesland,VBO,6.238866,53.015471
Nijhof,28,,,8435XJ,Donkerbroek,Ooststellingwerf,Friesland,VBO,6.238945,53.015489
Nijhof,30,,,8435XJ,Donkerbroek,Ooststellingwerf,Friesland,VBO,6.239200,53.015643
Nijhof,32,,,8435XJ,Donkerbroek,Ooststellingwerf,Friesland,VBO,6.239471,53.015654
Nijhof,34,,,8435XJ,Donkerbroek,Ooststellingwerf,Friesland,VBO,6.239710,53.015659
Nijhof,36,,,8435XJ,Donkerbroek,Ooststellingwerf,Friesland,VBO,6.240019,53.015663
Nijhof,38,,,8435XJ,Donkerbroek,Ooststellingwerf,Friesland,VBO,6.240106,53.015433
Nijhof,40,,,8435XJ,Donkerbroek,Ooststellingwerf,Friesland,VBO,6.240419,53.015432
Nijhof,42,,,8435XJ,Donkerbroek,Ooststellingwerf,Friesland,VBO,6.240760,53.015429
Nijhof,44,,,8435XJ,Donkerbroek,Ooststellingwerf,Friesland,VBO,6.240774,53.015588
Nijhof,46,,,8435XJ,Donkerbroek,Ooststellingwerf,Friesland,VBO,6.240789,53.015806
Nijhof,48,,,8435XJ,Donkerbroek,Ooststellingwerf,Friesland,VBO,6.240817,53.015865
Nijhof,50,A,,8435XJ,Donkerbroek,Ooststellingwerf,Friesland,VBO,6.240935,53.016108
Nijhof,50,B,,8435XJ,Donkerbroek,Ooststellingwerf,Friesland,VBO,6.240850,53.016222
Nijhof,50,,,8435XJ,Donkerbroek,Ooststellingwerf,Friesland,VBO,6.240830,53.015989
Nijhof,52,,,8435XJ,Donkerbroek,Ooststellingwerf,Friesland,VBO,6.240608,53.016323
van Zandenstraat,1,,,8435XK,Donkerbroek,Ooststellingwerf,Friesland,VBO,6.239530,53.017046
van Zandenstraat,3,,,8435XK,Donkerbroek,Ooststellingwerf,Friesland,VBO,6.239550,53.016966
van Zandenstraat,5,,,8435XK,Donkerbroek,Ooststellingwerf,Friesland,VBO,6.239652,53.016792
van Zandenstraat,7,,,8435XK,Donkerbroek,Ooststellingwerf,Friesland,VBO,6.239787,53.016784
van Zandenstraat,9,,,8435XK,Donkerbroek,Ooststellingwerf,Friesland,VBO,6.239907,53.016775
van Zandenstraat,11,,,8435XK,Donkerbroek,Ooststellingwerf,Friesland,VBO,6.239815,53.016554
van Zandenstraat,13,,,8435XK,Donkerbroek,Ooststellingwerf,Friesland,VBO,6.239724,53.016557
van Zandenstraat,15,,,8435XK,Donkerbroek,Ooststellingwerf,Friesland,VBO,6.239622,53.016562
van Zandenstraat,17,,,8435XK,Donkerbroek,Ooststellingwerf,Friesland,VBO,6.239524,53.016565
van Zandenstraat,19,,,8435XK,Donkerbroek,Ooststellingwerf,Friesland,VBO,6.239574,53.016309
van Zandenstraat,21,,,8435XK,Donkerbroek,Ooststellingwerf,Friesland,VBO,6.239584,53.016116
van Zandenstraat,2,,,8435XL,Donkerbroek,Ooststellingwerf,Friesland,VBO,6.239214,53.016783
van Zandenstraat,4,,,8435XL,Donkerbroek,Ooststellingwerf,Friesland,VBO,6.239210,53.016735
van Zandenstraat,6,,,8435XL,Donkerbroek,Ooststellingwerf,Friesland,VBO,6.239201,53.016677
van Zandenstraat,8,,B001,8435XL,Donkerbroek,Ooststellingwerf,Friesland,VBO,6.239172,53.016509
van Zandenstraat,8,,B002,8435XL,Donkerbroek,Ooststellingwerf,Friesland,VBO,6.239130,53.016510
van Zandenstraat,8,,B003,8435XL,Donkerbroek,Ooststellingwerf,Friesland,VBO,6.239086,53.016511
van Zandenstraat,8,,B004,8435XL,Donkerbroek,Ooststellingwerf,Friesland,VBO,6.239043,53.016512
van Zandenstraat,8,,B005,8435XL,Donkerbroek,Ooststellingwerf,Friesland,VBO,6.238997,53.016514
van Zandenstraat,8,,B006,8435XL,Donkerbroek,Ooststellingwerf,Friesland,VBO,6.238956,53.016515
van Zandenstraat,8,,,8435XL,Donkerbroek,Ooststellingwerf,Friesland,VBO,6.239204,53.016621
van Zandenstraat,10,,,8435XL,Donkerbroek,Ooststellingwerf,Friesland,VBO,6.239233,53.016282
van Zandenstraat,12,,,8435XL,Donkerbroek,Ooststellingwerf,Friesland,VBO,6.239043,53.016221
van Zandenstraat,14,,,8435XL,Donkerbroek,Ooststellingwerf,Friesland,VBO,6.239132,53.015978
van Zandenstraat,16,,,8435XL,Donkerbroek,Ooststellingwerf,Friesland,VBO,6.239135,53.015908
Buursterlaan,5,,,8435XM,Donkerbroek,Ooststellingwerf,Friesland,VBO,6.241572,53.017818
Buursterlaan,7,,,8435XM,Donkerbroek,Ooststellingwerf,Friesland,VBO,6.241686,53.017812
Buursterlaan,9,,,8435XM,Donkerbroek,Ooststellingwerf,Friesland,VBO,6.241868,53.017752
Buursterlaan,11,,,8435XM,Donkerbroek,Ooststellingwerf,Friesland,VBO,6.241966,53.017753
Buursterlaan,13,,,8435XM,Donkerbroek,Ooststellingwerf,Friesland,VBO,6.242078,53.017748
Buursterlaan,15,,,8435XM,Donkerbroek,Ooststellingwerf,Friesland,VBO,6.242080,53.017271
Buursterlaan,17,,,8435XM,Donkerbroek,Ooststellingwerf,Friesland,VBO,6.241943,53.017278
Buursterlaan,19,,,8435XM,Donkerbroek,Ooststellingwerf,Friesland,VBO,6.241884,53.017074
Buursterlaan,21,,,8435XM,Donkerbroek,Ooststellingwerf,Friesland,VBO,6.241887,53.017011
Buursterlaan,23,,,8435XM,Donkerbroek,Ooststellingwerf,Friesland,VBO,6.241863,53.016933
Buursterlaan,25,,,8435XM,Donkerbroek,Ooststellingwerf,Friesland,VBO,6.241849,53.016793
Buursterlaan,27,,,8435XM,Donkerbroek,Ooststellingwerf,Friesland,VBO,6.241774,53.016736
Buursterlaan,29,,,8435XM,Donkerbroek,Ooststellingwerf,Friesland,VBO,6.241545,53.016576
Buursterlaan,31,,,8435XM,Donkerbroek,Ooststellingwerf,Friesland,VBO,6.241547,53.016505
Buursterlaan,33,,,8435XM,Donkerbroek,Ooststellingwerf,Friesland,VBO,6.241564,53.016391
Buursterlaan,35,,,8435XM,Donkerbroek,Ooststellingwerf,Friesland,VBO,6.241558,53.016319
Buursterlaan,37,,,8435XM,Donkerbroek,Ooststellingwerf,Friesland,VBO,6.241587,53.016091
Buursterlaan,39,,,8435XM,Donkerbroek,Ooststellingwerf,Friesland,VBO,6.241688,53.016088
Buursterlaan,41,,,8435XM,Donkerbroek,Ooststellingwerf,Friesland,VBO,6.241881,53.016057
Buursterlaan,43,,,8435XM,Donkerbroek,Ooststellingwerf,Friesland,VBO,6.241980,53.016058
Buursterlaan,45,,,8435XM,Donkerbroek,Ooststellingwerf,Friesland,VBO,6.242347,53.015890
Buursterlaan,47,,,8435XM,Donkerbroek,Ooststellingwerf,Friesland,VBO,6.242337,53.015826
Buursterlaan,49,,,8435XM,Donkerbroek,Ooststellingwerf,Friesland,VBO,6.242369,53.015605
Buursterlaan,53,,,8435XM,Donkerbroek,Ooststellingwerf,Friesland,VBO,6.242397,53.015367
Buursterlaan,55,,,8435XM,Donkerbroek,Ooststellingwerf,Friesland,VBO,6.242390,53.015226
Buursterlaan,57,,,8435XM,Donkerbroek,Ooststellingwerf,Friesland,VBO,6.242274,53.015027
Buursterlaan,2,,,8435XN,Donkerbroek,Ooststellingwerf,Friesland,VBO,6.241252,53.018019
Buursterlaan,4,,,8435XN,Donkerbroek,Ooststellingwerf,Friesland,VBO,6.241251,53.017961
Buursterlaan,6,,,8435XN,Donkerbroek,Ooststellingwerf,Friesland,VBO,6.241183,53.017902
Buursterlaan,8,,,8435XN,Donkerbroek,Ooststellingwerf,Friesland,VBO,6.241212,53.017845
Buursterlaan,10,,,8435XN,Donkerbroek,Ooststellingwerf,Friesland,VBO,6.241576,53.017403
Buursterlaan,12,,,8435XN,Donkerbroek,Ooststellingwerf,Friesland,VBO,6.241577,53.017334
Buursterlaan,14,,,8435XN,Donkerbroek,Ooststellingwerf,Friesland,VBO,6.241588,53.017196
Buursterlaan,16,,,8435XN,Donkerbroek,Ooststellingwerf,Friesland,VBO,6.241583,53.017132
Buursterlaan,18,,,8435XN,Donkerbroek,Ooststellingwerf,Friesland,VBO,6.241539,53.016992
Buursterlaan,20,,,8435XN,Donkerbroek,Ooststellingwerf,Friesland,VBO,6.241542,53.016925
Buursterlaan,22,,,8435XN,Donkerbroek,Ooststellingwerf,Friesland,VBO,6.241416,53.015876
Buursterlaan,24,,,8435XN,Donkerbroek,Ooststellingwerf,Friesland,VBO,6.241493,53.015826
Buursterlaan,26,,,8435XN,Donkerbroek,Ooststellingwerf,Friesland,VBO,6.241547,53.015762
Buursterlaan,28,,,8435XN,Donkerbroek,Ooststellingwerf,Friesland,VBO,6.241605,53.015726
Buursterlaan,30,,,8435XN,Donkerbroek,Ooststellingwerf,Friesland,VBO,6.241692,53.015675
Buursterlaan,32,,,8435XN,Donkerbroek,Ooststellingwerf,Friesland,VBO,6.241949,53.015519
Buursterlaan,36,,,8435XN,Donkerbroek,Ooststellingwerf,Friesland,VBO,6.241459,53.015464
Buursterlaan,38,,,8435XN,Donkerbroek,Ooststellingwerf,Friesland,VBO,6.241397,53.015235
Buursterlaan,40,,,8435XN,Donkerbroek,Ooststellingwerf,Friesland,VBO,6.241515,53.015054
Buursterlaan,42,,,8435XN,Donkerbroek,Ooststellingwerf,Friesland,VBO,6.241835,53.015056
Oude Hof,1,,,8435XP,Donkerbroek,Ooststellingwerf,Friesland,VBO,6.241259,53.017558
Oude Hof,3,,,8435XP,Donkerbroek,Ooststellingwerf,Friesland,VBO,6.241156,53.017558
Oude Hof,5,,,8435XP,Donkerbroek,Ooststellingwerf,Friesland,VBO,6.241066,53.017578
Oude Hof,7,,,8435XP,Donkerbroek,Ooststellingwerf,Friesland,VBO,6.240968,53.017577
Oude Hof,9,,,8435XP,Donkerbroek,Ooststellingwerf,Friesland,VBO,6.241022,53.017302
Oude Hof,11,,,8435XP,Donkerbroek,Ooststellingwerf,Friesland,VBO,6.241010,53.017247
Oude Hof,13,,,8435XP,Donkerbroek,Ooststellingwerf,Friesland,VBO,6.240955,53.017102
Oude Hof,2,,,8435XR,Donkerbroek,Ooststellingwerf,Friesland,VBO,6.240888,53.017858
Oude Hof,4,,,8435XR,Donkerbroek,Ooststellingwerf,Friesland,VBO,6.240792,53.017851
Oude Hof,6,,,8435XR,Donkerbroek,Ooststellingwerf,Friesland,VBO,6.240693,53.017837
Oude Hof,8,,B001,8435XR,Donkerbroek,Ooststellingwerf,Friesland,VBO,6.240162,53.017600
Oude Hof,8,,B002,8435XR,Donkerbroek,Ooststellingwerf,Friesland,VBO,6.240159,53.017615
Oude Hof,8,,B003,8435XR,Donkerbroek,Ooststellingwerf,Friesland,VBO,6.240160,53.017634
Oude Hof,8,,B004,8435XR,Donkerbroek,Ooststellingwerf,Friesland,VBO,6.240158,53.017649
Oude Hof,8,,B005,8435XR,Donkerbroek,Ooststellingwerf,Friesland,VBO,6.240157,53.017664
Oude Hof,8,,B006,8435XR,Donkerbroek,Ooststellingwerf,Friesland,VBO,6.240155,53.017682
Oude Hof,8,,,8435XR,Donkerbroek,Ooststellingwerf,Friesland,VBO,6.240637,53.017741
Oude Hof,10,,,8435XR,Donkerbroek,Ooststellingwerf,Friesland,VBO,6.240635,53.017677
Oude Hof,12,,,8435XR,Donkerbroek,Ooststellingwerf,Friesland,VBO,6.240666,53.017626
Oude Hof,14,,,8435XR,Donkerbroek,Ooststellingwerf,Friesland,VBO,6.240667,53.017571
Oude Hof,16,,,8435XR,Donkerbroek,Ooststellingwerf,Friesland,VBO,6.240735,53.017370
Oude Hof,18,,,8435XR,Donkerbroek,Ooststellingwerf,Friesland,VBO,6.240616,53.017145
Oude Hof,20,,,8435XR,Donkerbroek,Ooststellingwerf,Friesland,VBO,6.240395,53.017022
Nijhof,5,,,8435XS,Donkerbroek,Ooststellingwerf,Friesland,VBO,6.240123,53.015838
Nijhof,7,,,8435XS,Donkerbroek,Ooststellingwerf,Friesland,VBO,6.240456,53.015848
Nijhof,9,,,8435XS,Donkerbroek,Ooststellingwerf,Friesland,VBO,6.240492,53.015910
Nijhof,11,,,8435XS,Donkerbroek,Ooststellingwerf,Friesland,VBO,6.240359,53.016062
Nijhof,13,,,8435XS,Donkerbroek,Ooststellingwerf,Friesland,VBO,6.240286,53.016277
Nijhof,15,,,8435XS,Donkerbroek,Ooststellingwerf,Friesland,VBO,6.240305,53.016420
Nijhof,17,,,8435XS,Donkerbroek,Ooststellingwerf,Friesland,VBO,6.240285,53.016473
Nijhof,19,,,8435XS,Donkerbroek,Ooststellingwerf,Friesland,VBO,6.240330,53.016601
De Pegge,2,,,8435XT,Donkerbroek,Ooststellingwerf,Friesland,VBO,6.248650,53.014871
De Pegge,4,,,8435XT,Donkerbroek,Ooststellingwerf,Friesland,VBO,6.247390,53.007149
De Pegge,6,,,8435XT,Donkerbroek,Ooststellingwerf,Friesland,VBO,6.256662,53.008937
De Pegge,8,,TR01,8435XT,Donkerbroek,Ooststellingwerf,Friesland,VBO,6.260444,53.009139
De Pegge,8,,,8435XT,Donkerbroek,Ooststellingwerf,Friesland,VBO,6.259371,53.009053
Schoolstraat,1,,,8435XV,Donkerbroek,Ooststellingwerf,Friesland,VBO,6.243229,53.018248
Schoolstraat,2,,,8435XV,Donkerbroek,Ooststellingwerf,Friesland,VBO,6.242575,53.017866
Schoolstraat,3,,,8435XV,Donkerbroek,Ooststellingwerf,Friesland,VBO,6.243238,53.018197
Schoolstraat,4,,,8435XV,Donkerbroek,Ooststellingwerf,Friesland,VBO,6.242570,53.017349
Schoolstraat,5,,,8435XV,Donkerbroek,Ooststellingwerf,Friesland,VBO,6.243220,53.018070
Schoolstraat,6,,,8435XV,Donkerbroek,Ooststellingwerf,Friesland,VBO,6.242568,53.017285
Schoolstraat,7,,,8435XV,Donkerbroek,Ooststellingwerf,Friesland,VBO,6.243214,53.018020
Schoolstraat,8,,,8435XV,Donkerbroek,Ooststellingwerf,Friesland,VBO,6.242567,53.017223
Schoolstraat,9,,,8435XV,Donkerbroek,Ooststellingwerf,Friesland,VBO,6.243217,53.017889
Schoolstraat,10,,,8435XV,Donkerbroek,Ooststellingwerf,Friesland,VBO,6.242566,53.017159
Schoolstraat,11,,,8435XV,Donkerbroek,Ooststellingwerf,Friesland,VBO,6.243211,53.017839
