openbareruimtenaam,huisnummer,huisletter,huisnummertoevoeging,postcode,woonplaatsnaam,gemeentenaam,provincienaam,typeadresseerbaarobject,longitude,latitude
de Blocq van Scheltingaweg,1,,,8453JB,Oranjewoud,Heerenveen,Friesland,VBO,5.965072,52.950173
de Blocq van Scheltingaweg,2,,,8453JB,Oranjewoud,Heerenveen,Friesland,VBO,5.964865,52.949185
Albertine Agnesweg,2,,,8453JC,Oranjewoud,Heerenveen,Friesland,VBO,5.967261,52.949209
Lindelaan,1,A,,8453JD,Oranjewoud,Heerenveen,Friesland,VBO,5.969333,52.951157
Lindelaan,1,,,8453JD,Oranjewoud,Heerenveen,Friesland,VBO,5.968354,52.950849
Lindelaan,2,,,8453JD,Oranjewoud,Heerenveen,Friesland,VBO,5.968856,52.949444
van Limburg Stirumweg,2,,,8453JE,Oranjewoud,Heerenveen,Friesland,VBO,5.970809,52.950491
van Limburg Stirumweg,4,,,8453JE,Oranjewoud,Heerenveen,Friesland,VBO,5.969057,52.953370
van Limburg Stirumweg,8,,,8453JE,Oranjewoud,Heerenveen,Friesland,VBO,5.969255,52.953675
Marijkemuoi-wei,1,,,8453JG,Oranjewoud,Heerenveen,Friesland,VBO,5.975484,52.952189
Marijkemuoi-wei,3,,,8453JG,Oranjewoud,Heerenveen,Friesland,VBO,5.975990,52.952222
Marijkemuoi-wei,5,A,,8453JG,Oranjewoud,Heerenveen,Friesland,VBO,5.976542,52.952318
Marijkemuoi-wei,5,,,8453JG,Oranjewoud,Heerenveen,Friesland,VBO,5.976274,52.952266
Marijkemuoi-wei,7,,,8453JG,Oranjewoud,Heerenveen,Friesland,VBO,5.977020,52.952415
Marijkemuoi-wei,9,,,8453JG,Oranjewoud,Heerenveen,Friesland,VBO,5.977169,52.952477
Marijkemuoi-wei,11,,,8453JG,Oranjewoud,Heerenveen,Friesland,VBO,5.977606,52.952825
Marijkemuoi-wei,13,A,,8453JG,Oranjewoud,Heerenveen,Friesland,VBO,5.978526,52.952650
Marijkemuoi-wei,13,,,8453JG,Oranjewoud,Heerenveen,Friesland,VBO,5.978321,52.952939
Marijkemuoi-wei,15,,,8453JG,Oranjewoud,Heerenveen,Friesland,VBO,5.979123,52.952800
Marijkemuoi-wei,21,,,8453JG,Oranjewoud,Heerenveen,Friesland,VBO,5.980812,52.953376
Marijkemuoi-wei,23,,,8453JG,Oranjewoud,Heerenveen,Friesland,VBO,5.982592,52.952980
Marijkemuoi-wei,2,A,,8453JH,Oranjewoud,Heerenveen,Friesland,VBO,5.971632,52.950105
Marijkemuoi-wei,2,,,8453JH,Oranjewoud,Heerenveen,Friesland,VBO,5.971896,52.949970
Marijkemuoi-wei,4,,,8453JH,Oranjewoud,Heerenveen,Friesland,VBO,5.972314,52.951036
Marijkemuoi-wei,6,,,8453JH,Oranjewoud,Heerenveen,Friesland,VBO,5.974792,52.951581
Marijkemuoi-wei,8,,,8453JH,Oranjewoud,Heerenveen,Friesland,VBO,5.975267,52.951516
Marijkemuoi-wei,10,,,8453JH,Oranjewoud,Heerenveen,Friesland,VBO,5.979219,52.952197
Marijkemuoi-wei,12,,,8453JH,Oranjewoud,Heerenveen,Friesland,VBO,5.979473,52.952259
Marijkemuoi-wei,14,,,8453JH,Oranjewoud,Heerenveen,Friesland,VBO,5.979593,52.952339
Marijkemuoi-wei,16,,,8453JH,Oranjewoud,Heerenveen,Friesland,VBO,5.979876,52.952347
Marijkemuoi-wei,18,,,8453JH,Oranjewoud,Heerenveen,Friesland,VBO,5.980396,52.952308
Marijkemuoi-wei,20,,,8453JH,Oranjewoud,Heerenveen,Friesland,VBO,5.981162,52.951756
Marijkemuoi-wei,22,,,8453JH,Oranjewoud,Heerenveen,Friesland,VBO,5.982149,52.951005
Bieruma Oostingweg,1,,,8453JJ,Oranjewoud,Heerenveen,Friesland,VBO,5.967824,52.945675
Bieruma Oostingweg,2,,,8453JJ,Oranjewoud,Heerenveen,Friesland,VBO,5.972379,52.945904
Bieruma Oostingweg,4,,,8453JJ,Oranjewoud,Heerenveen,Friesland,VBO,5.983861,52.946728
Bieruma Oostingweg,5,,,8453JJ,Oranjewoud,Heerenveen,Friesland,VBO,5.969403,52.945829
Bieruma Oostingweg,6,,,8453JJ,Oranjewoud,Heerenveen,Friesland,VBO,5.985780,52.946755
Bieruma Oostingweg,9,,,8453JJ,Oranjewoud,Heerenveen,Friesland,VBO,5.973508,52.946851
Bieruma Oostingweg,11,,,8453JJ,Oranjewoud,Heerenveen,Friesland,VBO,5.977267,52.947615
Bieruma Oostingweg,13,,,8453JJ,Oranjewoud,Heerenveen,Friesland,VBO,5.980282,52.947231
Bieruma Oostingweg,15,,,8453JJ,Oranjewoud,Heerenveen,Friesland,VBO,5.981412,52.947136
Bieruma Oostingweg,19,,,8453JJ,Oranjewoud,Heerenveen,Friesland,VBO,5.982839,52.947075
Bieruma Oostingweg,21,,,8453JJ,Oranjewoud,Heerenveen,Friesland,VBO,5.982974,52.947119
Bieruma Oostingweg,23,A,,8453JJ,Oranjewoud,Heerenveen,Friesland,VBO,5.983587,52.947395
Bieruma Oostingweg,23,,,8453JJ,Oranjewoud,Heerenveen,Friesland,VBO,5.983167,52.947145
Bieruma Oostingweg,27,,,8453JJ,Oranjewoud,Heerenveen,Friesland,VBO,5.984882,52.947406
Bieruma Oostingweg,29,,,8453JJ,Oranjewoud,Heerenveen,Friesland,VBO,5.986627,52.947739
Tjaarda's laan,1,,,8453JZ,Oranjewoud,Heerenveen,Friesland,VBO,5.970768,52.938894
Tjaarda's laan,2,,,8453JZ,Oranjewoud,Heerenveen,Friesland,VBO,5.967255,52.943207
Tjaarda's laan,3,,,8453JZ,Oranjewoud,Heerenveen,Friesland,VBO,5.970873,52.939001
Elisabethlaan,1,,,8453VA,Oranjewoud,Heerenveen,Friesland,VBO,5.947784,52.947972
Elisabethlaan,2,,,8453VA,Oranjewoud,Heerenveen,Friesland,VBO,5.947534,52.948162
Elisabethlaan,3,,,8453VA,Oranjewoud,Heerenveen,Friesland,VBO,5.947343,52.948361
Elisabethlaan,4,,,8453VA,Oranjewoud,Heerenveen,Friesland,VBO,5.947093,52.948605
Elisabethlaan,5,,,8453VA,Oranjewoud,Heerenveen,Friesland,VBO,5.946917,52.948794
Elisabethlaan,6,A,,8453VA,Oranjewoud,Heerenveen,Friesland,VBO,5.946668,52.949128
Elisabethlaan,6,,,8453VA,Oranjewoud,Heerenveen,Friesland,VBO,5.946741,52.949047
Elisabethlaan,7,,,8453VA,Oranjewoud,Heerenveen,Friesland,VBO,5.946610,52.949272
Henriëtte Amalialaan,1,,,8453VB,Oranjewoud,Heerenveen,Friesland,VBO,5.946259,52.949705
Henriëtte Amalialaan,8,,,8453VB,Oranjewoud,Heerenveen,Friesland,VBO,5.949391,52.950256
Henriëtte Amalialaan,9,,,8453VB,Oranjewoud,Heerenveen,Friesland,VBO,5.949336,52.950661
Henriëtte Amalialaan,10,,,8453VB,Oranjewoud,Heerenveen,Friesland,VBO,5.949615,52.950372
Henriëtte Amalialaan,11,,,8453VB,Oranjewoud,Heerenveen,Friesland,VBO,5.949889,52.950820
Henriëtte Amalialaan,12,,,8453VB,Oranjewoud,Heerenveen,Friesland,VBO,5.950034,52.950532
Henriëtte Amalialaan,14,,,8453VB,Oranjewoud,Heerenveen,Friesland,VBO,5.950362,52.950620
Sophia Hedwiglaan,3,,,8453VC,Oranjewoud,Heerenveen,Friesland,VBO,5.946454,52.950971
Sophia Hedwiglaan,4,,,8453VC,Oranjewoud,Heerenveen,Friesland,VBO,5.946065,52.950847
Sophia Hedwiglaan,5,,,8453VC,Oranjewoud,Heerenveen,Friesland,VBO,5.946615,52.950818
Sophia Hedwiglaan,6,,,8453VC,Oranjewoud,Heerenveen,Friesland,VBO,5.946242,52.950694
Sophia Hedwiglaan,7,,,8453VC,Oranjewoud,Heerenveen,Friesland,VBO,5.946762,52.950682
Sophia Hedwiglaan,8,,,8453VC,Oranjewoud,Heerenveen,Friesland,VBO,5.946389,52.950540
Sophia Hedwiglaan,9,,,8453VC,Oranjewoud,Heerenveen,Friesland,VBO,5.946865,52.950547
Sophia Hedwiglaan,10,,,8453VC,Oranjewoud,Heerenveen,Friesland,VBO,5.946565,52.950378
Sophia Hedwiglaan,11,,,8453VC,Oranjewoud,Heerenveen,Friesland,VBO,5.947027,52.950429
Sophia Hedwiglaan,12,,,8453VC,Oranjewoud,Heerenveen,Friesland,VBO,5.946683,52.950287
Sophia Hedwiglaan,13,,,8453VC,Oranjewoud,Heerenveen,Friesland,VBO,5.947159,52.950276
Sophia Hedwiglaan,14,,,8453VC,Oranjewoud,Heerenveen,Friesland,VBO,5.946815,52.950116
Sophia Hedwiglaan,15,,,8453VC,Oranjewoud,Heerenveen,Friesland,VBO,5.947320,52.950104
Sophia Hedwiglaan,16,,,8453VC,Oranjewoud,Heerenveen,Friesland,VBO,5.946976,52.949944
Sophia Hedwiglaan,17,,,8453VC,Oranjewoud,Heerenveen,Friesland,VBO,5.947672,52.949707
Sophia Hedwiglaan,18,,,8453VC,Oranjewoud,Heerenveen,Friesland,VBO,5.947328,52.949574
Sophia Hedwiglaan,19,,,8453VC,Oranjewoud,Heerenveen,Friesland,VBO,5.947908,52.949518
Sophia Hedwiglaan,20,,,8453VC,Oranjewoud,Heerenveen,Friesland,VBO,5.947549,52.949366
Sophia Hedwiglaan,21,,,8453VC,Oranjewoud,Heerenveen,Friesland,VBO,5.948159,52.949373
Sophia Hedwiglaan,22,,,8453VC,Oranjewoud,Heerenveen,Friesland,VBO,5.947666,52.949186
Sophia Hedwiglaan,23,,,8453VC,Oranjewoud,Heerenveen,Friesland,VBO,5.948424,52.949129
Sophia Hedwiglaan,24,,,8453VC,Oranjewoud,Heerenveen,Friesland,VBO,5.947886,52.948934
Maria Louiselaan,1,,,8453VD,Oranjewoud,Heerenveen,Friesland,VBO,5.946014,52.951503
Maria Louiselaan,2,,,8453VD,Oranjewoud,Heerenveen,Friesland,VBO,5.945888,52.950983
Maria Louiselaan,4,,,8453VD,Oranjewoud,Heerenveen,Friesland,VBO,5.946304,52.951137
Anna Charlottelaan,3,,,8453VE,Oranjewoud,Heerenveen,Friesland,VBO,5.950072,52.948896
Anna Charlottelaan,5,,,8453VE,Oranjewoud,Heerenveen,Friesland,VBO,5.949729,52.948844
Anna Charlottelaan,7,,,8453VE,Oranjewoud,Heerenveen,Friesland,VBO,5.949358,52.948882
Anna Charlottelaan,9,,,8453VE,Oranjewoud,Heerenveen,Friesland,VBO,5.949196,52.949026
Anna Charlottelaan,11,,,8453VE,Oranjewoud,Heerenveen,Friesland,VBO,5.949064,52.949162
Anna Charlottelaan,13,,,8453VE,Oranjewoud,Heerenveen,Friesland,VBO,5.948917,52.949306
Anna Charlottelaan,15,,,8453VE,Oranjewoud,Heerenveen,Friesland,VBO,5.948785,52.949442
Anna Charlottelaan,17,,,8453VE,Oranjewoud,Heerenveen,Friesland,VBO,5.948638,52.949577
Anna Charlottelaan,19,,,8453VE,Oranjewoud,Heerenveen,Friesland,VBO,5.948536,52.949721
Anna Charlottelaan,21,,,8453VE,Oranjewoud,Heerenveen,Friesland,VBO,5.947771,52.950444
Anna Charlottelaan,23,,,8453VE,Oranjewoud,Heerenveen,Friesland,VBO,5.947639,52.950597
Anna Charlottelaan,25,,,8453VE,Oranjewoud,Heerenveen,Friesland,VBO,5.947478,52.950778
Anna Charlottelaan,27,,,8453VE,Oranjewoud,Heerenveen,Friesland,VBO,5.947346,52.950922
Anna Charlottelaan,29,,,8453VE,Oranjewoud,Heerenveen,Friesland,VBO,5.947140,52.951094
Anna Charlottelaan,31,,,8453VE,Oranjewoud,Heerenveen,Friesland,VBO,5.947008,52.951247
Anna Charlottelaan,33,,,8453VE,Oranjewoud,Heerenveen,Friesland,VBO,5.946568,52.951735
Anna Charlottelaan,35,,,8453VE,Oranjewoud,Heerenveen,Friesland,VBO,5.946377,52.951915
Anna Charlottelaan,37,,,8453VE,Oranjewoud,Heerenveen,Friesland,VBO,5.946244,52.952051
Anna Charlottelaan,39,,,8453VE,Oranjewoud,Heerenveen,Friesland,VBO,5.946053,52.952249
Anna Charlottelaan,41,,,8453VE,Oranjewoud,Heerenveen,Friesland,VBO,5.945877,52.952385
Anna Charlottelaan,4,,,8453VG,Oranjewoud,Heerenveen,Friesland,VBO,5.949733,52.949211
Anna Charlottelaan,6,,,8453VG,Oranjewoud,Heerenveen,Friesland,VBO,5.949557,52.949339
Anna Charlottelaan,8,,,8453VG,Oranjewoud,Heerenveen,Friesland,VBO,5.949426,52.949510
Anna Charlottelaan,10,,,8453VG,Oranjewoud,Heerenveen,Friesland,VBO,5.949353,52.949619
Anna Charlottelaan,12,,,8453VG,Oranjewoud,Heerenveen,Friesland,VBO,5.949146,52.949781
Anna Charlottelaan,14,,,8453VG,Oranjewoud,Heerenveen,Friesland,VBO,5.948984,52.949917
Anna Charlottelaan,16,,,8453VG,Oranjewoud,Heerenveen,Friesland,VBO,5.948295,52.950657
Anna Charlottelaan,18,,,8453VG,Oranjewoud,Heerenveen,Friesland,VBO,5.948118,52.950811
Anna Charlottelaan,20,,,8453VG,Oranjewoud,Heerenveen,Friesland,VBO,5.947986,52.950964
Anna Charlottelaan,22,,,8453VG,Oranjewoud,Heerenveen,Friesland,VBO,5.947795,52.951118
Anna Charlottelaan,24,,,8453VG,Oranjewoud,Heerenveen,Friesland,VBO,5.947663,52.951280
Anna Charlottelaan,26,,,8453VG,Oranjewoud,Heerenveen,Friesland,VBO,5.947501,52.951425
Anna Charlottelaan,28,,,8453VG,Oranjewoud,Heerenveen,Friesland,VBO,5.947016,52.951912
Anna Charlottelaan,30,,,8453VG,Oranjewoud,Heerenveen,Friesland,VBO,5.946930,52.952155
Anna Charlottelaan,32,,,8453VG,Oranjewoud,Heerenveen,Friesland,VBO,5.946708,52.952264
Anna Charlottelaan,34,,,8453VG,Oranjewoud,Heerenveen,Friesland,VBO,5.946532,52.952463
Anna Charlottelaan,36,,,8453VG,Oranjewoud,Heerenveen,Friesland,VBO,5.946445,52.952589
Casimiralaan,1,,,8453VH,Oranjewoud,Heerenveen,Friesland,VBO,5.948553,52.951114
Casimiralaan,2,,,8453VH,Oranjewoud,Heerenveen,Friesland,VBO,5.948936,52.950753
Casimiralaan,3,,,8453VH,Oranjewoud,Heerenveen,Friesland,VBO,5.948526,52.951312
Casimiralaan,4,,,8453VH,Oranjewoud,Heerenveen,Friesland,VBO,5.948998,52.950995
Casimiralaan,5,,,8453VH,Oranjewoud,Heerenveen,Friesland,VBO,5.948394,52.951456
Casimiralaan,7,,,8453VH,Oranjewoud,Heerenveen,Friesland,VBO,5.948262,52.951601
Casimiralaan,9,,,8453VH,Oranjewoud,Heerenveen,Friesland,VBO,5.948145,52.951736
Casimiralaan,11,,,8453VH,Oranjewoud,Heerenveen,Friesland,VBO,5.947807,52.952079
Casimiralaan,13,,,8453VH,Oranjewoud,Heerenveen,Friesland,VBO,5.947690,52.952241
Casimiralaan,14,,,8453VH,Oranjewoud,Heerenveen,Friesland,VBO,5.947834,52.952987
Casimiralaan,15,,,8453VH,Oranjewoud,Heerenveen,Friesland,VBO,5.947514,52.952404
Casimiralaan,17,,,8453VH,Oranjewoud,Heerenveen,Friesland,VBO,5.947411,52.952557
Casimiralaan,19,,,8453VH,Oranjewoud,Heerenveen,Friesland,VBO,5.947280,52.952720
Casimiralaan,21,,,8453VH,Oranjewoud,Heerenveen,Friesland,VBO,5.947059,52.952891
Carolinalaan,3,,,8453VJ,Oranjewoud,Heerenveen,Friesland,VBO,5.949776,52.950129
Carolinalaan,4,,,8453VJ,Oranjewoud,Heerenveen,Friesland,VBO,5.949757,52.949832
Carolinalaan,6,,,8453VJ,Oranjewoud,Heerenveen,Friesland,VBO,5.950023,52.949669
Carolinalaan,7,,,8453VJ,Oranjewoud,Heerenveen,Friesland,VBO,5.950754,52.949837
Carolinalaan,8,,,8453VJ,Oranjewoud,Heerenveen,Friesland,VBO,5.950125,52.949498
Carolinalaan,9,,,8453VJ,Oranjewoud,Heerenveen,Friesland,VBO,5.950915,52.949647
Carolinalaan,10,,,8453VJ,Oranjewoud,Heerenveen,Friesland,VBO,5.950301,52.949363
Carolinalaan,11,,,8453VJ,Oranjewoud,Heerenveen,Friesland,VBO,5.951091,52.949449
Carolinalaan,12,,,8453VJ,Oranjewoud,Heerenveen,Friesland,VBO,5.950565,52.949056
Carolinalaan,13,,,8453VJ,Oranjewoud,Heerenveen,Friesland,VBO,5.951281,52.949196
Carolinalaan,14,,,8453VJ,Oranjewoud,Heerenveen,Friesland,VBO,5.950742,52.948893
Carolinalaan,15,,,8453VJ,Oranjewoud,Heerenveen,Friesland,VBO,5.951561,52.948961
Carolinalaan,16,,,8453VJ,Oranjewoud,Heerenveen,Friesland,VBO,5.950859,52.948749
Cissy van Marxveldtlaan,1,,,8453WB,Oranjewoud,Heerenveen,Friesland,VBO,5.946946,52.947626
Cissy van Marxveldtlaan,3,,,8453WB,Oranjewoud,Heerenveen,Friesland,VBO,5.946859,52.947761
Cissy van Marxveldtlaan,5,,,8453WB,Oranjewoud,Heerenveen,Friesland,VBO,5.946608,52.947915
Cissy van Marxveldtlaan,9,,,8453WB,Oranjewoud,Heerenveen,Friesland,VBO,5.944757,52.952084
Cissy van Marxveldtlaan,11,,,8453WB,Oranjewoud,Heerenveen,Friesland,VBO,5.944714,52.952210
Koningin Julianaweg,33,,,8453WC,Oranjewoud,Heerenveen,Friesland,VBO,5.946432,52.946999
Koningin Julianaweg,35,,,8453WC,Oranjewoud,Heerenveen,Friesland,VBO,5.946612,52.947070
Koningin Julianaweg,37,A,,8453WC,Oranjewoud,Heerenveen,Friesland,VBO,5.946510,52.947373
Koningin Julianaweg,37,,,8453WC,Oranjewoud,Heerenveen,Friesland,VBO,5.946702,52.947115
Koningin Julianaweg,39,,,8453WC,Oranjewoud,Heerenveen,Friesland,VBO,5.946866,52.947150
Koningin Julianaweg,41,,,8453WC,Oranjewoud,Heerenveen,Friesland,VBO,5.947015,52.947203
Koningin Julianaweg,43,,,8453WC,Oranjewoud,Heerenveen,Friesland,VBO,5.947165,52.947247
Koningin Julianaweg,44,,,8453WC,Oranjewoud,Heerenveen,Friesland,VBO,5.947112,52.946619
Koningin Julianaweg,45,,,8453WC,Oranjewoud,Heerenveen,Friesland,VBO,5.947448,52.947318
Koningin Julianaweg,46,,,8453WC,Oranjewoud,Heerenveen,Friesland,VBO,5.947263,52.946780
Koningin Julianaweg,48,,,8453WC,Oranjewoud,Heerenveen,Friesland,VBO,5.947366,52.946869
Koningin Julianaweg,50,,,8453WC,Oranjewoud,Heerenveen,Friesland,VBO,5.947547,52.946913
Koningin Julianaweg,52,,,8453WC,Oranjewoud,Heerenveen,Friesland,VBO,5.947816,52.946993
Koningin Julianaweg,47,,,8453WD,Oranjewoud,Heerenveen,Friesland,VBO,5.947928,52.947567
Koningin Julianaweg,49,,,8453WD,Oranjewoud,Heerenveen,Friesland,VBO,5.948196,52.947620
Koningin Julianaweg,51,,,8453WD,Oranjewoud,Heerenveen,Friesland,VBO,5.948390,52.947655
Koningin Julianaweg,53,,,8453WD,Oranjewoud,Heerenveen,Friesland,VBO,5.948584,52.947744
Koningin Julianaweg,54,A,,8453WD,Oranjewoud,Heerenveen,Friesland,VBO,5.948472,52.947133
Koningin Julianaweg,54,,,8453WD,Oranjewoud,Heerenveen,Friesland,VBO,5.948263,52.947054
Koningin Julianaweg,56,,,8453WD,Oranjewoud,Heerenveen,Friesland,VBO,5.948770,52.947123
Koningin Julianaweg,58,,,8453WD,Oranjewoud,Heerenveen,Friesland,VBO,5.948876,52.947311
Koningin Julianaweg,57,,,8453WE,Oranjewoud,Heerenveen,Friesland,VBO,5.951082,52.946976
Koningin Julianaweg,59,,,8453WE,Oranjewoud,Heerenveen,Friesland,VBO,5.951515,52.946589
Koningin Julianaweg,60,,,8453WE,Oranjewoud,Heerenveen,Friesland,VBO,5.949384,52.947408
Koningin Julianaweg,61,,,8453WE,Oranjewoud,Heerenveen,Friesland,VBO,5.951869,52.946327
Koningin Julianaweg,62,,,8453WE,Oranjewoud,Heerenveen,Friesland,VBO,5.949755,52.947343
Koningin Julianaweg,64,,,8453WE,Oranjewoud,Heerenveen,Friesland,VBO,5.949871,52.947154
Koningin Julianaweg,66,,,8453WE,Oranjewoud,Heerenveen,Friesland,VBO,5.950122,52.946955
Koningin Julianaweg,68,,,8453WE,Oranjewoud,Heerenveen,Friesland,VBO,5.950297,52.946738
Koningin Julianaweg,72,,,8453WE,Oranjewoud,Heerenveen,Friesland,VBO,5.950695,52.946395
Koningin Julianaweg,74,,,8453WE,Oranjewoud,Heerenveen,Friesland,VBO,5.950855,52.946179
Koningin Julianaweg,76,,,8453WE,Oranjewoud,Heerenveen,Friesland,VBO,5.951136,52.946034
Koningin Julianaweg,63,,,8453WG,Oranjewoud,Heerenveen,Friesland,VBO,5.952025,52.946096
Koningin Julianaweg,65,,,8453WG,Oranjewoud,Heerenveen,Friesland,VBO,5.952310,52.945938
Koningin Julianaweg,67,,,8453WG,Oranjewoud,Heerenveen,Friesland,VBO,5.952890,52.945917
Koningin Julianaweg,69,,,8453WG,Oranjewoud,Heerenveen,Friesland,VBO,5.953855,52.945724
Koningin Julianaweg,80,,,8453WG,Oranjewoud,Heerenveen,Friesland,VBO,5.951830,52.945599
Koningin Julianaweg,82,,,8453WG,Oranjewoud,Heerenveen,Friesland,VBO,5.952378,52.945435
Koningin Julianaweg,86,,,8453WG,Oranjewoud,Heerenveen,Friesland,VBO,5.953014,52.945162
Koningin Julianaweg,88,,,8453WG,Oranjewoud,Heerenveen,Friesland,VBO,5.953283,52.945251
Koningin Julianaweg,90,,,8453WG,Oranjewoud,Heerenveen,Friesland,VBO,5.953685,52.945240
Koningin Julianaweg,92,,,8453WG,Oranjewoud,Heerenveen,Friesland,VBO,5.954963,52.945153
Koningin Julianaweg,71,,,8453WH,Oranjewoud,Heerenveen,Friesland,VBO,5.961582,52.946155
Koningin Julianaweg,73,,,8453WH,Oranjewoud,Heerenveen,Friesland,VBO,5.962926,52.946543
Koningin Julianaweg,75,,,8453WH,Oranjewoud,Heerenveen,Friesland,VBO,5.964363,52.946123
Koningin Julianaweg,94,,,8453WH,Oranjewoud,Heerenveen,Friesland,VBO,5.960570,52.945027
Koningin Julianaweg,96,,,8453WH,Oranjewoud,Heerenveen,Friesland,VBO,5.966331,52.945332
Koningin Julianaweg,98,,,8453WH,Oranjewoud,Heerenveen,Friesland,VBO,5.966504,52.944873
Lollius Ademalaan,1,A,,8453WJ,Oranjewoud,Heerenveen,Friesland,VBO,5.948588,52.946854
Lollius Ademalaan,1,B,,8453WJ,Oranjewoud,Heerenveen,Friesland,VBO,5.948676,52.946737
Lollius Ademalaan,1,,,8453WJ,Oranjewoud,Heerenveen,Friesland,VBO,5.948779,52.946647
Lollius Ademalaan,3,,,8453WJ,Oranjewoud,Heerenveen,Friesland,VBO,5.948897,52.946565
Lollius Ademalaan,5,,,8453WJ,Oranjewoud,Heerenveen,Friesland,VBO,5.948999,52.946466
Lollius Ademalaan,7,,,8453WJ,Oranjewoud,Heerenveen,Friesland,VBO,5.949043,52.946421
Lollius Ademalaan,9,,,8453WJ,Oranjewoud,Heerenveen,Friesland,VBO,5.949057,52.946277
Lollius Ademalaan,11,,,8453WJ,Oranjewoud,Heerenveen,Friesland,VBO,5.949145,52.946250
Lollius Ademalaan,13,,,8453WJ,Oranjewoud,Heerenveen,Friesland,VBO,5.949234,52.946177
Lollius Ademalaan,15,,,8453WJ,Oranjewoud,Heerenveen,Friesland,VBO,5.949293,52.946123
Lollius Ademalaan,17,,,8453WJ,Oranjewoud,Heerenveen,Friesland,VBO,5.949291,52.946024
Lollius Ademalaan,19,,,8453WJ,Oranjewoud,Heerenveen,Friesland,VBO,5.949365,52.945961
Lollius Ademalaan,21,,,8453WJ,Oranjewoud,Heerenveen,Friesland,VBO,5.949438,52.945898
Lollius Ademalaan,23,,,8453WJ,Oranjewoud,Heerenveen,Friesland,VBO,5.949572,52.945870
Lollius Ademalaan,25,,,8453WJ,Oranjewoud,Heerenveen,Friesland,VBO,5.949571,52.945762
Lollius Ademalaan,27,,,8453WJ,Oranjewoud,Heerenveen,Friesland,VBO,5.949689,52.945726
Lollius Ademalaan,29,,,8453WJ,Oranjewoud,Heerenveen,Friesland,VBO,5.949748,52.945672
Lollius Ademalaan,31,,,8453WK,Oranjewoud,Heerenveen,Friesland,VBO,5.949807,52.945600
Lollius Ademalaan,33,,,8453WK,Oranjewoud,Heerenveen,Friesland,VBO,5.949895,52.945536
Lollius Ademalaan,35,,,8453WK,Oranjewoud,Heerenveen,Friesland,VBO,5.949969,52.945473
Lollius Ademalaan,37,,,8453WK,Oranjewoud,Heerenveen,Friesland,VBO,5.950057,52.945401
Lollius Ademalaan,39,,,8453WK,Oranjewoud,Heerenveen,Friesland,VBO,5.950176,52.945373
Lollius Ademalaan,41,,,8453WK,Oranjewoud,Heerenveen,Friesland,VBO,5.950188,52.945157
Lollius Ademalaan,43,,,8453WK,Oranjewoud,Heerenveen,Friesland,VBO,5.950232,52.945112
Lollius Ademalaan,45,,,8453WK,Oranjewoud,Heerenveen,Friesland,VBO,5.950335,52.945031
Lollius Ademalaan,47,,,8453WK,Oranjewoud,Heerenveen,Friesland,VBO,5.950379,52.944977
Lollius Ademalaan,49,,,8453WK,Oranjewoud,Heerenveen,Friesland,VBO,5.950452,52.944896
Lollius Ademalaan,51,,,8453WK,Oranjewoud,Heerenveen,Friesland,VBO,5.950511,52.944832
Lollius Ademalaan,53,,,8453WK,Oranjewoud,Heerenveen,Friesland,VBO,5.950718,52.944786
Lollius Ademalaan,55,,,8453WK,Oranjewoud,Heerenveen,Friesland,VBO,5.950910,52.944642
Lollius Ademalaan,57,,,8453WK,Oranjewoud,Heerenveen,Friesland,VBO,5.950998,52.944525
Lollius Ademalaan,59,,,8453WK,Oranjewoud,Heerenveen,Friesland,VBO,5.951056,52.944434
Lollius Ademalaan,61,,,8453WK,Oranjewoud,Heerenveen,Friesland,VBO,5.951115,52.944380
Lollius Ademalaan,63,,,8453WK,Oranjewoud,Heerenveen,Friesland,VBO,5.951233,52.944281
Lollius Ademalaan,2,A,,8453WL,Oranjewoud,Heerenveen,Friesland,VBO,5.947888,52.946840
Lollius Ademalaan,2,,,8453WL,Oranjewoud,Heerenveen,Friesland,VBO,5.948051,52.946740
Lollius Ademalaan,4,,,8453WL,Oranjewoud,Heerenveen,Friesland,VBO,5.948095,52.946695
Lollius Ademalaan,6,,,8453WL,Oranjewoud,Heerenveen,Friesland,VBO,5.948168,52.946623
Lollius Ademalaan,8,,,8453WL,Oranjewoud,Heerenveen,Friesland,VBO,5.948212,52.946569
Lollius Ademalaan,10,,,8453WL,Oranjewoud,Heerenveen,Friesland,VBO,5.948286,52.946505
Lollius Ademalaan,12,,,8453WL,Oranjewoud,Heerenveen,Friesland,VBO,5.948345,52.946460
Lollius Ademalaan,14,,,8453WL,Oranjewoud,Heerenveen,Friesland,VBO,5.948358,52.946370
Lollius Ademalaan,16,,,8453WL,Oranjewoud,Heerenveen,Friesland,VBO,5.948492,52.946316
Lollius Ademalaan,18,,,8453WL,Oranjewoud,Heerenveen,Friesland,VBO,5.948565,52.946234
Lollius Ademalaan,20,,,8453WL,Oranjewoud,Heerenveen,Friesland,VBO,5.948653,52.946162
Lollius Ademalaan,22,,,8453WL,Oranjewoud,Heerenveen,Friesland,VBO,5.948637,52.946072
Lollius Ademalaan,24,,,8453WL,Oranjewoud,Heerenveen,Friesland,VBO,5.948427,52.945876
Lollius Ademalaan,28,,,8453WN,Oranjewoud,Heerenveen,Friesland,VBO,5.948932,52.945864
Lollius Ademalaan,30,,,8453WN,Oranjewoud,Heerenveen,Friesland,VBO,5.949020,52.945783
Lollius Ademalaan,32,,,8453WN,Oranjewoud,Heerenveen,Friesland,VBO,5.949109,52.945702
Lollius Ademalaan,34,,,8453WN,Oranjewoud,Heerenveen,Friesland,VBO,5.949167,52.945629
Lollius Ademalaan,36,,,8453WN,Oranjewoud,Heerenveen,Friesland,VBO,5.949241,52.945548
Lollius Ademalaan,38,,,8453WN,Oranjewoud,Heerenveen,Friesland,VBO,5.949373,52.945449
Lollius Ademalaan,40,,,8453WN,Oranjewoud,Heerenveen,Friesland,VBO,5.950299,52.944555
Lollius Ademalaan,42,,,8453WN,Oranjewoud,Heerenveen,Friesland,VBO,5.950446,52.944464
Lollius Ademalaan,44,,,8453WN,Oranjewoud,Heerenveen,Friesland,VBO,5.950594,52.944347
Lollius Ademalaan,46,A,,8453WN,Oranjewoud,Heerenveen,Friesland,VBO,5.950651,52.944203
Lollius Ademalaan,46,,,8453WN,Oranjewoud,Heerenveen,Friesland,VBO,5.950697,52.944247
Lollius Ademalaan,48,,,8453WN,Oranjewoud,Heerenveen,Friesland,VBO,5.950799,52.944148
Lollius Ademalaan,50,,,8453WN,Oranjewoud,Heerenveen,Friesland,VBO,5.950902,52.944049
van Bienemalaan,1,,,8453WP,Oranjewoud,Heerenveen,Friesland,VBO,5.951891,52.943433
van Bienemalaan,3,,,8453WP,Oranjewoud,Heerenveen,Friesland,VBO,5.952513,52.943196
van Bienemalaan,7,,,8453WP,Oranjewoud,Heerenveen,Friesland,VBO,5.953217,52.942474
Koningin Wilhelminaweg,35,,,8453WR,Oranjewoud,Heerenveen,Friesland,VBO,5.950494,52.943547
Koningin Wilhelminaweg,37,,,8453WR,Oranjewoud,Heerenveen,Friesland,VBO,5.950629,52.943646
Koningin Wilhelminaweg,39,,,8453WR,Oranjewoud,Heerenveen,Friesland,VBO,5.950778,52.943636
Koningin Wilhelminaweg,41,,,8453WR,Oranjewoud,Heerenveen,Friesland,VBO,5.950958,52.943725
Koningin Wilhelminaweg,43,,,8453WR,Oranjewoud,Heerenveen,Friesland,VBO,5.951152,52.943787
Koningin Wilhelminaweg,45,,,8453WS,Oranjewoud,Heerenveen,Friesland,VBO,5.951571,52.944019
Koningin Wilhelminaweg,47,,,8453WS,Oranjewoud,Heerenveen,Friesland,VBO,5.951810,52.944071
Koningin Wilhelminaweg,53,,,8453WS,Oranjewoud,Heerenveen,Friesland,VBO,5.952379,52.944347
Koningin Wilhelminaweg,55,,,8453WS,Oranjewoud,Heerenveen,Friesland,VBO,5.952648,52.944472
Koningin Wilhelminaweg,57,A,,8453WS,Oranjewoud,Heerenveen,Friesland,VBO,5.953126,52.944613
Koningin Wilhelminaweg,57,,,8453WS,Oranjewoud,Heerenveen,Friesland,VBO,5.952947,52.944551
Koningin Wilhelminaweg,59,,,8453WS,Oranjewoud,Heerenveen,Friesland,VBO,5.953350,52.944666
Koningin Wilhelminaweg,61,,,8453WS,Oranjewoud,Heerenveen,Friesland,VBO,5.953515,52.944746
Koningin Wilhelminaweg,63,,,8453WS,Oranjewoud,Heerenveen,Friesland,VBO,5.953650,52.944862
Koningin Wilhelminaweg,65,A,,8453WS,Oranjewoud,Heerenveen,Friesland,VBO,5.954068,52.944977
Koningin Wilhelminaweg,65,,,8453WS,Oranjewoud,Heerenveen,Friesland,VBO,5.953874,52.944906
Koningin Wilhelminaweg,67,,,8453WS,Oranjewoud,Heerenveen,Friesland,VBO,5.954307,52.945066
Koningin Wilhelminaweg,69,,,8453WS,Oranjewoud,Heerenveen,Friesland,VBO,5.954576,52.945110
Koningin Wilhelminaweg,42,A,,8453WT,Oranjewoud,Heerenveen,Friesland,VBO,5.950833,52.943258
Koningin Wilhelminaweg,42,B,,8453WT,Oranjewoud,Heerenveen,Friesland,VBO,5.951340,52.943400
Koningin Wilhelminaweg,44,,,8453WT,Oranjewoud,Heerenveen,Friesland,VBO,5.951641,52.943632
Koningin Wilhelminaweg,46,,,8453WT,Oranjewoud,Heerenveen,Friesland,VBO,5.951775,52.943658
Koningin Wilhelminaweg,48,,,8453WT,Oranjewoud,Heerenveen,Friesland,VBO,5.951909,52.943693
Koningin Wilhelminaweg,50,,,8453WT,Oranjewoud,Heerenveen,Friesland,VBO,5.952014,52.943765
Koningin Wilhelminaweg,52,,,8453WT,Oranjewoud,Heerenveen,Friesland,VBO,5.952164,52.943800
Koningin Wilhelminaweg,54,,,8453WT,Oranjewoud,Heerenveen,Friesland,VBO,5.952462,52.943880
Koningin Wilhelminaweg,56,,,8453WT,Oranjewoud,Heerenveen,Friesland,VBO,5.952806,52.943977
Koningin Wilhelminaweg,58,,,8453WT,Oranjewoud,Heerenveen,Friesland,VBO,5.953119,52.944074
Koningin Wilhelminaweg,60,,,8453WT,Oranjewoud,Heerenveen,Friesland,VBO,5.953225,52.944226
Koningin Wilhelminaweg,62,,,8453WT,Oranjewoud,Heerenveen,Friesland,VBO,5.953345,52.944280
Prinses Margrietlaan,2,,,8453WV,Oranjewoud,Heerenveen,Friesland,VBO,5.951282,52.945772
Prinses Margrietlaan,4,,,8453WV,Oranjewoud,Heerenveen,Friesland,VBO,5.950996,52.945600
Prinses Marijkelaan,1,,,8453WX,Oranjewoud,Heerenveen,Friesland,VBO,5.951530,52.945412
Prinses Marijkelaan,2,,,8453WX,Oranjewoud,Heerenveen,Friesland,VBO,5.951766,52.945276
Prinses Marijkelaan,3,,,8453WX,Oranjewoud,Heerenveen,Friesland,VBO,5.951853,52.945087
Prinses Marijkelaan,4,,,8453WX,Oranjewoud,Heerenveen,Friesland,VBO,5.952119,52.944960
Prinses Marijkelaan,5,,,8453WX,Oranjewoud,Heerenveen,Friesland,VBO,5.952356,52.944869
Prinses Marijkelaan,7,,,8453WX,Oranjewoud,Heerenveen,Friesland,VBO,5.951565,52.944666
Prinses Beatrixlaan,1,,,8453WZ,Oranjewoud,Heerenveen,Friesland,VBO,5.951756,52.946795
Prinses Beatrixlaan,2,,,8453WZ,Oranjewoud,Heerenveen,Friesland,VBO,5.952976,52.946816
Prinses Beatrixlaan,3,,,8453WZ,Oranjewoud,Heerenveen,Friesland,VBO,5.952144,52.946847
Prinses Beatrixlaan,4,,,8453WZ,Oranjewoud,Heerenveen,Friesland,VBO,5.952465,52.947582
Prinses Beatrixlaan,5,,,8453WZ,Oranjewoud,Heerenveen,Friesland,VBO,5.952265,52.947071
Prinses Beatrixlaan,6,,,8453WZ,Oranjewoud,Heerenveen,Friesland,VBO,5.952319,52.947789
Prinses Beatrixlaan,7,,,8453WZ,Oranjewoud,Heerenveen,Friesland,VBO,5.952149,52.947296
Prinses Beatrixlaan,8,,,8453WZ,Oranjewoud,Heerenveen,Friesland,VBO,5.951947,52.947719
Prinses Beatrixlaan,9,,,8453WZ,Oranjewoud,Heerenveen,Friesland,VBO,5.951835,52.947181
Prinses Beatrixlaan,11,,,8453WZ,Oranjewoud,Heerenveen,Friesland,VBO,5.951373,52.947093
Prinses Irenelaan,1,,,8453XA,Oranjewoud,Heerenveen,Friesland,VBO,5.952833,52.946097
Prinses Irenelaan,2,,,8453XA,Oranjewoud,Heerenveen,Friesland,VBO,5.953531,52.945995
Prinses Irenelaan,3,,,8453XA,Oranjewoud,Heerenveen,Friesland,VBO,5.952598,52.946359
Prinses Irenelaan,4,,,8453XA,Oranjewoud,Heerenveen,Friesland,VBO,5.953280,52.946167
Prinses Irenelaan,5,,,8453XA,Oranjewoud,Heerenveen,Friesland,VBO,5.952377,52.946459
Prinses Irenelaan,6,,,8453XA,Oranjewoud,Heerenveen,Friesland,VBO,5.953104,52.946357
Prinses Irenelaan,8,,,8453XA,Oranjewoud,Heerenveen,Friesland,VBO,5.952959,52.946609
Prins Bernhardweg,1,,,8453XB,Oranjewoud,Heerenveen,Friesland,VBO,5.950002,52.948034
Prins Bernhardweg,2,,,8453XB,Oranjewoud,Heerenveen,Friesland,VBO,5.950457,52.947591
Prins Bernhardweg,3,A,,8453XB,Oranjewoud,Heerenveen,Friesland,VBO,5.950359,52.948041
Prins Bernhardweg,3,,,8453XB,Oranjewoud,Heerenveen,Friesland,VBO,5.950180,52.948060
Prins Bernhardweg,4,,,8453XB,Oranjewoud,Heerenveen,Friesland,VBO,5.951187,52.947624
Prins Bernhardweg,5,,,8453XB,Oranjewoud,Heerenveen,Friesland,VBO,5.950613,52.948130
Prins Bernhardweg,6,,,8453XB,Oranjewoud,Heerenveen,Friesland,VBO,5.951742,52.947972
Prins Bernhardweg,7,,,8453XB,Oranjewoud,Heerenveen,Friesland,VBO,5.950777,52.948156
Prins Bernhardweg,8,,,8453XB,Oranjewoud,Heerenveen,Friesland,VBO,5.952070,52.948042
Prins Bernhardweg,9,,,8453XB,Oranjewoud,Heerenveen,Friesland,VBO,5.950971,52.948191
Prins Bernhardweg,11,,,8453XB,Oranjewoud,Heerenveen,Friesland,VBO,5.951164,52.948181
Prins Bernhardweg,13,,,8453XB,Oranjewoud,Heerenveen,Friesland,VBO,5.951388,52.948270
Prins Bernhardweg,15,,,8453XB,Oranjewoud,Heerenveen,Friesland,VBO,5.951582,52.948314
Prins Bernhardweg,17,A,,8453XB,Oranjewoud,Heerenveen,Friesland,VBO,5.952105,52.948464
Prins Bernhardweg,17,,,8453XB,Oranjewoud,Heerenveen,Friesland,VBO,5.951896,52.948420
Prins Bernhardweg,19,,,8453XB,Oranjewoud,Heerenveen,Friesland,VBO,5.952269,52.948500
Prins Bernhardweg,21,,,8453XB,Oranjewoud,Heerenveen,Friesland,VBO,5.952464,52.948588
Prins Bernhardweg,23,,,8453XB,Oranjewoud,Heerenveen,Friesland,VBO,5.952643,52.948642
Prins Bernhardweg,10,,,8453XC,Oranjewoud,Heerenveen,Friesland,VBO,5.960838,52.949555
Prins Bernhardweg,25,,,8453XC,Oranjewoud,Heerenveen,Friesland,VBO,5.953076,52.948765
Prins Bernhardweg,27,,,8453XC,Oranjewoud,Heerenveen,Friesland,VBO,5.953323,52.949429
Prins Bernhardweg,29,,,8453XC,Oranjewoud,Heerenveen,Friesland,VBO,5.954577,52.949747
Prins Bernhardweg,31,,,8453XC,Oranjewoud,Heerenveen,Friesland,VBO,5.955574,52.949823
Prins Bernhardweg,33,,,8453XC,Oranjewoud,Heerenveen,Friesland,VBO,5.959301,52.950380
Prins Bernhardweg,35,,,8453XC,Oranjewoud,Heerenveen,Friesland,VBO,5.959386,52.950047
Prins Bernhardweg,37,,,8453XC,Oranjewoud,Heerenveen,Friesland,VBO,5.959759,52.950072
Prins Bernhardweg,39,,,8453XC,Oranjewoud,Heerenveen,Friesland,VBO,5.959848,52.950090
Prins Bernhardweg,41,,,8453XC,Oranjewoud,Heerenveen,Friesland,VBO,5.960343,52.950384
Prins Bernhardweg,12,,,8453XD,Oranjewoud,Heerenveen,Friesland,VBO,5.961452,52.949831
Prins Bernhardweg,14,,,8453XD,Oranjewoud,Heerenveen,Friesland,VBO,5.961735,52.949883
Prins Bernhardweg,16,A,,8453XD,Oranjewoud,Heerenveen,Friesland,VBO,5.962107,52.949917
Prins Bernhardweg,16,,,8453XD,Oranjewoud,Heerenveen,Friesland,VBO,5.961988,52.949882
Prins Bernhardweg,18,,,8453XD,Oranjewoud,Heerenveen,Friesland,VBO,5.962420,52.949952
Prins Bernhardweg,20,,,8453XD,Oranjewoud,Heerenveen,Friesland,VBO,5.962646,52.950121
Prins Bernhardweg,22,,,8453XD,Oranjewoud,Heerenveen,Friesland,VBO,5.963003,52.950165
Prins Bernhardweg,24,,,8453XD,Oranjewoud,Heerenveen,Friesland,VBO,5.962763,52.950013
Prins Bernhardweg,26,,,8453XD,Oranjewoud,Heerenveen,Friesland,VBO,5.962746,52.949824
Prins Bernhardweg,28,,,8453XD,Oranjewoud,Heerenveen,Friesland,VBO,5.963159,52.949580
Prins Bernhardweg,30,,,8453XD,Oranjewoud,Heerenveen,Friesland,VBO,5.963492,52.949983
Prins Bernhardweg,32,,,8453XD,Oranjewoud,Heerenveen,Friesland,VBO,5.963653,52.949757
Prins Bernhardweg,43,,,8453XD,Oranjewoud,Heerenveen,Friesland,VBO,5.961202,52.950092
Prins Bernhardweg,49,,,8453XD,Oranjewoud,Heerenveen,Friesland,VBO,5.961786,52.950368
Prins Bernhardweg,51,,,8453XD,Oranjewoud,Heerenveen,Friesland,VBO,5.962113,52.950367
Prins Bernhardweg,53,,,8453XD,Oranjewoud,Heerenveen,Friesland,VBO,5.962515,52.950383
Prins Bernhardweg,55,,,8453XD,Oranjewoud,Heerenveen,Friesland,VBO,5.962695,52.950490
Prins Bernhardweg,59,,,8453XD,Oranjewoud,Heerenveen,Friesland,VBO,5.962620,52.951248
Prins Bernhardweg,61,,,8453XD,Oranjewoud,Heerenveen,Friesland,VBO,5.963356,52.950945
Prins Bernhardweg,63,,,8453XD,Oranjewoud,Heerenveen,Friesland,VBO,5.963827,52.950583
Prins Bernhardweg,65,,,8453XD,Oranjewoud,Heerenveen,Friesland,VBO,5.964020,52.950573
Prins Bernhardweg,67,,,8453XD,Oranjewoud,Heerenveen,Friesland,VBO,5.964095,52.950591
Prins Bernhardweg,69,,,8453XD,Oranjewoud,Heerenveen,Friesland,VBO,5.964336,52.950778
Prins Bernhardweg,71,,,8453XD,Oranjewoud,Heerenveen,Friesland,VBO,5.963868,52.950259
Prins Bernhardweg,73,,,8453XD,Oranjewoud,Heerenveen,Friesland,VBO,5.964132,52.949997
Prins Bernhardweg,75,,,8453XD,Oranjewoud,Heerenveen,Friesland,VBO,5.964590,52.949789
Heidelaan,1,,,8453XE,Oranjewoud,Heerenveen,Friesland,VBO,5.952378,52.948903
Heidelaan,2,,,8453XE,Oranjewoud,Heerenveen,Friesland,VBO,5.952753,52.949063
Heidelaan,3,A,,8453XE,Oranjewoud,Heerenveen,Friesland,VBO,5.952232,52.949102
Heidelaan,3,,,8453XE,Oranjewoud,Heerenveen,Friesland,VBO,5.952387,52.949007
Heidelaan,5,A,,8453XE,Oranjewoud,Heerenveen,Friesland,VBO,5.951835,52.949427
Heidelaan,5,B,,8453XE,Oranjewoud,Heerenveen,Friesland,VBO,5.951703,52.949590
Heidelaan,5,,,8453XE,Oranjewoud,Heerenveen,Friesland,VBO,5.952041,52.949264
Heidelaan,7,A,,8453XE,Oranjewoud,Heerenveen,Friesland,VBO,5.951277,52.950032
Heidelaan,7,,,8453XE,Oranjewoud,Heerenveen,Friesland,VBO,5.951497,52.949797
Heidelaan,9,,,8453XE,Oranjewoud,Heerenveen,Friesland,VBO,5.951146,52.950212
Heidelaan,11,,,8453XE,Oranjewoud,Heerenveen,Friesland,VBO,5.951073,52.950383
Heidelaan,13,,,8453XE,Oranjewoud,Heerenveen,Friesland,VBO,5.950985,52.950465
Heidelaan,15,A,,8453XG,Oranjewoud,Heerenveen,Friesland,VBO,5.950766,52.950762
Heidelaan,15,B,,8453XG,Oranjewoud,Heerenveen,Friesland,VBO,5.950412,52.950998
Heidelaan,15,,,8453XG,Oranjewoud,Heerenveen,Friesland,VBO,5.950898,52.950618
Heidelaan,17,A,,8453XG,Oranjewoud,Heerenveen,Friesland,VBO,5.950165,52.951283
Heidelaan,17,B,,8453XG,Oranjewoud,Heerenveen,Friesland,VBO,5.950043,52.951283
Heidelaan,17,,,8453XG,Oranjewoud,Heerenveen,Friesland,VBO,5.950176,52.951133
Heidelaan,19,,,8453XG,Oranjewoud,Heerenveen,Friesland,VBO,5.949973,52.951487
Heidelaan,21,,,8453XG,Oranjewoud,Heerenveen,Friesland,VBO,5.949766,52.951711
Heidelaan,23,,,8453XG,Oranjewoud,Heerenveen,Friesland,VBO,5.949093,52.951435
Heidelaan,25,,,8453XG,Oranjewoud,Heerenveen,Friesland,VBO,5.949606,52.951945
Heidelaan,27,,,8453XG,Oranjewoud,Heerenveen,Friesland,VBO,5.948569,52.952345
Heidelaan,29,A,,8453XG,Oranjewoud,Heerenveen,Friesland,VBO,5.948550,52.953127
Heidelaan,29,,,8453XG,Oranjewoud,Heerenveen,Friesland,VBO,5.948783,52.952785
Heidelaan,31,,,8453XG,Oranjewoud,Heerenveen,Friesland,VBO,5.948343,52.953281
Heidelaan,33,,,8453XG,Oranjewoud,Heerenveen,Friesland,VBO,5.947944,52.953507
Heidelaan,35,,,8453XG,Oranjewoud,Heerenveen,Friesland,VBO,5.947481,52.953303
Heidelaan,39,,,8453XG,Oranjewoud,Heerenveen,Friesland,VBO,5.947291,52.953591
Heidelaan,41,,,8453XG,Oranjewoud,Heerenveen,Friesland,VBO,5.947935,52.953903
Pieter Heringa Catslaan,2,,,8453XH,Oranjewoud,Heerenveen,Friesland,VBO,5.961143,52.946759
Krukmanslaan,1,,,8453XJ,Oranjewoud,Heerenveen,Friesland,VBO,5.964185,52.949405
Krukmanslaan,2,,,8453XJ,Oranjewoud,Heerenveen,Friesland,VBO,5.963738,52.949469
Krukmanslaan,4,,,8453XJ,Oranjewoud,Heerenveen,Friesland,VBO,5.963811,52.949334
Krukmanslaan,8,,,8453XJ,Oranjewoud,Heerenveen,Friesland,VBO,5.963913,52.949190
Krukmanslaan,10,,,8453XJ,Oranjewoud,Heerenveen,Friesland,VBO,5.964016,52.949072
Krukmanslaan,12,,,8453XJ,Oranjewoud,Heerenveen,Friesland,VBO,5.964058,52.948910
Krukmanslaan,14,,,8453XJ,Oranjewoud,Heerenveen,Friesland,VBO,5.964131,52.948793
Krukmanslaan,16,,,8453XJ,Oranjewoud,Heerenveen,Friesland,VBO,5.964262,52.948577
Krukmanslaan,20,,,8453XJ,Oranjewoud,Heerenveen,Friesland,VBO,5.964512,52.948351
Krukmanslaan,22,,,8453XJ,Oranjewoud,Heerenveen,Friesland,VBO,5.964730,52.948000
Krukmanslaan,26,,,8453XJ,Oranjewoud,Heerenveen,Friesland,VBO,5.964756,52.947667
Krukmanslaan,28,,,8453XJ,Oranjewoud,Heerenveen,Friesland,VBO,5.965020,52.947441
Krukmanslaan,30,,,8453XJ,Oranjewoud,Heerenveen,Friesland,VBO,5.965208,52.947009
Krukmanslaan,36,,,8453XJ,Oranjewoud,Heerenveen,Friesland,VBO,5.965547,52.946720
Krukmanslaan,38,,,8453XJ,Oranjewoud,Heerenveen,Friesland,VBO,5.965561,52.946666
Krukmanslaan,40,,,8453XJ,Oranjewoud,Heerenveen,Friesland,VBO,5.965423,52.946415
