openbareruimtenaam,huisnummer,huisletter,huisnummertoevoeging,postcode,woonplaatsnaam,gemeentenaam,provincienaam,typeadresseerbaarobject,longitude,latitude
Bisschopsweg,2,,,8462TA,Rotstergaast,De Friese Meren,Friesland,VBO,5.919159,52.926042
Bisschopsweg,4,,,8462TA,Rotstergaast,De Friese Meren,Friesland,VBO,5.917289,52.925160
Bisschopsweg,5,a,,8462TA,Rotstergaast,De Friese Meren,Friesland,VBO,5.899025,52.918328
Bisschopsweg,5,,,8462TA,Rotstergaast,De Friese Meren,Friesland,VBO,5.908775,52.923185
Bisschopsweg,6,,,8462TA,Rotstergaast,De Friese Meren,Friesland,VBO,5.916454,52.924903
Bisschopsweg,8,a,,8462TA,Rotstergaast,De Friese Meren,Friesland,VBO,5.914456,52.924445
Bisschopsweg,8,,,8462TA,Rotstergaast,De Friese Meren,Friesland,VBO,5.916349,52.924868
Bisschopsweg,10,,,8462TA,Rotstergaast,De Friese Meren,Friesland,VBO,5.913844,52.924322
Bisschopsweg,12,a,,8462TA,Rotstergaast,De Friese Meren,Friesland,VBO,5.911270,52.924144
Bisschopsweg,12,,,8462TA,Rotstergaast,De Friese Meren,Friesland,VBO,5.911702,52.924196
Bisschopsweg,14,,,8462TA,Rotstergaast,De Friese Meren,Friesland,VBO,5.910987,52.924110
Bisschopsweg,16,,,8462TA,Rotstergaast,De Friese Meren,Friesland,VBO,5.909945,52.924024
Bisschopsweg,18,,,8462TA,Rotstergaast,De Friese Meren,Friesland,VBO,5.905703,52.921158
Bisschopsweg,20,,,8462TA,Rotstergaast,De Friese Meren,Friesland,VBO,5.902431,52.919887
Bisschopsweg,22,a,,8462TA,Rotstergaast,De Friese Meren,Friesland,VBO,5.899415,52.918762
Bisschopsweg,22,,,8462TA,Rotstergaast,De Friese Meren,Friesland,VBO,5.901446,52.919550
Kerkpad,1,,,8462TB,Rotstergaast,De Friese Meren,Friesland,VBO,5.924966,52.924254
Kerkpad,2,,,8462TB,Rotstergaast,De Friese Meren,Friesland,VBO,5.925186,52.920407
Kerkpad,3,,,8462TB,Rotstergaast,De Friese Meren,Friesland,VBO,5.925226,52.921234
Kerkpad,4,a,,8462TB,Rotstergaast,De Friese Meren,Friesland,VBO,5.926310,52.919908
Kerkpad,5,,,8462TB,Rotstergaast,De Friese Meren,Friesland,VBO,5.925356,52.920891
Kerkpad,6,,,8462TB,Rotstergaast,De Friese Meren,Friesland,VBO,5.926414,52.923520
Kerkpad,7,a,,8462TB,Rotstergaast,De Friese Meren,Friesland,VBO,5.925269,52.923672
Kerkpad,7,,,8462TB,Rotstergaast,De Friese Meren,Friesland,VBO,5.925891,52.923253
Snakkerbuorren,1,a,,8462TC,Rotstergaast,De Friese Meren,Friesland,VBO,5.922967,52.920102
Snakkerbuorren,1,,,8462TC,Rotstergaast,De Friese Meren,Friesland,VBO,5.924966,52.924254
Snakkerbuorren,2,,,8462TC,Rotstergaast,De Friese Meren,Friesland,VBO,5.921298,52.919795
Snakkerbuorren,3,,,8462TC,Rotstergaast,De Friese Meren,Friesland,VBO,5.924448,52.918397
Snakkerbuorren,4,a,,8462TC,Rotstergaast,De Friese Meren,Friesland,VBO,5.923465,52.918258
Snakkerbuorren,4,b,,8462TC,Rotstergaast,De Friese Meren,Friesland,VBO,5.923640,52.917979
Snakkerbuorren,4,c,,8462TC,Rotstergaast,De Friese Meren,Friesland,VBO,5.923772,52.917843
Snakkerbuorren,4,,,8462TC,Rotstergaast,De Friese Meren,Friesland,VBO,5.921951,52.919721
Snakkerbuorren,5,a,,8462TC,Rotstergaast,De Friese Meren,Friesland,VBO,5.924361,52.918009
Snakkerbuorren,5,,,8462TC,Rotstergaast,De Friese Meren,Friesland,VBO,5.924356,52.918200
Snakkerbuorren,6,,,8462TC,Rotstergaast,De Friese Meren,Friesland,VBO,5.924024,52.917743
Snakkerbuorren,7,,,8462TC,Rotstergaast,De Friese Meren,Friesland,VBO,5.924602,52.917633
Snakkerbuorren,8,,,8462TC,Rotstergaast,De Friese Meren,Friesland,VBO,5.924245,52.917598
Snakkerbuorren,9,,,8462TC,Rotstergaast,De Friese Meren,Friesland,VBO,5.924820,52.917227
Snakkerbuorren,10,,,8462TC,Rotstergaast,De Friese Meren,Friesland,VBO,5.923590,52.917235
Snakkerbuorren,11,,,8462TC,Rotstergaast,De Friese Meren,Friesland,VBO,5.924404,52.917256
Snakkerbuorren,12,,,8462TC,Rotstergaast,De Friese Meren,Friesland,VBO,5.922041,52.915706
Snakkerbuorren,14,,,8462TC,Rotstergaast,De Friese Meren,Friesland,VBO,5.919305,52.912444
Snakkerbuorren,15,,,8462TC,Rotstergaast,De Friese Meren,Friesland,VBO,5.924234,52.916763
Snakkerbuorren,17,,,8462TC,Rotstergaast,De Friese Meren,Friesland,VBO,5.922522,52.915342
Snakkerbuorren,19,,,8462TC,Rotstergaast,De Friese Meren,Friesland,VBO,5.919558,52.908759
Schoterweg,1,,,8462TD,Rotstergaast,De Friese Meren,Friesland,VBO,5.916300,52.906113
Schoterweg,2,a,,8462TD,Rotstergaast,De Friese Meren,Friesland,VBO,5.918292,52.908454
Schoterweg,2,,,8462TD,Rotstergaast,De Friese Meren,Friesland,VBO,5.918126,52.908334
Schoterweg,3,,,8462TD,Rotstergaast,De Friese Meren,Friesland,VBO,5.914700,52.905202
Schoterweg,3,,,8462TD,Rotstergaast,De Friese Meren,Friesland,VBO,5.914831,52.905131
Schoterweg,4,,,8462TD,Rotstergaast,De Friese Meren,Friesland,VBO,5.912121,52.904667
Schoterweg,6,a,,8462TD,Rotstergaast,De Friese Meren,Friesland,VBO,5.911835,52.904669
Schoterweg,6,,,8462TD,Rotstergaast,De Friese Meren,Friesland,VBO,5.911182,52.904464
Schoterweg,7,a,,8462TD,Rotstergaast,De Friese Meren,Friesland,VBO,5.896273,52.900566
Schoterweg,7,,,8462TD,Rotstergaast,De Friese Meren,Friesland,VBO,5.909498,52.902872
Schoterweg,8,,,8462TD,Rotstergaast,De Friese Meren,Friesland,VBO,5.911118,52.904123
Schoterweg,9,,,8462TD,Rotstergaast,De Friese Meren,Friesland,VBO,5.894657,52.900824
Schoterweg,12,,,8462TD,Rotstergaast,De Friese Meren,Friesland,VBO,5.907308,52.902423
Schoterweg,14,,,8462TD,Rotstergaast,De Friese Meren,Friesland,VBO,5.904690,52.902192
Schoterweg,16,,,8462TD,Rotstergaast,De Friese Meren,Friesland,VBO,5.903711,52.901145
Schoterweg,18,,,8462TD,Rotstergaast,De Friese Meren,Friesland,VBO,5.902208,52.900945
Schoterweg,20,a,,8462TD,Rotstergaast,De Friese Meren,Friesland,VBO,5.897472,52.901085
Schoterweg,20,,,8462TD,Rotstergaast,De Friese Meren,Friesland,VBO,5.898912,52.901219
Schoterweg,22,,,8462TD,Rotstergaast,De Friese Meren,Friesland,VBO,5.897156,52.901047
Schoterweg,24,,,8462TD,Rotstergaast,De Friese Meren,Friesland,VBO,5.895611,52.901144
Schoterweg,26,,,8462TD,Rotstergaast,De Friese Meren,Friesland,VBO,5.893589,52.901017
Schoterweg,11,,,8462TE,Rotstergaast,De Friese Meren,Friesland,VBO,5.893362,52.900695
Schoterweg,13,a,,8462TE,Rotstergaast,De Friese Meren,Friesland,VBO,5.891035,52.899986
Schoterweg,13,,,8462TE,Rotstergaast,De Friese Meren,Friesland,VBO,5.891752,52.900084
Schoterweg,15,,,8462TE,Rotstergaast,De Friese Meren,Friesland,VBO,5.890141,52.899711
Schoterweg,17,,,8462TE,Rotstergaast,De Friese Meren,Friesland,VBO,5.884124,52.893392
Schoterweg,28,,,8462TE,Rotstergaast,De Friese Meren,Friesland,VBO,5.889684,52.900036
Schoterweg,30,,,8462TE,Rotstergaast,De Friese Meren,Friesland,VBO,5.889325,52.899849
Schoterweg,32,a,,8462TE,Rotstergaast,De Friese Meren,Friesland,VBO,5.886465,52.899735
Schoterweg,32,,,8462TE,Rotstergaast,De Friese Meren,Friesland,VBO,5.887504,52.899210
Schoterweg,36,,,8462TE,Rotstergaast,De Friese Meren,Friesland,VBO,5.885022,52.897890
Schoterweg,38,,,8462TE,Rotstergaast,De Friese Meren,Friesland,VBO,5.884439,52.897533
Schoterweg,40,a,,8462TE,Rotstergaast,De Friese Meren,Friesland,VBO,5.883371,52.896687
Schoterweg,42,,,8462TE,Rotstergaast,De Friese Meren,Friesland,VBO,5.882972,52.896587
Schoterweg,44,,,8462TE,Rotstergaast,De Friese Meren,Friesland,VBO,5.882089,52.896078
Schoterweg,46,,,8462TE,Rotstergaast,De Friese Meren,Friesland,VBO,5.881220,52.895462
Schoterweg,48,,,8462TE,Rotstergaast,De Friese Meren,Friesland,VBO,5.880245,52.894657
Schoterweg,50,,,8462TE,Rotstergaast,De Friese Meren,Friesland,VBO,5.879900,52.894326
Schoterweg,52,,,8462TE,Rotstergaast,De Friese Meren,Friesland,VBO,5.877902,52.892438
Gaasterweg,7,,,8462TL,Rotstergaast,De Friese Meren,Friesland,VBO,5.887771,52.901752
