openbareruimtenaam,huisnummer,huisletter,huisnummertoevoeging,postcode,woonplaatsnaam,gemeentenaam,provincienaam,typeadresseerbaarobject,longitude,latitude
Haskerpoarte,2,,,8465HP,Oudehaske,De Fryske Marren,Friesland,VBO,5.887449,52.964665
Pipegaal,1,,,8465MA,Oudehaske,De Fryske Marren,Friesland,VBO,5.878231,52.954713
Pipegaal,2,,,8465MA,Oudehaske,De Fryske Marren,Friesland,VBO,5.877803,52.954948
Pipegaal,3,,,8465MA,Oudehaske,De Fryske Marren,Friesland,VBO,5.878470,52.954721
Pipegaal,4,,,8465MA,Oudehaske,De Fryske Marren,Friesland,VBO,5.877845,52.954795
Pipegaal,5,,,8465MA,Oudehaske,De Fryske Marren,Friesland,VBO,5.878678,52.954747
Pipegaal,6,,,8465MA,Oudehaske,De Fryske Marren,Friesland,VBO,5.877903,52.954615
Pipegaal,7,,,8465MA,Oudehaske,De Fryske Marren,Friesland,VBO,5.878990,52.954683
Pipegaal,8,,,8465MA,Oudehaske,De Fryske Marren,Friesland,VBO,5.877960,52.954426
Pipegaal,9,,,8465MA,Oudehaske,De Fryske Marren,Friesland,VBO,5.879033,52.954566
Pipegaal,10,,,8465MA,Oudehaske,De Fryske Marren,Friesland,VBO,5.878003,52.954274
Pipegaal,11,,,8465MA,Oudehaske,De Fryske Marren,Friesland,VBO,5.878750,52.954486
Pipegaal,13,,,8465MA,Oudehaske,De Fryske Marren,Friesland,VBO,5.878512,52.954496
Pipegaal,15,,,8465MA,Oudehaske,De Fryske Marren,Friesland,VBO,5.878288,52.954470
Baggelbak,1,,,8465MB,Oudehaske,De Fryske Marren,Friesland,VBO,5.876983,52.954862
Baggelbak,2,,,8465MB,Oudehaske,De Fryske Marren,Friesland,VBO,5.876626,52.954872
Baggelbak,3,,,8465MB,Oudehaske,De Fryske Marren,Friesland,VBO,5.877026,52.954682
Baggelbak,4,,,8465MB,Oudehaske,De Fryske Marren,Friesland,VBO,5.876684,52.954683
Baggelbak,5,,,8465MB,Oudehaske,De Fryske Marren,Friesland,VBO,5.877084,52.954529
Baggelbak,6,,,8465MB,Oudehaske,De Fryske Marren,Friesland,VBO,5.876726,52.954503
Baggelbak,7,,,8465MB,Oudehaske,De Fryske Marren,Friesland,VBO,5.877126,52.954349
Baggelbak,8,,,8465MB,Oudehaske,De Fryske Marren,Friesland,VBO,5.876784,52.954341
Baggelbak,9,,,8465MB,Oudehaske,De Fryske Marren,Friesland,VBO,5.877184,52.954187
Baggelbak,10,,,8465MB,Oudehaske,De Fryske Marren,Friesland,VBO,5.876841,52.954144
Badweg,1,,,8465NM,Oudehaske,De Fryske Marren,Friesland,VBO,5.871007,52.956737
Badweg,3,,,8465NM,Oudehaske,De Fryske Marren,Friesland,VBO,5.871033,52.956387
Badweg,5,,,8465NM,Oudehaske,De Fryske Marren,Friesland,VBO,5.871047,52.956324
Badweg,7,,,8465NM,Oudehaske,De Fryske Marren,Friesland,VBO,5.871076,52.956198
Badweg,9,,,8465NM,Oudehaske,De Fryske Marren,Friesland,VBO,5.871090,52.956153
Badweg,11,,,8465NM,Oudehaske,De Fryske Marren,Friesland,VBO,5.871089,52.956099
Badweg,13,,,8465NM,Oudehaske,De Fryske Marren,Friesland,VBO,5.871104,52.956036
Badweg,15,,,8465NM,Oudehaske,De Fryske Marren,Friesland,VBO,5.871118,52.955955
Badweg,17,,,8465NM,Oudehaske,De Fryske Marren,Friesland,VBO,5.871146,52.955829
Badweg,19,,,8465NM,Oudehaske,De Fryske Marren,Friesland,VBO,5.871174,52.955685
Badweg,23,,,8465NM,Oudehaske,De Fryske Marren,Friesland,VBO,5.871261,52.955469
Badweg,25,,,8465NM,Oudehaske,De Fryske Marren,Friesland,VBO,5.871303,52.955262
Badweg,27,,,8465NM,Oudehaske,De Fryske Marren,Friesland,VBO,5.871317,52.955190
Badweg,29,,,8465NM,Oudehaske,De Fryske Marren,Friesland,VBO,5.871331,52.955074
Badweg,31,,,8465NM,Oudehaske,De Fryske Marren,Friesland,VBO,5.871360,52.955002
Badweg,33,,,8465NM,Oudehaske,De Fryske Marren,Friesland,VBO,5.871404,52.954903
Badweg,35,,,8465NM,Oudehaske,De Fryske Marren,Friesland,VBO,5.871418,52.954831
Badweg,37,,,8465NM,Oudehaske,De Fryske Marren,Friesland,VBO,5.871431,52.954723
Badweg,39,,,8465NM,Oudehaske,De Fryske Marren,Friesland,VBO,5.871445,52.954651
Badweg,2,a,,8465NN,Oudehaske,De Fryske Marren,Friesland,VBO,5.870682,52.956833
Badweg,2,,,8465NN,Oudehaske,De Fryske Marren,Friesland,VBO,5.870682,52.956775
Badweg,4,,,8465NN,Oudehaske,De Fryske Marren,Friesland,VBO,5.870679,52.956676
Badweg,6,,,8465NN,Oudehaske,De Fryske Marren,Friesland,VBO,5.870661,52.956343
Badweg,8,,,8465NN,Oudehaske,De Fryske Marren,Friesland,VBO,5.870674,52.956209
Badweg,10,,,8465NN,Oudehaske,De Fryske Marren,Friesland,VBO,5.870702,52.956074
Badweg,12,,,8465NN,Oudehaske,De Fryske Marren,Friesland,VBO,5.870716,52.955993
Badweg,14,,,8465NN,Oudehaske,De Fryske Marren,Friesland,VBO,5.870759,52.955786
Badweg,16,,,8465NN,Oudehaske,De Fryske Marren,Friesland,VBO,5.870773,52.955705
Badweg,18,,,8465NN,Oudehaske,De Fryske Marren,Friesland,VBO,5.870801,52.955552
Badweg,20,,,8465NN,Oudehaske,De Fryske Marren,Friesland,VBO,5.870829,52.955462
Badweg,22,,,8465NN,Oudehaske,De Fryske Marren,Friesland,VBO,5.870858,52.955327
Badweg,24,,,8465NN,Oudehaske,De Fryske Marren,Friesland,VBO,5.870886,52.955183
Badweg,26,,,8465NN,Oudehaske,De Fryske Marren,Friesland,VBO,5.870900,52.955102
Badweg,28,,,8465NN,Oudehaske,De Fryske Marren,Friesland,VBO,5.870928,52.954976
Badweg,30,a,,8465NN,Oudehaske,De Fryske Marren,Friesland,VBO,5.872095,52.951667
Badweg,30,,,8465NN,Oudehaske,De Fryske Marren,Friesland,VBO,5.870942,52.954895
Badweg,32,a,0001,8465NN,Oudehaske,De Fryske Marren,Friesland,VBO,5.872318,52.950810
Badweg,32,a,0007,8465NN,Oudehaske,De Fryske Marren,Friesland,VBO,5.872442,52.950265
Badweg,32,a,0008,8465NN,Oudehaske,De Fryske Marren,Friesland,VBO,5.872446,52.950204
Badweg,32,a,0009,8465NN,Oudehaske,De Fryske Marren,Friesland,VBO,5.872462,52.950152
Badweg,32,a,0010,8465NN,Oudehaske,De Fryske Marren,Friesland,VBO,5.872490,52.950088
Badweg,32,a,,8465NN,Oudehaske,De Fryske Marren,Friesland,VBO,5.872302,52.950887
Badweg,32,,,8465NN,Oudehaske,De Fryske Marren,Friesland,VBO,5.872298,52.951035
Jousterweg,1,,,8465PA,Oudehaske,De Fryske Marren,Friesland,VBO,5.843460,52.953647
Jousterweg,5,,,8465PA,Oudehaske,De Fryske Marren,Friesland,VBO,5.844131,52.954777
Jousterweg,7,,,8465PA,Oudehaske,De Fryske Marren,Friesland,VBO,5.844251,52.953832
Jousterweg,9,,,8465PA,Oudehaske,De Fryske Marren,Friesland,VBO,5.845370,52.954125
Jousterweg,11,,,8465PA,Oudehaske,De Fryske Marren,Friesland,VBO,5.845756,52.954033
Jousterweg,13,,,8465PA,Oudehaske,De Fryske Marren,Friesland,VBO,5.846128,52.954068
Jousterweg,15,,,8465PA,Oudehaske,De Fryske Marren,Friesland,VBO,5.846516,52.954129
Jousterweg,17,,,8465PA,Oudehaske,De Fryske Marren,Friesland,VBO,5.846977,52.954154
Jousterweg,19,,,8465PA,Oudehaske,De Fryske Marren,Friesland,VBO,5.847111,52.954163
Jousterweg,21,,,8465PA,Oudehaske,De Fryske Marren,Friesland,VBO,5.847236,52.954711
Jousterweg,23,,,8465PA,Oudehaske,De Fryske Marren,Friesland,VBO,5.847807,52.955230
Jousterweg,29,,,8465PA,Oudehaske,De Fryske Marren,Friesland,VBO,5.847335,52.954189
Jousterweg,31,,,8465PA,Oudehaske,De Fryske Marren,Friesland,VBO,5.847902,52.954393
Jousterweg,35,,,8465PA,Oudehaske,De Fryske Marren,Friesland,VBO,5.851125,52.955226
Jousterweg,45,,,8465PA,Oudehaske,De Fryske Marren,Friesland,VBO,5.853559,52.956034
Jousterweg,47,,,8465PA,Oudehaske,De Fryske Marren,Friesland,VBO,5.854900,52.956181
Jousterweg,49,a,,8465PA,Oudehaske,De Fryske Marren,Friesland,VBO,5.857121,52.956980
Jousterweg,49,,,8465PA,Oudehaske,De Fryske Marren,Friesland,VBO,5.854886,52.956280
Jousterweg,51,a,,8465PB,Oudehaske,De Fryske Marren,Friesland,VBO,5.859905,52.958168
Jousterweg,51,,,8465PB,Oudehaske,De Fryske Marren,Friesland,VBO,5.857887,52.957140
Jousterweg,53,,,8465PB,Oudehaske,De Fryske Marren,Friesland,VBO,5.860316,52.957463
Jousterweg,55,,,8465PB,Oudehaske,De Fryske Marren,Friesland,VBO,5.860703,52.957489
Jousterweg,59,,,8465PB,Oudehaske,De Fryske Marren,Friesland,VBO,5.861060,52.957514
Jousterweg,61,,,8465PB,Oudehaske,De Fryske Marren,Friesland,VBO,5.861150,52.957523
Jousterweg,63,,,8465PB,Oudehaske,De Fryske Marren,Friesland,VBO,5.861218,52.958331
Jousterweg,65,,,8465PB,Oudehaske,De Fryske Marren,Friesland,VBO,5.861515,52.957597
Jousterweg,67,,,8465PB,Oudehaske,De Fryske Marren,Friesland,VBO,5.861567,52.957566
Jousterweg,69,,,8465PB,Oudehaske,De Fryske Marren,Friesland,VBO,5.861555,52.957872
Jousterweg,71,,,8465PB,Oudehaske,De Fryske Marren,Friesland,VBO,5.861656,52.957557
Jousterweg,73,,,8465PB,Oudehaske,De Fryske Marren,Friesland,VBO,5.863171,52.958539
Jousterweg,75,,,8465PB,Oudehaske,De Fryske Marren,Friesland,VBO,5.863112,52.960040
Jousterweg,77,,,8465PB,Oudehaske,De Fryske Marren,Friesland,VBO,5.862998,52.957749
Jousterweg,79,,,8465PB,Oudehaske,De Fryske Marren,Friesland,VBO,5.863114,52.957533
Jousterweg,81,,,8465PB,Oudehaske,De Fryske Marren,Friesland,VBO,5.863102,52.957785
Jousterweg,85,,,8465PB,Oudehaske,De Fryske Marren,Friesland,VBO,5.863384,52.957676
Jousterweg,87,,,8465PB,Oudehaske,De Fryske Marren,Friesland,VBO,5.863681,52.957692
Jousterweg,89,,,8465PB,Oudehaske,De Fryske Marren,Friesland,VBO,5.863917,52.957503
Siebe de Ruiterweg,1,,,8465PB,Oudehaske,De Fryske Marren,Friesland,VBO,5.855673,52.958811
Siebe de Ruiterweg,2,a,,8465PB,Oudehaske,De Fryske Marren,Friesland,VBO,5.857115,52.960082
Jousterweg,91,a,,8465PC,Oudehaske,De Fryske Marren,Friesland,VBO,5.864220,52.957960
Jousterweg,91,,,8465PC,Oudehaske,De Fryske Marren,Friesland,VBO,5.864230,52.957537
Jousterweg,95,,,8465PC,Oudehaske,De Fryske Marren,Friesland,VBO,5.864600,52.957356
Jousterweg,99,,,8465PC,Oudehaske,De Fryske Marren,Friesland,VBO,5.864779,52.957347
Jousterweg,103,,,8465PC,Oudehaske,De Fryske Marren,Friesland,VBO,5.865047,52.957363
Jousterweg,107,,,8465PC,Oudehaske,De Fryske Marren,Friesland,VBO,5.865285,52.957363
Jousterweg,109,,,8465PC,Oudehaske,De Fryske Marren,Friesland,VBO,5.865080,52.957660
Jousterweg,111,,,8465PC,Oudehaske,De Fryske Marren,Friesland,VBO,5.866030,52.957467
Jousterweg,113,,,8465PC,Oudehaske,De Fryske Marren,Friesland,VBO,5.866685,52.957501
Jousterweg,115,,,8465PC,Oudehaske,De Fryske Marren,Friesland,VBO,5.867070,52.957283
Jousterweg,117,,,8465PC,Oudehaske,De Fryske Marren,Friesland,VBO,5.867189,52.957283
Jousterweg,119,,,8465PC,Oudehaske,De Fryske Marren,Friesland,VBO,5.867551,52.957731
Jousterweg,121,,,8465PC,Oudehaske,De Fryske Marren,Friesland,VBO,5.867516,52.957282
Jousterweg,123,,,8465PC,Oudehaske,De Fryske Marren,Friesland,VBO,5.867725,52.957281
Jousterweg,125,,,8465PC,Oudehaske,De Fryske Marren,Friesland,VBO,5.868126,52.957279
Jousterweg,127,,,8465PC,Oudehaske,De Fryske Marren,Friesland,VBO,5.868409,52.957278
Jousterweg,129,,,8465PC,Oudehaske,De Fryske Marren,Friesland,VBO,5.866750,52.960682
Jousterweg,133,,,8465PD,Oudehaske,De Fryske Marren,Friesland,VBO,5.869034,52.957276
Jousterweg,135,a,,8465PD,Oudehaske,De Fryske Marren,Friesland,VBO,5.869397,52.957831
Jousterweg,135,,,8465PD,Oudehaske,De Fryske Marren,Friesland,VBO,5.869287,52.957284
Jousterweg,139,,,8465PD,Oudehaske,De Fryske Marren,Friesland,VBO,5.869734,52.957309
Jousterweg,141,,,8465PD,Oudehaske,De Fryske Marren,Friesland,VBO,5.870017,52.957335
Jousterweg,143,,,8465PD,Oudehaske,De Fryske Marren,Friesland,VBO,5.870240,52.957325
Jousterweg,147,,,8465PD,Oudehaske,De Fryske Marren,Friesland,VBO,5.870419,52.957333
Jousterweg,151,,,8465PD,Oudehaske,De Fryske Marren,Friesland,VBO,5.870642,52.957341
Jousterweg,153,,,8465PD,Oudehaske,De Fryske Marren,Friesland,VBO,5.871044,52.957402
Jousterweg,155,,,8465PD,Oudehaske,De Fryske Marren,Friesland,VBO,5.871268,52.957437
Jousterweg,157,,,8465PD,Oudehaske,De Fryske Marren,Friesland,VBO,5.871388,52.957518
Jousterweg,159,,,8465PD,Oudehaske,De Fryske Marren,Friesland,VBO,5.871527,52.957476
Jousterweg,161,,,8465PD,Oudehaske,De Fryske Marren,Friesland,VBO,5.871627,52.957453
Jousterweg,163,,,8465PD,Oudehaske,De Fryske Marren,Friesland,VBO,5.871700,52.957454
Jousterweg,165,,,8465PD,Oudehaske,De Fryske Marren,Friesland,VBO,5.871804,52.957453
Kerkepad,1,,,8465PD,Oudehaske,De Fryske Marren,Friesland,VBO,5.871285,52.957662
Kerkepad,2,,,8465PD,Oudehaske,De Fryske Marren,Friesland,VBO,5.871436,52.957778
Kerkepad,3,,,8465PD,Oudehaske,De Fryske Marren,Friesland,VBO,5.871169,52.957941
Kerkepad,4,,,8465PD,Oudehaske,De Fryske Marren,Friesland,VBO,5.871157,52.958202
Jousterweg,167,,,8465PE,Oudehaske,De Fryske Marren,Friesland,VBO,5.871953,52.957461
Jousterweg,169,,,8465PE,Oudehaske,De Fryske Marren,Friesland,VBO,5.872074,52.957477
Jousterweg,171,,,8465PE,Oudehaske,De Fryske Marren,Friesland,VBO,5.872161,52.957488
Jousterweg,173,,,8465PE,Oudehaske,De Fryske Marren,Friesland,VBO,5.872281,52.957496
Jousterweg,175,,,8465PE,Oudehaske,De Fryske Marren,Friesland,VBO,5.872400,52.957514
Jousterweg,177,,,8465PE,Oudehaske,De Fryske Marren,Friesland,VBO,5.872105,52.957721
Jousterweg,187,,,8465PE,Oudehaske,De Fryske Marren,Friesland,VBO,5.873475,52.957878
Jousterweg,189,,,8465PE,Oudehaske,De Fryske Marren,Friesland,VBO,5.873713,52.957823
Jousterweg,191,,,8465PE,Oudehaske,De Fryske Marren,Friesland,VBO,5.873921,52.957822
Jousterweg,193,a,,8465PE,Oudehaske,De Fryske Marren,Friesland,VBO,5.874591,52.957810
Jousterweg,193,,,8465PE,Oudehaske,De Fryske Marren,Friesland,VBO,5.874219,52.957830
Jousterweg,195,,,8465PE,Oudehaske,De Fryske Marren,Friesland,VBO,5.875097,52.957817
Jousterweg,197,,,8465PE,Oudehaske,De Fryske Marren,Friesland,VBO,5.875201,52.957826
Jousterweg,199,,,8465PE,Oudehaske,De Fryske Marren,Friesland,VBO,5.875601,52.957626
Jousterweg,201,,,8465PE,Oudehaske,De Fryske Marren,Friesland,VBO,5.876315,52.957596
Jousterweg,203,,,8465PE,Oudehaske,De Fryske Marren,Friesland,VBO,5.876687,52.957604
Jousterweg,207,,,8465PG,Oudehaske,De Fryske Marren,Friesland,VBO,5.877088,52.957611
Jousterweg,209,,,8465PG,Oudehaske,De Fryske Marren,Friesland,VBO,5.877508,52.957870
Jousterweg,211,,,8465PG,Oudehaske,De Fryske Marren,Friesland,VBO,5.876067,52.958056
Jousterweg,213,,,8465PG,Oudehaske,De Fryske Marren,Friesland,VBO,5.877216,52.959651
Jousterweg,217,,,8465PG,Oudehaske,De Fryske Marren,Friesland,VBO,5.877908,52.957689
Jousterweg,219,,,8465PG,Oudehaske,De Fryske Marren,Friesland,VBO,5.878309,52.957660
Jousterweg,221,,,8465PG,Oudehaske,De Fryske Marren,Friesland,VBO,5.878458,52.957669
Jousterweg,225,,,8465PG,Oudehaske,De Fryske Marren,Friesland,VBO,5.878697,52.957712
Jousterweg,229,,,8465PG,Oudehaske,De Fryske Marren,Friesland,VBO,5.878801,52.957712
Jousterweg,231,,,8465PG,Oudehaske,De Fryske Marren,Friesland,VBO,5.879128,52.957720
Jousterweg,237,,,8465PG,Oudehaske,De Fryske Marren,Friesland,VBO,5.879888,52.957761
Jousterweg,239,,,8465PG,Oudehaske,De Fryske Marren,Friesland,VBO,5.880068,52.957869
Jousterweg,241,,,8465PG,Oudehaske,De Fryske Marren,Friesland,VBO,5.880291,52.957841
Jousterweg,243,,,8465PG,Oudehaske,De Fryske Marren,Friesland,VBO,5.881171,52.958017
Plasse,1,,,8465PG,Oudehaske,De Fryske Marren,Friesland,VBO,5.879777,52.961141
Plasse,4,,,8465PG,Oudehaske,De Fryske Marren,Friesland,VBO,5.879815,52.961887
Plasse,5,,,8465PG,Oudehaske,De Fryske Marren,Friesland,VBO,5.879517,52.961798
Jousterweg,245,,,8465PH,Oudehaske,De Fryske Marren,Friesland,VBO,5.881887,52.958194
Jousterweg,247,,,8465PH,Oudehaske,De Fryske Marren,Friesland,VBO,5.882051,52.958229
Jousterweg,249,,,8465PH,Oudehaske,De Fryske Marren,Friesland,VBO,5.882543,52.958353
Jousterweg,251,,,8465PH,Oudehaske,De Fryske Marren,Friesland,VBO,5.882626,52.958631
Jousterweg,253,,,8465PH,Oudehaske,De Fryske Marren,Friesland,VBO,5.882887,52.958432
Jousterweg,257,,,8465PH,Oudehaske,De Fryske Marren,Friesland,VBO,5.884141,52.958858
Jousterweg,267,,,8465PH,Oudehaske,De Fryske Marren,Friesland,VBO,5.887201,52.959654
Jousterweg,269,,,8465PH,Oudehaske,De Fryske Marren,Friesland,VBO,5.888843,52.960097
Jousterweg,271,,,8465PH,Oudehaske,De Fryske Marren,Friesland,VBO,5.890021,52.960226
Jousterweg,277,,,8465PH,Oudehaske,De Fryske Marren,Friesland,VBO,5.892082,52.960847
Jousterweg,279,,,8465PH,Oudehaske,De Fryske Marren,Friesland,VBO,5.891877,52.961144
Jousterweg,281,,,8465PH,Oudehaske,De Fryske Marren,Friesland,VBO,5.891789,52.961270
Jousterweg,283,,,8465PH,Oudehaske,De Fryske Marren,Friesland,VBO,5.891730,52.961361
Jousterweg,285,,,8465PH,Oudehaske,De Fryske Marren,Friesland,VBO,5.891496,52.961658
Jousterweg,287,,,8465PH,Oudehaske,De Fryske Marren,Friesland,VBO,5.892259,52.960850
Jousterweg,289,,,8465PH,Oudehaske,De Fryske Marren,Friesland,VBO,5.892454,52.960908
Jousterweg,2,a,,8465PJ,Oudehaske,De Fryske Marren,Friesland,VBO,5.843034,52.949901
Jousterweg,2,b,,8465PJ,Oudehaske,De Fryske Marren,Friesland,VBO,5.845244,52.952103
Jousterweg,2,,,8465PJ,Oudehaske,De Fryske Marren,Friesland,VBO,5.843243,52.952785
Jousterweg,4,a,,8465PJ,Oudehaske,De Fryske Marren,Friesland,VBO,5.845684,52.950008
Jousterweg,4,,,8465PJ,Oudehaske,De Fryske Marren,Friesland,VBO,5.846002,52.951992
Jousterweg,6,,,8465PJ,Oudehaske,De Fryske Marren,Friesland,VBO,5.847685,52.953550
Jousterweg,8,,,8465PJ,Oudehaske,De Fryske Marren,Friesland,VBO,5.847779,52.953954
Jousterweg,10,,,8465PJ,Oudehaske,De Fryske Marren,Friesland,VBO,5.848584,52.954148
Jousterweg,14,,,8465PJ,Oudehaske,De Fryske Marren,Friesland,VBO,5.848883,52.954219
Jousterweg,16,,,8465PJ,Oudehaske,De Fryske Marren,Friesland,VBO,5.850253,52.954393
Jousterweg,18,,,8465PJ,Oudehaske,De Fryske Marren,Friesland,VBO,5.850761,52.954526
Jousterweg,20,,,8465PJ,Oudehaske,De Fryske Marren,Friesland,VBO,5.851087,52.954435
Jousterweg,22,,,8465PJ,Oudehaske,De Fryske Marren,Friesland,VBO,5.850795,52.953635
Jousterweg,24,,,8465PJ,Oudehaske,De Fryske Marren,Friesland,VBO,5.850882,52.953313
Jousterweg,26,,,8465PJ,Oudehaske,De Fryske Marren,Friesland,VBO,5.850637,52.952648
Jousterweg,28,,,8465PJ,Oudehaske,De Fryske Marren,Friesland,VBO,5.850517,52.951240
Jousterweg,32,,,8465PJ,Oudehaske,De Fryske Marren,Friesland,VBO,5.851202,52.952664
Jousterweg,36,,,8465PK,Oudehaske,De Fryske Marren,Friesland,VBO,5.851505,52.954514
Jousterweg,38,,,8465PK,Oudehaske,De Fryske Marren,Friesland,VBO,5.853061,52.955317
Jousterweg,40,,,8465PK,Oudehaske,De Fryske Marren,Friesland,VBO,5.853339,52.954894
Jousterweg,46,,,8465PK,Oudehaske,De Fryske Marren,Friesland,VBO,5.853658,52.955512
Jousterweg,52,,,8465PK,Oudehaske,De Fryske Marren,Friesland,VBO,5.855026,52.955426
Jousterweg,54,,,8465PK,Oudehaske,De Fryske Marren,Friesland,VBO,5.856030,52.956087
Jousterweg,56,a,,8465PK,Oudehaske,De Fryske Marren,Friesland,VBO,5.856566,52.956094
Jousterweg,56,,,8465PK,Oudehaske,De Fryske Marren,Friesland,VBO,5.856210,52.956212
Jousterweg,58,a,,8465PK,Oudehaske,De Fryske Marren,Friesland,VBO,5.857887,52.956677
Jousterweg,58,,,8465PK,Oudehaske,De Fryske Marren,Friesland,VBO,5.857091,52.956451
Jousterweg,60,,,8465PK,Oudehaske,De Fryske Marren,Friesland,VBO,5.857956,52.956691
Jousterweg,62,a,,8465PK,Oudehaske,De Fryske Marren,Friesland,VBO,5.859728,52.953997
Jousterweg,62,,,8465PK,Oudehaske,De Fryske Marren,Friesland,VBO,5.859910,52.957069
Jousterweg,64,,,8465PK,Oudehaske,De Fryske Marren,Friesland,VBO,5.858693,52.951844
Jousterweg,66,a,,8465PK,Oudehaske,De Fryske Marren,Friesland,VBO,5.860262,52.953851
Jousterweg,66,,,8465PK,Oudehaske,De Fryske Marren,Friesland,VBO,5.860342,52.957113
Jousterweg,68,,,8465PL,Oudehaske,De Fryske Marren,Friesland,VBO,5.860699,52.957084
Jousterweg,70,,,8465PL,Oudehaske,De Fryske Marren,Friesland,VBO,5.861369,52.957162
Jousterweg,72,,,8465PL,Oudehaske,De Fryske Marren,Friesland,VBO,5.861891,52.957214
Jousterweg,76,a,,8465PL,Oudehaske,De Fryske Marren,Friesland,VBO,5.863957,52.957026
Jousterweg,76,b,,8465PL,Oudehaske,De Fryske Marren,Friesland,VBO,5.864627,52.957024
Jousterweg,76,,,8465PL,Oudehaske,De Fryske Marren,Friesland,VBO,5.862620,52.957265
Jousterweg,78,,0001,8465PL,Oudehaske,De Fryske Marren,Friesland,VBO,5.864839,52.957087
Jousterweg,78,,0002,8465PL,Oudehaske,De Fryske Marren,Friesland,VBO,5.864841,52.957070
Jousterweg,78,,0003,8465PL,Oudehaske,De Fryske Marren,Friesland,VBO,5.864910,52.957085
Jousterweg,78,,0004,8465PL,Oudehaske,De Fryske Marren,Friesland,VBO,5.864910,52.957067
Jousterweg,78,,0005,8465PL,Oudehaske,De Fryske Marren,Friesland,VBO,5.865029,52.957085
Jousterweg,78,,0006,8465PL,Oudehaske,De Fryske Marren,Friesland,VBO,5.865029,52.957058
Jousterweg,78,,0007,8465PL,Oudehaske,De Fryske Marren,Friesland,VBO,5.865133,52.957076
Jousterweg,78,,0008,8465PL,Oudehaske,De Fryske Marren,Friesland,VBO,5.865133,52.957058
Jousterweg,78,,0009,8465PL,Oudehaske,De Fryske Marren,Friesland,VBO,5.865222,52.957075
Jousterweg,78,,0010,8465PL,Oudehaske,De Fryske Marren,Friesland,VBO,5.865222,52.957048
Jousterweg,78,,0011,8465PL,Oudehaske,De Fryske Marren,Friesland,VBO,5.864805,52.957050
Jousterweg,78,,0012,8465PL,Oudehaske,De Fryske Marren,Friesland,VBO,5.864909,52.957041
Jousterweg,78,,0013,8465PL,Oudehaske,De Fryske Marren,Friesland,VBO,5.865014,52.957040
Jousterweg,78,,0014,8465PL,Oudehaske,De Fryske Marren,Friesland,VBO,5.865133,52.957031
Jousterweg,78,,,8465PL,Oudehaske,De Fryske Marren,Friesland,VBO,5.865334,52.957048
Jousterweg,80,a,,8465PL,Oudehaske,De Fryske Marren,Friesland,VBO,5.866383,52.956889
Jousterweg,80,,,8465PL,Oudehaske,De Fryske Marren,Friesland,VBO,5.865743,52.957019
Jousterweg,82,,0001,8465PL,Oudehaske,De Fryske Marren,Friesland,VBO,5.866395,52.956689
Jousterweg,82,,0002,8465PL,Oudehaske,De Fryske Marren,Friesland,VBO,5.866404,52.956615
Jousterweg,82,,0003,8465PL,Oudehaske,De Fryske Marren,Friesland,VBO,5.866631,52.956571
Jousterweg,82,,0004,8465PL,Oudehaske,De Fryske Marren,Friesland,VBO,5.866371,52.956488
Jousterweg,82,,0005,8465PL,Oudehaske,De Fryske Marren,Friesland,VBO,5.866370,52.956402
Jousterweg,82,,0020,8465PL,Oudehaske,De Fryske Marren,Friesland,VBO,5.866878,52.956464
Jousterweg,82,,,8465PL,Oudehaske,De Fryske Marren,Friesland,VBO,5.866486,52.957007
Jousterweg,84,,,8465PL,Oudehaske,De Fryske Marren,Friesland,VBO,5.866814,52.957033
Jousterweg,86,,,8465PL,Oudehaske,De Fryske Marren,Friesland,VBO,5.867290,52.957022
Jousterweg,88,,,8465PL,Oudehaske,De Fryske Marren,Friesland,VBO,5.867424,52.957003
Jousterweg,92,,,8465PL,Oudehaske,De Fryske Marren,Friesland,VBO,5.868049,52.957019
Jousterweg,94,,,8465PL,Oudehaske,De Fryske Marren,Friesland,VBO,5.868332,52.957027
Jousterweg,98,a,,8465PM,Oudehaske,De Fryske Marren,Friesland,VBO,5.869195,52.956987
Jousterweg,98,,,8465PM,Oudehaske,De Fryske Marren,Friesland,VBO,5.868808,52.957052
Jousterweg,100,,,8465PM,Oudehaske,De Fryske Marren,Friesland,VBO,5.869463,52.957013
Jousterweg,102,,,8465PM,Oudehaske,De Fryske Marren,Friesland,VBO,5.869672,52.957066
Jousterweg,104,,,8465PM,Oudehaske,De Fryske Marren,Friesland,VBO,5.869832,52.956742
Jousterweg,108,,,8465PM,Oudehaske,De Fryske Marren,Friesland,VBO,5.869895,52.957092
Jousterweg,110,,,8465PM,Oudehaske,De Fryske Marren,Friesland,VBO,5.870282,52.957109
Jousterweg,112,,,8465PM,Oudehaske,De Fryske Marren,Friesland,VBO,5.870564,52.957063
Jousterweg,114,,,8465PN,Oudehaske,De Fryske Marren,Friesland,VBO,5.870993,52.956836
Jousterweg,116,,,8465PN,Oudehaske,De Fryske Marren,Friesland,VBO,5.871176,52.957204
Jousterweg,118,a,,8465PN,Oudehaske,De Fryske Marren,Friesland,VBO,5.871653,52.957247
Jousterweg,118,,,8465PN,Oudehaske,De Fryske Marren,Friesland,VBO,5.871370,52.957221
Jousterweg,120,,,8465PN,Oudehaske,De Fryske Marren,Friesland,VBO,5.871906,52.957264
Jousterweg,122,,,8465PN,Oudehaske,De Fryske Marren,Friesland,VBO,5.872040,52.957272
Jousterweg,124,,,8465PN,Oudehaske,De Fryske Marren,Friesland,VBO,5.872204,52.957281
Jousterweg,126,,,8465PN,Oudehaske,De Fryske Marren,Friesland,VBO,5.872546,52.957315
Jousterweg,128,,,8465PN,Oudehaske,De Fryske Marren,Friesland,VBO,5.872530,52.957145
Jousterweg,130,,,8465PN,Oudehaske,De Fryske Marren,Friesland,VBO,5.873319,52.957222
Jousterweg,132,,,8465PN,Oudehaske,De Fryske Marren,Friesland,VBO,5.873813,52.957445
Jousterweg,134,,,8465PN,Oudehaske,De Fryske Marren,Friesland,VBO,5.873917,52.957453
Jousterweg,136,,,8465PN,Oudehaske,De Fryske Marren,Friesland,VBO,5.873991,52.957453
Jousterweg,138,a,,8465PN,Oudehaske,De Fryske Marren,Friesland,VBO,5.875240,52.957322
Jousterweg,138,,,8465PN,Oudehaske,De Fryske Marren,Friesland,VBO,5.874304,52.957452
Jousterweg,140,a,,8465PN,Oudehaske,De Fryske Marren,Friesland,VBO,5.877322,52.956895
Jousterweg,140,,,8465PN,Oudehaske,De Fryske Marren,Friesland,VBO,5.876041,52.957103
Jousterweg,144,,,8465PN,Oudehaske,De Fryske Marren,Friesland,VBO,5.879571,52.957376
Jousterweg,146,,,8465PP,Oudehaske,De Fryske Marren,Friesland,VBO,5.880152,52.957455
Jousterweg,148,,,8465PP,Oudehaske,De Fryske Marren,Friesland,VBO,5.881345,52.957666
Jousterweg,150,,,8465PP,Oudehaske,De Fryske Marren,Friesland,VBO,5.882224,52.957761
Jousterweg,152,,,8465PP,Oudehaske,De Fryske Marren,Friesland,VBO,5.882583,52.957903
Jousterweg,154,,,8465PP,Oudehaske,De Fryske Marren,Friesland,VBO,5.882643,52.957939
Jousterweg,158,,,8465PP,Oudehaske,De Fryske Marren,Friesland,VBO,5.882956,52.958018
Jousterweg,160,,,8465PP,Oudehaske,De Fryske Marren,Friesland,VBO,5.883504,52.958230
Jousterweg,162,,,8465PP,Oudehaske,De Fryske Marren,Friesland,VBO,5.884003,52.958436
Jousterweg,164,,,8465PP,Oudehaske,De Fryske Marren,Friesland,VBO,5.884316,52.958516
Jousterweg,166,,,8465PP,Oudehaske,De Fryske Marren,Friesland,VBO,5.884882,52.958559
Jousterweg,168,,,8465PP,Oudehaske,De Fryske Marren,Friesland,VBO,5.885421,52.958808
Jousterweg,170,,,8465PP,Oudehaske,De Fryske Marren,Friesland,VBO,5.885686,52.958871
Jousterweg,172,,,8465PP,Oudehaske,De Fryske Marren,Friesland,VBO,5.885749,52.958878
Jousterweg,176,,,8465PP,Oudehaske,De Fryske Marren,Friesland,VBO,5.886002,52.958913
Jousterweg,178,,,8465PR,Oudehaske,De Fryske Marren,Friesland,VBO,5.886375,52.958975
Jousterweg,182,,,8465PR,Oudehaske,De Fryske Marren,Friesland,VBO,5.886972,52.959125
Jousterweg,184,,,8465PR,Oudehaske,De Fryske Marren,Friesland,VBO,5.887285,52.959187
Jousterweg,186,,,8465PR,Oudehaske,De Fryske Marren,Friesland,VBO,5.887792,52.959256
Jousterweg,188,,,8465PR,Oudehaske,De Fryske Marren,Friesland,VBO,5.888494,52.959451
Jousterweg,190,,,8465PR,Oudehaske,De Fryske Marren,Friesland,VBO,5.889223,52.959466
Jousterweg,192,,,8465PR,Oudehaske,De Fryske Marren,Friesland,VBO,5.889464,52.959672
Jousterweg,194,,,8465PR,Oudehaske,De Fryske Marren,Friesland,VBO,5.890240,52.959920
Jousterweg,196,,,8465PR,Oudehaske,De Fryske Marren,Friesland,VBO,5.891285,52.960185
Jousterweg,198,,,8465PR,Oudehaske,De Fryske Marren,Friesland,VBO,5.891420,52.960283
Jousterweg,200,,,8465PR,Oudehaske,De Fryske Marren,Friesland,VBO,5.891555,52.960328
Jousterweg,204,,,8465PR,Oudehaske,De Fryske Marren,Friesland,VBO,5.891853,52.960416
Jousterweg,206,,,8465PR,Oudehaske,De Fryske Marren,Friesland,VBO,5.892211,52.960451
Jousterweg,208,,,8465PR,Oudehaske,De Fryske Marren,Friesland,VBO,5.892688,52.960557
Wiidswâl,1,,,8465PS,Oudehaske,De Fryske Marren,Friesland,VBO,5.868805,52.956728
Wiidswâl,3,,,8465PS,Oudehaske,De Fryske Marren,Friesland,VBO,5.868817,52.956468
Wiidswâl,5,,,8465PS,Oudehaske,De Fryske Marren,Friesland,VBO,5.868829,52.956261
Wiidswâl,7,,,8465PS,Oudehaske,De Fryske Marren,Friesland,VBO,5.868931,52.956000
Wiidswâl,9,a,,8465PS,Oudehaske,De Fryske Marren,Friesland,VBO,5.869246,52.956259
Wiidswâl,9,,,8465PS,Oudehaske,De Fryske Marren,Friesland,VBO,5.869274,52.956070
Wiidswâl,11,a,,8465PS,Oudehaske,De Fryske Marren,Friesland,VBO,5.869616,52.956069
Wiidswâl,11,,,8465PS,Oudehaske,De Fryske Marren,Friesland,VBO,5.869559,52.956276
Wiidswâl,13,a,,8465PS,Oudehaske,De Fryske Marren,Friesland,VBO,5.869716,52.955682
Wiidswâl,13,,,8465PS,Oudehaske,De Fryske Marren,Friesland,VBO,5.869659,52.955880
Wiidswâl,15,,,8465PS,Oudehaske,De Fryske Marren,Friesland,VBO,5.869329,52.955711
Wiidswâl,17,,,8465PS,Oudehaske,De Fryske Marren,Friesland,VBO,5.868927,52.955694
Wiidswâl,19,,,8465PS,Oudehaske,De Fryske Marren,Friesland,VBO,5.868969,52.955470
Wiidswâl,21,,,8465PS,Oudehaske,De Fryske Marren,Friesland,VBO,5.869086,52.955208
Wiidswâl,23,,,8465PS,Oudehaske,De Fryske Marren,Friesland,VBO,5.869518,52.955288
Wiidswâl,25,,,8465PS,Oudehaske,De Fryske Marren,Friesland,VBO,5.869742,52.955386
Wiidswâl,27,a,,8465PS,Oudehaske,De Fryske Marren,Friesland,VBO,5.869798,52.955026
Wiidswâl,27,,,8465PS,Oudehaske,De Fryske Marren,Friesland,VBO,5.870303,52.954934
Wiidswâl,29,,,8465PS,Oudehaske,De Fryske Marren,Friesland,VBO,5.869455,52.954973
Wiidswâl,31,,,8465PS,Oudehaske,De Fryske Marren,Friesland,VBO,5.869157,52.954948
Wiidswâl,33,,,8465PS,Oudehaske,De Fryske Marren,Friesland,VBO,5.869748,52.954559
Wiidswâl,35,,,8465PS,Oudehaske,De Fryske Marren,Friesland,VBO,5.869567,52.954371
Wiidswâl,37,,,8465PS,Oudehaske,De Fryske Marren,Friesland,VBO,5.869714,52.954190
Wiidswâl,39,,,8465PS,Oudehaske,De Fryske Marren,Friesland,VBO,5.869623,52.954020
Wiidswâl,41,,,8465PT,Oudehaske,De Fryske Marren,Friesland,VBO,5.869784,52.953804
Wiidswâl,43,,,8465PT,Oudehaske,De Fryske Marren,Friesland,VBO,5.869648,52.953589
Wiidswâl,45,,,8465PT,Oudehaske,De Fryske Marren,Friesland,VBO,5.869854,52.953372
Wiidswâl,47,,,8465PT,Oudehaske,De Fryske Marren,Friesland,VBO,5.869718,52.953166
Wiidswâl,49,a,,8465PT,Oudehaske,De Fryske Marren,Friesland,VBO,5.869716,52.952977
Wiidswâl,49,,,8465PT,Oudehaske,De Fryske Marren,Friesland,VBO,5.870013,52.952922
Wiidswâl,51,,,8465PT,Oudehaske,De Fryske Marren,Friesland,VBO,5.870548,52.952893
Wiidswâl,53,,,8465PT,Oudehaske,De Fryske Marren,Friesland,VBO,5.870905,52.952892
Wiidswâl,55,,,8465PT,Oudehaske,De Fryske Marren,Friesland,VBO,5.871293,52.952989
Wiidswâl,57,,,8465PT,Oudehaske,De Fryske Marren,Friesland,VBO,5.871162,52.953295
Wiidswâl,59,,,8465PT,Oudehaske,De Fryske Marren,Friesland,VBO,5.870820,52.953269
Wiidswâl,61,,,8465PT,Oudehaske,De Fryske Marren,Friesland,VBO,5.870477,52.953181
Wiidswâl,63,,,8465PT,Oudehaske,De Fryske Marren,Friesland,VBO,5.870334,52.953766
Wiidswâl,65,,,8465PT,Oudehaske,De Fryske Marren,Friesland,VBO,5.870692,52.953800
Wiidswâl,67,,,8465PT,Oudehaske,De Fryske Marren,Friesland,VBO,5.871079,52.953808
Wiidswâl,69,,,8465PT,Oudehaske,De Fryske Marren,Friesland,VBO,5.871023,52.954122
Wiidswâl,71,,,8465PT,Oudehaske,De Fryske Marren,Friesland,VBO,5.870665,52.954097
Wiidswâl,73,,,8465PT,Oudehaske,De Fryske Marren,Friesland,VBO,5.870338,52.954062
Wiidswâl,75,,,8465PT,Oudehaske,De Fryske Marren,Friesland,VBO,5.870342,52.954404
Wiidswâl,77,,,8465PT,Oudehaske,De Fryske Marren,Friesland,VBO,5.870699,52.954438
Wiidswâl,79,,,8465PT,Oudehaske,De Fryske Marren,Friesland,VBO,5.871027,52.954464
Wiidswâl,2,a,,8465PV,Oudehaske,De Fryske Marren,Friesland,VBO,5.868308,52.956191
Wiidswâl,2,,,8465PV,Oudehaske,De Fryske Marren,Friesland,VBO,5.868043,52.956444
Wiidswâl,4,,,8465PV,Oudehaske,De Fryske Marren,Friesland,VBO,5.868395,52.955975
Wiidswâl,6,,,8465PV,Oudehaske,De Fryske Marren,Friesland,VBO,5.868408,52.955804
Wiidswâl,8,,,8465PV,Oudehaske,De Fryske Marren,Friesland,VBO,5.868435,52.955616
Wiidswâl,10,,,8465PV,Oudehaske,De Fryske Marren,Friesland,VBO,5.868463,52.955391
Wiidswâl,12,,,8465PV,Oudehaske,De Fryske Marren,Friesland,VBO,5.868505,52.955184
Wiidswâl,14,,,8465PV,Oudehaske,De Fryske Marren,Friesland,VBO,5.868590,52.954770
Wiidswâl,16,,,8465PV,Oudehaske,De Fryske Marren,Friesland,VBO,5.868232,52.954718
Wiidswâl,18,,,8465PV,Oudehaske,De Fryske Marren,Friesland,VBO,5.867756,52.954765
Wiidswâl,20,,,8465PV,Oudehaske,De Fryske Marren,Friesland,VBO,5.867369,52.954685
Wiidswâl,22,,,8465PV,Oudehaske,De Fryske Marren,Friesland,VBO,5.867395,52.954416
Wiidswâl,24,a,,8465PV,Oudehaske,De Fryske Marren,Friesland,VBO,5.868000,52.953910
Wiidswâl,24,,,8465PV,Oudehaske,De Fryske Marren,Friesland,VBO,5.867811,52.954333
Wiidswâl,26,a,,8465PV,Oudehaske,De Fryske Marren,Friesland,VBO,5.868929,52.954581
Wiidswâl,26,,,8465PV,Oudehaske,De Fryske Marren,Friesland,VBO,5.868616,52.954447
Wiidswâl,28,,,8465PV,Oudehaske,De Fryske Marren,Friesland,VBO,5.868375,52.954187
Wiidswâl,30,,,8465PV,Oudehaske,De Fryske Marren,Friesland,VBO,5.868551,52.953971
Wiidswâl,32,,,8465PV,Oudehaske,De Fryske Marren,Friesland,VBO,5.868533,52.953710
Wiidswâl,34,,,8465PV,Oudehaske,De Fryske Marren,Friesland,VBO,5.868769,52.953493
Wiidswâl,36,,,8465PV,Oudehaske,De Fryske Marren,Friesland,VBO,5.868603,52.953233
Wiidswâl,38,,,8465PV,Oudehaske,De Fryske Marren,Friesland,VBO,5.868794,52.953071
Wiidswâl,40,,,8465PV,Oudehaske,De Fryske Marren,Friesland,VBO,5.868658,52.952847
De Hoge Bouwen,1,,,8465PW,Oudehaske,De Fryske Marren,Friesland,VBO,5.871892,52.954685
De Hoge Bouwen,2,a,,8465PW,Oudehaske,De Fryske Marren,Friesland,VBO,5.872186,52.954387
De Hoge Bouwen,2,,,8465PW,Oudehaske,De Fryske Marren,Friesland,VBO,5.872324,52.954728
De Hoge Bouwen,3,,,8465PW,Oudehaske,De Fryske Marren,Friesland,VBO,5.871893,52.954775
De Hoge Bouwen,4,,,8465PW,Oudehaske,De Fryske Marren,Friesland,VBO,5.872518,52.954745
De Hoge Bouwen,5,,,8465PW,Oudehaske,De Fryske Marren,Friesland,VBO,5.871865,52.954874
De Hoge Bouwen,6,,,8465PW,Oudehaske,De Fryske Marren,Friesland,VBO,5.872711,52.954736
De Hoge Bouwen,7,,,8465PW,Oudehaske,De Fryske Marren,Friesland,VBO,5.871866,52.954973
De Hoge Bouwen,8,,,8465PW,Oudehaske,De Fryske Marren,Friesland,VBO,5.872905,52.954753
De Hoge Bouwen,9,,,8465PW,Oudehaske,De Fryske Marren,Friesland,VBO,5.872134,52.954980
De Hoge Bouwen,10,,,8465PW,Oudehaske,De Fryske Marren,Friesland,VBO,5.873098,52.954743
De Hoge Bouwen,11,,,8465PW,Oudehaske,De Fryske Marren,Friesland,VBO,5.872282,52.954989
De Hoge Bouwen,12,,,8465PW,Oudehaske,De Fryske Marren,Friesland,VBO,5.873292,52.954760
De Hoge Bouwen,13,,,8465PW,Oudehaske,De Fryske Marren,Friesland,VBO,5.872461,52.954997
De Hoge Bouwen,15,,,8465PW,Oudehaske,De Fryske Marren,Friesland,VBO,5.872595,52.955015
De Hoge Bouwen,17,,,8465PW,Oudehaske,De Fryske Marren,Friesland,VBO,5.872774,52.955023
De Hoge Bouwen,19,,,8465PW,Oudehaske,De Fryske Marren,Friesland,VBO,5.872908,52.955031
De Hoge Bouwen,21,,,8465PW,Oudehaske,De Fryske Marren,Friesland,VBO,5.873087,52.955040
De Hoge Bouwen,23,,,8465PW,Oudehaske,De Fryske Marren,Friesland,VBO,5.873236,52.955057
Wibrandus van Haschastraat,1,,,8465PX,Oudehaske,De Fryske Marren,Friesland,VBO,5.871603,52.955477
Wibrandus van Haschastraat,3,,,8465PX,Oudehaske,De Fryske Marren,Friesland,VBO,5.871767,52.955494
Wibrandus van Haschastraat,5,,,8465PX,Oudehaske,De Fryske Marren,Friesland,VBO,5.871901,52.955503
Wibrandus van Haschastraat,7,,,8465PX,Oudehaske,De Fryske Marren,Friesland,VBO,5.872661,52.955580
Wibrandus van Haschastraat,9,,,8465PX,Oudehaske,De Fryske Marren,Friesland,VBO,5.872750,52.955589
Wibrandus van Haschastraat,11,,,8465PX,Oudehaske,De Fryske Marren,Friesland,VBO,5.872871,52.955610
Wibrandus van Haschastraat,13,,,8465PX,Oudehaske,De Fryske Marren,Friesland,VBO,5.872929,52.955606
Wibrandus van Haschastraat,15,,,8465PX,Oudehaske,De Fryske Marren,Friesland,VBO,5.873033,52.955615
Wibrandus van Haschastraat,17,,,8465PX,Oudehaske,De Fryske Marren,Friesland,VBO,5.873138,52.955623
Wibrandus van Haschastraat,2,,,8465PZ,Oudehaske,De Fryske Marren,Friesland,VBO,5.871645,52.955243
Wibrandus van Haschastraat,4,,,8465PZ,Oudehaske,De Fryske Marren,Friesland,VBO,5.871765,52.955261
Wibrandus van Haschastraat,6,,,8465PZ,Oudehaske,De Fryske Marren,Friesland,VBO,5.871914,52.955269
Wibrandus van Haschastraat,8,,,8465PZ,Oudehaske,De Fryske Marren,Friesland,VBO,5.872033,52.955286
Wibrandus van Haschastraat,10,,,8465PZ,Oudehaske,De Fryske Marren,Friesland,VBO,5.872167,52.955304
Wibrandus van Haschastraat,12,,,8465PZ,Oudehaske,De Fryske Marren,Friesland,VBO,5.872256,52.955312
Wibrandus van Haschastraat,14,,,8465PZ,Oudehaske,De Fryske Marren,Friesland,VBO,5.872361,52.955321
Wibrandus van Haschastraat,16,,,8465PZ,Oudehaske,De Fryske Marren,Friesland,VBO,5.872465,52.955330
Wibrandus van Haschastraat,18,,,8465PZ,Oudehaske,De Fryske Marren,Friesland,VBO,5.872569,52.955338
Wibrandus van Haschastraat,20,,,8465PZ,Oudehaske,De Fryske Marren,Friesland,VBO,5.872658,52.955347
Wibrandus van Haschastraat,22,,,8465PZ,Oudehaske,De Fryske Marren,Friesland,VBO,5.872807,52.955337
Wibrandus van Haschastraat,24,,,8465PZ,Oudehaske,De Fryske Marren,Friesland,VBO,5.872897,52.955346
Wibrandus van Haschastraat,26,,,8465PZ,Oudehaske,De Fryske Marren,Friesland,VBO,5.873001,52.955354
Wibrandus van Haschastraat,28,,,8465PZ,Oudehaske,De Fryske Marren,Friesland,VBO,5.873105,52.955363
Wibrandus van Haschastraat,30,,,8465PZ,Oudehaske,De Fryske Marren,Friesland,VBO,5.873194,52.955372
Marten Jansstraat,1,,,8465RA,Oudehaske,De Fryske Marren,Friesland,VBO,5.872104,52.956320
Marten Jansstraat,3,,,8465RA,Oudehaske,De Fryske Marren,Friesland,VBO,5.872118,52.956266
Marten Jansstraat,5,,,8465RA,Oudehaske,De Fryske Marren,Friesland,VBO,5.872132,52.956194
Marten Jansstraat,7,,,8465RA,Oudehaske,De Fryske Marren,Friesland,VBO,5.872146,52.956131
Marten Jansstraat,9,,,8465RA,Oudehaske,De Fryske Marren,Friesland,VBO,5.872175,52.956032
Marten Jansstraat,11,,,8465RA,Oudehaske,De Fryske Marren,Friesland,VBO,5.872174,52.955978
Marten Jansstraat,13,,,8465RA,Oudehaske,De Fryske Marren,Friesland,VBO,5.872188,52.955906
Marten Jansstraat,15,,,8465RA,Oudehaske,De Fryske Marren,Friesland,VBO,5.872203,52.955852
Marten Jansstraat,17,,,8465RA,Oudehaske,De Fryske Marren,Friesland,VBO,5.872231,52.955753
Marten Jansstraat,19,,,8465RA,Oudehaske,De Fryske Marren,Friesland,VBO,5.872246,52.955690
Marten Jansstraat,21,,,8465RA,Oudehaske,De Fryske Marren,Friesland,VBO,5.872260,52.955627
Marten Jansstraat,23,,,8465RA,Oudehaske,De Fryske Marren,Friesland,VBO,5.872274,52.955564
Marten Jansstraat,2,,,8465RB,Oudehaske,De Fryske Marren,Friesland,VBO,5.871702,52.956312
Marten Jansstraat,4,,,8465RB,Oudehaske,De Fryske Marren,Friesland,VBO,5.871716,52.956231
Marten Jansstraat,6,,,8465RB,Oudehaske,De Fryske Marren,Friesland,VBO,5.871745,52.956150
Marten Jansstraat,8,,,8465RB,Oudehaske,De Fryske Marren,Friesland,VBO,5.871759,52.956060
Marten Jansstraat,10,,,8465RB,Oudehaske,De Fryske Marren,Friesland,VBO,5.871773,52.955988
Marten Jansstraat,12,,,8465RB,Oudehaske,De Fryske Marren,Friesland,VBO,5.871787,52.955907
Marten Jansstraat,14,,,8465RB,Oudehaske,De Fryske Marren,Friesland,VBO,5.871845,52.955808
Marten Jansstraat,16,,,8465RB,Oudehaske,De Fryske Marren,Friesland,VBO,5.871858,52.955756
Julianastraat,1,,,8465RC,Oudehaske,De Fryske Marren,Friesland,VBO,5.871604,52.956888
Julianastraat,2,,,8465RC,Oudehaske,De Fryske Marren,Friesland,VBO,5.871376,52.956421
Julianastraat,4,,,8465RC,Oudehaske,De Fryske Marren,Friesland,VBO,5.871480,52.956439
Julianastraat,5,,,8465RC,Oudehaske,De Fryske Marren,Friesland,VBO,5.872608,52.956866
Julianastraat,6,,,8465RC,Oudehaske,De Fryske Marren,Friesland,VBO,5.871599,52.956447
Julianastraat,8,,,8465RC,Oudehaske,De Fryske Marren,Friesland,VBO,5.871674,52.956456
Julianastraat,10,,,8465RC,Oudehaske,De Fryske Marren,Friesland,VBO,5.872076,52.956490
Julianastraat,12,,,8465RC,Oudehaske,De Fryske Marren,Friesland,VBO,5.872299,52.956507
Julianastraat,14,,,8465RC,Oudehaske,De Fryske Marren,Friesland,VBO,5.872433,52.956516
Julianastraat,16,,,8465RC,Oudehaske,De Fryske Marren,Friesland,VBO,5.872583,52.956551
Julianastraat,18,,,8465RC,Oudehaske,De Fryske Marren,Friesland,VBO,5.872717,52.956560
Julianastraat,20,,,8465RC,Oudehaske,De Fryske Marren,Friesland,VBO,5.872820,52.956532
Julianastraat,22,,,8465RC,Oudehaske,De Fryske Marren,Friesland,VBO,5.872955,52.956550
De Vervening,2,,,8465RD,Oudehaske,De Fryske Marren,Friesland,VBO,5.872967,52.956370
De Vervening,4,,,8465RD,Oudehaske,De Fryske Marren,Friesland,VBO,5.872997,52.956307
De Vervening,6,,,8465RD,Oudehaske,De Fryske Marren,Friesland,VBO,5.873010,52.956226
De Vervening,8,,,8465RD,Oudehaske,De Fryske Marren,Friesland,VBO,5.873054,52.956127
De Vervening,10,,,8465RD,Oudehaske,De Fryske Marren,Friesland,VBO,5.873083,52.956037
De Vervening,12,,,8465RD,Oudehaske,De Fryske Marren,Friesland,VBO,5.873111,52.955929
De Vervening,14,,,8465RD,Oudehaske,De Fryske Marren,Friesland,VBO,5.873125,52.955839
De Vervening,16,,,8465RD,Oudehaske,De Fryske Marren,Friesland,VBO,5.873154,52.954383
De Vervening,18,,,8465RD,Oudehaske,De Fryske Marren,Friesland,VBO,5.873034,52.954375
De Vervening,20,,,8465RD,Oudehaske,De Fryske Marren,Friesland,VBO,5.872855,52.954313
De Vervening,22,,,8465RD,Oudehaske,De Fryske Marren,Friesland,VBO,5.872721,52.954304
De Vervening,24,,,8465RD,Oudehaske,De Fryske Marren,Friesland,VBO,5.873165,52.954114
De Vervening,26,,,8465RD,Oudehaske,De Fryske Marren,Friesland,VBO,5.873209,52.953997
De Vervening,28,,,8465RD,Oudehaske,De Fryske Marren,Friesland,VBO,5.873223,52.953934
De Vervening,30,,,8465RD,Oudehaske,De Fryske Marren,Friesland,VBO,5.873281,52.953826
De Vervening,32,,,8465RD,Oudehaske,De Fryske Marren,Friesland,VBO,5.873296,52.953772
De Vervening,34,,,8465RD,Oudehaske,De Fryske Marren,Friesland,VBO,5.873324,52.953664
De Vervening,36,,,8465RD,Oudehaske,De Fryske Marren,Friesland,VBO,5.873353,52.953592
De Vervening,1,a,,8465RE,Oudehaske,De Fryske Marren,Friesland,VBO,5.873487,52.956224
De Vervening,1,b,,8465RE,Oudehaske,De Fryske Marren,Friesland,VBO,5.873672,52.955495
De Vervening,1,,,8465RE,Oudehaske,De Fryske Marren,Friesland,VBO,5.873432,52.956629
De Vervening,3,,,8465RE,Oudehaske,De Fryske Marren,Friesland,VBO,5.873686,52.955432
De Vervening,5,,,8465RE,Oudehaske,De Fryske Marren,Friesland,VBO,5.873700,52.955370
De Vervening,7,,,8465RE,Oudehaske,De Fryske Marren,Friesland,VBO,5.873789,52.955288
De Vervening,9,,,8465RE,Oudehaske,De Fryske Marren,Friesland,VBO,5.873803,52.955225
De Vervening,11,,,8465RE,Oudehaske,De Fryske Marren,Friesland,VBO,5.873817,52.955162
De Vervening,13,,,8465RE,Oudehaske,De Fryske Marren,Friesland,VBO,5.873891,52.955090
De Vervening,15,,,8465RE,Oudehaske,De Fryske Marren,Friesland,VBO,5.873905,52.955018
De Vervening,17,,,8465RE,Oudehaske,De Fryske Marren,Friesland,VBO,5.873934,52.954955
De Vervening,19,,,8465RE,Oudehaske,De Fryske Marren,Friesland,VBO,5.873992,52.954883
De Vervening,21,,,8465RE,Oudehaske,De Fryske Marren,Friesland,VBO,5.874007,52.954820
De Vervening,23,,,8465RE,Oudehaske,De Fryske Marren,Friesland,VBO,5.874021,52.954766
De Vervening,25,,,8465RE,Oudehaske,De Fryske Marren,Friesland,VBO,5.873885,52.954587
De Vervening,27,,,8465RE,Oudehaske,De Fryske Marren,Friesland,VBO,5.873795,52.954524
De Vervening,29,,,8465RE,Oudehaske,De Fryske Marren,Friesland,VBO,5.873734,52.954417
De Vervening,31,,,8465RE,Oudehaske,De Fryske Marren,Friesland,VBO,5.873674,52.954363
De Vervening,33,,,8465RE,Oudehaske,De Fryske Marren,Friesland,VBO,5.873583,52.954175
De Vervening,35,,,8465RE,Oudehaske,De Fryske Marren,Friesland,VBO,5.873567,52.954058
De Vervening,37,,,8465RE,Oudehaske,De Fryske Marren,Friesland,VBO,5.873581,52.953995
De Vervening,39,,,8465RE,Oudehaske,De Fryske Marren,Friesland,VBO,5.873639,52.953887
De Vervening,41,,,8465RE,Oudehaske,De Fryske Marren,Friesland,VBO,5.873668,52.953815
De Vervening,43,,,8465RE,Oudehaske,De Fryske Marren,Friesland,VBO,5.873697,52.953698
De Vervening,45,,,8465RE,Oudehaske,De Fryske Marren,Friesland,VBO,5.873711,52.953635
De Vervening,47,,,8465RE,Oudehaske,De Fryske Marren,Friesland,VBO,5.873753,52.953464
De Vervening,49,,,8465RE,Oudehaske,De Fryske Marren,Friesland,VBO,5.873768,52.953401
De Vervening,51,,,8465RE,Oudehaske,De Fryske Marren,Friesland,VBO,5.873796,52.953275
De Vervening,53,,,8465RE,Oudehaske,De Fryske Marren,Friesland,VBO,5.873825,52.953212
Jasker,1,,,8465RG,Oudehaske,De Fryske Marren,Friesland,VBO,5.872694,52.953199
Jasker,3,,,8465RG,Oudehaske,De Fryske Marren,Friesland,VBO,5.872932,52.953225
Jasker,5,,,8465RG,Oudehaske,De Fryske Marren,Friesland,VBO,5.873275,52.953259
Jasker,7,,,8465RG,Oudehaske,De Fryske Marren,Friesland,VBO,5.873704,52.953069
Jasker,9,,,8465RG,Oudehaske,De Fryske Marren,Friesland,VBO,5.873719,52.953006
Jasker,11,,,8465RG,Oudehaske,De Fryske Marren,Friesland,VBO,5.874135,52.953013
Jasker,13,,,8465RG,Oudehaske,De Fryske Marren,Friesland,VBO,5.874254,52.953022
Jasker,15,,,8465RG,Oudehaske,De Fryske Marren,Friesland,VBO,5.874434,52.953093
Jasker,17,,,8465RG,Oudehaske,De Fryske Marren,Friesland,VBO,5.874538,52.953102
Jasker,2,a,,8465RH,Oudehaske,De Fryske Marren,Friesland,VBO,5.872186,52.953021
Jasker,2,,,8465RH,Oudehaske,De Fryske Marren,Friesland,VBO,5.872157,52.953093
Jasker,4,a,,8465RH,Oudehaske,De Fryske Marren,Friesland,VBO,5.872303,52.952805
Jasker,4,,,8465RH,Oudehaske,De Fryske Marren,Friesland,VBO,5.872274,52.952886
Jasker,6,,,8465RH,Oudehaske,De Fryske Marren,Friesland,VBO,5.873243,52.953017
Jasker,8,,,8465RH,Oudehaske,De Fryske Marren,Friesland,VBO,5.873240,52.952747
Jasker,10,,,8465RH,Oudehaske,De Fryske Marren,Friesland,VBO,5.873522,52.952710
Jasker,12,,,8465RH,Oudehaske,De Fryske Marren,Friesland,VBO,5.873850,52.952763
Jasker,14,,,8465RH,Oudehaske,De Fryske Marren,Friesland,VBO,5.874505,52.952841
Jasker,16,,,8465RH,Oudehaske,De Fryske Marren,Friesland,VBO,5.874819,52.952930
Haskerfinne,2,,,8465RJ,Oudehaske,De Fryske Marren,Friesland,VBO,5.874180,52.954370
Haskerfinne,4,,,8465RJ,Oudehaske,De Fryske Marren,Friesland,VBO,5.874194,52.954289
Haskerfinne,6,,,8465RJ,Oudehaske,De Fryske Marren,Friesland,VBO,5.874223,52.954190
Haskerfinne,8,,,8465RJ,Oudehaske,De Fryske Marren,Friesland,VBO,5.874237,52.954127
Haskerfinne,10,,,8465RJ,Oudehaske,De Fryske Marren,Friesland,VBO,5.874236,52.954019
Haskerfinne,12,,,8465RJ,Oudehaske,De Fryske Marren,Friesland,VBO,5.874265,52.953947
Haskerfinne,14,,,8465RJ,Oudehaske,De Fryske Marren,Friesland,VBO,5.874278,52.953830
Haskerfinne,16,,,8465RJ,Oudehaske,De Fryske Marren,Friesland,VBO,5.874306,52.953687
Haskerfinne,18,,,8465RJ,Oudehaske,De Fryske Marren,Friesland,VBO,5.874291,52.953597
Haskerfinne,20,,,8465RJ,Oudehaske,De Fryske Marren,Friesland,VBO,5.874320,52.953597
Haskerfinne,22,,,8465RJ,Oudehaske,De Fryske Marren,Friesland,VBO,5.874334,52.953525
Haskerfinne,24,,,8465RJ,Oudehaske,De Fryske Marren,Friesland,VBO,5.874305,52.953516
Haskerfinne,26,,,8465RJ,Oudehaske,De Fryske Marren,Friesland,VBO,5.874394,52.953489
Haskerfinne,28,,,8465RJ,Oudehaske,De Fryske Marren,Friesland,VBO,5.874364,52.953489
Haskerfinne,30,,,8465RJ,Oudehaske,De Fryske Marren,Friesland,VBO,5.874408,52.953426
Haskerfinne,32,,,8465RJ,Oudehaske,De Fryske Marren,Friesland,VBO,5.874378,52.953426
Haskerfinne,34,,,8465RJ,Oudehaske,De Fryske Marren,Friesland,VBO,5.874407,52.953390
Haskerfinne,36,,,8465RJ,Oudehaske,De Fryske Marren,Friesland,VBO,5.874378,52.953390
Haskerfinne,38,,,8465RJ,Oudehaske,De Fryske Marren,Friesland,VBO,5.874422,52.953336
Haskerfinne,40,,,8465RJ,Oudehaske,De Fryske Marren,Friesland,VBO,5.874392,52.953336
Haskerfinne,3,,,8465RK,Oudehaske,De Fryske Marren,Friesland,VBO,5.874725,52.953829
Haskerfinne,5,,,8465RK,Oudehaske,De Fryske Marren,Friesland,VBO,5.874739,52.953766
Haskerfinne,7,,,8465RK,Oudehaske,De Fryske Marren,Friesland,VBO,5.874753,52.953712
Haskerfinne,9,,,8465RK,Oudehaske,De Fryske Marren,Friesland,VBO,5.874841,52.953613
Haskerfinne,11,,,8465RK,Oudehaske,De Fryske Marren,Friesland,VBO,5.874841,52.953568
Haskerfinne,13,,,8465RK,Oudehaske,De Fryske Marren,Friesland,VBO,5.874870,52.953514
Haskerfinne,15,,,8465RK,Oudehaske,De Fryske Marren,Friesland,VBO,5.874869,52.953460
Haskerfinne,17,,,8465RK,Oudehaske,De Fryske Marren,Friesland,VBO,5.874884,52.953424
Toel,3,a,,8465RL,Oudehaske,De Fryske Marren,Friesland,VBO,5.875296,52.956999
Toel,3,,,8465RL,Oudehaske,De Fryske Marren,Friesland,VBO,5.875253,52.957134
Toel,5,,,8465RL,Oudehaske,De Fryske Marren,Friesland,VBO,5.875294,52.956855
Toel,7,,,8465RL,Oudehaske,De Fryske Marren,Friesland,VBO,5.875338,52.956729
Toel,9,,,8465RL,Oudehaske,De Fryske Marren,Friesland,VBO,5.875366,52.956603
Toel,11,,,8465RL,Oudehaske,De Fryske Marren,Friesland,VBO,5.875380,52.956495
Toel,13,,,8465RL,Oudehaske,De Fryske Marren,Friesland,VBO,5.875408,52.956423
Toel,15,,,8465RL,Oudehaske,De Fryske Marren,Friesland,VBO,5.875407,52.956315
Toel,17,,,8465RL,Oudehaske,De Fryske Marren,Friesland,VBO,5.875436,52.956234
Toel,19,,,8465RL,Oudehaske,De Fryske Marren,Friesland,VBO,5.876015,52.956070
Toel,21,,,8465RL,Oudehaske,De Fryske Marren,Friesland,VBO,5.875732,52.956089
Toel,23,,,8465RL,Oudehaske,De Fryske Marren,Friesland,VBO,5.875508,52.956027
Toel,29,,,8465RL,Oudehaske,De Fryske Marren,Friesland,VBO,5.875221,52.955624
Toel,31,,,8465RL,Oudehaske,De Fryske Marren,Friesland,VBO,5.875102,52.955615
Toel,33,,,8465RL,Oudehaske,De Fryske Marren,Friesland,VBO,5.874863,52.955589
Toel,35,,,8465RL,Oudehaske,De Fryske Marren,Friesland,VBO,5.874744,52.955581
Toel,39,,,8465RL,Oudehaske,De Fryske Marren,Friesland,VBO,5.874342,52.955520
Toel,41,,,8465RL,Oudehaske,De Fryske Marren,Friesland,VBO,5.874252,52.955511
Toel,43,,,8465RL,Oudehaske,De Fryske Marren,Friesland,VBO,5.874148,52.955502
Toel,45,,,8465RL,Oudehaske,De Fryske Marren,Friesland,VBO,5.874074,52.955494
Toel,2,,,8465RM,Oudehaske,De Fryske Marren,Friesland,VBO,5.874794,52.957333
Toel,4,,,8465RM,Oudehaske,De Fryske Marren,Friesland,VBO,5.874837,52.957171
Toel,6,,,8465RM,Oudehaske,De Fryske Marren,Friesland,VBO,5.874850,52.957081
Toel,8,,,8465RM,Oudehaske,De Fryske Marren,Friesland,VBO,5.874879,52.956973
Toel,10,,,8465RM,Oudehaske,De Fryske Marren,Friesland,VBO,5.874893,52.956901
Toel,12,,,8465RM,Oudehaske,De Fryske Marren,Friesland,VBO,5.874936,52.956775
Toel,14,,,8465RM,Oudehaske,De Fryske Marren,Friesland,VBO,5.874979,52.956640
Toel,16,,,8465RM,Oudehaske,De Fryske Marren,Friesland,VBO,5.874977,52.956416
Toel,18,,,8465RM,Oudehaske,De Fryske Marren,Friesland,VBO,5.874902,52.956407
Toel,20,,,8465RM,Oudehaske,De Fryske Marren,Friesland,VBO,5.874813,52.956371
Toel,22,,,8465RM,Oudehaske,De Fryske Marren,Friesland,VBO,5.874723,52.956363
Toel,24,,,8465RM,Oudehaske,De Fryske Marren,Friesland,VBO,5.874634,52.956354
Toel,26,,,8465RM,Oudehaske,De Fryske Marren,Friesland,VBO,5.874500,52.956355
Toel,28,,,8465RM,Oudehaske,De Fryske Marren,Friesland,VBO,5.874381,52.956346
Toel,30,,,8465RM,Oudehaske,De Fryske Marren,Friesland,VBO,5.874262,52.956329
Toel,32,,,8465RN,Oudehaske,De Fryske Marren,Friesland,VBO,5.874157,52.956320
Toel,40,,,8465RN,Oudehaske,De Fryske Marren,Friesland,VBO,5.874156,52.956203
Toel,42,,,8465RN,Oudehaske,De Fryske Marren,Friesland,VBO,5.874199,52.956032
Toel,44,,,8465RN,Oudehaske,De Fryske Marren,Friesland,VBO,5.874975,52.956227
Toel,46,,,8465RN,Oudehaske,De Fryske Marren,Friesland,VBO,5.875018,52.956074
Toel,48,,,8465RN,Oudehaske,De Fryske Marren,Friesland,VBO,5.875046,52.955948
Toel,50,,,8465RN,Oudehaske,De Fryske Marren,Friesland,VBO,5.875045,52.955876
Toel,52,,,8465RN,Oudehaske,De Fryske Marren,Friesland,VBO,5.874732,52.955797
Toel,54,,,8465RN,Oudehaske,De Fryske Marren,Friesland,VBO,5.874613,52.955779
Toel,56,,,8465RN,Oudehaske,De Fryske Marren,Friesland,VBO,5.874419,52.955762
Toel,58,,,8465RN,Oudehaske,De Fryske Marren,Friesland,VBO,5.874341,52.955783
Baalder,1,,,8465RP,Oudehaske,De Fryske Marren,Friesland,VBO,5.874786,52.955356
Baalder,2,,,8465RP,Oudehaske,De Fryske Marren,Friesland,VBO,5.874384,52.955304
Baalder,3,,,8465RP,Oudehaske,De Fryske Marren,Friesland,VBO,5.874801,52.955302
Baalder,4,,,8465RP,Oudehaske,De Fryske Marren,Friesland,VBO,5.874413,52.955241
Baalder,5,,,8465RP,Oudehaske,De Fryske Marren,Friesland,VBO,5.874844,52.955167
Baalder,6,,,8465RP,Oudehaske,De Fryske Marren,Friesland,VBO,5.874442,52.955124
Baalder,7,,,8465RP,Oudehaske,De Fryske Marren,Friesland,VBO,5.874858,52.955104
Baalder,8,,,8465RP,Oudehaske,De Fryske Marren,Friesland,VBO,5.874456,52.955052
Baalder,9,,,8465RP,Oudehaske,De Fryske Marren,Friesland,VBO,5.874886,52.954978
Baalder,10,,,8465RP,Oudehaske,De Fryske Marren,Friesland,VBO,5.874484,52.954962
Baalder,11,,,8465RP,Oudehaske,De Fryske Marren,Friesland,VBO,5.874915,52.954915
Baalder,12,,,8465RP,Oudehaske,De Fryske Marren,Friesland,VBO,5.874499,52.954899
Baalder,13,,,8465RP,Oudehaske,De Fryske Marren,Friesland,VBO,5.874944,52.954807
Baalder,14,,,8465RP,Oudehaske,De Fryske Marren,Friesland,VBO,5.874527,52.954800
Baalder,15,,,8465RP,Oudehaske,De Fryske Marren,Friesland,VBO,5.874958,52.954744
Baalder,16,,,8465RP,Oudehaske,De Fryske Marren,Friesland,VBO,5.874541,52.954737
Baalder,17,,,8465RP,Oudehaske,De Fryske Marren,Friesland,VBO,5.874987,52.954645
Baalder,18,,,8465RP,Oudehaske,De Fryske Marren,Friesland,VBO,5.874585,52.954611
Baalder,19,,,8465RP,Oudehaske,De Fryske Marren,Friesland,VBO,5.875016,52.954573
Turfstûke,1,,,8465RR,Oudehaske,De Fryske Marren,Friesland,VBO,5.875622,52.955586
Turfstûke,2,,,8465RR,Oudehaske,De Fryske Marren,Friesland,VBO,5.875323,52.955426
Turfstûke,3,,,8465RR,Oudehaske,De Fryske Marren,Friesland,VBO,5.875665,52.955433
Turfstûke,4,,,8465RR,Oudehaske,De Fryske Marren,Friesland,VBO,5.875337,52.955345
Turfstûke,5,,,8465RR,Oudehaske,De Fryske Marren,Friesland,VBO,5.875694,52.955307
Turfstûke,6,,,8465RR,Oudehaske,De Fryske Marren,Friesland,VBO,5.875365,52.955219
Turfstûke,7,,,8465RR,Oudehaske,De Fryske Marren,Friesland,VBO,5.875737,52.955172
Turfstûke,8,,,8465RR,Oudehaske,De Fryske Marren,Friesland,VBO,5.875394,52.955147
Turfstûke,9,,,8465RR,Oudehaske,De Fryske Marren,Friesland,VBO,5.875765,52.955029
Turfstûke,10,,,8465RR,Oudehaske,De Fryske Marren,Friesland,VBO,5.875408,52.955030
Turfstûke,11,,,8465RR,Oudehaske,De Fryske Marren,Friesland,VBO,5.875896,52.954803
Turfstûke,12,,,8465RR,Oudehaske,De Fryske Marren,Friesland,VBO,5.875422,52.954958
Turfstûke,13,,,8465RR,Oudehaske,De Fryske Marren,Friesland,VBO,5.875939,52.954668
Turfstûke,14,,,8465RR,Oudehaske,De Fryske Marren,Friesland,VBO,5.875465,52.954832
Turfstûke,15,,,8465RR,Oudehaske,De Fryske Marren,Friesland,VBO,5.875939,52.954606
Turfstûke,16,,,8465RR,Oudehaske,De Fryske Marren,Friesland,VBO,5.875479,52.954769
Turfstûke,17,,,8465RR,Oudehaske,De Fryske Marren,Friesland,VBO,5.875982,52.954498
Turfstûke,18,,,8465RR,Oudehaske,De Fryske Marren,Friesland,VBO,5.875522,52.954634
Turfstûke,19,,,8465RR,Oudehaske,De Fryske Marren,Friesland,VBO,5.875996,52.954426
Turfstûke,20,,,8465RR,Oudehaske,De Fryske Marren,Friesland,VBO,5.875536,52.954553
Turfstûke,21,,,8465RR,Oudehaske,De Fryske Marren,Friesland,VBO,5.876025,52.954327
Turfstûke,22,,,8465RR,Oudehaske,De Fryske Marren,Friesland,VBO,5.875579,52.954418
Turfstûke,23,,,8465RR,Oudehaske,De Fryske Marren,Friesland,VBO,5.876054,52.954255
Turfstûke,24,,,8465RR,Oudehaske,De Fryske Marren,Friesland,VBO,5.875651,52.954121
Turfstûke,25,,,8465RR,Oudehaske,De Fryske Marren,Friesland,VBO,5.876097,52.954147
Reidkraach,1,,,8465RS,Oudehaske,De Fryske Marren,Friesland,VBO,5.867970,52.956552
Reidkraach,2,,,8465RS,Oudehaske,De Fryske Marren,Friesland,VBO,5.867422,52.956815
Reidkraach,3,,,8465RS,Oudehaske,De Fryske Marren,Friesland,VBO,5.867793,52.955348
Reidkraach,4,,,8465RS,Oudehaske,De Fryske Marren,Friesland,VBO,5.867451,52.956716
Reidkraach,5,,,8465RS,Oudehaske,De Fryske Marren,Friesland,VBO,5.867569,52.955313
Reidkraach,6,,,8465RS,Oudehaske,De Fryske Marren,Friesland,VBO,5.867479,52.956644
Reidkraach,7,,,8465RS,Oudehaske,De Fryske Marren,Friesland,VBO,5.867346,52.955305
Reidkraach,8,,,8465RS,Oudehaske,De Fryske Marren,Friesland,VBO,5.867508,52.956536
Reidkraach,10,,,8465RS,Oudehaske,De Fryske Marren,Friesland,VBO,5.867507,52.956419
Reidkraach,12,,,8465RS,Oudehaske,De Fryske Marren,Friesland,VBO,5.867536,52.956329
Reidkraach,14,,,8465RS,Oudehaske,De Fryske Marren,Friesland,VBO,5.867549,52.956185
Reidkraach,16,,,8465RS,Oudehaske,De Fryske Marren,Friesland,VBO,5.867607,52.956032
Reidkraach,18,,,8465RS,Oudehaske,De Fryske Marren,Friesland,VBO,5.867649,52.955843
Reidkraach,20,,,8465RS,Oudehaske,De Fryske Marren,Friesland,VBO,5.867677,52.955681
Reidkraach,22,,,8465RS,Oudehaske,De Fryske Marren,Friesland,VBO,5.867661,52.955529
Turfkoer,1,,,8465RT,Oudehaske,De Fryske Marren,Friesland,VBO,5.876298,52.953499
Turfkoer,3,,,8465RT,Oudehaske,De Fryske Marren,Friesland,VBO,5.876326,52.953292
Turfkoer,5,,,8465RT,Oudehaske,De Fryske Marren,Friesland,VBO,5.876383,52.953103
Turfkoer,7,,,8465RT,Oudehaske,De Fryske Marren,Friesland,VBO,5.876440,52.952914
Turfkoer,9,,,8465RT,Oudehaske,De Fryske Marren,Friesland,VBO,5.876498,52.952734
Turfkoer,11,,,8465RT,Oudehaske,De Fryske Marren,Friesland,VBO,5.876540,52.952536
Turfkoer,13,,,8465RT,Oudehaske,De Fryske Marren,Friesland,VBO,5.876434,52.952375
Turfkoer,15,,,8465RT,Oudehaske,De Fryske Marren,Friesland,VBO,5.876150,52.952232
Turfkoer,17,,,8465RT,Oudehaske,De Fryske Marren,Friesland,VBO,5.875867,52.952197
Turfkoer,19,,,8465RT,Oudehaske,De Fryske Marren,Friesland,VBO,5.875541,52.952289
Turfkoer,21,,,8465RT,Oudehaske,De Fryske Marren,Friesland,VBO,5.875275,52.952487
Turfkoer,2,,,8465RV,Oudehaske,De Fryske Marren,Friesland,VBO,5.875926,52.953437
Turfkoer,4,,,8465RV,Oudehaske,De Fryske Marren,Friesland,VBO,5.875968,52.953275
Turfkoer,6,,,8465RV,Oudehaske,De Fryske Marren,Friesland,VBO,5.876012,52.953140
Turfkoer,8,,,8465RV,Oudehaske,De Fryske Marren,Friesland,VBO,5.876055,52.952996
Turfkoer,12,,,8465RV,Oudehaske,De Fryske Marren,Friesland,VBO,5.876082,52.952835
Turfkoer,14,,,8465RV,Oudehaske,De Fryske Marren,Friesland,VBO,5.876112,52.952781
Turfkoer,16,,,8465RV,Oudehaske,De Fryske Marren,Friesland,VBO,5.876140,52.952628
Turfkoer,20,,,8465RV,Oudehaske,De Fryske Marren,Friesland,VBO,5.875706,52.952477
Turfkoer,22,,,8465RV,Oudehaske,De Fryske Marren,Friesland,VBO,5.875634,52.952630
Turfkoer,24,,,8465RV,Oudehaske,De Fryske Marren,Friesland,VBO,5.875576,52.952783
Turfkoer,26,,,8465RV,Oudehaske,De Fryske Marren,Friesland,VBO,5.875533,52.952909
Turfkoer,28,,,8465RV,Oudehaske,De Fryske Marren,Friesland,VBO,5.875505,52.953044
Turfkoer,30,,,8465RV,Oudehaske,De Fryske Marren,Friesland,VBO,5.875090,52.953198
Turfkoer,32,,,8465RV,Oudehaske,De Fryske Marren,Friesland,VBO,5.875000,52.953189
Bûgel,1,,,8465RW,Oudehaske,De Fryske Marren,Friesland,VBO,5.874939,52.954385
Bûgel,2,,,8465RW,Oudehaske,De Fryske Marren,Friesland,VBO,5.874787,52.954098
Bûgel,3,,,8465RW,Oudehaske,De Fryske Marren,Friesland,VBO,5.875028,52.954340
Bûgel,4,,,8465RW,Oudehaske,De Fryske Marren,Friesland,VBO,5.874876,52.954053
Bûgel,5,,,8465RW,Oudehaske,De Fryske Marren,Friesland,VBO,5.875176,52.954276
Bûgel,6,,,8465RW,Oudehaske,De Fryske Marren,Friesland,VBO,5.875024,52.953989
Bûgel,7,,,8465RW,Oudehaske,De Fryske Marren,Friesland,VBO,5.875265,52.954240
Bûgel,8,,,8465RW,Oudehaske,De Fryske Marren,Friesland,VBO,5.875113,52.953944
Bûgel,9,,,8465RW,Oudehaske,De Fryske Marren,Friesland,VBO,5.875561,52.954104
Bûgel,10,,,8465RW,Oudehaske,De Fryske Marren,Friesland,VBO,5.875276,52.953898
Bûgel,11,,,8465RW,Oudehaske,De Fryske Marren,Friesland,VBO,5.875887,52.953959
Bûgel,12,,,8465RW,Oudehaske,De Fryske Marren,Friesland,VBO,5.875365,52.953853
Bûgel,13,,,8465RW,Oudehaske,De Fryske Marren,Friesland,VBO,5.875976,52.953913
Bûgel,14,,,8465RW,Oudehaske,De Fryske Marren,Friesland,VBO,5.875513,52.953789
Bûgel,15,,,8465RW,Oudehaske,De Fryske Marren,Friesland,VBO,5.876198,52.953823
Bûgel,16,,,8465RW,Oudehaske,De Fryske Marren,Friesland,VBO,5.875602,52.953744
Bûgel,17,,,8465RW,Oudehaske,De Fryske Marren,Friesland,VBO,5.876704,52.953874
Bûgel,18,,,8465RW,Oudehaske,De Fryske Marren,Friesland,VBO,5.875750,52.953681
Bûgel,19,,,8465RW,Oudehaske,De Fryske Marren,Friesland,VBO,5.876913,52.953892
Bûgel,20,,,8465RW,Oudehaske,De Fryske Marren,Friesland,VBO,5.875853,52.953635
Bûgel,21,,,8465RW,Oudehaske,De Fryske Marren,Friesland,VBO,5.877240,52.953881
Bûgel,22,,,8465RW,Oudehaske,De Fryske Marren,Friesland,VBO,5.876795,52.953612
Bûgel,23,,,8465RW,Oudehaske,De Fryske Marren,Friesland,VBO,5.877449,52.953907
Bûgel,24,,,8465RW,Oudehaske,De Fryske Marren,Friesland,VBO,5.877443,52.953422
Bûgel,25,,,8465RW,Oudehaske,De Fryske Marren,Friesland,VBO,5.877881,52.953951
Bûgel,26,,,8465RW,Oudehaske,De Fryske Marren,Friesland,VBO,5.878188,52.953509
Bûgel,27,,,8465RW,Oudehaske,De Fryske Marren,Friesland,VBO,5.878089,52.953977
Bûgel,28,,,8465RW,Oudehaske,De Fryske Marren,Friesland,VBO,5.878519,52.953813
Bûgel,29,,,8465RW,Oudehaske,De Fryske Marren,Friesland,VBO,5.878447,52.954056
Bûgel,30,,,8465RW,Oudehaske,De Fryske Marren,Friesland,VBO,5.878862,52.953848
Bûgel,31,,,8465RW,Oudehaske,De Fryske Marren,Friesland,VBO,5.878566,52.954074
Bûgel,32,,,8465RW,Oudehaske,De Fryske Marren,Friesland,VBO,5.879234,52.953891
Bûgel,33,,,8465RW,Oudehaske,De Fryske Marren,Friesland,VBO,5.878789,52.954110
Bûgel,35,,,8465RW,Oudehaske,De Fryske Marren,Friesland,VBO,5.878879,52.954099
Bûgel,37,,,8465RW,Oudehaske,De Fryske Marren,Friesland,VBO,5.879058,52.954125
Bûgel,39,,,8465RW,Oudehaske,De Fryske Marren,Friesland,VBO,5.879177,52.954134
Appelhôf,1,,,8465RX,Oudehaske,De Fryske Marren,Friesland,VBO,5.872588,52.959697
Appelhôf,2,a,,8465RX,Oudehaske,De Fryske Marren,Friesland,VBO,5.873076,52.959443
Appelhôf,2,b,,8465RX,Oudehaske,De Fryske Marren,Friesland,VBO,5.873119,52.959396
Appelhôf,2,,,8465RX,Oudehaske,De Fryske Marren,Friesland,VBO,5.873686,52.959449
Appelhôf,3,,,8465RX,Oudehaske,De Fryske Marren,Friesland,VBO,5.873137,52.959989
Appelhôf,4,,,8465RX,Oudehaske,De Fryske Marren,Friesland,VBO,5.873743,52.959171
Appelhôf,5,,,8465RX,Oudehaske,De Fryske Marren,Friesland,VBO,5.874036,52.960113
Appelhôf,6,,,8465RX,Oudehaske,De Fryske Marren,Friesland,VBO,5.873771,52.959009
Appelhôf,7,,,8465RX,Oudehaske,De Fryske Marren,Friesland,VBO,5.875154,52.959713
Appelhôf,8,a,,8465RX,Oudehaske,De Fryske Marren,Friesland,VBO,5.873841,52.958676
Appelhôf,8,,,8465RX,Oudehaske,De Fryske Marren,Friesland,VBO,5.873634,52.958731
Appelhôf,9,,,8465RX,Oudehaske,De Fryske Marren,Friesland,VBO,5.875164,52.959688
Appelhôf,10,,,8465RX,Oudehaske,De Fryske Marren,Friesland,VBO,5.873526,52.958435
Appelhôf,11,,,8465RX,Oudehaske,De Fryske Marren,Friesland,VBO,5.874133,52.959501
Appelhôf,13,,,8465RX,Oudehaske,De Fryske Marren,Friesland,VBO,5.874161,52.959295
Appelhôf,17,a,,8465RX,Oudehaske,De Fryske Marren,Friesland,VBO,5.874528,52.958817
Appelhôf,17,b,,8465RX,Oudehaske,De Fryske Marren,Friesland,VBO,5.874557,52.958826
Appelhôf,17,c,,8465RX,Oudehaske,De Fryske Marren,Friesland,VBO,5.874542,52.958781
Appelhôf,17,d,,8465RX,Oudehaske,De Fryske Marren,Friesland,VBO,5.874572,52.958790
Appelhôf,17,,,8465RX,Oudehaske,De Fryske Marren,Friesland,VBO,5.874378,52.958764
Appelhôf,19,,,8465RX,Oudehaske,De Fryske Marren,Friesland,VBO,5.874330,52.958440
Appelhôf,21,,,8465RX,Oudehaske,De Fryske Marren,Friesland,VBO,5.874867,52.958564
De Dolten,2,,,8465SB,Oudehaske,De Fryske Marren,Friesland,VBO,5.869203,52.965830
De Dolten,4,,,8465SB,Oudehaske,De Fryske Marren,Friesland,VBO,5.868411,52.969553
De Dolten,6,,,8465SB,Oudehaske,De Fryske Marren,Friesland,VBO,5.866704,52.978160
De Dolten,8,,,8465SB,Oudehaske,De Fryske Marren,Friesland,VBO,5.866548,52.978835
Lange Ekers,10,,,8465SC,Oudehaske,De Fryske Marren,Friesland,VBO,5.850412,52.969292
Lange Ekers,11,,,8465SC,Oudehaske,De Fryske Marren,Friesland,VBO,5.855999,52.971122
Lange Ekers,12,,,8465SC,Oudehaske,De Fryske Marren,Friesland,VBO,5.854607,52.970417
Lange Ekers,13,,,8465SC,Oudehaske,De Fryske Marren,Friesland,VBO,5.858531,52.971300
Lange Ekers,14,,,8465SC,Oudehaske,De Fryske Marren,Friesland,VBO,5.860789,52.970842
Lange Ekers,15,,,8465SC,Oudehaske,De Fryske Marren,Friesland,VBO,5.864787,52.971626
Siebe de Ruiterweg,3,,,8465SE,Oudehaske,De Fryske Marren,Friesland,VBO,5.856366,52.963787
Siebe de Ruiterweg,5,,,8465SE,Oudehaske,De Fryske Marren,Friesland,VBO,5.856106,52.968641
Hasker Utgongen,1,a,,8465SJ,Oudehaske,De Fryske Marren,Friesland,VBO,5.872101,52.958755
Hasker Utgongen,1,,,8465SJ,Oudehaske,De Fryske Marren,Friesland,VBO,5.872481,52.958079
Hasker Utgongen,2,,,8465SJ,Oudehaske,De Fryske Marren,Friesland,VBO,5.873044,52.957906
Hasker Utgongen,3,,,8465SJ,Oudehaske,De Fryske Marren,Friesland,VBO,5.871769,52.959089
Hasker Utgongen,4,,,8465SJ,Oudehaske,De Fryske Marren,Friesland,VBO,5.873046,52.958086
Hasker Utgongen,5,,,8465SJ,Oudehaske,De Fryske Marren,Friesland,VBO,5.871510,52.959153
Hasker Utgongen,6,,,8465SJ,Oudehaske,De Fryske Marren,Friesland,VBO,5.872856,52.958374
Hasker Utgongen,7,,G1,8465SJ,Oudehaske,De Fryske Marren,Friesland,VBO,5.871021,52.959744
Hasker Utgongen,7,,G10,8465SJ,Oudehaske,De Fryske Marren,Friesland,VBO,5.871041,52.959673
Hasker Utgongen,7,,G11,8465SJ,Oudehaske,De Fryske Marren,Friesland,VBO,5.870995,52.959672
Hasker Utgongen,7,,G12,8465SJ,Oudehaske,De Fryske Marren,Friesland,VBO,5.870942,52.959667
Hasker Utgongen,7,,G13,8465SJ,Oudehaske,De Fryske Marren,Friesland,VBO,5.870889,52.959659
Hasker Utgongen,7,,G14,8465SJ,Oudehaske,De Fryske Marren,Friesland,VBO,5.870842,52.959655
Hasker Utgongen,7,,G15,8465SJ,Oudehaske,De Fryske Marren,Friesland,VBO,5.870793,52.959650
Hasker Utgongen,7,,G16,8465SJ,Oudehaske,De Fryske Marren,Friesland,VBO,5.870741,52.959646
Hasker Utgongen,7,,G17,8465SJ,Oudehaske,De Fryske Marren,Friesland,VBO,5.870693,52.959644
Hasker Utgongen,7,,G18,8465SJ,Oudehaske,De Fryske Marren,Friesland,VBO,5.870644,52.959637
Hasker Utgongen,7,,G19,8465SJ,Oudehaske,De Fryske Marren,Friesland,VBO,5.871167,52.959554
Hasker Utgongen,7,,G2,8465SJ,Oudehaske,De Fryske Marren,Friesland,VBO,5.870975,52.959739
Hasker Utgongen,7,,G20,8465SJ,Oudehaske,De Fryske Marren,Friesland,VBO,5.871120,52.959550
Hasker Utgongen,7,,G21,8465SJ,Oudehaske,De Fryske Marren,Friesland,VBO,5.871084,52.959543
Hasker Utgongen,7,,G22,8465SJ,Oudehaske,De Fryske Marren,Friesland,VBO,5.871036,52.959535
Hasker Utgongen,7,,G23,8465SJ,Oudehaske,De Fryske Marren,Friesland,VBO,5.870994,52.959530
Hasker Utgongen,7,,G24,8465SJ,Oudehaske,De Fryske Marren,Friesland,VBO,5.870952,52.959528
Hasker Utgongen,7,,G25,8465SJ,Oudehaske,De Fryske Marren,Friesland,VBO,5.870902,52.959523
Hasker Utgongen,7,,G26,8465SJ,Oudehaske,De Fryske Marren,Friesland,VBO,5.870864,52.959521
Hasker Utgongen,7,,G27,8465SJ,Oudehaske,De Fryske Marren,Friesland,VBO,5.870822,52.959511
Hasker Utgongen,7,,G28,8465SJ,Oudehaske,De Fryske Marren,Friesland,VBO,5.870776,52.959510
Hasker Utgongen,7,,G29,8465SJ,Oudehaske,De Fryske Marren,Friesland,VBO,5.870726,52.959509
Hasker Utgongen,7,,G3,8465SJ,Oudehaske,De Fryske Marren,Friesland,VBO,5.870922,52.959732
Hasker Utgongen,7,,G4,8465SJ,Oudehaske,De Fryske Marren,Friesland,VBO,5.870874,52.959725
Hasker Utgongen,7,,G5,8465SJ,Oudehaske,De Fryske Marren,Friesland,VBO,5.870823,52.959723
Hasker Utgongen,7,,G6,8465SJ,Oudehaske,De Fryske Marren,Friesland,VBO,5.870773,52.959717
Hasker Utgongen,7,,G7,8465SJ,Oudehaske,De Fryske Marren,Friesland,VBO,5.870725,52.959712
Hasker Utgongen,7,,G8,8465SJ,Oudehaske,De Fryske Marren,Friesland,VBO,5.870676,52.959710
Hasker Utgongen,7,,G9,8465SJ,Oudehaske,De Fryske Marren,Friesland,VBO,5.870627,52.959700
Hasker Utgongen,7,,,8465SJ,Oudehaske,De Fryske Marren,Friesland,VBO,5.871675,52.959654
Hasker Utgongen,8,,,8465SJ,Oudehaske,De Fryske Marren,Friesland,VBO,5.872815,52.958716
Hasker Utgongen,9,,,8465SJ,Oudehaske,De Fryske Marren,Friesland,VBO,5.871552,52.960195
Hasker Utgongen,10,,,8465SJ,Oudehaske,De Fryske Marren,Friesland,VBO,5.872819,52.959031
Hasker Utgongen,11,,,8465SJ,Oudehaske,De Fryske Marren,Friesland,VBO,5.872183,52.960785
Hasker Utgongen,12,,,8465SJ,Oudehaske,De Fryske Marren,Friesland,VBO,5.872699,52.960334
Grevelinkboskje,2,,,8465SK,Oudehaske,De Fryske Marren,Friesland,VBO,5.879890,52.956665
Grevelinkboskje,4,,,8465SK,Oudehaske,De Fryske Marren,Friesland,VBO,5.879833,52.956818
Grevelinkboskje,6,,,8465SK,Oudehaske,De Fryske Marren,Friesland,VBO,5.879775,52.956953
Haskermieden,1,,,8465SL,Oudehaske,De Fryske Marren,Friesland,VBO,5.881309,52.955770
Haskermieden,2,,,8465SL,Oudehaske,De Fryske Marren,Friesland,VBO,5.881048,52.956436
Haskermieden,3,,,8465SL,Oudehaske,De Fryske Marren,Friesland,VBO,5.881128,52.955609
Haskermieden,4,,,8465SL,Oudehaske,De Fryske Marren,Friesland,VBO,5.881179,52.956184
Haskermieden,5,,,8465SL,Oudehaske,De Fryske Marren,Friesland,VBO,5.881081,52.955411
Haskermieden,6,,,8465SL,Oudehaske,De Fryske Marren,Friesland,VBO,5.881028,52.955968
Haskermieden,7,,,8465SL,Oudehaske,De Fryske Marren,Friesland,VBO,5.881183,52.955186
Haskermieden,8,,,8465SL,Oudehaske,De Fryske Marren,Friesland,VBO,5.880803,52.955772
Haskermieden,9,,,8465SL,Oudehaske,De Fryske Marren,Friesland,VBO,5.881196,52.955033
Haskermieden,10,,,8465SL,Oudehaske,De Fryske Marren,Friesland,VBO,5.880667,52.955629
Haskermieden,11,,,8465SL,Oudehaske,De Fryske Marren,Friesland,VBO,5.881269,52.954898
Haskermieden,12,,,8465SL,Oudehaske,De Fryske Marren,Friesland,VBO,5.880681,52.955566
Haskermieden,13,,,8465SL,Oudehaske,De Fryske Marren,Friesland,VBO,5.881268,52.954772
Haskermieden,14,,,8465SL,Oudehaske,De Fryske Marren,Friesland,VBO,5.880725,52.955440
Haskermieden,16,,,8465SL,Oudehaske,De Fryske Marren,Friesland,VBO,5.880753,52.955350
Haskermieden,18,,,8465SL,Oudehaske,De Fryske Marren,Friesland,VBO,5.880796,52.955161
Haskermieden,20,,,8465SL,Oudehaske,De Fryske Marren,Friesland,VBO,5.880825,52.955080
Haskermieden,22,,,8465SL,Oudehaske,De Fryske Marren,Friesland,VBO,5.880853,52.954981
Haskermieden,24,,,8465SL,Oudehaske,De Fryske Marren,Friesland,VBO,5.880867,52.954909
Haskermieden,26,,,8465SL,Oudehaske,De Fryske Marren,Friesland,VBO,5.880911,52.954810
Haskermieden,28,,,8465SL,Oudehaske,De Fryske Marren,Friesland,VBO,5.880925,52.954729
Haskertille,1,,,8465SM,Oudehaske,De Fryske Marren,Friesland,VBO,5.880929,52.956427
Haskertille,2,,,8465SM,Oudehaske,De Fryske Marren,Friesland,VBO,5.880476,52.957103
Haskertille,3,,,8465SM,Oudehaske,De Fryske Marren,Friesland,VBO,5.880690,52.956284
Haskertille,4,,,8465SM,Oudehaske,De Fryske Marren,Friesland,VBO,5.880497,52.957046
Haskertille,5,,,8465SM,Oudehaske,De Fryske Marren,Friesland,VBO,5.880614,52.956222
Haskertille,6,,,8465SM,Oudehaske,De Fryske Marren,Friesland,VBO,5.880548,52.956896
Haskertille,7,,,8465SM,Oudehaske,De Fryske Marren,Friesland,VBO,5.880509,52.956123
Haskertille,8,,,8465SM,Oudehaske,De Fryske Marren,Friesland,VBO,5.880577,52.956824
Haskertille,9,,,8465SM,Oudehaske,De Fryske Marren,Friesland,VBO,5.880434,52.956061
Haskertille,10,,,8465SM,Oudehaske,De Fryske Marren,Friesland,VBO,5.880426,52.956636
Haskertille,11,,,8465SM,Oudehaske,De Fryske Marren,Friesland,VBO,5.880314,52.955962
Haskertille,12,,,8465SM,Oudehaske,De Fryske Marren,Friesland,VBO,5.880357,52.956596
Haskertille,13,,,8465SM,Oudehaske,De Fryske Marren,Friesland,VBO,5.880239,52.955900
Haskertille,14,,,8465SM,Oudehaske,De Fryske Marren,Friesland,VBO,5.880185,52.956430
Haskertille,15,,,8465SM,Oudehaske,De Fryske Marren,Friesland,VBO,5.880119,52.955793
Haskertille,16,,,8465SM,Oudehaske,De Fryske Marren,Friesland,VBO,5.880125,52.956368
Haskertille,17,,,8465SM,Oudehaske,De Fryske Marren,Friesland,VBO,5.880058,52.955739
Haskertille,18,,,8465SM,Oudehaske,De Fryske Marren,Friesland,VBO,5.878751,52.955509
Haskertille,19,,,8465SM,Oudehaske,De Fryske Marren,Friesland,VBO,5.880012,52.955550
Haskertille,20,,,8465SM,Oudehaske,De Fryske Marren,Friesland,VBO,5.879723,52.954985
Haskertille,21,,,8465SM,Oudehaske,De Fryske Marren,Friesland,VBO,5.880041,52.955487
Haskertille,22,,,8465SM,Oudehaske,De Fryske Marren,Friesland,VBO,5.879780,52.954814
Haskertille,23,,,8465SM,Oudehaske,De Fryske Marren,Friesland,VBO,5.880069,52.955352
Haskertille,24,a,,8465SM,Oudehaske,De Fryske Marren,Friesland,VBO,5.879602,52.954495
Haskertille,24,,,8465SM,Oudehaske,De Fryske Marren,Friesland,VBO,5.879823,52.954643
Haskertille,25,,,8465SM,Oudehaske,De Fryske Marren,Friesland,VBO,5.880098,52.955298
Haskertille,27,,,8465SM,Oudehaske,De Fryske Marren,Friesland,VBO,5.880155,52.955055
Haskertille,29,,,8465SM,Oudehaske,De Fryske Marren,Friesland,VBO,5.880198,52.954929
Haskertille,31,,,8465SM,Oudehaske,De Fryske Marren,Friesland,VBO,5.880241,52.954795
Haskertille,33,,,8465SM,Oudehaske,De Fryske Marren,Friesland,VBO,5.880270,52.954669
Menning,2,,,8465SN,Oudehaske,De Fryske Marren,Friesland,VBO,5.880387,52.954066
Menning,4,,,8465SN,Oudehaske,De Fryske Marren,Friesland,VBO,5.880499,52.954058
Menning,6,,,8465SN,Oudehaske,De Fryske Marren,Friesland,VBO,5.880599,52.954092
Menning,8,,,8465SN,Oudehaske,De Fryske Marren,Friesland,VBO,5.880703,52.954100
Menning,10,,,8465SN,Oudehaske,De Fryske Marren,Friesland,VBO,5.880808,52.954109
Menning,12,,,8465SN,Oudehaske,De Fryske Marren,Friesland,VBO,5.880003,52.953926
Menning,14,,,8465SN,Oudehaske,De Fryske Marren,Friesland,VBO,5.880270,52.953841
Menning,16,,,8465SN,Oudehaske,De Fryske Marren,Friesland,VBO,5.880684,52.953817
Menning,18,,,8465SN,Oudehaske,De Fryske Marren,Friesland,VBO,5.880793,52.953830
Menning,20,,,8465SN,Oudehaske,De Fryske Marren,Friesland,VBO,5.880895,52.953838
Menning,22,,,8465SN,Oudehaske,De Fryske Marren,Friesland,VBO,5.881231,52.953887
Menning,24,,,8465SN,Oudehaske,De Fryske Marren,Friesland,VBO,5.881205,52.953938
Menning,26,,,8465SN,Oudehaske,De Fryske Marren,Friesland,VBO,5.881195,52.953995
Menning,28,,,8465SN,Oudehaske,De Fryske Marren,Friesland,VBO,5.881186,52.954047
Menning,30,,,8465SN,Oudehaske,De Fryske Marren,Friesland,VBO,5.881574,52.953915
Menning,32,,,8465SN,Oudehaske,De Fryske Marren,Friesland,VBO,5.881568,52.954054
Menning,34,,,8465SN,Oudehaske,De Fryske Marren,Friesland,VBO,5.881632,52.954183
Menning,1,,,8465SV,Oudehaske,De Fryske Marren,Friesland,VBO,5.880337,52.954224
Menning,3,,,8465SV,Oudehaske,De Fryske Marren,Friesland,VBO,5.880443,52.954235
Menning,5,,,8465SV,Oudehaske,De Fryske Marren,Friesland,VBO,5.880545,52.954251
Menning,7,,,8465SV,Oudehaske,De Fryske Marren,Friesland,VBO,5.880648,52.954259
Menning,9,,,8465SV,Oudehaske,De Fryske Marren,Friesland,VBO,5.880760,52.954270
Menning,11,,,8465SV,Oudehaske,De Fryske Marren,Friesland,VBO,5.879893,52.954230
Menning,15,,,8465SV,Oudehaske,De Fryske Marren,Friesland,VBO,5.880472,52.954520
Menning,17,,,8465SV,Oudehaske,De Fryske Marren,Friesland,VBO,5.880582,52.954532
Menning,19,,,8465SV,Oudehaske,De Fryske Marren,Friesland,VBO,5.880689,52.954543
Menning,21,,,8465SV,Oudehaske,De Fryske Marren,Friesland,VBO,5.881025,52.954563
Menning,23,,,8465SV,Oudehaske,De Fryske Marren,Friesland,VBO,5.881039,52.954511
Menning,25,,,8465SV,Oudehaske,De Fryske Marren,Friesland,VBO,5.881061,52.954463
Menning,27,,,8465SV,Oudehaske,De Fryske Marren,Friesland,VBO,5.881075,52.954403
Menning,29,,,8465SV,Oudehaske,De Fryske Marren,Friesland,VBO,5.881371,52.954605
Menning,31,,,8465SV,Oudehaske,De Fryske Marren,Friesland,VBO,5.881418,52.954464
Menning,33,,,8465SV,Oudehaske,De Fryske Marren,Friesland,VBO,5.881589,52.954347
