openbareruimtenaam,huisnummer,huisletter,huisnummertoevoeging,postcode,woonplaatsnaam,gemeentenaam,provincienaam,typeadresseerbaarobject,longitude,latitude
Houtvaartweg,2,,,8525DL,Langweer,De Fryske Marren,Friesland,VBO,5.745391,52.946774
Houtvaartweg,4,,,8525DL,Langweer,De Fryske Marren,Friesland,VBO,5.741965,52.944671
Houtvaartweg,6,,,8525DL,Langweer,De Fryske Marren,Friesland,VBO,5.742087,52.944703
Houtvaartweg,8,,,8525DL,Langweer,De Fryske Marren,Friesland,VBO,5.742120,52.944769
Houtvaartweg,10,,,8525DL,Langweer,De Fryske Marren,Friesland,VBO,5.742190,52.944804
Pontdyk,1,,,8525DM,Langweer,De Fryske Marren,Friesland,VBO,5.719634,52.959789
Pontdyk,3,,,8525DM,Langweer,De Fryske Marren,Friesland,VBO,5.702132,52.974151
Pontdyk,5,a,,8525DM,Langweer,De Fryske Marren,Friesland,VBO,5.699534,52.975111
Pontdyk,5,,,8525DM,Langweer,De Fryske Marren,Friesland,VBO,5.699222,52.975174
Pontdyk,7,,,8525DM,Langweer,De Fryske Marren,Friesland,VBO,5.695518,52.977637
Pontdyk,42,,,8525DM,Langweer,De Fryske Marren,Friesland,VBO,5.707554,52.977422
Pontdyk,44,,,8525DM,Langweer,De Fryske Marren,Friesland,VBO,5.707145,52.977634
Koevorderhuis,2,,,8525DN,Langweer,De Fryske Marren,Friesland,VBO,5.691974,52.969127
Koevorderhuis,4,a,,8525DN,Langweer,De Fryske Marren,Friesland,VBO,5.692392,52.971337
Koevorderhuis,4,,,8525DN,Langweer,De Fryske Marren,Friesland,VBO,5.691231,52.971430
Koevorderhuis,6,,,8525DN,Langweer,De Fryske Marren,Friesland,VBO,5.690965,52.973758
Langwarderdyk,4,,,8525DP,Langweer,De Fryske Marren,Friesland,VBO,5.733521,52.948930
Langwarderdyk,7,,,8525DP,Langweer,De Fryske Marren,Friesland,VBO,5.727978,52.953574
Langwarderdyk,11,a,,8525DP,Langweer,De Fryske Marren,Friesland,VBO,5.741439,52.944387
Langwarderdyk,11,,,8525DP,Langweer,De Fryske Marren,Friesland,VBO,5.741220,52.944270
Boarnsweachsterdyk,1,,,8525EA,Langweer,De Fryske Marren,Friesland,VBO,5.726239,52.959581
Boarnsweachsterdyk,2,,,8525EA,Langweer,De Fryske Marren,Friesland,VBO,5.728857,52.959403
Boarnsweachsterdyk,3,,,8525EA,Langweer,De Fryske Marren,Friesland,VBO,5.727091,52.959753
Boarnsweachsterdyk,4,,,8525EA,Langweer,De Fryske Marren,Friesland,VBO,5.731374,52.959630
Boarnsweachsterdyk,5,,,8525EA,Langweer,De Fryske Marren,Friesland,VBO,5.728207,52.959944
Buorren,1,,,8525EB,Langweer,De Fryske Marren,Friesland,VBO,5.721809,52.958228
Buorren,2,,,8525EB,Langweer,De Fryske Marren,Friesland,VBO,5.722106,52.958164
Buorren,3,,,8525EB,Langweer,De Fryske Marren,Friesland,VBO,5.721974,52.958308
Buorren,4,,,8525EB,Langweer,De Fryske Marren,Friesland,VBO,5.722254,52.958240
Buorren,5,,,8525EB,Langweer,De Fryske Marren,Friesland,VBO,5.722033,52.958335
Buorren,6,,,8525EB,Langweer,De Fryske Marren,Friesland,VBO,5.722360,52.958271
Buorren,7,a,,8525EB,Langweer,De Fryske Marren,Friesland,VBO,5.722180,52.958408
Buorren,7,,,8525EB,Langweer,De Fryske Marren,Friesland,VBO,5.722138,52.958389
Buorren,9,,,8525EB,Langweer,De Fryske Marren,Friesland,VBO,5.722242,52.958434
Buorren,10,,,8525EB,Langweer,De Fryske Marren,Friesland,VBO,5.722895,52.958117
Buorren,11,,,8525EB,Langweer,De Fryske Marren,Friesland,VBO,5.722347,52.958478
Buorren,12,,,8525EB,Langweer,De Fryske Marren,Friesland,VBO,5.722939,52.958108
Buorren,13,,,8525EB,Langweer,De Fryske Marren,Friesland,VBO,5.722436,52.958514
Buorren,14,,,8525EB,Langweer,De Fryske Marren,Friesland,VBO,5.722465,52.958343
Buorren,15,,,8525EB,Langweer,De Fryske Marren,Friesland,VBO,5.722481,52.958532
Buorren,16,,,8525EB,Langweer,De Fryske Marren,Friesland,VBO,5.722614,52.958423
Buorren,17,,,8525EB,Langweer,De Fryske Marren,Friesland,VBO,5.722571,52.958585
Buorren,18,,,8525EB,Langweer,De Fryske Marren,Friesland,VBO,5.723476,52.958304
Buorren,18,,,8525EB,Langweer,De Fryske Marren,Friesland,VBO,5.724025,52.958172
Buorren,19,,,8525EB,Langweer,De Fryske Marren,Friesland,VBO,5.722825,52.958773
Buorren,20,a,,8525EC,Langweer,De Fryske Marren,Friesland,VBO,5.723301,52.958700
Buorren,20,,,8525EC,Langweer,De Fryske Marren,Friesland,VBO,5.723286,52.958718
Buorren,21,,,8525EC,Langweer,De Fryske Marren,Friesland,VBO,5.723303,52.958961
Buorren,22,a,,8525EC,Langweer,De Fryske Marren,Friesland,VBO,5.723470,52.958775
Buorren,22,,,8525EC,Langweer,De Fryske Marren,Friesland,VBO,5.723450,52.958790
Buorren,24,,,8525EC,Langweer,De Fryske Marren,Friesland,VBO,5.723585,52.958852
Buorren,26,,,8525EC,Langweer,De Fryske Marren,Friesland,VBO,5.723689,52.958897
Buorren,27,,,8525EC,Langweer,De Fryske Marren,Friesland,VBO,5.723452,52.959023
Buorren,28,,,8525EC,Langweer,De Fryske Marren,Friesland,VBO,5.723794,52.958950
Buorren,29,a,,8525EC,Langweer,De Fryske Marren,Friesland,VBO,5.723557,52.959086
Buorren,29,,,8525EC,Langweer,De Fryske Marren,Friesland,VBO,5.723572,52.959077
Buorren,30,,,8525EC,Langweer,De Fryske Marren,Friesland,VBO,5.723928,52.958995
Buorren,31,,,8525EC,Langweer,De Fryske Marren,Friesland,VBO,5.723661,52.959103
Buorren,32,,,8525EC,Langweer,De Fryske Marren,Friesland,VBO,5.724018,52.959031
Buorren,39,,,8525EC,Langweer,De Fryske Marren,Friesland,VBO,5.723796,52.959157
Buorren,41,,,8525EC,Langweer,De Fryske Marren,Friesland,VBO,5.723974,52.959183
Buorren,43,,,8525EC,Langweer,De Fryske Marren,Friesland,VBO,5.724064,52.959219
Buorren,45,a,,8525EC,Langweer,De Fryske Marren,Friesland,VBO,5.724164,52.959339
Buorren,45,b,,8525EC,Langweer,De Fryske Marren,Friesland,VBO,5.724134,52.959382
Buorren,45,,,8525EC,Langweer,De Fryske Marren,Friesland,VBO,5.724228,52.959255
Buorren,36,,,8525ED,Langweer,De Fryske Marren,Friesland,VBO,5.724361,52.959155
Buorren,38,,,8525ED,Langweer,De Fryske Marren,Friesland,VBO,5.724466,52.959200
Buorren,40,,,8525ED,Langweer,De Fryske Marren,Friesland,VBO,5.724585,52.959236
Buorren,42,,,8525ED,Langweer,De Fryske Marren,Friesland,VBO,5.724674,52.959271
Buorren,44,,,8525ED,Langweer,De Fryske Marren,Friesland,VBO,5.724749,52.959298
Buorren,46,,,8525ED,Langweer,De Fryske Marren,Friesland,VBO,5.724853,52.959325
Buorren,47,,,8525ED,Langweer,De Fryske Marren,Friesland,VBO,5.724318,52.959299
Buorren,49,,,8525ED,Langweer,De Fryske Marren,Friesland,VBO,5.724407,52.959335
Buorren,51,,,8525ED,Langweer,De Fryske Marren,Friesland,VBO,5.724541,52.959389
Buorren,48,,,8525EE,Langweer,De Fryske Marren,Friesland,VBO,5.724943,52.959343
Buorren,50,,,8525EE,Langweer,De Fryske Marren,Friesland,VBO,5.725032,52.959351
Buorren,52,,,8525EE,Langweer,De Fryske Marren,Friesland,VBO,5.725014,52.959244
Buorren,53,,,8525EE,Langweer,De Fryske Marren,Friesland,VBO,5.725005,52.959621
Buorren,54,,,8525EE,Langweer,De Fryske Marren,Friesland,VBO,5.725330,52.959386
Buorren,55,,,8525EE,Langweer,De Fryske Marren,Friesland,VBO,5.725320,52.959528
Buorren,57,,,8525EE,Langweer,De Fryske Marren,Friesland,VBO,5.725465,52.959530
Buorren,59,,,8525EE,Langweer,De Fryske Marren,Friesland,VBO,5.725569,52.959538
Buorren,61,,,8525EE,Langweer,De Fryske Marren,Friesland,VBO,5.725718,52.959547
Weversstreek,1,,,8525EG,Langweer,De Fryske Marren,Friesland,VBO,5.724423,52.959425
Weversstreek,2,,,8525EG,Langweer,De Fryske Marren,Friesland,VBO,5.724555,52.959780
Weversstreek,3,,,8525EG,Langweer,De Fryske Marren,Friesland,VBO,5.724334,52.959497
Weversstreek,4,,,8525EG,Langweer,De Fryske Marren,Friesland,VBO,5.724412,52.959964
Weversstreek,6,,,8525EG,Langweer,De Fryske Marren,Friesland,VBO,5.724473,52.960216
Weversstreek,9,,,8525EG,Langweer,De Fryske Marren,Friesland,VBO,5.724143,52.959767
Weversstreek,13,,,8525EG,Langweer,De Fryske Marren,Friesland,VBO,5.723993,52.959705
Weversstreek,15,,,8525EG,Langweer,De Fryske Marren,Friesland,VBO,5.723919,52.959669
Weversstreek,17,,,8525EG,Langweer,De Fryske Marren,Friesland,VBO,5.723805,52.960325
Foekjesteech,2,,,8525EH,Langweer,De Fryske Marren,Friesland,VBO,5.724241,52.959075
Foekjesteech,4,,,8525EH,Langweer,De Fryske Marren,Friesland,VBO,5.724330,52.959012
Foekjesteech,5,,,8525EH,Langweer,De Fryske Marren,Friesland,VBO,5.724909,52.958848
Foekjesteech,6,,,8525EH,Langweer,De Fryske Marren,Friesland,VBO,5.724375,52.958976
Foekjesteech,8,,,8525EH,Langweer,De Fryske Marren,Friesland,VBO,5.724434,52.958940
Foekjesteech,9,,,8525EH,Langweer,De Fryske Marren,Friesland,VBO,5.724983,52.958695
Foekjesteech,10,,,8525EH,Langweer,De Fryske Marren,Friesland,VBO,5.724508,52.958894
Foekjesteech,12,,,8525EH,Langweer,De Fryske Marren,Friesland,VBO,5.724833,52.958597
Foekjesteech,16,,,8525EH,Langweer,De Fryske Marren,Friesland,VBO,5.725321,52.958191
Foekjesteech,18,,,8525EH,Langweer,De Fryske Marren,Friesland,VBO,5.725395,52.958146
Foekjesteech,19,,,8525EH,Langweer,De Fryske Marren,Friesland,VBO,5.725367,52.958434
Foekjesteech,20,,,8525EH,Langweer,De Fryske Marren,Friesland,VBO,5.725528,52.958047
Foekjesteech,21,a,,8525EH,Langweer,De Fryske Marren,Friesland,VBO,5.725738,52.958262
Foekjesteech,21,,,8525EH,Langweer,De Fryske Marren,Friesland,VBO,5.725486,52.958352
Foekjesteech,22,,,8525EH,Langweer,De Fryske Marren,Friesland,VBO,5.725691,52.957939
Foekjesteech,23,,,8525EH,Langweer,De Fryske Marren,Friesland,VBO,5.725841,52.958154
Foekjesteech,24,,,8525EH,Langweer,De Fryske Marren,Friesland,VBO,5.725780,52.957884
Foekjesteech,25,,,8525EH,Langweer,De Fryske Marren,Friesland,VBO,5.726079,52.958036
Foekjesteech,26,,,8525EH,Langweer,De Fryske Marren,Friesland,VBO,5.725869,52.957812
Foekjesteech,27,,,8525EH,Langweer,De Fryske Marren,Friesland,VBO,5.726328,52.957890
Foekjesteech,28,,,8525EH,Langweer,De Fryske Marren,Friesland,VBO,5.725957,52.957758
Foekjesteech,29,,,8525EH,Langweer,De Fryske Marren,Friesland,VBO,5.726583,52.957774
Efterom,1,a,,8525EJ,Langweer,De Fryske Marren,Friesland,VBO,5.723658,52.959311
Efterom,1,b,,8525EJ,Langweer,De Fryske Marren,Friesland,VBO,5.723631,52.959329
Efterom,1,,G1,8525EJ,Langweer,De Fryske Marren,Friesland,VBO,5.723606,52.959349
Efterom,1,,G2,8525EJ,Langweer,De Fryske Marren,Friesland,VBO,5.723585,52.959367
Efterom,1,,G3,8525EJ,Langweer,De Fryske Marren,Friesland,VBO,5.723553,52.959386
Efterom,1,,G4,8525EJ,Langweer,De Fryske Marren,Friesland,VBO,5.723528,52.959407
Efterom,2,a,,8525EJ,Langweer,De Fryske Marren,Friesland,VBO,5.723827,52.959319
Efterom,2,,,8525EJ,Langweer,De Fryske Marren,Friesland,VBO,5.723886,52.959274
Efterom,4,,,8525EJ,Langweer,De Fryske Marren,Friesland,VBO,5.723843,52.959480
Efterom,5,,,8525EJ,Langweer,De Fryske Marren,Friesland,VBO,5.723411,52.959446
Efterom,6,,,8525EJ,Langweer,De Fryske Marren,Friesland,VBO,5.723517,52.959715
Efterom,7,,,8525EJ,Langweer,De Fryske Marren,Friesland,VBO,5.723307,52.959446
Efterom,8,,,8525EJ,Langweer,De Fryske Marren,Friesland,VBO,5.723429,52.959850
Efterom,9,,,8525EJ,Langweer,De Fryske Marren,Friesland,VBO,5.723202,52.959401
Efterom,10,,,8525EJ,Langweer,De Fryske Marren,Friesland,VBO,5.723445,52.960030
Efterom,11,,,8525EJ,Langweer,De Fryske Marren,Friesland,VBO,5.723113,52.959384
Efterom,12,,,8525EJ,Langweer,De Fryske Marren,Friesland,VBO,5.723030,52.960291
Efterom,13,,,8525EJ,Langweer,De Fryske Marren,Friesland,VBO,5.723023,52.959339
Efterom,14,,,8525EJ,Langweer,De Fryske Marren,Friesland,VBO,5.723072,52.959842
Efterom,15,,,8525EJ,Langweer,De Fryske Marren,Friesland,VBO,5.722889,52.959285
Efterom,16,,,8525EJ,Langweer,De Fryske Marren,Friesland,VBO,5.723056,52.959752
Efterom,18,,,8525EJ,Langweer,De Fryske Marren,Friesland,VBO,5.723174,52.959662
Efterom,20,,,8525EJ,Langweer,De Fryske Marren,Friesland,VBO,5.722995,52.959573
Efterom,22,,,8525EJ,Langweer,De Fryske Marren,Friesland,VBO,5.722936,52.959609
Efterom,24,,,8525EJ,Langweer,De Fryske Marren,Friesland,VBO,5.722892,52.959645
Efterom,26,,,8525EJ,Langweer,De Fryske Marren,Friesland,VBO,5.722847,52.959681
Efterom,28,,,8525EJ,Langweer,De Fryske Marren,Friesland,VBO,5.722788,52.959717
Efterom,30,,,8525EJ,Langweer,De Fryske Marren,Friesland,VBO,5.722714,52.959771
Efterom,32,,,8525EJ,Langweer,De Fryske Marren,Friesland,VBO,5.722684,52.959807
Efterom,34,,,8525EJ,Langweer,De Fryske Marren,Friesland,VBO,5.722640,52.959843
Efterom,36,,,8525EJ,Langweer,De Fryske Marren,Friesland,VBO,5.722596,52.959870
Efterom,38,,,8525EJ,Langweer,De Fryske Marren,Friesland,VBO,5.722595,52.959917
Efterom,40,,,8525EJ,Langweer,De Fryske Marren,Friesland,VBO,5.722507,52.959960
Efterom,42,,,8525EJ,Langweer,De Fryske Marren,Friesland,VBO,5.722448,52.959997
Stevenshoek,1,,,8525EK,Langweer,De Fryske Marren,Friesland,VBO,5.723079,52.958907
Stevenshoek,2,,,8525EK,Langweer,De Fryske Marren,Friesland,VBO,5.723125,52.959078
Stevenshoek,3,,,8525EK,Langweer,De Fryske Marren,Friesland,VBO,5.723005,52.958971
Stevenshoek,4,,,8525EK,Langweer,De Fryske Marren,Friesland,VBO,5.723037,52.959150
Stevenshoek,5,,,8525EK,Langweer,De Fryske Marren,Friesland,VBO,5.722858,52.959106
Stevenshoek,6,,,8525EK,Langweer,De Fryske Marren,Friesland,VBO,5.722903,52.959249
Stevenshoek,7,,,8525EK,Langweer,De Fryske Marren,Friesland,VBO,5.722813,52.959142
Stevenshoek,8,,,8525EK,Langweer,De Fryske Marren,Friesland,VBO,5.722859,52.959285
Stevenshoek,13,,,8525EK,Langweer,De Fryske Marren,Friesland,VBO,5.722368,52.959314
Stevenshoek,15,,G1,8525EK,Langweer,De Fryske Marren,Friesland,VBO,5.722061,52.959384
Stevenshoek,15,,G10,8525EK,Langweer,De Fryske Marren,Friesland,VBO,5.721794,52.959379
Stevenshoek,15,,G2,8525EK,Langweer,De Fryske Marren,Friesland,VBO,5.722030,52.959372
Stevenshoek,15,,G3,8525EK,Langweer,De Fryske Marren,Friesland,VBO,5.721998,52.959358
Stevenshoek,15,,G4,8525EK,Langweer,De Fryske Marren,Friesland,VBO,5.721967,52.959344
Stevenshoek,15,,G5,8525EK,Langweer,De Fryske Marren,Friesland,VBO,5.721941,52.959331
Stevenshoek,15,,G6,8525EK,Langweer,De Fryske Marren,Friesland,VBO,5.721913,52.959321
Stevenshoek,15,,G7,8525EK,Langweer,De Fryske Marren,Friesland,VBO,5.721858,52.959325
Stevenshoek,15,,G8,8525EK,Langweer,De Fryske Marren,Friesland,VBO,5.721838,52.959338
Stevenshoek,15,,G9,8525EK,Langweer,De Fryske Marren,Friesland,VBO,5.721816,52.959356
Stevenshoek,15,,,8525EK,Langweer,De Fryske Marren,Friesland,VBO,5.722205,52.959440
Stevenshoek,17,,,8525EK,Langweer,De Fryske Marren,Friesland,VBO,5.721864,52.959576
Stevenshoek,19,,,8525EK,Langweer,De Fryske Marren,Friesland,VBO,5.721672,52.959720
Stevenshoek,21,,,8525EK,Langweer,De Fryske Marren,Friesland,VBO,5.721509,52.959846
Stevenshoek,23,,,8525EK,Langweer,De Fryske Marren,Friesland,VBO,5.721213,52.960036
Stevenshoek,23,,,8525EK,Langweer,De Fryske Marren,Friesland,VBO,5.721399,52.960133
Stevenshoek,25,,,8525EK,Langweer,De Fryske Marren,Friesland,VBO,5.720990,52.960163
Stevenshoek,27,,,8525EK,Langweer,De Fryske Marren,Friesland,VBO,5.721034,52.960109
Stevenshoek,29,,,8525EK,Langweer,De Fryske Marren,Friesland,VBO,5.721019,52.960147
Stevenshoek,31,,,8525EK,Langweer,De Fryske Marren,Friesland,VBO,5.721303,52.960217
Stevenshoek,33,,,8525EK,Langweer,De Fryske Marren,Friesland,VBO,5.721385,52.960148
Stevenshoek,35,,,8525EK,Langweer,De Fryske Marren,Friesland,VBO,5.721477,52.960046
Stevenshoek,37,,,8525EK,Langweer,De Fryske Marren,Friesland,VBO,5.720963,52.960118
Stevenshoek,39,,,8525EK,Langweer,De Fryske Marren,Friesland,VBO,5.721273,52.960210
Stevenshoek,41,,,8525EK,Langweer,De Fryske Marren,Friesland,VBO,5.721358,52.960147
Stevenshoek,43,,,8525EK,Langweer,De Fryske Marren,Friesland,VBO,5.721465,52.960038
Stevenshoek,45,,,8525EK,Langweer,De Fryske Marren,Friesland,VBO,5.720930,52.960105
Stevenshoek,47,,,8525EK,Langweer,De Fryske Marren,Friesland,VBO,5.721214,52.960195
Stevenshoek,49,,,8525EK,Langweer,De Fryske Marren,Friesland,VBO,5.721251,52.960124
Stevenshoek,51,,,8525EK,Langweer,De Fryske Marren,Friesland,VBO,5.720902,52.960091
Stevenshoek,53,,,8525EK,Langweer,De Fryske Marren,Friesland,VBO,5.721265,52.960186
Stevenshoek,55,,,8525EK,Langweer,De Fryske Marren,Friesland,VBO,5.721356,52.960126
Oasingaleane,1,,,8525EL,Langweer,De Fryske Marren,Friesland,VBO,5.722560,52.957201
Oasingaleane,2,,,8525EL,Langweer,De Fryske Marren,Friesland,VBO,5.723053,52.957461
Oasingaleane,3,,,8525EL,Langweer,De Fryske Marren,Friesland,VBO,5.722348,52.957349
Oasingaleane,6,,,8525EL,Langweer,De Fryske Marren,Friesland,VBO,5.722683,52.957686
Oasingaleane,7,,,8525EL,Langweer,De Fryske Marren,Friesland,VBO,5.722086,52.957499
Oasingaleane,9,,,8525EL,Langweer,De Fryske Marren,Friesland,VBO,5.721715,52.957653
Oasingaleane,10,,,8525EL,Langweer,De Fryske Marren,Friesland,VBO,5.722446,52.957831
Oasingaleane,11,,,8525EL,Langweer,De Fryske Marren,Friesland,VBO,5.721419,52.957825
Oasingaleane,12,a,,8525EL,Langweer,De Fryske Marren,Friesland,VBO,5.721443,52.958573
Oasingaleane,12,,,8525EL,Langweer,De Fryske Marren,Friesland,VBO,5.722298,52.957930
Oasingaleane,13,,,8525EL,Langweer,De Fryske Marren,Friesland,VBO,5.721241,52.957870
Oasingaleane,17,,,8525EL,Langweer,De Fryske Marren,Friesland,VBO,5.721155,52.958365
Oasingaleane,16,,,8525EM,Langweer,De Fryske Marren,Friesland,VBO,5.721336,52.958679
Oasingaleane,18,,,8525EM,Langweer,De Fryske Marren,Friesland,VBO,5.721292,52.958760
Oasingaleane,22,,,8525EN,Langweer,De Fryske Marren,Friesland,VBO,5.721071,52.958985
Oasingaleane,23,a,,8525EN,Langweer,De Fryske Marren,Friesland,VBO,5.720624,52.958887
Oasingaleane,23,,,8525EN,Langweer,De Fryske Marren,Friesland,VBO,5.720712,52.958770
Oasingaleane,24,,,8525EN,Langweer,De Fryske Marren,Friesland,VBO,5.720983,52.959111
Oasingaleane,25,,,8525EN,Langweer,De Fryske Marren,Friesland,VBO,5.720535,52.959004
Oasingaleane,26,,,8525EN,Langweer,De Fryske Marren,Friesland,VBO,5.720953,52.959174
Oasingaleane,27,,,8525EN,Langweer,De Fryske Marren,Friesland,VBO,5.720462,52.959086
Oasingaleane,28,,,8525EN,Langweer,De Fryske Marren,Friesland,VBO,5.720746,52.959318
Oasingaleane,29,,,8525EN,Langweer,De Fryske Marren,Friesland,VBO,5.720388,52.959167
Oasingaleane,31,,,8525EN,Langweer,De Fryske Marren,Friesland,VBO,5.720314,52.959275
Oasingaleane,32,,,8525EN,Langweer,De Fryske Marren,Friesland,VBO,5.720495,52.959607
Oasingaleane,33,a,,8525EN,Langweer,De Fryske Marren,Friesland,VBO,5.718555,52.958839
Oasingaleane,33,,,8525EN,Langweer,De Fryske Marren,Friesland,VBO,5.720226,52.959383
Brédyk,1,,,8525EP,Langweer,De Fryske Marren,Friesland,VBO,5.723587,52.957226
Brédyk,3,,,8525EP,Langweer,De Fryske Marren,Friesland,VBO,5.723733,52.956875
Brédyk,5,,,8525EP,Langweer,De Fryske Marren,Friesland,VBO,5.723837,52.956794
Brédyk,7,,,8525EP,Langweer,De Fryske Marren,Friesland,VBO,5.723955,52.956694
Brédyk,9,a,,8525EP,Langweer,De Fryske Marren,Friesland,VBO,5.724382,52.956770
Brédyk,9,,,8525EP,Langweer,De Fryske Marren,Friesland,VBO,5.724074,52.956622
Brédyk,11,,,8525EP,Langweer,De Fryske Marren,Friesland,VBO,5.724207,52.956514
Brédyk,13,,,8525EP,Langweer,De Fryske Marren,Friesland,VBO,5.724429,52.956405
Brédyk,15,,,8525EP,Langweer,De Fryske Marren,Friesland,VBO,5.724532,52.956243
Brédyk,17,,,8525EP,Langweer,De Fryske Marren,Friesland,VBO,5.724680,52.956126
Brédyk,21,,,8525EP,Langweer,De Fryske Marren,Friesland,VBO,5.725020,52.955883
Brédyk,23,,,8525EP,Langweer,De Fryske Marren,Friesland,VBO,5.725168,52.955774
Brédyk,2,,,8525ER,Langweer,De Fryske Marren,Friesland,VBO,5.722990,52.957012
Brédyk,4,,,8525ER,Langweer,De Fryske Marren,Friesland,VBO,5.723109,52.956903
Brédyk,6,,,8525ER,Langweer,De Fryske Marren,Friesland,VBO,5.723227,52.956822
Brédyk,8,,,8525ER,Langweer,De Fryske Marren,Friesland,VBO,5.723301,52.956759
Brédyk,10,,,8525ER,Langweer,De Fryske Marren,Friesland,VBO,5.723375,52.956696
Brédyk,12,,,8525ER,Langweer,De Fryske Marren,Friesland,VBO,5.723449,52.956642
Brédyk,14,,,8525ER,Langweer,De Fryske Marren,Friesland,VBO,5.723538,52.956588
Brédyk,16,,,8525ER,Langweer,De Fryske Marren,Friesland,VBO,5.723626,52.956507
Brédyk,18,,,8525ER,Langweer,De Fryske Marren,Friesland,VBO,5.723730,52.956434
Brédyk,20,,,8525ER,Langweer,De Fryske Marren,Friesland,VBO,5.723937,52.956272
Brédyk,22,,,8525ER,Langweer,De Fryske Marren,Friesland,VBO,5.724026,52.956200
Brédyk,24,,,8525ER,Langweer,De Fryske Marren,Friesland,VBO,5.724174,52.956110
Brédyk,26,,,8525ER,Langweer,De Fryske Marren,Friesland,VBO,5.724307,52.956010
Brédyk,28,,,8525ER,Langweer,De Fryske Marren,Friesland,VBO,5.724484,52.955866
Brédyk,30,,,8525ER,Langweer,De Fryske Marren,Friesland,VBO,5.724573,52.955794
Brédyk,32,,,8525ER,Langweer,De Fryske Marren,Friesland,VBO,5.724691,52.955695
Brédyk,34,,,8525ER,Langweer,De Fryske Marren,Friesland,VBO,5.724750,52.955578
Brédyk,36,,,8525ER,Langweer,De Fryske Marren,Friesland,VBO,5.724898,52.955461
Hoannekamp,1,,,8525ES,Langweer,De Fryske Marren,Friesland,VBO,5.722449,52.956285
Hoannekamp,3,,,8525ES,Langweer,De Fryske Marren,Friesland,VBO,5.722374,52.956249
Hoannekamp,5,,,8525ES,Langweer,De Fryske Marren,Friesland,VBO,5.722270,52.956187
Hoannekamp,7,,,8525ES,Langweer,De Fryske Marren,Friesland,VBO,5.722195,52.956151
Hoannekamp,2,,,8525ET,Langweer,De Fryske Marren,Friesland,VBO,5.722347,52.956600
Hoannekamp,4,,,8525ET,Langweer,De Fryske Marren,Friesland,VBO,5.722243,52.956591
Hoannekamp,6,,,8525ET,Langweer,De Fryske Marren,Friesland,VBO,5.722139,52.956583
Hoannekamp,8,,,8525ET,Langweer,De Fryske Marren,Friesland,VBO,5.721990,52.956565
Hoannekamp,10,,,8525ET,Langweer,De Fryske Marren,Friesland,VBO,5.721901,52.956565
Hoannekamp,12,,,8525ET,Langweer,De Fryske Marren,Friesland,VBO,5.721781,52.956557
Hoannekamp,14,,,8525ET,Langweer,De Fryske Marren,Friesland,VBO,5.721692,52.956548
Hoannekamp,16,,,8525ET,Langweer,De Fryske Marren,Friesland,VBO,5.721543,52.956539
Hoannekamp,18,,,8525ET,Langweer,De Fryske Marren,Friesland,VBO,5.721454,52.956531
Hoannekamp,20,,,8525ET,Langweer,De Fryske Marren,Friesland,VBO,5.721365,52.956522
Hoannekamp,22,,,8525ET,Langweer,De Fryske Marren,Friesland,VBO,5.721260,52.956513
Hoannekamp,24,,,8525ET,Langweer,De Fryske Marren,Friesland,VBO,5.721112,52.956523
Hoannekamp,26,,,8525ET,Langweer,De Fryske Marren,Friesland,VBO,5.721007,52.956514
Hoannekamp,28,,,8525ET,Langweer,De Fryske Marren,Friesland,VBO,5.720933,52.956514
Hoannekamp,30,,,8525ET,Langweer,De Fryske Marren,Friesland,VBO,5.720829,52.956505
Hoannekamp,32,,,8525ET,Langweer,De Fryske Marren,Friesland,VBO,5.720739,52.956497
Hoannekamp,34,,,8525ET,Langweer,De Fryske Marren,Friesland,VBO,5.720635,52.956488
H R Vierstrastrjitte,1,a,,8525EV,Langweer,De Fryske Marren,Friesland,VBO,5.722749,52.956644
H R Vierstrastrjitte,1,,,8525EV,Langweer,De Fryske Marren,Friesland,VBO,5.722721,52.956797
H R Vierstrastrjitte,3,,,8525EV,Langweer,De Fryske Marren,Friesland,VBO,5.722823,52.956599
H R Vierstrastrjitte,5,,,8525EV,Langweer,De Fryske Marren,Friesland,VBO,5.722883,52.956554
H R Vierstrastrjitte,7,,,8525EV,Langweer,De Fryske Marren,Friesland,VBO,5.722927,52.956455
H R Vierstrastrjitte,9,,,8525EV,Langweer,De Fryske Marren,Friesland,VBO,5.722986,52.956409
H R Vierstrastrjitte,11,,,8525EV,Langweer,De Fryske Marren,Friesland,VBO,5.723060,52.956364
H R Vierstrastrjitte,13,,,8525EV,Langweer,De Fryske Marren,Friesland,VBO,5.723149,52.956301
H R Vierstrastrjitte,15,,,8525EV,Langweer,De Fryske Marren,Friesland,VBO,5.723226,52.956253
H R Vierstrastrjitte,17,,,8525EV,Langweer,De Fryske Marren,Friesland,VBO,5.723282,52.956211
H R Vierstrastrjitte,19,,,8525EV,Langweer,De Fryske Marren,Friesland,VBO,5.723549,52.956129
H R Vierstrastrjitte,21,,,8525EV,Langweer,De Fryske Marren,Friesland,VBO,5.723623,52.956075
H R Vierstrastrjitte,23,,,8525EV,Langweer,De Fryske Marren,Friesland,VBO,5.723682,52.956030
H R Vierstrastrjitte,25,,,8525EV,Langweer,De Fryske Marren,Friesland,VBO,5.723741,52.955985
H R Vierstrastrjitte,27,,,8525EV,Langweer,De Fryske Marren,Friesland,VBO,5.723815,52.955904
H R Vierstrastrjitte,29,,,8525EV,Langweer,De Fryske Marren,Friesland,VBO,5.723889,52.955850
H R Vierstrastrjitte,31,,,8525EV,Langweer,De Fryske Marren,Friesland,VBO,5.723948,52.955805
H R Vierstrastrjitte,33,,,8525EV,Langweer,De Fryske Marren,Friesland,VBO,5.724007,52.955760
H R Vierstrastrjitte,35,,,8525EV,Langweer,De Fryske Marren,Friesland,VBO,5.724067,52.955714
H R Vierstrastrjitte,37,,,8525EV,Langweer,De Fryske Marren,Friesland,VBO,5.724126,52.955669
H R Vierstrastrjitte,41,,,8525EV,Langweer,De Fryske Marren,Friesland,VBO,5.724273,52.955417
H R Vierstrastrjitte,43,,,8525EV,Langweer,De Fryske Marren,Friesland,VBO,5.724332,52.955372
H R Vierstrastrjitte,45,,,8525EV,Langweer,De Fryske Marren,Friesland,VBO,5.724391,52.955327
H R Vierstrastrjitte,47,,,8525EV,Langweer,De Fryske Marren,Friesland,VBO,5.724450,52.955273
H R Vierstrastrjitte,2,,,8525EW,Langweer,De Fryske Marren,Friesland,VBO,5.722671,52.956168
H R Vierstrastrjitte,4,,,8525EW,Langweer,De Fryske Marren,Friesland,VBO,5.722760,52.956114
H R Vierstrastrjitte,6,,,8525EW,Langweer,De Fryske Marren,Friesland,VBO,5.722834,52.956068
H R Vierstrastrjitte,8,,,8525EW,Langweer,De Fryske Marren,Friesland,VBO,5.722923,52.956005
H R Vierstrastrjitte,10,,,8525EW,Langweer,De Fryske Marren,Friesland,VBO,5.723101,52.955924
H R Vierstrastrjitte,12,,,8525EW,Langweer,De Fryske Marren,Friesland,VBO,5.723175,52.955870
H R Vierstrastrjitte,14,,,8525EW,Langweer,De Fryske Marren,Friesland,VBO,5.723249,52.955816
H R Vierstrastrjitte,16,,,8525EW,Langweer,De Fryske Marren,Friesland,VBO,5.723323,52.955762
H R Vierstrastrjitte,18,,,8525EW,Langweer,De Fryske Marren,Friesland,VBO,5.723456,52.955671
De Molier,1,,,8525EX,Langweer,De Fryske Marren,Friesland,VBO,5.725178,52.955109
De Molier,2,,,8525EX,Langweer,De Fryske Marren,Friesland,VBO,5.723781,52.955401
De Molier,3,,,8525EX,Langweer,De Fryske Marren,Friesland,VBO,5.725251,52.954893
De Molier,5,,,8525EX,Langweer,De Fryske Marren,Friesland,VBO,5.724597,52.955003
De Molier,8,,,8525EX,Langweer,De Fryske Marren,Friesland,VBO,5.722115,52.955468
De Molier,9,,,8525EX,Langweer,De Fryske Marren,Friesland,VBO,5.724255,52.955022
De Molier,10,,,8525EX,Langweer,De Fryske Marren,Friesland,VBO,5.721922,52.955451
De Molier,11,a,,8525EX,Langweer,De Fryske Marren,Friesland,VBO,5.723749,52.955050
De Molier,11,,,8525EX,Langweer,De Fryske Marren,Friesland,VBO,5.723853,52.955041
De Molier,12,,,8525EX,Langweer,De Fryske Marren,Friesland,VBO,5.721758,52.955442
De Molier,13,,,8525EX,Langweer,De Fryske Marren,Friesland,VBO,5.723481,52.955060
De Molier,14,,,8525EX,Langweer,De Fryske Marren,Friesland,VBO,5.721564,52.955416
De Molier,15,,,8525EX,Langweer,De Fryske Marren,Friesland,VBO,5.723213,52.955061
De Molier,17,,,8525EX,Langweer,De Fryske Marren,Friesland,VBO,5.722916,52.955071
De Molier,19,,,8525EX,Langweer,De Fryske Marren,Friesland,VBO,5.722782,52.955080
De Molier,21,,,8525EX,Langweer,De Fryske Marren,Friesland,VBO,5.722574,52.955108
De Molier,23,,,8525EX,Langweer,De Fryske Marren,Friesland,VBO,5.722440,52.955117
De Molier,25,,,8525EX,Langweer,De Fryske Marren,Friesland,VBO,5.722232,52.955127
De Molier,27,,,8525EX,Langweer,De Fryske Marren,Friesland,VBO,5.722098,52.955136
De Molier,29,,,8525EX,Langweer,De Fryske Marren,Friesland,VBO,5.721875,52.955128
De Molier,31,,,8525EX,Langweer,De Fryske Marren,Friesland,VBO,5.721756,52.955137
Swannestrjitte,1,,,8525EZ,Langweer,De Fryske Marren,Friesland,VBO,5.722343,52.955980
Swannestrjitte,2,,,8525EZ,Langweer,De Fryske Marren,Friesland,VBO,5.721526,52.956270
Swannestrjitte,3,,,8525EZ,Langweer,De Fryske Marren,Friesland,VBO,5.722417,52.955935
Swannestrjitte,4,,,8525EZ,Langweer,De Fryske Marren,Friesland,VBO,5.721585,52.956225
Swannestrjitte,5,,,8525EZ,Langweer,De Fryske Marren,Friesland,VBO,5.722490,52.955872
Swannestrjitte,6,,,8525EZ,Langweer,De Fryske Marren,Friesland,VBO,5.721660,52.956180
Swannestrjitte,7,,,8525EZ,Langweer,De Fryske Marren,Friesland,VBO,5.722564,52.955818
Swannestrjitte,8,,,8525EZ,Langweer,De Fryske Marren,Friesland,VBO,5.721734,52.956134
Swannestrjitte,9,,,8525EZ,Langweer,De Fryske Marren,Friesland,VBO,5.722713,52.955745
Swannestrjitte,10,,,8525EZ,Langweer,De Fryske Marren,Friesland,VBO,5.721955,52.955882
Swannestrjitte,11,,,8525EZ,Langweer,De Fryske Marren,Friesland,VBO,5.722772,52.955691
Swannestrjitte,12,,,8525EZ,Langweer,De Fryske Marren,Friesland,VBO,5.722014,52.955828
Swannestrjitte,13,,,8525EZ,Langweer,De Fryske Marren,Friesland,VBO,5.722846,52.955637
Swannestrjitte,14,,,8525EZ,Langweer,De Fryske Marren,Friesland,VBO,5.722043,52.955765
Swannestrjitte,15,,,8525EZ,Langweer,De Fryske Marren,Friesland,VBO,5.722905,52.955583
Swannestrjitte,16,,,8525EZ,Langweer,De Fryske Marren,Friesland,VBO,5.722117,52.955711
Swannestrjitte,17,,,8525EZ,Langweer,De Fryske Marren,Friesland,VBO,5.723038,52.955484
Swannestrjitte,18,,,8525EZ,Langweer,De Fryske Marren,Friesland,VBO,5.722280,52.955612
Swannestrjitte,20,,,8525EZ,Langweer,De Fryske Marren,Friesland,VBO,5.722354,52.955576
Swannestrjitte,22,,,8525EZ,Langweer,De Fryske Marren,Friesland,VBO,5.722487,52.955476
Swannestrjitte,24,,,8525EZ,Langweer,De Fryske Marren,Friesland,VBO,5.722576,52.955413
Legemarstersingel,1,a,,8525GA,Langweer,De Fryske Marren,Friesland,VBO,5.720989,52.956083
Legemarstersingel,1,,,8525GA,Langweer,De Fryske Marren,Friesland,VBO,5.720945,52.956137
Legemarstersingel,3,a,,8525GA,Langweer,De Fryske Marren,Friesland,VBO,5.721107,52.955929
Legemarstersingel,3,,,8525GA,Langweer,De Fryske Marren,Friesland,VBO,5.721078,52.955975
Legemarstersingel,5,,,8525GA,Langweer,De Fryske Marren,Friesland,VBO,5.721210,52.955812
Legemarstersingel,7,,,8525GA,Langweer,De Fryske Marren,Friesland,VBO,5.721284,52.955704
Lyts Dykje,1,,,8525GB,Langweer,De Fryske Marren,Friesland,VBO,5.722737,52.956958
Lyts Dykje,3,a,,8525GB,Langweer,De Fryske Marren,Friesland,VBO,5.722214,52.956906
Lyts Dykje,3,,,8525GB,Langweer,De Fryske Marren,Friesland,VBO,5.722394,52.956905
Lyts Dykje,5,,,8525GB,Langweer,De Fryske Marren,Friesland,VBO,5.722007,52.956880
Lyts Dykje,7,,,8525GB,Langweer,De Fryske Marren,Friesland,VBO,5.721799,52.956862
Lyts Dykje,9,,,8525GB,Langweer,De Fryske Marren,Friesland,VBO,5.721545,52.956809
Lyts Dykje,11,,,8525GB,Langweer,De Fryske Marren,Friesland,VBO,5.721456,52.956800
Lyts Dykje,13,,,8525GB,Langweer,De Fryske Marren,Friesland,VBO,5.721352,52.956791
Lyts Dykje,15,,,8525GB,Langweer,De Fryske Marren,Friesland,VBO,5.721203,52.956774
Lyts Dykje,17,,,8525GB,Langweer,De Fryske Marren,Friesland,VBO,5.721099,52.956765
Lyts Dykje,19,,,8525GB,Langweer,De Fryske Marren,Friesland,VBO,5.720994,52.956757
Lyts Dykje,21,,,8525GB,Langweer,De Fryske Marren,Friesland,VBO,5.720846,52.956775
Lyts Dykje,23,,,8525GB,Langweer,De Fryske Marren,Friesland,VBO,5.720637,52.956758
Lyts Dykje,25,,,8525GB,Langweer,De Fryske Marren,Friesland,VBO,5.720444,52.956740
Lyts Dykje,6,,,8525GC,Langweer,De Fryske Marren,Friesland,VBO,5.722173,52.957122
Lyts Dykje,8,,,8525GC,Langweer,De Fryske Marren,Friesland,VBO,5.722009,52.957113
Lyts Dykje,10,,,8525GC,Langweer,De Fryske Marren,Friesland,VBO,5.721860,52.957096
Lyts Dykje,12,,,8525GC,Langweer,De Fryske Marren,Friesland,VBO,5.721771,52.957087
Lyts Dykje,14,,,8525GC,Langweer,De Fryske Marren,Friesland,VBO,5.721652,52.957078
Lyts Dykje,16,,,8525GC,Langweer,De Fryske Marren,Friesland,VBO,5.721562,52.957069
Lyts Dykje,18,,,8525GC,Langweer,De Fryske Marren,Friesland,VBO,5.721443,52.957061
Lyts Dykje,20,,,8525GC,Langweer,De Fryske Marren,Friesland,VBO,5.721250,52.957043
Lyts Dykje,22,,,8525GC,Langweer,De Fryske Marren,Friesland,VBO,5.721071,52.957026
Lyts Dykje,26,,,8525GC,Langweer,De Fryske Marren,Friesland,VBO,5.720847,52.957000
Lyts Dykje,28,,,8525GC,Langweer,De Fryske Marren,Friesland,VBO,5.720728,52.956991
Lyts Dykje,30,,,8525GC,Langweer,De Fryske Marren,Friesland,VBO,5.720639,52.956982
Lyts Dykje,32,,,8525GC,Langweer,De Fryske Marren,Friesland,VBO,5.720490,52.956965
Lyts Dykje,34,,,8525GC,Langweer,De Fryske Marren,Friesland,VBO,5.720118,52.956993
Lyts Dykje,36,,,8525GC,Langweer,De Fryske Marren,Friesland,VBO,5.719493,52.957012
Lyts Dykje,38,,,8525GD,Langweer,De Fryske Marren,Friesland,VBO,5.719374,52.957031
Lyts Dykje,40,,,8525GD,Langweer,De Fryske Marren,Friesland,VBO,5.719077,52.957094
Lyts Dykje,50,,,8525GD,Langweer,De Fryske Marren,Friesland,VBO,5.718423,52.957159
Lyts Dykje,52,,,8525GD,Langweer,De Fryske Marren,Friesland,VBO,5.718021,52.957106
Lyts Dykje,54,a,,8525GD,Langweer,De Fryske Marren,Friesland,VBO,5.717658,52.957151
Lyts Dykje,54,,,8525GD,Langweer,De Fryske Marren,Friesland,VBO,5.717337,52.957171
Lyts Dykje,56,,,8525GD,Langweer,De Fryske Marren,Friesland,VBO,5.717039,52.957190
Lyts Dykje,58,,,8525GD,Langweer,De Fryske Marren,Friesland,VBO,5.716638,52.957191
Auke Piersstrjitte,1,,,8525GE,Langweer,De Fryske Marren,Friesland,VBO,5.721428,52.959029
Auke Piersstrjitte,2,,,8525GE,Langweer,De Fryske Marren,Friesland,VBO,5.721531,52.958840
Auke Piersstrjitte,3,,,8525GE,Langweer,De Fryske Marren,Friesland,VBO,5.721548,52.959064
Auke Piersstrjitte,4,,,8525GE,Langweer,De Fryske Marren,Friesland,VBO,5.721636,52.958876
Auke Piersstrjitte,5,,,8525GE,Langweer,De Fryske Marren,Friesland,VBO,5.721682,52.959100
Auke Piersstrjitte,6,,,8525GE,Langweer,De Fryske Marren,Friesland,VBO,5.721800,52.958920
Auke Piersstrjitte,7,,,8525GE,Langweer,De Fryske Marren,Friesland,VBO,5.721801,52.959136
Auke Piersstrjitte,8,,,8525GE,Langweer,De Fryske Marren,Friesland,VBO,5.721889,52.958947
Auke Piersstrjitte,9,,G1,8525GE,Langweer,De Fryske Marren,Friesland,VBO,5.721879,52.959256
Auke Piersstrjitte,9,,G2,8525GE,Langweer,De Fryske Marren,Friesland,VBO,5.721917,52.959273
Auke Piersstrjitte,9,,,8525GE,Langweer,De Fryske Marren,Friesland,VBO,5.721298,52.959479
Auke Piersstrjitte,10,,,8525GE,Langweer,De Fryske Marren,Friesland,VBO,5.722038,52.959000
Auke Piersstrjitte,11,,,8525GE,Langweer,De Fryske Marren,Friesland,VBO,5.722204,52.959197
Auke Piersstrjitte,12,,,8525GE,Langweer,De Fryske Marren,Friesland,VBO,5.722128,52.959027
Auke Piersstrjitte,14,,,8525GE,Langweer,De Fryske Marren,Friesland,VBO,5.722352,52.959143
Auke Piersstrjitte,16,,,8525GE,Langweer,De Fryske Marren,Friesland,VBO,5.722471,52.959206
Pontdyk,2,,,8525GG,Langweer,De Fryske Marren,Friesland,VBO,5.721709,52.960691
Pontdyk,4,a,0001,8525GG,Langweer,De Fryske Marren,Friesland,VBO,5.722917,52.961047
Pontdyk,4,a,0002,8525GG,Langweer,De Fryske Marren,Friesland,VBO,5.722977,52.961046
Pontdyk,4,a,0003,8525GG,Langweer,De Fryske Marren,Friesland,VBO,5.723051,52.961055
Pontdyk,4,a,0004,8525GG,Langweer,De Fryske Marren,Friesland,VBO,5.723111,52.961064
Pontdyk,4,a,0005,8525GG,Langweer,De Fryske Marren,Friesland,VBO,5.723170,52.961073
Pontdyk,4,a,0006,8525GG,Langweer,De Fryske Marren,Friesland,VBO,5.723230,52.961073
Pontdyk,4,a,0007,8525GG,Langweer,De Fryske Marren,Friesland,VBO,5.723290,52.961082
Pontdyk,4,a,0008,8525GG,Langweer,De Fryske Marren,Friesland,VBO,5.723349,52.961090
Pontdyk,4,a,0009,8525GG,Langweer,De Fryske Marren,Friesland,VBO,5.723409,52.961099
Pontdyk,4,a,0010,8525GG,Langweer,De Fryske Marren,Friesland,VBO,5.723468,52.961108
Pontdyk,4,b,,8525GG,Langweer,De Fryske Marren,Friesland,VBO,5.723779,52.960927
Pontdyk,6,,,8525GG,Langweer,De Fryske Marren,Friesland,VBO,5.719792,52.962987
Pontdyk,8,b,,8525GG,Langweer,De Fryske Marren,Friesland,VBO,5.715693,52.964167
Pontdyk,8,c,,8525GG,Langweer,De Fryske Marren,Friesland,VBO,5.716522,52.963554
Pontdyk,8,d,A01,8525GG,Langweer,De Fryske Marren,Friesland,VBO,5.716774,52.963386
Pontdyk,8,d,A02,8525GG,Langweer,De Fryske Marren,Friesland,VBO,5.716728,52.963363
Pontdyk,8,d,A03,8525GG,Langweer,De Fryske Marren,Friesland,VBO,5.716672,52.963333
Pontdyk,8,d,A04,8525GG,Langweer,De Fryske Marren,Friesland,VBO,5.716620,52.963304
Pontdyk,8,d,A05,8525GG,Langweer,De Fryske Marren,Friesland,VBO,5.716577,52.963271
Pontdyk,8,d,A06,8525GG,Langweer,De Fryske Marren,Friesland,VBO,5.716510,52.963244
Pontdyk,8,d,A07,8525GG,Langweer,De Fryske Marren,Friesland,VBO,5.716467,52.963214
Pontdyk,8,d,A08,8525GG,Langweer,De Fryske Marren,Friesland,VBO,5.716405,52.963184
Pontdyk,8,d,A09,8525GG,Langweer,De Fryske Marren,Friesland,VBO,5.716351,52.963157
Pontdyk,8,d,A10,8525GG,Langweer,De Fryske Marren,Friesland,VBO,5.716282,52.963138
Pontdyk,8,d,A11,8525GG,Langweer,De Fryske Marren,Friesland,VBO,5.716240,52.963102
Pontdyk,8,d,A12,8525GG,Langweer,De Fryske Marren,Friesland,VBO,5.716192,52.963071
Pontdyk,8,e,,8525GG,Langweer,De Fryske Marren,Friesland,VBO,5.717328,52.962892
Pontdyk,8,f,,8525GG,Langweer,De Fryske Marren,Friesland,VBO,5.717743,52.962524
Pontdyk,8,,WS1,8525GG,Langweer,De Fryske Marren,Friesland,LIG,5.717159,52.962193
Pontdyk,8,,WS2,8525GG,Langweer,De Fryske Marren,Friesland,LIG,5.716827,52.962389
Pontdyk,8,,WS3,8525GG,Langweer,De Fryske Marren,Friesland,LIG,5.716436,52.962653
Pontdyk,8,,WS4,8525GG,Langweer,De Fryske Marren,Friesland,LIG,5.716000,52.962955
Pontdyk,8,,WS5,8525GG,Langweer,De Fryske Marren,Friesland,LIG,5.715599,52.963219
Pontdyk,8,,WS6,8525GG,Langweer,De Fryske Marren,Friesland,LIG,5.715239,52.963454
Pontdyk,8,,WS7,8525GG,Langweer,De Fryske Marren,Friesland,LIG,5.714909,52.963676
Pontdyk,8,,WS8,8525GG,Langweer,De Fryske Marren,Friesland,LIG,5.714638,52.963862
Pontdyk,8,,,8525GG,Langweer,De Fryske Marren,Friesland,VBO,5.718990,52.963268
Pontdyk,10,a,,8525GG,Langweer,De Fryske Marren,Friesland,VBO,5.714118,52.964504
Pontdyk,10,,,8525GG,Langweer,De Fryske Marren,Friesland,VBO,5.714429,52.964287
Pontdyk,12,a,,8525GG,Langweer,De Fryske Marren,Friesland,VBO,5.715197,52.964545
Pontdyk,12,,,8525GG,Langweer,De Fryske Marren,Friesland,VBO,5.714789,52.964398
Pontdyk,14,,S1,8525GG,Langweer,De Fryske Marren,Friesland,VBO,5.713728,52.964018
Pontdyk,14,,S10,8525GG,Langweer,De Fryske Marren,Friesland,VBO,5.714043,52.964134
Pontdyk,14,,S11,8525GG,Langweer,De Fryske Marren,Friesland,VBO,5.714063,52.964159
Pontdyk,14,,S12,8525GG,Langweer,De Fryske Marren,Friesland,VBO,5.714094,52.964170
Pontdyk,14,,S13,8525GG,Langweer,De Fryske Marren,Friesland,VBO,5.714127,52.964189
Pontdyk,14,,S2,8525GG,Langweer,De Fryske Marren,Friesland,VBO,5.713768,52.964034
Pontdyk,14,,S3,8525GG,Langweer,De Fryske Marren,Friesland,VBO,5.713818,52.964027
Pontdyk,14,,S4,8525GG,Langweer,De Fryske Marren,Friesland,VBO,5.713826,52.964063
Pontdyk,14,,S5,8525GG,Langweer,De Fryske Marren,Friesland,VBO,5.713847,52.964073
Pontdyk,14,,S6,8525GG,Langweer,De Fryske Marren,Friesland,VBO,5.713914,52.964072
Pontdyk,14,,S7,8525GG,Langweer,De Fryske Marren,Friesland,VBO,5.713928,52.964104
Pontdyk,14,,S8,8525GG,Langweer,De Fryske Marren,Friesland,VBO,5.713970,52.964112
Pontdyk,14,,S9,8525GG,Langweer,De Fryske Marren,Friesland,VBO,5.713991,52.964136
Pontdyk,14,,,8525GG,Langweer,De Fryske Marren,Friesland,VBO,5.713670,52.964316
Pontdyk,16,,,8525GG,Langweer,De Fryske Marren,Friesland,VBO,5.713226,52.964578
Pontdyk,18,,,8525GG,Langweer,De Fryske Marren,Friesland,VBO,5.713109,52.964848
Pontdyk,20,,,8525GG,Langweer,De Fryske Marren,Friesland,VBO,5.713140,52.965109
Pontdyk,22,,,8525GG,Langweer,De Fryske Marren,Friesland,VBO,5.713633,52.965287
Pontdyk,24,,,8525GG,Langweer,De Fryske Marren,Friesland,VBO,5.713293,52.965566
Pontdyk,26,,,8525GG,Langweer,De Fryske Marren,Friesland,VBO,5.713844,52.965691
Pontdyk,28,,,8525GG,Langweer,De Fryske Marren,Friesland,VBO,5.712892,52.965792
Pontdyk,30,,,8525GG,Langweer,De Fryske Marren,Friesland,VBO,5.713474,52.965898
Pontdyk,32,,,8525GG,Langweer,De Fryske Marren,Friesland,VBO,5.712805,52.966044
Pontdyk,34,,,8525GG,Langweer,De Fryske Marren,Friesland,VBO,5.712285,52.966207
Pontdyk,36,,,8525GG,Langweer,De Fryske Marren,Friesland,VBO,5.711899,52.966316
Pontdyk,38,a,,8525GG,Langweer,De Fryske Marren,Friesland,VBO,5.708955,52.967373
Pontdyk,38,,,8525GG,Langweer,De Fryske Marren,Friesland,VBO,5.711275,52.966524
Pontdyk,40,,,8525GG,Langweer,De Fryske Marren,Friesland,VBO,5.707266,52.969824
Appelhôf,1,,,8525GJ,Langweer,De Fryske Marren,Friesland,VBO,5.720909,52.957332
Appelhôf,3,,,8525GJ,Langweer,De Fryske Marren,Friesland,VBO,5.720642,52.957324
Appelhôf,5,,,8525GJ,Langweer,De Fryske Marren,Friesland,VBO,5.720359,52.957289
Appelhôf,7,,,8525GJ,Langweer,De Fryske Marren,Friesland,VBO,5.719927,52.957317
Appelhôf,9,,,8525GJ,Langweer,De Fryske Marren,Friesland,VBO,5.719824,52.957452
Appelhôf,11,,,8525GJ,Langweer,De Fryske Marren,Friesland,VBO,5.719721,52.957569
Appelhôf,13,,,8525GJ,Langweer,De Fryske Marren,Friesland,VBO,5.719856,52.957703
Appelhôf,15,,,8525GJ,Langweer,De Fryske Marren,Friesland,VBO,5.719945,52.957739
Appelhôf,17,,,8525GJ,Langweer,De Fryske Marren,Friesland,VBO,5.720035,52.957748
Appelhôf,19,,,8525GJ,Langweer,De Fryske Marren,Friesland,VBO,5.720139,52.957765
Appelhôf,21,,,8525GJ,Langweer,De Fryske Marren,Friesland,VBO,5.719947,52.957946
Appelhôf,23,,,8525GJ,Langweer,De Fryske Marren,Friesland,VBO,5.719917,52.957991
Appelhôf,25,,,8525GJ,Langweer,De Fryske Marren,Friesland,VBO,5.719888,52.958054
Appelhôf,27,,,8525GJ,Langweer,De Fryske Marren,Friesland,VBO,5.719844,52.958099
Appelhôf,29,,,8525GJ,Langweer,De Fryske Marren,Friesland,VBO,5.719755,52.958189
Appelhôf,31,,,8525GJ,Langweer,De Fryske Marren,Friesland,VBO,5.719726,52.958243
Appelhôf,33,,,8525GJ,Langweer,De Fryske Marren,Friesland,VBO,5.719667,52.958288
Appelhôf,35,,,8525GJ,Langweer,De Fryske Marren,Friesland,VBO,5.719608,52.958342
Appelhôf,37,,,8525GJ,Langweer,De Fryske Marren,Friesland,VBO,5.719519,52.958432
Appelhôf,39,,,8525GJ,Langweer,De Fryske Marren,Friesland,VBO,5.719460,52.958477
Appelhôf,2,,,8525GK,Langweer,De Fryske Marren,Friesland,VBO,5.720766,52.958033
Appelhôf,4,,,8525GK,Langweer,De Fryske Marren,Friesland,VBO,5.720142,52.958170
Appelhôf,6,,,8525GK,Langweer,De Fryske Marren,Friesland,VBO,5.720261,52.958205
Appelhôf,8,,,8525GK,Langweer,De Fryske Marren,Friesland,VBO,5.720160,52.958601
Appelhôf,10,,,8525GK,Langweer,De Fryske Marren,Friesland,VBO,5.720190,52.958538
Appelhôf,12,,,8525GK,Langweer,De Fryske Marren,Friesland,VBO,5.720174,52.958475
Appelhôf,14,,,8525GK,Langweer,De Fryske Marren,Friesland,VBO,5.720189,52.958421
Appelhôf,16,,,8525GK,Langweer,De Fryske Marren,Friesland,VBO,5.720381,52.958250
Appelhôf,18,,,8525GK,Langweer,De Fryske Marren,Friesland,VBO,5.720441,52.958295
Appelhôf,20,,,8525GK,Langweer,De Fryske Marren,Friesland,VBO,5.720515,52.958348
Appelhôf,22,,,8525GK,Langweer,De Fryske Marren,Friesland,VBO,5.720590,52.958375
Appelhôf,41,,,8525GL,Langweer,De Fryske Marren,Friesland,VBO,5.719208,52.958649
Appelhôf,43,,,8525GL,Langweer,De Fryske Marren,Friesland,VBO,5.719312,52.958666
Appelhôf,45,,,8525GL,Langweer,De Fryske Marren,Friesland,VBO,5.719417,52.958666
Appelhôf,47,,,8525GL,Langweer,De Fryske Marren,Friesland,VBO,5.719536,52.958675
Appelhôf,49,,,8525GL,Langweer,De Fryske Marren,Friesland,VBO,5.719670,52.958710
Appelhôf,51,,,8525GL,Langweer,De Fryske Marren,Friesland,VBO,5.719759,52.958710
Appelhôf,53,,,8525GL,Langweer,De Fryske Marren,Friesland,VBO,5.719879,52.958746
Appelhôf,55,,,8525GL,Langweer,De Fryske Marren,Friesland,VBO,5.719925,52.958979
Appelhôf,57,,,8525GL,Langweer,De Fryske Marren,Friesland,VBO,5.719851,52.959033
Appelhôf,59,,,8525GL,Langweer,De Fryske Marren,Friesland,VBO,5.719807,52.959078
Appelhôf,61,,,8525GL,Langweer,De Fryske Marren,Friesland,VBO,5.719748,52.959123
Appelhôf,63,,,8525GL,Langweer,De Fryske Marren,Friesland,VBO,5.719330,52.959053
Appelhôf,65,,,8525GL,Langweer,De Fryske Marren,Friesland,VBO,5.719256,52.959008
Appelhôf,67,,,8525GL,Langweer,De Fryske Marren,Friesland,VBO,5.719166,52.958981
Appelhôf,69,,,8525GL,Langweer,De Fryske Marren,Friesland,VBO,5.719047,52.958946
Hendrik Dijkstraleane,1,a,,8525GM,Langweer,De Fryske Marren,Friesland,VBO,5.724148,52.958462
Hendrik Dijkstraleane,1,,,8525GM,Langweer,De Fryske Marren,Friesland,VBO,5.723516,52.957693
Hendrik Dijkstraleane,2,,,8525GM,Langweer,De Fryske Marren,Friesland,VBO,5.723917,52.957494
Hendrik Dijkstraleane,3,,,8525GM,Langweer,De Fryske Marren,Friesland,VBO,5.723705,52.958151
Hendrik Dijkstraleane,4,,,8525GM,Langweer,De Fryske Marren,Friesland,VBO,5.723977,52.957548
Hendrik Dijkstraleane,6,,,8525GM,Langweer,De Fryske Marren,Friesland,VBO,5.724111,52.957637
Hendrik Dijkstraleane,8,,,8525GM,Langweer,De Fryske Marren,Friesland,VBO,5.724156,52.957691
Hendrik Dijkstraleane,10,,,8525GM,Langweer,De Fryske Marren,Friesland,VBO,5.724276,52.957781
Hendrik Dijkstraleane,12,,,8525GM,Langweer,De Fryske Marren,Friesland,VBO,5.724336,52.957835
Hendrik Dijkstraleane,14,,,8525GM,Langweer,De Fryske Marren,Friesland,VBO,5.724500,52.957942
Hendrik Dijkstraleane,16,,,8525GM,Langweer,De Fryske Marren,Friesland,VBO,5.724815,52.958184
Hendrik Dijkstraleane,18,,,8525GM,Langweer,De Fryske Marren,Friesland,VBO,5.725039,52.958327
Hendrik Dijkstraleane,20,,,8525GM,Langweer,De Fryske Marren,Friesland,VBO,5.725114,52.958371
Hendrik Dijkstraleane,22,,,8525GM,Langweer,De Fryske Marren,Friesland,VBO,5.725264,52.958506
Hendrik Dijkstraleane,24,,,8525GM,Langweer,De Fryske Marren,Friesland,VBO,5.725518,52.958622
Hendrik Dijkstraleane,26,,,8525GM,Langweer,De Fryske Marren,Friesland,VBO,5.726027,52.959043
Bast-Bakkerpaad,2,,,8525GN,Langweer,De Fryske Marren,Friesland,VBO,5.720246,52.963141
Tsjillânleane,1,,,8525GP,Langweer,De Fryske Marren,Friesland,VBO,5.724903,52.958058
Tsjillânleane,3,,,8525GP,Langweer,De Fryske Marren,Friesland,VBO,5.724977,52.958012
Tsjillânleane,5,,,8525GP,Langweer,De Fryske Marren,Friesland,VBO,5.725096,52.957922
Tsjillânleane,7,,,8525GP,Langweer,De Fryske Marren,Friesland,VBO,5.725170,52.957877
Tsjillânleane,9,,,8525GP,Langweer,De Fryske Marren,Friesland,VBO,5.725303,52.957787
Tsjillânleane,11,,,8525GP,Langweer,De Fryske Marren,Friesland,VBO,5.725407,52.957751
Tsjillânleane,13,,,8525GP,Langweer,De Fryske Marren,Friesland,VBO,5.725495,52.957634
Tsjillânleane,15,,,8525GP,Langweer,De Fryske Marren,Friesland,VBO,5.725211,52.957410
Tsjillânleane,17,,,8525GP,Langweer,De Fryske Marren,Friesland,VBO,5.725359,52.957310
Tsjillânleane,19,,,8525GP,Langweer,De Fryske Marren,Friesland,VBO,5.725507,52.957211
Tsjillânleane,25,a,,8525GP,Langweer,De Fryske Marren,Friesland,VBO,5.725729,52.956724
Tsjillânleane,25,,,8525GP,Langweer,De Fryske Marren,Friesland,VBO,5.725549,52.956905
Tsjillânleane,27,,,8525GP,Langweer,De Fryske Marren,Friesland,VBO,5.726453,52.956472
Tsjillânleane,2,,,8525GR,Langweer,De Fryske Marren,Friesland,VBO,5.724738,52.957815
Tsjillânleane,4,,,8525GR,Langweer,De Fryske Marren,Friesland,VBO,5.724812,52.957761
Tsjillânleane,6,,,8525GR,Langweer,De Fryske Marren,Friesland,VBO,5.724974,52.957653
Tsjillânleane,10,,,8525GR,Langweer,De Fryske Marren,Friesland,VBO,5.724661,52.957537
Tsjillânleane,12,,,8525GR,Langweer,De Fryske Marren,Friesland,VBO,5.724586,52.957474
Tsjillânleane,14,,,8525GR,Langweer,De Fryske Marren,Friesland,VBO,5.724496,52.957403
Tsjillânleane,16,,,8525GR,Langweer,De Fryske Marren,Friesland,VBO,5.724422,52.957367
Tsjillânleane,18,,,8525GR,Langweer,De Fryske Marren,Friesland,VBO,5.724584,52.957178
Tsjillânleane,20,,,8525GR,Langweer,De Fryske Marren,Friesland,VBO,5.724717,52.957079
Tsjillânleane,22,,,8525GR,Langweer,De Fryske Marren,Friesland,VBO,5.724880,52.956979
Tsjillânleane,24,,,8525GR,Langweer,De Fryske Marren,Friesland,VBO,5.725013,52.956880
Tsjillânleane,26,,,8525GR,Langweer,De Fryske Marren,Friesland,VBO,5.725176,52.956772
Tsjillânleane,28,,,8525GR,Langweer,De Fryske Marren,Friesland,VBO,5.725339,52.956654
Tsjillânleane,30,,,8525GR,Langweer,De Fryske Marren,Friesland,VBO,5.725531,52.956519
Tsjillânleane,32,,,8525GR,Langweer,De Fryske Marren,Friesland,VBO,5.725600,52.955571
Tsjillânleane,34,,,8525GR,Langweer,De Fryske Marren,Friesland,VBO,5.726415,52.955141
Doniapark,2,,,8525GS,Langweer,De Fryske Marren,Friesland,VBO,5.718238,52.962165
Doniapark,4,,,8525GS,Langweer,De Fryske Marren,Friesland,VBO,5.718173,52.962128
Doniapark,6,,,8525GS,Langweer,De Fryske Marren,Friesland,VBO,5.717924,52.962040
Doniapark,8,,,8525GS,Langweer,De Fryske Marren,Friesland,VBO,5.717924,52.961968
Doniapark,10,,,8525GS,Langweer,De Fryske Marren,Friesland,VBO,5.718102,52.961887
Doniapark,12,,,8525GS,Langweer,De Fryske Marren,Friesland,VBO,5.718191,52.961824
Doniapark,14,,,8525GS,Langweer,De Fryske Marren,Friesland,VBO,5.718309,52.961733
Doniapark,16,,,8525GS,Langweer,De Fryske Marren,Friesland,VBO,5.718398,52.961679
Doniapark,18,,,8525GS,Langweer,De Fryske Marren,Friesland,VBO,5.718531,52.961589
Doniapark,20,,,8525GS,Langweer,De Fryske Marren,Friesland,VBO,5.718620,52.961526
Doniapark,22,,,8525GS,Langweer,De Fryske Marren,Friesland,VBO,5.718738,52.961436
Doniapark,24,,,8525GS,Langweer,De Fryske Marren,Friesland,VBO,5.718827,52.961382
Doniapark,26,,,8525GS,Langweer,De Fryske Marren,Friesland,VBO,5.718916,52.961264
Doniapark,28,,,8525GS,Langweer,De Fryske Marren,Friesland,VBO,5.719004,52.961210
Doniapark,30,,,8525GS,Langweer,De Fryske Marren,Friesland,VBO,5.719138,52.961120
Doniapark,32,,,8525GS,Langweer,De Fryske Marren,Friesland,VBO,5.719212,52.961057
Doniapark,34,,,8525GS,Langweer,De Fryske Marren,Friesland,VBO,5.719345,52.960967
Doniapark,36,,,8525GS,Langweer,De Fryske Marren,Friesland,VBO,5.719434,52.960913
Doniapark,38,,,8525GS,Langweer,De Fryske Marren,Friesland,VBO,5.719567,52.960822
Doniapark,40,,,8525GS,Langweer,De Fryske Marren,Friesland,VBO,5.719641,52.960759
Doniapark,42,,,8525GS,Langweer,De Fryske Marren,Friesland,VBO,5.719774,52.960669
Doniapark,44,,,8525GS,Langweer,De Fryske Marren,Friesland,VBO,5.719863,52.960615
Doniapark,46,,,8525GS,Langweer,De Fryske Marren,Friesland,VBO,5.720130,52.960524
Doniapark,48,,,8525GS,Langweer,De Fryske Marren,Friesland,VBO,5.720354,52.960569
Doniapark,50,,,8525GS,Langweer,De Fryske Marren,Friesland,VBO,5.720577,52.960586
Doniapark,52,,,8525GS,Langweer,De Fryske Marren,Friesland,VBO,5.720801,52.960639
Doniapark,54,,,8525GS,Langweer,De Fryske Marren,Friesland,VBO,5.721009,52.960666
Doniapark,56,,,8525GT,Langweer,De Fryske Marren,Friesland,VBO,5.718506,52.962164
Doniapark,58,,,8525GT,Langweer,De Fryske Marren,Friesland,VBO,5.718580,52.962110
Doniapark,60,,,8525GT,Langweer,De Fryske Marren,Friesland,VBO,5.718713,52.962020
Doniapark,62,,,8525GT,Langweer,De Fryske Marren,Friesland,VBO,5.718802,52.961957
Doniapark,64,,,8525GT,Langweer,De Fryske Marren,Friesland,VBO,5.718935,52.961867
Doniapark,66,,,8525GT,Langweer,De Fryske Marren,Friesland,VBO,5.719009,52.961812
Doniapark,68,,,8525GT,Langweer,De Fryske Marren,Friesland,VBO,5.719142,52.961722
Doniapark,70,,,8525GT,Langweer,De Fryske Marren,Friesland,VBO,5.719231,52.961659
Doniapark,72,,,8525GT,Langweer,De Fryske Marren,Friesland,VBO,5.719364,52.961569
Doniapark,74,,,8525GT,Langweer,De Fryske Marren,Friesland,VBO,5.719438,52.961515
Doniapark,76,,,8525GT,Langweer,De Fryske Marren,Friesland,VBO,5.719512,52.961380
Doniapark,78,,,8525GT,Langweer,De Fryske Marren,Friesland,VBO,5.719823,52.961208
Doniapark,80,,,8525GT,Langweer,De Fryske Marren,Friesland,VBO,5.719839,52.961397
Doniapark,82,,,8525GT,Langweer,De Fryske Marren,Friesland,VBO,5.719796,52.961568
Doniapark,84,,,8525GT,Langweer,De Fryske Marren,Friesland,VBO,5.719752,52.961711
Doniapark,86,,,8525GT,Langweer,De Fryske Marren,Friesland,VBO,5.719664,52.961775
Doniapark,88,,,8525GT,Langweer,De Fryske Marren,Friesland,VBO,5.719530,52.961865
Doniapark,90,,,8525GT,Langweer,De Fryske Marren,Friesland,VBO,5.719456,52.961919
Doniapark,92,,,8525GT,Langweer,De Fryske Marren,Friesland,VBO,5.719323,52.962009
Doniapark,94,,,8525GT,Langweer,De Fryske Marren,Friesland,VBO,5.719234,52.962072
Doniapark,96,,,8525GT,Langweer,De Fryske Marren,Friesland,VBO,5.719056,52.962163
Doniapark,98,,,8525GT,Langweer,De Fryske Marren,Friesland,VBO,5.719072,52.962226
Doniapark,100,,,8525GT,Langweer,De Fryske Marren,Friesland,VBO,5.719310,52.962306
Doniapark,102,,,8525GT,Langweer,De Fryske Marren,Friesland,VBO,5.719370,52.962342
Doniapark,104,,,8525GT,Langweer,De Fryske Marren,Friesland,VBO,5.719550,52.962431
Doniapark,106,,,8525GT,Langweer,De Fryske Marren,Friesland,VBO,5.719609,52.962476
Doniapark,108,,,8525GT,Langweer,De Fryske Marren,Friesland,VBO,5.719774,52.962610
Doniapark,110,,,8525GT,Langweer,De Fryske Marren,Friesland,VBO,5.719878,52.962601
Doniapark,112,,,8525GV,Langweer,De Fryske Marren,Friesland,VBO,5.720026,52.962457
Doniapark,114,,,8525GV,Langweer,De Fryske Marren,Friesland,VBO,5.720070,52.962417
Doniapark,116,,,8525GV,Langweer,De Fryske Marren,Friesland,VBO,5.720174,52.962303
Doniapark,118,,,8525GV,Langweer,De Fryske Marren,Friesland,VBO,5.720203,52.962231
Doniapark,120,,,8525GV,Langweer,De Fryske Marren,Friesland,VBO,5.720232,52.962106
Doniapark,122,,,8525GV,Langweer,De Fryske Marren,Friesland,VBO,5.720246,52.962034
Doniapark,124,,,8525GV,Langweer,De Fryske Marren,Friesland,VBO,5.720275,52.961917
Doniapark,126,,,8525GV,Langweer,De Fryske Marren,Friesland,VBO,5.720304,52.961845
Doniapark,128,,,8525GV,Langweer,De Fryske Marren,Friesland,VBO,5.720333,52.961728
Doniapark,130,,,8525GV,Langweer,De Fryske Marren,Friesland,VBO,5.720347,52.961638
Doniapark,132,,,8525GV,Langweer,De Fryske Marren,Friesland,VBO,5.720376,52.961530
Doniapark,134,,,8525GV,Langweer,De Fryske Marren,Friesland,VBO,5.720405,52.961449
Doniapark,136,,,8525GV,Langweer,De Fryske Marren,Friesland,VBO,5.720434,52.961332
Doniapark,138,,,8525GV,Langweer,De Fryske Marren,Friesland,VBO,5.720448,52.961260
Doniapark,140,,,8525GV,Langweer,De Fryske Marren,Friesland,VBO,5.720477,52.961125
Doniapark,142,,,8525GV,Langweer,De Fryske Marren,Friesland,VBO,5.720634,52.960972
Doniapark,144,,,8525GV,Langweer,De Fryske Marren,Friesland,VBO,5.720990,52.960992
Doniapark,146,,,8525GV,Langweer,De Fryske Marren,Friesland,VBO,5.720850,52.961232
Doniapark,148,,,8525GV,Langweer,De Fryske Marren,Friesland,VBO,5.720807,52.961376
Doniapark,150,,,8525GV,Langweer,De Fryske Marren,Friesland,VBO,5.720763,52.961520
Doniapark,152,,,8525GV,Langweer,De Fryske Marren,Friesland,VBO,5.720734,52.961664
Doniapark,154,,,8525GV,Langweer,De Fryske Marren,Friesland,VBO,5.720691,52.961817
Doniapark,156,,,8525GV,Langweer,De Fryske Marren,Friesland,VBO,5.720647,52.961961
Doniapark,158,,,8525GV,Langweer,De Fryske Marren,Friesland,VBO,5.720619,52.962104
Doniapark,160,,,8525GV,Langweer,De Fryske Marren,Friesland,VBO,5.720575,52.962248
Doniapark,162,,,8525GV,Langweer,De Fryske Marren,Friesland,VBO,5.720532,52.962401
Doniapark,164,,,8525GV,Langweer,De Fryske Marren,Friesland,VBO,5.720414,52.962536
Doniapark,166,,,8525GV,Langweer,De Fryske Marren,Friesland,VBO,5.720251,52.962645
Doniapark,168,,,8525GV,Langweer,De Fryske Marren,Friesland,VBO,5.720088,52.962762
Doniapark,170,,,8525GV,Langweer,De Fryske Marren,Friesland,VBO,5.720359,52.962924
Doniapark,172,,,8525GV,Langweer,De Fryske Marren,Friesland,VBO,5.720417,52.962959
Wieling,1,,,8525GW,Langweer,De Fryske Marren,Friesland,VBO,5.725955,52.957413
Wieling,2,,,8525GW,Langweer,De Fryske Marren,Friesland,VBO,5.725743,52.957004
Wieling,3,,,8525GW,Langweer,De Fryske Marren,Friesland,VBO,5.726029,52.957443
Wieling,4,,,8525GW,Langweer,De Fryske Marren,Friesland,VBO,5.725923,52.957102
Wieling,5,,,8525GW,Langweer,De Fryske Marren,Friesland,VBO,5.726149,52.957515
Wieling,6,,,8525GW,Langweer,De Fryske Marren,Friesland,VBO,5.726176,52.957227
Wieling,7,,,8525GW,Langweer,De Fryske Marren,Friesland,VBO,5.726253,52.957559
Wieling,8,,,8525GW,Langweer,De Fryske Marren,Friesland,VBO,5.726341,52.957317
Wieling,10,,,8525GW,Langweer,De Fryske Marren,Friesland,VBO,5.726505,52.957397
Wieling,12,,,8525GW,Langweer,De Fryske Marren,Friesland,VBO,5.726819,52.957567
Legebuorren,1,,,8525GX,Langweer,De Fryske Marren,Friesland,VBO,5.729991,52.955940
Legebuorren,3,,,8525GX,Langweer,De Fryske Marren,Friesland,VBO,5.729932,52.955994
Legebuorren,5,,,8525GX,Langweer,De Fryske Marren,Friesland,VBO,5.729858,52.956031
Legebuorren,7,,,8525GX,Langweer,De Fryske Marren,Friesland,VBO,5.729843,52.956084
Legebuorren,9,,,8525GX,Langweer,De Fryske Marren,Friesland,VBO,5.729687,52.956165
Legebuorren,11,,,8525GX,Langweer,De Fryske Marren,Friesland,VBO,5.729594,52.956210
Legebuorren,13,,,8525GX,Langweer,De Fryske Marren,Friesland,VBO,5.729505,52.956322
Legebuorren,15,,,8525GX,Langweer,De Fryske Marren,Friesland,VBO,5.729445,52.956369
Legebuorren,17,,,8525GX,Langweer,De Fryske Marren,Friesland,VBO,5.729313,52.956462
Legebuorren,19,,,8525GX,Langweer,De Fryske Marren,Friesland,VBO,5.729119,52.956549
Legebuorren,21,,,8525GX,Langweer,De Fryske Marren,Friesland,VBO,5.729106,52.956641
Legebuorren,23,,,8525GX,Langweer,De Fryske Marren,Friesland,VBO,5.728933,52.956714
Legebuorren,25,,,8525GX,Langweer,De Fryske Marren,Friesland,VBO,5.728868,52.956756
Legebuorren,27,,,8525GX,Langweer,De Fryske Marren,Friesland,VBO,5.728789,52.956864
Legebuorren,29,,,8525GX,Langweer,De Fryske Marren,Friesland,VBO,5.728713,52.956915
Legebuorren,31,,,8525GX,Langweer,De Fryske Marren,Friesland,VBO,5.728592,52.956983
Legebuorren,33,,,8525GX,Langweer,De Fryske Marren,Friesland,VBO,5.728533,52.957033
Legebuorren,35,,,8525GX,Langweer,De Fryske Marren,Friesland,VBO,5.728422,52.957202
Legebuorren,37,,,8525GX,Langweer,De Fryske Marren,Friesland,VBO,5.728195,52.957271
Legebuorren,39,,,8525GX,Langweer,De Fryske Marren,Friesland,VBO,5.728085,52.957379
Legebuorren,41,,,8525GX,Langweer,De Fryske Marren,Friesland,VBO,5.727930,52.957483
Legebuorren,43,,,8525GX,Langweer,De Fryske Marren,Friesland,VBO,5.727800,52.957586
Legebuorren,45,,,8525GX,Langweer,De Fryske Marren,Friesland,VBO,5.727613,52.957707
Legebuorren,47,,,8525GX,Langweer,De Fryske Marren,Friesland,VBO,5.727493,52.957834
Legebuorren,49,,,8525GX,Langweer,De Fryske Marren,Friesland,VBO,5.726895,52.957960
Legebuorren,51,,,8525GX,Langweer,De Fryske Marren,Friesland,VBO,5.727285,52.958132
Legebuorren,53,,,8525GX,Langweer,De Fryske Marren,Friesland,VBO,5.727598,52.958284
Legebuorren,55,,,8525GX,Langweer,De Fryske Marren,Friesland,VBO,5.727910,52.958202
Legebuorren,57,,,8525GX,Langweer,De Fryske Marren,Friesland,VBO,5.728088,52.958066
Legebuorren,59,,,8525GX,Langweer,De Fryske Marren,Friesland,VBO,5.728221,52.957958
Legebuorren,61,,,8525GX,Langweer,De Fryske Marren,Friesland,VBO,5.728324,52.957841
Legebuorren,63,,,8525GX,Langweer,De Fryske Marren,Friesland,VBO,5.728494,52.957752
Legebuorren,65,,,8525GX,Langweer,De Fryske Marren,Friesland,VBO,5.728605,52.957643
Legebuorren,67,,,8525GX,Langweer,De Fryske Marren,Friesland,VBO,5.728813,52.957561
Legebuorren,69,,,8525GX,Langweer,De Fryske Marren,Friesland,VBO,5.728945,52.957439
Legebuorren,71,,,8525GX,Langweer,De Fryske Marren,Friesland,VBO,5.729170,52.957401
Legebuorren,73,,,8525GX,Langweer,De Fryske Marren,Friesland,VBO,5.729271,52.957318
Legebuorren,75,,,8525GX,Langweer,De Fryske Marren,Friesland,VBO,5.729346,52.957254
Legebuorren,77,,,8525GX,Langweer,De Fryske Marren,Friesland,VBO,5.729420,52.957209
Legebuorren,79,,,8525GX,Langweer,De Fryske Marren,Friesland,VBO,5.729569,52.957137
Legebuorren,81,,,8525GX,Langweer,De Fryske Marren,Friesland,VBO,5.729643,52.957083
Legebuorren,83,,,8525GX,Langweer,De Fryske Marren,Friesland,VBO,5.729746,52.956992
Legebuorren,85,,,8525GX,Langweer,De Fryske Marren,Friesland,VBO,5.729820,52.956947
Legebuorren,87,,,8525GX,Langweer,De Fryske Marren,Friesland,VBO,5.729946,52.956812
Legebuorren,89,,,8525GX,Langweer,De Fryske Marren,Friesland,VBO,5.730131,52.956722
Legebuorren,91,,,8525GX,Langweer,De Fryske Marren,Friesland,VBO,5.730205,52.956677
Legebuorren,93,,,8525GX,Langweer,De Fryske Marren,Friesland,VBO,5.730323,52.956577
Legebuorren,95,,,8525GX,Langweer,De Fryske Marren,Friesland,VBO,5.730397,52.956541
Legebuorren,97,,,8525GX,Langweer,De Fryske Marren,Friesland,VBO,5.730516,52.956442
Legebuorren,99,,,8525GX,Langweer,De Fryske Marren,Friesland,VBO,5.730589,52.956388
Legebuorren,101,,,8525GX,Langweer,De Fryske Marren,Friesland,VBO,5.730649,52.956343
Legebuorren,103,,,8525GX,Langweer,De Fryske Marren,Friesland,VBO,5.730738,52.956307
Legebuorren,105,,,8525GX,Langweer,De Fryske Marren,Friesland,VBO,5.730350,52.956096
Doumastate,1,a,,8525HA,Langweer,De Fryske Marren,Friesland,VBO,5.715314,52.957285
Doumastate,1,b,,8525HA,Langweer,De Fryske Marren,Friesland,VBO,5.715733,52.957506
Doumastate,1,c,,8525HA,Langweer,De Fryske Marren,Friesland,VBO,5.715740,52.957570
Doumastate,1,,,8525HA,Langweer,De Fryske Marren,Friesland,VBO,5.715732,52.957436
Doumastate,2,,,8525HA,Langweer,De Fryske Marren,Friesland,VBO,5.716310,52.957219
Doumastate,3,,,8525HA,Langweer,De Fryske Marren,Friesland,VBO,5.715779,52.957849
Doumastate,4,,,8525HA,Langweer,De Fryske Marren,Friesland,VBO,5.716209,52.957633
Doumastate,5,,,8525HA,Langweer,De Fryske Marren,Friesland,VBO,5.715810,52.958011
Doumastate,6,,,8525HA,Langweer,De Fryske Marren,Friesland,VBO,5.716241,52.957821
Doumastate,7,,,8525HA,Langweer,De Fryske Marren,Friesland,VBO,5.715827,52.958200
Doumastate,9,,,8525HA,Langweer,De Fryske Marren,Friesland,VBO,5.715905,52.958685
Doumastate,10,a,,8525HA,Langweer,De Fryske Marren,Friesland,VBO,5.716853,52.958170
Doumastate,10,,,8525HA,Langweer,De Fryske Marren,Friesland,VBO,5.716340,52.958147
Doumastate,11,,,8525HA,Langweer,De Fryske Marren,Friesland,VBO,5.716217,52.958630
Doumastate,12,,,8525HA,Langweer,De Fryske Marren,Friesland,VBO,5.717002,52.958143
Doumastate,13,,,8525HA,Langweer,De Fryske Marren,Friesland,VBO,5.716632,52.958449
Doumastate,14,,,8525HA,Langweer,De Fryske Marren,Friesland,VBO,5.717493,52.958114
Doumastate,15,,,8525HA,Langweer,De Fryske Marren,Friesland,VBO,5.717361,52.958411
Doumastate,16,,,8525HA,Langweer,De Fryske Marren,Friesland,VBO,5.717444,52.957548
Doumastate,17,,,8525HA,Langweer,De Fryske Marren,Friesland,VBO,5.718155,52.957969
