openbareruimtenaam,huisnummer,huisletter,huisnummertoevoeging,postcode,woonplaatsnaam,gemeentenaam,provincienaam,typeadresseerbaarobject,longitude,latitude
Wilhelminastraat,1,A,,8561AA,Balk,De Fryske Marren,Friesland,VBO,5.578042,52.897040
Wilhelminastraat,5,,,8561AA,Balk,De Fryske Marren,Friesland,VBO,5.577877,52.897108
Wilhelminastraat,9,,,8561AA,Balk,De Fryske Marren,Friesland,VBO,5.577695,52.897125
Wilhelminastraat,11,A,,8561AA,Balk,De Fryske Marren,Friesland,VBO,5.577280,52.897087
Wilhelminastraat,11,,,8561AA,Balk,De Fryske Marren,Friesland,VBO,5.577617,52.897177
Wilhelminastraat,13,T,,8561AA,Balk,De Fryske Marren,Friesland,VBO,5.577387,52.897120
Wilhelminastraat,15,,,8561AA,Balk,De Fryske Marren,Friesland,VBO,5.577492,52.897280
Wilhelminastraat,17,,,8561AA,Balk,De Fryske Marren,Friesland,VBO,5.577371,52.897360
Wilhelminastraat,23,,,8561AA,Balk,De Fryske Marren,Friesland,VBO,5.577206,52.897468
Wilhelminastraat,25,,,8561AA,Balk,De Fryske Marren,Friesland,VBO,5.577133,52.897517
Wilhelminastraat,27,,,8561AA,Balk,De Fryske Marren,Friesland,VBO,5.577035,52.897584
Wilhelminastraat,31,,,8561AB,Balk,De Fryske Marren,Friesland,VBO,5.576839,52.897744
Wilhelminastraat,33,,,8561AB,Balk,De Fryske Marren,Friesland,VBO,5.576699,52.897812
Wilhelminastraat,35,,,8561AB,Balk,De Fryske Marren,Friesland,VBO,5.576704,52.897861
Wilhelminastraat,37,,,8561AB,Balk,De Fryske Marren,Friesland,VBO,5.576617,52.897919
Wilhelminastraat,39,,,8561AB,Balk,De Fryske Marren,Friesland,VBO,5.576516,52.897958
Wilhelminastraat,41,,,8561AB,Balk,De Fryske Marren,Friesland,VBO,5.576450,52.898006
Wilhelminastraat,43,,,8561AB,Balk,De Fryske Marren,Friesland,VBO,5.576315,52.898061
Wilhelminastraat,45,,,8561AB,Balk,De Fryske Marren,Friesland,VBO,5.576250,52.898107
Wilhelminastraat,47,A,,8561AB,Balk,De Fryske Marren,Friesland,VBO,5.575339,52.898468
Wilhelminastraat,47,,,8561AB,Balk,De Fryske Marren,Friesland,VBO,5.575617,52.898514
Wilhelminastraat,49,,,8561AB,Balk,De Fryske Marren,Friesland,VBO,5.574491,52.899292
Wilhelminastraat,51,,,8561AB,Balk,De Fryske Marren,Friesland,VBO,5.574305,52.899427
Wilhelminastraat,53,,,8561AB,Balk,De Fryske Marren,Friesland,VBO,5.574111,52.899565
Wilhelminastraat,55,,,8561AB,Balk,De Fryske Marren,Friesland,VBO,5.573914,52.899706
Wilhelminastraat,57,,,8561AB,Balk,De Fryske Marren,Friesland,VBO,5.573718,52.899846
Wilhelminastraat,59,A,,8561AB,Balk,De Fryske Marren,Friesland,VBO,5.572853,52.900510
Wilhelminastraat,59,,,8561AB,Balk,De Fryske Marren,Friesland,VBO,5.573120,52.900221
Wilhelminastraat,61,,,8561AB,Balk,De Fryske Marren,Friesland,VBO,5.572609,52.900651
Wilhelminastraat,63,A,,8561AB,Balk,De Fryske Marren,Friesland,VBO,5.572178,52.900999
Wilhelminastraat,63,B,,8561AB,Balk,De Fryske Marren,Friesland,VBO,5.571931,52.901149
Wilhelminastraat,63,,,8561AB,Balk,De Fryske Marren,Friesland,VBO,5.572406,52.900832
Wilhelminastraat,65,,,8561AB,Balk,De Fryske Marren,Friesland,VBO,5.571585,52.901380
Wilhelminastraat,2,,,8561AC,Balk,De Fryske Marren,Friesland,VBO,5.577907,52.897535
Wilhelminastraat,4,,,8561AC,Balk,De Fryske Marren,Friesland,VBO,5.577840,52.897583
Wilhelminastraat,6,,,8561AC,Balk,De Fryske Marren,Friesland,VBO,5.577670,52.897705
Wilhelminastraat,8,,,8561AC,Balk,De Fryske Marren,Friesland,VBO,5.577605,52.897752
Wilhelminastraat,10,,,8561AC,Balk,De Fryske Marren,Friesland,VBO,5.577203,52.897967
Wilhelminastraat,12,,,8561AC,Balk,De Fryske Marren,Friesland,VBO,5.577158,52.898024
Wilhelminastraat,14,,,8561AC,Balk,De Fryske Marren,Friesland,VBO,5.577048,52.898129
Wilhelminastraat,16,,,8561AC,Balk,De Fryske Marren,Friesland,VBO,5.576995,52.898166
Wilhelminastraat,18,,,8561AC,Balk,De Fryske Marren,Friesland,VBO,5.576873,52.898252
Wilhelminastraat,20,,,8561AC,Balk,De Fryske Marren,Friesland,VBO,5.576823,52.898286
Wilhelminastraat,22,,,8561AC,Balk,De Fryske Marren,Friesland,VBO,5.576693,52.898378
Wilhelminastraat,24,,,8561AC,Balk,De Fryske Marren,Friesland,VBO,5.576642,52.898414
Wilhelminastraat,26,,,8561AC,Balk,De Fryske Marren,Friesland,VBO,5.576485,52.898496
Wilhelminastraat,28,,,8561AC,Balk,De Fryske Marren,Friesland,VBO,5.576435,52.898532
Wilhelminastraat,30,,,8561AC,Balk,De Fryske Marren,Friesland,VBO,5.576262,52.898621
Wilhelminastraat,32,,,8561AC,Balk,De Fryske Marren,Friesland,VBO,5.576196,52.898668
Wilhelminastraat,34,,,8561AC,Balk,De Fryske Marren,Friesland,VBO,5.576092,52.898742
Wilhelminastraat,36,,,8561AC,Balk,De Fryske Marren,Friesland,VBO,5.576028,52.898788
Minne Jeltesstrjitte,1,,,8561AD,Balk,De Fryske Marren,Friesland,VBO,5.584850,52.895050
Minne Jeltesstrjitte,3,,,8561AD,Balk,De Fryske Marren,Friesland,VBO,5.584888,52.894997
Minne Jeltesstrjitte,5,,,8561AD,Balk,De Fryske Marren,Friesland,VBO,5.584931,52.894956
Minne Jeltesstrjitte,7,,,8561AD,Balk,De Fryske Marren,Friesland,VBO,5.584960,52.894884
Minne Jeltesstrjitte,9,,,8561AD,Balk,De Fryske Marren,Friesland,VBO,5.585031,52.894847
Minne Jeltesstrjitte,11,,,8561AD,Balk,De Fryske Marren,Friesland,VBO,5.585073,52.894804
Minne Jeltesstrjitte,13,,,8561AD,Balk,De Fryske Marren,Friesland,VBO,5.585118,52.894753
Minne Jeltesstrjitte,15,,,8561AD,Balk,De Fryske Marren,Friesland,VBO,5.585654,52.894282
Minne Jeltesstrjitte,17,,,8561AD,Balk,De Fryske Marren,Friesland,VBO,5.585481,52.894225
Minne Jeltesstrjitte,19,,,8561AD,Balk,De Fryske Marren,Friesland,VBO,5.585393,52.894189
Minne Jeltesstrjitte,21,,,8561AD,Balk,De Fryske Marren,Friesland,VBO,5.585153,52.894134
Minne Jeltesstrjitte,23,,,8561AD,Balk,De Fryske Marren,Friesland,VBO,5.584962,52.894029
Minne Jeltesstrjitte,25,,,8561AD,Balk,De Fryske Marren,Friesland,VBO,5.584879,52.893998
Wilhelminastraat,38,,,8561AD,Balk,De Fryske Marren,Friesland,VBO,5.575923,52.898861
Wilhelminastraat,40,,,8561AD,Balk,De Fryske Marren,Friesland,VBO,5.575858,52.898909
Wilhelminastraat,42,,,8561AD,Balk,De Fryske Marren,Friesland,VBO,5.575777,52.898997
Wilhelminastraat,44,,,8561AD,Balk,De Fryske Marren,Friesland,VBO,5.575709,52.899046
Wilhelminastraat,46,,,8561AD,Balk,De Fryske Marren,Friesland,VBO,5.575646,52.899090
Wilhelminastraat,48,,,8561AD,Balk,De Fryske Marren,Friesland,VBO,5.575532,52.899169
Wilhelminastraat,50,,,8561AD,Balk,De Fryske Marren,Friesland,VBO,5.575419,52.899251
Wilhelminastraat,52,,,8561AD,Balk,De Fryske Marren,Friesland,VBO,5.575245,52.899366
Wilhelminastraat,54,,,8561AD,Balk,De Fryske Marren,Friesland,VBO,5.575028,52.899524
Wilhelminastraat,56,,,8561AD,Balk,De Fryske Marren,Friesland,VBO,5.574872,52.899622
Wilhelminastraat,58,,,8561AD,Balk,De Fryske Marren,Friesland,VBO,5.574750,52.899729
Wilhelminastraat,60,,,8561AD,Balk,De Fryske Marren,Friesland,VBO,5.574912,52.900000
Wilhelminastraat,62,,,8561AD,Balk,De Fryske Marren,Friesland,VBO,5.574187,52.900385
Wilhelminastraat,64,,,8561AD,Balk,De Fryske Marren,Friesland,VBO,5.573665,52.900628
Wilhelminastraat,66,,,8561AD,Balk,De Fryske Marren,Friesland,VBO,5.573399,52.900750
Wilhelminastraat,68,,,8561AE,Balk,De Fryske Marren,Friesland,VBO,5.573285,52.900871
Wilhelminastraat,70,,,8561AE,Balk,De Fryske Marren,Friesland,VBO,5.572880,52.901156
Wilhelminastraat,72,,,8561AE,Balk,De Fryske Marren,Friesland,VBO,5.572821,52.901199
Wilhelminastraat,74,,,8561AE,Balk,De Fryske Marren,Friesland,VBO,5.572360,52.901549
Wilhelminastraat,76,,,8561AE,Balk,De Fryske Marren,Friesland,VBO,5.573138,52.902192
Wilhelminastraat,78,,,8561AE,Balk,De Fryske Marren,Friesland,VBO,5.571990,52.901825
Wilhelminastraat,80,,,8561AE,Balk,De Fryske Marren,Friesland,VBO,5.571673,52.902099
Wilhelminastraat,82,,,8561AE,Balk,De Fryske Marren,Friesland,VBO,5.571293,52.902339
Zuidwesthoekstraat,1,,,8561AG,Balk,De Fryske Marren,Friesland,VBO,5.576090,52.897970
Zuidwesthoekstraat,2,,,8561AG,Balk,De Fryske Marren,Friesland,VBO,5.575893,52.898271
Zuidwesthoekstraat,3,,,8561AG,Balk,De Fryske Marren,Friesland,VBO,5.575996,52.897922
Zuidwesthoekstraat,4,,,8561AG,Balk,De Fryske Marren,Friesland,VBO,5.575830,52.898239
Zuidwesthoekstraat,5,,,8561AG,Balk,De Fryske Marren,Friesland,VBO,5.575898,52.897854
Zuidwesthoekstraat,6,,,8561AG,Balk,De Fryske Marren,Friesland,VBO,5.575653,52.898195
Zuidwesthoekstraat,7,,,8561AG,Balk,De Fryske Marren,Friesland,VBO,5.575816,52.897812
Zuidwesthoekstraat,8,,,8561AG,Balk,De Fryske Marren,Friesland,VBO,5.575592,52.898164
Zuidwesthoekstraat,9,,,8561AG,Balk,De Fryske Marren,Friesland,VBO,5.575627,52.897776
Zuidwesthoekstraat,10,,,8561AG,Balk,De Fryske Marren,Friesland,VBO,5.575388,52.898009
Zuidwesthoekstraat,11,,,8561AG,Balk,De Fryske Marren,Friesland,VBO,5.575532,52.897728
Zuidwesthoekstraat,12,,,8561AG,Balk,De Fryske Marren,Friesland,VBO,5.575316,52.897972
Zuidwesthoekstraat,13,,,8561AG,Balk,De Fryske Marren,Friesland,VBO,5.575401,52.897660
Zuidwesthoekstraat,14,,,8561AG,Balk,De Fryske Marren,Friesland,VBO,5.575242,52.897935
Zuidwesthoekstraat,15,,,8561AG,Balk,De Fryske Marren,Friesland,VBO,5.575323,52.897622
Zuidwesthoekstraat,16,A,,8561AG,Balk,De Fryske Marren,Friesland,VBO,5.575088,52.897856
Zuidwesthoekstraat,16,,,8561AG,Balk,De Fryske Marren,Friesland,VBO,5.575170,52.897898
Zuidwesthoekstraat,18,,,8561AG,Balk,De Fryske Marren,Friesland,VBO,5.574976,52.897791
Zuidwesthoekstraat,20,,,8561AG,Balk,De Fryske Marren,Friesland,VBO,5.574906,52.897756
Zuidwesthoekstraat,22,,,8561AG,Balk,De Fryske Marren,Friesland,VBO,5.574737,52.897695
Zuidwesthoekstraat,24,,,8561AG,Balk,De Fryske Marren,Friesland,VBO,5.574668,52.897659
Julianastraat,1,,,8561AH,Balk,De Fryske Marren,Friesland,VBO,5.576170,52.896215
Julianastraat,3,,,8561AH,Balk,De Fryske Marren,Friesland,VBO,5.576051,52.896254
Julianastraat,5,,,8561AH,Balk,De Fryske Marren,Friesland,VBO,5.575932,52.896392
Julianastraat,7,,,8561AH,Balk,De Fryske Marren,Friesland,VBO,5.575869,52.896439
Julianastraat,9,,,8561AH,Balk,De Fryske Marren,Friesland,VBO,5.575742,52.896536
Julianastraat,11,,,8561AH,Balk,De Fryske Marren,Friesland,VBO,5.575677,52.896584
Julianastraat,13,,,8561AH,Balk,De Fryske Marren,Friesland,VBO,5.575548,52.896684
Julianastraat,15,,,8561AH,Balk,De Fryske Marren,Friesland,VBO,5.575485,52.896731
Julianastraat,17,,,8561AH,Balk,De Fryske Marren,Friesland,VBO,5.575360,52.896828
Julianastraat,19,,,8561AH,Balk,De Fryske Marren,Friesland,VBO,5.575298,52.896875
Julianastraat,21,,,8561AH,Balk,De Fryske Marren,Friesland,VBO,5.575169,52.896971
Julianastraat,23,,,8561AH,Balk,De Fryske Marren,Friesland,VBO,5.575105,52.897019
Julianastraat,25,,,8561AH,Balk,De Fryske Marren,Friesland,VBO,5.574975,52.897115
Julianastraat,27,,,8561AH,Balk,De Fryske Marren,Friesland,VBO,5.574911,52.897162
Julianastraat,29,,,8561AH,Balk,De Fryske Marren,Friesland,VBO,5.574757,52.897241
Julianastraat,31,,,8561AH,Balk,De Fryske Marren,Friesland,VBO,5.574704,52.897281
Julianastraat,33,,,8561AH,Balk,De Fryske Marren,Friesland,VBO,5.574549,52.897367
Julianastraat,35,,,8561AH,Balk,De Fryske Marren,Friesland,VBO,5.574552,52.897517
Julianastraat,2,,,8561AJ,Balk,De Fryske Marren,Friesland,VBO,5.576439,52.896426
Julianastraat,4,,,8561AJ,Balk,De Fryske Marren,Friesland,VBO,5.576338,52.896504
Julianastraat,6,,,8561AJ,Balk,De Fryske Marren,Friesland,VBO,5.576316,52.896626
Julianastraat,8,,,8561AJ,Balk,De Fryske Marren,Friesland,VBO,5.576085,52.896715
Julianastraat,10,,,8561AJ,Balk,De Fryske Marren,Friesland,VBO,5.576019,52.896766
Julianastraat,12,,,8561AJ,Balk,De Fryske Marren,Friesland,VBO,5.575873,52.896876
Julianastraat,14,,,8561AJ,Balk,De Fryske Marren,Friesland,VBO,5.575810,52.896924
Julianastraat,16,,,8561AJ,Balk,De Fryske Marren,Friesland,VBO,5.575552,52.897117
Julianastraat,18,,,8561AJ,Balk,De Fryske Marren,Friesland,VBO,5.575490,52.897164
Julianastraat,20,,,8561AJ,Balk,De Fryske Marren,Friesland,VBO,5.575356,52.897262
Julianastraat,22,,,8561AJ,Balk,De Fryske Marren,Friesland,VBO,5.575294,52.897310
Julianastraat,24,,,8561AJ,Balk,De Fryske Marren,Friesland,VBO,5.575194,52.897406
Julianastraat,26,,,8561AJ,Balk,De Fryske Marren,Friesland,VBO,5.575054,52.897514
Bloemstraat,1,,,8561AK,Balk,De Fryske Marren,Friesland,VBO,5.576906,52.897391
Bloemstraat,2,,,8561AK,Balk,De Fryske Marren,Friesland,VBO,5.576676,52.897590
Bloemstraat,3,,,8561AK,Balk,De Fryske Marren,Friesland,VBO,5.576731,52.897328
Bloemstraat,4,,,8561AK,Balk,De Fryske Marren,Friesland,VBO,5.575867,52.897519
Bloemstraat,5,,,8561AK,Balk,De Fryske Marren,Friesland,VBO,5.576620,52.897239
Bloemstraat,6,,,8561AK,Balk,De Fryske Marren,Friesland,VBO,5.576308,52.897493
Bloemstraat,7,,,8561AK,Balk,De Fryske Marren,Friesland,VBO,5.576422,52.897160
Bloemstraat,8,,,8561AK,Balk,De Fryske Marren,Friesland,VBO,5.576206,52.897444
Bloemstraat,9,,,8561AK,Balk,De Fryske Marren,Friesland,VBO,5.576216,52.897079
Bloemstraat,10,,,8561AK,Balk,De Fryske Marren,Friesland,VBO,5.576085,52.897386
Bloemstraat,12,,,8561AK,Balk,De Fryske Marren,Friesland,VBO,5.575887,52.897294
Gaaikemastraat,1,,,8561AL,Balk,De Fryske Marren,Friesland,VBO,5.578175,52.896928
Gaaikemastraat,3,,,8561AL,Balk,De Fryske Marren,Friesland,VBO,5.578023,52.896886
Gaaikemastraat,5,,,8561AL,Balk,De Fryske Marren,Friesland,VBO,5.577908,52.896827
Gaaikemastraat,8,,,8561AL,Balk,De Fryske Marren,Friesland,VBO,5.577337,52.896570
Gaaikemastraat,9,,,8561AL,Balk,De Fryske Marren,Friesland,VBO,5.577450,52.896626
Gaaikemastraat,10,,,8561AL,Balk,De Fryske Marren,Friesland,VBO,5.577492,52.896592
Gaaikemastraat,11,,,8561AL,Balk,De Fryske Marren,Friesland,VBO,5.577512,52.896662
Gaaikemastraat,12,,,8561AL,Balk,De Fryske Marren,Friesland,VBO,5.577564,52.896617
Gaaikemastraat,13,,,8561AL,Balk,De Fryske Marren,Friesland,VBO,5.577566,52.896673
Gaaikemastraat,14,,,8561AL,Balk,De Fryske Marren,Friesland,VBO,5.577619,52.896702
Gaaikemastraat,15,,,8561AL,Balk,De Fryske Marren,Friesland,VBO,5.577688,52.896732
Gaaikemastraat,30,,,8561AL,Balk,De Fryske Marren,Friesland,VBO,5.577195,52.896475
Gaaikemastraat,31,,,8561AL,Balk,De Fryske Marren,Friesland,VBO,5.577099,52.896438
Gaaikemastraat,34,,,8561AL,Balk,De Fryske Marren,Friesland,VBO,5.576903,52.896646
Gaaikemastraat,36,,,8561AL,Balk,De Fryske Marren,Friesland,VBO,5.576840,52.896761
Gaaikemastraat,37,,,8561AL,Balk,De Fryske Marren,Friesland,VBO,5.576771,52.896728
Gaaikemastraat,40,,,8561AL,Balk,De Fryske Marren,Friesland,VBO,5.576769,52.896317
Gaaikemastraat,42,,,8561AL,Balk,De Fryske Marren,Friesland,VBO,5.576606,52.896255
Gaaikemastraat,43,,,8561AM,Balk,De Fryske Marren,Friesland,VBO,5.576335,52.896109
Gaaikemastraat,44,,,8561AM,Balk,De Fryske Marren,Friesland,VBO,5.576152,52.896074
Gaaikemastraat,45,,,8561AM,Balk,De Fryske Marren,Friesland,VBO,5.576089,52.896004
Gaaikemastraat,46,A,,8561AM,Balk,De Fryske Marren,Friesland,VBO,5.575846,52.895875
Gaaikemastraat,46,,,8561AM,Balk,De Fryske Marren,Friesland,VBO,5.575930,52.895915
Gaaikemastraat,47,,,8561AM,Balk,De Fryske Marren,Friesland,VBO,5.575650,52.895805
Gaaikemastraat,48,,,8561AM,Balk,De Fryske Marren,Friesland,VBO,5.575201,52.895737
Gaaikemastraat,49,A,,8561AM,Balk,De Fryske Marren,Friesland,VBO,5.574079,52.895151
Gaaikemastraat,50,,,8561AM,Balk,De Fryske Marren,Friesland,VBO,5.573897,52.895002
Gaaikemastraat,51,,,8561AM,Balk,De Fryske Marren,Friesland,VBO,5.573784,52.894945
Gaaikemastraat,52,,,8561AN,Balk,De Fryske Marren,Friesland,VBO,5.573017,52.894478
Gaaikemastraat,53,,,8561AN,Balk,De Fryske Marren,Friesland,VBO,5.572962,52.894443
Gaaikemastraat,54,,,8561AN,Balk,De Fryske Marren,Friesland,VBO,5.572905,52.894408
Gaaikemastraat,55,,,8561AN,Balk,De Fryske Marren,Friesland,VBO,5.572851,52.894374
Gaaikemastraat,56,,,8561AN,Balk,De Fryske Marren,Friesland,VBO,5.572795,52.894338
Gaaikemastraat,57,,,8561AN,Balk,De Fryske Marren,Friesland,VBO,5.572739,52.894303
Gaaikemastraat,58,,,8561AN,Balk,De Fryske Marren,Friesland,VBO,5.572683,52.894268
Gaaikemastraat,59,,,8561AN,Balk,De Fryske Marren,Friesland,VBO,5.572628,52.894233
Gaaikemastraat,60,,,8561AN,Balk,De Fryske Marren,Friesland,VBO,5.572572,52.894198
Gaaikemastraat,61,,,8561AN,Balk,De Fryske Marren,Friesland,VBO,5.572496,52.894176
Gaaikemastraat,62,,,8561AN,Balk,De Fryske Marren,Friesland,VBO,5.571319,52.893799
van Swinderenstraat,1,,,8561AP,Balk,De Fryske Marren,Friesland,VBO,5.582490,52.899292
van Swinderenstraat,2,,,8561AP,Balk,De Fryske Marren,Friesland,VBO,5.582451,52.899254
van Swinderenstraat,3,,,8561AP,Balk,De Fryske Marren,Friesland,VBO,5.582362,52.899245
van Swinderenstraat,4,,,8561AP,Balk,De Fryske Marren,Friesland,VBO,5.582248,52.899204
van Swinderenstraat,6,,,8561AP,Balk,De Fryske Marren,Friesland,VBO,5.582182,52.899091
van Swinderenstraat,7,,,8561AP,Balk,De Fryske Marren,Friesland,VBO,5.582146,52.898980
van Swinderenstraat,8,,,8561AP,Balk,De Fryske Marren,Friesland,VBO,5.582116,52.898901
van Swinderenstraat,9,,,8561AP,Balk,De Fryske Marren,Friesland,VBO,5.581992,52.898905
van Swinderenstraat,10,,,8561AP,Balk,De Fryske Marren,Friesland,VBO,5.581915,52.898868
van Swinderenstraat,11,,,8561AP,Balk,De Fryske Marren,Friesland,VBO,5.581660,52.898827
van Swinderenstraat,12,,,8561AP,Balk,De Fryske Marren,Friesland,VBO,5.581604,52.898762
van Swinderenstraat,13,,,8561AP,Balk,De Fryske Marren,Friesland,VBO,5.581508,52.898714
van Swinderenstraat,14,A,,8561AP,Balk,De Fryske Marren,Friesland,VBO,5.581480,52.898633
van Swinderenstraat,14,B,,8561AP,Balk,De Fryske Marren,Friesland,VBO,5.581381,52.898713
van Swinderenstraat,14,C,,8561AP,Balk,De Fryske Marren,Friesland,VBO,5.581426,52.898687
van Swinderenstraat,14,,,8561AP,Balk,De Fryske Marren,Friesland,VBO,5.581320,52.898738
van Swinderenstraat,16,,,8561AP,Balk,De Fryske Marren,Friesland,VBO,5.581198,52.898688
van Swinderenstraat,17,,,8561AP,Balk,De Fryske Marren,Friesland,VBO,5.581204,52.898586
van Swinderenstraat,19,,,8561AP,Balk,De Fryske Marren,Friesland,VBO,5.581091,52.898563
van Swinderenstraat,20,,,8561AP,Balk,De Fryske Marren,Friesland,VBO,5.581089,52.898433
van Swinderenstraat,22,A,,8561AR,Balk,De Fryske Marren,Friesland,VBO,5.580921,52.898386
van Swinderenstraat,22,,,8561AR,Balk,De Fryske Marren,Friesland,VBO,5.580954,52.898365
van Swinderenstraat,26,A,,8561AR,Balk,De Fryske Marren,Friesland,VBO,5.580699,52.898306
van Swinderenstraat,26,,,8561AR,Balk,De Fryske Marren,Friesland,VBO,5.580632,52.898345
van Swinderenstraat,27,,,8561AR,Balk,De Fryske Marren,Friesland,VBO,5.580574,52.898287
van Swinderenstraat,29,,,8561AR,Balk,De Fryske Marren,Friesland,VBO,5.580511,52.898218
van Swinderenstraat,30,,,8561AR,Balk,De Fryske Marren,Friesland,VBO,5.580434,52.898144
van Swinderenstraat,32,,,8561AR,Balk,De Fryske Marren,Friesland,VBO,5.580370,52.898025
van Swinderenstraat,38,,,8561AR,Balk,De Fryske Marren,Friesland,VBO,5.580102,52.898085
van Swinderenstraat,39,A,,8561AR,Balk,De Fryske Marren,Friesland,VBO,5.580015,52.898063
van Swinderenstraat,39,,,8561AR,Balk,De Fryske Marren,Friesland,VBO,5.579936,52.898125
van Swinderenstraat,40,,,8561AR,Balk,De Fryske Marren,Friesland,VBO,5.579928,52.897999
van Swinderenstraat,41,A,,8561AR,Balk,De Fryske Marren,Friesland,VBO,5.579978,52.897852
van Swinderenstraat,41,,,8561AR,Balk,De Fryske Marren,Friesland,VBO,5.579901,52.897902
van Swinderenstraat,42,,,8561AR,Balk,De Fryske Marren,Friesland,VBO,5.579805,52.897870
van Swinderenstraat,43,,,8561AR,Balk,De Fryske Marren,Friesland,VBO,5.579671,52.897877
van Swinderenstraat,44,,,8561AR,Balk,De Fryske Marren,Friesland,VBO,5.579523,52.897816
van Swinderenstraat,45,,,8561AR,Balk,De Fryske Marren,Friesland,VBO,5.579388,52.897816
van Swinderenstraat,50,A,,8561AS,Balk,De Fryske Marren,Friesland,VBO,5.579466,52.897652
van Swinderenstraat,50,,,8561AS,Balk,De Fryske Marren,Friesland,VBO,5.579373,52.897590
van Swinderenstraat,51,,,8561AS,Balk,De Fryske Marren,Friesland,VBO,5.579311,52.897634
van Swinderenstraat,52,,,8561AS,Balk,De Fryske Marren,Friesland,VBO,5.579441,52.897580
van Swinderenstraat,55,,,8561AS,Balk,De Fryske Marren,Friesland,VBO,5.579106,52.897487
van Swinderenstraat,58,,,8561AS,Balk,De Fryske Marren,Friesland,VBO,5.578812,52.897381
van Swinderenstraat,59,,,8561AS,Balk,De Fryske Marren,Friesland,VBO,5.578741,52.897340
van Swinderenstraat,61,,,8561AS,Balk,De Fryske Marren,Friesland,VBO,5.578752,52.897240
van Swinderenstraat,62,,,8561AS,Balk,De Fryske Marren,Friesland,VBO,5.578667,52.897202
van Swinderenstraat,63,,,8561AS,Balk,De Fryske Marren,Friesland,VBO,5.578556,52.897153
van Swinderenstraat,64,,,8561AS,Balk,De Fryske Marren,Friesland,VBO,5.578452,52.897105
van Swinderenstraat,69,,,8561AS,Balk,De Fryske Marren,Friesland,VBO,5.578363,52.897018
Meerweg,2,,,8561AT,Balk,De Fryske Marren,Friesland,VBO,5.582796,52.899235
Meerweg,3,,,8561AT,Balk,De Fryske Marren,Friesland,VBO,5.582777,52.899338
Meerweg,4,C,,8561AT,Balk,De Fryske Marren,Friesland,VBO,5.582932,52.899339
Meerweg,4,,,8561AT,Balk,De Fryske Marren,Friesland,VBO,5.582996,52.899298
Meerweg,5,,,8561AT,Balk,De Fryske Marren,Friesland,VBO,5.582994,52.899429
Meerweg,6,,,8561AT,Balk,De Fryske Marren,Friesland,VBO,5.583113,52.899460
Meerweg,7,,,8561AT,Balk,De Fryske Marren,Friesland,VBO,5.583270,52.899468
Meerweg,8,,,8561AT,Balk,De Fryske Marren,Friesland,VBO,5.583429,52.899533
Meerweg,9,,,8561AT,Balk,De Fryske Marren,Friesland,VBO,5.583554,52.899565
Meerweg,10,,,8561AT,Balk,De Fryske Marren,Friesland,VBO,5.583638,52.899604
Meerweg,12,,,8561AV,Balk,De Fryske Marren,Friesland,VBO,5.583904,52.899925
Meerweg,13,,,8561AV,Balk,De Fryske Marren,Friesland,VBO,5.584226,52.899857
Meerweg,14,,,8561AV,Balk,De Fryske Marren,Friesland,VBO,5.584301,52.899915
Meerweg,15,,,8561AV,Balk,De Fryske Marren,Friesland,VBO,5.584384,52.899922
Meerweg,16,,,8561AV,Balk,De Fryske Marren,Friesland,VBO,5.584463,52.899975
Meerweg,18,,,8561AV,Balk,De Fryske Marren,Friesland,VBO,5.584613,52.900084
Meerweg,21,,,8561AV,Balk,De Fryske Marren,Friesland,VBO,5.584875,52.900132
Meerweg,22,,,8561AV,Balk,De Fryske Marren,Friesland,VBO,5.584982,52.900151
Meerweg,23,,,8561AV,Balk,De Fryske Marren,Friesland,VBO,5.584994,52.900357
Meerweg,24,,,8561AV,Balk,De Fryske Marren,Friesland,VBO,5.585418,52.900637
Meerweg,25,A,,8561AV,Balk,De Fryske Marren,Friesland,VBO,5.585704,52.900744
Meerweg,25,,,8561AV,Balk,De Fryske Marren,Friesland,VBO,5.585871,52.900564
Meerweg,26,,,8561AV,Balk,De Fryske Marren,Friesland,VBO,5.586555,52.900902
Meerweg,28,,,8561AV,Balk,De Fryske Marren,Friesland,VBO,5.587672,52.901505
Meerweg,29,,,8561AV,Balk,De Fryske Marren,Friesland,VBO,5.587943,52.901273
Pypsterstikke,1,,,8561AW,Balk,De Fryske Marren,Friesland,VBO,5.583238,52.900113
Pypsterstikke,2,,,8561AW,Balk,De Fryske Marren,Friesland,VBO,5.584410,52.900286
Pypsterstikke,3,,,8561AW,Balk,De Fryske Marren,Friesland,VBO,5.583307,52.900278
Pypsterstikke,5,,,8561AW,Balk,De Fryske Marren,Friesland,VBO,5.583275,52.900440
Pypsterstikke,7,,,8561AW,Balk,De Fryske Marren,Friesland,VBO,5.583116,52.900692
Pypsterstikke,9,,,8561AW,Balk,De Fryske Marren,Friesland,VBO,5.582901,52.901013
Pypsterstikke,11,,,8561AW,Balk,De Fryske Marren,Friesland,VBO,5.582569,52.901288
Pypsterstikke,13,,,8561AW,Balk,De Fryske Marren,Friesland,VBO,5.582421,52.901490
Pypsterstikke,15,,,8561AW,Balk,De Fryske Marren,Friesland,VBO,5.582179,52.901650
Pypsterstikke,17,G,,8561AW,Balk,De Fryske Marren,Friesland,VBO,5.579440,52.903410
Pypsterstikke,17,,,8561AW,Balk,De Fryske Marren,Friesland,VBO,5.581892,52.901811
Pypsterstikke,19,,,8561AW,Balk,De Fryske Marren,Friesland,VBO,5.581651,52.901993
Pypsterstikke,21,,,8561AW,Balk,De Fryske Marren,Friesland,VBO,5.581421,52.902139
Pypsterstikke,23,,,8561AW,Balk,De Fryske Marren,Friesland,VBO,5.580902,52.902455
Pypsterstikke,25,,,8561AW,Balk,De Fryske Marren,Friesland,VBO,5.580722,52.902586
Pypsterstikke,27,,,8561AW,Balk,De Fryske Marren,Friesland,VBO,5.580478,52.902686
Pypsterstikke,29,,,8561AW,Balk,De Fryske Marren,Friesland,VBO,5.580226,52.902859
Lytse Side,2,,,8561AX,Balk,De Fryske Marren,Friesland,VBO,5.583589,52.899094
Lytse Side,3,A,,8561AX,Balk,De Fryske Marren,Friesland,VBO,5.584420,52.898936
Lytse Side,3,T,,8561AX,Balk,De Fryske Marren,Friesland,VBO,5.583651,52.899160
Lytse Side,3,,,8561AX,Balk,De Fryske Marren,Friesland,VBO,5.583725,52.899145
Lytse Side,5,,,8561AX,Balk,De Fryske Marren,Friesland,VBO,5.583971,52.899169
Lytse Side,6,,,8561AX,Balk,De Fryske Marren,Friesland,VBO,5.584069,52.899202
Lytse Side,7,,,8561AX,Balk,De Fryske Marren,Friesland,VBO,5.583959,52.899303
Lytse Side,8,,,8561AX,Balk,De Fryske Marren,Friesland,VBO,5.584103,52.899279
Lytse Side,9,,,8561AX,Balk,De Fryske Marren,Friesland,VBO,5.584223,52.899295
Lytse Side,10,,,8561AX,Balk,De Fryske Marren,Friesland,VBO,5.584301,52.899327
Lytse Side,12,,,8561AX,Balk,De Fryske Marren,Friesland,VBO,5.584424,52.899453
Lytse Side,13,,,8561AX,Balk,De Fryske Marren,Friesland,VBO,5.585252,52.899778
Mr.C.J.Trompstraat,1,T,,8561AZ,Balk,De Fryske Marren,Friesland,VBO,5.585554,52.899644
Mr.C.J.Trompstraat,1,,,8561AZ,Balk,De Fryske Marren,Friesland,VBO,5.585180,52.899524
Mr.C.J.Trompstraat,2,,,8561AZ,Balk,De Fryske Marren,Friesland,VBO,5.584825,52.899342
Mr.C.J.Trompstraat,3,,,8561AZ,Balk,De Fryske Marren,Friesland,VBO,5.585231,52.899478
Mr.C.J.Trompstraat,4,,,8561AZ,Balk,De Fryske Marren,Friesland,VBO,5.584876,52.899295
Mr.C.J.Trompstraat,5,,,8561AZ,Balk,De Fryske Marren,Friesland,VBO,5.585324,52.899394
Mr.C.J.Trompstraat,6,,,8561AZ,Balk,De Fryske Marren,Friesland,VBO,5.584930,52.899248
Mr.C.J.Trompstraat,7,,,8561AZ,Balk,De Fryske Marren,Friesland,VBO,5.585376,52.899347
Mr.C.J.Trompstraat,8,,,8561AZ,Balk,De Fryske Marren,Friesland,VBO,5.585024,52.899163
Mr.C.J.Trompstraat,9,,,8561AZ,Balk,De Fryske Marren,Friesland,VBO,5.585427,52.899301
Mr.C.J.Trompstraat,10,,,8561AZ,Balk,De Fryske Marren,Friesland,VBO,5.585070,52.899121
Mr.C.J.Trompstraat,11,,,8561AZ,Balk,De Fryske Marren,Friesland,VBO,5.585519,52.899217
Mr.C.J.Trompstraat,12,,,8561AZ,Balk,De Fryske Marren,Friesland,VBO,5.585123,52.899072
Mr.C.J.Trompstraat,13,,,8561AZ,Balk,De Fryske Marren,Friesland,VBO,5.585568,52.899173
Mr.C.J.Trompstraat,14,,,8561AZ,Balk,De Fryske Marren,Friesland,VBO,5.585254,52.898930
Mr.C.J.Trompstraat,15,,,8561AZ,Balk,De Fryske Marren,Friesland,VBO,5.585621,52.899125
Mr.C.J.Trompstraat,21,,,8561BA,Balk,De Fryske Marren,Friesland,VBO,5.585826,52.898948
Mr.C.J.Trompstraat,23,,,8561BA,Balk,De Fryske Marren,Friesland,VBO,5.585881,52.898904
Mr.C.J.Trompstraat,25,,,8561BA,Balk,De Fryske Marren,Friesland,VBO,5.585982,52.898823
Mr.C.J.Trompstraat,27,,,8561BA,Balk,De Fryske Marren,Friesland,VBO,5.586039,52.898777
Mr.C.J.Trompstraat,28,,,8561BA,Balk,De Fryske Marren,Friesland,VBO,5.585676,52.898591
Mr.C.J.Trompstraat,29,,,8561BA,Balk,De Fryske Marren,Friesland,VBO,5.586096,52.898733
Mr.C.J.Trompstraat,30,,,8561BA,Balk,De Fryske Marren,Friesland,VBO,5.585799,52.898509
Mr.C.J.Trompstraat,31,,,8561BA,Balk,De Fryske Marren,Friesland,VBO,5.586200,52.898650
Mr.C.J.Trompstraat,32,,,8561BA,Balk,De Fryske Marren,Friesland,VBO,5.585937,52.898425
Mr.C.J.Trompstraat,33,,,8561BA,Balk,De Fryske Marren,Friesland,VBO,5.586255,52.898607
Mr.C.J.Trompstraat,34,,,8561BA,Balk,De Fryske Marren,Friesland,VBO,5.586020,52.898318
Mr.C.J.Trompstraat,35,A,,8561BA,Balk,De Fryske Marren,Friesland,VBO,5.586531,52.898680
Mr.C.J.Trompstraat,35,,,8561BA,Balk,De Fryske Marren,Friesland,VBO,5.586312,52.898561
Mr.C.J.Trompstraat,36,,,8561BA,Balk,De Fryske Marren,Friesland,VBO,5.586138,52.898230
Mr.C.J.Trompstraat,37,,,8561BA,Balk,De Fryske Marren,Friesland,VBO,5.586697,52.898271
Mr.C.J.Trompstraat,38,,,8561BA,Balk,De Fryske Marren,Friesland,VBO,5.586196,52.898184
Mr.C.J.Trompstraat,40,,,8561BA,Balk,De Fryske Marren,Friesland,VBO,5.586360,52.898057
Mr.C.J.Trompstraat,42,,,8561BA,Balk,De Fryske Marren,Friesland,VBO,5.586341,52.898001
Jachthavendyk,1,A,,8561BB,Balk,De Fryske Marren,Friesland,VBO,5.584556,52.898390
Jachthavendyk,1,,,8561BB,Balk,De Fryske Marren,Friesland,VBO,5.585024,52.898736
Jachthavendyk,2,,,8561BB,Balk,De Fryske Marren,Friesland,VBO,5.585467,52.898670
Jachthavendyk,3,,,8561BB,Balk,De Fryske Marren,Friesland,VBO,5.585081,52.898786
Jachthavendyk,4,,,8561BB,Balk,De Fryske Marren,Friesland,VBO,5.585520,52.898723
Jachthavendyk,5,,,8561BB,Balk,De Fryske Marren,Friesland,VBO,5.585163,52.898888
Jachthavendyk,6,,,8561BB,Balk,De Fryske Marren,Friesland,VBO,5.586630,52.899151
Jachthavendyk,9,,,8561BB,Balk,De Fryske Marren,Friesland,VBO,5.586767,52.899609
Jachthavendyk,13,A,,8561BB,Balk,De Fryske Marren,Friesland,VBO,5.587567,52.899880
Jachthavendyk,13,B,,8561BB,Balk,De Fryske Marren,Friesland,VBO,5.587537,52.899912
Jachthavendyk,13,C,,8561BB,Balk,De Fryske Marren,Friesland,VBO,5.587501,52.899951
Jachthavendyk,13,D,,8561BB,Balk,De Fryske Marren,Friesland,VBO,5.587461,52.899989
Jachthavendyk,13,E,,8561BB,Balk,De Fryske Marren,Friesland,VBO,5.587431,52.900018
Jachthavendyk,13,F,,8561BB,Balk,De Fryske Marren,Friesland,VBO,5.587393,52.900051
Jachthavendyk,13,G,,8561BB,Balk,De Fryske Marren,Friesland,VBO,5.587359,52.900087
Jachthavendyk,13,H,,8561BB,Balk,De Fryske Marren,Friesland,VBO,5.587321,52.900125
Jachthavendyk,13,I,,8561BB,Balk,De Fryske Marren,Friesland,VBO,5.587289,52.900158
Jachthavendyk,13,J,,8561BB,Balk,De Fryske Marren,Friesland,VBO,5.587248,52.900195
Jachthavendyk,13,K,,8561BB,Balk,De Fryske Marren,Friesland,VBO,5.587213,52.900235
Jachthavendyk,13,L,,8561BB,Balk,De Fryske Marren,Friesland,VBO,5.587184,52.900265
Jachthavendyk,13,M,,8561BB,Balk,De Fryske Marren,Friesland,VBO,5.587151,52.900296
Jachthavendyk,13,N,,8561BB,Balk,De Fryske Marren,Friesland,VBO,5.587113,52.900328
Jachthavendyk,13,O,,8561BB,Balk,De Fryske Marren,Friesland,VBO,5.587079,52.900362
Jachthavendyk,13,P,,8561BB,Balk,De Fryske Marren,Friesland,VBO,5.587045,52.900393
Jachthavendyk,15,,,8561BB,Balk,De Fryske Marren,Friesland,VBO,5.587810,52.900316
Jachthavendyk,21,,,8561BB,Balk,De Fryske Marren,Friesland,VBO,5.588633,52.900744
Dubbelstraat,1,,,8561BC,Balk,De Fryske Marren,Friesland,VBO,5.583674,52.898886
Dubbelstraat,2,,,8561BC,Balk,De Fryske Marren,Friesland,VBO,5.582879,52.898852
Dubbelstraat,4,,,8561BC,Balk,De Fryske Marren,Friesland,VBO,5.583124,52.898575
Dubbelstraat,5,,,8561BC,Balk,De Fryske Marren,Friesland,VBO,5.584165,52.898599
Dubbelstraat,6,,,8561BC,Balk,De Fryske Marren,Friesland,VBO,5.583347,52.898450
Dubbelstraat,8,A,,8561BC,Balk,De Fryske Marren,Friesland,VBO,5.583479,52.898293
Dubbelstraat,8,,,8561BC,Balk,De Fryske Marren,Friesland,VBO,5.583296,52.898254
Dubbelstraat,10,,,8561BC,Balk,De Fryske Marren,Friesland,VBO,5.583569,52.898068
Dubbelstraat,11,,,8561BC,Balk,De Fryske Marren,Friesland,VBO,5.584494,52.898445
It Hoekstee,2,,,8561BD,Balk,De Fryske Marren,Friesland,VBO,5.585158,52.898335
It Hoekstee,4,,,8561BD,Balk,De Fryske Marren,Friesland,VBO,5.585138,52.898272
It Hoekstee,6,,,8561BD,Balk,De Fryske Marren,Friesland,VBO,5.585166,52.898236
It Hoekstee,8,,,8561BD,Balk,De Fryske Marren,Friesland,VBO,5.585393,52.898145
It Hoekstee,10,,,8561BD,Balk,De Fryske Marren,Friesland,VBO,5.585324,52.898151
It Hoekstee,12,,,8561BD,Balk,De Fryske Marren,Friesland,VBO,5.585274,52.898311
It Hoekstee,14,,,8561BD,Balk,De Fryske Marren,Friesland,VBO,5.585319,52.898426
It Hoekstee,16,,,8561BD,Balk,De Fryske Marren,Friesland,VBO,5.585279,52.898269
It Hoekstee,18,,,8561BD,Balk,De Fryske Marren,Friesland,VBO,5.585248,52.898305
It Hoekstee,20,,,8561BD,Balk,De Fryske Marren,Friesland,VBO,5.585216,52.898274
It Hoekstee,22,,,8561BD,Balk,De Fryske Marren,Friesland,VBO,5.585241,52.898367
Wikelerdyk,3,,,8561BD,Balk,De Fryske Marren,Friesland,VBO,5.585618,52.898052
Wikelerdyk,5,,,8561BD,Balk,De Fryske Marren,Friesland,VBO,5.585787,52.897964
Wikelerdyk,7,,,8561BD,Balk,De Fryske Marren,Friesland,VBO,5.585944,52.897932
Wikelerdyk,9,,,8561BD,Balk,De Fryske Marren,Friesland,VBO,5.586258,52.897828
Wikelerdyk,11,,,8561BD,Balk,De Fryske Marren,Friesland,VBO,5.591079,52.896302
Wikelerdyk,13,,,8561BD,Balk,De Fryske Marren,Friesland,VBO,5.591809,52.895925
Wikelerdyk,15,,,8561BD,Balk,De Fryske Marren,Friesland,VBO,5.593540,52.895309
It Hoekstee,1,,,8561BE,Balk,De Fryske Marren,Friesland,VBO,5.585303,52.898185
It Hoekstee,3,,,8561BE,Balk,De Fryske Marren,Friesland,VBO,5.585255,52.898183
It Hoekstee,5,,,8561BE,Balk,De Fryske Marren,Friesland,VBO,5.585344,52.898185
It Hoekstee,7,,,8561BE,Balk,De Fryske Marren,Friesland,VBO,5.585944,52.897932
It Hoekstee,9,,,8561BE,Balk,De Fryske Marren,Friesland,VBO,5.586258,52.897828
It Hoekstee,11,,,8561BE,Balk,De Fryske Marren,Friesland,VBO,5.585269,52.898411
It Hoekstee,13,,,8561BE,Balk,De Fryske Marren,Friesland,VBO,5.585264,52.898455
It Hoekstee,15,,,8561BE,Balk,De Fryske Marren,Friesland,VBO,5.585270,52.898476
It Hoekstee,17,,,8561BE,Balk,De Fryske Marren,Friesland,VBO,5.585383,52.898413
It Hoekstee,19,,,8561BE,Balk,De Fryske Marren,Friesland,VBO,5.585394,52.898454
It Hoekstee,21,,,8561BE,Balk,De Fryske Marren,Friesland,VBO,5.585353,52.898461
It Hoekstee,23,,,8561BE,Balk,De Fryske Marren,Friesland,VBO,5.585314,52.898469
Wikelerdyk,6,,,8561BE,Balk,De Fryske Marren,Friesland,VBO,5.584945,52.897825
Wikelerdyk,8,,,8561BE,Balk,De Fryske Marren,Friesland,VBO,5.585148,52.897739
Wikelerdyk,10,,,8561BE,Balk,De Fryske Marren,Friesland,VBO,5.585306,52.897674
Wikelerdyk,12,,,8561BE,Balk,De Fryske Marren,Friesland,VBO,5.585452,52.897583
Wikelerdyk,14,,,8561BE,Balk,De Fryske Marren,Friesland,VBO,5.585572,52.897137
Wikelerdyk,16,,,8561BE,Balk,De Fryske Marren,Friesland,VBO,5.586112,52.897047
Wikelerdyk,18,,,8561BE,Balk,De Fryske Marren,Friesland,VBO,5.586799,52.896979
Wikelerdyk,20,,,8561BE,Balk,De Fryske Marren,Friesland,VBO,5.587229,52.896782
Wikelerdyk,24,,,8561BE,Balk,De Fryske Marren,Friesland,VBO,5.587663,52.896780
Wikelerdyk,26,,,8561BE,Balk,De Fryske Marren,Friesland,VBO,5.588417,52.896604
Wikelerdyk,28,,,8561BE,Balk,De Fryske Marren,Friesland,VBO,5.588837,52.896387
Wikelerdyk,32,,,8561BE,Balk,De Fryske Marren,Friesland,VBO,5.589640,52.896187
Wikelerdyk,34,,,8561BE,Balk,De Fryske Marren,Friesland,VBO,5.589994,52.896010
Wikelerdyk,40,,,8561BE,Balk,De Fryske Marren,Friesland,VBO,5.589397,52.895628
Wikelerdyk,42,,,8561BE,Balk,De Fryske Marren,Friesland,VBO,5.590617,52.895813
Wikelerdyk,44,A,,8561BE,Balk,De Fryske Marren,Friesland,VBO,5.591619,52.895336
Wikelerdyk,44,,,8561BE,Balk,De Fryske Marren,Friesland,VBO,5.591060,52.895706
Wikelerdyk,46,,,8561BE,Balk,De Fryske Marren,Friesland,VBO,5.591864,52.894996
Wikelerdyk,48,,,8561BE,Balk,De Fryske Marren,Friesland,VBO,5.592573,52.894888
Raadhuisstraat,2,,,8561BG,Balk,De Fryske Marren,Friesland,VBO,5.582768,52.898752
Raadhuisstraat,4,,,8561BG,Balk,De Fryske Marren,Friesland,VBO,5.582603,52.898644
Raadhuisstraat,5,,,8561BG,Balk,De Fryske Marren,Friesland,VBO,5.582535,52.898610
Raadhuisstraat,6,,,8561BG,Balk,De Fryske Marren,Friesland,VBO,5.582465,52.898561
Raadhuisstraat,7,,,8561BG,Balk,De Fryske Marren,Friesland,VBO,5.582386,52.898514
Raadhuisstraat,8,,,8561BG,Balk,De Fryske Marren,Friesland,VBO,5.582300,52.898475
Raadhuisstraat,9,,,8561BG,Balk,De Fryske Marren,Friesland,VBO,5.582266,52.898397
Raadhuisstraat,10,,,8561BG,Balk,De Fryske Marren,Friesland,VBO,5.582185,52.898360
Raadhuisstraat,11,,,8561BG,Balk,De Fryske Marren,Friesland,VBO,5.582098,52.898321
Raadhuisstraat,12,,,8561BG,Balk,De Fryske Marren,Friesland,VBO,5.581930,52.898325
Raadhuisstraat,17,,,8561BG,Balk,De Fryske Marren,Friesland,VBO,5.581698,52.898127
Raadhuisstraat,18,,,8561BG,Balk,De Fryske Marren,Friesland,VBO,5.581551,52.898115
Raadhuisstraat,19,,,8561BG,Balk,De Fryske Marren,Friesland,VBO,5.581470,52.898086
Raadhuisstraat,21,,,8561BG,Balk,De Fryske Marren,Friesland,VBO,5.581393,52.898055
Raadhuisstraat,22,,,8561BG,Balk,De Fryske Marren,Friesland,VBO,5.581307,52.898010
Sleatemar,51,,,8561BG,Balk,De Fryske Marren,Friesland,VBO,5.600326,52.903062
Sleatemar,52,,,8561BG,Balk,De Fryske Marren,Friesland,VBO,5.600156,52.903056
Sleatemar,53,,,8561BG,Balk,De Fryske Marren,Friesland,VBO,5.600313,52.902956
Sleatemar,54,,,8561BG,Balk,De Fryske Marren,Friesland,VBO,5.600396,52.902865
Sleatemar,55,,,8561BG,Balk,De Fryske Marren,Friesland,VBO,5.600529,52.902802
Sleatemar,56,,,8561BG,Balk,De Fryske Marren,Friesland,VBO,5.600426,52.902675
Sleatemar,57,,,8561BG,Balk,De Fryske Marren,Friesland,VBO,5.600281,52.902629
Sleatemar,58,,,8561BG,Balk,De Fryske Marren,Friesland,VBO,5.600033,52.902681
Sleatemar,59,,,8561BG,Balk,De Fryske Marren,Friesland,VBO,5.599958,52.902792
Sleatemar,60,,,8561BG,Balk,De Fryske Marren,Friesland,VBO,5.599891,52.902894
Sleatemar,61,,,8561BG,Balk,De Fryske Marren,Friesland,VBO,5.599841,52.902993
Sleatemar,62,,,8561BG,Balk,De Fryske Marren,Friesland,VBO,5.599640,52.902928
Sleatemar,63,,,8561BG,Balk,De Fryske Marren,Friesland,VBO,5.599708,52.902833
Sleatemar,64,,,8561BG,Balk,De Fryske Marren,Friesland,VBO,5.599783,52.902744
Sleatemar,65,,,8561BG,Balk,De Fryske Marren,Friesland,VBO,5.599869,52.902649
Sleatemar,66,,,8561BG,Balk,De Fryske Marren,Friesland,VBO,5.599757,52.902505
Sleatemar,67,,,8561BG,Balk,De Fryske Marren,Friesland,VBO,5.599561,52.902457
Sleatemar,68,,,8561BG,Balk,De Fryske Marren,Friesland,VBO,5.599391,52.902559
Sleatemar,69,,,8561BG,Balk,De Fryske Marren,Friesland,VBO,5.599438,52.902681
Sleatemar,70,,,8561BG,Balk,De Fryske Marren,Friesland,VBO,5.599362,52.902769
Sleatemar,71,,,8561BG,Balk,De Fryske Marren,Friesland,VBO,5.599213,52.902750
Sleatemar,72,,,8561BG,Balk,De Fryske Marren,Friesland,VBO,5.599064,52.902702
Sleatemar,73,,,8561BG,Balk,De Fryske Marren,Friesland,VBO,5.598926,52.902654
Sleatemar,74,,,8561BG,Balk,De Fryske Marren,Friesland,VBO,5.598957,52.902554
Sleatemar,75,,,8561BG,Balk,De Fryske Marren,Friesland,VBO,5.599072,52.902486
Sleatemar,76,,,8561BG,Balk,De Fryske Marren,Friesland,VBO,5.599034,52.902343
Sleatemar,77,,,8561BG,Balk,De Fryske Marren,Friesland,VBO,5.598867,52.902316
Sleatemar,78,,,8561BG,Balk,De Fryske Marren,Friesland,VBO,5.598631,52.902401
Sleatemar,79,,,8561BG,Balk,De Fryske Marren,Friesland,VBO,5.598499,52.902473
Sleatemar,80,,,8561BG,Balk,De Fryske Marren,Friesland,VBO,5.598505,52.902590
Sleatemar,81,,,8561BG,Balk,De Fryske Marren,Friesland,VBO,5.598496,52.902723
Sleatemar,82,,,8561BG,Balk,De Fryske Marren,Friesland,VBO,5.598329,52.902787
Sleatemar,83,,,8561BG,Balk,De Fryske Marren,Friesland,VBO,5.598155,52.902859
Sleatemar,84,,,8561BG,Balk,De Fryske Marren,Friesland,VBO,5.598341,52.903233
Raadhuisstraat,24,,,8561BH,Balk,De Fryske Marren,Friesland,VBO,5.581249,52.897935
Raadhuisstraat,25,,,8561BH,Balk,De Fryske Marren,Friesland,VBO,5.581111,52.897942
Raadhuisstraat,26,,,8561BH,Balk,De Fryske Marren,Friesland,VBO,5.581335,52.897667
Raadhuisstraat,29,,,8561BH,Balk,De Fryske Marren,Friesland,VBO,5.580924,52.897914
Raadhuisstraat,30,,,8561BH,Balk,De Fryske Marren,Friesland,VBO,5.580912,52.897813
Raadhuisstraat,32,,,8561BH,Balk,De Fryske Marren,Friesland,VBO,5.580747,52.897752
Raadhuisstraat,33,T,,8561BH,Balk,De Fryske Marren,Friesland,VBO,5.581039,52.897491
Raadhuisstraat,36,,,8561BH,Balk,De Fryske Marren,Friesland,VBO,5.580629,52.897683
Raadhuisstraat,37,,,8561BH,Balk,De Fryske Marren,Friesland,VBO,5.580621,52.897601
Raadhuisstraat,38,,,8561BH,Balk,De Fryske Marren,Friesland,VBO,5.580504,52.897589
Raadhuisstraat,39,,,8561BH,Balk,De Fryske Marren,Friesland,VBO,5.580638,52.897498
Raadhuisstraat,40,,,8561BH,Balk,De Fryske Marren,Friesland,VBO,5.580340,52.897472
Raadhuisstraat,42,,,8561BH,Balk,De Fryske Marren,Friesland,VBO,5.580105,52.897398
Raadhuisstraat,43,,,8561BH,Balk,De Fryske Marren,Friesland,VBO,5.579990,52.897253
Raadhuisstraat,45,,,8561BH,Balk,De Fryske Marren,Friesland,VBO,5.580190,52.896808
Raadhuisstraat,46,,,8561BH,Balk,De Fryske Marren,Friesland,VBO,5.580062,52.896759
Raadhuisstraat,47,,,8561BH,Balk,De Fryske Marren,Friesland,VBO,5.579635,52.897153
Raadhuisstraat,52,,,8561BJ,Balk,De Fryske Marren,Friesland,VBO,5.579528,52.897105
Raadhuisstraat,53,,,8561BJ,Balk,De Fryske Marren,Friesland,VBO,5.579397,52.897112
Raadhuisstraat,54,,,8561BJ,Balk,De Fryske Marren,Friesland,VBO,5.579324,52.897072
Raadhuisstraat,56,,,8561BJ,Balk,De Fryske Marren,Friesland,VBO,5.579274,52.897034
Raadhuisstraat,59,,,8561BJ,Balk,De Fryske Marren,Friesland,VBO,5.579178,52.897003
Raadhuisstraat,61,,,8561BJ,Balk,De Fryske Marren,Friesland,VBO,5.579103,52.896961
Raadhuisstraat,64,,,8561BJ,Balk,De Fryske Marren,Friesland,VBO,5.579029,52.896897
Raadhuisstraat,65,,,8561BJ,Balk,De Fryske Marren,Friesland,VBO,5.578972,52.896868
Raadhuisstraat,68,,,8561BJ,Balk,De Fryske Marren,Friesland,VBO,5.578940,52.896792
Raadhuisstraat,69,,,8561BJ,Balk,De Fryske Marren,Friesland,VBO,5.578869,52.896751
Raadhuisstraat,72,,,8561BJ,Balk,De Fryske Marren,Friesland,VBO,5.578723,52.896768
Sleatemar,1,A,,8561BJ,Balk,De Fryske Marren,Friesland,VBO,5.598192,52.904664
Sleatemar,1,T,,8561BJ,Balk,De Fryske Marren,Friesland,VBO,5.597570,52.903206
Sleatemar,1,,,8561BJ,Balk,De Fryske Marren,Friesland,VBO,5.598563,52.903108
Sleatemar,2,,,8561BJ,Balk,De Fryske Marren,Friesland,VBO,5.598613,52.903019
Sleatemar,3,,,8561BJ,Balk,De Fryske Marren,Friesland,VBO,5.598776,52.902963
Sleatemar,4,,,8561BJ,Balk,De Fryske Marren,Friesland,VBO,5.598941,52.902991
Sleatemar,5,,,8561BJ,Balk,De Fryske Marren,Friesland,VBO,5.599004,52.903095
Sleatemar,6,,,8561BJ,Balk,De Fryske Marren,Friesland,VBO,5.598876,52.903168
Sleatemar,7,,,8561BJ,Balk,De Fryske Marren,Friesland,VBO,5.598697,52.903216
Sleatemar,8,,,8561BJ,Balk,De Fryske Marren,Friesland,VBO,5.598681,52.903389
Sleatemar,9,,,8561BJ,Balk,De Fryske Marren,Friesland,VBO,5.598766,52.903466
Sleatemar,10,,,8561BJ,Balk,De Fryske Marren,Friesland,VBO,5.598942,52.903467
Sleatemar,11,,,8561BJ,Balk,De Fryske Marren,Friesland,VBO,5.599149,52.903421
Sleatemar,12,,,8561BJ,Balk,De Fryske Marren,Friesland,VBO,5.599230,52.903331
Sleatemar,13,,,8561BJ,Balk,De Fryske Marren,Friesland,VBO,5.599228,52.903216
Sleatemar,14,,,8561BJ,Balk,De Fryske Marren,Friesland,VBO,5.599289,52.903113
Sleatemar,15,,,8561BJ,Balk,De Fryske Marren,Friesland,VBO,5.599407,52.903208
Sleatemar,16,,,8561BJ,Balk,De Fryske Marren,Friesland,VBO,5.599625,52.903228
Sleatemar,17,,,8561BJ,Balk,De Fryske Marren,Friesland,VBO,5.599779,52.903270
Sleatemar,18,,,8561BJ,Balk,De Fryske Marren,Friesland,VBO,5.599599,52.903342
Sleatemar,19,,,8561BJ,Balk,De Fryske Marren,Friesland,VBO,5.599458,52.903445
Sleatemar,20,,,8561BJ,Balk,De Fryske Marren,Friesland,VBO,5.599437,52.903518
Sleatemar,21,,,8561BJ,Balk,De Fryske Marren,Friesland,VBO,5.599491,52.903683
Sleatemar,22,,,8561BJ,Balk,De Fryske Marren,Friesland,VBO,5.599646,52.903663
Sleatemar,23,,,8561BJ,Balk,De Fryske Marren,Friesland,VBO,5.599870,52.903607
Sleatemar,24,,,8561BJ,Balk,De Fryske Marren,Friesland,VBO,5.599966,52.903541
Sleatemar,25,,,8561BJ,Balk,De Fryske Marren,Friesland,VBO,5.600004,52.903450
Sleatemar,26,,,8561BJ,Balk,De Fryske Marren,Friesland,VBO,5.600103,52.903330
Sleatemar,27,,,8561BJ,Balk,De Fryske Marren,Friesland,VBO,5.600229,52.903400
Sleatemar,28,,,8561BJ,Balk,De Fryske Marren,Friesland,VBO,5.600229,52.903525
Sleatemar,29,,,8561BJ,Balk,De Fryske Marren,Friesland,VBO,5.600123,52.903661
Sleatemar,30,,,8561BJ,Balk,De Fryske Marren,Friesland,VBO,5.599997,52.903724
Sleatemar,31,,,8561BJ,Balk,De Fryske Marren,Friesland,VBO,5.599874,52.903790
Sleatemar,32,,,8561BJ,Balk,De Fryske Marren,Friesland,VBO,5.600674,52.903633
Sleatemar,33,,,8561BJ,Balk,De Fryske Marren,Friesland,VBO,5.600686,52.903533
Sleatemar,34,,,8561BJ,Balk,De Fryske Marren,Friesland,VBO,5.600695,52.903424
Sleatemar,35,,,8561BJ,Balk,De Fryske Marren,Friesland,VBO,5.600663,52.903300
Sleatemar,36,,,8561BJ,Balk,De Fryske Marren,Friesland,VBO,5.600871,52.903193
Sleatemar,37,,,8561BJ,Balk,De Fryske Marren,Friesland,VBO,5.600988,52.903133
Sleatemar,38,,,8561BJ,Balk,De Fryske Marren,Friesland,VBO,5.601122,52.903065
Sleatemar,39,,,8561BJ,Balk,De Fryske Marren,Friesland,VBO,5.601024,52.903282
Sleatemar,40,,,8561BJ,Balk,De Fryske Marren,Friesland,VBO,5.601130,52.903364
Sleatemar,41,,,8561BJ,Balk,De Fryske Marren,Friesland,VBO,5.601342,52.903298
Sleatemar,42,,,8561BJ,Balk,De Fryske Marren,Friesland,VBO,5.601362,52.903195
Sleatemar,43,,,8561BJ,Balk,De Fryske Marren,Friesland,VBO,5.601462,52.903118
Sleatemar,44,,,8561BJ,Balk,De Fryske Marren,Friesland,VBO,5.601557,52.903042
Sleatemar,45,,,8561BJ,Balk,De Fryske Marren,Friesland,VBO,5.601342,52.902885
Sleatemar,46,,,8561BJ,Balk,De Fryske Marren,Friesland,VBO,5.601105,52.902829
Sleatemar,47,,,8561BJ,Balk,De Fryske Marren,Friesland,VBO,5.600917,52.902768
Sleatemar,48,,,8561BJ,Balk,De Fryske Marren,Friesland,VBO,5.600725,52.902961
Sleatemar,49,,,8561BJ,Balk,De Fryske Marren,Friesland,VBO,5.600582,52.903036
Sleatemar,50,,,8561BJ,Balk,De Fryske Marren,Friesland,VBO,5.600434,52.903139
Bogermanstraat,1,B,,8561BK,Balk,De Fryske Marren,Friesland,VBO,5.582517,52.898190
Bogermanstraat,1,C,,8561BK,Balk,De Fryske Marren,Friesland,VBO,5.582549,52.898204
Bogermanstraat,1,D,,8561BK,Balk,De Fryske Marren,Friesland,VBO,5.582584,52.898222
Bogermanstraat,1,E,,8561BK,Balk,De Fryske Marren,Friesland,VBO,5.582616,52.898236
Bogermanstraat,1,F,,8561BK,Balk,De Fryske Marren,Friesland,VBO,5.582646,52.898248
Bogermanstraat,1,G,,8561BK,Balk,De Fryske Marren,Friesland,VBO,5.582679,52.898260
Bogermanstraat,1,H,,8561BK,Balk,De Fryske Marren,Friesland,VBO,5.582710,52.898275
Bogermanstraat,1,I,,8561BK,Balk,De Fryske Marren,Friesland,VBO,5.582744,52.898291
Bogermanstraat,1,J,,8561BK,Balk,De Fryske Marren,Friesland,VBO,5.582775,52.898305
Bogermanstraat,1,K,,8561BK,Balk,De Fryske Marren,Friesland,VBO,5.582810,52.898318
Bogermanstraat,1,L,,8561BK,Balk,De Fryske Marren,Friesland,VBO,5.582841,52.898331
Bogermanstraat,1,M,,8561BK,Balk,De Fryske Marren,Friesland,VBO,5.582875,52.898347
Bogermanstraat,1,N,,8561BK,Balk,De Fryske Marren,Friesland,VBO,5.582908,52.898362
Bogermanstraat,1,,,8561BK,Balk,De Fryske Marren,Friesland,VBO,5.582256,52.898115
Bogermanstraat,3,,,8561BK,Balk,De Fryske Marren,Friesland,VBO,5.582775,52.897548
Bogermanstraat,5,,,8561BK,Balk,De Fryske Marren,Friesland,VBO,5.583227,52.897067
Bogermanstraat,7,,,8561BK,Balk,De Fryske Marren,Friesland,VBO,5.583266,52.897906
Bogermanstraat,2,,,8561BL,Balk,De Fryske Marren,Friesland,VBO,5.582029,52.897683
Bogermanstraat,4,,,8561BL,Balk,De Fryske Marren,Friesland,VBO,5.582419,52.897347
Bogermanstraat,6,,,8561BL,Balk,De Fryske Marren,Friesland,VBO,5.582463,52.897302
Bogermanstraat,8,,,8561BL,Balk,De Fryske Marren,Friesland,VBO,5.582507,52.897259
Bogermanstraat,10,,,8561BL,Balk,De Fryske Marren,Friesland,VBO,5.582548,52.897219
Bogermanstraat,12,,,8561BL,Balk,De Fryske Marren,Friesland,VBO,5.582595,52.897173
Bogermanstraat,14,,,8561BL,Balk,De Fryske Marren,Friesland,VBO,5.582638,52.897078
Bogermanstraat,16,,,8561BL,Balk,De Fryske Marren,Friesland,VBO,5.582683,52.897033
Bogermanstraat,18,,,8561BL,Balk,De Fryske Marren,Friesland,VBO,5.582728,52.896989
Bogermanstraat,20,,,8561BL,Balk,De Fryske Marren,Friesland,VBO,5.582772,52.896947
Bogermanstraat,22,,,8561BL,Balk,De Fryske Marren,Friesland,VBO,5.582817,52.896902
Bogermanstraat,24,,,8561BL,Balk,De Fryske Marren,Friesland,VBO,5.583052,52.897276
Bogermanstraat,26,,,8561BL,Balk,De Fryske Marren,Friesland,VBO,5.583190,52.897341
Bogermanstraat,28,,,8561BL,Balk,De Fryske Marren,Friesland,VBO,5.583331,52.897405
Bogermanstraat,30,,,8561BL,Balk,De Fryske Marren,Friesland,VBO,5.583473,52.897468
Bogermanstraat,32,,,8561BL,Balk,De Fryske Marren,Friesland,VBO,5.584357,52.897931
Schoolstraat,1,,,8561BM,Balk,De Fryske Marren,Friesland,VBO,5.582969,52.898098
Ludgerusstraat,1,,,8561BN,Balk,De Fryske Marren,Friesland,VBO,5.582302,52.897478
Ludgerusstraat,3,,,8561BN,Balk,De Fryske Marren,Friesland,VBO,5.582083,52.897378
Ludgerusstraat,4,,,8561BN,Balk,De Fryske Marren,Friesland,VBO,5.581905,52.897610
Ludgerusstraat,6,,,8561BN,Balk,De Fryske Marren,Friesland,VBO,5.581743,52.897567
Ludgerusstraat,8,,,8561BN,Balk,De Fryske Marren,Friesland,VBO,5.581659,52.897536
Ludgerusstraat,10,,,8561BN,Balk,De Fryske Marren,Friesland,VBO,5.581569,52.897503
Ludgerusstraat,12,,,8561BN,Balk,De Fryske Marren,Friesland,VBO,5.581492,52.897474
Ludgerusstraat,14,,,8561BN,Balk,De Fryske Marren,Friesland,VBO,5.581332,52.897430
Ludgerusstraat,16,,,8561BN,Balk,De Fryske Marren,Friesland,VBO,5.581250,52.897400
Ludgerusstraat,18,,,8561BN,Balk,De Fryske Marren,Friesland,VBO,5.581065,52.897342
Ludgerusstraat,20,,,8561BN,Balk,De Fryske Marren,Friesland,VBO,5.581280,52.897166
Ludgerusstraat,22,,,8561BN,Balk,De Fryske Marren,Friesland,VBO,5.581356,52.897110
Ludgerusstraat,24,,,8561BN,Balk,De Fryske Marren,Friesland,VBO,5.581410,52.897061
Ludgerusstraat,26,,,8561BN,Balk,De Fryske Marren,Friesland,VBO,5.581455,52.897015
Ludgerusstraat,28,,,8561BN,Balk,De Fryske Marren,Friesland,VBO,5.581636,52.897016
Ludgerusstraat,30,,,8561BN,Balk,De Fryske Marren,Friesland,VBO,5.581693,52.896963
Ludgerusstraat,32,,,8561BN,Balk,De Fryske Marren,Friesland,VBO,5.581737,52.896921
Ludgerusstraat,5,,,8561BP,Balk,De Fryske Marren,Friesland,VBO,5.581815,52.897327
Ludgerusstraat,7,,,8561BP,Balk,De Fryske Marren,Friesland,VBO,5.581860,52.897301
Ludgerusstraat,9,,,8561BP,Balk,De Fryske Marren,Friesland,VBO,5.582014,52.897190
Ludgerusstraat,11,,,8561BP,Balk,De Fryske Marren,Friesland,VBO,5.582063,52.897142
Ludgerusstraat,13,,,8561BP,Balk,De Fryske Marren,Friesland,VBO,5.582138,52.897049
Ludgerusstraat,15,,,8561BP,Balk,De Fryske Marren,Friesland,VBO,5.582188,52.897000
Ludgerusstraat,17,,,8561BP,Balk,De Fryske Marren,Friesland,VBO,5.582287,52.896909
Ludgerusstraat,19,,,8561BP,Balk,De Fryske Marren,Friesland,VBO,5.582338,52.896854
Ludgerusstraat,21,,,8561BP,Balk,De Fryske Marren,Friesland,VBO,5.582385,52.896806
Ludgerusstraat,23,,,8561BP,Balk,De Fryske Marren,Friesland,VBO,5.582436,52.896764
Herman Gorterstraat,3,,,8561BR,Balk,De Fryske Marren,Friesland,VBO,5.584678,52.897493
Herman Gorterstraat,5,,,8561BR,Balk,De Fryske Marren,Friesland,VBO,5.584597,52.897176
Herman Gorterstraat,7,,,8561BR,Balk,De Fryske Marren,Friesland,VBO,5.579635,52.895249
Herman Gorterstraat,9,,,8561BR,Balk,De Fryske Marren,Friesland,VBO,5.579562,52.895212
Herman Gorterstraat,11,,,8561BR,Balk,De Fryske Marren,Friesland,VBO,5.579432,52.895136
Herman Gorterstraat,13,,,8561BR,Balk,De Fryske Marren,Friesland,VBO,5.579356,52.895097
Herman Gorterstraat,15,,,8561BR,Balk,De Fryske Marren,Friesland,VBO,5.579226,52.895034
Herman Gorterstraat,17,,,8561BR,Balk,De Fryske Marren,Friesland,VBO,5.579151,52.894995
Herman Gorterstraat,19,,,8561BR,Balk,De Fryske Marren,Friesland,VBO,5.579013,52.894923
Herman Gorterstraat,21,,,8561BR,Balk,De Fryske Marren,Friesland,VBO,5.578940,52.894881
Herman Gorterstraat,2,,,8561BS,Balk,De Fryske Marren,Friesland,VBO,5.583582,52.897562
Herman Gorterstraat,4,,,8561BS,Balk,De Fryske Marren,Friesland,VBO,5.583817,52.897251
Herman Gorterstraat,6,,,8561BS,Balk,De Fryske Marren,Friesland,VBO,5.583736,52.897221
Herman Gorterstraat,8,,,8561BS,Balk,De Fryske Marren,Friesland,VBO,5.583538,52.897145
Herman Gorterstraat,10,A,,8561BS,Balk,De Fryske Marren,Friesland,VBO,5.580655,52.896305
Herman Gorterstraat,10,,,8561BS,Balk,De Fryske Marren,Friesland,VBO,5.583439,52.897107
Herman Gorterstraat,12,A,,8561BS,Balk,De Fryske Marren,Friesland,VBO,5.580067,52.896123
Herman Gorterstraat,12,,,8561BS,Balk,De Fryske Marren,Friesland,VBO,5.580256,52.896200
Herman Gorterstraat,14,,,8561BT,Balk,De Fryske Marren,Friesland,VBO,5.579317,52.895653
Herman Gorterstraat,16,,,8561BT,Balk,De Fryske Marren,Friesland,VBO,5.579087,52.895545
Herman Gorterstraat,18,,,8561BT,Balk,De Fryske Marren,Friesland,VBO,5.578961,52.895447
Herman Gorterstraat,20,A,,8561BT,Balk,De Fryske Marren,Friesland,VBO,5.578761,52.895283
Herman Gorterstraat,20,,,8561BT,Balk,De Fryske Marren,Friesland,VBO,5.578848,52.895326
Herman Gorterstraat,22,,,8561BT,Balk,De Fryske Marren,Friesland,VBO,5.578304,52.895005
Herman Gorterstraat,24,,,8561BT,Balk,De Fryske Marren,Friesland,VBO,5.578225,52.894968
Herman Gorterstraat,26,,,8561BT,Balk,De Fryske Marren,Friesland,VBO,5.578146,52.894939
Herman Gorterstraat,28,,,8561BT,Balk,De Fryske Marren,Friesland,VBO,5.578064,52.894902
Herman Gorterstraat,30,,,8561BV,Balk,De Fryske Marren,Friesland,VBO,5.577468,52.894620
Herman Gorterstraat,32,,,8561BV,Balk,De Fryske Marren,Friesland,VBO,5.577399,52.894586
Herman Gorterstraat,34,,,8561BV,Balk,De Fryske Marren,Friesland,VBO,5.577329,52.894552
Herman Gorterstraat,36,,,8561BV,Balk,De Fryske Marren,Friesland,VBO,5.577261,52.894518
Herman Gorterstraat,38,,,8561BV,Balk,De Fryske Marren,Friesland,VBO,5.577112,52.894445
Herman Gorterstraat,40,,,8561BV,Balk,De Fryske Marren,Friesland,VBO,5.577040,52.894410
Herman Gorterstraat,42,,,8561BV,Balk,De Fryske Marren,Friesland,VBO,5.576970,52.894376
Herman Gorterstraat,44,,,8561BV,Balk,De Fryske Marren,Friesland,VBO,5.576901,52.894342
Erasmusstraat,1,A,,8561BW,Balk,De Fryske Marren,Friesland,VBO,5.578837,52.896678
Erasmusstraat,1,,,8561BW,Balk,De Fryske Marren,Friesland,VBO,5.579096,52.896576
Erasmusstraat,3,,,8561BW,Balk,De Fryske Marren,Friesland,VBO,5.579165,52.896530
Erasmusstraat,5,,,8561BW,Balk,De Fryske Marren,Friesland,VBO,5.579211,52.896487
Erasmusstraat,7,,,8561BW,Balk,De Fryske Marren,Friesland,VBO,5.579271,52.896442
Erasmusstraat,9,,,8561BW,Balk,De Fryske Marren,Friesland,VBO,5.579375,52.896361
Erasmusstraat,10,,,8561BW,Balk,De Fryske Marren,Friesland,VBO,5.579255,52.895999
Erasmusstraat,11,,,8561BW,Balk,De Fryske Marren,Friesland,VBO,5.579452,52.896308
Erasmusstraat,12,,,8561BW,Balk,De Fryske Marren,Friesland,VBO,5.579383,52.895901
Erasmusstraat,13,,,8561BW,Balk,De Fryske Marren,Friesland,VBO,5.579501,52.896270
Erasmusstraat,14,,,8561BW,Balk,De Fryske Marren,Friesland,VBO,5.579569,52.895783
Erasmusstraat,15,,,8561BW,Balk,De Fryske Marren,Friesland,VBO,5.579547,52.896227
Erasmusstraat,16,T,,8561BW,Balk,De Fryske Marren,Friesland,VBO,5.579879,52.895269
Erasmusstraat,16,,,8561BW,Balk,De Fryske Marren,Friesland,VBO,5.579948,52.895374
Erasmusstraat,17,,,8561BW,Balk,De Fryske Marren,Friesland,VBO,5.579708,52.896114
Erasmusstraat,18,,,8561BW,Balk,De Fryske Marren,Friesland,VBO,5.580063,52.895283
Erasmusstraat,19,,,8561BW,Balk,De Fryske Marren,Friesland,VBO,5.579781,52.896057
Erasmusstraat,21,,,8561BW,Balk,De Fryske Marren,Friesland,VBO,5.580074,52.896041
Erasmusstraat,20,,,8561BX,Balk,De Fryske Marren,Friesland,VBO,5.580580,52.894910
Erasmusstraat,22,,,8561BX,Balk,De Fryske Marren,Friesland,VBO,5.580643,52.894861
Erasmusstraat,24,,,8561BX,Balk,De Fryske Marren,Friesland,VBO,5.580707,52.894812
Erasmusstraat,26,,,8561BX,Balk,De Fryske Marren,Friesland,VBO,5.580770,52.894762
Erasmusstraat,28,,,8561BX,Balk,De Fryske Marren,Friesland,VBO,5.580835,52.894712
Erasmusstraat,30,,,8561BX,Balk,De Fryske Marren,Friesland,VBO,5.580899,52.894663
Erasmusstraat,32,,,8561BX,Balk,De Fryske Marren,Friesland,VBO,5.580963,52.894613
Westein,1,A,,8561BZ,Balk,De Fryske Marren,Friesland,VBO,5.578326,52.896468
Westein,1,,,8561BZ,Balk,De Fryske Marren,Friesland,VBO,5.578385,52.896495
Westein,2,,,8561BZ,Balk,De Fryske Marren,Friesland,VBO,5.575862,52.895529
Westein,3,,,8561BZ,Balk,De Fryske Marren,Friesland,VBO,5.577970,52.896411
Westein,5,,,8561BZ,Balk,De Fryske Marren,Friesland,VBO,5.578036,52.896362
Westein,7,,,8561BZ,Balk,De Fryske Marren,Friesland,VBO,5.578103,52.896312
Westein,9,,,8561BZ,Balk,De Fryske Marren,Friesland,VBO,5.578170,52.896262
Westein,11,,,8561BZ,Balk,De Fryske Marren,Friesland,VBO,5.577693,52.896280
Westein,13,,,8561BZ,Balk,De Fryske Marren,Friesland,VBO,5.577761,52.896234
Westein,15,,,8561BZ,Balk,De Fryske Marren,Friesland,VBO,5.577826,52.896186
Westein,17,,,8561BZ,Balk,De Fryske Marren,Friesland,VBO,5.577885,52.896132
Westein,19,,,8561BZ,Balk,De Fryske Marren,Friesland,VBO,5.577405,52.896148
Westein,21,,,8561BZ,Balk,De Fryske Marren,Friesland,VBO,5.577473,52.896078
Westein,23,,,8561BZ,Balk,De Fryske Marren,Friesland,VBO,5.577534,52.896051
Westein,25,,,8561BZ,Balk,De Fryske Marren,Friesland,VBO,5.577123,52.896016
Westein,27,,,8561BZ,Balk,De Fryske Marren,Friesland,VBO,5.577178,52.895955
Westein,29,,,8561BZ,Balk,De Fryske Marren,Friesland,VBO,5.577277,52.895913
Westein,37,,,8561CA,Balk,De Fryske Marren,Friesland,VBO,5.575815,52.895141
Westein,39,,,8561CA,Balk,De Fryske Marren,Friesland,VBO,5.575742,52.895105
Westein,45,,,8561CA,Balk,De Fryske Marren,Friesland,VBO,5.574011,52.892828
Harmen Gabesstrjitte,1,,,8561CB,Balk,De Fryske Marren,Friesland,VBO,5.576862,52.895877
Harmen Gabesstrjitte,3,A,,8561CB,Balk,De Fryske Marren,Friesland,VBO,5.576982,52.895779
Harmen Gabesstrjitte,3,,,8561CB,Balk,De Fryske Marren,Friesland,VBO,5.576930,52.895824
Harmen Gabesstrjitte,5,,,8561CB,Balk,De Fryske Marren,Friesland,VBO,5.577472,52.895385
Harmen Gabesstrjitte,7,,,8561CB,Balk,De Fryske Marren,Friesland,VBO,5.577527,52.895343
Harmen Gabesstrjitte,9,,,8561CB,Balk,De Fryske Marren,Friesland,VBO,5.577581,52.895301
Harmen Gabesstrjitte,11,,,8561CB,Balk,De Fryske Marren,Friesland,VBO,5.577635,52.895259
Harmen Gabesstrjitte,13,,,8561CB,Balk,De Fryske Marren,Friesland,VBO,5.577744,52.895176
Harmen Gabesstrjitte,15,,,8561CB,Balk,De Fryske Marren,Friesland,VBO,5.577799,52.895134
Harmen Gabesstrjitte,17,,,8561CB,Balk,De Fryske Marren,Friesland,VBO,5.577854,52.895091
Harmen Gabesstrjitte,19,,,8561CB,Balk,De Fryske Marren,Friesland,VBO,5.577909,52.895049
Harmen Gabesstrjitte,21,,,8561CC,Balk,De Fryske Marren,Friesland,VBO,5.578489,52.894760
Harmen Gabesstrjitte,23,,,8561CC,Balk,De Fryske Marren,Friesland,VBO,5.578544,52.894720
Harmen Gabesstrjitte,25,,,8561CC,Balk,De Fryske Marren,Friesland,VBO,5.578601,52.894680
Harmen Gabesstrjitte,27,,,8561CC,Balk,De Fryske Marren,Friesland,VBO,5.578660,52.894637
Harmen Gabesstrjitte,29,,,8561CC,Balk,De Fryske Marren,Friesland,VBO,5.578753,52.894568
Harmen Gabesstrjitte,31,,,8561CC,Balk,De Fryske Marren,Friesland,VBO,5.578813,52.894525
Harmen Gabesstrjitte,33,,,8561CC,Balk,De Fryske Marren,Friesland,VBO,5.578868,52.894485
Harmen Gabesstrjitte,35,,,8561CC,Balk,De Fryske Marren,Friesland,VBO,5.578926,52.894444
Harmen Gabesstrjitte,2,A,,8561CD,Balk,De Fryske Marren,Friesland,VBO,5.576499,52.895655
Harmen Gabesstrjitte,2,,,8561CD,Balk,De Fryske Marren,Friesland,VBO,5.576626,52.895580
Harmen Gabesstrjitte,4,,,8561CD,Balk,De Fryske Marren,Friesland,VBO,5.576680,52.895538
Harmen Gabesstrjitte,6,,,8561CD,Balk,De Fryske Marren,Friesland,VBO,5.576737,52.895495
Harmen Gabesstrjitte,8,,,8561CD,Balk,De Fryske Marren,Friesland,VBO,5.576793,52.895453
Harmen Gabesstrjitte,10,,,8561CD,Balk,De Fryske Marren,Friesland,VBO,5.576894,52.895371
Harmen Gabesstrjitte,12,,,8561CD,Balk,De Fryske Marren,Friesland,VBO,5.576950,52.895328
Harmen Gabesstrjitte,14,,,8561CD,Balk,De Fryske Marren,Friesland,VBO,5.577005,52.895286
Harmen Gabesstrjitte,16,,,8561CD,Balk,De Fryske Marren,Friesland,VBO,5.577062,52.895243
Harmen Gabesstrjitte,18,,,8561CD,Balk,De Fryske Marren,Friesland,VBO,5.577161,52.895153
Harmen Gabesstrjitte,20,,,8561CD,Balk,De Fryske Marren,Friesland,VBO,5.577214,52.895113
Harmen Gabesstrjitte,22,,,8561CD,Balk,De Fryske Marren,Friesland,VBO,5.577268,52.895073
Harmen Gabesstrjitte,24,,,8561CD,Balk,De Fryske Marren,Friesland,VBO,5.577323,52.895030
Harmen Gabesstrjitte,26,,,8561CD,Balk,De Fryske Marren,Friesland,VBO,5.577425,52.894952
Harmen Gabesstrjitte,28,,,8561CD,Balk,De Fryske Marren,Friesland,VBO,5.577480,52.894910
Harmen Gabesstrjitte,30,,,8561CD,Balk,De Fryske Marren,Friesland,VBO,5.577536,52.894868
Harmen Gabesstrjitte,32,,,8561CD,Balk,De Fryske Marren,Friesland,VBO,5.577591,52.894825
Harmen Gabesstrjitte,34,,,8561CD,Balk,De Fryske Marren,Friesland,VBO,5.577645,52.894784
Harmen Gabesstrjitte,36,,,8561CD,Balk,De Fryske Marren,Friesland,VBO,5.577701,52.894741
Menno Simonszstraat,1,,,8561CE,Balk,De Fryske Marren,Friesland,VBO,5.579154,52.896126
Menno Simonszstraat,3,,,8561CE,Balk,De Fryske Marren,Friesland,VBO,5.579081,52.896110
Menno Simonszstraat,5,,,8561CE,Balk,De Fryske Marren,Friesland,VBO,5.579010,52.896058
Menno Simonszstraat,7,A,,8561CE,Balk,De Fryske Marren,Friesland,VBO,5.579244,52.895821
Menno Simonszstraat,7,B,,8561CE,Balk,De Fryske Marren,Friesland,VBO,5.579213,52.895808
Menno Simonszstraat,7,C,,8561CE,Balk,De Fryske Marren,Friesland,VBO,5.579182,52.895793
Menno Simonszstraat,7,D,,8561CE,Balk,De Fryske Marren,Friesland,VBO,5.579154,52.895777
Menno Simonszstraat,7,E,,8561CE,Balk,De Fryske Marren,Friesland,VBO,5.579120,52.895761
Menno Simonszstraat,7,F,,8561CE,Balk,De Fryske Marren,Friesland,VBO,5.579088,52.895747
Menno Simonszstraat,7,G,,8561CE,Balk,De Fryske Marren,Friesland,VBO,5.579057,52.895734
Menno Simonszstraat,7,H,,8561CE,Balk,De Fryske Marren,Friesland,VBO,5.579025,52.895718
Menno Simonszstraat,7,I,,8561CE,Balk,De Fryske Marren,Friesland,VBO,5.578994,52.895701
Menno Simonszstraat,7,J,,8561CE,Balk,De Fryske Marren,Friesland,VBO,5.578965,52.895688
Menno Simonszstraat,7,K,,8561CE,Balk,De Fryske Marren,Friesland,VBO,5.578932,52.895672
Menno Simonszstraat,7,L,,8561CE,Balk,De Fryske Marren,Friesland,VBO,5.578900,52.895658
Menno Simonszstraat,7,M,,8561CE,Balk,De Fryske Marren,Friesland,VBO,5.578869,52.895642
Menno Simonszstraat,7,N,,8561CE,Balk,De Fryske Marren,Friesland,VBO,5.578837,52.895629
Menno Simonszstraat,7,O,,8561CE,Balk,De Fryske Marren,Friesland,VBO,5.578809,52.895614
Menno Simonszstraat,7,P,,8561CE,Balk,De Fryske Marren,Friesland,VBO,5.578774,52.895600
Menno Simonszstraat,7,Q,,8561CE,Balk,De Fryske Marren,Friesland,VBO,5.578745,52.895581
Menno Simonszstraat,7,,,8561CE,Balk,De Fryske Marren,Friesland,VBO,5.578942,52.896025
Menno Simonszstraat,9,A,,8561CE,Balk,De Fryske Marren,Friesland,VBO,5.579002,52.895853
Menno Simonszstraat,9,B,,8561CE,Balk,De Fryske Marren,Friesland,VBO,5.578971,52.895835
Menno Simonszstraat,9,C,,8561CE,Balk,De Fryske Marren,Friesland,VBO,5.578941,52.895820
Menno Simonszstraat,9,D,,8561CE,Balk,De Fryske Marren,Friesland,VBO,5.578910,52.895805
Menno Simonszstraat,9,E,,8561CE,Balk,De Fryske Marren,Friesland,VBO,5.578881,52.895791
Menno Simonszstraat,9,F,,8561CE,Balk,De Fryske Marren,Friesland,VBO,5.578846,52.895777
Menno Simonszstraat,9,G,,8561CE,Balk,De Fryske Marren,Friesland,VBO,5.578814,52.895761
Menno Simonszstraat,9,H,,8561CE,Balk,De Fryske Marren,Friesland,VBO,5.578783,52.895745
Menno Simonszstraat,9,I,,8561CE,Balk,De Fryske Marren,Friesland,VBO,5.578749,52.895733
Menno Simonszstraat,9,J,,8561CE,Balk,De Fryske Marren,Friesland,VBO,5.578722,52.895716
Menno Simonszstraat,9,K,,8561CE,Balk,De Fryske Marren,Friesland,VBO,5.578686,52.895703
Menno Simonszstraat,9,L,,8561CE,Balk,De Fryske Marren,Friesland,VBO,5.578658,52.895687
Menno Simonszstraat,9,M,,8561CE,Balk,De Fryske Marren,Friesland,VBO,5.578628,52.895671
Menno Simonszstraat,9,,,8561CE,Balk,De Fryske Marren,Friesland,VBO,5.578795,52.895957
Menno Simonszstraat,11,,,8561CE,Balk,De Fryske Marren,Friesland,VBO,5.578701,52.895950
Menno Simonszstraat,13,,,8561CE,Balk,De Fryske Marren,Friesland,VBO,5.578629,52.895910
Menno Simonszstraat,15,,,8561CE,Balk,De Fryske Marren,Friesland,VBO,5.578579,52.895854
Menno Simonszstraat,17,,,8561CE,Balk,De Fryske Marren,Friesland,VBO,5.578450,52.895794
Menno Simonszstraat,19,,,8561CE,Balk,De Fryske Marren,Friesland,VBO,5.578380,52.895764
Menno Simonszstraat,21,,,8561CE,Balk,De Fryske Marren,Friesland,VBO,5.578319,52.895739
Menno Simonszstraat,23,,,8561CE,Balk,De Fryske Marren,Friesland,VBO,5.578235,52.895694
Menno Simonszstraat,25,,,8561CE,Balk,De Fryske Marren,Friesland,VBO,5.577905,52.895548
Menno Simonszstraat,27,,,8561CE,Balk,De Fryske Marren,Friesland,VBO,5.577844,52.895522
Menno Simonszstraat,29,,,8561CE,Balk,De Fryske Marren,Friesland,VBO,5.577768,52.895492
Menno Simonszstraat,31,,,8561CE,Balk,De Fryske Marren,Friesland,VBO,5.577698,52.895448
Menno Simonszstraat,2,,,8561CG,Balk,De Fryske Marren,Friesland,VBO,5.578839,52.896336
Menno Simonszstraat,4,,,8561CG,Balk,De Fryske Marren,Friesland,VBO,5.578762,52.896300
Menno Simonszstraat,6,,,8561CG,Balk,De Fryske Marren,Friesland,VBO,5.578687,52.896265
Menno Simonszstraat,8,,,8561CG,Balk,De Fryske Marren,Friesland,VBO,5.578610,52.896229
Menno Simonszstraat,10,,,8561CG,Balk,De Fryske Marren,Friesland,VBO,5.578528,52.896191
Menno Simonszstraat,12,,,8561CG,Balk,De Fryske Marren,Friesland,VBO,5.578457,52.896158
Menno Simonszstraat,14,,,8561CG,Balk,De Fryske Marren,Friesland,VBO,5.578321,52.896093
Menno Simonszstraat,16,,,8561CG,Balk,De Fryske Marren,Friesland,VBO,5.578247,52.896057
Menno Simonszstraat,18,,,8561CG,Balk,De Fryske Marren,Friesland,VBO,5.578171,52.896021
Menno Simonszstraat,20,,,8561CG,Balk,De Fryske Marren,Friesland,VBO,5.578093,52.895985
Menno Simonszstraat,22,,,8561CG,Balk,De Fryske Marren,Friesland,VBO,5.578017,52.895948
Menno Simonszstraat,24,,,8561CG,Balk,De Fryske Marren,Friesland,VBO,5.577942,52.895913
Menno Simonszstraat,26,,,8561CG,Balk,De Fryske Marren,Friesland,VBO,5.577751,52.895880
Menno Simonszstraat,28,,,8561CG,Balk,De Fryske Marren,Friesland,VBO,5.577675,52.895844
Menno Simonszstraat,30,,,8561CG,Balk,De Fryske Marren,Friesland,VBO,5.577600,52.895809
Menno Simonszstraat,32,,,8561CG,Balk,De Fryske Marren,Friesland,VBO,5.577525,52.895772
Menno Simonszstraat,34,,,8561CG,Balk,De Fryske Marren,Friesland,VBO,5.577390,52.895709
Menno Simonszstraat,36,,,8561CG,Balk,De Fryske Marren,Friesland,VBO,5.577315,52.895673
Menno Simonszstraat,38,,,8561CG,Balk,De Fryske Marren,Friesland,VBO,5.577240,52.895638
Menno Simonszstraat,40,,,8561CG,Balk,De Fryske Marren,Friesland,VBO,5.577164,52.895602
Gansfortstraat,1,,,8561CH,Balk,De Fryske Marren,Friesland,VBO,5.578442,52.895565
Gansfortstraat,2,,,8561CH,Balk,De Fryske Marren,Friesland,VBO,5.578007,52.895440
Gansfortstraat,3,,,8561CH,Balk,De Fryske Marren,Friesland,VBO,5.578495,52.895525
Gansfortstraat,4,,,8561CH,Balk,De Fryske Marren,Friesland,VBO,5.578064,52.895396
Gansfortstraat,5,,,8561CH,Balk,De Fryske Marren,Friesland,VBO,5.578549,52.895484
Gansfortstraat,6,,,8561CH,Balk,De Fryske Marren,Friesland,VBO,5.578121,52.895353
Gansfortstraat,7,,,8561CH,Balk,De Fryske Marren,Friesland,VBO,5.578605,52.895441
Gansfortstraat,8,,,8561CH,Balk,De Fryske Marren,Friesland,VBO,5.578172,52.895312
Gansfortstraat,10,,,8561CH,Balk,De Fryske Marren,Friesland,VBO,5.578269,52.895238
Gansfortstraat,12,,,8561CH,Balk,De Fryske Marren,Friesland,VBO,5.578327,52.895194
Gansfortstraat,14,,,8561CH,Balk,De Fryske Marren,Friesland,VBO,5.578381,52.895152
Gansfortstraat,16,,,8561CH,Balk,De Fryske Marren,Friesland,VBO,5.578434,52.895111
Jacob Bremerstrjitte,1,T,,8561CJ,Balk,De Fryske Marren,Friesland,VBO,5.576447,52.895461
Jacob Bremerstrjitte,1,,,8561CJ,Balk,De Fryske Marren,Friesland,VBO,5.576197,52.895395
Jacob Bremerstrjitte,3,,,8561CJ,Balk,De Fryske Marren,Friesland,VBO,5.576255,52.895352
Jacob Bremerstrjitte,5,,,8561CJ,Balk,De Fryske Marren,Friesland,VBO,5.576313,52.895308
Jacob Bremerstrjitte,7,,,8561CJ,Balk,De Fryske Marren,Friesland,VBO,5.576373,52.895262
Jacob Bremerstrjitte,9,,,8561CJ,Balk,De Fryske Marren,Friesland,VBO,5.576480,52.895179
Jacob Bremerstrjitte,11,,,8561CJ,Balk,De Fryske Marren,Friesland,VBO,5.576535,52.895137
Jacob Bremerstrjitte,13,,,8561CJ,Balk,De Fryske Marren,Friesland,VBO,5.576592,52.895094
Jacob Bremerstrjitte,15,,,8561CJ,Balk,De Fryske Marren,Friesland,VBO,5.576650,52.895050
Jacob Bremerstrjitte,17,,,8561CJ,Balk,De Fryske Marren,Friesland,VBO,5.576709,52.895005
Jacob Bremerstrjitte,19,A,,8561CJ,Balk,De Fryske Marren,Friesland,VBO,5.576964,52.894955
Jacob Bremerstrjitte,19,B,,8561CJ,Balk,De Fryske Marren,Friesland,VBO,5.576988,52.894935
Jacob Bremerstrjitte,19,C,,8561CJ,Balk,De Fryske Marren,Friesland,VBO,5.577013,52.894915
Jacob Bremerstrjitte,19,D,,8561CJ,Balk,De Fryske Marren,Friesland,VBO,5.577038,52.894896
Jacob Bremerstrjitte,19,E,,8561CJ,Balk,De Fryske Marren,Friesland,VBO,5.577065,52.894878
Jacob Bremerstrjitte,19,F,,8561CJ,Balk,De Fryske Marren,Friesland,VBO,5.577088,52.894858
Jacob Bremerstrjitte,19,G,,8561CJ,Balk,De Fryske Marren,Friesland,VBO,5.577114,52.894839
Jacob Bremerstrjitte,19,H,,8561CJ,Balk,De Fryske Marren,Friesland,VBO,5.577139,52.894821
Jacob Bremerstrjitte,19,I,,8561CJ,Balk,De Fryske Marren,Friesland,VBO,5.577166,52.894804
Jacob Bremerstrjitte,19,J,,8561CJ,Balk,De Fryske Marren,Friesland,VBO,5.577189,52.894782
Jacob Bremerstrjitte,19,K,,8561CJ,Balk,De Fryske Marren,Friesland,VBO,5.577218,52.894764
Jacob Bremerstrjitte,19,,,8561CJ,Balk,De Fryske Marren,Friesland,VBO,5.576772,52.894958
Jacob Bremerstrjitte,21,,,8561CJ,Balk,De Fryske Marren,Friesland,VBO,5.576894,52.894717
Jacob Bremerstrjitte,23,,,8561CJ,Balk,De Fryske Marren,Friesland,VBO,5.576817,52.894680
Jacob Bremerstrjitte,25,,,8561CJ,Balk,De Fryske Marren,Friesland,VBO,5.576741,52.894644
Jacob Bremerstrjitte,27,,,8561CJ,Balk,De Fryske Marren,Friesland,VBO,5.576666,52.894607
Jacob Bremerstrjitte,29,,,8561CJ,Balk,De Fryske Marren,Friesland,VBO,5.576593,52.894572
Jacob Bremerstrjitte,31,,,8561CJ,Balk,De Fryske Marren,Friesland,VBO,5.576102,52.894309
Jacob Bremerstrjitte,2,,,8561CK,Balk,De Fryske Marren,Friesland,VBO,5.575981,52.894986
Jacob Bremerstrjitte,4,,,8561CK,Balk,De Fryske Marren,Friesland,VBO,5.576039,52.894942
Jacob Bremerstrjitte,6,,,8561CK,Balk,De Fryske Marren,Friesland,VBO,5.576098,52.894897
Jacob Bremerstrjitte,8,,,8561CK,Balk,De Fryske Marren,Friesland,VBO,5.576157,52.894852
Jacob Bremerstrjitte,10,,,8561CK,Balk,De Fryske Marren,Friesland,VBO,5.576212,52.894811
Jacob Bremerstrjitte,12,,,8561CK,Balk,De Fryske Marren,Friesland,VBO,5.576276,52.894763
Jacob Bremerstrjitte,14,,,8561CK,Balk,De Fryske Marren,Friesland,VBO,5.575940,52.894608
Jacob Bremerstrjitte,16,,,8561CK,Balk,De Fryske Marren,Friesland,VBO,5.575890,52.894674
Jacob Bremerstrjitte,18,,,8561CK,Balk,De Fryske Marren,Friesland,VBO,5.575818,52.894730
Jacob Bremerstrjitte,20,,,8561CK,Balk,De Fryske Marren,Friesland,VBO,5.575720,52.894775
Jacob Bremerstrjitte,22,,,8561CK,Balk,De Fryske Marren,Friesland,VBO,5.575647,52.894830
Jacob Bremerstrjitte,24,,,8561CK,Balk,De Fryske Marren,Friesland,VBO,5.575586,52.894905
Jacob Bremerstrjitte,26,,,8561CK,Balk,De Fryske Marren,Friesland,VBO,5.575489,52.894951
Jacob Bremerstrjitte,28,,,8561CK,Balk,De Fryske Marren,Friesland,VBO,5.575412,52.895006
Auke Stellingwerfstraat,4,,,8561CL,Balk,De Fryske Marren,Friesland,VBO,5.576290,52.894261
Auke Stellingwerfstraat,6,,,8561CL,Balk,De Fryske Marren,Friesland,VBO,5.576485,52.894120
Willem Barentszstraat,1,,,8561CM,Balk,De Fryske Marren,Friesland,VBO,5.580224,52.894681
Willem Barentszstraat,3,,,8561CM,Balk,De Fryske Marren,Friesland,VBO,5.580152,52.894645
Willem Barentszstraat,5,,,8561CM,Balk,De Fryske Marren,Friesland,VBO,5.580081,52.894609
Willem Barentszstraat,7,,,8561CM,Balk,De Fryske Marren,Friesland,VBO,5.580013,52.894575
Willem Barentszstraat,9,,,8561CM,Balk,De Fryske Marren,Friesland,VBO,5.579889,52.894512
Willem Barentszstraat,11,,,8561CM,Balk,De Fryske Marren,Friesland,VBO,5.579815,52.894475
Willem Barentszstraat,13,,,8561CM,Balk,De Fryske Marren,Friesland,VBO,5.579742,52.894438
Willem Barentszstraat,15,,,8561CM,Balk,De Fryske Marren,Friesland,VBO,5.579676,52.894405
Willem Barentszstraat,2,,,8561CN,Balk,De Fryske Marren,Friesland,VBO,5.580267,52.895191
Willem Barentszstraat,4,A,,8561CN,Balk,De Fryske Marren,Friesland,VBO,5.579919,52.895019
Willem Barentszstraat,4,,,8561CN,Balk,De Fryske Marren,Friesland,VBO,5.580003,52.895061
Willem Barentszstraat,6,,,8561CN,Balk,De Fryske Marren,Friesland,VBO,5.579820,52.894944
Willem Barentszstraat,8,,,8561CN,Balk,De Fryske Marren,Friesland,VBO,5.579749,52.894908
Willem Barentszstraat,10,,,8561CN,Balk,De Fryske Marren,Friesland,VBO,5.579672,52.894869
Willem Barentszstraat,12,,,8561CN,Balk,De Fryske Marren,Friesland,VBO,5.579607,52.894836
Willem Barentszstraat,14,,,8561CN,Balk,De Fryske Marren,Friesland,VBO,5.579478,52.894773
Willem Barentszstraat,16,,,8561CN,Balk,De Fryske Marren,Friesland,VBO,5.579410,52.894738
Willem Barentszstraat,18,,,8561CN,Balk,De Fryske Marren,Friesland,VBO,5.579342,52.894704
Willem Barentszstraat,20,,,8561CN,Balk,De Fryske Marren,Friesland,VBO,5.579272,52.894669
Tsjerk Hiddesstraat,1,,,8561CP,Balk,De Fryske Marren,Friesland,VBO,5.578765,52.894017
Tsjerk Hiddesstraat,3,,,8561CP,Balk,De Fryske Marren,Friesland,VBO,5.578820,52.893974
Tsjerk Hiddesstraat,5,,,8561CP,Balk,De Fryske Marren,Friesland,VBO,5.578876,52.893930
Tsjerk Hiddesstraat,7,,,8561CP,Balk,De Fryske Marren,Friesland,VBO,5.578935,52.893885
Tsjerk Hiddesstraat,9,,,8561CP,Balk,De Fryske Marren,Friesland,VBO,5.579040,52.893803
Tsjerk Hiddesstraat,11,,,8561CP,Balk,De Fryske Marren,Friesland,VBO,5.579095,52.893761
Tsjerk Hiddesstraat,13,,,8561CP,Balk,De Fryske Marren,Friesland,VBO,5.579150,52.893718
Tsjerk Hiddesstraat,15,,,8561CP,Balk,De Fryske Marren,Friesland,VBO,5.579211,52.893671
Tsjerk Hiddesstraat,2,,,8561CR,Balk,De Fryske Marren,Friesland,VBO,5.578171,52.893850
Tsjerk Hiddesstraat,4,,,8561CR,Balk,De Fryske Marren,Friesland,VBO,5.578229,52.893805
Tsjerk Hiddesstraat,6,,,8561CR,Balk,De Fryske Marren,Friesland,VBO,5.578372,52.893694
Tsjerk Hiddesstraat,8,,,8561CR,Balk,De Fryske Marren,Friesland,VBO,5.578432,52.893647
Tsjerk Hiddesstraat,10,,,8561CR,Balk,De Fryske Marren,Friesland,VBO,5.578592,52.893551
Tsjerk Hiddesstraat,12,,,8561CR,Balk,De Fryske Marren,Friesland,VBO,5.578653,52.893505
Tsjerk Hiddesstraat,14,,,8561CR,Balk,De Fryske Marren,Friesland,VBO,5.578747,52.893373
Tsjerk Hiddesstraat,16,,,8561CR,Balk,De Fryske Marren,Friesland,VBO,5.578809,52.893325
Tsjerk Hiddesstraat,18,,,8561CR,Balk,De Fryske Marren,Friesland,VBO,5.578985,52.893189
Tsjerk Hiddesstraat,20,,,8561CR,Balk,De Fryske Marren,Friesland,VBO,5.579043,52.893144
Tsjerk Hiddesstraat,22,,,8561CR,Balk,De Fryske Marren,Friesland,VBO,5.579224,52.893051
Tsjerk Hiddesstraat,24,,,8561CR,Balk,De Fryske Marren,Friesland,VBO,5.579282,52.893006
Tsjerk Hiddesstraat,26,,,8561CR,Balk,De Fryske Marren,Friesland,VBO,5.579404,52.892886
Tsjerk Hiddesstraat,28,,,8561CR,Balk,De Fryske Marren,Friesland,VBO,5.579463,52.892840
Tsjerk Hiddesstraat,30,,,8561CR,Balk,De Fryske Marren,Friesland,VBO,5.579678,52.892705
Douwe Aukesstraat,1,,,8561CS,Balk,De Fryske Marren,Friesland,VBO,5.580529,52.893629
Douwe Aukesstraat,2,,,8561CS,Balk,De Fryske Marren,Friesland,VBO,5.580588,52.894409
Douwe Aukesstraat,4,,,8561CS,Balk,De Fryske Marren,Friesland,VBO,5.580515,52.894376
Douwe Aukesstraat,6,,,8561CS,Balk,De Fryske Marren,Friesland,VBO,5.580442,52.894337
Douwe Aukesstraat,8,,,8561CS,Balk,De Fryske Marren,Friesland,VBO,5.580363,52.894297
Douwe Aukesstraat,10,,,8561CS,Balk,De Fryske Marren,Friesland,VBO,5.580238,52.894236
Douwe Aukesstraat,12,,,8561CS,Balk,De Fryske Marren,Friesland,VBO,5.580190,52.894200
Douwe Aukesstraat,14,,,8561CS,Balk,De Fryske Marren,Friesland,VBO,5.580103,52.894172
Douwe Aukesstraat,16,,,8561CS,Balk,De Fryske Marren,Friesland,VBO,5.580019,52.894127
Barent Fockesstraat,1,A,,8561CT,Balk,De Fryske Marren,Friesland,VBO,5.578987,52.894801
Barent Fockesstraat,1,B,,8561CT,Balk,De Fryske Marren,Friesland,VBO,5.579012,52.894783
Barent Fockesstraat,1,C,,8561CT,Balk,De Fryske Marren,Friesland,VBO,5.579039,52.894764
Barent Fockesstraat,1,D,,8561CT,Balk,De Fryske Marren,Friesland,VBO,5.579068,52.894744
Barent Fockesstraat,1,E,,8561CT,Balk,De Fryske Marren,Friesland,VBO,5.579095,52.894725
Barent Fockesstraat,1,F,,8561CT,Balk,De Fryske Marren,Friesland,VBO,5.579124,52.894703
Barent Fockesstraat,2,,,8561CT,Balk,De Fryske Marren,Friesland,VBO,5.579188,52.894233
Barent Fockesstraat,4,,,8561CT,Balk,De Fryske Marren,Friesland,VBO,5.579245,52.894188
Barent Fockesstraat,6,,,8561CT,Balk,De Fryske Marren,Friesland,VBO,5.579303,52.894142
Barent Fockesstraat,8,,,8561CT,Balk,De Fryske Marren,Friesland,VBO,5.579362,52.894098
Barent Fockesstraat,10,,,8561CT,Balk,De Fryske Marren,Friesland,VBO,5.579465,52.894022
Barent Fockesstraat,12,,,8561CT,Balk,De Fryske Marren,Friesland,VBO,5.579513,52.893981
Barent Fockesstraat,14,,,8561CT,Balk,De Fryske Marren,Friesland,VBO,5.579581,52.893933
Barent Fockesstraat,16,,,8561CT,Balk,De Fryske Marren,Friesland,VBO,5.579639,52.893888
Jelle Meineszleane,43,,,8561CV,Balk,De Fryske Marren,Friesland,VBO,5.582816,52.895680
Jelle Meineszleane,45,,,8561CV,Balk,De Fryske Marren,Friesland,VBO,5.583073,52.895561
Jelle Meineszleane,47,,,8561CV,Balk,De Fryske Marren,Friesland,VBO,5.583231,52.895298
Jelle Meineszleane,49,,,8561CV,Balk,De Fryske Marren,Friesland,VBO,5.583533,52.895231
Jelle Meineszleane,51,,,8561CV,Balk,De Fryske Marren,Friesland,VBO,5.584839,52.895609
Jelle Meineszleane,53,,,8561CV,Balk,De Fryske Marren,Friesland,VBO,5.584931,52.895645
Jelle Meineszleane,55,,,8561CV,Balk,De Fryske Marren,Friesland,VBO,5.585099,52.895703
Jelle Meineszleane,57,,,8561CV,Balk,De Fryske Marren,Friesland,VBO,5.585186,52.895738
Jelle Meineszleane,59,,,8561CV,Balk,De Fryske Marren,Friesland,VBO,5.585354,52.895796
Jelle Meineszleane,61,,,8561CV,Balk,De Fryske Marren,Friesland,VBO,5.585437,52.895827
Jelle Meineszleane,63,,,8561CV,Balk,De Fryske Marren,Friesland,VBO,5.585610,52.895893
Jelle Meineszleane,65,,,8561CV,Balk,De Fryske Marren,Friesland,VBO,5.585693,52.895925
Jelle Meineszleane,67,,,8561CV,Balk,De Fryske Marren,Friesland,VBO,5.585861,52.895987
Jelle Meineszleane,69,,,8561CV,Balk,De Fryske Marren,Friesland,VBO,5.585945,52.896021
Jelle Meineszleane,71,T,,8561CV,Balk,De Fryske Marren,Friesland,VBO,5.586098,52.896112
Jelle Meineszleane,71,,,8561CV,Balk,De Fryske Marren,Friesland,VBO,5.586220,52.896120
Jelle Meineszleane,73,,,8561CV,Balk,De Fryske Marren,Friesland,VBO,5.586309,52.896154
Jelle Meineszleane,75,,,8561CV,Balk,De Fryske Marren,Friesland,VBO,5.586400,52.896187
Jelle Meineszleane,77,,,8561CV,Balk,De Fryske Marren,Friesland,VBO,5.586493,52.896223
Jelle Meineszleane,79,G,,8561CV,Balk,De Fryske Marren,Friesland,VBO,5.587076,52.896437
Jelle Meineszleane,81,,,8561CV,Balk,De Fryske Marren,Friesland,VBO,5.587220,52.896527
Jelle Meineszleane,83,,,8561CV,Balk,De Fryske Marren,Friesland,VBO,5.587348,52.896575
Jelle Meineszleane,2,,,8561CW,Balk,De Fryske Marren,Friesland,VBO,5.582448,52.894234
Jelle Meineszleane,4,,,8561CW,Balk,De Fryske Marren,Friesland,VBO,5.582582,52.894064
Jelle Meineszleane,6,,,8561CW,Balk,De Fryske Marren,Friesland,VBO,5.582612,52.894017
Jelle Meineszleane,8,,,8561CW,Balk,De Fryske Marren,Friesland,VBO,5.582567,52.894096
Jelle Meineszleane,10,,,8561CW,Balk,De Fryske Marren,Friesland,VBO,5.582647,52.894044
Jelle Meineszleane,12,,,8561CW,Balk,De Fryske Marren,Friesland,VBO,5.582619,52.894081
Jelle Meineszleane,14,,,8561CW,Balk,De Fryske Marren,Friesland,VBO,5.582401,52.894224
Jelle Meineszleane,16,,,8561CW,Balk,De Fryske Marren,Friesland,VBO,5.582598,52.894036
Jelle Meineszleane,18,,,8561CW,Balk,De Fryske Marren,Friesland,VBO,5.582718,52.893917
Jelle Meineszleane,20,,,8561CW,Balk,De Fryske Marren,Friesland,VBO,5.582556,52.894162
Jelle Meineszleane,22,,,8561CW,Balk,De Fryske Marren,Friesland,VBO,5.582530,52.894179
Jelle Meineszleane,24,,,8561CW,Balk,De Fryske Marren,Friesland,VBO,5.582718,52.893917
Jelle Meineszleane,26,,,8561CW,Balk,De Fryske Marren,Friesland,VBO,5.582357,52.894208
Jelle Meineszleane,28,,,8561CW,Balk,De Fryske Marren,Friesland,VBO,5.582582,52.894136
Jelle Meineszleane,30,,,8561CW,Balk,De Fryske Marren,Friesland,VBO,5.582521,52.894118
Jelle Meineszleane,32,,,8561CW,Balk,De Fryske Marren,Friesland,VBO,5.582521,52.894158
Jelle Meineszleane,34,,,8561CW,Balk,De Fryske Marren,Friesland,VBO,5.582497,52.894178
Jelle Meineszleane,36,,,8561CW,Balk,De Fryske Marren,Friesland,VBO,5.582677,52.893900
Jelle Meineszleane,38,,,8561CX,Balk,De Fryske Marren,Friesland,VBO,5.584687,52.895137
Jelle Meineszleane,40,,,8561CX,Balk,De Fryske Marren,Friesland,VBO,5.584767,52.895167
Jelle Meineszleane,42,,,8561CX,Balk,De Fryske Marren,Friesland,VBO,5.584847,52.895197
Jelle Meineszleane,44,,,8561CX,Balk,De Fryske Marren,Friesland,VBO,5.584916,52.895236
Jelle Meineszleane,46,,,8561CX,Balk,De Fryske Marren,Friesland,VBO,5.584988,52.895275
Jelle Meineszleane,48,,,8561CX,Balk,De Fryske Marren,Friesland,VBO,5.585069,52.895306
Jelle Meineszleane,50,,,8561CZ,Balk,De Fryske Marren,Friesland,VBO,5.587235,52.896068
Jelle Meineszleane,52,,,8561CZ,Balk,De Fryske Marren,Friesland,VBO,5.587318,52.896099
Jelle Meineszleane,56,,,8561CZ,Balk,De Fryske Marren,Friesland,VBO,5.587572,52.896224
Jelle Meineszleane,58,,,8561CZ,Balk,De Fryske Marren,Friesland,VBO,5.588051,52.896383
Lapidothstrjitte,1,,,8561DA,Balk,De Fryske Marren,Friesland,VBO,5.583661,52.894550
Lapidothstrjitte,2,,,8561DA,Balk,De Fryske Marren,Friesland,VBO,5.583386,52.894122
Lapidothstrjitte,3,,,8561DA,Balk,De Fryske Marren,Friesland,VBO,5.583614,52.894595
Lapidothstrjitte,4,,,8561DA,Balk,De Fryske Marren,Friesland,VBO,5.583468,52.894154
Lapidothstrjitte,5,,,8561DA,Balk,De Fryske Marren,Friesland,VBO,5.583562,52.894646
Lapidothstrjitte,6,,,8561DA,Balk,De Fryske Marren,Friesland,VBO,5.583553,52.894186
Lapidothstrjitte,7,,,8561DA,Balk,De Fryske Marren,Friesland,VBO,5.583517,52.894688
Lapidothstrjitte,8,,,8561DA,Balk,De Fryske Marren,Friesland,VBO,5.583635,52.894217
Lapidothstrjitte,9,,,8561DA,Balk,De Fryske Marren,Friesland,VBO,5.583469,52.894735
Lapidothstrjitte,10,,,8561DA,Balk,De Fryske Marren,Friesland,VBO,5.583775,52.894271
Lapidothstrjitte,12,,,8561DA,Balk,De Fryske Marren,Friesland,VBO,5.583859,52.894303
Lapidothstrjitte,14,,,8561DA,Balk,De Fryske Marren,Friesland,VBO,5.583941,52.894335
Lapidothstrjitte,16,,,8561DA,Balk,De Fryske Marren,Friesland,VBO,5.584026,52.894367
Lapidothstrjitte,18,,,8561DA,Balk,De Fryske Marren,Friesland,VBO,5.584174,52.894425
Lapidothstrjitte,20,,,8561DA,Balk,De Fryske Marren,Friesland,VBO,5.584253,52.894455
Lapidothstrjitte,22,,,8561DA,Balk,De Fryske Marren,Friesland,VBO,5.584334,52.894486
Lapidothstrjitte,24,,,8561DA,Balk,De Fryske Marren,Friesland,VBO,5.584418,52.894517
Lapidothstrjitte,26,,,8561DA,Balk,De Fryske Marren,Friesland,VBO,5.584559,52.894581
Lapidothstrjitte,28,,,8561DA,Balk,De Fryske Marren,Friesland,VBO,5.584639,52.894611
Lapidothstrjitte,11,,,8561DB,Balk,De Fryske Marren,Friesland,VBO,5.583847,52.894883
Lapidothstrjitte,13,,,8561DB,Balk,De Fryske Marren,Friesland,VBO,5.583896,52.894836
Lapidothstrjitte,15,,,8561DB,Balk,De Fryske Marren,Friesland,VBO,5.582874,52.894879
Lapidothstrjitte,17,,,8561DB,Balk,De Fryske Marren,Friesland,VBO,5.583988,52.894748
Lapidothstrjitte,19,,,8561DB,Balk,De Fryske Marren,Friesland,VBO,5.584036,52.894703
Lapidothstrjitte,30,,,8561DB,Balk,De Fryske Marren,Friesland,VBO,5.584720,52.894642
Talma Park,1,T,,8561DD,Balk,De Fryske Marren,Friesland,VBO,5.581999,52.896226
Talma Park,1,,,8561DD,Balk,De Fryske Marren,Friesland,VBO,5.581308,52.895716
Talma Park,2,,,8561DE,Balk,De Fryske Marren,Friesland,VBO,5.581325,52.894943
Talma Park,3,,,8561DE,Balk,De Fryske Marren,Friesland,VBO,5.581473,52.894961
Talma Park,4,,,8561DE,Balk,De Fryske Marren,Friesland,VBO,5.581617,52.894970
Talma Park,5,,,8561DE,Balk,De Fryske Marren,Friesland,VBO,5.581750,52.894886
Talma Park,6,,,8561DE,Balk,De Fryske Marren,Friesland,VBO,5.581818,52.894798
Talma Park,7,,,8561DE,Balk,De Fryske Marren,Friesland,VBO,5.581793,52.894724
Talma Park,8,,,8561DE,Balk,De Fryske Marren,Friesland,VBO,5.581818,52.894620
Talma Park,9,,,8561DE,Balk,De Fryske Marren,Friesland,VBO,5.581841,52.894533
Talma Park,10,,,8561DE,Balk,De Fryske Marren,Friesland,VBO,5.582147,52.894688
Talma Park,11,,,8561DE,Balk,De Fryske Marren,Friesland,VBO,5.582289,52.894706
Talma Park,12,,,8561DE,Balk,De Fryske Marren,Friesland,VBO,5.582437,52.894714
Talma Park,13,,,8561DE,Balk,De Fryske Marren,Friesland,VBO,5.582585,52.894853
Talma Park,14,,,8561DE,Balk,De Fryske Marren,Friesland,VBO,5.582734,52.894866
Talma Park,15,,,8561DE,Balk,De Fryske Marren,Friesland,VBO,5.582874,52.894879
Talma Park,16,,,8561DG,Balk,De Fryske Marren,Friesland,VBO,5.583065,52.895032
Talma Park,17,,,8561DG,Balk,De Fryske Marren,Friesland,VBO,5.583225,52.895048
Talma Park,18,,,8561DG,Balk,De Fryske Marren,Friesland,VBO,5.583357,52.895061
Talma Park,19,,,8561DG,Balk,De Fryske Marren,Friesland,VBO,5.582769,52.895091
Talma Park,20,,,8561DG,Balk,De Fryske Marren,Friesland,VBO,5.582748,52.895167
Talma Park,21,,,8561DG,Balk,De Fryske Marren,Friesland,VBO,5.582729,52.895237
Talma Park,22,,,8561DG,Balk,De Fryske Marren,Friesland,VBO,5.582708,52.895314
Talma Park,23,,,8561DG,Balk,De Fryske Marren,Friesland,VBO,5.582685,52.895396
Talma Park,24,,,8561DG,Balk,De Fryske Marren,Friesland,VBO,5.582664,52.895472
Talma Park,25,,,8561DG,Balk,De Fryske Marren,Friesland,VBO,5.582475,52.895541
Talma Park,26,,,8561DG,Balk,De Fryske Marren,Friesland,VBO,5.582457,52.895615
Talma Park,27,,,8561DG,Balk,De Fryske Marren,Friesland,VBO,5.582438,52.895690
Talma Park,28,,,8561DG,Balk,De Fryske Marren,Friesland,VBO,5.582415,52.895767
Hielkemastrjitte,1,,,8561DH,Balk,De Fryske Marren,Friesland,VBO,5.585502,52.895503
Hielkemastrjitte,2,,,8561DH,Balk,De Fryske Marren,Friesland,VBO,5.585212,52.895136
Hielkemastrjitte,3,,,8561DH,Balk,De Fryske Marren,Friesland,VBO,5.585588,52.895447
Hielkemastrjitte,4,,,8561DH,Balk,De Fryske Marren,Friesland,VBO,5.585267,52.895088
Hielkemastrjitte,5,,,8561DH,Balk,De Fryske Marren,Friesland,VBO,5.585668,52.895387
Hielkemastrjitte,6,,,8561DH,Balk,De Fryske Marren,Friesland,VBO,5.585320,52.895039
Hielkemastrjitte,7,,,8561DH,Balk,De Fryske Marren,Friesland,VBO,5.585690,52.895291
Hielkemastrjitte,8,,,8561DH,Balk,De Fryske Marren,Friesland,VBO,5.585360,52.894987
Hielkemastrjitte,10,,,8561DH,Balk,De Fryske Marren,Friesland,VBO,5.585589,52.894913
Hielkemastrjitte,12,,,8561DH,Balk,De Fryske Marren,Friesland,VBO,5.585672,52.894944
Hielkemastrjitte,14,,,8561DH,Balk,De Fryske Marren,Friesland,VBO,5.585793,52.895018
Hielkemastrjitte,16,,,8561DH,Balk,De Fryske Marren,Friesland,VBO,5.585874,52.895048
Hielkemastrjitte,18,,,8561DH,Balk,De Fryske Marren,Friesland,VBO,5.585954,52.895078
Hielkemastrjitte,20,,,8561DH,Balk,De Fryske Marren,Friesland,VBO,5.586034,52.895107
Hielkemastrjitte,22,,,8561DH,Balk,De Fryske Marren,Friesland,VBO,5.586176,52.895162
Hielkemastrjitte,24,,,8561DH,Balk,De Fryske Marren,Friesland,VBO,5.586256,52.895192
Hielkemastrjitte,26,,,8561DH,Balk,De Fryske Marren,Friesland,VBO,5.586337,52.895222
Hielkemastrjitte,28,,,8561DH,Balk,De Fryske Marren,Friesland,VBO,5.586418,52.895252
Hielkemastrjitte,9,,,8561DJ,Balk,De Fryske Marren,Friesland,VBO,5.586078,52.895447
Hielkemastrjitte,11,,,8561DJ,Balk,De Fryske Marren,Friesland,VBO,5.585971,52.895503
Hielkemastrjitte,13,,,8561DJ,Balk,De Fryske Marren,Friesland,VBO,5.585937,52.895584
Hielkemastrjitte,15,,,8561DJ,Balk,De Fryske Marren,Friesland,VBO,5.585873,52.895650
Hielkemastrjitte,17,,,8561DJ,Balk,De Fryske Marren,Friesland,VBO,5.586301,52.895808
Hielkemastrjitte,19,,,8561DJ,Balk,De Fryske Marren,Friesland,VBO,5.586367,52.895743
Hielkemastrjitte,21,,,8561DJ,Balk,De Fryske Marren,Friesland,VBO,5.586471,52.895691
Hielkemastrjitte,23,,,8561DJ,Balk,De Fryske Marren,Friesland,VBO,5.586500,52.895611
Hielkemastrjitte,30,,,8561DJ,Balk,De Fryske Marren,Friesland,VBO,5.586564,52.895306
Hielkemastrjitte,32,,,8561DJ,Balk,De Fryske Marren,Friesland,VBO,5.586644,52.895336
Hielkemastrjitte,34,,,8561DJ,Balk,De Fryske Marren,Friesland,VBO,5.586723,52.895365
Hielkemastrjitte,36,,,8561DJ,Balk,De Fryske Marren,Friesland,VBO,5.586804,52.895396
Hielkemastrjitte,38,,,8561DJ,Balk,De Fryske Marren,Friesland,VBO,5.586939,52.895481
Hielkemastrjitte,40,,,8561DJ,Balk,De Fryske Marren,Friesland,VBO,5.587034,52.895483
Hielkemastrjitte,42,,,8561DJ,Balk,De Fryske Marren,Friesland,VBO,5.587116,52.895537
Schwartzenbergstrjitte,1,,,8561DK,Balk,De Fryske Marren,Friesland,VBO,5.587348,52.895932
Schwartzenbergstrjitte,2,,,8561DK,Balk,De Fryske Marren,Friesland,VBO,5.586679,52.895942
Schwartzenbergstrjitte,3,,,8561DK,Balk,De Fryske Marren,Friesland,VBO,5.587397,52.895884
Schwartzenbergstrjitte,4,,,8561DK,Balk,De Fryske Marren,Friesland,VBO,5.586763,52.895859
Schwartzenbergstrjitte,5,,,8561DK,Balk,De Fryske Marren,Friesland,VBO,5.587448,52.895833
Schwartzenbergstrjitte,6,,,8561DK,Balk,De Fryske Marren,Friesland,VBO,5.586777,52.895796
Schwartzenbergstrjitte,7,,,8561DK,Balk,De Fryske Marren,Friesland,VBO,5.587559,52.895723
Schwartzenbergstrjitte,8,,,8561DK,Balk,De Fryske Marren,Friesland,VBO,5.586881,52.895744
Schwartzenbergstrjitte,9,,,8561DK,Balk,De Fryske Marren,Friesland,VBO,5.587611,52.895673
Schwartzenbergstrjitte,10,,,8561DK,Balk,De Fryske Marren,Friesland,VBO,5.587321,52.895355
Schwartzenbergstrjitte,11,,,8561DK,Balk,De Fryske Marren,Friesland,VBO,5.587867,52.895541
Schwartzenbergstrjitte,12,,,8561DK,Balk,De Fryske Marren,Friesland,VBO,5.587366,52.895311
Schwartzenbergstrjitte,13,,,8561DK,Balk,De Fryske Marren,Friesland,VBO,5.587902,52.895506
Schwartzenbergstrjitte,14,,,8561DK,Balk,De Fryske Marren,Friesland,VBO,5.587479,52.895280
Schwartzenbergstrjitte,15,,,8561DK,Balk,De Fryske Marren,Friesland,VBO,5.588025,52.895418
Schwartzenbergstrjitte,16,,,8561DK,Balk,De Fryske Marren,Friesland,VBO,5.587487,52.895234
Schwartzenbergstrjitte,17,,,8561DK,Balk,De Fryske Marren,Friesland,VBO,5.588064,52.895378
Schwartzenbergstrjitte,19,,,8561DK,Balk,De Fryske Marren,Friesland,VBO,5.588168,52.895272
Schwartzenbergstrjitte,21,,,8561DK,Balk,De Fryske Marren,Friesland,VBO,5.588216,52.895226
Wieberen van der Heideplein,1,,,8561DL,Balk,De Fryske Marren,Friesland,VBO,5.586135,52.896294
Wieberen van der Heideplein,2,,,8561DL,Balk,De Fryske Marren,Friesland,VBO,5.586855,52.896331
Wieberen van der Heideplein,3,,,8561DL,Balk,De Fryske Marren,Friesland,VBO,5.586077,52.896351
Wieberen van der Heideplein,4,,,8561DL,Balk,De Fryske Marren,Friesland,VBO,5.586776,52.896408
Wieberen van der Heideplein,5,,,8561DL,Balk,De Fryske Marren,Friesland,VBO,5.586023,52.896405
Wieberen van der Heideplein,6,,,8561DL,Balk,De Fryske Marren,Friesland,VBO,5.586738,52.896446
Wieberen van der Heideplein,7,,,8561DL,Balk,De Fryske Marren,Friesland,VBO,5.585895,52.896486
Wieberen van der Heideplein,8,,,8561DL,Balk,De Fryske Marren,Friesland,VBO,5.586679,52.896501
Wieberen van der Heideplein,9,,,8561DL,Balk,De Fryske Marren,Friesland,VBO,5.585839,52.896542
Wieberen van der Heideplein,10,,,8561DL,Balk,De Fryske Marren,Friesland,VBO,5.586619,52.896560
Wieberen van der Heideplein,11,,,8561DL,Balk,De Fryske Marren,Friesland,VBO,5.585781,52.896600
Wieberen van der Heideplein,12,,,8561DL,Balk,De Fryske Marren,Friesland,VBO,5.586487,52.896640
Wieberen van der Heideplein,13,,,8561DL,Balk,De Fryske Marren,Friesland,VBO,5.585726,52.896653
Wieberen van der Heideplein,14,,,8561DL,Balk,De Fryske Marren,Friesland,VBO,5.586431,52.896695
Wieberen van der Heideplein,16,,,8561DL,Balk,De Fryske Marren,Friesland,VBO,5.586374,52.896749
Wieberen van der Heideplein,18,,,8561DL,Balk,De Fryske Marren,Friesland,VBO,5.586319,52.896804
Wieberen van der Heideplein,20,,,8561DL,Balk,De Fryske Marren,Friesland,VBO,5.586265,52.896859
Bosmastrjitte,1,,,8561DM,Balk,De Fryske Marren,Friesland,VBO,5.588220,52.896277
Bosmastrjitte,2,,,8561DM,Balk,De Fryske Marren,Friesland,VBO,5.587728,52.896074
Bosmastrjitte,3,,,8561DM,Balk,De Fryske Marren,Friesland,VBO,5.588353,52.896125
Bosmastrjitte,4,,,8561DM,Balk,De Fryske Marren,Friesland,VBO,5.587798,52.896021
Bosmastrjitte,5,,,8561DM,Balk,De Fryske Marren,Friesland,VBO,5.588496,52.896004
Bosmastrjitte,6,,,8561DM,Balk,De Fryske Marren,Friesland,VBO,5.587830,52.895975
Bosmastrjitte,7,,,8561DM,Balk,De Fryske Marren,Friesland,VBO,5.588766,52.895819
Bosmastrjitte,8,,,8561DM,Balk,De Fryske Marren,Friesland,VBO,5.587942,52.895865
Bosmastrjitte,9,,,8561DM,Balk,De Fryske Marren,Friesland,VBO,5.588960,52.895694
Bosmastrjitte,10,,,8561DM,Balk,De Fryske Marren,Friesland,VBO,5.587989,52.895819
Bosmastrjitte,11,,,8561DM,Balk,De Fryske Marren,Friesland,VBO,5.589480,52.895235
Bosmastrjitte,12,,,8561DM,Balk,De Fryske Marren,Friesland,VBO,5.588203,52.895685
Bosmastrjitte,13,,,8561DM,Balk,De Fryske Marren,Friesland,VBO,5.589026,52.895190
Bosmastrjitte,14,,,8561DM,Balk,De Fryske Marren,Friesland,VBO,5.588253,52.895641
Bosmastrjitte,15,,,8561DM,Balk,De Fryske Marren,Friesland,VBO,5.588767,52.895101
Bosmastrjitte,16,,,8561DM,Balk,De Fryske Marren,Friesland,VBO,5.588437,52.895580
Bosmastrjitte,17,,,8561DM,Balk,De Fryske Marren,Friesland,VBO,5.588567,52.894997
Bosmastrjitte,18,,,8561DM,Balk,De Fryske Marren,Friesland,VBO,5.588491,52.895528
Bosmastrjitte,19,,,8561DM,Balk,De Fryske Marren,Friesland,VBO,5.588389,52.894932
Bosmastrjitte,20,,,8561DM,Balk,De Fryske Marren,Friesland,VBO,5.588608,52.895426
Bosmastrjitte,21,,,8561DM,Balk,De Fryske Marren,Friesland,VBO,5.588111,52.894835
Bosmastrjitte,22,,,8561DM,Balk,De Fryske Marren,Friesland,VBO,5.588656,52.895378
Bosmastrjitte,23,,,8561DM,Balk,De Fryske Marren,Friesland,VBO,5.588008,52.894830
Bosmastrjitte,25,,,8561DM,Balk,De Fryske Marren,Friesland,VBO,5.587900,52.894819
Bosmastrjitte,26,,,8561DM,Balk,De Fryske Marren,Friesland,VBO,5.587711,52.895116
Bosmastrjitte,27,,,8561DM,Balk,De Fryske Marren,Friesland,VBO,5.587816,52.894788
Bosmastrjitte,28,,,8561DM,Balk,De Fryske Marren,Friesland,VBO,5.587635,52.895066
Bosmastrjitte,29,,,8561DM,Balk,De Fryske Marren,Friesland,VBO,5.587757,52.894737
Bosmastrjitte,30,,,8561DM,Balk,De Fryske Marren,Friesland,VBO,5.587543,52.895033
Bosmastrjitte,32,,,8561DM,Balk,De Fryske Marren,Friesland,VBO,5.587458,52.894991
Bosmastrjitte,34,,,8561DM,Balk,De Fryske Marren,Friesland,VBO,5.587295,52.894894
Bosmastrjitte,36,,,8561DM,Balk,De Fryske Marren,Friesland,VBO,5.587220,52.894876
Bosmastrjitte,38,,,8561DM,Balk,De Fryske Marren,Friesland,VBO,5.587253,52.894941
Bosmastrjitte,40,,,8561DM,Balk,De Fryske Marren,Friesland,VBO,5.587178,52.894927
Bosmastrjitte,42,,,8561DM,Balk,De Fryske Marren,Friesland,VBO,5.587198,52.894971
Bosmastrjitte,44,,,8561DM,Balk,De Fryske Marren,Friesland,VBO,5.587137,52.894965
Bosmastrjitte,46,,,8561DM,Balk,De Fryske Marren,Friesland,VBO,5.587145,52.895028
Bosmastrjitte,48,,,8561DM,Balk,De Fryske Marren,Friesland,VBO,5.587092,52.895004
Siemen de Jongstrjitte,1,,,8561DN,Balk,De Fryske Marren,Friesland,VBO,5.582790,52.893677
Siemen de Jongstrjitte,3,,,8561DN,Balk,De Fryske Marren,Friesland,VBO,5.582916,52.893589
Siemen de Jongstrjitte,5,,,8561DN,Balk,De Fryske Marren,Friesland,VBO,5.583046,52.893499
Siemen de Jongstrjitte,7,,,8561DN,Balk,De Fryske Marren,Friesland,VBO,5.583431,52.893463
Siemen de Jongstrjitte,9,,,8561DN,Balk,De Fryske Marren,Friesland,VBO,5.583602,52.893527
Siemen de Jongstrjitte,11,,,8561DN,Balk,De Fryske Marren,Friesland,VBO,5.583928,52.893653
Siemen de Jongstrjitte,13,,,8561DN,Balk,De Fryske Marren,Friesland,VBO,5.584093,52.893716
Siemen de Jongstrjitte,2,,,8561DP,Balk,De Fryske Marren,Friesland,VBO,5.581371,52.894065
Siemen de Jongstrjitte,4,,,8561DP,Balk,De Fryske Marren,Friesland,VBO,5.581501,52.893555
Siemen de Jongstrjitte,6,,,8561DP,Balk,De Fryske Marren,Friesland,VBO,5.583403,52.893071
Siemen de Jongstrjitte,8,,,8561DP,Balk,De Fryske Marren,Friesland,VBO,5.583605,52.893146
Siemen de Jongstrjitte,10,,,8561DP,Balk,De Fryske Marren,Friesland,VBO,5.583814,52.893216
Siemen de Jongstrjitte,12,,,8561DP,Balk,De Fryske Marren,Friesland,VBO,5.584023,52.893299
Siemen de Jongstrjitte,14,,,8561DP,Balk,De Fryske Marren,Friesland,VBO,5.584275,52.893377
Siemen de Jongstrjitte,16,,,8561DP,Balk,De Fryske Marren,Friesland,VBO,5.584516,52.893477
Jelle Wissesstrjitte,1,,,8561DR,Balk,De Fryske Marren,Friesland,VBO,5.583085,52.894586
Jelle Wissesstrjitte,3,,,8561DR,Balk,De Fryske Marren,Friesland,VBO,5.583133,52.894541
Jelle Wissesstrjitte,5,,,8561DR,Balk,De Fryske Marren,Friesland,VBO,5.583182,52.894494
Jelle Wissesstrjitte,7,,,8561DR,Balk,De Fryske Marren,Friesland,VBO,5.583227,52.894450
Jelle Wissesstrjitte,9,,,8561DR,Balk,De Fryske Marren,Friesland,VBO,5.583274,52.894406
Jelle Wissesstrjitte,11,,,8561DR,Balk,De Fryske Marren,Friesland,VBO,5.583641,52.894006
Jelle Wissesstrjitte,13,,,8561DR,Balk,De Fryske Marren,Friesland,VBO,5.583744,52.893910
Jelle Wissesstrjitte,15,,,8561DR,Balk,De Fryske Marren,Friesland,VBO,5.583909,52.893834
Jelle Wissesstrjitte,2,,,8561DS,Balk,De Fryske Marren,Friesland,VBO,5.582709,52.894341
Jelle Wissesstrjitte,4,,,8561DS,Balk,De Fryske Marren,Friesland,VBO,5.582813,52.894305
Jelle Wissesstrjitte,6,,,8561DS,Balk,De Fryske Marren,Friesland,VBO,5.582868,52.894258
Jelle Wissesstrjitte,8,,,8561DS,Balk,De Fryske Marren,Friesland,VBO,5.582910,52.894211
Jelle Wissesstrjitte,10,,,8561DS,Balk,De Fryske Marren,Friesland,VBO,5.582968,52.894167
Jelle Wissesstrjitte,12,A,,8561DS,Balk,De Fryske Marren,Friesland,VBO,5.583039,52.894021
Jelle Wissesstrjitte,12,B,,8561DS,Balk,De Fryske Marren,Friesland,VBO,5.582998,52.894007
Jelle Wissesstrjitte,12,C,,8561DS,Balk,De Fryske Marren,Friesland,VBO,5.582950,52.894008
Jelle Wissesstrjitte,12,D,,8561DS,Balk,De Fryske Marren,Friesland,VBO,5.582918,52.893979
Jelle Wissesstrjitte,12,E,,8561DS,Balk,De Fryske Marren,Friesland,VBO,5.582999,52.893900
Jelle Wissesstrjitte,12,F,,8561DS,Balk,De Fryske Marren,Friesland,VBO,5.583041,52.893911
Jelle Wissesstrjitte,12,G,,8561DS,Balk,De Fryske Marren,Friesland,VBO,5.583076,52.893930
Jelle Wissesstrjitte,12,H,,8561DS,Balk,De Fryske Marren,Friesland,VBO,5.583118,52.893941
Jelle Wissesstrjitte,12,,,8561DS,Balk,De Fryske Marren,Friesland,VBO,5.583003,52.894113
Jelle Wissesstrjitte,14,,,8561DS,Balk,De Fryske Marren,Friesland,VBO,5.583134,52.893817
Jelle Wissesstrjitte,16,,,8561DS,Balk,De Fryske Marren,Friesland,VBO,5.583285,52.893730
Jelle Wissesstrjitte,18,,,8561DS,Balk,De Fryske Marren,Friesland,VBO,5.583403,52.893642
It Bjirkenbosk,1,,,8561DT,Balk,De Fryske Marren,Friesland,VBO,5.582955,52.892986
It Bjirkenbosk,2,,,8561DT,Balk,De Fryske Marren,Friesland,VBO,5.582247,52.893342
It Bjirkenbosk,3,,,8561DT,Balk,De Fryske Marren,Friesland,VBO,5.582664,52.892882
It Bjirkenbosk,4,,,8561DT,Balk,De Fryske Marren,Friesland,VBO,5.582040,52.893277
It Bjirkenbosk,5,,,8561DT,Balk,De Fryske Marren,Friesland,VBO,5.582372,52.892690
It Bjirkenbosk,6,,,8561DT,Balk,De Fryske Marren,Friesland,VBO,5.581718,52.893154
It Bjirkenbosk,7,,,8561DT,Balk,De Fryske Marren,Friesland,VBO,5.582082,52.892875
It Bjirkenbosk,8,,,8561DT,Balk,De Fryske Marren,Friesland,VBO,5.581321,52.893083
It Bjirkenbosk,9,,,8561DT,Balk,De Fryske Marren,Friesland,VBO,5.581665,52.892658
It Bjirkenbosk,10,,,8561DT,Balk,De Fryske Marren,Friesland,VBO,5.580917,52.892908
It Bjirkenbosk,11,,,8561DT,Balk,De Fryske Marren,Friesland,VBO,5.581833,52.892478
It Bjirkenbosk,12,,,8561DT,Balk,De Fryske Marren,Friesland,VBO,5.580789,52.892593
It Bjirkenbosk,13,,,8561DT,Balk,De Fryske Marren,Friesland,VBO,5.581309,52.892291
Sate Steenbergenstrjitte,1,,,8561DV,Balk,De Fryske Marren,Friesland,VBO,5.585104,52.893815
Sate Steenbergenstrjitte,3,,,8561DV,Balk,De Fryske Marren,Friesland,VBO,5.585379,52.893890
Sate Steenbergenstrjitte,5,,,8561DV,Balk,De Fryske Marren,Friesland,VBO,5.585606,52.893993
Sate Steenbergenstrjitte,9,,,8561DV,Balk,De Fryske Marren,Friesland,VBO,5.585764,52.894058
Sate Steenbergenstrjitte,11,,,8561DV,Balk,De Fryske Marren,Friesland,VBO,5.585843,52.894078
Sate Steenbergenstrjitte,17,T,,8561DV,Balk,De Fryske Marren,Friesland,VBO,5.590489,52.895190
Sate Steenbergenstrjitte,2,,,8561DW,Balk,De Fryske Marren,Friesland,VBO,5.586353,52.893929
Sate Steenbergenstrjitte,4,,,8561DW,Balk,De Fryske Marren,Friesland,VBO,5.586395,52.893888
Sate Steenbergenstrjitte,6,,,8561DW,Balk,De Fryske Marren,Friesland,VBO,5.586449,52.893848
Sate Steenbergenstrjitte,8,,,8561DW,Balk,De Fryske Marren,Friesland,VBO,5.586481,52.893803
Sate Steenbergenstrjitte,10,,,8561DW,Balk,De Fryske Marren,Friesland,VBO,5.586823,52.893806
Sate Steenbergenstrjitte,12,,,8561DW,Balk,De Fryske Marren,Friesland,VBO,5.586892,52.893832
Sate Steenbergenstrjitte,13,,,8561DW,Balk,De Fryske Marren,Friesland,VBO,5.589673,52.895050
Sate Steenbergenstrjitte,14,,,8561DW,Balk,De Fryske Marren,Friesland,VBO,5.586954,52.893864
Sate Steenbergenstrjitte,15,,,8561DW,Balk,De Fryske Marren,Friesland,VBO,5.590088,52.895146
Sate Steenbergenstrjitte,16,,,8561DW,Balk,De Fryske Marren,Friesland,VBO,5.587031,52.893884
Sate Steenbergenstrjitte,18,,,8561DW,Balk,De Fryske Marren,Friesland,VBO,5.587193,52.893946
Sate Steenbergenstrjitte,20,,,8561DW,Balk,De Fryske Marren,Friesland,VBO,5.587244,52.893984
Sate Steenbergenstrjitte,22,,,8561DW,Balk,De Fryske Marren,Friesland,VBO,5.587318,52.894003
Sate Steenbergenstrjitte,24,A,,8561DW,Balk,De Fryske Marren,Friesland,VBO,5.587491,52.893975
Sate Steenbergenstrjitte,24,,,8561DW,Balk,De Fryske Marren,Friesland,VBO,5.587395,52.894022
Sate Steenbergenstrjitte,26,,,8561DW,Balk,De Fryske Marren,Friesland,VBO,5.587835,52.894162
Sate Steenbergenstrjitte,28,,,8561DW,Balk,De Fryske Marren,Friesland,VBO,5.587902,52.894188
Sate Steenbergenstrjitte,30,,,8561DW,Balk,De Fryske Marren,Friesland,VBO,5.588123,52.894294
Sate Steenbergenstrjitte,32,,,8561DW,Balk,De Fryske Marren,Friesland,VBO,5.588190,52.894320
Sate Steenbergenstrjitte,34,,,8561DW,Balk,De Fryske Marren,Friesland,VBO,5.588437,52.894414
Sate Steenbergenstrjitte,36,,,8561DW,Balk,De Fryske Marren,Friesland,VBO,5.588480,52.894474
Sate Steenbergenstrjitte,38,,,8561DW,Balk,De Fryske Marren,Friesland,VBO,5.588785,52.894543
Sate Steenbergenstrjitte,40,,,8561DW,Balk,De Fryske Marren,Friesland,VBO,5.588841,52.894565
Sate Steenbergenstrjitte,42,,,8561DW,Balk,De Fryske Marren,Friesland,VBO,5.589004,52.894627
Sate Steenbergenstrjitte,44,,,8561DW,Balk,De Fryske Marren,Friesland,VBO,5.589057,52.894647
Sate Steenbergenstrjitte,46,,,8561DW,Balk,De Fryske Marren,Friesland,VBO,5.589309,52.894734
Sate Steenbergenstrjitte,48,,,8561DW,Balk,De Fryske Marren,Friesland,VBO,5.590772,52.895027
Sate Steenbergenstrjitte,50,,,8561DW,Balk,De Fryske Marren,Friesland,VBO,5.591104,52.895177
Sate Steenbergenstrjitte,52,,,8561DW,Balk,De Fryske Marren,Friesland,VBO,5.591339,52.895267
Bauke Boersmastrjitte,1,,,8561DX,Balk,De Fryske Marren,Friesland,VBO,5.587143,52.894413
Bauke Boersmastrjitte,2,,,8561DX,Balk,De Fryske Marren,Friesland,VBO,5.587616,52.894522
Bauke Boersmastrjitte,3,,,8561DX,Balk,De Fryske Marren,Friesland,VBO,5.587093,52.894461
Bauke Boersmastrjitte,4,,,8561DX,Balk,De Fryske Marren,Friesland,VBO,5.587561,52.894576
Bauke Boersmastrjitte,5,,,8561DX,Balk,De Fryske Marren,Friesland,VBO,5.586940,52.894578
Bauke Boersmastrjitte,6,,,8561DX,Balk,De Fryske Marren,Friesland,VBO,5.587533,52.894637
Bauke Boersmastrjitte,7,,,8561DX,Balk,De Fryske Marren,Friesland,VBO,5.586856,52.894733
Bauke Boersmastrjitte,8,,,8561DX,Balk,De Fryske Marren,Friesland,VBO,5.587479,52.894692
Bauke Boersmastrjitte,9,,,8561DX,Balk,De Fryske Marren,Friesland,VBO,5.586779,52.894704
Bauke Boersmastrjitte,10,,,8561DX,Balk,De Fryske Marren,Friesland,VBO,5.586864,52.895096
Bauke Boersmastrjitte,11,,,8561DX,Balk,De Fryske Marren,Friesland,VBO,5.586703,52.894675
Bauke Boersmastrjitte,12,,,8561DX,Balk,De Fryske Marren,Friesland,VBO,5.586784,52.895066
Bauke Boersmastrjitte,13,,,8561DX,Balk,De Fryske Marren,Friesland,VBO,5.586410,52.894635
Bauke Boersmastrjitte,14,,,8561DX,Balk,De Fryske Marren,Friesland,VBO,5.586736,52.895048
Bauke Boersmastrjitte,15,,,8561DX,Balk,De Fryske Marren,Friesland,VBO,5.586456,52.894590
Bauke Boersmastrjitte,16,,,8561DX,Balk,De Fryske Marren,Friesland,VBO,5.586663,52.895032
Bauke Boersmastrjitte,17,,,8561DX,Balk,De Fryske Marren,Friesland,VBO,5.586518,52.894550
Bauke Boersmastrjitte,18,,,8561DX,Balk,De Fryske Marren,Friesland,VBO,5.586548,52.895000
Bauke Boersmastrjitte,19,,,8561DX,Balk,De Fryske Marren,Friesland,VBO,5.586580,52.894510
Bauke Boersmastrjitte,20,,,8561DX,Balk,De Fryske Marren,Friesland,VBO,5.586387,52.894946
Bauke Boersmastrjitte,21,,,8561DX,Balk,De Fryske Marren,Friesland,VBO,5.586625,52.894388
Bauke Boersmastrjitte,22,,,8561DX,Balk,De Fryske Marren,Friesland,VBO,5.586298,52.894900
Bauke Boersmastrjitte,23,,,8561DX,Balk,De Fryske Marren,Friesland,VBO,5.586669,52.894345
Bauke Boersmastrjitte,24,,,8561DX,Balk,De Fryske Marren,Friesland,VBO,5.586230,52.894860
Bauke Boersmastrjitte,25,,,8561DX,Balk,De Fryske Marren,Friesland,VBO,5.586715,52.894299
Bauke Boersmastrjitte,26,,,8561DX,Balk,De Fryske Marren,Friesland,VBO,5.586152,52.894831
Bauke Boersmastrjitte,28,,,8561DX,Balk,De Fryske Marren,Friesland,VBO,5.586095,52.894808
Bauke Boersmastrjitte,30,,,8561DX,Balk,De Fryske Marren,Friesland,VBO,5.586018,52.894780
Minne Jeltesstrjitte,2,,,8561DZ,Balk,De Fryske Marren,Friesland,VBO,5.584245,52.895032
Minne Jeltesstrjitte,4,,,8561DZ,Balk,De Fryske Marren,Friesland,VBO,5.584294,52.894986
Minne Jeltesstrjitte,6,,,8561DZ,Balk,De Fryske Marren,Friesland,VBO,5.584343,52.894939
Minne Jeltesstrjitte,8,,,8561DZ,Balk,De Fryske Marren,Friesland,VBO,5.584394,52.894891
Minne Jeltesstrjitte,10,,,8561DZ,Balk,De Fryske Marren,Friesland,VBO,5.584434,52.894854
Minne Jeltesstrjitte,12,,,8561DZ,Balk,De Fryske Marren,Friesland,VBO,5.584877,52.894390
Minne Jeltesstrjitte,14,,,8561DZ,Balk,De Fryske Marren,Friesland,VBO,5.584792,52.894357
Minne Jeltesstrjitte,16,,,8561DZ,Balk,De Fryske Marren,Friesland,VBO,5.584635,52.894299
Minne Jeltesstrjitte,18,,,8561DZ,Balk,De Fryske Marren,Friesland,VBO,5.584552,52.894268
Minne Jeltesstrjitte,20,,,8561DZ,Balk,De Fryske Marren,Friesland,VBO,5.584410,52.894176
Minne Jeltesstrjitte,22,,,8561DZ,Balk,De Fryske Marren,Friesland,VBO,5.584351,52.894129
Minne Jeltesstrjitte,24,,,8561DZ,Balk,De Fryske Marren,Friesland,VBO,5.584260,52.894019
Minne Jeltesstrjitte,26,,,8561DZ,Balk,De Fryske Marren,Friesland,VBO,5.584262,52.893959
Minne Jeltesstrjitte,28,,,8561DZ,Balk,De Fryske Marren,Friesland,VBO,5.584290,52.893792
De Timpe,1,,,8561EA,Balk,De Fryske Marren,Friesland,VBO,5.577599,52.898103
De Timpe,3,,,8561EA,Balk,De Fryske Marren,Friesland,VBO,5.577537,52.898146
De Timpe,5,,,8561EA,Balk,De Fryske Marren,Friesland,VBO,5.577477,52.898189
De Timpe,7,,,8561EA,Balk,De Fryske Marren,Friesland,VBO,5.577437,52.898241
De Timpe,9,,,8561EA,Balk,De Fryske Marren,Friesland,VBO,5.577377,52.898284
De Timpe,11,,,8561EA,Balk,De Fryske Marren,Friesland,VBO,5.577311,52.898321
De Timpe,13,,,8561EA,Balk,De Fryske Marren,Friesland,VBO,5.577199,52.898383
De Timpe,15,,,8561EA,Balk,De Fryske Marren,Friesland,VBO,5.577139,52.898425
De Timpe,17,,,8561EA,Balk,De Fryske Marren,Friesland,VBO,5.577079,52.898467
De Timpe,19,,,8561EA,Balk,De Fryske Marren,Friesland,VBO,5.577019,52.898509
De Timpe,21,,,8561EA,Balk,De Fryske Marren,Friesland,VBO,5.576949,52.898590
De Timpe,23,,,8561EA,Balk,De Fryske Marren,Friesland,VBO,5.576887,52.898634
De Timpe,25,,,8561EA,Balk,De Fryske Marren,Friesland,VBO,5.576827,52.898676
De Timpe,27,,,8561EA,Balk,De Fryske Marren,Friesland,VBO,5.576770,52.898717
De Timpe,29,,,8561EA,Balk,De Fryske Marren,Friesland,VBO,5.576646,52.898770
De Timpe,31,,,8561EA,Balk,De Fryske Marren,Friesland,VBO,5.576589,52.898810
De Timpe,33,,,8561EA,Balk,De Fryske Marren,Friesland,VBO,5.576529,52.898853
De Timpe,35,,,8561EA,Balk,De Fryske Marren,Friesland,VBO,5.576469,52.898895
De Timpe,37,,,8561EA,Balk,De Fryske Marren,Friesland,VBO,5.576402,52.898977
De Timpe,39,,,8561EA,Balk,De Fryske Marren,Friesland,VBO,5.576343,52.899020
De Timpe,41,,,8561EA,Balk,De Fryske Marren,Friesland,VBO,5.576284,52.899061
De Timpe,43,,,8561EA,Balk,De Fryske Marren,Friesland,VBO,5.576224,52.899104
De Timpe,45,,,8561EA,Balk,De Fryske Marren,Friesland,VBO,5.576045,52.899542
De Timpe,47,,,8561EA,Balk,De Fryske Marren,Friesland,VBO,5.576103,52.899589
De Timpe,49,,,8561EA,Balk,De Fryske Marren,Friesland,VBO,5.576179,52.899619
De Timpe,51,,,8561EA,Balk,De Fryske Marren,Friesland,VBO,5.576273,52.899642
De Timpe,53,,,8561EA,Balk,De Fryske Marren,Friesland,VBO,5.575853,52.899948
De Timpe,2,,,8561EB,Balk,De Fryske Marren,Friesland,VBO,5.577882,52.898595
De Timpe,4,,,8561EB,Balk,De Fryske Marren,Friesland,VBO,5.577828,52.898633
De Timpe,6,,,8561EB,Balk,De Fryske Marren,Friesland,VBO,5.577776,52.898671
De Timpe,8,,,8561EB,Balk,De Fryske Marren,Friesland,VBO,5.577677,52.898743
De Timpe,10,,,8561EB,Balk,De Fryske Marren,Friesland,VBO,5.577615,52.898787
De Timpe,12,,,8561EB,Balk,De Fryske Marren,Friesland,VBO,5.577041,52.899166
De Timpe,14,,,8561EB,Balk,De Fryske Marren,Friesland,VBO,5.576987,52.899205
De Timpe,16,,,8561EB,Balk,De Fryske Marren,Friesland,VBO,5.576933,52.899243
De Timpe,18,,,8561EB,Balk,De Fryske Marren,Friesland,VBO,5.576878,52.899281
De Timpe,20,,,8561EB,Balk,De Fryske Marren,Friesland,VBO,5.576836,52.899327
De Timpe,22,,,8561EB,Balk,De Fryske Marren,Friesland,VBO,5.576795,52.899372
De Timpe,24,,,8561EB,Balk,De Fryske Marren,Friesland,VBO,5.576743,52.899410
De Warren,1,,,8561EC,Balk,De Fryske Marren,Friesland,VBO,5.578051,52.898421
De Warren,3,,,8561EC,Balk,De Fryske Marren,Friesland,VBO,5.578110,52.898451
De Warren,5,,,8561EC,Balk,De Fryske Marren,Friesland,VBO,5.578170,52.898483
De Warren,7,,,8561EC,Balk,De Fryske Marren,Friesland,VBO,5.578234,52.898515
De Warren,9,,,8561EC,Balk,De Fryske Marren,Friesland,VBO,5.578325,52.898606
De Warren,11,,,8561EC,Balk,De Fryske Marren,Friesland,VBO,5.578395,52.898652
De Warren,13,,,8561EC,Balk,De Fryske Marren,Friesland,VBO,5.578505,52.898696
De Warren,15,,,8561EC,Balk,De Fryske Marren,Friesland,VBO,5.578567,52.898731
De Warren,17,,,8561EC,Balk,De Fryske Marren,Friesland,VBO,5.578730,52.898769
De Warren,19,,,8561EC,Balk,De Fryske Marren,Friesland,VBO,5.578791,52.898801
De Warren,21,,,8561EC,Balk,De Fryske Marren,Friesland,VBO,5.578853,52.898833
De Warren,23,,,8561EC,Balk,De Fryske Marren,Friesland,VBO,5.578914,52.898865
De Warren,25,,,8561EC,Balk,De Fryske Marren,Friesland,VBO,5.580051,52.899291
De Warren,27,,,8561EC,Balk,De Fryske Marren,Friesland,VBO,5.580121,52.899327
De Warren,29,,,8561EC,Balk,De Fryske Marren,Friesland,VBO,5.580190,52.899363
De Warren,31,,,8561EC,Balk,De Fryske Marren,Friesland,VBO,5.580258,52.899399
De Warren,33,,,8561EC,Balk,De Fryske Marren,Friesland,VBO,5.581104,52.899840
De Warren,35,,,8561EC,Balk,De Fryske Marren,Friesland,VBO,5.581171,52.899876
De Warren,37,,,8561EC,Balk,De Fryske Marren,Friesland,VBO,5.581240,52.899911
De Warren,39,,,8561EC,Balk,De Fryske Marren,Friesland,VBO,5.581308,52.899947
De Warren,41,,,8561EC,Balk,De Fryske Marren,Friesland,VBO,5.581462,52.900009
De Warren,43,,,8561EC,Balk,De Fryske Marren,Friesland,VBO,5.581555,52.899979
De Warren,45,,,8561EC,Balk,De Fryske Marren,Friesland,VBO,5.581662,52.899988
De Warren,47,,,8561EC,Balk,De Fryske Marren,Friesland,VBO,5.581735,52.899995
De Warren,49,,,8561EC,Balk,De Fryske Marren,Friesland,VBO,5.581819,52.900002
De Warren,51,,,8561EC,Balk,De Fryske Marren,Friesland,VBO,5.581815,52.900038
De Warren,53,,,8561EC,Balk,De Fryske Marren,Friesland,VBO,5.581912,52.900055
De Warren,55,,,8561EC,Balk,De Fryske Marren,Friesland,VBO,5.581924,52.900025
De Warren,2,,,8561ED,Balk,De Fryske Marren,Friesland,VBO,5.577929,52.897961
De Warren,4,,,8561ED,Balk,De Fryske Marren,Friesland,VBO,5.577988,52.897920
De Warren,6,,,8561ED,Balk,De Fryske Marren,Friesland,VBO,5.578048,52.897877
De Warren,8,,,8561ED,Balk,De Fryske Marren,Friesland,VBO,5.578186,52.898117
De Warren,10,,,8561ED,Balk,De Fryske Marren,Friesland,VBO,5.578239,52.898080
De Warren,12,,,8561ED,Balk,De Fryske Marren,Friesland,VBO,5.578297,52.898039
De Warren,14,,,8561ED,Balk,De Fryske Marren,Friesland,VBO,5.578358,52.897995
De Warren,16,,,8561ED,Balk,De Fryske Marren,Friesland,VBO,5.578471,52.898249
De Warren,18,,,8561ED,Balk,De Fryske Marren,Friesland,VBO,5.578530,52.898207
De Warren,20,,,8561ED,Balk,De Fryske Marren,Friesland,VBO,5.578588,52.898166
De Warren,22,,,8561ED,Balk,De Fryske Marren,Friesland,VBO,5.578726,52.898408
De Warren,24,,,8561ED,Balk,De Fryske Marren,Friesland,VBO,5.578787,52.898367
De Warren,26,,,8561ED,Balk,De Fryske Marren,Friesland,VBO,5.578847,52.898324
De Warren,28,,,8561ED,Balk,De Fryske Marren,Friesland,VBO,5.578907,52.898281
De Warren,30,,,8561ED,Balk,De Fryske Marren,Friesland,VBO,5.581442,52.899516
De Warren,32,,,8561ED,Balk,De Fryske Marren,Friesland,VBO,5.581507,52.899550
De Warren,34,,,8561ED,Balk,De Fryske Marren,Friesland,VBO,5.581639,52.899620
De Warren,36,,,8561ED,Balk,De Fryske Marren,Friesland,VBO,5.581706,52.899656
De Warren,38,,,8561ED,Balk,De Fryske Marren,Friesland,VBO,5.581909,52.899672
De Warren,40,,,8561ED,Balk,De Fryske Marren,Friesland,VBO,5.581975,52.899707
De Finne,1,,,8561EE,Balk,De Fryske Marren,Friesland,VBO,5.579349,52.898202
De Finne,3,,,8561EE,Balk,De Fryske Marren,Friesland,VBO,5.579287,52.898247
De Finne,5,,,8561EE,Balk,De Fryske Marren,Friesland,VBO,5.579227,52.898290
De Finne,7,,,8561EE,Balk,De Fryske Marren,Friesland,VBO,5.579167,52.898332
De Finne,9,,,8561EE,Balk,De Fryske Marren,Friesland,VBO,5.579123,52.898434
De Finne,11,,,8561EE,Balk,De Fryske Marren,Friesland,VBO,5.579058,52.898480
De Finne,13,,,8561EE,Balk,De Fryske Marren,Friesland,VBO,5.578998,52.898523
De Binge,1,,,8561EG,Balk,De Fryske Marren,Friesland,VBO,5.578256,52.897660
De Binge,3,,,8561EG,Balk,De Fryske Marren,Friesland,VBO,5.578193,52.897704
De Binge,5,,,8561EG,Balk,De Fryske Marren,Friesland,VBO,5.578133,52.897747
De Binge,7,,,8561EG,Balk,De Fryske Marren,Friesland,VBO,5.578074,52.897788
De Binge,9,,,8561EG,Balk,De Fryske Marren,Friesland,VBO,5.578528,52.897804
De Binge,11,,,8561EG,Balk,De Fryske Marren,Friesland,VBO,5.578463,52.897850
De Binge,13,,,8561EG,Balk,De Fryske Marren,Friesland,VBO,5.578405,52.897892
De Binge,15,,,8561EG,Balk,De Fryske Marren,Friesland,VBO,5.578815,52.897936
De Binge,17,,,8561EG,Balk,De Fryske Marren,Friesland,VBO,5.578756,52.897978
De Binge,19,,,8561EG,Balk,De Fryske Marren,Friesland,VBO,5.578696,52.898020
De Binge,21,,,8561EG,Balk,De Fryske Marren,Friesland,VBO,5.578636,52.898062
De Binge,23,,,8561EG,Balk,De Fryske Marren,Friesland,VBO,5.579070,52.898095
De Binge,25,,,8561EG,Balk,De Fryske Marren,Friesland,VBO,5.579010,52.898137
De Binge,27,,,8561EG,Balk,De Fryske Marren,Friesland,VBO,5.578950,52.898179
De Binge,2,,,8561EH,Balk,De Fryske Marren,Friesland,VBO,5.580063,52.898221
De Dobbe,1,,,8561EJ,Balk,De Fryske Marren,Friesland,VBO,5.577221,52.898987
De Dobbe,2,,,8561EJ,Balk,De Fryske Marren,Friesland,VBO,5.577897,52.898841
De Dobbe,3,,,8561EJ,Balk,De Fryske Marren,Friesland,VBO,5.577281,52.899018
De Dobbe,4,,,8561EJ,Balk,De Fryske Marren,Friesland,VBO,5.577958,52.898872
De Dobbe,5,,,8561EJ,Balk,De Fryske Marren,Friesland,VBO,5.577343,52.899050
De Dobbe,6,,,8561EJ,Balk,De Fryske Marren,Friesland,VBO,5.578162,52.898886
De Dobbe,7,,,8561EJ,Balk,De Fryske Marren,Friesland,VBO,5.577408,52.899082
De Dobbe,8,,,8561EJ,Balk,De Fryske Marren,Friesland,VBO,5.578225,52.898918
De Dobbe,9,,,8561EJ,Balk,De Fryske Marren,Friesland,VBO,5.577663,52.899327
De Dobbe,10,,,8561EJ,Balk,De Fryske Marren,Friesland,VBO,5.578346,52.898979
De Dobbe,11,,,8561EJ,Balk,De Fryske Marren,Friesland,VBO,5.577724,52.899284
De Dobbe,12,,,8561EJ,Balk,De Fryske Marren,Friesland,VBO,5.578407,52.899012
De Dobbe,13,,,8561EJ,Balk,De Fryske Marren,Friesland,VBO,5.577799,52.899251
De Dobbe,14,,,8561EJ,Balk,De Fryske Marren,Friesland,VBO,5.578532,52.899075
De Dobbe,15,,,8561EJ,Balk,De Fryske Marren,Friesland,VBO,5.577861,52.899208
De Dobbe,16,,,8561EJ,Balk,De Fryske Marren,Friesland,VBO,5.578596,52.899109
De Dobbe,17,,,8561EJ,Balk,De Fryske Marren,Friesland,VBO,5.577885,52.899452
De Dobbe,18,,,8561EJ,Balk,De Fryske Marren,Friesland,VBO,5.578970,52.899271
De Dobbe,19,,,8561EJ,Balk,De Fryske Marren,Friesland,VBO,5.577954,52.899489
De Dobbe,20,,,8561EJ,Balk,De Fryske Marren,Friesland,VBO,5.578906,52.899316
De Dobbe,21,,,8561EJ,Balk,De Fryske Marren,Friesland,VBO,5.578024,52.899526
De Dobbe,22,,,8561EJ,Balk,De Fryske Marren,Friesland,VBO,5.578843,52.899361
De Dobbe,23,,,8561EJ,Balk,De Fryske Marren,Friesland,VBO,5.578094,52.899563
De Dobbe,24,,,8561EJ,Balk,De Fryske Marren,Friesland,VBO,5.578781,52.899404
De Dobbe,25,,,8561EJ,Balk,De Fryske Marren,Friesland,VBO,5.578267,52.899620
De Dobbe,26,,,8561EJ,Balk,De Fryske Marren,Friesland,VBO,5.578681,52.899501
De Dobbe,27,,,8561EJ,Balk,De Fryske Marren,Friesland,VBO,5.578341,52.899659
De Dobbe,28,,,8561EJ,Balk,De Fryske Marren,Friesland,VBO,5.578620,52.899545
De Dobbe,29,,,8561EJ,Balk,De Fryske Marren,Friesland,VBO,5.578409,52.899696
De Dobbe,30,,,8561EJ,Balk,De Fryske Marren,Friesland,VBO,5.578557,52.899588
De Eker,1,,,8561EK,Balk,De Fryske Marren,Friesland,VBO,5.576977,52.899545
De Eker,2,,,8561EK,Balk,De Fryske Marren,Friesland,VBO,5.577091,52.899505
De Eker,3,,,8561EK,Balk,De Fryske Marren,Friesland,VBO,5.577210,52.899531
De Eker,4,,,8561EK,Balk,De Fryske Marren,Friesland,VBO,5.577359,52.899544
De Eker,5,,,8561EK,Balk,De Fryske Marren,Friesland,VBO,5.577430,52.899615
De Eker,6,,,8561EK,Balk,De Fryske Marren,Friesland,VBO,5.577351,52.899681
De Eker,7,,,8561EK,Balk,De Fryske Marren,Friesland,VBO,5.577630,52.899824
De Eker,8,,,8561EK,Balk,De Fryske Marren,Friesland,VBO,5.577749,52.899785
De Eker,9,,,8561EK,Balk,De Fryske Marren,Friesland,VBO,5.577867,52.899807
De Eker,10,,,8561EK,Balk,De Fryske Marren,Friesland,VBO,5.577979,52.899832
De Eker,11,,,8561EK,Balk,De Fryske Marren,Friesland,VBO,5.578063,52.899902
De Eker,12,,,8561EK,Balk,De Fryske Marren,Friesland,VBO,5.577971,52.899974
De Eker,13,,,8561EK,Balk,De Fryske Marren,Friesland,VBO,5.577997,52.900088
De Eker,14,,,8561EK,Balk,De Fryske Marren,Friesland,VBO,5.577899,52.900115
De Eker,15,,,8561EK,Balk,De Fryske Marren,Friesland,VBO,5.577811,52.900084
De Eker,16,,,8561EK,Balk,De Fryske Marren,Friesland,VBO,5.577645,52.900199
De Eker,17,,,8561EK,Balk,De Fryske Marren,Friesland,VBO,5.577728,52.900266
De Eker,18,,,8561EK,Balk,De Fryske Marren,Friesland,VBO,5.577635,52.900341
De Eker,19,,,8561EK,Balk,De Fryske Marren,Friesland,VBO,5.577444,52.900354
De Eker,20,,,8561EK,Balk,De Fryske Marren,Friesland,VBO,5.577346,52.900377
De Eker,21,,,8561EK,Balk,De Fryske Marren,Friesland,VBO,5.577255,52.900347
De Eker,22,,,8561EK,Balk,De Fryske Marren,Friesland,VBO,5.577125,52.900192
De Eker,23,,,8561EK,Balk,De Fryske Marren,Friesland,VBO,5.577032,52.900219
De Eker,24,,,8561EK,Balk,De Fryske Marren,Friesland,VBO,5.576936,52.900182
De Eker,25,,,8561EK,Balk,De Fryske Marren,Friesland,VBO,5.576919,52.900076
De Eker,26,,,8561EK,Balk,De Fryske Marren,Friesland,VBO,5.576879,52.900018
De Eker,27,,,8561EK,Balk,De Fryske Marren,Friesland,VBO,5.576878,52.899969
De Eker,28,,,8561EK,Balk,De Fryske Marren,Friesland,VBO,5.576991,52.899923
De Eker,29,,,8561EK,Balk,De Fryske Marren,Friesland,VBO,5.577100,52.899879
De Eker,30,,,8561EK,Balk,De Fryske Marren,Friesland,VBO,5.577224,52.899895
Tjalke de Boerstrjitte,1,,,8561EL,Balk,De Fryske Marren,Friesland,VBO,5.574907,52.899055
Tjalke de Boerstrjitte,2,,,8561EL,Balk,De Fryske Marren,Friesland,VBO,5.573877,52.899128
Tjalke de Boerstrjitte,3,,,8561EL,Balk,De Fryske Marren,Friesland,VBO,5.574749,52.898974
Tjalke de Boerstrjitte,4,,,8561EL,Balk,De Fryske Marren,Friesland,VBO,5.573536,52.898924
Tjalke de Boerstrjitte,5,,,8561EL,Balk,De Fryske Marren,Friesland,VBO,5.574655,52.898847
Tjalke de Boerstrjitte,6,,,8561EL,Balk,De Fryske Marren,Friesland,VBO,5.572970,52.898719
Tjalke de Boerstrjitte,7,,,8561EL,Balk,De Fryske Marren,Friesland,VBO,5.574137,52.898601
Tjalke de Boerstrjitte,8,A,,8561EL,Balk,De Fryske Marren,Friesland,VBO,5.571488,52.898542
Tjalke de Boerstrjitte,8,B,,8561EL,Balk,De Fryske Marren,Friesland,VBO,5.571182,52.899097
Tjalke de Boerstrjitte,8,D,,8561EL,Balk,De Fryske Marren,Friesland,VBO,5.571779,52.898837
Tjalke de Boerstrjitte,8,,,8561EL,Balk,De Fryske Marren,Friesland,VBO,5.572509,52.898448
Tjalke de Boerstrjitte,9,,,8561EL,Balk,De Fryske Marren,Friesland,VBO,5.573754,52.898106
Tjalke de Boerstrjitte,10,,,8561EL,Balk,De Fryske Marren,Friesland,VBO,5.572499,52.897971
Tjalke de Boerstrjitte,11,,,8561EL,Balk,De Fryske Marren,Friesland,VBO,5.573233,52.897922
Tjalke de Boerstrjitte,12,,,8561EL,Balk,De Fryske Marren,Friesland,VBO,5.572054,52.897905
Tjalke de Boerstrjitte,13,,,8561EL,Balk,De Fryske Marren,Friesland,VBO,5.573082,52.897410
Tjalke de Boerstrjitte,14,,,8561EL,Balk,De Fryske Marren,Friesland,VBO,5.571637,52.897693
Tjalke de Boerstrjitte,16,,,8561EL,Balk,De Fryske Marren,Friesland,VBO,5.571323,52.897976
Tjalke de Boerstrjitte,18,,,8561EL,Balk,De Fryske Marren,Friesland,VBO,5.570785,52.897664
Tjalke de Boerstrjitte,20,,,8561EL,Balk,De Fryske Marren,Friesland,VBO,5.571136,52.897266
Tjalke de Boerstrjitte,22,,,8561EL,Balk,De Fryske Marren,Friesland,VBO,5.571335,52.896967
Tjalke de Boerstrjitte,24,,,8561EL,Balk,De Fryske Marren,Friesland,VBO,5.572699,52.895928
De Dammen,1,,,8561EM,Balk,De Fryske Marren,Friesland,VBO,5.580491,52.899472
De Dammen,3,,,8561EM,Balk,De Fryske Marren,Friesland,VBO,5.580430,52.899515
De Dammen,5,,,8561EM,Balk,De Fryske Marren,Friesland,VBO,5.580439,52.899594
De Dammen,7,,,8561EM,Balk,De Fryske Marren,Friesland,VBO,5.580383,52.899633
De Dammen,9,,,8561EM,Balk,De Fryske Marren,Friesland,VBO,5.580253,52.899640
De Dammen,11,,,8561EM,Balk,De Fryske Marren,Friesland,VBO,5.580192,52.899683
De Dammen,13,,,8561EM,Balk,De Fryske Marren,Friesland,VBO,5.579959,52.899831
De Dammen,15,,,8561EM,Balk,De Fryske Marren,Friesland,VBO,5.579899,52.899799
De Dammen,17,,,8561EM,Balk,De Fryske Marren,Friesland,VBO,5.579748,52.899686
De Dammen,19,,,8561EM,Balk,De Fryske Marren,Friesland,VBO,5.579687,52.899654
De Dammen,21,,,8561EM,Balk,De Fryske Marren,Friesland,VBO,5.579541,52.899546
De Dammen,23,,,8561EM,Balk,De Fryske Marren,Friesland,VBO,5.579478,52.899512
De Dammen,25,,,8561EM,Balk,De Fryske Marren,Friesland,VBO,5.579579,52.899348
De Dammen,27,,,8561EM,Balk,De Fryske Marren,Friesland,VBO,5.579635,52.899309
De Dammen,29,,,8561EM,Balk,De Fryske Marren,Friesland,VBO,5.579762,52.899178
De Dammen,31,,,8561EM,Balk,De Fryske Marren,Friesland,VBO,5.579844,52.899164
De Dammen,41,,,8561EM,Balk,De Fryske Marren,Friesland,VBO,5.579044,52.900012
De Dammen,43,,,8561EM,Balk,De Fryske Marren,Friesland,VBO,5.578984,52.900054
De Dammen,45,,,8561EM,Balk,De Fryske Marren,Friesland,VBO,5.578859,52.900190
De Dammen,47,,,8561EM,Balk,De Fryske Marren,Friesland,VBO,5.578801,52.900230
De Dammen,2,,,8561EN,Balk,De Fryske Marren,Friesland,VBO,5.580886,52.899671
De Dammen,4,,,8561EN,Balk,De Fryske Marren,Friesland,VBO,5.580930,52.899696
De Dammen,6,,,8561EN,Balk,De Fryske Marren,Friesland,VBO,5.580874,52.899743
De Dammen,8,,,8561EN,Balk,De Fryske Marren,Friesland,VBO,5.580835,52.899732
De Dammen,10,,,8561EN,Balk,De Fryske Marren,Friesland,VBO,5.580776,52.899763
De Dammen,12,,,8561EN,Balk,De Fryske Marren,Friesland,VBO,5.580820,52.899786
De Dammen,14,,,8561EN,Balk,De Fryske Marren,Friesland,VBO,5.580732,52.899835
De Dammen,16,,,8561EN,Balk,De Fryske Marren,Friesland,VBO,5.580687,52.899810
De Dammen,18,,,8561EN,Balk,De Fryske Marren,Friesland,VBO,5.580591,52.899821
De Dammen,20,,,8561EN,Balk,De Fryske Marren,Friesland,VBO,5.580636,52.899847
De Dammen,22,,,8561EN,Balk,De Fryske Marren,Friesland,VBO,5.580576,52.899889
De Dammen,24,,,8561EN,Balk,De Fryske Marren,Friesland,VBO,5.580528,52.899866
De Dammen,26,,,8561EN,Balk,De Fryske Marren,Friesland,VBO,5.580408,52.899947
De Dammen,28,,,8561EN,Balk,De Fryske Marren,Friesland,VBO,5.580345,52.899992
De Dammen,30,,,8561EN,Balk,De Fryske Marren,Friesland,VBO,5.580241,52.900009
De Dammen,32,,,8561EN,Balk,De Fryske Marren,Friesland,VBO,5.580180,52.900052
De Dammen,34,,,8561EN,Balk,De Fryske Marren,Friesland,VBO,5.580121,52.900095
De Dammen,36,,,8561EN,Balk,De Fryske Marren,Friesland,VBO,5.579680,52.900103
De Dammen,38,,,8561EN,Balk,De Fryske Marren,Friesland,VBO,5.579623,52.900143
De Dammen,40,,,8561EN,Balk,De Fryske Marren,Friesland,VBO,5.579480,52.900210
De Dammen,42,,,8561EN,Balk,De Fryske Marren,Friesland,VBO,5.579419,52.900254
De Dammen,44,,,8561EN,Balk,De Fryske Marren,Friesland,VBO,5.579306,52.900343
De Dammen,46,,,8561EN,Balk,De Fryske Marren,Friesland,VBO,5.579250,52.900382
F.D. Hoekstraplein,1,,,8561EP,Balk,De Fryske Marren,Friesland,VBO,5.580182,52.898832
F.D. Hoekstraplein,3,,,8561EP,Balk,De Fryske Marren,Friesland,VBO,5.580281,52.898737
F.D. Hoekstraplein,5,,,8561EP,Balk,De Fryske Marren,Friesland,VBO,5.580086,52.898679
De Mieden,1,,,8561ER,Balk,De Fryske Marren,Friesland,VBO,5.581745,52.900196
De Mieden,2,A,,8561ER,Balk,De Fryske Marren,Friesland,VBO,5.582495,52.900546
De Mieden,2,,,8561ER,Balk,De Fryske Marren,Friesland,VBO,5.582404,52.900386
De Mieden,3,,,8561ER,Balk,De Fryske Marren,Friesland,VBO,5.581736,52.900229
De Mieden,4,,,8561ER,Balk,De Fryske Marren,Friesland,VBO,5.582648,52.900661
De Mieden,5,,,8561ER,Balk,De Fryske Marren,Friesland,VBO,5.581727,52.900263
De Mieden,6,,,8561ER,Balk,De Fryske Marren,Friesland,VBO,5.582477,52.900822
De Mieden,7,,,8561ER,Balk,De Fryske Marren,Friesland,VBO,5.581722,52.900292
De Mieden,8,,,8561ER,Balk,De Fryske Marren,Friesland,VBO,5.582349,52.900931
De Mieden,9,,,8561ER,Balk,De Fryske Marren,Friesland,VBO,5.581714,52.900329
De Mieden,10,,,8561ER,Balk,De Fryske Marren,Friesland,VBO,5.582134,52.901094
De Mieden,11,,,8561ER,Balk,De Fryske Marren,Friesland,VBO,5.581677,52.900497
De Mieden,12,,,8561ER,Balk,De Fryske Marren,Friesland,VBO,5.581948,52.901187
De Mieden,13,,,8561ER,Balk,De Fryske Marren,Friesland,VBO,5.581744,52.900531
De Mieden,14,,,8561ER,Balk,De Fryske Marren,Friesland,VBO,5.581793,52.901307
De Mieden,15,,,8561ER,Balk,De Fryske Marren,Friesland,VBO,5.581784,52.900586
De Mieden,16,,,8561ER,Balk,De Fryske Marren,Friesland,VBO,5.581633,52.901410
De Mieden,17,,,8561ER,Balk,De Fryske Marren,Friesland,VBO,5.581849,52.900620
De Mieden,18,,,8561ER,Balk,De Fryske Marren,Friesland,VBO,5.581517,52.901501
De Mieden,19,,,8561ER,Balk,De Fryske Marren,Friesland,VBO,5.581916,52.900655
De Mieden,20,,,8561ER,Balk,De Fryske Marren,Friesland,VBO,5.581368,52.901608
De Mieden,21,A,,8561ER,Balk,De Fryske Marren,Friesland,VBO,5.581235,52.901106
De Mieden,21,,,8561ER,Balk,De Fryske Marren,Friesland,VBO,5.581986,52.900690
De Mieden,22,,,8561ER,Balk,De Fryske Marren,Friesland,VBO,5.581133,52.901748
De Mieden,23,,,8561ER,Balk,De Fryske Marren,Friesland,VBO,5.581183,52.901142
De Mieden,24,,,8561ER,Balk,De Fryske Marren,Friesland,VBO,5.580994,52.901872
De Mieden,25,,,8561ER,Balk,De Fryske Marren,Friesland,VBO,5.581100,52.901231
De Mieden,26,,,8561ER,Balk,De Fryske Marren,Friesland,VBO,5.580784,52.901968
De Mieden,27,,,8561ER,Balk,De Fryske Marren,Friesland,VBO,5.581042,52.901273
De Mieden,29,,,8561ER,Balk,De Fryske Marren,Friesland,VBO,5.580924,52.901368
De Mieden,31,,,8561ER,Balk,De Fryske Marren,Friesland,VBO,5.580352,52.901804
De Greide,1,,,8561ES,Balk,De Fryske Marren,Friesland,VBO,5.581653,52.900899
De Greide,3,,,8561ES,Balk,De Fryske Marren,Friesland,VBO,5.581581,52.900862
De Greide,5,,,8561ES,Balk,De Fryske Marren,Friesland,VBO,5.581445,52.900867
De Greide,7,,,8561ES,Balk,De Fryske Marren,Friesland,VBO,5.581444,52.900792
De Greide,9,,,8561ES,Balk,De Fryske Marren,Friesland,VBO,5.581418,52.900727
De Greide,11,,,8561ES,Balk,De Fryske Marren,Friesland,VBO,5.581347,52.900691
De Greide,13,,,8561ES,Balk,De Fryske Marren,Friesland,VBO,5.581451,52.900426
De Greide,15,,,8561ES,Balk,De Fryske Marren,Friesland,VBO,5.581381,52.900390
De Greide,17,,,8561ES,Balk,De Fryske Marren,Friesland,VBO,5.581313,52.900355
De Greide,19,,,8561ES,Balk,De Fryske Marren,Friesland,VBO,5.581246,52.900320
De Greide,21,,,8561ES,Balk,De Fryske Marren,Friesland,VBO,5.581216,52.900258
De Greide,23,,,8561ES,Balk,De Fryske Marren,Friesland,VBO,5.581145,52.900221
De Greide,25,,,8561ES,Balk,De Fryske Marren,Friesland,VBO,5.580886,52.900431
De Greide,27,,,8561ET,Balk,De Fryske Marren,Friesland,VBO,5.580848,52.900412
De Greide,29,,,8561ET,Balk,De Fryske Marren,Friesland,VBO,5.580789,52.900452
De Greide,31,,,8561ET,Balk,De Fryske Marren,Friesland,VBO,5.580829,52.900470
De Greide,33,,,8561ET,Balk,De Fryske Marren,Friesland,VBO,5.580843,52.900536
De Greide,35,,,8561ET,Balk,De Fryske Marren,Friesland,VBO,5.580797,52.900514
De Greide,37,,,8561ET,Balk,De Fryske Marren,Friesland,VBO,5.580729,52.900558
De Greide,39,,,8561ET,Balk,De Fryske Marren,Friesland,VBO,5.580768,52.900581
De Greide,41,,,8561ET,Balk,De Fryske Marren,Friesland,VBO,5.580589,52.900423
De Greide,43,,,8561ET,Balk,De Fryske Marren,Friesland,VBO,5.580517,52.900385
De Greide,45,,,8561ET,Balk,De Fryske Marren,Friesland,VBO,5.580491,52.900320
De Greide,47,,,8561ET,Balk,De Fryske Marren,Friesland,VBO,5.580423,52.900285
De Greide,49,,,8561ET,Balk,De Fryske Marren,Friesland,VBO,5.580125,52.900388
De Greide,51,,,8561ET,Balk,De Fryske Marren,Friesland,VBO,5.580093,52.900438
De Greide,53,,,8561ET,Balk,De Fryske Marren,Friesland,VBO,5.580055,52.900492
De Greide,55,,,8561ET,Balk,De Fryske Marren,Friesland,VBO,5.579997,52.900533
De Greide,57,,,8561ET,Balk,De Fryske Marren,Friesland,VBO,5.579867,52.900643
De Greide,59,,,8561ET,Balk,De Fryske Marren,Friesland,VBO,5.579802,52.900609
De Greide,61,,,8561ET,Balk,De Fryske Marren,Friesland,VBO,5.579599,52.900527
De Greide,63,,,8561ET,Balk,De Fryske Marren,Friesland,VBO,5.579530,52.900492
De Greide,4,,,8561EV,Balk,De Fryske Marren,Friesland,VBO,5.581021,52.900991
De Greide,6,,,8561EV,Balk,De Fryske Marren,Friesland,VBO,5.580953,52.900956
De Greide,8,,,8561EV,Balk,De Fryske Marren,Friesland,VBO,5.580868,52.900962
De Greide,10,,,8561EV,Balk,De Fryske Marren,Friesland,VBO,5.580770,52.900911
De Greide,12,,,8561EV,Balk,De Fryske Marren,Friesland,VBO,5.580701,52.900876
De Greide,14,,,8561EV,Balk,De Fryske Marren,Friesland,VBO,5.580583,52.900813
De Greide,16,,,8561EV,Balk,De Fryske Marren,Friesland,VBO,5.580515,52.900776
De Greide,18,,,8561EV,Balk,De Fryske Marren,Friesland,VBO,5.580447,52.900742
De Greide,20,T,,8561EV,Balk,De Fryske Marren,Friesland,VBO,5.580130,52.900858
De Greide,20,,,8561EV,Balk,De Fryske Marren,Friesland,VBO,5.580375,52.900705
De Greide,22,,,8561EV,Balk,De Fryske Marren,Friesland,VBO,5.579436,52.900918
De Greide,24,,,8561EV,Balk,De Fryske Marren,Friesland,VBO,5.579354,52.900874
De Greide,26,,,8561EV,Balk,De Fryske Marren,Friesland,VBO,5.579211,52.900800
De Greide,28,,,8561EV,Balk,De Fryske Marren,Friesland,VBO,5.579126,52.900757
De Greide,30,,,8561EV,Balk,De Fryske Marren,Friesland,VBO,5.578978,52.900680
De Greide,32,,,8561EV,Balk,De Fryske Marren,Friesland,VBO,5.578899,52.900638
De Greide,34,,,8561EV,Balk,De Fryske Marren,Friesland,VBO,5.578723,52.900582
De Greide,36,,,8561EV,Balk,De Fryske Marren,Friesland,VBO,5.578637,52.900538
De Greide,38,,,8561EV,Balk,De Fryske Marren,Friesland,VBO,5.578496,52.900464
De Greide,40,,,8561EV,Balk,De Fryske Marren,Friesland,VBO,5.578409,52.900418
De Oper,2,T,,8561EW,Balk,De Fryske Marren,Friesland,VBO,5.582421,52.899768
De Oper,2,,,8561EW,Balk,De Fryske Marren,Friesland,VBO,5.581373,52.899399
De Oper,4,,,8561EW,Balk,De Fryske Marren,Friesland,VBO,5.581329,52.899376
De Oper,6,,,8561EW,Balk,De Fryske Marren,Friesland,VBO,5.581159,52.899319
De Oper,8,,,8561EW,Balk,De Fryske Marren,Friesland,VBO,5.581096,52.899276
De Oper,10,,,8561EW,Balk,De Fryske Marren,Friesland,VBO,5.580914,52.899244
De Oper,12,,,8561EW,Balk,De Fryske Marren,Friesland,VBO,5.580866,52.899195
Eigen Haard,1,T,,8561EX,Balk,De Fryske Marren,Friesland,VBO,5.571247,52.896106
Eigen Haard,1,,,8561EX,Balk,De Fryske Marren,Friesland,VBO,5.570869,52.895973
Eigen Haard,2,,,8561EX,Balk,De Fryske Marren,Friesland,VBO,5.569713,52.895731
Eigen Haard,3,,,8561EX,Balk,De Fryske Marren,Friesland,VBO,5.571608,52.895487
Eigen Haard,6,,,8561EX,Balk,De Fryske Marren,Friesland,VBO,5.570518,52.895104
Eigen Haard,10,,,8561EX,Balk,De Fryske Marren,Friesland,VBO,5.569662,52.895292
Eigen Haard,11,,,8561EX,Balk,De Fryske Marren,Friesland,VBO,5.569581,52.894551
Eigen Haard,12,A,,8561EX,Balk,De Fryske Marren,Friesland,VBO,5.569114,52.895808
Eigen Haard,12,C,,8561EX,Balk,De Fryske Marren,Friesland,VBO,5.568661,52.896079
Eigen Haard,12,,,8561EX,Balk,De Fryske Marren,Friesland,VBO,5.569305,52.895416
Eigen Haard,13,A,,8561EX,Balk,De Fryske Marren,Friesland,VBO,5.569017,52.894980
Eigen Haard,13,B,,8561EX,Balk,De Fryske Marren,Friesland,VBO,5.568894,52.894954
Eigen Haard,13,C,,8561EX,Balk,De Fryske Marren,Friesland,VBO,5.568796,52.894944
Eigen Haard,13,F,,8561EX,Balk,De Fryske Marren,Friesland,VBO,5.568726,52.894867
Eigen Haard,13,H,,8561EX,Balk,De Fryske Marren,Friesland,VBO,5.568584,52.894791
Eigen Haard,14,,,8561EX,Balk,De Fryske Marren,Friesland,VBO,5.569159,52.896308
Eigen Haard,15,,,8561EX,Balk,De Fryske Marren,Friesland,VBO,5.567836,52.895326
Eigen Haard,16,A,,8561EX,Balk,De Fryske Marren,Friesland,VBO,5.569616,52.896057
Eigen Haard,16,,,8561EX,Balk,De Fryske Marren,Friesland,VBO,5.569526,52.895953
Eigen Haard,17,,,8561EX,Balk,De Fryske Marren,Friesland,VBO,5.567277,52.895915
Eigen Haard,19,,,8561EX,Balk,De Fryske Marren,Friesland,VBO,5.567165,52.896198
Eigen Haard,20,A,,8561EX,Balk,De Fryske Marren,Friesland,VBO,5.567534,52.897389
Eigen Haard,20,B,,8561EX,Balk,De Fryske Marren,Friesland,VBO,5.567434,52.897480
Eigen Haard,20,C,,8561EX,Balk,De Fryske Marren,Friesland,VBO,5.567652,52.897580
Eigen Haard,20,,,8561EX,Balk,De Fryske Marren,Friesland,VBO,5.567212,52.897401
Eigen Haard,21,B,,8561EX,Balk,De Fryske Marren,Friesland,VBO,5.568216,52.896336
Eigen Haard,21,,,8561EX,Balk,De Fryske Marren,Friesland,VBO,5.567935,52.896562
Eigen Haard,23,A,,8561EX,Balk,De Fryske Marren,Friesland,VBO,5.568605,52.896781
Eigen Haard,23,B,,8561EX,Balk,De Fryske Marren,Friesland,VBO,5.568802,52.896664
Eigen Haard,23,C,,8561EX,Balk,De Fryske Marren,Friesland,VBO,5.568649,52.896585
Eigen Haard,23,D,,8561EX,Balk,De Fryske Marren,Friesland,VBO,5.568523,52.896677
Eigen Haard,23,,,8561EX,Balk,De Fryske Marren,Friesland,VBO,5.568457,52.896793
Eigen Haard,24,,,8561EX,Balk,De Fryske Marren,Friesland,VBO,5.566641,52.897219
Eigen Haard,25,,,8561EX,Balk,De Fryske Marren,Friesland,VBO,5.568781,52.897305
Eigen Haard,26,,,8561EX,Balk,De Fryske Marren,Friesland,VBO,5.566164,52.897186
Eigen Haard,27,A,,8561EX,Balk,De Fryske Marren,Friesland,VBO,5.569137,52.897065
Eigen Haard,27,B,,8561EX,Balk,De Fryske Marren,Friesland,VBO,5.569235,52.896991
Eigen Haard,27,C,,8561EX,Balk,De Fryske Marren,Friesland,VBO,5.569317,52.896908
Eigen Haard,27,D,,8561EX,Balk,De Fryske Marren,Friesland,VBO,5.569419,52.896820
Eigen Haard,28,,,8561EX,Balk,De Fryske Marren,Friesland,VBO,5.565573,52.896647
Eigen Haard,29,,,8561EX,Balk,De Fryske Marren,Friesland,VBO,5.569901,52.896514
Eigen Haard,30,,,8561EX,Balk,De Fryske Marren,Friesland,VBO,5.565103,52.896548
Eigen Haard,31,A,,8561EX,Balk,De Fryske Marren,Friesland,VBO,5.570216,52.896210
Eigen Haard,31,,,8561EX,Balk,De Fryske Marren,Friesland,VBO,5.570431,52.896327
Eigen Haard,32,,,8561EX,Balk,De Fryske Marren,Friesland,VBO,5.564056,52.896515
Eigen Haard,33,,,8561EX,Balk,De Fryske Marren,Friesland,VBO,5.570278,52.896693
Eigen Haard,34,,,8561EX,Balk,De Fryske Marren,Friesland,VBO,5.564701,52.896276
Eigen Haard,35,,,8561EX,Balk,De Fryske Marren,Friesland,VBO,5.569855,52.896884
Eigen Haard,36,,,8561EX,Balk,De Fryske Marren,Friesland,VBO,5.564714,52.895573
Eigen Haard,37,,,8561EX,Balk,De Fryske Marren,Friesland,VBO,5.569679,52.897250
Eigen Haard,38,A,,8561EX,Balk,De Fryske Marren,Friesland,VBO,5.565502,52.895615
Eigen Haard,38,B,,8561EX,Balk,De Fryske Marren,Friesland,VBO,5.565272,52.895518
Eigen Haard,38,C,,8561EX,Balk,De Fryske Marren,Friesland,VBO,5.565134,52.895444
Eigen Haard,38,D,,8561EX,Balk,De Fryske Marren,Friesland,VBO,5.564950,52.895366
Eigen Haard,38,E,,8561EX,Balk,De Fryske Marren,Friesland,VBO,5.565167,52.895206
Eigen Haard,38,F,,8561EX,Balk,De Fryske Marren,Friesland,VBO,5.565347,52.895254
Eigen Haard,38,G,,8561EX,Balk,De Fryske Marren,Friesland,VBO,5.565528,52.895313
Eigen Haard,38,,,8561EX,Balk,De Fryske Marren,Friesland,VBO,5.565715,52.895415
Eigen Haard,39,,,8561EX,Balk,De Fryske Marren,Friesland,VBO,5.569349,52.897671
Eigen Haard,40,A,,8561EX,Balk,De Fryske Marren,Friesland,VBO,5.565987,52.895140
Eigen Haard,40,B,,8561EX,Balk,De Fryske Marren,Friesland,VBO,5.565718,52.895087
Eigen Haard,40,C,,8561EX,Balk,De Fryske Marren,Friesland,VBO,5.565647,52.895067
Eigen Haard,40,D,,8561EX,Balk,De Fryske Marren,Friesland,VBO,5.565570,52.895005
Eigen Haard,40,,,8561EX,Balk,De Fryske Marren,Friesland,VBO,5.565879,52.895054
Eigen Haard,41,,,8561EX,Balk,De Fryske Marren,Friesland,VBO,5.568312,52.898104
Eigen Haard,42,,,8561EX,Balk,De Fryske Marren,Friesland,VBO,5.566171,52.894823
Eigen Haard,43,,,8561EX,Balk,De Fryske Marren,Friesland,VBO,5.567801,52.896864
Eigen Haard,47,A,,8561EX,Balk,De Fryske Marren,Friesland,VBO,5.567053,52.896520
Eigen Haard,47,,,8561EX,Balk,De Fryske Marren,Friesland,VBO,5.566809,52.896510
Eigen Haard,49,T,,8561EX,Balk,De Fryske Marren,Friesland,VBO,5.566346,52.896526
Eigen Haard,51,A,,8561EX,Balk,De Fryske Marren,Friesland,VBO,5.566175,52.896157
Eigen Haard,51,,,8561EX,Balk,De Fryske Marren,Friesland,VBO,5.566084,52.896363
Eigen Haard,53,A,,8561EX,Balk,De Fryske Marren,Friesland,VBO,5.565735,52.896050
Eigen Haard,53,,,8561EX,Balk,De Fryske Marren,Friesland,VBO,5.565618,52.896137
Eigen Haard,55,A,,8561EX,Balk,De Fryske Marren,Friesland,VBO,5.565906,52.895858
Eigen Haard,55,B,,8561EX,Balk,De Fryske Marren,Friesland,VBO,5.565975,52.895887
Eigen Haard,55,C,,8561EX,Balk,De Fryske Marren,Friesland,VBO,5.566043,52.895918
Eigen Haard,55,D,,8561EX,Balk,De Fryske Marren,Friesland,VBO,5.566095,52.895940
Eigen Haard,55,E,,8561EX,Balk,De Fryske Marren,Friesland,VBO,5.566154,52.895964
Eigen Haard,55,F,,8561EX,Balk,De Fryske Marren,Friesland,VBO,5.566210,52.895990
Eigen Haard,55,G,,8561EX,Balk,De Fryske Marren,Friesland,VBO,5.566277,52.896017
Eigen Haard,55,H,,8561EX,Balk,De Fryske Marren,Friesland,VBO,5.566350,52.896045
Eigen Haard,55,I,,8561EX,Balk,De Fryske Marren,Friesland,VBO,5.566414,52.896076
Eigen Haard,55,J,,8561EX,Balk,De Fryske Marren,Friesland,VBO,5.566480,52.896100
Eigen Haard,57,A,,8561EX,Balk,De Fryske Marren,Friesland,VBO,5.565996,52.895783
Eigen Haard,57,B,,8561EX,Balk,De Fryske Marren,Friesland,VBO,5.566064,52.895812
Eigen Haard,57,C,,8561EX,Balk,De Fryske Marren,Friesland,VBO,5.566127,52.895836
Eigen Haard,57,D,,8561EX,Balk,De Fryske Marren,Friesland,VBO,5.566181,52.895859
Eigen Haard,57,E,,8561EX,Balk,De Fryske Marren,Friesland,VBO,5.566243,52.895886
Eigen Haard,57,F,,8561EX,Balk,De Fryske Marren,Friesland,VBO,5.566303,52.895912
Eigen Haard,57,G,,8561EX,Balk,De Fryske Marren,Friesland,VBO,5.566366,52.895941
Eigen Haard,57,H,,8561EX,Balk,De Fryske Marren,Friesland,VBO,5.566435,52.895971
Eigen Haard,57,I,,8561EX,Balk,De Fryske Marren,Friesland,VBO,5.566502,52.895999
Eigen Haard,57,J,,8561EX,Balk,De Fryske Marren,Friesland,VBO,5.566568,52.896028
Eigen Haard,59,A,,8561EX,Balk,De Fryske Marren,Friesland,VBO,5.566221,52.895648
Eigen Haard,59,B,,8561EX,Balk,De Fryske Marren,Friesland,VBO,5.566336,52.895682
Eigen Haard,59,C,,8561EX,Balk,De Fryske Marren,Friesland,VBO,5.566408,52.895712
Eigen Haard,59,D,,8561EX,Balk,De Fryske Marren,Friesland,VBO,5.566508,52.895743
Eigen Haard,59,E,,8561EX,Balk,De Fryske Marren,Friesland,VBO,5.566560,52.895783
Eigen Haard,59,F,,8561EX,Balk,De Fryske Marren,Friesland,VBO,5.566649,52.895818
Eigen Haard,59,G,,8561EX,Balk,De Fryske Marren,Friesland,VBO,5.566742,52.895852
Eigen Haard,59,,,8561EX,Balk,De Fryske Marren,Friesland,VBO,5.566477,52.895759
Eigen Haard,61,,,8561EX,Balk,De Fryske Marren,Friesland,VBO,5.566669,52.895486
Eigen Haard,63,,,8561EX,Balk,De Fryske Marren,Friesland,VBO,5.566863,52.895125
Suvelstrjitte,1,A,,8561EZ,Balk,De Fryske Marren,Friesland,VBO,5.573673,52.896069
Suvelstrjitte,1,,,8561EZ,Balk,De Fryske Marren,Friesland,VBO,5.573930,52.895870
Suvelstrjitte,2,,,8561EZ,Balk,De Fryske Marren,Friesland,VBO,5.574270,52.895640
Suvelstrjitte,4,,,8561EZ,Balk,De Fryske Marren,Friesland,VBO,5.574323,52.895673
Suvelstrjitte,6,,,8561EZ,Balk,De Fryske Marren,Friesland,VBO,5.574416,52.895706
Suvelstrjitte,8,,,8561EZ,Balk,De Fryske Marren,Friesland,VBO,5.574402,52.895595
Suvelstrjitte,10,,,8561EZ,Balk,De Fryske Marren,Friesland,VBO,5.574454,52.895620
Suvelstrjitte,12,,,8561EZ,Balk,De Fryske Marren,Friesland,VBO,5.574547,52.895669
Suvelstrjitte,14,,,8561EZ,Balk,De Fryske Marren,Friesland,VBO,5.574529,52.895553
Suvelstrjitte,16,,,8561EZ,Balk,De Fryske Marren,Friesland,VBO,5.574579,52.895583
Suvelstrjitte,18,,,8561EZ,Balk,De Fryske Marren,Friesland,VBO,5.574666,52.895627
Suvelstrjitte,20,,,8561EZ,Balk,De Fryske Marren,Friesland,VBO,5.574641,52.895507
Suvelstrjitte,22,,,8561EZ,Balk,De Fryske Marren,Friesland,VBO,5.574721,52.895547
Suvelstrjitte,24,,,8561EZ,Balk,De Fryske Marren,Friesland,VBO,5.574793,52.895592
Suvelstrjitte,26,,,8561EZ,Balk,De Fryske Marren,Friesland,VBO,5.574772,52.895468
Suvelstrjitte,28,,,8561EZ,Balk,De Fryske Marren,Friesland,VBO,5.574854,52.895519
Suvelstrjitte,30,,,8561EZ,Balk,De Fryske Marren,Friesland,VBO,5.574915,52.895556
Suvelstrjitte,32,,,8561EZ,Balk,De Fryske Marren,Friesland,VBO,5.574903,52.895435
Suvelstrjitte,34,,,8561EZ,Balk,De Fryske Marren,Friesland,VBO,5.574965,52.895471
Suvelstrjitte,36,,,8561EZ,Balk,De Fryske Marren,Friesland,VBO,5.575050,52.895510
Suvelstrjitte,38,A,,8561EZ,Balk,De Fryske Marren,Friesland,VBO,5.574752,52.895906
Suvelstrjitte,38,B,,8561EZ,Balk,De Fryske Marren,Friesland,VBO,5.574779,52.895938
Suvelstrjitte,38,C,,8561EZ,Balk,De Fryske Marren,Friesland,VBO,5.574810,52.895964
Suvelstrjitte,38,D,,8561EZ,Balk,De Fryske Marren,Friesland,VBO,5.574852,52.895987
Suvelstrjitte,38,E,,8561EZ,Balk,De Fryske Marren,Friesland,VBO,5.574898,52.896004
Suvelstrjitte,38,F,,8561EZ,Balk,De Fryske Marren,Friesland,VBO,5.574952,52.896015
Suvelstrjitte,38,G,,8561EZ,Balk,De Fryske Marren,Friesland,VBO,5.575118,52.895958
Suvelstrjitte,38,H,,8561EZ,Balk,De Fryske Marren,Friesland,VBO,5.575172,52.895967
Suvelstrjitte,38,I,,8561EZ,Balk,De Fryske Marren,Friesland,VBO,5.575221,52.895976
Suvelstrjitte,38,J,,8561EZ,Balk,De Fryske Marren,Friesland,VBO,5.575269,52.895998
Suvelstrjitte,38,K,,8561EZ,Balk,De Fryske Marren,Friesland,VBO,5.575306,52.896021
Suvelstrjitte,38,L,,8561EZ,Balk,De Fryske Marren,Friesland,VBO,5.575333,52.896051
Suvelstrjitte,38,M,,8561EZ,Balk,De Fryske Marren,Friesland,VBO,5.575355,52.896080
Suvelstrjitte,38,N,,8561EZ,Balk,De Fryske Marren,Friesland,VBO,5.575369,52.896114
Suvelstrjitte,38,O,,8561EZ,Balk,De Fryske Marren,Friesland,VBO,5.575371,52.896147
Suvelstrjitte,38,P,,8561EZ,Balk,De Fryske Marren,Friesland,VBO,5.575366,52.896181
Suvelstrjitte,38,Q,,8561EZ,Balk,De Fryske Marren,Friesland,VBO,5.575349,52.896213
Suvelstrjitte,38,R,,8561EZ,Balk,De Fryske Marren,Friesland,VBO,5.575327,52.896241
Van Heemstrastrjitte,1,,,8561GA,Balk,De Fryske Marren,Friesland,VBO,5.585931,52.893789
Van Heemstrastrjitte,3,,,8561GA,Balk,De Fryske Marren,Friesland,VBO,5.586068,52.893673
Van Heemstrastrjitte,5,,,8561GA,Balk,De Fryske Marren,Friesland,VBO,5.586168,52.893572
Van Heemstrastrjitte,9,,,8561GA,Balk,De Fryske Marren,Friesland,VBO,5.586282,52.893464
Van Heemstrastrjitte,11,,,8561GA,Balk,De Fryske Marren,Friesland,VBO,5.586317,52.893429
Van Heemstrastrjitte,13,,,8561GA,Balk,De Fryske Marren,Friesland,VBO,5.586514,52.893271
Van Heemstrastrjitte,15,,,8561GA,Balk,De Fryske Marren,Friesland,VBO,5.586695,52.893355
Van Heemstrastrjitte,17,,,8561GA,Balk,De Fryske Marren,Friesland,VBO,5.586873,52.893447
Van Heemstrastrjitte,19,,,8561GA,Balk,De Fryske Marren,Friesland,VBO,5.587040,52.893540
Van Heemstrastrjitte,23,,,8561GA,Balk,De Fryske Marren,Friesland,VBO,5.587217,52.893605
Van Heemstrastrjitte,25,,,8561GA,Balk,De Fryske Marren,Friesland,VBO,5.587308,52.893639
Van Heemstrastrjitte,2,,,8561GB,Balk,De Fryske Marren,Friesland,VBO,5.585500,52.893620
Van Heemstrastrjitte,4,,,8561GB,Balk,De Fryske Marren,Friesland,VBO,5.585604,52.893521
Van Heemstrastrjitte,6,,,8561GB,Balk,De Fryske Marren,Friesland,VBO,5.585724,52.893416
Van Heemstrastrjitte,8,,,8561GB,Balk,De Fryske Marren,Friesland,VBO,5.585863,52.893298
Van Heemstrastrjitte,10,,,8561GB,Balk,De Fryske Marren,Friesland,VBO,5.586533,52.892956
Van Heemstrastrjitte,12,,,8561GB,Balk,De Fryske Marren,Friesland,VBO,5.586751,52.892997
Van Heemstrastrjitte,14,,,8561GB,Balk,De Fryske Marren,Friesland,VBO,5.586947,52.893077
Van Heemstrastrjitte,16,,,8561GB,Balk,De Fryske Marren,Friesland,VBO,5.587090,52.893154
Van Heemstrastrjitte,18,,,8561GB,Balk,De Fryske Marren,Friesland,VBO,5.587231,52.893222
Van Heemstrastrjitte,20,,,8561GB,Balk,De Fryske Marren,Friesland,VBO,5.587373,52.893301
Van Heemstrastrjitte,22,,,8561GB,Balk,De Fryske Marren,Friesland,VBO,5.587552,52.893378
Klaas van Houtstrjitte,1,,,8561GC,Balk,De Fryske Marren,Friesland,VBO,5.588006,52.893998
Klaas van Houtstrjitte,2,A,,8561GC,Balk,De Fryske Marren,Friesland,VBO,5.587517,52.893954
Klaas van Houtstrjitte,2,,,8561GC,Balk,De Fryske Marren,Friesland,VBO,5.587516,52.893844
Klaas van Houtstrjitte,4,,,8561GC,Balk,De Fryske Marren,Friesland,VBO,5.587599,52.893835
Klaas van Houtstrjitte,6,,,8561GC,Balk,De Fryske Marren,Friesland,VBO,5.587602,52.893755
Klaas van Houtstrjitte,8,,,8561GC,Balk,De Fryske Marren,Friesland,VBO,5.587625,52.893715
Klaas van Houtstrjitte,10,,,8561GC,Balk,De Fryske Marren,Friesland,VBO,5.587843,52.893559
Klaas van Houtstrjitte,12,,,8561GC,Balk,De Fryske Marren,Friesland,VBO,5.587935,52.893407
It Hoefizer,1,,,8561GD,Balk,De Fryske Marren,Friesland,VBO,5.588379,52.892908
It Hoefizer,2,,,8561GD,Balk,De Fryske Marren,Friesland,VBO,5.588103,52.893190
It Hoefizer,3,,,8561GD,Balk,De Fryske Marren,Friesland,VBO,5.588116,52.892824
It Hoefizer,4,,,8561GD,Balk,De Fryske Marren,Friesland,VBO,5.587862,52.893138
It Hoefizer,5,,,8561GD,Balk,De Fryske Marren,Friesland,VBO,5.587739,52.892704
It Hoefizer,6,,,8561GD,Balk,De Fryske Marren,Friesland,VBO,5.587633,52.893036
It Hoefizer,7,,,8561GD,Balk,De Fryske Marren,Friesland,VBO,5.587780,52.892531
It Hoefizer,8,,,8561GD,Balk,De Fryske Marren,Friesland,VBO,5.587361,52.892949
It Hoefizer,9,,,8561GD,Balk,De Fryske Marren,Friesland,VBO,5.587969,52.892376
It Hoefizer,10,,,8561GD,Balk,De Fryske Marren,Friesland,VBO,5.587090,52.892840
It Hoefizer,11,,,8561GD,Balk,De Fryske Marren,Friesland,VBO,5.588205,52.892269
It Hoefizer,12,,,8561GD,Balk,De Fryske Marren,Friesland,VBO,5.586817,52.892777
It Hoefizer,13,,,8561GD,Balk,De Fryske Marren,Friesland,VBO,5.588372,52.892541
It Hoefizer,14,,,8561GD,Balk,De Fryske Marren,Friesland,VBO,5.586992,52.892554
It Hoefizer,15,,,8561GD,Balk,De Fryske Marren,Friesland,VBO,5.588678,52.892673
It Hoefizer,16,,,8561GD,Balk,De Fryske Marren,Friesland,VBO,5.587194,52.892401
It Hoefizer,18,,,8561GD,Balk,De Fryske Marren,Friesland,VBO,5.587315,52.892251
It Hoefizer,20,,,8561GD,Balk,De Fryske Marren,Friesland,VBO,5.587503,52.892084
It Hoefizer,22,,,8561GD,Balk,De Fryske Marren,Friesland,VBO,5.587780,52.891844
It Hoefizer,24,,,8561GD,Balk,De Fryske Marren,Friesland,VBO,5.587541,52.891771
It Hoefizer,26,,,8561GD,Balk,De Fryske Marren,Friesland,VBO,5.587266,52.891679
It Hoefizer,28,,,8561GD,Balk,De Fryske Marren,Friesland,VBO,5.587005,52.891574
It Hoefizer,30,,,8561GD,Balk,De Fryske Marren,Friesland,VBO,5.588815,52.892255
It Hoefizer,32,,,8561GD,Balk,De Fryske Marren,Friesland,VBO,5.589002,52.892401
Rosenbergstrjitte,2,,,8561GE,Balk,De Fryske Marren,Friesland,VBO,5.588600,52.893776
Rosenbergstrjitte,3,,,8561GE,Balk,De Fryske Marren,Friesland,VBO,5.588284,52.894034
Rosenbergstrjitte,4,,,8561GE,Balk,De Fryske Marren,Friesland,VBO,5.588982,52.893912
Rosenbergstrjitte,5,,,8561GE,Balk,De Fryske Marren,Friesland,VBO,5.588504,52.894132
Rosenbergstrjitte,6,,,8561GE,Balk,De Fryske Marren,Friesland,VBO,5.589216,52.893666
Rosenbergstrjitte,7,,,8561GE,Balk,De Fryske Marren,Friesland,VBO,5.588745,52.894211
Rosenbergstrjitte,9,A,,8561GE,Balk,De Fryske Marren,Friesland,VBO,5.589331,52.894228
Rosenbergstrjitte,9,,,8561GE,Balk,De Fryske Marren,Friesland,VBO,5.589188,52.894282
Rosenbergstrjitte,11,,,8561GE,Balk,De Fryske Marren,Friesland,VBO,5.589507,52.894082
Rosenbergstrjitte,15,,,8561GE,Balk,De Fryske Marren,Friesland,VBO,5.589682,52.893858
Rosenbergstrjitte,17,,,8561GE,Balk,De Fryske Marren,Friesland,VBO,5.589824,52.893644
Jochem de Ruiterstrjitte,1,,,8561GG,Balk,De Fryske Marren,Friesland,VBO,5.589940,52.894718
Jochem de Ruiterstrjitte,2,,,8561GG,Balk,De Fryske Marren,Friesland,VBO,5.589431,52.894601
Jochem de Ruiterstrjitte,3,,,8561GG,Balk,De Fryske Marren,Friesland,VBO,5.589972,52.894687
Jochem de Ruiterstrjitte,4,,,8561GG,Balk,De Fryske Marren,Friesland,VBO,5.589497,52.894538
Jochem de Ruiterstrjitte,5,,,8561GG,Balk,De Fryske Marren,Friesland,VBO,5.590061,52.894571
Jochem de Ruiterstrjitte,6,,,8561GG,Balk,De Fryske Marren,Friesland,VBO,5.589604,52.894420
Jochem de Ruiterstrjitte,7,,,8561GG,Balk,De Fryske Marren,Friesland,VBO,5.590091,52.894542
Jochem de Ruiterstrjitte,8,,,8561GG,Balk,De Fryske Marren,Friesland,VBO,5.589715,52.894321
Jochem de Ruiterstrjitte,9,,,8561GG,Balk,De Fryske Marren,Friesland,VBO,5.590204,52.894433
Jochem de Ruiterstrjitte,10,,,8561GG,Balk,De Fryske Marren,Friesland,VBO,5.589828,52.894195
Jochem de Ruiterstrjitte,11,,,8561GG,Balk,De Fryske Marren,Friesland,VBO,5.590233,52.894405
Jochem de Ruiterstrjitte,12,,,8561GG,Balk,De Fryske Marren,Friesland,VBO,5.590040,52.893977
Jochem de Ruiterstrjitte,13,,,8561GG,Balk,De Fryske Marren,Friesland,VBO,5.590459,52.894144
Jochem de Ruiterstrjitte,14,,,8561GG,Balk,De Fryske Marren,Friesland,VBO,5.590281,52.893798
Hoite Detmarstrjitte,2,,,8561GH,Balk,De Fryske Marren,Friesland,VBO,5.589960,52.893287
Hoite Detmarstrjitte,3,,,8561GH,Balk,De Fryske Marren,Friesland,VBO,5.590010,52.893670
Hoite Detmarstrjitte,4,,,8561GH,Balk,De Fryske Marren,Friesland,VBO,5.590137,52.893371
Hoite Detmarstrjitte,5,,,8561GH,Balk,De Fryske Marren,Friesland,VBO,5.590097,52.893702
Hoite Detmarstrjitte,6,,,8561GH,Balk,De Fryske Marren,Friesland,VBO,5.590214,52.893398
Hoite Detmarstrjitte,8,,,8561GH,Balk,De Fryske Marren,Friesland,VBO,5.590417,52.893473
Hoite Detmarstrjitte,9,,,8561GH,Balk,De Fryske Marren,Friesland,VBO,5.590638,52.893955
Hoite Detmarstrjitte,10,,,8561GH,Balk,De Fryske Marren,Friesland,VBO,5.590631,52.893500
Hoite Detmarstrjitte,11,,,8561GH,Balk,De Fryske Marren,Friesland,VBO,5.590874,52.894017
Hoite Detmarstrjitte,12,,,8561GH,Balk,De Fryske Marren,Friesland,VBO,5.590897,52.893600
Hoite Detmarstrjitte,13,,,8561GH,Balk,De Fryske Marren,Friesland,VBO,5.590936,52.894041
Hoite Detmarstrjitte,14,,,8561GH,Balk,De Fryske Marren,Friesland,VBO,5.591097,52.893702
Hoite Detmarstrjitte,15,,,8561GH,Balk,De Fryske Marren,Friesland,VBO,5.591127,52.894120
Hoite Detmarstrjitte,16,,,8561GH,Balk,De Fryske Marren,Friesland,VBO,5.591278,52.893780
Hoite Detmarstrjitte,18,,,8561GH,Balk,De Fryske Marren,Friesland,VBO,5.591464,52.893854
Hoite Detmarstrjitte,20,,,8561GH,Balk,De Fryske Marren,Friesland,VBO,5.591654,52.893922
Lubertus van Beekstrjitte,1,,,8561GJ,Balk,De Fryske Marren,Friesland,VBO,5.590907,52.894937
Lubertus van Beekstrjitte,2,,,8561GJ,Balk,De Fryske Marren,Friesland,VBO,5.590280,52.894846
Lubertus van Beekstrjitte,3,,,8561GJ,Balk,De Fryske Marren,Friesland,VBO,5.591027,52.894821
Lubertus van Beekstrjitte,4,,,8561GJ,Balk,De Fryske Marren,Friesland,VBO,5.590308,52.894819
Lubertus van Beekstrjitte,5,,,8561GJ,Balk,De Fryske Marren,Friesland,VBO,5.591165,52.894704
Lubertus van Beekstrjitte,6,,,8561GJ,Balk,De Fryske Marren,Friesland,VBO,5.590452,52.894715
Lubertus van Beekstrjitte,7,,,8561GJ,Balk,De Fryske Marren,Friesland,VBO,5.591621,52.894557
Lubertus van Beekstrjitte,8,,,8561GJ,Balk,De Fryske Marren,Friesland,VBO,5.590502,52.894668
Lubertus van Beekstrjitte,9,,,8561GJ,Balk,De Fryske Marren,Friesland,VBO,5.591969,52.894708
Lubertus van Beekstrjitte,10,,,8561GJ,Balk,De Fryske Marren,Friesland,VBO,5.590689,52.894537
Lubertus van Beekstrjitte,11,,,8561GJ,Balk,De Fryske Marren,Friesland,VBO,5.592239,52.894458
Lubertus van Beekstrjitte,12,,,8561GJ,Balk,De Fryske Marren,Friesland,VBO,5.590867,52.894302
Lubertus van Beekstrjitte,13,,,8561GJ,Balk,De Fryske Marren,Friesland,VBO,5.591872,52.894325
Lubertus van Beekstrjitte,15,,,8561GJ,Balk,De Fryske Marren,Friesland,VBO,5.592139,52.894117
Lubertus van Beekstrjitte,16,,,8561GJ,Balk,De Fryske Marren,Friesland,VBO,5.591855,52.893693
Lubertus van Beekstrjitte,17,,,8561GJ,Balk,De Fryske Marren,Friesland,VBO,5.592431,52.894272
Lubertus van Beekstrjitte,18,,,8561GJ,Balk,De Fryske Marren,Friesland,VBO,5.592229,52.893358
Lubertus van Beekstrjitte,19,,,8561GJ,Balk,De Fryske Marren,Friesland,VBO,5.592708,52.894015
Lubertus van Beekstrjitte,21,,,8561GJ,Balk,De Fryske Marren,Friesland,VBO,5.592346,52.893897
Lubertus van Beekstrjitte,23,,,8561GJ,Balk,De Fryske Marren,Friesland,VBO,5.592601,52.893741
Dokter Westrastrjitte,1,,,8561GK,Balk,De Fryske Marren,Friesland,VBO,5.589738,52.893246
Dokter Westrastrjitte,2,,,8561GK,Balk,De Fryske Marren,Friesland,VBO,5.588974,52.893387
Dokter Westrastrjitte,4,,,8561GK,Balk,De Fryske Marren,Friesland,VBO,5.589194,52.893249
Dokter Westrastrjitte,6,,,8561GK,Balk,De Fryske Marren,Friesland,VBO,5.589307,52.893081
Dokter Westrastrjitte,8,,,8561GK,Balk,De Fryske Marren,Friesland,VBO,5.589474,52.892938
Dokter Westrastrjitte,10,,,8561GK,Balk,De Fryske Marren,Friesland,VBO,5.589641,52.892804
Dokter Westrastrjitte,12,,,8561GK,Balk,De Fryske Marren,Friesland,VBO,5.589821,52.892638
Dokter Westrastrjitte,14,,,8561GK,Balk,De Fryske Marren,Friesland,VBO,5.589899,52.892464
Benjamin Steegengastrjitte,1,,,8561GL,Balk,De Fryske Marren,Friesland,VBO,5.590035,52.892952
Benjamin Steegengastrjitte,2,,,8561GL,Balk,De Fryske Marren,Friesland,VBO,5.590318,52.892663
Benjamin Steegengastrjitte,3,,,8561GL,Balk,De Fryske Marren,Friesland,VBO,5.590241,52.893024
Benjamin Steegengastrjitte,4,,,8561GL,Balk,De Fryske Marren,Friesland,VBO,5.590634,52.892775
Benjamin Steegengastrjitte,5,,,8561GL,Balk,De Fryske Marren,Friesland,VBO,5.590420,52.893091
Benjamin Steegengastrjitte,6,,,8561GL,Balk,De Fryske Marren,Friesland,VBO,5.590870,52.892872
Benjamin Steegengastrjitte,7,,,8561GL,Balk,De Fryske Marren,Friesland,VBO,5.590487,52.893119
Benjamin Steegengastrjitte,8,,,8561GL,Balk,De Fryske Marren,Friesland,VBO,5.591172,52.893003
Benjamin Steegengastrjitte,9,,,8561GL,Balk,De Fryske Marren,Friesland,VBO,5.590691,52.893195
Benjamin Steegengastrjitte,10,,,8561GL,Balk,De Fryske Marren,Friesland,VBO,5.591611,52.893126
Benjamin Steegengastrjitte,11,,,8561GL,Balk,De Fryske Marren,Friesland,VBO,5.590881,52.893250
Benjamin Steegengastrjitte,12,,,8561GL,Balk,De Fryske Marren,Friesland,VBO,5.591857,52.893239
Benjamin Steegengastrjitte,13,,,8561GL,Balk,De Fryske Marren,Friesland,VBO,5.591201,52.893385
Benjamin Steegengastrjitte,15,,,8561GL,Balk,De Fryske Marren,Friesland,VBO,5.591377,52.893461
Benjamin Steegengastrjitte,17,,,8561GL,Balk,De Fryske Marren,Friesland,VBO,5.591447,52.893491
Benjamin Steegengastrjitte,19,,,8561GL,Balk,De Fryske Marren,Friesland,VBO,5.591626,52.893550
Benjamin Steegengastrjitte,21,,,8561GL,Balk,De Fryske Marren,Friesland,VBO,5.591697,52.893582
Tribune,1,,,8561GM,Balk,De Fryske Marren,Friesland,VBO,5.583593,52.895788
Tribune,2,,,8561GM,Balk,De Fryske Marren,Friesland,VBO,5.583820,52.896845
Tribune,3,,,8561GM,Balk,De Fryske Marren,Friesland,VBO,5.583515,52.895783
Tribune,4,,,8561GM,Balk,De Fryske Marren,Friesland,VBO,5.583810,52.896737
Tribune,6,,,8561GM,Balk,De Fryske Marren,Friesland,VBO,5.583820,52.896677
Tribune,8,,,8561GM,Balk,De Fryske Marren,Friesland,VBO,5.583836,52.896555
Tribune,10,,,8561GM,Balk,De Fryske Marren,Friesland,VBO,5.583847,52.896509
Tribune,12,,,8561GM,Balk,De Fryske Marren,Friesland,VBO,5.583871,52.896379
Tribune,14,,,8561GM,Balk,De Fryske Marren,Friesland,VBO,5.583882,52.896329
Tribune,16,,,8561GM,Balk,De Fryske Marren,Friesland,VBO,5.583550,52.896070
Tribune,18,,,8561GM,Balk,De Fryske Marren,Friesland,VBO,5.583568,52.896070
Tribune,20,,,8561GM,Balk,De Fryske Marren,Friesland,VBO,5.583590,52.896073
Tribune,22,,,8561GM,Balk,De Fryske Marren,Friesland,VBO,5.583759,52.896080
Tribune,24,,,8561GM,Balk,De Fryske Marren,Friesland,VBO,5.583774,52.896080
Tribune,26,,,8561GM,Balk,De Fryske Marren,Friesland,VBO,5.583788,52.896080
Tribune,28,,,8561GM,Balk,De Fryske Marren,Friesland,VBO,5.583803,52.896080
Tribune,30,,,8561GM,Balk,De Fryske Marren,Friesland,VBO,5.583818,52.896080
Tribune,32,,,8561GM,Balk,De Fryske Marren,Friesland,VBO,5.583833,52.896080
Tribune,34,,,8561GM,Balk,De Fryske Marren,Friesland,VBO,5.583848,52.896080
Tribune,36,,,8561GM,Balk,De Fryske Marren,Friesland,VBO,5.583863,52.896080
Tribune,38,,,8561GM,Balk,De Fryske Marren,Friesland,VBO,5.583878,52.896080
Tribune,40,,,8561GM,Balk,De Fryske Marren,Friesland,VBO,5.583878,52.896089
Tribune,42,,,8561GM,Balk,De Fryske Marren,Friesland,VBO,5.583892,52.896089
Tribune,44,,,8561GM,Balk,De Fryske Marren,Friesland,VBO,5.583907,52.896089
Tribune,46,,,8561GM,Balk,De Fryske Marren,Friesland,VBO,5.583615,52.896075
Tribune,48,,,8561GM,Balk,De Fryske Marren,Friesland,VBO,5.583635,52.896075
Tribune,50,,,8561GM,Balk,De Fryske Marren,Friesland,VBO,5.582478,52.896193
Tribune,52,,,8561GM,Balk,De Fryske Marren,Friesland,VBO,5.582460,52.896257
Tribune,54,,,8561GM,Balk,De Fryske Marren,Friesland,VBO,5.582458,52.896282
Tribune,56,,,8561GM,Balk,De Fryske Marren,Friesland,VBO,5.582448,52.896315
Tribune,58,,,8561GM,Balk,De Fryske Marren,Friesland,VBO,5.582437,52.896351
Tribune,60,,,8561GM,Balk,De Fryske Marren,Friesland,VBO,5.582439,52.896374
Tribune,62,,,8561GM,Balk,De Fryske Marren,Friesland,VBO,5.582437,52.896396
Tribune,64,,,8561GM,Balk,De Fryske Marren,Friesland,VBO,5.582442,52.896413
Tribune,66,,,8561GM,Balk,De Fryske Marren,Friesland,VBO,5.582891,52.896048
Tribune,68,,,8561GM,Balk,De Fryske Marren,Friesland,VBO,5.582893,52.896080
Tribune,70,,,8561GM,Balk,De Fryske Marren,Friesland,VBO,5.582869,52.896048
Tribune,72,,,8561GM,Balk,De Fryske Marren,Friesland,VBO,5.582845,52.896043
Tribune,74,,,8561GM,Balk,De Fryske Marren,Friesland,VBO,5.582815,52.896040
Tribune,76,,,8561GM,Balk,De Fryske Marren,Friesland,VBO,5.582971,52.896135
Tribune,78,,,8561GM,Balk,De Fryske Marren,Friesland,VBO,5.582954,52.896137
Tribune,80,,,8561GM,Balk,De Fryske Marren,Friesland,VBO,5.582931,52.896139
Tribune,82,,,8561GM,Balk,De Fryske Marren,Friesland,VBO,5.582909,52.896138
Tribune,84,,,8561GM,Balk,De Fryske Marren,Friesland,VBO,5.582887,52.896140
Tribune,86,,,8561GM,Balk,De Fryske Marren,Friesland,VBO,5.582861,52.896141
Tribune,88,,,8561GM,Balk,De Fryske Marren,Friesland,VBO,5.582735,52.896008
Tribune,90,,,8561GM,Balk,De Fryske Marren,Friesland,VBO,5.582735,52.896023
Tribune,92,,,8561GM,Balk,De Fryske Marren,Friesland,VBO,5.582735,52.896035
Tribune,94,,,8561GM,Balk,De Fryske Marren,Friesland,VBO,5.582737,52.896049
Tribune,96,,,8561GM,Balk,De Fryske Marren,Friesland,VBO,5.582739,52.896072
Tribune,98,,,8561GM,Balk,De Fryske Marren,Friesland,VBO,5.582654,52.896411
Tribune,100,,,8561GM,Balk,De Fryske Marren,Friesland,VBO,5.582662,52.896394
Tribune,102,,,8561GM,Balk,De Fryske Marren,Friesland,VBO,5.582662,52.896381
Tribune,104,,,8561GM,Balk,De Fryske Marren,Friesland,VBO,5.582664,52.896373
Tribune,106,,,8561GM,Balk,De Fryske Marren,Friesland,VBO,5.582666,52.896361
Tribune,108,,,8561GM,Balk,De Fryske Marren,Friesland,VBO,5.582667,52.896352
Tribune,110,,,8561GM,Balk,De Fryske Marren,Friesland,VBO,5.582671,52.896338
Tribune,112,,,8561GM,Balk,De Fryske Marren,Friesland,VBO,5.582672,52.896327
Tribune,114,,,8561GM,Balk,De Fryske Marren,Friesland,VBO,5.582674,52.896317
Tribune,116,,,8561GM,Balk,De Fryske Marren,Friesland,VBO,5.582675,52.896299
Tribune,118,,,8561GM,Balk,De Fryske Marren,Friesland,VBO,5.582702,52.896267
Tribune,120,,,8561GM,Balk,De Fryske Marren,Friesland,VBO,5.582707,52.896245
Tribune,122,,,8561GM,Balk,De Fryske Marren,Friesland,VBO,5.582733,52.896222
Tribune,124,,,8561GM,Balk,De Fryske Marren,Friesland,VBO,5.582734,52.896211
Tribune,126,,,8561GM,Balk,De Fryske Marren,Friesland,VBO,5.582719,52.896181
Tribune,128,,,8561GM,Balk,De Fryske Marren,Friesland,VBO,5.582771,52.896140
Tribune,130,,,8561GM,Balk,De Fryske Marren,Friesland,VBO,5.582824,52.896142
Tribune,132,,,8561GM,Balk,De Fryske Marren,Friesland,VBO,5.582601,52.896236
Tribune,134,,,8561GM,Balk,De Fryske Marren,Friesland,VBO,5.582814,52.896145
Tribune,136,,,8561GM,Balk,De Fryske Marren,Friesland,VBO,5.582736,52.896135
Tribune,138,,,8561GM,Balk,De Fryske Marren,Friesland,VBO,5.582663,52.896133
Foarset,1,,,8561GN,Balk,De Fryske Marren,Friesland,VBO,5.584484,52.895935
Foarset,2,,,8561GN,Balk,De Fryske Marren,Friesland,VBO,5.583921,52.895866
Foarset,3,,,8561GN,Balk,De Fryske Marren,Friesland,VBO,5.584500,52.895882
Foarset,4,,,8561GN,Balk,De Fryske Marren,Friesland,VBO,5.583930,52.895815
Foarset,5,,,8561GN,Balk,De Fryske Marren,Friesland,VBO,5.584513,52.895755
Foarset,6,,,8561GN,Balk,De Fryske Marren,Friesland,VBO,5.583945,52.895691
Foarset,7,,,8561GN,Balk,De Fryske Marren,Friesland,VBO,5.584528,52.895701
Foarset,8,,,8561GN,Balk,De Fryske Marren,Friesland,VBO,5.583955,52.895628
Foarset,9,,,8561GN,Balk,De Fryske Marren,Friesland,VBO,5.584562,52.895586
Foarset,10,,,8561GN,Balk,De Fryske Marren,Friesland,VBO,5.583978,52.895517
Foarset,11,,,8561GN,Balk,De Fryske Marren,Friesland,VBO,5.584578,52.895532
Foarset,12,,,8561GN,Balk,De Fryske Marren,Friesland,VBO,5.583990,52.895454
Foarset,14,,,8561GN,Balk,De Fryske Marren,Friesland,VBO,5.584008,52.895321
Sportfjild,1,,,8561GP,Balk,De Fryske Marren,Friesland,VBO,5.584425,52.896203
Sportfjild,2,,,8561GP,Balk,De Fryske Marren,Friesland,VBO,5.584772,52.895940
Sportfjild,3,,,8561GP,Balk,De Fryske Marren,Friesland,VBO,5.584522,52.896209
Sportfjild,4,,,8561GP,Balk,De Fryske Marren,Friesland,VBO,5.584896,52.895948
Sportfjild,5,,,8561GP,Balk,De Fryske Marren,Friesland,VBO,5.584730,52.896231
Sportfjild,6,,,8561GP,Balk,De Fryske Marren,Friesland,VBO,5.585064,52.895958
Sportfjild,7,,,8561GP,Balk,De Fryske Marren,Friesland,VBO,5.584808,52.896236
Sportfjild,8,,,8561GP,Balk,De Fryske Marren,Friesland,VBO,5.585193,52.895967
Sportfjild,9,,,8561GP,Balk,De Fryske Marren,Friesland,VBO,5.585017,52.896250
Sportfjild,11,,,8561GP,Balk,De Fryske Marren,Friesland,VBO,5.585093,52.896256
Sportfjild,13,,,8561GP,Balk,De Fryske Marren,Friesland,VBO,5.585302,52.896270
Sportfjild,15,,,8561GP,Balk,De Fryske Marren,Friesland,VBO,5.585389,52.896276
Sportfjild,17,,,8561GP,Balk,De Fryske Marren,Friesland,VBO,5.585595,52.896290
Sportfjild,19,,,8561GP,Balk,De Fryske Marren,Friesland,VBO,5.585692,52.896296
Swipe,17,,,8561GR,Balk,De Fryske Marren,Friesland,VBO,5.588328,52.890996
Tsjamkedykje,1,,,8561HA,Balk,De Fryske Marren,Friesland,VBO,5.588154,52.901420
Tsjamkedykje,2,,,8561HA,Balk,De Fryske Marren,Friesland,VBO,5.588935,52.901574
Tsjamkedykje,3,,,8561HA,Balk,De Fryske Marren,Friesland,VBO,5.592265,52.903061
Tsjamkedykje,4,,,8561HA,Balk,De Fryske Marren,Friesland,VBO,5.595316,52.904238
Tsjamkedykje,5,,,8561HA,Balk,De Fryske Marren,Friesland,VBO,5.596696,52.904551
Tsjamkedykje,6,a,,8561HA,Balk,De Fryske Marren,Friesland,VBO,5.597205,52.905109
Tsjamkedykje,6,,,8561HA,Balk,De Fryske Marren,Friesland,VBO,5.596736,52.904653
Tsjamkedykje,8,,1,8561HA,Balk,De Fryske Marren,Friesland,VBO,5.596566,52.906427
Tsjamkedykje,8,,10,8561HA,Balk,De Fryske Marren,Friesland,VBO,5.595661,52.906224
Tsjamkedykje,8,,11,8561HA,Balk,De Fryske Marren,Friesland,VBO,5.595818,52.905951
Tsjamkedykje,8,,12,8561HA,Balk,De Fryske Marren,Friesland,VBO,5.595509,52.906133
Tsjamkedykje,8,,13,8561HA,Balk,De Fryske Marren,Friesland,VBO,5.595672,52.905859
Tsjamkedykje,8,,14,8561HA,Balk,De Fryske Marren,Friesland,VBO,5.595361,52.906032
Tsjamkedykje,8,,15,8561HA,Balk,De Fryske Marren,Friesland,VBO,5.595510,52.905773
Tsjamkedykje,8,,16,8561HA,Balk,De Fryske Marren,Friesland,VBO,5.595217,52.905940
Tsjamkedykje,8,,17,8561HA,Balk,De Fryske Marren,Friesland,VBO,5.595365,52.905671
Tsjamkedykje,8,,18,8561HA,Balk,De Fryske Marren,Friesland,VBO,5.595060,52.905849
Tsjamkedykje,8,,2,8561HA,Balk,De Fryske Marren,Friesland,VBO,5.596278,52.906593
Tsjamkedykje,8,,3,8561HA,Balk,De Fryske Marren,Friesland,VBO,5.596419,52.906323
Tsjamkedykje,8,,4,8561HA,Balk,De Fryske Marren,Friesland,VBO,5.596134,52.906503
Tsjamkedykje,8,,5,8561HA,Balk,De Fryske Marren,Friesland,VBO,5.596272,52.906231
Tsjamkedykje,8,,6,8561HA,Balk,De Fryske Marren,Friesland,VBO,5.595974,52.906412
Tsjamkedykje,8,,7,8561HA,Balk,De Fryske Marren,Friesland,VBO,5.596119,52.906141
Tsjamkedykje,8,,8,8561HA,Balk,De Fryske Marren,Friesland,VBO,5.595817,52.906323
Tsjamkedykje,8,,9,8561HA,Balk,De Fryske Marren,Friesland,VBO,5.595961,52.906051
Tsjamkedykje,9,,,8561HA,Balk,De Fryske Marren,Friesland,VBO,5.597208,52.906994
Tsjamkedykje,10,,,8561HA,Balk,De Fryske Marren,Friesland,VBO,5.597597,52.906488
Markant,1,,,8561HB,Balk,De Fryske Marren,Friesland,VBO,5.595210,52.907579
Markant,2,,,8561HB,Balk,De Fryske Marren,Friesland,VBO,5.595070,52.907490
Markant,3,,,8561HB,Balk,De Fryske Marren,Friesland,VBO,5.594893,52.907391
Markant,4,,,8561HB,Balk,De Fryske Marren,Friesland,VBO,5.595070,52.907306
Markant,5,,,8561HB,Balk,De Fryske Marren,Friesland,VBO,5.595248,52.907220
Markant,6,,,8561HB,Balk,De Fryske Marren,Friesland,VBO,5.595419,52.907138
Markant,7,,,8561HB,Balk,De Fryske Marren,Friesland,VBO,5.595596,52.907012
Markant,8,,,8561HB,Balk,De Fryske Marren,Friesland,VBO,5.595738,52.906925
Markant,9,,,8561HB,Balk,De Fryske Marren,Friesland,VBO,5.595374,52.906727
Markant,10,,,8561HB,Balk,De Fryske Marren,Friesland,VBO,5.595214,52.906816
Markant,11,,,8561HB,Balk,De Fryske Marren,Friesland,VBO,5.595035,52.906925
Markant,12,,,8561HB,Balk,De Fryske Marren,Friesland,VBO,5.594873,52.907014
Markant,13,,,8561HB,Balk,De Fryske Marren,Friesland,VBO,5.594709,52.907103
Markant,14,,,8561HB,Balk,De Fryske Marren,Friesland,VBO,5.594562,52.907185
Markant,15,,,8561HB,Balk,De Fryske Marren,Friesland,VBO,5.594426,52.907054
Markant,16,,,8561HB,Balk,De Fryske Marren,Friesland,VBO,5.594239,52.906960
Markant,17,,,8561HB,Balk,De Fryske Marren,Friesland,VBO,5.594377,52.906884
Markant,18,,,8561HB,Balk,De Fryske Marren,Friesland,VBO,5.594519,52.906814
Markant,19,,,8561HB,Balk,De Fryske Marren,Friesland,VBO,5.594669,52.906730
Markant,20,,,8561HB,Balk,De Fryske Marren,Friesland,VBO,5.594810,52.906653
Markant,21,,,8561HB,Balk,De Fryske Marren,Friesland,VBO,5.594954,52.906573
Markant,22,,,8561HB,Balk,De Fryske Marren,Friesland,VBO,5.595127,52.906494
Markant,23,,,8561HC,Balk,De Fryske Marren,Friesland,VBO,5.594739,52.906293
Markant,24,,,8561HC,Balk,De Fryske Marren,Friesland,VBO,5.594534,52.906369
Markant,25,,,8561HC,Balk,De Fryske Marren,Friesland,VBO,5.594358,52.906467
Markant,26,,,8561HC,Balk,De Fryske Marren,Friesland,VBO,5.594187,52.906561
Markant,27,,,8561HC,Balk,De Fryske Marren,Friesland,VBO,5.594064,52.906666
Markant,28,,,8561HC,Balk,De Fryske Marren,Friesland,VBO,5.593909,52.906752
Markant,29,,,8561HC,Balk,De Fryske Marren,Friesland,VBO,5.593755,52.906829
Markant,30,,,8561HC,Balk,De Fryske Marren,Friesland,VBO,5.593603,52.906912
Markant,31,,,8561HC,Balk,De Fryske Marren,Friesland,VBO,5.593461,52.907000
Markant,32,,,8561HC,Balk,De Fryske Marren,Friesland,VBO,5.593311,52.907083
Markant,33,,,8561HC,Balk,De Fryske Marren,Friesland,VBO,5.593132,52.907144
Markant,34,,,8561HC,Balk,De Fryske Marren,Friesland,VBO,5.592957,52.907242
Markant,35,,,8561HC,Balk,De Fryske Marren,Friesland,VBO,5.592782,52.907338
Markant,36,,,8561HC,Balk,De Fryske Marren,Friesland,VBO,5.592632,52.907458
Markant,37,,,8561HC,Balk,De Fryske Marren,Friesland,VBO,5.592484,52.907540
Markant,38,,,8561HC,Balk,De Fryske Marren,Friesland,VBO,5.592336,52.907622
Markant,39,T,,8561HC,Balk,De Fryske Marren,Friesland,VBO,5.591750,52.907670
Markant,39,,,8561HC,Balk,De Fryske Marren,Friesland,VBO,5.592184,52.907706
Markant,40,,,8561HD,Balk,De Fryske Marren,Friesland,VBO,5.592523,52.907917
Markant,41,,,8561HD,Balk,De Fryske Marren,Friesland,VBO,5.592668,52.907837
Markant,42,,,8561HD,Balk,De Fryske Marren,Friesland,VBO,5.592814,52.907756
Markant,43,,,8561HD,Balk,De Fryske Marren,Friesland,VBO,5.592949,52.907681
Markant,44,,,8561HD,Balk,De Fryske Marren,Friesland,VBO,5.593089,52.907604
Markant,45,,,8561HD,Balk,De Fryske Marren,Friesland,VBO,5.593285,52.907521
Markant,46,,,8561HD,Balk,De Fryske Marren,Friesland,VBO,5.593445,52.907423
Markant,47,,,8561HD,Balk,De Fryske Marren,Friesland,VBO,5.593601,52.907324
Markant,48,,,8561HD,Balk,De Fryske Marren,Friesland,VBO,5.593760,52.907225
Markant,49,,,8561HD,Balk,De Fryske Marren,Friesland,VBO,5.593954,52.907319
Markant,50,,,8561HD,Balk,De Fryske Marren,Friesland,VBO,5.594091,52.907448
Markant,51,,,8561HD,Balk,De Fryske Marren,Friesland,VBO,5.593910,52.907533
Markant,52,,,8561HD,Balk,De Fryske Marren,Friesland,VBO,5.593732,52.907619
Markant,53,,,8561HD,Balk,De Fryske Marren,Friesland,VBO,5.593556,52.907704
Markant,54,,,8561HD,Balk,De Fryske Marren,Friesland,VBO,5.593410,52.907812
Markant,55,,,8561HD,Balk,De Fryske Marren,Friesland,VBO,5.593269,52.907890
Markant,56,,,8561HD,Balk,De Fryske Marren,Friesland,VBO,5.593121,52.907972
Markant,57,,,8561HD,Balk,De Fryske Marren,Friesland,VBO,5.592983,52.908049
Markant,58,,,8561HD,Balk,De Fryske Marren,Friesland,VBO,5.592845,52.908125
Markant,59,,,8561HE,Balk,De Fryske Marren,Friesland,VBO,5.593189,52.908330
Markant,60,,,8561HE,Balk,De Fryske Marren,Friesland,VBO,5.593358,52.908237
Markant,61,,,8561HE,Balk,De Fryske Marren,Friesland,VBO,5.593525,52.908146
Markant,62,,,8561HE,Balk,De Fryske Marren,Friesland,VBO,5.593696,52.908052
Markant,63,,,8561HE,Balk,De Fryske Marren,Friesland,VBO,5.593850,52.907976
Markant,64,,,8561HE,Balk,De Fryske Marren,Friesland,VBO,5.593985,52.907901
Markant,65,,,8561HE,Balk,De Fryske Marren,Friesland,VBO,5.594127,52.907823
Markant,66,,,8561HE,Balk,De Fryske Marren,Friesland,VBO,5.594263,52.907739
Markant,67,,,8561HE,Balk,De Fryske Marren,Friesland,VBO,5.594406,52.907660
Markant,68,,,8561HE,Balk,De Fryske Marren,Friesland,VBO,5.594612,52.907752
Markant,69,,,8561HE,Balk,De Fryske Marren,Friesland,VBO,5.594746,52.907861
Markant,70,,,8561HE,Balk,De Fryske Marren,Friesland,VBO,5.594594,52.907960
Markant,71,,,8561HE,Balk,De Fryske Marren,Friesland,VBO,5.594429,52.908051
Markant,72,,,8561HE,Balk,De Fryske Marren,Friesland,VBO,5.594254,52.908147
Markant,73,,,8561HE,Balk,De Fryske Marren,Friesland,VBO,5.594071,52.908239
Markant,74,,,8561HE,Balk,De Fryske Marren,Friesland,VBO,5.593928,52.908317
Markant,75,,,8561HE,Balk,De Fryske Marren,Friesland,VBO,5.593784,52.908396
Markant,76,,,8561HE,Balk,De Fryske Marren,Friesland,VBO,5.593637,52.908477
Markant,77,,,8561HE,Balk,De Fryske Marren,Friesland,VBO,5.593491,52.908557
Markant,78,,,8561HG,Balk,De Fryske Marren,Friesland,VBO,5.593825,52.908775
Markant,79,,,8561HG,Balk,De Fryske Marren,Friesland,VBO,5.593966,52.908698
Markant,80,,,8561HG,Balk,De Fryske Marren,Friesland,VBO,5.594106,52.908620
Markant,81,,,8561HG,Balk,De Fryske Marren,Friesland,VBO,5.594248,52.908542
Markant,82,,,8561HG,Balk,De Fryske Marren,Friesland,VBO,5.594391,52.908463
Markant,83,,,8561HG,Balk,De Fryske Marren,Friesland,VBO,5.594582,52.908386
Markant,84,,,8561HG,Balk,De Fryske Marren,Friesland,VBO,5.594741,52.908286
Markant,85,,,8561HG,Balk,De Fryske Marren,Friesland,VBO,5.594891,52.908191
Markant,86,,,8561HG,Balk,De Fryske Marren,Friesland,VBO,5.595054,52.908089
Markant,87,,,8561HG,Balk,De Fryske Marren,Friesland,VBO,5.595240,52.908174
Markant,88,,,8561HG,Balk,De Fryske Marren,Friesland,VBO,5.595376,52.908305
Markant,89,,,8561HG,Balk,De Fryske Marren,Friesland,VBO,5.595194,52.908387
Markant,90,,,8561HG,Balk,De Fryske Marren,Friesland,VBO,5.595015,52.908473
Markant,91,,,8561HG,Balk,De Fryske Marren,Friesland,VBO,5.594837,52.908559
Markant,92,,,8561HG,Balk,De Fryske Marren,Friesland,VBO,5.594695,52.908666
Markant,93,,,8561HG,Balk,De Fryske Marren,Friesland,VBO,5.594553,52.908745
Markant,94,,,8561HG,Balk,De Fryske Marren,Friesland,VBO,5.594411,52.908823
Markant,95,,,8561HG,Balk,De Fryske Marren,Friesland,VBO,5.594271,52.908900
Markant,96,,,8561HG,Balk,De Fryske Marren,Friesland,VBO,5.594132,52.908977
Markant,97,,,8561HG,Balk,De Fryske Marren,Friesland,VBO,5.594524,52.909198
Markant,98,,,8561HG,Balk,De Fryske Marren,Friesland,VBO,5.594652,52.909095
Markant,99,,,8561HG,Balk,De Fryske Marren,Friesland,VBO,5.594831,52.909009
Markant,100,,,8561HG,Balk,De Fryske Marren,Friesland,VBO,5.595001,52.908928
Markant,101,,,8561HG,Balk,De Fryske Marren,Friesland,VBO,5.595115,52.908827
Markant,102,,,8561HG,Balk,De Fryske Marren,Friesland,VBO,5.595251,52.908753
De Weind,6,,,8561JA,Balk,De Fryske Marren,Friesland,VBO,5.574414,52.901992
De Weind,7,,,8561JA,Balk,De Fryske Marren,Friesland,VBO,5.574921,52.902007
De Weind,8,,,8561JA,Balk,De Fryske Marren,Friesland,VBO,5.574549,52.901894
De Weind,9,,,8561JA,Balk,De Fryske Marren,Friesland,VBO,5.575040,52.901908
De Weind,10,,,8561JA,Balk,De Fryske Marren,Friesland,VBO,5.574692,52.901785
De Weind,11,,,8561JA,Balk,De Fryske Marren,Friesland,VBO,5.575162,52.901820
De Weind,12,,,8561JA,Balk,De Fryske Marren,Friesland,VBO,5.574844,52.901677
De Weind,13,,,8561JA,Balk,De Fryske Marren,Friesland,VBO,5.575316,52.901724
De Weind,14,,,8561JA,Balk,De Fryske Marren,Friesland,VBO,5.575007,52.901571
De Weind,15,,,8561JA,Balk,De Fryske Marren,Friesland,VBO,5.575527,52.901513
De Weind,16,,,8561JA,Balk,De Fryske Marren,Friesland,VBO,5.575205,52.901357
De Weind,17,,,8561JA,Balk,De Fryske Marren,Friesland,VBO,5.575685,52.901384
De Weind,18,,,8561JA,Balk,De Fryske Marren,Friesland,VBO,5.575271,52.901310
De Weind,19,,,8561JA,Balk,De Fryske Marren,Friesland,VBO,5.575971,52.901236
De Weind,20,,,8561JA,Balk,De Fryske Marren,Friesland,VBO,5.575395,52.901230
De Weind,22,,,8561JA,Balk,De Fryske Marren,Friesland,VBO,5.575464,52.901175
De Weind,24,,,8561JA,Balk,De Fryske Marren,Friesland,VBO,5.575588,52.901095
De Weind,26,,,8561JA,Balk,De Fryske Marren,Friesland,VBO,5.575658,52.901040
De Weind,28,,,8561JA,Balk,De Fryske Marren,Friesland,VBO,5.575738,52.900911
De Weind,30,,,8561JA,Balk,De Fryske Marren,Friesland,VBO,5.575881,52.900849
De Weind,32,,,8561JA,Balk,De Fryske Marren,Friesland,VBO,5.576082,52.900886
De Weind,21,,,8561JB,Balk,De Fryske Marren,Friesland,VBO,5.576278,52.901354
De Weind,23,,,8561JB,Balk,De Fryske Marren,Friesland,VBO,5.576439,52.901474
De Weind,25,,,8561JB,Balk,De Fryske Marren,Friesland,VBO,5.576988,52.901626
De Weind,27,,,8561JB,Balk,De Fryske Marren,Friesland,VBO,5.577226,52.901750
De Weind,29,,,8561JB,Balk,De Fryske Marren,Friesland,VBO,5.577505,52.901841
De Weind,31,,,8561JB,Balk,De Fryske Marren,Friesland,VBO,5.577755,52.901911
De Weind,33,,,8561JB,Balk,De Fryske Marren,Friesland,VBO,5.577968,52.902051
De Weind,34,,,8561JB,Balk,De Fryske Marren,Friesland,VBO,5.576177,52.900997
De Weind,36,,,8561JB,Balk,De Fryske Marren,Friesland,VBO,5.576265,52.901041
De Weind,38,,,8561JB,Balk,De Fryske Marren,Friesland,VBO,5.576412,52.901111
De Weind,40,,,8561JB,Balk,De Fryske Marren,Friesland,VBO,5.576493,52.901153
De Weind,42,,,8561JB,Balk,De Fryske Marren,Friesland,VBO,5.576658,52.901211
De Weind,44,,,8561JB,Balk,De Fryske Marren,Friesland,VBO,5.576739,52.901244
De Weind,46,,,8561JB,Balk,De Fryske Marren,Friesland,VBO,5.577239,52.901377
De Weind,48,,,8561JB,Balk,De Fryske Marren,Friesland,VBO,5.577457,52.901458
De Weind,50,,,8561JB,Balk,De Fryske Marren,Friesland,VBO,5.577686,52.901546
De Weind,52,,,8561JB,Balk,De Fryske Marren,Friesland,VBO,5.577889,52.901649
De Weind,54,,,8561JB,Balk,De Fryske Marren,Friesland,VBO,5.578109,52.901745
De Weind,56,,,8561JB,Balk,De Fryske Marren,Friesland,VBO,5.578298,52.901829
De Weind,58,,,8561JB,Balk,De Fryske Marren,Friesland,VBO,5.578672,52.902078
De Weind,60,,,8561JB,Balk,De Fryske Marren,Friesland,VBO,5.578932,52.902233
De Weind,62,,,8561JB,Balk,De Fryske Marren,Friesland,VBO,5.579167,52.902372
De Weind,64,,,8561JB,Balk,De Fryske Marren,Friesland,VBO,5.579416,52.902521
De Weind,66,,,8561JB,Balk,De Fryske Marren,Friesland,VBO,5.579479,52.902712
De Weind,68,,,8561JB,Balk,De Fryske Marren,Friesland,VBO,5.579683,52.902858
Heechkamp,1,,,8561JC,Balk,De Fryske Marren,Friesland,VBO,5.580670,52.901552
Heechkamp,3,,,8561JC,Balk,De Fryske Marren,Friesland,VBO,5.580608,52.901520
Heechkamp,4,,,8561JC,Balk,De Fryske Marren,Friesland,VBO,5.580233,52.901738
Heechkamp,5,,,8561JC,Balk,De Fryske Marren,Friesland,VBO,5.580435,52.901430
Heechkamp,6,,,8561JC,Balk,De Fryske Marren,Friesland,VBO,5.580146,52.901695
Heechkamp,7,,,8561JC,Balk,De Fryske Marren,Friesland,VBO,5.580349,52.901386
Heechkamp,8,,,8561JC,Balk,De Fryske Marren,Friesland,VBO,5.580028,52.901633
Heechkamp,9,,,8561JC,Balk,De Fryske Marren,Friesland,VBO,5.580186,52.901302
Heechkamp,10,,,8561JC,Balk,De Fryske Marren,Friesland,VBO,5.579935,52.901585
Heechkamp,11,,,8561JC,Balk,De Fryske Marren,Friesland,VBO,5.580122,52.901268
Heechkamp,12,,,8561JC,Balk,De Fryske Marren,Friesland,VBO,5.579810,52.901502
Heechkamp,13,,,8561JC,Balk,De Fryske Marren,Friesland,VBO,5.579949,52.901180
Heechkamp,14,,,8561JC,Balk,De Fryske Marren,Friesland,VBO,5.579754,52.901472
Heechkamp,15,,,8561JC,Balk,De Fryske Marren,Friesland,VBO,5.579892,52.901149
Heechkamp,16,,,8561JC,Balk,De Fryske Marren,Friesland,VBO,5.579543,52.901404
De Wurdze,2,,,8561JD,Balk,De Fryske Marren,Friesland,VBO,5.573105,52.901364
De Wurdze,4,,,8561JD,Balk,De Fryske Marren,Friesland,VBO,5.573524,52.901498
De Wurdze,6,,,8561JD,Balk,De Fryske Marren,Friesland,VBO,5.573719,52.901346
De Wurdze,8,,,8561JD,Balk,De Fryske Marren,Friesland,VBO,5.573941,52.901165
De Wurdze,12,,,8561JD,Balk,De Fryske Marren,Friesland,VBO,5.574366,52.900884
De Wurdze,14,,,8561JD,Balk,De Fryske Marren,Friesland,VBO,5.574637,52.900721
De Wurdze,16,,,8561JD,Balk,De Fryske Marren,Friesland,VBO,5.574924,52.900496
De Wurdze,20,,,8561JD,Balk,De Fryske Marren,Friesland,VBO,5.575198,52.900207
De Wurdze,22,,,8561JD,Balk,De Fryske Marren,Friesland,VBO,5.575503,52.900057
De Wurdze,24,,,8561JD,Balk,De Fryske Marren,Friesland,VBO,5.576257,52.900165
De Wurdze,26,,,8561JD,Balk,De Fryske Marren,Friesland,VBO,5.576412,52.900260
De Wurdze,28,,,8561JD,Balk,De Fryske Marren,Friesland,VBO,5.576487,52.900298
De Wurdze,30,,,8561JD,Balk,De Fryske Marren,Friesland,VBO,5.576657,52.900386
De Wurdze,32,,,8561JD,Balk,De Fryske Marren,Friesland,VBO,5.576715,52.900415
De Wurdze,34,,,8561JD,Balk,De Fryske Marren,Friesland,VBO,5.576865,52.900493
De Wurdze,36,,,8561JD,Balk,De Fryske Marren,Friesland,VBO,5.576942,52.900533
De Wurdze,38,,,8561JD,Balk,De Fryske Marren,Friesland,VBO,5.577102,52.900615
De Wurdze,40,,,8561JD,Balk,De Fryske Marren,Friesland,VBO,5.577167,52.900648
De Wurdze,42,,,8561JD,Balk,De Fryske Marren,Friesland,VBO,5.577343,52.900735
De Wurdze,44,,,8561JD,Balk,De Fryske Marren,Friesland,VBO,5.578012,52.900839
De Wurdze,46,,,8561JD,Balk,De Fryske Marren,Friesland,VBO,5.578353,52.900628
De Wurdze,48,,,8561JD,Balk,De Fryske Marren,Friesland,VBO,5.578512,52.900788
De Wurdze,50,,,8561JD,Balk,De Fryske Marren,Friesland,VBO,5.578687,52.900906
De Wurdze,52,,,8561JD,Balk,De Fryske Marren,Friesland,VBO,5.578867,52.900984
De Wurdze,54,,,8561JD,Balk,De Fryske Marren,Friesland,VBO,5.579195,52.901100
De Wurdze,56,,,8561JD,Balk,De Fryske Marren,Friesland,VBO,5.578903,52.901342
De Wurdze,58,,,8561JD,Balk,De Fryske Marren,Friesland,VBO,5.579307,52.901612
De Wurdze,60,,,8561JD,Balk,De Fryske Marren,Friesland,VBO,5.579507,52.901722
De Wurdze,62,,,8561JD,Balk,De Fryske Marren,Friesland,VBO,5.579612,52.901776
De Wurdze,64,,,8561JD,Balk,De Fryske Marren,Friesland,VBO,5.579785,52.901888
De Wurdze,66,,,8561JD,Balk,De Fryske Marren,Friesland,VBO,5.579829,52.901911
De Wurdze,68,,,8561JD,Balk,De Fryske Marren,Friesland,VBO,5.580097,52.901999
De Wurdze,1,,,8561JE,Balk,De Fryske Marren,Friesland,VBO,5.572771,52.901616
De Wurdze,5,,,8561JE,Balk,De Fryske Marren,Friesland,VBO,5.573838,52.901705
De Wurdze,7,,,8561JE,Balk,De Fryske Marren,Friesland,VBO,5.574020,52.901568
De Wurdze,9,,,8561JE,Balk,De Fryske Marren,Friesland,VBO,5.574239,52.901445
De Wurdze,11,,,8561JE,Balk,De Fryske Marren,Friesland,VBO,5.574429,52.901312
De Wurdze,13,,,8561JE,Balk,De Fryske Marren,Friesland,VBO,5.574811,52.901127
De Wurdze,15,,,8561JE,Balk,De Fryske Marren,Friesland,VBO,5.574949,52.901023
De Wurdze,17,,,8561JE,Balk,De Fryske Marren,Friesland,VBO,5.575076,52.900932
De Wurdze,19,,,8561JE,Balk,De Fryske Marren,Friesland,VBO,5.575208,52.900823
De Wurdze,21,,,8561JE,Balk,De Fryske Marren,Friesland,VBO,5.575334,52.900731
De Wurdze,23,,,8561JE,Balk,De Fryske Marren,Friesland,VBO,5.575505,52.900628
De Wurdze,25,,,8561JE,Balk,De Fryske Marren,Friesland,VBO,5.575605,52.900546
De Wurdze,27,,,8561JE,Balk,De Fryske Marren,Friesland,VBO,5.575766,52.900426
De Wurdze,29,,,8561JE,Balk,De Fryske Marren,Friesland,VBO,5.576044,52.900474
De Wurdze,31,,,8561JE,Balk,De Fryske Marren,Friesland,VBO,5.576214,52.900563
De Wurdze,33,,,8561JE,Balk,De Fryske Marren,Friesland,VBO,5.576378,52.900647
De Wurdze,35,,,8561JE,Balk,De Fryske Marren,Friesland,VBO,5.576537,52.900729
De Wurdze,37,,,8561JE,Balk,De Fryske Marren,Friesland,VBO,5.576688,52.900821
De Wurdze,39,,,8561JE,Balk,De Fryske Marren,Friesland,VBO,5.576851,52.900905
De Wurdze,41,,,8561JE,Balk,De Fryske Marren,Friesland,VBO,5.577063,52.900989
De Wurdze,43,,,8561JE,Balk,De Fryske Marren,Friesland,VBO,5.577559,52.901100
De Wurdze,45,,,8561JE,Balk,De Fryske Marren,Friesland,VBO,5.577897,52.901138
De Wurdze,47,,,8561JE,Balk,De Fryske Marren,Friesland,VBO,5.578072,52.901227
De Wurdze,49,,,8561JE,Balk,De Fryske Marren,Friesland,VBO,5.578298,52.901335
De Wurdze,51,A,,8561JE,Balk,De Fryske Marren,Friesland,VBO,5.578626,52.901599
De Wurdze,51,,,8561JE,Balk,De Fryske Marren,Friesland,VBO,5.578442,52.901463
De Wurdze,53,,,8561JE,Balk,De Fryske Marren,Friesland,VBO,5.579030,52.901908
De Wurdze,55,,,8561JE,Balk,De Fryske Marren,Friesland,VBO,5.579277,52.902034
De Wurdze,57,,,8561JE,Balk,De Fryske Marren,Friesland,VBO,5.579475,52.902152
De Wurdze,59,A,,8561JE,Balk,De Fryske Marren,Friesland,VBO,5.579928,52.902387
De Wurdze,59,,,8561JE,Balk,De Fryske Marren,Friesland,VBO,5.579703,52.902258
De Wurdze,61,,,8561JE,Balk,De Fryske Marren,Friesland,VBO,5.580188,52.902540
De Wurdze,63,,,8561JE,Balk,De Fryske Marren,Friesland,VBO,5.580532,52.902326
Westerbuorren,2,A,,8561JH,Balk,De Fryske Marren,Friesland,VBO,5.570552,52.900047
Westerbuorren,2,,,8561JH,Balk,De Fryske Marren,Friesland,VBO,5.569929,52.900493
Westerbuorren,4,A,,8561JH,Balk,De Fryske Marren,Friesland,VBO,5.570569,52.900068
Westerbuorren,4,,,8561JH,Balk,De Fryske Marren,Friesland,VBO,5.569881,52.900395
Westerbuorren,6,A,,8561JH,Balk,De Fryske Marren,Friesland,VBO,5.570586,52.900088
Westerbuorren,6,,,8561JH,Balk,De Fryske Marren,Friesland,VBO,5.570075,52.900341
Westerbuorren,8,A,,8561JH,Balk,De Fryske Marren,Friesland,VBO,5.570601,52.900108
Westerbuorren,8,,,8561JH,Balk,De Fryske Marren,Friesland,VBO,5.570246,52.900296
Westerbuorren,10,A,,8561JH,Balk,De Fryske Marren,Friesland,VBO,5.570615,52.900130
Westerbuorren,10,,,8561JH,Balk,De Fryske Marren,Friesland,VBO,5.570322,52.900373
Westerbuorren,12,A,,8561JH,Balk,De Fryske Marren,Friesland,VBO,5.570633,52.900151
Westerbuorren,12,,,8561JH,Balk,De Fryske Marren,Friesland,VBO,5.569954,52.900454
Westerbuorren,14,A,,8561JH,Balk,De Fryske Marren,Friesland,VBO,5.570647,52.900170
Westerbuorren,14,,,8561JH,Balk,De Fryske Marren,Friesland,VBO,5.569924,52.900403
Westerbuorren,16,A,,8561JH,Balk,De Fryske Marren,Friesland,VBO,5.570665,52.900189
Westerbuorren,16,,,8561JH,Balk,De Fryske Marren,Friesland,VBO,5.570061,52.900373
Westerbuorren,18,A,,8561JH,Balk,De Fryske Marren,Friesland,VBO,5.570682,52.900210
Westerbuorren,18,,,8561JH,Balk,De Fryske Marren,Friesland,VBO,5.570237,52.900327
Westerbuorren,20,A,,8561JH,Balk,De Fryske Marren,Friesland,VBO,5.570695,52.900231
Westerbuorren,20,,,8561JH,Balk,De Fryske Marren,Friesland,VBO,5.570280,52.900367
Westerbuorren,22,A,,8561JH,Balk,De Fryske Marren,Friesland,VBO,5.570714,52.900251
Westerbuorren,22,,,8561JH,Balk,De Fryske Marren,Friesland,VBO,5.569974,52.900425
Westerbuorren,24,A,,8561JH,Balk,De Fryske Marren,Friesland,VBO,5.570730,52.900271
Westerbuorren,24,,,8561JH,Balk,De Fryske Marren,Friesland,VBO,5.570103,52.900394
Westerbuorren,26,A,,8561JH,Balk,De Fryske Marren,Friesland,VBO,5.570746,52.900293
Westerbuorren,26,,,8561JH,Balk,De Fryske Marren,Friesland,VBO,5.570231,52.900358
Westerbuorren,28,,,8561JH,Balk,De Fryske Marren,Friesland,VBO,5.570998,52.900218
Westerbuorren,30,,,8561JH,Balk,De Fryske Marren,Friesland,VBO,5.571171,52.900127
Westerbuorren,32,,,8561JH,Balk,De Fryske Marren,Friesland,VBO,5.571370,52.899975
Westerbuorren,34,,,8561JH,Balk,De Fryske Marren,Friesland,VBO,5.571726,52.899740
Westerbuorren,36,,,8561JH,Balk,De Fryske Marren,Friesland,VBO,5.571862,52.899605
Westerbuorren,38,,,8561JH,Balk,De Fryske Marren,Friesland,VBO,5.572041,52.899497
Westerbuorren,40,,,8561JH,Balk,De Fryske Marren,Friesland,VBO,5.572198,52.899381
Westerbuorren,42,,,8561JH,Balk,De Fryske Marren,Friesland,VBO,5.572399,52.899243
Noardwâl,13,,,8561KA,Balk,De Fryske Marren,Friesland,VBO,5.587488,52.899354
Noardwâl,35,,,8561KA,Balk,De Fryske Marren,Friesland,VBO,5.589003,52.899848
Noardwâl,37,,,8561KA,Balk,De Fryske Marren,Friesland,VBO,5.589079,52.899877
Noardwâl,39,,,8561KA,Balk,De Fryske Marren,Friesland,VBO,5.589180,52.899916
Noardwâl,41,,,8561KA,Balk,De Fryske Marren,Friesland,VBO,5.589276,52.899953
Noardwâl,43,,,8561KA,Balk,De Fryske Marren,Friesland,VBO,5.589369,52.900012
Noardwâl,45,,,8561KA,Balk,De Fryske Marren,Friesland,VBO,5.589457,52.900051
Noardwâl,47,,,8561KA,Balk,De Fryske Marren,Friesland,VBO,5.589529,52.900116
Noardwâl,49,,,8561KA,Balk,De Fryske Marren,Friesland,VBO,5.589634,52.900154
Noardwâl,51,,,8561KA,Balk,De Fryske Marren,Friesland,VBO,5.589742,52.900192
Noardwâl,53,,,8561KA,Balk,De Fryske Marren,Friesland,VBO,5.589833,52.900228
Noardwâl,55,,,8561KA,Balk,De Fryske Marren,Friesland,VBO,5.589929,52.900265
Noardwâl,57,,,8561KA,Balk,De Fryske Marren,Friesland,VBO,5.590040,52.900304
Eastwâl,2,,,8561KC,Balk,De Fryske Marren,Friesland,VBO,5.587487,52.898244
Eastwâl,4,,,8561KC,Balk,De Fryske Marren,Friesland,VBO,5.587605,52.898287
Eastwâl,6,,,8561KC,Balk,De Fryske Marren,Friesland,VBO,5.587857,52.898380
Eastwâl,8,,,8561KC,Balk,De Fryske Marren,Friesland,VBO,5.587983,52.898426
Eastwâl,10,,,8561KC,Balk,De Fryske Marren,Friesland,VBO,5.589109,52.898881
Eastwâl,12,,,8561KC,Balk,De Fryske Marren,Friesland,VBO,5.589229,52.898921
Eastwâl,14,,,8561KC,Balk,De Fryske Marren,Friesland,VBO,5.589444,52.899005
Eastwâl,16,,,8561KC,Balk,De Fryske Marren,Friesland,VBO,5.589561,52.899046
Eastwâl,18,,,8561KC,Balk,De Fryske Marren,Friesland,VBO,5.589923,52.899180
Eastwâl,20,,,8561KC,Balk,De Fryske Marren,Friesland,VBO,5.590044,52.899224
Eastwâl,22,,,8561KC,Balk,De Fryske Marren,Friesland,VBO,5.590269,52.899312
Eastwâl,24,,,8561KC,Balk,De Fryske Marren,Friesland,VBO,5.590392,52.899354
Talúd,1,,,8561KD,Balk,De Fryske Marren,Friesland,VBO,5.587128,52.898093
Talúd,3,,,8561KD,Balk,De Fryske Marren,Friesland,VBO,5.587179,52.898039
Talúd,5,,,8561KD,Balk,De Fryske Marren,Friesland,VBO,5.587278,52.897946
Talúd,7,,,8561KD,Balk,De Fryske Marren,Friesland,VBO,5.587332,52.897891
Talúd,9,,,8561KD,Balk,De Fryske Marren,Friesland,VBO,5.587722,52.898024
Talúd,11,,,8561KD,Balk,De Fryske Marren,Friesland,VBO,5.587844,52.898065
Talúd,13,,,8561KD,Balk,De Fryske Marren,Friesland,VBO,5.588087,52.898157
Talúd,15,,,8561KD,Balk,De Fryske Marren,Friesland,VBO,5.588211,52.898204
Talúd,17,,,8561KD,Balk,De Fryske Marren,Friesland,VBO,5.588569,52.898355
Talúd,19,,,8561KD,Balk,De Fryske Marren,Friesland,VBO,5.588514,52.898406
Talúd,21,,,8561KD,Balk,De Fryske Marren,Friesland,VBO,5.588420,52.898500
Talúd,23,,,8561KD,Balk,De Fryske Marren,Friesland,VBO,5.588362,52.898548
Talúd,25,,,8561KD,Balk,De Fryske Marren,Friesland,VBO,5.588758,52.898729
Talúd,27,,,8561KD,Balk,De Fryske Marren,Friesland,VBO,5.588806,52.898676
Talúd,29,,,8561KD,Balk,De Fryske Marren,Friesland,VBO,5.588900,52.898579
Talúd,31,,,8561KD,Balk,De Fryske Marren,Friesland,VBO,5.588957,52.898526
Talúd,33,,,8561KD,Balk,De Fryske Marren,Friesland,VBO,5.589338,52.898656
Talúd,35,,,8561KD,Balk,De Fryske Marren,Friesland,VBO,5.589460,52.898699
Talúd,37,,,8561KD,Balk,De Fryske Marren,Friesland,VBO,5.589669,52.898777
Talúd,39,,,8561KD,Balk,De Fryske Marren,Friesland,VBO,5.589793,52.898821
Talúd,41,,,8561KD,Balk,De Fryske Marren,Friesland,VBO,5.590151,52.898960
Talúd,43,,,8561KD,Balk,De Fryske Marren,Friesland,VBO,5.590271,52.898999
Talúd,45,,,8561KD,Balk,De Fryske Marren,Friesland,VBO,5.590506,52.899086
Talúd,47,,,8561KD,Balk,De Fryske Marren,Friesland,VBO,5.590618,52.899130
Talúd,49,,,8561KD,Balk,De Fryske Marren,Friesland,VBO,5.590971,52.899275
Talúd,51,,,8561KD,Balk,De Fryske Marren,Friesland,VBO,5.590917,52.899329
Talúd,53,,,8561KD,Balk,De Fryske Marren,Friesland,VBO,5.590817,52.899421
Talúd,55,,,8561KD,Balk,De Fryske Marren,Friesland,VBO,5.590767,52.899477
