openbareruimtenaam,huisnummer,huisletter,huisnummertoevoeging,postcode,woonplaatsnaam,gemeentenaam,provincienaam,typeadresseerbaarobject,longitude,latitude
Kippenburg,1,,,8567HA,Oudemirdum,De Fryske Marren,Friesland,VBO,5.543110,52.873524
Kippenburg,3,,,8567HA,Oudemirdum,De Fryske Marren,Friesland,VBO,5.547802,52.871142
Kippenburg,4,,,8567HA,Oudemirdum,De Fryske Marren,Friesland,VBO,5.545163,52.874502
Kippenburg,5,,,8567HA,Oudemirdum,De Fryske Marren,Friesland,VBO,5.545164,52.874825
Sminkewei,7,,,8567HB,Oudemirdum,De Fryske Marren,Friesland,VBO,5.544823,52.860437
Sminkewei,8,,,8567HB,Oudemirdum,De Fryske Marren,Friesland,VBO,5.544468,52.862102
Sminkewei,10,,,8567HB,Oudemirdum,De Fryske Marren,Friesland,VBO,5.544829,52.870747
Kooilaan,1,,,8567HC,Oudemirdum,De Fryske Marren,Friesland,VBO,5.537170,52.861551
Kooilaan,3,,,8567HC,Oudemirdum,De Fryske Marren,Friesland,VBO,5.542113,52.863032
Beukenlaan,1,A,,8567HD,Oudemirdum,De Fryske Marren,Friesland,VBO,5.519189,52.856429
Beukenlaan,1,,,8567HD,Oudemirdum,De Fryske Marren,Friesland,VBO,5.518973,52.854646
Beukenlaan,2,,,8567HD,Oudemirdum,De Fryske Marren,Friesland,VBO,5.519227,52.854233
Beukenlaan,3,,,8567HD,Oudemirdum,De Fryske Marren,Friesland,VBO,5.530138,52.861314
Beukenlaan,4,,,8567HD,Oudemirdum,De Fryske Marren,Friesland,VBO,5.533731,52.860981
Beukenlaan,5,,,8567HD,Oudemirdum,De Fryske Marren,Friesland,VBO,5.538239,52.864838
Beukenlaan,6,,,8567HD,Oudemirdum,De Fryske Marren,Friesland,VBO,5.534842,52.862045
Beukenlaan,7,,,8567HD,Oudemirdum,De Fryske Marren,Friesland,VBO,5.538610,52.865035
Beukenlaan,8,,,8567HD,Oudemirdum,De Fryske Marren,Friesland,VBO,5.536137,52.862149
Beukenlaan,9,,,8567HD,Oudemirdum,De Fryske Marren,Friesland,VBO,5.539374,52.865403
Beukenlaan,11,,,8567HD,Oudemirdum,De Fryske Marren,Friesland,VBO,5.540718,52.866129
Beukenlaan,13,,,8567HD,Oudemirdum,De Fryske Marren,Friesland,VBO,5.541205,52.866595
Beukenlaan Z,1,,,8567HE,Oudemirdum,De Fryske Marren,Friesland,VBO,5.524412,52.857455
Beukenlaan Z,2,,,8567HE,Oudemirdum,De Fryske Marren,Friesland,VBO,5.524058,52.857260
Beukenlaan Z,3,,,8567HE,Oudemirdum,De Fryske Marren,Friesland,VBO,5.523723,52.857084
Beukenlaan Z,4,,,8567HE,Oudemirdum,De Fryske Marren,Friesland,VBO,5.523391,52.856884
Beukenlaan Z,5,,,8567HE,Oudemirdum,De Fryske Marren,Friesland,VBO,5.523057,52.856699
Beukenlaan Z,6,,,8567HE,Oudemirdum,De Fryske Marren,Friesland,VBO,5.522699,52.856521
Beukenlaan Z,7,,,8567HE,Oudemirdum,De Fryske Marren,Friesland,VBO,5.522308,52.856309
Beukenlaan Z,8,,,8567HE,Oudemirdum,De Fryske Marren,Friesland,VBO,5.521971,52.856131
Beukenlaan Z,9,,,8567HE,Oudemirdum,De Fryske Marren,Friesland,VBO,5.521561,52.855906
Beukenlaan Z,10,,,8567HE,Oudemirdum,De Fryske Marren,Friesland,VBO,5.523966,52.857745
Beukenlaan Z,11,,,8567HE,Oudemirdum,De Fryske Marren,Friesland,VBO,5.523625,52.857578
Beukenlaan Z,12,,,8567HE,Oudemirdum,De Fryske Marren,Friesland,VBO,5.523297,52.857398
Beukenlaan Z,13,,,8567HE,Oudemirdum,De Fryske Marren,Friesland,VBO,5.522926,52.857222
Beukenlaan Z,17,,,8567HE,Oudemirdum,De Fryske Marren,Friesland,VBO,5.523690,52.857967
Beukenlaan Z,18,,,8567HE,Oudemirdum,De Fryske Marren,Friesland,VBO,5.523204,52.857707
Beukenlaan Z,19,,,8567HE,Oudemirdum,De Fryske Marren,Friesland,VBO,5.522839,52.857551
Beukenlaan Z,20,,,8567HE,Oudemirdum,De Fryske Marren,Friesland,VBO,5.522495,52.857347
Beukenlaan Z,25,,,8567HE,Oudemirdum,De Fryske Marren,Friesland,VBO,5.523453,52.858119
Beukenlaan Z,26,,,8567HE,Oudemirdum,De Fryske Marren,Friesland,VBO,5.523016,52.857909
Beukenlaan Z,27,,,8567HE,Oudemirdum,De Fryske Marren,Friesland,VBO,5.522599,52.857800
Beukenlaan Z,28,,,8567HE,Oudemirdum,De Fryske Marren,Friesland,VBO,5.522235,52.857565
Beukenlaan Z,33,,,8567HE,Oudemirdum,De Fryske Marren,Friesland,VBO,5.523170,52.858271
Beukenlaan Z,34,,,8567HE,Oudemirdum,De Fryske Marren,Friesland,VBO,5.522848,52.858029
Beukenlaan Z,35,,,8567HE,Oudemirdum,De Fryske Marren,Friesland,VBO,5.522439,52.857903
Beukenlaan Z,36,,,8567HE,Oudemirdum,De Fryske Marren,Friesland,VBO,5.522005,52.857767
Beukenlaan Z,14,,,8567HG,Oudemirdum,De Fryske Marren,Friesland,VBO,5.522540,52.857051
Beukenlaan Z,15,,,8567HG,Oudemirdum,De Fryske Marren,Friesland,VBO,5.522163,52.856879
Beukenlaan Z,16,,,8567HG,Oudemirdum,De Fryske Marren,Friesland,VBO,5.521037,52.856309
Beukenlaan Z,21,,,8567HG,Oudemirdum,De Fryske Marren,Friesland,VBO,5.521996,52.857111
Beukenlaan Z,22,,,8567HG,Oudemirdum,De Fryske Marren,Friesland,VBO,5.521699,52.856979
Beukenlaan Z,23,,,8567HG,Oudemirdum,De Fryske Marren,Friesland,VBO,5.521131,52.856885
Beukenlaan Z,24,,,8567HG,Oudemirdum,De Fryske Marren,Friesland,VBO,5.520808,52.856590
Beukenlaan Z,29,,,8567HG,Oudemirdum,De Fryske Marren,Friesland,VBO,5.521845,52.857411
Beukenlaan Z,30,,,8567HG,Oudemirdum,De Fryske Marren,Friesland,VBO,5.521419,52.857220
Beukenlaan Z,31,,,8567HG,Oudemirdum,De Fryske Marren,Friesland,VBO,5.520976,52.857075
Beukenlaan Z,32,,,8567HG,Oudemirdum,De Fryske Marren,Friesland,VBO,5.520527,52.856790
Beukenlaan Z,37,,,8567HG,Oudemirdum,De Fryske Marren,Friesland,VBO,5.521571,52.857591
Beukenlaan Z,38,,,8567HG,Oudemirdum,De Fryske Marren,Friesland,VBO,5.521253,52.857457
Beukenlaan Z,39,,,8567HG,Oudemirdum,De Fryske Marren,Friesland,VBO,5.520828,52.857276
Beukenlaan Z,40,,,8567HG,Oudemirdum,De Fryske Marren,Friesland,VBO,5.520209,52.856971
Jan Schotanuswei,57,,,8567HH,Oudemirdum,De Fryske Marren,Friesland,VBO,5.511209,52.854368
Jan Schotanuswei,61,,,8567HH,Oudemirdum,De Fryske Marren,Friesland,VBO,5.512514,52.856413
Jan Schotanuswei,65,,,8567HH,Oudemirdum,De Fryske Marren,Friesland,VBO,5.504979,52.858608
Jan Schotanuswei,69,,gem,8567HH,Oudemirdum,De Fryske Marren,Friesland,VBO,5.502605,52.854518
Jan Schotanuswei,69,,,8567HH,Oudemirdum,De Fryske Marren,Friesland,VBO,5.504184,52.858676
Jan Schotanuswei,71,T,,8567HH,Oudemirdum,De Fryske Marren,Friesland,VBO,5.504634,52.860042
Jan Schotanuswei,71,,,8567HH,Oudemirdum,De Fryske Marren,Friesland,VBO,5.504455,52.859994
Jan Schotanuswei,100,,,8567HH,Oudemirdum,De Fryske Marren,Friesland,VBO,5.515700,52.855659
Jan Schotanuswei,102,A,,8567HH,Oudemirdum,De Fryske Marren,Friesland,VBO,5.515470,52.855988
Jan Schotanuswei,102,,,8567HH,Oudemirdum,De Fryske Marren,Friesland,VBO,5.515009,52.856097
Jan Schotanuswei,104,,,8567HH,Oudemirdum,De Fryske Marren,Friesland,VBO,5.515365,52.857357
Jan Schotanuswei,106,A,,8567HH,Oudemirdum,De Fryske Marren,Friesland,VBO,5.512478,52.857680
Jan Schotanuswei,106,,,8567HH,Oudemirdum,De Fryske Marren,Friesland,VBO,5.516253,52.857397
Jan Schotanuswei,108,,,8567HH,Oudemirdum,De Fryske Marren,Friesland,VBO,5.508717,52.858897
Jan Schotanuswei,110,,,8567HH,Oudemirdum,De Fryske Marren,Friesland,VBO,5.507470,52.861327
Oude Balksterweg,1,A,,8567HJ,Oudemirdum,De Fryske Marren,Friesland,VBO,5.517118,52.859971
Oude Balksterweg,1,,,8567HJ,Oudemirdum,De Fryske Marren,Friesland,VBO,5.510597,52.859169
Oude Balksterweg,2,,,8567HJ,Oudemirdum,De Fryske Marren,Friesland,VBO,5.512726,52.859138
Oude Balksterweg,3,,,8567HJ,Oudemirdum,De Fryske Marren,Friesland,VBO,5.519464,52.860317
Oude Balksterweg,4,,,8567HJ,Oudemirdum,De Fryske Marren,Friesland,VBO,5.518793,52.859680
Oude Balksterweg,5,,,8567HJ,Oudemirdum,De Fryske Marren,Friesland,VBO,5.520836,52.862102
Oude Balksterweg,7,,,8567HJ,Oudemirdum,De Fryske Marren,Friesland,VBO,5.534843,52.867324
Oude Balksterweg,9,,,8567HJ,Oudemirdum,De Fryske Marren,Friesland,VBO,5.537421,52.870402
Skouleane,1,,,8567HK,Oudemirdum,De Fryske Marren,Friesland,VBO,5.524037,52.866209
Skouleane,2,,,8567HK,Oudemirdum,De Fryske Marren,Friesland,VBO,5.524711,52.866383
Skouleane,6,,,8567HK,Oudemirdum,De Fryske Marren,Friesland,VBO,5.522497,52.866063
Skouleane,8,,,8567HK,Oudemirdum,De Fryske Marren,Friesland,VBO,5.520456,52.865898
Marderhoek,1,,,8567HL,Oudemirdum,De Fryske Marren,Friesland,VBO,5.533992,52.848039
Marderhoek,2,,,8567HL,Oudemirdum,De Fryske Marren,Friesland,VBO,5.534059,52.846866
Marderhoek,3,,,8567HL,Oudemirdum,De Fryske Marren,Friesland,VBO,5.535582,52.845694
Marderhoek,5,,,8567HL,Oudemirdum,De Fryske Marren,Friesland,VBO,5.538488,52.841450
Marderhoek,7,,,8567HL,Oudemirdum,De Fryske Marren,Friesland,VBO,5.538660,52.841163
Liemerige Wei,2,T,,8567HM,Oudemirdum,De Fryske Marren,Friesland,VBO,5.540156,52.839274
Liemerige Wei,2,,,8567HM,Oudemirdum,De Fryske Marren,Friesland,VBO,5.540565,52.838852
Liemerige Wei,4,,,8567HM,Oudemirdum,De Fryske Marren,Friesland,VBO,5.544855,52.834161
Liemerige Wei,6,,,8567HM,Oudemirdum,De Fryske Marren,Friesland,VBO,5.557097,52.835380
Liemerige Wei,8,,,8567HM,Oudemirdum,De Fryske Marren,Friesland,VBO,5.555625,52.835640
De Houtwâl,2,T,,8567HN,Oudemirdum,De Fryske Marren,Friesland,VBO,5.541625,52.866835
De Houtwâl,2,,,8567HN,Oudemirdum,De Fryske Marren,Friesland,VBO,5.542315,52.863345
De Dollen,2,,,8567HP,Oudemirdum,De Fryske Marren,Friesland,VBO,5.532263,52.844416
De Dollen,4,,,8567HP,Oudemirdum,De Fryske Marren,Friesland,VBO,5.531408,52.842531
De Dollen,6,,,8567HP,Oudemirdum,De Fryske Marren,Friesland,VBO,5.532825,52.840420
De Dollen,8,,,8567HP,Oudemirdum,De Fryske Marren,Friesland,VBO,5.534108,52.839284
De Dollen,10,,,8567HP,Oudemirdum,De Fryske Marren,Friesland,VBO,5.536891,52.837517
De Dollen,12,,,8567HP,Oudemirdum,De Fryske Marren,Friesland,VBO,5.538079,52.836853
Stiendollen,1,,,8567HS,Oudemirdum,De Fryske Marren,Friesland,VBO,5.536175,52.851166
Stiendollen,3,,,8567HS,Oudemirdum,De Fryske Marren,Friesland,VBO,5.536185,52.851388
Stiendollen,5,,,8567HS,Oudemirdum,De Fryske Marren,Friesland,VBO,5.536027,52.851552
Stiendollen,7,,,8567HS,Oudemirdum,De Fryske Marren,Friesland,VBO,5.535956,52.851770
Stiendollen,21,,,8567HS,Oudemirdum,De Fryske Marren,Friesland,VBO,5.535744,52.851928
Stiendollen,23,,,8567HS,Oudemirdum,De Fryske Marren,Friesland,VBO,5.535619,52.852252
Stiendollen,25,,,8567HS,Oudemirdum,De Fryske Marren,Friesland,VBO,5.535676,52.852512
Stiendollen,27,,,8567HS,Oudemirdum,De Fryske Marren,Friesland,VBO,5.535518,52.852688
Stiendollen,29,,,8567HS,Oudemirdum,De Fryske Marren,Friesland,VBO,5.535789,52.852780
Stiendollen,31,,,8567HS,Oudemirdum,De Fryske Marren,Friesland,VBO,5.536253,52.852844
Stiendollen,33,,,8567HS,Oudemirdum,De Fryske Marren,Friesland,VBO,5.536662,52.852921
Stiendollen,35,,,8567HS,Oudemirdum,De Fryske Marren,Friesland,VBO,5.536972,52.852911
Stiendollen,37,,,8567HS,Oudemirdum,De Fryske Marren,Friesland,VBO,5.537354,52.852973
Stiendollen,41,,,8567HS,Oudemirdum,De Fryske Marren,Friesland,VBO,5.537840,52.852990
Stiendollen,2,,,8567HT,Oudemirdum,De Fryske Marren,Friesland,VBO,5.536766,52.851503
Stiendollen,4,,,8567HT,Oudemirdum,De Fryske Marren,Friesland,VBO,5.536675,52.851712
Stiendollen,12,,,8567HT,Oudemirdum,De Fryske Marren,Friesland,VBO,5.536571,52.851902
Stiendollen,16,,,8567HT,Oudemirdum,De Fryske Marren,Friesland,VBO,5.536544,52.852066
Stiendollen,18,,,8567HT,Oudemirdum,De Fryske Marren,Friesland,VBO,5.536524,52.852318
Stiendollen,20,,,8567HT,Oudemirdum,De Fryske Marren,Friesland,VBO,5.536396,52.852532
Stiendollen,22,,,8567HT,Oudemirdum,De Fryske Marren,Friesland,VBO,5.536714,52.852549
Stiendollen,24,,,8567HT,Oudemirdum,De Fryske Marren,Friesland,VBO,5.536996,52.852582
Stiendollen,26,,,8567HT,Oudemirdum,De Fryske Marren,Friesland,VBO,5.537331,52.852638
Stiendollen,28,,,8567HT,Oudemirdum,De Fryske Marren,Friesland,VBO,5.538007,52.852768
Liemdobben,5,,,8567HV,Oudemirdum,De Fryske Marren,Friesland,VBO,5.537138,52.851564
Liemdobben,7,,,8567HV,Oudemirdum,De Fryske Marren,Friesland,VBO,5.537128,52.851737
Liemdobben,9,A,,8567HV,Oudemirdum,De Fryske Marren,Friesland,VBO,5.537016,52.852103
Liemdobben,9,,,8567HV,Oudemirdum,De Fryske Marren,Friesland,VBO,5.537013,52.851907
Liemdobben,11,,,8567HV,Oudemirdum,De Fryske Marren,Friesland,VBO,5.537370,52.852440
Liemdobben,13,,,8567HV,Oudemirdum,De Fryske Marren,Friesland,VBO,5.536857,52.852290
Liemdobben,2,,,8567HW,Oudemirdum,De Fryske Marren,Friesland,VBO,5.536414,52.850855
Liemdobben,4,,,8567HW,Oudemirdum,De Fryske Marren,Friesland,VBO,5.536645,52.850921
Liemdobben,6,,,8567HW,Oudemirdum,De Fryske Marren,Friesland,VBO,5.536929,52.850970
Liemdobben,8,,,8567HW,Oudemirdum,De Fryske Marren,Friesland,VBO,5.537191,52.851042
Liemdobben,10,,,8567HW,Oudemirdum,De Fryske Marren,Friesland,VBO,5.537578,52.851116
Liemdobben,14,,,8567HW,Oudemirdum,De Fryske Marren,Friesland,VBO,5.537767,52.851431
Liemdobben,18,,,8567HW,Oudemirdum,De Fryske Marren,Friesland,VBO,5.537578,52.852090
Liemdobben,20,,,8567HW,Oudemirdum,De Fryske Marren,Friesland,VBO,5.537984,52.852101
Liemdobben,22,,,8567HW,Oudemirdum,De Fryske Marren,Friesland,VBO,5.538149,52.852270
Liemdobben,24,,,8567HW,Oudemirdum,De Fryske Marren,Friesland,VBO,5.538009,52.852476
Wyldpaed,1,,,8567HX,Oudemirdum,De Fryske Marren,Friesland,VBO,5.537611,52.851763
Wyldpaed,3,,,8567HX,Oudemirdum,De Fryske Marren,Friesland,VBO,5.538025,52.851844
Wyldpaed,4,,,8567HX,Oudemirdum,De Fryske Marren,Friesland,VBO,5.538136,52.851483
Grôtbuorren,2,,,8567JA,Oudemirdum,De Fryske Marren,Friesland,VBO,5.539071,52.851579
Grôtbuorren,4,,,8567JA,Oudemirdum,De Fryske Marren,Friesland,VBO,5.538927,52.851776
Grôtbuorren,6,,,8567JA,Oudemirdum,De Fryske Marren,Friesland,VBO,5.538836,52.852046
Heidepaed,10,,,8567JB,Oudemirdum,De Fryske Marren,Friesland,VBO,5.547943,52.856901
Sminkewei,1,,,8567JB,Oudemirdum,De Fryske Marren,Friesland,VBO,5.545973,52.853362
Sminkewei,2,,,8567JB,Oudemirdum,De Fryske Marren,Friesland,VBO,5.546483,52.854321
Sminkewei,3,,,8567JB,Oudemirdum,De Fryske Marren,Friesland,VBO,5.546346,52.854586
Sminkewei,4,,,8567JB,Oudemirdum,De Fryske Marren,Friesland,VBO,5.546187,52.855409
Sminkewei,5,,,8567JB,Oudemirdum,De Fryske Marren,Friesland,VBO,5.546096,52.855510
Boegen,1,,,8567JC,Oudemirdum,De Fryske Marren,Friesland,VBO,5.547468,52.853689
Boegen,2,,,8567JC,Oudemirdum,De Fryske Marren,Friesland,VBO,5.544355,52.852382
Boegen,3,,,8567JC,Oudemirdum,De Fryske Marren,Friesland,VBO,5.549287,52.853845
Boegen,4,T,,8567JC,Oudemirdum,De Fryske Marren,Friesland,VBO,5.546434,52.853091
Boegen,4,,,8567JC,Oudemirdum,De Fryske Marren,Friesland,VBO,5.544868,52.852494
Boegen,5,,,8567JC,Oudemirdum,De Fryske Marren,Friesland,VBO,5.550255,52.853970
Boegen,6,A,,8567JC,Oudemirdum,De Fryske Marren,Friesland,VBO,5.549026,52.852807
Boegen,6,,,8567JC,Oudemirdum,De Fryske Marren,Friesland,VBO,5.548702,52.852867
Boegen,8,,,8567JC,Oudemirdum,De Fryske Marren,Friesland,VBO,5.549133,52.853495
Boegen,10,,,8567JC,Oudemirdum,De Fryske Marren,Friesland,VBO,5.551133,52.850244
Boegen,12,,,8567JC,Oudemirdum,De Fryske Marren,Friesland,VBO,5.552212,52.853307
De Brink,1,,,8567JD,Oudemirdum,De Fryske Marren,Friesland,VBO,5.533668,52.849431
De Brink,2,,,8567JD,Oudemirdum,De Fryske Marren,Friesland,VBO,5.533070,52.849274
De Brink,3,,,8567JD,Oudemirdum,De Fryske Marren,Friesland,VBO,5.533928,52.849315
De Brink,4,,,8567JD,Oudemirdum,De Fryske Marren,Friesland,VBO,5.533169,52.849124
De Brink,5,A,,8567JD,Oudemirdum,De Fryske Marren,Friesland,VBO,5.534253,52.849193
De Brink,5,,,8567JD,Oudemirdum,De Fryske Marren,Friesland,VBO,5.533832,52.849136
De Brink,6,,,8567JD,Oudemirdum,De Fryske Marren,Friesland,VBO,5.533098,52.849028
De Brink,7,,,8567JD,Oudemirdum,De Fryske Marren,Friesland,VBO,5.533955,52.849027
De Brink,8,,,8567JD,Oudemirdum,De Fryske Marren,Friesland,VBO,5.533242,52.848989
De Brink,9,,,8567JD,Oudemirdum,De Fryske Marren,Friesland,VBO,5.533998,52.848929
De Brink,11,,,8567JD,Oudemirdum,De Fryske Marren,Friesland,VBO,5.534018,52.848851
De Brink,12,,,8567JD,Oudemirdum,De Fryske Marren,Friesland,VBO,5.533293,52.848855
De Brink,13,A,,8567JD,Oudemirdum,De Fryske Marren,Friesland,VBO,5.534042,52.848737
De Brink,13,B,,8567JD,Oudemirdum,De Fryske Marren,Friesland,VBO,5.534070,52.848680
De Brink,13,C,,8567JD,Oudemirdum,De Fryske Marren,Friesland,VBO,5.534107,52.848716
De Brink,13,,,8567JD,Oudemirdum,De Fryske Marren,Friesland,VBO,5.534014,52.848698
De Brink,13,,,8567JD,Oudemirdum,De Fryske Marren,Friesland,VBO,5.534185,52.848766
De Brink,16,,,8567JD,Oudemirdum,De Fryske Marren,Friesland,VBO,5.533334,52.848762
De Brink,18,,,8567JD,Oudemirdum,De Fryske Marren,Friesland,VBO,5.533404,52.848678
De Brink,20,,,8567JD,Oudemirdum,De Fryske Marren,Friesland,VBO,5.533360,52.848608
De Brink,22,,,8567JD,Oudemirdum,De Fryske Marren,Friesland,VBO,5.533477,52.848558
De Brink,24,,,8567JD,Oudemirdum,De Fryske Marren,Friesland,VBO,5.533504,52.848515
Kerkstraat,1,,,8567JE,Oudemirdum,De Fryske Marren,Friesland,VBO,5.533137,52.849859
Kerkstraat,5,,,8567JE,Oudemirdum,De Fryske Marren,Friesland,VBO,5.534584,52.850028
Kerkstraat,7,,,8567JE,Oudemirdum,De Fryske Marren,Friesland,VBO,5.534668,52.850057
Kerkstraat,9,,,8567JE,Oudemirdum,De Fryske Marren,Friesland,VBO,5.534744,52.850076
Kerkstraat,11,,,8567JE,Oudemirdum,De Fryske Marren,Friesland,VBO,5.534810,52.850089
Kerkstraat,13,,,8567JE,Oudemirdum,De Fryske Marren,Friesland,VBO,5.534974,52.850148
Kerkstraat,15,,,8567JE,Oudemirdum,De Fryske Marren,Friesland,VBO,5.535182,52.850216
Kerkstraat,17,,,8567JE,Oudemirdum,De Fryske Marren,Friesland,VBO,5.535956,52.850587
Kerkstraat,19,,,8567JE,Oudemirdum,De Fryske Marren,Friesland,VBO,5.537991,52.851043
Kerkstraat,21,,,8567JE,Oudemirdum,De Fryske Marren,Friesland,VBO,5.538092,52.851069
Kerkstraat,23,,,8567JE,Oudemirdum,De Fryske Marren,Friesland,VBO,5.538279,52.851121
Kerkstraat,25,,,8567JE,Oudemirdum,De Fryske Marren,Friesland,VBO,5.538378,52.851150
Kerkstraat,27,,,8567JE,Oudemirdum,De Fryske Marren,Friesland,VBO,5.539295,52.851372
Kerkstraat,4,,,8567JG,Oudemirdum,De Fryske Marren,Friesland,VBO,5.533962,52.849471
Kerkstraat,6,A,,8567JG,Oudemirdum,De Fryske Marren,Friesland,VBO,5.534346,52.849589
Kerkstraat,6,B,,8567JG,Oudemirdum,De Fryske Marren,Friesland,VBO,5.534426,52.849569
Kerkstraat,6,,,8567JG,Oudemirdum,De Fryske Marren,Friesland,VBO,5.534285,52.849615
Kerkstraat,8,,,8567JG,Oudemirdum,De Fryske Marren,Friesland,VBO,5.534544,52.849664
Kerkstraat,10,,,8567JG,Oudemirdum,De Fryske Marren,Friesland,VBO,5.534761,52.849704
Kerkstraat,12,,,8567JG,Oudemirdum,De Fryske Marren,Friesland,VBO,5.534817,52.849777
Kerkstraat,14,,,8567JG,Oudemirdum,De Fryske Marren,Friesland,VBO,5.535036,52.849799
Kerkstraat,16,,,8567JG,Oudemirdum,De Fryske Marren,Friesland,VBO,5.535253,52.849857
Kerkstraat,18,,,8567JG,Oudemirdum,De Fryske Marren,Friesland,VBO,5.535323,52.849881
Kerkstraat,20,,,8567JH,Oudemirdum,De Fryske Marren,Friesland,VBO,5.535750,52.849972
Kerkstraat,22,,,8567JH,Oudemirdum,De Fryske Marren,Friesland,VBO,5.535856,52.850001
Kerkstraat,24,,,8567JH,Oudemirdum,De Fryske Marren,Friesland,VBO,5.535944,52.850026
Kerkstraat,26,,,8567JH,Oudemirdum,De Fryske Marren,Friesland,VBO,5.536035,52.850051
Kerkstraat,28,,,8567JH,Oudemirdum,De Fryske Marren,Friesland,VBO,5.536195,52.850106
Kerkstraat,30,,,8567JH,Oudemirdum,De Fryske Marren,Friesland,VBO,5.536308,52.850104
Kerkstraat,32,,,8567JH,Oudemirdum,De Fryske Marren,Friesland,VBO,5.536475,52.850256
Kerkstraat,34,,,8567JH,Oudemirdum,De Fryske Marren,Friesland,VBO,5.536522,52.850193
Kerkstraat,36,,,8567JH,Oudemirdum,De Fryske Marren,Friesland,VBO,5.536562,52.850140
Kerkstraat,38,,,8567JH,Oudemirdum,De Fryske Marren,Friesland,VBO,5.536647,52.850091
Kerkstraat,40,,,8567JH,Oudemirdum,De Fryske Marren,Friesland,VBO,5.536936,52.850326
Kerkstraat,42,,,8567JH,Oudemirdum,De Fryske Marren,Friesland,VBO,5.537034,52.850331
Kerkstraat,44,,,8567JH,Oudemirdum,De Fryske Marren,Friesland,VBO,5.537124,52.850357
Kerkstraat,46,,,8567JH,Oudemirdum,De Fryske Marren,Friesland,VBO,5.537329,52.850385
Kerkstraat,48,,,8567JH,Oudemirdum,De Fryske Marren,Friesland,VBO,5.537440,52.850441
Kerkstraat,50,,,8567JH,Oudemirdum,De Fryske Marren,Friesland,VBO,5.538517,52.850724
Kerkstraat,52,,,8567JH,Oudemirdum,De Fryske Marren,Friesland,VBO,5.538618,52.850751
Kerkstraat,54,,,8567JH,Oudemirdum,De Fryske Marren,Friesland,VBO,5.538703,52.850775
Kerkstraat,56,,,8567JH,Oudemirdum,De Fryske Marren,Friesland,VBO,5.538857,52.850799
Kerkstraat,58,,,8567JH,Oudemirdum,De Fryske Marren,Friesland,VBO,5.538953,52.850833
De Lysterfanger,1,,,8567JJ,Oudemirdum,De Fryske Marren,Friesland,VBO,5.535881,52.849833
De Lysterfanger,2,,,8567JJ,Oudemirdum,De Fryske Marren,Friesland,VBO,5.535389,52.849762
De Lysterfanger,3,,,8567JJ,Oudemirdum,De Fryske Marren,Friesland,VBO,5.535936,52.849767
De Lysterfanger,4,,,8567JJ,Oudemirdum,De Fryske Marren,Friesland,VBO,5.535439,52.849697
De Lysterfanger,5,,,8567JJ,Oudemirdum,De Fryske Marren,Friesland,VBO,5.535964,52.849724
De Lysterfanger,6,,,8567JJ,Oudemirdum,De Fryske Marren,Friesland,VBO,5.535505,52.849611
De Lysterfanger,7,,,8567JJ,Oudemirdum,De Fryske Marren,Friesland,VBO,5.536009,52.849665
De Lysterfanger,8,,,8567JJ,Oudemirdum,De Fryske Marren,Friesland,VBO,5.536274,52.849430
De Ikebosker,1,,,8567JK,Oudemirdum,De Fryske Marren,Friesland,VBO,5.534926,52.849519
De Ikebosker,3,,,8567JK,Oudemirdum,De Fryske Marren,Friesland,VBO,5.535029,52.849541
De Ikebosker,5,,,8567JK,Oudemirdum,De Fryske Marren,Friesland,VBO,5.535135,52.849580
De Ikebosker,7,,,8567JK,Oudemirdum,De Fryske Marren,Friesland,VBO,5.535232,52.849604
De Ikebosker,9,,,8567JK,Oudemirdum,De Fryske Marren,Friesland,VBO,5.536232,52.849805
De Ikebosker,11,,,8567JK,Oudemirdum,De Fryske Marren,Friesland,VBO,5.536341,52.849834
De Ikebosker,13,,,8567JK,Oudemirdum,De Fryske Marren,Friesland,VBO,5.536425,52.849856
De Ikebosker,15,A,,8567JK,Oudemirdum,De Fryske Marren,Friesland,VBO,5.536651,52.849930
De Ikebosker,15,,,8567JK,Oudemirdum,De Fryske Marren,Friesland,VBO,5.536521,52.849882
De Ikebosker,17,,,8567JK,Oudemirdum,De Fryske Marren,Friesland,VBO,5.537241,52.850042
De Ikebosker,19,,,8567JK,Oudemirdum,De Fryske Marren,Friesland,VBO,5.537201,52.850094
De Ikebosker,21,,,8567JK,Oudemirdum,De Fryske Marren,Friesland,VBO,5.537151,52.850159
De Ikebosker,23,,,8567JK,Oudemirdum,De Fryske Marren,Friesland,VBO,5.537555,52.850173
De Ikebosker,25,,,8567JK,Oudemirdum,De Fryske Marren,Friesland,VBO,5.537656,52.850201
De Ikebosker,27,,,8567JK,Oudemirdum,De Fryske Marren,Friesland,VBO,5.537742,52.850225
De Ikebosker,29,,,8567JK,Oudemirdum,De Fryske Marren,Friesland,VBO,5.537937,52.850288
De Ikebosker,31,,,8567JK,Oudemirdum,De Fryske Marren,Friesland,VBO,5.537766,52.850456
De Ikebosker,33,,,8567JK,Oudemirdum,De Fryske Marren,Friesland,VBO,5.537728,52.850504
De Ikebosker,35,,,8567JK,Oudemirdum,De Fryske Marren,Friesland,VBO,5.537681,52.850567
De Ikebosker,6,,,8567JL,Oudemirdum,De Fryske Marren,Friesland,VBO,5.536225,52.849489
De Ikebosker,8,,,8567JL,Oudemirdum,De Fryske Marren,Friesland,VBO,5.535553,52.849548
De Ikebosker,10,,,8567JL,Oudemirdum,De Fryske Marren,Friesland,VBO,5.536314,52.849372
De Ikebosker,12,,,8567JL,Oudemirdum,De Fryske Marren,Friesland,VBO,5.536358,52.849314
De Ikebosker,14,,,8567JL,Oudemirdum,De Fryske Marren,Friesland,VBO,5.536400,52.849258
De Ikebosker,16,,,8567JL,Oudemirdum,De Fryske Marren,Friesland,VBO,5.536604,52.849604
De Ikebosker,18,,,8567JL,Oudemirdum,De Fryske Marren,Friesland,VBO,5.536656,52.849536
De Ikebosker,20,,,8567JL,Oudemirdum,De Fryske Marren,Friesland,VBO,5.536700,52.849479
De Ikebosker,22,,,8567JL,Oudemirdum,De Fryske Marren,Friesland,VBO,5.536743,52.849422
De Ikebosker,24,,,8567JL,Oudemirdum,De Fryske Marren,Friesland,VBO,5.536782,52.849371
De Ikebosker,26,,,8567JL,Oudemirdum,De Fryske Marren,Friesland,VBO,5.536990,52.849709
De Ikebosker,28,,,8567JL,Oudemirdum,De Fryske Marren,Friesland,VBO,5.537065,52.849642
De Ikebosker,30,,,8567JL,Oudemirdum,De Fryske Marren,Friesland,VBO,5.537083,52.849587
De Ikebosker,32,,,8567JL,Oudemirdum,De Fryske Marren,Friesland,VBO,5.537125,52.849531
De Ikebosker,34,,,8567JL,Oudemirdum,De Fryske Marren,Friesland,VBO,5.537168,52.849475
De Ikebosker,36,,,8567JL,Oudemirdum,De Fryske Marren,Friesland,VBO,5.537327,52.849735
De Ikebosker,38,,,8567JL,Oudemirdum,De Fryske Marren,Friesland,VBO,5.537450,52.849768
De Ikebosker,40,,,8567JL,Oudemirdum,De Fryske Marren,Friesland,VBO,5.537523,52.849789
De Ikebosker,42,,,8567JL,Oudemirdum,De Fryske Marren,Friesland,VBO,5.537590,52.849803
De Ikebosker,44,,,8567JL,Oudemirdum,De Fryske Marren,Friesland,VBO,5.537662,52.849822
De Ikebosker,46,,,8567JL,Oudemirdum,De Fryske Marren,Friesland,VBO,5.538266,52.850052
De Ikebosker,48,,,8567JL,Oudemirdum,De Fryske Marren,Friesland,VBO,5.538368,52.850087
De Ikebosker,50,,,8567JL,Oudemirdum,De Fryske Marren,Friesland,VBO,5.538434,52.850106
De Ikebosker,52,,,8567JL,Oudemirdum,De Fryske Marren,Friesland,VBO,5.538519,52.850123
De Ikebosker,54,,,8567JL,Oudemirdum,De Fryske Marren,Friesland,VBO,5.538481,52.850371
De Ikebosker,56,,,8567JL,Oudemirdum,De Fryske Marren,Friesland,VBO,5.538455,52.850415
De Ikebosker,58,,,8567JL,Oudemirdum,De Fryske Marren,Friesland,VBO,5.538400,52.850481
De Ikebosker,60,,,8567JL,Oudemirdum,De Fryske Marren,Friesland,VBO,5.538314,52.850543
De Ikebosker,62,,,8567JL,Oudemirdum,De Fryske Marren,Friesland,VBO,5.538281,52.850587
De Ikebosker,64,,,8567JL,Oudemirdum,De Fryske Marren,Friesland,VBO,5.538246,52.850636
De Ikebosker,66,,,8567JL,Oudemirdum,De Fryske Marren,Friesland,VBO,5.538200,52.850700
De Snipfanger,1,,,8567JM,Oudemirdum,De Fryske Marren,Friesland,VBO,5.535653,52.849313
De Snipfanger,2,,,8567JM,Oudemirdum,De Fryske Marren,Friesland,VBO,5.534987,52.849311
De Snipfanger,3,,,8567JM,Oudemirdum,De Fryske Marren,Friesland,VBO,5.535722,52.849241
De Snipfanger,4,,,8567JM,Oudemirdum,De Fryske Marren,Friesland,VBO,5.535035,52.849248
De Snipfanger,5,,,8567JM,Oudemirdum,De Fryske Marren,Friesland,VBO,5.535798,52.849017
De Snipfanger,6,,,8567JM,Oudemirdum,De Fryske Marren,Friesland,VBO,5.535106,52.849156
De Snipfanger,7,,,8567JM,Oudemirdum,De Fryske Marren,Friesland,VBO,5.535891,52.849068
De Snipfanger,8,,,8567JM,Oudemirdum,De Fryske Marren,Friesland,VBO,5.535157,52.849089
De Snipfanger,9,,,8567JM,Oudemirdum,De Fryske Marren,Friesland,VBO,5.535982,52.849102
De Snipfanger,11,,,8567JM,Oudemirdum,De Fryske Marren,Friesland,VBO,5.536039,52.849109
Hegewei,2,,,8567JN,Oudemirdum,De Fryske Marren,Friesland,VBO,5.534318,52.849943
Hegewei,4,,,8567JN,Oudemirdum,De Fryske Marren,Friesland,VBO,5.534276,52.849997
Hegewei,6,,,8567JN,Oudemirdum,De Fryske Marren,Friesland,VBO,5.534250,52.850043
Hegewei,8,,,8567JN,Oudemirdum,De Fryske Marren,Friesland,VBO,5.534258,52.850094
Hegewei,12,,,8567JN,Oudemirdum,De Fryske Marren,Friesland,VBO,5.533888,52.850487
Hegewei,14,,,8567JN,Oudemirdum,De Fryske Marren,Friesland,VBO,5.533669,52.850472
Hegewei,16,,,8567JN,Oudemirdum,De Fryske Marren,Friesland,VBO,5.533188,52.850524
Binnenwei,1,,,8567JP,Oudemirdum,De Fryske Marren,Friesland,VBO,5.534186,52.850501
Binnenwei,2,A,,8567JP,Oudemirdum,De Fryske Marren,Friesland,VBO,5.534146,52.850179
Binnenwei,2,,,8567JP,Oudemirdum,De Fryske Marren,Friesland,VBO,5.534431,52.850250
Binnenwei,3,,,8567JP,Oudemirdum,De Fryske Marren,Friesland,VBO,5.534291,52.850531
Binnenwei,4,,,8567JP,Oudemirdum,De Fryske Marren,Friesland,VBO,5.534607,52.850307
Binnenwei,5,,,8567JP,Oudemirdum,De Fryske Marren,Friesland,VBO,5.534397,52.850563
Binnenwei,6,,,8567JP,Oudemirdum,De Fryske Marren,Friesland,VBO,5.534696,52.850332
Binnenwei,7,,,8567JP,Oudemirdum,De Fryske Marren,Friesland,VBO,5.534495,52.850556
Binnenwei,8,,,8567JP,Oudemirdum,De Fryske Marren,Friesland,VBO,5.534784,52.850365
Binnenwei,9,,,8567JP,Oudemirdum,De Fryske Marren,Friesland,VBO,5.534630,52.850643
Binnenwei,10,,,8567JP,Oudemirdum,De Fryske Marren,Friesland,VBO,5.534853,52.850378
Gaestwei,1,,,8567JR,Oudemirdum,De Fryske Marren,Friesland,VBO,5.533205,52.851155
Gaestwei,3,,,8567JR,Oudemirdum,De Fryske Marren,Friesland,VBO,5.533094,52.851354
Gaestwei,5,,,8567JR,Oudemirdum,De Fryske Marren,Friesland,VBO,5.533526,52.851459
Gaestwei,7,,,8567JR,Oudemirdum,De Fryske Marren,Friesland,VBO,5.533880,52.851457
Gaestwei,9,,,8567JR,Oudemirdum,De Fryske Marren,Friesland,VBO,5.533983,52.851256
Gaestwei,11,,,8567JR,Oudemirdum,De Fryske Marren,Friesland,VBO,5.534365,52.851290
Gaestwei,13,,,8567JR,Oudemirdum,De Fryske Marren,Friesland,VBO,5.534301,52.851541
Gaestwei,15,,,8567JR,Oudemirdum,De Fryske Marren,Friesland,VBO,5.534686,52.851643
Gaestwei,17,,,8567JR,Oudemirdum,De Fryske Marren,Friesland,VBO,5.535105,52.851611
Gaestwei,19,,,8567JR,Oudemirdum,De Fryske Marren,Friesland,VBO,5.535194,52.851396
Gaestwei,21,,,8567JR,Oudemirdum,De Fryske Marren,Friesland,VBO,5.535282,52.851175
Gaestwei,23,,,8567JR,Oudemirdum,De Fryske Marren,Friesland,VBO,5.535388,52.850954
Gaestwei,25,,,8567JR,Oudemirdum,De Fryske Marren,Friesland,VBO,5.535563,52.850586
Gaestwei,27,,,8567JR,Oudemirdum,De Fryske Marren,Friesland,VBO,5.535664,52.850372
Gaestwei,2,,,8567JS,Oudemirdum,De Fryske Marren,Friesland,VBO,5.532900,52.850829
Gaestwei,4,,,8567JS,Oudemirdum,De Fryske Marren,Friesland,VBO,5.533174,52.850826
Gaestwei,6,,,8567JS,Oudemirdum,De Fryske Marren,Friesland,VBO,5.533294,52.850844
Gaestwei,8,,,8567JS,Oudemirdum,De Fryske Marren,Friesland,VBO,5.533399,52.850853
Gaestwei,10,,,8567JS,Oudemirdum,De Fryske Marren,Friesland,VBO,5.533476,52.850854
Gaestwei,12,,,8567JS,Oudemirdum,De Fryske Marren,Friesland,VBO,5.533642,52.850870
Gaestwei,14,,,8567JS,Oudemirdum,De Fryske Marren,Friesland,VBO,5.533766,52.850882
Gaestwei,16,,,8567JS,Oudemirdum,De Fryske Marren,Friesland,VBO,5.533866,52.850891
Gaestwei,18,,,8567JS,Oudemirdum,De Fryske Marren,Friesland,VBO,5.533960,52.850900
Gaestwei,20,,,8567JS,Oudemirdum,De Fryske Marren,Friesland,VBO,5.534132,52.850916
Gaestwei,22,,,8567JS,Oudemirdum,De Fryske Marren,Friesland,VBO,5.534247,52.850926
Gaestwei,24,,,8567JS,Oudemirdum,De Fryske Marren,Friesland,VBO,5.534350,52.850936
Gaestwei,26,,,8567JS,Oudemirdum,De Fryske Marren,Friesland,VBO,5.534443,52.850944
Gaestwei,28,,,8567JS,Oudemirdum,De Fryske Marren,Friesland,VBO,5.534779,52.851005
Gaestwei,30,A,,8567JS,Oudemirdum,De Fryske Marren,Friesland,VBO,5.534910,52.850749
Gaestwei,30,,,8567JS,Oudemirdum,De Fryske Marren,Friesland,VBO,5.534818,52.850924
Gaestwei,32,,,8567JS,Oudemirdum,De Fryske Marren,Friesland,VBO,5.535039,52.850485
Gaestwei,34,,,8567JS,Oudemirdum,De Fryske Marren,Friesland,VBO,5.535068,52.850426
Gaestwei,36,,,8567JS,Oudemirdum,De Fryske Marren,Friesland,VBO,5.535099,52.850365
Fonteinwei,1,T,,8567JT,Oudemirdum,De Fryske Marren,Friesland,VBO,5.532374,52.849857
Fonteinwei,1,,,8567JT,Oudemirdum,De Fryske Marren,Friesland,VBO,5.532581,52.849777
Fonteinwei,3,,,8567JT,Oudemirdum,De Fryske Marren,Friesland,VBO,5.532385,52.849992
Fonteinwei,4,,,8567JT,Oudemirdum,De Fryske Marren,Friesland,VBO,5.532899,52.850777
Fonteinwei,5,,,8567JT,Oudemirdum,De Fryske Marren,Friesland,VBO,5.532392,52.850235
Fonteinwei,6,,,8567JT,Oudemirdum,De Fryske Marren,Friesland,VBO,5.532821,52.851123
Fonteinwei,7,,,8567JT,Oudemirdum,De Fryske Marren,Friesland,VBO,5.532304,52.850593
Fonteinwei,8,,,8567JT,Oudemirdum,De Fryske Marren,Friesland,VBO,5.532760,52.851397
Fonteinwei,9,A,,8567JT,Oudemirdum,De Fryske Marren,Friesland,VBO,5.532035,52.850847
Fonteinwei,9,,,8567JT,Oudemirdum,De Fryske Marren,Friesland,VBO,5.532250,52.850866
Fonteinwei,10,,,8567JT,Oudemirdum,De Fryske Marren,Friesland,VBO,5.532771,52.851653
Fonteinwei,11,,,8567JT,Oudemirdum,De Fryske Marren,Friesland,VBO,5.531866,52.851244
Fonteinwei,12,,1,8567JT,Oudemirdum,De Fryske Marren,Friesland,VBO,5.533003,52.852460
Fonteinwei,12,,10,8567JT,Oudemirdum,De Fryske Marren,Friesland,VBO,5.534314,52.851911
Fonteinwei,12,,11,8567JT,Oudemirdum,De Fryske Marren,Friesland,VBO,5.534789,52.851961
Fonteinwei,12,,12,8567JT,Oudemirdum,De Fryske Marren,Friesland,VBO,5.534940,52.852146
Fonteinwei,12,,13,8567JT,Oudemirdum,De Fryske Marren,Friesland,VBO,5.534872,52.852394
Fonteinwei,12,,14,8567JT,Oudemirdum,De Fryske Marren,Friesland,VBO,5.534494,52.852143
Fonteinwei,12,,15,8567JT,Oudemirdum,De Fryske Marren,Friesland,VBO,5.534120,52.852161
Fonteinwei,12,,16,8567JT,Oudemirdum,De Fryske Marren,Friesland,VBO,5.534088,52.852346
Fonteinwei,12,,17,8567JT,Oudemirdum,De Fryske Marren,Friesland,VBO,5.534488,52.852413
Fonteinwei,12,,18,8567JT,Oudemirdum,De Fryske Marren,Friesland,VBO,5.534076,52.852541
Fonteinwei,12,,19,8567JT,Oudemirdum,De Fryske Marren,Friesland,VBO,5.533812,52.852390
Fonteinwei,12,,2,8567JT,Oudemirdum,De Fryske Marren,Friesland,VBO,5.533389,52.852511
Fonteinwei,12,,20,8567JT,Oudemirdum,De Fryske Marren,Friesland,VBO,5.534473,52.852651
Fonteinwei,12,,21,8567JT,Oudemirdum,De Fryske Marren,Friesland,VBO,5.534860,52.852641
Fonteinwei,12,,22,8567JT,Oudemirdum,De Fryske Marren,Friesland,VBO,5.534688,52.852901
Fonteinwei,12,,23,8567JT,Oudemirdum,De Fryske Marren,Friesland,VBO,5.534236,52.852807
Fonteinwei,12,,24,8567JT,Oudemirdum,De Fryske Marren,Friesland,VBO,5.534458,52.853041
Fonteinwei,12,,25,8567JT,Oudemirdum,De Fryske Marren,Friesland,VBO,5.534550,52.853257
Fonteinwei,12,,26,8567JT,Oudemirdum,De Fryske Marren,Friesland,VBO,5.534819,52.853133
Fonteinwei,12,,27,8567JT,Oudemirdum,De Fryske Marren,Friesland,VBO,5.534730,52.853503
Fonteinwei,12,,28,8567JT,Oudemirdum,De Fryske Marren,Friesland,VBO,5.534329,52.853413
Fonteinwei,12,,29,8567JT,Oudemirdum,De Fryske Marren,Friesland,VBO,5.534087,52.853161
Fonteinwei,12,,3,8567JT,Oudemirdum,De Fryske Marren,Friesland,VBO,5.533053,52.852228
Fonteinwei,12,,30,8567JT,Oudemirdum,De Fryske Marren,Friesland,VBO,5.533901,52.852806
Fonteinwei,12,,31,8567JT,Oudemirdum,De Fryske Marren,Friesland,VBO,5.533726,52.853042
Fonteinwei,12,,32,8567JT,Oudemirdum,De Fryske Marren,Friesland,VBO,5.533528,52.853281
Fonteinwei,12,,33,8567JT,Oudemirdum,De Fryske Marren,Friesland,VBO,5.533302,52.853474
Fonteinwei,12,,34,8567JT,Oudemirdum,De Fryske Marren,Friesland,VBO,5.533900,52.853397
Fonteinwei,12,,35,8567JT,Oudemirdum,De Fryske Marren,Friesland,VBO,5.533624,52.853584
Fonteinwei,12,,36,8567JT,Oudemirdum,De Fryske Marren,Friesland,VBO,5.533293,52.853700
Fonteinwei,12,,37,8567JT,Oudemirdum,De Fryske Marren,Friesland,VBO,5.534105,52.853642
Fonteinwei,12,,38,8567JT,Oudemirdum,De Fryske Marren,Friesland,VBO,5.534571,52.853704
Fonteinwei,12,,39,8567JT,Oudemirdum,De Fryske Marren,Friesland,VBO,5.534347,52.853902
Fonteinwei,12,,4,8567JT,Oudemirdum,De Fryske Marren,Friesland,VBO,5.533245,52.852052
Fonteinwei,12,,40,8567JT,Oudemirdum,De Fryske Marren,Friesland,VBO,5.533508,52.853852
Fonteinwei,12,,41,8567JT,Oudemirdum,De Fryske Marren,Friesland,VBO,5.533952,52.853879
Fonteinwei,12,,42,8567JT,Oudemirdum,De Fryske Marren,Friesland,VBO,5.533603,52.854047
Fonteinwei,12,,43,8567JT,Oudemirdum,De Fryske Marren,Friesland,VBO,5.534049,52.854183
Fonteinwei,12,,44,8567JT,Oudemirdum,De Fryske Marren,Friesland,VBO,5.534433,52.854168
Fonteinwei,12,,45,8567JT,Oudemirdum,De Fryske Marren,Friesland,VBO,5.534273,52.854418
Fonteinwei,12,,46,8567JT,Oudemirdum,De Fryske Marren,Friesland,VBO,5.533916,52.854451
Fonteinwei,12,,47,8567JT,Oudemirdum,De Fryske Marren,Friesland,VBO,5.533481,52.854445
Fonteinwei,12,,48,8567JT,Oudemirdum,De Fryske Marren,Friesland,VBO,5.533341,52.854188
Fonteinwei,12,,49,8567JT,Oudemirdum,De Fryske Marren,Friesland,VBO,5.533168,52.853997
Fonteinwei,12,,5,8567JT,Oudemirdum,De Fryske Marren,Friesland,VBO,5.533430,52.852310
Fonteinwei,12,,50,8567JT,Oudemirdum,De Fryske Marren,Friesland,VBO,5.532954,52.853837
Fonteinwei,12,,51,8567JT,Oudemirdum,De Fryske Marren,Friesland,VBO,5.532861,52.853633
Fonteinwei,12,,52,8567JT,Oudemirdum,De Fryske Marren,Friesland,VBO,5.532910,52.853383
Fonteinwei,12,,53,8567JT,Oudemirdum,De Fryske Marren,Friesland,VBO,5.532997,52.853147
Fonteinwei,12,,54,8567JT,Oudemirdum,De Fryske Marren,Friesland,VBO,5.533329,52.853015
Fonteinwei,12,,55,8567JT,Oudemirdum,De Fryske Marren,Friesland,VBO,5.533487,52.852768
Fonteinwei,12,,6,8567JT,Oudemirdum,De Fryske Marren,Friesland,VBO,5.533325,52.851870
Fonteinwei,12,,7,8567JT,Oudemirdum,De Fryske Marren,Friesland,VBO,5.533647,52.851969
Fonteinwei,12,,8,8567JT,Oudemirdum,De Fryske Marren,Friesland,VBO,5.533785,52.852190
Fonteinwei,12,,9,8567JT,Oudemirdum,De Fryske Marren,Friesland,VBO,5.533980,52.851899
Fonteinwei,12,,,8567JT,Oudemirdum,De Fryske Marren,Friesland,VBO,5.533024,52.852740
Fonteinwei,13,,,8567JT,Oudemirdum,De Fryske Marren,Friesland,VBO,5.532170,52.851455
Fonteinwei,14,,,8567JT,Oudemirdum,De Fryske Marren,Friesland,VBO,5.531249,52.854798
Fonteinwei,15,,,8567JT,Oudemirdum,De Fryske Marren,Friesland,VBO,5.532142,52.851642
Fonteinwei,17,,,8567JT,Oudemirdum,De Fryske Marren,Friesland,VBO,5.532042,52.851819
Fonteinwei,19,,,8567JT,Oudemirdum,De Fryske Marren,Friesland,VBO,5.531970,52.851980
Fonteinwei,21,,,8567JT,Oudemirdum,De Fryske Marren,Friesland,VBO,5.530668,52.852781
Fonteinwei,23,,,8567JT,Oudemirdum,De Fryske Marren,Friesland,VBO,5.531495,52.853782
De Flechtreed,1,,,8567JV,Oudemirdum,De Fryske Marren,Friesland,VBO,5.535937,52.848847
De Flechtreed,2,,,8567JV,Oudemirdum,De Fryske Marren,Friesland,VBO,5.535791,52.848571
De Flechtreed,3,,,8567JV,Oudemirdum,De Fryske Marren,Friesland,VBO,5.536034,52.848868
De Flechtreed,4,,,8567JV,Oudemirdum,De Fryske Marren,Friesland,VBO,5.535955,52.848431
De Flechtreed,5,,,8567JV,Oudemirdum,De Fryske Marren,Friesland,VBO,5.536111,52.848892
De Flechtreed,6,,,8567JV,Oudemirdum,De Fryske Marren,Friesland,VBO,5.536182,52.848333
De Flechtreed,7,,,8567JV,Oudemirdum,De Fryske Marren,Friesland,VBO,5.536201,52.848929
De Flechtreed,8,,,8567JV,Oudemirdum,De Fryske Marren,Friesland,VBO,5.536272,52.848176
De Flechtreed,9,,,8567JV,Oudemirdum,De Fryske Marren,Friesland,VBO,5.536278,52.848942
De Flechtreed,10,,,8567JV,Oudemirdum,De Fryske Marren,Friesland,VBO,5.536885,52.847703
De Flechtreed,11,,,8567JV,Oudemirdum,De Fryske Marren,Friesland,VBO,5.536299,52.848688
De Flechtreed,13,,,8567JV,Oudemirdum,De Fryske Marren,Friesland,VBO,5.536404,52.848711
De Flechtreed,15,,,8567JV,Oudemirdum,De Fryske Marren,Friesland,VBO,5.536483,52.848736
De Flechtreed,17,,,8567JV,Oudemirdum,De Fryske Marren,Friesland,VBO,5.536570,52.848759
De Flechtreed,19,,,8567JV,Oudemirdum,De Fryske Marren,Friesland,VBO,5.536640,52.848777
De Flechtreed,21,,,8567JV,Oudemirdum,De Fryske Marren,Friesland,VBO,5.536661,52.848533
De Flechtreed,23,,,8567JV,Oudemirdum,De Fryske Marren,Friesland,VBO,5.536758,52.848561
De Flechtreed,25,,,8567JV,Oudemirdum,De Fryske Marren,Friesland,VBO,5.536839,52.848584
De Flechtreed,27,,,8567JV,Oudemirdum,De Fryske Marren,Friesland,VBO,5.536917,52.848606
De Kwikkebei,1,,,8567JW,Oudemirdum,De Fryske Marren,Friesland,VBO,5.534699,52.848788
De Kwikkebei,2,,,8567JW,Oudemirdum,De Fryske Marren,Friesland,VBO,5.534739,52.848432
De Kwikkebei,3,,,8567JW,Oudemirdum,De Fryske Marren,Friesland,VBO,5.534775,52.848809
De Kwikkebei,4,,,8567JW,Oudemirdum,De Fryske Marren,Friesland,VBO,5.535057,52.848501
De Kwikkebei,5,,,8567JW,Oudemirdum,De Fryske Marren,Friesland,VBO,5.534997,52.848851
De Kwikkebei,6,,,8567JW,Oudemirdum,De Fryske Marren,Friesland,VBO,5.535342,52.848552
De Kwikkebei,7,,,8567JW,Oudemirdum,De Fryske Marren,Friesland,VBO,5.535097,52.848899
De Kwikkebei,8,,,8567JW,Oudemirdum,De Fryske Marren,Friesland,VBO,5.535516,52.848659
De Kwikkebei,9,,,8567JW,Oudemirdum,De Fryske Marren,Friesland,VBO,5.535270,52.848946
De Kwikkebei,11,,,8567JW,Oudemirdum,De Fryske Marren,Friesland,VBO,5.535343,52.848966
Star Numanwei,1,,,8567JX,Oudemirdum,De Fryske Marren,Friesland,VBO,5.535583,52.848170
Star Numanwei,2,,,8567JX,Oudemirdum,De Fryske Marren,Friesland,VBO,5.534564,52.847644
Star Numanwei,3,,,8567JX,Oudemirdum,De Fryske Marren,Friesland,VBO,5.536334,52.847905
Star Numanwei,4,,,8567JX,Oudemirdum,De Fryske Marren,Friesland,VBO,5.539062,52.845680
Star Numanwei,5,,,8567JX,Oudemirdum,De Fryske Marren,Friesland,VBO,5.538609,52.847436
Star Numanwei,6,,,8567JX,Oudemirdum,De Fryske Marren,Friesland,VBO,5.541459,52.844904
Star Numanwei,7,,,8567JX,Oudemirdum,De Fryske Marren,Friesland,VBO,5.542365,52.845980
Star Numanwei,8,,,8567JX,Oudemirdum,De Fryske Marren,Friesland,VBO,5.543981,52.843968
Star Numanwei,11,,,8567JX,Oudemirdum,De Fryske Marren,Friesland,VBO,5.544057,52.845470
Hoitebuorren,1,,,8567JZ,Oudemirdum,De Fryske Marren,Friesland,VBO,5.544492,52.846295
Hoitebuorren,3,,,8567JZ,Oudemirdum,De Fryske Marren,Friesland,VBO,5.545484,52.844864
Hoitebuorren,5,,,8567JZ,Oudemirdum,De Fryske Marren,Friesland,VBO,5.545626,52.844902
Hoitebuorren,7,,,8567JZ,Oudemirdum,De Fryske Marren,Friesland,VBO,5.546634,52.844663
Hoitebuorren,9,,,8567JZ,Oudemirdum,De Fryske Marren,Friesland,VBO,5.546668,52.844785
Hoitebuorren,11,T,,8567JZ,Oudemirdum,De Fryske Marren,Friesland,VBO,5.551757,52.846301
Hoitebuorren,11,,,8567JZ,Oudemirdum,De Fryske Marren,Friesland,VBO,5.551411,52.846165
Hoitebuorren,13,,,8567JZ,Oudemirdum,De Fryske Marren,Friesland,VBO,5.552998,52.846384
De Bûgel,1,,,8567KA,Oudemirdum,De Fryske Marren,Friesland,VBO,5.537202,52.848669
De Bûgel,2,,,8567KA,Oudemirdum,De Fryske Marren,Friesland,VBO,5.537167,52.848237
De Bûgel,3,,,8567KA,Oudemirdum,De Fryske Marren,Friesland,VBO,5.537151,52.848738
De Bûgel,4,,,8567KA,Oudemirdum,De Fryske Marren,Friesland,VBO,5.537411,52.848304
De Bûgel,5,,,8567KA,Oudemirdum,De Fryske Marren,Friesland,VBO,5.537046,52.848849
De Bûgel,6,,,8567KA,Oudemirdum,De Fryske Marren,Friesland,VBO,5.537642,52.848402
De Bûgel,7,,,8567KA,Oudemirdum,De Fryske Marren,Friesland,VBO,5.536961,52.848933
De Bûgel,8,,,8567KA,Oudemirdum,De Fryske Marren,Friesland,VBO,5.537658,52.848821
De Bûgel,9,,,8567KA,Oudemirdum,De Fryske Marren,Friesland,VBO,5.536851,52.849089
De Bûgel,10,,,8567KA,Oudemirdum,De Fryske Marren,Friesland,VBO,5.537611,52.849012
De Bûgel,11,,,8567KA,Oudemirdum,De Fryske Marren,Friesland,VBO,5.537062,52.849158
De Bûgel,12,,,8567KA,Oudemirdum,De Fryske Marren,Friesland,VBO,5.537893,52.849054
De Bûgel,13,,,8567KA,Oudemirdum,De Fryske Marren,Friesland,VBO,5.537168,52.849175
De Bûgel,14,,,8567KA,Oudemirdum,De Fryske Marren,Friesland,VBO,5.537997,52.849084
De Bûgel,15,,,8567KA,Oudemirdum,De Fryske Marren,Friesland,VBO,5.537339,52.849232
De Bûgel,16,,,8567KA,Oudemirdum,De Fryske Marren,Friesland,VBO,5.538236,52.849154
De Bûgel,17,,,8567KA,Oudemirdum,De Fryske Marren,Friesland,VBO,5.537425,52.849252
De Bûgel,18,,,8567KA,Oudemirdum,De Fryske Marren,Friesland,VBO,5.538316,52.849176
De Bûgel,19,,,8567KA,Oudemirdum,De Fryske Marren,Friesland,VBO,5.537681,52.849325
De Bûgel,20,,,8567KA,Oudemirdum,De Fryske Marren,Friesland,VBO,5.538554,52.849232
De Bûgel,21,,,8567KA,Oudemirdum,De Fryske Marren,Friesland,VBO,5.537779,52.849349
De Bûgel,23,,,8567KA,Oudemirdum,De Fryske Marren,Friesland,VBO,5.537984,52.849400
De Stobberoeier,1,,,8567KB,Oudemirdum,De Fryske Marren,Friesland,VBO,5.539036,52.849262
De Stobberoeier,3,,,8567KB,Oudemirdum,De Fryske Marren,Friesland,VBO,5.539148,52.849135
De Stobberoeier,4,,,8567KB,Oudemirdum,De Fryske Marren,Friesland,VBO,5.538623,52.848999
De Stobberoeier,5,,,8567KB,Oudemirdum,De Fryske Marren,Friesland,VBO,5.539263,52.849006
De Stobberoeier,6,,,8567KB,Oudemirdum,De Fryske Marren,Friesland,VBO,5.538758,52.848836
De Stobberoeier,7,,,8567KB,Oudemirdum,De Fryske Marren,Friesland,VBO,5.539347,52.848859
De Flechtreed,12,,,8567KC,Oudemirdum,De Fryske Marren,Friesland,VBO,5.538833,52.848158
De Flechtreed,14,,,8567KC,Oudemirdum,De Fryske Marren,Friesland,VBO,5.539170,52.848275
De Flechtreed,16,,,8567KC,Oudemirdum,De Fryske Marren,Friesland,VBO,5.539561,52.848376
De Flechtreed,18,,,8567KC,Oudemirdum,De Fryske Marren,Friesland,VBO,5.539875,52.848468
De Flechtreed,20,,,8567KC,Oudemirdum,De Fryske Marren,Friesland,VBO,5.540236,52.848555
De Flechtreed,22,,,8567KC,Oudemirdum,De Fryske Marren,Friesland,VBO,5.540853,52.848737
De Flechtreed,24,,,8567KC,Oudemirdum,De Fryske Marren,Friesland,VBO,5.541126,52.848902
De Flechtreed,26,,,8567KC,Oudemirdum,De Fryske Marren,Friesland,VBO,5.540942,52.849193
De Flechtreed,28,,,8567KC,Oudemirdum,De Fryske Marren,Friesland,VBO,5.540502,52.849034
De Flechtreed,29,,,8567KC,Oudemirdum,De Fryske Marren,Friesland,VBO,5.537464,52.848057
De Flechtreed,30,,,8567KC,Oudemirdum,De Fryske Marren,Friesland,VBO,5.540282,52.849329
De Flechtreed,31,,,8567KC,Oudemirdum,De Fryske Marren,Friesland,VBO,5.537801,52.848032
De Flechtreed,32,,,8567KC,Oudemirdum,De Fryske Marren,Friesland,VBO,5.540690,52.849475
De Flechtreed,33,,,8567KC,Oudemirdum,De Fryske Marren,Friesland,VBO,5.538143,52.848097
De Flechtreed,34,,,8567KC,Oudemirdum,De Fryske Marren,Friesland,VBO,5.540521,52.849731
De Flechtreed,35,,,8567KC,Oudemirdum,De Fryske Marren,Friesland,VBO,5.537957,52.848297
De Flechtreed,36,,,8567KC,Oudemirdum,De Fryske Marren,Friesland,VBO,5.540070,52.849597
De Flechtreed,37,,,8567KC,Oudemirdum,De Fryske Marren,Friesland,VBO,5.537865,52.848602
De Flechtreed,39,,,8567KC,Oudemirdum,De Fryske Marren,Friesland,VBO,5.538448,52.848480
De Flechtreed,41,,,8567KC,Oudemirdum,De Fryske Marren,Friesland,VBO,5.538699,52.848540
De Flechtreed,43,,,8567KC,Oudemirdum,De Fryske Marren,Friesland,VBO,5.538971,52.848629
De Flechtreed,45,,,8567KC,Oudemirdum,De Fryske Marren,Friesland,VBO,5.539441,52.848714
De Flechtreed,47,,,8567KC,Oudemirdum,De Fryske Marren,Friesland,VBO,5.539936,52.848860
De Flechtreed,49,,,8567KC,Oudemirdum,De Fryske Marren,Friesland,VBO,5.539820,52.848997
De Flechtreed,51,,,8567KC,Oudemirdum,De Fryske Marren,Friesland,VBO,5.539717,52.849140
De Flechtreed,53,,,8567KC,Oudemirdum,De Fryske Marren,Friesland,VBO,5.539622,52.849281
De Flechtreed,55,,,8567KC,Oudemirdum,De Fryske Marren,Friesland,VBO,5.539516,52.849410
Jan Schotanuswei,5,,,8567LA,Oudemirdum,De Fryske Marren,Friesland,VBO,5.532292,52.848075
Jan Schotanuswei,7,,,8567LA,Oudemirdum,De Fryske Marren,Friesland,VBO,5.531979,52.848408
Jan Schotanuswei,9,,,8567LA,Oudemirdum,De Fryske Marren,Friesland,VBO,5.531228,52.848690
Jan Schotanuswei,11,,,8567LA,Oudemirdum,De Fryske Marren,Friesland,VBO,5.531027,52.848751
Jan Schotanuswei,13,,,8567LA,Oudemirdum,De Fryske Marren,Friesland,VBO,5.530473,52.848730
Jan Schotanuswei,15,,,8567LA,Oudemirdum,De Fryske Marren,Friesland,VBO,5.529897,52.849037
Jan Schotanuswei,17,,,8567LA,Oudemirdum,De Fryske Marren,Friesland,VBO,5.529826,52.849050
Jan Schotanuswei,19,,,8567LA,Oudemirdum,De Fryske Marren,Friesland,VBO,5.529157,52.848955
Jan Schotanuswei,21,,,8567LA,Oudemirdum,De Fryske Marren,Friesland,VBO,5.529212,52.849180
Jan Schotanuswei,22,,,8567LA,Oudemirdum,De Fryske Marren,Friesland,VBO,5.532434,52.848732
Jan Schotanuswei,23,,,8567LA,Oudemirdum,De Fryske Marren,Friesland,VBO,5.528994,52.849232
Jan Schotanuswei,24,,,8567LA,Oudemirdum,De Fryske Marren,Friesland,VBO,5.532218,52.848810
Jan Schotanuswei,26,,,8567LA,Oudemirdum,De Fryske Marren,Friesland,VBO,5.531995,52.848866
Jan Schotanuswei,30,,,8567LA,Oudemirdum,De Fryske Marren,Friesland,VBO,5.530336,52.849288
Jan Schotanuswei,32,,,8567LA,Oudemirdum,De Fryske Marren,Friesland,VBO,5.530144,52.849367
Jan Schotanuswei,34,,,8567LA,Oudemirdum,De Fryske Marren,Friesland,VBO,5.529928,52.849397
Jan Schotanuswei,36,A,,8567LA,Oudemirdum,De Fryske Marren,Friesland,VBO,5.529563,52.849442
Jan Schotanuswei,36,,,8567LA,Oudemirdum,De Fryske Marren,Friesland,VBO,5.529732,52.849371
Jan Schotanuswei,25,,,8567LB,Oudemirdum,De Fryske Marren,Friesland,VBO,5.528702,52.849375
Jan Schotanuswei,27,,,8567LB,Oudemirdum,De Fryske Marren,Friesland,VBO,5.528505,52.849466
Jan Schotanuswei,29,,,8567LB,Oudemirdum,De Fryske Marren,Friesland,VBO,5.528284,52.849545
Jan Schotanuswei,31,,,8567LB,Oudemirdum,De Fryske Marren,Friesland,VBO,5.528116,52.849609
Jan Schotanuswei,38,,,8567LB,Oudemirdum,De Fryske Marren,Friesland,VBO,5.528881,52.849719
Jan Schotanuswei,40,,,8567LB,Oudemirdum,De Fryske Marren,Friesland,VBO,5.528327,52.849960
Jan Schotanuswei,33,,,8567LC,Oudemirdum,De Fryske Marren,Friesland,VBO,5.527726,52.849744
Jan Schotanuswei,35,,,8567LC,Oudemirdum,De Fryske Marren,Friesland,VBO,5.527495,52.849839
Jan Schotanuswei,42,,,8567LC,Oudemirdum,De Fryske Marren,Friesland,VBO,5.527889,52.850160
Jan Schotanuswei,44,,,8567LC,Oudemirdum,De Fryske Marren,Friesland,VBO,5.527528,52.850273
Jan Schotanuswei,46,,,8567LC,Oudemirdum,De Fryske Marren,Friesland,VBO,5.527507,52.850678
Jan Schotanuswei,48,,,8567LC,Oudemirdum,De Fryske Marren,Friesland,VBO,5.526583,52.850612
Jan Schotanuswei,50,,,8567LC,Oudemirdum,De Fryske Marren,Friesland,VBO,5.526351,52.850715
Jan Schotanuswei,54,,,8567LC,Oudemirdum,De Fryske Marren,Friesland,VBO,5.525992,52.850862
Jan Schotanuswei,56,A,,8567LC,Oudemirdum,De Fryske Marren,Friesland,VBO,5.525555,52.851073
Jan Schotanuswei,56,,,8567LC,Oudemirdum,De Fryske Marren,Friesland,VBO,5.525880,52.851044
Jan Schotanuswei,58,,,8567LC,Oudemirdum,De Fryske Marren,Friesland,VBO,5.525320,52.851159
Jan Schotanuswei,62,,,8567LC,Oudemirdum,De Fryske Marren,Friesland,VBO,5.524977,52.851223
Jan Schotanuswei,64,,,8567LC,Oudemirdum,De Fryske Marren,Friesland,VBO,5.524676,52.851383
Jan Schotanuswei,68,,,8567LC,Oudemirdum,De Fryske Marren,Friesland,VBO,5.524444,52.851470
Jan Schotanuswei,37,,,8567LD,Oudemirdum,De Fryske Marren,Friesland,VBO,5.522077,52.851906
Jan Schotanuswei,39,,,8567LD,Oudemirdum,De Fryske Marren,Friesland,VBO,5.521165,52.851551
Jan Schotanuswei,41,,,8567LD,Oudemirdum,De Fryske Marren,Friesland,VBO,5.520490,52.852323
Jan Schotanuswei,70,,,8567LD,Oudemirdum,De Fryske Marren,Friesland,VBO,5.524240,52.851526
Jan Schotanuswei,72,A,,8567LD,Oudemirdum,De Fryske Marren,Friesland,VBO,5.523943,52.851621
Jan Schotanuswei,74,,,8567LD,Oudemirdum,De Fryske Marren,Friesland,VBO,5.523736,52.851716
Jan Schotanuswei,76,,,8567LD,Oudemirdum,De Fryske Marren,Friesland,VBO,5.523565,52.851782
Jan Schotanuswei,78,,,8567LD,Oudemirdum,De Fryske Marren,Friesland,VBO,5.523306,52.851877
Jan Schotanuswei,80,,,8567LD,Oudemirdum,De Fryske Marren,Friesland,VBO,5.523003,52.851993
Jan Schotanuswei,82,,,8567LD,Oudemirdum,De Fryske Marren,Friesland,VBO,5.522915,52.852027
Jan Schotanuswei,84,,,8567LD,Oudemirdum,De Fryske Marren,Friesland,VBO,5.522566,52.852363
Jan Schotanuswei,86,A,,8567LD,Oudemirdum,De Fryske Marren,Friesland,VBO,5.522168,52.852483
Jan Schotanuswei,86,,,8567LD,Oudemirdum,De Fryske Marren,Friesland,VBO,5.522443,52.852402
Jan Schotanuswei,88,A,,8567LD,Oudemirdum,De Fryske Marren,Friesland,VBO,5.520994,52.852924
Jan Schotanuswei,88,B,,8567LD,Oudemirdum,De Fryske Marren,Friesland,VBO,5.521537,52.852739
Jan Schotanuswei,88,,,8567LD,Oudemirdum,De Fryske Marren,Friesland,VBO,5.521663,52.852512
Jan Schotanuswei,53,,,8567LE,Oudemirdum,De Fryske Marren,Friesland,VBO,5.519349,52.852942
Jan Schotanuswei,55,A,,8567LE,Oudemirdum,De Fryske Marren,Friesland,VBO,5.517210,52.853766
Jan Schotanuswei,55,,,8567LE,Oudemirdum,De Fryske Marren,Friesland,VBO,5.517755,52.853586
Jan Schotanuswei,90,,,8567LE,Oudemirdum,De Fryske Marren,Friesland,VBO,5.520432,52.853197
Jan Schotanuswei,92,,,8567LE,Oudemirdum,De Fryske Marren,Friesland,VBO,5.519850,52.853520
Jan Schotanuswei,94,A,,8567LE,Oudemirdum,De Fryske Marren,Friesland,VBO,5.518949,52.853641
Jan Schotanuswei,94,,,8567LE,Oudemirdum,De Fryske Marren,Friesland,VBO,5.519258,52.853514
Jan Schotanuswei,96,,,8567LE,Oudemirdum,De Fryske Marren,Friesland,VBO,5.518594,52.853756
Jan Schotanuswei,98,T,,8567LE,Oudemirdum,De Fryske Marren,Friesland,VBO,5.517832,52.854188
Jan Schotanuswei,98,,,8567LE,Oudemirdum,De Fryske Marren,Friesland,VBO,5.517778,52.854035
De Alde Buorren,2,,,8567LG,Oudemirdum,De Fryske Marren,Friesland,VBO,5.532733,52.849477
De Alde Buorren,3,,,8567LG,Oudemirdum,De Fryske Marren,Friesland,VBO,5.532616,52.849151
De Alde Buorren,4,,,8567LG,Oudemirdum,De Fryske Marren,Friesland,VBO,5.532572,52.849419
De Alde Buorren,5,,,8567LG,Oudemirdum,De Fryske Marren,Friesland,VBO,5.532450,52.849184
De Alde Buorren,6,,,8567LG,Oudemirdum,De Fryske Marren,Friesland,VBO,5.532471,52.849406
De Alde Buorren,7,,,8567LG,Oudemirdum,De Fryske Marren,Friesland,VBO,5.532132,52.849132
De Alde Buorren,8,,,8567LG,Oudemirdum,De Fryske Marren,Friesland,VBO,5.532242,52.849400
De Alde Buorren,9,A,,8567LG,Oudemirdum,De Fryske Marren,Friesland,VBO,5.531712,52.849090
De Alde Buorren,9,,,8567LG,Oudemirdum,De Fryske Marren,Friesland,VBO,5.531966,52.849107
De Alde Buorren,10,,,8567LG,Oudemirdum,De Fryske Marren,Friesland,VBO,5.531997,52.849359
De Alde Buorren,11,,,8567LG,Oudemirdum,De Fryske Marren,Friesland,VBO,5.531501,52.849061
De Alde Buorren,12,,,8567LG,Oudemirdum,De Fryske Marren,Friesland,VBO,5.531902,52.849359
De Alde Buorren,13,,,8567LG,Oudemirdum,De Fryske Marren,Friesland,VBO,5.531401,52.849030
De Alde Buorren,14,,,8567LG,Oudemirdum,De Fryske Marren,Friesland,VBO,5.531718,52.849347
De Alde Buorren,16,,,8567LG,Oudemirdum,De Fryske Marren,Friesland,VBO,5.531538,52.849313
De Alde Buorren,18,,,8567LG,Oudemirdum,De Fryske Marren,Friesland,VBO,5.531468,52.849333
De Alde Buorren,20,,,8567LG,Oudemirdum,De Fryske Marren,Friesland,VBO,5.531365,52.849309
De Alde Buorren,22,,,8567LG,Oudemirdum,De Fryske Marren,Friesland,VBO,5.531199,52.849279
De Alde Buorren,24,,,8567LG,Oudemirdum,De Fryske Marren,Friesland,VBO,5.531079,52.849260
De Alde Buorren,26,,,8567LG,Oudemirdum,De Fryske Marren,Friesland,VBO,5.530997,52.849253
De Alde Buorren,28,,,8567LG,Oudemirdum,De Fryske Marren,Friesland,VBO,5.530819,52.849232
De Alde Buorren,30,,,8567LG,Oudemirdum,De Fryske Marren,Friesland,VBO,5.530691,52.849215
Lege Leane,1,,,8567LH,Oudemirdum,De Fryske Marren,Friesland,VBO,5.529080,52.849634
Lege Leane,3,,,8567LH,Oudemirdum,De Fryske Marren,Friesland,VBO,5.529412,52.849852
Lege Leane,5,,,8567LH,Oudemirdum,De Fryske Marren,Friesland,VBO,5.529546,52.849925
Lege Leane,7,,,8567LH,Oudemirdum,De Fryske Marren,Friesland,VBO,5.529688,52.850004
Lege Leane,9,,,8567LH,Oudemirdum,De Fryske Marren,Friesland,VBO,5.529820,52.850073
Lege Leane,11,,,8567LH,Oudemirdum,De Fryske Marren,Friesland,VBO,5.529972,52.850129
Lege Leane,13,,,8567LH,Oudemirdum,De Fryske Marren,Friesland,VBO,5.530129,52.850178
Lege Leane,15,,,8567LH,Oudemirdum,De Fryske Marren,Friesland,VBO,5.530309,52.850217
Lege Leane,17,,,8567LH,Oudemirdum,De Fryske Marren,Friesland,VBO,5.530469,52.850251
Lege Leane,19,,,8567LH,Oudemirdum,De Fryske Marren,Friesland,VBO,5.530641,52.850287
Lege Leane,21,,,8567LH,Oudemirdum,De Fryske Marren,Friesland,VBO,5.530803,52.850321
Lege Leane,23,,,8567LH,Oudemirdum,De Fryske Marren,Friesland,VBO,5.530961,52.850377
Lege Leane,25,,,8567LH,Oudemirdum,De Fryske Marren,Friesland,VBO,5.531139,52.850390
Lege Leane,27,,,8567LH,Oudemirdum,De Fryske Marren,Friesland,VBO,5.531315,52.850421
Lege Leane,29,,,8567LH,Oudemirdum,De Fryske Marren,Friesland,VBO,5.531486,52.850451
Lege Leane,31,,,8567LH,Oudemirdum,De Fryske Marren,Friesland,VBO,5.531667,52.850472
Lege Leane,33,,,8567LH,Oudemirdum,De Fryske Marren,Friesland,VBO,5.531977,52.850477
Lege Leane,2,A,,8567LJ,Oudemirdum,De Fryske Marren,Friesland,VBO,5.529622,52.849502
Lege Leane,2,,,8567LJ,Oudemirdum,De Fryske Marren,Friesland,VBO,5.529770,52.849642
Lege Leane,4,,,8567LJ,Oudemirdum,De Fryske Marren,Friesland,VBO,5.529866,52.849697
Lege Leane,6,,,8567LJ,Oudemirdum,De Fryske Marren,Friesland,VBO,5.530138,52.849853
Lege Leane,8,,,8567LJ,Oudemirdum,De Fryske Marren,Friesland,VBO,5.530463,52.849941
Lege Leane,10,,,8567LJ,Oudemirdum,De Fryske Marren,Friesland,VBO,5.530644,52.849997
Lege Leane,12,,,8567LJ,Oudemirdum,De Fryske Marren,Friesland,VBO,5.530753,52.850019
Lege Leane,14,,,8567LJ,Oudemirdum,De Fryske Marren,Friesland,VBO,5.530838,52.850036
Lege Leane,16,,,8567LJ,Oudemirdum,De Fryske Marren,Friesland,VBO,5.530922,52.850053
Lege Leane,18,,,8567LJ,Oudemirdum,De Fryske Marren,Friesland,VBO,5.531121,52.850137
Lege Leane,20,,,8567LJ,Oudemirdum,De Fryske Marren,Friesland,VBO,5.531211,52.850135
Lege Leane,22,,,8567LJ,Oudemirdum,De Fryske Marren,Friesland,VBO,5.531293,52.850161
Lege Leane,24,,,8567LJ,Oudemirdum,De Fryske Marren,Friesland,VBO,5.531383,52.850174
Lege Leane,26,,,8567LJ,Oudemirdum,De Fryske Marren,Friesland,VBO,5.531776,52.850201
Roune Leane,1,,,8567LK,Oudemirdum,De Fryske Marren,Friesland,VBO,5.530229,52.849666
Roune Leane,2,,,8567LK,Oudemirdum,De Fryske Marren,Friesland,VBO,5.530675,52.849679
Roune Leane,3,,,8567LK,Oudemirdum,De Fryske Marren,Friesland,VBO,5.530307,52.849591
Roune Leane,4,,,8567LK,Oudemirdum,De Fryske Marren,Friesland,VBO,5.530882,52.849736
Roune Leane,5,,,8567LK,Oudemirdum,De Fryske Marren,Friesland,VBO,5.530347,52.849516
Roune Leane,6,,,8567LK,Oudemirdum,De Fryske Marren,Friesland,VBO,5.531086,52.849787
Roune Leane,7,,,8567LK,Oudemirdum,De Fryske Marren,Friesland,VBO,5.531899,52.849891
Roune Leane,8,,,8567LK,Oudemirdum,De Fryske Marren,Friesland,VBO,5.531302,52.849840
Roune Leane,9,,,8567LK,Oudemirdum,De Fryske Marren,Friesland,VBO,5.531836,52.850037
Roune Leane,10,,,8567LK,Oudemirdum,De Fryske Marren,Friesland,VBO,5.531503,52.849890
Roune Leane,11,,,8567LK,Oudemirdum,De Fryske Marren,Friesland,VBO,5.531802,52.850174
Huningspaed,2,A,,8567LL,Oudemirdum,De Fryske Marren,Friesland,VBO,5.523986,52.847859
Huningspaed,2,,,8567LL,Oudemirdum,De Fryske Marren,Friesland,VBO,5.517681,52.846416
Huningspaed,3,,,8567LL,Oudemirdum,De Fryske Marren,Friesland,VBO,5.527768,52.849369
Huningspaed,4,,,8567LL,Oudemirdum,De Fryske Marren,Friesland,VBO,5.517504,52.846365
Huningspaed,5,,,8567LL,Oudemirdum,De Fryske Marren,Friesland,VBO,5.527361,52.849138
Huningspaed,6,A,,8567LL,Oudemirdum,De Fryske Marren,Friesland,VBO,5.511748,52.844877
Huningspaed,6,,,8567LL,Oudemirdum,De Fryske Marren,Friesland,VBO,5.511522,52.845028
Huningspaed,7,,,8567LL,Oudemirdum,De Fryske Marren,Friesland,VBO,5.526693,52.848808
Huningspaed,9,A,,8567LL,Oudemirdum,De Fryske Marren,Friesland,VBO,5.526812,52.848626
Huningspaed,9,B,,8567LL,Oudemirdum,De Fryske Marren,Friesland,VBO,5.526995,52.848032
Huningspaed,9,,,8567LL,Oudemirdum,De Fryske Marren,Friesland,VBO,5.526433,52.848687
Huningspaed,11,,,8567LL,Oudemirdum,De Fryske Marren,Friesland,VBO,5.526163,52.848553
Huningspaed,13,,,8567LL,Oudemirdum,De Fryske Marren,Friesland,VBO,5.525718,52.848359
Huningspaed,15,,,8567LL,Oudemirdum,De Fryske Marren,Friesland,VBO,5.522695,52.846820
Huningspaed,17,,,8567LL,Oudemirdum,De Fryske Marren,Friesland,VBO,5.520271,52.846037
Huningspaed,21,,,8567LL,Oudemirdum,De Fryske Marren,Friesland,VBO,5.522352,52.844313
Huningspaed,23,,,8567LL,Oudemirdum,De Fryske Marren,Friesland,VBO,5.515077,52.845406
De Bûterkamp,1,,,8567LM,Oudemirdum,De Fryske Marren,Friesland,VBO,5.515042,52.849496
De Bûterkamp,2,,,8567LM,Oudemirdum,De Fryske Marren,Friesland,VBO,5.517904,52.852148
De Bûterkamp,3,,,8567LM,Oudemirdum,De Fryske Marren,Friesland,VBO,5.515774,52.848778
De Bûterkamp,4,,,8567LM,Oudemirdum,De Fryske Marren,Friesland,VBO,5.516577,52.851468
De Bûterkamp,6,,,8567LM,Oudemirdum,De Fryske Marren,Friesland,VBO,5.515259,52.850649
De Grintfisker,1,,,8567LN,Oudemirdum,De Fryske Marren,Friesland,VBO,5.538594,52.849849
De Grintfisker,2,,,8567LN,Oudemirdum,De Fryske Marren,Friesland,VBO,5.537891,52.849785
De Grintfisker,3,,,8567LN,Oudemirdum,De Fryske Marren,Friesland,VBO,5.538692,52.849877
De Grintfisker,4,,,8567LN,Oudemirdum,De Fryske Marren,Friesland,VBO,5.537973,52.849740
De Grintfisker,5,,,8567LN,Oudemirdum,De Fryske Marren,Friesland,VBO,5.538766,52.849900
De Grintfisker,6,,,8567LN,Oudemirdum,De Fryske Marren,Friesland,VBO,5.538092,52.849673
De Grintfisker,7,,,8567LN,Oudemirdum,De Fryske Marren,Friesland,VBO,5.538839,52.849925
De Grintfisker,8,,,8567LN,Oudemirdum,De Fryske Marren,Friesland,VBO,5.538177,52.849629
De Grintfisker,9,,,8567LN,Oudemirdum,De Fryske Marren,Friesland,VBO,5.538919,52.849958
De Grintfisker,10,,,8567LN,Oudemirdum,De Fryske Marren,Friesland,VBO,5.538296,52.849566
De Grintfisker,11,,,8567LN,Oudemirdum,De Fryske Marren,Friesland,VBO,5.539184,52.850032
De Grintfisker,12,,,8567LN,Oudemirdum,De Fryske Marren,Friesland,VBO,5.538362,52.849528
De Grintfisker,13,,,8567LN,Oudemirdum,De Fryske Marren,Friesland,VBO,5.539073,52.850155
De Grintfisker,14,,,8567LN,Oudemirdum,De Fryske Marren,Friesland,VBO,5.538843,52.849555
De Grintfisker,16,,,8567LN,Oudemirdum,De Fryske Marren,Friesland,VBO,5.538927,52.849597
De Grintfisker,18,,,8567LN,Oudemirdum,De Fryske Marren,Friesland,VBO,5.539114,52.849657
De Grintfisker,19,,,8567LN,Oudemirdum,De Fryske Marren,Friesland,VBO,5.538741,52.850185
De Grintfisker,20,,,8567LN,Oudemirdum,De Fryske Marren,Friesland,VBO,5.539288,52.849728
De Grintfisker,21,,,8567LN,Oudemirdum,De Fryske Marren,Friesland,VBO,5.538663,52.850165
De Grintfisker,22,,,8567LN,Oudemirdum,De Fryske Marren,Friesland,VBO,5.539372,52.849769
De Grintfisker,23,,,8567LN,Oudemirdum,De Fryske Marren,Friesland,VBO,5.538800,52.850492
De Grintfisker,25,,,8567LN,Oudemirdum,De Fryske Marren,Friesland,VBO,5.538882,52.850513
De Grintfisker,27,,,8567LN,Oudemirdum,De Fryske Marren,Friesland,VBO,5.539094,52.850595
De Grintfisker,29,,,8567LN,Oudemirdum,De Fryske Marren,Friesland,VBO,5.539168,52.850613
De Grintfisker,24,,,8567LP,Oudemirdum,De Fryske Marren,Friesland,VBO,5.539858,52.849855
De Grintfisker,26,,,8567LP,Oudemirdum,De Fryske Marren,Friesland,VBO,5.539761,52.849969
De Grintfisker,28,,,8567LP,Oudemirdum,De Fryske Marren,Friesland,VBO,5.539695,52.850082
De Grintfisker,30,,,8567LP,Oudemirdum,De Fryske Marren,Friesland,VBO,5.539624,52.850205
De Grintfisker,32,,,8567LP,Oudemirdum,De Fryske Marren,Friesland,VBO,5.539441,52.850342
De Grintfisker,34,,,8567LP,Oudemirdum,De Fryske Marren,Friesland,VBO,5.539629,52.850387
De Grintfisker,36,,,8567LP,Oudemirdum,De Fryske Marren,Friesland,VBO,5.539701,52.850407
De Grintfisker,38,,,8567LP,Oudemirdum,De Fryske Marren,Friesland,VBO,5.539601,52.850703
De Grintfisker,40,,,8567LP,Oudemirdum,De Fryske Marren,Friesland,VBO,5.539487,52.850853
De Grintfisker,42,,,8567LP,Oudemirdum,De Fryske Marren,Friesland,VBO,5.539384,52.850972
