openbareruimtenaam,huisnummer,huisletter,huisnummertoevoeging,postcode,woonplaatsnaam,gemeentenaam,provincienaam,typeadresseerbaarobject,longitude,latitude
Doarpshûsleane,1,,,8633JA,Ysbrechtum,Súdwest-Fryslân,Friesland,VBO,5.636570,53.041460
Doarpshûsleane,2,,,8633JA,Ysbrechtum,Súdwest-Fryslân,Friesland,VBO,5.635480,53.041157
Doarpshûsleane,3,,,8633JA,Ysbrechtum,Súdwest-Fryslân,Friesland,VBO,5.637362,53.041647
Doarpshûsleane,4,,,8633JA,Ysbrechtum,Súdwest-Fryslân,Friesland,VBO,5.635540,53.041129
Doarpshûsleane,5,,,8633JA,Ysbrechtum,Súdwest-Fryslân,Friesland,VBO,5.637555,53.041530
Doarpshûsleane,6,,,8633JA,Ysbrechtum,Súdwest-Fryslân,Friesland,VBO,5.635733,53.041066
Doarpshûsleane,7,,,8633JA,Ysbrechtum,Súdwest-Fryslân,Friesland,VBO,5.637808,53.041448
Doarpshûsleane,8,,,8633JA,Ysbrechtum,Súdwest-Fryslân,Friesland,VBO,5.635807,53.041039
Doarpshûsleane,9,,,8633JA,Ysbrechtum,Súdwest-Fryslân,Friesland,VBO,5.637851,53.041277
Doarpshûsleane,10,,,8633JA,Ysbrechtum,Súdwest-Fryslân,Friesland,VBO,5.635986,53.040967
Doarpshûsleane,11,,,8633JA,Ysbrechtum,Súdwest-Fryslân,Friesland,VBO,5.637760,53.040999
Doarpshûsleane,12,,,8633JA,Ysbrechtum,Súdwest-Fryslân,Friesland,VBO,5.636149,53.040877
Doarpshûsleane,15,,,8633JA,Ysbrechtum,Súdwest-Fryslân,Friesland,VBO,5.637551,53.040901
Doarpshûsleane,17,,,8633JA,Ysbrechtum,Súdwest-Fryslân,Friesland,VBO,5.637372,53.040847
Doarpshûsleane,19,,,8633JA,Ysbrechtum,Súdwest-Fryslân,Friesland,VBO,5.637133,53.040803
Doarpshûsleane,21,,,8633JA,Ysbrechtum,Súdwest-Fryslân,Friesland,VBO,5.636894,53.040776
Doarpshûsleane,23,,,8633JA,Ysbrechtum,Súdwest-Fryslân,Friesland,VBO,5.636656,53.040768
Burmaniastrjitte,1,,,8633KA,Ysbrechtum,Súdwest-Fryslân,Friesland,VBO,5.631211,53.042999
Burmaniastrjitte,3,,,8633KA,Ysbrechtum,Súdwest-Fryslân,Friesland,VBO,5.631107,53.043035
Burmaniastrjitte,5,,,8633KA,Ysbrechtum,Súdwest-Fryslân,Friesland,VBO,5.630809,53.043116
Burmaniastrjitte,7,,,8633KA,Ysbrechtum,Súdwest-Fryslân,Friesland,VBO,5.630467,53.043189
Burmaniastrjitte,9,,,8633KA,Ysbrechtum,Súdwest-Fryslân,Friesland,VBO,5.630244,53.043270
Burmaniastrjitte,11,,,8633KA,Ysbrechtum,Súdwest-Fryslân,Friesland,VBO,5.630231,53.043576
Burmaniastrjitte,15,,,8633KA,Ysbrechtum,Súdwest-Fryslân,Friesland,VBO,5.630187,53.043764
Burmaniastrjitte,19,,,8633KA,Ysbrechtum,Súdwest-Fryslân,Friesland,VBO,5.630248,53.043962
Burmaniastrjitte,21,,,8633KA,Ysbrechtum,Súdwest-Fryslân,Friesland,VBO,5.630174,53.044115
Burmaniastrjitte,23,,,8633KA,Ysbrechtum,Súdwest-Fryslân,Friesland,VBO,5.630145,53.044277
Schoonoord,1,,,8633KB,Ysbrechtum,Súdwest-Fryslân,Friesland,VBO,5.635225,53.040870
Schoonoord,2,,,8633KB,Ysbrechtum,Súdwest-Fryslân,Friesland,VBO,5.637769,53.039975
Schoonoord,3,,,8633KB,Ysbrechtum,Súdwest-Fryslân,Friesland,VBO,5.635448,53.040779
Schoonoord,5,,,8633KB,Ysbrechtum,Súdwest-Fryslân,Friesland,VBO,5.635642,53.040707
Schoonoord,6,,,8633KB,Ysbrechtum,Súdwest-Fryslân,Friesland,VBO,5.638142,53.039920
Schoonoord,7,a,,8633KB,Ysbrechtum,Súdwest-Fryslân,Friesland,VBO,5.636073,53.040562
Schoonoord,7,,,8633KB,Ysbrechtum,Súdwest-Fryslân,Friesland,VBO,5.635895,53.040661
Schoonoord,8,,,8633KB,Ysbrechtum,Súdwest-Fryslân,Friesland,VBO,5.638276,53.039920
Schoonoord,9,,,8633KB,Ysbrechtum,Súdwest-Fryslân,Friesland,VBO,5.636609,53.040471
Schoonoord,11,,,8633KB,Ysbrechtum,Súdwest-Fryslân,Friesland,VBO,5.636937,53.040372
Schoonoord,12,,,8633KB,Ysbrechtum,Súdwest-Fryslân,Friesland,VBO,5.638395,53.039874
Schoonoord,15,,,8633KB,Ysbrechtum,Súdwest-Fryslân,Friesland,VBO,5.637205,53.040344
Schoonoord,16,,,8633KB,Ysbrechtum,Súdwest-Fryslân,Friesland,VBO,5.638529,53.039847
Schoonoord,17,,,8633KB,Ysbrechtum,Súdwest-Fryslân,Friesland,VBO,5.637414,53.040335
Schoonoord,19,,,8633KB,Ysbrechtum,Súdwest-Fryslân,Friesland,VBO,5.637652,53.040316
Schoonoord,21,,,8633KB,Ysbrechtum,Súdwest-Fryslân,Friesland,VBO,5.637816,53.040280
Schoonoord,23,,,8633KB,Ysbrechtum,Súdwest-Fryslân,Friesland,VBO,5.637935,53.040307
Schoonoord,25,,,8633KB,Ysbrechtum,Súdwest-Fryslân,Friesland,VBO,5.638025,53.040298
Schoonoord,27,,,8633KB,Ysbrechtum,Súdwest-Fryslân,Friesland,VBO,5.638383,53.040333
mr. S. M. van Haersma Bumaleane,1,,,8633KC,Ysbrechtum,Súdwest-Fryslân,Friesland,VBO,5.633032,53.043318
mr. S. M. van Haersma Bumaleane,2,,,8633KC,Ysbrechtum,Súdwest-Fryslân,Friesland,VBO,5.633343,53.042976
mr. S. M. van Haersma Bumaleane,3,,,8633KC,Ysbrechtum,Súdwest-Fryslân,Friesland,VBO,5.635102,53.042775
mr. S. M. van Haersma Bumaleane,4,,,8633KC,Ysbrechtum,Súdwest-Fryslân,Friesland,VBO,5.633687,53.043011
mr. S. M. van Haersma Bumaleane,5,,,8633KC,Ysbrechtum,Súdwest-Fryslân,Friesland,VBO,5.635892,53.042216
mr. S. M. van Haersma Bumaleane,6,,,8633KC,Ysbrechtum,Súdwest-Fryslân,Friesland,VBO,5.633895,53.042984
mr. S. M. van Haersma Bumaleane,8,,,8633KC,Ysbrechtum,Súdwest-Fryslân,Friesland,VBO,5.634134,53.043019
mr. S. M. van Haersma Bumaleane,10,,,8633KC,Ysbrechtum,Súdwest-Fryslân,Friesland,VBO,5.634283,53.042965
mr. S. M. van Haersma Bumaleane,12,,,8633KC,Ysbrechtum,Súdwest-Fryslân,Friesland,VBO,5.634372,53.042848
mr. S. M. van Haersma Bumaleane,14,,,8633KC,Ysbrechtum,Súdwest-Fryslân,Friesland,VBO,5.634445,53.042749
mr. S. M. van Haersma Bumaleane,16,,,8633KC,Ysbrechtum,Súdwest-Fryslân,Friesland,VBO,5.634741,53.042344
mr. S. M. van Haersma Bumaleane,18,,,8633KC,Ysbrechtum,Súdwest-Fryslân,Friesland,VBO,5.634934,53.042101
mr. S. M. van Haersma Bumaleane,20,,,8633KD,Ysbrechtum,Súdwest-Fryslân,Friesland,VBO,5.635259,53.041525
mr. S. M. van Haersma Bumaleane,22,,,8633KD,Ysbrechtum,Súdwest-Fryslân,Friesland,VBO,5.635213,53.041463
mr. S. M. van Haersma Bumaleane,24,,,8633KD,Ysbrechtum,Súdwest-Fryslân,Friesland,VBO,5.635109,53.041364
mr. S. M. van Haersma Bumaleane,26,,,8633KD,Ysbrechtum,Súdwest-Fryslân,Friesland,VBO,5.635078,53.041310
mr. S. M. van Haersma Bumaleane,28,,,8633KD,Ysbrechtum,Súdwest-Fryslân,Friesland,VBO,5.634959,53.041212
mr. S. M. van Haersma Bumaleane,30,,,8633KD,Ysbrechtum,Súdwest-Fryslân,Friesland,VBO,5.634914,53.041158
Muontsestrjitte,1,,,8633KE,Ysbrechtum,Súdwest-Fryslân,Friesland,VBO,5.634469,53.041680
Muontsestrjitte,3,,,8633KE,Ysbrechtum,Súdwest-Fryslân,Friesland,VBO,5.634559,53.041698
Muontsestrjitte,5,,,8633KE,Ysbrechtum,Súdwest-Fryslân,Friesland,VBO,5.634738,53.041742
Muontsestrjitte,7,,,8633KE,Ysbrechtum,Súdwest-Fryslân,Friesland,VBO,5.634842,53.041760
Muontsestrjitte,9,,,8633KE,Ysbrechtum,Súdwest-Fryslân,Friesland,VBO,5.635022,53.041814
Muontsestrjitte,11,,,8633KE,Ysbrechtum,Súdwest-Fryslân,Friesland,VBO,5.635096,53.041831
Ds. H. W. C. A. Visserleane,1,,,8633KG,Ysbrechtum,Súdwest-Fryslân,Friesland,VBO,5.632834,53.042618
Ds. H. W. C. A. Visserleane,2,,,8633KG,Ysbrechtum,Súdwest-Fryslân,Friesland,VBO,5.632893,53.042393
Ds. H. W. C. A. Visserleane,3,,,8633KG,Ysbrechtum,Súdwest-Fryslân,Friesland,VBO,5.633252,53.042680
Ds. H. W. C. A. Visserleane,4,,,8633KG,Ysbrechtum,Súdwest-Fryslân,Friesland,VBO,5.633459,53.042383
Ds. H. W. C. A. Visserleane,5,,,8633KG,Ysbrechtum,Súdwest-Fryslân,Friesland,VBO,5.633461,53.042661
Ds. H. W. C. A. Visserleane,7,,,8633KG,Ysbrechtum,Súdwest-Fryslân,Friesland,VBO,5.633730,53.042697
Ds. H. W. C. A. Visserleane,9,,,8633KG,Ysbrechtum,Súdwest-Fryslân,Friesland,VBO,5.633967,53.042588
Ds. H. W. C. A. Visserleane,6,,,8633KH,Ysbrechtum,Súdwest-Fryslân,Friesland,VBO,5.633563,53.042230
Ds. H. W. C. A. Visserleane,8,,,8633KH,Ysbrechtum,Súdwest-Fryslân,Friesland,VBO,5.633637,53.042176
Ds. H. W. C. A. Visserleane,10,,,8633KH,Ysbrechtum,Súdwest-Fryslân,Friesland,VBO,5.633726,53.042077
Ds. H. W. C. A. Visserleane,11,,,8633KH,Ysbrechtum,Súdwest-Fryslân,Friesland,VBO,5.634307,53.042076
Ds. H. W. C. A. Visserleane,12,,,8633KH,Ysbrechtum,Súdwest-Fryslân,Friesland,VBO,5.633756,53.042023
Ds. H. W. C. A. Visserleane,13,,,8633KH,Ysbrechtum,Súdwest-Fryslân,Friesland,VBO,5.634423,53.041428
Ds. H. W. C. A. Visserleane,14,,,8633KH,Ysbrechtum,Súdwest-Fryslân,Friesland,VBO,5.633815,53.041924
Ds. H. W. C. A. Visserleane,15,,,8633KH,Ysbrechtum,Súdwest-Fryslân,Friesland,VBO,5.634348,53.041366
Ds. H. W. C. A. Visserleane,16,,,8633KH,Ysbrechtum,Súdwest-Fryslân,Friesland,VBO,5.633859,53.041870
Ds. H. W. C. A. Visserleane,17,,,8633KH,Ysbrechtum,Súdwest-Fryslân,Friesland,VBO,5.634303,53.041312
Ds. H. W. C. A. Visserleane,18,,,8633KH,Ysbrechtum,Súdwest-Fryslân,Friesland,VBO,5.633933,53.041771
Ds. H. W. C. A. Visserleane,19,,,8633KH,Ysbrechtum,Súdwest-Fryslân,Friesland,VBO,5.634243,53.041249
Ds. H. W. C. A. Visserleane,20,,,8633KH,Ysbrechtum,Súdwest-Fryslân,Friesland,VBO,5.633977,53.041726
Ds. H. W. C. A. Visserleane,21,,,8633KH,Ysbrechtum,Súdwest-Fryslân,Friesland,VBO,5.634213,53.041213
Ds. H. W. C. A. Visserleane,22,,,8633KH,Ysbrechtum,Súdwest-Fryslân,Friesland,VBO,5.634021,53.041555
Ds. H. W. C. A. Visserleane,24,,,8633KH,Ysbrechtum,Súdwest-Fryslân,Friesland,VBO,5.633916,53.041447
Hospitaelstrjitte,1,,,8633KJ,Ysbrechtum,Súdwest-Fryslân,Friesland,VBO,5.634011,53.042454
Hospitaelstrjitte,3,,,8633KJ,Ysbrechtum,Súdwest-Fryslân,Friesland,VBO,5.634265,53.042498
Hospitaelstrjitte,5,,,8633KJ,Ysbrechtum,Súdwest-Fryslân,Friesland,VBO,5.634429,53.042543
Hospitaelstrjitte,7,,,8633KJ,Ysbrechtum,Súdwest-Fryslân,Friesland,VBO,5.634594,53.042605
It Heechhiem,1,,,8633KK,Ysbrechtum,Súdwest-Fryslân,Friesland,VBO,5.633182,53.043471
It Heechhiem,3,,,8633KK,Ysbrechtum,Súdwest-Fryslân,Friesland,VBO,5.633303,53.043695
It Heechhiem,5,,,8633KK,Ysbrechtum,Súdwest-Fryslân,Friesland,VBO,5.633408,53.043830
It Heechhiem,7,,,8633KK,Ysbrechtum,Súdwest-Fryslân,Friesland,VBO,5.633543,53.044036
It Heechhiem,9,,,8633KK,Ysbrechtum,Súdwest-Fryslân,Friesland,VBO,5.634019,53.043855
It Heechhiem,11,,,8633KK,Ysbrechtum,Súdwest-Fryslân,Friesland,VBO,5.634317,53.043774
It Heechhiem,13,,,8633KK,Ysbrechtum,Súdwest-Fryslân,Friesland,VBO,5.634838,53.043665
It Heechhiem,15,,,8633KK,Ysbrechtum,Súdwest-Fryslân,Friesland,VBO,5.635509,53.043619
It Heechhiem,17,,,8633KK,Ysbrechtum,Súdwest-Fryslân,Friesland,VBO,5.635255,53.043448
It Heechhiem,19,,,8633KK,Ysbrechtum,Súdwest-Fryslân,Friesland,VBO,5.635298,53.043260
It Heechhiem,21,,,8633KK,Ysbrechtum,Súdwest-Fryslân,Friesland,VBO,5.635163,53.043089
It Heechhiem,23,,,8633KK,Ysbrechtum,Súdwest-Fryslân,Friesland,VBO,5.635073,53.042955
Kleasterwei,6,,,8633KL,Ysbrechtum,Súdwest-Fryslân,Friesland,VBO,5.632473,53.041936
Kleasterwei,7,,,8633KL,Ysbrechtum,Súdwest-Fryslân,Friesland,VBO,5.632836,53.042977
Kleasterwei,9,,,8633KL,Ysbrechtum,Súdwest-Fryslân,Friesland,VBO,5.632862,53.042276
Kleasterwei,11,,,8633KL,Ysbrechtum,Súdwest-Fryslân,Friesland,VBO,5.632862,53.042222
Kleasterwei,13,,,8633KL,Ysbrechtum,Súdwest-Fryslân,Friesland,VBO,5.632862,53.042177
Kleasterwei,14,,,8633KL,Ysbrechtum,Súdwest-Fryslân,Friesland,VBO,5.632337,53.041729
Kleasterwei,15,,,8633KL,Ysbrechtum,Súdwest-Fryslân,Friesland,VBO,5.632829,53.042108
Kleasterwei,17,,,8633KL,Ysbrechtum,Súdwest-Fryslân,Friesland,VBO,5.632876,53.042034
Kleasterwei,18,,,8633KL,Ysbrechtum,Súdwest-Fryslân,Friesland,VBO,5.632531,53.041684
Kleasterwei,19,,,8633KL,Ysbrechtum,Súdwest-Fryslân,Friesland,VBO,5.632935,53.041953
Kleasterwei,21,,,8633KL,Ysbrechtum,Súdwest-Fryslân,Friesland,VBO,5.632919,53.041809
Kleasterwei,23,,,8633KL,Ysbrechtum,Súdwest-Fryslân,Friesland,VBO,5.632934,53.041755
Kleasterwei,25,,,8633KL,Ysbrechtum,Súdwest-Fryslân,Friesland,VBO,5.633008,53.041701
Kleasterwei,27,,,8633KL,Ysbrechtum,Súdwest-Fryslân,Friesland,VBO,5.633008,53.041602
Kleasterwei,29,,,8633KL,Ysbrechtum,Súdwest-Fryslân,Friesland,VBO,5.633052,53.041548
Worpstrjitte,1,,,8633KM,Ysbrechtum,Súdwest-Fryslân,Friesland,VBO,5.632485,53.044128
Worpstrjitte,2,,,8633KM,Ysbrechtum,Súdwest-Fryslân,Friesland,VBO,5.632859,53.044280
Worpstrjitte,3,,,8633KM,Ysbrechtum,Súdwest-Fryslân,Friesland,VBO,5.632470,53.044038
Worpstrjitte,5,,,8633KM,Ysbrechtum,Súdwest-Fryslân,Friesland,VBO,5.632484,53.043921
Worpstrjitte,7,,,8633KM,Ysbrechtum,Súdwest-Fryslân,Friesland,VBO,5.632454,53.043841
Worpstrjitte,8,,,8633KM,Ysbrechtum,Súdwest-Fryslân,Friesland,VBO,5.631890,53.044300
Worpstrjitte,9,,,8633KM,Ysbrechtum,Súdwest-Fryslân,Friesland,VBO,5.632364,53.043733
Worpstrjitte,10,,,8633KM,Ysbrechtum,Súdwest-Fryslân,Friesland,VBO,5.631844,53.044120
Worpstrjitte,11,,,8633KM,Ysbrechtum,Súdwest-Fryslân,Friesland,VBO,5.632333,53.043643
Worpstrjitte,13,,,8633KM,Ysbrechtum,Súdwest-Fryslân,Friesland,VBO,5.632333,53.043517
Worpstrjitte,15,,,8633KM,Ysbrechtum,Súdwest-Fryslân,Friesland,VBO,5.632317,53.043455
Worpstrjitte,16,,,8633KM,Ysbrechtum,Súdwest-Fryslân,Friesland,VBO,5.631663,53.043725
Worpstrjitte,17,,,8633KM,Ysbrechtum,Súdwest-Fryslân,Friesland,VBO,5.632227,53.043320
Worpstrjitte,18,,,8633KM,Ysbrechtum,Súdwest-Fryslân,Friesland,VBO,5.631691,53.043456
Worpstrjitte,19,,,8633KM,Ysbrechtum,Súdwest-Fryslân,Friesland,VBO,5.632197,53.043248
Worpstrjitte,20,,,8633KM,Ysbrechtum,Súdwest-Fryslân,Friesland,VBO,5.631526,53.043339
Hascarstrjitte,2,,,8633KN,Ysbrechtum,Súdwest-Fryslân,Friesland,VBO,5.631386,53.042180
Hascarstrjitte,4,,,8633KN,Ysbrechtum,Súdwest-Fryslân,Friesland,VBO,5.631402,53.042369
Hascarstrjitte,6,,,8633KN,Ysbrechtum,Súdwest-Fryslân,Friesland,VBO,5.631447,53.042423
Hascarstrjitte,8,,,8633KN,Ysbrechtum,Súdwest-Fryslân,Friesland,VBO,5.631462,53.042486
Hascarstrjitte,10,,,8633KN,Ysbrechtum,Súdwest-Fryslân,Friesland,VBO,5.631477,53.042522
Hascarstrjitte,12,,,8633KN,Ysbrechtum,Súdwest-Fryslân,Friesland,VBO,5.631508,53.042638
Hascarstrjitte,14,,,8633KN,Ysbrechtum,Súdwest-Fryslân,Friesland,VBO,5.631553,53.042701
Hascarstrjitte,16,,,8633KN,Ysbrechtum,Súdwest-Fryslân,Friesland,VBO,5.631553,53.042746
Hascarstrjitte,18,,,8633KN,Ysbrechtum,Súdwest-Fryslân,Friesland,VBO,5.631598,53.042800
Hascarstrjitte,20,,,8633KN,Ysbrechtum,Súdwest-Fryslân,Friesland,VBO,5.631688,53.042917
Hascarstrjitte,22,,,8633KN,Ysbrechtum,Súdwest-Fryslân,Friesland,VBO,5.631957,53.042934
Hascarstrjitte,24,,,8633KN,Ysbrechtum,Súdwest-Fryslân,Friesland,VBO,5.632180,53.042907
Hascarstrjitte,26,,,8633KN,Ysbrechtum,Súdwest-Fryslân,Friesland,VBO,5.632179,53.042736
Hascarstrjitte,28,,,8633KN,Ysbrechtum,Súdwest-Fryslân,Friesland,VBO,5.632178,53.042601
Hascarstrjitte,30,,,8633KN,Ysbrechtum,Súdwest-Fryslân,Friesland,VBO,5.632178,53.042466
Hascarstrjitte,36,,,8633KN,Ysbrechtum,Súdwest-Fryslân,Friesland,VBO,5.632147,53.042296
Hascarstrjitte,38,,,8633KN,Ysbrechtum,Súdwest-Fryslân,Friesland,VBO,5.632057,53.042296
Hascarstrjitte,40,,,8633KN,Ysbrechtum,Súdwest-Fryslân,Friesland,VBO,5.631819,53.042323
Hascarstrjitte,42,,,8633KN,Ysbrechtum,Súdwest-Fryslân,Friesland,VBO,5.631715,53.042342
Burmaniastrjitte,2,,,8633KP,Ysbrechtum,Súdwest-Fryslân,Friesland,VBO,5.631139,53.043331
Burmaniastrjitte,4,,,8633KP,Ysbrechtum,Súdwest-Fryslân,Friesland,VBO,5.631020,53.043544
Burmaniastrjitte,6,,,8633KP,Ysbrechtum,Súdwest-Fryslân,Friesland,VBO,5.630737,53.043494
Burmaniastrjitte,8,,,8633KP,Ysbrechtum,Súdwest-Fryslân,Friesland,VBO,5.630737,53.043539
Burmaniastrjitte,10,,,8633KP,Ysbrechtum,Súdwest-Fryslân,Friesland,VBO,5.630753,53.043691
Burmaniastrjitte,14,,,8633KP,Ysbrechtum,Súdwest-Fryslân,Friesland,VBO,5.630828,53.043817
Burmaniastrjitte,16,,,8633KP,Ysbrechtum,Súdwest-Fryslân,Friesland,VBO,5.630843,53.043853
Burmaniastrjitte,18,,,8633KP,Ysbrechtum,Súdwest-Fryslân,Friesland,VBO,5.631128,53.044158
Burmaniastrjitte,20,,,8633KP,Ysbrechtum,Súdwest-Fryslân,Friesland,VBO,5.630981,53.044455
Burmaniastrjitte,22,,,8633KP,Ysbrechtum,Súdwest-Fryslân,Friesland,VBO,5.630653,53.044482
Burmaniastrjitte,24,,,8633KP,Ysbrechtum,Súdwest-Fryslân,Friesland,VBO,5.630490,53.044573
Burmaniastrjitte,26,,,8633KP,Ysbrechtum,Súdwest-Fryslân,Friesland,VBO,5.630162,53.044636
Hascarstrjitte,1,,,8633KP,Ysbrechtum,Súdwest-Fryslân,Friesland,VBO,5.630282,53.042147
Hascarstrjitte,3,,,8633KP,Ysbrechtum,Súdwest-Fryslân,Friesland,VBO,5.630805,53.042334
Hascarstrjitte,5,,,8633KP,Ysbrechtum,Súdwest-Fryslân,Friesland,VBO,5.630850,53.042388
Hascarstrjitte,7,,,8633KP,Ysbrechtum,Súdwest-Fryslân,Friesland,VBO,5.630895,53.042442
Hascarstrjitte,9,,,8633KP,Ysbrechtum,Súdwest-Fryslân,Friesland,VBO,5.630881,53.042568
Hascarstrjitte,11,,,8633KP,Ysbrechtum,Súdwest-Fryslân,Friesland,VBO,5.630926,53.042631
Hascarstrjitte,13,,,8633KP,Ysbrechtum,Súdwest-Fryslân,Friesland,VBO,5.630986,53.042675
Hascarstrjitte,15,,,8633KP,Ysbrechtum,Súdwest-Fryslân,Friesland,VBO,5.631031,53.042729
Hascarstrjitte,17,,,8633KP,Ysbrechtum,Súdwest-Fryslân,Friesland,VBO,5.631076,53.042783
Hascarstrjitte,19,,,8633KP,Ysbrechtum,Súdwest-Fryslân,Friesland,VBO,5.631106,53.042828
Hascarstrjitte,23,,,8633KP,Ysbrechtum,Súdwest-Fryslân,Friesland,VBO,5.632056,53.042035
Hascarstrjitte,25,,,8633KP,Ysbrechtum,Súdwest-Fryslân,Friesland,VBO,5.631803,53.042081
Hascarstrjitte,27,,,8633KP,Ysbrechtum,Súdwest-Fryslân,Friesland,VBO,5.631564,53.042126
Epemawei,1,,,8633KR,Ysbrechtum,Súdwest-Fryslân,Friesland,VBO,5.631161,53.041938
Epemawei,2,a,,8633KR,Ysbrechtum,Súdwest-Fryslân,Friesland,VBO,5.631636,53.041513
Epemawei,2,,,8633KR,Ysbrechtum,Súdwest-Fryslân,Friesland,VBO,5.631591,53.041533
Epemawei,3,,,8633KR,Ysbrechtum,Súdwest-Fryslân,Friesland,VBO,5.631295,53.041938
Epemawei,4,,,8633KR,Ysbrechtum,Súdwest-Fryslân,Friesland,VBO,5.631814,53.041425
Epemawei,5,,,8633KR,Ysbrechtum,Súdwest-Fryslân,Friesland,VBO,5.631563,53.041848
Epemawei,7,,,8633KR,Ysbrechtum,Súdwest-Fryslân,Friesland,VBO,5.631816,53.041748
Epemawei,9,,,8633KR,Ysbrechtum,Súdwest-Fryslân,Friesland,VBO,5.631800,53.041649
Epemawei,11,,,8633KR,Ysbrechtum,Súdwest-Fryslân,Friesland,VBO,5.631919,53.041604
Epemawei,13,,,8633KR,Ysbrechtum,Súdwest-Fryslân,Friesland,VBO,5.632008,53.041559
Epemawei,15,,,8633KR,Ysbrechtum,Súdwest-Fryslân,Friesland,VBO,5.632128,53.041559
Epemawei,17,,,8633KR,Ysbrechtum,Súdwest-Fryslân,Friesland,VBO,5.631950,53.041703
Epemawei,21,a,,8633KR,Ysbrechtum,Súdwest-Fryslân,Friesland,VBO,5.632399,53.041503
Epemawei,21,B,,8633KR,Ysbrechtum,Súdwest-Fryslân,Friesland,VBO,5.632484,53.041510
Epemawei,21,,,8633KR,Ysbrechtum,Súdwest-Fryslân,Friesland,VBO,5.632292,53.041585
Epemawei,23,a,,8633KR,Ysbrechtum,Súdwest-Fryslân,Friesland,VBO,5.633367,53.041934
Epemawei,23,b,,8633KR,Ysbrechtum,Súdwest-Fryslân,Friesland,VBO,5.633393,53.041911
Epemawei,23,c,,8633KR,Ysbrechtum,Súdwest-Fryslân,Friesland,VBO,5.633414,53.041883
Epemawei,23,d,,8633KR,Ysbrechtum,Súdwest-Fryslân,Friesland,VBO,5.633436,53.041854
Epemawei,23,e,,8633KR,Ysbrechtum,Súdwest-Fryslân,Friesland,VBO,5.633457,53.041825
Epemawei,23,f,,8633KR,Ysbrechtum,Súdwest-Fryslân,Friesland,VBO,5.633479,53.041793
Epemawei,23,g,,8633KR,Ysbrechtum,Súdwest-Fryslân,Friesland,VBO,5.633505,53.041769
Epemawei,23,h,,8633KR,Ysbrechtum,Súdwest-Fryslân,Friesland,VBO,5.633586,53.041674
Epemawei,23,,,8633KR,Ysbrechtum,Súdwest-Fryslân,Friesland,VBO,5.632574,53.041503
Epemawei,6,,,8633KS,Ysbrechtum,Súdwest-Fryslân,Friesland,VBO,5.632748,53.040515
Epemawei,8,,,8633KS,Ysbrechtum,Súdwest-Fryslân,Friesland,VBO,5.632642,53.040174
Epemawei,25,,,8633KS,Ysbrechtum,Súdwest-Fryslân,Friesland,VBO,5.633454,53.041475
Epemawei,27,,,8633KS,Ysbrechtum,Súdwest-Fryslân,Friesland,VBO,5.633588,53.041376
Epemawei,29,,,8633KS,Ysbrechtum,Súdwest-Fryslân,Friesland,VBO,5.633796,53.041331
Epemawei,31,,,8633KS,Ysbrechtum,Súdwest-Fryslân,Friesland,VBO,5.634421,53.041123
Epemawei,33,,,8633KS,Ysbrechtum,Súdwest-Fryslân,Friesland,VBO,5.634496,53.041087
Epemawei,35,,,8633KS,Ysbrechtum,Súdwest-Fryslân,Friesland,VBO,5.634645,53.041041
Epemawei,37,,,8633KS,Ysbrechtum,Súdwest-Fryslân,Friesland,VBO,5.634674,53.041023
Epemawei,39,,,8633KS,Ysbrechtum,Súdwest-Fryslân,Friesland,VBO,5.634764,53.040996
Tsjerkepaed,1,,,8633KT,Ysbrechtum,Súdwest-Fryslân,Friesland,VBO,5.632200,53.041190
Tsjerkepaed,2,,,8633KT,Ysbrechtum,Súdwest-Fryslân,Friesland,VBO,5.631888,53.041389
Tsjerkepaed,3,,,8633KT,Ysbrechtum,Súdwest-Fryslân,Friesland,VBO,5.631379,53.041048
Tsjerkepaed,4,,,8633KT,Ysbrechtum,Súdwest-Fryslân,Friesland,VBO,5.631501,53.041389
De Finne,1,,,8633KV,Ysbrechtum,Súdwest-Fryslân,Friesland,VBO,5.631099,53.041534
De Finne,4,,,8633KV,Ysbrechtum,Súdwest-Fryslân,Friesland,VBO,5.630336,53.041059
De Finne,6,,,8633KV,Ysbrechtum,Súdwest-Fryslân,Friesland,VBO,5.630260,53.040880
De Finne,7,,,8633KV,Ysbrechtum,Súdwest-Fryslân,Friesland,VBO,5.630765,53.040483
De Finne,8,,,8633KV,Ysbrechtum,Súdwest-Fryslân,Friesland,VBO,5.630230,53.040835
De Finne,10,,,8633KV,Ysbrechtum,Súdwest-Fryslân,Friesland,VBO,5.630095,53.040673
De Finne,11,,,8633KV,Ysbrechtum,Súdwest-Fryslân,Friesland,VBO,5.629942,53.040009
De Finne,12,,,8633KV,Ysbrechtum,Súdwest-Fryslân,Friesland,VBO,5.630050,53.040629
De Finne,13,,,8633KV,Ysbrechtum,Súdwest-Fryslân,Friesland,VBO,5.629346,53.040028
De Finne,14,,,8633KV,Ysbrechtum,Súdwest-Fryslân,Friesland,VBO,5.629960,53.040512
De Finne,15,,,8633KV,Ysbrechtum,Súdwest-Fryslân,Friesland,VBO,5.629018,53.040109
De Finne,16,,,8633KV,Ysbrechtum,Súdwest-Fryslân,Friesland,VBO,5.629915,53.040467
De Finne,17,,,8633KV,Ysbrechtum,Súdwest-Fryslân,Friesland,VBO,5.628676,53.040173
De Finne,18,,,8633KV,Ysbrechtum,Súdwest-Fryslân,Friesland,VBO,5.629720,53.040342
De Finne,19,,,8633KV,Ysbrechtum,Súdwest-Fryslân,Friesland,VBO,5.628423,53.040227
De Finne,20,,,8633KW,Ysbrechtum,Súdwest-Fryslân,Friesland,VBO,5.629675,53.040288
De Finne,21,,,8633KW,Ysbrechtum,Súdwest-Fryslân,Friesland,VBO,5.628827,53.040568
De Finne,22,,,8633KW,Ysbrechtum,Súdwest-Fryslân,Friesland,VBO,5.629363,53.040360
De Finne,23,,,8633KW,Ysbrechtum,Súdwest-Fryslân,Friesland,VBO,5.628992,53.040730
De Finne,24,,,8633KW,Ysbrechtum,Súdwest-Fryslân,Friesland,VBO,5.629453,53.040531
De Finne,25,,,8633KW,Ysbrechtum,Súdwest-Fryslân,Friesland,VBO,5.629038,53.040900
De Finne,26,,,8633KW,Ysbrechtum,Súdwest-Fryslân,Friesland,VBO,5.629498,53.040567
De Finne,27,,,8633KW,Ysbrechtum,Súdwest-Fryslân,Friesland,VBO,5.629173,53.041053
De Finne,28,,,8633KW,Ysbrechtum,Súdwest-Fryslân,Friesland,VBO,5.629603,53.040692
De Finne,29,,,8633KW,Ysbrechtum,Súdwest-Fryslân,Friesland,VBO,5.629278,53.041223
De Finne,30,,,8633KW,Ysbrechtum,Súdwest-Fryslân,Friesland,VBO,5.629633,53.040728
De Finne,31,,,8633KW,Ysbrechtum,Súdwest-Fryslân,Friesland,VBO,5.629532,53.041348
De Finne,32,,,8633KW,Ysbrechtum,Súdwest-Fryslân,Friesland,VBO,5.629738,53.040854
De Finne,34,,,8633KW,Ysbrechtum,Súdwest-Fryslân,Friesland,VBO,5.629768,53.040899
De Finne,36,,,8633KW,Ysbrechtum,Súdwest-Fryslân,Friesland,VBO,5.629873,53.041015
De Finne,38,,,8633KW,Ysbrechtum,Súdwest-Fryslân,Friesland,VBO,5.629918,53.041060
Tolhek,1,,,8633KX,Ysbrechtum,Súdwest-Fryslân,Friesland,VBO,5.624181,53.041584
Tolhek,2,,,8633KX,Ysbrechtum,Súdwest-Fryslân,Friesland,VBO,5.624566,53.041089
Tolhek,3,,,8633KX,Ysbrechtum,Súdwest-Fryslân,Friesland,VBO,5.624300,53.041494
Tolhek,5,,,8633KX,Ysbrechtum,Súdwest-Fryslân,Friesland,VBO,5.625984,53.046864
Tolhek,5,,,8633KX,Ysbrechtum,Súdwest-Fryslân,Friesland,VBO,5.626006,53.046859
Rengersstrjitte,1,,,8633LA,Ysbrechtum,Súdwest-Fryslân,Friesland,VBO,5.629898,53.042723
Rengersstrjitte,3,,,8633LA,Ysbrechtum,Súdwest-Fryslân,Friesland,VBO,5.629823,53.042759
Rengersstrjitte,5,,,8633LA,Ysbrechtum,Súdwest-Fryslân,Friesland,VBO,5.629794,53.042768
Rengersstrjitte,7,,,8633LA,Ysbrechtum,Súdwest-Fryslân,Friesland,VBO,5.629615,53.042849
Rengersstrjitte,9,,,8633LA,Ysbrechtum,Súdwest-Fryslân,Friesland,VBO,5.629556,53.042876
Rengersstrjitte,11,,,8633LA,Ysbrechtum,Súdwest-Fryslân,Friesland,VBO,5.629481,53.042912
Rengersstrjitte,13,,,8633LA,Ysbrechtum,Súdwest-Fryslân,Friesland,VBO,5.629422,53.042948
Rengersstrjitte,15,,,8633LA,Ysbrechtum,Súdwest-Fryslân,Friesland,VBO,5.629694,53.043577
Rengersstrjitte,17,,,8633LA,Ysbrechtum,Súdwest-Fryslân,Friesland,VBO,5.629903,53.043594
Rengersstrjitte,2,,,8633LB,Ysbrechtum,Súdwest-Fryslân,Friesland,VBO,5.630299,53.042443
Rengersstrjitte,4,,,8633LB,Ysbrechtum,Súdwest-Fryslân,Friesland,VBO,5.630329,53.042488
Rengersstrjitte,6,,,8633LB,Ysbrechtum,Súdwest-Fryslân,Friesland,VBO,5.630374,53.042533
Rengersstrjitte,8,,,8633LB,Ysbrechtum,Súdwest-Fryslân,Friesland,VBO,5.630419,53.042587
Rengersstrjitte,10,,,8633LB,Ysbrechtum,Súdwest-Fryslân,Friesland,VBO,5.630405,53.042695
Rengersstrjitte,12,,,8633LB,Ysbrechtum,Súdwest-Fryslân,Friesland,VBO,5.630464,53.042730
Rengersstrjitte,14,,,8633LB,Ysbrechtum,Súdwest-Fryslân,Friesland,VBO,5.630480,53.042775
Rengersstrjitte,16,,,8633LB,Ysbrechtum,Súdwest-Fryslân,Friesland,VBO,5.630525,53.042820
Rengersstrjitte,18,,,8633LB,Ysbrechtum,Súdwest-Fryslân,Friesland,VBO,5.630555,53.042874
Rengersstrjitte,20,,,8633LB,Ysbrechtum,Súdwest-Fryslân,Friesland,VBO,5.630585,53.042910
Rengersstrjitte,24,,,8633LB,Ysbrechtum,Súdwest-Fryslân,Friesland,VBO,5.630213,53.043019
Rengersstrjitte,26,,,8633LB,Ysbrechtum,Súdwest-Fryslân,Friesland,VBO,5.629989,53.043127
Rengersstrjitte,30,,,8633LB,Ysbrechtum,Súdwest-Fryslân,Friesland,VBO,5.629871,53.043280
De Râne,1,,,8633LC,Ysbrechtum,Súdwest-Fryslân,Friesland,VBO,5.628494,53.041168
De Râne,2,,,8633LC,Ysbrechtum,Súdwest-Fryslân,Friesland,VBO,5.628381,53.041035
De Râne,3,,,8633LC,Ysbrechtum,Súdwest-Fryslân,Friesland,VBO,5.628269,53.040861
De Râne,4,,,8633LC,Ysbrechtum,Súdwest-Fryslân,Friesland,VBO,5.628154,53.040680
De Râne,5,,,8633LC,Ysbrechtum,Súdwest-Fryslân,Friesland,VBO,5.628006,53.040377
De Râne,6,,,8633LC,Ysbrechtum,Súdwest-Fryslân,Friesland,VBO,5.627798,53.040415
De Râne,7,,,8633LC,Ysbrechtum,Súdwest-Fryslân,Friesland,VBO,5.627608,53.040449
De Râne,8,,,8633LC,Ysbrechtum,Súdwest-Fryslân,Friesland,VBO,5.627439,53.040427
De Râne,9,,,8633LC,Ysbrechtum,Súdwest-Fryslân,Friesland,VBO,5.627355,53.040445
De Râne,10,,,8633LC,Ysbrechtum,Súdwest-Fryslân,Friesland,VBO,5.627271,53.040464
De Râne,11,,,8633LC,Ysbrechtum,Súdwest-Fryslân,Friesland,VBO,5.626932,53.040548
De Râne,12,,,8633LC,Ysbrechtum,Súdwest-Fryslân,Friesland,VBO,5.626848,53.040568
De Râne,13,,,8633LC,Ysbrechtum,Súdwest-Fryslân,Friesland,VBO,5.626765,53.040592
De Râne,14,,,8633LC,Ysbrechtum,Súdwest-Fryslân,Friesland,VBO,5.626593,53.040646
De Râne,15,,,8633LC,Ysbrechtum,Súdwest-Fryslân,Friesland,VBO,5.626502,53.040670
De Râne,16,,,8633LC,Ysbrechtum,Súdwest-Fryslân,Friesland,VBO,5.626239,53.040744
De Râne,18,,,8633LC,Ysbrechtum,Súdwest-Fryslân,Friesland,VBO,5.626399,53.040974
De Râne,19,,,8633LC,Ysbrechtum,Súdwest-Fryslân,Friesland,VBO,5.626814,53.040837
De Râne,22,,,8633LC,Ysbrechtum,Súdwest-Fryslân,Friesland,VBO,5.627796,53.040899
Kleasterwei,1,,,8633WR,Ysbrechtum,Súdwest-Fryslân,Friesland,VBO,5.645398,53.049259
Kleasterwei,2,,,8633WR,Ysbrechtum,Súdwest-Fryslân,Friesland,VBO,5.641796,53.050399
Kleasterwei,3,,,8633WR,Ysbrechtum,Súdwest-Fryslân,Friesland,VBO,5.642070,53.048826
Kleasterwei,4,,,8633WR,Ysbrechtum,Súdwest-Fryslân,Friesland,VBO,5.639016,53.049210
Kleasterwei,5,,,8633WR,Ysbrechtum,Súdwest-Fryslân,Friesland,VBO,5.635363,53.046809
