openbareruimtenaam,huisnummer,huisletter,huisnummertoevoeging,postcode,woonplaatsnaam,gemeentenaam,provincienaam,typeadresseerbaarobject,longitude,latitude
Burenlaan,2,,,8749GA,Pingjum,Súdwest-Fryslân,Friesland,VBO,5.441256,53.116662
Burenlaan,4,,,8749GA,Pingjum,Súdwest-Fryslân,Friesland,VBO,5.441224,53.116615
Burenlaan,6,,,8749GA,Pingjum,Súdwest-Fryslân,Friesland,VBO,5.441228,53.116570
Burenlaan,10,,,8749GA,Pingjum,Súdwest-Fryslân,Friesland,VBO,5.441236,53.116480
Burenlaan,12,,,8749GA,Pingjum,Súdwest-Fryslân,Friesland,VBO,5.441272,53.116395
Burenlaan,16,,,8749GA,Pingjum,Súdwest-Fryslân,Friesland,VBO,5.441309,53.116173
Burenlaan,20,,,8749GA,Pingjum,Súdwest-Fryslân,Friesland,VBO,5.441319,53.116099
Burenlaan,22,,,8749GA,Pingjum,Súdwest-Fryslân,Friesland,VBO,5.441377,53.115967
Burenlaan,24,,,8749GA,Pingjum,Súdwest-Fryslân,Friesland,VBO,5.441349,53.115903
Burenlaan,30,,,8749GA,Pingjum,Súdwest-Fryslân,Friesland,VBO,5.441406,53.115759
Burenlaan,32,,,8749GA,Pingjum,Súdwest-Fryslân,Friesland,VBO,5.441411,53.115611
Burenlaan,34,,,8749GB,Pingjum,Súdwest-Fryslân,Friesland,VBO,5.441291,53.114988
Burenlaan,36,,,8749GB,Pingjum,Súdwest-Fryslân,Friesland,VBO,5.441213,53.114885
Burenlaan,40,,,8749GB,Pingjum,Súdwest-Fryslân,Friesland,VBO,5.441206,53.114802
Burenlaan,42,,,8749GB,Pingjum,Súdwest-Fryslân,Friesland,VBO,5.441236,53.114736
Burenlaan,44,,,8749GB,Pingjum,Súdwest-Fryslân,Friesland,VBO,5.441294,53.114661
Burenlaan,46,,,8749GB,Pingjum,Súdwest-Fryslân,Friesland,VBO,5.441240,53.114542
Burenlaan,48,,,8749GB,Pingjum,Súdwest-Fryslân,Friesland,VBO,5.441102,53.114458
Burenlaan,50,,,8749GB,Pingjum,Súdwest-Fryslân,Friesland,VBO,5.441211,53.114237
Grote Buren,1,,,8749GC,Pingjum,Súdwest-Fryslân,Friesland,VBO,5.441153,53.115070
Grote Buren,3,,,8749GC,Pingjum,Súdwest-Fryslân,Friesland,VBO,5.441018,53.115078
Grote Buren,7,,,8749GC,Pingjum,Súdwest-Fryslân,Friesland,VBO,5.440862,53.115113
Grote Buren,9,,,8749GC,Pingjum,Súdwest-Fryslân,Friesland,VBO,5.440655,53.115082
Grote Buren,11,,,8749GD,Pingjum,Súdwest-Fryslân,Friesland,VBO,5.440347,53.115059
Grote Buren,13,,,8749GD,Pingjum,Súdwest-Fryslân,Friesland,VBO,5.440217,53.115034
Grote Buren,15,,,8749GD,Pingjum,Súdwest-Fryslân,Friesland,VBO,5.440062,53.115007
Grote Buren,17,,,8749GD,Pingjum,Súdwest-Fryslân,Friesland,VBO,5.439897,53.115072
Grote Buren,19,,,8749GD,Pingjum,Súdwest-Fryslân,Friesland,VBO,5.439766,53.115108
Grote Buren,23,,,8749GD,Pingjum,Súdwest-Fryslân,Friesland,VBO,5.439532,53.115164
Grote Buren,25,,,8749GD,Pingjum,Súdwest-Fryslân,Friesland,VBO,5.439458,53.115225
Grote Buren,27,,,8749GD,Pingjum,Súdwest-Fryslân,Friesland,VBO,5.439603,53.115360
Grote Buren,29,,,8749GD,Pingjum,Súdwest-Fryslân,Friesland,VBO,5.439409,53.115344
Grote Buren,31,,,8749GD,Pingjum,Súdwest-Fryslân,Friesland,VBO,5.439389,53.115437
Grote Buren,35,,,8749GD,Pingjum,Súdwest-Fryslân,Friesland,VBO,5.439230,53.115482
Grote Buren,37,,,8749GD,Pingjum,Súdwest-Fryslân,Friesland,VBO,5.439036,53.115588
Grote Buren,39,,,8749GD,Pingjum,Súdwest-Fryslân,Friesland,VBO,5.439070,53.115444
Grote Buren,41,,,8749GD,Pingjum,Súdwest-Fryslân,Friesland,VBO,5.438996,53.115474
Grote Buren,43,,,8749GD,Pingjum,Súdwest-Fryslân,Friesland,VBO,5.438923,53.115503
Grote Buren,47,,,8749GD,Pingjum,Súdwest-Fryslân,Friesland,VBO,5.438359,53.115608
Grote Buren,49,,,8749GD,Pingjum,Súdwest-Fryslân,Friesland,VBO,5.437722,53.115820
Grote Buren,51,,,8749GD,Pingjum,Súdwest-Fryslân,Friesland,VBO,5.437621,53.115852
Grote Buren,53,,,8749GD,Pingjum,Súdwest-Fryslân,Friesland,VBO,5.437414,53.115953
Grote Buren,2,,,8749GE,Pingjum,Súdwest-Fryslân,Friesland,VBO,5.441323,53.115429
Grote Buren,4,,,8749GE,Pingjum,Súdwest-Fryslân,Friesland,VBO,5.441098,53.115348
Grote Buren,6,,,8749GE,Pingjum,Súdwest-Fryslân,Friesland,VBO,5.441034,53.115475
Grote Buren,8,,,8749GE,Pingjum,Súdwest-Fryslân,Friesland,VBO,5.440237,53.115462
Grote Buren,10,,,8749GE,Pingjum,Súdwest-Fryslân,Friesland,VBO,5.439909,53.115623
Grote Buren,12,,,8749GE,Pingjum,Súdwest-Fryslân,Friesland,VBO,5.439772,53.115601
Grote Buren,14,,,8749GE,Pingjum,Súdwest-Fryslân,Friesland,VBO,5.439548,53.115652
Grote Buren,18,,,8749GE,Pingjum,Súdwest-Fryslân,Friesland,VBO,5.439351,53.115690
Grote Buren,22,,,8749GE,Pingjum,Súdwest-Fryslân,Friesland,VBO,5.439288,53.115763
Grote Buren,24,,,8749GE,Pingjum,Súdwest-Fryslân,Friesland,VBO,5.439140,53.115777
Grote Buren,26,A,,8749GE,Pingjum,Súdwest-Fryslân,Friesland,VBO,5.439066,53.115955
Grote Buren,26,B,,8749GE,Pingjum,Súdwest-Fryslân,Friesland,VBO,5.439112,53.115999
Grote Buren,26,C,,8749GE,Pingjum,Súdwest-Fryslân,Friesland,VBO,5.439148,53.116039
Grote Buren,26,D,,8749GE,Pingjum,Súdwest-Fryslân,Friesland,VBO,5.439165,53.116061
Grote Buren,26,E,,8749GE,Pingjum,Súdwest-Fryslân,Friesland,VBO,5.439194,53.116080
Grote Buren,26,,,8749GE,Pingjum,Súdwest-Fryslân,Friesland,VBO,5.438997,53.115853
Grote Buren,28,,,8749GE,Pingjum,Súdwest-Fryslân,Friesland,VBO,5.438781,53.115789
Grote Buren,30,,,8749GE,Pingjum,Súdwest-Fryslân,Friesland,VBO,5.438610,53.115800
De Alde Haven,1,,,8749GG,Pingjum,Súdwest-Fryslân,Friesland,VBO,5.438145,53.115649
De Alde Haven,2,,,8749GG,Pingjum,Súdwest-Fryslân,Friesland,VBO,5.437602,53.115694
De Alde Haven,3,,,8749GG,Pingjum,Súdwest-Fryslân,Friesland,VBO,5.438102,53.115599
De Alde Haven,4,,,8749GG,Pingjum,Súdwest-Fryslân,Friesland,VBO,5.437549,53.115634
De Alde Haven,5,,,8749GG,Pingjum,Súdwest-Fryslân,Friesland,VBO,5.438060,53.115549
De Alde Haven,6,,,8749GG,Pingjum,Súdwest-Fryslân,Friesland,VBO,5.437389,53.115565
De Alde Haven,7,,,8749GG,Pingjum,Súdwest-Fryslân,Friesland,VBO,5.438017,53.115499
De Alde Haven,8,,,8749GG,Pingjum,Súdwest-Fryslân,Friesland,VBO,5.437278,53.115461
De Alde Haven,9,,,8749GG,Pingjum,Súdwest-Fryslân,Friesland,VBO,5.437867,53.115372
De Alde Haven,10,,,8749GG,Pingjum,Súdwest-Fryslân,Friesland,VBO,5.437164,53.115268
De Alde Haven,11,,,8749GG,Pingjum,Súdwest-Fryslân,Friesland,VBO,5.437822,53.115318
De Alde Haven,12,,,8749GG,Pingjum,Súdwest-Fryslân,Friesland,VBO,5.437372,53.115229
De Alde Haven,13,,,8749GG,Pingjum,Súdwest-Fryslân,Friesland,VBO,5.438257,53.115244
De Alde Haven,14,,,8749GG,Pingjum,Súdwest-Fryslân,Friesland,VBO,5.437342,53.115209
De Alde Haven,15,,,8749GG,Pingjum,Súdwest-Fryslân,Friesland,VBO,5.438526,53.115167
De Alde Haven,16,,,8749GG,Pingjum,Súdwest-Fryslân,Friesland,VBO,5.437312,53.115230
De Alde Haven,17,,,8749GG,Pingjum,Súdwest-Fryslân,Friesland,VBO,5.438742,53.115040
De Alde Haven,18,,,8749GG,Pingjum,Súdwest-Fryslân,Friesland,VBO,5.437228,53.115152
De Alde Haven,19,,,8749GG,Pingjum,Súdwest-Fryslân,Friesland,VBO,5.439033,53.114930
De Alde Haven,21,,,8749GG,Pingjum,Súdwest-Fryslân,Friesland,VBO,5.439263,53.114886
De Alde Haven,23,,,8749GG,Pingjum,Súdwest-Fryslân,Friesland,VBO,5.439506,53.114795
De Alde Haven,26,,,8749GG,Pingjum,Súdwest-Fryslân,Friesland,VBO,5.437475,53.115044
De Alde Haven,28,,,8749GG,Pingjum,Súdwest-Fryslân,Friesland,VBO,5.437643,53.114991
De Alde Haven,30,,,8749GG,Pingjum,Súdwest-Fryslân,Friesland,VBO,5.437869,53.114911
De Alde Haven,32,,,8749GG,Pingjum,Súdwest-Fryslân,Friesland,VBO,5.438150,53.114854
De Alde Haven,34,,,8749GG,Pingjum,Súdwest-Fryslân,Friesland,VBO,5.438398,53.114779
Grote Buren,36,,,8749GG,Pingjum,Súdwest-Fryslân,Friesland,VBO,5.438431,53.115919
Grote Buren,38,,,8749GG,Pingjum,Súdwest-Fryslân,Friesland,VBO,5.438277,53.115936
Grote Buren,40,,,8749GG,Pingjum,Súdwest-Fryslân,Friesland,VBO,5.438166,53.115924
Grote Buren,44,,,8749GG,Pingjum,Súdwest-Fryslân,Friesland,VBO,5.438055,53.116005
Grote Buren,46,,,8749GG,Pingjum,Súdwest-Fryslân,Friesland,VBO,5.437947,53.116063
Grote Buren,48,,,8749GG,Pingjum,Súdwest-Fryslân,Friesland,VBO,5.437788,53.116101
Grote Buren,50,,,8749GG,Pingjum,Súdwest-Fryslân,Friesland,VBO,5.437688,53.116139
Grote Buren,52,,,8749GG,Pingjum,Súdwest-Fryslân,Friesland,VBO,5.437617,53.116206
Kleine Buren,1,,,8749GH,Pingjum,Súdwest-Fryslân,Friesland,VBO,5.440681,53.115053
Kleine Buren,3,,,8749GH,Pingjum,Súdwest-Fryslân,Friesland,VBO,5.440716,53.114989
Kleine Buren,5,,,8749GH,Pingjum,Súdwest-Fryslân,Friesland,VBO,5.440782,53.114835
Kleine Buren,9,,,8749GH,Pingjum,Súdwest-Fryslân,Friesland,VBO,5.441006,53.114610
Kleine Buren,13,,,8749GH,Pingjum,Súdwest-Fryslân,Friesland,VBO,5.441016,53.114458
Kleine Buren,15,,,8749GH,Pingjum,Súdwest-Fryslân,Friesland,VBO,5.441052,53.114276
Kleine Buren,19,,,8749GH,Pingjum,Súdwest-Fryslân,Friesland,VBO,5.440899,53.114250
Kleine Buren,4,,,8749GJ,Pingjum,Súdwest-Fryslân,Friesland,VBO,5.440437,53.114952
Kleine Buren,10,,,8749GJ,Pingjum,Súdwest-Fryslân,Friesland,VBO,5.440360,53.114725
Kleine Buren,12,,,8749GJ,Pingjum,Súdwest-Fryslân,Friesland,VBO,5.440451,53.114730
Kleine Buren,16,,,8749GJ,Pingjum,Súdwest-Fryslân,Friesland,VBO,5.440524,53.114698
Kleine Buren,20,,,8749GJ,Pingjum,Súdwest-Fryslân,Friesland,VBO,5.440582,53.114634
Kleine Buren,22,,,8749GJ,Pingjum,Súdwest-Fryslân,Friesland,VBO,5.440633,53.114571
Kleine Buren,24,,,8749GJ,Pingjum,Súdwest-Fryslân,Friesland,VBO,5.440637,53.114467
Kleine Buren,26,,,8749GJ,Pingjum,Súdwest-Fryslân,Friesland,VBO,5.440687,53.114120
Kleine Buren,28,,,8749GJ,Pingjum,Súdwest-Fryslân,Friesland,VBO,5.440796,53.114265
Nearesteech,1,,,8749GK,Pingjum,Súdwest-Fryslân,Friesland,VBO,5.440966,53.114675
Nearesteech,4,,,8749GK,Pingjum,Súdwest-Fryslân,Friesland,VBO,5.441241,53.114573
De Alde Haven,36,,,8749GL,Pingjum,Súdwest-Fryslân,Friesland,VBO,5.438633,53.114691
De Alde Haven,38,,,8749GL,Pingjum,Súdwest-Fryslân,Friesland,VBO,5.438907,53.114602
De Alde Haven,40,,,8749GL,Pingjum,Súdwest-Fryslân,Friesland,VBO,5.439221,53.114502
De Kamp,1,,,8749GL,Pingjum,Súdwest-Fryslân,Friesland,VBO,5.440334,53.114602
De Kamp,3,,,8749GL,Pingjum,Súdwest-Fryslân,Friesland,VBO,5.440386,53.114516
De Kamp,4,,,8749GL,Pingjum,Súdwest-Fryslân,Friesland,VBO,5.439987,53.114602
De Kamp,6,,,8749GL,Pingjum,Súdwest-Fryslân,Friesland,VBO,5.440050,53.114660
De Kamp,7,,,8749GL,Pingjum,Súdwest-Fryslân,Friesland,VBO,5.440355,53.114407
De Kamp,9,,,8749GL,Pingjum,Súdwest-Fryslân,Friesland,VBO,5.440382,53.114345
De Kamp,10,,,8749GL,Pingjum,Súdwest-Fryslân,Friesland,VBO,5.440000,53.114336
De Kamp,11,,,8749GL,Pingjum,Súdwest-Fryslân,Friesland,VBO,5.440356,53.114296
De Kamp,14,,,8749GL,Pingjum,Súdwest-Fryslân,Friesland,VBO,5.440338,53.114072
Oorlogssteeg,1,,,8749GM,Pingjum,Súdwest-Fryslân,Friesland,VBO,5.441068,53.114955
Oorlogssteeg,2,,,8749GM,Pingjum,Súdwest-Fryslân,Friesland,VBO,5.440727,53.114881
Oorlogssteeg,3,,,8749GM,Pingjum,Súdwest-Fryslân,Friesland,VBO,5.441188,53.114993
Kerkpad,3,,,8749GN,Pingjum,Súdwest-Fryslân,Friesland,VBO,5.440368,53.115736
Kerkpad,7,,,8749GN,Pingjum,Súdwest-Fryslân,Friesland,VBO,5.440608,53.115740
Kerkpad,9,,,8749GN,Pingjum,Súdwest-Fryslân,Friesland,VBO,5.440679,53.115694
Kerkpad,15,,,8749GN,Pingjum,Súdwest-Fryslân,Friesland,VBO,5.440906,53.115656
Molenlaan,1,,,8749GP,Pingjum,Súdwest-Fryslân,Friesland,VBO,5.437391,53.116008
Molenlaan,3,,,8749GP,Pingjum,Súdwest-Fryslân,Friesland,VBO,5.437222,53.115848
Molenlaan,5,,,8749GP,Pingjum,Súdwest-Fryslân,Friesland,VBO,5.437182,53.115715
Molenlaan,6,,,8749GP,Pingjum,Súdwest-Fryslân,Friesland,VBO,5.436824,53.116162
Molenlaan,8,,,8749GP,Pingjum,Súdwest-Fryslân,Friesland,VBO,5.436966,53.116187
Molenlaan,13,,,8749GP,Pingjum,Súdwest-Fryslân,Friesland,VBO,5.436988,53.115666
Molenlaan,17,,,8749GP,Pingjum,Súdwest-Fryslân,Friesland,VBO,5.436934,53.115617
Molenlaan,19,,,8749GP,Pingjum,Súdwest-Fryslân,Friesland,VBO,5.436832,53.115542
Molenlaan,21,,,8749GP,Pingjum,Súdwest-Fryslân,Friesland,VBO,5.436659,53.115389
Molenlaan,24,,,8749GP,Pingjum,Súdwest-Fryslân,Friesland,VBO,5.436936,53.115921
Molenlaan,32,,,8749GP,Pingjum,Súdwest-Fryslân,Friesland,VBO,5.436794,53.115859
Molenlaan,34,,,8749GP,Pingjum,Súdwest-Fryslân,Friesland,VBO,5.436735,53.116191
Molenlaan,36,,,8749GP,Pingjum,Súdwest-Fryslân,Friesland,VBO,5.436297,53.115601
Molenlaan,38,,,8749GP,Pingjum,Súdwest-Fryslân,Friesland,VBO,5.436171,53.115454
Molenlaan,40,,,8749GP,Pingjum,Súdwest-Fryslân,Friesland,VBO,5.436057,53.115273
Molenlaan,42,,,8749GP,Pingjum,Súdwest-Fryslân,Friesland,VBO,5.435947,53.115080
Molenlaan,44,,,8749GP,Pingjum,Súdwest-Fryslân,Friesland,VBO,5.435859,53.114932
Molenlaan,46,,,8749GP,Pingjum,Súdwest-Fryslân,Friesland,VBO,5.435709,53.114757
Molenlaan,48,,,8749GP,Pingjum,Súdwest-Fryslân,Friesland,VBO,5.435416,53.114644
Pibemalaan,1,,,8749GR,Pingjum,Súdwest-Fryslân,Friesland,VBO,5.438540,53.117728
Pibemalaan,3,,,8749GR,Pingjum,Súdwest-Fryslân,Friesland,VBO,5.438950,53.117630
Pibemalaan,5,,,8749GR,Pingjum,Súdwest-Fryslân,Friesland,VBO,5.439211,53.117553
Pibemalaan,7,,,8749GR,Pingjum,Súdwest-Fryslân,Friesland,VBO,5.439459,53.117494
Pibemalaan,9,,,8749GR,Pingjum,Súdwest-Fryslân,Friesland,VBO,5.439876,53.117398
Pibemalaan,11,,,8749GR,Pingjum,Súdwest-Fryslân,Friesland,VBO,5.440380,53.117336
Pibemalaan,13,,,8749GR,Pingjum,Súdwest-Fryslân,Friesland,VBO,5.440512,53.117163
Pibemalaan,15,,,8749GR,Pingjum,Súdwest-Fryslân,Friesland,VBO,5.440790,53.117108
Pibemalaan,17,,,8749GR,Pingjum,Súdwest-Fryslân,Friesland,VBO,5.441140,53.117080
Pibemalaan,19,,,8749GR,Pingjum,Súdwest-Fryslân,Friesland,VBO,5.441506,53.116863
Pibemalaan,21,,,8749GR,Pingjum,Súdwest-Fryslân,Friesland,VBO,5.441651,53.116833
Pibemalaan,23,,,8749GR,Pingjum,Súdwest-Fryslân,Friesland,VBO,5.441773,53.116795
Pibemalaan,25,,,8749GR,Pingjum,Súdwest-Fryslân,Friesland,VBO,5.441891,53.116777
Pibemalaan,27,,,8749GR,Pingjum,Súdwest-Fryslân,Friesland,VBO,5.442111,53.116732
Pibemalaan,29,,,8749GR,Pingjum,Súdwest-Fryslân,Friesland,VBO,5.442216,53.116703
Pibemalaan,31,,,8749GR,Pingjum,Súdwest-Fryslân,Friesland,VBO,5.442312,53.116690
Pibemalaan,35,,,8749GR,Pingjum,Súdwest-Fryslân,Friesland,VBO,5.442636,53.116702
Pibemalaan,39,,,8749GR,Pingjum,Súdwest-Fryslân,Friesland,VBO,5.442724,53.116788
Pibemalaan,41,,,8749GR,Pingjum,Súdwest-Fryslân,Friesland,VBO,5.442822,53.116856
Pibemalaan,4,,,8749GS,Pingjum,Súdwest-Fryslân,Friesland,VBO,5.437837,53.116315
Pibemalaan,6,,,8749GS,Pingjum,Súdwest-Fryslân,Friesland,VBO,5.437950,53.116393
Pibemalaan,8,A,,8749GS,Pingjum,Súdwest-Fryslân,Friesland,VBO,5.438111,53.117059
Pibemalaan,8,,,8749GS,Pingjum,Súdwest-Fryslân,Friesland,VBO,5.438045,53.116499
Pibemalaan,10,,,8749GS,Pingjum,Súdwest-Fryslân,Friesland,VBO,5.438173,53.117146
Pibemalaan,12,,,8749GS,Pingjum,Súdwest-Fryslân,Friesland,VBO,5.438195,53.117208
Pibemalaan,14,,,8749GS,Pingjum,Súdwest-Fryslân,Friesland,VBO,5.438217,53.117269
Pibemalaan,16,,,8749GS,Pingjum,Súdwest-Fryslân,Friesland,VBO,5.438247,53.117353
Pibemalaan,22,,,8749GS,Pingjum,Súdwest-Fryslân,Friesland,VBO,5.438487,53.117275
Pibemalaan,24,,,8749GS,Pingjum,Súdwest-Fryslân,Friesland,VBO,5.439114,53.117133
Pibemalaan,26,,,8749GS,Pingjum,Súdwest-Fryslân,Friesland,VBO,5.439211,53.117109
Pibemalaan,28,,,8749GS,Pingjum,Súdwest-Fryslân,Friesland,VBO,5.439464,53.117032
Pibemalaan,32,,,8749GS,Pingjum,Súdwest-Fryslân,Friesland,VBO,5.441141,53.116704
Lammert Scheltesstraat,1,,,8749GT,Pingjum,Súdwest-Fryslân,Friesland,VBO,5.440427,53.116681
Lammert Scheltesstraat,3,,,8749GT,Pingjum,Súdwest-Fryslân,Friesland,VBO,5.440099,53.116579
Lammert Scheltesstraat,5,,,8749GT,Pingjum,Súdwest-Fryslân,Friesland,VBO,5.440044,53.116510
Lammert Scheltesstraat,7,,,8749GT,Pingjum,Súdwest-Fryslân,Friesland,VBO,5.439972,53.116426
Lammert Scheltesstraat,9,,,8749GT,Pingjum,Súdwest-Fryslân,Friesland,VBO,5.439919,53.116359
Lammert Scheltesstraat,11,,,8749GT,Pingjum,Súdwest-Fryslân,Friesland,VBO,5.439840,53.116267
Lammert Scheltesstraat,13,,,8749GT,Pingjum,Súdwest-Fryslân,Friesland,VBO,5.439783,53.116196
Lammert Scheltesstraat,15,,,8749GT,Pingjum,Súdwest-Fryslân,Friesland,VBO,5.439712,53.116116
Lammert Scheltesstraat,17,,,8749GT,Pingjum,Súdwest-Fryslân,Friesland,VBO,5.439656,53.116048
Lammert Scheltesstraat,19,,,8749GT,Pingjum,Súdwest-Fryslân,Friesland,VBO,5.438808,53.116098
Lammert Scheltesstraat,21,,,8749GT,Pingjum,Súdwest-Fryslân,Friesland,VBO,5.438696,53.116179
Lammert Scheltesstraat,23,,,8749GT,Pingjum,Súdwest-Fryslân,Friesland,VBO,5.438558,53.116220
Lammert Scheltesstraat,25,,,8749GT,Pingjum,Súdwest-Fryslân,Friesland,VBO,5.438371,53.116285
Lammert Scheltesstraat,27,,,8749GT,Pingjum,Súdwest-Fryslân,Friesland,VBO,5.438271,53.116319
Lammert Scheltesstraat,37,,,8749GT,Pingjum,Súdwest-Fryslân,Friesland,VBO,5.438019,53.116641
Lammert Scheltesstraat,2,,,8749GV,Pingjum,Súdwest-Fryslân,Friesland,VBO,5.439869,53.116971
Lammert Scheltesstraat,4,,,8749GV,Pingjum,Súdwest-Fryslân,Friesland,VBO,5.439822,53.116911
Lammert Scheltesstraat,6,,,8749GV,Pingjum,Súdwest-Fryslân,Friesland,VBO,5.439768,53.116849
Lammert Scheltesstraat,8,,,8749GV,Pingjum,Súdwest-Fryslân,Friesland,VBO,5.439728,53.116793
Lammert Scheltesstraat,10,A,,8749GV,Pingjum,Súdwest-Fryslân,Friesland,VBO,5.439550,53.116648
Lammert Scheltesstraat,10,B,,8749GV,Pingjum,Súdwest-Fryslân,Friesland,VBO,5.439569,53.116673
Lammert Scheltesstraat,10,C,,8749GV,Pingjum,Súdwest-Fryslân,Friesland,VBO,5.439594,53.116695
Lammert Scheltesstraat,10,D,,8749GV,Pingjum,Súdwest-Fryslân,Friesland,VBO,5.439614,53.116720
Lammert Scheltesstraat,10,E,,8749GV,Pingjum,Súdwest-Fryslân,Friesland,VBO,5.439639,53.116743
Lammert Scheltesstraat,12,,,8749GV,Pingjum,Súdwest-Fryslân,Friesland,VBO,5.439068,53.116605
Lammert Scheltesstraat,30,,,8749GV,Pingjum,Súdwest-Fryslân,Friesland,VBO,5.438373,53.116875
Lammert Scheltesstraat,32,,,8749GV,Pingjum,Súdwest-Fryslân,Friesland,VBO,5.438095,53.116940
Geert Gratamastrjitte,1,,,8749GW,Pingjum,Súdwest-Fryslân,Friesland,VBO,5.438470,53.117026
Geert Gratamastrjitte,3,,,8749GW,Pingjum,Súdwest-Fryslân,Friesland,VBO,5.438517,53.117144
Geert Gratamastrjitte,4,,,8749GW,Pingjum,Súdwest-Fryslân,Friesland,VBO,5.438833,53.116881
Geert Gratamastrjitte,6,,,8749GW,Pingjum,Súdwest-Fryslân,Friesland,VBO,5.438849,53.116944
Geert Gratamastrjitte,8,,,8749GW,Pingjum,Súdwest-Fryslân,Friesland,VBO,5.438856,53.117003
Geert Gratamastrjitte,10,,,8749GW,Pingjum,Súdwest-Fryslân,Friesland,VBO,5.438872,53.117060
Geert Gratamastrjitte,12,,,8749GW,Pingjum,Súdwest-Fryslân,Friesland,VBO,5.438919,53.117123
Kerkstraat,3,A,,8749GX,Pingjum,Súdwest-Fryslân,Friesland,VBO,5.440114,53.115723
Kerkstraat,3,,,8749GX,Pingjum,Súdwest-Fryslân,Friesland,VBO,5.440126,53.115787
Kerkstraat,7,,,8749GX,Pingjum,Súdwest-Fryslân,Friesland,VBO,5.440120,53.115891
Kerkstraat,11,,,8749GX,Pingjum,Súdwest-Fryslân,Friesland,VBO,5.440022,53.116050
Kerkstraat,13,,,8749GX,Pingjum,Súdwest-Fryslân,Friesland,VBO,5.440253,53.116037
Kerkstraat,15,,,8749GX,Pingjum,Súdwest-Fryslân,Friesland,VBO,5.440350,53.116089
Kerkstraat,17,,,8749GX,Pingjum,Súdwest-Fryslân,Friesland,VBO,5.440401,53.116150
Kerkstraat,19,,,8749GX,Pingjum,Súdwest-Fryslân,Friesland,VBO,5.440473,53.116260
Kerkstraat,21,,,8749GX,Pingjum,Súdwest-Fryslân,Friesland,VBO,5.440556,53.116350
Kerkstraat,23,,,8749GX,Pingjum,Súdwest-Fryslân,Friesland,VBO,5.440583,53.116413
Kerkstraat,25,,,8749GX,Pingjum,Súdwest-Fryslân,Friesland,VBO,5.440629,53.116467
Kerkstraat,27,,,8749GX,Pingjum,Súdwest-Fryslân,Friesland,VBO,5.440670,53.116542
Kerkstraat,29,,,8749GX,Pingjum,Súdwest-Fryslân,Friesland,VBO,5.440702,53.116582
Kerkstraat,31,,,8749GX,Pingjum,Súdwest-Fryslân,Friesland,VBO,5.440744,53.116659
Kerkstraat,33,,,8749GX,Pingjum,Súdwest-Fryslân,Friesland,VBO,5.440802,53.116710
Kerkstraat,2,,,8749GZ,Pingjum,Súdwest-Fryslân,Friesland,VBO,5.440528,53.115819
Kerkstraat,6,,,8749GZ,Pingjum,Súdwest-Fryslân,Friesland,VBO,5.440664,53.115961
Kerkstraat,8,,,8749GZ,Pingjum,Súdwest-Fryslân,Friesland,VBO,5.440752,53.116052
Kerkstraat,10,,,8749GZ,Pingjum,Súdwest-Fryslân,Friesland,VBO,5.440867,53.116183
Kerkstraat,12,,,8749GZ,Pingjum,Súdwest-Fryslân,Friesland,VBO,5.440904,53.116255
Kerkstraat,16,,,8749GZ,Pingjum,Súdwest-Fryslân,Friesland,VBO,5.441005,53.116378
Kerkstraat,18,,,8749GZ,Pingjum,Súdwest-Fryslân,Friesland,VBO,5.441037,53.116514
Mulierlaan,2,A,,8749TA,Pingjum,Súdwest-Fryslân,Friesland,VBO,5.444769,53.114305
Mulierlaan,2,B,,8749TA,Pingjum,Súdwest-Fryslân,Friesland,VBO,5.443583,53.114696
Mulierlaan,2,,,8749TA,Pingjum,Súdwest-Fryslân,Friesland,VBO,5.442317,53.114026
Mulierlaan,3,,,8749TA,Pingjum,Súdwest-Fryslân,Friesland,VBO,5.457354,53.110882
Mulierlaan,4,,,8749TA,Pingjum,Súdwest-Fryslân,Friesland,VBO,5.450448,53.112965
Mulierlaan,5,,,8749TA,Pingjum,Súdwest-Fryslân,Friesland,VBO,5.458482,53.110332
Mulierlaan,6,,,8749TA,Pingjum,Súdwest-Fryslân,Friesland,VBO,5.455106,53.111331
Taekelaan,2,,,8749TB,Pingjum,Súdwest-Fryslân,Friesland,VBO,5.447222,53.115496
Taekelaan,4,,,8749TB,Pingjum,Súdwest-Fryslân,Friesland,VBO,5.452792,53.121219
Taekelaan,4,,,8749TB,Pingjum,Súdwest-Fryslân,Friesland,VBO,5.452892,53.121189
Nesserlaan,2,,,8749TC,Pingjum,Súdwest-Fryslân,Friesland,VBO,5.453345,53.121637
Nesserlaan,3,,,8749TC,Pingjum,Súdwest-Fryslân,Friesland,VBO,5.457117,53.121207
Nesserlaan,4,A,,8749TC,Pingjum,Súdwest-Fryslân,Friesland,VBO,5.455251,53.121011
Nesserlaan,4,,,8749TC,Pingjum,Súdwest-Fryslân,Friesland,VBO,5.454219,53.121632
Nesserlaan,5,,,8749TC,Pingjum,Súdwest-Fryslân,Friesland,VBO,5.458177,53.121047
Nesserlaan,6,,,8749TC,Pingjum,Súdwest-Fryslân,Friesland,VBO,5.459422,53.119933
Nesserlaan,7,,,8749TC,Pingjum,Súdwest-Fryslân,Friesland,VBO,5.459225,53.120957
Nesserlaan,11,,,8749TC,Pingjum,Súdwest-Fryslân,Friesland,VBO,5.459714,53.120877
Riegeweg,1,,,8749TD,Pingjum,Súdwest-Fryslân,Friesland,VBO,5.446144,53.122542
Riegeweg,2,,,8749TD,Pingjum,Súdwest-Fryslân,Friesland,VBO,5.449567,53.122582
Riegeweg,3,,,8749TD,Pingjum,Súdwest-Fryslân,Friesland,VBO,5.445768,53.122740
Riegeweg,5,,,8749TD,Pingjum,Súdwest-Fryslân,Friesland,VBO,5.438643,53.122636
Riegeweg,6,,,8749TD,Pingjum,Súdwest-Fryslân,Friesland,VBO,5.447331,53.122949
Riegeweg,7,,,8749TD,Pingjum,Súdwest-Fryslân,Friesland,VBO,5.432607,53.122676
Riegeweg,8,,,8749TD,Pingjum,Súdwest-Fryslân,Friesland,VBO,5.441087,53.122954
Riegeweg,9,,,8749TD,Pingjum,Súdwest-Fryslân,Friesland,VBO,5.426732,53.122861
Riegeweg,10,,,8749TD,Pingjum,Súdwest-Fryslân,Friesland,VBO,5.432628,53.123143
Riegeweg,12,A,,8749TD,Pingjum,Súdwest-Fryslân,Friesland,VBO,5.427920,53.123254
Riegeweg,12,,,8749TD,Pingjum,Súdwest-Fryslân,Friesland,VBO,5.428222,53.123117
Riegeweg,14,,,8749TD,Pingjum,Súdwest-Fryslân,Friesland,VBO,5.427387,53.123173
De Blokken,1,,,8749TE,Pingjum,Súdwest-Fryslân,Friesland,VBO,5.425970,53.129045
De Blokken,2,,,8749TE,Pingjum,Súdwest-Fryslân,Friesland,VBO,5.427675,53.128174
De Blokken,6,,,8749TE,Pingjum,Súdwest-Fryslân,Friesland,VBO,5.426899,53.130258
Strandweg,2,A,,8749TG,Pingjum,Súdwest-Fryslân,Friesland,VBO,5.411966,53.114987
Strandweg,2,,,8749TG,Pingjum,Súdwest-Fryslân,Friesland,VBO,5.408329,53.119591
Strandweg,3,,,8749TG,Pingjum,Súdwest-Fryslân,Friesland,VBO,5.407131,53.119164
Strandweg,6,,,8749TG,Pingjum,Súdwest-Fryslân,Friesland,VBO,5.411615,53.121563
Strandweg,8,,,8749TG,Pingjum,Súdwest-Fryslân,Friesland,VBO,5.409307,53.122236
Molenlaan,52,,,8749TH,Pingjum,Súdwest-Fryslân,Friesland,VBO,5.432124,53.113381
Waltingaleane,1,A,,8749TH,Pingjum,Súdwest-Fryslân,Friesland,VBO,5.444425,53.113705
Waltingaleane,2,A,,8749TH,Pingjum,Súdwest-Fryslân,Friesland,VBO,5.434499,53.108818
Waltingaleane,2,,,8749TH,Pingjum,Súdwest-Fryslân,Friesland,VBO,5.425394,53.112025
Waltingaleane,3,,,8749TH,Pingjum,Súdwest-Fryslân,Friesland,VBO,5.441782,53.111669
Waltingaleane,5,,,8749TH,Pingjum,Súdwest-Fryslân,Friesland,VBO,5.433120,53.107396
Waltingaleane,7,,,8749TH,Pingjum,Súdwest-Fryslân,Friesland,VBO,5.424983,53.111008
Waltingaleane,11,,,8749TH,Pingjum,Súdwest-Fryslân,Friesland,VBO,5.416771,53.112286
Waltingaleane,13,,,8749TH,Pingjum,Súdwest-Fryslân,Friesland,VBO,5.413494,53.111790
Kleinehuisterweg,1,,,8749TJ,Pingjum,Súdwest-Fryslân,Friesland,VBO,5.420006,53.118523
Kleinehuisterweg,2,A,,8749TJ,Pingjum,Súdwest-Fryslân,Friesland,VBO,5.432606,53.119817
Kleinehuisterweg,2,,,8749TJ,Pingjum,Súdwest-Fryslân,Friesland,VBO,5.437556,53.117571
Kleinehuisterweg,3,,,8749TJ,Pingjum,Súdwest-Fryslân,Friesland,VBO,5.416380,53.116886
Kleinehuisterweg,4,,,8749TJ,Pingjum,Súdwest-Fryslân,Friesland,VBO,5.431226,53.119874
Kleinehuisterweg,6,,,8749TJ,Pingjum,Súdwest-Fryslân,Friesland,VBO,5.429259,53.119898
Kleinehuisterweg,8,,,8749TJ,Pingjum,Súdwest-Fryslân,Friesland,VBO,5.428873,53.119796
Kleinehuisterweg,14,,,8749TJ,Pingjum,Súdwest-Fryslân,Friesland,VBO,5.424899,53.120013
Kleinehuisterweg,18,,,8749TJ,Pingjum,Súdwest-Fryslân,Friesland,VBO,5.424974,53.120110
Kleinehuisterweg,20,,,8749TJ,Pingjum,Súdwest-Fryslân,Friesland,VBO,5.420665,53.119564
Kleinehuisterweg,22,,,8749TJ,Pingjum,Súdwest-Fryslân,Friesland,VBO,5.413103,53.115979
Bootland,3,A,,8749TK,Pingjum,Súdwest-Fryslân,Friesland,VBO,5.408361,53.112146
Bootland,3,,,8749TK,Pingjum,Súdwest-Fryslân,Friesland,VBO,5.408241,53.111167
Bootland,7,,,8749TK,Pingjum,Súdwest-Fryslân,Friesland,VBO,5.406120,53.112854
Buitendijk,1,,,8749TL,Pingjum,Súdwest-Fryslân,Friesland,VBO,5.432260,53.104903
Buitendijk,2,,,8749TL,Pingjum,Súdwest-Fryslân,Friesland,VBO,5.429805,53.102923
Buitendijk,4,,,8749TL,Pingjum,Súdwest-Fryslân,Friesland,VBO,5.422702,53.100665
Buitendijk,5,,,8749TL,Pingjum,Súdwest-Fryslân,Friesland,VBO,5.428302,53.098758
Buitendijk,6,,,8749TL,Pingjum,Súdwest-Fryslân,Friesland,VBO,5.420672,53.099913
Buitendijk,7,,,8749TL,Pingjum,Súdwest-Fryslân,Friesland,VBO,5.422310,53.098497
Buitendijk,8,,,8749TL,Pingjum,Súdwest-Fryslân,Friesland,VBO,5.420739,53.097982
Burenlaan,1,A,,8749TM,Pingjum,Súdwest-Fryslân,Friesland,VBO,5.442094,53.113493
Burenlaan,1,,,8749TM,Pingjum,Súdwest-Fryslân,Friesland,VBO,5.441160,53.113411
Burenlaan,54,,,8749TM,Pingjum,Súdwest-Fryslân,Friesland,VBO,5.439791,53.113043
Rijksweg N31,1,A,,8749TT,Pingjum,Súdwest-Fryslân,Friesland,VBO,5.407593,53.126465
Kleinehuisterweg,5,,,8749TV,Pingjum,Súdwest-Fryslân,Friesland,VBO,5.416305,53.116836
Nijenhuisweg,1,,,8749TX,Pingjum,Súdwest-Fryslân,Friesland,VBO,5.429556,53.120046
