openbareruimtenaam,huisnummer,huisletter,huisnummertoevoeging,postcode,woonplaatsnaam,gemeentenaam,provincienaam,typeadresseerbaarobject,longitude,latitude
Dongjumerweg,2,,,8811HA,Ried,Franekeradeel,Friesland,VBO,5.575562,53.217091
Dongjumerweg,5,,,8811HA,Ried,Franekeradeel,Friesland,VBO,5.581703,53.217756
Dongjumerweg,6,,,8811HA,Ried,Franekeradeel,Friesland,VBO,5.583240,53.220116
Dongjumerweg,7,,,8811HA,Ried,Franekeradeel,Friesland,VBO,5.583285,53.220062
Dongjumerweg,8,,,8811HA,Ried,Franekeradeel,Friesland,VBO,5.583966,53.218309
Dongjumerweg,9,,,8811HA,Ried,Franekeradeel,Friesland,VBO,5.585846,53.217896
Dongjumerweg,10,,,8811HA,Ried,Franekeradeel,Friesland,VBO,5.584307,53.221040
Dongjumerweg,11,,,8811HA,Ried,Franekeradeel,Friesland,VBO,5.582463,53.223721
Dongjumerweg,12,,,8811HA,Ried,Franekeradeel,Friesland,VBO,5.583153,53.223890
Dongjumerweg,13,,,8811HA,Ried,Franekeradeel,Friesland,VBO,5.586557,53.221935
Dongjumerweg,14,A,,8811HA,Ried,Franekeradeel,Friesland,VBO,5.587172,53.222158
Dongjumerweg,14,,,8811HA,Ried,Franekeradeel,Friesland,VBO,5.586887,53.222033
Dongjumerweg,16,,,8811HA,Ried,Franekeradeel,Friesland,VBO,5.587711,53.222238
Dongjumerweg,17,,,8811HA,Ried,Franekeradeel,Friesland,VBO,5.587981,53.222328
Dongjumerweg,18,,,8811HA,Ried,Franekeradeel,Friesland,VBO,5.588176,53.222354
Dongjumerweg,19,,,8811HA,Ried,Franekeradeel,Friesland,VBO,5.588341,53.222444
Dongjumerweg,20,,,8811HA,Ried,Franekeradeel,Friesland,VBO,5.588550,53.222165
Dongjumerweg,21,,,8811HA,Ried,Franekeradeel,Friesland,VBO,5.588791,53.222551
Achterweg,1,,,8811HB,Ried,Franekeradeel,Friesland,VBO,5.588732,53.222830
Achterweg,2,,,8811HB,Ried,Franekeradeel,Friesland,VBO,5.588463,53.222767
Achterweg,3,,,8811HB,Ried,Franekeradeel,Friesland,VBO,5.588417,53.222678
Anemareed,1,,,8811HC,Ried,Franekeradeel,Friesland,VBO,5.588344,53.223082
Anemareed,2,,,8811HC,Ried,Franekeradeel,Friesland,VBO,5.588255,53.223163
Hoofdstraat,1,,,8811HD,Ried,Franekeradeel,Friesland,VBO,5.589583,53.222343
Hoofdstraat,2,,,8811HD,Ried,Franekeradeel,Friesland,VBO,5.589391,53.222748
Hoofdstraat,4,A,,8811HD,Ried,Franekeradeel,Friesland,VBO,5.590228,53.222432
Hoofdstraat,4,,,8811HD,Ried,Franekeradeel,Friesland,VBO,5.589928,53.222486
Hoofdstraat,5,,,8811HD,Ried,Franekeradeel,Friesland,VBO,5.590543,53.222701
Hoofdstraat,6,,,8811HD,Ried,Franekeradeel,Friesland,VBO,5.590500,53.223123
Hoofdstraat,7,A,,8811HD,Ried,Franekeradeel,Friesland,VBO,5.591355,53.223338
Hoofdstraat,7,,,8811HD,Ried,Franekeradeel,Friesland,VBO,5.590726,53.223285
Hoofdstraat,8,,,8811HD,Ried,Franekeradeel,Friesland,VBO,5.591083,53.222925
Hoofdstraat,10,A,,8811HD,Ried,Franekeradeel,Friesland,VBO,5.591278,53.222987
Hoofdstraat,10,,,8811HD,Ried,Franekeradeel,Friesland,VBO,5.591173,53.222960
Hoofdstraat,12,,,8811HD,Ried,Franekeradeel,Friesland,VBO,5.591383,53.223050
Hoofdstraat,13,,,8811HD,Ried,Franekeradeel,Friesland,VBO,5.591578,53.223059
Hoofdstraat,14,,,8811HD,Ried,Franekeradeel,Friesland,VBO,5.591550,53.223364
Hoofdstraat,15,,,8811HD,Ried,Franekeradeel,Friesland,VBO,5.591728,53.223094
Hoofdstraat,17,A,,8811HD,Ried,Franekeradeel,Friesland,VBO,5.592038,53.223118
Hoofdstraat,17,,,8811HD,Ried,Franekeradeel,Friesland,VBO,5.591866,53.223081
Hoofdstraat,20,,,8811HD,Ried,Franekeradeel,Friesland,VBO,5.592297,53.223111
Hoofdstraat,22,,,8811HD,Ried,Franekeradeel,Friesland,VBO,5.592402,53.223138
Hoofdstraat,23,,,8811HD,Ried,Franekeradeel,Friesland,VBO,5.592434,53.223551
Hoofdstraat,24,,,8811HD,Ried,Franekeradeel,Friesland,VBO,5.592031,53.224928
Kerkpad,1,,,8811HE,Ried,Franekeradeel,Friesland,VBO,5.590007,53.223205
Kerkpad,2,,,8811HE,Ried,Franekeradeel,Friesland,VBO,5.589558,53.223197
Kerkpad,3,,,8811HE,Ried,Franekeradeel,Friesland,VBO,5.589723,53.223304
Kerkpad,4,,,8811HE,Ried,Franekeradeel,Friesland,VBO,5.590218,53.223465
Kerkpad,5,,,8811HE,Ried,Franekeradeel,Friesland,VBO,5.590411,53.223267
Havenstraat,1,,,8811HG,Ried,Franekeradeel,Friesland,VBO,5.590637,53.223527
Havenstraat,7,,,8811HG,Ried,Franekeradeel,Friesland,VBO,5.590219,53.223681
Havenstraat,8,,,8811HG,Ried,Franekeradeel,Friesland,VBO,5.590144,53.223744
Havenstraat,10,,,8811HG,Ried,Franekeradeel,Friesland,VBO,5.589892,53.224212
Havenstraat,11,,,8811HG,Ried,Franekeradeel,Friesland,VBO,5.589758,53.224383
Nieuweweg,1,,,8811HH,Ried,Franekeradeel,Friesland,VBO,5.591625,53.223418
Nieuweweg,3,,,8811HH,Ried,Franekeradeel,Friesland,VBO,5.591536,53.223562
Nieuweweg,5,,,8811HH,Ried,Franekeradeel,Friesland,VBO,5.591506,53.223607
Nieuweweg,9,,,8811HH,Ried,Franekeradeel,Friesland,VBO,5.591431,53.223706
Nieuweweg,11,,,8811HH,Ried,Franekeradeel,Friesland,VBO,5.591312,53.223832
Nieuweweg,13,,,8811HH,Ried,Franekeradeel,Friesland,VBO,5.591268,53.223904
Nieuweweg,15,,,8811HH,Ried,Franekeradeel,Friesland,VBO,5.591178,53.224012
Nieuweweg,17,,,8811HH,Ried,Franekeradeel,Friesland,VBO,5.591134,53.224084
Nieuweweg,19,,,8811HH,Ried,Franekeradeel,Friesland,VBO,5.591000,53.224228
Nieuweweg,21,,,8811HH,Ried,Franekeradeel,Friesland,VBO,5.590955,53.224291
Nieuweweg,23,,,8811HH,Ried,Franekeradeel,Friesland,VBO,5.590881,53.224381
Nieuweweg,25,,,8811HH,Ried,Franekeradeel,Friesland,VBO,5.590851,53.224426
Nieuweweg,29,,,8811HH,Ried,Franekeradeel,Friesland,VBO,5.590582,53.224543
Nieuweweg,2,,,8811HJ,Ried,Franekeradeel,Friesland,VBO,5.591999,53.223435
Nieuweweg,4,,,8811HJ,Ried,Franekeradeel,Friesland,VBO,5.591985,53.223570
Nieuweweg,6,,,8811HJ,Ried,Franekeradeel,Friesland,VBO,5.591925,53.223633
Nieuweweg,8,,,8811HJ,Ried,Franekeradeel,Friesland,VBO,5.591851,53.223741
Nieuweweg,10,,,8811HJ,Ried,Franekeradeel,Friesland,VBO,5.591791,53.223822
Nieuweweg,12,,,8811HJ,Ried,Franekeradeel,Friesland,VBO,5.591657,53.223921
Nieuweweg,14,,,8811HJ,Ried,Franekeradeel,Friesland,VBO,5.591612,53.223993
Nieuweweg,16,,,8811HJ,Ried,Franekeradeel,Friesland,VBO,5.591568,53.224047
Nieuweweg,18,,,8811HJ,Ried,Franekeradeel,Friesland,VBO,5.591523,53.224110
Nieuweweg,20,,,8811HJ,Ried,Franekeradeel,Friesland,VBO,5.591479,53.224164
Nieuweweg,22,,,8811HJ,Ried,Franekeradeel,Friesland,VBO,5.591419,53.224236
Nieuweweg,24,,,8811HJ,Ried,Franekeradeel,Friesland,VBO,5.591360,53.224326
Nieuweweg,26,,,8811HJ,Ried,Franekeradeel,Friesland,VBO,5.591330,53.224371
Nieuweweg,28,,,8811HJ,Ried,Franekeradeel,Friesland,VBO,5.591270,53.224470
Nieuweweg,30,,,8811HJ,Ried,Franekeradeel,Friesland,VBO,5.591241,53.224515
Nieuweweg,32,,,8811HJ,Ried,Franekeradeel,Friesland,VBO,5.591241,53.224695
Nieuweweg,34,,,8811HJ,Ried,Franekeradeel,Friesland,VBO,5.591122,53.224758
Nieuweweg,36,,,8811HJ,Ried,Franekeradeel,Friesland,VBO,5.591183,53.224892
Nieuweweg,38,A,,8811HJ,Ried,Franekeradeel,Friesland,VBO,5.588041,53.225509
Nieuweweg,38,,,8811HJ,Ried,Franekeradeel,Friesland,VBO,5.587337,53.225492
Peinserweg,1,A,,8811HK,Ried,Franekeradeel,Friesland,VBO,5.589687,53.222118
Peinserweg,1,B,,8811HK,Ried,Franekeradeel,Friesland,VBO,5.589881,53.221911
Peinserweg,1,,,8811HK,Ried,Franekeradeel,Friesland,VBO,5.588849,53.222237
Peinserweg,2,A,,8811HK,Ried,Franekeradeel,Friesland,VBO,5.589103,53.221985
Peinserweg,2,,,8811HK,Ried,Franekeradeel,Friesland,VBO,5.589058,53.222092
Peinserweg,3,A,,8811HK,Ried,Franekeradeel,Friesland,VBO,5.589266,53.221715
Peinserweg,3,,,8811HK,Ried,Franekeradeel,Friesland,VBO,5.589177,53.221850
Peinserweg,4,A,,8811HK,Ried,Franekeradeel,Friesland,VBO,5.589414,53.221292
Peinserweg,4,,,8811HK,Ried,Franekeradeel,Friesland,VBO,5.589325,53.221445
Peinserweg,5,,,8811HK,Ried,Franekeradeel,Friesland,VBO,5.589982,53.221031
Peinserweg,6,,,8811HK,Ried,Franekeradeel,Friesland,VBO,5.590621,53.216995
Pastorielaan,1,,,8811HL,Ried,Franekeradeel,Friesland,VBO,5.591188,53.222781
Pastorielaan,2,,,8811HL,Ried,Franekeradeel,Friesland,VBO,5.590751,53.222359
Pastorielaan,3,,,8811HL,Ried,Franekeradeel,Friesland,VBO,5.591262,53.222709
Pastorielaan,4,,,8811HL,Ried,Franekeradeel,Friesland,VBO,5.590781,53.222314
Pastorielaan,5,,,8811HL,Ried,Franekeradeel,Friesland,VBO,5.591292,53.222619
Pastorielaan,6,,,8811HL,Ried,Franekeradeel,Friesland,VBO,5.590826,53.222278
Pastorielaan,7,,,8811HL,Ried,Franekeradeel,Friesland,VBO,5.591321,53.222574
Pastorielaan,9,,,8811HL,Ried,Franekeradeel,Friesland,VBO,5.591366,53.222520
Pastorielaan,11,,,8811HL,Ried,Franekeradeel,Friesland,VBO,5.591396,53.222484
Pastorielaan,13,,,8811HL,Ried,Franekeradeel,Friesland,VBO,5.591455,53.222412
Pastorielaan,15,,,8811HL,Ried,Franekeradeel,Friesland,VBO,5.591500,53.222349
Pastorielaan,17,,,8811HL,Ried,Franekeradeel,Friesland,VBO,5.591574,53.222250
Dr Vitus Ringersstraat,7,,,8811HM,Ried,Franekeradeel,Friesland,VBO,5.591829,53.222357
Dr Vitus Ringersstraat,9,A,,8811HM,Ried,Franekeradeel,Friesland,VBO,5.592069,53.222420
Dr Vitus Ringersstraat,9,,,8811HM,Ried,Franekeradeel,Friesland,VBO,5.591964,53.222393
Dr Vitus Ringersstraat,11,,,8811HM,Ried,Franekeradeel,Friesland,VBO,5.592234,53.222482
Dr Vitus Ringersstraat,13,,,8811HM,Ried,Franekeradeel,Friesland,VBO,5.592339,53.222509
Dr Vitus Ringersstraat,15,,,8811HM,Ried,Franekeradeel,Friesland,VBO,5.592519,53.222545
Dr Vitus Ringersstraat,17,,,8811HM,Ried,Franekeradeel,Friesland,VBO,5.592654,53.222572
Dr Vitus Ringersstraat,2,,,8811HN,Ried,Franekeradeel,Friesland,VBO,5.590327,53.221228
Dr Vitus Ringersstraat,4,,,8811HN,Ried,Franekeradeel,Friesland,VBO,5.591181,53.221406
Dr Vitus Ringersstraat,6,,,8811HN,Ried,Franekeradeel,Friesland,VBO,5.591272,53.221747
Dr Vitus Ringersstraat,8,,,8811HN,Ried,Franekeradeel,Friesland,VBO,5.591648,53.221989
Dr Vitus Ringersstraat,10,,,8811HN,Ried,Franekeradeel,Friesland,VBO,5.591813,53.222025
Dr Vitus Ringersstraat,12,,,8811HN,Ried,Franekeradeel,Friesland,VBO,5.592008,53.222105
Dr Vitus Ringersstraat,14,,,8811HN,Ried,Franekeradeel,Friesland,VBO,5.592128,53.222123
Dr Vitus Ringersstraat,16,,,8811HN,Ried,Franekeradeel,Friesland,VBO,5.592263,53.222159
Dr Vitus Ringersstraat,18,,,8811HN,Ried,Franekeradeel,Friesland,VBO,5.592352,53.222177
Dr Vitus Ringersstraat,20,,,8811HN,Ried,Franekeradeel,Friesland,VBO,5.592442,53.222194
Dr Vitus Ringersstraat,22,,,8811HN,Ried,Franekeradeel,Friesland,VBO,5.592532,53.222212
Dr Vitus Ringersstraat,24,,,8811HN,Ried,Franekeradeel,Friesland,VBO,5.592682,53.222239
Dr Vitus Ringersstraat,26,,,8811HN,Ried,Franekeradeel,Friesland,VBO,5.592787,53.222257
Dr Vitus Ringersstraat,28,,,8811HN,Ried,Franekeradeel,Friesland,VBO,5.592877,53.222275
Dr Vitus Ringersstraat,30,,,8811HN,Ried,Franekeradeel,Friesland,VBO,5.592967,53.222301
Dr Vitus Ringersstraat,32,,,8811HN,Ried,Franekeradeel,Friesland,VBO,5.593132,53.222328
Dr Vitus Ringersstraat,34,,,8811HN,Ried,Franekeradeel,Friesland,VBO,5.593222,53.222355
Zevenhuisterweg,1,A,,8811HP,Ried,Franekeradeel,Friesland,VBO,5.592551,53.223057
Zevenhuisterweg,1,B,,8811HP,Ried,Franekeradeel,Friesland,VBO,5.592581,53.223003
Zevenhuisterweg,1,C,,8811HP,Ried,Franekeradeel,Friesland,VBO,5.592401,53.222913
Zevenhuisterweg,1,D,,8811HP,Ried,Franekeradeel,Friesland,VBO,5.592416,53.222895
Zevenhuisterweg,1,E,,8811HP,Ried,Franekeradeel,Friesland,VBO,5.592431,53.222868
Zevenhuisterweg,1,F,,8811HP,Ried,Franekeradeel,Friesland,VBO,5.592460,53.222841
Zevenhuisterweg,1,,,8811HP,Ried,Franekeradeel,Friesland,VBO,5.592941,53.223101
Zevenhuisterweg,2,A,,8811HP,Ried,Franekeradeel,Friesland,VBO,5.592745,53.222877
Zevenhuisterweg,2,,,8811HP,Ried,Franekeradeel,Friesland,VBO,5.593060,53.223038
Zevenhuisterweg,3,,,8811HP,Ried,Franekeradeel,Friesland,VBO,5.593120,53.222966
Zevenhuisterweg,4,A,,8811HP,Ried,Franekeradeel,Friesland,VBO,5.592760,53.222787
Zevenhuisterweg,4,,,8811HP,Ried,Franekeradeel,Friesland,VBO,5.593209,53.222894
Zevenhuisterweg,5,,,8811HP,Ried,Franekeradeel,Friesland,VBO,5.593269,53.222804
Zevenhuisterweg,6,A,,8811HP,Ried,Franekeradeel,Friesland,VBO,5.592924,53.222661
Zevenhuisterweg,6,,,8811HP,Ried,Franekeradeel,Friesland,VBO,5.593343,53.222732
Zevenhuisterweg,7,,,8811HP,Ried,Franekeradeel,Friesland,VBO,5.593433,53.222615
Zevenhuisterweg,8,A,,8811HP,Ried,Franekeradeel,Friesland,VBO,5.592923,53.222571
Zevenhuisterweg,8,,,8811HP,Ried,Franekeradeel,Friesland,VBO,5.593582,53.222453
Zevenhuisterweg,9,,,8811HP,Ried,Franekeradeel,Friesland,VBO,5.593746,53.222345
Zevenhuisterweg,10,A,,8811HP,Ried,Franekeradeel,Friesland,VBO,5.593174,53.221870
Zevenhuisterweg,10,,,8811HP,Ried,Franekeradeel,Friesland,VBO,5.593880,53.222174
Zevenhuisterweg,11,,,8811HP,Ried,Franekeradeel,Friesland,VBO,5.594043,53.221994
Zevenhuisterweg,12,,,8811HP,Ried,Franekeradeel,Friesland,VBO,5.594102,53.221805
Zevenhuisterweg,13,,,8811HP,Ried,Franekeradeel,Friesland,VBO,5.595114,53.220402
Zevenhuisterweg,14,,,8811HP,Ried,Franekeradeel,Friesland,VBO,5.595158,53.220339
Zevenhuisterweg,15,,,8811HP,Ried,Franekeradeel,Friesland,VBO,5.595307,53.220177
Zevenhuisterweg,16,,,8811HP,Ried,Franekeradeel,Friesland,VBO,5.594931,53.219782
Berlikumerweg,1,,,8811HR,Ried,Franekeradeel,Friesland,VBO,5.592927,53.223254
Berlikumerweg,2,A,,8811HR,Ried,Franekeradeel,Friesland,VBO,5.593196,53.223236
Berlikumerweg,2,,,8811HR,Ried,Franekeradeel,Friesland,VBO,5.593122,53.223334
Berlikumerweg,3,,,8811HR,Ried,Franekeradeel,Friesland,VBO,5.593317,53.223415
Berlikumerweg,4,,,8811HR,Ried,Franekeradeel,Friesland,VBO,5.593496,53.223451
Berlikumerweg,5,,,8811HR,Ried,Franekeradeel,Friesland,VBO,5.593696,53.223510
Berlikumerweg,7,,,8811HR,Ried,Franekeradeel,Friesland,VBO,5.593946,53.223621
Berlikumerweg,8,,,8811HR,Ried,Franekeradeel,Friesland,VBO,5.594082,53.223692
Berlikumerweg,9,,,8811HR,Ried,Franekeradeel,Friesland,VBO,5.594351,53.223710
Berlikumerweg,10,A,,8811HR,Ried,Franekeradeel,Friesland,VBO,5.593993,53.224016
Berlikumerweg,10,B,,8811HR,Ried,Franekeradeel,Friesland,VBO,5.593918,53.223989
Berlikumerweg,10,C,,8811HR,Ried,Franekeradeel,Friesland,VBO,5.593708,53.223909
Berlikumerweg,10,D,,8811HR,Ried,Franekeradeel,Friesland,VBO,5.593618,53.223882
Berlikumerweg,10,E,,8811HR,Ried,Franekeradeel,Friesland,VBO,5.593258,53.223766
Berlikumerweg,10,,,8811HR,Ried,Franekeradeel,Friesland,VBO,5.594158,53.224132
Berlikumerweg,11,,,8811HR,Ried,Franekeradeel,Friesland,VBO,5.594786,53.223844
Berlikumerweg,12,A,,8811HR,Ried,Franekeradeel,Friesland,VBO,5.594848,53.224266
Berlikumerweg,12,,,8811HR,Ried,Franekeradeel,Friesland,VBO,5.595116,53.223915
Berlikumerweg,13,,,8811HR,Ried,Franekeradeel,Friesland,VBO,5.595565,53.224040
Berlikumerweg,14,A,,8811HR,Ried,Franekeradeel,Friesland,VBO,5.596754,53.225143
Berlikumerweg,14,,,8811HR,Ried,Franekeradeel,Friesland,VBO,5.595898,53.224669
Berlikumerweg,15,,,8811HR,Ried,Franekeradeel,Friesland,VBO,5.597214,53.224451
Berlikumerweg,16,,,8811HR,Ried,Franekeradeel,Friesland,VBO,5.599945,53.225497
Berlikumerweg,17,,,8811HR,Ried,Franekeradeel,Friesland,VBO,5.600833,53.226556
Berlikumerweg,19,,,8811HR,Ried,Franekeradeel,Friesland,VBO,5.602241,53.226688
Berlikumerweg,20,,,8811HR,Ried,Franekeradeel,Friesland,VBO,5.600909,53.227779
Berlikumerweg,21,,,8811HR,Ried,Franekeradeel,Friesland,VBO,5.602771,53.227729
Lageweg,1,,,8811HS,Ried,Franekeradeel,Friesland,VBO,5.590132,53.224445
Lageweg,2,,,8811HS,Ried,Franekeradeel,Friesland,VBO,5.590579,53.223905
Lageweg,3,,,8811HS,Ried,Franekeradeel,Friesland,VBO,5.590115,53.223969
Lageweg,4,,,8811HS,Ried,Franekeradeel,Friesland,VBO,5.590624,53.223842
Lageweg,6,,,8811HS,Ried,Franekeradeel,Friesland,VBO,5.590728,53.223734
Lageweg,7,,,8811HS,Ried,Franekeradeel,Friesland,VBO,5.590610,53.224147
Lageweg,8,,,8811HS,Ried,Franekeradeel,Friesland,VBO,5.590773,53.223671
De Rombade,1,,,8811HT,Ried,Franekeradeel,Friesland,VBO,5.593333,53.223810
De Rombade,2,,,8811HT,Ried,Franekeradeel,Friesland,VBO,5.594458,53.224159
De Rombade,3,,,8811HT,Ried,Franekeradeel,Friesland,VBO,5.593230,53.224008
De Rombade,5,,,8811HT,Ried,Franekeradeel,Friesland,VBO,5.592961,53.224170
De Rombade,7,,,8811HT,Ried,Franekeradeel,Friesland,VBO,5.593231,53.224269
De Rombade,9,,,8811HT,Ried,Franekeradeel,Friesland,VBO,5.593561,53.224358
De Rombade,11,,,8811HT,Ried,Franekeradeel,Friesland,VBO,5.594085,53.224474
De Rombade,13,,,8811HT,Ried,Franekeradeel,Friesland,VBO,5.594175,53.224492
De Rombade,15,,,8811HT,Ried,Franekeradeel,Friesland,VBO,5.594400,53.224545
De Rombade,17,,,8811HT,Ried,Franekeradeel,Friesland,VBO,5.594655,53.224626
Suderom,1,,,8811HV,Ried,Franekeradeel,Friesland,VBO,5.593591,53.221402
Suderom,2,,,8811HV,Ried,Franekeradeel,Friesland,VBO,5.593398,53.221663
Suderom,3,,,8811HV,Ried,Franekeradeel,Friesland,VBO,5.593307,53.221357
Suderom,4,,,8811HV,Ried,Franekeradeel,Friesland,VBO,5.593143,53.221609
Suderom,5,,,8811HV,Ried,Franekeradeel,Friesland,VBO,5.593067,53.221259
Suderom,6,,,8811HV,Ried,Franekeradeel,Friesland,VBO,5.593068,53.221591
Suderom,7,,,8811HV,Ried,Franekeradeel,Friesland,VBO,5.592797,53.221179
Suderom,8,,,8811HV,Ried,Franekeradeel,Friesland,VBO,5.592874,53.221565
Suderom,9,,,8811HV,Ried,Franekeradeel,Friesland,VBO,5.592542,53.221107
Suderom,10,,,8811HV,Ried,Franekeradeel,Friesland,VBO,5.592754,53.221529
Suderom,12,,,8811HV,Ried,Franekeradeel,Friesland,VBO,5.592484,53.221413
Suderom,14,,,8811HV,Ried,Franekeradeel,Friesland,VBO,5.592305,53.221539
