openbareruimtenaam,huisnummer,huisletter,huisnummertoevoeging,postcode,woonplaatsnaam,gemeentenaam,provincienaam,typeadresseerbaarobject,longitude,latitude
Aldlânsdyk,5,k,,8934AA,Leeuwarden,Leeuwarden,Friesland,VBO,5.804675,53.187449
Aldlânsdyk,5,,,8934AA,Leeuwarden,Leeuwarden,Friesland,VBO,5.803445,53.187244
Aldlânsdyk,11,,,8934AA,Leeuwarden,Leeuwarden,Friesland,VBO,5.819367,53.190796
Badweg,2,k,,8934AA,Leeuwarden,Leeuwarden,Friesland,VBO,5.797610,53.187219
Badweg,2,,,8934AA,Leeuwarden,Leeuwarden,Friesland,VBO,5.797545,53.187068
Badweg,4,,,8934AA,Leeuwarden,Leeuwarden,Friesland,VBO,5.798077,53.187050
Borniastraat,53,,,8934AB,Leeuwarden,Leeuwarden,Friesland,VBO,5.801543,53.191121
Borniastraat,55,,,8934AB,Leeuwarden,Leeuwarden,Friesland,VBO,5.801662,53.191076
Borniastraat,57,,,8934AB,Leeuwarden,Leeuwarden,Friesland,VBO,5.801737,53.191085
Borniastraat,59,,,8934AB,Leeuwarden,Leeuwarden,Friesland,VBO,5.801797,53.191129
Borniastraat,61,,,8934AB,Leeuwarden,Leeuwarden,Friesland,VBO,5.801887,53.191129
Borniastraat,63,,,8934AB,Leeuwarden,Leeuwarden,Friesland,VBO,5.801992,53.191129
Borniastraat,65,,,8934AB,Leeuwarden,Leeuwarden,Friesland,VBO,5.802081,53.191128
Borniastraat,67,,,8934AB,Leeuwarden,Leeuwarden,Friesland,VBO,5.802201,53.191137
Borniastraat,69,,,8934AB,Leeuwarden,Leeuwarden,Friesland,VBO,5.802456,53.191145
Borniastraat,71,,,8934AB,Leeuwarden,Leeuwarden,Friesland,VBO,5.802545,53.191091
Borniastraat,73,,,8934AB,Leeuwarden,Leeuwarden,Friesland,VBO,5.802635,53.191099
Borniastraat,75,,,8934AB,Leeuwarden,Leeuwarden,Friesland,VBO,5.802710,53.191153
Borniastraat,77,,,8934AB,Leeuwarden,Leeuwarden,Friesland,VBO,5.802785,53.191153
Borniastraat,79,,,8934AB,Leeuwarden,Leeuwarden,Friesland,VBO,5.802890,53.191152
Borniastraat,81,,,8934AC,Leeuwarden,Leeuwarden,Friesland,VBO,5.803249,53.191160
Borniastraat,83,,,8934AC,Leeuwarden,Leeuwarden,Friesland,VBO,5.803338,53.191115
Borniastraat,85,,,8934AC,Leeuwarden,Leeuwarden,Friesland,VBO,5.803428,53.191115
Borniastraat,87,,,8934AC,Leeuwarden,Leeuwarden,Friesland,VBO,5.803518,53.191114
Borniastraat,89,,,8934AC,Leeuwarden,Leeuwarden,Friesland,VBO,5.803592,53.191114
Borniastraat,91,,,8934AC,Leeuwarden,Leeuwarden,Friesland,VBO,5.803667,53.191114
Borniastraat,93,,,8934AC,Leeuwarden,Leeuwarden,Friesland,VBO,5.803727,53.191114
Borniastraat,95,,,8934AC,Leeuwarden,Leeuwarden,Friesland,VBO,5.803817,53.191113
Borniastraat,97,,,8934AC,Leeuwarden,Leeuwarden,Friesland,VBO,5.803892,53.191122
Borniastraat,99,,,8934AC,Leeuwarden,Leeuwarden,Friesland,VBO,5.803981,53.191122
Borniastraat,101,,,8934AC,Leeuwarden,Leeuwarden,Friesland,VBO,5.804056,53.191121
Borniastraat,103,,,8934AC,Leeuwarden,Leeuwarden,Friesland,VBO,5.804117,53.191166
Borniastraat,105,,,8934AC,Leeuwarden,Leeuwarden,Friesland,VBO,5.804401,53.191174
Borniastraat,107,,,8934AC,Leeuwarden,Leeuwarden,Friesland,VBO,5.804490,53.191129
Borniastraat,109,,,8934AC,Leeuwarden,Leeuwarden,Friesland,VBO,5.804565,53.191129
Borniastraat,111,,,8934AC,Leeuwarden,Leeuwarden,Friesland,VBO,5.804640,53.191128
Borniastraat,113,,,8934AC,Leeuwarden,Leeuwarden,Friesland,VBO,5.804730,53.191128
Borniastraat,115,,,8934AC,Leeuwarden,Leeuwarden,Friesland,VBO,5.804790,53.191146
Borniastraat,117,,,8934AC,Leeuwarden,Leeuwarden,Friesland,VBO,5.804865,53.191182
Borniastraat,119,,,8934AC,Leeuwarden,Leeuwarden,Friesland,VBO,5.805119,53.191181
Borniastraat,121,,,8934AC,Leeuwarden,Leeuwarden,Friesland,VBO,5.805223,53.191144
Borniastraat,123,,,8934AC,Leeuwarden,Leeuwarden,Friesland,VBO,5.805269,53.191189
Borniastraat,125,,,8934AC,Leeuwarden,Leeuwarden,Friesland,VBO,5.805884,53.191322
Borniastraat,32,,,8934AD,Leeuwarden,Leeuwarden,Friesland,VBO,5.801271,53.187770
Borniastraat,34,a,,8934AD,Leeuwarden,Leeuwarden,Friesland,VBO,5.803210,53.189153
Borniastraat,34,b,,8934AD,Leeuwarden,Leeuwarden,Friesland,VBO,5.800854,53.189656
Borniastraat,34,,,8934AD,Leeuwarden,Leeuwarden,Friesland,VBO,5.803703,53.189159
Borniastraat,36,,,8934AD,Leeuwarden,Leeuwarden,Friesland,VBO,5.802234,53.190572
Borniastraat,40,g,,8934AD,Leeuwarden,Leeuwarden,Friesland,VBO,5.803565,53.190765
Borniastraat,40,,,8934AD,Leeuwarden,Leeuwarden,Friesland,VBO,5.805831,53.190762
Henri Dunantweg,2,,,8934AD,Leeuwarden,Leeuwarden,Friesland,VBO,5.806572,53.188920
Henri Dunantweg,3,,,8934AD,Leeuwarden,Leeuwarden,Friesland,VBO,5.808790,53.189466
Henri Dunantweg,6,,,8934AD,Leeuwarden,Leeuwarden,Friesland,VBO,5.806600,53.189763
Doniastraat,1,,,8934AE,Leeuwarden,Leeuwarden,Friesland,VBO,5.801756,53.191534
Doniastraat,3,,,8934AE,Leeuwarden,Leeuwarden,Friesland,VBO,5.801741,53.191471
Doniastraat,5,,,8934AE,Leeuwarden,Leeuwarden,Friesland,VBO,5.801725,53.191417
Doniastraat,7,,,8934AE,Leeuwarden,Leeuwarden,Friesland,VBO,5.801695,53.191363
Doniastraat,9,,,8934AE,Leeuwarden,Leeuwarden,Friesland,VBO,5.801679,53.191318
Doniastraat,11,,,8934AE,Leeuwarden,Leeuwarden,Friesland,VBO,5.801585,53.191284
Doniastraat,2,,,8934AH,Leeuwarden,Leeuwarden,Friesland,VBO,5.800796,53.191232
Doniastraat,4,,,8934AH,Leeuwarden,Leeuwarden,Friesland,VBO,5.800796,53.191232
Doniastraat,6,,,8934AH,Leeuwarden,Leeuwarden,Friesland,VBO,5.800796,53.191232
Doniastraat,8,,,8934AH,Leeuwarden,Leeuwarden,Friesland,VBO,5.800796,53.191232
Doniastraat,10,,,8934AH,Leeuwarden,Leeuwarden,Friesland,VBO,5.800796,53.191232
Doniastraat,12,,,8934AH,Leeuwarden,Leeuwarden,Friesland,VBO,5.800796,53.191232
Doniastraat,14,,,8934AH,Leeuwarden,Leeuwarden,Friesland,VBO,5.800796,53.191232
Doniastraat,16,,,8934AH,Leeuwarden,Leeuwarden,Friesland,VBO,5.800796,53.191232
Doniastraat,18,,,8934AH,Leeuwarden,Leeuwarden,Friesland,VBO,5.800796,53.191232
Doniastraat,20,,,8934AH,Leeuwarden,Leeuwarden,Friesland,VBO,5.800796,53.191232
Doniastraat,22,,,8934AH,Leeuwarden,Leeuwarden,Friesland,VBO,5.800796,53.191232
Doniastraat,24,,,8934AH,Leeuwarden,Leeuwarden,Friesland,VBO,5.800796,53.191232
Doniastraat,26,,,8934AH,Leeuwarden,Leeuwarden,Friesland,VBO,5.800796,53.191232
Doniastraat,28,,,8934AH,Leeuwarden,Leeuwarden,Friesland,VBO,5.800796,53.191232
Doniastraat,30,,,8934AH,Leeuwarden,Leeuwarden,Friesland,VBO,5.800796,53.191232
Doniastraat,32,,,8934AH,Leeuwarden,Leeuwarden,Friesland,VBO,5.800796,53.191232
Doniastraat,34,,,8934AH,Leeuwarden,Leeuwarden,Friesland,VBO,5.800796,53.191232
Doniastraat,36,,,8934AH,Leeuwarden,Leeuwarden,Friesland,VBO,5.800796,53.191232
Doniastraat,38,,,8934AH,Leeuwarden,Leeuwarden,Friesland,VBO,5.800796,53.191232
Doniastraat,40,,,8934AH,Leeuwarden,Leeuwarden,Friesland,VBO,5.800796,53.191232
Doniastraat,42,,,8934AH,Leeuwarden,Leeuwarden,Friesland,VBO,5.800796,53.191232
Doniastraat,44,,,8934AH,Leeuwarden,Leeuwarden,Friesland,VBO,5.800796,53.191232
Doniastraat,46,,,8934AH,Leeuwarden,Leeuwarden,Friesland,VBO,5.800796,53.191232
Doniastraat,48,,,8934AH,Leeuwarden,Leeuwarden,Friesland,VBO,5.800796,53.191232
Doniastraat,50,,,8934AH,Leeuwarden,Leeuwarden,Friesland,VBO,5.800796,53.191232
Doniastraat,52,,,8934AH,Leeuwarden,Leeuwarden,Friesland,VBO,5.800796,53.191232
Doniastraat,54,,,8934AH,Leeuwarden,Leeuwarden,Friesland,VBO,5.800796,53.191232
Doniastraat,56,,,8934AH,Leeuwarden,Leeuwarden,Friesland,VBO,5.800796,53.191232
Doniastraat,58,,,8934AH,Leeuwarden,Leeuwarden,Friesland,VBO,5.800796,53.191232
Doniastraat,60,,,8934AH,Leeuwarden,Leeuwarden,Friesland,VBO,5.800796,53.191232
Doniastraat,62,,,8934AH,Leeuwarden,Leeuwarden,Friesland,VBO,5.800796,53.191232
Doniastraat,64,,,8934AH,Leeuwarden,Leeuwarden,Friesland,VBO,5.800796,53.191232
Doniastraat,66,,,8934AH,Leeuwarden,Leeuwarden,Friesland,VBO,5.800796,53.191232
Doniastraat,68,,,8934AH,Leeuwarden,Leeuwarden,Friesland,VBO,5.800796,53.191232
Doniastraat,70,,,8934AH,Leeuwarden,Leeuwarden,Friesland,VBO,5.800796,53.191232
Doniastraat,72,,,8934AH,Leeuwarden,Leeuwarden,Friesland,VBO,5.800796,53.191232
Doniastraat,74,,,8934AH,Leeuwarden,Leeuwarden,Friesland,VBO,5.800796,53.191232
Doniastraat,76,,,8934AH,Leeuwarden,Leeuwarden,Friesland,VBO,5.800796,53.191232
Doniastraat,78,,,8934AH,Leeuwarden,Leeuwarden,Friesland,VBO,5.800796,53.191232
Doniastraat,80,,,8934AH,Leeuwarden,Leeuwarden,Friesland,VBO,5.800796,53.191232
Sierksmastraat,1,,,8934AL,Leeuwarden,Leeuwarden,Friesland,VBO,5.802862,53.192986
Sierksmastraat,3,,,8934AL,Leeuwarden,Leeuwarden,Friesland,VBO,5.802742,53.192932
Sierksmastraat,5,,,8934AL,Leeuwarden,Leeuwarden,Friesland,VBO,5.802727,53.192887
Sierksmastraat,7,,,8934AL,Leeuwarden,Leeuwarden,Friesland,VBO,5.802711,53.192842
Sierksmastraat,9,,,8934AL,Leeuwarden,Leeuwarden,Friesland,VBO,5.802696,53.192789
Sierksmastraat,11,,,8934AL,Leeuwarden,Leeuwarden,Friesland,VBO,5.802695,53.192744
Sierksmastraat,13,,,8934AL,Leeuwarden,Leeuwarden,Friesland,VBO,5.802740,53.192699
Sierksmastraat,15,,,8934AL,Leeuwarden,Leeuwarden,Friesland,VBO,5.802709,53.192645
Sierksmastraat,17,,,8934AL,Leeuwarden,Leeuwarden,Friesland,VBO,5.802694,53.192600
Sierksmastraat,19,,,8934AL,Leeuwarden,Leeuwarden,Friesland,VBO,5.802694,53.192546
Sierksmastraat,21,,,8934AL,Leeuwarden,Leeuwarden,Friesland,VBO,5.802768,53.192483
Sierksmastraat,23,,,8934AL,Leeuwarden,Leeuwarden,Friesland,VBO,5.802451,53.192223
Sierksmastraat,25,,,8934AL,Leeuwarden,Leeuwarden,Friesland,VBO,5.802377,53.192286
Sierksmastraat,27,,,8934AL,Leeuwarden,Leeuwarden,Friesland,VBO,5.802287,53.192296
Sierksmastraat,29,,,8934AL,Leeuwarden,Leeuwarden,Friesland,VBO,5.802182,53.192251
Sierksmastraat,31,,,8934AL,Leeuwarden,Leeuwarden,Friesland,VBO,5.802048,53.192270
Sierksmastraat,33,,,8934AL,Leeuwarden,Leeuwarden,Friesland,VBO,5.801958,53.192270
Sierksmastraat,35,,,8934AL,Leeuwarden,Leeuwarden,Friesland,VBO,5.801883,53.192279
Sierksmastraat,37,,,8934AL,Leeuwarden,Leeuwarden,Friesland,VBO,5.801793,53.192297
Sierksmastraat,39,,,8934AL,Leeuwarden,Leeuwarden,Friesland,VBO,5.801734,53.192307
Sierksmastraat,41,,,8934AL,Leeuwarden,Leeuwarden,Friesland,VBO,5.801644,53.192289
Sierksmastraat,43,,,8934AL,Leeuwarden,Leeuwarden,Friesland,VBO,5.801554,53.192307
Sierksmastraat,45,,,8934AL,Leeuwarden,Leeuwarden,Friesland,VBO,5.801538,53.192146
Sierksmastraat,47,,,8934AL,Leeuwarden,Leeuwarden,Friesland,VBO,5.801492,53.192074
Sierksmastraat,49,,,8934AL,Leeuwarden,Leeuwarden,Friesland,VBO,5.801477,53.192047
Sierksmastraat,51,,,8934AL,Leeuwarden,Leeuwarden,Friesland,VBO,5.801461,53.191993
Sierksmastraat,53,,,8934AL,Leeuwarden,Leeuwarden,Friesland,VBO,5.801461,53.191957
Sierksmastraat,55,,,8934AL,Leeuwarden,Leeuwarden,Friesland,VBO,5.802669,53.191540
Sierksmastraat,57,,,8934AL,Leeuwarden,Leeuwarden,Friesland,VBO,5.802653,53.191477
Sierksmastraat,59,,,8934AL,Leeuwarden,Leeuwarden,Friesland,VBO,5.802638,53.191432
Sierksmastraat,61,,,8934AL,Leeuwarden,Leeuwarden,Friesland,VBO,5.802622,53.191369
Sierksmastraat,63,,,8934AL,Leeuwarden,Leeuwarden,Friesland,VBO,5.802607,53.191324
Sierksmastraat,65,,,8934AL,Leeuwarden,Leeuwarden,Friesland,VBO,5.802592,53.191270
Sierksmastraat,2,,,8934AM,Leeuwarden,Leeuwarden,Friesland,VBO,5.801414,53.191733
Sierksmastraat,4,,,8934AM,Leeuwarden,Leeuwarden,Friesland,VBO,5.801489,53.191732
Sierksmastraat,6,,,8934AM,Leeuwarden,Leeuwarden,Friesland,VBO,5.801578,53.191723
Sierksmastraat,8,,,8934AM,Leeuwarden,Leeuwarden,Friesland,VBO,5.801638,53.191705
Sierksmastraat,10,,,8934AM,Leeuwarden,Leeuwarden,Friesland,VBO,5.801728,53.191714
Sierksmastraat,12,,,8934AM,Leeuwarden,Leeuwarden,Friesland,VBO,5.801818,53.191704
Sierksmastraat,14,,,8934AM,Leeuwarden,Leeuwarden,Friesland,VBO,5.801907,53.191704
Sierksmastraat,16,,,8934AM,Leeuwarden,Leeuwarden,Friesland,VBO,5.801997,53.191686
Sierksmastraat,18,,,8934AM,Leeuwarden,Leeuwarden,Friesland,VBO,5.802072,53.191685
Sierksmastraat,20,,,8934AM,Leeuwarden,Leeuwarden,Friesland,VBO,5.802132,53.191676
Sierksmastraat,22,,,8934AM,Leeuwarden,Leeuwarden,Friesland,VBO,5.802295,53.191541
Sierksmastraat,24,,,8934AM,Leeuwarden,Leeuwarden,Friesland,VBO,5.802279,53.191478
Sierksmastraat,26,,,8934AM,Leeuwarden,Leeuwarden,Friesland,VBO,5.802264,53.191433
Sierksmastraat,28,,,8934AM,Leeuwarden,Leeuwarden,Friesland,VBO,5.802248,53.191370
Sierksmastraat,30,,,8934AM,Leeuwarden,Leeuwarden,Friesland,VBO,5.802233,53.191325
Sierksmastraat,32,,,8934AM,Leeuwarden,Leeuwarden,Friesland,VBO,5.802217,53.191263
Aebingastraat,1,,,8934AN,Leeuwarden,Leeuwarden,Friesland,VBO,5.803439,53.192319
Aebingastraat,2,,,8934AN,Leeuwarden,Leeuwarden,Friesland,VBO,5.803246,53.192481
Aebingastraat,3,,,8934AN,Leeuwarden,Leeuwarden,Friesland,VBO,5.803219,53.192341
Aebingastraat,5,,,8934AN,Leeuwarden,Leeuwarden,Friesland,VBO,5.803113,53.192360
Wiardastraat,1,,,8934AP,Leeuwarden,Leeuwarden,Friesland,VBO,5.803785,53.192461
Wiardastraat,3,,,8934AP,Leeuwarden,Leeuwarden,Friesland,VBO,5.803754,53.192380
Wiardastraat,5,,,8934AP,Leeuwarden,Leeuwarden,Friesland,VBO,5.803738,53.192282
Wiardastraat,7,,,8934AP,Leeuwarden,Leeuwarden,Friesland,VBO,5.803645,53.192093
Wiardastraat,9,,,8934AP,Leeuwarden,Leeuwarden,Friesland,VBO,5.803620,53.192026
Wiardastraat,11,,,8934AP,Leeuwarden,Leeuwarden,Friesland,VBO,5.803646,53.191968
Wiardastraat,13,,,8934AP,Leeuwarden,Leeuwarden,Friesland,VBO,5.803555,53.191932
Wiardastraat,15,,,8934AP,Leeuwarden,Leeuwarden,Friesland,VBO,5.803525,53.191887
Wiardastraat,17,,,8934AP,Leeuwarden,Leeuwarden,Friesland,VBO,5.803599,53.191824
Wiardastraat,19,,,8934AP,Leeuwarden,Leeuwarden,Friesland,VBO,5.803538,53.191680
Wiardastraat,21,,,8934AP,Leeuwarden,Leeuwarden,Friesland,VBO,5.803433,53.191663
Wiardastraat,23,,,8934AP,Leeuwarden,Leeuwarden,Friesland,VBO,5.803433,53.191618
Wiardastraat,25,,,8934AP,Leeuwarden,Leeuwarden,Friesland,VBO,5.803432,53.191573
Wiardastraat,27,,,8934AP,Leeuwarden,Leeuwarden,Friesland,VBO,5.803387,53.191528
Wiardastraat,29,,,8934AP,Leeuwarden,Leeuwarden,Friesland,VBO,5.803461,53.191456
Wiardastraat,31,,,8934AP,Leeuwarden,Leeuwarden,Friesland,VBO,5.803431,53.191411
Wiardastraat,33,,,8934AP,Leeuwarden,Leeuwarden,Friesland,VBO,5.803340,53.191367
Wiardastraat,35,,,8934AP,Leeuwarden,Leeuwarden,Friesland,VBO,5.803385,53.191295
Wiardastraat,2,,,8934AR,Leeuwarden,Leeuwarden,Friesland,VBO,5.803457,53.192570
Wiardastraat,4,,,8934AR,Leeuwarden,Leeuwarden,Friesland,VBO,5.803471,53.192516
Wiardastraat,6,,,8934AR,Leeuwarden,Leeuwarden,Friesland,VBO,5.803426,53.192463
Wiardastraat,8,,,8934AR,Leeuwarden,Leeuwarden,Friesland,VBO,5.803364,53.192274
Wiardastraat,10,,,8934AR,Leeuwarden,Leeuwarden,Friesland,VBO,5.803348,53.192184
Wiardastraat,12,,,8934AR,Leeuwarden,Leeuwarden,Friesland,VBO,5.803288,53.192131
Wiardastraat,14,,,8934AR,Leeuwarden,Leeuwarden,Friesland,VBO,5.803273,53.192086
Wiardastraat,28,,,8934AR,Leeuwarden,Leeuwarden,Friesland,VBO,5.803118,53.191547
Wiardastraat,30,,,8934AR,Leeuwarden,Leeuwarden,Friesland,VBO,5.803087,53.191475
Wiardastraat,32,,,8934AR,Leeuwarden,Leeuwarden,Friesland,VBO,5.803072,53.191421
Wiardastraat,34,,,8934AR,Leeuwarden,Leeuwarden,Friesland,VBO,5.803041,53.191350
Wiardastraat,36,,,8934AR,Leeuwarden,Leeuwarden,Friesland,VBO,5.803026,53.191305
Wiardastraat,38,,,8934AR,Leeuwarden,Leeuwarden,Friesland,VBO,5.802995,53.191242
Wiardastraat,40,,,8934AR,Leeuwarden,Leeuwarden,Friesland,VBO,5.802995,53.191188
Sportlaan,1,,,8934AS,Leeuwarden,Leeuwarden,Friesland,VBO,5.804728,53.192577
Sportlaan,3,,,8934AS,Leeuwarden,Leeuwarden,Friesland,VBO,5.804720,53.192547
Sportlaan,5,,,8934AS,Leeuwarden,Leeuwarden,Friesland,VBO,5.804786,53.192368
Sportlaan,7,,,8934AS,Leeuwarden,Leeuwarden,Friesland,VBO,5.804666,53.192323
Sportlaan,9,,,8934AS,Leeuwarden,Leeuwarden,Friesland,VBO,5.804651,53.192261
Sportlaan,11,,,8934AS,Leeuwarden,Leeuwarden,Friesland,VBO,5.804635,53.192216
Sportlaan,13,,,8934AS,Leeuwarden,Leeuwarden,Friesland,VBO,5.804725,53.192152
Sportlaan,15,,,8934AS,Leeuwarden,Leeuwarden,Friesland,VBO,5.804678,53.192000
Sportlaan,17,,,8934AS,Leeuwarden,Leeuwarden,Friesland,VBO,5.804663,53.191928
Sportlaan,19,,,8934AS,Leeuwarden,Leeuwarden,Friesland,VBO,5.804662,53.191856
Sportlaan,21,,,8934AS,Leeuwarden,Leeuwarden,Friesland,VBO,5.804557,53.191813
Sportlaan,23,,,8934AS,Leeuwarden,Leeuwarden,Friesland,VBO,5.804616,53.191748
Sportlaan,25,,,8934AS,Leeuwarden,Leeuwarden,Friesland,VBO,5.804513,53.191538
Sportlaan,27,,,8934AS,Leeuwarden,Leeuwarden,Friesland,VBO,5.804553,53.191479
Sportlaan,29,,,8934AS,Leeuwarden,Leeuwarden,Friesland,VBO,5.804523,53.191416
Sportlaan,31,,,8934AS,Leeuwarden,Leeuwarden,Friesland,VBO,5.804537,53.191362
Sportlaan,33,,,8934AS,Leeuwarden,Leeuwarden,Friesland,VBO,5.804522,53.191309
Sportlaan,2,,,8934AT,Leeuwarden,Leeuwarden,Friesland,VBO,5.804460,53.192639
Sportlaan,4,,,8934AT,Leeuwarden,Leeuwarden,Friesland,VBO,5.804444,53.192576
Sportlaan,6,,,8934AT,Leeuwarden,Leeuwarden,Friesland,VBO,5.804418,53.192397
Sportlaan,8,,,8934AT,Leeuwarden,Leeuwarden,Friesland,VBO,5.804435,53.192327
Sportlaan,10,,,8934AT,Leeuwarden,Leeuwarden,Friesland,VBO,5.804421,53.192285
Sportlaan,12,,,8934AT,Leeuwarden,Leeuwarden,Friesland,VBO,5.804426,53.192225
Sportlaan,14,,,8934AT,Leeuwarden,Leeuwarden,Friesland,VBO,5.804319,53.192037
Sportlaan,16,,,8934AT,Leeuwarden,Leeuwarden,Friesland,VBO,5.804304,53.191974
Sportlaan,18,,,8934AT,Leeuwarden,Leeuwarden,Friesland,VBO,5.804243,53.191903
Sportlaan,20,,,8934AT,Leeuwarden,Leeuwarden,Friesland,VBO,5.804333,53.191839
Sportlaan,22,,,8934AT,Leeuwarden,Leeuwarden,Friesland,VBO,5.804319,53.191797
Sportlaan,24,,,8934AT,Leeuwarden,Leeuwarden,Friesland,VBO,5.804226,53.191633
Sportlaan,26,,,8934AT,Leeuwarden,Leeuwarden,Friesland,VBO,5.804270,53.191588
Sportlaan,28,,,8934AT,Leeuwarden,Leeuwarden,Friesland,VBO,5.804270,53.191543
Sportlaan,30,,,8934AT,Leeuwarden,Leeuwarden,Friesland,VBO,5.804254,53.191507
Sportlaan,32,,,8934AT,Leeuwarden,Leeuwarden,Friesland,VBO,5.804239,53.191453
Sportlaan,34,,,8934AT,Leeuwarden,Leeuwarden,Friesland,VBO,5.804164,53.191400
Sportlaan,36,,,8934AT,Leeuwarden,Leeuwarden,Friesland,VBO,5.804148,53.191355
Sportlaan,38,,,8934AT,Leeuwarden,Leeuwarden,Friesland,VBO,5.804148,53.191301
Feytsmastraat,1,,,8934AV,Leeuwarden,Leeuwarden,Friesland,VBO,5.805317,53.191548
Feytsmastraat,2,,,8934AV,Leeuwarden,Leeuwarden,Friesland,VBO,5.804958,53.191577
Feytsmastraat,3,,,8934AV,Leeuwarden,Leeuwarden,Friesland,VBO,5.805227,53.191513
Feytsmastraat,4,,,8934AV,Leeuwarden,Leeuwarden,Friesland,VBO,5.805003,53.191523
Feytsmastraat,5,,,8934AV,Leeuwarden,Leeuwarden,Friesland,VBO,5.805182,53.191459
Feytsmastraat,6,,,8934AV,Leeuwarden,Leeuwarden,Friesland,VBO,5.804987,53.191478
Feytsmastraat,7,,,8934AV,Leeuwarden,Leeuwarden,Friesland,VBO,5.805181,53.191414
Feytsmastraat,8,,,8934AV,Leeuwarden,Leeuwarden,Friesland,VBO,5.804987,53.191424
Feytsmastraat,9,,,8934AV,Leeuwarden,Leeuwarden,Friesland,VBO,5.805166,53.191369
Feytsmastraat,10,,,8934AV,Leeuwarden,Leeuwarden,Friesland,VBO,5.804972,53.191397
Feytsmastraat,11,,,8934AV,Leeuwarden,Leeuwarden,Friesland,VBO,5.805151,53.191333
Feytsmastraat,12,a,,8934AV,Leeuwarden,Leeuwarden,Friesland,VBO,5.804873,53.191318
Feytsmastraat,12,,,8934AV,Leeuwarden,Leeuwarden,Friesland,VBO,5.804896,53.191343
Feytsmastraat,13,,,8934AV,Leeuwarden,Leeuwarden,Friesland,VBO,5.805240,53.191270
Heringastraat,1,,,8934AW,Leeuwarden,Leeuwarden,Friesland,VBO,5.803779,53.191850
Heringastraat,2,,,8934AW,Leeuwarden,Leeuwarden,Friesland,VBO,5.803717,53.191644
Heringastraat,3,,,8934AW,Leeuwarden,Leeuwarden,Friesland,VBO,5.803853,53.191805
Heringastraat,4,,,8934AW,Leeuwarden,Leeuwarden,Friesland,VBO,5.803822,53.191688
Heringastraat,5,,,8934AW,Leeuwarden,Leeuwarden,Friesland,VBO,5.803943,53.191805
Heringastraat,6,,,8934AW,Leeuwarden,Leeuwarden,Friesland,VBO,5.803897,53.191679
Heringastraat,7,b,,8934AW,Leeuwarden,Leeuwarden,Friesland,VBO,5.804094,53.191778
Heringastraat,7,,,8934AW,Leeuwarden,Leeuwarden,Friesland,VBO,5.804018,53.191831
Heringastraat,8,,,8934AW,Leeuwarden,Leeuwarden,Friesland,VBO,5.803941,53.191625
Heringastraat,9,,,8934AW,Leeuwarden,Leeuwarden,Friesland,VBO,5.804811,53.191784
Heringastraat,10,,,8934AW,Leeuwarden,Leeuwarden,Friesland,VBO,5.804540,53.191587
Heringastraat,11,,,8934AW,Leeuwarden,Leeuwarden,Friesland,VBO,5.804856,53.191775
Heringastraat,12,,,8934AW,Leeuwarden,Leeuwarden,Friesland,VBO,5.804674,53.191560
Heringastraat,13,,,8934AW,Leeuwarden,Leeuwarden,Friesland,VBO,5.804960,53.191756
Heringastraat,15,,,8934AW,Leeuwarden,Leeuwarden,Friesland,VBO,5.805080,53.191747
Heringastraat,16,a,,8934AW,Leeuwarden,Leeuwarden,Friesland,VBO,5.805580,53.191424
Heringastraat,16,b,,8934AW,Leeuwarden,Leeuwarden,Friesland,VBO,5.805624,53.191423
Heringastraat,16,c,,8934AW,Leeuwarden,Leeuwarden,Friesland,VBO,5.805669,53.191423
Heringastraat,16,d,,8934AW,Leeuwarden,Leeuwarden,Friesland,VBO,5.805715,53.191423
Heringastraat,16,e,,8934AW,Leeuwarden,Leeuwarden,Friesland,VBO,5.805760,53.191422
Heringastraat,16,f,,8934AW,Leeuwarden,Leeuwarden,Friesland,VBO,5.805804,53.191421
Heringastraat,16,g,,8934AW,Leeuwarden,Leeuwarden,Friesland,VBO,5.805850,53.191419
Heringastraat,16,h,,8934AW,Leeuwarden,Leeuwarden,Friesland,VBO,5.805895,53.191419
Heringastraat,16,j,,8934AW,Leeuwarden,Leeuwarden,Friesland,VBO,5.805939,53.191419
Heringastraat,16,,,8934AW,Leeuwarden,Leeuwarden,Friesland,VBO,5.805535,53.191423
Heringastraat,17,,,8934AW,Leeuwarden,Leeuwarden,Friesland,VBO,5.805169,53.191693
Heringastraat,19,,,8934AW,Leeuwarden,Leeuwarden,Friesland,VBO,5.805229,53.191692
Heringastraat,21,,,8934AW,Leeuwarden,Leeuwarden,Friesland,VBO,5.805318,53.191674
Heringastraat,23,,,8934AW,Leeuwarden,Leeuwarden,Friesland,VBO,5.805378,53.191674
Heringastraat,25,,,8934AW,Leeuwarden,Leeuwarden,Friesland,VBO,5.805453,53.191710
Jouwsmastraat,1,,,8934AX,Leeuwarden,Leeuwarden,Friesland,VBO,5.803873,53.192263
Jouwsmastraat,3,,,8934AX,Leeuwarden,Leeuwarden,Friesland,VBO,5.803947,53.192209
Jouwsmastraat,5,,,8934AX,Leeuwarden,Leeuwarden,Friesland,VBO,5.804067,53.192200
Jouwsmastraat,7,,,8934AX,Leeuwarden,Leeuwarden,Friesland,VBO,5.804172,53.192235
Jouwsmastraat,9,,,8934AX,Leeuwarden,Leeuwarden,Friesland,VBO,5.804411,53.192190
Jouwsmastraat,11,,,8934AX,Leeuwarden,Leeuwarden,Friesland,VBO,5.804889,53.192134
Jouwsmastraat,13,,,8934AX,Leeuwarden,Leeuwarden,Friesland,VBO,5.804964,53.192134
Jouwsmastraat,15,,,8934AX,Leeuwarden,Leeuwarden,Friesland,VBO,5.805038,53.192115
Jouwsmastraat,17,,,8934AX,Leeuwarden,Leeuwarden,Friesland,VBO,5.805128,53.192106
Jouwsmastraat,19,,,8934AX,Leeuwarden,Leeuwarden,Friesland,VBO,5.805203,53.192106
Jouwsmastraat,21,,,8934AX,Leeuwarden,Leeuwarden,Friesland,VBO,5.805278,53.192097
Jouwsmastraat,23,,,8934AX,Leeuwarden,Leeuwarden,Friesland,VBO,5.805352,53.192087
Jouwsmastraat,25,,,8934AX,Leeuwarden,Leeuwarden,Friesland,VBO,5.805427,53.192087
Jouwsmastraat,27,,,8934AX,Leeuwarden,Leeuwarden,Friesland,VBO,5.805517,53.192078
Jouwsmastraat,29,,,8934AX,Leeuwarden,Leeuwarden,Friesland,VBO,5.805562,53.192069
Jouwsmastraat,31,,,8934AX,Leeuwarden,Leeuwarden,Friesland,VBO,5.805651,53.192068
Jouwsmastraat,33,,,8934AX,Leeuwarden,Leeuwarden,Friesland,VBO,5.805741,53.192059
Jouwsmastraat,35,,,8934AX,Leeuwarden,Leeuwarden,Friesland,VBO,5.805816,53.192086
Jouwsmastraat,2,,,8934AZ,Leeuwarden,Leeuwarden,Friesland,VBO,5.803811,53.192057
Jouwsmastraat,4,,,8934AZ,Leeuwarden,Leeuwarden,Friesland,VBO,5.803931,53.192047
Jouwsmastraat,6,,,8934AZ,Leeuwarden,Leeuwarden,Friesland,VBO,5.804020,53.192029
Jouwsmastraat,8,,,8934AZ,Leeuwarden,Leeuwarden,Friesland,VBO,5.804140,53.192020
Jouwsmastraat,10,,,8934AZ,Leeuwarden,Leeuwarden,Friesland,VBO,5.804798,53.191973
Jouwsmastraat,12,,,8934AZ,Leeuwarden,Leeuwarden,Friesland,VBO,5.804903,53.191999
Jouwsmastraat,14,,,8934AZ,Leeuwarden,Leeuwarden,Friesland,VBO,5.804992,53.191990
Jouwsmastraat,16,,,8934AZ,Leeuwarden,Leeuwarden,Friesland,VBO,5.805067,53.191990
Jouwsmastraat,18,,,8934AZ,Leeuwarden,Leeuwarden,Friesland,VBO,5.805157,53.191980
Jouwsmastraat,20,,,8934AZ,Leeuwarden,Leeuwarden,Friesland,VBO,5.805217,53.191971
Jouwsmastraat,22,,,8934AZ,Leeuwarden,Leeuwarden,Friesland,VBO,5.805291,53.191962
Jouwsmastraat,24,,,8934AZ,Leeuwarden,Leeuwarden,Friesland,VBO,5.805381,53.191953
Jouwsmastraat,26,,,8934AZ,Leeuwarden,Leeuwarden,Friesland,VBO,5.805456,53.191943
Jouwsmastraat,28,,,8934AZ,Leeuwarden,Leeuwarden,Friesland,VBO,5.805530,53.191943
Jouwsmastraat,30,,,8934AZ,Leeuwarden,Leeuwarden,Friesland,VBO,5.805620,53.191934
Jouwsmastraat,32,,,8934AZ,Leeuwarden,Leeuwarden,Friesland,VBO,5.805695,53.191933
Jouwsmastraat,34,,,8934AZ,Leeuwarden,Leeuwarden,Friesland,VBO,5.805754,53.191879
Buygersstraat,1,,,8934BA,Leeuwarden,Leeuwarden,Friesland,VBO,5.803757,53.192632
Buygersstraat,3,,,8934BA,Leeuwarden,Leeuwarden,Friesland,VBO,5.803841,53.192614
Buygersstraat,5,,,8934BA,Leeuwarden,Leeuwarden,Friesland,VBO,5.803929,53.192604
Buygersstraat,7,,,8934BA,Leeuwarden,Leeuwarden,Friesland,VBO,5.804007,53.192601
Buygersstraat,9,,,8934BA,Leeuwarden,Leeuwarden,Friesland,VBO,5.804096,53.192592
Buygersstraat,11,,,8934BA,Leeuwarden,Leeuwarden,Friesland,VBO,5.804182,53.192588
Buygersstraat,13,,,8934BA,Leeuwarden,Leeuwarden,Friesland,VBO,5.804265,53.192594
Buygersstraat,15,,,8934BA,Leeuwarden,Leeuwarden,Friesland,VBO,5.804369,53.192558
Buygersstraat,17,,,8934BA,Leeuwarden,Leeuwarden,Friesland,VBO,5.804938,53.192538
Buygersstraat,19,,,8934BA,Leeuwarden,Leeuwarden,Friesland,VBO,5.805027,53.192493
Buygersstraat,21,,,8934BA,Leeuwarden,Leeuwarden,Friesland,VBO,5.805132,53.192519
Buygersstraat,23,,,8934BA,Leeuwarden,Leeuwarden,Friesland,VBO,5.805207,53.192510
Buygersstraat,25,,,8934BA,Leeuwarden,Leeuwarden,Friesland,VBO,5.805311,53.192456
Buygersstraat,27,,,8934BA,Leeuwarden,Leeuwarden,Friesland,VBO,5.805401,53.192501
Buygersstraat,29,,,8934BA,Leeuwarden,Leeuwarden,Friesland,VBO,5.805491,53.192491
Buygersstraat,31,,,8934BA,Leeuwarden,Leeuwarden,Friesland,VBO,5.805565,53.192437
Buygersstraat,33,,,8934BA,Leeuwarden,Leeuwarden,Friesland,VBO,5.805685,53.192473
Buygersstraat,35,,,8934BA,Leeuwarden,Leeuwarden,Friesland,VBO,5.805760,53.192463
Buygersstraat,37,,,8934BA,Leeuwarden,Leeuwarden,Friesland,VBO,5.805864,53.192436
Buygersstraat,39,,,8934BA,Leeuwarden,Leeuwarden,Friesland,VBO,5.805954,53.192445
Buygersstraat,2,,,8934BB,Leeuwarden,Leeuwarden,Friesland,VBO,5.803905,53.192461
Buygersstraat,4,,,8934BB,Leeuwarden,Leeuwarden,Friesland,VBO,5.804009,53.192443
Buygersstraat,6,,,8934BB,Leeuwarden,Leeuwarden,Friesland,VBO,5.804114,53.192442
Buygersstraat,8,,,8934BB,Leeuwarden,Leeuwarden,Friesland,VBO,5.804204,53.192433
Buygersstraat,10,,,8934BB,Leeuwarden,Leeuwarden,Friesland,VBO,5.804876,53.192323
Buygersstraat,12,,,8934BB,Leeuwarden,Leeuwarden,Friesland,VBO,5.805011,53.192358
Buygersstraat,14,,,8934BB,Leeuwarden,Leeuwarden,Friesland,VBO,5.805085,53.192304
Buygersstraat,16,,,8934BB,Leeuwarden,Leeuwarden,Friesland,VBO,5.805175,53.192295
Buygersstraat,18,,,8934BB,Leeuwarden,Leeuwarden,Friesland,VBO,5.805249,53.192285
Buygersstraat,20,,,8934BB,Leeuwarden,Leeuwarden,Friesland,VBO,5.805354,53.192276
Buygersstraat,22,,,8934BB,Leeuwarden,Leeuwarden,Friesland,VBO,5.805444,53.192267
Buygersstraat,24,,,8934BB,Leeuwarden,Leeuwarden,Friesland,VBO,5.805534,53.192266
Buygersstraat,26,,,8934BB,Leeuwarden,Leeuwarden,Friesland,VBO,5.805623,53.192257
Buygersstraat,28,,,8934BB,Leeuwarden,Leeuwarden,Friesland,VBO,5.805698,53.192248
Buygersstraat,30,,,8934BB,Leeuwarden,Leeuwarden,Friesland,VBO,5.805788,53.192239
Buygersstraat,32,,,8934BB,Leeuwarden,Leeuwarden,Friesland,VBO,5.805877,53.192229
Huizumerlaan,3,,,8934BC,Leeuwarden,Leeuwarden,Friesland,VBO,5.801191,53.193423
Huizumerlaan,5,,,8934BC,Leeuwarden,Leeuwarden,Friesland,VBO,5.801325,53.193386
Huizumerlaan,7,,,8934BC,Leeuwarden,Leeuwarden,Friesland,VBO,5.801490,53.193386
Huizumerlaan,9,,,8934BC,Leeuwarden,Leeuwarden,Friesland,VBO,5.801609,53.193376
Huizumerlaan,11,,,8934BC,Leeuwarden,Leeuwarden,Friesland,VBO,5.801849,53.193367
Huizumerlaan,13,,,8934BC,Leeuwarden,Leeuwarden,Friesland,VBO,5.801953,53.193357
Huizumerlaan,15,,,8934BC,Leeuwarden,Leeuwarden,Friesland,VBO,5.802043,53.193330
Huizumerlaan,17,,,8934BC,Leeuwarden,Leeuwarden,Friesland,VBO,5.802132,53.193330
Huizumerlaan,19,a,,8934BC,Leeuwarden,Leeuwarden,Friesland,VBO,5.802175,53.193544
Huizumerlaan,19,,tr,8934BC,Leeuwarden,Leeuwarden,Friesland,VBO,5.801869,53.193816
Huizumerlaan,19,,,8934BC,Leeuwarden,Leeuwarden,Friesland,VBO,5.802192,53.193275
Huizumerlaan,25,,,8934BD,Leeuwarden,Leeuwarden,Friesland,VBO,5.802820,53.193264
Huizumerlaan,27,,,8934BD,Leeuwarden,Leeuwarden,Friesland,VBO,5.802955,53.193237
Huizumerlaan,41,,,8934BD,Leeuwarden,Leeuwarden,Friesland,VBO,5.803074,53.193228
Huizumerlaan,43,,,8934BD,Leeuwarden,Leeuwarden,Friesland,VBO,5.803163,53.193182
Huizumerlaan,45,,,8934BD,Leeuwarden,Leeuwarden,Friesland,VBO,5.803254,53.193218
Huizumerlaan,47,,,8934BD,Leeuwarden,Leeuwarden,Friesland,VBO,5.803328,53.193209
Huizumerlaan,49,,,8934BD,Leeuwarden,Leeuwarden,Friesland,VBO,5.803463,53.193199
Huizumerlaan,53,,,8934BD,Leeuwarden,Leeuwarden,Friesland,VBO,5.803657,53.193190
Huizumerlaan,55,,,8934BD,Leeuwarden,Leeuwarden,Friesland,VBO,5.803822,53.193180
Huizumerlaan,57,,,8934BD,Leeuwarden,Leeuwarden,Friesland,VBO,5.803957,53.193189
Huizumerlaan,59,,,8934BD,Leeuwarden,Leeuwarden,Friesland,VBO,5.804181,53.193179
Huizumerlaan,61,,,8934BD,Leeuwarden,Leeuwarden,Friesland,VBO,5.804345,53.193151
Huizumerlaan,63,,,8934BD,Leeuwarden,Leeuwarden,Friesland,VBO,5.804495,53.193133
Huizumerlaan,65,,,8934BD,Leeuwarden,Leeuwarden,Friesland,VBO,5.804629,53.193114
Huizumerlaan,67,,,8934BD,Leeuwarden,Leeuwarden,Friesland,VBO,5.804734,53.193087
Huizumerlaan,75,,,8934BE,Leeuwarden,Leeuwarden,Friesland,VBO,5.805047,53.193059
Huizumerlaan,77,,,8934BE,Leeuwarden,Leeuwarden,Friesland,VBO,5.805197,53.193058
Huizumerlaan,79,,,8934BE,Leeuwarden,Leeuwarden,Friesland,VBO,5.805362,53.193058
Huizumerlaan,81,,,8934BE,Leeuwarden,Leeuwarden,Friesland,VBO,5.805436,53.193058
Huizumerlaan,83,,,8934BE,Leeuwarden,Leeuwarden,Friesland,VBO,5.805556,53.193048
Huizumerlaan,85,,,8934BE,Leeuwarden,Leeuwarden,Friesland,VBO,5.805661,53.193030
Huizumerlaan,87,,,8934BE,Leeuwarden,Leeuwarden,Friesland,VBO,5.805750,53.193021
Huizumerlaan,89,a,,8934BE,Leeuwarden,Leeuwarden,Friesland,VBO,5.805914,53.192975
Huizumerlaan,89,,,8934BE,Leeuwarden,Leeuwarden,Friesland,VBO,5.805825,53.192984
Huizumerlaan,91,,,8934BE,Leeuwarden,Leeuwarden,Friesland,VBO,5.806034,53.192984
Huizumerlaan,93,,,8934BE,Leeuwarden,Leeuwarden,Friesland,VBO,5.806258,53.192911
Huizumerlaan,95,,1,8934BE,Leeuwarden,Leeuwarden,Friesland,VBO,5.806536,53.192959
Huizumerlaan,95,,2,8934BE,Leeuwarden,Leeuwarden,Friesland,VBO,5.806592,53.192955
Huizumerlaan,95,,3,8934BE,Leeuwarden,Leeuwarden,Friesland,VBO,5.806645,53.192951
Huizumerlaan,95,,4,8934BE,Leeuwarden,Leeuwarden,Friesland,VBO,5.806530,53.192928
Huizumerlaan,95,,5,8934BE,Leeuwarden,Leeuwarden,Friesland,VBO,5.806587,53.192923
Huizumerlaan,95,,6,8934BE,Leeuwarden,Leeuwarden,Friesland,VBO,5.806637,53.192919
Huizumerlaan,95,,,8934BE,Leeuwarden,Leeuwarden,Friesland,VBO,5.806602,53.192901
Huizumerlaan,101,,,8934BE,Leeuwarden,Leeuwarden,Friesland,VBO,5.806616,53.193055
Huizumerlaan,117,a,,8934BE,Leeuwarden,Leeuwarden,Friesland,VBO,5.807615,53.192766
Huizumerlaan,117,,,8934BE,Leeuwarden,Leeuwarden,Friesland,VBO,5.807534,53.192768
Huizumerlaan,119,a,,8934BE,Leeuwarden,Leeuwarden,Friesland,VBO,5.807783,53.192754
Huizumerlaan,119,,,8934BE,Leeuwarden,Leeuwarden,Friesland,VBO,5.807704,53.192764
Huizumerlaan,121,a,,8934BE,Leeuwarden,Leeuwarden,Friesland,VBO,5.807934,53.192746
Huizumerlaan,121,,,8934BE,Leeuwarden,Leeuwarden,Friesland,VBO,5.807863,53.192739
Huizumerlaan,123,a,,8934BE,Leeuwarden,Leeuwarden,Friesland,VBO,5.808098,53.192735
Huizumerlaan,123,,,8934BE,Leeuwarden,Leeuwarden,Friesland,VBO,5.808012,53.192738
Huizumerlaan,125,a,,8934BE,Leeuwarden,Leeuwarden,Friesland,VBO,5.808256,53.192717
Huizumerlaan,125,,,8934BE,Leeuwarden,Leeuwarden,Friesland,VBO,5.808182,53.192721
Huizumerlaan,127,a,,8934BG,Leeuwarden,Leeuwarden,Friesland,VBO,5.808420,53.192714
Huizumerlaan,127,,,8934BG,Leeuwarden,Leeuwarden,Friesland,VBO,5.808342,53.192719
Huizumerlaan,133,,,8934BG,Leeuwarden,Leeuwarden,Friesland,VBO,5.808628,53.192689
Huizumerlaan,135,,,8934BG,Leeuwarden,Leeuwarden,Friesland,VBO,5.808695,53.192687
Huizumerlaan,137,,,8934BG,Leeuwarden,Leeuwarden,Friesland,VBO,5.808815,53.192731
Huizumerlaan,141,,,8934BG,Leeuwarden,Leeuwarden,Friesland,VBO,5.808978,53.192650
Huizumerlaan,143,,,8934BG,Leeuwarden,Leeuwarden,Friesland,VBO,5.809066,53.192647
Huizumerlaan,145,,,8934BG,Leeuwarden,Leeuwarden,Friesland,VBO,5.809158,53.192649
Huizumerlaan,147,,,8934BG,Leeuwarden,Leeuwarden,Friesland,VBO,5.809233,53.192640
Huizumerlaan,149,,,8934BG,Leeuwarden,Leeuwarden,Friesland,VBO,5.809323,53.192640
Huizumerlaan,151,a,1,8934BG,Leeuwarden,Leeuwarden,Friesland,VBO,5.809378,53.192738
Huizumerlaan,151,a,,8934BG,Leeuwarden,Leeuwarden,Friesland,VBO,5.809387,53.192758
Huizumerlaan,151,b,,8934BG,Leeuwarden,Leeuwarden,Friesland,VBO,5.809393,53.192780
Huizumerlaan,151,c,,8934BG,Leeuwarden,Leeuwarden,Friesland,VBO,5.809400,53.192800
Huizumerlaan,151,d,,8934BG,Leeuwarden,Leeuwarden,Friesland,VBO,5.809405,53.192823
Huizumerlaan,151,e,,8934BG,Leeuwarden,Leeuwarden,Friesland,VBO,5.809410,53.192844
Huizumerlaan,151,,,8934BG,Leeuwarden,Leeuwarden,Friesland,VBO,5.809397,53.192612
Huizumerlaan,153,a,,8934BG,Leeuwarden,Leeuwarden,Friesland,VBO,5.809590,53.192727
Huizumerlaan,153,b,,8934BG,Leeuwarden,Leeuwarden,Friesland,VBO,5.809591,53.192759
Huizumerlaan,153,c,,8934BG,Leeuwarden,Leeuwarden,Friesland,VBO,5.809596,53.192784
Huizumerlaan,153,d,,8934BG,Leeuwarden,Leeuwarden,Friesland,VBO,5.809606,53.192814
Huizumerlaan,153,,,8934BG,Leeuwarden,Leeuwarden,Friesland,VBO,5.809517,53.192594
Huizumerlaan,155,,,8934BG,Leeuwarden,Leeuwarden,Friesland,VBO,5.809672,53.192595
Huizumerlaan,157,,,8934BG,Leeuwarden,Leeuwarden,Friesland,VBO,5.809752,53.192584
Huizumerlaan,159,,,8934BG,Leeuwarden,Leeuwarden,Friesland,VBO,5.809712,53.192674
Huizumerlaan,14,,,8934BH,Leeuwarden,Leeuwarden,Friesland,VBO,5.799542,53.193150
Huizumerlaan,16,,,8934BH,Leeuwarden,Leeuwarden,Friesland,VBO,5.799767,53.193131
Huizumerlaan,18,,,8934BH,Leeuwarden,Leeuwarden,Friesland,VBO,5.799841,53.193122
Huizumerlaan,20,,,8934BH,Leeuwarden,Leeuwarden,Friesland,VBO,5.800021,53.193121
Huizumerlaan,22,,,8934BH,Leeuwarden,Leeuwarden,Friesland,VBO,5.800156,53.193121
Huizumerlaan,40,,,8934BH,Leeuwarden,Leeuwarden,Friesland,VBO,5.801127,53.193010
Huizumerlaan,42,,,8934BH,Leeuwarden,Leeuwarden,Friesland,VBO,5.801232,53.193000
Huizumerlaan,44,,,8934BH,Leeuwarden,Leeuwarden,Friesland,VBO,5.801321,53.192991
Huizumerlaan,46,,,8934BH,Leeuwarden,Leeuwarden,Friesland,VBO,5.801456,53.192982
Huizumerlaan,48,,,8934BH,Leeuwarden,Leeuwarden,Friesland,VBO,5.801531,53.192981
Huizumerlaan,50,,,8934BH,Leeuwarden,Leeuwarden,Friesland,VBO,5.801650,53.192972
Huizumerlaan,52,,,8934BJ,Leeuwarden,Leeuwarden,Friesland,VBO,5.801740,53.192963
Huizumerlaan,54,,,8934BJ,Leeuwarden,Leeuwarden,Friesland,VBO,5.801875,53.192953
Huizumerlaan,56,,,8934BJ,Leeuwarden,Leeuwarden,Friesland,VBO,5.801964,53.192944
Huizumerlaan,58,,,8934BJ,Leeuwarden,Leeuwarden,Friesland,VBO,5.802054,53.192935
Huizumerlaan,60,,,8934BJ,Leeuwarden,Leeuwarden,Friesland,VBO,5.802332,53.192980
Huizumerlaan,102,,,8934BK,Leeuwarden,Leeuwarden,Friesland,VBO,5.803383,53.192696
Huizumerlaan,104,,,8934BK,Leeuwarden,Leeuwarden,Friesland,VBO,5.803803,53.192830
Huizumerlaan,106,,,8934BK,Leeuwarden,Leeuwarden,Friesland,VBO,5.803893,53.192820
Huizumerlaan,108,,,8934BK,Leeuwarden,Leeuwarden,Friesland,VBO,5.803968,53.192811
Huizumerlaan,110,,,8934BK,Leeuwarden,Leeuwarden,Friesland,VBO,5.804073,53.192811
Huizumerlaan,112,,,8934BK,Leeuwarden,Leeuwarden,Friesland,VBO,5.804162,53.192801
Huizumerlaan,114,,,8934BK,Leeuwarden,Leeuwarden,Friesland,VBO,5.804282,53.192855
Huizumerlaan,116,,,8934BK,Leeuwarden,Leeuwarden,Friesland,VBO,5.804372,53.192846
Huizumerlaan,118,,,8934BK,Leeuwarden,Leeuwarden,Friesland,VBO,5.804462,53.192836
Huizumerlaan,120,,,8934BK,Leeuwarden,Leeuwarden,Friesland,VBO,5.804537,53.192836
Huizumerlaan,122,,,8934BL,Leeuwarden,Leeuwarden,Friesland,VBO,5.804775,53.192754
Huizumerlaan,124,,,8934BL,Leeuwarden,Leeuwarden,Friesland,VBO,5.804895,53.192754
Huizumerlaan,126,,,8934BL,Leeuwarden,Leeuwarden,Friesland,VBO,5.804985,53.192754
Huizumerlaan,128,,,8934BL,Leeuwarden,Leeuwarden,Friesland,VBO,5.805059,53.192735
Huizumerlaan,130,,,8934BL,Leeuwarden,Leeuwarden,Friesland,VBO,5.805134,53.192717
Huizumerlaan,132,,,8934BL,Leeuwarden,Leeuwarden,Friesland,VBO,5.805224,53.192699
Huizumerlaan,134,,,8934BL,Leeuwarden,Leeuwarden,Friesland,VBO,5.805343,53.192689
Huizumerlaan,136,,,8934BL,Leeuwarden,Leeuwarden,Friesland,VBO,5.805433,53.192680
Huizumerlaan,138,,,8934BL,Leeuwarden,Leeuwarden,Friesland,VBO,5.805537,53.192671
Huizumerlaan,140,,,8934BL,Leeuwarden,Leeuwarden,Friesland,VBO,5.805627,53.192662
Huizumerlaan,142,,,8934BL,Leeuwarden,Leeuwarden,Friesland,VBO,5.805732,53.192652
Huizumerlaan,144,,,8934BL,Leeuwarden,Leeuwarden,Friesland,VBO,5.805821,53.192643
Huizumerlaan,146,a,,8934BL,Leeuwarden,Leeuwarden,Friesland,VBO,5.807757,53.192406
Huizumerlaan,146,k,,8934BL,Leeuwarden,Leeuwarden,Friesland,VBO,5.807818,53.192536
Huizumerlaan,146,,,8934BL,Leeuwarden,Leeuwarden,Friesland,VBO,5.805941,53.192633
Huizumerlaan,148,b,,8934BL,Leeuwarden,Leeuwarden,Friesland,VBO,5.807975,53.192208
Huizumerlaan,148,,,8934BL,Leeuwarden,Leeuwarden,Friesland,VBO,5.808153,53.192392
Huizumerlaan,150,,,8934BL,Leeuwarden,Leeuwarden,Friesland,VBO,5.808962,53.192452
Huizumerlaan,152,,,8934BL,Leeuwarden,Leeuwarden,Friesland,VBO,5.809051,53.192443
Huizumerlaan,154,,,8934BL,Leeuwarden,Leeuwarden,Friesland,VBO,5.809141,53.192434
Huizumerlaan,156,,,8934BL,Leeuwarden,Leeuwarden,Friesland,VBO,5.809216,53.192424
Huizumerlaan,158,,,8934BL,Leeuwarden,Leeuwarden,Friesland,VBO,5.809305,53.192415
Huizumerlaan,160,,,8934BL,Leeuwarden,Leeuwarden,Friesland,VBO,5.809365,53.192415
Huizumerlaan,162,,,8934BL,Leeuwarden,Leeuwarden,Friesland,VBO,5.809455,53.192405
Huizumerlaan,164,,,8934BL,Leeuwarden,Leeuwarden,Friesland,VBO,5.809560,53.192405
Jansoniusstraat,1,,,8934BM,Leeuwarden,Leeuwarden,Friesland,VBO,5.807879,53.191890
Jansoniusstraat,2,a,,8934BM,Leeuwarden,Leeuwarden,Friesland,VBO,5.806971,53.193969
Jansoniusstraat,2,k,,8934BM,Leeuwarden,Leeuwarden,Friesland,VBO,5.806421,53.193560
Jansoniusstraat,2,,,8934BM,Leeuwarden,Leeuwarden,Friesland,VBO,5.806987,53.194077
Jansoniusstraat,3,,,8934BM,Leeuwarden,Leeuwarden,Friesland,VBO,5.807774,53.191836
Jansoniusstraat,4,,110,8934BM,Leeuwarden,Leeuwarden,Friesland,VBO,5.806553,53.192301
Jansoniusstraat,4,,111,8934BM,Leeuwarden,Leeuwarden,Friesland,VBO,5.806619,53.192334
Jansoniusstraat,4,,112,8934BM,Leeuwarden,Leeuwarden,Friesland,VBO,5.806701,53.192321
Jansoniusstraat,4,,113,8934BM,Leeuwarden,Leeuwarden,Friesland,VBO,5.806452,53.191593
Jansoniusstraat,4,,114,8934BM,Leeuwarden,Leeuwarden,Friesland,VBO,5.806504,53.191593
Jansoniusstraat,4,,115,8934BM,Leeuwarden,Leeuwarden,Friesland,VBO,5.806553,53.192278
Jansoniusstraat,4,,116,8934BM,Leeuwarden,Leeuwarden,Friesland,VBO,5.806619,53.192312
Jansoniusstraat,4,,117,8934BM,Leeuwarden,Leeuwarden,Friesland,VBO,5.806553,53.192256
Jansoniusstraat,4,,131,8934BM,Leeuwarden,Leeuwarden,Friesland,VBO,5.806618,53.192289
Jansoniusstraat,4,,132,8934BM,Leeuwarden,Leeuwarden,Friesland,VBO,5.806701,53.192298
Jansoniusstraat,4,,133,8934BM,Leeuwarden,Leeuwarden,Friesland,VBO,5.806452,53.191570
Jansoniusstraat,4,,134,8934BM,Leeuwarden,Leeuwarden,Friesland,VBO,5.806504,53.191570
Jansoniusstraat,4,,135,8934BM,Leeuwarden,Leeuwarden,Friesland,VBO,5.806451,53.191548
Jansoniusstraat,4,,136,8934BM,Leeuwarden,Leeuwarden,Friesland,VBO,5.806504,53.191548
Jansoniusstraat,4,,137,8934BM,Leeuwarden,Leeuwarden,Friesland,VBO,5.806552,53.192233
Jansoniusstraat,4,,146,8934BM,Leeuwarden,Leeuwarden,Friesland,VBO,5.806629,53.191734
Jansoniusstraat,4,,147,8934BM,Leeuwarden,Leeuwarden,Friesland,VBO,5.806634,53.191678
Jansoniusstraat,4,,148,8934BM,Leeuwarden,Leeuwarden,Friesland,VBO,5.806634,53.191614
Jansoniusstraat,4,,149,8934BM,Leeuwarden,Leeuwarden,Friesland,VBO,5.806634,53.191614
Jansoniusstraat,4,,164,8934BM,Leeuwarden,Leeuwarden,Friesland,VBO,5.806426,53.191831
Jansoniusstraat,4,,165,8934BM,Leeuwarden,Leeuwarden,Friesland,VBO,5.806427,53.191782
Jansoniusstraat,4,,166,8934BM,Leeuwarden,Leeuwarden,Friesland,VBO,5.806427,53.191729
Jansoniusstraat,4,,169,8934BM,Leeuwarden,Leeuwarden,Friesland,VBO,5.806433,53.191672
Jansoniusstraat,4,,210,8934BM,Leeuwarden,Leeuwarden,Friesland,VBO,5.806503,53.191480
Jansoniusstraat,4,,211,8934BM,Leeuwarden,Leeuwarden,Friesland,VBO,5.806552,53.192166
Jansoniusstraat,4,,212,8934BM,Leeuwarden,Leeuwarden,Friesland,VBO,5.806618,53.192200
Jansoniusstraat,4,,213,8934BM,Leeuwarden,Leeuwarden,Friesland,VBO,5.806700,53.192186
Jansoniusstraat,4,,214,8934BM,Leeuwarden,Leeuwarden,Friesland,VBO,5.806537,53.191481
Jansoniusstraat,4,,215,8934BM,Leeuwarden,Leeuwarden,Friesland,VBO,5.806537,53.191503
Jansoniusstraat,4,,216,8934BM,Leeuwarden,Leeuwarden,Friesland,VBO,5.806551,53.192143
Jansoniusstraat,4,,217,8934BM,Leeuwarden,Leeuwarden,Friesland,VBO,5.806617,53.192177
Jansoniusstraat,4,,231,8934BM,Leeuwarden,Leeuwarden,Friesland,VBO,5.806700,53.192163
Jansoniusstraat,4,,232,8934BM,Leeuwarden,Leeuwarden,Friesland,VBO,5.806536,53.191525
Jansoniusstraat,4,,233,8934BM,Leeuwarden,Leeuwarden,Friesland,VBO,5.806535,53.191546
Jansoniusstraat,4,,234,8934BM,Leeuwarden,Leeuwarden,Friesland,VBO,5.806551,53.192121
Jansoniusstraat,4,,235,8934BM,Leeuwarden,Leeuwarden,Friesland,VBO,5.806617,53.192155
Jansoniusstraat,4,,236,8934BM,Leeuwarden,Leeuwarden,Friesland,VBO,5.806699,53.192141
Jansoniusstraat,4,,237,8934BM,Leeuwarden,Leeuwarden,Friesland,VBO,5.806535,53.191569
Jansoniusstraat,4,,246,8934BM,Leeuwarden,Leeuwarden,Friesland,VBO,5.806534,53.191592
Jansoniusstraat,4,,247,8934BM,Leeuwarden,Leeuwarden,Friesland,VBO,5.806551,53.192098
Jansoniusstraat,4,,248,8934BM,Leeuwarden,Leeuwarden,Friesland,VBO,5.806617,53.192132
Jansoniusstraat,4,,249,8934BM,Leeuwarden,Leeuwarden,Friesland,VBO,5.806699,53.192118
Jansoniusstraat,4,,264,8934BM,Leeuwarden,Leeuwarden,Friesland,VBO,5.806534,53.191612
Jansoniusstraat,4,,265,8934BM,Leeuwarden,Leeuwarden,Friesland,VBO,5.806532,53.191632
Jansoniusstraat,4,,266,8934BM,Leeuwarden,Leeuwarden,Friesland,VBO,5.806551,53.192076
Jansoniusstraat,4,,267,8934BM,Leeuwarden,Leeuwarden,Friesland,VBO,5.806617,53.192110
Jansoniusstraat,4,,268,8934BM,Leeuwarden,Leeuwarden,Friesland,VBO,5.806699,53.192096
Jansoniusstraat,4,,269,8934BM,Leeuwarden,Leeuwarden,Friesland,VBO,5.806530,53.191654
Jansoniusstraat,4,,310,8934BM,Leeuwarden,Leeuwarden,Friesland,VBO,5.806584,53.191449
Jansoniusstraat,4,,311,8934BM,Leeuwarden,Leeuwarden,Friesland,VBO,5.806551,53.192053
Jansoniusstraat,4,,312,8934BM,Leeuwarden,Leeuwarden,Friesland,VBO,5.806617,53.192087
Jansoniusstraat,4,,313,8934BM,Leeuwarden,Leeuwarden,Friesland,VBO,5.806699,53.192074
Jansoniusstraat,4,,314,8934BM,Leeuwarden,Leeuwarden,Friesland,VBO,5.806581,53.191467
Jansoniusstraat,4,,315,8934BM,Leeuwarden,Leeuwarden,Friesland,VBO,5.806578,53.191487
Jansoniusstraat,4,,316,8934BM,Leeuwarden,Leeuwarden,Friesland,VBO,5.806550,53.192031
Jansoniusstraat,4,,317,8934BM,Leeuwarden,Leeuwarden,Friesland,VBO,5.806616,53.192065
Jansoniusstraat,4,,331,8934BM,Leeuwarden,Leeuwarden,Friesland,VBO,5.806698,53.192051
Jansoniusstraat,4,,332,8934BM,Leeuwarden,Leeuwarden,Friesland,VBO,5.806577,53.191509
Jansoniusstraat,4,,333,8934BM,Leeuwarden,Leeuwarden,Friesland,VBO,5.806575,53.191533
Jansoniusstraat,4,,334,8934BM,Leeuwarden,Leeuwarden,Friesland,VBO,5.806550,53.192009
Jansoniusstraat,4,,335,8934BM,Leeuwarden,Leeuwarden,Friesland,VBO,5.806616,53.192042
Jansoniusstraat,4,,336,8934BM,Leeuwarden,Leeuwarden,Friesland,VBO,5.806698,53.192029
Jansoniusstraat,4,,337,8934BM,Leeuwarden,Leeuwarden,Friesland,VBO,5.806576,53.191556
Jansoniusstraat,4,,346,8934BM,Leeuwarden,Leeuwarden,Friesland,VBO,5.806574,53.191580
Jansoniusstraat,4,,347,8934BM,Leeuwarden,Leeuwarden,Friesland,VBO,5.806550,53.191986
Jansoniusstraat,4,,348,8934BM,Leeuwarden,Leeuwarden,Friesland,VBO,5.806616,53.192020
Jansoniusstraat,4,,349,8934BM,Leeuwarden,Leeuwarden,Friesland,VBO,5.806698,53.192006
Jansoniusstraat,4,,364,8934BM,Leeuwarden,Leeuwarden,Friesland,VBO,5.806572,53.191603
Jansoniusstraat,4,,365,8934BM,Leeuwarden,Leeuwarden,Friesland,VBO,5.806571,53.191620
Jansoniusstraat,4,,366,8934BM,Leeuwarden,Leeuwarden,Friesland,VBO,5.806550,53.191964
Jansoniusstraat,4,,367,8934BM,Leeuwarden,Leeuwarden,Friesland,VBO,5.806616,53.191997
Jansoniusstraat,4,,368,8934BM,Leeuwarden,Leeuwarden,Friesland,VBO,5.806698,53.191984
Jansoniusstraat,4,,369,8934BM,Leeuwarden,Leeuwarden,Friesland,VBO,5.806568,53.191635
Jansoniusstraat,4,,410,8934BM,Leeuwarden,Leeuwarden,Friesland,VBO,5.806612,53.191449
Jansoniusstraat,4,,411,8934BM,Leeuwarden,Leeuwarden,Friesland,VBO,5.806550,53.191941
Jansoniusstraat,4,,412,8934BM,Leeuwarden,Leeuwarden,Friesland,VBO,5.806615,53.191975
Jansoniusstraat,4,,413,8934BM,Leeuwarden,Leeuwarden,Friesland,VBO,5.806698,53.191961
Jansoniusstraat,4,,414,8934BM,Leeuwarden,Leeuwarden,Friesland,VBO,5.806611,53.191468
Jansoniusstraat,4,,415,8934BM,Leeuwarden,Leeuwarden,Friesland,VBO,5.806610,53.191487
Jansoniusstraat,4,,416,8934BM,Leeuwarden,Leeuwarden,Friesland,VBO,5.806549,53.191919
Jansoniusstraat,4,,417,8934BM,Leeuwarden,Leeuwarden,Friesland,VBO,5.806615,53.191953
Jansoniusstraat,4,,431,8934BM,Leeuwarden,Leeuwarden,Friesland,VBO,5.806697,53.191939
Jansoniusstraat,4,,432,8934BM,Leeuwarden,Leeuwarden,Friesland,VBO,5.806608,53.191508
Jansoniusstraat,4,,433,8934BM,Leeuwarden,Leeuwarden,Friesland,VBO,5.806605,53.191531
Jansoniusstraat,4,,434,8934BM,Leeuwarden,Leeuwarden,Friesland,VBO,5.806549,53.191896
Jansoniusstraat,4,,435,8934BM,Leeuwarden,Leeuwarden,Friesland,VBO,5.806615,53.191930
Jansoniusstraat,4,,436,8934BM,Leeuwarden,Leeuwarden,Friesland,VBO,5.806697,53.191916
Jansoniusstraat,4,,437,8934BM,Leeuwarden,Leeuwarden,Friesland,VBO,5.806602,53.191556
Jansoniusstraat,4,,446,8934BM,Leeuwarden,Leeuwarden,Friesland,VBO,5.806599,53.191578
Jansoniusstraat,4,,447,8934BM,Leeuwarden,Leeuwarden,Friesland,VBO,5.806549,53.191874
Jansoniusstraat,4,,448,8934BM,Leeuwarden,Leeuwarden,Friesland,VBO,5.806615,53.191908
Jansoniusstraat,4,,449,8934BM,Leeuwarden,Leeuwarden,Friesland,VBO,5.806697,53.191894
Jansoniusstraat,4,,464,8934BM,Leeuwarden,Leeuwarden,Friesland,VBO,5.806598,53.191602
Jansoniusstraat,4,,465,8934BM,Leeuwarden,Leeuwarden,Friesland,VBO,5.806595,53.191622
Jansoniusstraat,4,,466,8934BM,Leeuwarden,Leeuwarden,Friesland,VBO,5.806549,53.191851
Jansoniusstraat,4,,467,8934BM,Leeuwarden,Leeuwarden,Friesland,VBO,5.806615,53.191885
Jansoniusstraat,4,,468,8934BM,Leeuwarden,Leeuwarden,Friesland,VBO,5.806697,53.191871
Jansoniusstraat,4,,469,8934BM,Leeuwarden,Leeuwarden,Friesland,VBO,5.806595,53.191638
Jansoniusstraat,4,,510,8934BM,Leeuwarden,Leeuwarden,Friesland,VBO,5.806647,53.191508
Jansoniusstraat,4,,511,8934BM,Leeuwarden,Leeuwarden,Friesland,VBO,5.806433,53.191826
Jansoniusstraat,4,,512,8934BM,Leeuwarden,Leeuwarden,Friesland,VBO,5.806614,53.191863
Jansoniusstraat,4,,513,8934BM,Leeuwarden,Leeuwarden,Friesland,VBO,5.806697,53.191849
Jansoniusstraat,4,,514,8934BM,Leeuwarden,Leeuwarden,Friesland,VBO,5.806645,53.191532
Jansoniusstraat,4,,515,8934BM,Leeuwarden,Leeuwarden,Friesland,VBO,5.806642,53.191556
Jansoniusstraat,4,,516,8934BM,Leeuwarden,Leeuwarden,Friesland,VBO,5.806433,53.191804
Jansoniusstraat,4,,517,8934BM,Leeuwarden,Leeuwarden,Friesland,VBO,5.806499,53.191837
Jansoniusstraat,4,,531,8934BM,Leeuwarden,Leeuwarden,Friesland,VBO,5.806581,53.191824
Jansoniusstraat,4,,532,8934BM,Leeuwarden,Leeuwarden,Friesland,VBO,5.806640,53.191578
Jansoniusstraat,4,,533,8934BM,Leeuwarden,Leeuwarden,Friesland,VBO,5.806637,53.191602
Jansoniusstraat,4,,534,8934BM,Leeuwarden,Leeuwarden,Friesland,VBO,5.806433,53.191781
Jansoniusstraat,4,,535,8934BM,Leeuwarden,Leeuwarden,Friesland,VBO,5.806498,53.191815
Jansoniusstraat,4,,536,8934BM,Leeuwarden,Leeuwarden,Friesland,VBO,5.806581,53.191801
Jansoniusstraat,4,,537,8934BM,Leeuwarden,Leeuwarden,Friesland,VBO,5.806635,53.191622
Jansoniusstraat,4,,546,8934BM,Leeuwarden,Leeuwarden,Friesland,VBO,5.806633,53.191644
Jansoniusstraat,4,,547,8934BM,Leeuwarden,Leeuwarden,Friesland,VBO,5.806432,53.191759
Jansoniusstraat,4,,548,8934BM,Leeuwarden,Leeuwarden,Friesland,VBO,5.806498,53.191793
Jansoniusstraat,4,,549,8934BM,Leeuwarden,Leeuwarden,Friesland,VBO,5.806580,53.191779
Jansoniusstraat,4,,564,8934BM,Leeuwarden,Leeuwarden,Friesland,VBO,5.806633,53.191664
Jansoniusstraat,4,,565,8934BM,Leeuwarden,Leeuwarden,Friesland,VBO,5.806631,53.191684
Jansoniusstraat,4,,566,8934BM,Leeuwarden,Leeuwarden,Friesland,VBO,5.806432,53.191736
Jansoniusstraat,4,,567,8934BM,Leeuwarden,Leeuwarden,Friesland,VBO,5.806498,53.191770
Jansoniusstraat,4,,568,8934BM,Leeuwarden,Leeuwarden,Friesland,VBO,5.806580,53.191756
Jansoniusstraat,4,,569,8934BM,Leeuwarden,Leeuwarden,Friesland,VBO,5.806630,53.191705
Jansoniusstraat,4,,610,8934BM,Leeuwarden,Leeuwarden,Friesland,VBO,5.806770,53.191785
Jansoniusstraat,4,,611,8934BM,Leeuwarden,Leeuwarden,Friesland,VBO,5.806432,53.191714
Jansoniusstraat,4,,612,8934BM,Leeuwarden,Leeuwarden,Friesland,VBO,5.806498,53.191748
Jansoniusstraat,4,,613,8934BM,Leeuwarden,Leeuwarden,Friesland,VBO,5.806580,53.191734
Jansoniusstraat,4,,614,8934BM,Leeuwarden,Leeuwarden,Friesland,VBO,5.806767,53.191807
Jansoniusstraat,4,,615,8934BM,Leeuwarden,Leeuwarden,Friesland,VBO,5.806767,53.191832
Jansoniusstraat,4,,616,8934BM,Leeuwarden,Leeuwarden,Friesland,VBO,5.806432,53.191691
Jansoniusstraat,4,,617,8934BM,Leeuwarden,Leeuwarden,Friesland,VBO,5.806498,53.191725
Jansoniusstraat,4,,631,8934BM,Leeuwarden,Leeuwarden,Friesland,VBO,5.806580,53.191711
Jansoniusstraat,4,,632,8934BM,Leeuwarden,Leeuwarden,Friesland,VBO,5.806764,53.191859
Jansoniusstraat,4,,633,8934BM,Leeuwarden,Leeuwarden,Friesland,VBO,5.806763,53.191889
Jansoniusstraat,4,,634,8934BM,Leeuwarden,Leeuwarden,Friesland,VBO,5.806431,53.191669
Jansoniusstraat,4,,635,8934BM,Leeuwarden,Leeuwarden,Friesland,VBO,5.806497,53.191703
Jansoniusstraat,4,,636,8934BM,Leeuwarden,Leeuwarden,Friesland,VBO,5.806580,53.191689
Jansoniusstraat,4,,637,8934BM,Leeuwarden,Leeuwarden,Friesland,VBO,5.806760,53.191919
Jansoniusstraat,4,,646,8934BM,Leeuwarden,Leeuwarden,Friesland,VBO,5.806761,53.191954
Jansoniusstraat,4,,647,8934BM,Leeuwarden,Leeuwarden,Friesland,VBO,5.806431,53.191646
Jansoniusstraat,4,,648,8934BM,Leeuwarden,Leeuwarden,Friesland,VBO,5.806497,53.191680
Jansoniusstraat,4,,649,8934BM,Leeuwarden,Leeuwarden,Friesland,VBO,5.806579,53.191666
Jansoniusstraat,4,,664,8934BM,Leeuwarden,Leeuwarden,Friesland,VBO,5.806760,53.191988
Jansoniusstraat,4,,665,8934BM,Leeuwarden,Leeuwarden,Friesland,VBO,5.806757,53.192022
Jansoniusstraat,4,,666,8934BM,Leeuwarden,Leeuwarden,Friesland,VBO,5.806431,53.191624
Jansoniusstraat,4,,667,8934BM,Leeuwarden,Leeuwarden,Friesland,VBO,5.806497,53.191658
Jansoniusstraat,4,,668,8934BM,Leeuwarden,Leeuwarden,Friesland,VBO,5.806579,53.191644
Jansoniusstraat,4,,669,8934BM,Leeuwarden,Leeuwarden,Friesland,VBO,5.806754,53.192052
Jansoniusstraat,4,,,8934BM,Leeuwarden,Leeuwarden,Friesland,VBO,5.806779,53.191819
Jansoniusstraat,5,,,8934BM,Leeuwarden,Leeuwarden,Friesland,VBO,5.807773,53.191791
Jansoniusstraat,6,,,8934BM,Leeuwarden,Leeuwarden,Friesland,VBO,5.806970,53.191632
Jansoniusstraat,7,,,8934BM,Leeuwarden,Leeuwarden,Friesland,VBO,5.807773,53.191737
Jansoniusstraat,8,,,8934BM,Leeuwarden,Leeuwarden,Friesland,VBO,5.807057,53.191409
Jansoniusstraat,9,,,8934BM,Leeuwarden,Leeuwarden,Friesland,VBO,5.807862,53.191692
Jansoniusstraat,10,,,8934BM,Leeuwarden,Leeuwarden,Friesland,VBO,5.806559,53.191352
Jansoniusstraat,15,,,8934BM,Leeuwarden,Leeuwarden,Friesland,VBO,5.807569,53.193019
Jansoniusstraat,17,,,8934BM,Leeuwarden,Leeuwarden,Friesland,VBO,5.807573,53.193073
Jansoniusstraat,19,,,8934BM,Leeuwarden,Leeuwarden,Friesland,VBO,5.807568,53.193132
Jansoniusstraat,21,,,8934BM,Leeuwarden,Leeuwarden,Friesland,VBO,5.807571,53.193195
Jansoniusstraat,23,,,8934BM,Leeuwarden,Leeuwarden,Friesland,VBO,5.807566,53.193246
Jansoniusstraat,25,,,8934BM,Leeuwarden,Leeuwarden,Friesland,VBO,5.807567,53.193303
Jansoniusstraat,27,,,8934BM,Leeuwarden,Leeuwarden,Friesland,VBO,5.807551,53.193461
Jansoniusstraat,29,,,8934BM,Leeuwarden,Leeuwarden,Friesland,VBO,5.807550,53.193518
Jansoniusstraat,31,,,8934BM,Leeuwarden,Leeuwarden,Friesland,VBO,5.807548,53.193575
Jansoniusstraat,33,,,8934BM,Leeuwarden,Leeuwarden,Friesland,VBO,5.807547,53.193632
Jansoniusstraat,35,,,8934BM,Leeuwarden,Leeuwarden,Friesland,VBO,5.807546,53.193689
Jansoniusstraat,37,,,8934BM,Leeuwarden,Leeuwarden,Friesland,VBO,5.807544,53.193746
Jansoniusstraat,39,,,8934BM,Leeuwarden,Leeuwarden,Friesland,VBO,5.807543,53.193803
Jansoniusstraat,41,,,8934BM,Leeuwarden,Leeuwarden,Friesland,VBO,5.807542,53.193860
Jansoniusstraat,43,,,8934BM,Leeuwarden,Leeuwarden,Friesland,VBO,5.807540,53.193917
Jansoniusstraat,45,,,8934BM,Leeuwarden,Leeuwarden,Friesland,VBO,5.807539,53.193974
Jansoniusstraat,47,,,8934BM,Leeuwarden,Leeuwarden,Friesland,VBO,5.807538,53.194031
Schooldijkje,1,,,8934BN,Leeuwarden,Leeuwarden,Friesland,VBO,5.809034,53.192164
Schooldijkje,3,,,8934BN,Leeuwarden,Leeuwarden,Friesland,VBO,5.808973,53.192120
Schooldijkje,4,,,8934BN,Leeuwarden,Leeuwarden,Friesland,VBO,5.808573,53.192454
Schooldijkje,5,,,8934BN,Leeuwarden,Leeuwarden,Friesland,VBO,5.808958,53.192066
Schooldijkje,6,,,8934BN,Leeuwarden,Leeuwarden,Friesland,VBO,5.808572,53.192400
Schooldijkje,7,,,8934BN,Leeuwarden,Leeuwarden,Friesland,VBO,5.808927,53.192021
Schooldijkje,8,,,8934BN,Leeuwarden,Leeuwarden,Friesland,VBO,5.808542,53.192346
Schooldijkje,9,,,8934BN,Leeuwarden,Leeuwarden,Friesland,VBO,5.808912,53.191967
Schooldijkje,10,,,8934BN,Leeuwarden,Leeuwarden,Friesland,VBO,5.808541,53.192301
Schooldijkje,11,,,8934BN,Leeuwarden,Leeuwarden,Friesland,VBO,5.808897,53.191931
Schooldijkje,12,,,8934BN,Leeuwarden,Leeuwarden,Friesland,VBO,5.808541,53.192247
Schooldijkje,13,,,8934BN,Leeuwarden,Leeuwarden,Friesland,VBO,5.808911,53.191868
Schooldijkje,14,,,8934BN,Leeuwarden,Leeuwarden,Friesland,VBO,5.808540,53.192202
Schooldijkje,16,,,8934BN,Leeuwarden,Leeuwarden,Friesland,VBO,5.808540,53.192148
Schooldijkje,18,,,8934BN,Leeuwarden,Leeuwarden,Friesland,VBO,5.808524,53.192103
Schooldijkje,20,,,8934BN,Leeuwarden,Leeuwarden,Friesland,VBO,5.808494,53.192031
Schooldijkje,22,,,8934BN,Leeuwarden,Leeuwarden,Friesland,VBO,5.808493,53.191996
Schooldijkje,24,,,8934BN,Leeuwarden,Leeuwarden,Friesland,VBO,5.808463,53.191942
Schooldijkje,26,,,8934BN,Leeuwarden,Leeuwarden,Friesland,VBO,5.808448,53.191897
Schooldijkje,28,,,8934BN,Leeuwarden,Leeuwarden,Friesland,VBO,5.808417,53.191843
Schooldijkje,30,,,8934BN,Leeuwarden,Leeuwarden,Friesland,VBO,5.808402,53.191807
Schooldijkje,32,,,8934BN,Leeuwarden,Leeuwarden,Friesland,VBO,5.808386,53.191771
Schooldijkje,34,,,8934BN,Leeuwarden,Leeuwarden,Friesland,VBO,5.808356,53.191717
Schooldijkje,36,,,8934BN,Leeuwarden,Leeuwarden,Friesland,VBO,5.808341,53.191673
Schooldijkje,38,,,8934BN,Leeuwarden,Leeuwarden,Friesland,VBO,5.808069,53.191413
Huizum-Dorp,3,,,8934BP,Leeuwarden,Leeuwarden,Friesland,VBO,5.810025,53.192601
Huizum-Dorp,7,a,,8934BP,Leeuwarden,Leeuwarden,Friesland,VBO,5.810239,53.192640
Huizum-Dorp,7,c,,8934BP,Leeuwarden,Leeuwarden,Friesland,VBO,5.810356,53.192649
Huizum-Dorp,7,d,,8934BP,Leeuwarden,Leeuwarden,Friesland,VBO,5.810417,53.192655
Huizum-Dorp,7,,,8934BP,Leeuwarden,Leeuwarden,Friesland,VBO,5.810145,53.192565
Huizum-Dorp,8,,,8934BP,Leeuwarden,Leeuwarden,Friesland,VBO,5.810386,53.192525
Huizum-Dorp,10,,,8934BP,Leeuwarden,Leeuwarden,Friesland,VBO,5.810323,53.192420
Huizum-Dorp,11,,,8934BP,Leeuwarden,Leeuwarden,Friesland,VBO,5.810442,53.192384
Huizum-Dorp,12,,,8934BP,Leeuwarden,Leeuwarden,Friesland,VBO,5.810532,53.192366
Huizum-Dorp,13,,,8934BP,Leeuwarden,Leeuwarden,Friesland,VBO,5.810651,53.192347
Huizum-Dorp,14,b,,8934BP,Leeuwarden,Leeuwarden,Friesland,VBO,5.810816,53.192329
Huizum-Dorp,14,c,,8934BP,Leeuwarden,Leeuwarden,Friesland,VBO,5.810891,53.192355
Huizum-Dorp,14,d,,8934BP,Leeuwarden,Leeuwarden,Friesland,VBO,5.811025,53.192319
Huizum-Dorp,14,,,8934BP,Leeuwarden,Leeuwarden,Friesland,VBO,5.810756,53.192347
Huizum-Dorp,15,,,8934BP,Leeuwarden,Leeuwarden,Friesland,VBO,5.811522,53.192641
Huizum-Dorp,16,,,8934BP,Leeuwarden,Leeuwarden,Friesland,VBO,5.811935,53.192073
Huizum-Dorp,17,a,,8934BS,Leeuwarden,Leeuwarden,Friesland,VBO,5.811446,53.192408
Huizum-Dorp,17,b,,8934BS,Leeuwarden,Leeuwarden,Friesland,VBO,5.811855,53.192446
Huizum-Dorp,61,,,8934BS,Leeuwarden,Leeuwarden,Friesland,VBO,5.811871,53.191660
Huizum-Dorp,64,,,8934BS,Leeuwarden,Leeuwarden,Friesland,VBO,5.811903,53.191840
Huizum-Dorp,65,,,8934BS,Leeuwarden,Leeuwarden,Friesland,VBO,5.811979,53.191929
Huizum-Dorp,66,,,8934BS,Leeuwarden,Leeuwarden,Friesland,VBO,5.811964,53.191983
Huizum-Dorp,67,a,,8934BS,Leeuwarden,Leeuwarden,Friesland,VBO,5.812087,53.191171
Huizum-Dorp,67,,,8934BS,Leeuwarden,Leeuwarden,Friesland,VBO,5.811296,53.191241
Huizum-Dorp,68,,,8934BS,Leeuwarden,Leeuwarden,Friesland,VBO,5.811423,53.191662
Huizum-Dorp,73,,,8934BS,Leeuwarden,Leeuwarden,Friesland,VBO,5.811544,53.191805
Huizum-Dorp,74,,,8934BS,Leeuwarden,Leeuwarden,Friesland,VBO,5.811589,53.191877
Huizum-Dorp,75,,,8934BS,Leeuwarden,Leeuwarden,Friesland,VBO,5.811656,53.191994
Huizum-Dorp,76,,,8934BS,Leeuwarden,Leeuwarden,Friesland,VBO,5.811561,53.192003
Huizum-Dorp,77,,,8934BS,Leeuwarden,Leeuwarden,Friesland,VBO,5.811492,53.192039
Huizum-Dorp,78,,,8934BS,Leeuwarden,Leeuwarden,Friesland,VBO,5.811403,53.192058
Huizum-Dorp,79,,,8934BS,Leeuwarden,Leeuwarden,Friesland,VBO,5.811353,53.191931
Huizum-Dorp,82,,,8934BS,Leeuwarden,Leeuwarden,Friesland,VBO,5.811232,53.192112
Huizum-Dorp,93,,,8934BS,Leeuwarden,Leeuwarden,Friesland,VBO,5.810844,53.192176
Huizum-Dorp,94,,,8934BS,Leeuwarden,Leeuwarden,Friesland,VBO,5.810769,53.192194
Huizum-Dorp,95,,,8934BS,Leeuwarden,Leeuwarden,Friesland,VBO,5.810695,53.192203
Huizum-Dorp,96,,,8934BS,Leeuwarden,Leeuwarden,Friesland,VBO,5.810605,53.192222
Huizum-Dorp,97,,,8934BS,Leeuwarden,Leeuwarden,Friesland,VBO,5.810470,53.192222
Huizum-Dorp,98,a,,8934BS,Leeuwarden,Leeuwarden,Friesland,VBO,5.810292,53.192313
Huizum-Dorp,98,,,8934BS,Leeuwarden,Leeuwarden,Friesland,VBO,5.810366,53.192276
Huizum-Dorp,99,,,8934BS,Leeuwarden,Leeuwarden,Friesland,VBO,5.810202,53.192340
Huizum-Dorp,100,,,8934BS,Leeuwarden,Leeuwarden,Friesland,VBO,5.810008,53.192368
Tijnjedijk,1,,,8934BT,Leeuwarden,Leeuwarden,Friesland,VBO,5.812478,53.192476
Tijnjedijk,2,,,8934BT,Leeuwarden,Leeuwarden,Friesland,VBO,5.812085,53.192100
Tijnjedijk,4,,,8934BT,Leeuwarden,Leeuwarden,Friesland,VBO,5.812175,53.192126
Tijnjedijk,5,,,8934BT,Leeuwarden,Leeuwarden,Friesland,VBO,5.813152,53.192962
Tijnjedijk,6,,,8934BT,Leeuwarden,Leeuwarden,Friesland,VBO,5.812288,53.192138
Tijnjedijk,8,,,8934BT,Leeuwarden,Leeuwarden,Friesland,VBO,5.812415,53.192143
Tijnjedijk,10,,,8934BT,Leeuwarden,Leeuwarden,Friesland,VBO,5.812460,53.192152
Tijnjedijk,12,,,8934BT,Leeuwarden,Leeuwarden,Friesland,VBO,5.812579,53.192143
Tijnjedijk,14,,,8934BT,Leeuwarden,Leeuwarden,Friesland,VBO,5.812804,53.192196
Tijnjedijk,16,,,8934BT,Leeuwarden,Leeuwarden,Friesland,VBO,5.812894,53.192196
Tijnjedijk,18,,,8934BT,Leeuwarden,Leeuwarden,Friesland,VBO,5.812988,53.192208
Tijnjedijk,19,,,8934BT,Leeuwarden,Leeuwarden,Friesland,VBO,5.814519,53.193004
Tijnjedijk,20,,,8934BT,Leeuwarden,Leeuwarden,Friesland,VBO,5.813080,53.192212
Tijnjedijk,22,a,,8934BT,Leeuwarden,Leeuwarden,Friesland,VBO,5.813298,53.192246
Tijnjedijk,22,,,8934BT,Leeuwarden,Leeuwarden,Friesland,VBO,5.813171,53.192214
Drachtsterweg,2,,,8934BV,Leeuwarden,Leeuwarden,Friesland,VBO,5.816520,53.194792
Drachtsterweg,4,,,8934BV,Leeuwarden,Leeuwarden,Friesland,VBO,5.815963,53.194195
Drachtsterweg,6,,,8934BV,Leeuwarden,Leeuwarden,Friesland,VBO,5.816006,53.193730
Drachtsterweg,8,,,8934BV,Leeuwarden,Leeuwarden,Friesland,VBO,5.815674,53.193453
Badweg,1,,,8934BW,Leeuwarden,Leeuwarden,Friesland,VBO,5.798445,53.187888
Pasveerweg,1,,,8934BX,Leeuwarden,Leeuwarden,Friesland,VBO,5.808820,53.191743
Pasveerweg,2,,,8934BX,Leeuwarden,Leeuwarden,Friesland,VBO,5.808548,53.191510
Pasveerweg,3,,,8934BX,Leeuwarden,Leeuwarden,Friesland,VBO,5.808879,53.191689
Pasveerweg,4,,,8934BX,Leeuwarden,Leeuwarden,Friesland,VBO,5.808668,53.191537
Pasveerweg,5,,,8934BX,Leeuwarden,Leeuwarden,Friesland,VBO,5.808954,53.191679
Pasveerweg,6,,,8934BX,Leeuwarden,Leeuwarden,Friesland,VBO,5.808728,53.191474
Pasveerweg,7,,,8934BX,Leeuwarden,Leeuwarden,Friesland,VBO,5.809044,53.191661
Pasveerweg,8,,,8934BX,Leeuwarden,Leeuwarden,Friesland,VBO,5.808396,53.191205
Pasveerweg,9,,,8934BX,Leeuwarden,Leeuwarden,Friesland,VBO,5.809118,53.191652
Pasveerweg,10,,,8934BX,Leeuwarden,Leeuwarden,Friesland,VBO,5.808485,53.191187
Pasveerweg,11,,,8934BX,Leeuwarden,Leeuwarden,Friesland,VBO,5.809193,53.191679
Pasveerweg,12,,,8934BX,Leeuwarden,Leeuwarden,Friesland,VBO,5.808591,53.191231
Pasveerweg,13,,,8934BX,Leeuwarden,Leeuwarden,Friesland,VBO,5.809537,53.191641
Pasveerweg,14,,,8934BX,Leeuwarden,Leeuwarden,Friesland,VBO,5.808680,53.191213
Pasveerweg,15,,,8934BX,Leeuwarden,Leeuwarden,Friesland,VBO,5.809611,53.191587
Pasveerweg,16,,,8934BX,Leeuwarden,Leeuwarden,Friesland,VBO,5.808800,53.191249
Pasveerweg,17,,,8934BX,Leeuwarden,Leeuwarden,Friesland,VBO,5.809686,53.191578
Pasveerweg,18,,,8934BX,Leeuwarden,Leeuwarden,Friesland,VBO,5.808890,53.191239
Pasveerweg,19,,,8934BX,Leeuwarden,Leeuwarden,Friesland,VBO,5.809761,53.191569
Pasveerweg,20,,,8934BX,Leeuwarden,Leeuwarden,Friesland,VBO,5.809085,53.191346
Pasveerweg,21,,,8934BX,Leeuwarden,Leeuwarden,Friesland,VBO,5.809851,53.191559
Pasveerweg,22,,,8934BX,Leeuwarden,Leeuwarden,Friesland,VBO,5.809251,53.191409
Pasveerweg,23,,,8934BX,Leeuwarden,Leeuwarden,Friesland,VBO,5.809926,53.191577
Pasveerweg,24,,,8934BX,Leeuwarden,Leeuwarden,Friesland,VBO,5.809415,53.191372
Pasveerweg,25,,,8934BX,Leeuwarden,Leeuwarden,Friesland,VBO,5.810030,53.191577
Pasveerweg,26,,,8934BX,Leeuwarden,Leeuwarden,Friesland,VBO,5.809504,53.191282
Pasveerweg,27,,,8934BX,Leeuwarden,Leeuwarden,Friesland,VBO,5.810120,53.191576
Pasveerweg,28,,,8934BX,Leeuwarden,Leeuwarden,Friesland,VBO,5.809713,53.191281
Pasveerweg,29,,,8934BX,Leeuwarden,Leeuwarden,Friesland,VBO,5.810255,53.191594
Pasveerweg,30,,,8934BX,Leeuwarden,Leeuwarden,Friesland,VBO,5.809906,53.191275
Pasveerweg,31,,,8934BX,Leeuwarden,Leeuwarden,Friesland,VBO,5.810315,53.191612
Pasveerweg,33,,,8934BX,Leeuwarden,Leeuwarden,Friesland,VBO,5.810375,53.191683
Pasveerweg,34,,,8934BX,Leeuwarden,Leeuwarden,Friesland,VBO,5.810191,53.191208
Pasveerweg,35,,,8934BX,Leeuwarden,Leeuwarden,Friesland,VBO,5.810722,53.191925
Pasveerweg,36,,,8934BX,Leeuwarden,Leeuwarden,Friesland,VBO,5.810341,53.191234
Pasveerweg,37,,,8934BX,Leeuwarden,Leeuwarden,Friesland,VBO,5.810797,53.191960
Pasveerweg,39,,,8934BX,Leeuwarden,Leeuwarden,Friesland,VBO,5.810813,53.192023
Pasveerweg,40,,,8934BX,Leeuwarden,Leeuwarden,Friesland,VBO,5.811318,53.191716
Pieter Meeterstraat,2,,,8934BZ,Leeuwarden,Leeuwarden,Friesland,VBO,5.812353,53.191964
Pieter Meeterstraat,4,,,8934BZ,Leeuwarden,Leeuwarden,Friesland,VBO,5.812353,53.191919
Pieter Meeterstraat,6,,,8934BZ,Leeuwarden,Leeuwarden,Friesland,VBO,5.812352,53.191856
Pieter Meeterstraat,8,,,8934BZ,Leeuwarden,Leeuwarden,Friesland,VBO,5.812336,53.191784
Pieter Meeterstraat,10,,,8934BZ,Leeuwarden,Leeuwarden,Friesland,VBO,5.812351,53.191739
Pieter Meeterstraat,12,,,8934BZ,Leeuwarden,Leeuwarden,Friesland,VBO,5.812350,53.191694
Pieter Meeterstraat,14,,,8934BZ,Leeuwarden,Leeuwarden,Friesland,VBO,5.812079,53.191471
Pieter Meeterstraat,16,,,8934BZ,Leeuwarden,Leeuwarden,Friesland,VBO,5.812180,53.191468
Pieter Meeterstraat,18,,,8934BZ,Leeuwarden,Leeuwarden,Friesland,VBO,5.812287,53.191476
Pieter Meeterstraat,20,,,8934BZ,Leeuwarden,Leeuwarden,Friesland,VBO,5.812346,53.191500
Pieter Meeterstraat,22,,,8934BZ,Leeuwarden,Leeuwarden,Friesland,VBO,5.812437,53.191515
Pieter Meeterstraat,24,,,8934BZ,Leeuwarden,Leeuwarden,Friesland,VBO,5.812536,53.191522
Pieter Meeterstraat,26,,,8934BZ,Leeuwarden,Leeuwarden,Friesland,VBO,5.812633,53.191496
Pieter Meeterstraat,28,,,8934BZ,Leeuwarden,Leeuwarden,Friesland,VBO,5.812693,53.191486
Tjallingaweg,2,,,8934CA,Leeuwarden,Leeuwarden,Friesland,VBO,5.812951,53.191890
Tjallingaweg,3,,,8934CA,Leeuwarden,Leeuwarden,Friesland,VBO,5.813176,53.191565
Tjallingaweg,4,,,8934CA,Leeuwarden,Leeuwarden,Friesland,VBO,5.812891,53.191845
Tjallingaweg,5,,,8934CA,Leeuwarden,Leeuwarden,Friesland,VBO,5.813175,53.191521
Tjallingaweg,6,,,8934CA,Leeuwarden,Leeuwarden,Friesland,VBO,5.812875,53.191800
Tjallingaweg,7,,,8934CA,Leeuwarden,Leeuwarden,Friesland,VBO,5.813190,53.191467
Tjallingaweg,8,,,8934CA,Leeuwarden,Leeuwarden,Friesland,VBO,5.812845,53.191764
Tjallingaweg,9,,,8934CA,Leeuwarden,Leeuwarden,Friesland,VBO,5.813189,53.191422
Tjallingaweg,10,,,8934CA,Leeuwarden,Leeuwarden,Friesland,VBO,5.812814,53.191702
Tjallingaweg,11,,,8934CA,Leeuwarden,Leeuwarden,Friesland,STA,5.813052,53.191002
Tjallingaweg,12,,,8934CA,Leeuwarden,Leeuwarden,Friesland,STA,5.813082,53.190864
Tjallingaweg,13,,,8934CA,Leeuwarden,Leeuwarden,Friesland,STA,5.813105,53.190750
Tjallingaweg,14,,,8934CA,Leeuwarden,Leeuwarden,Friesland,STA,5.813133,53.190641
Tjallingaweg,15,,,8934CA,Leeuwarden,Leeuwarden,Friesland,STA,5.813154,53.190528
Tjallingaweg,17,,,8934CA,Leeuwarden,Leeuwarden,Friesland,STA,5.813169,53.190408
Tjallingaweg,18,,,8934CA,Leeuwarden,Leeuwarden,Friesland,STA,5.813150,53.190234
Tjallingaweg,19,,,8934CA,Leeuwarden,Leeuwarden,Friesland,STA,5.813174,53.190139
Tjallingaweg,20,,,8934CA,Leeuwarden,Leeuwarden,Friesland,STA,5.813135,53.190029
Tjallingaweg,21,,,8934CB,Leeuwarden,Leeuwarden,Friesland,STA,5.813151,53.189885
Tjallingaweg,22,,,8934CB,Leeuwarden,Leeuwarden,Friesland,STA,5.813126,53.189762
Tjallingaweg,23,,,8934CB,Leeuwarden,Leeuwarden,Friesland,STA,5.813161,53.189645
Tjallingaweg,24,,,8934CB,Leeuwarden,Leeuwarden,Friesland,STA,5.813526,53.189791
Tjallingaweg,25,,,8934CB,Leeuwarden,Leeuwarden,Friesland,STA,5.813505,53.189889
Tjallingaweg,26,,,8934CB,Leeuwarden,Leeuwarden,Friesland,STA,5.813550,53.190025
Tjallingaweg,27,,,8934CB,Leeuwarden,Leeuwarden,Friesland,STA,5.813540,53.190135
Tjallingaweg,28,,,8934CB,Leeuwarden,Leeuwarden,Friesland,STA,5.814037,53.190200
Tjallingaweg,30,,,8934CB,Leeuwarden,Leeuwarden,Friesland,STA,5.814379,53.190167
Tjallingaweg,31,,,8934CB,Leeuwarden,Leeuwarden,Friesland,STA,5.814561,53.190178
Tjallingaweg,32,,,8934CB,Leeuwarden,Leeuwarden,Friesland,STA,5.814936,53.190194
Tjallingaweg,33,,,8934CB,Leeuwarden,Leeuwarden,Friesland,STA,5.814909,53.190301
Tjallingaweg,34,,,8934CB,Leeuwarden,Leeuwarden,Friesland,STA,5.814697,53.190418
Tjallingaweg,35,,,8934CB,Leeuwarden,Leeuwarden,Friesland,STA,5.814535,53.190405
Tjallingaweg,36,,,8934CB,Leeuwarden,Leeuwarden,Friesland,STA,5.814312,53.190442
Tjallingaweg,37,,,8934CB,Leeuwarden,Leeuwarden,Friesland,STA,5.814155,53.190435
Tjallingaweg,38,,,8934CB,Leeuwarden,Leeuwarden,Friesland,STA,5.813935,53.190505
Tjallingaweg,39,,,8934CB,Leeuwarden,Leeuwarden,Friesland,STA,5.813734,53.190477
Tjallingaweg,40,,,8934CB,Leeuwarden,Leeuwarden,Friesland,STA,5.813523,53.190503
Tjallingaweg,41,,,8934CB,Leeuwarden,Leeuwarden,Friesland,STA,5.813531,53.190250
Tjallingaweg,42,,,8934CB,Leeuwarden,Leeuwarden,Friesland,STA,5.813841,53.190184
Tjallingaweg,43,,,8934CB,Leeuwarden,Leeuwarden,Friesland,STA,5.813775,53.189816
Tjallingaweg,44,,,8934CB,Leeuwarden,Leeuwarden,Friesland,STA,5.813952,53.189910
Tjallingaweg,45,,,8934CB,Leeuwarden,Leeuwarden,Friesland,STA,5.814134,53.189980
Tjallingaweg,46,,,8934CB,Leeuwarden,Leeuwarden,Friesland,STA,5.814327,53.189994
Tjallingaweg,47,,,8934CB,Leeuwarden,Leeuwarden,Friesland,STA,5.814520,53.190009
de Pelsweg,1,,,8934CC,Leeuwarden,Leeuwarden,Friesland,VBO,5.809899,53.191937
de Pelsweg,2,,,8934CC,Leeuwarden,Leeuwarden,Friesland,VBO,5.809543,53.192225
de Pelsweg,3,,,8934CC,Leeuwarden,Leeuwarden,Friesland,VBO,5.810004,53.191945
de Pelsweg,4,,,8934CC,Leeuwarden,Leeuwarden,Friesland,VBO,5.809557,53.192171
de Pelsweg,5,,,8934CC,Leeuwarden,Leeuwarden,Friesland,VBO,5.810078,53.191909
de Pelsweg,6,,,8934CC,Leeuwarden,Leeuwarden,Friesland,VBO,5.809527,53.192118
de Pelsweg,7,,,8934CC,Leeuwarden,Leeuwarden,Friesland,VBO,5.810138,53.191882
de Pelsweg,8,,,8934CC,Leeuwarden,Leeuwarden,Friesland,VBO,5.809496,53.192046
de Pelsweg,9,,,8934CC,Leeuwarden,Leeuwarden,Friesland,VBO,5.810198,53.191855
de Pelsweg,10,,,8934CC,Leeuwarden,Leeuwarden,Friesland,VBO,5.809511,53.191983
de Pelsweg,11,,,8934CC,Leeuwarden,Leeuwarden,Friesland,VBO,5.810197,53.191801
de Pelsweg,12,,,8934CC,Leeuwarden,Leeuwarden,Friesland,VBO,5.809420,53.191947
Duivesteinstraat,1,,,8934CD,Leeuwarden,Leeuwarden,Friesland,VBO,5.802916,53.192374
Duivesteinstraat,3,,,8934CD,Leeuwarden,Leeuwarden,Friesland,VBO,5.802796,53.192330
Duivesteinstraat,5,,,8934CD,Leeuwarden,Leeuwarden,Friesland,VBO,5.802796,53.192285
Duivesteinstraat,7,,,8934CD,Leeuwarden,Leeuwarden,Friesland,VBO,5.802870,53.192213
Duivesteinstraat,9,,,8934CD,Leeuwarden,Leeuwarden,Friesland,VBO,5.802764,53.192087
Duivesteinstraat,11,,,8934CD,Leeuwarden,Leeuwarden,Friesland,VBO,5.802823,53.192042
Duivesteinstraat,13,,,8934CD,Leeuwarden,Leeuwarden,Friesland,VBO,5.802898,53.192033
Duivesteinstraat,15,,,8934CD,Leeuwarden,Leeuwarden,Friesland,VBO,5.802973,53.192024
Duivesteinstraat,17,,,8934CD,Leeuwarden,Leeuwarden,Friesland,VBO,5.803078,53.192059
Duivesteinstraat,19,,,8934CD,Leeuwarden,Leeuwarden,Friesland,VBO,5.803274,53.192034
Duivesteinstraat,2,,,8934CE,Leeuwarden,Leeuwarden,Friesland,VBO,5.802390,53.192116
Duivesteinstraat,4,,,8934CE,Leeuwarden,Leeuwarden,Friesland,VBO,5.802345,53.192062
Duivesteinstraat,6,,,8934CE,Leeuwarden,Leeuwarden,Friesland,VBO,5.802419,53.192008
Duivesteinstraat,8,,,8934CE,Leeuwarden,Leeuwarden,Friesland,VBO,5.802344,53.191963
Duivesteinstraat,10,,,8934CE,Leeuwarden,Leeuwarden,Friesland,VBO,5.802641,53.191710
Duivesteinstraat,12,,,8934CE,Leeuwarden,Leeuwarden,Friesland,VBO,5.802731,53.191755
Duivesteinstraat,14,,,8934CE,Leeuwarden,Leeuwarden,Friesland,VBO,5.802806,53.191746
Duivesteinstraat,16,,,8934CE,Leeuwarden,Leeuwarden,Friesland,VBO,5.802865,53.191692
van Wageningenstraat,1,,,8934CG,Leeuwarden,Leeuwarden,Friesland,VBO,5.802365,53.192583
van Wageningenstraat,3,,,8934CG,Leeuwarden,Leeuwarden,Friesland,VBO,5.802290,53.192583
van Wageningenstraat,5,,,8934CG,Leeuwarden,Leeuwarden,Friesland,VBO,5.802185,53.192611
van Wageningenstraat,7,,,8934CG,Leeuwarden,Leeuwarden,Friesland,VBO,5.802152,53.192633
van Wageningenstraat,9,,,8934CG,Leeuwarden,Leeuwarden,Friesland,VBO,5.801975,53.192548
van Wageningenstraat,11,,,8934CG,Leeuwarden,Leeuwarden,Friesland,VBO,5.801931,53.192558
van Wageningenstraat,13,,,8934CG,Leeuwarden,Leeuwarden,Friesland,VBO,5.801811,53.192567
van Wageningenstraat,15,,,8934CG,Leeuwarden,Leeuwarden,Friesland,VBO,5.801751,53.192576
van Wageningenstraat,17,,,8934CG,Leeuwarden,Leeuwarden,Friesland,VBO,5.801662,53.192585
van Wageningenstraat,19,,,8934CG,Leeuwarden,Leeuwarden,Friesland,VBO,5.801617,53.192604
van Wageningenstraat,21,,,8934CG,Leeuwarden,Leeuwarden,Friesland,VBO,5.801497,53.192586
van Wageningenstraat,23,a,,8934CG,Leeuwarden,Leeuwarden,Friesland,VBO,5.801304,53.192667
van Wageningenstraat,23,b,,8934CG,Leeuwarden,Leeuwarden,Friesland,VBO,5.801252,53.192673
van Wageningenstraat,23,c,,8934CG,Leeuwarden,Leeuwarden,Friesland,VBO,5.801201,53.192677
van Wageningenstraat,23,d,,8934CG,Leeuwarden,Leeuwarden,Friesland,VBO,5.801146,53.192683
van Wageningenstraat,23,,,8934CG,Leeuwarden,Leeuwarden,Friesland,VBO,5.801437,53.192595
van Wageningenstraat,25,,,8934CG,Leeuwarden,Leeuwarden,Friesland,VBO,5.801226,53.192425
van Wageningenstraat,27,,,8934CH,Leeuwarden,Leeuwarden,Friesland,VBO,5.801106,53.192399
van Wageningenstraat,29,,,8934CH,Leeuwarden,Leeuwarden,Friesland,VBO,5.801091,53.192336
van Wageningenstraat,31,,,8934CH,Leeuwarden,Leeuwarden,Friesland,VBO,5.801075,53.192300
van Wageningenstraat,33,,,8934CH,Leeuwarden,Leeuwarden,Friesland,VBO,5.801075,53.192246
van Wageningenstraat,35,,,8934CH,Leeuwarden,Leeuwarden,Friesland,VBO,5.801059,53.192201
van Wageningenstraat,37,,,8934CH,Leeuwarden,Leeuwarden,Friesland,VBO,5.801044,53.192156
van Wageningenstraat,39,,,8934CH,Leeuwarden,Leeuwarden,Friesland,VBO,5.800999,53.192111
van Wageningenstraat,41,,,8934CH,Leeuwarden,Leeuwarden,Friesland,VBO,5.800968,53.192067
van Wageningenstraat,43,,,8934CH,Leeuwarden,Leeuwarden,Friesland,VBO,5.800968,53.192004
van Wageningenstraat,45,,,8934CH,Leeuwarden,Leeuwarden,Friesland,VBO,5.800952,53.191959
van Wageningenstraat,47,,,8934CH,Leeuwarden,Leeuwarden,Friesland,VBO,5.801042,53.191905
van Wageningenstraat,49,,,8934CH,Leeuwarden,Leeuwarden,Friesland,VBO,5.800981,53.191824
van Wageningenstraat,51,,,8934CH,Leeuwarden,Leeuwarden,Friesland,VBO,5.800876,53.191788
van Wageningenstraat,53,,,8934CH,Leeuwarden,Leeuwarden,Friesland,VBO,5.800861,53.191744
van Wageningenstraat,55,,,8934CH,Leeuwarden,Leeuwarden,Friesland,VBO,5.800907,53.191680
Agora,1,k,,8934CJ,Leeuwarden,Leeuwarden,Friesland,VBO,5.803578,53.193895
Agora,1,,,8934CJ,Leeuwarden,Leeuwarden,Friesland,VBO,5.804072,53.194257
Agora,2,,,8934CJ,Leeuwarden,Leeuwarden,Friesland,VBO,5.802235,53.194794
Agora,4,,,8934CJ,Leeuwarden,Leeuwarden,Friesland,VBO,5.802746,53.194873
Agora,6,a,,8934CJ,Leeuwarden,Leeuwarden,Friesland,VBO,5.802487,53.195225
Agora,6,,,8934CJ,Leeuwarden,Leeuwarden,Friesland,VBO,5.802487,53.195201
Agora,8,,,8934CJ,Leeuwarden,Leeuwarden,Friesland,VBO,5.802569,53.195346
De Citrus,2,,,8934CM,Leeuwarden,Leeuwarden,Friesland,VBO,5.813176,53.191619
De Citrus,4,,,8934CM,Leeuwarden,Leeuwarden,Friesland,VBO,5.813839,53.191649
De Pirus,2,,,8934CN,Leeuwarden,Leeuwarden,Friesland,VBO,5.813839,53.191595
De Pirus,4,,,8934CN,Leeuwarden,Leeuwarden,Friesland,VBO,5.813853,53.191550
De Pirus,6,,,8934CN,Leeuwarden,Leeuwarden,Friesland,VBO,5.813853,53.191496
De Pirus,8,,,8934CN,Leeuwarden,Leeuwarden,Friesland,VBO,5.813852,53.191452
De Rubus,1,,,8934CP,Leeuwarden,Leeuwarden,Friesland,VBO,5.813204,53.191368
De Rubus,3,,,8934CP,Leeuwarden,Leeuwarden,Friesland,VBO,5.813867,53.191398
De Rubus,5,,,8934CP,Leeuwarden,Leeuwarden,Friesland,VBO,5.814127,53.191434
De Rubus,7,,,8934CP,Leeuwarden,Leeuwarden,Friesland,VBO,5.814217,53.191442
De Rubus,9,,,8934CP,Leeuwarden,Leeuwarden,Friesland,VBO,5.814292,53.191442
De Rubus,11,,,8934CP,Leeuwarden,Leeuwarden,Friesland,VBO,5.814367,53.191451
De Rubus,13,,,8934CP,Leeuwarden,Leeuwarden,Friesland,VBO,5.814456,53.191451
De Rubus,15,,,8934CP,Leeuwarden,Leeuwarden,Friesland,VBO,5.814531,53.191459
De Rubus,17,,,8934CP,Leeuwarden,Leeuwarden,Friesland,VBO,5.814621,53.191459
De Rubus,19,,,8934CP,Leeuwarden,Leeuwarden,Friesland,VBO,5.814696,53.191468
De Prunus,1,,,8934CR,Leeuwarden,Leeuwarden,Friesland,VBO,5.814709,53.191212
De Prunus,3,,,8934CR,Leeuwarden,Leeuwarden,Friesland,VBO,5.814619,53.191213
De Prunus,5,,,8934CR,Leeuwarden,Leeuwarden,Friesland,VBO,5.814544,53.191204
De Prunus,7,,,8934CR,Leeuwarden,Leeuwarden,Friesland,VBO,5.814454,53.191204
De Prunus,9,,,8934CR,Leeuwarden,Leeuwarden,Friesland,VBO,5.814379,53.191205
De Prunus,11,,,8934CR,Leeuwarden,Leeuwarden,Friesland,VBO,5.814321,53.191202
De Prunus,13,,,8934CR,Leeuwarden,Leeuwarden,Friesland,VBO,5.814246,53.191202
De Prunus,15,,,8934CR,Leeuwarden,Leeuwarden,Friesland,VBO,5.814156,53.191194
De Prunus,17,,,8934CR,Leeuwarden,Leeuwarden,Friesland,VBO,5.813658,53.191161
De Prunus,19,,,8934CR,Leeuwarden,Leeuwarden,Friesland,VBO,5.813672,53.191116
De Prunus,21,,,8934CR,Leeuwarden,Leeuwarden,Friesland,VBO,5.813672,53.191062
De Prunus,23,,,8934CR,Leeuwarden,Leeuwarden,Friesland,VBO,5.813641,53.191008
De Prunus,25,,,8934CR,Leeuwarden,Leeuwarden,Friesland,VBO,5.813686,53.190963
De Prunus,27,,,8934CR,Leeuwarden,Leeuwarden,Friesland,VBO,5.813685,53.190918
De Prunus,29,,,8934CR,Leeuwarden,Leeuwarden,Friesland,VBO,5.813700,53.190873
De Prunus,31,,,8934CR,Leeuwarden,Leeuwarden,Friesland,VBO,5.813699,53.190819
De Prunus,33,,,8934CR,Leeuwarden,Leeuwarden,Friesland,VBO,5.813714,53.190774
De Prunus,35,,,8934CR,Leeuwarden,Leeuwarden,Friesland,VBO,5.813713,53.190720
De Prunus,37,,,8934CR,Leeuwarden,Leeuwarden,Friesland,VBO,5.814206,53.190774
De Prunus,39,,,8934CR,Leeuwarden,Leeuwarden,Friesland,VBO,5.814301,53.190780
De Prunus,41,,,8934CR,Leeuwarden,Leeuwarden,Friesland,VBO,5.814370,53.190782
De Prunus,43,,,8934CR,Leeuwarden,Leeuwarden,Friesland,VBO,5.814445,53.190782
De Prunus,45,,,8934CR,Leeuwarden,Leeuwarden,Friesland,VBO,5.814520,53.190790
De Prunus,47,,,8934CR,Leeuwarden,Leeuwarden,Friesland,VBO,5.814610,53.190790
De Prunus,49,,,8934CR,Leeuwarden,Leeuwarden,Friesland,VBO,5.814685,53.190790
De Prunus,51,,,8934CR,Leeuwarden,Leeuwarden,Friesland,VBO,5.814759,53.190799
De Malus,2,k,,8934CS,Leeuwarden,Leeuwarden,Friesland,VBO,5.814744,53.191771
De Malus,2,,,8934CS,Leeuwarden,Leeuwarden,Friesland,VBO,5.814771,53.191467
De Malus,4,,,8934CS,Leeuwarden,Leeuwarden,Friesland,VBO,5.814808,53.191218
De Malus,6,,,8934CS,Leeuwarden,Leeuwarden,Friesland,VBO,5.814859,53.190804
De Malus,3,,,8934CV,Leeuwarden,Leeuwarden,Friesland,VBO,5.815002,53.192142
De Malus,5,,,8934CV,Leeuwarden,Leeuwarden,Friesland,VBO,5.815054,53.192142
De Malus,7,,,8934CV,Leeuwarden,Leeuwarden,Friesland,VBO,5.815159,53.192142
De Malus,9,,,8934CV,Leeuwarden,Leeuwarden,Friesland,VBO,5.815211,53.192141
De Malus,11,,,8934CV,Leeuwarden,Leeuwarden,Friesland,VBO,5.815001,53.192120
De Malus,13,,,8934CV,Leeuwarden,Leeuwarden,Friesland,VBO,5.815054,53.192119
De Malus,15,,,8934CV,Leeuwarden,Leeuwarden,Friesland,VBO,5.815106,53.192119
De Malus,17,,,8934CV,Leeuwarden,Leeuwarden,Friesland,VBO,5.815106,53.192142
De Malus,19,,,8934CV,Leeuwarden,Leeuwarden,Friesland,VBO,5.815211,53.192119
De Malus,21,,,8934CV,Leeuwarden,Leeuwarden,Friesland,VBO,5.814917,53.192105
De Malus,23,,,8934CV,Leeuwarden,Leeuwarden,Friesland,VBO,5.815159,53.192119
De Malus,25,,,8934CV,Leeuwarden,Leeuwarden,Friesland,VBO,5.814970,53.192105
De Malus,27,,,8934CV,Leeuwarden,Leeuwarden,Friesland,VBO,5.815022,53.192104
De Malus,29,,,8934CV,Leeuwarden,Leeuwarden,Friesland,VBO,5.815074,53.192104
De Malus,31,,,8934CV,Leeuwarden,Leeuwarden,Friesland,VBO,5.815127,53.192104
De Malus,33,,,8934CV,Leeuwarden,Leeuwarden,Friesland,VBO,5.814917,53.192082
De Malus,35,,,8934CV,Leeuwarden,Leeuwarden,Friesland,VBO,5.814970,53.192082
De Malus,37,,,8934CV,Leeuwarden,Leeuwarden,Friesland,VBO,5.815022,53.192082
De Malus,39,,,8934CV,Leeuwarden,Leeuwarden,Friesland,VBO,5.815074,53.192082
De Malus,41,,,8934CV,Leeuwarden,Leeuwarden,Friesland,VBO,5.815127,53.192082
De Malus,43,,,8934CV,Leeuwarden,Leeuwarden,Friesland,VBO,5.815097,53.192074
De Malus,45,,,8934CV,Leeuwarden,Leeuwarden,Friesland,VBO,5.815150,53.192074
De Malus,47,,,8934CV,Leeuwarden,Leeuwarden,Friesland,VBO,5.815202,53.192074
De Malus,49,,,8934CV,Leeuwarden,Leeuwarden,Friesland,VBO,5.815254,53.192073
De Malus,51,,,8934CV,Leeuwarden,Leeuwarden,Friesland,VBO,5.815307,53.192073
De Malus,53,,,8934CV,Leeuwarden,Leeuwarden,Friesland,VBO,5.815097,53.192052
De Malus,55,,,8934CV,Leeuwarden,Leeuwarden,Friesland,VBO,5.815149,53.192051
De Malus,57,,,8934CV,Leeuwarden,Leeuwarden,Friesland,VBO,5.815202,53.192051
De Malus,59,,,8934CV,Leeuwarden,Leeuwarden,Friesland,VBO,5.815254,53.192051
De Malus,61,,,8934CV,Leeuwarden,Leeuwarden,Friesland,VBO,5.815307,53.192051
De Malus,63,,,8934CV,Leeuwarden,Leeuwarden,Friesland,VBO,5.815320,53.192099
De Malus,67,,,8934CW,Leeuwarden,Leeuwarden,Friesland,VBO,5.815014,53.191552
De Malus,69,,,8934CW,Leeuwarden,Leeuwarden,Friesland,VBO,5.815043,53.191552
De Malus,71,,,8934CW,Leeuwarden,Leeuwarden,Friesland,VBO,5.815073,53.191552
De Malus,73,,,8934CW,Leeuwarden,Leeuwarden,Friesland,VBO,5.815103,53.191552
De Malus,75,,,8934CW,Leeuwarden,Leeuwarden,Friesland,VBO,5.815133,53.191552
De Malus,77,,,8934CW,Leeuwarden,Leeuwarden,Friesland,VBO,5.815163,53.191551
De Malus,79,,,8934CW,Leeuwarden,Leeuwarden,Friesland,VBO,5.815193,53.191551
De Malus,81,,,8934CW,Leeuwarden,Leeuwarden,Friesland,VBO,5.815223,53.191551
De Malus,83,,,8934CW,Leeuwarden,Leeuwarden,Friesland,VBO,5.815253,53.191551
De Malus,85,,,8934CW,Leeuwarden,Leeuwarden,Friesland,VBO,5.814978,53.191531
De Malus,87,,,8934CW,Leeuwarden,Leeuwarden,Friesland,VBO,5.815008,53.191530
De Malus,89,,,8934CW,Leeuwarden,Leeuwarden,Friesland,VBO,5.815038,53.191530
De Malus,91,,,8934CW,Leeuwarden,Leeuwarden,Friesland,VBO,5.815068,53.191530
De Malus,93,,,8934CW,Leeuwarden,Leeuwarden,Friesland,VBO,5.815098,53.191530
De Malus,95,,,8934CW,Leeuwarden,Leeuwarden,Friesland,VBO,5.815128,53.191530
De Malus,97,,,8934CW,Leeuwarden,Leeuwarden,Friesland,VBO,5.815158,53.191530
De Malus,99,,,8934CW,Leeuwarden,Leeuwarden,Friesland,VBO,5.815188,53.191530
De Malus,101,,,8934CW,Leeuwarden,Leeuwarden,Friesland,VBO,5.815218,53.191530
De Malus,103,,,8934CW,Leeuwarden,Leeuwarden,Friesland,VBO,5.815248,53.191530
De Malus,105,,,8934CW,Leeuwarden,Leeuwarden,Friesland,VBO,5.814978,53.191510
De Malus,107,,,8934CW,Leeuwarden,Leeuwarden,Friesland,VBO,5.815008,53.191510
De Malus,109,,,8934CW,Leeuwarden,Leeuwarden,Friesland,VBO,5.815038,53.191510
De Malus,111,,,8934CW,Leeuwarden,Leeuwarden,Friesland,VBO,5.815068,53.191510
De Malus,113,,,8934CW,Leeuwarden,Leeuwarden,Friesland,VBO,5.815098,53.191509
De Malus,115,,,8934CW,Leeuwarden,Leeuwarden,Friesland,VBO,5.815128,53.191509
De Malus,117,,,8934CW,Leeuwarden,Leeuwarden,Friesland,VBO,5.815168,53.191510
De Malus,119,,,8934CW,Leeuwarden,Leeuwarden,Friesland,VBO,5.815126,53.191464
De Malus,121,,,8934CW,Leeuwarden,Leeuwarden,Friesland,VBO,5.815336,53.191486
De Malus,123,,,8934CW,Leeuwarden,Leeuwarden,Friesland,VBO,5.815283,53.191486
De Malus,125,,,8934CW,Leeuwarden,Leeuwarden,Friesland,VBO,5.815231,53.191486
De Malus,127,,,8934CW,Leeuwarden,Leeuwarden,Friesland,VBO,5.815179,53.191487
De Malus,131,,,8934CX,Leeuwarden,Leeuwarden,Friesland,VBO,5.815046,53.190750
De Malus,133,,,8934CX,Leeuwarden,Leeuwarden,Friesland,VBO,5.815047,53.190731
De Malus,135,,,8934CX,Leeuwarden,Leeuwarden,Friesland,VBO,5.815049,53.190716
De Malus,137,,,8934CX,Leeuwarden,Leeuwarden,Friesland,VBO,5.815052,53.190701
De Malus,139,,,8934CX,Leeuwarden,Leeuwarden,Friesland,VBO,5.815052,53.190685
De Malus,141,,,8934CX,Leeuwarden,Leeuwarden,Friesland,VBO,5.815057,53.190669
De Malus,143,,,8934CX,Leeuwarden,Leeuwarden,Friesland,VBO,5.815053,53.190651
De Malus,145,,,8934CX,Leeuwarden,Leeuwarden,Friesland,VBO,5.815104,53.190755
De Malus,147,,,8934CX,Leeuwarden,Leeuwarden,Friesland,VBO,5.815107,53.190736
De Malus,149,,,8934CX,Leeuwarden,Leeuwarden,Friesland,VBO,5.815107,53.190719
De Malus,151,,,8934CX,Leeuwarden,Leeuwarden,Friesland,VBO,5.815114,53.190705
De Malus,153,,,8934CX,Leeuwarden,Leeuwarden,Friesland,VBO,5.815111,53.190684
De Malus,155,,,8934CX,Leeuwarden,Leeuwarden,Friesland,VBO,5.815114,53.190666
De Malus,157,,,8934CX,Leeuwarden,Leeuwarden,Friesland,VBO,5.815114,53.190645
De Malus,159,,,8934CX,Leeuwarden,Leeuwarden,Friesland,VBO,5.815154,53.190757
De Malus,161,,,8934CX,Leeuwarden,Leeuwarden,Friesland,VBO,5.815157,53.190744
De Malus,163,,,8934CX,Leeuwarden,Leeuwarden,Friesland,VBO,5.815158,53.190729
De Malus,165,,,8934CX,Leeuwarden,Leeuwarden,Friesland,VBO,5.815161,53.190712
De Malus,167,,,8934CX,Leeuwarden,Leeuwarden,Friesland,VBO,5.815165,53.190696
De Malus,169,,,8934CX,Leeuwarden,Leeuwarden,Friesland,VBO,5.815164,53.190682
De Malus,171,,,8934CX,Leeuwarden,Leeuwarden,Friesland,VBO,5.815167,53.190667
De Malus,173,,,8934CX,Leeuwarden,Leeuwarden,Friesland,VBO,5.815169,53.190647
De Malus,175,,,8934CX,Leeuwarden,Leeuwarden,Friesland,VBO,5.815208,53.190759
De Malus,177,,,8934CX,Leeuwarden,Leeuwarden,Friesland,VBO,5.815210,53.190738
De Malus,179,,,8934CX,Leeuwarden,Leeuwarden,Friesland,VBO,5.815213,53.190719
De Malus,181,,,8934CX,Leeuwarden,Leeuwarden,Friesland,VBO,5.815218,53.190701
De Malus,183,,,8934CX,Leeuwarden,Leeuwarden,Friesland,VBO,5.815216,53.190684
De Malus,185,,,8934CX,Leeuwarden,Leeuwarden,Friesland,VBO,5.815218,53.190668
De Malus,187,,,8934CX,Leeuwarden,Leeuwarden,Friesland,VBO,5.815217,53.190650
De Malus,189,,,8934CX,Leeuwarden,Leeuwarden,Friesland,VBO,5.815257,53.190762
De Malus,191,,,8934CX,Leeuwarden,Leeuwarden,Friesland,VBO,5.815264,53.190745
De Malus,193,,,8934CX,Leeuwarden,Leeuwarden,Friesland,VBO,5.815265,53.190725
De Malus,195,,,8934CX,Leeuwarden,Leeuwarden,Friesland,VBO,5.815268,53.190707
De Malus,197,,,8934CX,Leeuwarden,Leeuwarden,Friesland,VBO,5.815271,53.190688
De Malus,199,,,8934CX,Leeuwarden,Leeuwarden,Friesland,VBO,5.815271,53.190671
De Malus,201,,,8934CX,Leeuwarden,Leeuwarden,Friesland,VBO,5.815275,53.190653
De Malus,203,,,8934CX,Leeuwarden,Leeuwarden,Friesland,VBO,5.815304,53.190765
De Malus,205,,,8934CX,Leeuwarden,Leeuwarden,Friesland,VBO,5.815311,53.190748
De Malus,207,,,8934CX,Leeuwarden,Leeuwarden,Friesland,VBO,5.815316,53.190729
De Malus,209,,,8934CX,Leeuwarden,Leeuwarden,Friesland,VBO,5.815317,53.190712
De Malus,211,,,8934CX,Leeuwarden,Leeuwarden,Friesland,VBO,5.815322,53.190693
De Malus,213,,,8934CX,Leeuwarden,Leeuwarden,Friesland,VBO,5.815324,53.190676
De Malus,215,,,8934CX,Leeuwarden,Leeuwarden,Friesland,VBO,5.815329,53.190657
De Malus,217,,,8934CX,Leeuwarden,Leeuwarden,Friesland,VBO,5.815352,53.190766
De Malus,219,,,8934CX,Leeuwarden,Leeuwarden,Friesland,VBO,5.815354,53.190751
De Oerset,1,,,8934DA,Leeuwarden,Leeuwarden,Friesland,VBO,5.808767,53.193055
De Oerset,3,,,8934DA,Leeuwarden,Leeuwarden,Friesland,VBO,5.808772,53.193120
De Oerset,4,,,8934DA,Leeuwarden,Leeuwarden,Friesland,VBO,5.809577,53.192956
De Oerset,5,,,8934DA,Leeuwarden,Leeuwarden,Friesland,VBO,5.808795,53.193216
De Oerset,6,,,8934DA,Leeuwarden,Leeuwarden,Friesland,VBO,5.809191,53.192986
De Oerset,7,,,8934DA,Leeuwarden,Leeuwarden,Friesland,VBO,5.808819,53.193278
De Oerset,8,,,8934DA,Leeuwarden,Leeuwarden,Friesland,VBO,5.809205,53.193041
De Oerset,9,,,8934DA,Leeuwarden,Leeuwarden,Friesland,VBO,5.808855,53.193376
De Oerset,10,,,8934DA,Leeuwarden,Leeuwarden,Friesland,VBO,5.809232,53.193159
De Oerset,11,,,8934DA,Leeuwarden,Leeuwarden,Friesland,VBO,5.808874,53.193433
De Oerset,12,,,8934DA,Leeuwarden,Leeuwarden,Friesland,VBO,5.809246,53.193216
De Oerset,13,,,8934DA,Leeuwarden,Leeuwarden,Friesland,VBO,5.808861,53.193625
De Oerset,14,,,8934DA,Leeuwarden,Leeuwarden,Friesland,VBO,5.809276,53.193342
De Oerset,15,,,8934DA,Leeuwarden,Leeuwarden,Friesland,VBO,5.808903,53.193685
De Oerset,16,,,8934DA,Leeuwarden,Leeuwarden,Friesland,VBO,5.809289,53.193397
De Oerset,17,,,8934DA,Leeuwarden,Leeuwarden,Friesland,VBO,5.808943,53.193790
De Oerset,18,,,8934DA,Leeuwarden,Leeuwarden,Friesland,VBO,5.809775,53.193464
De Oerset,19,,,8934DA,Leeuwarden,Leeuwarden,Friesland,VBO,5.808967,53.193848
De Oerset,20,,,8934DA,Leeuwarden,Leeuwarden,Friesland,VBO,5.809298,53.193655
De Oerset,21,,,8934DA,Leeuwarden,Leeuwarden,Friesland,VBO,5.808947,53.193950
De Oerset,22,,,8934DA,Leeuwarden,Leeuwarden,Friesland,VBO,5.809391,53.193668
De Oerset,23,,,8934DA,Leeuwarden,Leeuwarden,Friesland,VBO,5.808950,53.194000
De Oerset,24,,,8934DA,Leeuwarden,Leeuwarden,Friesland,VBO,5.809813,53.193730
De Oerset,26,,,8934DA,Leeuwarden,Leeuwarden,Friesland,VBO,5.809787,53.193783
De Oerset,28,,,8934DA,Leeuwarden,Leeuwarden,Friesland,VBO,5.809650,53.193898
De Oerset,30,,,8934DA,Leeuwarden,Leeuwarden,Friesland,VBO,5.809611,53.193950
De Oerset,32,,,8934DA,Leeuwarden,Leeuwarden,Friesland,VBO,5.809471,53.194064
De Oerset,34,,,8934DA,Leeuwarden,Leeuwarden,Friesland,VBO,5.809421,53.194112
De Opslach,1,,,8934DB,Leeuwarden,Leeuwarden,Friesland,VBO,5.807994,53.193027
De Opslach,3,,,8934DB,Leeuwarden,Leeuwarden,Friesland,VBO,5.808009,53.193081
De Opslach,5,,,8934DB,Leeuwarden,Leeuwarden,Friesland,VBO,5.808010,53.193135
De Opslach,7,,,8934DB,Leeuwarden,Leeuwarden,Friesland,VBO,5.807995,53.193198
De Opslach,9,,,8934DB,Leeuwarden,Leeuwarden,Friesland,VBO,5.807996,53.193252
De Opslach,11,,,8934DB,Leeuwarden,Leeuwarden,Friesland,VBO,5.807996,53.193315
De Opslach,13,,,8934DB,Leeuwarden,Leeuwarden,Friesland,VBO,5.807972,53.193453
De Opslach,15,,,8934DB,Leeuwarden,Leeuwarden,Friesland,VBO,5.807972,53.193507
De Opslach,17,,,8934DB,Leeuwarden,Leeuwarden,Friesland,VBO,5.807986,53.193565
De Opslach,19,,,8934DB,Leeuwarden,Leeuwarden,Friesland,VBO,5.807992,53.193625
De Opslach,21,,,8934DB,Leeuwarden,Leeuwarden,Friesland,VBO,5.807993,53.193677
De Opslach,23,,,8934DB,Leeuwarden,Leeuwarden,Friesland,VBO,5.807978,53.193736
De Opslach,25,,,8934DB,Leeuwarden,Leeuwarden,Friesland,VBO,5.807972,53.193792
De Opslach,27,,,8934DB,Leeuwarden,Leeuwarden,Friesland,VBO,5.807963,53.193848
De Opslach,29,,,8934DB,Leeuwarden,Leeuwarden,Friesland,VBO,5.807969,53.193905
De Opslach,31,,,8934DB,Leeuwarden,Leeuwarden,Friesland,VBO,5.807973,53.193958
De Opslach,33,,,8934DB,Leeuwarden,Leeuwarden,Friesland,VBO,5.807976,53.194016
De Opslach,4,,,8934DC,Leeuwarden,Leeuwarden,Friesland,VBO,5.808497,53.194237
De Opslach,6,,,8934DC,Leeuwarden,Leeuwarden,Friesland,VBO,5.808654,53.194214
De Opslach,8,,,8934DC,Leeuwarden,Leeuwarden,Friesland,VBO,5.808444,53.194193
De Opslach,10,,,8934DC,Leeuwarden,Leeuwarden,Friesland,VBO,5.808446,53.194305
De Opslach,12,,,8934DC,Leeuwarden,Leeuwarden,Friesland,VBO,5.808498,53.194305
De Opslach,14,,,8934DC,Leeuwarden,Leeuwarden,Friesland,VBO,5.808550,53.194305
De Opslach,16,,,8934DC,Leeuwarden,Leeuwarden,Friesland,VBO,5.808603,53.194304
De Opslach,18,,,8934DC,Leeuwarden,Leeuwarden,Friesland,VBO,5.808445,53.194283
De Opslach,20,,,8934DC,Leeuwarden,Leeuwarden,Friesland,VBO,5.808602,53.194282
De Opslach,22,,,8934DC,Leeuwarden,Leeuwarden,Friesland,VBO,5.808655,53.194304
De Opslach,24,,,8934DC,Leeuwarden,Leeuwarden,Friesland,VBO,5.808550,53.194282
De Opslach,26,,,8934DC,Leeuwarden,Leeuwarden,Friesland,VBO,5.808655,53.194282
De Opslach,28,,,8934DC,Leeuwarden,Leeuwarden,Friesland,VBO,5.808445,53.194260
De Opslach,30,,,8934DC,Leeuwarden,Leeuwarden,Friesland,VBO,5.808497,53.194260
De Opslach,32,,,8934DC,Leeuwarden,Leeuwarden,Friesland,VBO,5.808550,53.194260
De Opslach,34,,,8934DC,Leeuwarden,Leeuwarden,Friesland,VBO,5.808602,53.194260
De Opslach,36,,,8934DC,Leeuwarden,Leeuwarden,Friesland,VBO,5.808655,53.194259
De Opslach,38,,,8934DC,Leeuwarden,Leeuwarden,Friesland,VBO,5.808445,53.194238
De Opslach,40,,,8934DC,Leeuwarden,Leeuwarden,Friesland,VBO,5.808550,53.194237
De Opslach,42,,,8934DC,Leeuwarden,Leeuwarden,Friesland,VBO,5.808602,53.194237
De Opslach,44,,,8934DC,Leeuwarden,Leeuwarden,Friesland,VBO,5.808654,53.194237
De Opslach,46,,,8934DC,Leeuwarden,Leeuwarden,Friesland,VBO,5.808445,53.194215
De Opslach,48,,,8934DC,Leeuwarden,Leeuwarden,Friesland,VBO,5.808497,53.194215
De Opslach,50,,,8934DC,Leeuwarden,Leeuwarden,Friesland,VBO,5.808549,53.194215
De Opslach,52,,,8934DC,Leeuwarden,Leeuwarden,Friesland,VBO,5.808602,53.194215
De Opslach,56,,,8934DD,Leeuwarden,Leeuwarden,Friesland,VBO,5.807573,53.194332
De Opslach,58,,,8934DD,Leeuwarden,Leeuwarden,Friesland,VBO,5.807625,53.194331
De Opslach,60,,,8934DD,Leeuwarden,Leeuwarden,Friesland,VBO,5.807677,53.194331
De Opslach,62,,,8934DD,Leeuwarden,Leeuwarden,Friesland,VBO,5.807730,53.194331
De Opslach,64,,,8934DD,Leeuwarden,Leeuwarden,Friesland,VBO,5.807520,53.194309
De Opslach,66,,,8934DD,Leeuwarden,Leeuwarden,Friesland,VBO,5.807572,53.194309
De Opslach,68,,,8934DD,Leeuwarden,Leeuwarden,Friesland,VBO,5.807625,53.194309
De Opslach,70,,,8934DD,Leeuwarden,Leeuwarden,Friesland,VBO,5.807677,53.194309
De Opslach,72,,,8934DD,Leeuwarden,Leeuwarden,Friesland,VBO,5.807729,53.194309
De Opslach,74,,,8934DD,Leeuwarden,Leeuwarden,Friesland,VBO,5.807520,53.194287
De Opslach,76,,,8934DD,Leeuwarden,Leeuwarden,Friesland,VBO,5.807572,53.194287
De Opslach,78,,,8934DD,Leeuwarden,Leeuwarden,Friesland,VBO,5.807625,53.194286
De Opslach,80,,,8934DD,Leeuwarden,Leeuwarden,Friesland,VBO,5.807677,53.194286
De Opslach,82,,,8934DD,Leeuwarden,Leeuwarden,Friesland,VBO,5.807729,53.194286
De Opslach,84,,,8934DD,Leeuwarden,Leeuwarden,Friesland,VBO,5.807520,53.194264
De Opslach,86,,,8934DD,Leeuwarden,Leeuwarden,Friesland,VBO,5.807572,53.194264
De Opslach,88,,,8934DD,Leeuwarden,Leeuwarden,Friesland,VBO,5.807624,53.194264
De Opslach,90,,,8934DD,Leeuwarden,Leeuwarden,Friesland,VBO,5.807677,53.194264
De Opslach,92,,,8934DD,Leeuwarden,Leeuwarden,Friesland,VBO,5.807729,53.194264
De Opslach,94,,,8934DD,Leeuwarden,Leeuwarden,Friesland,VBO,5.807519,53.194242
De Opslach,96,,,8934DD,Leeuwarden,Leeuwarden,Friesland,VBO,5.807572,53.194242
De Opslach,98,,,8934DD,Leeuwarden,Leeuwarden,Friesland,VBO,5.807624,53.194242
