openbareruimtenaam,huisnummer,huisletter,huisnummertoevoeging,postcode,woonplaatsnaam,gemeentenaam,provincienaam,typeadresseerbaarobject,longitude,latitude
Midsbuorren,1,a,,9003LA,Warten,Leeuwarden,Friesland,VBO,5.891332,53.149041
Midsbuorren,1,,,9003LA,Warten,Leeuwarden,Friesland,VBO,5.888760,53.149203
Midsbuorren,3,,,9003LA,Warten,Leeuwarden,Friesland,VBO,5.888508,53.149246
Midsbuorren,4,,,9003LA,Warten,Leeuwarden,Friesland,VBO,5.890334,53.149528
Midsbuorren,6,,,9003LA,Warten,Leeuwarden,Friesland,VBO,5.889847,53.149533
Midsbuorren,8,,,9003LA,Warten,Leeuwarden,Friesland,VBO,5.889572,53.149532
Midsbuorren,10,a,,9003LA,Warten,Leeuwarden,Friesland,VBO,5.888983,53.149806
Midsbuorren,10,,,9003LA,Warten,Leeuwarden,Friesland,VBO,5.889208,53.149615
Midsbuorren,12,,,9003LA,Warten,Leeuwarden,Friesland,VBO,5.888251,53.149864
Midsbuorren,20,a,,9003LA,Warten,Leeuwarden,Friesland,VBO,5.885820,53.149835
Midsbuorren,20,,,9003LA,Warten,Leeuwarden,Friesland,VBO,5.886245,53.150129
Midsbuorren,5,,,9003LB,Warten,Leeuwarden,Friesland,VBO,5.878969,53.149687
Midsbuorren,7,b,,9003LB,Warten,Leeuwarden,Friesland,VBO,5.872172,53.147394
Midsbuorren,7,,,9003LB,Warten,Leeuwarden,Friesland,VBO,5.876143,53.148773
Midsbuorren,22,,,9003LB,Warten,Leeuwarden,Friesland,VBO,5.884552,53.150081
Midsbuorren,24,,,9003LB,Warten,Leeuwarden,Friesland,VBO,5.883831,53.150130
Midsbuorren,26,,,9003LB,Warten,Leeuwarden,Friesland,VBO,5.883551,53.149913
Midsbuorren,28,,,9003LB,Warten,Leeuwarden,Friesland,VBO,5.882875,53.149865
Midsbuorren,30,,,9003LB,Warten,Leeuwarden,Friesland,VBO,5.881350,53.150018
Midsbuorren,32,,,9003LB,Warten,Leeuwarden,Friesland,VBO,5.880663,53.150009
Midsbuorren,38,,,9003LB,Warten,Leeuwarden,Friesland,VBO,5.879257,53.150190
Midsbuorren,40,,,9003LB,Warten,Leeuwarden,Friesland,VBO,5.878637,53.150264
Midsbuorren,42,,,9003LB,Warten,Leeuwarden,Friesland,VBO,5.877214,53.150624
Midsbuorren,1000,,,9003LB,Warten,Leeuwarden,Friesland,LIG,5.884396,53.150248
Midsbuorren,1002,,,9003LB,Warten,Leeuwarden,Friesland,LIG,5.881634,53.150259
Hoofdstraat,1,,,9003LC,Warten,Leeuwarden,Friesland,VBO,5.899832,53.150585
Hoofdstraat,5,,,9003LC,Warten,Leeuwarden,Friesland,VBO,5.899588,53.150523
Hoofdstraat,9,,,9003LC,Warten,Leeuwarden,Friesland,VBO,5.899483,53.150315
Hoofdstraat,11,,,9003LC,Warten,Leeuwarden,Friesland,VBO,5.899219,53.150261
Hoofdstraat,13,,,9003LC,Warten,Leeuwarden,Friesland,VBO,5.898961,53.150180
Hoofdstraat,17,,,9003LC,Warten,Leeuwarden,Friesland,VBO,5.899177,53.149984
Hoofdstraat,19,,,9003LC,Warten,Leeuwarden,Friesland,VBO,5.898798,53.150054
Hoofdstraat,21,,,9003LC,Warten,Leeuwarden,Friesland,VBO,5.898694,53.150003
Hoofdstraat,23,,,9003LC,Warten,Leeuwarden,Friesland,VBO,5.898573,53.150014
Hoofdstraat,25,,,9003LC,Warten,Leeuwarden,Friesland,VBO,5.898490,53.149970
Hoofdstraat,27,,,9003LC,Warten,Leeuwarden,Friesland,VBO,5.898382,53.149993
Hoofdstraat,31,,,9003LC,Warten,Leeuwarden,Friesland,VBO,5.898156,53.149991
Hoofdstraat,1000,,,9003LC,Warten,Leeuwarden,Friesland,LIG,5.900153,53.150636
Hoofdstraat,33,,,9003LD,Warten,Leeuwarden,Friesland,VBO,5.897893,53.149709
Hoofdstraat,35,,,9003LD,Warten,Leeuwarden,Friesland,VBO,5.897801,53.149647
Hoofdstraat,37,,,9003LD,Warten,Leeuwarden,Friesland,VBO,5.897740,53.149594
Hoofdstraat,39,,,9003LD,Warten,Leeuwarden,Friesland,VBO,5.897945,53.149476
Hoofdstraat,43,,,9003LD,Warten,Leeuwarden,Friesland,VBO,5.898122,53.149513
Hoofdstraat,45,,,9003LD,Warten,Leeuwarden,Friesland,VBO,5.897752,53.149440
Hoofdstraat,47,a,,9003LD,Warten,Leeuwarden,Friesland,VBO,5.898018,53.149261
Hoofdstraat,47,,,9003LD,Warten,Leeuwarden,Friesland,VBO,5.897575,53.149421
Hoofdstraat,51,,,9003LD,Warten,Leeuwarden,Friesland,VBO,5.897295,53.149356
Hoofdstraat,53,,,9003LE,Warten,Leeuwarden,Friesland,VBO,5.897037,53.149300
Hoofdstraat,57,,,9003LE,Warten,Leeuwarden,Friesland,VBO,5.897051,53.149186
Hoofdstraat,59,,,9003LE,Warten,Leeuwarden,Friesland,VBO,5.896840,53.149303
Hoofdstraat,61,,,9003LE,Warten,Leeuwarden,Friesland,VBO,5.895706,53.149312
Hoofdstraat,63,,,9003LE,Warten,Leeuwarden,Friesland,VBO,5.895035,53.149352
Hoofdstraat,65,,,9003LE,Warten,Leeuwarden,Friesland,VBO,5.894839,53.149324
Hoofdstraat,67,,,9003LG,Warten,Leeuwarden,Friesland,VBO,5.894484,53.149304
Hoofdstraat,69,,,9003LG,Warten,Leeuwarden,Friesland,VBO,5.894406,53.149301
Hoofdstraat,71,,,9003LG,Warten,Leeuwarden,Friesland,VBO,5.894190,53.149286
Hoofdstraat,73,,,9003LG,Warten,Leeuwarden,Friesland,VBO,5.894112,53.149282
Hoofdstraat,75,,,9003LG,Warten,Leeuwarden,Friesland,VBO,5.893895,53.149268
Hoofdstraat,77,,,9003LG,Warten,Leeuwarden,Friesland,VBO,5.893817,53.149264
Hoofdstraat,79,,,9003LG,Warten,Leeuwarden,Friesland,VBO,5.893601,53.149250
Hoofdstraat,81,,,9003LG,Warten,Leeuwarden,Friesland,VBO,5.893523,53.149247
Hoofdstraat,83,,,9003LG,Warten,Leeuwarden,Friesland,VBO,5.893301,53.149213
Hoofdstraat,85,,,9003LG,Warten,Leeuwarden,Friesland,VBO,5.893125,53.149228
Hoofdstraat,2,,,9003LH,Warten,Leeuwarden,Friesland,VBO,5.900033,53.150920
Hoofdstraat,4,,,9003LH,Warten,Leeuwarden,Friesland,VBO,5.899757,53.150847
Hoofdstraat,6,,,9003LH,Warten,Leeuwarden,Friesland,VBO,5.899523,53.150777
Hoofdstraat,8,,,9003LH,Warten,Leeuwarden,Friesland,VBO,5.899228,53.150731
Hoofdstraat,10,,,9003LH,Warten,Leeuwarden,Friesland,VBO,5.899187,53.150632
Hoofdstraat,14,,,9003LJ,Warten,Leeuwarden,Friesland,VBO,5.898650,53.150443
Hoofdstraat,16,,,9003LJ,Warten,Leeuwarden,Friesland,VBO,5.898456,53.150365
Hoofdstraat,18,,,9003LJ,Warten,Leeuwarden,Friesland,VBO,5.898303,53.150274
Hoofdstraat,20,a,,9003LJ,Warten,Leeuwarden,Friesland,VBO,5.897824,53.150126
Hoofdstraat,20,b,,9003LJ,Warten,Leeuwarden,Friesland,VBO,5.897807,53.150154
Hoofdstraat,20,,,9003LJ,Warten,Leeuwarden,Friesland,VBO,5.897831,53.150084
Hoofdstraat,22,a,,9003LJ,Warten,Leeuwarden,Friesland,VBO,5.897615,53.149788
Hoofdstraat,22,,,9003LJ,Warten,Leeuwarden,Friesland,VBO,5.897485,53.149760
Hoofdstraat,24,,,9003LJ,Warten,Leeuwarden,Friesland,VBO,5.897316,53.149616
Hoofdstraat,26,,,9003LK,Warten,Leeuwarden,Friesland,VBO,5.896711,53.149534
Hoofdstraat,28,,,9003LK,Warten,Leeuwarden,Friesland,VBO,5.896573,53.149671
Hoofdstraat,30,,,9003LK,Warten,Leeuwarden,Friesland,VBO,5.896433,53.149588
Hoofdstraat,32,a,,9003LK,Warten,Leeuwarden,Friesland,VBO,5.895829,53.149607
Hoofdstraat,32,,,9003LK,Warten,Leeuwarden,Friesland,VBO,5.896214,53.149592
Hoofdstraat,34,,,9003LL,Warten,Leeuwarden,Friesland,VBO,5.895120,53.149624
Hoofdstraat,36,,,9003LL,Warten,Leeuwarden,Friesland,VBO,5.894980,53.149644
Hoofdstraat,38,,,9003LL,Warten,Leeuwarden,Friesland,VBO,5.894854,53.149655
Hoofdstraat,42,,,9003LL,Warten,Leeuwarden,Friesland,VBO,5.894691,53.149646
Hoofdstraat,44,,,9003LL,Warten,Leeuwarden,Friesland,VBO,5.894609,53.149664
Hoofdstraat,46,,,9003LL,Warten,Leeuwarden,Friesland,VBO,5.894527,53.149645
Hoofdstraat,48,,,9003LL,Warten,Leeuwarden,Friesland,VBO,5.894450,53.149641
Hoofdstraat,50,,,9003LL,Warten,Leeuwarden,Friesland,VBO,5.894361,53.149654
Hoofdstraat,52,,,9003LL,Warten,Leeuwarden,Friesland,VBO,5.894287,53.149650
Hoofdstraat,54,,,9003LL,Warten,Leeuwarden,Friesland,VBO,5.894201,53.149643
Hoofdstraat,56,,,9003LL,Warten,Leeuwarden,Friesland,VBO,5.894123,53.149639
Hoofdstraat,60,,,9003LL,Warten,Leeuwarden,Friesland,VBO,5.893469,53.149815
Hoofdstraat,62,,,9003LL,Warten,Leeuwarden,Friesland,VBO,5.892828,53.150040
Hoofdstraat,64,,,9003LL,Warten,Leeuwarden,Friesland,VBO,5.892708,53.149555
Hoofdstraat,66,a,,9003LL,Warten,Leeuwarden,Friesland,VBO,5.892377,53.149663
Hoofdstraat,66,,,9003LL,Warten,Leeuwarden,Friesland,VBO,5.892590,53.150041
Hoofdstraat,68,,,9003LL,Warten,Leeuwarden,Friesland,VBO,5.891853,53.149982
Oosterburen,1,,,9003LM,Warten,Leeuwarden,Friesland,VBO,5.900904,53.151117
Oosterburen,3,,,9003LM,Warten,Leeuwarden,Friesland,VBO,5.900987,53.151130
Oosterburen,5,,,9003LM,Warten,Leeuwarden,Friesland,VBO,5.901151,53.151133
Oosterburen,7,,,9003LM,Warten,Leeuwarden,Friesland,VBO,5.901238,53.151146
Oosterburen,9,,,9003LM,Warten,Leeuwarden,Friesland,VBO,5.901388,53.151171
Oosterburen,11,,,9003LM,Warten,Leeuwarden,Friesland,VBO,5.901476,53.151184
Oosterburen,13,,,9003LM,Warten,Leeuwarden,Friesland,VBO,5.901627,53.151208
Oosterburen,15,,,9003LM,Warten,Leeuwarden,Friesland,VBO,5.901712,53.151221
Oosterburen,17,,,9003LM,Warten,Leeuwarden,Friesland,VBO,5.901862,53.151246
Oosterburen,19,,,9003LM,Warten,Leeuwarden,Friesland,VBO,5.901949,53.151259
Oosterburen,21,,,9003LM,Warten,Leeuwarden,Friesland,VBO,5.902626,53.151327
Oosterburen,23,,,9003LM,Warten,Leeuwarden,Friesland,VBO,5.902744,53.151330
Oosterburen,25,,,9003LM,Warten,Leeuwarden,Friesland,VBO,5.903051,53.151356
Oosterburen,27,,,9003LM,Warten,Leeuwarden,Friesland,VBO,5.903360,53.151364
Oosterburen,29,,,9003LM,Warten,Leeuwarden,Friesland,VBO,5.903596,53.151416
Oosterburen,31,,,9003LM,Warten,Leeuwarden,Friesland,VBO,5.903876,53.151438
Oosterburen,33,,,9003LM,Warten,Leeuwarden,Friesland,VBO,5.904447,53.151293
Oosterburen,2,,,9003LN,Warten,Leeuwarden,Friesland,VBO,5.900537,53.150586
Oosterburen,4,,,9003LN,Warten,Leeuwarden,Friesland,VBO,5.900975,53.150692
Oosterburen,6,,,9003LN,Warten,Leeuwarden,Friesland,VBO,5.901159,53.150713
Oosterburen,8,,,9003LN,Warten,Leeuwarden,Friesland,VBO,5.901735,53.150793
Oosterburen,10,,,9003LN,Warten,Leeuwarden,Friesland,VBO,5.902294,53.150925
Oosterburen,12,,,9003LN,Warten,Leeuwarden,Friesland,VBO,5.902524,53.150966
Oosterburen,14,,,9003LN,Warten,Leeuwarden,Friesland,VBO,5.902754,53.150992
Oosterburen,16,,,9003LN,Warten,Leeuwarden,Friesland,VBO,5.903052,53.150993
Oosterburen,18,,,9003LN,Warten,Leeuwarden,Friesland,VBO,5.903327,53.150997
Oosterburen,20,,,9003LN,Warten,Leeuwarden,Friesland,VBO,5.903530,53.150994
Oosterburen,22,,,9003LN,Warten,Leeuwarden,Friesland,VBO,5.903635,53.150988
Schoolstraat,1,,,9003LP,Warten,Leeuwarden,Friesland,VBO,5.894935,53.149171
Schoolstraat,2,,,9003LP,Warten,Leeuwarden,Friesland,VBO,5.894433,53.149062
Schoolstraat,3,,,9003LP,Warten,Leeuwarden,Friesland,VBO,5.894963,53.149117
Schoolstraat,4,,,9003LP,Warten,Leeuwarden,Friesland,VBO,5.894419,53.148838
Schoolstraat,5,,,9003LP,Warten,Leeuwarden,Friesland,VBO,5.894968,53.149062
Schoolstraat,7,,,9003LP,Warten,Leeuwarden,Friesland,VBO,5.895003,53.149001
Schoolstraat,9,,,9003LP,Warten,Leeuwarden,Friesland,VBO,5.894941,53.148851
Schoolstraat,11,,,9003LP,Warten,Leeuwarden,Friesland,VBO,5.894899,53.148802
Schoolstraat,13,,,9003LP,Warten,Leeuwarden,Friesland,VBO,5.894858,53.148753
Schoolstraat,15,,,9003LP,Warten,Leeuwarden,Friesland,VBO,5.894817,53.148704
Burgemeester Waldastraat,1,a,,9003LR,Warten,Leeuwarden,Friesland,VBO,5.896927,53.148852
Burgemeester Waldastraat,1,,,9003LR,Warten,Leeuwarden,Friesland,VBO,5.896611,53.149338
Burgemeester Waldastraat,3,,,9003LR,Warten,Leeuwarden,Friesland,VBO,5.896767,53.148960
Burgemeester Waldastraat,5,,,9003LR,Warten,Leeuwarden,Friesland,VBO,5.896509,53.149164
Burgemeester Waldastraat,7,,,9003LR,Warten,Leeuwarden,Friesland,VBO,5.896476,53.149114
Burgemeester Waldastraat,9,,,9003LR,Warten,Leeuwarden,Friesland,VBO,5.896443,53.149065
Burgemeester Waldastraat,11,,,9003LR,Warten,Leeuwarden,Friesland,VBO,5.896411,53.149016
Burgemeester Waldastraat,13,,,9003LR,Warten,Leeuwarden,Friesland,VBO,5.896379,53.148967
Burgemeester Waldastraat,15,,,9003LR,Warten,Leeuwarden,Friesland,VBO,5.896347,53.148919
Burgemeester Waldastraat,17,,,9003LR,Warten,Leeuwarden,Friesland,VBO,5.896319,53.148866
Burgemeester Waldastraat,19,,,9003LR,Warten,Leeuwarden,Friesland,VBO,5.896148,53.148789
Burgemeester Waldastraat,21,,,9003LR,Warten,Leeuwarden,Friesland,VBO,5.896073,53.148759
Burgemeester Waldastraat,23,,,9003LR,Warten,Leeuwarden,Friesland,VBO,5.895998,53.148729
Burgemeester Waldastraat,25,,,9003LR,Warten,Leeuwarden,Friesland,VBO,5.895931,53.148693
Burgemeester Waldastraat,27,,,9003LR,Warten,Leeuwarden,Friesland,VBO,5.895828,53.148567
Burgemeester Waldastraat,2,,,9003LS,Warten,Leeuwarden,Friesland,VBO,5.895541,53.148930
Burgemeester Waldastraat,4,,,9003LS,Warten,Leeuwarden,Friesland,VBO,5.895502,53.148867
Burgemeester Waldastraat,6,,,9003LS,Warten,Leeuwarden,Friesland,VBO,5.895408,53.148725
Burgemeester Waldastraat,8,,,9003LS,Warten,Leeuwarden,Friesland,VBO,5.895378,53.148677
Burgemeester Waldastraat,10,,,9003LS,Warten,Leeuwarden,Friesland,VBO,5.895361,53.148611
Tsjerkepaed,1,,,9003LT,Warten,Leeuwarden,Friesland,VBO,5.896913,53.149728
Tsjerkepaed,2,,,9003LT,Warten,Leeuwarden,Friesland,VBO,5.896686,53.149700
Tsjerkepaed,3,,,9003LT,Warten,Leeuwarden,Friesland,VBO,5.896783,53.149648
Tsjerkepaed,4,,,9003LT,Warten,Leeuwarden,Friesland,VBO,5.896749,53.149589
De Nije Reed,1,a,,9003LV,Warten,Leeuwarden,Friesland,VBO,5.897487,53.149030
De Nije Reed,1,,,9003LV,Warten,Leeuwarden,Friesland,VBO,5.897476,53.149064
De Nije Reed,2,,,9003LV,Warten,Leeuwarden,Friesland,VBO,5.897145,53.149174
De Nije Reed,3,,,9003LV,Warten,Leeuwarden,Friesland,VBO,5.897644,53.148945
De Nije Reed,6,,,9003LV,Warten,Leeuwarden,Friesland,VBO,5.897158,53.148973
De Nije Reed,8,,,9003LV,Warten,Leeuwarden,Friesland,VBO,5.897332,53.148805
Hellingpaed,1,,,9003LW,Warten,Leeuwarden,Friesland,VBO,5.897971,53.149663
Hellingpaed,2,,,9003LW,Warten,Leeuwarden,Friesland,VBO,5.898053,53.149615
Hellingpaed,3,,,9003LW,Warten,Leeuwarden,Friesland,VBO,5.898266,53.149584
Hellingpaed,8,,,9003LW,Warten,Leeuwarden,Friesland,VBO,5.898656,53.149536
Hellingpaed,9,,,9003LW,Warten,Leeuwarden,Friesland,VBO,5.898896,53.149513
Hellingpaed,10,,,9003LW,Warten,Leeuwarden,Friesland,VBO,5.899191,53.149564
Hellingpaed,11,,,9003LW,Warten,Leeuwarden,Friesland,VBO,5.899499,53.149385
Master van Loonpaed,1,,,9003LX,Warten,Leeuwarden,Friesland,VBO,5.898394,53.149945
Master van Loonpaed,3,,,9003LX,Warten,Leeuwarden,Friesland,VBO,5.898599,53.149959
Rounwei,1,a,,9003LZ,Warten,Leeuwarden,Friesland,VBO,5.902284,53.150129
Rounwei,1,,,9003LZ,Warten,Leeuwarden,Friesland,VBO,5.902657,53.150447
Rounwei,2,,,9003LZ,Warten,Leeuwarden,Friesland,VBO,5.901270,53.150188
Rounwei,3,,,9003LZ,Warten,Leeuwarden,Friesland,VBO,5.898312,53.148811
Rounwei,4,,,9003LZ,Warten,Leeuwarden,Friesland,VBO,5.898249,53.148801
Rounwei,5,,,9003LZ,Warten,Leeuwarden,Friesland,VBO,5.897991,53.148882
Rounwei,6,,,9003LZ,Warten,Leeuwarden,Friesland,VBO,5.897912,53.148862
Rounwei,7,,,9003LZ,Warten,Leeuwarden,Friesland,VBO,5.897869,53.148719
Rounwei,8,,,9003LZ,Warten,Leeuwarden,Friesland,VBO,5.897775,53.148691
Rounwei,9,,,9003MA,Warten,Leeuwarden,Friesland,VBO,5.897451,53.148626
Rounwei,10,,,9003MA,Warten,Leeuwarden,Friesland,VBO,5.897237,53.148583
Rounwei,11,,,9003MA,Warten,Leeuwarden,Friesland,VBO,5.897147,53.148575
Rounwei,12,,,9003MA,Warten,Leeuwarden,Friesland,VBO,5.896951,53.148557
Rounwei,13,,,9003MA,Warten,Leeuwarden,Friesland,VBO,5.896865,53.148552
Rounwei,14,,,9003MA,Warten,Leeuwarden,Friesland,VBO,5.896697,53.148530
Rounwei,15,,,9003MA,Warten,Leeuwarden,Friesland,VBO,5.896607,53.148541
Rounwei,16,,,9003MA,Warten,Leeuwarden,Friesland,VBO,5.896438,53.148539
Rounwei,17,,,9003MA,Warten,Leeuwarden,Friesland,VBO,5.896348,53.148525
Rounwei,18,a,,9003MA,Warten,Leeuwarden,Friesland,VBO,5.897478,53.148183
Rounwei,18,b,,9003MA,Warten,Leeuwarden,Friesland,VBO,5.895933,53.147961
Rounwei,18,c,,9003MA,Warten,Leeuwarden,Friesland,VBO,5.896828,53.146908
Rounwei,18,,,9003MA,Warten,Leeuwarden,Friesland,VBO,5.896094,53.148527
Rounwei,19,,,9003MB,Warten,Leeuwarden,Friesland,VBO,5.895100,53.148654
Rounwei,20,,,9003MB,Warten,Leeuwarden,Friesland,VBO,5.894143,53.148895
Rounwei,21,,,9003MB,Warten,Leeuwarden,Friesland,VBO,5.894052,53.148922
Rounwei,22,,,9003MB,Warten,Leeuwarden,Friesland,VBO,5.893957,53.148951
Rounwei,23,,,9003MB,Warten,Leeuwarden,Friesland,VBO,5.893800,53.148999
Rounwei,24,,,9003MB,Warten,Leeuwarden,Friesland,VBO,5.893705,53.149027
Rounwei,25,,,9003MB,Warten,Leeuwarden,Friesland,VBO,5.893611,53.149056
Bûtenstreek,1,a,,9003MC,Warten,Leeuwarden,Friesland,VBO,5.902460,53.150713
Bûtenstreek,1,b,,9003MC,Warten,Leeuwarden,Friesland,VBO,5.902500,53.150523
Bûtenstreek,1,c,,9003MC,Warten,Leeuwarden,Friesland,VBO,5.902486,53.150536
Bûtenstreek,1,,,9003MC,Warten,Leeuwarden,Friesland,VBO,5.903028,53.150105
Bûtenstreek,2,,,9003MC,Warten,Leeuwarden,Friesland,VBO,5.903149,53.149983
Bûtenstreek,3,a,,9003MC,Warten,Leeuwarden,Friesland,VBO,5.908003,53.149404
Bûtenstreek,3,b,,9003MC,Warten,Leeuwarden,Friesland,VBO,5.905103,53.150704
Bûtenstreek,3,,,9003MC,Warten,Leeuwarden,Friesland,VBO,5.903859,53.150334
Bûtenstreek,5,,,9003MC,Warten,Leeuwarden,Friesland,VBO,5.903964,53.150518
Bûtenstreek,8,,,9003MC,Warten,Leeuwarden,Friesland,VBO,5.906061,53.151195
Bûtenstreek,20,,,9003MC,Warten,Leeuwarden,Friesland,VBO,5.907681,53.145788
Bûtenstreek,21,,,9003MC,Warten,Leeuwarden,Friesland,VBO,5.908160,53.145412
Bûtenstreek,22,,,9003MC,Warten,Leeuwarden,Friesland,VBO,5.908313,53.145396
Bûtenstreek,23,,,9003MC,Warten,Leeuwarden,Friesland,VBO,5.910819,53.146236
Bûtenstreek,24,,,9003MC,Warten,Leeuwarden,Friesland,VBO,5.911776,53.146548
Bûtenstreek,25,,,9003MC,Warten,Leeuwarden,Friesland,VBO,5.912749,53.146936
Bûtenstreek,26,,,9003MC,Warten,Leeuwarden,Friesland,VBO,5.913565,53.147189
Bûtenstreek,1000,,,9003MC,Warten,Leeuwarden,Friesland,LIG,5.903938,53.149023
Bûtenstreek,1001,,,9003MC,Warten,Leeuwarden,Friesland,LIG,5.907085,53.150076
Bûtenstreek,1002,,,9003MC,Warten,Leeuwarden,Friesland,LIG,5.907125,53.150259
Bûtenstreek,1003,,,9003MC,Warten,Leeuwarden,Friesland,LIG,5.907380,53.150365
Bûtenstreek,1004,,,9003MC,Warten,Leeuwarden,Friesland,LIG,5.907703,53.150370
Bûtenstreek,1005,,,9003MC,Warten,Leeuwarden,Friesland,LIG,5.908005,53.150266
Bûtenstreek,1006,,,9003MC,Warten,Leeuwarden,Friesland,LIG,5.908261,53.150113
Bûtenstreek,1007,,,9003MC,Warten,Leeuwarden,Friesland,LIG,5.908524,53.149950
Bûtenstreek,1008,,,9003MC,Warten,Leeuwarden,Friesland,LIG,5.908788,53.149823
Bûtenstreek,1009,,,9003MC,Warten,Leeuwarden,Friesland,LIG,5.909068,53.149668
Bûtenstreek,1010,,,9003MC,Warten,Leeuwarden,Friesland,LIG,5.909054,53.149481
Bûtenstreek,1011,,,9003MC,Warten,Leeuwarden,Friesland,LIG,5.908819,53.149353
Bûtenstreek,1012,,,9003MC,Warten,Leeuwarden,Friesland,LIG,5.908676,53.149540
Bûtenstreek,1013,,,9003MC,Warten,Leeuwarden,Friesland,LIG,5.908436,53.149715
Bûtenstreek,1014,,,9003MC,Warten,Leeuwarden,Friesland,LIG,5.908131,53.149806
Bûtenstreek,1015,,,9003MC,Warten,Leeuwarden,Friesland,LIG,5.907811,53.149900
Bûtenstreek,1016,,,9003MC,Warten,Leeuwarden,Friesland,LIG,5.907823,53.150096
Bûtenstreek,1017,,,9003MC,Warten,Leeuwarden,Friesland,LIG,5.907541,53.150168
Bûtenstreek,1018,,,9003MC,Warten,Leeuwarden,Friesland,LIG,5.907369,53.150010
Aldhiem,1,,,9003MD,Warten,Leeuwarden,Friesland,VBO,5.896172,53.150135
Aldhiem,2,,,9003MD,Warten,Leeuwarden,Friesland,VBO,5.895739,53.150124
Aldhiem,3,,,9003MD,Warten,Leeuwarden,Friesland,VBO,5.895595,53.150087
Aldhiem,4,,,9003MD,Warten,Leeuwarden,Friesland,VBO,5.895443,53.150069
Aldhiem,5,a,,9003MD,Warten,Leeuwarden,Friesland,VBO,5.895653,53.149954
Aldhiem,5,,,9003MD,Warten,Leeuwarden,Friesland,VBO,5.895490,53.149954
Aldhiem,6,,,9003MD,Warten,Leeuwarden,Friesland,VBO,5.895310,53.149946
Aldhiem,7,,,9003MD,Warten,Leeuwarden,Friesland,VBO,5.895177,53.149965
Aldhiem,8,,,9003MD,Warten,Leeuwarden,Friesland,VBO,5.894998,53.150150
Nijpaed,1,,,9003ME,Warten,Leeuwarden,Friesland,VBO,5.896541,53.150156
Nijpaed,2,,,9003ME,Warten,Leeuwarden,Friesland,VBO,5.896582,53.150088
Nijpaed,3,,,9003ME,Warten,Leeuwarden,Friesland,VBO,5.896595,53.150044
Nijpaed,4,,,9003ME,Warten,Leeuwarden,Friesland,VBO,5.896632,53.149994
Nijpaed,5,,,9003ME,Warten,Leeuwarden,Friesland,VBO,5.896733,53.150069
Nijpaed,9,,,9003ME,Warten,Leeuwarden,Friesland,VBO,5.896862,53.150080
Nijpaed,10,,,9003ME,Warten,Leeuwarden,Friesland,VBO,5.897009,53.150059
Nijpaed,12,,,9003ME,Warten,Leeuwarden,Friesland,VBO,5.897171,53.150070
Nijpaed,13,,,9003ME,Warten,Leeuwarden,Friesland,VBO,5.897346,53.150107
Nijpaed,14,,,9003ME,Warten,Leeuwarden,Friesland,VBO,5.897467,53.150089
Nijpaed,15,,,9003ME,Warten,Leeuwarden,Friesland,VBO,5.897604,53.150126
Meagere Weide,1,,,9003MG,Warten,Leeuwarden,Friesland,VBO,5.898538,53.150674
Meagere Weide,2,a,,9003MG,Warten,Leeuwarden,Friesland,VBO,5.898938,53.150861
Meagere Weide,2,,,9003MG,Warten,Leeuwarden,Friesland,VBO,5.898444,53.151574
Meagere Weide,3,,,9003MG,Warten,Leeuwarden,Friesland,VBO,5.897980,53.151084
Meagere Weide,5,,,9003MG,Warten,Leeuwarden,Friesland,VBO,5.897957,53.151135
Meagere Weide,6,,,9003MG,Warten,Leeuwarden,Friesland,VBO,5.898221,53.151714
Meagere Weide,7,,,9003MG,Warten,Leeuwarden,Friesland,VBO,5.897921,53.151190
Meagere Weide,8,,,9003MG,Warten,Leeuwarden,Friesland,VBO,5.898164,53.151778
Meagere Weide,9,,,9003MG,Warten,Leeuwarden,Friesland,VBO,5.897905,53.151247
Meagere Weide,10,,,9003MG,Warten,Leeuwarden,Friesland,VBO,5.898162,53.151823
Meagere Weide,11,,,9003MG,Warten,Leeuwarden,Friesland,VBO,5.897881,53.151301
Meagere Weide,12,,,9003MG,Warten,Leeuwarden,Friesland,VBO,5.898114,53.151887
Meagere Weide,13,,,9003MG,Warten,Leeuwarden,Friesland,VBO,5.897855,53.151357
Meagere Weide,14,,,9003MG,Warten,Leeuwarden,Friesland,VBO,5.898097,53.151933
Meagere Weide,15,,,9003MG,Warten,Leeuwarden,Friesland,VBO,5.897806,53.151447
Meagere Weide,17,,,9003MG,Warten,Leeuwarden,Friesland,VBO,5.897781,53.151503
Meagere Weide,19,,,9003MG,Warten,Leeuwarden,Friesland,VBO,5.897756,53.151557
Meagere Weide,21,,,9003MG,Warten,Leeuwarden,Friesland,VBO,5.897731,53.151611
Meagere Weide,23,,,9003MG,Warten,Leeuwarden,Friesland,VBO,5.897706,53.151666
Meagere Weide,25,a,,9003MG,Warten,Leeuwarden,Friesland,VBO,5.896606,53.152690
Meagere Weide,25,,,9003MG,Warten,Leeuwarden,Friesland,VBO,5.897602,53.151825
De Bleek,1,,,9003MH,Warten,Leeuwarden,Friesland,VBO,5.899909,53.151135
De Bleek,2,,,9003MH,Warten,Leeuwarden,Friesland,VBO,5.899700,53.151418
De Bleek,3,,,9003MH,Warten,Leeuwarden,Friesland,VBO,5.899822,53.151122
De Bleek,4,,,9003MH,Warten,Leeuwarden,Friesland,VBO,5.899608,53.151404
De Bleek,5,,,9003MH,Warten,Leeuwarden,Friesland,VBO,5.899730,53.151108
De Bleek,6,,,9003MH,Warten,Leeuwarden,Friesland,VBO,5.899521,53.151391
De Bleek,7,,,9003MH,Warten,Leeuwarden,Friesland,VBO,5.899578,53.151082
De Bleek,8,,,9003MH,Warten,Leeuwarden,Friesland,VBO,5.899348,53.151361
De Bleek,9,,,9003MH,Warten,Leeuwarden,Friesland,VBO,5.899491,53.151068
De Bleek,10,,,9003MH,Warten,Leeuwarden,Friesland,VBO,5.899256,53.151347
De Bleek,11,,,9003MH,Warten,Leeuwarden,Friesland,VBO,5.899399,53.151054
De Bleek,12,,,9003MH,Warten,Leeuwarden,Friesland,VBO,5.899169,53.151334
De Bleek,13,,,9003MH,Warten,Leeuwarden,Friesland,VBO,5.898144,53.150669
De Bleek,14,,,9003MH,Warten,Leeuwarden,Friesland,VBO,5.898031,53.150913
De Bleek,15,,,9003MH,Warten,Leeuwarden,Friesland,VBO,5.898053,53.150654
De Bleek,16,,,9003MH,Warten,Leeuwarden,Friesland,VBO,5.897940,53.150897
De Bleek,17,,,9003MH,Warten,Leeuwarden,Friesland,VBO,5.897962,53.150639
De Bleek,18,,,9003MH,Warten,Leeuwarden,Friesland,VBO,5.897849,53.150881
De Bleek,19,a,,9003MH,Warten,Leeuwarden,Friesland,VBO,5.897725,53.150465
De Bleek,19,b,,9003MH,Warten,Leeuwarden,Friesland,VBO,5.897715,53.150492
De Bleek,19,c,,9003MH,Warten,Leeuwarden,Friesland,VBO,5.897705,53.150519
De Bleek,19,d,,9003MH,Warten,Leeuwarden,Friesland,VBO,5.897694,53.150546
De Bleek,19,,,9003MH,Warten,Leeuwarden,Friesland,VBO,5.897871,53.150624
De Bleek,20,,,9003MH,Warten,Leeuwarden,Friesland,VBO,5.897758,53.150865
De Greiden,1,a,,9003MJ,Warten,Leeuwarden,Friesland,VBO,5.898601,53.151488
De Greiden,1,,,9003MJ,Warten,Leeuwarden,Friesland,VBO,5.898493,53.151301
De Greiden,2,,,9003MJ,Warten,Leeuwarden,Friesland,VBO,5.899116,53.151536
De Greiden,3,,,9003MJ,Warten,Leeuwarden,Friesland,VBO,5.898519,53.151761
De Greiden,4,,,9003MJ,Warten,Leeuwarden,Friesland,VBO,5.899238,53.151555
De Greiden,5,,,9003MJ,Warten,Leeuwarden,Friesland,VBO,5.898541,53.151840
De Greiden,6,,,9003MJ,Warten,Leeuwarden,Friesland,VBO,5.899468,53.151595
De Greiden,7,,,9003MJ,Warten,Leeuwarden,Friesland,VBO,5.898516,53.151894
De Greiden,8,,,9003MJ,Warten,Leeuwarden,Friesland,VBO,5.899561,53.151612
De Greiden,9,,,9003MJ,Warten,Leeuwarden,Friesland,VBO,5.898437,53.151949
De Greiden,10,a,,9003MJ,Warten,Leeuwarden,Friesland,VBO,5.899463,53.151946
De Greiden,10,,,9003MJ,Warten,Leeuwarden,Friesland,VBO,5.899480,53.151934
De Greiden,11,,,9003MJ,Warten,Leeuwarden,Friesland,VBO,5.898466,53.152004
De Greiden,12,,,9003MJ,Warten,Leeuwarden,Friesland,VBO,5.899302,53.151909
De Greiden,14,,,9003MJ,Warten,Leeuwarden,Friesland,VBO,5.899086,53.151870
De Greiden,16,,,9003MJ,Warten,Leeuwarden,Friesland,VBO,5.898966,53.151852
De Mieden,1,,,9003MK,Warten,Leeuwarden,Friesland,VBO,5.899368,53.152114
De Mieden,2,,,9003MK,Warten,Leeuwarden,Friesland,VBO,5.899234,53.152431
De Mieden,3,,,9003MK,Warten,Leeuwarden,Friesland,VBO,5.899206,53.152090
De Mieden,4,,,9003MK,Warten,Leeuwarden,Friesland,VBO,5.899091,53.152415
De Mieden,5,,,9003MK,Warten,Leeuwarden,Friesland,VBO,5.899051,53.152062
De Mieden,6,,,9003MK,Warten,Leeuwarden,Friesland,VBO,5.898933,53.152380
De Mieden,7,,,9003MK,Warten,Leeuwarden,Friesland,VBO,5.898889,53.152038
De Mieden,8,,,9003MK,Warten,Leeuwarden,Friesland,VBO,5.898767,53.152382
De Mieden,10,,,9003MK,Warten,Leeuwarden,Friesland,VBO,5.898593,53.152336
De Mieden,12,,,9003MK,Warten,Leeuwarden,Friesland,VBO,5.898465,53.152317
De Mieden,13,,,9003MK,Warten,Leeuwarden,Friesland,VBO,5.896426,53.151649
De Mieden,14,,,9003MK,Warten,Leeuwarden,Friesland,VBO,5.898319,53.152291
De Mieden,15,,,9003MK,Warten,Leeuwarden,Friesland,VBO,5.896448,53.151602
De Mieden,16,,,9003MK,Warten,Leeuwarden,Friesland,VBO,5.898193,53.152272
De Mieden,17,,,9003MK,Warten,Leeuwarden,Friesland,VBO,5.896470,53.151554
De Mieden,18,,,9003MK,Warten,Leeuwarden,Friesland,VBO,5.898047,53.152246
De Mieden,19,,,9003MK,Warten,Leeuwarden,Friesland,VBO,5.896490,53.151510
De Mieden,20,,,9003MK,Warten,Leeuwarden,Friesland,VBO,5.897921,53.152228
De Mieden,21,,,9003MK,Warten,Leeuwarden,Friesland,VBO,5.896512,53.151460
De Mieden,22,,,9003MK,Warten,Leeuwarden,Friesland,VBO,5.897476,53.152152
De Mieden,24,,,9003MK,Warten,Leeuwarden,Friesland,VBO,5.897362,53.152135
De Mieden,26,,,9003MK,Warten,Leeuwarden,Friesland,VBO,5.897230,53.152112
De Mieden,28,a,,9003MK,Warten,Leeuwarden,Friesland,VBO,5.896928,53.152063
De Mieden,28,,,9003MK,Warten,Leeuwarden,Friesland,VBO,5.897117,53.152094
Oeble-om-wei,5,,,9003ML,Warten,Leeuwarden,Friesland,VBO,5.875260,53.152464
Oeble-om-wei,7,,,9003ML,Warten,Leeuwarden,Friesland,VBO,5.879768,53.150787
Oeble-om-wei,9,a,,9003ML,Warten,Leeuwarden,Friesland,VBO,5.888161,53.151720
Oeble-om-wei,9,,,9003ML,Warten,Leeuwarden,Friesland,VBO,5.888519,53.151609
Oeble-om-wei,11,,,9003ML,Warten,Leeuwarden,Friesland,VBO,5.892332,53.150672
Taanpôle,1,,,9003MP,Warten,Leeuwarden,Friesland,VBO,5.896612,53.151297
Taanpôle,3,,,9003MP,Warten,Leeuwarden,Friesland,VBO,5.896690,53.151308
Taanpôle,5,,,9003MP,Warten,Leeuwarden,Friesland,VBO,5.896786,53.151333
Taanpôle,7,,,9003MP,Warten,Leeuwarden,Friesland,VBO,5.896868,53.151344
Taanpôle,9,,,9003MP,Warten,Leeuwarden,Friesland,VBO,5.896960,53.151359
Taanpôle,11,,,9003MP,Warten,Leeuwarden,Friesland,VBO,5.896957,53.151531
Taanpôle,13,,,9003MP,Warten,Leeuwarden,Friesland,VBO,5.896935,53.151579
Taanpôle,15,,,9003MP,Warten,Leeuwarden,Friesland,VBO,5.896913,53.151626
Taanpôle,17,,,9003MP,Warten,Leeuwarden,Friesland,VBO,5.896863,53.151667
Taanpôle,19,,,9003MP,Warten,Leeuwarden,Friesland,VBO,5.896841,53.151715
Taanpôle,2,,,9003MR,Warten,Leeuwarden,Friesland,VBO,5.896681,53.151111
Taanpôle,4,,,9003MR,Warten,Leeuwarden,Friesland,VBO,5.896803,53.151070
Taanpôle,6,,,9003MR,Warten,Leeuwarden,Friesland,VBO,5.896878,53.151097
Taanpôle,8,,,9003MR,Warten,Leeuwarden,Friesland,VBO,5.896992,53.151086
Taanpôle,10,,,9003MR,Warten,Leeuwarden,Friesland,VBO,5.897068,53.151110
Taanpôle,12,,,9003MR,Warten,Leeuwarden,Friesland,VBO,5.897353,53.151156
Taanpôle,14,,,9003MR,Warten,Leeuwarden,Friesland,VBO,5.897423,53.151166
Taanpôle,16,,,9003MR,Warten,Leeuwarden,Friesland,VBO,5.897510,53.151183
Taanpôle,18,,,9003MR,Warten,Leeuwarden,Friesland,VBO,5.897579,53.151193
Taanpôle,20,,,9003MR,Warten,Leeuwarden,Friesland,VBO,5.897431,53.151380
Taanpôle,22,,,9003MR,Warten,Leeuwarden,Friesland,VBO,5.897405,53.151427
Taanpôle,24,,,9003MR,Warten,Leeuwarden,Friesland,VBO,5.897391,53.151472
Taanpôle,26,,,9003MR,Warten,Leeuwarden,Friesland,VBO,5.897362,53.151525
Taanpôle,28,,,9003MR,Warten,Leeuwarden,Friesland,VBO,5.897347,53.151568
Taanpôle,30,,,9003MR,Warten,Leeuwarden,Friesland,VBO,5.897268,53.151653
Taanpôle,32,,,9003MR,Warten,Leeuwarden,Friesland,VBO,5.897245,53.151703
Taanpôle,34,,,9003MR,Warten,Leeuwarden,Friesland,VBO,5.897222,53.151753
Taanpôle,36,,,9003MR,Warten,Leeuwarden,Friesland,VBO,5.897199,53.151804
De Mieden,30,,,9003MS,Warten,Leeuwarden,Friesland,VBO,5.896809,53.152053
De Mieden,32,,,9003MS,Warten,Leeuwarden,Friesland,VBO,5.896679,53.152036
De Mieden,34,,,9003MS,Warten,Leeuwarden,Friesland,VBO,5.896566,53.152003
De Mieden,36,,,9003MS,Warten,Leeuwarden,Friesland,VBO,5.896342,53.151978
De Mieden,38,,,9003MS,Warten,Leeuwarden,Friesland,VBO,5.896079,53.151923
De Mieden,42,,,9003MS,Warten,Leeuwarden,Friesland,VBO,5.895936,53.151775
De Mieden,44,,,9003MS,Warten,Leeuwarden,Friesland,VBO,5.895909,53.151598
De Mieden,46,,,9003MS,Warten,Leeuwarden,Friesland,VBO,5.895948,53.151443
De Mieden,48,,,9003MS,Warten,Leeuwarden,Friesland,VBO,5.895960,53.151344
De Mieden,50,,,9003MS,Warten,Leeuwarden,Friesland,VBO,5.896040,53.151253
De Mieden,52,,,9003MS,Warten,Leeuwarden,Friesland,VBO,5.896061,53.151160
De Mieden,56,,,9003MS,Warten,Leeuwarden,Friesland,VBO,5.896151,53.151068
De Mieden,58,,,9003MS,Warten,Leeuwarden,Friesland,VBO,5.896220,53.150986
De Mieden,60,,,9003MS,Warten,Leeuwarden,Friesland,VBO,5.896263,53.150890
De Bleek,21,,,9003MT,Warten,Leeuwarden,Friesland,VBO,5.897378,53.150528
De Bleek,23,,,9003MT,Warten,Leeuwarden,Friesland,VBO,5.897341,53.150589
De Bleek,25,,,9003MT,Warten,Leeuwarden,Friesland,VBO,5.897130,53.150586
De Bleek,26,,,9003MT,Warten,Leeuwarden,Friesland,VBO,5.897156,53.150933
De Bleek,27,,,9003MT,Warten,Leeuwarden,Friesland,VBO,5.897032,53.150612
De Bleek,28,,,9003MT,Warten,Leeuwarden,Friesland,VBO,5.897073,53.150923
De Bleek,29,,,9003MT,Warten,Leeuwarden,Friesland,VBO,5.896872,53.150608
De Bleek,30,,,9003MT,Warten,Leeuwarden,Friesland,VBO,5.896975,53.150903
De Bleek,31,,,9003MT,Warten,Leeuwarden,Friesland,VBO,5.896765,53.150583
De Bleek,32,,,9003MT,Warten,Leeuwarden,Friesland,VBO,5.896891,53.150893
De Bleek,33,,,9003MT,Warten,Leeuwarden,Friesland,VBO,5.896587,53.150645
De Bleek,35,,,9003MT,Warten,Leeuwarden,Friesland,VBO,5.896471,53.150634
De Bleek,37,,,9003MT,Warten,Leeuwarden,Friesland,VBO,5.896380,53.150607
De Bleek,39,,,9003MT,Warten,Leeuwarden,Friesland,VBO,5.896268,53.150610
Karriderspaad,1,,,9003MV,Warten,Leeuwarden,Friesland,VBO,5.897549,53.150335
Karriderspaad,2,,,9003MV,Warten,Leeuwarden,Friesland,VBO,5.897787,53.150203
Karriderspaad,4,,,9003MV,Warten,Leeuwarden,Friesland,VBO,5.897728,53.150271
Oer de Barten,1,,,9003MZ,Warten,Leeuwarden,Friesland,VBO,5.896107,53.150492
Oer de Barten,2,,,9003MZ,Warten,Leeuwarden,Friesland,VBO,5.895836,53.150746
Oer de Barten,3,,,9003MZ,Warten,Leeuwarden,Friesland,VBO,5.895939,53.150435
Oer de Barten,4,,,9003MZ,Warten,Leeuwarden,Friesland,VBO,5.895814,53.150796
Oer de Barten,5,,,9003MZ,Warten,Leeuwarden,Friesland,VBO,5.895768,53.150401
Oer de Barten,6,,,9003MZ,Warten,Leeuwarden,Friesland,VBO,5.895715,53.150958
Oer de Barten,7,,,9003MZ,Warten,Leeuwarden,Friesland,VBO,5.895601,53.150374
Oer de Barten,8,,,9003MZ,Warten,Leeuwarden,Friesland,VBO,5.895692,53.151010
Oer de Barten,9,,,9003MZ,Warten,Leeuwarden,Friesland,VBO,5.895378,53.150549
Oer de Barten,10,,,9003MZ,Warten,Leeuwarden,Friesland,VBO,5.895640,53.151154
Oer de Barten,11,,,9003MZ,Warten,Leeuwarden,Friesland,VBO,5.895312,53.150682
Oer de Barten,12,,,9003MZ,Warten,Leeuwarden,Friesland,VBO,5.895584,53.151221
Oer de Barten,13,,,9003MZ,Warten,Leeuwarden,Friesland,VBO,5.895286,53.150819
Oer de Barten,14,,,9003MZ,Warten,Leeuwarden,Friesland,VBO,5.895516,53.151375
Oer de Barten,15,,,9003MZ,Warten,Leeuwarden,Friesland,VBO,5.895169,53.150951
Oer de Barten,16,,,9003MZ,Warten,Leeuwarden,Friesland,VBO,5.895492,53.151428
Oer de Barten,17,,,9003MZ,Warten,Leeuwarden,Friesland,VBO,5.895097,53.151199
Oer de Barten,18,,,9003MZ,Warten,Leeuwarden,Friesland,VBO,5.895454,53.151574
Oer de Barten,19,,,9003MZ,Warten,Leeuwarden,Friesland,VBO,5.895071,53.151376
Oer de Barten,20,,,9003MZ,Warten,Leeuwarden,Friesland,VBO,5.895417,53.151649
Oer de Barten,21,,,9003MZ,Warten,Leeuwarden,Friesland,VBO,5.894963,53.151506
Oer de Barten,22,,,9003MZ,Warten,Leeuwarden,Friesland,VBO,5.895367,53.151782
Oer de Barten,23,,,9003MZ,Warten,Leeuwarden,Friesland,VBO,5.894890,53.151693
Oer de Barten,24,,,9003MZ,Warten,Leeuwarden,Friesland,VBO,5.895339,53.151853
Princehof,3,,,9003XA,Warten,Leeuwarden,Friesland,VBO,5.927631,53.128753
Oude Venen,4,,,9003XB,Warten,Leeuwarden,Friesland,VBO,5.922600,53.130375
Oude Venen,5,,,9003XB,Warten,Leeuwarden,Friesland,VBO,5.916685,53.129009
Oude Venen,6,,,9003XB,Warten,Leeuwarden,Friesland,VBO,5.914744,53.128611
Oude Venen,7,,,9003XB,Warten,Leeuwarden,Friesland,VBO,5.914218,53.128008
Oude Venen,8,,,9003XB,Warten,Leeuwarden,Friesland,VBO,5.915651,53.128147
Oude Venen,9,,,9003XB,Warten,Leeuwarden,Friesland,VBO,5.917319,53.128245
Oude Venen,10,,,9003XB,Warten,Leeuwarden,Friesland,VBO,5.918535,53.127966
Oude Venen,11,,,9003XB,Warten,Leeuwarden,Friesland,VBO,5.919588,53.128225
Oude Venen,12,,,9003XB,Warten,Leeuwarden,Friesland,VBO,5.919225,53.127457
Oude Venen,13,,,9003XB,Warten,Leeuwarden,Friesland,VBO,5.919646,53.127038
Oude Venen,14,,,9003XB,Warten,Leeuwarden,Friesland,VBO,5.920014,53.126545
Oude Venen,15,,,9003XB,Warten,Leeuwarden,Friesland,VBO,5.920769,53.125905
Oude Venen,16,,,9003XB,Warten,Leeuwarden,Friesland,VBO,5.921636,53.125467
Oude Venen,17,,,9003XB,Warten,Leeuwarden,Friesland,VBO,5.922150,53.125009
Oude Venen,18,,,9003XB,Warten,Leeuwarden,Friesland,VBO,5.921501,53.124878
Oude Venen,19,,,9003XB,Warten,Leeuwarden,Friesland,VBO,5.920742,53.124422
Oude Venen,20,,,9003XB,Warten,Leeuwarden,Friesland,VBO,5.919801,53.124214
Oude Venen,21,,,9003XB,Warten,Leeuwarden,Friesland,VBO,5.917951,53.124084
Oude Venen,22,,,9003XB,Warten,Leeuwarden,Friesland,VBO,5.916902,53.124741
Oude Venen,23,,,9003XB,Warten,Leeuwarden,Friesland,VBO,5.913101,53.124771
Oude Venen,24,,,9003XB,Warten,Leeuwarden,Friesland,VBO,5.914679,53.123210
Oude Venen,25,,,9003XB,Warten,Leeuwarden,Friesland,VBO,5.913743,53.122868
Oude Venen,26,,,9003XB,Warten,Leeuwarden,Friesland,VBO,5.912913,53.122658
Oude Venen,27,,,9003XB,Warten,Leeuwarden,Friesland,VBO,5.912014,53.122447
Oude Venen,28,,,9003XB,Warten,Leeuwarden,Friesland,VBO,5.928070,53.123570
Oude Venen,29,,,9003XB,Warten,Leeuwarden,Friesland,VBO,5.931120,53.124352
Oude Venen,30,,,9003XB,Warten,Leeuwarden,Friesland,VBO,5.931118,53.125100
Oude Venen,31,,,9003XB,Warten,Leeuwarden,Friesland,VBO,5.932796,53.126329
Oude Venen,32,,,9003XB,Warten,Leeuwarden,Friesland,VBO,5.933785,53.126529
Oude Venen,33,,,9003XB,Warten,Leeuwarden,Friesland,VBO,5.932486,53.127099
Oude Venen,34,,,9003XB,Warten,Leeuwarden,Friesland,VBO,5.931684,53.126628
Oude Venen,35,,,9003XB,Warten,Leeuwarden,Friesland,VBO,5.930126,53.125629
Oude Venen,36,,,9003XB,Warten,Leeuwarden,Friesland,VBO,5.929605,53.125314
Oude Venen,37,,,9003XB,Warten,Leeuwarden,Friesland,VBO,5.928057,53.125306
Oude Venen,38,,,9003XB,Warten,Leeuwarden,Friesland,VBO,5.928284,53.126155
Oude Venen,39,,,9003XB,Warten,Leeuwarden,Friesland,VBO,5.925334,53.127555
Oude Venen,40,,,9003XB,Warten,Leeuwarden,Friesland,VBO,5.927256,53.128823
Oude Venen,41,,,9003XB,Warten,Leeuwarden,Friesland,VBO,5.925648,53.129620
Oude Venen,42,,,9003XB,Warten,Leeuwarden,Friesland,VBO,5.924225,53.129680
Oude Venen,8001,,,9003XB,Warten,Leeuwarden,Friesland,LIG,5.921219,53.130444
Oude Venen,8002,,,9003XB,Warten,Leeuwarden,Friesland,LIG,5.920069,53.129851
Oude Venen,8003,,,9003XB,Warten,Leeuwarden,Friesland,LIG,5.918798,53.129369
Oude Venen,8004,,,9003XB,Warten,Leeuwarden,Friesland,LIG,5.918359,53.129154
Oude Venen,8005,,,9003XB,Warten,Leeuwarden,Friesland,LIG,5.916667,53.128244
Oude Venen,8006,,,9003XB,Warten,Leeuwarden,Friesland,LIG,5.918159,53.128283
Oude Venen,8007,,,9003XB,Warten,Leeuwarden,Friesland,LIG,5.925978,53.128351
Oude Venen,8008,,,9003XB,Warten,Leeuwarden,Friesland,LIG,5.926278,53.128492
Oude Venen,8009,,,9003XB,Warten,Leeuwarden,Friesland,LIG,5.932376,53.126126
Oude Venen,8010,,,9003XB,Warten,Leeuwarden,Friesland,LIG,5.932189,53.125583
Oude Venen,8011,,,9003XB,Warten,Leeuwarden,Friesland,LIG,5.932691,53.125182
Oude Venen,8012,,,9003XB,Warten,Leeuwarden,Friesland,LIG,5.931641,53.124499
Oude Venen,8013,,,9003XB,Warten,Leeuwarden,Friesland,LIG,5.931627,53.124747
Oude Venen,8014,,,9003XB,Warten,Leeuwarden,Friesland,LIG,5.930708,53.124009
Oude Venen,8015,,,9003XB,Warten,Leeuwarden,Friesland,LIG,5.930162,53.124443
Oude Venen,8016,,,9003XB,Warten,Leeuwarden,Friesland,LIG,5.929352,53.124409
Oude Venen,8017,,,9003XB,Warten,Leeuwarden,Friesland,LIG,5.928817,53.124337
Oude Venen,8018,,,9003XB,Warten,Leeuwarden,Friesland,LIG,5.930179,53.123016
Oude Venen,8019,,,9003XB,Warten,Leeuwarden,Friesland,LIG,5.931619,53.126302
Oude Venen,8020,,,9003XB,Warten,Leeuwarden,Friesland,LIG,5.928697,53.125214
Oude Venen,8021,,,9003XB,Warten,Leeuwarden,Friesland,LIG,5.915852,53.125426
Oude Venen,8022,,,9003XB,Warten,Leeuwarden,Friesland,LIG,5.915075,53.125373
Oude Venen,8023,,,9003XB,Warten,Leeuwarden,Friesland,LIG,5.914274,53.123825
Stoatersreed,1,,,9003XP,Warten,Leeuwarden,Friesland,VBO,5.902327,53.145735
Stûkloane,3,,,9003XR,Warten,Leeuwarden,Friesland,VBO,5.914776,53.164433
Stûkloane,4,,,9003XR,Warten,Leeuwarden,Friesland,VBO,5.916020,53.164841
Stûkloane,5,,,9003XR,Warten,Leeuwarden,Friesland,VBO,5.908174,53.161823
Stûkloane,6,,,9003XR,Warten,Leeuwarden,Friesland,VBO,5.905424,53.163655
Stûkloane,7,,,9003XR,Warten,Leeuwarden,Friesland,VBO,5.901674,53.162551
Stûkloane,8,,,9003XR,Warten,Leeuwarden,Friesland,VBO,5.899180,53.162945
Stûkenwei,2,a,,9003XS,Warten,Leeuwarden,Friesland,VBO,5.923314,53.160895
Stûkenwei,2,,,9003XS,Warten,Leeuwarden,Friesland,VBO,5.923097,53.160683
Stûkenwei,5,a,,9003XS,Warten,Leeuwarden,Friesland,VBO,5.931097,53.162308
Stûkenwei,5,b,,9003XS,Warten,Leeuwarden,Friesland,VBO,5.930828,53.162122
Stûkenwei,5,,,9003XS,Warten,Leeuwarden,Friesland,VBO,5.931528,53.163728
Stûkenwei,7,,,9003XS,Warten,Leeuwarden,Friesland,VBO,5.922233,53.159289
Stûkenwei,9,a,,9003XS,Warten,Leeuwarden,Friesland,VBO,5.909724,53.153245
Stûkenwei,9,,,9003XS,Warten,Leeuwarden,Friesland,VBO,5.909923,53.153593
De Sayter,1,,,9003XT,Warten,Leeuwarden,Friesland,VBO,5.912271,53.138630
De Sayter,3,,,9003XT,Warten,Leeuwarden,Friesland,VBO,5.911207,53.138162
Meagere Weide,16,,,9003XV,Warten,Leeuwarden,Friesland,VBO,5.890133,53.167175
Meagere Weide,27,,,9003XV,Warten,Leeuwarden,Friesland,VBO,5.892437,53.160776
Meagere Weide,29,,,9003XV,Warten,Leeuwarden,Friesland,VBO,5.888833,53.166195
Ald Djip,1,,,9003XW,Warten,Leeuwarden,Friesland,VBO,5.900519,53.152159
Ald Djip,2,,,9003XW,Warten,Leeuwarden,Friesland,VBO,5.903517,53.153193
Ald Djip,3,,,9003XW,Warten,Leeuwarden,Friesland,VBO,5.902016,53.151708
Ald Fean,1,,,9003XX,Warten,Leeuwarden,Friesland,VBO,5.899564,53.126646
Ald Fean,2,,,9003XX,Warten,Leeuwarden,Friesland,VBO,5.902070,53.125044
Ald Fean,3,,,9003XX,Warten,Leeuwarden,Friesland,VBO,5.908497,53.121932
Ald Fean,4,,,9003XX,Warten,Leeuwarden,Friesland,VBO,5.893960,53.121936
Ald Fean,5,,,9003XX,Warten,Leeuwarden,Friesland,VBO,5.905163,53.127019
Ald Fean,6,,,9003XX,Warten,Leeuwarden,Friesland,VBO,5.898010,53.129109
Ald Fean,7,,,9003XX,Warten,Leeuwarden,Friesland,VBO,5.893974,53.129992
Leechlân,9,,,9003XX,Warten,Leeuwarden,Friesland,VBO,5.890464,53.143433
Leechlân,28,,,9003XX,Warten,Leeuwarden,Friesland,VBO,5.858603,53.126722
Leechlân,32,,,9003XX,Warten,Leeuwarden,Friesland,VBO,5.870810,53.124970
Leechlân,34,a,,9003XX,Warten,Leeuwarden,Friesland,VBO,5.873034,53.123094
Leechlân,34,b,,9003XX,Warten,Leeuwarden,Friesland,VBO,5.872975,53.123069
Leechlân,34,c,,9003XX,Warten,Leeuwarden,Friesland,VBO,5.872919,53.123040
Leechlân,34,d,,9003XX,Warten,Leeuwarden,Friesland,VBO,5.872862,53.123013
Leechlân,34,,,9003XX,Warten,Leeuwarden,Friesland,VBO,5.872624,53.123059
Leechlân,36,,,9003XX,Warten,Leeuwarden,Friesland,VBO,5.872059,53.122534
Leechlân,38,,,9003XX,Warten,Leeuwarden,Friesland,VBO,5.875432,53.126930
Leechlân,40,,,9003XX,Warten,Leeuwarden,Friesland,VBO,5.875068,53.132267
Leechlân,42,,,9003XX,Warten,Leeuwarden,Friesland,VBO,5.880777,53.135048
Leechlân,44,,,9003XX,Warten,Leeuwarden,Friesland,VBO,5.889528,53.142075
Leechlân,8001,,,9003XX,Warten,Leeuwarden,Friesland,LIG,5.881377,53.133024
Greft,1,,,9003XZ,Warten,Leeuwarden,Friesland,VBO,5.903714,53.142200
Greft,2,a,,9003XZ,Warten,Leeuwarden,Friesland,VBO,5.903767,53.143334
Greft,2,,,9003XZ,Warten,Leeuwarden,Friesland,VBO,5.903973,53.143259
Greft,3,,,9003XZ,Warten,Leeuwarden,Friesland,VBO,5.880379,53.124287
Greft,4,a,,9003XZ,Warten,Leeuwarden,Friesland,VBO,5.894441,53.140049
Greft,4,,,9003XZ,Warten,Leeuwarden,Friesland,VBO,5.894988,53.140465
Greft,6,,,9003XZ,Warten,Leeuwarden,Friesland,VBO,5.888107,53.136787
Greft,8,a,,9003XZ,Warten,Leeuwarden,Friesland,VBO,5.877815,53.123339
Greft,8,,,9003XZ,Warten,Leeuwarden,Friesland,VBO,5.877715,53.123315
Greft,10,,,9003XZ,Warten,Leeuwarden,Friesland,VBO,5.877776,53.123101
