openbareruimtenaam,huisnummer,huisletter,huisnummertoevoeging,postcode,woonplaatsnaam,gemeentenaam,provincienaam,typeadresseerbaarobject,longitude,latitude
Lyspôle,1,,,9005MA,Wergea,Leeuwarden,Friesland,VBO,5.842958,53.149342
Lyspôle,2,,,9005MA,Wergea,Leeuwarden,Friesland,VBO,5.843096,53.149342
Lyspôle,3,,,9005MA,Wergea,Leeuwarden,Friesland,VBO,5.842876,53.149343
Lyspôle,4,,,9005MA,Wergea,Leeuwarden,Friesland,VBO,5.842566,53.149352
Lyspôle,5,,,9005MA,Wergea,Leeuwarden,Friesland,VBO,5.842568,53.149406
Lyspôle,6,,,9005MA,Wergea,Leeuwarden,Friesland,VBO,5.842526,53.149486
Lyspôle,7,,,9005MA,Wergea,Leeuwarden,Friesland,VBO,5.842525,53.149539
Lyspôle,8,,,9005MA,Wergea,Leeuwarden,Friesland,VBO,5.842544,53.149710
Lyspôle,9,,,9005MA,Wergea,Leeuwarden,Friesland,VBO,5.842546,53.149781
Lyspôle,10,,,9005MA,Wergea,Leeuwarden,Friesland,VBO,5.842505,53.149858
Lyspôle,11,,,9005MA,Wergea,Leeuwarden,Friesland,VBO,5.842506,53.149905
Lyspôle,12,,,9005MA,Wergea,Leeuwarden,Friesland,VBO,5.842828,53.150004
Lyspôle,13,,,9005MA,Wergea,Leeuwarden,Friesland,VBO,5.842829,53.149956
Lyspôle,14,,,9005MA,Wergea,Leeuwarden,Friesland,VBO,5.842872,53.149879
Lyspôle,15,,,9005MA,Wergea,Leeuwarden,Friesland,VBO,5.842873,53.149822
Lyspôle,16,,,9005MA,Wergea,Leeuwarden,Friesland,VBO,5.842915,53.149734
Lyspôle,17,,,9005MA,Wergea,Leeuwarden,Friesland,VBO,5.842914,53.149687
Lyspôle,18,,,9005MA,Wergea,Leeuwarden,Friesland,VBO,5.842913,53.149606
Lyspôle,19,,,9005MA,Wergea,Leeuwarden,Friesland,VBO,5.843620,53.149626
Lyspôle,20,,,9005MA,Wergea,Leeuwarden,Friesland,VBO,5.843621,53.149586
Lyspôle,21,,,9005MA,Wergea,Leeuwarden,Friesland,VBO,5.843661,53.149491
Lyspôle,22,,,9005MA,Wergea,Leeuwarden,Friesland,VBO,5.843662,53.149455
Lyspôle,23,,,9005MA,Wergea,Leeuwarden,Friesland,VBO,5.843464,53.149418
Lyspôle,24,,,9005MA,Wergea,Leeuwarden,Friesland,VBO,5.843409,53.149417
Narderherne,1,,,9005MB,Wergea,Leeuwarden,Friesland,VBO,5.843675,53.149083
Narderherne,2,,,9005MB,Wergea,Leeuwarden,Friesland,VBO,5.843166,53.148999
Narderherne,3,,,9005MB,Wergea,Leeuwarden,Friesland,VBO,5.843675,53.148909
Narderherne,4,,,9005MB,Wergea,Leeuwarden,Friesland,VBO,5.843290,53.148826
Narderherne,5,,,9005MB,Wergea,Leeuwarden,Friesland,VBO,5.843810,53.148744
Narderherne,6,,,9005MB,Wergea,Leeuwarden,Friesland,VBO,5.843439,53.148660
Narderherne,7,,,9005MB,Wergea,Leeuwarden,Friesland,VBO,5.843853,53.148595
Narderherne,8,,,9005MB,Wergea,Leeuwarden,Friesland,VBO,5.843431,53.148527
Narderherne,9,,,9005MB,Wergea,Leeuwarden,Friesland,VBO,5.844008,53.148385
Narderherne,10,,,9005MB,Wergea,Leeuwarden,Friesland,VBO,5.843536,53.148346
Narderherne,11,,,9005MB,Wergea,Leeuwarden,Friesland,VBO,5.843964,53.148265
Narderherne,12,,,9005MB,Wergea,Leeuwarden,Friesland,VBO,5.843592,53.148202
Narderherne,14,,,9005MB,Wergea,Leeuwarden,Friesland,VBO,5.843569,53.147759
Narderherne,18,,,9005MB,Wergea,Leeuwarden,Friesland,VBO,5.843732,53.147267
Narderherne,20,,,9005MB,Wergea,Leeuwarden,Friesland,VBO,5.843829,53.147152
Narderherne,22,,,9005MB,Wergea,Leeuwarden,Friesland,VBO,5.844069,53.146914
Narderherne,24,,,9005MB,Wergea,Leeuwarden,Friesland,VBO,5.844100,53.146740
Floreentsien,1,,,9005MC,Wergea,Leeuwarden,Friesland,VBO,5.842566,53.148849
Floreentsien,3,,,9005MC,Wergea,Leeuwarden,Friesland,VBO,5.842633,53.148725
Floreentsien,5,,,9005MC,Wergea,Leeuwarden,Friesland,VBO,5.842696,53.148625
Floreentsien,7,,,9005MC,Wergea,Leeuwarden,Friesland,VBO,5.842743,53.148527
Floreentsien,9,,,9005MC,Wergea,Leeuwarden,Friesland,VBO,5.842808,53.148422
Floreentsien,11,,,9005MC,Wergea,Leeuwarden,Friesland,VBO,5.842870,53.148319
Floreentsien,13,,,9005MC,Wergea,Leeuwarden,Friesland,VBO,5.842925,53.148217
Floreentsien,15,,,9005MC,Wergea,Leeuwarden,Friesland,VBO,5.842892,53.148065
Floreentsien,24,,,9005MC,Wergea,Leeuwarden,Friesland,VBO,5.842352,53.148030
Spûkefeartstrjitte,12,,,9005MD,Wergea,Leeuwarden,Friesland,VBO,5.841780,53.148171
Spûkefeartstrjitte,14,,,9005MD,Wergea,Leeuwarden,Friesland,VBO,5.842301,53.148249
Ringfeartstrjitte,12,,,9005ME,Wergea,Leeuwarden,Friesland,VBO,5.840165,53.148455
Oan 't Alddjip,1,,,9005MG,Wergea,Leeuwarden,Friesland,VBO,5.837911,53.148785
Oan 't Alddjip,3,,,9005MG,Wergea,Leeuwarden,Friesland,VBO,5.837500,53.148757
Oan 't Alddjip,10,,,9005MG,Wergea,Leeuwarden,Friesland,VBO,5.837906,53.149132
Keardok,1,,,9005MH,Wergea,Leeuwarden,Friesland,VBO,5.838343,53.150235
Keardok,2,,,9005MH,Wergea,Leeuwarden,Friesland,VBO,5.838179,53.150548
Keardok,3,,,9005MH,Wergea,Leeuwarden,Friesland,VBO,5.838498,53.150264
Keardok,4,,,9005MH,Wergea,Leeuwarden,Friesland,VBO,5.838338,53.150578
Keardok,5,,,9005MH,Wergea,Leeuwarden,Friesland,VBO,5.838678,53.150265
Keardok,6,,,9005MH,Wergea,Leeuwarden,Friesland,VBO,5.838489,53.150640
Keardok,7,,,9005MH,Wergea,Leeuwarden,Friesland,VBO,5.838732,53.150276
Keardok,8,,,9005MH,Wergea,Leeuwarden,Friesland,VBO,5.838540,53.150649
Keardok,9,,,9005MH,Wergea,Leeuwarden,Friesland,VBO,5.838870,53.150302
Keardok,10,,,9005MH,Wergea,Leeuwarden,Friesland,VBO,5.838685,53.150677
Keardok,11,,,9005MH,Wergea,Leeuwarden,Friesland,VBO,5.838923,53.150312
Keardok,12,,,9005MH,Wergea,Leeuwarden,Friesland,VBO,5.838735,53.150686
Keardok,13,,,9005MH,Wergea,Leeuwarden,Friesland,VBO,5.839077,53.150371
Keardok,14,,,9005MH,Wergea,Leeuwarden,Friesland,VBO,5.838917,53.150683
Keardok,15,,,9005MH,Wergea,Leeuwarden,Friesland,VBO,5.839235,53.150401
Keardok,16,,,9005MH,Wergea,Leeuwarden,Friesland,VBO,5.839074,53.150714
Keardok,18,,,9005MH,Wergea,Leeuwarden,Friesland,VBO,5.838551,53.149991
Palmastrjitte,3,,,9005MJ,Wergea,Leeuwarden,Friesland,VBO,5.838856,53.149453
Palmastrjitte,6,,,9005MJ,Wergea,Leeuwarden,Friesland,VBO,5.838466,53.149276
Nieuwe Hoek,1,,,9005NA,Wergea,Leeuwarden,Friesland,VBO,5.843807,53.151982
Nieuwe Hoek,4,,,9005NA,Wergea,Leeuwarden,Friesland,VBO,5.843526,53.152361
Nieuwe Hoek,5,,,9005NA,Wergea,Leeuwarden,Friesland,VBO,5.843400,53.152459
Nieuwe Hoek,6,,,9005NA,Wergea,Leeuwarden,Friesland,VBO,5.843270,53.152537
Nieuwe Hoek,8,,,9005NA,Wergea,Leeuwarden,Friesland,VBO,5.843202,53.152634
Nieuwe Hoek,12,,,9005NA,Wergea,Leeuwarden,Friesland,VBO,5.842985,53.152823
Nieuwe Hoek,13,,,9005NA,Wergea,Leeuwarden,Friesland,VBO,5.842801,53.152909
Nieuwe Hoek,14,,,9005NA,Wergea,Leeuwarden,Friesland,VBO,5.842733,53.152978
Nieuwe Hoek,15,,,9005NA,Wergea,Leeuwarden,Friesland,VBO,5.842716,53.153113
Nieuwe Hoek,17,,,9005NA,Wergea,Leeuwarden,Friesland,VBO,5.842679,53.153657
Nieuwe Hoek,19,,,9005NA,Wergea,Leeuwarden,Friesland,VBO,5.842507,53.153242
Nieuwe Hoek,21,,,9005NA,Wergea,Leeuwarden,Friesland,VBO,5.842381,53.153066
Nieuwe Hoek,22,,,9005NA,Wergea,Leeuwarden,Friesland,VBO,5.842323,53.153071
Leeuwarderweg,1,,,9005NB,Wergea,Leeuwarden,Friesland,VBO,5.843111,53.151947
Leeuwarderweg,3,,,9005NB,Wergea,Leeuwarden,Friesland,VBO,5.842920,53.152051
Leeuwarderweg,5,,,9005NB,Wergea,Leeuwarden,Friesland,VBO,5.842296,53.152058
Leeuwarderweg,7,,,9005NB,Wergea,Leeuwarden,Friesland,VBO,5.842436,53.152102
Leeuwarderweg,9,,,9005NB,Wergea,Leeuwarden,Friesland,VBO,5.842477,53.152121
Leeuwarderweg,11,,,9005NB,Wergea,Leeuwarden,Friesland,VBO,5.842672,53.152264
Leeuwarderweg,13,,,9005NB,Wergea,Leeuwarden,Friesland,VBO,5.841998,53.152076
Leeuwarderweg,15,,,9005NB,Wergea,Leeuwarden,Friesland,VBO,5.842059,53.152106
Leeuwarderweg,17,,,9005NB,Wergea,Leeuwarden,Friesland,VBO,5.842133,53.152141
Leeuwarderweg,19,,,9005NB,Wergea,Leeuwarden,Friesland,VBO,5.842207,53.152178
Leeuwarderweg,21,,,9005NB,Wergea,Leeuwarden,Friesland,VBO,5.842304,53.152223
Leeuwarderweg,23,,,9005NB,Wergea,Leeuwarden,Friesland,VBO,5.842359,53.152250
Leeuwarderweg,25,,,9005NB,Wergea,Leeuwarden,Friesland,VBO,5.842499,53.152313
Leeuwarderweg,27,,,9005NC,Wergea,Leeuwarden,Friesland,VBO,5.842527,53.152379
Leeuwarderweg,29,,,9005NC,Wergea,Leeuwarden,Friesland,VBO,5.842450,53.152442
Leeuwarderweg,31,,,9005NC,Wergea,Leeuwarden,Friesland,VBO,5.842386,53.152493
Leeuwarderweg,33,,,9005NC,Wergea,Leeuwarden,Friesland,VBO,5.842328,53.152540
Leeuwarderweg,35,,,9005NC,Wergea,Leeuwarden,Friesland,VBO,5.842274,53.152581
Leeuwarderweg,37,,,9005NC,Wergea,Leeuwarden,Friesland,VBO,5.841954,53.152272
Leeuwarderweg,39,,,9005NC,Wergea,Leeuwarden,Friesland,VBO,5.841879,53.152334
Leeuwarderweg,41,,,9005NC,Wergea,Leeuwarden,Friesland,VBO,5.841829,53.152375
Leeuwarderweg,43,,,9005NC,Wergea,Leeuwarden,Friesland,VBO,5.841775,53.152420
Leeuwarderweg,45,,,9005NC,Wergea,Leeuwarden,Friesland,VBO,5.841734,53.152451
Leeuwarderweg,47,,,9005NC,Wergea,Leeuwarden,Friesland,VBO,5.841857,53.152490
Leeuwarderweg,49,,,9005NC,Wergea,Leeuwarden,Friesland,VBO,5.841993,53.152532
Leeuwarderweg,51,,,9005NC,Wergea,Leeuwarden,Friesland,VBO,5.842176,53.152660
Leeuwarderweg,53,,,9005NC,Wergea,Leeuwarden,Friesland,VBO,5.842010,53.152753
Leeuwarderweg,55,,,9005ND,Wergea,Leeuwarden,Friesland,VBO,5.841698,53.152649
Leeuwarderweg,57,,,9005ND,Wergea,Leeuwarden,Friesland,VBO,5.841597,53.152604
Leeuwarderweg,59,,,9005ND,Wergea,Leeuwarden,Friesland,VBO,5.841496,53.152555
Leeuwarderweg,61,,,9005ND,Wergea,Leeuwarden,Friesland,VBO,5.841324,53.152308
Leeuwarderweg,63,a,,9005ND,Wergea,Leeuwarden,Friesland,VBO,5.840787,53.152102
Leeuwarderweg,63,,,9005ND,Wergea,Leeuwarden,Friesland,VBO,5.840452,53.152240
Leeuwarderweg,65,,,9005ND,Wergea,Leeuwarden,Friesland,VBO,5.839008,53.151689
Leeuwarderweg,67,,,9005ND,Wergea,Leeuwarden,Friesland,VBO,5.838632,53.151614
Leeuwarderweg,2,,,9005NE,Wergea,Leeuwarden,Friesland,VBO,5.843538,53.151916
Leeuwarderweg,4,,,9005NE,Wergea,Leeuwarden,Friesland,VBO,5.843216,53.152118
Leeuwarderweg,14,,,9005NE,Wergea,Leeuwarden,Friesland,VBO,5.843008,53.152436
Leeuwarderweg,18,,,9005NE,Wergea,Leeuwarden,Friesland,VBO,5.842767,53.152402
Leeuwarderweg,20,,,9005NE,Wergea,Leeuwarden,Friesland,VBO,5.842695,53.152458
Leeuwarderweg,24,,,9005NE,Wergea,Leeuwarden,Friesland,VBO,5.842776,53.152596
Leeuwarderweg,26,,,9005NE,Wergea,Leeuwarden,Friesland,VBO,5.842647,53.152646
Leeuwarderweg,28,,,9005NE,Wergea,Leeuwarden,Friesland,VBO,5.842581,53.152702
Leeuwarderweg,30,,,9005NE,Wergea,Leeuwarden,Friesland,VBO,5.842389,53.152773
Leeuwarderweg,32,,,9005NE,Wergea,Leeuwarden,Friesland,VBO,5.842312,53.152909
Leeuwarderweg,34,,,9005NE,Wergea,Leeuwarden,Friesland,VBO,5.842185,53.152937
Leeuwarderweg,38,,,9005NE,Wergea,Leeuwarden,Friesland,VBO,5.842037,53.153018
Leeuwarderweg,40,,,9005NG,Wergea,Leeuwarden,Friesland,VBO,5.841503,53.153141
Leeuwarderweg,42,,,9005NG,Wergea,Leeuwarden,Friesland,VBO,5.840795,53.152718
Leeuwarderweg,44,,,9005NG,Wergea,Leeuwarden,Friesland,VBO,5.839965,53.152501
Leeuwarderweg,46,,,9005NG,Wergea,Leeuwarden,Friesland,VBO,5.839761,53.152388
Leeuwarderweg,48,,,9005NG,Wergea,Leeuwarden,Friesland,VBO,5.839158,53.152789
Leeuwarderweg,50,a,,9005NG,Wergea,Leeuwarden,Friesland,VBO,5.839200,53.152397
Leeuwarderweg,50,,,9005NG,Wergea,Leeuwarden,Friesland,VBO,5.839279,53.152602
Leeuwarderweg,52,,,9005NG,Wergea,Leeuwarden,Friesland,VBO,5.839441,53.152254
Leeuwarderweg,54,,,9005NG,Wergea,Leeuwarden,Friesland,VBO,5.839301,53.152199
Leeuwarderweg,56,,,9005NG,Wergea,Leeuwarden,Friesland,VBO,5.839203,53.152162
Leeuwarderweg,60,,,9005NG,Wergea,Leeuwarden,Friesland,VBO,5.839044,53.152081
Leeuwarderweg,62,a,,9005NG,Wergea,Leeuwarden,Friesland,VBO,5.838325,53.152654
Leeuwarderweg,62,,,9005NG,Wergea,Leeuwarden,Friesland,VBO,5.838846,53.152053
Nieuwe Leeuwarderweg,1,a,,9005NH,Wergea,Leeuwarden,Friesland,VBO,5.843610,53.151511
Nieuwe Leeuwarderweg,1,,,9005NH,Wergea,Leeuwarden,Friesland,VBO,5.843377,53.151660
Nieuwe Leeuwarderweg,5,,,9005NH,Wergea,Leeuwarden,Friesland,VBO,5.843632,53.151483
Nieuwe Leeuwarderweg,7,,,9005NH,Wergea,Leeuwarden,Friesland,VBO,5.843242,53.151443
Nieuwe Leeuwarderweg,9,,,9005NH,Wergea,Leeuwarden,Friesland,VBO,5.843193,53.151424
Nieuwe Leeuwarderweg,11,,,9005NH,Wergea,Leeuwarden,Friesland,VBO,5.842964,53.151331
Nieuwe Leeuwarderweg,13,,,9005NH,Wergea,Leeuwarden,Friesland,VBO,5.842920,53.151313
Nieuwe Leeuwarderweg,15,,,9005NH,Wergea,Leeuwarden,Friesland,VBO,5.842712,53.151325
Nieuwe Leeuwarderweg,17,,,9005NH,Wergea,Leeuwarden,Friesland,VBO,5.842687,53.151347
Nieuwe Leeuwarderweg,19,,,9005NH,Wergea,Leeuwarden,Friesland,VBO,5.842518,53.151486
Nieuwe Leeuwarderweg,21,,,9005NH,Wergea,Leeuwarden,Friesland,VBO,5.842415,53.151470
Nieuwe Leeuwarderweg,23,,,9005NH,Wergea,Leeuwarden,Friesland,VBO,5.842302,53.151453
Nieuwe Leeuwarderweg,25,,,9005NH,Wergea,Leeuwarden,Friesland,VBO,5.842201,53.151437
Nieuwe Leeuwarderweg,27,,,9005NH,Wergea,Leeuwarden,Friesland,VBO,5.842098,53.151424
Nieuwe Leeuwarderweg,29,,,9005NH,Wergea,Leeuwarden,Friesland,VBO,5.841994,53.151408
Nieuwe Leeuwarderweg,31,,,9005NH,Wergea,Leeuwarden,Friesland,VBO,5.841690,53.151362
Nieuwe Leeuwarderweg,33,,,9005NH,Wergea,Leeuwarden,Friesland,VBO,5.841653,53.151357
Nieuwe Leeuwarderweg,35,,,9005NH,Wergea,Leeuwarden,Friesland,VBO,5.841519,53.151334
Nieuwe Leeuwarderweg,37,,,9005NH,Wergea,Leeuwarden,Friesland,VBO,5.841482,53.151329
Nieuwe Leeuwarderweg,39,,,9005NH,Wergea,Leeuwarden,Friesland,VBO,5.841345,53.151311
Nieuwe Leeuwarderweg,41,,,9005NH,Wergea,Leeuwarden,Friesland,VBO,5.841300,53.151303
Nieuwe Leeuwarderweg,43,,,9005NH,Wergea,Leeuwarden,Friesland,VBO,5.841174,53.151286
Nieuwe Leeuwarderweg,45,,,9005NH,Wergea,Leeuwarden,Friesland,VBO,5.841129,53.151280
Nieuwe Leeuwarderweg,2,,,9005NJ,Wergea,Leeuwarden,Friesland,VBO,5.842132,53.151739
Nieuwe Leeuwarderweg,4,,,9005NJ,Wergea,Leeuwarden,Friesland,VBO,5.842084,53.151732
Nieuwe Leeuwarderweg,6,,,9005NJ,Wergea,Leeuwarden,Friesland,VBO,5.841560,53.151649
Nieuwe Leeuwarderweg,8,,,9005NJ,Wergea,Leeuwarden,Friesland,VBO,5.841432,53.151628
Nieuwe Leeuwarderweg,10,,,9005NJ,Wergea,Leeuwarden,Friesland,VBO,5.841404,53.151624
Nieuwe Leeuwarderweg,12,,,9005NJ,Wergea,Leeuwarden,Friesland,VBO,5.841277,53.151607
Nieuwe Leeuwarderweg,14,,,9005NJ,Wergea,Leeuwarden,Friesland,VBO,5.841247,53.151602
Nieuwe Leeuwarderweg,16,,,9005NJ,Wergea,Leeuwarden,Friesland,VBO,5.841124,53.151584
Nieuwe Leeuwarderweg,18,,,9005NJ,Wergea,Leeuwarden,Friesland,VBO,5.841088,53.151577
Ald Slotwei,1,,,9005NK,Wergea,Leeuwarden,Friesland,VBO,5.840209,53.151888
Ald Slotwei,2,,,9005NK,Wergea,Leeuwarden,Friesland,VBO,5.840881,53.151756
Ald Slotwei,4,,,9005NK,Wergea,Leeuwarden,Friesland,VBO,5.840861,53.151776
Ald Slotwei,6,,,9005NK,Wergea,Leeuwarden,Friesland,VBO,5.840800,53.151835
Ald Slotwei,8,,,9005NK,Wergea,Leeuwarden,Friesland,VBO,5.840711,53.151916
Ald Slotwei,10,,,9005NK,Wergea,Leeuwarden,Friesland,VBO,5.840678,53.151948
De Terp,1,,,9005NL,Wergea,Leeuwarden,Friesland,VBO,5.841126,53.151080
De Terp,3,,,9005NL,Wergea,Leeuwarden,Friesland,VBO,5.841157,53.150997
De Terp,5,,,9005NL,Wergea,Leeuwarden,Friesland,VBO,5.841166,53.150970
De Terp,7,,,9005NL,Wergea,Leeuwarden,Friesland,VBO,5.841257,53.150705
De Terp,9,,,9005NL,Wergea,Leeuwarden,Friesland,VBO,5.841271,53.150672
De Terp,11,,,9005NL,Wergea,Leeuwarden,Friesland,VBO,5.841297,53.150596
De Terp,13,,,9005NM,Wergea,Leeuwarden,Friesland,VBO,5.841593,53.150271
De Terp,15,,,9005NM,Wergea,Leeuwarden,Friesland,VBO,5.841615,53.150222
De Terp,17,,,9005NM,Wergea,Leeuwarden,Friesland,VBO,5.841637,53.150170
De Terp,19,,,9005NM,Wergea,Leeuwarden,Friesland,VBO,5.841657,53.150116
De Terp,21,,,9005NM,Wergea,Leeuwarden,Friesland,VBO,5.841679,53.150064
De Terp,2,,,9005NN,Wergea,Leeuwarden,Friesland,VBO,5.840706,53.151080
De Terp,4,,,9005NN,Wergea,Leeuwarden,Friesland,VBO,5.840381,53.151044
De Terp,8,,,9005NN,Wergea,Leeuwarden,Friesland,VBO,5.840071,53.151026
De Terp,10,,,9005NN,Wergea,Leeuwarden,Friesland,VBO,5.839962,53.150969
De Terp,12,,,9005NN,Wergea,Leeuwarden,Friesland,VBO,5.840022,53.150799
De Terp,14,,,9005NN,Wergea,Leeuwarden,Friesland,VBO,5.840322,53.150787
De Terp,16,,,9005NN,Wergea,Leeuwarden,Friesland,VBO,5.840790,53.150851
De Terp,20,,,9005NP,Wergea,Leeuwarden,Friesland,VBO,5.840904,53.150644
De Terp,22,,,9005NP,Wergea,Leeuwarden,Friesland,VBO,5.840590,53.150573
De Terp,24,,,9005NP,Wergea,Leeuwarden,Friesland,VBO,5.840400,53.150430
De Terp,26,,,9005NP,Wergea,Leeuwarden,Friesland,VBO,5.840473,53.150308
De Terp,28,,,9005NP,Wergea,Leeuwarden,Friesland,VBO,5.840704,53.150316
De Terp,30,,,9005NP,Wergea,Leeuwarden,Friesland,VBO,5.840833,53.150337
De Terp,32,,,9005NP,Wergea,Leeuwarden,Friesland,VBO,5.840991,53.150397
De Terp,34,,,9005NP,Wergea,Leeuwarden,Friesland,VBO,5.840791,53.149996
De Terp,36,,,9005NP,Wergea,Leeuwarden,Friesland,VBO,5.840834,53.149928
De Terp,38,,,9005NP,Wergea,Leeuwarden,Friesland,VBO,5.840858,53.149818
De Terp,40,,,9005NP,Wergea,Leeuwarden,Friesland,VBO,5.841082,53.149985
De Terp,42,,,9005NP,Wergea,Leeuwarden,Friesland,VBO,5.841301,53.149979
De Marren,1,,,9005NR,Wergea,Leeuwarden,Friesland,VBO,5.841551,53.150993
De Marren,3,,,9005NR,Wergea,Leeuwarden,Friesland,VBO,5.841593,53.150998
De Marren,5,,,9005NR,Wergea,Leeuwarden,Friesland,VBO,5.841738,53.151019
De Marren,7,,,9005NR,Wergea,Leeuwarden,Friesland,VBO,5.841778,53.151024
De Marren,9,,,9005NR,Wergea,Leeuwarden,Friesland,VBO,5.842007,53.151059
De Marren,11,,,9005NR,Wergea,Leeuwarden,Friesland,VBO,5.842058,53.151067
De Marren,13,,,9005NR,Wergea,Leeuwarden,Friesland,VBO,5.842189,53.151087
De Marren,15,,,9005NR,Wergea,Leeuwarden,Friesland,VBO,5.842241,53.151095
De Marren,17,,,9005NR,Wergea,Leeuwarden,Friesland,VBO,5.842373,53.151115
De Marren,19,,,9005NR,Wergea,Leeuwarden,Friesland,VBO,5.842414,53.151121
De Marren,21,,,9005NR,Wergea,Leeuwarden,Friesland,VBO,5.843416,53.151169
De Marren,23,,,9005NR,Wergea,Leeuwarden,Friesland,VBO,5.843418,53.151137
De Marren,25,,,9005NR,Wergea,Leeuwarden,Friesland,VBO,5.843420,53.151058
De Marren,27,,,9005NR,Wergea,Leeuwarden,Friesland,VBO,5.843425,53.151027
De Marren,29,,,9005NR,Wergea,Leeuwarden,Friesland,VBO,5.843426,53.150945
De Marren,31,,,9005NR,Wergea,Leeuwarden,Friesland,VBO,5.843427,53.150915
De Marren,33,,,9005NR,Wergea,Leeuwarden,Friesland,VBO,5.843433,53.150792
De Marren,35,,,9005NR,Wergea,Leeuwarden,Friesland,VBO,5.843434,53.150741
De Marren,37,,,9005NR,Wergea,Leeuwarden,Friesland,VBO,5.843438,53.150684
De Marren,39,,,9005NR,Wergea,Leeuwarden,Friesland,VBO,5.843441,53.150633
De Marren,41,,,9005NR,Wergea,Leeuwarden,Friesland,VBO,5.843442,53.150580
De Marren,43,,,9005NR,Wergea,Leeuwarden,Friesland,VBO,5.843445,53.150526
De Marren,45,,,9005NS,Wergea,Leeuwarden,Friesland,VBO,5.842193,53.150105
De Marren,47,,,9005NS,Wergea,Leeuwarden,Friesland,VBO,5.842174,53.150157
De Marren,49,,,9005NS,Wergea,Leeuwarden,Friesland,VBO,5.842155,53.150209
De Marren,51,,,9005NS,Wergea,Leeuwarden,Friesland,VBO,5.842131,53.150262
De Marren,53,,,9005NS,Wergea,Leeuwarden,Friesland,VBO,5.842114,53.150315
De Marren,2,,,9005NT,Wergea,Leeuwarden,Friesland,VBO,5.841638,53.150792
De Marren,4,,,9005NT,Wergea,Leeuwarden,Friesland,VBO,5.841680,53.150799
De Marren,6,,,9005NT,Wergea,Leeuwarden,Friesland,VBO,5.841820,53.150822
De Marren,8,,,9005NT,Wergea,Leeuwarden,Friesland,VBO,5.841864,53.150828
De Marren,10,,,9005NT,Wergea,Leeuwarden,Friesland,VBO,5.842005,53.150849
De Marren,12,,,9005NT,Wergea,Leeuwarden,Friesland,VBO,5.842046,53.150856
De Marren,14,,,9005NT,Wergea,Leeuwarden,Friesland,VBO,5.842265,53.150879
De Marren,16,,,9005NT,Wergea,Leeuwarden,Friesland,VBO,5.842310,53.150882
De Marren,18,,,9005NT,Wergea,Leeuwarden,Friesland,VBO,5.842453,53.150887
De Marren,20,,,9005NT,Wergea,Leeuwarden,Friesland,VBO,5.842498,53.150890
De Marren,22,,,9005NT,Wergea,Leeuwarden,Friesland,VBO,5.842636,53.150899
De Marren,24,,,9005NT,Wergea,Leeuwarden,Friesland,VBO,5.842684,53.150902
De Marren,26,,,9005NT,Wergea,Leeuwarden,Friesland,VBO,5.843088,53.150885
De Marren,28,,,9005NT,Wergea,Leeuwarden,Friesland,VBO,5.843088,53.150858
De Marren,30,,,9005NT,Wergea,Leeuwarden,Friesland,VBO,5.843091,53.150771
De Marren,32,,,9005NT,Wergea,Leeuwarden,Friesland,VBO,5.843093,53.150743
De Marren,34,,,9005NT,Wergea,Leeuwarden,Friesland,VBO,5.843098,53.150629
De Marren,36,,,9005NT,Wergea,Leeuwarden,Friesland,VBO,5.843099,53.150612
De Marren,38,,,9005NT,Wergea,Leeuwarden,Friesland,VBO,5.843104,53.150541
De Marren,40,a,,9005NT,Wergea,Leeuwarden,Friesland,VBO,5.842222,53.150660
De Marren,40,b,,9005NT,Wergea,Leeuwarden,Friesland,VBO,5.842267,53.150663
De Marren,40,c,,9005NT,Wergea,Leeuwarden,Friesland,VBO,5.842311,53.150666
De Marren,40,d,,9005NT,Wergea,Leeuwarden,Friesland,VBO,5.842353,53.150669
De Marren,40,e,,9005NT,Wergea,Leeuwarden,Friesland,VBO,5.842398,53.150674
De Marren,40,f,,9005NT,Wergea,Leeuwarden,Friesland,VBO,5.842443,53.150677
De Marren,40,g,,9005NT,Wergea,Leeuwarden,Friesland,VBO,5.842486,53.150680
De Marren,40,h,,9005NT,Wergea,Leeuwarden,Friesland,VBO,5.842531,53.150684
De Marren,40,i,,9005NT,Wergea,Leeuwarden,Friesland,VBO,5.842576,53.150687
De Marren,40,j,,9005NT,Wergea,Leeuwarden,Friesland,VBO,5.842619,53.150690
De Marren,40,k,,9005NT,Wergea,Leeuwarden,Friesland,VBO,5.842666,53.150693
De Marren,40,l,,9005NT,Wergea,Leeuwarden,Friesland,VBO,5.842709,53.150696
De Marren,40,m,,9005NT,Wergea,Leeuwarden,Friesland,VBO,5.842755,53.150701
De Marren,40,n,,9005NT,Wergea,Leeuwarden,Friesland,VBO,5.842795,53.150704
De Marren,40,,,9005NT,Wergea,Leeuwarden,Friesland,VBO,5.843105,53.150519
De Marren,42,,,9005NV,Wergea,Leeuwarden,Friesland,VBO,5.842682,53.150406
De Marren,44,,,9005NV,Wergea,Leeuwarden,Friesland,VBO,5.842593,53.150395
De Marren,46,,,9005NV,Wergea,Leeuwarden,Friesland,VBO,5.842501,53.150382
De Marren,48,,,9005NV,Wergea,Leeuwarden,Friesland,VBO,5.842417,53.150372
De Marren,50,,,9005NV,Wergea,Leeuwarden,Friesland,VBO,5.842332,53.150363
De Marren,52,,,9005NV,Wergea,Leeuwarden,Friesland,VBO,5.842119,53.150542
De Marren,54,,,9005NV,Wergea,Leeuwarden,Friesland,VBO,5.842034,53.150529
De Marren,56,,,9005NV,Wergea,Leeuwarden,Friesland,VBO,5.841947,53.150516
De Marren,58,,,9005NV,Wergea,Leeuwarden,Friesland,VBO,5.841857,53.150501
De Marren,60,,,9005NV,Wergea,Leeuwarden,Friesland,VBO,5.841729,53.150459
De Marren,62,,,9005NV,Wergea,Leeuwarden,Friesland,VBO,5.841644,53.150445
De Marren,64,,,9005NV,Wergea,Leeuwarden,Friesland,VBO,5.841558,53.150433
De Marren,66,,,9005NV,Wergea,Leeuwarden,Friesland,VBO,5.841467,53.150421
De Marren,68,,,9005NV,Wergea,Leeuwarden,Friesland,VBO,5.841382,53.150409
Kleine Buren,1,,,9005NW,Wergea,Leeuwarden,Friesland,VBO,5.843842,53.151770
Kleine Buren,3,,,9005NW,Wergea,Leeuwarden,Friesland,VBO,5.844110,53.151612
Kleine Buren,4,,,9005NW,Wergea,Leeuwarden,Friesland,VBO,5.844117,53.151594
Kleine Buren,5,,,9005NW,Wergea,Leeuwarden,Friesland,VBO,5.844174,53.151524
Kleine Buren,6,,,9005NW,Wergea,Leeuwarden,Friesland,VBO,5.844204,53.151450
Kleine Buren,7,,,9005NW,Wergea,Leeuwarden,Friesland,VBO,5.844206,53.151361
Kleine Buren,8,,,9005NW,Wergea,Leeuwarden,Friesland,VBO,5.843884,53.151396
Kleine Buren,9,,,9005NW,Wergea,Leeuwarden,Friesland,VBO,5.844219,53.151306
Kleine Buren,10,,,9005NW,Wergea,Leeuwarden,Friesland,VBO,5.844218,53.151267
Kleine Buren,11,,,9005NW,Wergea,Leeuwarden,Friesland,VBO,5.844205,53.151160
Kleine Buren,12,,,9005NW,Wergea,Leeuwarden,Friesland,VBO,5.844203,53.151133
Kleine Buren,13,,,9005NW,Wergea,Leeuwarden,Friesland,VBO,5.844195,53.151081
Kleine Buren,14,,,9005NW,Wergea,Leeuwarden,Friesland,VBO,5.844184,53.151018
Kleine Buren,15,,,9005NW,Wergea,Leeuwarden,Friesland,VBO,5.844186,53.150938
Kleine Buren,16,,,9005NW,Wergea,Leeuwarden,Friesland,VBO,5.844178,53.150856
Kleine Buren,17,,,9005NW,Wergea,Leeuwarden,Friesland,VBO,5.844155,53.150774
Kleine Buren,18,,,9005NW,Wergea,Leeuwarden,Friesland,VBO,5.844129,53.150705
Kleine Buren,19,,,9005NW,Wergea,Leeuwarden,Friesland,VBO,5.844086,53.150579
Kleine Buren,20,,,9005NW,Wergea,Leeuwarden,Friesland,VBO,5.843996,53.150470
Kleine Buren,26,,,9005NX,Wergea,Leeuwarden,Friesland,VBO,5.844247,53.150231
Kleine Buren,27,,,9005NX,Wergea,Leeuwarden,Friesland,VBO,5.844156,53.150286
Kleine Buren,30,,,9005NX,Wergea,Leeuwarden,Friesland,VBO,5.844231,53.150040
Kleine Buren,31,,,9005NX,Wergea,Leeuwarden,Friesland,VBO,5.844380,53.149967
Kleine Buren,34,,,9005NX,Wergea,Leeuwarden,Friesland,VBO,5.844141,53.149910
Kleine Buren,35,,,9005NX,Wergea,Leeuwarden,Friesland,VBO,5.843990,53.149934
Kleine Buren,36,,,9005NX,Wergea,Leeuwarden,Friesland,VBO,5.843786,53.149963
Kleine Buren,37,,,9005NX,Wergea,Leeuwarden,Friesland,VBO,5.844792,53.149242
Kleine Buren,38,,,9005NX,Wergea,Leeuwarden,Friesland,VBO,5.844919,53.148592
Kleine Buren,39,,,9005NX,Wergea,Leeuwarden,Friesland,VBO,5.844909,53.148357
Kleine Buren,41,,,9005NX,Wergea,Leeuwarden,Friesland,VBO,5.844959,53.148274
Kleine Buren,1000,,,9005NX,Wergea,Leeuwarden,Friesland,LIG,5.844929,53.147868
Kerkbuurt,1,,,9005NZ,Wergea,Leeuwarden,Friesland,VBO,5.844293,53.151970
Kerkbuurt,3,,,9005NZ,Wergea,Leeuwarden,Friesland,VBO,5.844494,53.152029
Kerkbuurt,5,,,9005NZ,Wergea,Leeuwarden,Friesland,VBO,5.844648,53.152049
Kerkbuurt,19,,,9005PA,Wergea,Leeuwarden,Friesland,VBO,5.845449,53.152077
Kerkbuurt,23,,,9005PA,Wergea,Leeuwarden,Friesland,VBO,5.845791,53.152100
Kerkbuurt,25,,,9005PA,Wergea,Leeuwarden,Friesland,VBO,5.845899,53.152107
Kerkbuurt,27,,,9005PA,Wergea,Leeuwarden,Friesland,VBO,5.846056,53.152117
Kerkbuurt,29,,,9005PA,Wergea,Leeuwarden,Friesland,VBO,5.846252,53.152129
Kerkbuurt,31,,,9005PA,Wergea,Leeuwarden,Friesland,VBO,5.846385,53.152138
Kerkbuurt,33,,,9005PA,Wergea,Leeuwarden,Friesland,VBO,5.846637,53.152154
Kerkbuurt,35,a,,9005PA,Wergea,Leeuwarden,Friesland,VBO,5.846879,53.152213
Kerkbuurt,35,,,9005PA,Wergea,Leeuwarden,Friesland,VBO,5.846748,53.152207
Kerkbuurt,37,,,9005PA,Wergea,Leeuwarden,Friesland,VBO,5.846995,53.152179
Kerkbuurt,39,,,9005PA,Wergea,Leeuwarden,Friesland,VBO,5.847252,53.152245
Kerkbuurt,41,,,9005PA,Wergea,Leeuwarden,Friesland,VBO,5.847497,53.152288
Kerkbuurt,43,,,9005PA,Wergea,Leeuwarden,Friesland,VBO,5.847667,53.152304
Kerkbuurt,2,,,9005PB,Wergea,Leeuwarden,Friesland,VBO,5.844548,53.151844
Kerkbuurt,4,,,9005PB,Wergea,Leeuwarden,Friesland,VBO,5.845341,53.151877
Kerkbuurt,6,,,9005PB,Wergea,Leeuwarden,Friesland,VBO,5.845655,53.151918
Kerkbuurt,8,,,9005PB,Wergea,Leeuwarden,Friesland,VBO,5.846038,53.151948
Kerkbuurt,10,a,,9005PB,Wergea,Leeuwarden,Friesland,VBO,5.846135,53.151671
Kerkbuurt,10,a,,9005PB,Wergea,Leeuwarden,Friesland,VBO,5.846148,53.151633
Kerkbuurt,10,b,,9005PB,Wergea,Leeuwarden,Friesland,VBO,5.846180,53.151636
Kerkbuurt,10,b,,9005PB,Wergea,Leeuwarden,Friesland,VBO,5.846239,53.151681
Kerkbuurt,10,c,,9005PB,Wergea,Leeuwarden,Friesland,VBO,5.846342,53.151690
Kerkbuurt,10,c,,9005PB,Wergea,Leeuwarden,Friesland,VBO,5.846434,53.151562
Kerkbuurt,10,d,,9005PB,Wergea,Leeuwarden,Friesland,VBO,5.846442,53.151541
Kerkbuurt,10,d,,9005PB,Wergea,Leeuwarden,Friesland,VBO,5.846492,53.151598
Kerkbuurt,10,e,,9005PB,Wergea,Leeuwarden,Friesland,VBO,5.846517,53.151537
Kerkbuurt,10,e,,9005PB,Wergea,Leeuwarden,Friesland,VBO,5.846521,53.151348
Kerkbuurt,10,f,,9005PB,Wergea,Leeuwarden,Friesland,VBO,5.846531,53.151324
Kerkbuurt,10,f,,9005PB,Wergea,Leeuwarden,Friesland,VBO,5.846544,53.151470
Kerkbuurt,10,g,,9005PB,Wergea,Leeuwarden,Friesland,VBO,5.846569,53.151410
Kerkbuurt,10,h,,9005PB,Wergea,Leeuwarden,Friesland,VBO,5.846592,53.151352
Kerkbuurt,10,i,,9005PB,Wergea,Leeuwarden,Friesland,VBO,5.846623,53.151294
Kerkbuurt,10,,,9005PB,Wergea,Leeuwarden,Friesland,VBO,5.846392,53.151843
Kerkbuurt,12,,,9005PB,Wergea,Leeuwarden,Friesland,VBO,5.846502,53.151979
Kerkbuurt,14,,,9005PB,Wergea,Leeuwarden,Friesland,VBO,5.846697,53.151992
Kerkbuurt,16,,,9005PB,Wergea,Leeuwarden,Friesland,VBO,5.846918,53.151984
Kerkbuurt,20,a,,9005PB,Wergea,Leeuwarden,Friesland,VBO,5.847822,53.151942
Kerkbuurt,20,,,9005PB,Wergea,Leeuwarden,Friesland,VBO,5.847789,53.151941
Kerkbuurt,22,,,9005PB,Wergea,Leeuwarden,Friesland,VBO,5.848415,53.151932
Kerkbuurt,24,a,,9005PB,Wergea,Leeuwarden,Friesland,VBO,5.848728,53.151354
Kerkbuurt,24,,,9005PB,Wergea,Leeuwarden,Friesland,VBO,5.848478,53.152079
Kerkbuurt,26,,,9005PB,Wergea,Leeuwarden,Friesland,VBO,5.849056,53.152109
Fricoweg,1,a,,9005PC,Wergea,Leeuwarden,Friesland,VBO,5.845029,53.152650
Fricoweg,1,b,,9005PC,Wergea,Leeuwarden,Friesland,VBO,5.845016,53.152905
Fricoweg,1,c,,9005PC,Wergea,Leeuwarden,Friesland,VBO,5.844872,53.153008
Fricoweg,1,d,,9005PC,Wergea,Leeuwarden,Friesland,VBO,5.844872,53.153008
Fricoweg,1,e,,9005PC,Wergea,Leeuwarden,Friesland,VBO,5.845641,53.153418
Fricoweg,1,h,,9005PC,Wergea,Leeuwarden,Friesland,VBO,5.845588,53.153668
Fricoweg,1,,,9005PC,Wergea,Leeuwarden,Friesland,VBO,5.844960,53.153127
Fricoweg,3,a,,9005PC,Wergea,Leeuwarden,Friesland,VBO,5.843791,53.153591
Fricoweg,3,b,,9005PC,Wergea,Leeuwarden,Friesland,VBO,5.843582,53.153330
Fricoweg,3,c,,9005PC,Wergea,Leeuwarden,Friesland,VBO,5.843812,53.152684
Fricoweg,3,d,,9005PC,Wergea,Leeuwarden,Friesland,VBO,5.843807,53.152708
Fricoweg,3,f,,9005PC,Wergea,Leeuwarden,Friesland,VBO,5.844810,53.152572
Fricoweg,3,,,9005PC,Wergea,Leeuwarden,Friesland,VBO,5.844106,53.152471
Fricoweg,5,,,9005PC,Wergea,Leeuwarden,Friesland,VBO,5.845719,53.152887
Fricoweg,7,,,9005PC,Wergea,Leeuwarden,Friesland,VBO,5.845755,53.152913
Fricoweg,9,,,9005PC,Wergea,Leeuwarden,Friesland,VBO,5.845905,53.153022
Fricoweg,11,,,9005PC,Wergea,Leeuwarden,Friesland,VBO,5.846031,53.153103
Fricoweg,13,,,9005PC,Wergea,Leeuwarden,Friesland,VBO,5.846070,53.153131
Fricoweg,15,,,9005PC,Wergea,Leeuwarden,Friesland,VBO,5.846201,53.153267
Fricoweg,17,,,9005PC,Wergea,Leeuwarden,Friesland,VBO,5.846334,53.153314
Fricoweg,19,,,9005PC,Wergea,Leeuwarden,Friesland,VBO,5.846565,53.153447
Fricoweg,21,,,9005PC,Wergea,Leeuwarden,Friesland,VBO,5.846607,53.153469
Fricoweg,23,,,9005PC,Wergea,Leeuwarden,Friesland,VBO,5.846801,53.153576
Fricoweg,25,,,9005PC,Wergea,Leeuwarden,Friesland,VBO,5.846875,53.153616
Fricoweg,27,,,9005PC,Wergea,Leeuwarden,Friesland,VBO,5.846947,53.153656
Fricoweg,31,,,9005PC,Wergea,Leeuwarden,Friesland,VBO,5.846248,53.153848
Fricoweg,33,d,,9005PC,Wergea,Leeuwarden,Friesland,VBO,5.846239,53.153590
Fricoweg,33,,,9005PC,Wergea,Leeuwarden,Friesland,VBO,5.846540,53.153912
Fricoweg,35,,,9005PC,Wergea,Leeuwarden,Friesland,VBO,5.845292,53.153933
Fricoweg,36,,,9005PC,Wergea,Leeuwarden,Friesland,VBO,5.845299,53.153905
Fricoweg,37,,,9005PC,Wergea,Leeuwarden,Friesland,VBO,5.845305,53.153876
Fricoweg,39,,,9005PC,Wergea,Leeuwarden,Friesland,VBO,5.845221,53.153879
Fricoweg,40,,,9005PC,Wergea,Leeuwarden,Friesland,VBO,5.845107,53.154047
Fricoweg,41,,,9005PC,Wergea,Leeuwarden,Friesland,VBO,5.845000,53.154083
Fricoweg,42,,,9005PC,Wergea,Leeuwarden,Friesland,VBO,5.844776,53.154020
Fricoweg,43,,,9005PC,Wergea,Leeuwarden,Friesland,VBO,5.844597,53.153833
Fricoweg,45,,,9005PC,Wergea,Leeuwarden,Friesland,VBO,5.844424,53.153822
Fricoweg,47,,,9005PC,Wergea,Leeuwarden,Friesland,VBO,5.844197,53.153781
Fricoweg,49,,,9005PC,Wergea,Leeuwarden,Friesland,VBO,5.843950,53.153772
Fricoweg,51,,,9005PC,Wergea,Leeuwarden,Friesland,VBO,5.843743,53.153736
Fricoweg,2,,,9005PD,Wergea,Leeuwarden,Friesland,VBO,5.845503,53.152346
Fricoweg,4,,,9005PD,Wergea,Leeuwarden,Friesland,VBO,5.845522,53.152372
Fricoweg,6,,,9005PD,Wergea,Leeuwarden,Friesland,VBO,5.845644,53.152478
Fricoweg,8,,,9005PD,Wergea,Leeuwarden,Friesland,VBO,5.845675,53.152500
Fricoweg,10,,,9005PD,Wergea,Leeuwarden,Friesland,VBO,5.845818,53.152595
Fricoweg,12,,,9005PD,Wergea,Leeuwarden,Friesland,VBO,5.845850,53.152614
Fricoweg,14,,,9005PE,Wergea,Leeuwarden,Friesland,VBO,5.846022,53.152740
Fricoweg,16,,,9005PE,Wergea,Leeuwarden,Friesland,VBO,5.846102,53.152794
Fricoweg,18,,,9005PE,Wergea,Leeuwarden,Friesland,VBO,5.846246,53.152892
Fricoweg,20,,,9005PE,Wergea,Leeuwarden,Friesland,VBO,5.846327,53.152943
Fricoweg,22,,,9005PE,Wergea,Leeuwarden,Friesland,VBO,5.846469,53.153042
Fricoweg,24,,,9005PE,Wergea,Leeuwarden,Friesland,VBO,5.846549,53.153096
Fricoweg,26,,,9005PE,Wergea,Leeuwarden,Friesland,VBO,5.846692,53.153191
Fricoweg,28,,,9005PE,Wergea,Leeuwarden,Friesland,VBO,5.846777,53.153247
Kleijstrjitte,1,,,9005PG,Wergea,Leeuwarden,Friesland,VBO,5.846651,53.152649
Kleijstrjitte,3,,,9005PG,Wergea,Leeuwarden,Friesland,VBO,5.846759,53.152672
Kleijstrjitte,5,,,9005PG,Wergea,Leeuwarden,Friesland,VBO,5.846970,53.152709
Kleijstrjitte,7,,,9005PG,Wergea,Leeuwarden,Friesland,VBO,5.847083,53.152730
Kleijstrjitte,2,,,9005PH,Wergea,Leeuwarden,Friesland,VBO,5.846154,53.152461
Kleijstrjitte,4,,,9005PH,Wergea,Leeuwarden,Friesland,VBO,5.846295,53.152452
Kleijstrjitte,6,,,9005PH,Wergea,Leeuwarden,Friesland,VBO,5.846535,53.152475
Kleijstrjitte,8,,,9005PH,Wergea,Leeuwarden,Friesland,VBO,5.846670,53.152499
Kleijstrjitte,10,,,9005PH,Wergea,Leeuwarden,Friesland,VBO,5.846912,53.152544
Kleijstrjitte,12,,,9005PH,Wergea,Leeuwarden,Friesland,VBO,5.847053,53.152569
Kleijstrjitte,14,,,9005PH,Wergea,Leeuwarden,Friesland,VBO,5.847292,53.152613
Kleijstrjitte,16,,,9005PH,Wergea,Leeuwarden,Friesland,VBO,5.847433,53.152640
Nieuwoldstrjitte,1,,,9005PJ,Wergea,Leeuwarden,Friesland,VBO,5.847449,53.152821
Nieuwoldstrjitte,2,,,9005PJ,Wergea,Leeuwarden,Friesland,VBO,5.847411,53.152886
Nieuwoldstrjitte,3,,,9005PJ,Wergea,Leeuwarden,Friesland,VBO,5.847382,53.152946
Nieuwoldstrjitte,4,,,9005PJ,Wergea,Leeuwarden,Friesland,VBO,5.847347,53.153016
Nieuwoldstrjitte,5,,,9005PJ,Wergea,Leeuwarden,Friesland,VBO,5.847282,53.153153
Nieuwoldstrjitte,6,,,9005PJ,Wergea,Leeuwarden,Friesland,VBO,5.847245,53.153225
Nieuwoldstrjitte,7,,,9005PJ,Wergea,Leeuwarden,Friesland,VBO,5.847216,53.153281
Nieuwoldstrjitte,8,,,9005PJ,Wergea,Leeuwarden,Friesland,VBO,5.847180,53.153355
Nieuwe Weg,3,,,9005PK,Wergea,Leeuwarden,Friesland,VBO,5.847349,53.151946
Nieuwe Weg,5,,,9005PK,Wergea,Leeuwarden,Friesland,VBO,5.847369,53.151868
Nieuwe Weg,7,,,9005PK,Wergea,Leeuwarden,Friesland,VBO,5.847390,53.151802
Nieuwe Weg,9,,,9005PK,Wergea,Leeuwarden,Friesland,VBO,5.847451,53.151669
Nieuwe Weg,11,,,9005PK,Wergea,Leeuwarden,Friesland,VBO,5.847496,53.151625
Nieuwe Weg,13,,,9005PK,Wergea,Leeuwarden,Friesland,VBO,5.847552,53.151505
Nieuwe Weg,15,,,9005PK,Wergea,Leeuwarden,Friesland,VBO,5.847540,53.151394
Nieuwe Weg,17,,,9005PK,Wergea,Leeuwarden,Friesland,VBO,5.847560,53.151331
Nieuwe Weg,19,,,9005PK,Wergea,Leeuwarden,Friesland,VBO,5.847552,53.151246
Nieuwe Weg,21,,,9005PK,Wergea,Leeuwarden,Friesland,VBO,5.847499,53.151141
Nieuwe Weg,23,,,9005PK,Wergea,Leeuwarden,Friesland,VBO,5.847371,53.151056
Nieuwe Weg,2,a,,9005PL,Wergea,Leeuwarden,Friesland,VBO,5.846474,53.151713
Nieuwe Weg,2,,,9005PL,Wergea,Leeuwarden,Friesland,VBO,5.846918,53.151736
Nieuwe Weg,4,,,9005PL,Wergea,Leeuwarden,Friesland,VBO,5.846978,53.151632
Nieuwe Weg,6,,,9005PL,Wergea,Leeuwarden,Friesland,VBO,5.847065,53.151466
Nieuwe Weg,8,,,9005PL,Wergea,Leeuwarden,Friesland,VBO,5.847120,53.151226
Nieuwe Weg,10,,,9005PL,Wergea,Leeuwarden,Friesland,VBO,5.846978,53.151164
Nieuwe Weg,12,,,9005PL,Wergea,Leeuwarden,Friesland,VBO,5.846769,53.151120
Gele Eker,1,a,,9005PM,Wergea,Leeuwarden,Friesland,VBO,5.845284,53.150704
Gele Eker,1,b,,9005PM,Wergea,Leeuwarden,Friesland,VBO,5.845174,53.150698
Gele Eker,1,c,,9005PM,Wergea,Leeuwarden,Friesland,VBO,5.845169,53.150724
Gele Eker,1,d,,9005PM,Wergea,Leeuwarden,Friesland,VBO,5.845162,53.150751
Gele Eker,1,e,,9005PM,Wergea,Leeuwarden,Friesland,VBO,5.845255,53.150678
Gele Eker,1,f,,9005PM,Wergea,Leeuwarden,Friesland,VBO,5.845251,53.150700
Gele Eker,1,g,,9005PM,Wergea,Leeuwarden,Friesland,VBO,5.845277,53.150735
Gele Eker,1,h,,9005PM,Wergea,Leeuwarden,Friesland,VBO,5.845270,53.150761
Gele Eker,3,,,9005PM,Wergea,Leeuwarden,Friesland,VBO,5.845460,53.150746
Gele Eker,5,,,9005PM,Wergea,Leeuwarden,Friesland,VBO,5.845859,53.150768
Gele Eker,7,,,9005PM,Wergea,Leeuwarden,Friesland,VBO,5.846020,53.150809
Gele Eker,9,,,9005PM,Wergea,Leeuwarden,Friesland,VBO,5.846104,53.150834
Gele Eker,11,,,9005PM,Wergea,Leeuwarden,Friesland,VBO,5.846181,53.150852
Gele Eker,13,,,9005PM,Wergea,Leeuwarden,Friesland,VBO,5.846297,53.150881
Gele Eker,15,,,9005PM,Wergea,Leeuwarden,Friesland,VBO,5.846332,53.150891
Gele Eker,17,,,9005PM,Wergea,Leeuwarden,Friesland,VBO,5.846427,53.150960
Gele Eker,2,,,9005PN,Wergea,Leeuwarden,Friesland,VBO,5.844718,53.150638
Gele Eker,4,,,9005PN,Wergea,Leeuwarden,Friesland,VBO,5.845032,53.150542
Gele Eker,8,,,9005PN,Wergea,Leeuwarden,Friesland,VBO,5.845253,53.150515
Gele Eker,14,,,9005PN,Wergea,Leeuwarden,Friesland,VBO,5.845322,53.150553
Gele Eker,20,,,9005PN,Wergea,Leeuwarden,Friesland,VBO,5.845512,53.150538
Gele Eker,24,,,9005PN,Wergea,Leeuwarden,Friesland,VBO,5.845666,53.150619
Gele Eker,26,,,9005PN,Wergea,Leeuwarden,Friesland,VBO,5.845829,53.150654
Gele Eker,28,,,9005PN,Wergea,Leeuwarden,Friesland,VBO,5.845880,53.150660
Gele Eker,30,,,9005PN,Wergea,Leeuwarden,Friesland,VBO,5.846094,53.150717
Gele Eker,32,,,9005PN,Wergea,Leeuwarden,Friesland,VBO,5.846253,53.150702
Gele Eker,40,,,9005PN,Wergea,Leeuwarden,Friesland,VBO,5.846313,53.150771
Gele Eker,42,,,9005PN,Wergea,Leeuwarden,Friesland,VBO,5.846392,53.150793
Gele Eker,44,,,9005PN,Wergea,Leeuwarden,Friesland,VBO,5.846581,53.150823
Gele Eker,46,,,9005PN,Wergea,Leeuwarden,Friesland,VBO,5.846612,53.150705
Gele Eker,48,,,9005PN,Wergea,Leeuwarden,Friesland,VBO,5.846826,53.150756
Gele Eker,50,,,9005PN,Wergea,Leeuwarden,Friesland,VBO,5.846662,53.150840
Gele Eker,52,,,9005PN,Wergea,Leeuwarden,Friesland,VBO,5.846887,53.150840
Gele Eker,54,,,9005PN,Wergea,Leeuwarden,Friesland,VBO,5.846799,53.150944
Grote Buren,1,,,9005PP,Wergea,Leeuwarden,Friesland,VBO,5.844858,53.151485
Grote Buren,3,,,9005PP,Wergea,Leeuwarden,Friesland,VBO,5.844789,53.151182
Grote Buren,5,,,9005PP,Wergea,Leeuwarden,Friesland,VBO,5.844891,53.151177
Grote Buren,7,,,9005PP,Wergea,Leeuwarden,Friesland,VBO,5.844886,53.151194
Grote Buren,15,,,9005PP,Wergea,Leeuwarden,Friesland,VBO,5.844857,53.150950
Grote Buren,19,,,9005PP,Wergea,Leeuwarden,Friesland,VBO,5.844851,53.150848
Grote Buren,21,,,9005PR,Wergea,Leeuwarden,Friesland,VBO,5.844670,53.150494
Grote Buren,25,,,9005PR,Wergea,Leeuwarden,Friesland,VBO,5.844676,53.150379
Grote Buren,27,,,9005PR,Wergea,Leeuwarden,Friesland,VBO,5.844710,53.150328
Grote Buren,29,,,9005PR,Wergea,Leeuwarden,Friesland,VBO,5.844745,53.150243
Grote Buren,31,,,9005PR,Wergea,Leeuwarden,Friesland,VBO,5.844947,53.150267
Grote Buren,33,,,9005PR,Wergea,Leeuwarden,Friesland,VBO,5.845060,53.150308
Grote Buren,2,,,9005PS,Wergea,Leeuwarden,Friesland,VBO,5.844460,53.151418
Grote Buren,8,,,9005PS,Wergea,Leeuwarden,Friesland,VBO,5.844579,53.151331
Grote Buren,10,,,9005PS,Wergea,Leeuwarden,Friesland,VBO,5.844592,53.151278
Grote Buren,14,,,9005PS,Wergea,Leeuwarden,Friesland,VBO,5.844622,53.151208
Grote Buren,16,,,9005PS,Wergea,Leeuwarden,Friesland,VBO,5.844652,53.151151
Grote Buren,18,,,9005PS,Wergea,Leeuwarden,Friesland,VBO,5.844679,53.151095
Grote Buren,20,,,9005PS,Wergea,Leeuwarden,Friesland,VBO,5.844699,53.150997
Grote Buren,22,,,9005PS,Wergea,Leeuwarden,Friesland,VBO,5.844696,53.150911
Grote Buren,24,,,9005PS,Wergea,Leeuwarden,Friesland,VBO,5.844625,53.150839
Grote Buren,26,,,9005PS,Wergea,Leeuwarden,Friesland,VBO,5.844561,53.150722
Grote Buren,28,,,9005PS,Wergea,Leeuwarden,Friesland,VBO,5.844372,53.150622
Grote Buren,30,,,9005PS,Wergea,Leeuwarden,Friesland,VBO,5.844547,53.150560
Grote Buren,32,,,9005PS,Wergea,Leeuwarden,Friesland,VBO,5.844529,53.150463
Grote Buren,38,,,9005PS,Wergea,Leeuwarden,Friesland,VBO,5.844551,53.150363
Grote Buren,40,,,9005PS,Wergea,Leeuwarden,Friesland,VBO,5.844638,53.150265
Hilleburen,3,,,9005PT,Wergea,Leeuwarden,Friesland,VBO,5.844860,53.150105
Hilleburen,4,,,9005PT,Wergea,Leeuwarden,Friesland,VBO,5.844902,53.150024
Hilleburen,5,,,9005PT,Wergea,Leeuwarden,Friesland,VBO,5.844960,53.149972
Hilleburen,6,,,9005PT,Wergea,Leeuwarden,Friesland,VBO,5.845002,53.149914
Hilleburen,7,,,9005PT,Wergea,Leeuwarden,Friesland,VBO,5.845056,53.149833
Hilleburen,8,,,9005PT,Wergea,Leeuwarden,Friesland,VBO,5.845063,53.149802
Hilleburen,9,,,9005PT,Wergea,Leeuwarden,Friesland,VBO,5.845399,53.149805
Hilleburen,10,,,9005PT,Wergea,Leeuwarden,Friesland,VBO,5.845116,53.149743
Hilleburen,11,,,9005PT,Wergea,Leeuwarden,Friesland,VBO,5.845171,53.149683
Hilleburen,13,,,9005PV,Wergea,Leeuwarden,Friesland,VBO,5.845228,53.149582
Hilleburen,14,,,9005PV,Wergea,Leeuwarden,Friesland,VBO,5.845236,53.149560
Hilleburen,15,,,9005PV,Wergea,Leeuwarden,Friesland,VBO,5.845260,53.149467
Hilleburen,16,,,9005PV,Wergea,Leeuwarden,Friesland,VBO,5.845264,53.149438
Hilleburen,17,,,9005PV,Wergea,Leeuwarden,Friesland,VBO,5.845326,53.149353
Hilleburen,18,,,9005PV,Wergea,Leeuwarden,Friesland,VBO,5.845332,53.149256
Hilleburen,19,,,9005PV,Wergea,Leeuwarden,Friesland,VBO,5.845335,53.149222
Hilleburen,20,,,9005PV,Wergea,Leeuwarden,Friesland,VBO,5.845316,53.149136
Hilleburen,21,,,9005PV,Wergea,Leeuwarden,Friesland,VBO,5.845688,53.148945
Hilleburen,22,,,9005PV,Wergea,Leeuwarden,Friesland,VBO,5.845429,53.148922
Hilleburen,24,,,9005PV,Wergea,Leeuwarden,Friesland,VBO,5.845476,53.148788
Hilleburen,25,,,9005PV,Wergea,Leeuwarden,Friesland,VBO,5.845467,53.148812
Hilleburen,26,,,9005PV,Wergea,Leeuwarden,Friesland,VBO,5.845527,53.148658
Hilleburen,28,,,9005PV,Wergea,Leeuwarden,Friesland,VBO,5.845554,53.148593
Hilleburen,29,,,9005PV,Wergea,Leeuwarden,Friesland,VBO,5.845674,53.148295
Hilleburen,30,,,9005PV,Wergea,Leeuwarden,Friesland,VBO,5.845847,53.148015
Hilleburen,31,,,9005PV,Wergea,Leeuwarden,Friesland,VBO,5.845787,53.147748
Hilleburen,32,,,9005PV,Wergea,Leeuwarden,Friesland,VBO,5.845842,53.147424
Hilleburen,33,,,9005PV,Wergea,Leeuwarden,Friesland,VBO,5.845798,53.147104
B.K. van den Bergstrjitte,1,a,,9005PW,Wergea,Leeuwarden,Friesland,VBO,5.846123,53.150160
B.K. van den Bergstrjitte,1,,,9005PW,Wergea,Leeuwarden,Friesland,VBO,5.846006,53.150141
B.K. van den Bergstrjitte,2,,,9005PW,Wergea,Leeuwarden,Friesland,VBO,5.846491,53.149715
B.K. van den Bergstrjitte,3,,,9005PW,Wergea,Leeuwarden,Friesland,VBO,5.846537,53.150175
B.K. van den Bergstrjitte,5,i,,9005PW,Wergea,Leeuwarden,Friesland,VBO,5.846784,53.150082
B.K. van den Bergstrjitte,5,,,9005PW,Wergea,Leeuwarden,Friesland,VBO,5.846774,53.150105
B.K. van den Bergstrjitte,7,i,,9005PW,Wergea,Leeuwarden,Friesland,VBO,5.846892,53.150103
B.K. van den Bergstrjitte,7,,,9005PW,Wergea,Leeuwarden,Friesland,VBO,5.846880,53.150126
B.K. van den Bergstrjitte,9,i,,9005PW,Wergea,Leeuwarden,Friesland,VBO,5.846993,53.150120
B.K. van den Bergstrjitte,9,,,9005PW,Wergea,Leeuwarden,Friesland,VBO,5.846978,53.150146
B.K. van den Bergstrjitte,11,i,,9005PW,Wergea,Leeuwarden,Friesland,VBO,5.847095,53.150140
B.K. van den Bergstrjitte,11,,,9005PW,Wergea,Leeuwarden,Friesland,VBO,5.847080,53.150166
B.K. van den Bergstrjitte,13,i,,9005PW,Wergea,Leeuwarden,Friesland,VBO,5.847195,53.150162
B.K. van den Bergstrjitte,13,,,9005PW,Wergea,Leeuwarden,Friesland,VBO,5.847180,53.150186
B.K. van den Bergstrjitte,15,i,,9005PW,Wergea,Leeuwarden,Friesland,VBO,5.847292,53.150181
B.K. van den Bergstrjitte,15,,,9005PW,Wergea,Leeuwarden,Friesland,VBO,5.847278,53.150206
P. Wijbengastrjitte,1,a,,9005PX,Wergea,Leeuwarden,Friesland,VBO,5.845623,53.149842
P. Wijbengastrjitte,1,,,9005PX,Wergea,Leeuwarden,Friesland,VBO,5.845767,53.149858
P. Wijbengastrjitte,3,,,9005PX,Wergea,Leeuwarden,Friesland,VBO,5.845898,53.149885
P. Wijbengastrjitte,15,,,9005PX,Wergea,Leeuwarden,Friesland,VBO,5.846540,53.148812
P. Wijbengastrjitte,17,,,9005PX,Wergea,Leeuwarden,Friesland,VBO,5.846562,53.148755
P. Wijbengastrjitte,19,,,9005PX,Wergea,Leeuwarden,Friesland,VBO,5.846578,53.148699
P. Wijbengastrjitte,21,,,9005PX,Wergea,Leeuwarden,Friesland,VBO,5.846596,53.148646
P. Wijbengastrjitte,23,,,9005PX,Wergea,Leeuwarden,Friesland,VBO,5.846617,53.148589
P. Wijbengastrjitte,2,,,9005PZ,Wergea,Leeuwarden,Friesland,VBO,5.845832,53.149614
P. Wijbengastrjitte,4,,,9005PZ,Wergea,Leeuwarden,Friesland,VBO,5.845843,53.149579
P. Wijbengastrjitte,6,,,9005PZ,Wergea,Leeuwarden,Friesland,VBO,5.845864,53.149499
P. Wijbengastrjitte,8,,,9005PZ,Wergea,Leeuwarden,Friesland,VBO,5.845874,53.149469
P. Wijbengastrjitte,10,,,9005PZ,Wergea,Leeuwarden,Friesland,VBO,5.845896,53.149387
P. Wijbengastrjitte,12,,,9005PZ,Wergea,Leeuwarden,Friesland,VBO,5.845907,53.149355
P. Wijbengastrjitte,14,a,,9005PZ,Wergea,Leeuwarden,Friesland,VBO,5.845709,53.149192
P. Wijbengastrjitte,14,b,,9005PZ,Wergea,Leeuwarden,Friesland,VBO,5.845717,53.149165
P. Wijbengastrjitte,14,c,,9005PZ,Wergea,Leeuwarden,Friesland,VBO,5.845727,53.149137
P. Wijbengastrjitte,14,d,,9005PZ,Wergea,Leeuwarden,Friesland,VBO,5.845761,53.149124
P. Wijbengastrjitte,14,e,,9005PZ,Wergea,Leeuwarden,Friesland,VBO,5.845806,53.149130
P. Wijbengastrjitte,14,f,,9005PZ,Wergea,Leeuwarden,Friesland,VBO,5.845851,53.149135
P. Wijbengastrjitte,14,,,9005PZ,Wergea,Leeuwarden,Friesland,VBO,5.845928,53.149277
P. Wijbengastrjitte,16,,,9005PZ,Wergea,Leeuwarden,Friesland,VBO,5.846094,53.149204
P. Wijbengastrjitte,18,,,9005PZ,Wergea,Leeuwarden,Friesland,VBO,5.846113,53.149147
P. Wijbengastrjitte,20,,,9005PZ,Wergea,Leeuwarden,Friesland,VBO,5.846134,53.149089
P. Wijbengastrjitte,22,,,9005PZ,Wergea,Leeuwarden,Friesland,VBO,5.846166,53.148973
P. Wijbengastrjitte,24,,,9005PZ,Wergea,Leeuwarden,Friesland,VBO,5.846175,53.148944
P. Wijbengastrjitte,26,,,9005PZ,Wergea,Leeuwarden,Friesland,VBO,5.846203,53.148871
P. Wijbengastrjitte,28,,,9005PZ,Wergea,Leeuwarden,Friesland,VBO,5.846214,53.148839
P. Wijbengastrjitte,30,,,9005PZ,Wergea,Leeuwarden,Friesland,VBO,5.846237,53.148766
P. Wijbengastrjitte,32,,,9005PZ,Wergea,Leeuwarden,Friesland,VBO,5.846248,53.148733
Ds. De Stoppelaarstrjitte,2,,,9005RA,Wergea,Leeuwarden,Friesland,VBO,5.846415,53.149285
Ds. De Stoppelaarstrjitte,3,,,9005RA,Wergea,Leeuwarden,Friesland,VBO,5.847713,53.149614
Ds. De Stoppelaarstrjitte,4,,,9005RA,Wergea,Leeuwarden,Friesland,VBO,5.846505,53.149297
Ds. De Stoppelaarstrjitte,6,,,9005RA,Wergea,Leeuwarden,Friesland,VBO,5.846597,53.149307
Ds. De Stoppelaarstrjitte,8,,,9005RA,Wergea,Leeuwarden,Friesland,VBO,5.846691,53.149320
Ds. De Stoppelaarstrjitte,10,,,9005RA,Wergea,Leeuwarden,Friesland,VBO,5.846780,53.149330
Ds. De Stoppelaarstrjitte,12,,,9005RA,Wergea,Leeuwarden,Friesland,VBO,5.846880,53.149343
Ds. De Stoppelaarstrjitte,14,,,9005RA,Wergea,Leeuwarden,Friesland,VBO,5.847034,53.149362
Ds. De Stoppelaarstrjitte,16,,,9005RA,Wergea,Leeuwarden,Friesland,VBO,5.847134,53.149375
Ds. De Stoppelaarstrjitte,18,,,9005RA,Wergea,Leeuwarden,Friesland,VBO,5.847226,53.149386
Ds. De Stoppelaarstrjitte,20,,,9005RA,Wergea,Leeuwarden,Friesland,VBO,5.847320,53.149397
Ds. De Stoppelaarstrjitte,22,,,9005RA,Wergea,Leeuwarden,Friesland,VBO,5.847409,53.149409
Ds. De Stoppelaarstrjitte,24,,,9005RA,Wergea,Leeuwarden,Friesland,VBO,5.847717,53.149447
C. Kasjestrjitte,1,,,9005RB,Wergea,Leeuwarden,Friesland,VBO,5.846531,53.148993
C. Kasjestrjitte,3,,,9005RB,Wergea,Leeuwarden,Friesland,VBO,5.846615,53.149000
C. Kasjestrjitte,5,,,9005RB,Wergea,Leeuwarden,Friesland,VBO,5.846712,53.149011
C. Kasjestrjitte,7,,,9005RB,Wergea,Leeuwarden,Friesland,VBO,5.846809,53.149020
C. Kasjestrjitte,9,,,9005RB,Wergea,Leeuwarden,Friesland,VBO,5.846982,53.149035
C. Kasjestrjitte,11,,,9005RB,Wergea,Leeuwarden,Friesland,VBO,5.847062,53.149042
C. Kasjestrjitte,13,,,9005RB,Wergea,Leeuwarden,Friesland,VBO,5.847164,53.149054
C. Kasjestrjitte,15,,,9005RB,Wergea,Leeuwarden,Friesland,VBO,5.847258,53.149063
C. Kasjestrjitte,17,,,9005RB,Wergea,Leeuwarden,Friesland,VBO,5.847348,53.149071
C. Kasjestrjitte,19,,,9005RB,Wergea,Leeuwarden,Friesland,VBO,5.847441,53.149081
C. Kasjestrjitte,21,,,9005RB,Wergea,Leeuwarden,Friesland,VBO,5.847535,53.149090
C. Kasjestrjitte,2,,,9005RC,Wergea,Leeuwarden,Friesland,VBO,5.846866,53.148877
C. Kasjestrjitte,4,,,9005RC,Wergea,Leeuwarden,Friesland,VBO,5.846961,53.148885
C. Kasjestrjitte,6,,,9005RC,Wergea,Leeuwarden,Friesland,VBO,5.847054,53.148895
C. Kasjestrjitte,8,,,9005RC,Wergea,Leeuwarden,Friesland,VBO,5.847149,53.148903
C. Kasjestrjitte,10,,,9005RC,Wergea,Leeuwarden,Friesland,VBO,5.847240,53.148912
C. Kasjestrjitte,12,,,9005RC,Wergea,Leeuwarden,Friesland,VBO,5.847409,53.148927
C. Kasjestrjitte,14,,,9005RC,Wergea,Leeuwarden,Friesland,VBO,5.847507,53.148936
C. Kasjestrjitte,16,,,9005RC,Wergea,Leeuwarden,Friesland,VBO,5.847599,53.148945
C. Kasjestrjitte,18,,,9005RC,Wergea,Leeuwarden,Friesland,VBO,5.847693,53.148953
M. Kalsbeekstrjitte,1,,,9005RD,Wergea,Leeuwarden,Friesland,VBO,5.846184,53.148537
M. Kalsbeekstrjitte,2,,,9005RD,Wergea,Leeuwarden,Friesland,VBO,5.846237,53.148538
M. Kalsbeekstrjitte,3,,,9005RD,Wergea,Leeuwarden,Friesland,VBO,5.846954,53.148565
M. Kalsbeekstrjitte,4,,,9005RD,Wergea,Leeuwarden,Friesland,VBO,5.847049,53.148569
M. Kalsbeekstrjitte,5,,,9005RD,Wergea,Leeuwarden,Friesland,VBO,5.847145,53.148574
M. Kalsbeekstrjitte,6,,,9005RD,Wergea,Leeuwarden,Friesland,VBO,5.847241,53.148576
M. Kalsbeekstrjitte,7,,,9005RD,Wergea,Leeuwarden,Friesland,VBO,5.847330,53.148581
M. Kalsbeekstrjitte,8,,,9005RD,Wergea,Leeuwarden,Friesland,VBO,5.847619,53.148592
M. Kalsbeekstrjitte,9,,,9005RD,Wergea,Leeuwarden,Friesland,VBO,5.847668,53.148594
M. Kalsbeekstrjitte,10,,,9005RD,Wergea,Leeuwarden,Friesland,VBO,5.847805,53.148600
M. Kalsbeekstrjitte,11,,,9005RD,Wergea,Leeuwarden,Friesland,VBO,5.847854,53.148602
H.J. Kooistrawei,1,,,9005RE,Wergea,Leeuwarden,Friesland,VBO,5.848049,53.150174
H.J. Kooistrawei,2,,,9005RE,Wergea,Leeuwarden,Friesland,VBO,5.847175,53.150564
H.J. Kooistrawei,3,,,9005RE,Wergea,Leeuwarden,Friesland,VBO,5.848053,53.150145
H.J. Kooistrawei,4,i,,9005RE,Wergea,Leeuwarden,Friesland,VBO,5.847173,53.150439
H.J. Kooistrawei,4,,,9005RE,Wergea,Leeuwarden,Friesland,VBO,5.847227,53.150450
H.J. Kooistrawei,5,,,9005RE,Wergea,Leeuwarden,Friesland,VBO,5.848064,53.150062
H.J. Kooistrawei,6,i,,9005RE,Wergea,Leeuwarden,Friesland,VBO,5.847205,53.150375
H.J. Kooistrawei,6,,,9005RE,Wergea,Leeuwarden,Friesland,VBO,5.847261,53.150387
H.J. Kooistrawei,7,,,9005RE,Wergea,Leeuwarden,Friesland,VBO,5.848069,53.150033
H.J. Kooistrawei,8,i,,9005RE,Wergea,Leeuwarden,Friesland,VBO,5.847238,53.150317
H.J. Kooistrawei,8,,,9005RE,Wergea,Leeuwarden,Friesland,VBO,5.847294,53.150330
H.J. Kooistrawei,9,,,9005RE,Wergea,Leeuwarden,Friesland,VBO,5.848114,53.149949
H.J. Kooistrawei,10,,,9005RE,Wergea,Leeuwarden,Friesland,VBO,5.847689,53.149973
H.J. Kooistrawei,11,,,9005RE,Wergea,Leeuwarden,Friesland,VBO,5.848117,53.149920
H.J. Kooistrawei,12,,,9005RE,Wergea,Leeuwarden,Friesland,VBO,5.847699,53.149928
H.J. Kooistrawei,13,,,9005RE,Wergea,Leeuwarden,Friesland,VBO,5.848222,53.149176
H.J. Kooistrawei,14,,,9005RE,Wergea,Leeuwarden,Friesland,VBO,5.847746,53.149761
H.J. Kooistrawei,15,,,9005RE,Wergea,Leeuwarden,Friesland,VBO,5.848198,53.149099
H.J. Kooistrawei,17,,,9005RE,Wergea,Leeuwarden,Friesland,VBO,5.848204,53.149055
H.J. Kooistrawei,18,,,9005RE,Wergea,Leeuwarden,Friesland,VBO,5.847792,53.149339
H.J. Kooistrawei,19,,,9005RE,Wergea,Leeuwarden,Friesland,VBO,5.848209,53.149003
H.J. Kooistrawei,20,,,9005RE,Wergea,Leeuwarden,Friesland,VBO,5.847831,53.149191
H.J. Kooistrawei,21,,,9005RE,Wergea,Leeuwarden,Friesland,VBO,5.848261,53.148950
H.J. Kooistrawei,22,,,9005RE,Wergea,Leeuwarden,Friesland,VBO,5.847843,53.149156
H.J. Kooistrawei,23,,,9005RE,Wergea,Leeuwarden,Friesland,VBO,5.848294,53.148866
H.J. Kooistrawei,24,,,9005RE,Wergea,Leeuwarden,Friesland,VBO,5.847649,53.147603
H.J. Kooistrawei,25,,,9005RE,Wergea,Leeuwarden,Friesland,VBO,5.848279,53.148811
H.J. Kooistrawei,27,,,9005RE,Wergea,Leeuwarden,Friesland,VBO,5.848286,53.148761
H.J. Kooistrawei,29,,,9005RE,Wergea,Leeuwarden,Friesland,VBO,5.848294,53.148690
H.J. Kooistrawei,31,,,9005RE,Wergea,Leeuwarden,Friesland,VBO,5.848315,53.148634
H.J. Kooistrawei,33,,,9005RE,Wergea,Leeuwarden,Friesland,VBO,5.848364,53.148405
H.J. Kooistrawei,35,,,9005RE,Wergea,Leeuwarden,Friesland,VBO,5.848405,53.148268
H.J. Kooistrawei,37,,,9005RE,Wergea,Leeuwarden,Friesland,VBO,5.848426,53.148120
H.J. Kooistrawei,39,,,9005RE,Wergea,Leeuwarden,Friesland,VBO,5.848410,53.147632
H.J. Kooistrawei,41,,,9005RE,Wergea,Leeuwarden,Friesland,VBO,5.848439,53.147525
De Turfskipper,1,,,9005RG,Wergea,Leeuwarden,Friesland,VBO,5.848755,53.148110
De Turfskipper,3,,,9005RG,Wergea,Leeuwarden,Friesland,VBO,5.848941,53.148156
De Turfskipper,5,,,9005RG,Wergea,Leeuwarden,Friesland,VBO,5.849064,53.148198
De Turfskipper,7,,,9005RG,Wergea,Leeuwarden,Friesland,VBO,5.849189,53.148254
De Turfskipper,9,,,9005RG,Wergea,Leeuwarden,Friesland,VBO,5.849312,53.148339
De Turfskipper,11,,,9005RG,Wergea,Leeuwarden,Friesland,VBO,5.849406,53.148391
De Turfskipper,13,,,9005RG,Wergea,Leeuwarden,Friesland,VBO,5.850341,53.148830
De Turfskipper,15,,,9005RG,Wergea,Leeuwarden,Friesland,VBO,5.850224,53.148937
De Turfskipper,17,,,9005RG,Wergea,Leeuwarden,Friesland,VBO,5.849987,53.149030
De Turfskipper,2,,,9005RH,Wergea,Leeuwarden,Friesland,VBO,5.848453,53.147831
De Turfskipper,4,,,9005RH,Wergea,Leeuwarden,Friesland,VBO,5.848719,53.147887
De Turfskipper,6,,,9005RH,Wergea,Leeuwarden,Friesland,VBO,5.848921,53.147897
De Turfskipper,8,,,9005RH,Wergea,Leeuwarden,Friesland,VBO,5.849179,53.147956
De Turfskipper,10,,,9005RH,Wergea,Leeuwarden,Friesland,VBO,5.849501,53.148039
De Turfskipper,12,,,9005RH,Wergea,Leeuwarden,Friesland,VBO,5.849665,53.148176
De Turfskipper,14,,,9005RH,Wergea,Leeuwarden,Friesland,VBO,5.849840,53.148271
De Turfskipper,16,,,9005RH,Wergea,Leeuwarden,Friesland,VBO,5.850310,53.148339
De Turfskipper,18,,,9005RH,Wergea,Leeuwarden,Friesland,VBO,5.850419,53.148457
De Turfskipper,20,,,9005RH,Wergea,Leeuwarden,Friesland,VBO,5.850548,53.148553
De Turfskipper,22,,,9005RH,Wergea,Leeuwarden,Friesland,VBO,5.850743,53.148703
De Turfskipper,24,,,9005RH,Wergea,Leeuwarden,Friesland,VBO,5.850817,53.148823
De Turfskipper,26,,,9005RH,Wergea,Leeuwarden,Friesland,VBO,5.850677,53.149021
De Turfskipper,28,,,9005RH,Wergea,Leeuwarden,Friesland,VBO,5.850456,53.149048
De Turfskipper,30,,,9005RH,Wergea,Leeuwarden,Friesland,VBO,5.850284,53.149155
De Skûtmakker,1,,,9005RJ,Wergea,Leeuwarden,Friesland,VBO,5.849699,53.148800
De Skûtmakker,3,,,9005RJ,Wergea,Leeuwarden,Friesland,VBO,5.849740,53.148773
De Skûtmakker,5,,,9005RJ,Wergea,Leeuwarden,Friesland,VBO,5.849956,53.148641
De Skûtmakker,7,,,9005RJ,Wergea,Leeuwarden,Friesland,VBO,5.849995,53.148613
De Skûtmakker,2,,,9005RK,Wergea,Leeuwarden,Friesland,VBO,5.849257,53.148738
De Skûtmakker,4,,,9005RK,Wergea,Leeuwarden,Friesland,VBO,5.849364,53.148669
De Skûtmakker,6,,,9005RK,Wergea,Leeuwarden,Friesland,VBO,5.849567,53.148566
De Skûtmakker,8,,,9005RK,Wergea,Leeuwarden,Friesland,VBO,5.849676,53.148504
De Mounder,2,,,9005RL,Wergea,Leeuwarden,Friesland,VBO,5.847797,53.150499
De Mounder,4,,,9005RL,Wergea,Leeuwarden,Friesland,VBO,5.847835,53.150519
De Mounder,6,,,9005RL,Wergea,Leeuwarden,Friesland,VBO,5.847913,53.150553
De Mounder,8,,,9005RL,Wergea,Leeuwarden,Friesland,VBO,5.847974,53.150587
De Mounder,10,,,9005RL,Wergea,Leeuwarden,Friesland,VBO,5.848041,53.150625
De Mounder,12,,,9005RL,Wergea,Leeuwarden,Friesland,VBO,5.848617,53.150309
De Mounder,14,,,9005RL,Wergea,Leeuwarden,Friesland,VBO,5.848652,53.150285
De Mounder,16,,,9005RL,Wergea,Leeuwarden,Friesland,VBO,5.848739,53.150230
De Mounder,18,,,9005RL,Wergea,Leeuwarden,Friesland,VBO,5.848772,53.150209
De Mounder,20,,,9005RL,Wergea,Leeuwarden,Friesland,VBO,5.848912,53.150125
De Mounder,22,,,9005RL,Wergea,Leeuwarden,Friesland,VBO,5.848942,53.150104
De Mounder,24,,,9005RL,Wergea,Leeuwarden,Friesland,VBO,5.849015,53.150060
De Mounder,26,,,9005RL,Wergea,Leeuwarden,Friesland,VBO,5.849085,53.150016
De Mounder,28,,,9005RL,Wergea,Leeuwarden,Friesland,VBO,5.849127,53.149991
De Reedmakker,2,,,9005RM,Wergea,Leeuwarden,Friesland,VBO,5.849151,53.149590
De Reedmakker,4,,,9005RM,Wergea,Leeuwarden,Friesland,VBO,5.849181,53.149610
De Reedmakker,6,,,9005RM,Wergea,Leeuwarden,Friesland,VBO,5.849306,53.149706
De Reedmakker,8,,,9005RM,Wergea,Leeuwarden,Friesland,VBO,5.849337,53.149720
De Reedmakker,10,,,9005RM,Wergea,Leeuwarden,Friesland,VBO,5.849437,53.149777
De Reedmakker,12,,,9005RM,Wergea,Leeuwarden,Friesland,VBO,5.849464,53.149795
De Weinmakker,1,a,,9005RN,Wergea,Leeuwarden,Friesland,VBO,5.848616,53.148825
De Weinmakker,1,,,9005RN,Wergea,Leeuwarden,Friesland,VBO,5.848845,53.148923
De Weinmakker,2,,,9005RN,Wergea,Leeuwarden,Friesland,VBO,5.848701,53.148439
De Weinmakker,3,,,9005RN,Wergea,Leeuwarden,Friesland,VBO,5.848842,53.149011
De Weinmakker,4,,,9005RN,Wergea,Leeuwarden,Friesland,VBO,5.848821,53.148509
De Weinmakker,5,,,9005RN,Wergea,Leeuwarden,Friesland,VBO,5.848838,53.149124
De Weinmakker,6,,,9005RN,Wergea,Leeuwarden,Friesland,VBO,5.848954,53.148594
De Weinmakker,7,,,9005RN,Wergea,Leeuwarden,Friesland,VBO,5.848823,53.149210
De Weinmakker,8,a,,9005RN,Wergea,Leeuwarden,Friesland,VBO,5.848815,53.148813
De Weinmakker,8,b,,9005RN,Wergea,Leeuwarden,Friesland,VBO,5.848770,53.148811
De Weinmakker,8,c,,9005RN,Wergea,Leeuwarden,Friesland,VBO,5.848723,53.148809
De Weinmakker,8,d,,9005RN,Wergea,Leeuwarden,Friesland,VBO,5.848677,53.148807
De Weinmakker,8,,,9005RN,Wergea,Leeuwarden,Friesland,VBO,5.848986,53.148611
De Weinmakker,9,,,9005RN,Wergea,Leeuwarden,Friesland,VBO,5.848783,53.149345
De Weinmakker,10,a,,9005RN,Wergea,Leeuwarden,Friesland,VBO,5.849199,53.149401
De Weinmakker,10,b,,9005RN,Wergea,Leeuwarden,Friesland,VBO,5.849166,53.149420
De Weinmakker,10,c,,9005RN,Wergea,Leeuwarden,Friesland,VBO,5.849135,53.149437
De Weinmakker,10,d,,9005RN,Wergea,Leeuwarden,Friesland,VBO,5.849106,53.149457
De Weinmakker,10,e,,9005RN,Wergea,Leeuwarden,Friesland,VBO,5.849073,53.149476
De Weinmakker,10,,,9005RN,Wergea,Leeuwarden,Friesland,VBO,5.848767,53.149712
De Weinmakker,11,,,9005RN,Wergea,Leeuwarden,Friesland,VBO,5.848773,53.149432
De Weinmakker,12,,,9005RN,Wergea,Leeuwarden,Friesland,VBO,5.848719,53.149711
De Weinmakker,13,,,9005RN,Wergea,Leeuwarden,Friesland,VBO,5.848430,53.149389
De Weinmakker,14,,,9005RN,Wergea,Leeuwarden,Friesland,VBO,5.848576,53.149704
De Weinmakker,15,,,9005RN,Wergea,Leeuwarden,Friesland,VBO,5.848331,53.149410
De Weinmakker,16,,,9005RN,Wergea,Leeuwarden,Friesland,VBO,5.848526,53.149703
De Weinmakker,17,,,9005RN,Wergea,Leeuwarden,Friesland,VBO,5.848218,53.149408
De Weinmakker,18,,,9005RN,Wergea,Leeuwarden,Friesland,VBO,5.848392,53.149676
De Weinmakker,19,,,9005RN,Wergea,Leeuwarden,Friesland,VBO,5.848126,53.149377
De Weinmakker,20,,,9005RN,Wergea,Leeuwarden,Friesland,VBO,5.848341,53.149674
De Weinmakker,22,,,9005RN,Wergea,Leeuwarden,Friesland,VBO,5.848203,53.149668
De Weinmakker,24,,,9005RN,Wergea,Leeuwarden,Friesland,VBO,5.848146,53.149666
De Kûper,1,,,9005RP,Wergea,Leeuwarden,Friesland,VBO,5.849461,53.149279
De Kûper,3,,,9005RP,Wergea,Leeuwarden,Friesland,VBO,5.849515,53.149312
De Kûper,5,,,9005RP,Wergea,Leeuwarden,Friesland,VBO,5.849573,53.149345
De Kûper,7,,,9005RP,Wergea,Leeuwarden,Friesland,VBO,5.849645,53.149386
De Kûper,9,,,9005RP,Wergea,Leeuwarden,Friesland,VBO,5.849707,53.149420
De Kûper,11,,,9005RP,Wergea,Leeuwarden,Friesland,VBO,5.849790,53.149444
De Kûper,13,,,9005RP,Wergea,Leeuwarden,Friesland,VBO,5.849854,53.149481
De Kûper,15,,,9005RP,Wergea,Leeuwarden,Friesland,VBO,5.849921,53.149520
De Skuorre,1,,,9005RR,Wergea,Leeuwarden,Friesland,VBO,5.848759,53.147255
De Skuorre,2,,,9005RR,Wergea,Leeuwarden,Friesland,VBO,5.849071,53.146976
De Skuorre,3,,,9005RR,Wergea,Leeuwarden,Friesland,VBO,5.849006,53.147248
De Skuorre,4,,,9005RR,Wergea,Leeuwarden,Friesland,VBO,5.849642,53.147187
De Skuorre,5,,,9005RR,Wergea,Leeuwarden,Friesland,VBO,5.849286,53.147381
De Skuorre,6,,,9005RR,Wergea,Leeuwarden,Friesland,VBO,5.849798,53.147277
De Skuorre,7,,,9005RR,Wergea,Leeuwarden,Friesland,VBO,5.849556,53.147490
De Skuorre,8,,,9005RR,Wergea,Leeuwarden,Friesland,VBO,5.849922,53.147317
De Skuorre,9,,,9005RR,Wergea,Leeuwarden,Friesland,VBO,5.849785,53.147519
De Skuorre,10,,,9005RR,Wergea,Leeuwarden,Friesland,VBO,5.850057,53.147358
De Skuorre,11,,,9005RR,Wergea,Leeuwarden,Friesland,VBO,5.850101,53.147617
De Skuorre,12,,,9005RR,Wergea,Leeuwarden,Friesland,VBO,5.850181,53.147398
De Skuorre,14,,,9005RR,Wergea,Leeuwarden,Friesland,VBO,5.850614,53.147746
De Skuorre,16,,,9005RR,Wergea,Leeuwarden,Friesland,VBO,5.850793,53.147800
De Skuorre,18,,,9005RR,Wergea,Leeuwarden,Friesland,VBO,5.850987,53.147872
De Skuorre,20,,,9005RR,Wergea,Leeuwarden,Friesland,VBO,5.851164,53.147947
It Foarhûs,1,,,9005RS,Wergea,Leeuwarden,Friesland,VBO,5.849703,53.146985
It Foarhûs,2,,,9005RS,Wergea,Leeuwarden,Friesland,VBO,5.849328,53.146848
It Foarhûs,3,,,9005RS,Wergea,Leeuwarden,Friesland,VBO,5.849801,53.146919
It Foarhûs,4,,,9005RS,Wergea,Leeuwarden,Friesland,VBO,5.849560,53.146678
It Foarhûs,5,,,9005RS,Wergea,Leeuwarden,Friesland,VBO,5.849940,53.146868
It Foarhûs,6,,,9005RS,Wergea,Leeuwarden,Friesland,VBO,5.849807,53.146611
It Foarhûs,7,,,9005RS,Wergea,Leeuwarden,Friesland,VBO,5.850032,53.146805
It Foarhûs,8,,,9005RS,Wergea,Leeuwarden,Friesland,VBO,5.850019,53.146520
It Foarhûs,9,,,9005RS,Wergea,Leeuwarden,Friesland,VBO,5.850165,53.146751
It Foarhûs,11,,,9005RS,Wergea,Leeuwarden,Friesland,VBO,5.850262,53.146686
De Golle,1,,,9005RT,Wergea,Leeuwarden,Friesland,VBO,5.850726,53.147557
De Golle,2,,,9005RT,Wergea,Leeuwarden,Friesland,VBO,5.850320,53.147229
De Golle,3,,,9005RT,Wergea,Leeuwarden,Friesland,VBO,5.850808,53.147485
De Golle,4,,,9005RT,Wergea,Leeuwarden,Friesland,VBO,5.850387,53.147151
De Golle,5,,,9005RT,Wergea,Leeuwarden,Friesland,VBO,5.850870,53.147388
De Golle,6,,,9005RT,Wergea,Leeuwarden,Friesland,VBO,5.850447,53.147075
De Golle,7,,,9005RT,Wergea,Leeuwarden,Friesland,VBO,5.850975,53.147322
De Golle,8,,,9005RT,Wergea,Leeuwarden,Friesland,VBO,5.850511,53.147004
De Golle,10,,,9005RT,Wergea,Leeuwarden,Friesland,VBO,5.850515,53.146894
It Bûthûs,1,,,9005RV,Wergea,Leeuwarden,Friesland,VBO,5.851229,53.147471
It Bûthûs,2,,,9005RV,Wergea,Leeuwarden,Friesland,VBO,5.851111,53.147113
It Bûthûs,3,,,9005RV,Wergea,Leeuwarden,Friesland,VBO,5.851343,53.147523
It Bûthûs,4,,,9005RV,Wergea,Leeuwarden,Friesland,VBO,5.851258,53.147226
It Bûthûs,6,,,9005RV,Wergea,Leeuwarden,Friesland,VBO,5.851476,53.147326
It Bûthûs,8,,,9005RV,Wergea,Leeuwarden,Friesland,VBO,5.851687,53.147452
It Bûthûs,10,,,9005RV,Wergea,Leeuwarden,Friesland,VBO,5.851940,53.147583
De Heasouder,2,,,9005RW,Wergea,Leeuwarden,Friesland,VBO,5.851420,53.147790
De Heasouder,4,,,9005RW,Wergea,Leeuwarden,Friesland,VBO,5.851607,53.147695
Mardyksterpaad,7,,,9005XE,Wergea,Leeuwarden,Friesland,VBO,5.841103,53.167533
Himpenserreed,3,,,9005XG,Wergea,Leeuwarden,Friesland,VBO,5.841274,53.154008
Mardyk,1,,,9005XH,Wergea,Leeuwarden,Friesland,VBO,5.837765,53.167001
Greate Mar,1,,,9005XJ,Wergea,Leeuwarden,Friesland,VBO,5.835010,53.148012
Greate Mar,2,,,9005XJ,Wergea,Leeuwarden,Friesland,VBO,5.828772,53.147708
Greate Mar,3,,,9005XJ,Wergea,Leeuwarden,Friesland,VBO,5.843877,53.140460
Greate Mar,4,,,9005XJ,Wergea,Leeuwarden,Friesland,VBO,5.824570,53.143466
Greate Mar,5,a,,9005XJ,Wergea,Leeuwarden,Friesland,VBO,5.836443,53.144036
Greate Mar,5,,,9005XJ,Wergea,Leeuwarden,Friesland,VBO,5.843887,53.140347
Greate Mar,6,,,9005XJ,Wergea,Leeuwarden,Friesland,VBO,5.822376,53.137428
Greate Mar,7,,,9005XJ,Wergea,Leeuwarden,Friesland,VBO,5.833843,53.141331
Greate Mar,8,,,9005XJ,Wergea,Leeuwarden,Friesland,VBO,5.828183,53.133853
Greate Mar,11,,,9005XJ,Wergea,Leeuwarden,Friesland,VBO,5.828794,53.133885
Leeuwarderweg,64,a,,9005XK,Wergea,Leeuwarden,Friesland,VBO,5.837271,53.151331
Leeuwarderweg,64,,,9005XK,Wergea,Leeuwarden,Friesland,VBO,5.836490,53.151793
Wergeasterdyk,1,,,9005XK,Wergea,Leeuwarden,Friesland,VBO,5.835302,53.150735
Wergeasterdyk,2,,,9005XK,Wergea,Leeuwarden,Friesland,VBO,5.828626,53.159563
Wergeasterdyk,3,,,9005XK,Wergea,Leeuwarden,Friesland,VBO,5.832092,53.153511
Wergeasterdyk,4,,,9005XK,Wergea,Leeuwarden,Friesland,VBO,5.822716,53.161624
Himpensermar,5,,,9005XL,Wergea,Leeuwarden,Friesland,VBO,5.834554,53.153674
Warstienserdyk,1,a,,9005XM,Wergea,Leeuwarden,Friesland,VBO,5.847372,53.155441
Warstienserdyk,1,,,9005XM,Wergea,Leeuwarden,Friesland,VBO,5.846325,53.154698
Warstienserdyk,2,b,,9005XM,Wergea,Leeuwarden,Friesland,VBO,5.847507,53.153899
Warstienserdyk,2,d,,9005XM,Wergea,Leeuwarden,Friesland,VBO,5.848727,53.153504
Warstienserdyk,2,,,9005XM,Wergea,Leeuwarden,Friesland,VBO,5.847486,53.154616
Warstienserdyk,3,,,9005XM,Wergea,Leeuwarden,Friesland,VBO,5.849793,53.156359
Warstienserdyk,4,,,9005XM,Wergea,Leeuwarden,Friesland,VBO,5.851122,53.155801
Warstienserdyk,5,,,9005XM,Wergea,Leeuwarden,Friesland,VBO,5.851682,53.156006
Warstienserdyk,7,,,9005XM,Wergea,Leeuwarden,Friesland,VBO,5.853209,53.156127
Warstienserdyk,9,,,9005XM,Wergea,Leeuwarden,Friesland,VBO,5.854340,53.156482
Foudering,1,,,9005XN,Wergea,Leeuwarden,Friesland,VBO,5.854986,53.148239
Foudering,2,,,9005XN,Wergea,Leeuwarden,Friesland,VBO,5.856084,53.148824
Narderbuorren,1,a,,9005XP,Wergea,Leeuwarden,Friesland,VBO,5.850093,53.145054
Narderbuorren,1,,,9005XP,Wergea,Leeuwarden,Friesland,VBO,5.850580,53.144433
Narderbuorren,3,,,9005XP,Wergea,Leeuwarden,Friesland,VBO,5.848659,53.144724
Narderbuorren,4,,,9005XP,Wergea,Leeuwarden,Friesland,VBO,5.847256,53.145253
Narderbuorren,5,,,9005XP,Wergea,Leeuwarden,Friesland,VBO,5.849239,53.143721
Narderbuorren,6,,,9005XP,Wergea,Leeuwarden,Friesland,VBO,5.847276,53.145527
Narderbuorren,7,,,9005XP,Wergea,Leeuwarden,Friesland,VBO,5.849002,53.143105
Narderbuorren,8,,,9005XP,Wergea,Leeuwarden,Friesland,VBO,5.846450,53.143887
Narderbuorren,9,,,9005XP,Wergea,Leeuwarden,Friesland,VBO,5.848040,53.143572
Narderbuorren,11,,,9005XP,Wergea,Leeuwarden,Friesland,VBO,5.846334,53.141560
Domwier,1,b,,9005XR,Wergea,Leeuwarden,Friesland,VBO,5.845084,53.141647
Domwier,1,,,9005XR,Wergea,Leeuwarden,Friesland,VBO,5.844683,53.141006
Domwier,2,a,,9005XR,Wergea,Leeuwarden,Friesland,VBO,5.843958,53.137776
Domwier,2,,,9005XR,Wergea,Leeuwarden,Friesland,VBO,5.845160,53.136474
Domwier,3,a,,9005XR,Wergea,Leeuwarden,Friesland,VBO,5.841896,53.136248
Domwier,3,,,9005XR,Wergea,Leeuwarden,Friesland,VBO,5.841503,53.136572
Domwier,4,,,9005XR,Wergea,Leeuwarden,Friesland,VBO,5.840883,53.135607
Domwier,5,a,,9005XR,Wergea,Leeuwarden,Friesland,VBO,5.840983,53.134488
Domwier,5,,,9005XR,Wergea,Leeuwarden,Friesland,VBO,5.840022,53.133709
Domwier,6,,,9005XR,Wergea,Leeuwarden,Friesland,VBO,5.839584,53.133563
Domwier,7,,,9005XR,Wergea,Leeuwarden,Friesland,VBO,5.838804,53.134008
Domwier,8,,,9005XR,Wergea,Leeuwarden,Friesland,VBO,5.838668,53.134403
Wartensterdyk,1,b,,9005XS,Wergea,Leeuwarden,Friesland,VBO,5.848067,53.152745
Wartensterdyk,1,,,9005XS,Wergea,Leeuwarden,Friesland,VBO,5.849541,53.152370
Wartensterdyk,2,a,,9005XS,Wergea,Leeuwarden,Friesland,VBO,5.852304,53.151914
Wartensterdyk,2,b,,9005XS,Wergea,Leeuwarden,Friesland,VBO,5.852387,53.151271
Wartensterdyk,2,,,9005XS,Wergea,Leeuwarden,Friesland,VBO,5.853839,53.152055
Wartensterdyk,3,,,9005XS,Wergea,Leeuwarden,Friesland,VBO,5.851581,53.152507
Wartensterdyk,4,,,9005XS,Wergea,Leeuwarden,Friesland,VBO,5.854107,53.152109
Wartensterdyk,5,,,9005XS,Wergea,Leeuwarden,Friesland,VBO,5.861516,53.156155
Wartensterdyk,6,,,9005XS,Wergea,Leeuwarden,Friesland,VBO,5.855185,53.151005
Wartensterdyk,8,,,9005XS,Wergea,Leeuwarden,Friesland,VBO,5.855432,53.149290
Wartensterdyk,10,,,9005XS,Wergea,Leeuwarden,Friesland,VBO,5.864954,53.152275
Wartensterdyk,12,,,9005XS,Wergea,Leeuwarden,Friesland,VBO,5.868238,53.150697
Leechlân,7,,,9005XT,Wergea,Leeuwarden,Friesland,VBO,5.874092,53.137745
Greate Kritewei,1,a,,9005XV,Wergea,Leeuwarden,Friesland,VBO,5.853241,53.136765
Greate Kritewei,1,,,9005XV,Wergea,Leeuwarden,Friesland,VBO,5.861847,53.131748
Greate Kritewei,2,,,9005XV,Wergea,Leeuwarden,Friesland,VBO,5.864384,53.132116
De Trije Hikken,1,,,9005XX,Wergea,Leeuwarden,Friesland,VBO,5.856818,53.164822
