openbareruimtenaam,huisnummer,huisletter,huisnummertoevoeging,postcode,woonplaatsnaam,gemeentenaam,provincienaam,typeadresseerbaarobject,longitude,latitude
Hoptille,1,,NUON,9027BA,Hilaard,Littenseradiel,Friesland,VBO,5.683811,53.168570
Hoptille,2,A,,9027BA,Hilaard,Littenseradiel,Friesland,VBO,5.701104,53.168080
Hoptille,2,,,9027BA,Hilaard,Littenseradiel,Friesland,VBO,5.690026,53.169097
Hoptille,3,,,9027BA,Hilaard,Littenseradiel,Friesland,VBO,5.683471,53.168605
Hoptille,4,A,,9027BA,Hilaard,Littenseradiel,Friesland,VBO,5.684252,53.169239
Hoptille,4,,,9027BA,Hilaard,Littenseradiel,Friesland,VBO,5.685311,53.169128
Hoptille,6,,,9027BA,Hilaard,Littenseradiel,Friesland,VBO,5.683760,53.169656
Hoptille,7,,,9027BA,Hilaard,Littenseradiel,Friesland,VBO,5.683025,53.168515
Hoptille,8,,,9027BA,Hilaard,Littenseradiel,Friesland,VBO,5.679925,53.174453
Hoptille,10,,,9027BA,Hilaard,Littenseradiel,Friesland,VBO,5.681750,53.168982
Hoptille,11,,,9027BA,Hilaard,Littenseradiel,Friesland,VBO,5.682899,53.168572
Hoptille,13,A,,9027BA,Hilaard,Littenseradiel,Friesland,VBO,5.682752,53.168636
Hoptille,15,,,9027BA,Hilaard,Littenseradiel,Friesland,VBO,5.681124,53.168617
Hoptille,23,,,9027BA,Hilaard,Littenseradiel,Friesland,VBO,5.681328,53.167383
Hilaerdermieden,1,a,,9027BB,Hilaard,Littenseradiel,Friesland,VBO,5.697328,53.174245
Hilaerdermieden,1,,,9027BB,Hilaard,Littenseradiel,Friesland,VBO,5.708879,53.171493
Hilaerdermieden,2,,,9027BB,Hilaard,Littenseradiel,Friesland,VBO,5.694913,53.177103
Hilaerdermieden,3,,,9027BB,Hilaard,Littenseradiel,Friesland,VBO,5.691074,53.178141
Hilaerdermieden,4,,,9027BB,Hilaard,Littenseradiel,Friesland,VBO,5.692111,53.172747
Hilaerdermieden,5,,,9027BB,Hilaard,Littenseradiel,Friesland,VBO,5.687526,53.175781
Hoptilsterdyk,1,,,9027BC,Hilaard,Littenseradiel,Friesland,VBO,5.710378,53.164983
Hoptilsterdyk,2,,,9027BC,Hilaard,Littenseradiel,Friesland,VBO,5.710699,53.165416
Hoptilsterdyk,3,,,9027BC,Hilaard,Littenseradiel,Friesland,VBO,5.710176,53.165043
Hoptilsterdyk,4,,,9027BC,Hilaard,Littenseradiel,Friesland,VBO,5.710265,53.165536
Hoptilsterdyk,5,,,9027BC,Hilaard,Littenseradiel,Friesland,VBO,5.710037,53.165086
Hoptilsterdyk,6,,,9027BC,Hilaard,Littenseradiel,Friesland,VBO,5.710186,53.165570
Hoptilsterdyk,7,,,9027BC,Hilaard,Littenseradiel,Friesland,VBO,5.709872,53.165132
Hoptilsterdyk,8,,,9027BC,Hilaard,Littenseradiel,Friesland,VBO,5.710015,53.165649
Hoptilsterdyk,9,,,9027BC,Hilaard,Littenseradiel,Friesland,VBO,5.709739,53.165173
Hoptilsterdyk,10,A,,9027BC,Hilaard,Littenseradiel,Friesland,VBO,5.709750,53.166211
Hoptilsterdyk,10,,,9027BC,Hilaard,Littenseradiel,Friesland,VBO,5.709637,53.165662
Hoptilsterdyk,11,,,9027BC,Hilaard,Littenseradiel,Friesland,VBO,5.709591,53.165243
Hoptilsterdyk,13,,,9027BC,Hilaard,Littenseradiel,Friesland,VBO,5.709505,53.165269
Hoptilsterdyk,15,,,9027BC,Hilaard,Littenseradiel,Friesland,VBO,5.709320,53.165324
Hoptilsterdyk,17,,,9027BC,Hilaard,Littenseradiel,Friesland,VBO,5.709233,53.165351
Hoptilsterdyk,19,,,9027BD,Hilaard,Littenseradiel,Friesland,VBO,5.708958,53.165429
Hoptilsterdyk,21,,,9027BD,Hilaard,Littenseradiel,Friesland,VBO,5.708611,53.165376
Hoptilsterdyk,23,,,9027BD,Hilaard,Littenseradiel,Friesland,VBO,5.708358,53.165477
Hoptilsterdyk,25,,,9027BD,Hilaard,Littenseradiel,Friesland,VBO,5.708064,53.165560
Hoptilsterdyk,29,,,9027BD,Hilaard,Littenseradiel,Friesland,VBO,5.707772,53.165652
Hoptilsterdyk,31,,,9027BD,Hilaard,Littenseradiel,Friesland,VBO,5.706793,53.165729
Hoptilsterdyk,33,a,,9027BD,Hilaard,Littenseradiel,Friesland,VBO,5.706257,53.165756
Hoptilsterdyk,33,,,9027BD,Hilaard,Littenseradiel,Friesland,VBO,5.706477,53.165811
Hoptilsterdyk,35,B,,9027BD,Hilaard,Littenseradiel,Friesland,VBO,5.705916,53.165720
Hoptilsterdyk,35,C,,9027BD,Hilaard,Littenseradiel,Friesland,VBO,5.705731,53.165979
Hoptilsterdyk,37,a,,9027BD,Hilaard,Littenseradiel,Friesland,VBO,5.704964,53.166000
Hoptilsterdyk,37,b,,9027BD,Hilaard,Littenseradiel,Friesland,VBO,5.703037,53.166283
Hoptilsterdyk,37,c,,9027BD,Hilaard,Littenseradiel,Friesland,VBO,5.703564,53.166165
Hoptilsterdyk,37,d,,9027BD,Hilaard,Littenseradiel,Friesland,VBO,5.703135,53.166090
Hoptilsterdyk,37,e,,9027BD,Hilaard,Littenseradiel,Friesland,VBO,5.703658,53.165550
Hoptilsterdyk,37,f,,9027BD,Hilaard,Littenseradiel,Friesland,VBO,5.704195,53.165534
Hoptilsterdyk,37,,,9027BD,Hilaard,Littenseradiel,Friesland,VBO,5.704051,53.165903
Hoptilsterdyk,39,,,9027BD,Hilaard,Littenseradiel,Friesland,VBO,5.702568,53.166361
Hoptilsterdyk,41,,,9027BD,Hilaard,Littenseradiel,Friesland,VBO,5.699723,53.162723
Hoptilsterdyk,12,,,9027BE,Hilaard,Littenseradiel,Friesland,VBO,5.708816,53.165810
Hoptilsterdyk,14,,,9027BE,Hilaard,Littenseradiel,Friesland,VBO,5.708725,53.165850
Hoptilsterdyk,16,,,9027BE,Hilaard,Littenseradiel,Friesland,VBO,5.708544,53.165882
Hoptilsterdyk,18,,,9027BE,Hilaard,Littenseradiel,Friesland,VBO,5.708451,53.165898
Hoptilsterdyk,20,,,9027BE,Hilaard,Littenseradiel,Friesland,VBO,5.708238,53.165930
Hoptilsterdyk,22,,,9027BE,Hilaard,Littenseradiel,Friesland,VBO,5.708051,53.165952
Hoptilsterdyk,24,,,9027BE,Hilaard,Littenseradiel,Friesland,VBO,5.707959,53.165968
Hoptilsterdyk,26,,,9027BE,Hilaard,Littenseradiel,Friesland,VBO,5.707839,53.166011
Hoptilsterdyk,28,,,9027BE,Hilaard,Littenseradiel,Friesland,VBO,5.707438,53.166389
Hoptilsterdyk,30,,,9027BE,Hilaard,Littenseradiel,Friesland,VBO,5.707222,53.166095
Hoptilsterdyk,32,,,9027BE,Hilaard,Littenseradiel,Friesland,VBO,5.707123,53.166112
Hoptilsterdyk,34,,,9027BE,Hilaard,Littenseradiel,Friesland,VBO,5.707009,53.166132
Hoptilsterdyk,36,,,9027BE,Hilaard,Littenseradiel,Friesland,VBO,5.706904,53.166150
Hoptilsterdyk,38,,,9027BE,Hilaard,Littenseradiel,Friesland,VBO,5.706612,53.166202
Hoptilsterdyk,40,,,9027BE,Hilaard,Littenseradiel,Friesland,VBO,5.706534,53.166215
Hoptilsterdyk,42,,,9027BE,Hilaard,Littenseradiel,Friesland,VBO,5.706399,53.166342
De Pôlle,1,,,9027BG,Hilaard,Littenseradiel,Friesland,VBO,5.710572,53.165689
De Pôlle,2,,,9027BG,Hilaard,Littenseradiel,Friesland,VBO,5.710804,53.165520
De Pôlle,4,,,9027BG,Hilaard,Littenseradiel,Friesland,VBO,5.710826,53.165700
Tjessingawei,1,,,9027BH,Hilaard,Littenseradiel,Friesland,VBO,5.711902,53.165516
Tjessingawei,2,,,9027BH,Hilaard,Littenseradiel,Friesland,VBO,5.711694,53.165858
Tjessingawei,3,,,9027BH,Hilaard,Littenseradiel,Friesland,VBO,5.711831,53.165432
Tjessingawei,4,,,9027BH,Hilaard,Littenseradiel,Friesland,VBO,5.711256,53.165888
Tjessingawei,5,,,9027BH,Hilaard,Littenseradiel,Friesland,VBO,5.711865,53.165319
Tjessingawei,7,,,9027BH,Hilaard,Littenseradiel,Friesland,VBO,5.711985,53.165297
Tjessingawei,8,,,9027BH,Hilaard,Littenseradiel,Friesland,VBO,5.711579,53.165735
Tjessingawei,10,,,9027BH,Hilaard,Littenseradiel,Friesland,VBO,5.711600,53.165666
Tjessingawei,11,,,9027BH,Hilaard,Littenseradiel,Friesland,VBO,5.711814,53.165141
Tjessingawei,12,,,9027BH,Hilaard,Littenseradiel,Friesland,VBO,5.711639,53.165569
Tjessingawei,20,,,9027BH,Hilaard,Littenseradiel,Friesland,VBO,5.711146,53.165518
Tjessingawei,22,,,9027BH,Hilaard,Littenseradiel,Friesland,VBO,5.711492,53.165474
Skilpaed,1,,,9027BJ,Hilaard,Littenseradiel,Friesland,VBO,5.712060,53.165786
Skilpaed,3,,,9027BJ,Hilaard,Littenseradiel,Friesland,VBO,5.712509,53.165638
Skilpaed,5,,,9027BJ,Hilaard,Littenseradiel,Friesland,VBO,5.712716,53.165557
Skilpaed,7,,GAR,9027BJ,Hilaard,Littenseradiel,Friesland,VBO,5.712934,53.165688
Skilpaed,9,,GAR,9027BJ,Hilaard,Littenseradiel,Friesland,VBO,5.712972,53.165678
Skilpaed,11,,GAR,9027BJ,Hilaard,Littenseradiel,Friesland,VBO,5.713036,53.165665
Skilpaed,17,,,9027BJ,Hilaard,Littenseradiel,Friesland,VBO,5.713118,53.165484
Smidsstrjitte,1,a,,9027BK,Hilaard,Littenseradiel,Friesland,VBO,5.712776,53.165240
Smidsstrjitte,1,,,9027BK,Hilaard,Littenseradiel,Friesland,VBO,5.712722,53.165123
Smidsstrjitte,2,,,9027BK,Hilaard,Littenseradiel,Friesland,VBO,5.713406,53.165240
Smidsstrjitte,3,,,9027BK,Hilaard,Littenseradiel,Friesland,VBO,5.712815,53.165327
Smidsstrjitte,4,,,9027BK,Hilaard,Littenseradiel,Friesland,VBO,5.713777,53.165322
Smidsstrjitte,5,,,9027BK,Hilaard,Littenseradiel,Friesland,VBO,5.712847,53.165384
Smidsstrjitte,7,,,9027BK,Hilaard,Littenseradiel,Friesland,VBO,5.713280,53.165451
Smidsstrjitte,9,,,9027BK,Hilaard,Littenseradiel,Friesland,VBO,5.713422,53.165603
Van Aylvaleane,2,,,9027BL,Hilaard,Littenseradiel,Friesland,VBO,5.711729,53.164301
Van Aylvaleane,3,,,9027BL,Hilaard,Littenseradiel,Friesland,VBO,5.711255,53.165426
Van Aylvaleane,4,,,9027BL,Hilaard,Littenseradiel,Friesland,VBO,5.710829,53.162864
Van Aylvaleane,9,,,9027BL,Hilaard,Littenseradiel,Friesland,VBO,5.711521,53.165401
Van Aylvaleane,11,,,9027BL,Hilaard,Littenseradiel,Friesland,VBO,5.711669,53.164977
Van Aylvaleane,13,,,9027BL,Hilaard,Littenseradiel,Friesland,VBO,5.712489,53.165086
Van Aylvaleane,6,,,9027BM,Hilaard,Littenseradiel,Friesland,VBO,5.713095,53.164556
Van Aylvaleane,10,,,9027BM,Hilaard,Littenseradiel,Friesland,VBO,5.713616,53.164814
Van Aylvaleane,12,,,9027BM,Hilaard,Littenseradiel,Friesland,VBO,5.713759,53.164836
Van Aylvaleane,14,,,9027BM,Hilaard,Littenseradiel,Friesland,VBO,5.714278,53.164821
Van Aylvaleane,15,,,9027BM,Hilaard,Littenseradiel,Friesland,VBO,5.713114,53.165154
Van Aylvaleane,16,,,9027BM,Hilaard,Littenseradiel,Friesland,VBO,5.714262,53.164846
Van Aylvaleane,17,,NUON,9027BM,Hilaard,Littenseradiel,Friesland,VBO,5.713478,53.165118
Van Aylvaleane,18,,,9027BM,Hilaard,Littenseradiel,Friesland,VBO,5.714942,53.164910
Van Aylvaleane,19,,,9027BM,Hilaard,Littenseradiel,Friesland,VBO,5.713650,53.165192
Van Aylvaleane,21,,,9027BM,Hilaard,Littenseradiel,Friesland,VBO,5.713890,53.165210
Van Aylvaleane,23,,,9027BM,Hilaard,Littenseradiel,Friesland,VBO,5.714178,53.165248
Van Aylvaleane,25,,,9027BM,Hilaard,Littenseradiel,Friesland,VBO,5.716057,53.165888
It Westerhûs,1,,,9027BN,Hilaard,Littenseradiel,Friesland,VBO,5.719557,53.160180
It Mêd,1,A,,9027BP,Hilaard,Littenseradiel,Friesland,VBO,5.709638,53.164771
It Mêd,1,B,,9027BP,Hilaard,Littenseradiel,Friesland,VBO,5.709921,53.164822
It Mêd,1,,,9027BP,Hilaard,Littenseradiel,Friesland,VBO,5.709373,53.164689
It Mêd,2,A,,9027BP,Hilaard,Littenseradiel,Friesland,VBO,5.709079,53.165111
It Mêd,2,,,9027BP,Hilaard,Littenseradiel,Friesland,VBO,5.709274,53.165021
It Mêd,3,,,9027BP,Hilaard,Littenseradiel,Friesland,VBO,5.709074,53.164612
It Mêd,4,A,,9027BP,Hilaard,Littenseradiel,Friesland,VBO,5.708520,53.165118
It Mêd,4,,,9027BP,Hilaard,Littenseradiel,Friesland,VBO,5.708594,53.165091
It Mêd,5,,,9027BP,Hilaard,Littenseradiel,Friesland,VBO,5.708881,53.164556
It Mêd,6,A,,9027BP,Hilaard,Littenseradiel,Friesland,VBO,5.708238,53.165244
It Mêd,6,,,9027BP,Hilaard,Littenseradiel,Friesland,VBO,5.708314,53.165218
It Mêd,7,,,9027BP,Hilaard,Littenseradiel,Friesland,VBO,5.708583,53.164424
It Mêd,8,,,9027BP,Hilaard,Littenseradiel,Friesland,VBO,5.708022,53.165304
It Mêd,9,,,9027BP,Hilaard,Littenseradiel,Friesland,VBO,5.708443,53.164715
It Mêd,10,,,9027BP,Hilaard,Littenseradiel,Friesland,VBO,5.707850,53.165392
It Mêd,11,,,9027BP,Hilaard,Littenseradiel,Friesland,VBO,5.708289,53.164829
It Mêd,12,,,9027BP,Hilaard,Littenseradiel,Friesland,VBO,5.707782,53.165417
It Mêd,13,,,9027BP,Hilaard,Littenseradiel,Friesland,VBO,5.708101,53.164938
It Mêd,14,,,9027BP,Hilaard,Littenseradiel,Friesland,VBO,5.707711,53.165441
It Mêd,15,,,9027BP,Hilaard,Littenseradiel,Friesland,VBO,5.707874,53.165017
It Mêd,16,,,9027BP,Hilaard,Littenseradiel,Friesland,VBO,5.707648,53.165466
It Mêd,21,,,9027BP,Hilaard,Littenseradiel,Friesland,VBO,5.707172,53.165451
It Mêd,23,,,9027BP,Hilaard,Littenseradiel,Friesland,VBO,5.707157,53.165498
It Mêd,25,,,9027BP,Hilaard,Littenseradiel,Friesland,VBO,5.707195,53.165681
