openbareruimtenaam,huisnummer,huisletter,huisnummertoevoeging,postcode,woonplaatsnaam,gemeentenaam,provincienaam,typeadresseerbaarobject,longitude,latitude
Langpaed,2,,,9036HJ,Menaam,Menameradiel,Friesland,VBO,5.665129,53.216595
Langpaed,4,,,9036HJ,Menaam,Menameradiel,Friesland,VBO,5.665389,53.216591
Langpaed,6,,,9036HJ,Menaam,Menameradiel,Friesland,VBO,5.665559,53.216483
Langpaed,8,,,9036HJ,Menaam,Menameradiel,Friesland,VBO,5.665727,53.216430
Langpaed,10,,,9036HJ,Menaam,Menameradiel,Friesland,VBO,5.665943,53.216301
Langpaed,12,,,9036HJ,Menaam,Menameradiel,Friesland,VBO,5.666104,53.216195
Langpaed,14,,,9036HJ,Menaam,Menameradiel,Friesland,VBO,5.666313,53.216093
Langpaed,18,,,9036HJ,Menaam,Menameradiel,Friesland,VBO,5.666574,53.215985
Langpaed,20,,,9036HJ,Menaam,Menameradiel,Friesland,VBO,5.666790,53.215886
Langpaed,22,,,9036HJ,Menaam,Menameradiel,Friesland,VBO,5.666875,53.215845
Langpaed,24,,,9036HJ,Menaam,Menameradiel,Friesland,VBO,5.667075,53.215748
Langpaed,26,,,9036HJ,Menaam,Menameradiel,Friesland,VBO,5.667378,53.215610
Ryksstrjitwei,2,,,9036JA,Menaam,Menameradiel,Friesland,VBO,5.693770,53.207525
Ryksstrjitwei,4,,,9036JA,Menaam,Menameradiel,Friesland,VBO,5.688386,53.205640
Ryksstrjitwei,5,,,9036JA,Menaam,Menameradiel,Friesland,VBO,5.683139,53.203993
Ryksstrjitwei,8,,,9036JA,Menaam,Menameradiel,Friesland,VBO,5.672966,53.203648
Ryksstrjitwei,9,,,9036JA,Menaam,Menameradiel,Friesland,VBO,5.674832,53.202739
Ryksstrjitwei,15,,,9036JA,Menaam,Menameradiel,Friesland,VBO,5.664344,53.201957
De Mieden,1,B,,9036JB,Menaam,Menameradiel,Friesland,VBO,5.683367,53.202587
De Mieden,1,,,9036JB,Menaam,Menameradiel,Friesland,VBO,5.683369,53.202822
De Mieden,2,,,9036JB,Menaam,Menameradiel,Friesland,VBO,5.683235,53.199438
De Mieden,4,,,9036JB,Menaam,Menameradiel,Friesland,VBO,5.685104,53.193493
Rypsterdyk,1,,,9036JC,Menaam,Menameradiel,Friesland,VBO,5.659895,53.216507
Rypsterdyk,3,,,9036JC,Menaam,Menameradiel,Friesland,VBO,5.659734,53.216329
Rypsterdyk,5,A,,9036JC,Menaam,Menameradiel,Friesland,VBO,5.659621,53.216069
Rypsterdyk,5,,,9036JC,Menaam,Menameradiel,Friesland,VBO,5.659458,53.215920
Rypsterdyk,7,,,9036JC,Menaam,Menameradiel,Friesland,VBO,5.659365,53.215780
Rypsterdyk,9,,,9036JD,Menaam,Menameradiel,Friesland,VBO,5.658986,53.215248
Rypsterdyk,13,,,9036JD,Menaam,Menameradiel,Friesland,VBO,5.658881,53.214854
Rypsterdyk,15,,,9036JD,Menaam,Menameradiel,Friesland,VBO,5.658758,53.214502
Rypsterdyk,17,,,9036JE,Menaam,Menameradiel,Friesland,VBO,5.658644,53.214233
Rypsterdyk,19,,,9036JE,Menaam,Menameradiel,Friesland,VBO,5.658581,53.214120
Rypsterdyk,21,,,9036JE,Menaam,Menameradiel,Friesland,VBO,5.656571,53.211366
Rypsterdyk,23,A,,9036JE,Menaam,Menameradiel,Friesland,VBO,5.654879,53.206202
Rypsterdyk,23,B,,9036JE,Menaam,Menameradiel,Friesland,VBO,5.655017,53.205820
Rypsterdyk,23,C,,9036JE,Menaam,Menameradiel,Friesland,VBO,5.655675,53.205193
Rypsterdyk,23,D,,9036JE,Menaam,Menameradiel,Friesland,VBO,5.656569,53.204997
Rypsterdyk,23,E,,9036JE,Menaam,Menameradiel,Friesland,VBO,5.656730,53.205124
Rypsterdyk,23,F,,9036JE,Menaam,Menameradiel,Friesland,VBO,5.656409,53.204842
Rypsterdyk,23,G,,9036JE,Menaam,Menameradiel,Friesland,VBO,5.656242,53.205007
Rypsterdyk,23,,,9036JE,Menaam,Menameradiel,Friesland,VBO,5.654529,53.206265
Rypsterdyk,25,,,9036JE,Menaam,Menameradiel,Friesland,VBO,5.654120,53.205610
Rypsterdyk,2,A,,9036JG,Menaam,Menameradiel,Friesland,VBO,5.659497,53.216513
Rypsterdyk,2,,,9036JG,Menaam,Menameradiel,Friesland,VBO,5.659551,53.216562
Rypsterdyk,4,,,9036JG,Menaam,Menameradiel,Friesland,VBO,5.659291,53.216348
Rypsterdyk,6,,,9036JG,Menaam,Menameradiel,Friesland,VBO,5.659163,53.216188
Rypsterdyk,8,,,9036JG,Menaam,Menameradiel,Friesland,VBO,5.659036,53.216015
Rypsterdyk,10,,,9036JG,Menaam,Menameradiel,Friesland,VBO,5.658890,53.215818
Rypsterdyk,12,,,9036JG,Menaam,Menameradiel,Friesland,VBO,5.658756,53.215612
Rypsterdyk,14,,,9036JH,Menaam,Menameradiel,Friesland,VBO,5.658583,53.215340
Rypsterdyk,16,,,9036JH,Menaam,Menameradiel,Friesland,VBO,5.658504,53.215169
Rypsterdyk,18,,,9036JH,Menaam,Menameradiel,Friesland,VBO,5.658449,53.215013
Rypsterdyk,20,,,9036JH,Menaam,Menameradiel,Friesland,VBO,5.658376,53.214907
Rypsterdyk,22,,,9036JH,Menaam,Menameradiel,Friesland,VBO,5.658319,53.214788
Rypsterdyk,24,,,9036JH,Menaam,Menameradiel,Friesland,VBO,5.658259,53.214666
Rypsterdyk,26,,,9036JH,Menaam,Menameradiel,Friesland,VBO,5.658201,53.214542
Rypsterdyk,30,,,9036JH,Menaam,Menameradiel,Friesland,VBO,5.657276,53.213116
Rypsterdyk,32,,,9036JH,Menaam,Menameradiel,Friesland,VBO,5.657102,53.212940
Rypsterdyk,34,,,9036JH,Menaam,Menameradiel,Friesland,VBO,5.656903,53.212764
Rypsterdyk,36,,,9036JH,Menaam,Menameradiel,Friesland,VBO,5.656730,53.212582
Gralda,1,,,9036JJ,Menaam,Menameradiel,Friesland,VBO,5.659333,53.208015
Gralda,2,,,9036JJ,Menaam,Menameradiel,Friesland,VBO,5.663848,53.205633
Gralda,3,,,9036JJ,Menaam,Menameradiel,Friesland,VBO,5.656537,53.207700
Gralda,4,,,9036JJ,Menaam,Menameradiel,Friesland,VBO,5.656580,53.207430
Gralda,5,,K076,9036JJ,Menaam,Menameradiel,Friesland,VBO,5.657768,53.207203
Gralda,5,,K080,9036JJ,Menaam,Menameradiel,Friesland,VBO,5.658035,53.207173
Gralda,5,,K085,9036JJ,Menaam,Menameradiel,Friesland,VBO,5.658071,53.206850
Gralda,5,,K088,9036JJ,Menaam,Menameradiel,Friesland,VBO,5.658473,53.207015
Gralda,5,,K095,9036JJ,Menaam,Menameradiel,Friesland,VBO,5.658852,53.206899
Gralda,5,,K096,9036JJ,Menaam,Menameradiel,Friesland,VBO,5.658930,53.206987
Gralda,5,,K102,9036JJ,Menaam,Menameradiel,Friesland,VBO,5.659146,53.207002
Gralda,5,,K106,9036JJ,Menaam,Menameradiel,Friesland,VBO,5.659234,53.206567
Gralda,5,,K112,9036JJ,Menaam,Menameradiel,Friesland,VBO,5.659757,53.206767
Gralda,5,,K113,9036JJ,Menaam,Menameradiel,Friesland,VBO,5.659988,53.206654
Gralda,5,,K131,9036JJ,Menaam,Menameradiel,Friesland,VBO,5.660695,53.206531
Gralda,5,,K144,9036JJ,Menaam,Menameradiel,Friesland,VBO,5.656576,53.206578
Gralda,5,,K170,9036JJ,Menaam,Menameradiel,Friesland,VBO,5.658778,53.205937
Gralda,5,,K171,9036JJ,Menaam,Menameradiel,Friesland,VBO,5.658907,53.205919
Gralda,5,,K177,9036JJ,Menaam,Menameradiel,Friesland,VBO,5.659374,53.205776
Gralda,5,,K192,9036JJ,Menaam,Menameradiel,Friesland,VBO,5.660540,53.205421
Gralda,5,,,9036JJ,Menaam,Menameradiel,Friesland,VBO,5.655442,53.207397
Nijlân,1,,,9036JK,Menaam,Menameradiel,Friesland,VBO,5.661634,53.214062
Nijlân,3,,,9036JK,Menaam,Menameradiel,Friesland,VBO,5.661552,53.214003
Nijlân,5,,,9036JK,Menaam,Menameradiel,Friesland,VBO,5.661405,53.213952
Nijlân,7,,,9036JK,Menaam,Menameradiel,Friesland,VBO,5.661325,53.213893
Nijlân,9,,,9036JK,Menaam,Menameradiel,Friesland,VBO,5.661268,53.213796
Nijlân,11,,,9036JK,Menaam,Menameradiel,Friesland,VBO,5.661183,53.213734
Nijlân,13,,,9036JK,Menaam,Menameradiel,Friesland,VBO,5.661022,53.213661
Nijlân,15,,,9036JK,Menaam,Menameradiel,Friesland,VBO,5.660909,53.213674
Nijlân,17,,,9036JK,Menaam,Menameradiel,Friesland,VBO,5.660778,53.213768
Nijlân,19,,,9036JK,Menaam,Menameradiel,Friesland,VBO,5.660658,53.213782
Nijlân,21,,,9036JK,Menaam,Menameradiel,Friesland,VBO,5.660532,53.213875
Nijlân,23,A,,9036JK,Menaam,Menameradiel,Friesland,VBO,5.660958,53.213405
Nijlân,23,,,9036JK,Menaam,Menameradiel,Friesland,VBO,5.660404,53.213890
Nijlân,25,,,9036JL,Menaam,Menameradiel,Friesland,VBO,5.660303,53.213684
Nijlân,27,,,9036JL,Menaam,Menameradiel,Friesland,VBO,5.660641,53.213249
Nijlân,29,,,9036JL,Menaam,Menameradiel,Friesland,VBO,5.660628,53.213190
Nijlân,31,,,9036JL,Menaam,Menameradiel,Friesland,VBO,5.660627,53.213127
Nijlân,33,,,9036JL,Menaam,Menameradiel,Friesland,VBO,5.660612,53.213073
Nijlân,35,,,9036JL,Menaam,Menameradiel,Friesland,VBO,5.660597,53.213028
Nijlân,37,,,9036JL,Menaam,Menameradiel,Friesland,VBO,5.660551,53.212974
Nijlân,39,,,9036JL,Menaam,Menameradiel,Friesland,VBO,5.660521,53.212911
Nijlân,41,,,9036JL,Menaam,Menameradiel,Friesland,VBO,5.660461,53.212867
Nijlân,43,,,9036JL,Menaam,Menameradiel,Friesland,VBO,5.660416,53.212822
Nijlân,45,,,9036JL,Menaam,Menameradiel,Friesland,VBO,5.660370,53.212777
Nijlân,47,,,9036JL,Menaam,Menameradiel,Friesland,VBO,5.660176,53.212822
Nijlân,49,,,9036JL,Menaam,Menameradiel,Friesland,VBO,5.660177,53.212876
Nijlân,51,,,9036JL,Menaam,Menameradiel,Friesland,VBO,5.660177,53.212930
Nijlân,53,,,9036JL,Menaam,Menameradiel,Friesland,VBO,5.660192,53.212984
Nijlân,55,,,9036JL,Menaam,Menameradiel,Friesland,VBO,5.660222,53.213038
Nijlân,57,,,9036JL,Menaam,Menameradiel,Friesland,VBO,5.660253,53.213101
Nijlân,59,,,9036JL,Menaam,Menameradiel,Friesland,VBO,5.660298,53.213163
Nijlân,61,,,9036JM,Menaam,Menameradiel,Friesland,VBO,5.660328,53.213208
Nijlân,63,,,9036JM,Menaam,Menameradiel,Friesland,VBO,5.660374,53.213262
Nijlân,65,,,9036JM,Menaam,Menameradiel,Friesland,VBO,5.660703,53.213252
Nijlân,67,,,9036JM,Menaam,Menameradiel,Friesland,VBO,5.660702,53.213189
Nijlân,69,,,9036JM,Menaam,Menameradiel,Friesland,VBO,5.660687,53.213118
Nijlân,71,,,9036JM,Menaam,Menameradiel,Friesland,VBO,5.660672,53.213064
Nijlân,73,,,9036JM,Menaam,Menameradiel,Friesland,VBO,5.660641,53.213010
Nijlân,75,,,9036JM,Menaam,Menameradiel,Friesland,VBO,5.660611,53.212956
Nijlân,77,,,9036JM,Menaam,Menameradiel,Friesland,VBO,5.660566,53.212902
Nijlân,79,,,9036JM,Menaam,Menameradiel,Friesland,VBO,5.660521,53.212857
Nijlân,81,,,9036JM,Menaam,Menameradiel,Friesland,VBO,5.660460,53.212804
Nijlân,83,,,9036JM,Menaam,Menameradiel,Friesland,VBO,5.660415,53.212759
Nijlân,85,,,9036JM,Menaam,Menameradiel,Friesland,VBO,5.660116,53.212822
Nijlân,87,,,9036JM,Menaam,Menameradiel,Friesland,VBO,5.660132,53.212876
Nijlân,89,,,9036JM,Menaam,Menameradiel,Friesland,VBO,5.660132,53.212930
Nijlân,91,,,9036JM,Menaam,Menameradiel,Friesland,VBO,5.660147,53.212984
Nijlân,93,,,9036JM,Menaam,Menameradiel,Friesland,VBO,5.660163,53.213047
Nijlân,95,,,9036JM,Menaam,Menameradiel,Friesland,VBO,5.660193,53.213101
Nijlân,97,,,9036JN,Menaam,Menameradiel,Friesland,VBO,5.660238,53.213173
Nijlân,99,,,9036JN,Menaam,Menameradiel,Friesland,VBO,5.660284,53.213226
Nijlân,101,,,9036JN,Menaam,Menameradiel,Friesland,VBO,5.660329,53.213280
Nijlân,103,,,9036JN,Menaam,Menameradiel,Friesland,VBO,5.660763,53.213261
Nijlân,105,,,9036JN,Menaam,Menameradiel,Friesland,VBO,5.660747,53.213198
Nijlân,107,,,9036JN,Menaam,Menameradiel,Friesland,VBO,5.660747,53.213126
Nijlân,109,,,9036JN,Menaam,Menameradiel,Friesland,VBO,5.660731,53.213055
Nijlân,111,,,9036JN,Menaam,Menameradiel,Friesland,VBO,5.660701,53.213001
Nijlân,113,,,9036JN,Menaam,Menameradiel,Friesland,VBO,5.660656,53.212947
Nijlân,115,,,9036JN,Menaam,Menameradiel,Friesland,VBO,5.660611,53.212884
Nijlân,117,,,9036JN,Menaam,Menameradiel,Friesland,VBO,5.660565,53.212839
Nijlân,119,,,9036JN,Menaam,Menameradiel,Friesland,VBO,5.660520,53.212795
Nijlân,121,,,9036JN,Menaam,Menameradiel,Friesland,VBO,5.660445,53.212741
Nijlân,123,,,9036JN,Menaam,Menameradiel,Friesland,VBO,5.660056,53.212814
Nijlân,125,,,9036JN,Menaam,Menameradiel,Friesland,VBO,5.660072,53.212876
Nijlân,127,,,9036JN,Menaam,Menameradiel,Friesland,VBO,5.660072,53.212930
Nijlân,129,,,9036JN,Menaam,Menameradiel,Friesland,VBO,5.660073,53.213002
Nijlân,131,,,9036JN,Menaam,Menameradiel,Friesland,VBO,5.660103,53.213047
Nijlân,133,,,9036JN,Menaam,Menameradiel,Friesland,VBO,5.660133,53.213128
Nijlân,135,,,9036JN,Menaam,Menameradiel,Friesland,VBO,5.660178,53.213182
Nijlân,137,,,9036JN,Menaam,Menameradiel,Friesland,VBO,5.660239,53.213244
Nijlân,139,,,9036JN,Menaam,Menameradiel,Friesland,VBO,5.660284,53.213289
Nijlân,143,,,9036JN,Menaam,Menameradiel,Friesland,VBO,5.659713,53.213012
Nijlân,145,,,9036JN,Menaam,Menameradiel,Friesland,VBO,5.659624,53.213039
Nijlân,147,,,9036JN,Menaam,Menameradiel,Friesland,VBO,5.659504,53.213066
Nijlân,149,,,9036JN,Menaam,Menameradiel,Friesland,VBO,5.659429,53.213094
Nijlân,151,,,9036JN,Menaam,Menameradiel,Friesland,VBO,5.659355,53.213175
Nijlân,153,,,9036JN,Menaam,Menameradiel,Friesland,VBO,5.659251,53.213202
Nijlân,155,,,9036JN,Menaam,Menameradiel,Friesland,VBO,5.659176,53.213247
Nijlân,157,,,9036JN,Menaam,Menameradiel,Friesland,VBO,5.659056,53.213265
Nijlân,2,,,9036JP,Menaam,Menameradiel,Friesland,VBO,5.661202,53.214268
Nijlân,4,,,9036JP,Menaam,Menameradiel,Friesland,VBO,5.661127,53.214212
Nijlân,6,,,9036JP,Menaam,Menameradiel,Friesland,VBO,5.661021,53.214134
Nijlân,8,,,9036JP,Menaam,Menameradiel,Friesland,VBO,5.660944,53.214077
Nijlân,10,,,9036JR,Menaam,Menameradiel,Friesland,VBO,5.659988,53.214255
Nijlân,12,,,9036JR,Menaam,Menameradiel,Friesland,VBO,5.659883,53.214268
Nijlân,14,,,9036JR,Menaam,Menameradiel,Friesland,VBO,5.659644,53.214311
Nijlân,16,,,9036JR,Menaam,Menameradiel,Friesland,VBO,5.659434,53.214357
Orxmasingel,1,A,,9036JS,Menaam,Menameradiel,Friesland,VBO,5.659851,53.214644
Orxmasingel,1,B,,9036JS,Menaam,Menameradiel,Friesland,VBO,5.659799,53.214648
Orxmasingel,1,C,,9036JS,Menaam,Menameradiel,Friesland,VBO,5.659784,53.214675
Orxmasingel,1,D,,9036JS,Menaam,Menameradiel,Friesland,VBO,5.659733,53.214678
Orxmasingel,1,E,,9036JS,Menaam,Menameradiel,Friesland,VBO,5.659716,53.214707
Orxmasingel,1,F,,9036JS,Menaam,Menameradiel,Friesland,VBO,5.659663,53.214705
Orxmasingel,1,G,,9036JS,Menaam,Menameradiel,Friesland,VBO,5.659650,53.214737
Orxmasingel,1,H,,9036JS,Menaam,Menameradiel,Friesland,VBO,5.659597,53.214743
Orxmasingel,1,I,,9036JS,Menaam,Menameradiel,Friesland,VBO,5.659497,53.214597
Orxmasingel,1,J,,9036JS,Menaam,Menameradiel,Friesland,VBO,5.659556,53.214599
Orxmasingel,1,K,,9036JS,Menaam,Menameradiel,Friesland,VBO,5.659566,53.214565
Orxmasingel,1,L,,9036JS,Menaam,Menameradiel,Friesland,VBO,5.659625,53.214567
Orxmasingel,1,M,,9036JS,Menaam,Menameradiel,Friesland,VBO,5.659635,53.214535
Orxmasingel,1,N,,9036JS,Menaam,Menameradiel,Friesland,VBO,5.659688,53.214535
Orxmasingel,1,O,,9036JS,Menaam,Menameradiel,Friesland,VBO,5.659701,53.214503
Orxmasingel,1,P,,9036JS,Menaam,Menameradiel,Friesland,VBO,5.659757,53.214507
Orxmasingel,1,Q,,9036JS,Menaam,Menameradiel,Friesland,VBO,5.659770,53.214473
Orxmasingel,1,R,,9036JS,Menaam,Menameradiel,Friesland,VBO,5.659823,53.214471
Orxmasingel,1,,,9036JS,Menaam,Menameradiel,Friesland,VBO,5.660047,53.214779
Orxmasingel,3,,,9036JS,Menaam,Menameradiel,Friesland,VBO,5.659994,53.214855
Orxmasingel,9,,,9036JS,Menaam,Menameradiel,Friesland,VBO,5.664241,53.212703
Orxmasingel,11,,,9036JS,Menaam,Menameradiel,Friesland,VBO,5.664311,53.212663
Orxmasingel,13,,,9036JS,Menaam,Menameradiel,Friesland,VBO,5.664429,53.212556
Orxmasingel,15,,,9036JT,Menaam,Menameradiel,Friesland,VBO,5.665134,53.212322
Orxmasingel,17,,,9036JT,Menaam,Menameradiel,Friesland,VBO,5.665213,53.212288
Orxmasingel,19,,,9036JT,Menaam,Menameradiel,Friesland,VBO,5.665389,53.212211
Orxmasingel,21,,,9036JT,Menaam,Menameradiel,Friesland,VBO,5.665473,53.212174
Orxmasingel,23,,,9036JV,Menaam,Menameradiel,Friesland,VBO,5.666633,53.212087
Orxmasingel,25,,,9036JV,Menaam,Menameradiel,Friesland,VBO,5.666896,53.212225
Orxmasingel,27,,,9036JV,Menaam,Menameradiel,Friesland,VBO,5.667181,53.212343
Orxmasingel,29,,,9036JV,Menaam,Menameradiel,Friesland,VBO,5.667404,53.212175
Orxmasingel,31,,,9036JV,Menaam,Menameradiel,Friesland,VBO,5.667598,53.212057
Orxmasingel,35,,,9036JV,Menaam,Menameradiel,Friesland,VBO,5.667816,53.212521
Orxmasingel,37,,,9036JV,Menaam,Menameradiel,Friesland,VBO,5.667982,53.212653
Orxmasingel,39,,,9036JV,Menaam,Menameradiel,Friesland,VBO,5.668044,53.212691
Orxmasingel,41,,,9036JV,Menaam,Menameradiel,Friesland,VBO,5.668192,53.212783
Orxmasingel,43,,,9036JV,Menaam,Menameradiel,Friesland,VBO,5.668256,53.212823
Orxmasingel,45,,,9036JV,Menaam,Menameradiel,Friesland,VBO,5.668389,53.212931
Orxmasingel,47,,,9036JV,Menaam,Menameradiel,Friesland,VBO,5.668446,53.212966
Orxmasingel,49,,,9036JV,Menaam,Menameradiel,Friesland,VBO,5.668552,53.213072
Orxmasingel,51,,,9036JV,Menaam,Menameradiel,Friesland,VBO,5.668625,53.213117
Orxmasingel,53,,,9036JV,Menaam,Menameradiel,Friesland,VBO,5.668749,53.213220
Orxmasingel,55,,,9036JV,Menaam,Menameradiel,Friesland,VBO,5.668817,53.213262
Orxmasingel,2,A,,9036JW,Menaam,Menameradiel,Friesland,VBO,5.659504,53.215620
Orxmasingel,2,,,9036JW,Menaam,Menameradiel,Friesland,VBO,5.659476,53.215458
Orxmasingel,4,,,9036JW,Menaam,Menameradiel,Friesland,VBO,5.659654,53.215408
Orxmasingel,6,,,9036JW,Menaam,Menameradiel,Friesland,VBO,5.659752,53.215377
Orxmasingel,8,,,9036JW,Menaam,Menameradiel,Friesland,VBO,5.659898,53.215319
Orxmasingel,10,,,9036JW,Menaam,Menameradiel,Friesland,VBO,5.659969,53.215287
Orxmasingel,12,,,9036JW,Menaam,Menameradiel,Friesland,VBO,5.660230,53.215233
Orxmasingel,16,A,,9036JW,Menaam,Menameradiel,Friesland,VBO,5.660729,53.214992
Orxmasingel,18,,,9036JX,Menaam,Menameradiel,Friesland,VBO,5.661933,53.214415
Orxmasingel,20,,,9036JX,Menaam,Menameradiel,Friesland,VBO,5.661933,53.214415
Orxmasingel,22,,,9036JX,Menaam,Menameradiel,Friesland,VBO,5.661933,53.214415
Orxmasingel,24,,,9036JX,Menaam,Menameradiel,Friesland,VBO,5.661933,53.214415
Orxmasingel,26,,,9036JX,Menaam,Menameradiel,Friesland,VBO,5.661933,53.214415
Orxmasingel,28,,,9036JX,Menaam,Menameradiel,Friesland,VBO,5.661933,53.214415
Orxmasingel,30,,,9036JX,Menaam,Menameradiel,Friesland,VBO,5.661933,53.214415
Orxmasingel,32,,,9036JX,Menaam,Menameradiel,Friesland,VBO,5.661933,53.214415
Orxmasingel,34,,,9036JX,Menaam,Menameradiel,Friesland,VBO,5.661933,53.214415
Orxmasingel,36,,,9036JX,Menaam,Menameradiel,Friesland,VBO,5.661933,53.214415
Orxmasingel,38,,,9036JX,Menaam,Menameradiel,Friesland,VBO,5.661933,53.214415
Orxmasingel,40,,,9036JX,Menaam,Menameradiel,Friesland,VBO,5.661933,53.214415
Orxmasingel,42,,,9036JX,Menaam,Menameradiel,Friesland,VBO,5.661933,53.214415
Orxmasingel,44,,,9036JX,Menaam,Menameradiel,Friesland,VBO,5.661933,53.214415
Orxmasingel,46,,,9036JX,Menaam,Menameradiel,Friesland,VBO,5.661933,53.214415
Orxmasingel,48,,,9036JX,Menaam,Menameradiel,Friesland,VBO,5.661933,53.214415
Orxmasingel,50,,,9036JZ,Menaam,Menameradiel,Friesland,VBO,5.661933,53.214415
Orxmasingel,52,,,9036JZ,Menaam,Menameradiel,Friesland,VBO,5.661933,53.214415
Orxmasingel,54,,,9036JZ,Menaam,Menameradiel,Friesland,VBO,5.661933,53.214415
Orxmasingel,56,,,9036JZ,Menaam,Menameradiel,Friesland,VBO,5.661933,53.214415
Orxmasingel,58,,,9036JZ,Menaam,Menameradiel,Friesland,VBO,5.661933,53.214415
Orxmasingel,60,,,9036JZ,Menaam,Menameradiel,Friesland,VBO,5.661933,53.214415
Orxmasingel,62,,,9036JZ,Menaam,Menameradiel,Friesland,VBO,5.661933,53.214415
Orxmasingel,64,,,9036JZ,Menaam,Menameradiel,Friesland,VBO,5.661933,53.214415
Orxmasingel,66,,,9036JZ,Menaam,Menameradiel,Friesland,VBO,5.661933,53.214415
Orxmasingel,68,,,9036JZ,Menaam,Menameradiel,Friesland,VBO,5.661933,53.214415
Orxmasingel,70,,,9036JZ,Menaam,Menameradiel,Friesland,VBO,5.661933,53.214415
Orxmasingel,72,,,9036JZ,Menaam,Menameradiel,Friesland,VBO,5.661933,53.214415
Orxmasingel,74,,,9036JZ,Menaam,Menameradiel,Friesland,VBO,5.661933,53.214415
Orxmasingel,76,,,9036JZ,Menaam,Menameradiel,Friesland,VBO,5.661933,53.214415
Orxmasingel,78,,,9036JZ,Menaam,Menameradiel,Friesland,VBO,5.661933,53.214415
Orxmasingel,80,,,9036JZ,Menaam,Menameradiel,Friesland,VBO,5.661933,53.214415
Orxmasingel,82,,,9036JZ,Menaam,Menameradiel,Friesland,VBO,5.661933,53.214415
Orxmasingel,84,,,9036JZ,Menaam,Menameradiel,Friesland,VBO,5.661933,53.214415
Orxmasingel,86,,,9036KA,Menaam,Menameradiel,Friesland,VBO,5.661933,53.214415
Orxmasingel,88,,,9036KA,Menaam,Menameradiel,Friesland,VBO,5.661933,53.214415
Orxmasingel,90,,,9036KA,Menaam,Menameradiel,Friesland,VBO,5.661933,53.214415
Orxmasingel,92,,,9036KA,Menaam,Menameradiel,Friesland,VBO,5.661933,53.214415
Orxmasingel,94,,,9036KA,Menaam,Menameradiel,Friesland,VBO,5.661933,53.214415
Orxmasingel,96,,,9036KA,Menaam,Menameradiel,Friesland,VBO,5.661933,53.214415
Orxmasingel,98,,,9036KA,Menaam,Menameradiel,Friesland,VBO,5.661933,53.214415
Orxmasingel,100,,,9036KA,Menaam,Menameradiel,Friesland,VBO,5.661933,53.214415
Orxmasingel,102,,,9036KA,Menaam,Menameradiel,Friesland,VBO,5.661933,53.214415
Orxmasingel,104,,,9036KA,Menaam,Menameradiel,Friesland,VBO,5.661933,53.214415
Orxmasingel,106,,,9036KA,Menaam,Menameradiel,Friesland,VBO,5.661933,53.214415
Orxmasingel,108,,,9036KA,Menaam,Menameradiel,Friesland,VBO,5.661933,53.214415
Orxmasingel,110,,,9036KA,Menaam,Menameradiel,Friesland,VBO,5.661933,53.214415
Orxmasingel,112,,,9036KA,Menaam,Menameradiel,Friesland,VBO,5.661933,53.214415
Orxmasingel,114,,,9036KA,Menaam,Menameradiel,Friesland,VBO,5.661933,53.214415
Orxmasingel,116,,,9036KA,Menaam,Menameradiel,Friesland,VBO,5.661933,53.214415
Orxmasingel,118,,,9036KA,Menaam,Menameradiel,Friesland,VBO,5.661933,53.214415
Orxmasingel,120,,,9036KA,Menaam,Menameradiel,Friesland,VBO,5.661933,53.214415
Orxmasingel,122,,,9036KB,Menaam,Menameradiel,Friesland,VBO,5.663140,53.213662
Orxmasingel,124,,,9036KB,Menaam,Menameradiel,Friesland,VBO,5.663279,53.213599
Orxmasingel,126,,,9036KB,Menaam,Menameradiel,Friesland,VBO,5.663360,53.213559
Orxmasingel,128,,,9036KB,Menaam,Menameradiel,Friesland,VBO,5.663501,53.213497
Orxmasingel,130,,,9036KB,Menaam,Menameradiel,Friesland,VBO,5.663582,53.213457
Orxmasingel,132,,,9036KB,Menaam,Menameradiel,Friesland,VBO,5.663716,53.213398
Orxmasingel,134,,,9036KB,Menaam,Menameradiel,Friesland,VBO,5.664957,53.212781
Orxmasingel,136,,,9036KB,Menaam,Menameradiel,Friesland,VBO,5.665120,53.212726
Orxmasingel,138,,,9036KB,Menaam,Menameradiel,Friesland,VBO,5.665279,53.212656
Orxmasingel,140,A,,9036KB,Menaam,Menameradiel,Friesland,VBO,5.665939,53.212415
Orxmasingel,140,,,9036KB,Menaam,Menameradiel,Friesland,VBO,5.665418,53.212579
Orxmasingel,142,,,9036KB,Menaam,Menameradiel,Friesland,VBO,5.666269,53.212322
Orxmasingel,144,,,9036KB,Menaam,Menameradiel,Friesland,VBO,5.666416,53.212427
Orxmasingel,146,,,9036KB,Menaam,Menameradiel,Friesland,VBO,5.666651,53.212471
Orxmasingel,148,,,9036KB,Menaam,Menameradiel,Friesland,VBO,5.666796,53.212575
Orxmasingel,150,,,9036KB,Menaam,Menameradiel,Friesland,VBO,5.667038,53.212621
Orxmasingel,152,,,9036KB,Menaam,Menameradiel,Friesland,VBO,5.667183,53.212726
Orxmasingel,154,,,9036KB,Menaam,Menameradiel,Friesland,VBO,5.667438,53.212786
Orxmasingel,156,,,9036KB,Menaam,Menameradiel,Friesland,VBO,5.667652,53.212885
Orxmasingel,158,,,9036KB,Menaam,Menameradiel,Friesland,VBO,5.667785,53.212994
Orxmasingel,160,,,9036KB,Menaam,Menameradiel,Friesland,VBO,5.667835,53.213033
Graldasingel,1,,,9036KC,Menaam,Menameradiel,Friesland,VBO,5.666161,53.211809
Graldasingel,3,,,9036KC,Menaam,Menameradiel,Friesland,VBO,5.665859,53.211660
Graldasingel,5,,,9036KC,Menaam,Menameradiel,Friesland,VBO,5.665617,53.211471
Graldasingel,7,A,,9036KC,Menaam,Menameradiel,Friesland,VBO,5.665254,53.211059
Graldasingel,7,,,9036KC,Menaam,Menameradiel,Friesland,VBO,5.665403,53.211280
Graldasingel,9,,,9036KC,Menaam,Menameradiel,Friesland,VBO,5.664927,53.210958
Graldasingel,11,,,9036KC,Menaam,Menameradiel,Friesland,VBO,5.664649,53.210842
Graldasingel,13,,,9036KC,Menaam,Menameradiel,Friesland,VBO,5.664526,53.210689
Graldasingel,15,,,9036KC,Menaam,Menameradiel,Friesland,VBO,5.664301,53.210551
Graldasingel,17,A,,9036KC,Menaam,Menameradiel,Friesland,VBO,5.663682,53.210685
Graldasingel,17,,,9036KC,Menaam,Menameradiel,Friesland,VBO,5.663920,53.210641
Graldasingel,19,,,9036KC,Menaam,Menameradiel,Friesland,VBO,5.663567,53.210805
Graldasingel,21,,,9036KC,Menaam,Menameradiel,Friesland,VBO,5.663339,53.210951
Graldasingel,23,,,9036KC,Menaam,Menameradiel,Friesland,VBO,5.662985,53.211016
Graldasingel,25,,,9036KC,Menaam,Menameradiel,Friesland,VBO,5.662394,53.211003
Graldasingel,27,,,9036KC,Menaam,Menameradiel,Friesland,VBO,5.662134,53.211140
Graldasingel,29,,,9036KC,Menaam,Menameradiel,Friesland,VBO,5.661815,53.211198
Graldasingel,31,,,9036KC,Menaam,Menameradiel,Friesland,VBO,5.661455,53.211284
Graldasingel,33,,,9036KC,Menaam,Menameradiel,Friesland,VBO,5.661178,53.211374
Graldasingel,35,,,9036KC,Menaam,Menameradiel,Friesland,VBO,5.660907,53.211499
Graldasingel,37,,,9036KC,Menaam,Menameradiel,Friesland,VBO,5.660645,53.211626
Graldasingel,39,,,9036KC,Menaam,Menameradiel,Friesland,VBO,5.660341,53.211736
Graldasingel,41,,,9036KC,Menaam,Menameradiel,Friesland,VBO,5.659981,53.211970
Graldasingel,43,,,9036KC,Menaam,Menameradiel,Friesland,VBO,5.660152,53.212119
Graldasingel,45,,,9036KC,Menaam,Menameradiel,Friesland,VBO,5.660286,53.212298
De Braak,1,,,9036KD,Menaam,Menameradiel,Friesland,VBO,5.656086,53.218272
De Braak,2,,,9036KD,Menaam,Menameradiel,Friesland,VBO,5.656235,53.218035
De Braak,3,,,9036KD,Menaam,Menameradiel,Friesland,VBO,5.656138,53.218316
De Braak,4,,,9036KD,Menaam,Menameradiel,Friesland,VBO,5.656389,53.218147
De Braak,5,,,9036KD,Menaam,Menameradiel,Friesland,VBO,5.656246,53.218404
De Braak,6,,,9036KD,Menaam,Menameradiel,Friesland,VBO,5.656555,53.218319
De Braak,7,,,9036KD,Menaam,Menameradiel,Friesland,VBO,5.656296,53.218446
De Braak,8,,,9036KD,Menaam,Menameradiel,Friesland,VBO,5.656676,53.218410
De Braak,9,,,9036KD,Menaam,Menameradiel,Friesland,VBO,5.656418,53.218531
De Braak,10,,,9036KD,Menaam,Menameradiel,Friesland,VBO,5.656735,53.218461
De Braak,11,,,9036KD,Menaam,Menameradiel,Friesland,VBO,5.656509,53.218623
De Rûpelbank,1,,,9036KE,Menaam,Menameradiel,Friesland,VBO,5.655226,53.218517
De Rûpelbank,2,,,9036KE,Menaam,Menameradiel,Friesland,VBO,5.655462,53.218345
De Rûpelbank,3,,,9036KE,Menaam,Menameradiel,Friesland,VBO,5.655389,53.218645
De Rûpelbank,4,,,9036KE,Menaam,Menameradiel,Friesland,VBO,5.655657,53.218479
De Rûpelbank,5,,,9036KE,Menaam,Menameradiel,Friesland,VBO,5.655444,53.218689
De Rûpelbank,6,,,9036KE,Menaam,Menameradiel,Friesland,VBO,5.655708,53.218520
De Rûpelbank,7,,,9036KE,Menaam,Menameradiel,Friesland,VBO,5.655559,53.218805
De Rûpelbank,8,,,9036KE,Menaam,Menameradiel,Friesland,VBO,5.655836,53.218626
De Rûpelbank,9,,,9036KE,Menaam,Menameradiel,Friesland,VBO,5.655598,53.218845
De Rûpelbank,10,,,9036KE,Menaam,Menameradiel,Friesland,VBO,5.655875,53.218660
De Rûpelbank,11,,,9036KE,Menaam,Menameradiel,Friesland,VBO,5.655718,53.218946
De Rûpelbank,12,,,9036KE,Menaam,Menameradiel,Friesland,VBO,5.656020,53.218762
De Rûpelbank,13,,,9036KE,Menaam,Menameradiel,Friesland,VBO,5.655767,53.218985
De Rûpelbank,14,,,9036KE,Menaam,Menameradiel,Friesland,VBO,5.656068,53.218800
Graldasingel,2,,,9036KG,Menaam,Menameradiel,Friesland,VBO,5.665675,53.212012
Graldasingel,4,,,9036KG,Menaam,Menameradiel,Friesland,VBO,5.665612,53.211961
Graldasingel,6,,,9036KG,Menaam,Menameradiel,Friesland,VBO,5.665531,53.211848
Graldasingel,8,,,9036KG,Menaam,Menameradiel,Friesland,VBO,5.665470,53.211797
Graldasingel,10,,,9036KG,Menaam,Menameradiel,Friesland,VBO,5.665000,53.211427
Graldasingel,12,,,9036KG,Menaam,Menameradiel,Friesland,VBO,5.664945,53.211382
Graldasingel,14,,,9036KG,Menaam,Menameradiel,Friesland,VBO,5.664591,53.211186
Graldasingel,16,,,9036KG,Menaam,Menameradiel,Friesland,VBO,5.664550,53.211109
Graldasingel,18,,,9036KG,Menaam,Menameradiel,Friesland,VBO,5.664148,53.211070
Graldasingel,20,,,9036KG,Menaam,Menameradiel,Friesland,VBO,5.664046,53.211090
Graldasingel,22,,,9036KG,Menaam,Menameradiel,Friesland,VBO,5.663841,53.211131
Graldasingel,24,,,9036KG,Menaam,Menameradiel,Friesland,VBO,5.663754,53.211148
Graldasingel,26,,,9036KG,Menaam,Menameradiel,Friesland,VBO,5.663533,53.211181
Graldasingel,28,,,9036KG,Menaam,Menameradiel,Friesland,VBO,5.663439,53.211195
Graldasingel,30,,,9036KG,Menaam,Menameradiel,Friesland,VBO,5.663223,53.211247
Graldasingel,32,,,9036KG,Menaam,Menameradiel,Friesland,VBO,5.663131,53.211266
Graldasingel,34,,,9036KG,Menaam,Menameradiel,Friesland,VBO,5.662917,53.211308
Graldasingel,36,,,9036KG,Menaam,Menameradiel,Friesland,VBO,5.662825,53.211324
Graldasingel,38,,,9036KG,Menaam,Menameradiel,Friesland,VBO,5.662421,53.211409
Graldasingel,40,,,9036KG,Menaam,Menameradiel,Friesland,VBO,5.662338,53.211455
Graldasingel,42,,,9036KG,Menaam,Menameradiel,Friesland,VBO,5.662036,53.211490
Graldasingel,44,,,9036KG,Menaam,Menameradiel,Friesland,VBO,5.661945,53.211542
Graldasingel,46,,,9036KG,Menaam,Menameradiel,Friesland,VBO,5.661647,53.211574
Graldasingel,48,,,9036KG,Menaam,Menameradiel,Friesland,VBO,5.661562,53.211621
Graldasingel,50,,,9036KH,Menaam,Menameradiel,Friesland,VBO,5.661309,53.211706
Graldasingel,52,,,9036KH,Menaam,Menameradiel,Friesland,VBO,5.661254,53.211737
Graldasingel,54,,,9036KH,Menaam,Menameradiel,Friesland,VBO,5.661103,53.211792
Graldasingel,56,A,,9036KH,Menaam,Menameradiel,Friesland,VBO,5.660915,53.211896
Graldasingel,56,,,9036KH,Menaam,Menameradiel,Friesland,VBO,5.661049,53.211823
Graldasingel,58,,,9036KH,Menaam,Menameradiel,Friesland,VBO,5.660722,53.211963
Graldasingel,60,,,9036KH,Menaam,Menameradiel,Friesland,VBO,5.660654,53.212158
Graldasingel,66,,,9036KH,Menaam,Menameradiel,Friesland,VBO,5.660756,53.212325
Graldasingel,68,,,9036KH,Menaam,Menameradiel,Friesland,VBO,5.660816,53.212364
Graldasingel,70,,,9036KH,Menaam,Menameradiel,Friesland,VBO,5.661083,53.212863
Graldasingel,72,,,9036KH,Menaam,Menameradiel,Friesland,VBO,5.661141,53.212900
Graldasingel,74,,,9036KH,Menaam,Menameradiel,Friesland,VBO,5.661210,53.213023
Graldasingel,76,,,9036KH,Menaam,Menameradiel,Friesland,VBO,5.661274,53.213064
Graldasingel,78,,,9036KH,Menaam,Menameradiel,Friesland,VBO,5.661938,53.213822
Nijlân,159,,,9036KJ,Menaam,Menameradiel,Friesland,VBO,5.659013,53.213454
Nijlân,161,,,9036KJ,Menaam,Menameradiel,Friesland,VBO,5.658863,53.213454
Nijlân,163,,,9036KJ,Menaam,Menameradiel,Friesland,VBO,5.658743,53.213490
Nijlân,165,,,9036KJ,Menaam,Menameradiel,Friesland,VBO,5.658624,53.213518
Nijlân,167,,,9036KJ,Menaam,Menameradiel,Friesland,VBO,5.658519,53.213572
Nijlân,169,,,9036KJ,Menaam,Menameradiel,Friesland,VBO,5.658580,53.213644
Nijlân,171,,,9036KJ,Menaam,Menameradiel,Friesland,VBO,5.658625,53.213715
Nijlân,173,,,9036KJ,Menaam,Menameradiel,Friesland,VBO,5.658790,53.213697
Nijlân,175,,,9036KJ,Menaam,Menameradiel,Friesland,VBO,5.658939,53.213652
Nijlân,177,,,9036KJ,Menaam,Menameradiel,Friesland,VBO,5.659103,53.213588
Nijlân,179,,,9036KJ,Menaam,Menameradiel,Friesland,VBO,5.659027,53.213418
Nijlân,181,,,9036KJ,Menaam,Menameradiel,Friesland,VBO,5.658818,53.213418
Nijlân,183,,,9036KJ,Menaam,Menameradiel,Friesland,VBO,5.658713,53.213446
Nijlân,185,,,9036KJ,Menaam,Menameradiel,Friesland,VBO,5.658579,53.213473
Nijlân,187,,,9036KJ,Menaam,Menameradiel,Friesland,VBO,5.658459,53.213572
Nijlân,189,,,9036KJ,Menaam,Menameradiel,Friesland,VBO,5.658520,53.213662
Nijlân,191,,,9036KJ,Menaam,Menameradiel,Friesland,VBO,5.658580,53.213733
Nijlân,193,,,9036KJ,Menaam,Menameradiel,Friesland,VBO,5.658805,53.213733
Nijlân,195,,,9036KJ,Menaam,Menameradiel,Friesland,VBO,5.658954,53.213688
Nijlân,197,,,9036KJ,Menaam,Menameradiel,Friesland,VBO,5.659148,53.213570
Nijlân,199,,,9036KJ,Menaam,Menameradiel,Friesland,VBO,5.659073,53.213490
De Finne,4,,,9036KK,Menaam,Menameradiel,Friesland,VBO,5.664671,53.211473
De Finne,6,,,9036KK,Menaam,Menameradiel,Friesland,VBO,5.664596,53.211507
De Finne,8,,,9036KK,Menaam,Menameradiel,Friesland,VBO,5.664399,53.211566
De Finne,10,,,9036KK,Menaam,Menameradiel,Friesland,VBO,5.664317,53.211603
De Finne,12,,,9036KK,Menaam,Menameradiel,Friesland,VBO,5.664079,53.211631
De Finne,14,,,9036KK,Menaam,Menameradiel,Friesland,VBO,5.664005,53.211664
De Finne,16,,,9036KK,Menaam,Menameradiel,Friesland,VBO,5.663065,53.211834
De Finne,18,,,9036KK,Menaam,Menameradiel,Friesland,VBO,5.662970,53.211887
De Finne,20,,,9036KK,Menaam,Menameradiel,Friesland,VBO,5.662752,53.211971
De Finne,22,,,9036KK,Menaam,Menameradiel,Friesland,VBO,5.662654,53.212026
De Finne,24,,,9036KK,Menaam,Menameradiel,Friesland,VBO,5.662537,53.212288
De Finne,26,,,9036KK,Menaam,Menameradiel,Friesland,VBO,5.662454,53.212234
De Finne,28,,,9036KK,Menaam,Menameradiel,Friesland,VBO,5.662170,53.212100
De Finne,30,,,9036KK,Menaam,Menameradiel,Friesland,VBO,5.662084,53.212148
De Finne,32,,,9036KK,Menaam,Menameradiel,Friesland,VBO,5.661941,53.212227
De Finne,34,,,9036KK,Menaam,Menameradiel,Friesland,VBO,5.661867,53.212268
De Finne,36,,,9036KK,Menaam,Menameradiel,Friesland,VBO,5.662077,53.212455
De Finne,38,,,9036KK,Menaam,Menameradiel,Friesland,VBO,5.662149,53.212502
De Finne,1,,,9036KL,Menaam,Menameradiel,Friesland,VBO,5.664326,53.211333
De Finne,3,,,9036KL,Menaam,Menameradiel,Friesland,VBO,5.664211,53.211355
De Finne,5,,,9036KL,Menaam,Menameradiel,Friesland,VBO,5.664012,53.211394
De Finne,7,,,9036KL,Menaam,Menameradiel,Friesland,VBO,5.663910,53.211413
De Finne,9,,,9036KL,Menaam,Menameradiel,Friesland,VBO,5.663706,53.211443
De Finne,11,,,9036KL,Menaam,Menameradiel,Friesland,VBO,5.663593,53.211465
De Finne,13,,,9036KL,Menaam,Menameradiel,Friesland,VBO,5.663384,53.211515
De Finne,15,,,9036KL,Menaam,Menameradiel,Friesland,VBO,5.663279,53.211535
De Finne,17,,,9036KL,Menaam,Menameradiel,Friesland,VBO,5.663091,53.211572
De Finne,19,A,,9036KL,Menaam,Menameradiel,Friesland,VBO,5.662676,53.211531
De Finne,19,,,9036KL,Menaam,Menameradiel,Friesland,VBO,5.662971,53.211595
De Finne,21,,,9036KL,Menaam,Menameradiel,Friesland,VBO,5.662589,53.211648
De Finne,23,,,9036KL,Menaam,Menameradiel,Friesland,VBO,5.662499,53.211698
De Finne,25,,,9036KL,Menaam,Menameradiel,Friesland,VBO,5.662286,53.211744
De Finne,27,,,9036KL,Menaam,Menameradiel,Friesland,VBO,5.662197,53.211794
De Finne,29,,,9036KL,Menaam,Menameradiel,Friesland,VBO,5.661997,53.211844
De Finne,31,,,9036KL,Menaam,Menameradiel,Friesland,VBO,5.661906,53.211895
De Finne,33,,,9036KL,Menaam,Menameradiel,Friesland,VBO,5.661616,53.211978
De Finne,35,,,9036KL,Menaam,Menameradiel,Friesland,VBO,5.661544,53.212019
De Finne,37,,,9036KL,Menaam,Menameradiel,Friesland,VBO,5.661400,53.212099
De Finne,39,,,9036KL,Menaam,Menameradiel,Friesland,VBO,5.661327,53.212140
De Finne,41,,,9036KL,Menaam,Menameradiel,Friesland,VBO,5.661185,53.212219
De Finne,43,,,9036KL,Menaam,Menameradiel,Friesland,VBO,5.661113,53.212259
De Finne,40,,,9036KM,Menaam,Menameradiel,Friesland,VBO,5.661869,53.212673
De Finne,42,,,9036KM,Menaam,Menameradiel,Friesland,VBO,5.661807,53.212633
De Finne,44,,,9036KM,Menaam,Menameradiel,Friesland,VBO,5.661528,53.212430
De Finne,46,,,9036KM,Menaam,Menameradiel,Friesland,VBO,5.661463,53.212466
De Finne,48,,,9036KM,Menaam,Menameradiel,Friesland,VBO,5.661295,53.212542
De Finne,50,,,9036KM,Menaam,Menameradiel,Friesland,VBO,5.661231,53.212579
De Finne,52,,,9036KM,Menaam,Menameradiel,Friesland,VBO,5.661031,53.212622
De Finne,54,,,9036KM,Menaam,Menameradiel,Friesland,VBO,5.660958,53.212663
Nijlân,201,,,9036KN,Menaam,Menameradiel,Friesland,VBO,5.659389,53.213750
Nijlân,203,,,9036KN,Menaam,Menameradiel,Friesland,VBO,5.659419,53.213812
Nijlân,205,,,9036KN,Menaam,Menameradiel,Friesland,VBO,5.659479,53.213866
Nijlân,207,,,9036KN,Menaam,Menameradiel,Friesland,VBO,5.659509,53.213911
Nijlân,209,,,9036KN,Menaam,Menameradiel,Friesland,VBO,5.659570,53.213956
Nijlân,211,,,9036KN,Menaam,Menameradiel,Friesland,VBO,5.659630,53.214001
Nijlân,213,,,9036KN,Menaam,Menameradiel,Friesland,VBO,5.659329,53.213768
Nijlân,215,,,9036KN,Menaam,Menameradiel,Friesland,VBO,5.659374,53.213822
Nijlân,217,,,9036KN,Menaam,Menameradiel,Friesland,VBO,5.659419,53.213875
Nijlân,219,,,9036KN,Menaam,Menameradiel,Friesland,VBO,5.659465,53.213929
Nijlân,221,,,9036KN,Menaam,Menameradiel,Friesland,VBO,5.659525,53.213983
Nijlân,223,,,9036KN,Menaam,Menameradiel,Friesland,VBO,5.659600,53.214010
Nijlân,225,,,9036KN,Menaam,Menameradiel,Friesland,VBO,5.659269,53.213768
Nijlân,227,,,9036KN,Menaam,Menameradiel,Friesland,VBO,5.659314,53.213831
Nijlân,229,,,9036KN,Menaam,Menameradiel,Friesland,VBO,5.659360,53.213884
Nijlân,231,,,9036KN,Menaam,Menameradiel,Friesland,VBO,5.659420,53.213938
Nijlân,233,,,9036KN,Menaam,Menameradiel,Friesland,VBO,5.659480,53.213992
Nijlân,235,,,9036KN,Menaam,Menameradiel,Friesland,VBO,5.659555,53.214037
Foareker,1,,,9036KP,Menaam,Menameradiel,Friesland,VBO,5.664836,53.212401
Foareker,3,,,9036KP,Menaam,Menameradiel,Friesland,VBO,5.664778,53.212353
Foareker,5,,,9036KP,Menaam,Menameradiel,Friesland,VBO,5.664084,53.211976
Foareker,7,,,9036KP,Menaam,Menameradiel,Friesland,VBO,5.664028,53.211931
Foareker,9,,,9036KP,Menaam,Menameradiel,Friesland,VBO,5.663845,53.211828
Foareker,11,,,9036KP,Menaam,Menameradiel,Friesland,VBO,5.663781,53.211777
Foareker,2,,,9036KR,Menaam,Menameradiel,Friesland,VBO,5.664463,53.212467
Foareker,4,,,9036KR,Menaam,Menameradiel,Friesland,VBO,5.664183,53.212424
Foareker,6,,,9036KR,Menaam,Menameradiel,Friesland,VBO,5.664105,53.212374
Foareker,8,,,9036KR,Menaam,Menameradiel,Friesland,VBO,5.663955,53.212276
Foareker,10,,,9036KR,Menaam,Menameradiel,Friesland,VBO,5.663874,53.212224
Foareker,12,,,9036KR,Menaam,Menameradiel,Friesland,VBO,5.663753,53.212126
Foareker,14,,,9036KR,Menaam,Menameradiel,Friesland,VBO,5.663670,53.212072
Foareker,16,,,9036KR,Menaam,Menameradiel,Friesland,VBO,5.663560,53.211974
Foareker,18,,,9036KR,Menaam,Menameradiel,Friesland,VBO,5.663487,53.211928
Juckemastrjitte,1,,,9036KS,Menaam,Menameradiel,Friesland,VBO,5.664890,53.212093
Juckemastrjitte,2,,,9036KS,Menaam,Menameradiel,Friesland,VBO,5.664326,53.212115
Juckemastrjitte,3,,,9036KS,Menaam,Menameradiel,Friesland,VBO,5.664975,53.212055
Juckemastrjitte,4,,,9036KS,Menaam,Menameradiel,Friesland,VBO,5.664405,53.212080
Juckemastrjitte,5,,,9036KS,Menaam,Menameradiel,Friesland,VBO,5.665089,53.211949
Juckemastrjitte,6,,,9036KS,Menaam,Menameradiel,Friesland,VBO,5.664473,53.211899
Juckemastrjitte,7,,,9036KS,Menaam,Menameradiel,Friesland,VBO,5.665166,53.211914
Juckemastrjitte,8,,,9036KS,Menaam,Menameradiel,Friesland,VBO,5.664550,53.211864
Juckemastrjitte,10,,,9036KS,Menaam,Menameradiel,Friesland,VBO,5.664763,53.211803
Juckemastrjitte,12,,,9036KS,Menaam,Menameradiel,Friesland,VBO,5.664844,53.211766
Juckemastrjitte,14,,,9036KS,Menaam,Menameradiel,Friesland,VBO,5.665049,53.211675
Juckemastrjitte,16,,,9036KS,Menaam,Menameradiel,Friesland,VBO,5.665129,53.211639
Achterbosk,2,,,9036KT,Menaam,Menameradiel,Friesland,VBO,5.666357,53.213203
Achterbosk,4,,,9036KT,Menaam,Menameradiel,Friesland,VBO,5.666254,53.212995
Achterbosk,6,,,9036KT,Menaam,Menameradiel,Friesland,VBO,5.666202,53.212952
Achterbosk,8,,,9036KT,Menaam,Menameradiel,Friesland,VBO,5.665955,53.212901
Achterbosk,10,,,9036KT,Menaam,Menameradiel,Friesland,VBO,5.665900,53.212856
Achterbosk,12,,,9036KT,Menaam,Menameradiel,Friesland,VBO,5.665687,53.212787
Achterbosk,14,,,9036KT,Menaam,Menameradiel,Friesland,VBO,5.665631,53.212741
Achterbosk,1,,,9036KV,Menaam,Menameradiel,Friesland,VBO,5.666774,53.213299
Achterbosk,3,,,9036KV,Menaam,Menameradiel,Friesland,VBO,5.666729,53.213262
Achterbosk,5,,,9036KV,Menaam,Menameradiel,Friesland,VBO,5.666987,53.213113
Achterbosk,7,A,,9036KV,Menaam,Menameradiel,Friesland,VBO,5.667081,53.212821
Achterbosk,7,,,9036KV,Menaam,Menameradiel,Friesland,VBO,5.667054,53.213084
Achterbosk,9,,,9036KV,Menaam,Menameradiel,Friesland,VBO,5.666717,53.212888
Achterbosk,11,,,9036KV,Menaam,Menameradiel,Friesland,VBO,5.666626,53.212822
Achterbosk,13,,,9036KV,Menaam,Menameradiel,Friesland,VBO,5.666457,53.212748
Achterbosk,15,,,9036KV,Menaam,Menameradiel,Friesland,VBO,5.666385,53.212696
Achterbosk,17,,,9036KV,Menaam,Menameradiel,Friesland,VBO,5.666166,53.212644
Achterbosk,19,,,9036KV,Menaam,Menameradiel,Friesland,VBO,5.666097,53.212594
Achterbosk,21,,,9036KV,Menaam,Menameradiel,Friesland,VBO,5.665876,53.212519
Boskrânne,2,,,9036KW,Menaam,Menameradiel,Friesland,VBO,5.668175,53.213254
Boskrânne,4,,,9036KW,Menaam,Menameradiel,Friesland,VBO,5.668090,53.213292
Boskrânne,6,,,9036KW,Menaam,Menameradiel,Friesland,VBO,5.667956,53.213351
Boskrânne,8,,,9036KW,Menaam,Menameradiel,Friesland,VBO,5.667872,53.213389
Boskrânne,10,,,9036KW,Menaam,Menameradiel,Friesland,VBO,5.667703,53.213440
Boskrânne,12,,,9036KW,Menaam,Menameradiel,Friesland,VBO,5.667620,53.213478
Boskrânne,14,,,9036KW,Menaam,Menameradiel,Friesland,VBO,5.667480,53.213540
Boskrânne,16,,,9036KW,Menaam,Menameradiel,Friesland,VBO,5.667400,53.213576
Boskrânne,18,,,9036KW,Menaam,Menameradiel,Friesland,VBO,5.667275,53.213665
Boskrânne,20,,,9036KW,Menaam,Menameradiel,Friesland,VBO,5.667199,53.213699
Boskrânne,22,,,9036KW,Menaam,Menameradiel,Friesland,VBO,5.667056,53.213763
Boskrânne,24,,,9036KW,Menaam,Menameradiel,Friesland,VBO,5.666977,53.213798
Boskrânne,26,,,9036KW,Menaam,Menameradiel,Friesland,VBO,5.666754,53.213932
Boskrânne,28,,,9036KW,Menaam,Menameradiel,Friesland,VBO,5.666666,53.213876
Boskrânne,30,,,9036KW,Menaam,Menameradiel,Friesland,VBO,5.666541,53.213796
Boskrânne,32,,,9036KW,Menaam,Menameradiel,Friesland,VBO,5.666469,53.213752
Boskrânne,34,,,9036KW,Menaam,Menameradiel,Friesland,VBO,5.666316,53.213681
Boskrânne,36,,,9036KW,Menaam,Menameradiel,Friesland,VBO,5.666244,53.213635
Boskrânne,38,,,9036KW,Menaam,Menameradiel,Friesland,VBO,5.666091,53.213564
Boskrânne,40,,,9036KW,Menaam,Menameradiel,Friesland,VBO,5.666017,53.213517
Boskrânne,42,,,9036KW,Menaam,Menameradiel,Friesland,VBO,5.665866,53.213447
Boskrânne,44,,,9036KW,Menaam,Menameradiel,Friesland,VBO,5.665798,53.213404
Boskrânne,1,,,9036KX,Menaam,Menameradiel,Friesland,VBO,5.667600,53.213185
Boskrânne,3,,,9036KX,Menaam,Menameradiel,Friesland,VBO,5.667540,53.213211
Boskrânne,5,,,9036KX,Menaam,Menameradiel,Friesland,VBO,5.667402,53.213272
Boskrânne,7,,,9036KX,Menaam,Menameradiel,Friesland,VBO,5.667335,53.213303
Boskrânne,9,,,9036KX,Menaam,Menameradiel,Friesland,VBO,5.667202,53.213361
Boskrânne,11,,,9036KX,Menaam,Menameradiel,Friesland,VBO,5.667125,53.213395
Boskrânne,13,,,9036KX,Menaam,Menameradiel,Friesland,VBO,5.666833,53.213473
Boskrânne,15,,,9036KX,Menaam,Menameradiel,Friesland,VBO,5.666785,53.213433
Boskrânne,19,,,9036KX,Menaam,Menameradiel,Friesland,VBO,5.666262,53.213243
Boskrânne,21,,,9036KX,Menaam,Menameradiel,Friesland,VBO,5.665878,53.213154
Boskrânne,23,,,9036KX,Menaam,Menameradiel,Friesland,VBO,5.665824,53.213110
Boskrânne,25,,,9036KX,Menaam,Menameradiel,Friesland,VBO,5.665488,53.213100
Boskrânne,27,,,9036KX,Menaam,Menameradiel,Friesland,VBO,5.665434,53.213056
Boskrânne,29,,,9036KX,Menaam,Menameradiel,Friesland,VBO,5.665196,53.213004
Boskrânne,31,,,9036KX,Menaam,Menameradiel,Friesland,VBO,5.665141,53.212959
Nijlân,237,,,9036KZ,Menaam,Menameradiel,Friesland,VBO,5.659703,53.213821
Nijlân,239,,,9036KZ,Menaam,Menameradiel,Friesland,VBO,5.659763,53.213794
Nijlân,241,A,,9036KZ,Menaam,Menameradiel,Friesland,VBO,5.659808,53.213767
Nijlân,241,,,9036KZ,Menaam,Menameradiel,Friesland,VBO,5.659868,53.213748
Nijlân,243,A,,9036KZ,Menaam,Menameradiel,Friesland,VBO,5.659897,53.213730
Nijlân,243,,,9036KZ,Menaam,Menameradiel,Friesland,VBO,5.659957,53.213712
Nijlân,245,A,,9036KZ,Menaam,Menameradiel,Friesland,VBO,5.659987,53.213685
Nijlân,245,,,9036KZ,Menaam,Menameradiel,Friesland,VBO,5.660047,53.213667
Nijlân,247,,,9036KZ,Menaam,Menameradiel,Friesland,VBO,5.659719,53.213857
Nijlân,249,,,9036KZ,Menaam,Menameradiel,Friesland,VBO,5.659793,53.213821
Nijlân,251,A,,9036KZ,Menaam,Menameradiel,Friesland,VBO,5.659845,53.213797
Nijlân,251,,,9036KZ,Menaam,Menameradiel,Friesland,VBO,5.659898,53.213775
Nijlân,253,A,,9036KZ,Menaam,Menameradiel,Friesland,VBO,5.659943,53.213757
Nijlân,253,,,9036KZ,Menaam,Menameradiel,Friesland,VBO,5.659987,53.213730
Nijlân,255,A,,9036KZ,Menaam,Menameradiel,Friesland,VBO,5.660032,53.213712
Nijlân,255,,,9036KZ,Menaam,Menameradiel,Friesland,VBO,5.660077,53.213685
Miedkamp,2,,,9036LA,Menaam,Menameradiel,Friesland,VBO,5.669054,53.213017
Miedkamp,4,,,9036LA,Menaam,Menameradiel,Friesland,VBO,5.668933,53.212910
Miedkamp,6,,,9036LA,Menaam,Menameradiel,Friesland,VBO,5.668858,53.212865
Miedkamp,8,,,9036LA,Menaam,Menameradiel,Friesland,VBO,5.668708,53.212758
Miedkamp,10,,,9036LA,Menaam,Menameradiel,Friesland,VBO,5.668663,53.212695
Miedkamp,12,,,9036LA,Menaam,Menameradiel,Friesland,VBO,5.668468,53.212632
Miedkamp,14,,,9036LA,Menaam,Menameradiel,Friesland,VBO,5.668407,53.212570
Miedkamp,16,,,9036LA,Menaam,Menameradiel,Friesland,VBO,5.668272,53.212471
Miedkamp,18,,,9036LA,Menaam,Menameradiel,Friesland,VBO,5.668197,53.212417
Miedkamp,20,,,9036LA,Menaam,Menameradiel,Friesland,VBO,5.668031,53.212292
Miedkamp,22,,,9036LA,Menaam,Menameradiel,Friesland,VBO,5.667502,53.211422
Mieddyk,1,,,9036LB,Menaam,Menameradiel,Friesland,VBO,5.664282,53.216940
Mieddyk,3,A,,9036LB,Menaam,Menameradiel,Friesland,VBO,5.664346,53.216551
Mieddyk,3,,,9036LB,Menaam,Menameradiel,Friesland,VBO,5.664284,53.216522
Mieddyk,5,,,9036LB,Menaam,Menameradiel,Friesland,VBO,5.664374,53.216202
Mieddyk,7,,,9036LB,Menaam,Menameradiel,Friesland,VBO,5.664760,53.216047
Mieddyk,9,,,9036LB,Menaam,Menameradiel,Friesland,VBO,5.664976,53.215978
Mieddyk,11,,,9036LB,Menaam,Menameradiel,Friesland,VBO,5.665161,53.215930
Mieddyk,13,,,9036LB,Menaam,Menameradiel,Friesland,VBO,5.665339,53.215901
Mieddyk,15,,,9036LB,Menaam,Menameradiel,Friesland,VBO,5.665559,53.215823
Mieddyk,17,,,9036LB,Menaam,Menameradiel,Friesland,VBO,5.665681,53.215761
Mieddyk,19,,,9036LB,Menaam,Menameradiel,Friesland,VBO,5.665829,53.215733
Mieddyk,21,,,9036LB,Menaam,Menameradiel,Friesland,VBO,5.666083,53.215652
Mieddyk,23,,,9036LB,Menaam,Menameradiel,Friesland,VBO,5.666274,53.215650
Mieddyk,25,,,9036LB,Menaam,Menameradiel,Friesland,VBO,5.666360,53.215550
Mieddyk,27,,,9036LB,Menaam,Menameradiel,Friesland,VBO,5.666546,53.215524
Mieddyk,29,,,9036LB,Menaam,Menameradiel,Friesland,VBO,5.666715,53.215460
Mieddyk,31,,,9036LB,Menaam,Menameradiel,Friesland,VBO,5.666875,53.215403
Mieddyk,33,,,9036LB,Menaam,Menameradiel,Friesland,VBO,5.667045,53.215360
Mieddyk,35,,,9036LB,Menaam,Menameradiel,Friesland,VBO,5.667223,53.215289
Mieddyk,37,,,9036LC,Menaam,Menameradiel,Friesland,VBO,5.667421,53.215094
Mieddyk,39,A,,9036LC,Menaam,Menameradiel,Friesland,VBO,5.672738,53.210334
Mieddyk,39,B,,9036LC,Menaam,Menameradiel,Friesland,VBO,5.676931,53.209135
Mieddyk,39,,,9036LC,Menaam,Menameradiel,Friesland,VBO,5.671435,53.211792
Mieddyk,41,,,9036LC,Menaam,Menameradiel,Friesland,VBO,5.674507,53.207287
Mieddyk,2,,,9036LD,Menaam,Menameradiel,Friesland,VBO,5.663219,53.216690
Mieddyk,4,,,9036LD,Menaam,Menameradiel,Friesland,VBO,5.663353,53.216583
Mieddyk,6,,,9036LD,Menaam,Menameradiel,Friesland,VBO,5.663454,53.216503
Mieddyk,8,,,9036LD,Menaam,Menameradiel,Friesland,VBO,5.663547,53.216408
Mieddyk,10,,,9036LD,Menaam,Menameradiel,Friesland,VBO,5.663604,53.216351
Mieddyk,22,,,9036LE,Menaam,Menameradiel,Friesland,VBO,5.664407,53.215913
Mieddyk,26,,,9036LE,Menaam,Menameradiel,Friesland,VBO,5.664604,53.215808
Mieddyk,30,,,9036LE,Menaam,Menameradiel,Friesland,VBO,5.664918,53.215697
Mieddyk,32,,,9036LE,Menaam,Menameradiel,Friesland,VBO,5.665073,53.215653
Mieddyk,36,,,9036LG,Menaam,Menameradiel,Friesland,VBO,5.665680,53.215446
Mieddyk,38,,,9036LG,Menaam,Menameradiel,Friesland,VBO,5.665769,53.215416
Mieddyk,40,,,9036LG,Menaam,Menameradiel,Friesland,VBO,5.665924,53.215350
Mieddyk,42,,,9036LG,Menaam,Menameradiel,Friesland,VBO,5.666003,53.215305
Mieddyk,44,,,9036LG,Menaam,Menameradiel,Friesland,VBO,5.666126,53.215239
Mieddyk,46,,,9036LG,Menaam,Menameradiel,Friesland,VBO,5.666202,53.215197
Mieddyk,48,,,9036LG,Menaam,Menameradiel,Friesland,VBO,5.666329,53.215127
Mieddyk,50,,,9036LG,Menaam,Menameradiel,Friesland,VBO,5.666406,53.215084
Mieddyk,52,A,,9036LG,Menaam,Menameradiel,Friesland,VBO,5.666597,53.214980
Mieddyk,52,B,,9036LG,Menaam,Menameradiel,Friesland,VBO,5.666459,53.214833
Mieddyk,52,,,9036LG,Menaam,Menameradiel,Friesland,VBO,5.666533,53.215015
Mieddyk,54,,,9036LG,Menaam,Menameradiel,Friesland,VBO,5.666903,53.214822
Mieddyk,56,,,9036LH,Menaam,Menameradiel,Friesland,VBO,5.666801,53.214736
Mieddyk,58,,,9036LH,Menaam,Menameradiel,Friesland,VBO,5.666725,53.214676
Mieddyk,60,,,9036LH,Menaam,Menameradiel,Friesland,VBO,5.666890,53.214428
Mieddyk,62,,,9036LH,Menaam,Menameradiel,Friesland,VBO,5.667032,53.214353
Mieddyk,64,,,9036LH,Menaam,Menameradiel,Friesland,VBO,5.667198,53.214252
Mieddyk,66,,,9036LH,Menaam,Menameradiel,Friesland,VBO,5.667448,53.214098
Mieddyk,68,,,9036LH,Menaam,Menameradiel,Friesland,VBO,5.667599,53.214038
Mieddyk,70,,,9036LH,Menaam,Menameradiel,Friesland,VBO,5.667770,53.213926
Mieddyk,72,,,9036LH,Menaam,Menameradiel,Friesland,VBO,5.667949,53.213824
Mieddyk,74,,,9036LH,Menaam,Menameradiel,Friesland,VBO,5.668095,53.213728
Mieddyk,76,,,9036LH,Menaam,Menameradiel,Friesland,VBO,5.668211,53.213634
Mieddyk,78,,,9036LH,Menaam,Menameradiel,Friesland,VBO,5.668287,53.213589
Mieddyk,80,,,9036LH,Menaam,Menameradiel,Friesland,VBO,5.668411,53.213517
Mieddyk,82,,,9036LH,Menaam,Menameradiel,Friesland,VBO,5.668490,53.213471
Mieddyk,84,,,9036LH,Menaam,Menameradiel,Friesland,VBO,5.669171,53.213071
Mieddyk,86,,,9036LH,Menaam,Menameradiel,Friesland,VBO,5.674697,53.206287
Warnserbuorren,1,,,9036LJ,Menaam,Menameradiel,Friesland,VBO,5.667954,53.215293
Warnserbuorren,9,,,9036LJ,Menaam,Menameradiel,Friesland,VBO,5.667938,53.214873
Warnserbuorren,13,,,9036LJ,Menaam,Menameradiel,Friesland,VBO,5.667732,53.214705
Warnserbuorren,15,,,9036LJ,Menaam,Menameradiel,Friesland,VBO,5.667923,53.214389
Warnserbuorren,16,,,9036LJ,Menaam,Menameradiel,Friesland,VBO,5.667733,53.214521
Warnserbuorren,20,,,9036LJ,Menaam,Menameradiel,Friesland,VBO,5.668242,53.214531
Warnserbuorren,23,,,9036LJ,Menaam,Menameradiel,Friesland,VBO,5.668153,53.214172
Warnserbuorren,24,,,9036LJ,Menaam,Menameradiel,Friesland,VBO,5.668346,53.214070
Warnserbuorren,27,,,9036LJ,Menaam,Menameradiel,Friesland,VBO,5.669307,53.214308
Warnserbuorren,28,,,9036LJ,Menaam,Menameradiel,Friesland,VBO,5.669463,53.213535
Warnserbuorren,29,,,9036LJ,Menaam,Menameradiel,Friesland,VBO,5.669492,53.213465
Warnserbuorren,30,,,9036LJ,Menaam,Menameradiel,Friesland,VBO,5.669565,53.213421
Warnserbuorren,31,,,9036LJ,Menaam,Menameradiel,Friesland,VBO,5.669684,53.213370
Warnserbuorren,33,,,9036LJ,Menaam,Menameradiel,Friesland,VBO,5.674199,53.215884
Warnserbuorren,34,,,9036LJ,Menaam,Menameradiel,Friesland,VBO,5.670093,53.215670
Warnserbuorren,35,A,,9036LJ,Menaam,Menameradiel,Friesland,VBO,5.669651,53.215502
Warnserbuorren,35,,,9036LJ,Menaam,Menameradiel,Friesland,VBO,5.669898,53.215603
Warnserbuorren,36,,,9036LJ,Menaam,Menameradiel,Friesland,VBO,5.669269,53.215356
Warnserbuorren,37,,,9036LJ,Menaam,Menameradiel,Friesland,VBO,5.668756,53.215245
Rixt van Doniastrjitte,1,,,9036LK,Menaam,Menameradiel,Friesland,VBO,5.665358,53.213959
Rixt van Doniastrjitte,3,,,9036LK,Menaam,Menameradiel,Friesland,VBO,5.665431,53.214005
Rixt van Doniastrjitte,5,,,9036LK,Menaam,Menameradiel,Friesland,VBO,5.665570,53.214092
Rixt van Doniastrjitte,7,,,9036LK,Menaam,Menameradiel,Friesland,VBO,5.665642,53.214137
Rixt van Doniastrjitte,9,,,9036LK,Menaam,Menameradiel,Friesland,VBO,5.665776,53.214222
Rixt van Doniastrjitte,11,,,9036LK,Menaam,Menameradiel,Friesland,VBO,5.665839,53.214260
Rixt van Doniastrjitte,13,,,9036LK,Menaam,Menameradiel,Friesland,VBO,5.665978,53.214348
Rixt van Doniastrjitte,15,,,9036LK,Menaam,Menameradiel,Friesland,VBO,5.666044,53.214389
Auck van Haersmawei,1,,,9036LL,Menaam,Menameradiel,Friesland,VBO,5.665327,53.214766
Auck van Haersmawei,2,,,9036LL,Menaam,Menameradiel,Friesland,VBO,5.664743,53.214709
Auck van Haersmawei,3,,,9036LL,Menaam,Menameradiel,Friesland,VBO,5.665400,53.214812
Auck van Haersmawei,4,,,9036LL,Menaam,Menameradiel,Friesland,VBO,5.664916,53.214610
Auck van Haersmawei,5,,,9036LL,Menaam,Menameradiel,Friesland,VBO,5.665523,53.214890
Auck van Haersmawei,6,,,9036LL,Menaam,Menameradiel,Friesland,VBO,5.664972,53.214578
Auck van Haersmawei,7,,,9036LL,Menaam,Menameradiel,Friesland,VBO,5.665595,53.214935
Auck van Haersmawei,8,,,9036LL,Menaam,Menameradiel,Friesland,VBO,5.665223,53.214335
Auck van Haersmawei,9,,,9036LL,Menaam,Menameradiel,Friesland,VBO,5.665987,53.214843
Auck van Haersmawei,10,,,9036LL,Menaam,Menameradiel,Friesland,VBO,5.665270,53.214365
Auck van Haersmawei,11,,,9036LL,Menaam,Menameradiel,Friesland,VBO,5.666058,53.214802
Auck van Haersmawei,12,,,9036LL,Menaam,Menameradiel,Friesland,VBO,5.665428,53.214463
Auck van Haersmawei,13,,,9036LL,Menaam,Menameradiel,Friesland,VBO,5.666185,53.214730
Auck van Haersmawei,14,,,9036LL,Menaam,Menameradiel,Friesland,VBO,5.665481,53.214497
Auck van Haersmawei,15,,,9036LL,Menaam,Menameradiel,Friesland,VBO,5.666258,53.214688
Auck van Haersmawei,16,,,9036LL,Menaam,Menameradiel,Friesland,VBO,5.665637,53.214593
Auck van Haersmawei,18,,,9036LL,Menaam,Menameradiel,Friesland,VBO,5.665693,53.214629
Grêftswâl,1,,,9036LM,Menaam,Menameradiel,Friesland,VBO,5.662600,53.215436
Grêftswâl,3,,,9036LM,Menaam,Menameradiel,Friesland,VBO,5.662810,53.215338
Grêftswâl,5,,,9036LM,Menaam,Menameradiel,Friesland,VBO,5.663061,53.215186
Grêftswâl,7,,,9036LM,Menaam,Menameradiel,Friesland,VBO,5.663245,53.215091
Grêftswâl,9,,,9036LM,Menaam,Menameradiel,Friesland,VBO,5.663450,53.214959
Grêftswâl,11,A,,9036LM,Menaam,Menameradiel,Friesland,VBO,5.663819,53.214872
Grêftswâl,11,,,9036LM,Menaam,Menameradiel,Friesland,VBO,5.663616,53.214853
Grêftswâl,13,,,9036LM,Menaam,Menameradiel,Friesland,VBO,5.663876,53.214735
Grêftswâl,2,,,9036LN,Menaam,Menameradiel,Friesland,VBO,5.662526,53.215127
Grêftswâl,4,,,9036LN,Menaam,Menameradiel,Friesland,VBO,5.662528,53.215042
Grêftswâl,6,,,9036LN,Menaam,Menameradiel,Friesland,VBO,5.662757,53.214994
Grêftswâl,8,,,9036LN,Menaam,Menameradiel,Friesland,VBO,5.662760,53.214916
Grêftswâl,10,,,9036LN,Menaam,Menameradiel,Friesland,VBO,5.662990,53.214870
Grêftswâl,12,,,9036LN,Menaam,Menameradiel,Friesland,VBO,5.662993,53.214788
Grêftswâl,14,,,9036LN,Menaam,Menameradiel,Friesland,VBO,5.663004,53.214622
Grêftswâl,16,,,9036LN,Menaam,Menameradiel,Friesland,VBO,5.663097,53.214575
Grêftswâl,18,A,,9036LN,Menaam,Menameradiel,Friesland,VBO,5.663191,53.214528
Grêftswâl,18,,,9036LN,Menaam,Menameradiel,Friesland,VBO,5.663124,53.214535
Grêftswâl,20,,,9036LN,Menaam,Menameradiel,Friesland,VBO,5.664259,53.214155
Grêftswâl,22,,,9036LN,Menaam,Menameradiel,Friesland,VBO,5.664674,53.213923
Grêftswâl,24,,,9036LN,Menaam,Menameradiel,Friesland,VBO,5.664816,53.213844
Grêftswâl,26,,,9036LN,Menaam,Menameradiel,Friesland,VBO,5.664873,53.213813
Grêftswâl,28,,,9036LN,Menaam,Menameradiel,Friesland,VBO,5.665004,53.213738
Grêftswâl,30,,,9036LN,Menaam,Menameradiel,Friesland,VBO,5.665069,53.213702
Grêftswâl,17,,,9036LP,Menaam,Menameradiel,Friesland,VBO,5.664350,53.214488
Grêftswâl,19,,,9036LP,Menaam,Menameradiel,Friesland,VBO,5.664501,53.214404
Grêftswâl,21,,,9036LP,Menaam,Menameradiel,Friesland,VBO,5.664596,53.214351
Grêftswâl,23,,,9036LP,Menaam,Menameradiel,Friesland,VBO,5.664746,53.214265
Grêftswâl,25,,,9036LP,Menaam,Menameradiel,Friesland,VBO,5.664834,53.214216
Grêftswâl,27,,,9036LP,Menaam,Menameradiel,Friesland,VBO,5.664984,53.214130
Grêftswâl,29,,,9036LP,Menaam,Menameradiel,Friesland,VBO,5.665070,53.214081
Dobbehôf,1,,,9036LR,Menaam,Menameradiel,Friesland,VBO,5.663869,53.213375
Dobbehôf,2,,,9036LR,Menaam,Menameradiel,Friesland,VBO,5.664166,53.213258
Dobbehôf,3,,,9036LR,Menaam,Menameradiel,Friesland,VBO,5.664078,53.213573
Dobbehôf,4,,,9036LR,Menaam,Menameradiel,Friesland,VBO,5.664370,53.213410
Dobbehôf,5,,,9036LR,Menaam,Menameradiel,Friesland,VBO,5.663993,53.213617
Dobbehôf,7,,,9036LR,Menaam,Menameradiel,Friesland,VBO,5.663864,53.213681
Dobbehôf,8,,,9036LR,Menaam,Menameradiel,Friesland,VBO,5.664571,53.213614
Dobbehôf,9,,,9036LR,Menaam,Menameradiel,Friesland,VBO,5.663770,53.213731
Dobbehôf,10,,,9036LR,Menaam,Menameradiel,Friesland,VBO,5.664504,53.213653
Dobbehôf,11,,,9036LR,Menaam,Menameradiel,Friesland,VBO,5.663980,53.213924
Dobbehôf,12,,,9036LR,Menaam,Menameradiel,Friesland,VBO,5.664368,53.213729
Dobbehôf,13,,,9036LR,Menaam,Menameradiel,Friesland,VBO,5.664068,53.213983
Dobbehôf,14,,,9036LR,Menaam,Menameradiel,Friesland,VBO,5.664308,53.213762
Dobbehôf,15,,,9036LR,Menaam,Menameradiel,Friesland,VBO,5.664220,53.214062
Dobbehôf,16,,,9036LR,Menaam,Menameradiel,Friesland,VBO,5.664584,53.213926
Blomtún,1,,,9036LS,Menaam,Menameradiel,Friesland,VBO,5.665440,53.215303
Blomtún,3,,,9036LS,Menaam,Menameradiel,Friesland,VBO,5.665376,53.215262
Blomtún,5,,,9036LS,Menaam,Menameradiel,Friesland,VBO,5.665258,53.215189
Blomtún,7,,,9036LS,Menaam,Menameradiel,Friesland,VBO,5.665178,53.215139
Blomtún,9,,,9036LS,Menaam,Menameradiel,Friesland,VBO,5.665061,53.215066
Blomtún,11,A,,9036LS,Menaam,Menameradiel,Friesland,VBO,5.664631,53.214727
Blomtún,11,B,,9036LS,Menaam,Menameradiel,Friesland,VBO,5.664278,53.214545
Blomtún,11,,,9036LS,Menaam,Menameradiel,Friesland,VBO,5.664976,53.215012
Blomtún,13,,,9036LT,Menaam,Menameradiel,Friesland,VBO,5.663990,53.214337
Blomtún,15,,,9036LT,Menaam,Menameradiel,Friesland,VBO,5.663914,53.214285
Blomtún,17,,,9036LT,Menaam,Menameradiel,Friesland,VBO,5.663820,53.214222
Blomtún,19,,,9036LT,Menaam,Menameradiel,Friesland,VBO,5.663747,53.214172
Blomtún,21,,,9036LT,Menaam,Menameradiel,Friesland,VBO,5.663655,53.214109
Blomtún,23,,,9036LT,Menaam,Menameradiel,Friesland,VBO,5.663577,53.214059
Blomtún,25,,,9036LT,Menaam,Menameradiel,Friesland,VBO,5.663485,53.213994
Blomtún,27,,,9036LT,Menaam,Menameradiel,Friesland,VBO,5.663403,53.213938
Blomtún,29,,,9036LT,Menaam,Menameradiel,Friesland,VBO,5.663311,53.213876
Blomtún,31,,,9036LT,Menaam,Menameradiel,Friesland,VBO,5.663234,53.213824
Blomtún,33,,,9036LT,Menaam,Menameradiel,Friesland,VBO,5.663107,53.213735
Blomtún,2,,,9036LV,Menaam,Menameradiel,Friesland,VBO,5.665203,53.215486
Blomtún,4,,,9036LV,Menaam,Menameradiel,Friesland,VBO,5.665115,53.215431
Blomtún,6,,,9036LV,Menaam,Menameradiel,Friesland,VBO,5.664976,53.215346
Blomtún,8,,,9036LV,Menaam,Menameradiel,Friesland,VBO,5.664894,53.215294
Blomtún,10,,,9036LV,Menaam,Menameradiel,Friesland,VBO,5.664750,53.215202
Blomtún,12,,,9036LV,Menaam,Menameradiel,Friesland,VBO,5.664671,53.215152
Blomtún,14,,,9036LW,Menaam,Menameradiel,Friesland,VBO,5.664536,53.215068
Blomtún,16,,,9036LW,Menaam,Menameradiel,Friesland,VBO,5.664463,53.215021
Blomtún,18,,,9036LW,Menaam,Menameradiel,Friesland,VBO,5.664325,53.214935
Blomtún,20,,,9036LW,Menaam,Menameradiel,Friesland,VBO,5.664254,53.214890
Blomtún,22,,,9036LW,Menaam,Menameradiel,Friesland,VBO,5.663259,53.214237
Blomtún,24,,,9036LW,Menaam,Menameradiel,Friesland,VBO,5.663180,53.214183
Blomtún,26,,,9036LW,Menaam,Menameradiel,Friesland,VBO,5.663065,53.214104
Blomtún,28,,,9036LW,Menaam,Menameradiel,Friesland,VBO,5.662977,53.214043
Blomtún,30,,,9036LW,Menaam,Menameradiel,Friesland,VBO,5.662858,53.213961
Blomtún,32,,,9036LW,Menaam,Menameradiel,Friesland,VBO,5.662773,53.213903
Jachthúswei,1,,,9036LX,Menaam,Menameradiel,Friesland,VBO,5.663273,53.215327
Jachthúswei,3,,,9036LX,Menaam,Menameradiel,Friesland,VBO,5.663365,53.215386
Jachthúswei,5,,,9036LX,Menaam,Menameradiel,Friesland,VBO,5.663453,53.215479
Jachthúswei,7,,,9036LX,Menaam,Menameradiel,Friesland,VBO,5.663535,53.215518
Jachthúswei,9,,,9036LX,Menaam,Menameradiel,Friesland,VBO,5.663612,53.215553
Jachthúswei,17,,,9036LX,Menaam,Menameradiel,Friesland,VBO,5.663788,53.215645
Jachthúswei,19,,,9036LX,Menaam,Menameradiel,Friesland,VBO,5.663847,53.215709
Jachthúswei,21,,,9036LX,Menaam,Menameradiel,Friesland,VBO,5.663903,53.215746
Jachthúswei,25,,,9036LX,Menaam,Menameradiel,Friesland,VBO,5.664026,53.215846
Jachthúswei,27,,,9036LX,Menaam,Menameradiel,Friesland,VBO,5.664079,53.215880
Jachthúswei,2,,,9036LZ,Menaam,Menameradiel,Friesland,VBO,5.663742,53.215068
Jachthúswei,4,,,9036LZ,Menaam,Menameradiel,Friesland,VBO,5.663782,53.215148
Jachthúswei,6,,,9036LZ,Menaam,Menameradiel,Friesland,VBO,5.663978,53.215197
Jachthúswei,8,,,9036LZ,Menaam,Menameradiel,Friesland,VBO,5.664017,53.215275
Jachthúswei,10,,,9036LZ,Menaam,Menameradiel,Friesland,VBO,5.664214,53.215325
Jachthúswei,12,,,9036LZ,Menaam,Menameradiel,Friesland,VBO,5.664253,53.215402
Jachthúswei,14,,,9036LZ,Menaam,Menameradiel,Friesland,VBO,5.664448,53.215451
Jachthúswei,16,,,9036LZ,Menaam,Menameradiel,Friesland,VBO,5.664487,53.215529
Jachthúswei,18,,,9036LZ,Menaam,Menameradiel,Friesland,VBO,5.664445,53.215638
Jachthúswei,20,,,9036LZ,Menaam,Menameradiel,Friesland,VBO,5.664348,53.215690
Camstrastrjitte,1,,,9036MA,Menaam,Menameradiel,Friesland,VBO,5.660252,53.214403
Camstrastrjitte,2,,,9036MA,Menaam,Menameradiel,Friesland,VBO,5.660635,53.214202
Camstrastrjitte,3,,,9036MA,Menaam,Menameradiel,Friesland,VBO,5.660318,53.214451
Camstrastrjitte,4,,,9036MA,Menaam,Menameradiel,Friesland,VBO,5.660723,53.214263
Camstrastrjitte,5,,,9036MA,Menaam,Menameradiel,Friesland,VBO,5.660434,53.214535
Camstrastrjitte,6,,,9036MA,Menaam,Menameradiel,Friesland,VBO,5.660826,53.214335
Camstrastrjitte,7,A,,9036MA,Menaam,Menameradiel,Friesland,VBO,5.661439,53.215296
Camstrastrjitte,7,,,9036MA,Menaam,Menameradiel,Friesland,VBO,5.660508,53.214590
Camstrastrjitte,8,,,9036MA,Menaam,Menameradiel,Friesland,VBO,5.660903,53.214388
Camstrastrjitte,9,,,9036MB,Menaam,Menameradiel,Friesland,VBO,5.662195,53.215687
Camstrastrjitte,11,,,9036MB,Menaam,Menameradiel,Friesland,VBO,5.662049,53.215688
Camstrastrjitte,13,,,9036MB,Menaam,Menameradiel,Friesland,VBO,5.662428,53.215818
Camstrastrjitte,15,,,9036MB,Menaam,Menameradiel,Friesland,VBO,5.662299,53.215819
Camstrastrjitte,17,,,9036MB,Menaam,Menameradiel,Friesland,VBO,5.662676,53.215947
Camstrastrjitte,19,,,9036MB,Menaam,Menameradiel,Friesland,VBO,5.662547,53.215949
Camstrastrjitte,21,,,9036MB,Menaam,Menameradiel,Friesland,VBO,5.662928,53.216066
Camstrastrjitte,23,,,9036MB,Menaam,Menameradiel,Friesland,VBO,5.662812,53.216080
Camstrastrjitte,25,,,9036MB,Menaam,Menameradiel,Friesland,VBO,5.663174,53.216189
Camstrastrjitte,27,,,9036MB,Menaam,Menameradiel,Friesland,VBO,5.663063,53.216203
Camstrastrjitte,10,A,,9036MC,Menaam,Menameradiel,Friesland,VBO,5.662130,53.214690
Camstrastrjitte,10,B,,9036MC,Menaam,Menameradiel,Friesland,VBO,5.662022,53.214947
Camstrastrjitte,10,,,9036MC,Menaam,Menameradiel,Friesland,VBO,5.661857,53.214795
Camstrastrjitte,12,,,9036MD,Menaam,Menameradiel,Friesland,VBO,5.662891,53.215664
Camstrastrjitte,16,,,9036MD,Menaam,Menameradiel,Friesland,VBO,5.663043,53.215747
Camstrastrjitte,20,,,9036MD,Menaam,Menameradiel,Friesland,VBO,5.663175,53.215834
Camstrastrjitte,22,,,9036MD,Menaam,Menameradiel,Friesland,VBO,5.663316,53.215866
Camstrastrjitte,24,,,9036MD,Menaam,Menameradiel,Friesland,VBO,5.663498,53.216039
Greatebuorren,1,,,9036ME,Menaam,Menameradiel,Friesland,VBO,5.661700,53.215346
Greatebuorren,3,,,9036ME,Menaam,Menameradiel,Friesland,VBO,5.661575,53.215501
Greatebuorren,5,,,9036ME,Menaam,Menameradiel,Friesland,VBO,5.661328,53.215607
Greatebuorren,11,,,9036ME,Menaam,Menameradiel,Friesland,VBO,5.660907,53.215715
Greatebuorren,13,,,9036ME,Menaam,Menameradiel,Friesland,VBO,5.660130,53.215637
Greatebuorren,15,,,9036ME,Menaam,Menameradiel,Friesland,VBO,5.661036,53.215818
Greatebuorren,25,,,9036ME,Menaam,Menameradiel,Friesland,VBO,5.660899,53.215942
Greatebuorren,27,,,9036ME,Menaam,Menameradiel,Friesland,VBO,5.660813,53.216072
Greatebuorren,29,,,9036ME,Menaam,Menameradiel,Friesland,VBO,5.660695,53.216177
Greatebuorren,39,,,9036ME,Menaam,Menameradiel,Friesland,VBO,5.660568,53.216318
Greatebuorren,41,,,9036ME,Menaam,Menameradiel,Friesland,VBO,5.660402,53.216409
Greatebuorren,43,,,9036ME,Menaam,Menameradiel,Friesland,VBO,5.660276,53.216483
Greatebuorren,45,,,9036ME,Menaam,Menameradiel,Friesland,VBO,5.660146,53.216531
Greatebuorren,47,,,9036ME,Menaam,Menameradiel,Friesland,VBO,5.660051,53.216587
Greatebuorren,4,,,9036MG,Menaam,Menameradiel,Friesland,VBO,5.660925,53.216418
Greatebuorren,6,,,9036MG,Menaam,Menameradiel,Friesland,VBO,5.660938,53.216654
Greatebuorren,8,,,9036MG,Menaam,Menameradiel,Friesland,VBO,5.660566,53.216661
Greatebuorren,10,,,9036MG,Menaam,Menameradiel,Friesland,VBO,5.660425,53.216698
Skilpaed,1,,,9036MH,Menaam,Menameradiel,Friesland,VBO,5.661777,53.216994
Skilpaed,2,,,9036MH,Menaam,Menameradiel,Friesland,VBO,5.661784,53.216197
Skilpaed,3,,,9036MH,Menaam,Menameradiel,Friesland,VBO,5.662460,53.216764
Skilpaed,4,,,9036MH,Menaam,Menameradiel,Friesland,VBO,5.662217,53.216130
Skilpaed,5,,,9036MH,Menaam,Menameradiel,Friesland,VBO,5.662632,53.216756
Skilpaed,6,,,9036MH,Menaam,Menameradiel,Friesland,VBO,5.662584,53.216341
Skilpaed,7,,,9036MH,Menaam,Menameradiel,Friesland,VBO,5.662900,53.216749
Skilpaed,9,,,9036MH,Menaam,Menameradiel,Friesland,VBO,5.663081,53.216890
Skilpaed,11,,,9036MH,Menaam,Menameradiel,Friesland,VBO,5.663305,53.216954
Moolnersrak,1,,,9036MJ,Menaam,Menameradiel,Friesland,VBO,5.659613,53.217938
Moolnersrak,2,,,9036MJ,Menaam,Menameradiel,Friesland,VBO,5.660749,53.218155
Moolnersrak,3,,,9036MJ,Menaam,Menameradiel,Friesland,VBO,5.659191,53.218428
Moolnersrak,4,,,9036MJ,Menaam,Menameradiel,Friesland,VBO,5.660311,53.218344
Moolnersrak,6,,,9036MJ,Menaam,Menameradiel,Friesland,VBO,5.659879,53.218622
Moolnersrak,7,,,9036MJ,Menaam,Menameradiel,Friesland,VBO,5.658591,53.218667
Moolnersrak,8,A,,9036MJ,Menaam,Menameradiel,Friesland,VBO,5.658165,53.219374
Moolnersrak,8,L,,9036MJ,Menaam,Menameradiel,Friesland,VBO,5.658756,53.218955
Moolnersrak,8,,,9036MJ,Menaam,Menameradiel,Friesland,VBO,5.658884,53.219125
Moolnersrak,10,A,,9036MJ,Menaam,Menameradiel,Friesland,VBO,5.657020,53.219550
Moolnersrak,10,,,9036MJ,Menaam,Menameradiel,Friesland,VBO,5.657672,53.219611
Moolnersrak,11,,,9036MJ,Menaam,Menameradiel,Friesland,VBO,5.658135,53.219002
Moolnersrak,12,,,9036MJ,Menaam,Menameradiel,Friesland,VBO,5.657335,53.219813
Moolnersrak,13,,,9036MJ,Menaam,Menameradiel,Friesland,VBO,5.658018,53.219037
Moolnersrak,14,,,9036MJ,Menaam,Menameradiel,Friesland,VBO,5.657435,53.219896
Moolnersrak,15,,,9036MJ,Menaam,Menameradiel,Friesland,VBO,5.657785,53.219246
Earnseker,1,,,9036MK,Menaam,Menameradiel,Friesland,VBO,5.665204,53.217184
Earnseker,3,,,9036MK,Menaam,Menameradiel,Friesland,VBO,5.665602,53.217443
Earnseker,5,,,9036MK,Menaam,Menameradiel,Friesland,VBO,5.665644,53.217568
Earnseker,17,,,9036MK,Menaam,Menameradiel,Friesland,VBO,5.666189,53.217874
Earnseker,19,,,9036MK,Menaam,Menameradiel,Friesland,VBO,5.666269,53.217925
Earnseker,25,,,9036MK,Menaam,Menameradiel,Friesland,VBO,5.666503,53.218052
Earnseker,29,,,9036MK,Menaam,Menameradiel,Friesland,VBO,5.666654,53.218149
Lytsedyk,2,,,9036ML,Menaam,Menameradiel,Friesland,VBO,5.662133,53.217743
Lytsedyk,4,,,9036ML,Menaam,Menameradiel,Friesland,VBO,5.662341,53.217680
Lytsedyk,6,,,9036ML,Menaam,Menameradiel,Friesland,VBO,5.662466,53.217655
Lytsedyk,10,,,9036ML,Menaam,Menameradiel,Friesland,VBO,5.662695,53.217527
Lytsedyk,12,,,9036ML,Menaam,Menameradiel,Friesland,VBO,5.662335,53.217254
Lytsedyk,14,,,9036ML,Menaam,Menameradiel,Friesland,VBO,5.662644,53.217137
Lytsedyk,16,,,9036ML,Menaam,Menameradiel,Friesland,VBO,5.663010,53.217453
Lytsedyk,18,,,9036ML,Menaam,Menameradiel,Friesland,VBO,5.663220,53.217358
Lytsedyk,20,,,9036ML,Menaam,Menameradiel,Friesland,VBO,5.663509,53.217286
Lytsedyk,26,,,9036ML,Menaam,Menameradiel,Friesland,VBO,5.663693,53.217214
Lytsebuorren,1,,,9036MN,Menaam,Menameradiel,Friesland,VBO,5.662073,53.218179
Lytsebuorren,3,,,9036MN,Menaam,Menameradiel,Friesland,VBO,5.662085,53.218106
Lytsebuorren,5,,,9036MN,Menaam,Menameradiel,Friesland,VBO,5.662141,53.218081
Lytsebuorren,7,,,9036MN,Menaam,Menameradiel,Friesland,VBO,5.662212,53.218063
Lytsebuorren,9,,,9036MN,Menaam,Menameradiel,Friesland,VBO,5.662333,53.218074
Lytsebuorren,11,,,9036MN,Menaam,Menameradiel,Friesland,VBO,5.662475,53.218102
Lytsebuorren,15,,,9036MN,Menaam,Menameradiel,Friesland,VBO,5.662663,53.217958
Lytsebuorren,17,,,9036MN,Menaam,Menameradiel,Friesland,VBO,5.662731,53.217942
Lytsebuorren,19,,,9036MN,Menaam,Menameradiel,Friesland,VBO,5.662790,53.217917
Lytsebuorren,21,,,9036MN,Menaam,Menameradiel,Friesland,VBO,5.662828,53.217881
Lytsebuorren,23,,,9036MN,Menaam,Menameradiel,Friesland,VBO,5.662902,53.217829
Lytsebuorren,25,,,9036MN,Menaam,Menameradiel,Friesland,VBO,5.663008,53.217817
Lytsebuorren,27,,,9036MP,Menaam,Menameradiel,Friesland,VBO,5.663080,53.217783
Lytsebuorren,29,,,9036MP,Menaam,Menameradiel,Friesland,VBO,5.663174,53.217774
Lytsebuorren,31,,,9036MP,Menaam,Menameradiel,Friesland,VBO,5.663218,53.217722
Lytsebuorren,33,,,9036MP,Menaam,Menameradiel,Friesland,VBO,5.663350,53.217679
Lytsebuorren,35,,,9036MP,Menaam,Menameradiel,Friesland,VBO,5.663459,53.217646
Lytsebuorren,37,,,9036MP,Menaam,Menameradiel,Friesland,VBO,5.663540,53.217621
Lytsebuorren,39,,,9036MP,Menaam,Menameradiel,Friesland,VBO,5.663695,53.217573
Lytsebuorren,47,,,9036MP,Menaam,Menameradiel,Friesland,VBO,5.663848,53.217556
Lytsebuorren,53,,,9036MP,Menaam,Menameradiel,Friesland,VBO,5.664002,53.217516
Lytsebuorren,55,,,9036MP,Menaam,Menameradiel,Friesland,VBO,5.664163,53.217465
Lytsebuorren,57,,,9036MP,Menaam,Menameradiel,Friesland,VBO,5.664314,53.217417
Lytsebuorren,61,,,9036MP,Menaam,Menameradiel,Friesland,VBO,5.664519,53.217350
Dyksterbuorren,1,,,9036MR,Menaam,Menameradiel,Friesland,VBO,5.659714,53.216671
Dyksterbuorren,3,,,9036MR,Menaam,Menameradiel,Friesland,VBO,5.659828,53.216801
Dyksterbuorren,5,,,9036MR,Menaam,Menameradiel,Friesland,VBO,5.659942,53.216883
Dyksterbuorren,7,,,9036MR,Menaam,Menameradiel,Friesland,VBO,5.659989,53.216940
Dyksterbuorren,9,,,9036MR,Menaam,Menameradiel,Friesland,VBO,5.660007,53.217022
Dyksterbuorren,13,,,9036MR,Menaam,Menameradiel,Friesland,VBO,5.660099,53.217114
Dyksterbuorren,15,,,9036MR,Menaam,Menameradiel,Friesland,VBO,5.660208,53.217349
Dyksterbuorren,17,,,9036MR,Menaam,Menameradiel,Friesland,VBO,5.660292,53.217426
Dyksterbuorren,19,,,9036MR,Menaam,Menameradiel,Friesland,VBO,5.660397,53.217517
Dyksterbuorren,21,,,9036MR,Menaam,Menameradiel,Friesland,VBO,5.660472,53.217705
Dyksterbuorren,33,A,,9036MR,Menaam,Menameradiel,Friesland,VBO,5.661137,53.218032
Dyksterbuorren,33,,,9036MR,Menaam,Menameradiel,Friesland,VBO,5.661264,53.218059
Dyksterbuorren,2,,,9036MS,Menaam,Menameradiel,Friesland,VBO,5.660314,53.216847
Dyksterbuorren,4,,,9036MS,Menaam,Menameradiel,Friesland,VBO,5.660372,53.216920
Dyksterbuorren,6,,,9036MS,Menaam,Menameradiel,Friesland,VBO,5.660487,53.217020
Dyksterbuorren,8,,,9036MS,Menaam,Menameradiel,Friesland,VBO,5.660580,53.217137
Dyksterbuorren,10,,,9036MS,Menaam,Menameradiel,Friesland,VBO,5.660698,53.217313
Dyksterbuorren,16,,,9036MS,Menaam,Menameradiel,Friesland,VBO,5.661190,53.217357
Dyksterbuorren,20,,,9036MS,Menaam,Menameradiel,Friesland,VBO,5.661564,53.217645
Berltsumerdyk,3,,,9036MT,Menaam,Menameradiel,Friesland,VBO,5.659449,53.217379
Berltsumerdyk,5,,,9036MT,Menaam,Menameradiel,Friesland,VBO,5.659344,53.217453
Berltsumerdyk,9,,,9036MT,Menaam,Menameradiel,Friesland,VBO,5.659196,53.217513
Berltsumerdyk,13,,,9036MT,Menaam,Menameradiel,Friesland,VBO,5.659005,53.217597
Berltsumerdyk,15,,,9036MT,Menaam,Menameradiel,Friesland,VBO,5.658699,53.217704
Berltsumerdyk,17,,,9036MT,Menaam,Menameradiel,Friesland,VBO,5.658309,53.217832
Berltsumerdyk,19,,,9036MT,Menaam,Menameradiel,Friesland,VBO,5.658056,53.217916
Berltsumerdyk,21,,,9036MT,Menaam,Menameradiel,Friesland,VBO,5.657986,53.217945
Berltsumerdyk,23,,,9036MT,Menaam,Menameradiel,Friesland,VBO,5.657807,53.218023
Berltsumerdyk,25,,,9036MT,Menaam,Menameradiel,Friesland,VBO,5.657638,53.218088
Berltsumerdyk,31,,,9036MT,Menaam,Menameradiel,Friesland,VBO,5.657225,53.218333
Berltsumerdyk,33,A,,9036MT,Menaam,Menameradiel,Friesland,VBO,5.656606,53.218833
Berltsumerdyk,33,B,,9036MT,Menaam,Menameradiel,Friesland,VBO,5.656388,53.218967
Berltsumerdyk,33,C,,9036MT,Menaam,Menameradiel,Friesland,VBO,5.655941,53.219187
Berltsumerdyk,33,,,9036MT,Menaam,Menameradiel,Friesland,VBO,5.657141,53.218588
Berltsumerdyk,35,,,9036MT,Menaam,Menameradiel,Friesland,VBO,5.652882,53.219583
Berltsumerdyk,4,,,9036MV,Menaam,Menameradiel,Friesland,VBO,5.659953,53.217441
Berltsumerdyk,6,,,9036MV,Menaam,Menameradiel,Friesland,VBO,5.659701,53.217549
Berltsumerdyk,8,,,9036MV,Menaam,Menameradiel,Friesland,VBO,5.659606,53.217594
Berltsumerdyk,10,,,9036MV,Menaam,Menameradiel,Friesland,VBO,5.659427,53.217630
Berltsumerdyk,12,,,9036MV,Menaam,Menameradiel,Friesland,VBO,5.659269,53.217705
Berltsumerdyk,16,,,9036MV,Menaam,Menameradiel,Friesland,VBO,5.659076,53.217807
Berltsumerdyk,18,,,9036MV,Menaam,Menameradiel,Friesland,VBO,5.658937,53.217867
Berltsumerdyk,20,,,9036MV,Menaam,Menameradiel,Friesland,VBO,5.658757,53.217957
Berltsumerdyk,24,,,9036MV,Menaam,Menameradiel,Friesland,VBO,5.658536,53.218033
Berltsumerdyk,28,,,9036MV,Menaam,Menameradiel,Friesland,VBO,5.658279,53.218162
Berltsumerdyk,30,,,9036MV,Menaam,Menameradiel,Friesland,VBO,5.658175,53.218317
Berltsumerdyk,32,,,9036MV,Menaam,Menameradiel,Friesland,VBO,5.657876,53.218426
Berltsumerdyk,34,,,9036MV,Menaam,Menameradiel,Friesland,VBO,5.657607,53.218491
Berltsumerdyk,36,,,9036MX,Menaam,Menameradiel,Friesland,VBO,5.657545,53.218585
Berltsumerdyk,38,,,9036MX,Menaam,Menameradiel,Friesland,VBO,5.657499,53.218643
Berltsumerdyk,40,,,9036MX,Menaam,Menameradiel,Friesland,VBO,5.657394,53.218754
Berltsumerdyk,42,,,9036MX,Menaam,Menameradiel,Friesland,VBO,5.657305,53.218800
Berltsumerdyk,44,,,9036MX,Menaam,Menameradiel,Friesland,VBO,5.657219,53.218845
Berltsumerdyk,46,,,9036MX,Menaam,Menameradiel,Friesland,VBO,5.657134,53.218891
Berltsumerdyk,48,,,9036MX,Menaam,Menameradiel,Friesland,VBO,5.657036,53.218945
Berltsumerdyk,50,,,9036MX,Menaam,Menameradiel,Friesland,VBO,5.656931,53.218973
Berltsumerdyk,60,,,9036MX,Menaam,Menameradiel,Friesland,VBO,5.656617,53.219196
Berltsumerdyk,62,,,9036MX,Menaam,Menameradiel,Friesland,VBO,5.655352,53.219860
Berltsumerdyk,64,,,9036MX,Menaam,Menameradiel,Friesland,VBO,5.656468,53.220729
Ljochtmisdyk,1,,,9036MZ,Menaam,Menameradiel,Friesland,VBO,5.658374,53.216752
Ljochtmisdyk,3,,,9036MZ,Menaam,Menameradiel,Friesland,VBO,5.658174,53.216698
Ljochtmisdyk,7,,,9036MZ,Menaam,Menameradiel,Friesland,VBO,5.657943,53.216650
Ljochtmisdyk,9,,,9036MZ,Menaam,Menameradiel,Friesland,VBO,5.657711,53.216589
Ljochtmisdyk,11,,,9036MZ,Menaam,Menameradiel,Friesland,VBO,5.657520,53.216526
Ljochtmisdyk,13,,,9036MZ,Menaam,Menameradiel,Friesland,VBO,5.657258,53.216489
Ljochtmisdyk,15,,,9036NA,Menaam,Menameradiel,Friesland,VBO,5.656557,53.216298
Ljochtmisdyk,23,,,9036NA,Menaam,Menameradiel,Friesland,VBO,5.656253,53.216230
Ljochtmisdyk,25,,,9036NA,Menaam,Menameradiel,Friesland,VBO,5.656183,53.216213
Ljochtmisdyk,29,,,9036NA,Menaam,Menameradiel,Friesland,VBO,5.655977,53.216167
Ljochtmisdyk,33,,,9036NA,Menaam,Menameradiel,Friesland,VBO,5.655717,53.216111
Ljochtmisdyk,35,,,9036NB,Menaam,Menameradiel,Friesland,VBO,5.655354,53.216015
Ljochtmisdyk,37,,,9036NB,Menaam,Menameradiel,Friesland,VBO,5.655258,53.215993
Ljochtmisdyk,39,,,9036NB,Menaam,Menameradiel,Friesland,VBO,5.655162,53.215972
Ljochtmisdyk,41,,,9036NB,Menaam,Menameradiel,Friesland,VBO,5.655066,53.215950
Ljochtmisdyk,43,,,9036NB,Menaam,Menameradiel,Friesland,VBO,5.654906,53.215889
Jouke Bakkerstrjitte,1,,,9036NC,Menaam,Menameradiel,Friesland,VBO,5.658179,53.215443
Jouke Bakkerstrjitte,3,,,9036NC,Menaam,Menameradiel,Friesland,VBO,5.658075,53.215469
Jouke Bakkerstrjitte,5,,,9036NC,Menaam,Menameradiel,Friesland,VBO,5.657844,53.215559
Jouke Bakkerstrjitte,7,,,9036ND,Menaam,Menameradiel,Friesland,VBO,5.657316,53.215791
Jouke Bakkerstrjitte,9,,,9036ND,Menaam,Menameradiel,Friesland,VBO,5.657079,53.215938
Jouke Bakkerstrjitte,11,,,9036ND,Menaam,Menameradiel,Friesland,VBO,5.656982,53.216086
Jouke Bakkerstrjitte,15,,,9036ND,Menaam,Menameradiel,Friesland,VBO,5.656914,53.216170
Jouke Bakkerstrjitte,2,,,9036NE,Menaam,Menameradiel,Friesland,VBO,5.658410,53.215807
Jouke Bakkerstrjitte,4,,,9036NE,Menaam,Menameradiel,Friesland,VBO,5.658230,53.215728
Jouke Bakkerstrjitte,6,,,9036NE,Menaam,Menameradiel,Friesland,VBO,5.658124,53.215760
Jouke Bakkerstrjitte,8,,,9036NE,Menaam,Menameradiel,Friesland,VBO,5.657943,53.215835
Jouke Bakkerstrjitte,10,,,9036NE,Menaam,Menameradiel,Friesland,VBO,5.657849,53.215877
Jouke Bakkerstrjitte,12,,,9036NE,Menaam,Menameradiel,Friesland,VBO,5.657683,53.215977
Jouke Bakkerstrjitte,14,,,9036NE,Menaam,Menameradiel,Friesland,VBO,5.657618,53.216024
Jouke Bakkerstrjitte,16,,,9036NE,Menaam,Menameradiel,Friesland,VBO,5.657516,53.216143
Sibrandus Leostrjitte,1,,,9036NG,Menaam,Menameradiel,Friesland,VBO,5.657714,53.215546
Sibrandus Leostrjitte,3,,,9036NG,Menaam,Menameradiel,Friesland,VBO,5.657623,53.215449
Sibrandus Leostrjitte,5,,,9036NG,Menaam,Menameradiel,Friesland,VBO,5.657573,53.215411
Sibrandus Leostrjitte,7,,,9036NG,Menaam,Menameradiel,Friesland,VBO,5.657428,53.215304
Sibrandus Leostrjitte,9,,,9036NG,Menaam,Menameradiel,Friesland,VBO,5.657350,53.215243
Sibrandus Leostrjitte,11,,,9036NG,Menaam,Menameradiel,Friesland,VBO,5.657207,53.215120
Sibrandus Leostrjitte,13,,,9036NG,Menaam,Menameradiel,Friesland,VBO,5.657164,53.215086
Sibrandus Leostrjitte,2,,,9036NH,Menaam,Menameradiel,Friesland,VBO,5.657248,53.215727
Sibrandus Leostrjitte,4,,,9036NH,Menaam,Menameradiel,Friesland,VBO,5.657079,53.215576
Sibrandus Leostrjitte,6,,,9036NH,Menaam,Menameradiel,Friesland,VBO,5.657017,53.215526
Sibrandus Leostrjitte,8,,,9036NH,Menaam,Menameradiel,Friesland,VBO,5.656809,53.215364
Sibrandus Leostrjitte,10,,,9036NH,Menaam,Menameradiel,Friesland,VBO,5.656754,53.215317
Sibrandus Leostrjitte,12,,,9036NH,Menaam,Menameradiel,Friesland,VBO,5.656492,53.215119
Sminiawei,1,,,9036NJ,Menaam,Menameradiel,Friesland,VBO,5.656433,53.215538
Sminiawei,2,,,9036NJ,Menaam,Menameradiel,Friesland,VBO,5.656717,53.215614
Sminiawei,3,,,9036NJ,Menaam,Menameradiel,Friesland,VBO,5.656297,53.215589
Sminiawei,4,,,9036NJ,Menaam,Menameradiel,Friesland,VBO,5.656625,53.215647
Sminiawei,5,,,9036NJ,Menaam,Menameradiel,Friesland,VBO,5.656104,53.215626
Sminiawei,6,,,9036NJ,Menaam,Menameradiel,Friesland,VBO,5.656533,53.215680
Sminiawei,7,,,9036NJ,Menaam,Menameradiel,Friesland,VBO,5.656015,53.215660
Sminiawei,8,,,9036NJ,Menaam,Menameradiel,Friesland,VBO,5.656441,53.215713
Sminiawei,9,,,9036NJ,Menaam,Menameradiel,Friesland,VBO,5.655926,53.215694
Sminiawei,10,,,9036NJ,Menaam,Menameradiel,Friesland,VBO,5.656281,53.215785
Sminiawei,11,,,9036NJ,Menaam,Menameradiel,Friesland,VBO,5.655837,53.215729
Sminiawei,12,,,9036NJ,Menaam,Menameradiel,Friesland,VBO,5.656196,53.215815
Sminiawei,13,,,9036NJ,Menaam,Menameradiel,Friesland,VBO,5.655684,53.215785
Sminiawei,14,,,9036NJ,Menaam,Menameradiel,Friesland,VBO,5.656112,53.215845
Sminiawei,15,,,9036NJ,Menaam,Menameradiel,Friesland,VBO,5.655607,53.215813
Sminiawei,16,,,9036NJ,Menaam,Menameradiel,Friesland,VBO,5.656027,53.215875
It War,1,,,9036NK,Menaam,Menameradiel,Friesland,VBO,5.657885,53.214151
It War,3,,,9036NK,Menaam,Menameradiel,Friesland,VBO,5.657603,53.214228
It War,5,,,9036NK,Menaam,Menameradiel,Friesland,VBO,5.657153,53.214439
It War,7,,,9036NK,Menaam,Menameradiel,Friesland,VBO,5.656749,53.214548
It War,9,,,9036NK,Menaam,Menameradiel,Friesland,VBO,5.656301,53.214751
It War,11,,,9036NK,Menaam,Menameradiel,Friesland,VBO,5.655955,53.214885
It War,13,,,9036NK,Menaam,Menameradiel,Friesland,VBO,5.655645,53.214978
It War,15,,,9036NK,Menaam,Menameradiel,Friesland,VBO,5.655191,53.215192
It War,17,,,9036NK,Menaam,Menameradiel,Friesland,VBO,5.654788,53.215300
It War,19,,,9036NK,Menaam,Menameradiel,Friesland,VBO,5.654293,53.215572
It War,2,,,9036NL,Menaam,Menameradiel,Friesland,VBO,5.657648,53.214658
It War,4,,,9036NL,Menaam,Menameradiel,Friesland,VBO,5.657548,53.214696
It War,6,,,9036NL,Menaam,Menameradiel,Friesland,VBO,5.657274,53.214783
It War,8,,,9036NL,Menaam,Menameradiel,Friesland,VBO,5.656978,53.214888
It War,10,,,9036NM,Menaam,Menameradiel,Friesland,VBO,5.656152,53.215256
It War,12,,,9036NM,Menaam,Menameradiel,Friesland,VBO,5.655901,53.215337
It War,14,,,9036NM,Menaam,Menameradiel,Friesland,VBO,5.655598,53.215453
It War,16,,,9036NM,Menaam,Menameradiel,Friesland,VBO,5.655352,53.215553
It War,18,,,9036NM,Menaam,Menameradiel,Friesland,VBO,5.655102,53.215650
De Boech,2,,,9036NN,Menaam,Menameradiel,Friesland,VBO,5.657123,53.214367
De Boech,3,,,9036NN,Menaam,Menameradiel,Friesland,VBO,5.657445,53.213964
De Boech,4,,,9036NN,Menaam,Menameradiel,Friesland,VBO,5.657043,53.214261
De Boech,5,,,9036NN,Menaam,Menameradiel,Friesland,VBO,5.657164,53.213888
De Boech,6,,,9036NN,Menaam,Menameradiel,Friesland,VBO,5.656997,53.214200
De Boech,7,,,9036NN,Menaam,Menameradiel,Friesland,VBO,5.656822,53.213977
De Boech,8,,,9036NN,Menaam,Menameradiel,Friesland,VBO,5.656542,53.214326
De Boech,9,,,9036NN,Menaam,Menameradiel,Friesland,VBO,5.656443,53.214085
De Boech,10,,,9036NN,Menaam,Menameradiel,Friesland,VBO,5.656580,53.214376
De Boech,11,,,9036NN,Menaam,Menameradiel,Friesland,VBO,5.656099,53.214182
De Boech,12,,,9036NN,Menaam,Menameradiel,Friesland,VBO,5.656680,53.214474
De Boech,13,,,9036NN,Menaam,Menameradiel,Friesland,VBO,5.656072,53.214386
De Boech,14,,,9036NP,Menaam,Menameradiel,Friesland,VBO,5.655163,53.215102
De Boech,16,,,9036NP,Menaam,Menameradiel,Friesland,VBO,5.655084,53.214997
De Boech,17,,,9036NP,Menaam,Menameradiel,Friesland,VBO,5.655436,53.214781
De Boech,18,,,9036NP,Menaam,Menameradiel,Friesland,VBO,5.655037,53.214934
De Boech,19,,,9036NP,Menaam,Menameradiel,Friesland,VBO,5.655296,53.214596
De Boech,20,,,9036NP,Menaam,Menameradiel,Friesland,VBO,5.654962,53.214835
De Boech,21,,,9036NP,Menaam,Menameradiel,Friesland,VBO,5.655030,53.214463
De Boech,22,,,9036NP,Menaam,Menameradiel,Friesland,VBO,5.654916,53.214772
De Boech,23,,,9036NP,Menaam,Menameradiel,Friesland,VBO,5.654679,53.214555
De Boech,24,,,9036NP,Menaam,Menameradiel,Friesland,VBO,5.654425,53.214907
De Boech,25,,,9036NP,Menaam,Menameradiel,Friesland,VBO,5.654317,53.214663
De Boech,26,,,9036NP,Menaam,Menameradiel,Friesland,VBO,5.654468,53.214965
De Boech,27,,,9036NP,Menaam,Menameradiel,Friesland,VBO,5.654001,53.214721
De Boech,28,,,9036NP,Menaam,Menameradiel,Friesland,VBO,5.654548,53.215071
De Boech,29,,,9036NP,Menaam,Menameradiel,Friesland,VBO,5.653984,53.214989
De Boech,30,,,9036NP,Menaam,Menameradiel,Friesland,VBO,5.654591,53.215129
De Boech,31,,,9036NP,Menaam,Menameradiel,Friesland,VBO,5.654183,53.215269
De Boech,32,,,9036NP,Menaam,Menameradiel,Friesland,VBO,5.654682,53.215239
De Hekkel,2,,,9036NR,Menaam,Menameradiel,Friesland,VBO,5.655474,53.212536
De Hekkel,4,,,9036NR,Menaam,Menameradiel,Friesland,VBO,5.655227,53.212586
De Hekkel,6,,,9036NR,Menaam,Menameradiel,Friesland,VBO,5.654258,53.212885
De Foarke,3,,,9036NS,Menaam,Menameradiel,Friesland,VBO,5.655655,53.212740
De Foarke,4,,,9036NS,Menaam,Menameradiel,Friesland,VBO,5.656173,53.212725
De Foarke,5,,,9036NS,Menaam,Menameradiel,Friesland,VBO,5.655800,53.212910
De Foarke,6,,,9036NS,Menaam,Menameradiel,Friesland,VBO,5.656246,53.212802
De Foarke,7,,,9036NS,Menaam,Menameradiel,Friesland,VBO,5.655925,53.213061
De Foarke,8,,,9036NS,Menaam,Menameradiel,Friesland,VBO,5.656359,53.212903
De Foarke,9,,,9036NS,Menaam,Menameradiel,Friesland,VBO,5.656075,53.213229
De Foarke,10,,,9036NS,Menaam,Menameradiel,Friesland,VBO,5.656419,53.212973
De Foarke,11,,,9036NS,Menaam,Menameradiel,Friesland,VBO,5.656166,53.213364
De Foarke,12,,,9036NS,Menaam,Menameradiel,Friesland,VBO,5.656525,53.213081
De Foarke,13,,,9036NS,Menaam,Menameradiel,Friesland,VBO,5.655681,53.213571
De Foarke,14,,,9036NS,Menaam,Menameradiel,Friesland,VBO,5.656588,53.213151
De Foarke,15,,,9036NS,Menaam,Menameradiel,Friesland,VBO,5.655641,53.213522
De Foarke,16,,,9036NS,Menaam,Menameradiel,Friesland,VBO,5.656685,53.213258
De Foarke,17,,,9036NS,Menaam,Menameradiel,Friesland,VBO,5.655539,53.213410
De Foarke,18,,,9036NS,Menaam,Menameradiel,Friesland,VBO,5.656755,53.213331
De Foarke,19,,,9036NS,Menaam,Menameradiel,Friesland,VBO,5.655499,53.213358
De Foarke,20,,,9036NS,Menaam,Menameradiel,Friesland,VBO,5.656840,53.213436
De Foarke,21,,,9036NS,Menaam,Menameradiel,Friesland,VBO,5.655414,53.213246
De Foarke,22,,,9036NS,Menaam,Menameradiel,Friesland,VBO,5.656894,53.213496
De Foarke,23,,,9036NS,Menaam,Menameradiel,Friesland,VBO,5.655367,53.213190
De Foarke,25,,,9036NS,Menaam,Menameradiel,Friesland,VBO,5.655286,53.213084
De Foarke,27,,,9036NS,Menaam,Menameradiel,Friesland,VBO,5.655248,53.213032
De Foarke,29,,,9036NS,Menaam,Menameradiel,Friesland,VBO,5.655151,53.212923
De Foarke,31,,,9036NS,Menaam,Menameradiel,Friesland,VBO,5.655111,53.212870
De Foarke,33,,,9036NS,Menaam,Menameradiel,Friesland,VBO,5.654968,53.212703
De Gripe,1,,,9036NT,Menaam,Menameradiel,Friesland,VBO,5.653939,53.213040
De Gripe,3,,,9036NT,Menaam,Menameradiel,Friesland,VBO,5.653820,53.213080
De Gripe,4,,,9036NT,Menaam,Menameradiel,Friesland,VBO,5.654330,53.212957
De Gripe,5,,,9036NT,Menaam,Menameradiel,Friesland,VBO,5.653698,53.213116
De Gripe,6,,,9036NT,Menaam,Menameradiel,Friesland,VBO,5.654393,53.213038
De Gripe,7,,,9036NT,Menaam,Menameradiel,Friesland,VBO,5.653590,53.213147
De Gripe,8,,,9036NT,Menaam,Menameradiel,Friesland,VBO,5.654453,53.213116
De Gripe,9,,,9036NT,Menaam,Menameradiel,Friesland,VBO,5.653458,53.213181
De Gripe,10,,,9036NT,Menaam,Menameradiel,Friesland,VBO,5.654526,53.213197
De Gripe,12,,,9036NT,Menaam,Menameradiel,Friesland,VBO,5.654591,53.213276
De Gripe,13,,,9036NT,Menaam,Menameradiel,Friesland,VBO,5.654101,53.213325
De Gripe,14,,,9036NT,Menaam,Menameradiel,Friesland,VBO,5.654658,53.213359
De Gripe,15,,,9036NT,Menaam,Menameradiel,Friesland,VBO,5.654227,53.213447
De Gripe,16,,,9036NT,Menaam,Menameradiel,Friesland,VBO,5.654716,53.213442
De Gripe,17,,,9036NT,Menaam,Menameradiel,Friesland,VBO,5.654347,53.213589
De Gripe,18,,,9036NT,Menaam,Menameradiel,Friesland,VBO,5.654786,53.213524
De Gripe,19,,,9036NT,Menaam,Menameradiel,Friesland,VBO,5.654434,53.213797
De Gripe,20,,,9036NT,Menaam,Menameradiel,Friesland,VBO,5.654856,53.213603
De Gripe,21,,,9036NT,Menaam,Menameradiel,Friesland,VBO,5.653994,53.213953
De Gripe,22,,,9036NT,Menaam,Menameradiel,Friesland,VBO,5.654919,53.213678
De Gripe,23,,,9036NT,Menaam,Menameradiel,Friesland,VBO,5.653944,53.213893
De Gripe,24,,,9036NT,Menaam,Menameradiel,Friesland,VBO,5.654988,53.213757
De Gripe,25,,,9036NT,Menaam,Menameradiel,Friesland,VBO,5.653864,53.213794
De Gripe,26,,,9036NT,Menaam,Menameradiel,Friesland,VBO,5.653589,53.213999
De Gripe,27,,,9036NT,Menaam,Menameradiel,Friesland,VBO,5.653811,53.213731
De Gripe,28,,,9036NT,Menaam,Menameradiel,Friesland,VBO,5.653407,53.213809
De Gripe,29,,,9036NT,Menaam,Menameradiel,Friesland,VBO,5.653728,53.213630
De Gripe,30,,,9036NT,Menaam,Menameradiel,Friesland,VBO,5.653296,53.213642
De Gripe,31,,,9036NT,Menaam,Menameradiel,Friesland,VBO,5.653675,53.213573
De Gripe,32,,,9036NT,Menaam,Menameradiel,Friesland,VBO,5.653159,53.213505
De Gripe,33,,,9036NT,Menaam,Menameradiel,Friesland,VBO,5.653598,53.213472
De Gripe,34,,,9036NT,Menaam,Menameradiel,Friesland,VBO,5.653056,53.213340
De Gripe,35,,,9036NT,Menaam,Menameradiel,Friesland,VBO,5.653548,53.213410
De Gripe,36,,,9036NT,Menaam,Menameradiel,Friesland,VBO,5.652865,53.213157
De Gripe,37,,,9036NT,Menaam,Menameradiel,Friesland,VBO,5.653336,53.213215
Beckrypleane,1,,,9036PA,Menaam,Menameradiel,Friesland,VBO,5.656660,53.216639
Beckrypleane,2,,,9036PA,Menaam,Menameradiel,Friesland,VBO,5.657031,53.216763
Beckrypleane,4,,,9036PA,Menaam,Menameradiel,Friesland,VBO,5.657060,53.216941
Beckrypleane,5,,,9036PA,Menaam,Menameradiel,Friesland,VBO,5.656512,53.216916
Beckrypleane,6,,,9036PA,Menaam,Menameradiel,Friesland,VBO,5.657010,53.217063
Beckrypleane,7,,,9036PA,Menaam,Menameradiel,Friesland,VBO,5.656367,53.217199
Beckrypleane,8,,,9036PA,Menaam,Menameradiel,Friesland,VBO,5.656973,53.217195
Beckrypleane,9,,,9036PA,Menaam,Menameradiel,Friesland,VBO,5.656355,53.217247
Beckrypleane,10,,,9036PA,Menaam,Menameradiel,Friesland,VBO,5.656929,53.217364
Beckrypleane,11,,,9036PA,Menaam,Menameradiel,Friesland,VBO,5.656334,53.217357
Beckrypleane,12,,,9036PA,Menaam,Menameradiel,Friesland,VBO,5.657014,53.217667
Beckrypleane,13,,,9036PA,Menaam,Menameradiel,Friesland,VBO,5.656321,53.217405
Beckrypleane,14,,,9036PA,Menaam,Menameradiel,Friesland,VBO,5.657156,53.217778
Beckrypleane,15,,,9036PA,Menaam,Menameradiel,Friesland,VBO,5.656346,53.217503
Beckrypleane,16,,,9036PA,Menaam,Menameradiel,Friesland,VBO,5.657292,53.217861
Beckrypleane,17,,,9036PA,Menaam,Menameradiel,Friesland,VBO,5.656365,53.217555
Beckrypleane,18,,,9036PA,Menaam,Menameradiel,Friesland,VBO,5.657439,53.217943
Beckrypleane,19,,,9036PA,Menaam,Menameradiel,Friesland,VBO,5.656673,53.217839
Beckrypleane,21,,,9036PA,Menaam,Menameradiel,Friesland,VBO,5.656808,53.217946
Beckrypleane,23,,,9036PA,Menaam,Menameradiel,Friesland,VBO,5.656863,53.217992
Beckrypleane,25,,,9036PA,Menaam,Menameradiel,Friesland,VBO,5.656956,53.218070
Beckrypleane,27,,,9036PA,Menaam,Menameradiel,Friesland,VBO,5.657012,53.218117
Sint Lambertusstrjitte,2,,,9036PB,Menaam,Menameradiel,Friesland,VBO,5.656049,53.217160
Sint Lambertusstrjitte,4,,,9036PB,Menaam,Menameradiel,Friesland,VBO,5.655948,53.217152
Sint Lambertusstrjitte,6,,,9036PB,Menaam,Menameradiel,Friesland,VBO,5.655780,53.217138
Sint Lambertusstrjitte,8,,,9036PB,Menaam,Menameradiel,Friesland,VBO,5.655684,53.217130
Sint Lambertusstrjitte,10,,,9036PB,Menaam,Menameradiel,Friesland,VBO,5.655495,53.217114
Sint Lambertusstrjitte,12,,,9036PB,Menaam,Menameradiel,Friesland,VBO,5.655405,53.217107
Sint Lambertusstrjitte,14,,,9036PB,Menaam,Menameradiel,Friesland,VBO,5.655233,53.217092
Sint Lambertusstrjitte,16,,,9036PB,Menaam,Menameradiel,Friesland,VBO,5.655137,53.217085
Sint Lambertusstrjitte,18,,,9036PB,Menaam,Menameradiel,Friesland,VBO,5.654991,53.217049
Sint Lambertusstrjitte,20,,,9036PB,Menaam,Menameradiel,Friesland,VBO,5.654909,53.217062
Sint Lambertusstrjitte,22,,,9036PB,Menaam,Menameradiel,Friesland,VBO,5.654801,53.217070
Sint Lambertusstrjitte,24,,,9036PB,Menaam,Menameradiel,Friesland,VBO,5.654756,53.217077
Sint Lambertusstrjitte,26,,,9036PB,Menaam,Menameradiel,Friesland,VBO,5.654664,53.217103
Sint Lambertusstrjitte,28,,,9036PB,Menaam,Menameradiel,Friesland,VBO,5.654582,53.217117
Sint Lambertusstrjitte,3,,,9036PC,Menaam,Menameradiel,Friesland,VBO,5.656140,53.216881
Sint Lambertusstrjitte,5,,,9036PC,Menaam,Menameradiel,Friesland,VBO,5.656028,53.216871
Sint Lambertusstrjitte,7,,,9036PC,Menaam,Menameradiel,Friesland,VBO,5.655936,53.216860
Sint Lambertusstrjitte,9,,,9036PC,Menaam,Menameradiel,Friesland,VBO,5.655803,53.216851
Sint Lambertusstrjitte,11,,,9036PC,Menaam,Menameradiel,Friesland,VBO,5.655691,53.216841
Sint Lambertusstrjitte,13,,,9036PC,Menaam,Menameradiel,Friesland,VBO,5.655603,53.216829
Sint Lambertusstrjitte,15,,,9036PC,Menaam,Menameradiel,Friesland,VBO,5.655467,53.216821
Sint Lambertusstrjitte,17,,,9036PC,Menaam,Menameradiel,Friesland,VBO,5.655355,53.216810
Sint Lambertusstrjitte,19,,,9036PC,Menaam,Menameradiel,Friesland,VBO,5.655242,53.216800
Sint Lambertusstrjitte,21,,,9036PC,Menaam,Menameradiel,Friesland,VBO,5.655098,53.216774
Sint Lambertusstrjitte,23,,,9036PC,Menaam,Menameradiel,Friesland,VBO,5.655016,53.216767
Fleringastrjitte,1,,,9036PD,Menaam,Menameradiel,Friesland,VBO,5.654083,53.216015
Fleringastrjitte,3,,,9036PD,Menaam,Menameradiel,Friesland,VBO,5.654010,53.216134
Fleringastrjitte,5,,,9036PD,Menaam,Menameradiel,Friesland,VBO,5.653919,53.216261
Fleringastrjitte,6,,,9036PD,Menaam,Menameradiel,Friesland,VBO,5.654545,53.216534
Fleringastrjitte,7,,,9036PD,Menaam,Menameradiel,Friesland,VBO,5.654030,53.216579
Fleringastrjitte,8,,,9036PD,Menaam,Menameradiel,Friesland,VBO,5.654696,53.216668
Fleringastrjitte,9,,,9036PD,Menaam,Menameradiel,Friesland,VBO,5.654224,53.216722
Fleringastrjitte,11,,,9036PD,Menaam,Menameradiel,Friesland,VBO,5.654264,53.216759
Fleringastrjitte,13,,,9036PD,Menaam,Menameradiel,Friesland,VBO,5.654372,53.216867
Fleringastrjitte,15,,,9036PD,Menaam,Menameradiel,Friesland,VBO,5.654421,53.216911
Lyaersmastrjitte,1,,,9036PE,Menaam,Menameradiel,Friesland,VBO,5.653634,53.216371
Lyaersmastrjitte,2,,,9036PE,Menaam,Menameradiel,Friesland,VBO,5.653664,53.216675
Lyaersmastrjitte,3,,,9036PE,Menaam,Menameradiel,Friesland,VBO,5.653452,53.216447
Lyaersmastrjitte,4,,,9036PE,Menaam,Menameradiel,Friesland,VBO,5.653450,53.216868
Lyaersmastrjitte,5,,,9036PE,Menaam,Menameradiel,Friesland,VBO,5.653272,53.216542
Lyaersmastrjitte,6,,,9036PE,Menaam,Menameradiel,Friesland,VBO,5.653643,53.217025
Lyaersmastrjitte,7,,,9036PE,Menaam,Menameradiel,Friesland,VBO,5.653082,53.216607
Lyaersmastrjitte,8,,,9036PE,Menaam,Menameradiel,Friesland,VBO,5.653843,53.217163
Lyaersmastrjitte,9,,,9036PE,Menaam,Menameradiel,Friesland,VBO,5.652937,53.216758
Lyaersmastrjitte,10,,,9036PE,Menaam,Menameradiel,Friesland,VBO,5.654025,53.217287
Lyaersmastrjitte,11,,,9036PE,Menaam,Menameradiel,Friesland,VBO,5.653019,53.216944
Lyaersmastrjitte,13,,,9036PE,Menaam,Menameradiel,Friesland,VBO,5.653171,53.217080
Lyaersmastrjitte,15,,,9036PE,Menaam,Menameradiel,Friesland,VBO,5.653327,53.217193
Lyaersmastrjitte,17,,,9036PE,Menaam,Menameradiel,Friesland,VBO,5.653473,53.217323
Lyaersmastrjitte,19,,,9036PE,Menaam,Menameradiel,Friesland,VBO,5.653623,53.217441
Lyaersmastrjitte,21,,,9036PE,Menaam,Menameradiel,Friesland,VBO,5.653776,53.217572
De Swingel,1,,,9036PG,Menaam,Menameradiel,Friesland,VBO,5.656117,53.217704
De Swingel,3,,,9036PG,Menaam,Menameradiel,Friesland,VBO,5.656034,53.217741
De Swingel,4,,,9036PG,Menaam,Menameradiel,Friesland,VBO,5.655865,53.218120
De Swingel,5,,,9036PG,Menaam,Menameradiel,Friesland,VBO,5.655951,53.217778
De Swingel,6,,,9036PG,Menaam,Menameradiel,Friesland,VBO,5.655790,53.218154
De Swingel,7,,,9036PG,Menaam,Menameradiel,Friesland,VBO,5.655804,53.217836
De Swingel,8,,,9036PG,Menaam,Menameradiel,Friesland,VBO,5.655714,53.218188
De Swingel,9,,,9036PG,Menaam,Menameradiel,Friesland,VBO,5.655725,53.217870
De Swingel,10,,,9036PG,Menaam,Menameradiel,Friesland,VBO,5.655639,53.218222
De Swingel,11,,,9036PG,Menaam,Menameradiel,Friesland,VBO,5.655645,53.217903
De Swingel,12,,,9036PG,Menaam,Menameradiel,Friesland,VBO,5.655040,53.218510
De Swingel,13,,,9036PG,Menaam,Menameradiel,Friesland,VBO,5.655566,53.217937
De Swingel,14,,,9036PG,Menaam,Menameradiel,Friesland,VBO,5.654853,53.218590
De Swingel,16,,,9036PG,Menaam,Menameradiel,Friesland,VBO,5.654753,53.218625
De Swingel,17,,,9036PG,Menaam,Menameradiel,Friesland,VBO,5.654396,53.218839
De Swingel,19,,,9036PG,Menaam,Menameradiel,Friesland,VBO,5.654591,53.218985
De Swingel,20,,,9036PG,Menaam,Menameradiel,Friesland,VBO,5.654954,53.218823
De Swingel,21,,,9036PG,Menaam,Menameradiel,Friesland,VBO,5.654750,53.219127
De Swingel,22,,,9036PG,Menaam,Menameradiel,Friesland,VBO,5.655008,53.218875
De Swingel,23,,,9036PG,Menaam,Menameradiel,Friesland,VBO,5.654888,53.219229
De Swingel,24,,,9036PG,Menaam,Menameradiel,Friesland,VBO,5.655127,53.218969
De Swingel,25,,,9036PG,Menaam,Menameradiel,Friesland,VBO,5.655066,53.219326
De Swingel,26,,,9036PG,Menaam,Menameradiel,Friesland,VBO,5.655182,53.219013
De Swingel,28,,,9036PG,Menaam,Menameradiel,Friesland,VBO,5.655316,53.219105
De Swingel,30,,,9036PG,Menaam,Menameradiel,Friesland,VBO,5.655373,53.219151
Fleringastrjitte,2,,,9036PH,Menaam,Menameradiel,Friesland,VBO,5.654507,53.216092
Fleringastrjitte,4,,,9036PH,Menaam,Menameradiel,Friesland,VBO,5.654407,53.216377
Goyckemastrjitte,1,,,9036PJ,Menaam,Menameradiel,Friesland,VBO,5.653713,53.217863
Goyckemastrjitte,2,,,9036PJ,Menaam,Menameradiel,Friesland,VBO,5.654401,53.217510
Goyckemastrjitte,3,,,9036PJ,Menaam,Menameradiel,Friesland,VBO,5.653852,53.217991
Goyckemastrjitte,4,,,9036PJ,Menaam,Menameradiel,Friesland,VBO,5.654334,53.217541
Goyckemastrjitte,5,,,9036PJ,Menaam,Menameradiel,Friesland,VBO,5.654045,53.218123
Goyckemastrjitte,6,,,9036PJ,Menaam,Menameradiel,Friesland,VBO,5.654132,53.217814
Goyckemastrjitte,7,,,9036PJ,Menaam,Menameradiel,Friesland,VBO,5.654236,53.218291
Goyckemastrjitte,8,,,9036PJ,Menaam,Menameradiel,Friesland,VBO,5.654185,53.217855
Goyckemastrjitte,9,,,9036PJ,Menaam,Menameradiel,Friesland,VBO,5.654376,53.218432
Goyckemastrjitte,10,,,9036PJ,Menaam,Menameradiel,Friesland,VBO,5.654295,53.217945
Goyckemastrjitte,12,,,9036PJ,Menaam,Menameradiel,Friesland,VBO,5.654356,53.217997
Goyckemastrjitte,14,,,9036PJ,Menaam,Menameradiel,Friesland,VBO,5.654492,53.218094
Goyckemastrjitte,16,,,9036PJ,Menaam,Menameradiel,Friesland,VBO,5.654555,53.218139
Goyckemastrjitte,18,,,9036PJ,Menaam,Menameradiel,Friesland,VBO,5.654688,53.218238
Goyckemastrjitte,20,,,9036PJ,Menaam,Menameradiel,Friesland,VBO,5.654738,53.218279
Romptastrjitte,1,,,9036PK,Menaam,Menameradiel,Friesland,VBO,5.654628,53.217630
Romptastrjitte,2,,,9036PK,Menaam,Menameradiel,Friesland,VBO,5.654790,53.217351
Romptastrjitte,3,,,9036PK,Menaam,Menameradiel,Friesland,VBO,5.654678,53.217670
Romptastrjitte,4,,,9036PK,Menaam,Menameradiel,Friesland,VBO,5.654839,53.217390
Romptastrjitte,5,,,9036PK,Menaam,Menameradiel,Friesland,VBO,5.654780,53.217754
Romptastrjitte,6,,,9036PK,Menaam,Menameradiel,Friesland,VBO,5.654955,53.217484
Romptastrjitte,7,,,9036PK,Menaam,Menameradiel,Friesland,VBO,5.654832,53.217796
Romptastrjitte,8,,,9036PK,Menaam,Menameradiel,Friesland,VBO,5.655001,53.217523
Romptastrjitte,9,,,9036PK,Menaam,Menameradiel,Friesland,VBO,5.654940,53.217894
Romptastrjitte,10,,,9036PK,Menaam,Menameradiel,Friesland,VBO,5.655157,53.217588
Romptastrjitte,11,,,9036PK,Menaam,Menameradiel,Friesland,VBO,5.654980,53.217926
Romptastrjitte,12,,,9036PK,Menaam,Menameradiel,Friesland,VBO,5.655209,53.217631
Romptastrjitte,13,,,9036PK,Menaam,Menameradiel,Friesland,VBO,5.655097,53.218029
Romptastrjitte,14,,,9036PK,Menaam,Menameradiel,Friesland,VBO,5.655313,53.217718
Romptastrjitte,15,,,9036PK,Menaam,Menameradiel,Friesland,VBO,5.655154,53.218075
Romptastrjitte,16,,,9036PK,Menaam,Menameradiel,Friesland,VBO,5.655363,53.217761
Jan Flamelingstrjitte,4,,,9036VM,Menaam,Menameradiel,Friesland,VBO,5.663879,53.220974
De Stapel,1,,,9036VN,Menaam,Menameradiel,Friesland,VBO,5.664990,53.221591
De Stapel,2,A,,9036VN,Menaam,Menameradiel,Friesland,VBO,5.664754,53.222217
De Stapel,2,,,9036VN,Menaam,Menameradiel,Friesland,VBO,5.664781,53.222503
De Stapel,3,A,,9036VN,Menaam,Menameradiel,Friesland,VBO,5.664294,53.221808
De Stapel,3,B,,9036VN,Menaam,Menameradiel,Friesland,VBO,5.664114,53.221860
De Stapel,3,C,,9036VN,Menaam,Menameradiel,Friesland,VBO,5.663929,53.221914
De Stapel,3,E,,9036VN,Menaam,Menameradiel,Friesland,VBO,5.664379,53.221619
De Stapel,3,F,,9036VN,Menaam,Menameradiel,Friesland,VBO,5.664319,53.221655
De Stapel,3,G,,9036VN,Menaam,Menameradiel,Friesland,VBO,5.664244,53.221664
De Stapel,3,H,,9036VN,Menaam,Menameradiel,Friesland,VBO,5.664185,53.221682
De Stapel,3,I,,9036VN,Menaam,Menameradiel,Friesland,VBO,5.664095,53.221709
De Stapel,3,J,,9036VN,Menaam,Menameradiel,Friesland,VBO,5.664035,53.221727
De Stapel,3,K,,9036VN,Menaam,Menameradiel,Friesland,VBO,5.663990,53.221745
De Stapel,3,L,,9036VN,Menaam,Menameradiel,Friesland,VBO,5.663916,53.221763
De Stapel,3,M,,9036VN,Menaam,Menameradiel,Friesland,VBO,5.663841,53.221790
De Stapel,3,N,,9036VN,Menaam,Menameradiel,Friesland,VBO,5.663781,53.221809
De Stapel,3,,,9036VN,Menaam,Menameradiel,Friesland,VBO,5.664433,53.221764
De Stapel,4,A,,9036VN,Menaam,Menameradiel,Friesland,VBO,5.664323,53.222311
De Stapel,4,,,9036VN,Menaam,Menameradiel,Friesland,VBO,5.664623,53.222694
De Stapel,6,A,,9036VN,Menaam,Menameradiel,Friesland,VBO,5.663708,53.222711
De Stapel,6,,,9036VN,Menaam,Menameradiel,Friesland,VBO,5.664293,53.222906
De Stapel,7,A,,9036VN,Menaam,Menameradiel,Friesland,VBO,5.663589,53.222150
De Stapel,7,,,9036VN,Menaam,Menameradiel,Friesland,VBO,5.663318,53.221998
De Stapel,8,A,,9036VN,Menaam,Menameradiel,Friesland,VBO,5.663504,53.222905
De Stapel,9,A,,9036VN,Menaam,Menameradiel,Friesland,VBO,5.663397,53.222353
De Stapel,9,,,9036VN,Menaam,Menameradiel,Friesland,VBO,5.662930,53.222089
De Stapel,10,A,,9036VN,Menaam,Menameradiel,Friesland,VBO,5.663378,53.223223
De Stapel,11,A,,9036VN,Menaam,Menameradiel,Friesland,VBO,5.662379,53.222578
De Stapel,11,C,,9036VN,Menaam,Menameradiel,Friesland,VBO,5.662870,53.222772
De Stapel,12,A,,9036VN,Menaam,Menameradiel,Friesland,VBO,5.663568,53.223516
De Stapel,12,,,9036VN,Menaam,Menameradiel,Friesland,VBO,5.664068,53.223562
De Stapel,13,A,,9036VN,Menaam,Menameradiel,Friesland,VBO,5.662868,53.222988
De Stapel,14,A,,9036VN,Menaam,Menameradiel,Friesland,VBO,5.663644,53.223687
De Stapel,14,,,9036VN,Menaam,Menameradiel,Friesland,VBO,5.663710,53.223924
De Stapel,15,A,,9036VN,Menaam,Menameradiel,Friesland,VBO,5.662472,53.223141
De Stapel,15,,,9036VN,Menaam,Menameradiel,Friesland,VBO,5.662764,53.223323
De Stapel,17,A,,9036VN,Menaam,Menameradiel,Friesland,VBO,5.662641,53.223779
De Stapel,17,,,9036VN,Menaam,Menameradiel,Friesland,VBO,5.662700,53.223572
De Stapel,19,,,9036VN,Menaam,Menameradiel,Friesland,VBO,5.662882,53.224066
De Stapel,21,,,9036VN,Menaam,Menameradiel,Friesland,VBO,5.663351,53.224218
Ljochtmisdyk,2,A,,9036VP,Menaam,Menameradiel,Friesland,VBO,5.658812,53.217219
Ljochtmisdyk,2,B,,9036VP,Menaam,Menameradiel,Friesland,VBO,5.658842,53.217201
Ljochtmisdyk,2,C,,9036VP,Menaam,Menameradiel,Friesland,VBO,5.658886,53.217183
Ljochtmisdyk,2,D,,9036VP,Menaam,Menameradiel,Friesland,VBO,5.658931,53.217165
Ljochtmisdyk,2,E,,9036VP,Menaam,Menameradiel,Friesland,VBO,5.658755,53.217128
Ljochtmisdyk,2,,,9036VP,Menaam,Menameradiel,Friesland,VBO,5.658834,53.217157
Ljochtmisdyk,4,A,,9036VP,Menaam,Menameradiel,Friesland,VBO,5.658513,53.217319
Ljochtmisdyk,4,B,,9036VP,Menaam,Menameradiel,Friesland,VBO,5.658425,53.217366
Ljochtmisdyk,4,,,9036VP,Menaam,Menameradiel,Friesland,VBO,5.658602,53.217274
Ljochtmisdyk,6,,,9036VP,Menaam,Menameradiel,Friesland,VBO,5.658289,53.217409
Ljochtmisdyk,8,,,9036VP,Menaam,Menameradiel,Friesland,VBO,5.658214,53.217445
Ljochtmisdyk,10,,,9036VP,Menaam,Menameradiel,Friesland,VBO,5.658035,53.217500
Ljochtmisdyk,12,,,9036VP,Menaam,Menameradiel,Friesland,VBO,5.657943,53.217515
Ljochtmisdyk,14,,,9036VP,Menaam,Menameradiel,Friesland,VBO,5.657735,53.217473
Ljochtmisdyk,16,,,9036VP,Menaam,Menameradiel,Friesland,VBO,5.657675,53.217447
Ljochtmisdyk,18,,,9036VP,Menaam,Menameradiel,Friesland,VBO,5.657555,53.217321
Ljochtmisdyk,20,,,9036VP,Menaam,Menameradiel,Friesland,VBO,5.657570,53.217276
Ljochtmisdyk,22,A,,9036VP,Menaam,Menameradiel,Friesland,VBO,5.657628,53.217114
Ljochtmisdyk,22,,,9036VP,Menaam,Menameradiel,Friesland,VBO,5.657614,53.217159
Ljochtmisdyk,24,A,,9036VP,Menaam,Menameradiel,Friesland,VBO,5.657732,53.216943
Ljochtmisdyk,24,B,,9036VP,Menaam,Menameradiel,Friesland,VBO,5.657792,53.216889
Ljochtmisdyk,24,,,9036VP,Menaam,Menameradiel,Friesland,VBO,5.657688,53.217015
Ljochtmisdyk,26,,,9036VP,Menaam,Menameradiel,Friesland,VBO,5.656340,53.216557
Ljochtmisdyk,28,,,9036VP,Menaam,Menameradiel,Friesland,VBO,5.656267,53.216538
Ljochtmisdyk,30,,,9036VP,Menaam,Menameradiel,Friesland,VBO,5.656092,53.216494
Ljochtmisdyk,32,,,9036VP,Menaam,Menameradiel,Friesland,VBO,5.656018,53.216475
Ljochtmisdyk,34,,,9036VP,Menaam,Menameradiel,Friesland,VBO,5.655841,53.216429
Ljochtmisdyk,36,,,9036VP,Menaam,Menameradiel,Friesland,VBO,5.655766,53.216410
Ljochtmisdyk,38,,,9036VP,Menaam,Menameradiel,Friesland,VBO,5.655585,53.216364
Ljochtmisdyk,40,,,9036VP,Menaam,Menameradiel,Friesland,VBO,5.655509,53.216345
Ljochtmisdyk,44,,,9036VP,Menaam,Menameradiel,Friesland,VBO,5.655125,53.216217
Ljochtmisdyk,45,,,9036VP,Menaam,Menameradiel,Friesland,VBO,5.644933,53.213094
Ljochtmisdyk,46,,,9036VP,Menaam,Menameradiel,Friesland,VBO,5.643063,53.212577
Ljochtmisdyk,49,,,9036VP,Menaam,Menameradiel,Friesland,VBO,5.641429,53.211769
Slappeterpsterdyk,4,,,9036VR,Menaam,Menameradiel,Friesland,VBO,5.648790,53.216970
Slappeterpsterdyk,6,,,9036VR,Menaam,Menameradiel,Friesland,VBO,5.648536,53.216803
Slappeterpsterdyk,8,,,9036VR,Menaam,Menameradiel,Friesland,VBO,5.647795,53.216847
Slappeterpsterdyk,10,,,9036VR,Menaam,Menameradiel,Friesland,VBO,5.647713,53.216886
Slappeterpsterdyk,12,A,,9036VR,Menaam,Menameradiel,Friesland,VBO,5.647438,53.217784
Slappeterpsterdyk,12,,,9036VR,Menaam,Menameradiel,Friesland,VBO,5.647212,53.217419
Slappeterpsterdyk,14,,,9036VR,Menaam,Menameradiel,Friesland,VBO,5.639860,53.220675
Slappeterpsterdyk,16,,,9036VR,Menaam,Menameradiel,Friesland,VBO,5.638523,53.220572
Slappeterpsterdyk,18,,,9036VR,Menaam,Menameradiel,Friesland,VBO,5.633654,53.217676
Slappeterpsterdyk,19,,,9036VR,Menaam,Menameradiel,Friesland,VBO,5.632672,53.216916
Bitgumerdyk,1,,,9036VS,Menaam,Menameradiel,Friesland,VBO,5.661706,53.218609
Bitgumerdyk,3,A,,9036VS,Menaam,Menameradiel,Friesland,VBO,5.661413,53.219083
Bitgumerdyk,3,,,9036VS,Menaam,Menameradiel,Friesland,VBO,5.662255,53.218762
Bitgumerdyk,5,,,9036VS,Menaam,Menameradiel,Friesland,VBO,5.662747,53.219086
Bitgumerdyk,7,,,9036VS,Menaam,Menameradiel,Friesland,VBO,5.663091,53.219363
Bitgumerdyk,8,A,,9036VS,Menaam,Menameradiel,Friesland,VBO,5.664059,53.219562
Bitgumerdyk,8,B,,9036VS,Menaam,Menameradiel,Friesland,VBO,5.664341,53.219797
Bitgumerdyk,8,C,,9036VS,Menaam,Menameradiel,Friesland,VBO,5.664499,53.219942
Bitgumerdyk,8,,,9036VS,Menaam,Menameradiel,Friesland,VBO,5.663822,53.219363
Bitgumerdyk,10,A,,9036VS,Menaam,Menameradiel,Friesland,VBO,5.665664,53.219661
Bitgumerdyk,10,,,9036VS,Menaam,Menameradiel,Friesland,VBO,5.664630,53.220046
Bitgumerdyk,11,A,,9036VS,Menaam,Menameradiel,Friesland,VBO,5.662933,53.219785
Bitgumerdyk,11,,,9036VS,Menaam,Menameradiel,Friesland,VBO,5.663293,53.219542
Bitgumerdyk,12,,,9036VS,Menaam,Menameradiel,Friesland,VBO,5.664951,53.220309
Bitgumerdyk,13,,,9036VS,Menaam,Menameradiel,Friesland,VBO,5.663307,53.220049
Bitgumerdyk,14,,,9036VS,Menaam,Menameradiel,Friesland,VBO,5.668792,53.221510
Bitgumerdyk,15,,,9036VS,Menaam,Menameradiel,Friesland,VBO,5.663518,53.219695
Bitgumerdyk,16,,,9036VS,Menaam,Menameradiel,Friesland,VBO,5.671378,53.223726
Bitgumerdyk,17,,,9036VS,Menaam,Menameradiel,Friesland,VBO,5.664770,53.221445
Bitgumerdyk,18,,,9036VS,Menaam,Menameradiel,Friesland,VBO,5.671725,53.224067
Bitgumerdyk,21,A,,9036VS,Menaam,Menameradiel,Friesland,VBO,5.678442,53.226761
Bitgumerdyk,21,,,9036VS,Menaam,Menameradiel,Friesland,VBO,5.690330,53.229779
Bitgumerdyk,22,,,9036VS,Menaam,Menameradiel,Friesland,VBO,5.671852,53.224132
Bitgumerdyk,23,,,9036VS,Menaam,Menameradiel,Friesland,VBO,5.690987,53.230007
Bitgumerdyk,24,,,9036VS,Menaam,Menameradiel,Friesland,VBO,5.676087,53.223493
Bitgumerdyk,28,,,9036VS,Menaam,Menameradiel,Friesland,VBO,5.684989,53.228820
Bitgumerdyk,30,,,9036VS,Menaam,Menameradiel,Friesland,VBO,5.687883,53.229024
Ingelumerdyk,1,A,,9036VT,Menaam,Menameradiel,Friesland,VBO,5.687872,53.217103
Ingelumerdyk,1,,,9036VT,Menaam,Menameradiel,Friesland,VBO,5.687555,53.216919
Ingelumerdyk,2,,,9036VT,Menaam,Menameradiel,Friesland,VBO,5.691792,53.218141
Ingelumerdyk,3,,,9036VT,Menaam,Menameradiel,Friesland,VBO,5.688950,53.217530
Ingelumerdyk,4,,,9036VT,Menaam,Menameradiel,Friesland,VBO,5.693110,53.218654
Fjouwerhûs,1,,,9036VV,Menaam,Menameradiel,Friesland,VBO,5.676870,53.228246
Fjouwerhûs,2,,,9036VV,Menaam,Menameradiel,Friesland,VBO,5.677233,53.228659
Fjouwerhûs,3,,,9036VV,Menaam,Menameradiel,Friesland,VBO,5.680553,53.228975
Fjouwerhûs,4,,,9036VV,Menaam,Menameradiel,Friesland,VBO,5.680676,53.229027
Fjouwerhûs,5,,,9036VV,Menaam,Menameradiel,Friesland,VBO,5.676097,53.231399
Sânwei,1,,,9036VW,Menaam,Menameradiel,Friesland,VBO,5.653575,53.224896
Sânwei,5,,,9036VW,Menaam,Menameradiel,Friesland,VBO,5.657549,53.227124
Sânwei,7,,,9036VW,Menaam,Menameradiel,Friesland,VBO,5.657644,53.227237
Sânwei,9,,,9036VW,Menaam,Menameradiel,Friesland,VBO,5.658898,53.227987
Sânwei,11,,,9036VW,Menaam,Menameradiel,Friesland,VBO,5.658307,53.228544
Sânwei,13,,,9036VW,Menaam,Menameradiel,Friesland,VBO,5.658132,53.228746
Sânwei,17,A,,9036VW,Menaam,Menameradiel,Friesland,VBO,5.657502,53.229157
Sânwei,17,B,,9036VW,Menaam,Menameradiel,Friesland,VBO,5.657392,53.229316
Sânwei,17,,,9036VW,Menaam,Menameradiel,Friesland,VBO,5.657795,53.229017
Sânwei,19,,,9036VW,Menaam,Menameradiel,Friesland,VBO,5.657192,53.229368
Sânwei,21,A,,9036VW,Menaam,Menameradiel,Friesland,VBO,5.653983,53.227959
Sânwei,21,,,9036VW,Menaam,Menameradiel,Friesland,VBO,5.653939,53.228175
Sânwei,22,,,9036VW,Menaam,Menameradiel,Friesland,VBO,5.671805,53.231824
Sânwei,24,,,9036VW,Menaam,Menameradiel,Friesland,VBO,5.672118,53.231912
Sânwei,26,,,9036VW,Menaam,Menameradiel,Friesland,VBO,5.673909,53.232319
Sânwei,27,,,9036VW,Menaam,Menameradiel,Friesland,VBO,5.674170,53.232560
Berltsumerdyk,39,,,9036VX,Menaam,Menameradiel,Friesland,VBO,5.637177,53.228281
Berltsumerdyk,66,A,,9036VX,Menaam,Menameradiel,Friesland,VBO,5.638676,53.229906
Berltsumerdyk,66,,,9036VX,Menaam,Menameradiel,Friesland,VBO,5.638314,53.229774
