openbareruimtenaam,huisnummer,huisletter,huisnummertoevoeging,postcode,woonplaatsnaam,gemeentenaam,provincienaam,typeadresseerbaarobject,longitude,latitude
Ljouwerterdyk,1,,,9074AA,Hallum,Ferwerderadiel,Friesland,VBO,5.793496,53.317315
Ljouwerterdyk,2,,,9074AA,Hallum,Ferwerderadiel,Friesland,VBO,5.792713,53.317398
Ljouwerterdyk,3,,,9074AA,Hallum,Ferwerderadiel,Friesland,VBO,5.788616,53.313265
Ljouwerterdyk,4,,,9074AA,Hallum,Ferwerderadiel,Friesland,VBO,5.792387,53.316999
Ljouwerterdyk,5,,,9074AA,Hallum,Ferwerderadiel,Friesland,VBO,5.787131,53.311338
Ljouwerterdyk,6,,,9074AA,Hallum,Ferwerderadiel,Friesland,VBO,5.791919,53.316805
Ljouwerterdyk,7,A,,9074AA,Hallum,Ferwerderadiel,Friesland,VBO,5.779200,53.303974
Ljouwerterdyk,7,,,9074AA,Hallum,Ferwerderadiel,Friesland,VBO,5.786488,53.311238
Ljouwerterdyk,8,,,9074AA,Hallum,Ferwerderadiel,Friesland,VBO,5.791713,53.316760
Ljouwerterdyk,9,A,,9074AA,Hallum,Ferwerderadiel,Friesland,VBO,5.785526,53.309897
Ljouwerterdyk,9,,,9074AA,Hallum,Ferwerderadiel,Friesland,VBO,5.785865,53.310180
Ljouwerterdyk,10,,,9074AA,Hallum,Ferwerderadiel,Friesland,VBO,5.788192,53.313401
Ljouwerterdyk,12,,,9074AA,Hallum,Ferwerderadiel,Friesland,VBO,5.784521,53.310636
Griene dyk,2,,,9074AB,Hallum,Ferwerderadiel,Friesland,VBO,5.779283,53.304576
Griene dyk,4,,,9074AB,Hallum,Ferwerderadiel,Friesland,VBO,5.779280,53.304865
Griene dyk,6,,,9074AB,Hallum,Ferwerderadiel,Friesland,VBO,5.779288,53.305030
Griene dyk,10,,,9074AB,Hallum,Ferwerderadiel,Friesland,VBO,5.779324,53.305168
Griene dyk,12,,,9074AB,Hallum,Ferwerderadiel,Friesland,VBO,5.779348,53.305223
Griene dyk,14,,,9074AB,Hallum,Ferwerderadiel,Friesland,VBO,5.779346,53.305334
Griene dyk,16,,,9074AB,Hallum,Ferwerderadiel,Friesland,VBO,5.779371,53.305387
Griene dyk,18,,,9074AB,Hallum,Ferwerderadiel,Friesland,VBO,5.779379,53.305490
Griene dyk,20,,,9074AB,Hallum,Ferwerderadiel,Friesland,VBO,5.779347,53.305544
Griene dyk,22,,,9074AB,Hallum,Ferwerderadiel,Friesland,VBO,5.779366,53.305665
Griene dyk,24,,,9074AB,Hallum,Ferwerderadiel,Friesland,VBO,5.779397,53.305724
Griene dyk,26,,,9074AC,Hallum,Ferwerderadiel,Friesland,VBO,5.779427,53.305783
Griene dyk,28,,,9074AC,Hallum,Ferwerderadiel,Friesland,VBO,5.779458,53.305842
Griene dyk,30,,,9074AC,Hallum,Ferwerderadiel,Friesland,VBO,5.779477,53.305919
Griene dyk,32,,,9074AC,Hallum,Ferwerderadiel,Friesland,VBO,5.779508,53.305976
Griene dyk,34,,,9074AC,Hallum,Ferwerderadiel,Friesland,VBO,5.779539,53.306032
Griene dyk,36,,,9074AC,Hallum,Ferwerderadiel,Friesland,VBO,5.779570,53.306089
Griene dyk,38,,,9074AC,Hallum,Ferwerderadiel,Friesland,VBO,5.779597,53.306158
Griene dyk,40,,,9074AC,Hallum,Ferwerderadiel,Friesland,VBO,5.779627,53.306222
Griene dyk,42,,,9074AC,Hallum,Ferwerderadiel,Friesland,VBO,5.779656,53.306285
Griene dyk,44,,,9074AC,Hallum,Ferwerderadiel,Friesland,VBO,5.779686,53.306349
Griene dyk,46,,,9074AC,Hallum,Ferwerderadiel,Friesland,VBO,5.779729,53.306445
Griene dyk,48,,,9074AC,Hallum,Ferwerderadiel,Friesland,VBO,5.779917,53.306998
Griene dyk,52,,,9074AD,Hallum,Ferwerderadiel,Friesland,VBO,5.781894,53.308651
Griene dyk,54,,,9074AD,Hallum,Ferwerderadiel,Friesland,VBO,5.781990,53.308691
Griene dyk,56,,,9074AD,Hallum,Ferwerderadiel,Friesland,VBO,5.782076,53.308719
Griene dyk,58,,,9074AD,Hallum,Ferwerderadiel,Friesland,VBO,5.782114,53.308743
Griene dyk,68,,,9074AD,Hallum,Ferwerderadiel,Friesland,VBO,5.782314,53.308788
Griene dyk,70,,,9074AD,Hallum,Ferwerderadiel,Friesland,VBO,5.782566,53.308870
Griene dyk,72,,,9074AD,Hallum,Ferwerderadiel,Friesland,VBO,5.782822,53.308971
Griene dyk,74,,,9074AD,Hallum,Ferwerderadiel,Friesland,VBO,5.783019,53.309133
Griene dyk,76,,,9074AD,Hallum,Ferwerderadiel,Friesland,VBO,5.783212,53.309252
Griene dyk,78,,,9074AD,Hallum,Ferwerderadiel,Friesland,VBO,5.783447,53.309347
Griene dyk,80,,,9074AD,Hallum,Ferwerderadiel,Friesland,VBO,5.783600,53.309467
Griene dyk,82,,,9074AD,Hallum,Ferwerderadiel,Friesland,VBO,5.783923,53.309536
Griene dyk,84,,,9074AD,Hallum,Ferwerderadiel,Friesland,VBO,5.784172,53.309489
Doniaweg,1,,,9074AE,Hallum,Ferwerderadiel,Friesland,VBO,5.781122,53.307184
Doniaweg,2,,,9074AE,Hallum,Ferwerderadiel,Friesland,VBO,5.781110,53.307588
Doniaweg,3,,,9074AE,Hallum,Ferwerderadiel,Friesland,VBO,5.780954,53.307230
Doniaweg,4,,,9074AE,Hallum,Ferwerderadiel,Friesland,VBO,5.780744,53.307757
Doniaweg,5,,,9074AE,Hallum,Ferwerderadiel,Friesland,VBO,5.780827,53.307271
Doniaweg,6,,,9074AE,Hallum,Ferwerderadiel,Friesland,VBO,5.780628,53.307799
Doniaweg,7,,,9074AE,Hallum,Ferwerderadiel,Friesland,VBO,5.780687,53.307306
Doniaweg,9,,,9074AE,Hallum,Ferwerderadiel,Friesland,VBO,5.780503,53.307355
Doniaweg,10,,,9074AE,Hallum,Ferwerderadiel,Friesland,VBO,5.779342,53.308106
Doniaweg,11,,,9074AE,Hallum,Ferwerderadiel,Friesland,VBO,5.780241,53.307470
Doniaweg,12,A,,9074AE,Hallum,Ferwerderadiel,Friesland,VBO,5.779815,53.308687
Doniaweg,14,,,9074AE,Hallum,Ferwerderadiel,Friesland,VBO,5.779099,53.308123
Doniaweg,16,,,9074AE,Hallum,Ferwerderadiel,Friesland,VBO,5.778820,53.308145
Doniaweg,18,,,9074AE,Hallum,Ferwerderadiel,Friesland,VBO,5.778682,53.308153
Doniaweg,20,,,9074AE,Hallum,Ferwerderadiel,Friesland,VBO,5.778372,53.308167
Doniaweg,22,,,9074AE,Hallum,Ferwerderadiel,Friesland,VBO,5.778230,53.308153
Doniaweg,24,,,9074AE,Hallum,Ferwerderadiel,Friesland,VBO,5.778088,53.308158
Doniaweg,26,,,9074AE,Hallum,Ferwerderadiel,Friesland,VBO,5.777947,53.308162
Doniaweg,28,A,,9074AE,Hallum,Ferwerderadiel,Friesland,VBO,5.776404,53.308854
Doniaweg,28,,,9074AE,Hallum,Ferwerderadiel,Friesland,VBO,5.777450,53.308230
Doniaweg,15,A,,9074AG,Hallum,Ferwerderadiel,Friesland,VBO,5.778738,53.307388
Doniaweg,15,B,,9074AG,Hallum,Ferwerderadiel,Friesland,VBO,5.778955,53.306979
Doniaweg,15,,,9074AG,Hallum,Ferwerderadiel,Friesland,VBO,5.778663,53.306623
Doniaweg,17,,,9074AG,Hallum,Ferwerderadiel,Friesland,VBO,5.778945,53.307789
Doniaweg,19,,,9074AG,Hallum,Ferwerderadiel,Friesland,VBO,5.778853,53.307795
Doniaweg,21,,,9074AG,Hallum,Ferwerderadiel,Friesland,VBO,5.778632,53.307804
Doniaweg,23,,,9074AG,Hallum,Ferwerderadiel,Friesland,VBO,5.778537,53.307808
Doniaweg,25,,,9074AG,Hallum,Ferwerderadiel,Friesland,VBO,5.778399,53.307805
Doniaweg,27,,,9074AG,Hallum,Ferwerderadiel,Friesland,VBO,5.778305,53.307805
Doniaweg,29,,,9074AG,Hallum,Ferwerderadiel,Friesland,VBO,5.778079,53.307806
Doniaweg,31,,,9074AG,Hallum,Ferwerderadiel,Friesland,VBO,5.777987,53.307806
Doniaweg,33,,,9074AG,Hallum,Ferwerderadiel,Friesland,VBO,5.778098,53.307308
Doniaweg,41,,,9074AG,Hallum,Ferwerderadiel,Friesland,VBO,5.776669,53.307629
Doniaweg,43,A,,9074AG,Hallum,Ferwerderadiel,Friesland,VBO,5.775364,53.307595
Spokepad,2,,,9074AH,Hallum,Ferwerderadiel,Friesland,VBO,5.784243,53.307792
Spokepad,4,,,9074AH,Hallum,Ferwerderadiel,Friesland,VBO,5.783859,53.307787
Spokepad,5,,,9074AH,Hallum,Ferwerderadiel,Friesland,VBO,5.783227,53.307868
Spokepad,6,,,9074AH,Hallum,Ferwerderadiel,Friesland,VBO,5.783497,53.307968
Spokepad,7,,,9074AH,Hallum,Ferwerderadiel,Friesland,VBO,5.783128,53.307917
Spokepad,8,,,9074AH,Hallum,Ferwerderadiel,Friesland,VBO,5.783344,53.308048
Offingaweg,1,B,,9074AJ,Hallum,Ferwerderadiel,Friesland,VBO,5.785053,53.309145
Offingaweg,1,C,,9074AJ,Hallum,Ferwerderadiel,Friesland,VBO,5.784737,53.308841
Offingaweg,1,D,,9074AJ,Hallum,Ferwerderadiel,Friesland,VBO,5.783431,53.308236
Offingaweg,3,,,9074AJ,Hallum,Ferwerderadiel,Friesland,VBO,5.783228,53.308152
Offingaweg,5,,,9074AJ,Hallum,Ferwerderadiel,Friesland,VBO,5.783175,53.308119
Offingaweg,7,,,9074AJ,Hallum,Ferwerderadiel,Friesland,VBO,5.782988,53.307974
Offingaweg,9,,,9074AJ,Hallum,Ferwerderadiel,Friesland,VBO,5.782933,53.307934
Offingaweg,11,,,9074AJ,Hallum,Ferwerderadiel,Friesland,VBO,5.782769,53.307816
Offingaweg,13,,,9074AJ,Hallum,Ferwerderadiel,Friesland,VBO,5.782706,53.307709
Offingaweg,15,,,9074AJ,Hallum,Ferwerderadiel,Friesland,VBO,5.782613,53.307543
Offingaweg,17,,,9074AJ,Hallum,Ferwerderadiel,Friesland,VBO,5.782428,53.307360
Offingaweg,19,,,9074AJ,Hallum,Ferwerderadiel,Friesland,VBO,5.782225,53.307325
Offingaweg,2,A,,9074AK,Hallum,Ferwerderadiel,Friesland,VBO,5.784436,53.309214
Offingaweg,2,,,9074AK,Hallum,Ferwerderadiel,Friesland,VBO,5.784528,53.309374
Offingaweg,4,,,9074AK,Hallum,Ferwerderadiel,Friesland,VBO,5.784388,53.309172
Offingaweg,6,,,9074AK,Hallum,Ferwerderadiel,Friesland,VBO,5.784273,53.309072
Offingaweg,8,,,9074AK,Hallum,Ferwerderadiel,Friesland,VBO,5.784169,53.309001
Offingaweg,10,,,9074AK,Hallum,Ferwerderadiel,Friesland,VBO,5.784103,53.308961
Offingaweg,12,,,9074AK,Hallum,Ferwerderadiel,Friesland,VBO,5.784001,53.308896
Offingaweg,14,,,9074AK,Hallum,Ferwerderadiel,Friesland,VBO,5.783886,53.308843
Offingaweg,16,,,9074AK,Hallum,Ferwerderadiel,Friesland,VBO,5.783747,53.308798
Offingaweg,18,,,9074AK,Hallum,Ferwerderadiel,Friesland,VBO,5.783390,53.308658
Offingaweg,20,,,9074AK,Hallum,Ferwerderadiel,Friesland,VBO,5.783259,53.308578
Offingaweg,22,,,9074AK,Hallum,Ferwerderadiel,Friesland,VBO,5.783141,53.308538
Offingaweg,24,,,9074AK,Hallum,Ferwerderadiel,Friesland,VBO,5.782998,53.308476
Offingaweg,26,,,9074AK,Hallum,Ferwerderadiel,Friesland,VBO,5.782862,53.308412
Offingaweg,28,,,9074AK,Hallum,Ferwerderadiel,Friesland,VBO,5.782672,53.308296
Offingaweg,30,,,9074AK,Hallum,Ferwerderadiel,Friesland,VBO,5.782543,53.308227
Offingaweg,32,,,9074AK,Hallum,Ferwerderadiel,Friesland,VBO,5.781805,53.308183
Offingaweg,34,,,9074AK,Hallum,Ferwerderadiel,Friesland,VBO,5.781566,53.307771
Rondweg,2,,,9074AL,Hallum,Ferwerderadiel,Friesland,VBO,5.783783,53.308281
Rondweg,4,,,9074AL,Hallum,Ferwerderadiel,Friesland,VBO,5.783895,53.308228
Rondweg,6,,,9074AL,Hallum,Ferwerderadiel,Friesland,VBO,5.784018,53.308155
Rondweg,10,,,9074AL,Hallum,Ferwerderadiel,Friesland,VBO,5.784308,53.308034
Rondweg,12,,,9074AL,Hallum,Ferwerderadiel,Friesland,VBO,5.784464,53.307993
Rondweg,14,,,9074AL,Hallum,Ferwerderadiel,Friesland,VBO,5.784551,53.307963
Rondweg,16,,,9074AL,Hallum,Ferwerderadiel,Friesland,VBO,5.784664,53.307845
Rondweg,1,,,9074AM,Hallum,Ferwerderadiel,Friesland,VBO,5.784707,53.308240
Rondweg,3,A,,9074AM,Hallum,Ferwerderadiel,Friesland,VBO,5.785677,53.308133
Rondweg,3,,,9074AM,Hallum,Ferwerderadiel,Friesland,VBO,5.785215,53.308231
Rondweg,5,,,9074AM,Hallum,Ferwerderadiel,Friesland,VBO,5.786356,53.307928
Rondweg,7,,,9074AM,Hallum,Ferwerderadiel,Friesland,VBO,5.786448,53.307911
Rondweg,9,,,9074AM,Hallum,Ferwerderadiel,Friesland,VBO,5.786641,53.307874
Rondweg,11,A,,9074AM,Hallum,Ferwerderadiel,Friesland,VBO,5.786904,53.307813
Rondweg,11,B,,9074AM,Hallum,Ferwerderadiel,Friesland,VBO,5.787171,53.307764
Rondweg,11,C,,9074AM,Hallum,Ferwerderadiel,Friesland,VBO,5.787464,53.307588
Rondweg,11,D,,9074AM,Hallum,Ferwerderadiel,Friesland,VBO,5.787174,53.307939
Rondweg,11,,,9074AM,Hallum,Ferwerderadiel,Friesland,VBO,5.786728,53.307858
Rondweg,28,,,9074AM,Hallum,Ferwerderadiel,Friesland,VBO,5.786278,53.307589
Rondweg,30,,,9074AM,Hallum,Ferwerderadiel,Friesland,VBO,5.786998,53.307479
Rondweg,32,,,9074AM,Hallum,Ferwerderadiel,Friesland,VBO,5.787106,53.307386
Rondweg,34,,,9074AM,Hallum,Ferwerderadiel,Friesland,VBO,5.787162,53.307299
De Trânse,5,,,9074AN,Hallum,Ferwerderadiel,Friesland,VBO,5.787692,53.307717
De Trânse,7,,,9074AN,Hallum,Ferwerderadiel,Friesland,VBO,5.787749,53.307759
Rondweg,13,,,9074AN,Hallum,Ferwerderadiel,Friesland,VBO,5.787562,53.306960
Rondweg,15,,,9074AN,Hallum,Ferwerderadiel,Friesland,VBO,5.787240,53.306793
Rondweg,17,A,,9074AN,Hallum,Ferwerderadiel,Friesland,VBO,5.787135,53.306580
Rondweg,17,,,9074AN,Hallum,Ferwerderadiel,Friesland,VBO,5.786985,53.306732
Rondweg,36,,,9074AN,Hallum,Ferwerderadiel,Friesland,VBO,5.787192,53.307155
Rondweg,38,,,9074AN,Hallum,Ferwerderadiel,Friesland,VBO,5.787123,53.307095
Rondweg,40,,,9074AN,Hallum,Ferwerderadiel,Friesland,VBO,5.787051,53.306998
Rondweg,42,,,9074AN,Hallum,Ferwerderadiel,Friesland,VBO,5.786900,53.306937
Rondweg,44,,,9074AN,Hallum,Ferwerderadiel,Friesland,VBO,5.786718,53.306823
Rondweg,50,,,9074AN,Hallum,Ferwerderadiel,Friesland,VBO,5.786584,53.306749
Rondweg,21,,,9074AP,Hallum,Ferwerderadiel,Friesland,VBO,5.786313,53.306449
Rondweg,23,A,,9074AP,Hallum,Ferwerderadiel,Friesland,VBO,5.786111,53.306306
Rondweg,23,,,9074AP,Hallum,Ferwerderadiel,Friesland,VBO,5.786214,53.306328
Rondweg,25,A,,9074AP,Hallum,Ferwerderadiel,Friesland,VBO,5.786016,53.306215
Rondweg,25,,,9074AP,Hallum,Ferwerderadiel,Friesland,VBO,5.786056,53.306275
Rondweg,27,,,9074AP,Hallum,Ferwerderadiel,Friesland,VBO,5.785789,53.306181
Rondweg,29,,,9074AP,Hallum,Ferwerderadiel,Friesland,VBO,5.785633,53.305794
Rondweg,52,,,9074AP,Hallum,Ferwerderadiel,Friesland,VBO,5.786417,53.306681
Rondweg,54,,,9074AP,Hallum,Ferwerderadiel,Friesland,VBO,5.786184,53.306543
Rondweg,58,,,9074AP,Hallum,Ferwerderadiel,Friesland,VBO,5.785827,53.306423
Rondweg,60,,,9074AP,Hallum,Ferwerderadiel,Friesland,VBO,5.785649,53.306312
Rondweg,68,,,9074AP,Hallum,Ferwerderadiel,Friesland,VBO,5.785200,53.306085
Jouwsmastraat,1,,,9074AR,Hallum,Ferwerderadiel,Friesland,VBO,5.785964,53.308308
Jouwsmastraat,2,A,,9074AR,Hallum,Ferwerderadiel,Friesland,VBO,5.786117,53.307977
Jouwsmastraat,2,B,,9074AR,Hallum,Ferwerderadiel,Friesland,VBO,5.786158,53.308030
Jouwsmastraat,2,,,9074AR,Hallum,Ferwerderadiel,Friesland,VBO,5.786236,53.308153
Jouwsmastraat,3,,,9074AR,Hallum,Ferwerderadiel,Friesland,VBO,5.786002,53.308356
Jouwsmastraat,4,,,9074AR,Hallum,Ferwerderadiel,Friesland,VBO,5.786284,53.308216
Jouwsmastraat,6,,,9074AR,Hallum,Ferwerderadiel,Friesland,VBO,5.786333,53.308279
Finne,1,,,9074AS,Hallum,Ferwerderadiel,Friesland,VBO,5.786438,53.308727
Finne,2,,,9074AS,Hallum,Ferwerderadiel,Friesland,VBO,5.785904,53.308638
Finne,4,,,9074AS,Hallum,Ferwerderadiel,Friesland,VBO,5.785993,53.308608
Finne,5,,,9074AS,Hallum,Ferwerderadiel,Friesland,VBO,5.786613,53.308673
Finne,6,,,9074AS,Hallum,Ferwerderadiel,Friesland,VBO,5.786083,53.308578
Finne,7,,,9074AS,Hallum,Ferwerderadiel,Friesland,VBO,5.786700,53.308646
Finne,8,,,9074AS,Hallum,Ferwerderadiel,Friesland,VBO,5.786173,53.308548
Finne,9,,,9074AS,Hallum,Ferwerderadiel,Friesland,VBO,5.786948,53.308544
Finne,11,,,9074AS,Hallum,Ferwerderadiel,Friesland,VBO,5.787014,53.308578
Finne,13,,,9074AS,Hallum,Ferwerderadiel,Friesland,VBO,5.787284,53.308442
Finne,15,,,9074AS,Hallum,Ferwerderadiel,Friesland,VBO,5.787377,53.308408
Finne,17,,,9074AS,Hallum,Ferwerderadiel,Friesland,VBO,5.787470,53.308374
Finne,19,,,9074AS,Hallum,Ferwerderadiel,Friesland,VBO,5.787563,53.308340
Finne,21,,,9074AS,Hallum,Ferwerderadiel,Friesland,VBO,5.787695,53.308295
Finne,23,,,9074AS,Hallum,Ferwerderadiel,Friesland,VBO,5.787772,53.308269
Finne,25,,,9074AS,Hallum,Ferwerderadiel,Friesland,VBO,5.787905,53.308231
Finne,27,,,9074AS,Hallum,Ferwerderadiel,Friesland,VBO,5.787994,53.308200
Finne,29,,,9074AS,Hallum,Ferwerderadiel,Friesland,VBO,5.788082,53.308168
Finne,31,,,9074AS,Hallum,Ferwerderadiel,Friesland,VBO,5.788171,53.308137
Finne,10,,,9074AT,Hallum,Ferwerderadiel,Friesland,VBO,5.786473,53.308429
Finne,12,,,9074AT,Hallum,Ferwerderadiel,Friesland,VBO,5.786564,53.308399
Finne,14,,,9074AT,Hallum,Ferwerderadiel,Friesland,VBO,5.786655,53.308370
Finne,16,,,9074AT,Hallum,Ferwerderadiel,Friesland,VBO,5.786746,53.308341
Finne,18,,,9074AT,Hallum,Ferwerderadiel,Friesland,VBO,5.786870,53.308299
Finne,20,,,9074AT,Hallum,Ferwerderadiel,Friesland,VBO,5.786960,53.308265
Finne,22,,,9074AT,Hallum,Ferwerderadiel,Friesland,VBO,5.787050,53.308232
Finne,24,,,9074AT,Hallum,Ferwerderadiel,Friesland,VBO,5.787139,53.308198
Finne,26,,,9074AT,Hallum,Ferwerderadiel,Friesland,VBO,5.787267,53.308136
Finne,28,,,9074AT,Hallum,Ferwerderadiel,Friesland,VBO,5.787361,53.308106
Finne,30,,,9074AT,Hallum,Ferwerderadiel,Friesland,VBO,5.787456,53.308077
Finne,32,,,9074AT,Hallum,Ferwerderadiel,Friesland,VBO,5.787550,53.308048
Finne,34,,,9074AT,Hallum,Ferwerderadiel,Friesland,VBO,5.787706,53.308006
Finne,36,,,9074AT,Hallum,Ferwerderadiel,Friesland,VBO,5.787790,53.307976
Finne,38,,,9074AT,Hallum,Ferwerderadiel,Friesland,VBO,5.787874,53.307947
Finne,40,,,9074AT,Hallum,Ferwerderadiel,Friesland,VBO,5.787958,53.307918
Finne,33,,,9074AV,Hallum,Ferwerderadiel,Friesland,VBO,5.788517,53.307951
Finne,35,,,9074AV,Hallum,Ferwerderadiel,Friesland,VBO,5.788595,53.307907
Finne,37,,,9074AV,Hallum,Ferwerderadiel,Friesland,VBO,5.788673,53.307862
Finne,39,,,9074AV,Hallum,Ferwerderadiel,Friesland,VBO,5.788751,53.307818
Finne,41,,,9074AV,Hallum,Ferwerderadiel,Friesland,VBO,5.788823,53.307766
Finne,42,,,9074AV,Hallum,Ferwerderadiel,Friesland,VBO,5.788677,53.307433
Finne,43,,,9074AV,Hallum,Ferwerderadiel,Friesland,VBO,5.788901,53.307725
Finne,45,,,9074AV,Hallum,Ferwerderadiel,Friesland,VBO,5.788979,53.307684
Finne,47,,,9074AV,Hallum,Ferwerderadiel,Friesland,VBO,5.789057,53.307643
Finne,49,,,9074AV,Hallum,Ferwerderadiel,Friesland,VBO,5.789147,53.307591
Finne,51,,,9074AV,Hallum,Ferwerderadiel,Friesland,VBO,5.789223,53.307548
Finne,53,,,9074AV,Hallum,Ferwerderadiel,Friesland,VBO,5.789298,53.307505
Finne,55,,,9074AV,Hallum,Ferwerderadiel,Friesland,VBO,5.789373,53.307462
Finne,57,,,9074AV,Hallum,Ferwerderadiel,Friesland,VBO,5.789461,53.307409
Finne,59,,,9074AV,Hallum,Ferwerderadiel,Friesland,VBO,5.789540,53.307366
Finne,61,,,9074AV,Hallum,Ferwerderadiel,Friesland,VBO,5.789618,53.307324
Finne,63,,,9074AV,Hallum,Ferwerderadiel,Friesland,VBO,5.789697,53.307281
Finne,65,,,9074AW,Hallum,Ferwerderadiel,Friesland,VBO,5.789978,53.307160
Finne,67,,,9074AW,Hallum,Ferwerderadiel,Friesland,VBO,5.790059,53.307211
Finne,69,,,9074AW,Hallum,Ferwerderadiel,Friesland,VBO,5.790140,53.307261
Finne,71,,,9074AW,Hallum,Ferwerderadiel,Friesland,VBO,5.790221,53.307311
Finne,73,,,9074AW,Hallum,Ferwerderadiel,Friesland,VBO,5.790443,53.307167
Finne,75,,,9074AW,Hallum,Ferwerderadiel,Friesland,VBO,5.790382,53.307115
Finne,77,,,9074AW,Hallum,Ferwerderadiel,Friesland,VBO,5.790321,53.307063
Finne,79,,,9074AW,Hallum,Ferwerderadiel,Friesland,VBO,5.790260,53.307010
Poartebuorren,2,,,9074AX,Hallum,Ferwerderadiel,Friesland,VBO,5.787864,53.307066
Poartebuorren,4,,,9074AX,Hallum,Ferwerderadiel,Friesland,VBO,5.788181,53.306946
Poartebuorren,7,,,9074AX,Hallum,Ferwerderadiel,Friesland,VBO,5.787774,53.307213
Poartebuorren,9,,,9074AX,Hallum,Ferwerderadiel,Friesland,VBO,5.788010,53.307122
Poartebuorren,11,,,9074AX,Hallum,Ferwerderadiel,Friesland,VBO,5.788070,53.307086
Poartebuorren,13,,,9074AX,Hallum,Ferwerderadiel,Friesland,VBO,5.788289,53.307038
Poartebuorren,15,,,9074AX,Hallum,Ferwerderadiel,Friesland,VBO,5.788545,53.306894
Sythiemastrjitte,1,,,9074AZ,Hallum,Ferwerderadiel,Friesland,VBO,5.787975,53.306274
Sythiemastrjitte,3,,,9074AZ,Hallum,Ferwerderadiel,Friesland,VBO,5.788036,53.306325
Sythiemastrjitte,5,,,9074AZ,Hallum,Ferwerderadiel,Friesland,VBO,5.788097,53.306376
Sythiemastrjitte,7,,,9074AZ,Hallum,Ferwerderadiel,Friesland,VBO,5.788158,53.306427
Sythiemastrjitte,9,,,9074AZ,Hallum,Ferwerderadiel,Friesland,VBO,5.788226,53.306493
Sythiemastrjitte,11,,,9074AZ,Hallum,Ferwerderadiel,Friesland,VBO,5.788287,53.306545
Sythiemastrjitte,13,,,9074AZ,Hallum,Ferwerderadiel,Friesland,VBO,5.788347,53.306597
Sythiemastrjitte,15,,,9074AZ,Hallum,Ferwerderadiel,Friesland,VBO,5.788407,53.306649
Sythiemastrjitte,17,,,9074AZ,Hallum,Ferwerderadiel,Friesland,VBO,5.788462,53.306727
Sythiemastrjitte,19,,,9074AZ,Hallum,Ferwerderadiel,Friesland,VBO,5.788511,53.306772
Sythiemastrjitte,2,,,9074BA,Hallum,Ferwerderadiel,Friesland,VBO,5.788233,53.306128
Sythiemastrjitte,4,,,9074BA,Hallum,Ferwerderadiel,Friesland,VBO,5.788298,53.306183
Sythiemastrjitte,6,,,9074BA,Hallum,Ferwerderadiel,Friesland,VBO,5.788363,53.306238
Sythiemastrjitte,8,,,9074BA,Hallum,Ferwerderadiel,Friesland,VBO,5.788429,53.306293
Sythiemastrjitte,10,,,9074BA,Hallum,Ferwerderadiel,Friesland,VBO,5.788509,53.306357
Sythiemastrjitte,12,,,9074BA,Hallum,Ferwerderadiel,Friesland,VBO,5.788560,53.306401
Sythiemastrjitte,14,,,9074BA,Hallum,Ferwerderadiel,Friesland,VBO,5.788611,53.306444
Sythiemastrjitte,16,,,9074BA,Hallum,Ferwerderadiel,Friesland,VBO,5.788662,53.306487
Sythiemastrjitte,18,,,9074BA,Hallum,Ferwerderadiel,Friesland,VBO,5.788747,53.306562
Sythiemastrjitte,20,,,9074BA,Hallum,Ferwerderadiel,Friesland,VBO,5.788796,53.306614
Sythiemastrjitte,26,,,9074BA,Hallum,Ferwerderadiel,Friesland,VBO,5.788923,53.306730
Sythiemastrjitte,28,,,9074BA,Hallum,Ferwerderadiel,Friesland,VBO,5.788992,53.306782
Sythiemastrjitte,30,,,9074BA,Hallum,Ferwerderadiel,Friesland,VBO,5.789059,53.306864
Sythiemastrjitte,32,,,9074BA,Hallum,Ferwerderadiel,Friesland,VBO,5.789111,53.306915
Sythiemastrjitte,34,,,9074BA,Hallum,Ferwerderadiel,Friesland,VBO,5.789163,53.306966
Sythiemastrjitte,36,,,9074BA,Hallum,Ferwerderadiel,Friesland,VBO,5.789215,53.307017
Sythiemastrjitte,38,,,9074BA,Hallum,Ferwerderadiel,Friesland,VBO,5.789317,53.307084
Sythiemastrjitte,40,,,9074BA,Hallum,Ferwerderadiel,Friesland,VBO,5.789365,53.307128
De Goudkamp,1,,,9074BB,Hallum,Ferwerderadiel,Friesland,VBO,5.788785,53.305985
De Goudkamp,2,,,9074BB,Hallum,Ferwerderadiel,Friesland,VBO,5.788645,53.305535
De Goudkamp,3,,,9074BB,Hallum,Ferwerderadiel,Friesland,VBO,5.788842,53.306042
De Goudkamp,4,,,9074BB,Hallum,Ferwerderadiel,Friesland,VBO,5.788703,53.305588
De Goudkamp,5,,,9074BB,Hallum,Ferwerderadiel,Friesland,VBO,5.788899,53.306098
De Goudkamp,6,,,9074BB,Hallum,Ferwerderadiel,Friesland,VBO,5.788762,53.305642
De Goudkamp,7,,,9074BB,Hallum,Ferwerderadiel,Friesland,VBO,5.788956,53.306155
De Goudkamp,9,,,9074BB,Hallum,Ferwerderadiel,Friesland,VBO,5.789013,53.306211
De Goudkamp,11,,,9074BB,Hallum,Ferwerderadiel,Friesland,VBO,5.789070,53.306268
De Goudkamp,13,,,9074BB,Hallum,Ferwerderadiel,Friesland,VBO,5.789127,53.306324
De Goudkamp,15,,,9074BB,Hallum,Ferwerderadiel,Friesland,VBO,5.789185,53.306380
De Goudkamp,17,,,9074BB,Hallum,Ferwerderadiel,Friesland,VBO,5.789242,53.306437
De Goudkamp,21,,,9074BB,Hallum,Ferwerderadiel,Friesland,VBO,5.789351,53.306554
De Goudkamp,23,,,9074BB,Hallum,Ferwerderadiel,Friesland,VBO,5.789419,53.306607
De Goudkamp,25,,,9074BB,Hallum,Ferwerderadiel,Friesland,VBO,5.789531,53.306679
De Goudkamp,27,,,9074BB,Hallum,Ferwerderadiel,Friesland,VBO,5.789564,53.306723
De Goudkamp,29,,,9074BB,Hallum,Ferwerderadiel,Friesland,VBO,5.789640,53.306776
De Goudkamp,31,,,9074BB,Hallum,Ferwerderadiel,Friesland,VBO,5.789733,53.306860
De Goudkamp,33,,,9074BB,Hallum,Ferwerderadiel,Friesland,VBO,5.789786,53.306907
De Stringen,1,,,9074BC,Hallum,Ferwerderadiel,Friesland,VBO,5.790530,53.306911
De Stringen,3,,,9074BC,Hallum,Ferwerderadiel,Friesland,VBO,5.790612,53.306875
De Stringen,5,,,9074BC,Hallum,Ferwerderadiel,Friesland,VBO,5.790694,53.306839
De Stringen,7,,,9074BC,Hallum,Ferwerderadiel,Friesland,VBO,5.790776,53.306803
De Stringen,9,,,9074BC,Hallum,Ferwerderadiel,Friesland,VBO,5.790885,53.306724
De Stringen,11,,,9074BC,Hallum,Ferwerderadiel,Friesland,VBO,5.790966,53.306686
De Stringen,13,,,9074BC,Hallum,Ferwerderadiel,Friesland,VBO,5.791048,53.306648
De Stringen,15,,,9074BC,Hallum,Ferwerderadiel,Friesland,VBO,5.791129,53.306610
De Stringen,17,,,9074BC,Hallum,Ferwerderadiel,Friesland,VBO,5.791347,53.306506
De Stringen,19,,,9074BC,Hallum,Ferwerderadiel,Friesland,VBO,5.791431,53.306469
De Stringen,21,,,9074BC,Hallum,Ferwerderadiel,Friesland,VBO,5.791515,53.306433
De Stringen,23,,,9074BC,Hallum,Ferwerderadiel,Friesland,VBO,5.791599,53.306396
De Stringen,25,,,9074BC,Hallum,Ferwerderadiel,Friesland,VBO,5.791680,53.306329
De Stringen,27,,,9074BC,Hallum,Ferwerderadiel,Friesland,VBO,5.791802,53.306279
De Stringen,29,A,,9074BC,Hallum,Ferwerderadiel,Friesland,VBO,5.791949,53.306270
De Stringen,29,,,9074BC,Hallum,Ferwerderadiel,Friesland,VBO,5.791870,53.306275
De Stringen,31,,,9074BC,Hallum,Ferwerderadiel,Friesland,VBO,5.792386,53.306106
De Stringen,2,,,9074BD,Hallum,Ferwerderadiel,Friesland,VBO,5.790098,53.306771
De Stringen,4,,,9074BD,Hallum,Ferwerderadiel,Friesland,VBO,5.790188,53.306737
De Stringen,6,,,9074BD,Hallum,Ferwerderadiel,Friesland,VBO,5.790277,53.306703
De Stringen,8,,,9074BD,Hallum,Ferwerderadiel,Friesland,VBO,5.790366,53.306668
De Stringen,10,,,9074BD,Hallum,Ferwerderadiel,Friesland,VBO,5.790500,53.306612
De Stringen,12,,,9074BD,Hallum,Ferwerderadiel,Friesland,VBO,5.790577,53.306577
De Stringen,14,,,9074BD,Hallum,Ferwerderadiel,Friesland,VBO,5.790653,53.306541
De Stringen,16,,,9074BD,Hallum,Ferwerderadiel,Friesland,VBO,5.790730,53.306505
De Stringen,18,,,9074BD,Hallum,Ferwerderadiel,Friesland,VBO,5.790806,53.306470
De Stringen,20,,,9074BD,Hallum,Ferwerderadiel,Friesland,VBO,5.791129,53.306291
De Stringen,22,,,9074BD,Hallum,Ferwerderadiel,Friesland,VBO,5.791218,53.306252
De Stringen,24,,,9074BD,Hallum,Ferwerderadiel,Friesland,VBO,5.791306,53.306212
De Stringen,26,,,9074BD,Hallum,Ferwerderadiel,Friesland,VBO,5.791416,53.306196
De Stringen,28,,,9074BD,Hallum,Ferwerderadiel,Friesland,VBO,5.791492,53.306164
De Stringen,30,,,9074BD,Hallum,Ferwerderadiel,Friesland,VBO,5.791569,53.306132
De Stringen,32,,,9074BD,Hallum,Ferwerderadiel,Friesland,VBO,5.791646,53.306100
De Stringen,34,,,9074BD,Hallum,Ferwerderadiel,Friesland,VBO,5.791716,53.306027
De Stringen,36,,,9074BD,Hallum,Ferwerderadiel,Friesland,VBO,5.791796,53.305993
De Stringen,38,,,9074BD,Hallum,Ferwerderadiel,Friesland,VBO,5.791876,53.305960
De Stins,1,,,9074BE,Hallum,Ferwerderadiel,Friesland,VBO,5.789710,53.306405
De Stins,3,,,9074BE,Hallum,Ferwerderadiel,Friesland,VBO,5.789795,53.306371
De Stins,5,,,9074BE,Hallum,Ferwerderadiel,Friesland,VBO,5.789880,53.306336
De Stins,7,,,9074BE,Hallum,Ferwerderadiel,Friesland,VBO,5.790078,53.306261
De Stins,9,,,9074BE,Hallum,Ferwerderadiel,Friesland,VBO,5.790160,53.306229
De Stins,11,,,9074BE,Hallum,Ferwerderadiel,Friesland,VBO,5.790398,53.306118
De Stins,13,,,9074BE,Hallum,Ferwerderadiel,Friesland,VBO,5.790482,53.306166
De Stins,15,,,9074BE,Hallum,Ferwerderadiel,Friesland,VBO,5.790566,53.306213
De Stins,17,,,9074BE,Hallum,Ferwerderadiel,Friesland,VBO,5.790650,53.306261
De Stins,19,,,9074BE,Hallum,Ferwerderadiel,Friesland,VBO,5.790897,53.306153
De Stins,21,,,9074BE,Hallum,Ferwerderadiel,Friesland,VBO,5.790852,53.306108
De Stins,23,,,9074BE,Hallum,Ferwerderadiel,Friesland,VBO,5.790807,53.306062
De Stins,25,,,9074BE,Hallum,Ferwerderadiel,Friesland,VBO,5.790762,53.306016
De Stins,27,,,9074BE,Hallum,Ferwerderadiel,Friesland,VBO,5.791102,53.305878
De Stins,29,,,9074BE,Hallum,Ferwerderadiel,Friesland,VBO,5.791193,53.305847
De Stins,31,,,9074BE,Hallum,Ferwerderadiel,Friesland,VBO,5.791284,53.305816
De Stins,2,,,9074BG,Hallum,Ferwerderadiel,Friesland,VBO,5.789501,53.306221
De Stins,4,,,9074BG,Hallum,Ferwerderadiel,Friesland,VBO,5.789589,53.306188
De Stins,6,,,9074BG,Hallum,Ferwerderadiel,Friesland,VBO,5.789676,53.306155
De Stins,8,,,9074BG,Hallum,Ferwerderadiel,Friesland,VBO,5.789763,53.306122
De Stins,10,,,9074BG,Hallum,Ferwerderadiel,Friesland,VBO,5.789877,53.306062
De Stins,12,,,9074BG,Hallum,Ferwerderadiel,Friesland,VBO,5.789984,53.306025
De Stins,14,A,,9074BG,Hallum,Ferwerderadiel,Friesland,VBO,5.790341,53.305703
De Stins,14,,,9074BG,Hallum,Ferwerderadiel,Friesland,VBO,5.790090,53.305989
De Stins,16,,,9074BG,Hallum,Ferwerderadiel,Friesland,VBO,5.790656,53.305768
De Stins,18,,,9074BG,Hallum,Ferwerderadiel,Friesland,VBO,5.790735,53.305737
De Stins,20,,,9074BG,Hallum,Ferwerderadiel,Friesland,VBO,5.790888,53.305677
De Stins,22,,,9074BG,Hallum,Ferwerderadiel,Friesland,VBO,5.790967,53.305646
It Apelhôf,1,,,9074BH,Hallum,Ferwerderadiel,Friesland,VBO,5.789188,53.305952
It Apelhôf,3,,,9074BH,Hallum,Ferwerderadiel,Friesland,VBO,5.789278,53.305917
It Apelhôf,5,,,9074BH,Hallum,Ferwerderadiel,Friesland,VBO,5.789368,53.305883
It Apelhôf,7,,,9074BH,Hallum,Ferwerderadiel,Friesland,VBO,5.789458,53.305848
It Apelhôf,9,,,9074BH,Hallum,Ferwerderadiel,Friesland,VBO,5.789548,53.305814
It Apelhôf,11,,,9074BH,Hallum,Ferwerderadiel,Friesland,VBO,5.789700,53.305764
It Apelhôf,13,,,9074BH,Hallum,Ferwerderadiel,Friesland,VBO,5.789778,53.305733
It Apelhôf,15,,,9074BH,Hallum,Ferwerderadiel,Friesland,VBO,5.790257,53.305542
It Apelhôf,17,,,9074BH,Hallum,Ferwerderadiel,Friesland,VBO,5.790353,53.305502
It Apelhôf,19,,,9074BH,Hallum,Ferwerderadiel,Friesland,VBO,5.790449,53.305463
It Apelhôf,21,,,9074BH,Hallum,Ferwerderadiel,Friesland,VBO,5.790582,53.305418
It Apelhôf,23,,,9074BH,Hallum,Ferwerderadiel,Friesland,VBO,5.790659,53.305387
It Apelhôf,25,,,9074BH,Hallum,Ferwerderadiel,Friesland,VBO,5.790816,53.305330
It Apelhôf,27,,,9074BH,Hallum,Ferwerderadiel,Friesland,VBO,5.790896,53.305298
It Apelhôf,2,,,9074BJ,Hallum,Ferwerderadiel,Friesland,VBO,5.788991,53.305771
It Apelhôf,4,,,9074BJ,Hallum,Ferwerderadiel,Friesland,VBO,5.789082,53.305736
It Apelhôf,6,,,9074BJ,Hallum,Ferwerderadiel,Friesland,VBO,5.789174,53.305702
It Apelhôf,8,,,9074BJ,Hallum,Ferwerderadiel,Friesland,VBO,5.789265,53.305667
It Apelhôf,10,,,9074BJ,Hallum,Ferwerderadiel,Friesland,VBO,5.789356,53.305633
It Apelhôf,12,,,9074BJ,Hallum,Ferwerderadiel,Friesland,VBO,5.789579,53.305558
It Apelhôf,14,,,9074BJ,Hallum,Ferwerderadiel,Friesland,VBO,5.789536,53.305495
It Apelhôf,16,,,9074BJ,Hallum,Ferwerderadiel,Friesland,VBO,5.789492,53.305431
It Apelhôf,18,,,9074BJ,Hallum,Ferwerderadiel,Friesland,VBO,5.789800,53.305300
It Apelhôf,20,,,9074BJ,Hallum,Ferwerderadiel,Friesland,VBO,5.789881,53.305348
It Apelhôf,22,,,9074BJ,Hallum,Ferwerderadiel,Friesland,VBO,5.789963,53.305397
It Apelhôf,24,,,9074BJ,Hallum,Ferwerderadiel,Friesland,VBO,5.790244,53.305298
It Apelhôf,26,,,9074BJ,Hallum,Ferwerderadiel,Friesland,VBO,5.790347,53.305259
It Apelhôf,28,,,9074BJ,Hallum,Ferwerderadiel,Friesland,VBO,5.790450,53.305219
It Pypke,1,,,9074BK,Hallum,Ferwerderadiel,Friesland,VBO,5.786691,53.306554
It Pypke,2,,,9074BK,Hallum,Ferwerderadiel,Friesland,VBO,5.786584,53.306342
It Pypke,3,,,9074BK,Hallum,Ferwerderadiel,Friesland,VBO,5.787114,53.306389
It Pypke,4,A,,9074BK,Hallum,Ferwerderadiel,Friesland,VBO,5.786510,53.306053
It Pypke,4,,,9074BK,Hallum,Ferwerderadiel,Friesland,VBO,5.786827,53.306260
It Pypke,5,,,9074BK,Hallum,Ferwerderadiel,Friesland,VBO,5.787553,53.306287
It Pypke,6,A,,9074BK,Hallum,Ferwerderadiel,Friesland,VBO,5.786899,53.306022
It Pypke,6,,,9074BK,Hallum,Ferwerderadiel,Friesland,VBO,5.786989,53.306087
It Pypke,7,,,9074BK,Hallum,Ferwerderadiel,Friesland,VBO,5.787673,53.306197
It Pypke,8,,,9074BK,Hallum,Ferwerderadiel,Friesland,VBO,5.787205,53.306031
It Pypke,10,,,9074BK,Hallum,Ferwerderadiel,Friesland,VBO,5.787388,53.305986
It Pypke,12,,,9074BK,Hallum,Ferwerderadiel,Friesland,VBO,5.787539,53.305921
It Pypke,14,,,9074BK,Hallum,Ferwerderadiel,Friesland,VBO,5.787662,53.305834
It Pypke,16,,,9074BK,Hallum,Ferwerderadiel,Friesland,VBO,5.787932,53.305688
It Pypke,18,,,9074BK,Hallum,Ferwerderadiel,Friesland,VBO,5.788029,53.305568
It Pypke,20,,,9074BK,Hallum,Ferwerderadiel,Friesland,VBO,5.789227,53.304909
It Pypke,22,,,9074BK,Hallum,Ferwerderadiel,Friesland,VBO,5.789326,53.304867
It Pypke,24,,,9074BK,Hallum,Ferwerderadiel,Friesland,VBO,5.789426,53.304825
It Pypke,26,,,9074BK,Hallum,Ferwerderadiel,Friesland,VBO,5.789525,53.304782
It Pypke,28,,,9074BK,Hallum,Ferwerderadiel,Friesland,VBO,5.789618,53.304739
It Pypke,30,,,9074BK,Hallum,Ferwerderadiel,Friesland,VBO,5.789710,53.304695
It Skipperslân,1,,,9074BM,Hallum,Ferwerderadiel,Friesland,VBO,5.789677,53.303972
It Skipperslân,2,,,9074BM,Hallum,Ferwerderadiel,Friesland,VBO,5.789989,53.304570
It Skipperslân,3,,,9074BM,Hallum,Ferwerderadiel,Friesland,VBO,5.789610,53.303930
It Skipperslân,4,,,9074BM,Hallum,Ferwerderadiel,Friesland,VBO,5.789918,53.304522
It Skipperslân,5,,,9074BM,Hallum,Ferwerderadiel,Friesland,VBO,5.789480,53.303817
It Skipperslân,6,,,9074BM,Hallum,Ferwerderadiel,Friesland,VBO,5.789848,53.304473
It Skipperslân,7,,,9074BM,Hallum,Ferwerderadiel,Friesland,VBO,5.789414,53.303775
It Skipperslân,8,,,9074BM,Hallum,Ferwerderadiel,Friesland,VBO,5.789777,53.304424
It Skipperslân,9,,,9074BM,Hallum,Ferwerderadiel,Friesland,VBO,5.789261,53.303677
It Skipperslân,10,,,9074BM,Hallum,Ferwerderadiel,Friesland,VBO,5.789707,53.304376
It Skipperslân,11,,,9074BM,Hallum,Ferwerderadiel,Friesland,VBO,5.789194,53.303634
It Skipperslân,12,,,9074BM,Hallum,Ferwerderadiel,Friesland,VBO,5.789108,53.304034
It Skipperslân,13,,,9074BM,Hallum,Ferwerderadiel,Friesland,VBO,5.788698,53.303287
It Skipperslân,14,,,9074BM,Hallum,Ferwerderadiel,Friesland,VBO,5.788968,53.303916
It Skipperslân,15,,,9074BM,Hallum,Ferwerderadiel,Friesland,VBO,5.788640,53.303236
It Skipperslân,16,A,,9074BM,Hallum,Ferwerderadiel,Friesland,VBO,5.788575,53.303972
It Skipperslân,16,,,9074BM,Hallum,Ferwerderadiel,Friesland,VBO,5.788905,53.303866
It Skipperslân,18,,,9074BM,Hallum,Ferwerderadiel,Friesland,VBO,5.788344,53.303500
It Skipperslân,20,,,9074BM,Hallum,Ferwerderadiel,Friesland,VBO,5.788244,53.303415
It Skipperslân,22,,,9074BM,Hallum,Ferwerderadiel,Friesland,VBO,5.788145,53.303331
It Skipperslân,24,,,9074BM,Hallum,Ferwerderadiel,Friesland,VBO,5.788046,53.303247
Stjûrmanstún,1,,,9074BN,Hallum,Ferwerderadiel,Friesland,VBO,5.788962,53.305007
Stjûrmanstún,2,,,9074BN,Hallum,Ferwerderadiel,Friesland,VBO,5.788656,53.305196
Stjûrmanstún,3,,,9074BN,Hallum,Ferwerderadiel,Friesland,VBO,5.788890,53.304954
Stjûrmanstún,4,,,9074BN,Hallum,Ferwerderadiel,Friesland,VBO,5.788575,53.305134
Stjûrmanstún,5,,,9074BN,Hallum,Ferwerderadiel,Friesland,VBO,5.788818,53.304902
Stjûrmanstún,6,,,9074BN,Hallum,Ferwerderadiel,Friesland,VBO,5.788493,53.305071
Stjûrmanstún,7,,,9074BN,Hallum,Ferwerderadiel,Friesland,VBO,5.788746,53.304849
Stjûrmanstún,8,,,9074BN,Hallum,Ferwerderadiel,Friesland,VBO,5.788412,53.305009
Stjûrmanstún,9,,,9074BN,Hallum,Ferwerderadiel,Friesland,VBO,5.788650,53.304809
Stjûrmanstún,10,,,9074BN,Hallum,Ferwerderadiel,Friesland,VBO,5.788305,53.304965
Stjûrmanstún,11,,,9074BN,Hallum,Ferwerderadiel,Friesland,VBO,5.788582,53.304755
Stjûrmanstún,12,,,9074BN,Hallum,Ferwerderadiel,Friesland,VBO,5.788214,53.304898
Stjûrmanstún,13,,,9074BN,Hallum,Ferwerderadiel,Friesland,VBO,5.788515,53.304701
Stjûrmanstún,14,,,9074BN,Hallum,Ferwerderadiel,Friesland,VBO,5.788123,53.304831
Stjûrmanstún,15,,,9074BN,Hallum,Ferwerderadiel,Friesland,VBO,5.788447,53.304647
Stjûrmanstún,16,,,9074BN,Hallum,Ferwerderadiel,Friesland,VBO,5.788081,53.304761
Stjûrmanstún,17,,,9074BN,Hallum,Ferwerderadiel,Friesland,VBO,5.788287,53.304455
Stjûrmanstún,18,,,9074BN,Hallum,Ferwerderadiel,Friesland,VBO,5.787999,53.304694
Stjûrmanstún,19,,,9074BN,Hallum,Ferwerderadiel,Friesland,VBO,5.788215,53.304394
Stjûrmanstún,20,,,9074BN,Hallum,Ferwerderadiel,Friesland,VBO,5.787918,53.304627
Stjûrmanstún,21,,,9074BN,Hallum,Ferwerderadiel,Friesland,VBO,5.788142,53.304334
Stjûrmanstún,22,,,9074BN,Hallum,Ferwerderadiel,Friesland,VBO,5.787836,53.304561
Stjûrmanstún,23,,,9074BN,Hallum,Ferwerderadiel,Friesland,VBO,5.788069,53.304273
Stjûrmanstún,24,,,9074BN,Hallum,Ferwerderadiel,Friesland,VBO,5.787675,53.304464
Stjûrmanstún,25,,,9074BN,Hallum,Ferwerderadiel,Friesland,VBO,5.787997,53.304212
Stjûrmanstún,26,,,9074BN,Hallum,Ferwerderadiel,Friesland,VBO,5.787380,53.304211
Stjûrmanstún,27,,,9074BN,Hallum,Ferwerderadiel,Friesland,VBO,5.787924,53.304152
Stjûrmanstún,29,,,9074BN,Hallum,Ferwerderadiel,Friesland,VBO,5.787852,53.304091
Stjûrmanstún,31,,,9074BN,Hallum,Ferwerderadiel,Friesland,VBO,5.787779,53.304031
Stjûrmanstún,33,,,9074BN,Hallum,Ferwerderadiel,Friesland,VBO,5.787570,53.303884
Stjûrmanstún,35,,,9074BN,Hallum,Ferwerderadiel,Friesland,VBO,5.787495,53.303823
Stjûrmanstún,37,,,9074BN,Hallum,Ferwerderadiel,Friesland,VBO,5.787419,53.303763
Stjûrmanstún,39,,,9074BN,Hallum,Ferwerderadiel,Friesland,VBO,5.787343,53.303702
Stjûrmanstún,41,,,9074BN,Hallum,Ferwerderadiel,Friesland,VBO,5.787268,53.303642
Stjûrmanstún,43,,,9074BN,Hallum,Ferwerderadiel,Friesland,VBO,5.787192,53.303581
Stjûrmanstún,45,,,9074BN,Hallum,Ferwerderadiel,Friesland,VBO,5.787117,53.303520
Stjûrmanstún,47,,,9074BN,Hallum,Ferwerderadiel,Friesland,VBO,5.787041,53.303460
De Snikke,1,,,9074BP,Hallum,Ferwerderadiel,Friesland,VBO,5.788707,53.304510
De Snikke,2,,,9074BP,Hallum,Ferwerderadiel,Friesland,VBO,5.788448,53.304326
De Snikke,3,,,9074BP,Hallum,Ferwerderadiel,Friesland,VBO,5.788795,53.304469
De Snikke,4,,,9074BP,Hallum,Ferwerderadiel,Friesland,VBO,5.788584,53.304266
De Snikke,5,,,9074BP,Hallum,Ferwerderadiel,Friesland,VBO,5.788884,53.304429
De Snikke,6,,,9074BP,Hallum,Ferwerderadiel,Friesland,VBO,5.788720,53.304207
De Snikke,7,,,9074BP,Hallum,Ferwerderadiel,Friesland,VBO,5.788972,53.304389
De Snikke,8,,,9074BP,Hallum,Ferwerderadiel,Friesland,VBO,5.788856,53.304147
De Snikke,9,,,9074BP,Hallum,Ferwerderadiel,Friesland,VBO,5.789060,53.304348
De Snikke,11,,,9074BP,Hallum,Ferwerderadiel,Friesland,VBO,5.789149,53.304308
De Snikke,13,,,9074BP,Hallum,Ferwerderadiel,Friesland,VBO,5.789237,53.304267
De Snikke,15,,,9074BP,Hallum,Ferwerderadiel,Friesland,VBO,5.789325,53.304227
De Snikke,17,,,9074BP,Hallum,Ferwerderadiel,Friesland,VBO,5.789414,53.304187
Juffer Frederikestrjitte,5,,,9074BR,Hallum,Ferwerderadiel,Friesland,VBO,5.786280,53.305846
Juffer Frederikestrjitte,7,,,9074BR,Hallum,Ferwerderadiel,Friesland,VBO,5.786361,53.305795
Juffer Frederikestrjitte,9,,,9074BR,Hallum,Ferwerderadiel,Friesland,VBO,5.786441,53.305745
Juffer Frederikestrjitte,11,,,9074BR,Hallum,Ferwerderadiel,Friesland,VBO,5.786521,53.305694
Juffer Frederikestrjitte,13,,,9074BR,Hallum,Ferwerderadiel,Friesland,VBO,5.786657,53.305638
Juffer Frederikestrjitte,15,,,9074BR,Hallum,Ferwerderadiel,Friesland,VBO,5.786737,53.305600
Juffer Frederikestrjitte,23,,,9074BR,Hallum,Ferwerderadiel,Friesland,VBO,5.787411,53.305295
Juffer Frederikestrjitte,18,A,,9074BS,Hallum,Ferwerderadiel,Friesland,VBO,5.786940,53.304860
Juffer Frederikestrjitte,18,B,,9074BS,Hallum,Ferwerderadiel,Friesland,VBO,5.786678,53.304663
Juffer Frederikestrjitte,18,C,,9074BS,Hallum,Ferwerderadiel,Friesland,VBO,5.786497,53.304539
Juffer Frederikestrjitte,20,A,,9074BS,Hallum,Ferwerderadiel,Friesland,VBO,5.787241,53.304676
Juffer Frederikestrjitte,20,,,9074BS,Hallum,Ferwerderadiel,Friesland,VBO,5.787471,53.304837
Juffer Frederikestrjitte,22,,,9074BS,Hallum,Ferwerderadiel,Friesland,VBO,5.787556,53.304897
Juffer Frederikestrjitte,24,,,9074BS,Hallum,Ferwerderadiel,Friesland,VBO,5.787685,53.304985
Juffer Frederikestrjitte,26,,,9074BS,Hallum,Ferwerderadiel,Friesland,VBO,5.787771,53.305043
Juffer Frederikestrjitte,28,,,9074BS,Hallum,Ferwerderadiel,Friesland,VBO,5.787923,53.305151
Juffer Frederikestrjitte,30,,,9074BS,Hallum,Ferwerderadiel,Friesland,VBO,5.788002,53.305208
Juffer Frederikestrjitte,36,,,9074BS,Hallum,Ferwerderadiel,Friesland,VBO,5.788168,53.305313
Juffer Frederikestrjitte,38,,,9074BS,Hallum,Ferwerderadiel,Friesland,VBO,5.788240,53.305355
Paradijs,1,,,9074BT,Hallum,Ferwerderadiel,Friesland,VBO,5.785638,53.306077
Paradijs,5,,,9074BT,Hallum,Ferwerderadiel,Friesland,VBO,5.785965,53.305994
Paradijs,9,,,9074BT,Hallum,Ferwerderadiel,Friesland,VBO,5.785909,53.305939
Paradijs,13,,,9074BT,Hallum,Ferwerderadiel,Friesland,VBO,5.785985,53.305897
De Reed,2,,,9074BV,Hallum,Ferwerderadiel,Friesland,VBO,5.785126,53.306287
De Reed,4,,,9074BV,Hallum,Ferwerderadiel,Friesland,VBO,5.785248,53.306227
De Reed,5,,,9074BV,Hallum,Ferwerderadiel,Friesland,VBO,5.785466,53.306239
Lytse Buorren,1,,,9074BW,Hallum,Ferwerderadiel,Friesland,VBO,5.785407,53.306553
Lytse Buorren,2,,,9074BW,Hallum,Ferwerderadiel,Friesland,VBO,5.785163,53.306568
Lytse Buorren,4,,,9074BW,Hallum,Ferwerderadiel,Friesland,VBO,5.784990,53.306509
Lytse Buorren,5,,,9074BW,Hallum,Ferwerderadiel,Friesland,VBO,5.785245,53.306505
Lytse Buorren,6,,,9074BW,Hallum,Ferwerderadiel,Friesland,VBO,5.784917,53.306549
Lytse Buorren,7,,,9074BW,Hallum,Ferwerderadiel,Friesland,VBO,5.785152,53.306420
Lytse Buorren,8,,,9074BW,Hallum,Ferwerderadiel,Friesland,VBO,5.784865,53.306584
Lytse Buorren,10,,,9074BW,Hallum,Ferwerderadiel,Friesland,VBO,5.784905,53.306410
Lytse Buorren,14,,,9074BW,Hallum,Ferwerderadiel,Friesland,VBO,5.784810,53.306315
Lytse Buorren,18,,,9074BW,Hallum,Ferwerderadiel,Friesland,VBO,5.784642,53.306238
Kerkpad,1,A,,9074BX,Hallum,Ferwerderadiel,Friesland,VBO,5.785432,53.307437
Kerkpad,1,,,9074BX,Hallum,Ferwerderadiel,Friesland,VBO,5.785541,53.307149
Kerkpad,2,,,9074BX,Hallum,Ferwerderadiel,Friesland,VBO,5.785784,53.307445
Kerkpad,3,,,9074BX,Hallum,Ferwerderadiel,Friesland,VBO,5.785895,53.307419
Kerkpad,4,,,9074BX,Hallum,Ferwerderadiel,Friesland,VBO,5.786018,53.307075
Kerkpad,5,,,9074BX,Hallum,Ferwerderadiel,Friesland,VBO,5.785708,53.306839
Kerkpad,7,,,9074BX,Hallum,Ferwerderadiel,Friesland,VBO,5.785566,53.306730
Kerkpad,8,,,9074BX,Hallum,Ferwerderadiel,Friesland,VBO,5.785449,53.306674
Kerkpad,9,,,9074BX,Hallum,Ferwerderadiel,Friesland,VBO,5.785440,53.306591
Kerkpad,10,,,9074BX,Hallum,Ferwerderadiel,Friesland,VBO,5.785106,53.306655
Kerkpad,12,,,9074BX,Hallum,Ferwerderadiel,Friesland,VBO,5.784948,53.306748
Kerkpad,13,,,9074BX,Hallum,Ferwerderadiel,Friesland,VBO,5.784800,53.306839
Kerkpad,14,,,9074BX,Hallum,Ferwerderadiel,Friesland,VBO,5.784655,53.307079
Kerkpad,15,,,9074BX,Hallum,Ferwerderadiel,Friesland,VBO,5.784687,53.307158
Kerkpad,16,,,9074BX,Hallum,Ferwerderadiel,Friesland,VBO,5.784796,53.307207
Kerkpad,17,,,9074BX,Hallum,Ferwerderadiel,Friesland,VBO,5.784909,53.307246
Miedpad,1,,,9074BZ,Hallum,Ferwerderadiel,Friesland,VBO,5.785893,53.306936
Miedpad,3,,,9074BZ,Hallum,Ferwerderadiel,Friesland,VBO,5.786072,53.306856
Miedpad,4,,,9074BZ,Hallum,Ferwerderadiel,Friesland,VBO,5.785916,53.306804
Miedpad,6,,,9074BZ,Hallum,Ferwerderadiel,Friesland,VBO,5.786043,53.306702
Miedpad,7,,,9074BZ,Hallum,Ferwerderadiel,Friesland,VBO,5.786191,53.306773
Antsjemastreek,1,,,9074CA,Hallum,Ferwerderadiel,Friesland,VBO,5.786064,53.307238
Antsjemastreek,2,,,9074CA,Hallum,Ferwerderadiel,Friesland,VBO,5.786152,53.307268
Antsjemastreek,3,,,9074CA,Hallum,Ferwerderadiel,Friesland,VBO,5.786239,53.307297
Antsjemastreek,4,,,9074CA,Hallum,Ferwerderadiel,Friesland,VBO,5.786327,53.307327
Grote Streek,1,,,9074CB,Hallum,Ferwerderadiel,Friesland,VBO,5.785227,53.307404
Grote Streek,2,,,9074CB,Hallum,Ferwerderadiel,Friesland,VBO,5.785550,53.307583
Grote Streek,3,,,9074CB,Hallum,Ferwerderadiel,Friesland,VBO,5.785261,53.307478
Grote Streek,4,,,9074CB,Hallum,Ferwerderadiel,Friesland,VBO,5.785658,53.307554
Grote Streek,5,,,9074CB,Hallum,Ferwerderadiel,Friesland,VBO,5.785295,53.307553
Grote Streek,7,A,,9074CB,Hallum,Ferwerderadiel,Friesland,VBO,5.785385,53.307711
Grote Streek,7,,,9074CB,Hallum,Ferwerderadiel,Friesland,VBO,5.785329,53.307627
Grote Streek,9,,,9074CB,Hallum,Ferwerderadiel,Friesland,VBO,5.785459,53.307862
Grote Streek,11,,,9074CB,Hallum,Ferwerderadiel,Friesland,VBO,5.785322,53.307878
Grote Streek,13,,,9074CB,Hallum,Ferwerderadiel,Friesland,VBO,5.785185,53.307895
Grote Streek,15,,,9074CB,Hallum,Ferwerderadiel,Friesland,VBO,5.785048,53.307911
Kleine Streek,1,,,9074CC,Hallum,Ferwerderadiel,Friesland,VBO,5.784883,53.307359
Kleine Streek,2,,,9074CC,Hallum,Ferwerderadiel,Friesland,VBO,5.784810,53.307450
Kleine Streek,3,,,9074CC,Hallum,Ferwerderadiel,Friesland,VBO,5.784787,53.307578
Kleine Streek,4,,,9074CC,Hallum,Ferwerderadiel,Friesland,VBO,5.784688,53.307653
Kleine Streek,5,,,9074CC,Hallum,Ferwerderadiel,Friesland,VBO,5.784699,53.307780
Hegebuorren,1,,,9074CD,Hallum,Ferwerderadiel,Friesland,VBO,5.784701,53.306809
Hegebuorren,2,,,9074CD,Hallum,Ferwerderadiel,Friesland,VBO,5.784586,53.306936
Hegebuorren,3,,,9074CD,Hallum,Ferwerderadiel,Friesland,VBO,5.784620,53.306750
Hegebuorren,4,,,9074CD,Hallum,Ferwerderadiel,Friesland,VBO,5.784480,53.306856
Hegebuorren,5,,,9074CD,Hallum,Ferwerderadiel,Friesland,VBO,5.784469,53.306673
Hegebuorren,6,,,9074CD,Hallum,Ferwerderadiel,Friesland,VBO,5.784390,53.306803
Hegebuorren,7,,,9074CD,Hallum,Ferwerderadiel,Friesland,VBO,5.784392,53.306627
Hegebuorren,8,,,9074CD,Hallum,Ferwerderadiel,Friesland,VBO,5.784313,53.306729
Hegebuorren,9,,,9074CD,Hallum,Ferwerderadiel,Friesland,VBO,5.784344,53.306537
Hegebuorren,10,,,9074CD,Hallum,Ferwerderadiel,Friesland,VBO,5.784133,53.306667
Hegebuorren,11,,,9074CD,Hallum,Ferwerderadiel,Friesland,VBO,5.784217,53.306504
Hegebuorren,12,,,9074CD,Hallum,Ferwerderadiel,Friesland,VBO,5.784024,53.306571
Hegebuorren,14,,,9074CD,Hallum,Ferwerderadiel,Friesland,VBO,5.783864,53.306499
Hegebuorren,15,,,9074CD,Hallum,Ferwerderadiel,Friesland,VBO,5.784040,53.306397
Hegebuorren,16,,,9074CD,Hallum,Ferwerderadiel,Friesland,VBO,5.783815,53.306454
Hegebuorren,17,,,9074CD,Hallum,Ferwerderadiel,Friesland,VBO,5.783928,53.306361
Hegebuorren,18,,,9074CD,Hallum,Ferwerderadiel,Friesland,VBO,5.783769,53.306406
Langebuorren,1,,,9074CE,Hallum,Ferwerderadiel,Friesland,VBO,5.785432,53.305432
Langebuorren,2,,,9074CE,Hallum,Ferwerderadiel,Friesland,VBO,5.784916,53.305801
Langebuorren,3,,,9074CE,Hallum,Ferwerderadiel,Friesland,VBO,5.784633,53.305653
Langebuorren,4,,,9074CE,Hallum,Ferwerderadiel,Friesland,VBO,5.784716,53.305944
Langebuorren,5,,,9074CE,Hallum,Ferwerderadiel,Friesland,VBO,5.784511,53.305729
Langebuorren,6,,,9074CE,Hallum,Ferwerderadiel,Friesland,VBO,5.784348,53.306030
Langebuorren,7,,,9074CE,Hallum,Ferwerderadiel,Friesland,VBO,5.784423,53.305773
Langebuorren,8,,,9074CE,Hallum,Ferwerderadiel,Friesland,VBO,5.784240,53.306099
Langebuorren,10,,,9074CE,Hallum,Ferwerderadiel,Friesland,VBO,5.784147,53.306147
Langebuorren,11,,,9074CE,Hallum,Ferwerderadiel,Friesland,VBO,5.784195,53.305979
Langebuorren,12,,,9074CE,Hallum,Ferwerderadiel,Friesland,VBO,5.784086,53.306196
Langebuorren,13,,,9074CE,Hallum,Ferwerderadiel,Friesland,VBO,5.784062,53.305982
Langebuorren,15,,,9074CE,Hallum,Ferwerderadiel,Friesland,VBO,5.783988,53.306027
Langebuorren,17,A,,9074CE,Hallum,Ferwerderadiel,Friesland,VBO,5.783733,53.305954
Langebuorren,17,,,9074CE,Hallum,Ferwerderadiel,Friesland,VBO,5.783909,53.306082
Langebuorren,21,,,9074CE,Hallum,Ferwerderadiel,Friesland,VBO,5.783791,53.306156
Langebuorren,23,,,9074CE,Hallum,Ferwerderadiel,Friesland,VBO,5.783620,53.306226
Langebuorren,16,,,9074CG,Hallum,Ferwerderadiel,Friesland,VBO,5.783588,53.306370
Langebuorren,20,,,9074CG,Hallum,Ferwerderadiel,Friesland,VBO,5.783410,53.306445
Langebuorren,22,,,9074CG,Hallum,Ferwerderadiel,Friesland,VBO,5.783322,53.306495
Langebuorren,25,,,9074CG,Hallum,Ferwerderadiel,Friesland,VBO,5.783453,53.306278
Langebuorren,27,,,9074CG,Hallum,Ferwerderadiel,Friesland,VBO,5.783353,53.306329
Langebuorren,28,,,9074CG,Hallum,Ferwerderadiel,Friesland,VBO,5.783059,53.306644
Langebuorren,29,,,9074CG,Hallum,Ferwerderadiel,Friesland,VBO,5.783275,53.306352
Langebuorren,30,,,9074CG,Hallum,Ferwerderadiel,Friesland,VBO,5.783008,53.306714
Langebuorren,31,,,9074CG,Hallum,Ferwerderadiel,Friesland,VBO,5.783183,53.306378
Langebuorren,32,,,9074CG,Hallum,Ferwerderadiel,Friesland,VBO,5.782899,53.306756
Langebuorren,33,,,9074CG,Hallum,Ferwerderadiel,Friesland,VBO,5.783083,53.306438
Langebuorren,35,,,9074CG,Hallum,Ferwerderadiel,Friesland,VBO,5.782984,53.306498
Langebuorren,37,,,9074CG,Hallum,Ferwerderadiel,Friesland,VBO,5.782885,53.306558
Langebuorren,39,,,9074CG,Hallum,Ferwerderadiel,Friesland,VBO,5.782785,53.306618
Langebuorren,41,,,9074CG,Hallum,Ferwerderadiel,Friesland,VBO,5.782686,53.306678
Langebuorren,38,,,9074CH,Hallum,Ferwerderadiel,Friesland,VBO,5.782711,53.306842
Langebuorren,40,,,9074CH,Hallum,Ferwerderadiel,Friesland,VBO,5.782598,53.306892
Langebuorren,43,,,9074CH,Hallum,Ferwerderadiel,Friesland,VBO,5.782586,53.306738
Langebuorren,44,,,9074CH,Hallum,Ferwerderadiel,Friesland,VBO,5.782410,53.306989
Langebuorren,45,,,9074CH,Hallum,Ferwerderadiel,Friesland,VBO,5.782310,53.306522
Langebuorren,46,,,9074CH,Hallum,Ferwerderadiel,Friesland,VBO,5.782243,53.307033
Langebuorren,47,,,9074CH,Hallum,Ferwerderadiel,Friesland,VBO,5.782172,53.306611
Langebuorren,48,,,9074CH,Hallum,Ferwerderadiel,Friesland,VBO,5.782116,53.307074
Langebuorren,49,,,9074CH,Hallum,Ferwerderadiel,Friesland,VBO,5.782461,53.306794
Langebuorren,50,,,9074CH,Hallum,Ferwerderadiel,Friesland,VBO,5.781984,53.307189
Langebuorren,51,,,9074CH,Hallum,Ferwerderadiel,Friesland,VBO,5.782395,53.306831
Langebuorren,53,,,9074CH,Hallum,Ferwerderadiel,Friesland,VBO,5.782060,53.306704
Langebuorren,55,,,9074CH,Hallum,Ferwerderadiel,Friesland,VBO,5.782292,53.306882
Langebuorren,57,,,9074CH,Hallum,Ferwerderadiel,Friesland,VBO,5.782204,53.306906
Langebuorren,61,,,9074CH,Hallum,Ferwerderadiel,Friesland,VBO,5.782065,53.306937
Mounebuorren,1,,,9074CJ,Hallum,Ferwerderadiel,Friesland,VBO,5.781881,53.306795
Mounebuorren,2,,,9074CJ,Hallum,Ferwerderadiel,Friesland,VBO,5.781777,53.307048
Mounebuorren,3,,,9074CJ,Hallum,Ferwerderadiel,Friesland,VBO,5.781850,53.306714
Mounebuorren,4,,,9074CJ,Hallum,Ferwerderadiel,Friesland,VBO,5.781682,53.306958
Mounebuorren,5,,,9074CJ,Hallum,Ferwerderadiel,Friesland,VBO,5.781826,53.306663
Mounebuorren,7,,,9074CJ,Hallum,Ferwerderadiel,Friesland,VBO,5.781840,53.306595
Mounebuorren,8,,,9074CJ,Hallum,Ferwerderadiel,Friesland,VBO,5.781550,53.306797
Mounebuorren,12,,,9074CJ,Hallum,Ferwerderadiel,Friesland,VBO,5.781317,53.306521
Mounebuorren,14,A,,9074CJ,Hallum,Ferwerderadiel,Friesland,VBO,5.781139,53.306262
Mounebuorren,14,,,9074CJ,Hallum,Ferwerderadiel,Friesland,VBO,5.781156,53.306135
Mounebuorren,9,,,9074CK,Hallum,Ferwerderadiel,Friesland,VBO,5.779420,53.304149
Mounebuorren,20,,,9074CK,Hallum,Ferwerderadiel,Friesland,VBO,5.780899,53.305797
Mounebuorren,22,,,9074CK,Hallum,Ferwerderadiel,Friesland,VBO,5.780872,53.305736
Mounebuorren,24,,,9074CK,Hallum,Ferwerderadiel,Friesland,VBO,5.780641,53.305681
Mounebuorren,26,,,9074CK,Hallum,Ferwerderadiel,Friesland,VBO,5.780787,53.305561
Mounebuorren,28,,,9074CK,Hallum,Ferwerderadiel,Friesland,VBO,5.780738,53.305525
Mounebuorren,30,,,9074CK,Hallum,Ferwerderadiel,Friesland,VBO,5.780584,53.305397
Mounebuorren,32,,,9074CK,Hallum,Ferwerderadiel,Friesland,VBO,5.780542,53.305350
Mounebuorren,34,,,9074CK,Hallum,Ferwerderadiel,Friesland,VBO,5.780401,53.305133
Mounebuorren,36,,,9074CK,Hallum,Ferwerderadiel,Friesland,VBO,5.780319,53.305012
Mounebuorren,38,,,9074CK,Hallum,Ferwerderadiel,Friesland,VBO,5.780081,53.304907
Mounebuorren,40,,,9074CK,Hallum,Ferwerderadiel,Friesland,VBO,5.779894,53.304713
Mounebuorren,44,,,9074CK,Hallum,Ferwerderadiel,Friesland,VBO,5.779648,53.304479
Gedempte Haven,7,,,9074CL,Hallum,Ferwerderadiel,Friesland,VBO,5.783584,53.305696
Gedempte Haven,9,,,9074CL,Hallum,Ferwerderadiel,Friesland,VBO,5.783374,53.305796
Gedempte Haven,11,,,9074CL,Hallum,Ferwerderadiel,Friesland,VBO,5.783208,53.305891
Gedempte Haven,13,,,9074CL,Hallum,Ferwerderadiel,Friesland,VBO,5.782977,53.305989
Gedempte Haven,15,,,9074CL,Hallum,Ferwerderadiel,Friesland,VBO,5.782858,53.306032
Gedempte Haven,17,A,,9074CL,Hallum,Ferwerderadiel,Friesland,VBO,5.782531,53.305832
Gedempte Haven,17,,,9074CL,Hallum,Ferwerderadiel,Friesland,VBO,5.782572,53.306165
Gedempte Haven,39,,,9074CL,Hallum,Ferwerderadiel,Friesland,VBO,5.782376,53.306215
Gedempte Haven,43,,,9074CL,Hallum,Ferwerderadiel,Friesland,VBO,5.782168,53.306112
Gedempte Haven,45,,,9074CL,Hallum,Ferwerderadiel,Friesland,VBO,5.782208,53.306244
Gedempte Haven,47,,,9074CL,Hallum,Ferwerderadiel,Friesland,VBO,5.782055,53.306295
Gedempte Haven,49,,,9074CL,Hallum,Ferwerderadiel,Friesland,VBO,5.781919,53.306340
Gedempte Haven,51,,,9074CL,Hallum,Ferwerderadiel,Friesland,VBO,5.781803,53.306328
Gedempte Haven,57,,,9074CL,Hallum,Ferwerderadiel,Friesland,VBO,5.781723,53.306105
Gedempte Haven,59,,,9074CL,Hallum,Ferwerderadiel,Friesland,VBO,5.781697,53.305960
Gedempte Haven,61,,,9074CL,Hallum,Ferwerderadiel,Friesland,VBO,5.781686,53.305708
Gedempte Haven,63,,,9074CL,Hallum,Ferwerderadiel,Friesland,VBO,5.781643,53.305645
Gedempte Haven,65,,,9074CL,Hallum,Ferwerderadiel,Friesland,VBO,5.781601,53.305581
It Blikkelân,1,,,9074CM,Hallum,Ferwerderadiel,Friesland,VBO,5.784236,53.305671
It Blikkelân,2,,,9074CM,Hallum,Ferwerderadiel,Friesland,VBO,5.784195,53.305897
It Blikkelân,5,,,9074CM,Hallum,Ferwerderadiel,Friesland,VBO,5.784053,53.305530
It Blikkelân,7,,,9074CM,Hallum,Ferwerderadiel,Friesland,VBO,5.784003,53.305494
It Blikkelân,9,A,,9074CM,Hallum,Ferwerderadiel,Friesland,VBO,5.783954,53.305386
It Blikkelân,9,B,,9074CM,Hallum,Ferwerderadiel,Friesland,VBO,5.784001,53.305375
It Blikkelân,9,C,,9074CM,Hallum,Ferwerderadiel,Friesland,VBO,5.784044,53.305351
It Blikkelân,9,D,,9074CM,Hallum,Ferwerderadiel,Friesland,VBO,5.784090,53.305332
It Blikkelân,9,E,,9074CM,Hallum,Ferwerderadiel,Friesland,VBO,5.784127,53.305316
It Blikkelân,9,,,9074CM,Hallum,Ferwerderadiel,Friesland,VBO,5.784208,53.305252
It Blikkelân,10,,,9074CM,Hallum,Ferwerderadiel,Friesland,VBO,5.783439,53.305399
It Blikkelân,11,A,,9074CM,Hallum,Ferwerderadiel,Friesland,VBO,5.783861,53.305275
It Blikkelân,11,B,,9074CM,Hallum,Ferwerderadiel,Friesland,VBO,5.783881,53.305262
It Blikkelân,11,C,,9074CM,Hallum,Ferwerderadiel,Friesland,VBO,5.783932,53.305236
It Blikkelân,11,D,,9074CM,Hallum,Ferwerderadiel,Friesland,VBO,5.783979,53.305199
It Blikkelân,11,E,,9074CM,Hallum,Ferwerderadiel,Friesland,VBO,5.784028,53.305172
It Blikkelân,11,,,9074CM,Hallum,Ferwerderadiel,Friesland,VBO,5.784118,53.305118
It Blikkelân,12,,,9074CM,Hallum,Ferwerderadiel,Friesland,VBO,5.783384,53.305352
It Blikkelân,13,,,9074CM,Hallum,Ferwerderadiel,Friesland,VBO,5.783668,53.305209
It Blikkelân,14,,,9074CM,Hallum,Ferwerderadiel,Friesland,VBO,5.783267,53.305251
It Blikkelân,15,,,9074CM,Hallum,Ferwerderadiel,Friesland,VBO,5.783601,53.305030
It Blikkelân,16,,,9074CM,Hallum,Ferwerderadiel,Friesland,VBO,5.783212,53.305205
It Blikkelân,17,A,,9074CM,Hallum,Ferwerderadiel,Friesland,VBO,5.783311,53.304661
It Blikkelân,17,,,9074CM,Hallum,Ferwerderadiel,Friesland,VBO,5.783367,53.304711
It Blikkelân,18,,,9074CM,Hallum,Ferwerderadiel,Friesland,VBO,5.783093,53.305103
It Blikkelân,20,,,9074CM,Hallum,Ferwerderadiel,Friesland,VBO,5.783036,53.305054
It Blikkelân,21,,,9074CM,Hallum,Ferwerderadiel,Friesland,VBO,5.782105,53.303930
It Blikkelân,22,,,9074CM,Hallum,Ferwerderadiel,Friesland,VBO,5.782782,53.304857
It Blikkelân,24,,,9074CM,Hallum,Ferwerderadiel,Friesland,VBO,5.782738,53.304808
It Blikkelân,26,,,9074CM,Hallum,Ferwerderadiel,Friesland,VBO,5.782694,53.304760
It Blikkelân,28,,,9074CM,Hallum,Ferwerderadiel,Friesland,VBO,5.782651,53.304711
It Blikkelân,30,,,9074CM,Hallum,Ferwerderadiel,Friesland,VBO,5.782206,53.304369
It Blikkelân,32,,,9074CM,Hallum,Ferwerderadiel,Friesland,VBO,5.782157,53.304324
It Blikkelân,34,,,9074CM,Hallum,Ferwerderadiel,Friesland,VBO,5.782063,53.304236
It Blikkelân,36,,,9074CM,Hallum,Ferwerderadiel,Friesland,VBO,5.782016,53.304192
It Blikkelân,38,,,9074CM,Hallum,Ferwerderadiel,Friesland,VBO,5.781919,53.304103
It Blikkelân,40,,,9074CM,Hallum,Ferwerderadiel,Friesland,VBO,5.781870,53.304058
It Blikkelân,42,,,9074CM,Hallum,Ferwerderadiel,Friesland,VBO,5.781005,53.303635
It Blikkelân,44,,,9074CM,Hallum,Ferwerderadiel,Friesland,VBO,5.780925,53.303550
It Blikkelân,46,,,9074CM,Hallum,Ferwerderadiel,Friesland,VBO,5.780845,53.303465
It Blikkelân,48,,,9074CM,Hallum,Ferwerderadiel,Friesland,VBO,5.780765,53.303380
It Blikkelân,50,,,9074CM,Hallum,Ferwerderadiel,Friesland,VBO,5.780658,53.303273
Twa Brêgen,1,,,9074CN,Hallum,Ferwerderadiel,Friesland,VBO,5.781130,53.303721
Twa Brêgen,2,,,9074CN,Hallum,Ferwerderadiel,Friesland,VBO,5.781605,53.303877
Twa Brêgen,3,A,,9074CN,Hallum,Ferwerderadiel,Friesland,VBO,5.780529,53.303756
Twa Brêgen,3,B,,9074CN,Hallum,Ferwerderadiel,Friesland,VBO,5.780416,53.303609
Twa Brêgen,3,,,9074CN,Hallum,Ferwerderadiel,Friesland,VBO,5.780724,53.303884
Twa Brêgen,4,,,9074CN,Hallum,Ferwerderadiel,Friesland,VBO,5.781476,53.303922
Twa Brêgen,5,,,9074CN,Hallum,Ferwerderadiel,Friesland,VBO,5.780290,53.303449
Twa Brêgen,6,,,9074CN,Hallum,Ferwerderadiel,Friesland,VBO,5.781346,53.303968
Twa Brêgen,7,,,9074CN,Hallum,Ferwerderadiel,Friesland,VBO,5.779993,53.303687
Twa Brêgen,8,,,9074CN,Hallum,Ferwerderadiel,Friesland,VBO,5.781217,53.304013
Twa Brêgen,9,,,9074CN,Hallum,Ferwerderadiel,Friesland,VBO,5.780094,53.303880
Twa Brêgen,10,,,9074CN,Hallum,Ferwerderadiel,Friesland,VBO,5.781087,53.304058
Twa Brêgen,11,,,9074CN,Hallum,Ferwerderadiel,Friesland,VBO,5.780267,53.304039
Twa Brêgen,12,,,9074CN,Hallum,Ferwerderadiel,Friesland,VBO,5.780958,53.304104
Twa Brêgen,14,,,9074CN,Hallum,Ferwerderadiel,Friesland,VBO,5.780828,53.304149
Twa Brêgen,16,,,9074CN,Hallum,Ferwerderadiel,Friesland,VBO,5.780699,53.304195
Twa Brêgen,18,,,9074CN,Hallum,Ferwerderadiel,Friesland,VBO,5.780498,53.304275
Goslinghastraat,1,,,9074CP,Hallum,Ferwerderadiel,Friesland,VBO,5.782502,53.304987
Goslinghastraat,2,,,9074CP,Hallum,Ferwerderadiel,Friesland,VBO,5.782715,53.305166
Goslinghastraat,3,,,9074CP,Hallum,Ferwerderadiel,Friesland,VBO,5.782428,53.305015
Goslinghastraat,4,,,9074CP,Hallum,Ferwerderadiel,Friesland,VBO,5.782632,53.305197
Goslinghastraat,5,,,9074CP,Hallum,Ferwerderadiel,Friesland,VBO,5.782278,53.305073
Goslinghastraat,6,,,9074CP,Hallum,Ferwerderadiel,Friesland,VBO,5.782466,53.305259
Goslinghastraat,7,,,9074CP,Hallum,Ferwerderadiel,Friesland,VBO,5.782205,53.305101
Goslinghastraat,8,,,9074CP,Hallum,Ferwerderadiel,Friesland,VBO,5.782384,53.305290
Goslinghastraat,9,,,9074CP,Hallum,Ferwerderadiel,Friesland,VBO,5.781689,53.305206
Goslinghastraat,10,,,9074CP,Hallum,Ferwerderadiel,Friesland,VBO,5.782214,53.305355
Goslinghastraat,12,,,9074CP,Hallum,Ferwerderadiel,Friesland,VBO,5.782133,53.305385
Goslinghastraat,14,,,9074CP,Hallum,Ferwerderadiel,Friesland,VBO,5.781963,53.305449
Goslinghastraat,16,,,9074CP,Hallum,Ferwerderadiel,Friesland,VBO,5.781883,53.305480
Cannegieterstrjitte,1,,,9074CR,Hallum,Ferwerderadiel,Friesland,VBO,5.780907,53.306356
Cannegieterstrjitte,2,A,,9074CR,Hallum,Ferwerderadiel,Friesland,VBO,5.780996,53.306648
Cannegieterstrjitte,2,B,,9074CR,Hallum,Ferwerderadiel,Friesland,VBO,5.780960,53.306658
Cannegieterstrjitte,2,C,,9074CR,Hallum,Ferwerderadiel,Friesland,VBO,5.780925,53.306667
Cannegieterstrjitte,2,D,,9074CR,Hallum,Ferwerderadiel,Friesland,VBO,5.780890,53.306676
Cannegieterstrjitte,2,E,,9074CR,Hallum,Ferwerderadiel,Friesland,VBO,5.780855,53.306685
Cannegieterstrjitte,2,F,,9074CR,Hallum,Ferwerderadiel,Friesland,VBO,5.780819,53.306694
Cannegieterstrjitte,3,,,9074CR,Hallum,Ferwerderadiel,Friesland,VBO,5.780654,53.306257
Cannegieterstrjitte,4,,,9074CR,Hallum,Ferwerderadiel,Friesland,VBO,5.780475,53.306708
Cannegieterstrjitte,5,,,9074CR,Hallum,Ferwerderadiel,Friesland,VBO,5.780443,53.306311
Cannegieterstrjitte,6,,,9074CR,Hallum,Ferwerderadiel,Friesland,VBO,5.779901,53.306861
Cannegieterstrjitte,7,,,9074CR,Hallum,Ferwerderadiel,Friesland,VBO,5.780398,53.306489
Cannegieterstrjitte,9,,,9074CR,Hallum,Ferwerderadiel,Friesland,VBO,5.780178,53.306558
Cannegieterstrjitte,11,,,9074CR,Hallum,Ferwerderadiel,Friesland,VBO,5.779803,53.306617
Ljouwerterdyk,11,,,9074CS,Hallum,Ferwerderadiel,Friesland,VBO,5.777574,53.294394
Ljouwerterdyk,13,,,9074CS,Hallum,Ferwerderadiel,Friesland,VBO,5.778723,53.291896
Ljouwerterdyk,14,C,,9074CS,Hallum,Ferwerderadiel,Friesland,VBO,5.778193,53.305397
Ljouwerterdyk,14,,,9074CS,Hallum,Ferwerderadiel,Friesland,VBO,5.778395,53.304290
Ljouwerterdyk,16,,,9074CS,Hallum,Ferwerderadiel,Friesland,VBO,5.778081,53.304180
Ljouwerterdyk,18,A,,9074CS,Hallum,Ferwerderadiel,Friesland,VBO,5.777075,53.301465
Ljouwerterdyk,18,,,9074CS,Hallum,Ferwerderadiel,Friesland,VBO,5.776708,53.301753
Ljouwerterdyk,20,,,9074CS,Hallum,Ferwerderadiel,Friesland,VBO,5.769427,53.292677
Hijumerweg,2,A,,9074CT,Hallum,Ferwerderadiel,Friesland,VBO,5.773149,53.296447
Hijumerweg,2,,,9074CT,Hallum,Ferwerderadiel,Friesland,VBO,5.772348,53.296552
Hijumerweg,4,,,9074CT,Hallum,Ferwerderadiel,Friesland,VBO,5.771518,53.296475
Jipperdastrjitte,28,,,9074CV,Hallum,Ferwerderadiel,Friesland,VBO,5.794120,53.305197
Jipperdastrjitte,30,,,9074CV,Hallum,Ferwerderadiel,Friesland,VBO,5.794720,53.305175
Jipperdastrjitte,1,,,9074CW,Hallum,Ferwerderadiel,Friesland,VBO,5.790365,53.304815
Jipperdastrjitte,3,,,9074CW,Hallum,Ferwerderadiel,Friesland,VBO,5.790437,53.304869
Jipperdastrjitte,5,,,9074CW,Hallum,Ferwerderadiel,Friesland,VBO,5.790509,53.304923
Jipperdastrjitte,7,,,9074CW,Hallum,Ferwerderadiel,Friesland,VBO,5.790570,53.304983
Jipperdastrjitte,9,A,,9074CW,Hallum,Ferwerderadiel,Friesland,VBO,5.790669,53.305058
Jipperdastrjitte,9,,,9074CW,Hallum,Ferwerderadiel,Friesland,VBO,5.790624,53.305023
Jipperdastrjitte,11,,,9074CW,Hallum,Ferwerderadiel,Friesland,VBO,5.791168,53.305450
Jipperdastrjitte,13,,,9074CW,Hallum,Ferwerderadiel,Friesland,VBO,5.791224,53.305494
Jipperdastrjitte,15,,,9074CW,Hallum,Ferwerderadiel,Friesland,VBO,5.791552,53.305718
Jipperdastrjitte,17,,,9074CW,Hallum,Ferwerderadiel,Friesland,VBO,5.791609,53.305764
Jipperdastrjitte,19,,,9074CW,Hallum,Ferwerderadiel,Friesland,VBO,5.793737,53.305792
De Singel,2,,,9074CX,Hallum,Ferwerderadiel,Friesland,VBO,5.787063,53.304031
De Singel,4,,,9074CX,Hallum,Ferwerderadiel,Friesland,VBO,5.786748,53.304145
De Singel,6,,,9074CX,Hallum,Ferwerderadiel,Friesland,VBO,5.786509,53.304208
De Singel,8,,,9074CX,Hallum,Ferwerderadiel,Friesland,VBO,5.786194,53.304361
De Singel,3,,,9074CZ,Hallum,Ferwerderadiel,Friesland,VBO,5.785479,53.304155
De Singel,5,,,9074CZ,Hallum,Ferwerderadiel,Friesland,VBO,5.784768,53.304095
De Singel,7,,,9074CZ,Hallum,Ferwerderadiel,Friesland,VBO,5.784810,53.304407
De Aek,1,,,9074DA,Hallum,Ferwerderadiel,Friesland,VBO,5.788466,53.303027
De Aek,2,,,9074DA,Hallum,Ferwerderadiel,Friesland,VBO,5.788231,53.302846
De Aek,3,,,9074DA,Hallum,Ferwerderadiel,Friesland,VBO,5.788549,53.302992
De Aek,4,,,9074DA,Hallum,Ferwerderadiel,Friesland,VBO,5.788316,53.302813
De Aek,5,,,9074DA,Hallum,Ferwerderadiel,Friesland,VBO,5.788761,53.302943
De Aek,6,,,9074DA,Hallum,Ferwerderadiel,Friesland,VBO,5.788501,53.302738
De Aek,7,,,9074DA,Hallum,Ferwerderadiel,Friesland,VBO,5.788842,53.302910
De Aek,8,,,9074DA,Hallum,Ferwerderadiel,Friesland,VBO,5.788581,53.302704
De Aek,9,,,9074DA,Hallum,Ferwerderadiel,Friesland,VBO,5.789954,53.303459
De Aek,10,,,9074DA,Hallum,Ferwerderadiel,Friesland,VBO,5.789647,53.302827
De Aek,11,,,9074DA,Hallum,Ferwerderadiel,Friesland,VBO,5.790013,53.303498
De Aek,12,,,9074DA,Hallum,Ferwerderadiel,Friesland,VBO,5.789792,53.302935
De Aek,14,,,9074DA,Hallum,Ferwerderadiel,Friesland,VBO,5.790020,53.303087
De Aek,16,,,9074DA,Hallum,Ferwerderadiel,Friesland,VBO,5.790225,53.303220
De Aek,18,,,9074DA,Hallum,Ferwerderadiel,Friesland,VBO,5.790407,53.303343
De Aek,20,,,9074DA,Hallum,Ferwerderadiel,Friesland,VBO,5.790638,53.303458
De Aek,22,,,9074DA,Hallum,Ferwerderadiel,Friesland,VBO,5.790804,53.303610
De Aek,24,,,9074DA,Hallum,Ferwerderadiel,Friesland,VBO,5.791038,53.303724
De Boeijer,1,,,9074DB,Hallum,Ferwerderadiel,Friesland,VBO,5.789450,53.303449
De Boeijer,2,,,9074DB,Hallum,Ferwerderadiel,Friesland,VBO,5.789078,53.303266
De Boeijer,3,,,9074DB,Hallum,Ferwerderadiel,Friesland,VBO,5.789524,53.303415
De Boeijer,4,,,9074DB,Hallum,Ferwerderadiel,Friesland,VBO,5.789157,53.303233
De Boeijer,6,,,9074DB,Hallum,Ferwerderadiel,Friesland,VBO,5.789320,53.303133
De Boeijer,8,,,9074DB,Hallum,Ferwerderadiel,Friesland,VBO,5.789400,53.303100
De Skou,1,,,9074DC,Hallum,Ferwerderadiel,Friesland,VBO,5.790099,53.304193
De Skou,2,,,9074DC,Hallum,Ferwerderadiel,Friesland,VBO,5.789937,53.303778
De Skou,3,,,9074DC,Hallum,Ferwerderadiel,Friesland,VBO,5.790166,53.304156
De Skou,4,,,9074DC,Hallum,Ferwerderadiel,Friesland,VBO,5.790006,53.303740
De Skou,5,,,9074DC,Hallum,Ferwerderadiel,Friesland,VBO,5.790301,53.304056
De Skou,7,,,9074DC,Hallum,Ferwerderadiel,Friesland,VBO,5.790369,53.304020
De Skou,9,,,9074DC,Hallum,Ferwerderadiel,Friesland,VBO,5.790510,53.303921
De Skou,11,,,9074DC,Hallum,Ferwerderadiel,Friesland,VBO,5.790573,53.303887
De Tsjalk,1,,,9074DD,Hallum,Ferwerderadiel,Friesland,VBO,5.787268,53.303343
De Tsjalk,2,,,9074DD,Hallum,Ferwerderadiel,Friesland,VBO,5.786748,53.303268
De Tsjalk,3,,,9074DD,Hallum,Ferwerderadiel,Friesland,VBO,5.787331,53.303315
De Tsjalk,4,,,9074DD,Hallum,Ferwerderadiel,Friesland,VBO,5.786823,53.303234
De Tsjalk,5,,,9074DD,Hallum,Ferwerderadiel,Friesland,VBO,5.787515,53.303231
De Tsjalk,6,,,9074DD,Hallum,Ferwerderadiel,Friesland,VBO,5.787001,53.303142
De Tsjalk,7,,,9074DD,Hallum,Ferwerderadiel,Friesland,VBO,5.787580,53.303202
De Tsjalk,8,,,9074DD,Hallum,Ferwerderadiel,Friesland,VBO,5.787077,53.303108
De Tsjalk,9,,,9074DD,Hallum,Ferwerderadiel,Friesland,VBO,5.787764,53.303119
De Tsjalk,10,,,9074DD,Hallum,Ferwerderadiel,Friesland,VBO,5.787259,53.303027
De Tsjalk,11,,,9074DD,Hallum,Ferwerderadiel,Friesland,VBO,5.787825,53.303091
De Tsjalk,12,,,9074DD,Hallum,Ferwerderadiel,Friesland,VBO,5.787335,53.302992
Gerbadastrjitte,2,,,9074DE,Hallum,Ferwerderadiel,Friesland,VBO,5.787040,53.304399
De Foarplecht,1,,,9074DG,Hallum,Ferwerderadiel,Friesland,VBO,5.787410,53.302376
De Foarplecht,2,,,9074DG,Hallum,Ferwerderadiel,Friesland,VBO,5.787355,53.302167
De Foarplecht,3,,,9074DG,Hallum,Ferwerderadiel,Friesland,VBO,5.787498,53.302411
De Foarplecht,4,,,9074DG,Hallum,Ferwerderadiel,Friesland,VBO,5.787498,53.302177
De Foarplecht,5,,,9074DG,Hallum,Ferwerderadiel,Friesland,VBO,5.787532,53.302533
De Foarplecht,6,,,9074DG,Hallum,Ferwerderadiel,Friesland,VBO,5.787624,53.302216
De Foarplecht,7,,,9074DG,Hallum,Ferwerderadiel,Friesland,VBO,5.787606,53.302643
De Foarplecht,8,,,9074DG,Hallum,Ferwerderadiel,Friesland,VBO,5.787778,53.302291
De Foarplecht,10,,,9074DG,Hallum,Ferwerderadiel,Friesland,VBO,5.787860,53.302357
De Foarplecht,12,,,9074DG,Hallum,Ferwerderadiel,Friesland,VBO,5.788117,53.302447
De Foarplecht,14,,,9074DG,Hallum,Ferwerderadiel,Friesland,VBO,5.787993,53.302540
De Foarplecht,16,,,9074DG,Hallum,Ferwerderadiel,Friesland,VBO,5.787877,53.302593
De Foarplecht,18,,,9074DG,Hallum,Ferwerderadiel,Friesland,VBO,5.787857,53.302674
De Roef,1,,,9074DH,Hallum,Ferwerderadiel,Friesland,VBO,5.787172,53.302491
De Roef,2,,,9074DH,Hallum,Ferwerderadiel,Friesland,VBO,5.787178,53.302791
De Roef,4,,,9074DH,Hallum,Ferwerderadiel,Friesland,VBO,5.787086,53.302717
De Botter,1,,,9074DJ,Hallum,Ferwerderadiel,Friesland,VBO,5.787279,53.301971
De Botter,2,,,9074DJ,Hallum,Ferwerderadiel,Friesland,VBO,5.786831,53.301973
De Botter,3,,,9074DJ,Hallum,Ferwerderadiel,Friesland,VBO,5.787124,53.301818
De Botter,4,,,9074DJ,Hallum,Ferwerderadiel,Friesland,VBO,5.786733,53.301907
De Botter,5,,,9074DJ,Hallum,Ferwerderadiel,Friesland,VBO,5.786945,53.301676
De Botter,6,,,9074DJ,Hallum,Ferwerderadiel,Friesland,VBO,5.786588,53.301833
De Botter,7,,,9074DJ,Hallum,Ferwerderadiel,Friesland,VBO,5.786739,53.301545
De Botter,8,,,9074DJ,Hallum,Ferwerderadiel,Friesland,VBO,5.786512,53.301757
De Botter,9,,,9074DJ,Hallum,Ferwerderadiel,Friesland,VBO,5.786527,53.301419
De Botter,10,,,9074DJ,Hallum,Ferwerderadiel,Friesland,VBO,5.786314,53.301628
De Boech,1,,,9074DK,Hallum,Ferwerderadiel,Friesland,VBO,5.786309,53.301299
De Boech,2,,,9074DK,Hallum,Ferwerderadiel,Friesland,VBO,5.785685,53.301124
De Boech,3,,,9074DK,Hallum,Ferwerderadiel,Friesland,VBO,5.786184,53.301142
De Boech,5,,,9074DK,Hallum,Ferwerderadiel,Friesland,VBO,5.786036,53.300976
De Pream,1,,,9074DL,Hallum,Ferwerderadiel,Friesland,VBO,5.786957,53.302176
De Pream,2,,,9074DL,Hallum,Ferwerderadiel,Friesland,VBO,5.786907,53.302558
De Pream,3,,,9074DL,Hallum,Ferwerderadiel,Friesland,VBO,5.786866,53.302217
De Pream,4,,,9074DL,Hallum,Ferwerderadiel,Friesland,VBO,5.786761,53.302624
De Pream,5,,,9074DL,Hallum,Ferwerderadiel,Friesland,VBO,5.786761,53.302353
De Pream,6,,,9074DL,Hallum,Ferwerderadiel,Friesland,VBO,5.786648,53.302753
De Pream,7,A,,9074DL,Hallum,Ferwerderadiel,Friesland,VBO,5.786501,53.302428
De Pream,7,,,9074DL,Hallum,Ferwerderadiel,Friesland,VBO,5.786672,53.302392
De Pream,8,,,9074DL,Hallum,Ferwerderadiel,Friesland,VBO,5.786571,53.302787
De Pream,9,,,9074DL,Hallum,Ferwerderadiel,Friesland,VBO,5.786221,53.302315
De Pream,10,,,9074DL,Hallum,Ferwerderadiel,Friesland,VBO,5.786196,53.302642
De Pream,11,,,9074DL,Hallum,Ferwerderadiel,Friesland,VBO,5.786243,53.302220
De Pream,12,,,9074DL,Hallum,Ferwerderadiel,Friesland,VBO,5.786102,53.302632
De Pream,13,,,9074DL,Hallum,Ferwerderadiel,Friesland,VBO,5.786276,53.302112
De Pream,14,,,9074DL,Hallum,Ferwerderadiel,Friesland,VBO,5.785883,53.302407
De Pream,15,,,9074DL,Hallum,Ferwerderadiel,Friesland,VBO,5.786140,53.302017
De Pream,16,,,9074DL,Hallum,Ferwerderadiel,Friesland,VBO,5.785895,53.302352
De Pream,17,,,9074DL,Hallum,Ferwerderadiel,Friesland,VBO,5.785967,53.301889
De Pream,18,,,9074DL,Hallum,Ferwerderadiel,Friesland,VBO,5.785828,53.302188
De Pream,20,,,9074DL,Hallum,Ferwerderadiel,Friesland,VBO,5.785693,53.302075
De Pream,21,,,9074DL,Hallum,Ferwerderadiel,Friesland,VBO,5.785856,53.301748
De Pream,22,,,9074DL,Hallum,Ferwerderadiel,Friesland,VBO,5.785641,53.302034
De Pream,23,,,9074DL,Hallum,Ferwerderadiel,Friesland,VBO,5.785884,53.301628
De Pream,24,,,9074DL,Hallum,Ferwerderadiel,Friesland,VBO,5.785517,53.301936
De Pream,26,,,9074DL,Hallum,Ferwerderadiel,Friesland,VBO,5.785465,53.301895
De Tsjotter,1,,,9074DM,Hallum,Ferwerderadiel,Friesland,VBO,5.786071,53.303291
De Tsjotter,2,,,9074DM,Hallum,Ferwerderadiel,Friesland,VBO,5.786099,53.303562
De Tsjotter,3,,,9074DM,Hallum,Ferwerderadiel,Friesland,VBO,5.785877,53.303137
De Tsjotter,4,,,9074DM,Hallum,Ferwerderadiel,Friesland,VBO,5.785859,53.303758
De Tsjotter,5,,,9074DM,Hallum,Ferwerderadiel,Friesland,VBO,5.785714,53.302967
De Tsjotter,6,,,9074DM,Hallum,Ferwerderadiel,Friesland,VBO,5.785619,53.303440
De Tsjotter,7,,,9074DM,Hallum,Ferwerderadiel,Friesland,VBO,5.785556,53.302799
De Tsjotter,8,,,9074DM,Hallum,Ferwerderadiel,Friesland,VBO,5.785449,53.303307
De Tsjotter,9,,,9074DM,Hallum,Ferwerderadiel,Friesland,VBO,5.785301,53.302500
De Tsjotter,10,,,9074DM,Hallum,Ferwerderadiel,Friesland,VBO,5.785327,53.303117
De Tsjotter,11,A,,9074DM,Hallum,Ferwerderadiel,Friesland,VBO,5.784981,53.302246
De Tsjotter,11,,,9074DM,Hallum,Ferwerderadiel,Friesland,VBO,5.785095,53.302387
De Tsjotter,12,,,9074DM,Hallum,Ferwerderadiel,Friesland,VBO,5.785113,53.302995
De Tsjotter,13,,,9074DM,Hallum,Ferwerderadiel,Friesland,VBO,5.784876,53.302102
De Tsjotter,14,A,,9074DM,Hallum,Ferwerderadiel,Friesland,VBO,5.784811,53.302675
De Tsjotter,14,,,9074DM,Hallum,Ferwerderadiel,Friesland,VBO,5.785007,53.302808
De Tsjotter,15,,,9074DM,Hallum,Ferwerderadiel,Friesland,VBO,5.784756,53.301945
De Tsjotter,16,,,9074DM,Hallum,Ferwerderadiel,Friesland,VBO,5.784702,53.302481
De Tsjotter,17,,,9074DM,Hallum,Ferwerderadiel,Friesland,VBO,5.785092,53.301776
De Tsjotter,18,,,9074DM,Hallum,Ferwerderadiel,Friesland,VBO,5.784622,53.302345
De Tsjotter,19,,,9074DM,Hallum,Ferwerderadiel,Friesland,VBO,5.785255,53.301711
De Tsjotter,20,,,9074DM,Hallum,Ferwerderadiel,Friesland,VBO,5.784521,53.302251
De Tsjotter,21,,,9074DM,Hallum,Ferwerderadiel,Friesland,VBO,5.785416,53.301647
De Tsjotter,22,,,9074DM,Hallum,Ferwerderadiel,Friesland,VBO,5.784376,53.302128
De Tsjotter,24,,,9074DM,Hallum,Ferwerderadiel,Friesland,VBO,5.784106,53.301886
De Tsjotter,26,,,9074DM,Hallum,Ferwerderadiel,Friesland,VBO,5.784447,53.301725
De Tsjotter,28,,,9074DM,Hallum,Ferwerderadiel,Friesland,VBO,5.784878,53.301533
De Tsjotter,30,,,9074DM,Hallum,Ferwerderadiel,Friesland,VBO,5.785127,53.301441
De Tsjotter,32,,,9074DM,Hallum,Ferwerderadiel,Friesland,VBO,5.785401,53.301355
De Tsjotter,34,,,9074DM,Hallum,Ferwerderadiel,Friesland,VBO,5.785834,53.301337
It Skûtsje,1,,,9074DN,Hallum,Ferwerderadiel,Friesland,VBO,5.787963,53.303976
It Skûtsje,2,,,9074DN,Hallum,Ferwerderadiel,Friesland,VBO,5.787712,53.303713
It Skûtsje,3,,,9074DN,Hallum,Ferwerderadiel,Friesland,VBO,5.788102,53.303915
It Skûtsje,4,,,9074DN,Hallum,Ferwerderadiel,Friesland,VBO,5.787822,53.303663
It Skûtsje,5,,,9074DN,Hallum,Ferwerderadiel,Friesland,VBO,5.788241,53.303855
It Skûtsje,6,,,9074DN,Hallum,Ferwerderadiel,Friesland,VBO,5.787932,53.303614
It Skûtsje,7,,,9074DN,Hallum,Ferwerderadiel,Friesland,VBO,5.788381,53.303794
It Skûtsje,8,,,9074DN,Hallum,Ferwerderadiel,Friesland,VBO,5.788042,53.303565
It Skûtsje,9,,,9074DN,Hallum,Ferwerderadiel,Friesland,VBO,5.788520,53.303734
It Skûtsje,11,,,9074DN,Hallum,Ferwerderadiel,Friesland,VBO,5.788659,53.303674
De Prysterfinne,2,,,9074DP,Hallum,Ferwerderadiel,Friesland,VBO,5.786045,53.308860
De Prysterfinne,4,,,9074DP,Hallum,Ferwerderadiel,Friesland,VBO,5.785828,53.308969
De Prysterfinne,6,,,9074DP,Hallum,Ferwerderadiel,Friesland,VBO,5.785637,53.309079
De Prysterfinne,8,,,9074DP,Hallum,Ferwerderadiel,Friesland,VBO,5.785634,53.309319
De Prysterfinne,1,,,9074DR,Hallum,Ferwerderadiel,Friesland,VBO,5.785605,53.308672
De Prysterfinne,3,,,9074DR,Hallum,Ferwerderadiel,Friesland,VBO,5.785403,53.308768
De Prysterfinne,5,,,9074DR,Hallum,Ferwerderadiel,Friesland,VBO,5.785208,53.308865
De Prysterfinne,7,,,9074DR,Hallum,Ferwerderadiel,Friesland,VBO,5.785208,53.309427
Offingaburg,1,,,9074DV,Hallum,Ferwerderadiel,Friesland,VBO,5.783707,53.307276
Offingaburg,2,,,9074DV,Hallum,Ferwerderadiel,Friesland,VBO,5.784031,53.307279
Offingaburg,3,,,9074DV,Hallum,Ferwerderadiel,Friesland,VBO,5.783968,53.307185
Offingaburg,4,,,9074DV,Hallum,Ferwerderadiel,Friesland,VBO,5.783909,53.307095
Offingaburg,5,,,9074DV,Hallum,Ferwerderadiel,Friesland,VBO,5.783841,53.307000
Offingaburg,6,,,9074DV,Hallum,Ferwerderadiel,Friesland,VBO,5.783609,53.306997
Offingaburg,7,,,9074DV,Hallum,Ferwerderadiel,Friesland,VBO,5.783460,53.307030
Offingaburg,8,,,9074DV,Hallum,Ferwerderadiel,Friesland,VBO,5.783350,53.307165
Offingaburg,9,,,9074DV,Hallum,Ferwerderadiel,Friesland,VBO,5.783466,53.307361
Offingaburg,10,,,9074DV,Hallum,Ferwerderadiel,Friesland,VBO,5.783966,53.307293
Offingaburg,11,,,9074DV,Hallum,Ferwerderadiel,Friesland,VBO,5.783884,53.307201
Offingaburg,12,,,9074DV,Hallum,Ferwerderadiel,Friesland,VBO,5.783856,53.307109
Offingaburg,13,,,9074DV,Hallum,Ferwerderadiel,Friesland,VBO,5.783799,53.307011
Offingaburg,14,,,9074DV,Hallum,Ferwerderadiel,Friesland,VBO,5.783637,53.307025
Offingaburg,15,,,9074DV,Hallum,Ferwerderadiel,Friesland,VBO,5.783488,53.307058
Offingaburg,16,,,9074DV,Hallum,Ferwerderadiel,Friesland,VBO,5.783277,53.307129
Offingaburg,17,,,9074DV,Hallum,Ferwerderadiel,Friesland,VBO,5.783333,53.307230
Offingaburg,18,,,9074DV,Hallum,Ferwerderadiel,Friesland,VBO,5.783371,53.307331
Offingaburg,19,,,9074DV,Hallum,Ferwerderadiel,Friesland,VBO,5.783436,53.307421
Offingaburg,20,,,9074DV,Hallum,Ferwerderadiel,Friesland,VBO,5.783333,53.307095
Offingaburg,21,,,9074DV,Hallum,Ferwerderadiel,Friesland,VBO,5.783283,53.307180
Offingaburg,22,,,9074DV,Hallum,Ferwerderadiel,Friesland,VBO,5.783448,53.307295
Offingaburg,23,,,9074DV,Hallum,Ferwerderadiel,Friesland,VBO,5.783382,53.307386
De Koarte five,1,,,9074EA,Hallum,Ferwerderadiel,Friesland,VBO,5.781818,53.304584
De Koarte five,3,,,9074EA,Hallum,Ferwerderadiel,Friesland,VBO,5.781760,53.304524
De Koarte five,5,,,9074EA,Hallum,Ferwerderadiel,Friesland,VBO,5.781702,53.304464
De Koarte five,7,,,9074EA,Hallum,Ferwerderadiel,Friesland,VBO,5.781644,53.304405
De Koarte five,9,,,9074EA,Hallum,Ferwerderadiel,Friesland,VBO,5.781428,53.304324
De Koarte five,11,,,9074EA,Hallum,Ferwerderadiel,Friesland,VBO,5.781333,53.304359
De Koarte five,13,,,9074EA,Hallum,Ferwerderadiel,Friesland,VBO,5.781237,53.304394
De Koarte five,15,,,9074EA,Hallum,Ferwerderadiel,Friesland,VBO,5.781142,53.304428
De Koarte five,17,,,9074EA,Hallum,Ferwerderadiel,Friesland,VBO,5.781007,53.304463
De Koarte five,19,,,9074EA,Hallum,Ferwerderadiel,Friesland,VBO,5.780910,53.304498
De Koarte five,21,,,9074EA,Hallum,Ferwerderadiel,Friesland,VBO,5.780814,53.304532
De Koarte five,23,,,9074EA,Hallum,Ferwerderadiel,Friesland,VBO,5.780717,53.304567
Doniaweg,28,C,,9074EA,Hallum,Ferwerderadiel,Friesland,VBO,5.775941,53.308255
Doniaweg,28,D,,9074EA,Hallum,Ferwerderadiel,Friesland,VBO,5.775719,53.308227
De Koarte five,2,,,9074EB,Hallum,Ferwerderadiel,Friesland,VBO,5.782416,53.304556
De Koarte five,4,,,9074EB,Hallum,Ferwerderadiel,Friesland,VBO,5.782328,53.304584
De Koarte five,6,,,9074EB,Hallum,Ferwerderadiel,Friesland,VBO,5.782241,53.304612
De Koarte five,8,,,9074EB,Hallum,Ferwerderadiel,Friesland,VBO,5.782153,53.304640
De Koarte five,10,,,9074EB,Hallum,Ferwerderadiel,Friesland,VBO,5.782115,53.304761
De Koarte five,12,,,9074EB,Hallum,Ferwerderadiel,Friesland,VBO,5.782030,53.304791
De Koarte five,14,,,9074EB,Hallum,Ferwerderadiel,Friesland,VBO,5.781944,53.304820
De Koarte five,16,,,9074EB,Hallum,Ferwerderadiel,Friesland,VBO,5.781859,53.304850
De Koarte five,18,,,9074EB,Hallum,Ferwerderadiel,Friesland,VBO,5.781731,53.304908
De Koarte five,20,,,9074EB,Hallum,Ferwerderadiel,Friesland,VBO,5.781667,53.304847
De Koarte five,22,,,9074EB,Hallum,Ferwerderadiel,Friesland,VBO,5.781603,53.304787
De Koarte five,24,,,9074EB,Hallum,Ferwerderadiel,Friesland,VBO,5.781539,53.304726
De Koarte five,26,,,9074EB,Hallum,Ferwerderadiel,Friesland,VBO,5.781315,53.304576
De Koarte five,28,,,9074EB,Hallum,Ferwerderadiel,Friesland,VBO,5.781216,53.304609
De Koarte five,30,,,9074EB,Hallum,Ferwerderadiel,Friesland,VBO,5.781117,53.304642
De Koarte five,32,,,9074EB,Hallum,Ferwerderadiel,Friesland,VBO,5.781018,53.304674
De Koarte five,34,,,9074EB,Hallum,Ferwerderadiel,Friesland,VBO,5.781144,53.304860
De Koarte five,36,,,9074EB,Hallum,Ferwerderadiel,Friesland,VBO,5.781191,53.304907
De Koarte five,38,,,9074EB,Hallum,Ferwerderadiel,Friesland,VBO,5.781284,53.304998
De Koarte five,40,,,9074EB,Hallum,Ferwerderadiel,Friesland,VBO,5.781327,53.305041
Zuidermiedweg,1,,,9074LD,Hallum,Ferwerderadiel,Friesland,VBO,5.783755,53.297857
Zuidermiedweg,2,,,9074LD,Hallum,Ferwerderadiel,Friesland,VBO,5.781605,53.296783
Zuidermiedweg,3,,,9074LD,Hallum,Ferwerderadiel,Friesland,VBO,5.795732,53.292918
Zuidermiedweg,4,,,9074LD,Hallum,Ferwerderadiel,Friesland,VBO,5.790192,53.287850
Zuidermiedweg,6,,,9074LD,Hallum,Ferwerderadiel,Friesland,VBO,5.789908,53.287382
Zuidermiedweg,7,,,9074LD,Hallum,Ferwerderadiel,Friesland,VBO,5.799339,53.287652
Zuidermiedweg,8,,,9074LD,Hallum,Ferwerderadiel,Friesland,VBO,5.828154,53.275799
Zuidermiedweg,9,,,9074LD,Hallum,Ferwerderadiel,Friesland,VBO,5.798053,53.287330
Zuidermiedweg,11,A,,9074LD,Hallum,Ferwerderadiel,Friesland,VBO,5.807142,53.287326
Zuidermiedweg,11,B,,9074LD,Hallum,Ferwerderadiel,Friesland,VBO,5.798552,53.283608
Zuidermiedweg,11,,,9074LD,Hallum,Ferwerderadiel,Friesland,VBO,5.798398,53.283772
Zuidermiedweg,13,A,,9074LD,Hallum,Ferwerderadiel,Friesland,VBO,5.808341,53.281359
Zuidermiedweg,13,,,9074LD,Hallum,Ferwerderadiel,Friesland,VBO,5.806161,53.282046
Zuidermiedweg,17,,,9074LD,Hallum,Ferwerderadiel,Friesland,VBO,5.814755,53.280548
Zuidermiedweg,19,A,,9074LD,Hallum,Ferwerderadiel,Friesland,VBO,5.827894,53.277899
Zuidermiedweg,19,,,9074LD,Hallum,Ferwerderadiel,Friesland,VBO,5.818123,53.280142
Trekweg,2,,,9074LE,Hallum,Ferwerderadiel,Friesland,VBO,5.784629,53.300610
Trekweg,4,,,9074LE,Hallum,Ferwerderadiel,Friesland,VBO,5.792036,53.297853
Trekweg,8,A,,9074LE,Hallum,Ferwerderadiel,Friesland,VBO,5.820494,53.285260
Trekweg,8,,,9074LE,Hallum,Ferwerderadiel,Friesland,VBO,5.820448,53.285605
It Pypke,9,,,9074LG,Hallum,Ferwerderadiel,Friesland,VBO,5.788139,53.306000
It Pypke,11,,,9074LG,Hallum,Ferwerderadiel,Friesland,VBO,5.788227,53.305965
It Pypke,13,,,9074LG,Hallum,Ferwerderadiel,Friesland,VBO,5.788378,53.305914
It Pypke,15,,,9074LG,Hallum,Ferwerderadiel,Friesland,VBO,5.788460,53.305884
It Pypke,17,,,9074LG,Hallum,Ferwerderadiel,Friesland,VBO,5.788539,53.305850
It Pypke,23,,,9074LG,Hallum,Ferwerderadiel,Friesland,VBO,5.788947,53.305340
It Pypke,25,,,9074LG,Hallum,Ferwerderadiel,Friesland,VBO,5.789320,53.305192
It Pypke,27,,,9074LG,Hallum,Ferwerderadiel,Friesland,VBO,5.789413,53.305151
It Pypke,29,,,9074LG,Hallum,Ferwerderadiel,Friesland,VBO,5.789505,53.305111
It Pypke,31,,,9074LG,Hallum,Ferwerderadiel,Friesland,VBO,5.789615,53.305071
It Pypke,32,,,9074LG,Hallum,Ferwerderadiel,Friesland,VBO,5.790408,53.304393
It Pypke,33,,,9074LG,Hallum,Ferwerderadiel,Friesland,VBO,5.789684,53.305040
It Pypke,34,,,9074LG,Hallum,Ferwerderadiel,Friesland,VBO,5.790476,53.304356
It Pypke,35,,,9074LG,Hallum,Ferwerderadiel,Friesland,VBO,5.789895,53.304925
It Pypke,36,,,9074LG,Hallum,Ferwerderadiel,Friesland,VBO,5.790721,53.304245
It Pypke,38,,,9074LG,Hallum,Ferwerderadiel,Friesland,VBO,5.790788,53.304209
It Pypke,40,,,9074LG,Hallum,Ferwerderadiel,Friesland,VBO,5.791006,53.304084
It Pypke,42,,,9074LG,Hallum,Ferwerderadiel,Friesland,VBO,5.791075,53.304047
It Pypke,44,,,9074LG,Hallum,Ferwerderadiel,Friesland,VBO,5.791278,53.303913
It Pypke,46,,,9074LG,Hallum,Ferwerderadiel,Friesland,VBO,5.791349,53.303875
Piebewei,2,,,9074LH,Hallum,Ferwerderadiel,Friesland,VBO,5.815858,53.305316
Piebewei,4,,,9074LH,Hallum,Ferwerderadiel,Friesland,VBO,5.815216,53.304138
Piebewei,6,,,9074LH,Hallum,Ferwerderadiel,Friesland,VBO,5.815442,53.302810
Piebewei,8,,,9074LH,Hallum,Ferwerderadiel,Friesland,VBO,5.811265,53.301367
Piebewei,9,,,9074LH,Hallum,Ferwerderadiel,Friesland,VBO,5.808397,53.301123
Piebewei,10,,,9074LH,Hallum,Ferwerderadiel,Friesland,VBO,5.801487,53.299338
Piebewei,12,A,,9074LH,Hallum,Ferwerderadiel,Friesland,VBO,5.801886,53.301680
Piebewei,12,,,9074LH,Hallum,Ferwerderadiel,Friesland,VBO,5.802007,53.301557
Kelnersweg,2,,,9074LJ,Hallum,Ferwerderadiel,Friesland,VBO,5.824980,53.304767
Kelnersweg,4,,,9074LJ,Hallum,Ferwerderadiel,Friesland,VBO,5.827634,53.303451
Kelnersweg,6,,,9074LJ,Hallum,Ferwerderadiel,Friesland,VBO,5.832522,53.302390
Kelnersweg,8,,,9074LJ,Hallum,Ferwerderadiel,Friesland,VBO,5.835213,53.297959
Wildlandsweg,1,,,9074LK,Hallum,Ferwerderadiel,Friesland,VBO,5.795238,53.313530
Wildlandsweg,5,,,9074LK,Hallum,Ferwerderadiel,Friesland,VBO,5.796024,53.312486
Jouwsmabuorren,1,,,9074LL,Hallum,Ferwerderadiel,Friesland,VBO,5.790573,53.309079
Jouwsmabuorren,2,,,9074LL,Hallum,Ferwerderadiel,Friesland,VBO,5.793743,53.310336
Jouwsmabuorren,3,,,9074LL,Hallum,Ferwerderadiel,Friesland,VBO,5.788537,53.308557
Jouwsmabuorren,5,,,9074LL,Hallum,Ferwerderadiel,Friesland,VBO,5.788698,53.308745
Jouwsmabuorren,6,A,,9074LL,Hallum,Ferwerderadiel,Friesland,VBO,5.801584,53.309072
Jouwsmabuorren,6,B,,9074LL,Hallum,Ferwerderadiel,Friesland,VBO,5.801738,53.309110
Jouwsmabuorren,6,,,9074LL,Hallum,Ferwerderadiel,Friesland,VBO,5.800455,53.309104
Jouwsmabuorren,8,,,9074LL,Hallum,Ferwerderadiel,Friesland,VBO,5.805412,53.307631
Jouwsmabuorren,9,,,9074LL,Hallum,Ferwerderadiel,Friesland,VBO,5.805723,53.309428
Noordermiedweg,1,,,9074LM,Hallum,Ferwerderadiel,Friesland,VBO,5.794354,53.302847
Noordermiedweg,2,C,,9074LM,Hallum,Ferwerderadiel,Friesland,VBO,5.786968,53.300768
Noordermiedweg,2,,,9074LM,Hallum,Ferwerderadiel,Friesland,VBO,5.788775,53.301302
Noordermiedweg,3,,,9074LM,Hallum,Ferwerderadiel,Friesland,VBO,5.797030,53.301991
Noordermiedweg,4,,,9074LM,Hallum,Ferwerderadiel,Friesland,VBO,5.811085,53.293064
Noordermiedweg,5,,,9074LM,Hallum,Ferwerderadiel,Friesland,VBO,5.799949,53.297943
Noordermiedweg,7,,,9074LM,Hallum,Ferwerderadiel,Friesland,VBO,5.804487,53.296681
Noordermiedweg,8,,,9074LM,Hallum,Ferwerderadiel,Friesland,VBO,5.818321,53.291565
Noordermiedweg,9,,,9074LM,Hallum,Ferwerderadiel,Friesland,VBO,5.816339,53.292937
Noordermiedweg,10,,,9074LM,Hallum,Ferwerderadiel,Friesland,VBO,5.823629,53.290634
Noordermiedweg,11,,,9074LM,Hallum,Ferwerderadiel,Friesland,VBO,5.826382,53.292080
Noordermiedweg,12,,,9074LM,Hallum,Ferwerderadiel,Friesland,VBO,5.825154,53.290352
Noordermiedweg,13,,,9074LM,Hallum,Ferwerderadiel,Friesland,VBO,5.828727,53.289978
Noordermiedweg,14,,,9074LM,Hallum,Ferwerderadiel,Friesland,VBO,5.831395,53.289289
Noordermiedweg,16,,,9074LM,Hallum,Ferwerderadiel,Friesland,VBO,5.830057,53.286864
Noordermiedweg,18,,,9074LM,Hallum,Ferwerderadiel,Friesland,VBO,5.835166,53.288454
Ondersmastate,1,,,9074MA,Hallum,Ferwerderadiel,Friesland,VBO,5.780000,53.302809
Ondersmastate,3,,,9074MA,Hallum,Ferwerderadiel,Friesland,VBO,5.780215,53.303017
Ondersmastate,5,,,9074MA,Hallum,Ferwerderadiel,Friesland,VBO,5.780527,53.302780
Ondersmastate,7,,,9074MA,Hallum,Ferwerderadiel,Friesland,VBO,5.780715,53.302709
Ondersmastate,9,,,9074MA,Hallum,Ferwerderadiel,Friesland,VBO,5.780918,53.302590
Ondersmastate,11,,,9074MA,Hallum,Ferwerderadiel,Friesland,VBO,5.781118,53.302506
Ondersmastate,13,,,9074MA,Hallum,Ferwerderadiel,Friesland,VBO,5.781312,53.302427
Ondersmastate,15,,,9074MA,Hallum,Ferwerderadiel,Friesland,VBO,5.781541,53.302351
Ondersmastate,17,,,9074MA,Hallum,Ferwerderadiel,Friesland,VBO,5.781756,53.302268
Ondersmastate,19,,,9074MA,Hallum,Ferwerderadiel,Friesland,VBO,5.781406,53.302104
Ondersmastate,21,,,9074MA,Hallum,Ferwerderadiel,Friesland,VBO,5.781360,53.302067
Ondersmastate,23,,,9074MA,Hallum,Ferwerderadiel,Friesland,VBO,5.781220,53.301955
Ondersmastate,25,,,9074MA,Hallum,Ferwerderadiel,Friesland,VBO,5.781171,53.301915
Ondersmastate,27,,,9074MA,Hallum,Ferwerderadiel,Friesland,VBO,5.781029,53.301801
Ondersmastate,29,,,9074MA,Hallum,Ferwerderadiel,Friesland,VBO,5.780981,53.301763
Ondersmastate,31,,,9074MA,Hallum,Ferwerderadiel,Friesland,VBO,5.780834,53.301657
Ondersmastate,33,,,9074MA,Hallum,Ferwerderadiel,Friesland,VBO,5.780779,53.301613
Ondersmastate,35,,,9074MA,Hallum,Ferwerderadiel,Friesland,VBO,5.780639,53.301500
Ondersmastate,37,,,9074MA,Hallum,Ferwerderadiel,Friesland,VBO,5.780590,53.301461
Ondersmastate,39,,,9074MA,Hallum,Ferwerderadiel,Friesland,VBO,5.780484,53.301269
Ondersmastate,41,,,9074MA,Hallum,Ferwerderadiel,Friesland,VBO,5.780271,53.301351
Ondersmastate,2,,,9074MB,Hallum,Ferwerderadiel,Friesland,VBO,5.780333,53.302581
Ondersmastate,4,,,9074MB,Hallum,Ferwerderadiel,Friesland,VBO,5.780543,53.302485
Ondersmastate,6,,,9074MB,Hallum,Ferwerderadiel,Friesland,VBO,5.780607,53.302456
Ondersmastate,8,,,9074MB,Hallum,Ferwerderadiel,Friesland,VBO,5.780783,53.302377
Ondersmastate,10,,,9074MB,Hallum,Ferwerderadiel,Friesland,VBO,5.780844,53.302350
Ondersmastate,12,,,9074MB,Hallum,Ferwerderadiel,Friesland,VBO,5.781056,53.302240
Ondersmastate,14,,,9074MB,Hallum,Ferwerderadiel,Friesland,VBO,5.780715,53.301956
Ondersmastate,16,,,9074MB,Hallum,Ferwerderadiel,Friesland,VBO,5.780562,53.301845
Ondersmastate,22,,,9074MB,Hallum,Ferwerderadiel,Friesland,VBO,5.780451,53.301733
Ondersmastate,24,,,9074MB,Hallum,Ferwerderadiel,Friesland,VBO,5.780318,53.301643
Ondersmastate,26,,,9074MB,Hallum,Ferwerderadiel,Friesland,VBO,5.780071,53.301394
Luniastate,2,,,9074MC,Hallum,Ferwerderadiel,Friesland,VBO,5.780345,53.300544
Luniastate,3,,,9074MC,Hallum,Ferwerderadiel,Friesland,VBO,5.779923,53.302301
Luniastate,4,,,9074MC,Hallum,Ferwerderadiel,Friesland,VBO,5.780554,53.300395
Luniastate,5,,,9074MC,Hallum,Ferwerderadiel,Friesland,VBO,5.779826,53.302162
Luniastate,6,,,9074MC,Hallum,Ferwerderadiel,Friesland,VBO,5.780726,53.300306
Luniastate,7,,,9074MC,Hallum,Ferwerderadiel,Friesland,VBO,5.779705,53.302015
Luniastate,8,,,9074MC,Hallum,Ferwerderadiel,Friesland,VBO,5.780941,53.300190
Luniastate,9,,,9074MC,Hallum,Ferwerderadiel,Friesland,VBO,5.779614,53.301857
Luniastate,10,,,9074MC,Hallum,Ferwerderadiel,Friesland,VBO,5.781327,53.300011
Luniastate,11,,,9074MC,Hallum,Ferwerderadiel,Friesland,VBO,5.779562,53.301777
Luniastate,12,,,9074MC,Hallum,Ferwerderadiel,Friesland,VBO,5.781536,53.299857
Luniastate,13,,,9074MC,Hallum,Ferwerderadiel,Friesland,VBO,5.779472,53.301626
Luniastate,14,,,9074MC,Hallum,Ferwerderadiel,Friesland,VBO,5.781836,53.299731
Luniastate,15,,,9074MC,Hallum,Ferwerderadiel,Friesland,VBO,5.779389,53.301536
Luniastate,17,,,9074MC,Hallum,Ferwerderadiel,Friesland,VBO,5.779123,53.301188
Luniastate,19,,,9074MC,Hallum,Ferwerderadiel,Friesland,VBO,5.779351,53.301081
Luniastate,21,,,9074MC,Hallum,Ferwerderadiel,Friesland,VBO,5.779600,53.301007
Luniastate,23,,,9074MC,Hallum,Ferwerderadiel,Friesland,VBO,5.779819,53.300906
Luniastate,25,,,9074MC,Hallum,Ferwerderadiel,Friesland,VBO,5.780054,53.300798
Luniastate,27,,,9074MC,Hallum,Ferwerderadiel,Friesland,VBO,5.780654,53.300685
Deniastate,2,,,9074ME,Hallum,Ferwerderadiel,Friesland,VBO,5.781027,53.300521
Deniastate,3,,,9074ME,Hallum,Ferwerderadiel,Friesland,VBO,5.780851,53.300782
Deniastate,4,,,9074ME,Hallum,Ferwerderadiel,Friesland,VBO,5.781145,53.300623
Deniastate,5,,,9074ME,Hallum,Ferwerderadiel,Friesland,VBO,5.780894,53.300812
Deniastate,6,,,9074ME,Hallum,Ferwerderadiel,Friesland,VBO,5.781208,53.300658
Deniastate,7,,,9074ME,Hallum,Ferwerderadiel,Friesland,VBO,5.781043,53.300914
Deniastate,8,,,9074ME,Hallum,Ferwerderadiel,Friesland,VBO,5.781342,53.300749
Deniastate,9,,,9074ME,Hallum,Ferwerderadiel,Friesland,VBO,5.781082,53.300940
Deniastate,10,,,9074ME,Hallum,Ferwerderadiel,Friesland,VBO,5.781386,53.300781
Deniastate,11,,,9074ME,Hallum,Ferwerderadiel,Friesland,VBO,5.781217,53.301034
Deniastate,12,,,9074ME,Hallum,Ferwerderadiel,Friesland,VBO,5.781527,53.300874
Deniastate,13,,,9074ME,Hallum,Ferwerderadiel,Friesland,VBO,5.781276,53.301073
Deniastate,14,,,9074ME,Hallum,Ferwerderadiel,Friesland,VBO,5.781583,53.300910
Deniastate,15,,,9074ME,Hallum,Ferwerderadiel,Friesland,VBO,5.781451,53.301150
Deniastate,16,,,9074ME,Hallum,Ferwerderadiel,Friesland,VBO,5.781721,53.300973
Deniastate,17,,,9074ME,Hallum,Ferwerderadiel,Friesland,VBO,5.781545,53.301362
Deniastate,19,,,9074ME,Hallum,Ferwerderadiel,Friesland,VBO,5.781850,53.301251
Memerdastate,1,,,9074MG,Hallum,Ferwerderadiel,Friesland,VBO,5.781588,53.300186
Memerdastate,2,,,9074MG,Hallum,Ferwerderadiel,Friesland,VBO,5.781951,53.300022
Memerdastate,3,,,9074MG,Hallum,Ferwerderadiel,Friesland,VBO,5.781759,53.300297
Memerdastate,4,,,9074MG,Hallum,Ferwerderadiel,Friesland,VBO,5.782094,53.300133
Memerdastate,5,,,9074MG,Hallum,Ferwerderadiel,Friesland,VBO,5.781826,53.300335
Memerdastate,6,,,9074MG,Hallum,Ferwerderadiel,Friesland,VBO,5.782160,53.300176
Memerdastate,7,,,9074MG,Hallum,Ferwerderadiel,Friesland,VBO,5.781951,53.300440
Memerdastate,8,,,9074MG,Hallum,Ferwerderadiel,Friesland,VBO,5.782303,53.300280
Memerdastate,9,,,9074MG,Hallum,Ferwerderadiel,Friesland,VBO,5.782013,53.300481
Memerdastate,10,,,9074MG,Hallum,Ferwerderadiel,Friesland,VBO,5.782358,53.300317
Memerdastate,11,,,9074MG,Hallum,Ferwerderadiel,Friesland,VBO,5.782145,53.300579
Memerdastate,12,A,,9074MG,Hallum,Ferwerderadiel,Friesland,VBO,5.782542,53.300461
Memerdastate,12,,,9074MG,Hallum,Ferwerderadiel,Friesland,VBO,5.782497,53.300427
Memerdastate,13,A,,9074MG,Hallum,Ferwerderadiel,Friesland,VBO,5.782227,53.300740
Memerdastate,13,B,,9074MG,Hallum,Ferwerderadiel,Friesland,VBO,5.782314,53.300823
Memerdastate,13,,,9074MG,Hallum,Ferwerderadiel,Friesland,VBO,5.782145,53.300684
Memerdastate,14,,,9074MG,Hallum,Ferwerderadiel,Friesland,VBO,5.782730,53.300578
Memerdastate,15,,,9074MG,Hallum,Ferwerderadiel,Friesland,VBO,5.782554,53.300934
Memerdastate,16,,,9074MG,Hallum,Ferwerderadiel,Friesland,VBO,5.782924,53.300786
Memerdastate,17,,,9074MG,Hallum,Ferwerderadiel,Friesland,VBO,5.783013,53.301363
Memerdastate,18,,,9074MG,Hallum,Ferwerderadiel,Friesland,VBO,5.783408,53.301221
Memerdastate,19,,,9074MG,Hallum,Ferwerderadiel,Friesland,VBO,5.782816,53.301442
Memerdastate,20,,,9074MG,Hallum,Ferwerderadiel,Friesland,VBO,5.783479,53.301194
Memerdastate,21,,,9074MG,Hallum,Ferwerderadiel,Friesland,VBO,5.782738,53.301475
Memerdastate,22,A,,9074MG,Hallum,Ferwerderadiel,Friesland,VBO,5.783777,53.301073
Memerdastate,22,,,9074MG,Hallum,Ferwerderadiel,Friesland,VBO,5.783717,53.301098
Memerdastate,23,,,9074MG,Hallum,Ferwerderadiel,Friesland,VBO,5.782562,53.301533
Memerdastate,24,,,9074MG,Hallum,Ferwerderadiel,Friesland,VBO,5.783988,53.301328
Memerdastate,25,,,9074MG,Hallum,Ferwerderadiel,Friesland,VBO,5.782476,53.301566
Memerdastate,26,,,9074MG,Hallum,Ferwerderadiel,Friesland,VBO,5.783765,53.301350
Memerdastate,27,,,9074MG,Hallum,Ferwerderadiel,Friesland,VBO,5.782321,53.301647
Memerdastate,28,,,9074MG,Hallum,Ferwerderadiel,Friesland,VBO,5.783541,53.301435
Memerdastate,29,,,9074MG,Hallum,Ferwerderadiel,Friesland,VBO,5.782239,53.301679
Memerdastate,30,,,9074MG,Hallum,Ferwerderadiel,Friesland,VBO,5.783319,53.301538
Memerdastate,31,,,9074MG,Hallum,Ferwerderadiel,Friesland,VBO,5.782024,53.301728
Memerdastate,32,,,9074MG,Hallum,Ferwerderadiel,Friesland,VBO,5.783102,53.301632
Memerdastate,34,,,9074MG,Hallum,Ferwerderadiel,Friesland,VBO,5.782867,53.301726
Memerdastate,36,,,9074MG,Hallum,Ferwerderadiel,Friesland,VBO,5.782610,53.301799
Memerdastate,38,,,9074MG,Hallum,Ferwerderadiel,Friesland,VBO,5.782486,53.301948
Nieuwebildtzijl F,2,A,,9074PA,Hallum,Ferwerderadiel,Friesland,VBO,5.733363,53.317896
Nieuwebildtzijl F,2,,,9074PA,Hallum,Ferwerderadiel,Friesland,VBO,5.732519,53.317190
Nieuwebildtzijl F,4,,,9074PA,Hallum,Ferwerderadiel,Friesland,VBO,5.730389,53.317404
Nieuwebildtzijl F,24,,,9074PA,Hallum,Ferwerderadiel,Friesland,VBO,5.724061,53.319536
Nieuwebildtzijl F,28,,,9074PA,Hallum,Ferwerderadiel,Friesland,VBO,5.722368,53.320528
Nieuwebildtzijl F,30,,,9074PA,Hallum,Ferwerderadiel,Friesland,VBO,5.722373,53.320593
Nieuwebildtzijl F,32,,,9074PA,Hallum,Ferwerderadiel,Friesland,VBO,5.722688,53.322882
Vijfhuisterdijk,2,A,,9074TE,Hallum,Ferwerderadiel,Friesland,VBO,5.747532,53.314493
Vijfhuisterdijk,2,,,9074TE,Hallum,Ferwerderadiel,Friesland,VBO,5.747163,53.314355
Vijfhuisterdijk,4,,,9074TE,Hallum,Ferwerderadiel,Friesland,VBO,5.749441,53.312636
Vijfhuisterdijk,6,,,9074TE,Hallum,Ferwerderadiel,Friesland,VBO,5.749296,53.312310
Vijfhuisterdijk,11,,,9074TE,Hallum,Ferwerderadiel,Friesland,VBO,5.748856,53.311771
Vijfhuisterdijk,12,,,9074TE,Hallum,Ferwerderadiel,Friesland,VBO,5.748561,53.311428
Vijfhuisterdijk,13,,,9074TE,Hallum,Ferwerderadiel,Friesland,VBO,5.748525,53.311346
Vijfhuisterdijk,14,,,9074TE,Hallum,Ferwerderadiel,Friesland,VBO,5.745216,53.308572
Vijfhuisterdijk,15,A,,9074TE,Hallum,Ferwerderadiel,Friesland,VBO,5.745778,53.308119
Vijfhuisterdijk,15,,,9074TE,Hallum,Ferwerderadiel,Friesland,VBO,5.745141,53.308118
Vijfhuisterdijk,16,,,9074TE,Hallum,Ferwerderadiel,Friesland,VBO,5.743999,53.307478
Vijfhuisterdijk,19,,,9074TE,Hallum,Ferwerderadiel,Friesland,VBO,5.740271,53.304070
Noorderleeg,3,,,9074TG,Hallum,Ferwerderadiel,Friesland,VBO,5.743156,53.321298
Noorderleeg,5,A,,9074TG,Hallum,Ferwerderadiel,Friesland,VBO,5.739592,53.322725
Noorderleeg,5,,,9074TG,Hallum,Ferwerderadiel,Friesland,VBO,5.740965,53.322480
Hoge Herenweg,1,,,9074TH,Hallum,Ferwerderadiel,Friesland,VBO,5.762110,53.308619
Hoge Herenweg,2,,,9074TH,Hallum,Ferwerderadiel,Friesland,VBO,5.767542,53.313668
Hoge Herenweg,11,,,9074TH,Hallum,Ferwerderadiel,Friesland,VBO,5.762335,53.308735
Hoge Herenweg,15,,,9074TH,Hallum,Ferwerderadiel,Friesland,VBO,5.762374,53.308799
Hoge Herenweg,19,,,9074TH,Hallum,Ferwerderadiel,Friesland,VBO,5.762434,53.308965
Hoge Herenweg,23,,,9074TH,Hallum,Ferwerderadiel,Friesland,VBO,5.762543,53.309062
Hoge Herenweg,25,,,9074TH,Hallum,Ferwerderadiel,Friesland,VBO,5.762231,53.309175
Hoge Herenweg,27,,,9074TH,Hallum,Ferwerderadiel,Friesland,VBO,5.762084,53.309191
Hoge Herenweg,31,,,9074TH,Hallum,Ferwerderadiel,Friesland,VBO,5.763359,53.309535
Hoge Herenweg,33,,,9074TH,Hallum,Ferwerderadiel,Friesland,VBO,5.763955,53.311016
Hoge Herenweg,35,,,9074TH,Hallum,Ferwerderadiel,Friesland,VBO,5.765646,53.313556
Meekmawei,1,,,9074TJ,Hallum,Ferwerderadiel,Friesland,VBO,5.766764,53.311591
Meekmawei,2,A,,9074TJ,Hallum,Ferwerderadiel,Friesland,VBO,5.775034,53.309953
Meekmawei,2,B,,9074TJ,Hallum,Ferwerderadiel,Friesland,VBO,5.775004,53.310317
Meekmawei,2,,,9074TJ,Hallum,Ferwerderadiel,Friesland,VBO,5.770480,53.311713
Meekmawei,4,,,9074TJ,Hallum,Ferwerderadiel,Friesland,VBO,5.774820,53.309479
Meekmawei,7,,,9074TJ,Hallum,Ferwerderadiel,Friesland,VBO,5.772082,53.312236
Meekmawei,9,,,9074TJ,Hallum,Ferwerderadiel,Friesland,VBO,5.775459,53.312861
Meekmawei,10,,,9074TJ,Hallum,Ferwerderadiel,Friesland,VBO,5.774797,53.308300
Meekmawei,15,,,9074TJ,Hallum,Ferwerderadiel,Friesland,VBO,5.775644,53.310289
Meekmawei,17,,,9074TJ,Hallum,Ferwerderadiel,Friesland,VBO,5.775678,53.309562
Meekmawei,19,,,9074TJ,Hallum,Ferwerderadiel,Friesland,VBO,5.775773,53.309170
Meekmawei,21,,,9074TJ,Hallum,Ferwerderadiel,Friesland,VBO,5.775588,53.308849
Meekmawei,23,,,9074TJ,Hallum,Ferwerderadiel,Friesland,VBO,5.775685,53.308730
Meekmawei,25,A,,9074TJ,Hallum,Ferwerderadiel,Friesland,VBO,5.775559,53.308386
Meekmawei,25,,,9074TJ,Hallum,Ferwerderadiel,Friesland,VBO,5.775725,53.308533
Meekmawei,27,,,9074TJ,Hallum,Ferwerderadiel,Friesland,VBO,5.775461,53.308242
Meekmawei,28,B,,9074TJ,Hallum,Ferwerderadiel,Friesland,VBO,5.776183,53.308347
Doniaweg,30,A,,9074TK,Hallum,Ferwerderadiel,Friesland,VBO,5.772594,53.308198
Doniaweg,30,B,,9074TK,Hallum,Ferwerderadiel,Friesland,VBO,5.773161,53.308238
Doniaweg,30,C,,9074TK,Hallum,Ferwerderadiel,Friesland,VBO,5.771802,53.308037
Doniaweg,30,D,,9074TK,Hallum,Ferwerderadiel,Friesland,VBO,5.771071,53.308011
Doniaweg,30,E,1,9074TK,Hallum,Ferwerderadiel,Friesland,VBO,5.770455,53.308256
Doniaweg,30,E,2,9074TK,Hallum,Ferwerderadiel,Friesland,VBO,5.770563,53.308264
Doniaweg,30,E,,9074TK,Hallum,Ferwerderadiel,Friesland,VBO,5.770268,53.308024
Doniaweg,30,F,,9074TK,Hallum,Ferwerderadiel,Friesland,VBO,5.769542,53.307994
Doniaweg,30,G,,9074TK,Hallum,Ferwerderadiel,Friesland,VBO,5.769095,53.308004
Doniaweg,30,H,,9074TK,Hallum,Ferwerderadiel,Friesland,VBO,5.768584,53.307989
Doniaweg,30,,,9074TK,Hallum,Ferwerderadiel,Friesland,VBO,5.773755,53.308223
Doniaweg,32,,,9074TK,Hallum,Ferwerderadiel,Friesland,VBO,5.767670,53.307802
Doniaweg,34,,,9074TK,Hallum,Ferwerderadiel,Friesland,VBO,5.767288,53.307878
Doniaweg,36,,,9074TK,Hallum,Ferwerderadiel,Friesland,VBO,5.764084,53.307459
Doniaweg,38,,,9074TK,Hallum,Ferwerderadiel,Friesland,VBO,5.763632,53.307433
Doniaweg,44,,,9074TK,Hallum,Ferwerderadiel,Friesland,VBO,5.763276,53.307424
Doniaweg,45,,,9074TK,Hallum,Ferwerderadiel,Friesland,VBO,5.773854,53.304312
Doniaweg,46,,,9074TK,Hallum,Ferwerderadiel,Friesland,VBO,5.763066,53.307487
Doniaweg,47,,,9074TK,Hallum,Ferwerderadiel,Friesland,VBO,5.772607,53.307681
Doniaweg,49,,,9074TK,Hallum,Ferwerderadiel,Friesland,VBO,5.772284,53.307631
Doniaweg,53,A,,9074TK,Hallum,Ferwerderadiel,Friesland,VBO,5.770921,53.307347
Doniaweg,55,,,9074TK,Hallum,Ferwerderadiel,Friesland,VBO,5.767090,53.306802
Doniaweg,59,,,9074TK,Hallum,Ferwerderadiel,Friesland,VBO,5.762165,53.307264
Doniaweg,61,,,9074TK,Hallum,Ferwerderadiel,Friesland,VBO,5.761995,53.307243
Mariëngaarderweg,1,,,9074TL,Hallum,Ferwerderadiel,Friesland,VBO,5.760874,53.306919
Mariëngaarderweg,2,,,9074TL,Hallum,Ferwerderadiel,Friesland,VBO,5.759689,53.307189
Mariëngaarderweg,4,,,9074TL,Hallum,Ferwerderadiel,Friesland,VBO,5.757657,53.305023
Mariëngaarderweg,6,,,9074TL,Hallum,Ferwerderadiel,Friesland,VBO,5.757389,53.304967
Mariëngaarderweg,7,,,9074TL,Hallum,Ferwerderadiel,Friesland,VBO,5.760430,53.306818
Mariëngaarderweg,10,A,,9074TL,Hallum,Ferwerderadiel,Friesland,VBO,5.755023,53.302952
Mariëngaarderweg,10,,,9074TL,Hallum,Ferwerderadiel,Friesland,VBO,5.757160,53.304726
Mariëngaarderweg,11,A,,9074TL,Hallum,Ferwerderadiel,Friesland,VBO,5.759753,53.306093
Mariëngaarderweg,11,,,9074TL,Hallum,Ferwerderadiel,Friesland,VBO,5.760277,53.306707
Mariëngaarderweg,13,,,9074TL,Hallum,Ferwerderadiel,Friesland,VBO,5.760710,53.304364
Mariëngaarderweg,15,,,9074TL,Hallum,Ferwerderadiel,Friesland,VBO,5.756908,53.303956
Mariëngaarderweg,19,,,9074TL,Hallum,Ferwerderadiel,Friesland,VBO,5.755426,53.303134
Mariëngaarderweg,21,,,9074TL,Hallum,Ferwerderadiel,Friesland,VBO,5.755358,53.303061
Mariëngaarderweg,25,,,9074TL,Hallum,Ferwerderadiel,Friesland,VBO,5.755259,53.302982
Mariëngaarderweg,18,,,9074TM,Hallum,Ferwerderadiel,Friesland,VBO,5.754042,53.302001
Mariëngaarderweg,20,,,9074TM,Hallum,Ferwerderadiel,Friesland,VBO,5.753042,53.301352
Mariëngaarderweg,24,,,9074TM,Hallum,Ferwerderadiel,Friesland,VBO,5.748111,53.297349
Mariëngaarderweg,27,,,9074TM,Hallum,Ferwerderadiel,Friesland,VBO,5.753912,53.301416
Mariëngaarderweg,29,,,9074TM,Hallum,Ferwerderadiel,Friesland,VBO,5.762210,53.301000
Mariëngaarderweg,33,,,9074TM,Hallum,Ferwerderadiel,Friesland,VBO,5.753443,53.301016
Mariëngaarderweg,35,,,9074TM,Hallum,Ferwerderadiel,Friesland,VBO,5.755248,53.299277
Mariëngaarderweg,37,,,9074TM,Hallum,Ferwerderadiel,Friesland,VBO,5.751028,53.299096
Mariëngaarderweg,39,,,9074TM,Hallum,Ferwerderadiel,Friesland,VBO,5.750782,53.298923
Mariëngaarderweg,43,,,9074TM,Hallum,Ferwerderadiel,Friesland,VBO,5.750438,53.298766
Mariëngaarderweg,45,,,9074TM,Hallum,Ferwerderadiel,Friesland,VBO,5.751586,53.297398
Mariëngaarderweg,47,,,9074TM,Hallum,Ferwerderadiel,Friesland,VBO,5.748234,53.295546
Mariëngaarderweg,51,,,9074TM,Hallum,Ferwerderadiel,Friesland,VBO,5.747967,53.294712
Mariëngaarderweg,55,,,9074TM,Hallum,Ferwerderadiel,Friesland,VBO,5.747924,53.294458
