openbareruimtenaam,huisnummer,huisletter,huisnummertoevoeging,postcode,woonplaatsnaam,gemeentenaam,provincienaam,typeadresseerbaarobject,longitude,latitude
Langhuisterweg,26,,,9077PK,Vrouwenparochie,Waadhoeke,Friesland,VBO,5.688986,53.262421
Attesweg,2,,,9077PL,Vrouwenparochie,Waadhoeke,Friesland,VBO,5.697120,53.279765
Attesweg,4,,,9077PL,Vrouwenparochie,Waadhoeke,Friesland,VBO,5.697163,53.280016
Attesweg,6,,,9077PL,Vrouwenparochie,Waadhoeke,Friesland,VBO,5.697148,53.280091
Attesweg,8,,,9077PL,Vrouwenparochie,Waadhoeke,Friesland,VBO,5.697133,53.280166
Attesweg,11,,,9077PL,Vrouwenparochie,Waadhoeke,Friesland,VBO,5.696235,53.281685
Attesweg,13,,,9077PL,Vrouwenparochie,Waadhoeke,Friesland,VBO,5.696231,53.281738
Attesweg,14,,,9077PL,Vrouwenparochie,Waadhoeke,Friesland,VBO,5.697091,53.280391
Attesweg,15,,,9077PL,Vrouwenparochie,Waadhoeke,Friesland,VBO,5.695949,53.281810
Attesweg,16,,,9077PL,Vrouwenparochie,Waadhoeke,Friesland,VBO,5.697059,53.280557
Attesweg,17,A,,9077PL,Vrouwenparochie,Waadhoeke,Friesland,VBO,5.695573,53.282503
Attesweg,17,,,9077PL,Vrouwenparochie,Waadhoeke,Friesland,VBO,5.696025,53.282751
Attesweg,18,A,,9077PL,Vrouwenparochie,Waadhoeke,Friesland,VBO,5.696976,53.280796
Attesweg,18,B,,9077PL,Vrouwenparochie,Waadhoeke,Friesland,VBO,5.696966,53.280856
Attesweg,18,,,9077PL,Vrouwenparochie,Waadhoeke,Friesland,VBO,5.697032,53.280686
Attesweg,21,,,9077PL,Vrouwenparochie,Waadhoeke,Friesland,VBO,5.695763,53.284855
Attesweg,26,,,9077PL,Vrouwenparochie,Waadhoeke,Friesland,VBO,5.696349,53.284841
Hamerenweg,9,,,9077PM,Vrouwenparochie,Waadhoeke,Friesland,VBO,5.700373,53.261416
Hamerenweg,10,,,9077PM,Vrouwenparochie,Waadhoeke,Friesland,VBO,5.699773,53.267170
Hamerenweg,11,,,9077PM,Vrouwenparochie,Waadhoeke,Friesland,VBO,5.699975,53.262558
Hamerenweg,12,,,9077PM,Vrouwenparochie,Waadhoeke,Friesland,VBO,5.697906,53.275252
Hamerenweg,13,,,9077PM,Vrouwenparochie,Waadhoeke,Friesland,VBO,5.699240,53.265723
Hamerenweg,14,,,9077PM,Vrouwenparochie,Waadhoeke,Friesland,VBO,5.697467,53.278824
Hamerenweg,15,,,9077PM,Vrouwenparochie,Waadhoeke,Friesland,VBO,5.697433,53.274698
Hamerenweg,17,,,9077PM,Vrouwenparochie,Waadhoeke,Friesland,VBO,5.696955,53.275923
Hamerenweg,21,,,9077PM,Vrouwenparochie,Waadhoeke,Friesland,VBO,5.697196,53.276079
Hamerenweg,23,,,9077PM,Vrouwenparochie,Waadhoeke,Friesland,VBO,5.696755,53.278884
Hamerenweg,27,,,9077PM,Vrouwenparochie,Waadhoeke,Friesland,VBO,5.696541,53.278865
Súdhoekstermiddelweg,17,,,9077PN,Vrouwenparochie,Waadhoeke,Friesland,VBO,5.693465,53.258875
Súdhoekstermiddelweg,19,A,,9077PN,Vrouwenparochie,Waadhoeke,Friesland,VBO,5.692358,53.258450
Súdhoekstermiddelweg,19,,,9077PN,Vrouwenparochie,Waadhoeke,Friesland,VBO,5.693211,53.258805
Stienzer Hegedyk,1,B,,9077PZ,Vrouwenparochie,Waadhoeke,Friesland,VBO,5.727367,53.254502
Stienzer Hegedyk,3,B,,9077PZ,Vrouwenparochie,Waadhoeke,Friesland,VBO,5.732399,53.257236
Stienzer Hegedyk,5,B,,9077PZ,Vrouwenparochie,Waadhoeke,Friesland,VBO,5.732228,53.257543
Stienzer Hegedyk,7,B,,9077PZ,Vrouwenparochie,Waadhoeke,Friesland,VBO,5.731894,53.257946
Stienzer Hegedyk,9,B,,9077PZ,Vrouwenparochie,Waadhoeke,Friesland,VBO,5.730684,53.259605
Klaine-Izakstraat,1,,,9077RA,Vrouwenparochie,Waadhoeke,Friesland,VBO,5.699882,53.279747
Klaine-Izakstraat,3,,,9077RA,Vrouwenparochie,Waadhoeke,Friesland,VBO,5.699785,53.280057
Steertster,1,,,9077RB,Vrouwenparochie,Waadhoeke,Friesland,VBO,5.700396,53.279403
Steertster,3,,,9077RB,Vrouwenparochie,Waadhoeke,Friesland,VBO,5.700429,53.279263
't eerste Môrn,1,,,9077RC,Vrouwenparochie,Waadhoeke,Friesland,VBO,5.702588,53.280974
't eerste Môrn,2,,,9077RC,Vrouwenparochie,Waadhoeke,Friesland,VBO,5.702947,53.280980
't eerste Môrn,3,,,9077RC,Vrouwenparochie,Waadhoeke,Friesland,VBO,5.702482,53.281237
't eerste Môrn,4,,,9077RC,Vrouwenparochie,Waadhoeke,Friesland,VBO,5.702938,53.281145
't eerste Môrn,5,,,9077RC,Vrouwenparochie,Waadhoeke,Friesland,VBO,5.702463,53.281380
't eerste Môrn,6,,,9077RC,Vrouwenparochie,Waadhoeke,Friesland,VBO,5.702925,53.281208
't eerste Môrn,8,,,9077RC,Vrouwenparochie,Waadhoeke,Friesland,VBO,5.702815,53.281319
't eerste Môrn,10,,,9077RC,Vrouwenparochie,Waadhoeke,Friesland,VBO,5.702802,53.281382
't eerste Môrn,12,,,9077RC,Vrouwenparochie,Waadhoeke,Friesland,VBO,5.702786,53.281528
't eerste Môrn,14,,,9077RC,Vrouwenparochie,Waadhoeke,Friesland,VBO,5.702954,53.281761
't eerste Môrn,16,,,9077RC,Vrouwenparochie,Waadhoeke,Friesland,VBO,5.702688,53.281735
't eerste Môrn,18,,,9077RC,Vrouwenparochie,Waadhoeke,Friesland,VBO,5.702400,53.281723
't eerste Môrn,20,,,9077RC,Vrouwenparochie,Waadhoeke,Friesland,VBO,5.702230,53.281708
Middelweg-Oost,30,,,9077SB,Vrouwenparochie,Waadhoeke,Friesland,VBO,5.696163,53.279471
Middelweg-Oost,31,,,9077SB,Vrouwenparochie,Waadhoeke,Friesland,VBO,5.690962,53.278789
Middelweg-Oost,33,,,9077SB,Vrouwenparochie,Waadhoeke,Friesland,VBO,5.690651,53.278766
Middelweg-Oost,34,,,9077SB,Vrouwenparochie,Waadhoeke,Friesland,VBO,5.688928,53.279250
Middelweg-Oost,35,,,9077SB,Vrouwenparochie,Waadhoeke,Friesland,VBO,5.687519,53.278404
Middelweg-Oost,36,,,9077SB,Vrouwenparochie,Waadhoeke,Friesland,VBO,5.686874,53.278820
Ouwe Griepstraat,1,,,9077SC,Vrouwenparochie,Waadhoeke,Friesland,VBO,5.701500,53.280927
Ouwe Griepstraat,2,,,9077SC,Vrouwenparochie,Waadhoeke,Friesland,VBO,5.701758,53.281163
Ouwe Griepstraat,3,,,9077SC,Vrouwenparochie,Waadhoeke,Friesland,VBO,5.701491,53.280994
Ouwe Griepstraat,4,,,9077SC,Vrouwenparochie,Waadhoeke,Friesland,VBO,5.701749,53.281230
Ouwe Griepstraat,5,,,9077SC,Vrouwenparochie,Waadhoeke,Friesland,VBO,5.701426,53.281080
Ouwe Griepstraat,6,,,9077SC,Vrouwenparochie,Waadhoeke,Friesland,VBO,5.701687,53.281313
Ouwe Griepstraat,7,,,9077SC,Vrouwenparochie,Waadhoeke,Friesland,VBO,5.701415,53.281148
Ouwe Griepstraat,8,,,9077SC,Vrouwenparochie,Waadhoeke,Friesland,VBO,5.701676,53.281384
Ouwe Griepstraat,10,,,9077SC,Vrouwenparochie,Waadhoeke,Friesland,VBO,5.701623,53.281465
Ouwe Griepstraat,12,,,9077SC,Vrouwenparochie,Waadhoeke,Friesland,VBO,5.701611,53.281530
Ouwe Griepstraat,14,,,9077SC,Vrouwenparochie,Waadhoeke,Friesland,VBO,5.701599,53.281594
Ouwe Griepstraat,16,,,9077SC,Vrouwenparochie,Waadhoeke,Friesland,VBO,5.701570,53.281665
Ouwe Griepstraat,18,,,9077SC,Vrouwenparochie,Waadhoeke,Friesland,VBO,5.701559,53.281729
Ouwe Griepstraat,20,,,9077SC,Vrouwenparochie,Waadhoeke,Friesland,VBO,5.701548,53.281793
Mathijs Beckstraat,1,,,9077SE,Vrouwenparochie,Waadhoeke,Friesland,VBO,5.697473,53.280406
Mathijs Beckstraat,3,,,9077SE,Vrouwenparochie,Waadhoeke,Friesland,VBO,5.697574,53.280411
Mathijs Beckstraat,5,,,9077SE,Vrouwenparochie,Waadhoeke,Friesland,VBO,5.697676,53.280417
Mathijs Beckstraat,7,,,9077SE,Vrouwenparochie,Waadhoeke,Friesland,VBO,5.697777,53.280423
Mathijs Beckstraat,9,,,9077SE,Vrouwenparochie,Waadhoeke,Friesland,VBO,5.697946,53.280482
Mathijs Beckstraat,11,,,9077SE,Vrouwenparochie,Waadhoeke,Friesland,VBO,5.698045,53.280489
Mathijs Beckstraat,13,,,9077SE,Vrouwenparochie,Waadhoeke,Friesland,VBO,5.698145,53.280496
Mathijs Beckstraat,15,,,9077SE,Vrouwenparochie,Waadhoeke,Friesland,VBO,5.698244,53.280503
Mathijs Beckstraat,17,,,9077SE,Vrouwenparochie,Waadhoeke,Friesland,VBO,5.698460,53.280514
Mathijs Beckstraat,19,,,9077SE,Vrouwenparochie,Waadhoeke,Friesland,VBO,5.698546,53.280529
Mathijs Beckstraat,21,,,9077SE,Vrouwenparochie,Waadhoeke,Friesland,VBO,5.698789,53.280541
Mathijs Beckstraat,23,,,9077SE,Vrouwenparochie,Waadhoeke,Friesland,VBO,5.698867,53.280550
Mathijs Beckstraat,29,,,9077SE,Vrouwenparochie,Waadhoeke,Friesland,VBO,5.699066,53.280564
Mathijs Beckstraat,31,,,9077SE,Vrouwenparochie,Waadhoeke,Friesland,VBO,5.699172,53.280571
Mathijs Beckstraat,33,,,9077SG,Vrouwenparochie,Waadhoeke,Friesland,VBO,5.699279,53.280578
Mathijs Beckstraat,35,,,9077SG,Vrouwenparochie,Waadhoeke,Friesland,VBO,5.699386,53.280585
Mathijs Beckstraat,37,,,9077SG,Vrouwenparochie,Waadhoeke,Friesland,VBO,5.699492,53.280593
Mathijs Beckstraat,39,,,9077SG,Vrouwenparochie,Waadhoeke,Friesland,VBO,5.699599,53.280600
Mathijs Beckstraat,41,,,9077SG,Vrouwenparochie,Waadhoeke,Friesland,VBO,5.700081,53.280590
Mathijs Beckstraat,43,,,9077SG,Vrouwenparochie,Waadhoeke,Friesland,VBO,5.700186,53.280597
Mathijs Beckstraat,45,,,9077SG,Vrouwenparochie,Waadhoeke,Friesland,VBO,5.700290,53.280604
Mathijs Beckstraat,47,,,9077SG,Vrouwenparochie,Waadhoeke,Friesland,VBO,5.700395,53.280612
Mathijs Beckstraat,49,,,9077SG,Vrouwenparochie,Waadhoeke,Friesland,VBO,5.700500,53.280619
Mathijs Beckstraat,51,,,9077SG,Vrouwenparochie,Waadhoeke,Friesland,VBO,5.700605,53.280627
Mathijs Beckstraat,53,,,9077SG,Vrouwenparochie,Waadhoeke,Friesland,VBO,5.701016,53.280664
Mathijs Beckstraat,55,,,9077SG,Vrouwenparochie,Waadhoeke,Friesland,VBO,5.701146,53.280672
Mathijs Beckstraat,57,,,9077SG,Vrouwenparochie,Waadhoeke,Friesland,VBO,5.701275,53.280679
Mathijs Beckstraat,61,,,9077SG,Vrouwenparochie,Waadhoeke,Friesland,VBO,5.701416,53.280688
Mathijs Beckstraat,63,,,9077SG,Vrouwenparochie,Waadhoeke,Friesland,VBO,5.701543,53.280693
Mathijs Beckstraat,65,,,9077SG,Vrouwenparochie,Waadhoeke,Friesland,VBO,5.701929,53.280743
Mathijs Beckstraat,67,,,9077SG,Vrouwenparochie,Waadhoeke,Friesland,VBO,5.702539,53.280501
Mathijs Beckstraat,2,,,9077SH,Vrouwenparochie,Waadhoeke,Friesland,VBO,5.697504,53.280182
Mathijs Beckstraat,4,,,9077SH,Vrouwenparochie,Waadhoeke,Friesland,VBO,5.697563,53.280185
Mathijs Beckstraat,10,,,9077SH,Vrouwenparochie,Waadhoeke,Friesland,VBO,5.698025,53.280181
Mathijs Beckstraat,12,,,9077SH,Vrouwenparochie,Waadhoeke,Friesland,VBO,5.698486,53.280219
Mathijs Beckstraat,14,,,9077SH,Vrouwenparochie,Waadhoeke,Friesland,VBO,5.698584,53.280226
Mathijs Beckstraat,16,,,9077SH,Vrouwenparochie,Waadhoeke,Friesland,VBO,5.698682,53.280233
Mathijs Beckstraat,18,,,9077SH,Vrouwenparochie,Waadhoeke,Friesland,VBO,5.698781,53.280240
Mathijs Beckstraat,20,,,9077SH,Vrouwenparochie,Waadhoeke,Friesland,VBO,5.698934,53.280252
Mathijs Beckstraat,22,,,9077SH,Vrouwenparochie,Waadhoeke,Friesland,VBO,5.699037,53.280260
Mathijs Beckstraat,24,,,9077SH,Vrouwenparochie,Waadhoeke,Friesland,VBO,5.699139,53.280267
Mathijs Beckstraat,26,,,9077SH,Vrouwenparochie,Waadhoeke,Friesland,VBO,5.699241,53.280275
Mathijs Beckstraat,28,,,9077SH,Vrouwenparochie,Waadhoeke,Friesland,VBO,5.699376,53.280282
Mathijs Beckstraat,30,,,9077SJ,Vrouwenparochie,Waadhoeke,Friesland,VBO,5.699482,53.280290
Mathijs Beckstraat,32,,,9077SJ,Vrouwenparochie,Waadhoeke,Friesland,VBO,5.699588,53.280298
Mathijs Beckstraat,34,,,9077SJ,Vrouwenparochie,Waadhoeke,Friesland,VBO,5.699693,53.280306
Mathijs Beckstraat,36,,,9077SJ,Vrouwenparochie,Waadhoeke,Friesland,VBO,5.700159,53.280285
Mathijs Beckstraat,38,,,9077SJ,Vrouwenparochie,Waadhoeke,Friesland,VBO,5.700277,53.280294
Mathijs Beckstraat,42,,,9077SJ,Vrouwenparochie,Waadhoeke,Friesland,VBO,5.700425,53.280320
Mathijs Beckstraat,44,,,9077SJ,Vrouwenparochie,Waadhoeke,Friesland,VBO,5.700537,53.280329
Mathijs Beckstraat,46,,,9077SJ,Vrouwenparochie,Waadhoeke,Friesland,VBO,5.700649,53.280337
Mathijs Beckstraat,48,,,9077SJ,Vrouwenparochie,Waadhoeke,Friesland,VBO,5.700824,53.280296
Mathijs Beckstraat,50,,,9077SJ,Vrouwenparochie,Waadhoeke,Friesland,VBO,5.700931,53.280305
Mathijs Beckstraat,52,,,9077SJ,Vrouwenparochie,Waadhoeke,Friesland,VBO,5.701038,53.280313
Mathijs Beckstraat,54,,,9077SJ,Vrouwenparochie,Waadhoeke,Friesland,VBO,5.701145,53.280321
Mathijs Beckstraat,56,,,9077SJ,Vrouwenparochie,Waadhoeke,Friesland,VBO,5.701372,53.280333
Mathijs Beckstraat,58,,,9077SJ,Vrouwenparochie,Waadhoeke,Friesland,VBO,5.701747,53.280339
Mathijs Beckstraat,60,,,9077SJ,Vrouwenparochie,Waadhoeke,Friesland,VBO,5.701957,53.280306
Mathijs Beckstraat,62,,,9077SJ,Vrouwenparochie,Waadhoeke,Friesland,VBO,5.702064,53.280311
Mathijs Beckstraat,64,,,9077SJ,Vrouwenparochie,Waadhoeke,Friesland,VBO,5.702262,53.280299
Mathijs Beckstraat,66,,,9077SJ,Vrouwenparochie,Waadhoeke,Friesland,VBO,5.702361,53.280306
J.P. van der Bildtstraat,2,,,9077SK,Vrouwenparochie,Waadhoeke,Friesland,VBO,5.702798,53.280029
J.P. van der Bildtstraat,3,,,9077SK,Vrouwenparochie,Waadhoeke,Friesland,VBO,5.702944,53.279714
J.P. van der Bildtstraat,4,,,9077SK,Vrouwenparochie,Waadhoeke,Friesland,VBO,5.702351,53.280158
J.P. van der Bildtstraat,5,,,9077SK,Vrouwenparochie,Waadhoeke,Friesland,VBO,5.702759,53.279681
J.P. van der Bildtstraat,6,,,9077SK,Vrouwenparochie,Waadhoeke,Friesland,VBO,5.702633,53.279882
J.P. van der Bildtstraat,7,,,9077SK,Vrouwenparochie,Waadhoeke,Friesland,VBO,5.702546,53.279649
J.P. van der Bildtstraat,8,,,9077SK,Vrouwenparochie,Waadhoeke,Friesland,VBO,5.702443,53.279840
J.P. van der Bildtstraat,9,,,9077SK,Vrouwenparochie,Waadhoeke,Friesland,VBO,5.702436,53.279640
J.P. van der Bildtstraat,10,,,9077SK,Vrouwenparochie,Waadhoeke,Friesland,VBO,5.702228,53.279821
J.P. van der Bildtstraat,11,,,9077SK,Vrouwenparochie,Waadhoeke,Friesland,VBO,5.702164,53.279538
J.P. van der Bildtstraat,12,,,9077SK,Vrouwenparochie,Waadhoeke,Friesland,VBO,5.702015,53.279811
J.P. van der Bildtstraat,13,,,9077SK,Vrouwenparochie,Waadhoeke,Friesland,VBO,5.701672,53.279513
J.P. van der Bildtstraat,14,,,9077SK,Vrouwenparochie,Waadhoeke,Friesland,VBO,5.701891,53.279826
J.P. van der Bildtstraat,15,,,9077SK,Vrouwenparochie,Waadhoeke,Friesland,VBO,5.701324,53.279450
J.P. van der Bildtstraat,16,,,9077SK,Vrouwenparochie,Waadhoeke,Friesland,VBO,5.701636,53.279789
J.P. van der Bildtstraat,17,,,9077SK,Vrouwenparochie,Waadhoeke,Friesland,VBO,5.700984,53.279418
J.P. van der Bildtstraat,18,,,9077SK,Vrouwenparochie,Waadhoeke,Friesland,VBO,5.701478,53.279778
J.P. van der Bildtstraat,19,,,9077SK,Vrouwenparochie,Waadhoeke,Friesland,VBO,5.699835,53.279357
J.P. van der Bildtstraat,20,,,9077SK,Vrouwenparochie,Waadhoeke,Friesland,VBO,5.701307,53.279786
J.P. van der Bildtstraat,21,,,9077SK,Vrouwenparochie,Waadhoeke,Friesland,VBO,5.699354,53.279325
J.P. van der Bildtstraat,22,,,9077SK,Vrouwenparochie,Waadhoeke,Friesland,VBO,5.701127,53.279751
J.P. van der Bildtstraat,23,,,9077SK,Vrouwenparochie,Waadhoeke,Friesland,VBO,5.699081,53.279298
J.P. van der Bildtstraat,25,,,9077SK,Vrouwenparochie,Waadhoeke,Friesland,VBO,5.698749,53.279275
J.P. van der Bildtstraat,27,,,9077SK,Vrouwenparochie,Waadhoeke,Friesland,VBO,5.698458,53.279246
J.P. van der Bildtstraat,29,,,9077SK,Vrouwenparochie,Waadhoeke,Friesland,VBO,5.698127,53.279234
J.P. van der Bildtstraat,34,,,9077SL,Vrouwenparochie,Waadhoeke,Friesland,VBO,5.700946,53.279753
J.P. van der Bildtstraat,36,,,9077SL,Vrouwenparochie,Waadhoeke,Friesland,VBO,5.700808,53.279731
J.P. van der Bildtstraat,38,,,9077SL,Vrouwenparochie,Waadhoeke,Friesland,VBO,5.700767,53.279856
J.P. van der Bildtstraat,40,,,9077SL,Vrouwenparochie,Waadhoeke,Friesland,VBO,5.700755,53.279932
J.P. van der Bildtstraat,42,,,9077SL,Vrouwenparochie,Waadhoeke,Friesland,VBO,5.700459,53.279854
J.P. van der Bildtstraat,44,,,9077SL,Vrouwenparochie,Waadhoeke,Friesland,VBO,5.700471,53.279928
J.P. van der Bildtstraat,46,,,9077SL,Vrouwenparochie,Waadhoeke,Friesland,VBO,5.700322,53.279797
J.P. van der Bildtstraat,60,,,9077SL,Vrouwenparochie,Waadhoeke,Friesland,VBO,5.699649,53.279675
J.P. van der Bildtstraat,62,,,9077SL,Vrouwenparochie,Waadhoeke,Friesland,VBO,5.699422,53.279686
J.P. van der Bildtstraat,64,,,9077SL,Vrouwenparochie,Waadhoeke,Friesland,VBO,5.699106,53.279680
J.P. van der Bildtstraat,66,,,9077SM,Vrouwenparochie,Waadhoeke,Friesland,VBO,5.698744,53.279664
J.P. van der Bildtstraat,68,,,9077SM,Vrouwenparochie,Waadhoeke,Friesland,VBO,5.698566,53.279647
J.P. van der Bildtstraat,70,,,9077SM,Vrouwenparochie,Waadhoeke,Friesland,VBO,5.698290,53.279629
J.P. van der Bildtstraat,74,,,9077SM,Vrouwenparochie,Waadhoeke,Friesland,VBO,5.698107,53.279610
J.P. van der Bildtstraat,76,,,9077SM,Vrouwenparochie,Waadhoeke,Friesland,VBO,5.697927,53.279607
J.P. van der Bildtstraat,78,,,9077SM,Vrouwenparochie,Waadhoeke,Friesland,VBO,5.697681,53.279586
J.P. van der Bildtstraat,80,,,9077SM,Vrouwenparochie,Waadhoeke,Friesland,VBO,5.697587,53.279581
J.P. van der Bildtstraat,82,,,9077SM,Vrouwenparochie,Waadhoeke,Friesland,VBO,5.697370,53.279569
J.P. van der Bildtstraat,84,,,9077SM,Vrouwenparochie,Waadhoeke,Friesland,VBO,5.697260,53.279563
Waling Dykstrastraat,2,,,9077SN,Vrouwenparochie,Waadhoeke,Friesland,VBO,5.703174,53.279730
Waling Dykstrastraat,3,,,9077SN,Vrouwenparochie,Waadhoeke,Friesland,VBO,5.703645,53.279967
Waling Dykstrastraat,4,,,9077SN,Vrouwenparochie,Waadhoeke,Friesland,VBO,5.703387,53.279758
Waling Dykstrastraat,7,,,9077SN,Vrouwenparochie,Waadhoeke,Friesland,VBO,5.703922,53.279953
Waling Dykstrastraat,9,,,9077SN,Vrouwenparochie,Waadhoeke,Friesland,VBO,5.704031,53.279966
Waling Dykstrastraat,10,,,9077SN,Vrouwenparochie,Waadhoeke,Friesland,VBO,5.703531,53.279761
Waling Dykstrastraat,11,,,9077SN,Vrouwenparochie,Waadhoeke,Friesland,VBO,5.704293,53.280004
Waling Dykstrastraat,12,,,9077SN,Vrouwenparochie,Waadhoeke,Friesland,VBO,5.703661,53.279769
Waling Dykstrastraat,14,,,9077SN,Vrouwenparochie,Waadhoeke,Friesland,VBO,5.703780,53.279786
Waling Dykstrastraat,16,,,9077SN,Vrouwenparochie,Waadhoeke,Friesland,VBO,5.704011,53.279681
Waling Dykstrastraat,17,,,9077SN,Vrouwenparochie,Waadhoeke,Friesland,VBO,5.704514,53.281087
Waling Dykstrastraat,18,,,9077SN,Vrouwenparochie,Waadhoeke,Friesland,VBO,5.704110,53.279815
Waling Dykstrastraat,20,,,9077SN,Vrouwenparochie,Waadhoeke,Friesland,VBO,5.704234,53.279840
Waling Dykstrastraat,30,,,9077SN,Vrouwenparochie,Waadhoeke,Friesland,VBO,5.704606,53.279684
Waling Dykstrastraat,32,,,9077SN,Vrouwenparochie,Waadhoeke,Friesland,VBO,5.704563,53.279810
Waling Dykstrastraat,21,,,9077SP,Vrouwenparochie,Waadhoeke,Friesland,VBO,5.704728,53.280043
Waling Dykstrastraat,23,,,9077SP,Vrouwenparochie,Waadhoeke,Friesland,VBO,5.704802,53.280195
Waling Dykstrastraat,25,,,9077SP,Vrouwenparochie,Waadhoeke,Friesland,VBO,5.704957,53.280030
Waling Dykstrastraat,29,,,9077SP,Vrouwenparochie,Waadhoeke,Friesland,VBO,5.705179,53.280017
Waling Dykstrastraat,31,,,9077SP,Vrouwenparochie,Waadhoeke,Friesland,VBO,5.705314,53.280028
Waling Dykstrastraat,33,,,9077SP,Vrouwenparochie,Waadhoeke,Friesland,VBO,5.705553,53.280191
Waling Dykstrastraat,35,,,9077SP,Vrouwenparochie,Waadhoeke,Friesland,VBO,5.705756,53.280065
Waling Dykstrastraat,37,,,9077SP,Vrouwenparochie,Waadhoeke,Friesland,VBO,5.705906,53.280079
Waling Dykstrastraat,38,,,9077SP,Vrouwenparochie,Waadhoeke,Friesland,VBO,5.704868,53.279828
Waling Dykstrastraat,39,,,9077SP,Vrouwenparochie,Waadhoeke,Friesland,VBO,5.706354,53.280195
Waling Dykstrastraat,40,,,9077SP,Vrouwenparochie,Waadhoeke,Friesland,VBO,5.704953,53.279833
Waling Dykstrastraat,42,,,9077SP,Vrouwenparochie,Waadhoeke,Friesland,VBO,5.705035,53.279836
Waling Dykstrastraat,43,A,,9077SP,Vrouwenparochie,Waadhoeke,Friesland,VBO,5.706372,53.280588
Waling Dykstrastraat,43,,,9077SP,Vrouwenparochie,Waadhoeke,Friesland,VBO,5.706099,53.280657
Waling Dykstrastraat,44,,,9077SP,Vrouwenparochie,Waadhoeke,Friesland,VBO,5.705188,53.279864
Waling Dykstrastraat,45,,,9077SP,Vrouwenparochie,Waadhoeke,Friesland,VBO,5.706779,53.280741
Waling Dykstrastraat,46,,,9077SP,Vrouwenparochie,Waadhoeke,Friesland,VBO,5.705351,53.279903
Waling Dykstrastraat,48,,,9077SP,Vrouwenparochie,Waadhoeke,Friesland,VBO,5.706255,53.279586
Waling Dykstrastraat,49,,,9077SP,Vrouwenparochie,Waadhoeke,Friesland,VBO,5.706858,53.280503
Waling Dykstrastraat,51,A,,9077SP,Vrouwenparochie,Waadhoeke,Friesland,VBO,5.707504,53.280275
Waling Dykstrastraat,51,,,9077SP,Vrouwenparochie,Waadhoeke,Friesland,VBO,5.707234,53.280272
Waling Dykstrastraat,53,,,9077SP,Vrouwenparochie,Waadhoeke,Friesland,VBO,5.707438,53.280646
Waling Dykstrastraat,55,,,9077SP,Vrouwenparochie,Waadhoeke,Friesland,VBO,5.707906,53.280291
Waling Dykstrastraat,57,,,9077SP,Vrouwenparochie,Waadhoeke,Friesland,VBO,5.707994,53.280296
Waling Dykstrastraat,54,,,9077SR,Vrouwenparochie,Waadhoeke,Friesland,VBO,5.707410,53.279952
Waling Dykstrastraat,56,,,9077SR,Vrouwenparochie,Waadhoeke,Friesland,VBO,5.707651,53.279954
Waling Dykstrastraat,58,,,9077SR,Vrouwenparochie,Waadhoeke,Friesland,VBO,5.707759,53.279963
Waling Dykstrastraat,59,,,9077SR,Vrouwenparochie,Waadhoeke,Friesland,VBO,5.708078,53.280303
Waling Dykstrastraat,60,,,9077SR,Vrouwenparochie,Waadhoeke,Friesland,VBO,5.707948,53.279947
Waling Dykstrastraat,61,,,9077SR,Vrouwenparochie,Waadhoeke,Friesland,VBO,5.708349,53.280313
Waling Dykstrastraat,62,,,9077SR,Vrouwenparochie,Waadhoeke,Friesland,VBO,5.708172,53.279988
Waling Dykstrastraat,64,,,9077SR,Vrouwenparochie,Waadhoeke,Friesland,VBO,5.708400,53.280008
Waling Dykstrastraat,65,,,9077SR,Vrouwenparochie,Waadhoeke,Friesland,VBO,5.708928,53.280327
Waling Dykstrastraat,66,,,9077SR,Vrouwenparochie,Waadhoeke,Friesland,VBO,5.708508,53.280017
Waling Dykstrastraat,67,,,9077SR,Vrouwenparochie,Waadhoeke,Friesland,VBO,5.709181,53.280337
Waling Dykstrastraat,68,,,9077SR,Vrouwenparochie,Waadhoeke,Friesland,VBO,5.708692,53.280031
Waling Dykstrastraat,69,,,9077SR,Vrouwenparochie,Waadhoeke,Friesland,VBO,5.709267,53.280348
Waling Dykstrastraat,70,,,9077SR,Vrouwenparochie,Waadhoeke,Friesland,VBO,5.708881,53.280114
Waling Dykstrastraat,71,,,9077SR,Vrouwenparochie,Waadhoeke,Friesland,VBO,5.709354,53.280354
Waling Dykstrastraat,72,,,9077SR,Vrouwenparochie,Waadhoeke,Friesland,VBO,5.709048,53.280125
Waling Dykstrastraat,73,,,9077SR,Vrouwenparochie,Waadhoeke,Friesland,VBO,5.709442,53.280352
Waling Dykstrastraat,77,,,9077SR,Vrouwenparochie,Waadhoeke,Friesland,VBO,5.709792,53.280352
Waling Dykstrastraat,78,A,,9077SR,Vrouwenparochie,Waadhoeke,Friesland,VBO,5.709354,53.279884
Waling Dykstrastraat,78,B,,9077SR,Vrouwenparochie,Waadhoeke,Friesland,VBO,5.709376,53.279972
Waling Dykstrastraat,78,C,,9077SR,Vrouwenparochie,Waadhoeke,Friesland,VBO,5.709386,53.279937
Waling Dykstrastraat,78,D,,9077SR,Vrouwenparochie,Waadhoeke,Friesland,VBO,5.709477,53.279881
Waling Dykstrastraat,78,E,,9077SR,Vrouwenparochie,Waadhoeke,Friesland,VBO,5.709555,53.279994
Waling Dykstrastraat,78,F,,9077SR,Vrouwenparochie,Waadhoeke,Friesland,VBO,5.709623,53.279903
Waling Dykstrastraat,78,G,,9077SR,Vrouwenparochie,Waadhoeke,Friesland,VBO,5.709747,53.279911
Waling Dykstrastraat,86,,,9077SR,Vrouwenparochie,Waadhoeke,Friesland,VBO,5.710125,53.280080
Waling Dykstrastraat,88,,,9077SR,Vrouwenparochie,Waadhoeke,Friesland,VBO,5.710847,53.280090
Waling Dykstrastraat,81,,,9077ST,Vrouwenparochie,Waadhoeke,Friesland,VBO,5.710207,53.280369
Waling Dykstrastraat,89,,,9077ST,Vrouwenparochie,Waadhoeke,Friesland,VBO,5.710977,53.280457
Waling Dykstrastraat,91,,,9077ST,Vrouwenparochie,Waadhoeke,Friesland,VBO,5.711173,53.280498
Waling Dykstrastraat,93,,,9077ST,Vrouwenparochie,Waadhoeke,Friesland,VBO,5.711244,53.280502
Waling Dykstrastraat,95,,,9077ST,Vrouwenparochie,Waadhoeke,Friesland,VBO,5.711327,53.280510
Waling Dykstrastraat,97,A,,9077ST,Vrouwenparochie,Waadhoeke,Friesland,VBO,5.711557,53.280558
Waling Dykstrastraat,97,B,,9077ST,Vrouwenparochie,Waadhoeke,Friesland,VBO,5.711621,53.280564
Waling Dykstrastraat,97,C,,9077ST,Vrouwenparochie,Waadhoeke,Friesland,VBO,5.711681,53.280569
Waling Dykstrastraat,97,,,9077ST,Vrouwenparochie,Waadhoeke,Friesland,VBO,5.711468,53.280553
Waling Dykstrastraat,99,,,9077ST,Vrouwenparochie,Waadhoeke,Friesland,VBO,5.711861,53.280556
Waling Dykstrastraat,101,,,9077ST,Vrouwenparochie,Waadhoeke,Friesland,VBO,5.712380,53.281344
Waling Dykstrastraat,105,,,9077ST,Vrouwenparochie,Waadhoeke,Friesland,VBO,5.712327,53.280592
Waling Dykstrastraat,107,,,9077ST,Vrouwenparochie,Waadhoeke,Friesland,VBO,5.712639,53.280608
Waling Dykstrastraat,109,,,9077ST,Vrouwenparochie,Waadhoeke,Friesland,VBO,5.712736,53.280612
Waling Dykstrastraat,111,,,9077ST,Vrouwenparochie,Waadhoeke,Friesland,VBO,5.712885,53.280621
Waling Dykstrastraat,113,,,9077ST,Vrouwenparochie,Waadhoeke,Friesland,VBO,5.712976,53.280630
Waling Dykstrastraat,115,,,9077ST,Vrouwenparochie,Waadhoeke,Friesland,VBO,5.713151,53.280655
Waling Dykstrastraat,119,,,9077ST,Vrouwenparochie,Waadhoeke,Friesland,VBO,5.713312,53.280654
Waling Dykstrastraat,121,,,9077ST,Vrouwenparochie,Waadhoeke,Friesland,VBO,5.713481,53.280663
Waling Dykstrastraat,123,,,9077ST,Vrouwenparochie,Waadhoeke,Friesland,VBO,5.713593,53.280666
Kerkplein,1,,,9077SV,Vrouwenparochie,Waadhoeke,Friesland,VBO,5.702861,53.280167
Kerkplein,2,,,9077SV,Vrouwenparochie,Waadhoeke,Friesland,VBO,5.703035,53.280455
Kerkplein,4,,,9077SV,Vrouwenparochie,Waadhoeke,Friesland,VBO,5.703961,53.280483
Kerkplein,5,,,9077SV,Vrouwenparochie,Waadhoeke,Friesland,VBO,5.702769,53.280348
Kerkplein,7,,,9077SV,Vrouwenparochie,Waadhoeke,Friesland,VBO,5.702787,53.280624
Vrouwbuurtstermolen,1,,,9077SW,Vrouwenparochie,Waadhoeke,Friesland,VBO,5.721596,53.280285
Vrouwbuurtstermolen,2,,,9077SW,Vrouwenparochie,Waadhoeke,Friesland,VBO,5.721662,53.280531
Vrouwbuurtstermolen,3,,,9077SW,Vrouwenparochie,Waadhoeke,Friesland,VBO,5.721236,53.280280
Vrouwbuurtstermolen,5,,,9077SW,Vrouwenparochie,Waadhoeke,Friesland,VBO,5.720638,53.280240
Vrouwbuurtstermolen,6,,,9077SW,Vrouwenparochie,Waadhoeke,Friesland,VBO,5.721510,53.280785
Vrouwbuurtstermolen,8,,,9077SW,Vrouwenparochie,Waadhoeke,Friesland,VBO,5.719316,53.281042
Vrouwbuurtstermolen,9,,,9077SW,Vrouwenparochie,Waadhoeke,Friesland,VBO,5.719651,53.280586
Vrouwbuurtstermolen,12,,,9077SW,Vrouwenparochie,Waadhoeke,Friesland,VBO,5.718872,53.281026
Vrouwbuurtstermolen,14,,,9077SW,Vrouwenparochie,Waadhoeke,Friesland,VBO,5.718041,53.280987
Vrouwbuurtstermolen,16,,,9077SW,Vrouwenparochie,Waadhoeke,Friesland,VBO,5.717568,53.280968
Vrouwbuurtstermolen,17,,,9077SW,Vrouwenparochie,Waadhoeke,Friesland,VBO,5.716883,53.280454
Vrouwbuurtstermolen,18,,,9077SW,Vrouwenparochie,Waadhoeke,Friesland,VBO,5.717186,53.280926
Vrouwbuurtstermolen,20,,,9077SW,Vrouwenparochie,Waadhoeke,Friesland,VBO,5.714374,53.280778
Vrouwbuurtstermolen,22,,,9077SW,Vrouwenparochie,Waadhoeke,Friesland,VBO,5.713783,53.280707
Roodpad,1,A,,9077SX,Vrouwenparochie,Waadhoeke,Friesland,VBO,5.717358,53.284265
Roodpad,1,,,9077SX,Vrouwenparochie,Waadhoeke,Friesland,VBO,5.716025,53.284192
Netaris Brungerstraat,1,,,9077SZ,Vrouwenparochie,Waadhoeke,Friesland,VBO,5.699609,53.280789
Netaris Brungerstraat,2,,,9077SZ,Vrouwenparochie,Waadhoeke,Friesland,VBO,5.700043,53.280954
Netaris Brungerstraat,3,,,9077SZ,Vrouwenparochie,Waadhoeke,Friesland,VBO,5.699590,53.280900
Netaris Brungerstraat,4,,,9077SZ,Vrouwenparochie,Waadhoeke,Friesland,VBO,5.700123,53.280959
Netaris Brungerstraat,5,,,9077SZ,Vrouwenparochie,Waadhoeke,Friesland,VBO,5.699566,53.281034
Netaris Brungerstraat,6,,,9077SZ,Vrouwenparochie,Waadhoeke,Friesland,VBO,5.700329,53.280975
Netaris Brungerstraat,7,,,9077SZ,Vrouwenparochie,Waadhoeke,Friesland,VBO,5.699944,53.281200
Netaris Brungerstraat,8,,,9077SZ,Vrouwenparochie,Waadhoeke,Friesland,VBO,5.700429,53.280982
Netaris Brungerstraat,9,,,9077SZ,Vrouwenparochie,Waadhoeke,Friesland,VBO,5.700169,53.281185
Netaris Brungerstraat,10,,,9077SZ,Vrouwenparochie,Waadhoeke,Friesland,VBO,5.700622,53.281033
Netaris Brungerstraat,11,,,9077SZ,Vrouwenparochie,Waadhoeke,Friesland,VBO,5.700376,53.281219
Netaris Brungerstraat,12,,,9077SZ,Vrouwenparochie,Waadhoeke,Friesland,VBO,5.700727,53.281041
Netaris Brungerstraat,14,,,9077SZ,Vrouwenparochie,Waadhoeke,Friesland,VBO,5.700925,53.281100
Netaris Brungerstraat,16,,,9077SZ,Vrouwenparochie,Waadhoeke,Friesland,VBO,5.701034,53.281107
Leyester Hegedyk,72,,,9077TV,Vrouwenparochie,Waadhoeke,Friesland,VBO,5.723385,53.283651
Leyester Hegedyk,74,,,9077TV,Vrouwenparochie,Waadhoeke,Friesland,VBO,5.722870,53.282977
Leyester Hegedyk,76,,,9077TV,Vrouwenparochie,Waadhoeke,Friesland,VBO,5.721981,53.280970
Hamerenweg,1,,,9077TW,Vrouwenparochie,Waadhoeke,Friesland,VBO,5.699280,53.254172
Hamerenweg,2,,,9077TW,Vrouwenparochie,Waadhoeke,Friesland,VBO,5.706705,53.248939
Hamerenweg,4,,,9077TW,Vrouwenparochie,Waadhoeke,Friesland,VBO,5.703240,53.251300
Hamerenweg,5,,,9077TW,Vrouwenparochie,Waadhoeke,Friesland,VBO,5.697304,53.254287
Hamerenweg,6,,,9077TW,Vrouwenparochie,Waadhoeke,Friesland,VBO,5.702865,53.252527
Hamerenweg,7,,,9077TW,Vrouwenparochie,Waadhoeke,Friesland,VBO,5.700874,53.259160
Hamerenweg,8,,,9077TW,Vrouwenparochie,Waadhoeke,Friesland,VBO,5.700564,53.263942
Súdhoekstermiddelweg,1,,,9077TX,Vrouwenparochie,Waadhoeke,Friesland,VBO,5.724781,53.261317
Súdhoekstermiddelweg,2,,,9077TX,Vrouwenparochie,Waadhoeke,Friesland,VBO,5.712265,53.261139
Súdhoekstermiddelweg,3,,,9077TX,Vrouwenparochie,Waadhoeke,Friesland,VBO,5.712362,53.260692
Súdhoekstermiddelweg,5,,,9077TX,Vrouwenparochie,Waadhoeke,Friesland,VBO,5.711019,53.260665
Súdhoekstermiddelweg,8,,,9077TX,Vrouwenparochie,Waadhoeke,Friesland,VBO,5.706069,53.260740
Súdhoekstermiddelweg,9,,,9077TX,Vrouwenparochie,Waadhoeke,Friesland,VBO,5.715459,53.253706
Súdhoekstermiddelweg,10,,,9077TX,Vrouwenparochie,Waadhoeke,Friesland,VBO,5.702781,53.260434
Súdhoekstermiddelweg,11,,,9077TX,Vrouwenparochie,Waadhoeke,Friesland,VBO,5.710526,53.260684
Súdhoekstermiddelweg,13,,,9077TX,Vrouwenparochie,Waadhoeke,Friesland,VBO,5.709984,53.260552
Súdhoekstermiddelweg,15,,,9077TX,Vrouwenparochie,Waadhoeke,Friesland,VBO,5.704626,53.259926
Stienzer Hegedyk,11,B,,9077TZ,Vrouwenparochie,Waadhoeke,Friesland,VBO,5.730734,53.266580
Stienzer Hegedyk,23,B,,9077TZ,Vrouwenparochie,Waadhoeke,Friesland,VBO,5.721072,53.279983
Stienzer Hegedyk,25,B,,9077TZ,Vrouwenparochie,Waadhoeke,Friesland,VBO,5.721429,53.280063
Stienzer Hegedyk,27,B,,9077TZ,Vrouwenparochie,Waadhoeke,Friesland,VBO,5.721631,53.280225
