openbareruimtenaam,huisnummer,huisletter,huisnummertoevoeging,postcode,woonplaatsnaam,gemeentenaam,provincienaam,typeadresseerbaarobject,longitude,latitude
van Wijngaardenstraat,1,,,9079KA,St.-Jacobiparochie,het Bildt,Friesland,VBO,5.602943,53.275990
van Wijngaardenstraat,3,,,9079KA,St.-Jacobiparochie,het Bildt,Friesland,VBO,5.603046,53.276008
van Wijngaardenstraat,5,,,9079KA,St.-Jacobiparochie,het Bildt,Friesland,VBO,5.603148,53.276026
van Wijngaardenstraat,7,A,,9079KA,St.-Jacobiparochie,het Bildt,Friesland,VBO,5.603395,53.276072
van Wijngaardenstraat,7,,,9079KA,St.-Jacobiparochie,het Bildt,Friesland,VBO,5.603322,53.276061
van Wijngaardenstraat,9,,,9079KA,St.-Jacobiparochie,het Bildt,Friesland,VBO,5.603685,53.276118
van Wijngaardenstraat,11,,,9079KA,St.-Jacobiparochie,het Bildt,Friesland,VBO,5.603774,53.276132
van Wijngaardenstraat,13,,,9079KA,St.-Jacobiparochie,het Bildt,Friesland,VBO,5.603976,53.276163
van Wijngaardenstraat,15,,,9079KA,St.-Jacobiparochie,het Bildt,Friesland,VBO,5.604070,53.276177
van Wijngaardenstraat,17,,,9079KA,St.-Jacobiparochie,het Bildt,Friesland,VBO,5.604274,53.276209
van Wijngaardenstraat,19,,,9079KA,St.-Jacobiparochie,het Bildt,Friesland,VBO,5.604368,53.276224
van Wijngaardenstraat,21,,,9079KA,St.-Jacobiparochie,het Bildt,Friesland,VBO,5.604574,53.276256
van Wijngaardenstraat,23,A,,9079KA,St.-Jacobiparochie,het Bildt,Friesland,VBO,5.604859,53.276300
van Wijngaardenstraat,23,B,,9079KA,St.-Jacobiparochie,het Bildt,Friesland,VBO,5.604953,53.276314
van Wijngaardenstraat,23,,,9079KA,St.-Jacobiparochie,het Bildt,Friesland,VBO,5.604664,53.276270
van Wijngaardenstraat,25,,,9079KB,St.-Jacobiparochie,het Bildt,Friesland,VBO,5.605225,53.276305
van Wijngaardenstraat,27,,,9079KB,St.-Jacobiparochie,het Bildt,Friesland,VBO,5.605305,53.276318
van Wijngaardenstraat,29,,,9079KB,St.-Jacobiparochie,het Bildt,Friesland,VBO,5.605584,53.276361
van Wijngaardenstraat,31,,,9079KB,St.-Jacobiparochie,het Bildt,Friesland,VBO,5.605668,53.276374
van Wijngaardenstraat,33,,,9079KB,St.-Jacobiparochie,het Bildt,Friesland,VBO,5.605908,53.276432
van Wijngaardenstraat,33,,,9079KB,St.-Jacobiparochie,het Bildt,Friesland,VBO,5.605944,53.276417
van Wijngaardenstraat,37,,,9079KB,St.-Jacobiparochie,het Bildt,Friesland,VBO,5.606303,53.276472
van Wijngaardenstraat,39,,,9079KB,St.-Jacobiparochie,het Bildt,Friesland,VBO,5.606385,53.276485
van Wijngaardenstraat,41,,,9079KB,St.-Jacobiparochie,het Bildt,Friesland,VBO,5.606761,53.276549
van Wijngaardenstraat,43,,,9079KB,St.-Jacobiparochie,het Bildt,Friesland,VBO,5.606844,53.276562
van Wijngaardenstraat,45,,,9079KB,St.-Jacobiparochie,het Bildt,Friesland,VBO,5.607128,53.276605
van Wijngaardenstraat,47,,,9079KB,St.-Jacobiparochie,het Bildt,Friesland,VBO,5.607215,53.276619
van Wijngaardenstraat,49,,,9079KB,St.-Jacobiparochie,het Bildt,Friesland,VBO,5.607495,53.276662
van Wijngaardenstraat,51,,,9079KB,St.-Jacobiparochie,het Bildt,Friesland,VBO,5.607588,53.276677
van Wijngaardenstraat,53,,,9079KB,St.-Jacobiparochie,het Bildt,Friesland,VBO,5.607863,53.276720
van Wijngaardenstraat,55,,,9079KB,St.-Jacobiparochie,het Bildt,Friesland,VBO,5.607950,53.276733
van Wijngaardenstraat,2,,,9079KC,St.-Jacobiparochie,het Bildt,Friesland,VBO,5.603487,53.275807
van Wijngaardenstraat,4,,,9079KC,St.-Jacobiparochie,het Bildt,Friesland,VBO,5.603584,53.275832
van Wijngaardenstraat,6,,,9079KC,St.-Jacobiparochie,het Bildt,Friesland,VBO,5.603751,53.275854
van Wijngaardenstraat,8,,,9079KC,St.-Jacobiparochie,het Bildt,Friesland,VBO,5.603893,53.275884
van Wijngaardenstraat,10,,,9079KC,St.-Jacobiparochie,het Bildt,Friesland,VBO,5.604015,53.275903
van Wijngaardenstraat,12,,,9079KC,St.-Jacobiparochie,het Bildt,Friesland,VBO,5.604187,53.275945
van Wijngaardenstraat,14,,,9079KC,St.-Jacobiparochie,het Bildt,Friesland,VBO,5.604309,53.275963
van Wijngaardenstraat,16,,,9079KC,St.-Jacobiparochie,het Bildt,Friesland,VBO,5.604721,53.276019
van Wijngaardenstraat,18,,,9079KC,St.-Jacobiparochie,het Bildt,Friesland,VBO,5.604748,53.275957
van Wijngaardenstraat,20,,,9079KC,St.-Jacobiparochie,het Bildt,Friesland,VBO,5.604775,53.275895
van Wijngaardenstraat,22,,,9079KC,St.-Jacobiparochie,het Bildt,Friesland,VBO,5.604801,53.275833
van Wijngaardenstraat,24,,,9079KC,St.-Jacobiparochie,het Bildt,Friesland,VBO,5.604828,53.275771
van Wijngaardenstraat,26,,,9079KC,St.-Jacobiparochie,het Bildt,Friesland,VBO,5.605104,53.275818
van Wijngaardenstraat,28,,,9079KC,St.-Jacobiparochie,het Bildt,Friesland,VBO,5.605080,53.275878
van Wijngaardenstraat,30,,,9079KC,St.-Jacobiparochie,het Bildt,Friesland,VBO,5.605056,53.275939
van Wijngaardenstraat,32,,,9079KC,St.-Jacobiparochie,het Bildt,Friesland,VBO,5.605031,53.275999
van Wijngaardenstraat,34,,,9079KC,St.-Jacobiparochie,het Bildt,Friesland,VBO,5.605007,53.276059
van Wijngaardenstraat,36,,,9079KD,St.-Jacobiparochie,het Bildt,Friesland,VBO,5.605299,53.276092
van Wijngaardenstraat,38,,,9079KD,St.-Jacobiparochie,het Bildt,Friesland,VBO,5.605401,53.276108
van Wijngaardenstraat,40,,,9079KD,St.-Jacobiparochie,het Bildt,Friesland,VBO,5.605503,53.276123
van Wijngaardenstraat,42,,,9079KD,St.-Jacobiparochie,het Bildt,Friesland,VBO,5.605606,53.276139
van Wijngaardenstraat,44,,,9079KD,St.-Jacobiparochie,het Bildt,Friesland,VBO,5.605708,53.276155
van Wijngaardenstraat,46,,,9079KD,St.-Jacobiparochie,het Bildt,Friesland,VBO,5.605985,53.276220
van Wijngaardenstraat,48,,,9079KD,St.-Jacobiparochie,het Bildt,Friesland,VBO,5.606013,53.276158
van Wijngaardenstraat,50,,,9079KD,St.-Jacobiparochie,het Bildt,Friesland,VBO,5.606040,53.276095
van Wijngaardenstraat,52,,,9079KD,St.-Jacobiparochie,het Bildt,Friesland,VBO,5.606067,53.276032
van Wijngaardenstraat,54,,,9079KD,St.-Jacobiparochie,het Bildt,Friesland,VBO,5.606095,53.275969
van Wijngaardenstraat,56,,,9079KD,St.-Jacobiparochie,het Bildt,Friesland,VBO,5.606363,53.276015
van Wijngaardenstraat,58,,,9079KD,St.-Jacobiparochie,het Bildt,Friesland,VBO,5.606340,53.276075
van Wijngaardenstraat,60,,,9079KD,St.-Jacobiparochie,het Bildt,Friesland,VBO,5.606317,53.276135
van Wijngaardenstraat,62,,,9079KD,St.-Jacobiparochie,het Bildt,Friesland,VBO,5.606294,53.276195
van Wijngaardenstraat,64,,,9079KD,St.-Jacobiparochie,het Bildt,Friesland,VBO,5.606271,53.276254
van Wijngaardenstraat,66,,,9079KD,St.-Jacobiparochie,het Bildt,Friesland,VBO,5.606686,53.276320
van Wijngaardenstraat,68,,,9079KD,St.-Jacobiparochie,het Bildt,Friesland,VBO,5.606779,53.276335
van Wijngaardenstraat,70,,,9079KD,St.-Jacobiparochie,het Bildt,Friesland,VBO,5.607179,53.276377
van Wijngaardenstraat,72,,,9079KD,St.-Jacobiparochie,het Bildt,Friesland,VBO,5.607204,53.276322
van Wijngaardenstraat,74,,,9079KD,St.-Jacobiparochie,het Bildt,Friesland,VBO,5.607228,53.276271
van Wijngaardenstraat,76,,,9079KD,St.-Jacobiparochie,het Bildt,Friesland,VBO,5.607249,53.276211
van Wijngaardenstraat,78,,,9079KD,St.-Jacobiparochie,het Bildt,Friesland,VBO,5.607266,53.276158
van Wijngaardenstraat,80,,,9079KD,St.-Jacobiparochie,het Bildt,Friesland,VBO,5.607768,53.276228
van Wijngaardenstraat,82,,,9079KD,St.-Jacobiparochie,het Bildt,Friesland,VBO,5.607723,53.276278
van Wijngaardenstraat,84,,,9079KD,St.-Jacobiparochie,het Bildt,Friesland,VBO,5.607706,53.276341
van Wijngaardenstraat,86,,,9079KD,St.-Jacobiparochie,het Bildt,Friesland,VBO,5.607685,53.276396
van Wijngaardenstraat,88,,,9079KD,St.-Jacobiparochie,het Bildt,Friesland,VBO,5.607656,53.276449
Georg van Saksenstraat,3,,,9079KE,St.-Jacobiparochie,het Bildt,Friesland,VBO,5.603019,53.273320
Georg van Saksenstraat,17,,,9079KE,St.-Jacobiparochie,het Bildt,Friesland,VBO,5.603235,53.274195
Georg van Saksenstraat,19,,,9079KE,St.-Jacobiparochie,het Bildt,Friesland,VBO,5.603216,53.274242
Georg van Saksenstraat,21,,,9079KE,St.-Jacobiparochie,het Bildt,Friesland,VBO,5.603198,53.274289
Georg van Saksenstraat,23,,,9079KE,St.-Jacobiparochie,het Bildt,Friesland,VBO,5.603180,53.274336
Georg van Saksenstraat,25,,,9079KE,St.-Jacobiparochie,het Bildt,Friesland,VBO,5.603148,53.274435
Georg van Saksenstraat,27,,,9079KE,St.-Jacobiparochie,het Bildt,Friesland,VBO,5.603123,53.274484
Georg van Saksenstraat,29,,,9079KE,St.-Jacobiparochie,het Bildt,Friesland,VBO,5.603108,53.274536
Georg van Saksenstraat,31,,,9079KE,St.-Jacobiparochie,het Bildt,Friesland,VBO,5.603067,53.274638
Georg van Saksenstraat,33,,,9079KE,St.-Jacobiparochie,het Bildt,Friesland,VBO,5.603046,53.274691
Georg van Saksenstraat,35,,,9079KE,St.-Jacobiparochie,het Bildt,Friesland,VBO,5.603005,53.274794
Georg van Saksenstraat,37,,,9079KE,St.-Jacobiparochie,het Bildt,Friesland,VBO,5.602985,53.274846
Georg van Saksenstraat,39,,,9079KE,St.-Jacobiparochie,het Bildt,Friesland,VBO,5.602857,53.275164
Georg van Saksenstraat,41,,,9079KE,St.-Jacobiparochie,het Bildt,Friesland,VBO,5.602831,53.275235
Georg van Saksenstraat,43,,,9079KE,St.-Jacobiparochie,het Bildt,Friesland,VBO,5.602805,53.275307
Georg van Saksenstraat,45,,,9079KE,St.-Jacobiparochie,het Bildt,Friesland,VBO,5.602752,53.275399
Georg van Saksenstraat,47,,,9079KE,St.-Jacobiparochie,het Bildt,Friesland,VBO,5.602731,53.275450
Georg van Saksenstraat,49,,,9079KE,St.-Jacobiparochie,het Bildt,Friesland,VBO,5.602678,53.275614
Georg van Saksenstraat,2,,,9079KG,St.-Jacobiparochie,het Bildt,Friesland,VBO,5.603732,53.273056
Georg van Saksenstraat,10,,,9079KG,St.-Jacobiparochie,het Bildt,Friesland,VBO,5.603718,53.273246
Georg van Saksenstraat,12,,,9079KG,St.-Jacobiparochie,het Bildt,Friesland,VBO,5.603703,53.273374
Georg van Saksenstraat,14,,,9079KG,St.-Jacobiparochie,het Bildt,Friesland,VBO,5.603832,53.273497
Heert Piters de Jongstraat,1,,,9079KG,St.-Jacobiparochie,het Bildt,Friesland,VBO,5.604516,53.273700
Georg van Saksenstraat,34,,,9079KH,St.-Jacobiparochie,het Bildt,Friesland,VBO,5.603620,53.274338
Georg van Saksenstraat,36,,,9079KH,St.-Jacobiparochie,het Bildt,Friesland,VBO,5.603664,53.274465
Georg van Saksenstraat,38,,,9079KH,St.-Jacobiparochie,het Bildt,Friesland,VBO,5.603575,53.274596
Georg van Saksenstraat,40,,,9079KH,St.-Jacobiparochie,het Bildt,Friesland,VBO,5.603521,53.274721
Georg van Saksenstraat,42,,,9079KH,St.-Jacobiparochie,het Bildt,Friesland,VBO,5.603453,53.274801
Georg van Saksenstraat,44,A,,9079KH,St.-Jacobiparochie,het Bildt,Friesland,VBO,5.603213,53.275343
Georg van Saksenstraat,44,,,9079KH,St.-Jacobiparochie,het Bildt,Friesland,VBO,5.603420,53.274906
Georg van Saksenstraat,46,,,9079KJ,St.-Jacobiparochie,het Bildt,Friesland,VBO,5.603178,53.275496
Georg van Saksenstraat,48,,,9079KJ,St.-Jacobiparochie,het Bildt,Friesland,VBO,5.603105,53.275578
Georg van Saksenstraat,50,,,9079KJ,St.-Jacobiparochie,het Bildt,Friesland,VBO,5.603107,53.275705
K.L. de Vriesstraat,1,A,,9079KK,St.-Jacobiparochie,het Bildt,Friesland,VBO,5.603908,53.275167
K.L. de Vriesstraat,1,,,9079KK,St.-Jacobiparochie,het Bildt,Friesland,VBO,5.604779,53.275194
K.L. de Vriesstraat,2,,,9079KK,St.-Jacobiparochie,het Bildt,Friesland,VBO,5.604163,53.274735
K.L. de Vriesstraat,3,B,,9079KK,St.-Jacobiparochie,het Bildt,Friesland,VBO,5.605958,53.275469
K.L. de Vriesstraat,3,,,9079KK,St.-Jacobiparochie,het Bildt,Friesland,VBO,5.605646,53.275302
K.L. de Vriesstraat,6,,,9079KK,St.-Jacobiparochie,het Bildt,Friesland,VBO,5.604480,53.274851
K.L. de Vriesstraat,7,,,9079KK,St.-Jacobiparochie,het Bildt,Friesland,VBO,5.606900,53.275620
K.L. de Vriesstraat,8,,,9079KK,St.-Jacobiparochie,het Bildt,Friesland,VBO,5.604834,53.274886
K.L. de Vriesstraat,9,A,,9079KK,St.-Jacobiparochie,het Bildt,Friesland,VBO,5.608024,53.275827
K.L. de Vriesstraat,9,,,9079KK,St.-Jacobiparochie,het Bildt,Friesland,VBO,5.607635,53.275773
K.L. de Vriesstraat,12,,,9079KK,St.-Jacobiparochie,het Bildt,Friesland,VBO,5.605057,53.274929
K.L. de Vriesstraat,14,,,9079KK,St.-Jacobiparochie,het Bildt,Friesland,VBO,5.605725,53.275028
K.L. de Vriesstraat,18,,,9079KK,St.-Jacobiparochie,het Bildt,Friesland,VBO,5.606520,53.275226
K.L. de Vriesstraat,20,A,,9079KK,St.-Jacobiparochie,het Bildt,Friesland,VBO,5.606889,53.275356
K.L. de Vriesstraat,20,,,9079KK,St.-Jacobiparochie,het Bildt,Friesland,VBO,5.607650,53.275471
K.L. de Vriesstraat,24,,,9079KK,St.-Jacobiparochie,het Bildt,Friesland,VBO,5.607650,53.275341
Geert Veenhuizenstraat,1,A,,9079KL,St.-Jacobiparochie,het Bildt,Friesland,VBO,5.604205,53.274328
Geert Veenhuizenstraat,1,,,9079KL,St.-Jacobiparochie,het Bildt,Friesland,VBO,5.604469,53.274369
Geert Veenhuizenstraat,3,,,9079KL,St.-Jacobiparochie,het Bildt,Friesland,VBO,5.604575,53.274382
Geert Veenhuizenstraat,5,,,9079KL,St.-Jacobiparochie,het Bildt,Friesland,VBO,5.604682,53.274396
Geert Veenhuizenstraat,7,,,9079KL,St.-Jacobiparochie,het Bildt,Friesland,VBO,5.604788,53.274409
Geert Veenhuizenstraat,9,,,9079KL,St.-Jacobiparochie,het Bildt,Friesland,VBO,5.604926,53.274465
Geert Veenhuizenstraat,11,,,9079KL,St.-Jacobiparochie,het Bildt,Friesland,VBO,5.605025,53.274479
Geert Veenhuizenstraat,13,,,9079KL,St.-Jacobiparochie,het Bildt,Friesland,VBO,5.605123,53.274494
Geert Veenhuizenstraat,15,,,9079KL,St.-Jacobiparochie,het Bildt,Friesland,VBO,5.605222,53.274508
Geert Veenhuizenstraat,17,,,9079KL,St.-Jacobiparochie,het Bildt,Friesland,VBO,5.605367,53.274528
Geert Veenhuizenstraat,19,,,9079KL,St.-Jacobiparochie,het Bildt,Friesland,VBO,5.605468,53.274541
Geert Veenhuizenstraat,21,,,9079KL,St.-Jacobiparochie,het Bildt,Friesland,VBO,5.605568,53.274555
Geert Veenhuizenstraat,23,A,,9079KL,St.-Jacobiparochie,het Bildt,Friesland,VBO,5.605483,53.274812
Geert Veenhuizenstraat,23,,,9079KL,St.-Jacobiparochie,het Bildt,Friesland,VBO,5.605668,53.274569
Geert Veenhuizenstraat,25,,,9079KL,St.-Jacobiparochie,het Bildt,Friesland,VBO,5.605774,53.274616
Geert Veenhuizenstraat,27,,,9079KL,St.-Jacobiparochie,het Bildt,Friesland,VBO,5.605873,53.274633
Geert Veenhuizenstraat,29,,,9079KL,St.-Jacobiparochie,het Bildt,Friesland,VBO,5.605973,53.274650
Geert Veenhuizenstraat,31,,,9079KL,St.-Jacobiparochie,het Bildt,Friesland,VBO,5.606072,53.274666
Geert Veenhuizenstraat,33,,,9079KL,St.-Jacobiparochie,het Bildt,Friesland,VBO,5.606197,53.274686
Geert Veenhuizenstraat,35,,,9079KL,St.-Jacobiparochie,het Bildt,Friesland,VBO,5.606298,53.274700
Geert Veenhuizenstraat,37,,,9079KL,St.-Jacobiparochie,het Bildt,Friesland,VBO,5.606399,53.274714
Geert Veenhuizenstraat,39,,,9079KL,St.-Jacobiparochie,het Bildt,Friesland,VBO,5.606500,53.274729
Geert Veenhuizenstraat,41,,,9079KM,St.-Jacobiparochie,het Bildt,Friesland,VBO,5.606617,53.274742
Geert Veenhuizenstraat,43,,,9079KM,St.-Jacobiparochie,het Bildt,Friesland,VBO,5.606721,53.274758
Geert Veenhuizenstraat,45,,,9079KM,St.-Jacobiparochie,het Bildt,Friesland,VBO,5.606825,53.274773
Geert Veenhuizenstraat,47,,,9079KM,St.-Jacobiparochie,het Bildt,Friesland,VBO,5.606929,53.274788
Geert Veenhuizenstraat,49,,,9079KM,St.-Jacobiparochie,het Bildt,Friesland,VBO,5.607030,53.274810
Geert Veenhuizenstraat,51,,,9079KM,St.-Jacobiparochie,het Bildt,Friesland,VBO,5.607135,53.274826
Geert Veenhuizenstraat,53,,,9079KM,St.-Jacobiparochie,het Bildt,Friesland,VBO,5.607241,53.274842
Geert Veenhuizenstraat,55,,,9079KM,St.-Jacobiparochie,het Bildt,Friesland,VBO,5.607346,53.274858
Geert Veenhuizenstraat,57,,,9079KM,St.-Jacobiparochie,het Bildt,Friesland,VBO,5.607494,53.274832
Geert Veenhuizenstraat,59,,,9079KM,St.-Jacobiparochie,het Bildt,Friesland,VBO,5.607588,53.274846
Geert Veenhuizenstraat,61,,,9079KM,St.-Jacobiparochie,het Bildt,Friesland,VBO,5.607683,53.274861
Geert Veenhuizenstraat,63,,,9079KM,St.-Jacobiparochie,het Bildt,Friesland,VBO,5.607778,53.274875
Geert Veenhuizenstraat,65,,,9079KM,St.-Jacobiparochie,het Bildt,Friesland,VBO,5.607900,53.274894
Geert Veenhuizenstraat,67,,,9079KM,St.-Jacobiparochie,het Bildt,Friesland,VBO,5.608000,53.274909
Geert Veenhuizenstraat,69,,,9079KM,St.-Jacobiparochie,het Bildt,Friesland,VBO,5.608100,53.274924
Geert Veenhuizenstraat,71,,,9079KM,St.-Jacobiparochie,het Bildt,Friesland,VBO,5.608200,53.274939
Geert Veenhuizenstraat,2,,,9079KN,St.-Jacobiparochie,het Bildt,Friesland,VBO,5.603843,53.274023
Geert Veenhuizenstraat,4,,,9079KN,St.-Jacobiparochie,het Bildt,Friesland,VBO,5.604260,53.274096
Geert Veenhuizenstraat,8,,,9079KN,St.-Jacobiparochie,het Bildt,Friesland,VBO,5.604620,53.274141
Geert Veenhuizenstraat,10,,,9079KP,St.-Jacobiparochie,het Bildt,Friesland,VBO,5.606318,53.274389
Geert Veenhuizenstraat,12,,,9079KP,St.-Jacobiparochie,het Bildt,Friesland,VBO,5.606432,53.274424
Geert Veenhuizenstraat,14,,,9079KP,St.-Jacobiparochie,het Bildt,Friesland,VBO,5.606613,53.274409
Geert Veenhuizenstraat,16,,,9079KP,St.-Jacobiparochie,het Bildt,Friesland,VBO,5.606732,53.274446
Geert Veenhuizenstraat,18,,,9079KP,St.-Jacobiparochie,het Bildt,Friesland,VBO,5.606914,53.274432
Geert Veenhuizenstraat,20,,,9079KP,St.-Jacobiparochie,het Bildt,Friesland,VBO,5.607024,53.274467
Geert Veenhuizenstraat,22,,,9079KP,St.-Jacobiparochie,het Bildt,Friesland,VBO,5.607210,53.274452
Geert Veenhuizenstraat,24,,,9079KP,St.-Jacobiparochie,het Bildt,Friesland,VBO,5.607321,53.274488
Geert Veenhuizenstraat,26,,,9079KP,St.-Jacobiparochie,het Bildt,Friesland,VBO,5.607510,53.274474
Geert Veenhuizenstraat,28,,,9079KP,St.-Jacobiparochie,het Bildt,Friesland,VBO,5.607624,53.274510
Geert Veenhuizenstraat,30,,,9079KP,St.-Jacobiparochie,het Bildt,Friesland,VBO,5.607809,53.274495
Geert Veenhuizenstraat,32,,,9079KP,St.-Jacobiparochie,het Bildt,Friesland,VBO,5.607926,53.274532
Geert Veenhuizenstraat,34,,,9079KP,St.-Jacobiparochie,het Bildt,Friesland,VBO,5.608103,53.274517
Geert Veenhuizenstraat,36,,,9079KP,St.-Jacobiparochie,het Bildt,Friesland,VBO,5.608219,53.274554
Professor J. C. Dorststraat,1,,,9079KR,St.-Jacobiparochie,het Bildt,Friesland,VBO,5.605407,53.273087
Professor J. C. Dorststraat,2,,,9079KR,St.-Jacobiparochie,het Bildt,Friesland,VBO,5.605652,53.273570
Professor J. C. Dorststraat,3,,,9079KR,St.-Jacobiparochie,het Bildt,Friesland,VBO,5.605325,53.273297
Professor J. C. Dorststraat,4,,,9079KR,St.-Jacobiparochie,het Bildt,Friesland,VBO,5.605636,53.273692
Professor J. C. Dorststraat,5,,,9079KR,St.-Jacobiparochie,het Bildt,Friesland,VBO,5.605205,53.273495
Professor J. C. Dorststraat,6,,,9079KR,St.-Jacobiparochie,het Bildt,Friesland,VBO,5.605626,53.273746
Professor J. C. Dorststraat,7,,,9079KR,St.-Jacobiparochie,het Bildt,Friesland,VBO,5.605200,53.273671
Professor J. C. Dorststraat,8,,,9079KR,St.-Jacobiparochie,het Bildt,Friesland,VBO,5.605586,53.273867
Professor J. C. Dorststraat,9,,,9079KR,St.-Jacobiparochie,het Bildt,Friesland,VBO,5.605134,53.273818
Professor J. C. Dorststraat,10,,,9079KR,St.-Jacobiparochie,het Bildt,Friesland,VBO,5.605572,53.273926
Professor J. C. Dorststraat,11,,,9079KR,St.-Jacobiparochie,het Bildt,Friesland,VBO,5.605102,53.274019
Professor J. C. Dorststraat,12,,,9079KR,St.-Jacobiparochie,het Bildt,Friesland,VBO,5.605552,53.274044
Professor J. C. Dorststraat,13,,,9079KR,St.-Jacobiparochie,het Bildt,Friesland,VBO,5.605061,53.274193
Professor J. C. Dorststraat,14,,,9079KR,St.-Jacobiparochie,het Bildt,Friesland,VBO,5.605539,53.274100
Professor J. C. Dorststraat,16,,,9079KR,St.-Jacobiparochie,het Bildt,Friesland,VBO,5.605507,53.274215
Professor J. C. Dorststraat,18,,,9079KR,St.-Jacobiparochie,het Bildt,Friesland,VBO,5.605494,53.274269
Dr. Oortwijn Botjesstraat,1,,,9079KS,St.-Jacobiparochie,het Bildt,Friesland,VBO,5.606171,53.273604
Dr. Oortwijn Botjesstraat,3,,,9079KS,St.-Jacobiparochie,het Bildt,Friesland,VBO,5.606154,53.273673
Dr. Oortwijn Botjesstraat,5,,,9079KS,St.-Jacobiparochie,het Bildt,Friesland,VBO,5.606137,53.273742
Dr. Oortwijn Botjesstraat,7,,,9079KS,St.-Jacobiparochie,het Bildt,Friesland,VBO,5.606120,53.273812
Dr. Oortwijn Botjesstraat,9,,,9079KS,St.-Jacobiparochie,het Bildt,Friesland,VBO,5.606102,53.273888
Dr. Oortwijn Botjesstraat,11,,,9079KS,St.-Jacobiparochie,het Bildt,Friesland,VBO,5.606082,53.273956
Dr. Oortwijn Botjesstraat,13,,,9079KS,St.-Jacobiparochie,het Bildt,Friesland,VBO,5.606063,53.274025
Dr. Oortwijn Botjesstraat,15,,,9079KS,St.-Jacobiparochie,het Bildt,Friesland,VBO,5.606043,53.274093
Dr. Oortwijn Botjesstraat,17,,,9079KS,St.-Jacobiparochie,het Bildt,Friesland,VBO,5.606017,53.274166
Dr. Oortwijn Botjesstraat,19,,,9079KS,St.-Jacobiparochie,het Bildt,Friesland,VBO,5.606005,53.274234
Dr. Oortwijn Botjesstraat,21,,,9079KS,St.-Jacobiparochie,het Bildt,Friesland,VBO,5.605992,53.274302
Dr. Oortwijn Botjesstraat,23,,,9079KS,St.-Jacobiparochie,het Bildt,Friesland,VBO,5.605979,53.274369
Kadal,1,,,9079KT,St.-Jacobiparochie,het Bildt,Friesland,VBO,5.609161,53.273552
Kadal,3,,,9079KT,St.-Jacobiparochie,het Bildt,Friesland,VBO,5.609147,53.273612
Kadal,5,,,9079KT,St.-Jacobiparochie,het Bildt,Friesland,VBO,5.609133,53.273671
Kadal,7,,,9079KT,St.-Jacobiparochie,het Bildt,Friesland,VBO,5.609118,53.273731
Kadal,9,,,9079KT,St.-Jacobiparochie,het Bildt,Friesland,VBO,5.609071,53.273831
Kadal,11,A,,9079KT,St.-Jacobiparochie,het Bildt,Friesland,VBO,5.609040,53.273944
Kadal,11,B,,9079KT,St.-Jacobiparochie,het Bildt,Friesland,VBO,5.609026,53.273996
Kadal,11,,,9079KT,St.-Jacobiparochie,het Bildt,Friesland,VBO,5.609056,53.273885
Kadal,13,,,9079KT,St.-Jacobiparochie,het Bildt,Friesland,VBO,5.608933,53.274108
Kadal,15,,,9079KT,St.-Jacobiparochie,het Bildt,Friesland,VBO,5.608917,53.274165
Kadal,17,,,9079KT,St.-Jacobiparochie,het Bildt,Friesland,VBO,5.608941,53.274299
Kadal,19,,,9079KT,St.-Jacobiparochie,het Bildt,Friesland,VBO,5.608925,53.274366
Kadal,21,,,9079KT,St.-Jacobiparochie,het Bildt,Friesland,VBO,5.608910,53.274433
Kadal,23,,,9079KT,St.-Jacobiparochie,het Bildt,Friesland,VBO,5.608851,53.274553
Kadal,25,,,9079KT,St.-Jacobiparochie,het Bildt,Friesland,VBO,5.608836,53.274610
Kadal,29,,,9079KT,St.-Jacobiparochie,het Bildt,Friesland,VBO,5.608502,53.274944
Kadal,31,,,9079KT,St.-Jacobiparochie,het Bildt,Friesland,VBO,5.608531,53.275271
Kadal,33,,,9079KT,St.-Jacobiparochie,het Bildt,Friesland,VBO,5.608469,53.275437
Kadal,35,,,9079KT,St.-Jacobiparochie,het Bildt,Friesland,VBO,5.608408,53.275604
Kadal,55,,,9079KV,St.-Jacobiparochie,het Bildt,Friesland,VBO,5.608286,53.275929
Kadal,57,,,9079KV,St.-Jacobiparochie,het Bildt,Friesland,VBO,5.608136,53.276296
Kadal,59,,,9079KV,St.-Jacobiparochie,het Bildt,Friesland,VBO,5.605099,53.282997
Kadal,2,,,9079KW,St.-Jacobiparochie,het Bildt,Friesland,VBO,5.609755,53.273400
Kadal,4,,,9079KW,St.-Jacobiparochie,het Bildt,Friesland,VBO,5.609733,53.273834
Kadal,6,,,9079KW,St.-Jacobiparochie,het Bildt,Friesland,VBO,5.609447,53.274340
Kadal,8,,,9079KW,St.-Jacobiparochie,het Bildt,Friesland,VBO,5.609421,53.274399
Kadal,10,,,9079KW,St.-Jacobiparochie,het Bildt,Friesland,VBO,5.609353,53.274541
Kadal,12,,,9079KW,St.-Jacobiparochie,het Bildt,Friesland,VBO,5.609321,53.274634
Kadal,14,,,9079KW,St.-Jacobiparochie,het Bildt,Friesland,VBO,5.609304,53.274761
Kadal,18,,,9079KW,St.-Jacobiparochie,het Bildt,Friesland,VBO,5.609687,53.275030
Kadal,20,,,9079KW,St.-Jacobiparochie,het Bildt,Friesland,VBO,5.609142,53.275071
Kadal,22,,,9079KW,St.-Jacobiparochie,het Bildt,Friesland,VBO,5.609120,53.275158
Kadal,24,,,9079KW,St.-Jacobiparochie,het Bildt,Friesland,VBO,5.609100,53.275258
Kadal,26,,,9079KW,St.-Jacobiparochie,het Bildt,Friesland,VBO,5.609082,53.275371
Kadal,28,,,9079KW,St.-Jacobiparochie,het Bildt,Friesland,VBO,5.608990,53.275495
Kadal,32,,,9079KW,St.-Jacobiparochie,het Bildt,Friesland,VBO,5.610187,53.275812
Kadal,34,,,9079KW,St.-Jacobiparochie,het Bildt,Friesland,VBO,5.609082,53.276323
Broedertrouw,1,A,,9079KX,St.-Jacobiparochie,het Bildt,Friesland,VBO,5.609015,53.271354
Broedertrouw,1,,,9079KX,St.-Jacobiparochie,het Bildt,Friesland,VBO,5.609010,53.271407
Broedertrouw,2,,,9079KX,St.-Jacobiparochie,het Bildt,Friesland,VBO,5.608605,53.271692
Broedertrouw,3,A,,9079KX,St.-Jacobiparochie,het Bildt,Friesland,VBO,5.609037,53.271160
Broedertrouw,3,,,9079KX,St.-Jacobiparochie,het Bildt,Friesland,VBO,5.609027,53.271212
Broedertrouw,4,,,9079KX,St.-Jacobiparochie,het Bildt,Friesland,VBO,5.608618,53.271614
Broedertrouw,5,,,9079KX,St.-Jacobiparochie,het Bildt,Friesland,VBO,5.609034,53.271026
Broedertrouw,6,,,9079KX,St.-Jacobiparochie,het Bildt,Friesland,VBO,5.608631,53.271536
Broedertrouw,7,,,9079KX,St.-Jacobiparochie,het Bildt,Friesland,VBO,5.609042,53.270961
Broedertrouw,8,,,9079KX,St.-Jacobiparochie,het Bildt,Friesland,VBO,5.608645,53.271458
Broedertrouw,9,,,9079KX,St.-Jacobiparochie,het Bildt,Friesland,VBO,5.609126,53.270739
Broedertrouw,10,,,9079KX,St.-Jacobiparochie,het Bildt,Friesland,VBO,5.608621,53.271316
Broedertrouw,11,,,9079KX,St.-Jacobiparochie,het Bildt,Friesland,VBO,5.609416,53.270700
Broedertrouw,12,,,9079KX,St.-Jacobiparochie,het Bildt,Friesland,VBO,5.608659,53.271188
Broedertrouw,13,,,9079KX,St.-Jacobiparochie,het Bildt,Friesland,VBO,5.609643,53.270736
Broedertrouw,14,,,9079KX,St.-Jacobiparochie,het Bildt,Friesland,VBO,5.608696,53.271025
Broedertrouw,15,,,9079KX,St.-Jacobiparochie,het Bildt,Friesland,VBO,5.609685,53.271006
Broedertrouw,16,,,9079KX,St.-Jacobiparochie,het Bildt,Friesland,VBO,5.608726,53.270882
Broedertrouw,17,,,9079KX,St.-Jacobiparochie,het Bildt,Friesland,VBO,5.609693,53.271147
Broedertrouw,18,,,9079KX,St.-Jacobiparochie,het Bildt,Friesland,VBO,5.608684,53.270732
Broedertrouw,19,,,9079KX,St.-Jacobiparochie,het Bildt,Friesland,VBO,5.609690,53.271281
Broedertrouw,20,,,9079KX,St.-Jacobiparochie,het Bildt,Friesland,VBO,5.608677,53.270438
Broedertrouw,21,,,9079KX,St.-Jacobiparochie,het Bildt,Friesland,VBO,5.609688,53.271416
Broedertrouw,22,,,9079KX,St.-Jacobiparochie,het Bildt,Friesland,VBO,5.608952,53.270467
Broedertrouw,23,,,9079KX,St.-Jacobiparochie,het Bildt,Friesland,VBO,5.609748,53.271647
Broedertrouw,24,,,9079KX,St.-Jacobiparochie,het Bildt,Friesland,VBO,5.609239,53.270465
Broedertrouw,25,,,9079KX,St.-Jacobiparochie,het Bildt,Friesland,VBO,5.609832,53.271652
Broedertrouw,26,,,9079KX,St.-Jacobiparochie,het Bildt,Friesland,VBO,5.609545,53.270444
Broedertrouw,27,,,9079KX,St.-Jacobiparochie,het Bildt,Friesland,VBO,5.610090,53.271655
Broedertrouw,28,,,9079KX,St.-Jacobiparochie,het Bildt,Friesland,VBO,5.610010,53.271420
Broedertrouw,29,,,9079KX,St.-Jacobiparochie,het Bildt,Friesland,VBO,5.610208,53.271661
Broedertrouw,30,,,9079KX,St.-Jacobiparochie,het Bildt,Friesland,VBO,5.610232,53.271433
Broedertrouw,31,,,9079KX,St.-Jacobiparochie,het Bildt,Friesland,VBO,5.610492,53.271693
Broedertrouw,32,,,9079KX,St.-Jacobiparochie,het Bildt,Friesland,VBO,5.610456,53.271448
Broedertrouw,34,,,9079KX,St.-Jacobiparochie,het Bildt,Friesland,VBO,5.610703,53.271459
Oosteinde,1,,,9079KZ,St.-Jacobiparochie,het Bildt,Friesland,VBO,5.603383,53.272912
Oosteinde,3,,,9079KZ,St.-Jacobiparochie,het Bildt,Friesland,VBO,5.603834,53.272800
Oosteinde,5,,,9079KZ,St.-Jacobiparochie,het Bildt,Friesland,VBO,5.604024,53.272810
Oosteinde,7,,,9079KZ,St.-Jacobiparochie,het Bildt,Friesland,VBO,5.604122,53.272807
Oosteinde,9,,,9079KZ,St.-Jacobiparochie,het Bildt,Friesland,VBO,5.604216,53.272814
Oosteinde,11,,,9079KZ,St.-Jacobiparochie,het Bildt,Friesland,VBO,5.604350,53.272818
Oosteinde,13,,,9079KZ,St.-Jacobiparochie,het Bildt,Friesland,VBO,5.604433,53.272817
Oosteinde,15,,,9079KZ,St.-Jacobiparochie,het Bildt,Friesland,VBO,5.604515,53.272821
Oosteinde,17,,,9079KZ,St.-Jacobiparochie,het Bildt,Friesland,VBO,5.604621,53.272847
Oosteinde,19,,,9079KZ,St.-Jacobiparochie,het Bildt,Friesland,VBO,5.604727,53.272837
Oosteinde,21,,,9079KZ,St.-Jacobiparochie,het Bildt,Friesland,VBO,5.604842,53.272847
Oosteinde,23,,,9079KZ,St.-Jacobiparochie,het Bildt,Friesland,VBO,5.604941,53.272865
Oosteinde,25,,,9079KZ,St.-Jacobiparochie,het Bildt,Friesland,VBO,5.605025,53.272870
Oosteinde,27,,,9079KZ,St.-Jacobiparochie,het Bildt,Friesland,VBO,5.605160,53.272865
Oosteinde,29,,,9079KZ,St.-Jacobiparochie,het Bildt,Friesland,VBO,5.605277,53.272879
Oosteinde,31,,,9079KZ,St.-Jacobiparochie,het Bildt,Friesland,VBO,5.605387,53.272921
Oosteinde,33,,,9079LA,St.-Jacobiparochie,het Bildt,Friesland,VBO,5.605802,53.273001
Oosteinde,37,,,9079LA,St.-Jacobiparochie,het Bildt,Friesland,VBO,5.606111,53.273036
Oosteinde,39,,,9079LA,St.-Jacobiparochie,het Bildt,Friesland,VBO,5.606321,53.273054
Oosteinde,41,,,9079LA,St.-Jacobiparochie,het Bildt,Friesland,VBO,5.606617,53.273075
Oosteinde,43,,,9079LA,St.-Jacobiparochie,het Bildt,Friesland,VBO,5.606897,53.273110
Oosteinde,45,,,9079LA,St.-Jacobiparochie,het Bildt,Friesland,VBO,5.607068,53.273083
Oosteinde,47,,,9079LA,St.-Jacobiparochie,het Bildt,Friesland,VBO,5.607333,53.273102
Oosteinde,49,,,9079LA,St.-Jacobiparochie,het Bildt,Friesland,VBO,5.607954,53.273160
Oosteinde,51,A,,9079LA,St.-Jacobiparochie,het Bildt,Friesland,VBO,5.608595,53.273225
Oosteinde,51,,,9079LA,St.-Jacobiparochie,het Bildt,Friesland,VBO,5.608379,53.273206
Oosteinde,53,,,9079LA,St.-Jacobiparochie,het Bildt,Friesland,VBO,5.608910,53.273219
Oosteinde,55,,,9079LA,St.-Jacobiparochie,het Bildt,Friesland,VBO,5.609089,53.273231
Oosteinde,57,,,9079LA,St.-Jacobiparochie,het Bildt,Friesland,VBO,5.609277,53.273263
Oosteinde,59,,,9079LB,St.-Jacobiparochie,het Bildt,Friesland,VBO,5.610391,53.273385
Oosteinde,61,,,9079LB,St.-Jacobiparochie,het Bildt,Friesland,VBO,5.610794,53.273323
Oosteinde,63,,,9079LB,St.-Jacobiparochie,het Bildt,Friesland,VBO,5.610939,53.273364
Oosteinde,65,,,9079LB,St.-Jacobiparochie,het Bildt,Friesland,VBO,5.611162,53.273353
Oosteinde,67,,,9079LB,St.-Jacobiparochie,het Bildt,Friesland,VBO,5.611358,53.273372
Oosteinde,69,,,9079LB,St.-Jacobiparochie,het Bildt,Friesland,VBO,5.611576,53.273383
Oosteinde,71,,,9079LB,St.-Jacobiparochie,het Bildt,Friesland,VBO,5.611734,53.273409
Oosteinde,73,,,9079LB,St.-Jacobiparochie,het Bildt,Friesland,VBO,5.611903,53.273395
Oosteinde,75,,,9079LB,St.-Jacobiparochie,het Bildt,Friesland,VBO,5.612198,53.273440
Oosteinde,77,A,,9079LB,St.-Jacobiparochie,het Bildt,Friesland,VBO,5.611205,53.274862
Oosteinde,81,,,9079LB,St.-Jacobiparochie,het Bildt,Friesland,VBO,5.612944,53.273584
Oosteinde,83,,,9079LB,St.-Jacobiparochie,het Bildt,Friesland,VBO,5.613267,53.273635
Oosteinde,10,,,9079LC,St.-Jacobiparochie,het Bildt,Friesland,VBO,5.604101,53.272568
Oosteinde,12,,,9079LC,St.-Jacobiparochie,het Bildt,Friesland,VBO,5.604270,53.272561
Oosteinde,14,,,9079LC,St.-Jacobiparochie,het Bildt,Friesland,VBO,5.604359,53.272579
Oosteinde,16,,,9079LC,St.-Jacobiparochie,het Bildt,Friesland,VBO,5.604450,53.272584
Oosteinde,18,,,9079LC,St.-Jacobiparochie,het Bildt,Friesland,VBO,5.604556,53.272612
Oosteinde,20,,,9079LC,St.-Jacobiparochie,het Bildt,Friesland,VBO,5.604645,53.272574
Oosteinde,26,,,9079LC,St.-Jacobiparochie,het Bildt,Friesland,VBO,5.604747,53.272632
Oosteinde,30,,,9079LC,St.-Jacobiparochie,het Bildt,Friesland,VBO,5.605562,53.272596
Oosteinde,34,,,9079LC,St.-Jacobiparochie,het Bildt,Friesland,VBO,5.605944,53.272595
Oosteinde,36,,,9079LC,St.-Jacobiparochie,het Bildt,Friesland,VBO,5.606127,53.272607
Oosteinde,38,,,9079LC,St.-Jacobiparochie,het Bildt,Friesland,VBO,5.606482,53.272637
Oosteinde,40,A,,9079LD,St.-Jacobiparochie,het Bildt,Friesland,VBO,5.606926,53.272343
Oosteinde,40,,,9079LD,St.-Jacobiparochie,het Bildt,Friesland,VBO,5.606843,53.272678
Oosteinde,46,,,9079LD,St.-Jacobiparochie,het Bildt,Friesland,VBO,5.607245,53.272686
Oosteinde,48,,,9079LD,St.-Jacobiparochie,het Bildt,Friesland,VBO,5.607433,53.272700
Oosteinde,50,,,9079LD,St.-Jacobiparochie,het Bildt,Friesland,VBO,5.608289,53.272804
Oosteinde,52,,,9079LD,St.-Jacobiparochie,het Bildt,Friesland,VBO,5.608391,53.272809
Oosteinde,54,A,,9079LD,St.-Jacobiparochie,het Bildt,Friesland,VBO,5.608645,53.272827
Oosteinde,54,,,9079LD,St.-Jacobiparochie,het Bildt,Friesland,VBO,5.608563,53.272822
Oosteinde,56,,,9079LE,St.-Jacobiparochie,het Bildt,Friesland,VBO,5.608933,53.272861
Oosteinde,58,,,9079LE,St.-Jacobiparochie,het Bildt,Friesland,VBO,5.609315,53.272863
Oosteinde,60,,,9079LE,St.-Jacobiparochie,het Bildt,Friesland,VBO,5.609541,53.272909
Oosteinde,62,,,9079LE,St.-Jacobiparochie,het Bildt,Friesland,VBO,5.609751,53.272938
Oosteinde,64,,,9079LE,St.-Jacobiparochie,het Bildt,Friesland,VBO,5.609984,53.272914
Oosteinde,66,,,9079LE,St.-Jacobiparochie,het Bildt,Friesland,VBO,5.610219,53.272942
Oosteinde,68,,,9079LE,St.-Jacobiparochie,het Bildt,Friesland,VBO,5.610371,53.272958
Oosteinde,70,,,9079LE,St.-Jacobiparochie,het Bildt,Friesland,VBO,5.610561,53.272960
Oosteinde,72,,,9079LE,St.-Jacobiparochie,het Bildt,Friesland,VBO,5.610832,53.272966
Oosteinde,74,,,9079LE,St.-Jacobiparochie,het Bildt,Friesland,VBO,5.611102,53.272996
Oosteinde,76,,,9079LE,St.-Jacobiparochie,het Bildt,Friesland,VBO,5.611293,53.273010
Oosteinde,78,,,9079LE,St.-Jacobiparochie,het Bildt,Friesland,VBO,5.611486,53.273023
Oosteinde,80,,,9079LE,St.-Jacobiparochie,het Bildt,Friesland,VBO,5.611667,53.273033
Oosteinde,82,,,9079LG,St.-Jacobiparochie,het Bildt,Friesland,VBO,5.611879,53.273037
Oosteinde,84,,,9079LG,St.-Jacobiparochie,het Bildt,Friesland,VBO,5.612111,53.273056
Oosteinde,92,,,9079LG,St.-Jacobiparochie,het Bildt,Friesland,VBO,5.612734,53.273154
Oosteinde,94,,,9079LG,St.-Jacobiparochie,het Bildt,Friesland,VBO,5.612812,53.273160
Oosteinde,96,,,9079LG,St.-Jacobiparochie,het Bildt,Friesland,VBO,5.612966,53.273170
Oosteinde,98,,,9079LG,St.-Jacobiparochie,het Bildt,Friesland,VBO,5.613046,53.273175
Oosteinde,100,,,9079LG,St.-Jacobiparochie,het Bildt,Friesland,VBO,5.613239,53.273150
Oosteinde,102,,,9079LG,St.-Jacobiparochie,het Bildt,Friesland,VBO,5.613342,53.273151
Oosteinde,104,,,9079LG,St.-Jacobiparochie,het Bildt,Friesland,VBO,5.613426,53.273164
Oosteinde,106,,,9079LG,St.-Jacobiparochie,het Bildt,Friesland,VBO,5.613888,53.273095
Westeinde,1,A,,9079LH,St.-Jacobiparochie,het Bildt,Friesland,VBO,5.603334,53.272460
Westeinde,1,,,9079LH,St.-Jacobiparochie,het Bildt,Friesland,VBO,5.603228,53.272481
Westeinde,3,,,9079LH,St.-Jacobiparochie,het Bildt,Friesland,VBO,5.603113,53.272478
Westeinde,5,,,9079LH,St.-Jacobiparochie,het Bildt,Friesland,VBO,5.602969,53.272462
Westeinde,7,,,9079LH,St.-Jacobiparochie,het Bildt,Friesland,VBO,5.602845,53.272464
Westeinde,9,,,9079LH,St.-Jacobiparochie,het Bildt,Friesland,VBO,5.602738,53.272455
Westeinde,11,,,9079LH,St.-Jacobiparochie,het Bildt,Friesland,VBO,5.602642,53.272462
Westeinde,15,,,9079LH,St.-Jacobiparochie,het Bildt,Friesland,VBO,5.602439,53.272468
Westeinde,17,,,9079LH,St.-Jacobiparochie,het Bildt,Friesland,VBO,5.602259,53.272431
Westeinde,21,,,9079LH,St.-Jacobiparochie,het Bildt,Friesland,VBO,5.602101,53.272420
Westeinde,23,,,9079LH,St.-Jacobiparochie,het Bildt,Friesland,VBO,5.601949,53.272410
Westeinde,27,,,9079LH,St.-Jacobiparochie,het Bildt,Friesland,VBO,5.601666,53.272386
Westeinde,29,,,9079LH,St.-Jacobiparochie,het Bildt,Friesland,VBO,5.601558,53.272398
Westeinde,31,,,9079LH,St.-Jacobiparochie,het Bildt,Friesland,VBO,5.601418,53.272386
Westeinde,33,,,9079LH,St.-Jacobiparochie,het Bildt,Friesland,VBO,5.601278,53.272380
Westeinde,35,,,9079LH,St.-Jacobiparochie,het Bildt,Friesland,VBO,5.601030,53.272325
Westeinde,39,,,9079LH,St.-Jacobiparochie,het Bildt,Friesland,VBO,5.600893,53.271159
Westeinde,41,,,9079LH,St.-Jacobiparochie,het Bildt,Friesland,VBO,5.600323,53.272184
Westeinde,43,,,9079LH,St.-Jacobiparochie,het Bildt,Friesland,VBO,5.599930,53.272116
Westeinde,2,,,9079LJ,St.-Jacobiparochie,het Bildt,Friesland,VBO,5.602531,53.272656
Westeinde,4,,,9079LJ,St.-Jacobiparochie,het Bildt,Friesland,VBO,5.602380,53.272657
Westeinde,6,,,9079LJ,St.-Jacobiparochie,het Bildt,Friesland,VBO,5.602239,53.272669
Westeinde,8,,,9079LJ,St.-Jacobiparochie,het Bildt,Friesland,VBO,5.602080,53.272636
Westeinde,10,,,9079LJ,St.-Jacobiparochie,het Bildt,Friesland,VBO,5.601913,53.272702
Westeinde,12,,,9079LJ,St.-Jacobiparochie,het Bildt,Friesland,VBO,5.601684,53.272600
Westeinde,14,,,9079LJ,St.-Jacobiparochie,het Bildt,Friesland,VBO,5.601564,53.272616
Westeinde,18,,,9079LJ,St.-Jacobiparochie,het Bildt,Friesland,VBO,5.601374,53.272583
Westeinde,20,,,9079LJ,St.-Jacobiparochie,het Bildt,Friesland,VBO,5.601267,53.272574
Westeinde,26,,,9079LJ,St.-Jacobiparochie,het Bildt,Friesland,VBO,5.600892,53.272549
Westeinde,36,,,9079LJ,St.-Jacobiparochie,het Bildt,Friesland,VBO,5.600754,53.272518
Westeinde,38,,,9079LJ,St.-Jacobiparochie,het Bildt,Friesland,VBO,5.600660,53.272504
Westeinde,40,,,9079LJ,St.-Jacobiparochie,het Bildt,Friesland,VBO,5.600493,53.272615
Noordeinde,1,A,,9079LK,St.-Jacobiparochie,het Bildt,Friesland,VBO,5.602547,53.272764
Noordeinde,1,B,,9079LK,St.-Jacobiparochie,het Bildt,Friesland,VBO,5.602561,53.272854
Noordeinde,1,C,,9079LK,St.-Jacobiparochie,het Bildt,Friesland,VBO,5.602571,53.272938
Noordeinde,1,D,,9079LK,St.-Jacobiparochie,het Bildt,Friesland,VBO,5.602542,53.272682
Noordeinde,1,E,,9079LK,St.-Jacobiparochie,het Bildt,Friesland,VBO,5.602518,53.272785
Noordeinde,1,F,,9079LK,St.-Jacobiparochie,het Bildt,Friesland,VBO,5.602501,53.272853
Noordeinde,1,G,,9079LK,St.-Jacobiparochie,het Bildt,Friesland,VBO,5.602468,53.272936
Noordeinde,1,H,,9079LK,St.-Jacobiparochie,het Bildt,Friesland,VBO,5.602500,53.272694
Noordeinde,1,I,,9079LK,St.-Jacobiparochie,het Bildt,Friesland,VBO,5.602491,53.272807
Noordeinde,1,J,,9079LK,St.-Jacobiparochie,het Bildt,Friesland,VBO,5.602480,53.272874
Noordeinde,2,,,9079LK,St.-Jacobiparochie,het Bildt,Friesland,VBO,5.602944,53.273539
Noordeinde,4,,,9079LK,St.-Jacobiparochie,het Bildt,Friesland,VBO,5.603058,53.273792
Noordeinde,6,,,9079LK,St.-Jacobiparochie,het Bildt,Friesland,VBO,5.603241,53.273884
Noordeinde,11,,,9079LK,St.-Jacobiparochie,het Bildt,Friesland,VBO,5.602511,53.273167
Noordeinde,19,,,9079LK,St.-Jacobiparochie,het Bildt,Friesland,VBO,5.602581,53.273385
Noordeinde,23,,,9079LK,St.-Jacobiparochie,het Bildt,Friesland,VBO,5.602602,53.273476
Noordeinde,25,,,9079LK,St.-Jacobiparochie,het Bildt,Friesland,VBO,5.602571,53.273525
Noordeinde,27,,,9079LK,St.-Jacobiparochie,het Bildt,Friesland,VBO,5.602593,53.273621
Noordeinde,29,,,9079LK,St.-Jacobiparochie,het Bildt,Friesland,VBO,5.602699,53.273716
Noordeinde,35,,,9079LK,St.-Jacobiparochie,het Bildt,Friesland,VBO,5.602861,53.274122
Noordeinde,37,,,9079LK,St.-Jacobiparochie,het Bildt,Friesland,VBO,5.602946,53.274132
Zuideinde,1,,,9079LL,St.-Jacobiparochie,het Bildt,Friesland,VBO,5.603867,53.272083
Zuideinde,3,,,9079LL,St.-Jacobiparochie,het Bildt,Friesland,VBO,5.603884,53.271937
Zuideinde,5,,,9079LL,St.-Jacobiparochie,het Bildt,Friesland,VBO,5.603893,53.271888
Zuideinde,7,,,9079LL,St.-Jacobiparochie,het Bildt,Friesland,VBO,5.603917,53.271766
Zuideinde,9,,,9079LL,St.-Jacobiparochie,het Bildt,Friesland,VBO,5.603926,53.271716
Zuideinde,11,,,9079LL,St.-Jacobiparochie,het Bildt,Friesland,VBO,5.604076,53.271454
Zuideinde,13,,,9079LL,St.-Jacobiparochie,het Bildt,Friesland,VBO,5.604112,53.271337
Zuideinde,15,,,9079LL,St.-Jacobiparochie,het Bildt,Friesland,VBO,5.604122,53.271292
Zuideinde,17,,,9079LL,St.-Jacobiparochie,het Bildt,Friesland,VBO,5.604173,53.271182
Zuideinde,19,,,9079LM,St.-Jacobiparochie,het Bildt,Friesland,VBO,5.604230,53.270790
Zuideinde,21,,,9079LM,St.-Jacobiparochie,het Bildt,Friesland,VBO,5.604239,53.270742
Zuideinde,23,,,9079LM,St.-Jacobiparochie,het Bildt,Friesland,VBO,5.604257,53.270643
Zuideinde,25,,,9079LM,St.-Jacobiparochie,het Bildt,Friesland,VBO,5.604266,53.270594
Zuideinde,2,,,9079LN,St.-Jacobiparochie,het Bildt,Friesland,VBO,5.603325,53.272332
Zuideinde,4,,,9079LN,St.-Jacobiparochie,het Bildt,Friesland,VBO,5.603295,53.272251
Zuideinde,6,,,9079LN,St.-Jacobiparochie,het Bildt,Friesland,VBO,5.603374,53.272136
Zuideinde,8,,,9079LN,St.-Jacobiparochie,het Bildt,Friesland,VBO,5.603404,53.272066
Zuideinde,10,,,9079LN,St.-Jacobiparochie,het Bildt,Friesland,VBO,5.603398,53.271991
Zuideinde,14,,,9079LN,St.-Jacobiparochie,het Bildt,Friesland,VBO,5.603412,53.271854
Zuideinde,24,,,9079LN,St.-Jacobiparochie,het Bildt,Friesland,VBO,5.603386,53.271702
Zuideinde,26,,,9079LN,St.-Jacobiparochie,het Bildt,Friesland,VBO,5.603444,53.271638
Zuideinde,28,,,9079LN,St.-Jacobiparochie,het Bildt,Friesland,VBO,5.603485,53.271578
Zuideinde,30,,,9079LN,St.-Jacobiparochie,het Bildt,Friesland,VBO,5.603472,53.271515
Zuideinde,32,,,9079LN,St.-Jacobiparochie,het Bildt,Friesland,VBO,5.603450,53.271445
Zuideinde,34,,,9079LN,St.-Jacobiparochie,het Bildt,Friesland,VBO,5.603508,53.271372
Zuideinde,38,,,9079LP,St.-Jacobiparochie,het Bildt,Friesland,VBO,5.603552,53.271230
Zuideinde,40,,,9079LP,St.-Jacobiparochie,het Bildt,Friesland,VBO,5.603563,53.271149
Zuideinde,42,,,9079LP,St.-Jacobiparochie,het Bildt,Friesland,VBO,5.603582,53.271086
Zuideinde,44,,,9079LP,St.-Jacobiparochie,het Bildt,Friesland,VBO,5.603578,53.270973
Zuideinde,46,A,,9079LP,St.-Jacobiparochie,het Bildt,Friesland,VBO,5.603445,53.270759
Zuideinde,46,,,9079LP,St.-Jacobiparochie,het Bildt,Friesland,VBO,5.603595,53.270915
Zuideinde,48,,,9079LP,St.-Jacobiparochie,het Bildt,Friesland,VBO,5.603455,53.270508
Zuideinde,64,,,9079LP,St.-Jacobiparochie,het Bildt,Friesland,VBO,5.603734,53.270133
Zuideinde,68,,,9079LP,St.-Jacobiparochie,het Bildt,Friesland,VBO,5.603774,53.269856
Zuideinde,70,,,9079LP,St.-Jacobiparochie,het Bildt,Friesland,VBO,5.603693,53.269712
Zuideinde,78,,,9079LP,St.-Jacobiparochie,het Bildt,Friesland,VBO,5.603880,53.269437
Zuiderweg,2,,,9079LP,St.-Jacobiparochie,het Bildt,Friesland,VBO,5.605084,53.261499
Zuiderweg,5,,,9079LP,St.-Jacobiparochie,het Bildt,Friesland,VBO,5.604021,53.268479
Zuiderweg,7,,,9079LP,St.-Jacobiparochie,het Bildt,Friesland,VBO,5.603006,53.268902
Claes Barthoutstraat,1,,,9079LR,St.-Jacobiparochie,het Bildt,Friesland,VBO,5.604348,53.271725
Claes Barthoutstraat,2,,,9079LR,St.-Jacobiparochie,het Bildt,Friesland,VBO,5.604077,53.271510
Claes Barthoutstraat,3,,,9079LR,St.-Jacobiparochie,het Bildt,Friesland,VBO,5.604450,53.271732
Claes Barthoutstraat,4,,,9079LR,St.-Jacobiparochie,het Bildt,Friesland,VBO,5.604410,53.271534
Claes Barthoutstraat,5,,,9079LR,St.-Jacobiparochie,het Bildt,Friesland,VBO,5.604551,53.271739
Claes Barthoutstraat,6,,,9079LR,St.-Jacobiparochie,het Bildt,Friesland,VBO,5.604521,53.271541
Claes Barthoutstraat,7,,,9079LR,St.-Jacobiparochie,het Bildt,Friesland,VBO,5.604653,53.271746
Claes Barthoutstraat,8,,,9079LR,St.-Jacobiparochie,het Bildt,Friesland,VBO,5.604631,53.271548
Claes Barthoutstraat,10,,,9079LR,St.-Jacobiparochie,het Bildt,Friesland,VBO,5.604742,53.271554
Steven Willemsstraat,1,,,9079LS,St.-Jacobiparochie,het Bildt,Friesland,VBO,5.604246,53.271116
Steven Willemsstraat,3,,,9079LS,St.-Jacobiparochie,het Bildt,Friesland,VBO,5.604501,53.271131
Steven Willemsstraat,4,,,9079LS,St.-Jacobiparochie,het Bildt,Friesland,VBO,5.604543,53.270927
Steven Willemsstraat,5,,,9079LS,St.-Jacobiparochie,het Bildt,Friesland,VBO,5.604609,53.271138
Steven Willemsstraat,6,,,9079LS,St.-Jacobiparochie,het Bildt,Friesland,VBO,5.604646,53.270932
Steven Willemsstraat,7,,,9079LS,St.-Jacobiparochie,het Bildt,Friesland,VBO,5.604717,53.271145
Steven Willemsstraat,8,,,9079LS,St.-Jacobiparochie,het Bildt,Friesland,VBO,5.604750,53.270937
Steven Willemsstraat,9,,,9079LS,St.-Jacobiparochie,het Bildt,Friesland,VBO,5.604825,53.271152
Steven Willemsstraat,10,,,9079LS,St.-Jacobiparochie,het Bildt,Friesland,VBO,5.604854,53.270943
Jan Petersstraat,1,,,9079LT,St.-Jacobiparochie,het Bildt,Friesland,VBO,5.604319,53.270443
Jan Petersstraat,2,,,9079LT,St.-Jacobiparochie,het Bildt,Friesland,VBO,5.604211,53.270226
Jan Petersstraat,3,,,9079LT,St.-Jacobiparochie,het Bildt,Friesland,VBO,5.604481,53.270429
Jan Petersstraat,4,,,9079LT,St.-Jacobiparochie,het Bildt,Friesland,VBO,5.604294,53.270216
Jan Petersstraat,5,,,9079LT,St.-Jacobiparochie,het Bildt,Friesland,VBO,5.604650,53.270336
Jan Petersstraat,6,,,9079LT,St.-Jacobiparochie,het Bildt,Friesland,VBO,5.604440,53.270159
Jan Petersstraat,8,,,9079LT,St.-Jacobiparochie,het Bildt,Friesland,VBO,5.604495,53.270119
Gijsbert van Swietenstraat,1,,,9079LV,St.-Jacobiparochie,het Bildt,Friesland,VBO,5.608288,53.272568
Gijsbert van Swietenstraat,3,A,,9079LV,St.-Jacobiparochie,het Bildt,Friesland,VBO,5.608301,53.272466
Gijsbert van Swietenstraat,3,B,,9079LV,St.-Jacobiparochie,het Bildt,Friesland,VBO,5.608308,53.272410
Gijsbert van Swietenstraat,3,C,,9079LV,St.-Jacobiparochie,het Bildt,Friesland,VBO,5.608690,53.272393
Gijsbert van Swietenstraat,3,,,9079LV,St.-Jacobiparochie,het Bildt,Friesland,VBO,5.608295,53.272515
Gijsbert van Swietenstraat,5,,,9079LV,St.-Jacobiparochie,het Bildt,Friesland,VBO,5.608062,53.271338
Gijsbert van Swietenstraat,7,,,9079LV,St.-Jacobiparochie,het Bildt,Friesland,VBO,5.607934,53.271265
Gijsbert van Swietenstraat,9,,,9079LV,St.-Jacobiparochie,het Bildt,Friesland,VBO,5.607803,53.271196
Gijsbert van Swietenstraat,11,,,9079LV,St.-Jacobiparochie,het Bildt,Friesland,VBO,5.607598,53.271116
Gijsbert van Swietenstraat,15,,,9079LV,St.-Jacobiparochie,het Bildt,Friesland,VBO,5.607290,53.270965
Gijsbert van Swietenstraat,17,,,9079LV,St.-Jacobiparochie,het Bildt,Friesland,VBO,5.607070,53.270854
Gijsbert van Swietenstraat,19,,,9079LV,St.-Jacobiparochie,het Bildt,Friesland,VBO,5.606999,53.270818
Gijsbert van Swietenstraat,21,,,9079LV,St.-Jacobiparochie,het Bildt,Friesland,VBO,5.606804,53.270699
Gijsbert van Swietenstraat,23,,,9079LV,St.-Jacobiparochie,het Bildt,Friesland,VBO,5.606521,53.270204
Gijsbert van Swietenstraat,25,,,9079LV,St.-Jacobiparochie,het Bildt,Friesland,VBO,5.605759,53.270151
Gijsbert van Swietenstraat,27,,,9079LV,St.-Jacobiparochie,het Bildt,Friesland,VBO,5.605823,53.269871
Gijsbert van Swietenstraat,29,,,9079LV,St.-Jacobiparochie,het Bildt,Friesland,VBO,5.605345,53.269779
Gijsbert van Swietenstraat,31,,,9079LV,St.-Jacobiparochie,het Bildt,Friesland,VBO,5.604995,53.269750
Gijsbert van Swietenstraat,33,,,9079LV,St.-Jacobiparochie,het Bildt,Friesland,VBO,5.604631,53.269722
Gijsbert van Swietenstraat,2,,,9079LW,St.-Jacobiparochie,het Bildt,Friesland,VBO,5.607707,53.272661
Gijsbert van Swietenstraat,4,,,9079LW,St.-Jacobiparochie,het Bildt,Friesland,VBO,5.607820,53.272403
Gijsbert van Swietenstraat,6,,,9079LW,St.-Jacobiparochie,het Bildt,Friesland,VBO,5.607885,53.271970
Gijsbert van Swietenstraat,12,,,9079LW,St.-Jacobiparochie,het Bildt,Friesland,VBO,5.607691,53.271680
Gijsbert van Swietenstraat,14,,,9079LW,St.-Jacobiparochie,het Bildt,Friesland,VBO,5.606880,53.271594
Gijsbert van Swietenstraat,16,,,9079LW,St.-Jacobiparochie,het Bildt,Friesland,VBO,5.607289,53.271459
Gijsbert van Swietenstraat,18,,,9079LW,St.-Jacobiparochie,het Bildt,Friesland,VBO,5.607160,53.271366
Gijsbert van Swietenstraat,20,,,9079LW,St.-Jacobiparochie,het Bildt,Friesland,VBO,5.607026,53.271302
Gijsbert van Swietenstraat,22,,,9079LW,St.-Jacobiparochie,het Bildt,Friesland,VBO,5.606942,53.271261
Gijsbert van Swietenstraat,24,,,9079LW,St.-Jacobiparochie,het Bildt,Friesland,VBO,5.606812,53.271195
Gijsbert van Swietenstraat,26,,,9079LW,St.-Jacobiparochie,het Bildt,Friesland,VBO,5.606667,53.271127
Gijsbert van Swietenstraat,28,,,9079LW,St.-Jacobiparochie,het Bildt,Friesland,VBO,5.606505,53.271052
Gijsbert van Swietenstraat,30,,,9079LW,St.-Jacobiparochie,het Bildt,Friesland,VBO,5.606329,53.270985
Gijsbert van Swietenstraat,36,,,9079LX,St.-Jacobiparochie,het Bildt,Friesland,VBO,5.605442,53.270512
Gijsbert van Swietenstraat,38,,,9079LX,St.-Jacobiparochie,het Bildt,Friesland,VBO,5.605284,53.270442
Gijsbert van Swietenstraat,40,,,9079LX,St.-Jacobiparochie,het Bildt,Friesland,VBO,5.605139,53.270364
Gijsbert van Swietenstraat,42,,,9079LX,St.-Jacobiparochie,het Bildt,Friesland,VBO,5.604981,53.270291
Gijsbert van Swietenstraat,44,,,9079LX,St.-Jacobiparochie,het Bildt,Friesland,VBO,5.604841,53.270220
Gijsbert van Swietenstraat,46,,,9079LX,St.-Jacobiparochie,het Bildt,Friesland,VBO,5.604357,53.269954
Neeltie Jansstraat,1,,,9079LZ,St.-Jacobiparochie,het Bildt,Friesland,VBO,5.607654,53.271920
Neeltie Jansstraat,3,,,9079LZ,St.-Jacobiparochie,het Bildt,Friesland,VBO,5.607539,53.271914
Neeltie Jansstraat,7,,,9079LZ,St.-Jacobiparochie,het Bildt,Friesland,VBO,5.607353,53.271889
Neeltie Jansstraat,9,,,9079LZ,St.-Jacobiparochie,het Bildt,Friesland,VBO,5.607214,53.271905
Neeltie Jansstraat,13,,,9079LZ,St.-Jacobiparochie,het Bildt,Friesland,VBO,5.607026,53.271897
Neeltie Jansstraat,15,,,9079LZ,St.-Jacobiparochie,het Bildt,Friesland,VBO,5.606920,53.271882
Neeltie Jansstraat,17,,,9079LZ,St.-Jacobiparochie,het Bildt,Friesland,VBO,5.606642,53.271889
Neeltie Jansstraat,19,,,9079LZ,St.-Jacobiparochie,het Bildt,Friesland,VBO,5.606644,53.271817
Neeltie Jansstraat,21,,,9079LZ,St.-Jacobiparochie,het Bildt,Friesland,VBO,5.606646,53.271746
Neeltie Jansstraat,23,,,9079LZ,St.-Jacobiparochie,het Bildt,Friesland,VBO,5.606649,53.271674
Neeltie Jansstraat,2,,,9079MA,St.-Jacobiparochie,het Bildt,Friesland,VBO,5.607518,53.272273
Neeltie Jansstraat,4,,,9079MA,St.-Jacobiparochie,het Bildt,Friesland,VBO,5.607408,53.272272
Neeltie Jansstraat,6,,,9079MA,St.-Jacobiparochie,het Bildt,Friesland,VBO,5.607298,53.272270
Neeltie Jansstraat,8,,,9079MA,St.-Jacobiparochie,het Bildt,Friesland,VBO,5.607122,53.272127
Neeltie Jansstraat,10,,,9079MA,St.-Jacobiparochie,het Bildt,Friesland,VBO,5.607017,53.272123
Neeltie Jansstraat,12,,,9079MA,St.-Jacobiparochie,het Bildt,Friesland,VBO,5.606913,53.272120
Neeltie Jansstraat,14,,,9079MA,St.-Jacobiparochie,het Bildt,Friesland,VBO,5.606809,53.272117
Neeltie Jansstraat,16,,,9079MA,St.-Jacobiparochie,het Bildt,Friesland,VBO,5.606654,53.272112
Neeltie Jansstraat,18,,,9079MA,St.-Jacobiparochie,het Bildt,Friesland,VBO,5.606547,53.272110
Neeltie Jansstraat,20,A,,9079MA,St.-Jacobiparochie,het Bildt,Friesland,VBO,5.606333,53.272106
Neeltie Jansstraat,20,B,,9079MA,St.-Jacobiparochie,het Bildt,Friesland,VBO,5.606132,53.272321
Neeltie Jansstraat,20,C,,9079MA,St.-Jacobiparochie,het Bildt,Friesland,VBO,5.606035,53.272315
Neeltie Jansstraat,20,,,9079MA,St.-Jacobiparochie,het Bildt,Friesland,VBO,5.606440,53.272108
Neeltie Jansstraat,22,,,9079MB,St.-Jacobiparochie,het Bildt,Friesland,VBO,5.606020,53.272154
Neeltie Jansstraat,24,,,9079MB,St.-Jacobiparochie,het Bildt,Friesland,VBO,5.606026,53.272093
Neeltie Jansstraat,26,,,9079MB,St.-Jacobiparochie,het Bildt,Friesland,VBO,5.606032,53.272032
Neeltie Jansstraat,28,,,9079MB,St.-Jacobiparochie,het Bildt,Friesland,VBO,5.606037,53.271971
Neeltie Jansstraat,30,,,9079MB,St.-Jacobiparochie,het Bildt,Friesland,VBO,5.606043,53.271910
Neeltie Jansstraat,32,,,9079MB,St.-Jacobiparochie,het Bildt,Friesland,VBO,5.606048,53.271850
Hofstraat,1,,,9079MC,St.-Jacobiparochie,het Bildt,Friesland,VBO,5.605447,53.272136
Hofstraat,3,,,9079MC,St.-Jacobiparochie,het Bildt,Friesland,VBO,5.605442,53.272009
Hofstraat,5,,,9079MC,St.-Jacobiparochie,het Bildt,Friesland,VBO,5.605449,53.271891
Hofstraat,7,,,9079MC,St.-Jacobiparochie,het Bildt,Friesland,VBO,5.605455,53.271845
Hofstraat,9,,,9079MC,St.-Jacobiparochie,het Bildt,Friesland,VBO,5.605468,53.271747
Hofstraat,11,,,9079MC,St.-Jacobiparochie,het Bildt,Friesland,VBO,5.605473,53.271704
Hofstraat,13,,,9079MC,St.-Jacobiparochie,het Bildt,Friesland,VBO,5.605484,53.271618
Hofstraat,15,,,9079MC,St.-Jacobiparochie,het Bildt,Friesland,VBO,5.605489,53.271555
Hofstraat,17,,,9079MC,St.-Jacobiparochie,het Bildt,Friesland,VBO,5.605511,53.271441
Hofstraat,19,,,9079MC,St.-Jacobiparochie,het Bildt,Friesland,VBO,5.605523,53.271379
Hofstraat,21,,,9079MC,St.-Jacobiparochie,het Bildt,Friesland,VBO,5.605535,53.271318
Hofstraat,23,,,9079MC,St.-Jacobiparochie,het Bildt,Friesland,VBO,5.605547,53.271256
Hofstraat,2,A,,9079MD,St.-Jacobiparochie,het Bildt,Friesland,VBO,5.605013,53.272324
Hofstraat,2,B,,9079MD,St.-Jacobiparochie,het Bildt,Friesland,VBO,5.605041,53.272160
Hofstraat,2,,,9079MD,St.-Jacobiparochie,het Bildt,Friesland,VBO,5.604938,53.272546
Hofstraat,4,,,9079MD,St.-Jacobiparochie,het Bildt,Friesland,VBO,5.605061,53.272039
Hofstraat,6,,,9079MD,St.-Jacobiparochie,het Bildt,Friesland,VBO,5.605069,53.271980
Hofstraat,8,,,9079MD,St.-Jacobiparochie,het Bildt,Friesland,VBO,5.605084,53.271861
Hofstraat,10,,,9079MD,St.-Jacobiparochie,het Bildt,Friesland,VBO,5.605091,53.271808
Hofstraat,12,,,9079MD,St.-Jacobiparochie,het Bildt,Friesland,VBO,5.605124,53.271586
Hofstraat,14,,,9079MD,St.-Jacobiparochie,het Bildt,Friesland,VBO,5.605132,53.271527
Hofstraat,16,,,9079MD,St.-Jacobiparochie,het Bildt,Friesland,VBO,5.605141,53.271468
Hofstraat,18,,,9079MD,St.-Jacobiparochie,het Bildt,Friesland,VBO,5.605149,53.271410
Hofplein,1,,,9079ME,St.-Jacobiparochie,het Bildt,Friesland,VBO,5.605635,53.271144
Hofplein,3,,,9079ME,St.-Jacobiparochie,het Bildt,Friesland,VBO,5.605683,53.271109
Hofplein,5,,,9079ME,St.-Jacobiparochie,het Bildt,Friesland,VBO,5.605805,53.270995
Hofplein,7,,,9079ME,St.-Jacobiparochie,het Bildt,Friesland,VBO,5.605856,53.270958
Hofplein,9,,,9079ME,St.-Jacobiparochie,het Bildt,Friesland,VBO,5.606035,53.270815
Hofplein,2,,,9079MG,St.-Jacobiparochie,het Bildt,Friesland,VBO,5.605193,53.271245
Hofplein,4,,,9079MG,St.-Jacobiparochie,het Bildt,Friesland,VBO,5.605119,53.271208
Hofplein,6,,,9079MG,St.-Jacobiparochie,het Bildt,Friesland,VBO,5.605045,53.271170
Hofplein,8,,,9079MG,St.-Jacobiparochie,het Bildt,Friesland,VBO,5.605056,53.270920
Hofplein,10,,,9079MG,St.-Jacobiparochie,het Bildt,Friesland,VBO,5.605133,53.270902
Hofplein,12,,,9079MG,St.-Jacobiparochie,het Bildt,Friesland,VBO,5.605265,53.270824
Hofplein,14,,,9079MG,St.-Jacobiparochie,het Bildt,Friesland,VBO,5.605322,53.270782
Hofplein,16,,,9079MG,St.-Jacobiparochie,het Bildt,Friesland,VBO,5.605554,53.270625
Gerben van Tuinenstraat,1,,,9079MH,St.-Jacobiparochie,het Bildt,Friesland,VBO,5.608342,53.272214
Gerben van Tuinenstraat,3,,,9079MH,St.-Jacobiparochie,het Bildt,Friesland,VBO,5.608449,53.272218
Gerben van Tuinenstraat,5,,,9079MH,St.-Jacobiparochie,het Bildt,Friesland,VBO,5.608556,53.272222
Gerben van Tuinenstraat,7,,,9079MH,St.-Jacobiparochie,het Bildt,Friesland,VBO,5.608663,53.272226
Gerben van Tuinenstraat,9,,,9079MH,St.-Jacobiparochie,het Bildt,Friesland,VBO,5.608770,53.272230
Gerben van Tuinenstraat,11,,,9079MH,St.-Jacobiparochie,het Bildt,Friesland,VBO,5.608921,53.272147
Gerben van Tuinenstraat,13,,,9079MH,St.-Jacobiparochie,het Bildt,Friesland,VBO,5.609036,53.272153
Gerben van Tuinenstraat,15,,,9079MH,St.-Jacobiparochie,het Bildt,Friesland,VBO,5.609152,53.272159
Gerben van Tuinenstraat,17,,,9079MH,St.-Jacobiparochie,het Bildt,Friesland,VBO,5.609268,53.272165
Gerben van Tuinenstraat,19,,,9079MH,St.-Jacobiparochie,het Bildt,Friesland,VBO,5.609407,53.272178
Gerben van Tuinenstraat,21,,,9079MH,St.-Jacobiparochie,het Bildt,Friesland,VBO,5.609508,53.272183
Gerben van Tuinenstraat,23,,,9079MH,St.-Jacobiparochie,het Bildt,Friesland,VBO,5.609609,53.272188
Gerben van Tuinenstraat,25,,,9079MH,St.-Jacobiparochie,het Bildt,Friesland,VBO,5.609711,53.272193
Gerben van Tuinenstraat,27,,,9079MH,St.-Jacobiparochie,het Bildt,Friesland,VBO,5.609812,53.272198
Gerben van Tuinenstraat,29,,,9079MH,St.-Jacobiparochie,het Bildt,Friesland,VBO,5.609913,53.272203
Gerben van Tuinenstraat,33,,,9079MH,St.-Jacobiparochie,het Bildt,Friesland,VBO,5.610990,53.272245
Gerben van Tuinenstraat,35,,,9079MH,St.-Jacobiparochie,het Bildt,Friesland,VBO,5.611079,53.272073
Gerben van Tuinenstraat,39,,,9079MH,St.-Jacobiparochie,het Bildt,Friesland,VBO,5.611471,53.272029
Gerben van Tuinenstraat,41,,,9079MH,St.-Jacobiparochie,het Bildt,Friesland,VBO,5.611408,53.272253
Gerben van Tuinenstraat,43,,,9079MH,St.-Jacobiparochie,het Bildt,Friesland,VBO,5.611492,53.272261
Gerben van Tuinenstraat,45,,,9079MH,St.-Jacobiparochie,het Bildt,Friesland,VBO,5.611795,53.272362
Gerben van Tuinenstraat,47,,,9079MH,St.-Jacobiparochie,het Bildt,Friesland,VBO,5.612018,53.272368
Gerben van Tuinenstraat,49,,,9079MH,St.-Jacobiparochie,het Bildt,Friesland,VBO,5.612250,53.272404
Gerben van Tuinenstraat,2,,,9079MJ,St.-Jacobiparochie,het Bildt,Friesland,VBO,5.608245,53.271871
Gerben van Tuinenstraat,4,,,9079MJ,St.-Jacobiparochie,het Bildt,Friesland,VBO,5.608389,53.271876
Gerben van Tuinenstraat,6,A,,9079MJ,St.-Jacobiparochie,het Bildt,Friesland,VBO,5.608984,53.271745
Gerben van Tuinenstraat,6,B,,9079MJ,St.-Jacobiparochie,het Bildt,Friesland,VBO,5.609075,53.271756
Gerben van Tuinenstraat,6,C,,9079MJ,St.-Jacobiparochie,het Bildt,Friesland,VBO,5.609163,53.271759
Gerben van Tuinenstraat,6,D,,9079MJ,St.-Jacobiparochie,het Bildt,Friesland,VBO,5.609247,53.271760
Gerben van Tuinenstraat,6,,,9079MJ,St.-Jacobiparochie,het Bildt,Friesland,VBO,5.608534,53.271882
Gerben van Tuinenstraat,16,,,9079MJ,St.-Jacobiparochie,het Bildt,Friesland,VBO,5.609489,53.271976
Gerben van Tuinenstraat,18,,,9079MJ,St.-Jacobiparochie,het Bildt,Friesland,VBO,5.609621,53.271982
Gerben van Tuinenstraat,20,,,9079MJ,St.-Jacobiparochie,het Bildt,Friesland,VBO,5.609753,53.271988
Gerben van Tuinenstraat,22,,,9079MJ,St.-Jacobiparochie,het Bildt,Friesland,VBO,5.609885,53.271994
Gerben van Tuinenstraat,24,,,9079MJ,St.-Jacobiparochie,het Bildt,Friesland,VBO,5.610006,53.271989
Gerben van Tuinenstraat,26,,,9079MJ,St.-Jacobiparochie,het Bildt,Friesland,VBO,5.610139,53.271993
Gerben van Tuinenstraat,28,,,9079MJ,St.-Jacobiparochie,het Bildt,Friesland,VBO,5.610272,53.271996
Gerben van Tuinenstraat,30,A,,9079MJ,St.-Jacobiparochie,het Bildt,Friesland,VBO,5.610609,53.272003
Gerben van Tuinenstraat,30,,,9079MJ,St.-Jacobiparochie,het Bildt,Friesland,VBO,5.610503,53.272000
Gerben van Tuinenstraat,32,,,9079MJ,St.-Jacobiparochie,het Bildt,Friesland,VBO,5.610987,53.271742
Gerben van Tuinenstraat,34,,,9079MJ,St.-Jacobiparochie,het Bildt,Friesland,VBO,5.611161,53.271764
Gerben van Tuinenstraat,36,,,9079MJ,St.-Jacobiparochie,het Bildt,Friesland,VBO,5.611347,53.271786
Gerben van Tuinenstraat,38,,,9079MJ,St.-Jacobiparochie,het Bildt,Friesland,VBO,5.611521,53.271796
Gerben van Tuinenstraat,40,,,9079MJ,St.-Jacobiparochie,het Bildt,Friesland,VBO,5.611698,53.271804
Gerben van Tuinenstraat,42,,,9079MJ,St.-Jacobiparochie,het Bildt,Friesland,VBO,5.611872,53.271830
Gerben van Tuinenstraat,44,,,9079MJ,St.-Jacobiparochie,het Bildt,Friesland,VBO,5.612351,53.272168
Gerben van Tuinenstraat,46,,,9079MJ,St.-Jacobiparochie,het Bildt,Friesland,VBO,5.612461,53.272176
Gerben van Tuinenstraat,48,,,9079MJ,St.-Jacobiparochie,het Bildt,Friesland,VBO,5.612674,53.272220
Gerben van Tuinenstraat,50,,,9079MJ,St.-Jacobiparochie,het Bildt,Friesland,VBO,5.612806,53.272227
Middelweg-West,201,,,9079MK,St.-Jacobiparochie,het Bildt,Friesland,VBO,5.640571,53.275151
Middelweg-West,202,,,9079MK,St.-Jacobiparochie,het Bildt,Friesland,VBO,5.636209,53.275296
Middelweg-West,203,,,9079MK,St.-Jacobiparochie,het Bildt,Friesland,VBO,5.638902,53.275025
Middelweg-West,207,,,9079MK,St.-Jacobiparochie,het Bildt,Friesland,VBO,5.638968,53.273426
Middelweg-West,215,,,9079MK,St.-Jacobiparochie,het Bildt,Friesland,VBO,5.638105,53.274968
Middelweg-West,221,,,9079MK,St.-Jacobiparochie,het Bildt,Friesland,VBO,5.635337,53.274523
Middelweg-West,222,,,9079MK,St.-Jacobiparochie,het Bildt,Friesland,VBO,5.619147,53.273940
Middelweg-West,225,,,9079MK,St.-Jacobiparochie,het Bildt,Friesland,VBO,5.634850,53.274620
Middelweg-West,226,,,9079MK,St.-Jacobiparochie,het Bildt,Friesland,VBO,5.618921,53.273923
Middelweg-West,227,,,9079MK,St.-Jacobiparochie,het Bildt,Friesland,VBO,5.634414,53.274633
Middelweg-West,230,,,9079MK,St.-Jacobiparochie,het Bildt,Friesland,VBO,5.617579,53.274165
Middelweg-West,233,,,9079MK,St.-Jacobiparochie,het Bildt,Friesland,VBO,5.629900,53.274185
Middelweg-West,239,,,9079MK,St.-Jacobiparochie,het Bildt,Friesland,VBO,5.621636,53.273707
Middelweg-West,241,,,9079MK,St.-Jacobiparochie,het Bildt,Friesland,VBO,5.620100,53.273719
Middelweg-West,243,,,9079MK,St.-Jacobiparochie,het Bildt,Friesland,VBO,5.615600,53.273097
Middelweg-West,245,,,9079MK,St.-Jacobiparochie,het Bildt,Friesland,VBO,5.615407,53.273398
Dooitzen de Bildtstraat,1,,,9079MN,St.-Jacobiparochie,het Bildt,Friesland,VBO,5.612329,53.272968
Dooitzen de Bildtstraat,2,,,9079MN,St.-Jacobiparochie,het Bildt,Friesland,VBO,5.612361,53.272787
Dooitzen de Bildtstraat,3,,,9079MN,St.-Jacobiparochie,het Bildt,Friesland,VBO,5.612924,53.272830
Dooitzen de Bildtstraat,4,,,9079MN,St.-Jacobiparochie,het Bildt,Friesland,VBO,5.612460,53.272644
Dooitzen de Bildtstraat,5,,,9079MN,St.-Jacobiparochie,het Bildt,Friesland,VBO,5.613292,53.272877
Dooitzen de Bildtstraat,6,,,9079MN,St.-Jacobiparochie,het Bildt,Friesland,VBO,5.612580,53.272512
Dooitzen de Bildtstraat,7,,,9079MN,St.-Jacobiparochie,het Bildt,Friesland,VBO,5.613450,53.272638
Dooitzen de Bildtstraat,8,,,9079MN,St.-Jacobiparochie,het Bildt,Friesland,VBO,5.613056,53.272169
Dooitzen de Bildtstraat,9,,,9079MN,St.-Jacobiparochie,het Bildt,Friesland,VBO,5.613082,53.272570
Dooitzen de Bildtstraat,10,,,9079MN,St.-Jacobiparochie,het Bildt,Friesland,VBO,5.613141,53.271981
Dooitzen de Bildtstraat,11,,,9079MN,St.-Jacobiparochie,het Bildt,Friesland,VBO,5.613381,53.272407
Dooitzen de Bildtstraat,12,,,9079MN,St.-Jacobiparochie,het Bildt,Friesland,VBO,5.613136,53.271746
Dooitzen de Bildtstraat,13,,,9079MN,St.-Jacobiparochie,het Bildt,Friesland,VBO,5.613485,53.272236
Dooitzen de Bildtstraat,15,,,9079MN,St.-Jacobiparochie,het Bildt,Friesland,VBO,5.613499,53.272044
Dooitzen de Bildtstraat,17,,,9079MN,St.-Jacobiparochie,het Bildt,Friesland,VBO,5.613587,53.271821
Oudebildtdijk,602,,,9079MX,St.-Jacobiparochie,het Bildt,Friesland,VBO,5.635440,53.293595
Oudebildtdijk,606,,,9079MX,St.-Jacobiparochie,het Bildt,Friesland,VBO,5.635218,53.293550
Oudebildtdijk,610,,,9079MX,St.-Jacobiparochie,het Bildt,Friesland,VBO,5.635027,53.293521
Oudebildtdijk,614,,,9079MX,St.-Jacobiparochie,het Bildt,Friesland,VBO,5.634760,53.293503
Oudebildtdijk,616,,,9079MX,St.-Jacobiparochie,het Bildt,Friesland,VBO,5.634653,53.293496
Oudebildtdijk,618,,,9079MX,St.-Jacobiparochie,het Bildt,Friesland,VBO,5.634264,53.293512
Oudebildtdijk,620,,,9079MX,St.-Jacobiparochie,het Bildt,Friesland,VBO,5.633981,53.293521
Oudebildtdijk,622,,,9079MX,St.-Jacobiparochie,het Bildt,Friesland,VBO,5.633879,53.293464
Oudebildtdijk,626,,,9079MX,St.-Jacobiparochie,het Bildt,Friesland,VBO,5.633696,53.293455
Oudebildtdijk,627,,,9079MX,St.-Jacobiparochie,het Bildt,Friesland,VBO,5.633484,53.292968
Oudebildtdijk,628,,,9079MX,St.-Jacobiparochie,het Bildt,Friesland,VBO,5.633007,53.293388
Oudebildtdijk,630,,,9079MX,St.-Jacobiparochie,het Bildt,Friesland,VBO,5.632776,53.293364
Oudebildtdijk,632,A,,9079MX,St.-Jacobiparochie,het Bildt,Friesland,VBO,5.630791,53.300595
Oudebildtdijk,632,,,9079MX,St.-Jacobiparochie,het Bildt,Friesland,VBO,5.632491,53.293415
Oudebildtdijk,634,,,9079MZ,St.-Jacobiparochie,het Bildt,Friesland,VBO,5.631557,53.293320
Oudebildtdijk,636,,,9079MZ,St.-Jacobiparochie,het Bildt,Friesland,VBO,5.631205,53.293298
Oudebildtdijk,638,,,9079MZ,St.-Jacobiparochie,het Bildt,Friesland,VBO,5.631000,53.293281
Oudebildtdijk,640,A,,9079MZ,St.-Jacobiparochie,het Bildt,Friesland,VBO,5.630502,53.293390
Oudebildtdijk,640,,,9079MZ,St.-Jacobiparochie,het Bildt,Friesland,VBO,5.630803,53.293293
Oudebildtdijk,642,,,9079MZ,St.-Jacobiparochie,het Bildt,Friesland,VBO,5.630019,53.293258
Oudebildtdijk,644,,,9079MZ,St.-Jacobiparochie,het Bildt,Friesland,VBO,5.629674,53.293313
Oudebildtdijk,648,,,9079MZ,St.-Jacobiparochie,het Bildt,Friesland,VBO,5.629211,53.293261
Oudebildtdijk,652,,,9079NA,St.-Jacobiparochie,het Bildt,Friesland,VBO,5.628281,53.294305
Oudebildtdijk,656,,,9079NA,St.-Jacobiparochie,het Bildt,Friesland,VBO,5.627980,53.293009
Oudebildtdijk,658,,,9079NA,St.-Jacobiparochie,het Bildt,Friesland,VBO,5.627853,53.292998
Oudebildtdijk,660,,,9079NA,St.-Jacobiparochie,het Bildt,Friesland,VBO,5.627662,53.292976
Oudebildtdijk,662,,,9079NA,St.-Jacobiparochie,het Bildt,Friesland,VBO,5.627547,53.292976
Oudebildtdijk,664,,,9079NA,St.-Jacobiparochie,het Bildt,Friesland,VBO,5.627346,53.292958
Oudebildtdijk,666,,,9079NA,St.-Jacobiparochie,het Bildt,Friesland,VBO,5.627065,53.292931
Oudebildtdijk,668,,,9079NA,St.-Jacobiparochie,het Bildt,Friesland,VBO,5.626871,53.292886
Oudebildtdijk,670,,,9079NA,St.-Jacobiparochie,het Bildt,Friesland,VBO,5.626742,53.292882
Oudebildtdijk,672,,,9079NA,St.-Jacobiparochie,het Bildt,Friesland,VBO,5.626657,53.292872
Oudebildtdijk,678,,,9079NA,St.-Jacobiparochie,het Bildt,Friesland,VBO,5.626352,53.292843
Oudebildtdijk,683,,,9079NA,St.-Jacobiparochie,het Bildt,Friesland,VBO,5.625834,53.292274
Oudebildtdijk,684,,,9079NA,St.-Jacobiparochie,het Bildt,Friesland,VBO,5.624933,53.292663
Oudebildtdijk,686,,,9079NA,St.-Jacobiparochie,het Bildt,Friesland,VBO,5.624818,53.292647
Oudebildtdijk,692,,,9079NA,St.-Jacobiparochie,het Bildt,Friesland,VBO,5.624375,53.292545
Oudebildtdijk,694,,,9079NA,St.-Jacobiparochie,het Bildt,Friesland,VBO,5.624172,53.292527
Oudebildtdijk,697,,,9079NA,St.-Jacobiparochie,het Bildt,Friesland,VBO,5.623936,53.292043
Oudebildtdijk,699,,,9079NA,St.-Jacobiparochie,het Bildt,Friesland,VBO,5.623558,53.291981
Oudebildtdijk,708,,,9079NB,St.-Jacobiparochie,het Bildt,Friesland,VBO,5.622292,53.292129
Oudebildtdijk,710,,,9079NB,St.-Jacobiparochie,het Bildt,Friesland,VBO,5.622196,53.292100
Oudebildtdijk,712,,,9079NB,St.-Jacobiparochie,het Bildt,Friesland,VBO,5.621970,53.292079
Oudebildtdijk,714,,,9079NB,St.-Jacobiparochie,het Bildt,Friesland,VBO,5.621880,53.292037
Oudebildtdijk,716,,,9079NB,St.-Jacobiparochie,het Bildt,Friesland,VBO,5.621781,53.292019
Oudebildtdijk,718,,,9079NB,St.-Jacobiparochie,het Bildt,Friesland,VBO,5.621080,53.291913
Oudebildtdijk,720,,,9079NB,St.-Jacobiparochie,het Bildt,Friesland,VBO,5.620937,53.291895
Oudebildtdijk,722,,,9079NB,St.-Jacobiparochie,het Bildt,Friesland,VBO,5.618993,53.299146
Oudebildtdijk,723,,,9079NB,St.-Jacobiparochie,het Bildt,Friesland,VBO,5.619780,53.291203
Oudebildtdijk,724,,,9079NB,St.-Jacobiparochie,het Bildt,Friesland,VBO,5.619173,53.291591
Oudebildtdijk,732,,,9079NB,St.-Jacobiparochie,het Bildt,Friesland,VBO,5.618694,53.291522
Oudebildtdijk,733,,,9079NB,St.-Jacobiparochie,het Bildt,Friesland,VBO,5.618416,53.290961
Oudebildtdijk,734,,,9079NB,St.-Jacobiparochie,het Bildt,Friesland,VBO,5.618044,53.291655
Oudebildtdijk,736,,,9079NB,St.-Jacobiparochie,het Bildt,Friesland,VBO,5.617458,53.291245
Oudebildtdijk,738,,,9079NB,St.-Jacobiparochie,het Bildt,Friesland,VBO,5.617377,53.291206
Oudebildtdijk,740,,,9079NC,St.-Jacobiparochie,het Bildt,Friesland,VBO,5.617098,53.291187
Oudebildtdijk,742,A,,9079NC,St.-Jacobiparochie,het Bildt,Friesland,VBO,5.616540,53.291078
Oudebildtdijk,742,,,9079NC,St.-Jacobiparochie,het Bildt,Friesland,VBO,5.616955,53.291148
Oudebildtdijk,744,,,9079NC,St.-Jacobiparochie,het Bildt,Friesland,VBO,5.616165,53.291006
Oudebildtdijk,747,,,9079NC,St.-Jacobiparochie,het Bildt,Friesland,VBO,5.616309,53.287937
Oudebildtdijk,748,,,9079NC,St.-Jacobiparochie,het Bildt,Friesland,VBO,5.615906,53.290968
Oudebildtdijk,749,,,9079NC,St.-Jacobiparochie,het Bildt,Friesland,VBO,5.616309,53.288353
Oudebildtdijk,750,,,9079NC,St.-Jacobiparochie,het Bildt,Friesland,VBO,5.614782,53.290744
Oudebildtdijk,756,,,9079NC,St.-Jacobiparochie,het Bildt,Friesland,VBO,5.614338,53.290705
Oudebildtdijk,758,,,9079NC,St.-Jacobiparochie,het Bildt,Friesland,VBO,5.614033,53.290663
Oudebildtdijk,760,,,9079NC,St.-Jacobiparochie,het Bildt,Friesland,VBO,5.613935,53.290645
Oudebildtdijk,764,,,9079NC,St.-Jacobiparochie,het Bildt,Friesland,VBO,5.613392,53.290554
Oudebildtdijk,768,,,9079NC,St.-Jacobiparochie,het Bildt,Friesland,VBO,5.613203,53.290503
Oudebildtdijk,770,,,9079NC,St.-Jacobiparochie,het Bildt,Friesland,VBO,5.613071,53.290473
Oudebildtdijk,771,,,9079NC,St.-Jacobiparochie,het Bildt,Friesland,VBO,5.613231,53.289951
Oudebildtdijk,772,,,9079NC,St.-Jacobiparochie,het Bildt,Friesland,VBO,5.611816,53.290176
Oudebildtdijk,774,,,9079NC,St.-Jacobiparochie,het Bildt,Friesland,VBO,5.611626,53.290136
Oudebildtdijk,776,,,9079NC,St.-Jacobiparochie,het Bildt,Friesland,VBO,5.611404,53.290122
Oudebildtdijk,778,,,9079NC,St.-Jacobiparochie,het Bildt,Friesland,VBO,5.611251,53.290056
Oudebildtdijk,780,,,9079NC,St.-Jacobiparochie,het Bildt,Friesland,VBO,5.611116,53.290051
Oudebildtdijk,782,,,9079ND,St.-Jacobiparochie,het Bildt,Friesland,VBO,5.610951,53.290013
Oudebildtdijk,786,,,9079ND,St.-Jacobiparochie,het Bildt,Friesland,VBO,5.610628,53.289932
Oudebildtdijk,788,,,9079ND,St.-Jacobiparochie,het Bildt,Friesland,VBO,5.610406,53.289898
Oudebildtdijk,790,,,9079ND,St.-Jacobiparochie,het Bildt,Friesland,VBO,5.610185,53.289836
Oudebildtdijk,792,,,9079ND,St.-Jacobiparochie,het Bildt,Friesland,VBO,5.610059,53.289797
Oudebildtdijk,794,,,9079ND,St.-Jacobiparochie,het Bildt,Friesland,VBO,5.609899,53.289765
Oudebildtdijk,798,,,9079ND,St.-Jacobiparochie,het Bildt,Friesland,VBO,5.609642,53.289731
Oudebildtdijk,800,,,9079ND,St.-Jacobiparochie,het Bildt,Friesland,VBO,5.609397,53.289663
Oudebildtdijk,802,,,9079ND,St.-Jacobiparochie,het Bildt,Friesland,VBO,5.608196,53.289294
Oudebildtdijk,804,,,9079ND,St.-Jacobiparochie,het Bildt,Friesland,VBO,5.608025,53.289253
Oudebildtdijk,806,,,9079ND,St.-Jacobiparochie,het Bildt,Friesland,VBO,5.607891,53.289209
Oudebildtdijk,808,,,9079ND,St.-Jacobiparochie,het Bildt,Friesland,VBO,5.607456,53.289092
Oudebildtdijk,810,,,9079ND,St.-Jacobiparochie,het Bildt,Friesland,VBO,5.607344,53.289041
Oudebildtdijk,818,,,9079ND,St.-Jacobiparochie,het Bildt,Friesland,VBO,5.606917,53.288951
Oudebildtdijk,820,,,9079ND,St.-Jacobiparochie,het Bildt,Friesland,VBO,5.606830,53.288899
Oudebildtdijk,828,,,9079ND,St.-Jacobiparochie,het Bildt,Friesland,VBO,5.606420,53.288801
Oudebildtdijk,831,,,9079NE,St.-Jacobiparochie,het Bildt,Friesland,VBO,5.608229,53.286632
Oudebildtdijk,832,,,9079NE,St.-Jacobiparochie,het Bildt,Friesland,VBO,5.606159,53.288715
Oudebildtdijk,833,,,9079NE,St.-Jacobiparochie,het Bildt,Friesland,VBO,5.607952,53.287376
Oudebildtdijk,834,,,9079NE,St.-Jacobiparochie,het Bildt,Friesland,VBO,5.606023,53.288681
Oudebildtdijk,835,,,9079NE,St.-Jacobiparochie,het Bildt,Friesland,VBO,5.605775,53.288100
Oudebildtdijk,838,,,9079NE,St.-Jacobiparochie,het Bildt,Friesland,VBO,5.603537,53.293405
Oudebildtdijk,840,,,9079NE,St.-Jacobiparochie,het Bildt,Friesland,VBO,5.604813,53.288359
Oudebildtdijk,850,,,9079NE,St.-Jacobiparochie,het Bildt,Friesland,VBO,5.604089,53.288055
Oudebildtdijk,858,,,9079NE,St.-Jacobiparochie,het Bildt,Friesland,VBO,5.603698,53.287911
Oudebildtdijk,862,,,9079NE,St.-Jacobiparochie,het Bildt,Friesland,VBO,5.603535,53.287869
Oudebildtdijk,864,,,9079NE,St.-Jacobiparochie,het Bildt,Friesland,VBO,5.603295,53.287810
Oudebildtdijk,866,,,9079NE,St.-Jacobiparochie,het Bildt,Friesland,VBO,5.603143,53.287749
Oudebildtdijk,868,,,9079NE,St.-Jacobiparochie,het Bildt,Friesland,VBO,5.603021,53.287728
Oudebildtdijk,870,,,9079NE,St.-Jacobiparochie,het Bildt,Friesland,VBO,5.602925,53.287695
Oudebildtdijk,872,,,9079NG,St.-Jacobiparochie,het Bildt,Friesland,VBO,5.602558,53.287598
Oudebildtdijk,874,,,9079NG,St.-Jacobiparochie,het Bildt,Friesland,VBO,5.602360,53.287512
Oudebildtdijk,876,,,9079NG,St.-Jacobiparochie,het Bildt,Friesland,VBO,5.602095,53.287431
Oudebildtdijk,878,,,9079NG,St.-Jacobiparochie,het Bildt,Friesland,VBO,5.601654,53.287342
Oudebildtdijk,884,,,9079NG,St.-Jacobiparochie,het Bildt,Friesland,VBO,5.601029,53.287129
Oudebildtdijk,886,,,9079NG,St.-Jacobiparochie,het Bildt,Friesland,VBO,5.600904,53.287077
Oudebildtdijk,888,,,9079NG,St.-Jacobiparochie,het Bildt,Friesland,VBO,5.600779,53.287036
Oudebildtdijk,890,,,9079NG,St.-Jacobiparochie,het Bildt,Friesland,VBO,5.600552,53.286987
Oudebildtdijk,892,,,9079NG,St.-Jacobiparochie,het Bildt,Friesland,VBO,5.600339,53.286928
Oudebildtdijk,894,A,,9079NG,St.-Jacobiparochie,het Bildt,Friesland,VBO,5.599805,53.287377
Oudebildtdijk,894,,,9079NG,St.-Jacobiparochie,het Bildt,Friesland,VBO,5.599921,53.287554
Oudebildtdijk,896,,,9079NG,St.-Jacobiparochie,het Bildt,Friesland,VBO,5.599595,53.286665
Oudebildtdijk,900,,,9079NG,St.-Jacobiparochie,het Bildt,Friesland,VBO,5.599283,53.286559
Oudebildtdijk,902,,,9079NG,St.-Jacobiparochie,het Bildt,Friesland,VBO,5.599117,53.286579
Oudebildtdijk,904,,,9079NG,St.-Jacobiparochie,het Bildt,Friesland,VBO,5.599068,53.286464
Oudebildtdijk,906,,,9079NG,St.-Jacobiparochie,het Bildt,Friesland,VBO,5.597319,53.292052
Oudebildtdijk,908,,,9079NG,St.-Jacobiparochie,het Bildt,Friesland,VBO,5.598338,53.286262
Oudebildtdijk,916,,,9079NG,St.-Jacobiparochie,het Bildt,Friesland,VBO,5.597712,53.286000
Koudeweg,1,,,9079PA,St.-Jacobiparochie,het Bildt,Friesland,VBO,5.635673,53.263074
Koudeweg,2,,,9079PA,St.-Jacobiparochie,het Bildt,Friesland,VBO,5.636379,53.262415
Koudeweg,6,,,9079PA,St.-Jacobiparochie,het Bildt,Friesland,VBO,5.636053,53.263936
Koudeweg,10,,,9079PA,St.-Jacobiparochie,het Bildt,Friesland,VBO,5.635754,53.265404
Koudeweg,18,,,9079PA,St.-Jacobiparochie,het Bildt,Friesland,VBO,5.634794,53.270453
Koudeweg,20,,,9079PA,St.-Jacobiparochie,het Bildt,Friesland,VBO,5.634078,53.274467
Koudeweg,21,,,9079PA,St.-Jacobiparochie,het Bildt,Friesland,VBO,5.632245,53.277780
Koudeweg,23,,,9079PA,St.-Jacobiparochie,het Bildt,Friesland,VBO,5.632475,53.278412
Koudeweg,24,,,9079PA,St.-Jacobiparochie,het Bildt,Friesland,VBO,5.633356,53.276956
Koudeweg,25,,,9079PA,St.-Jacobiparochie,het Bildt,Friesland,VBO,5.632464,53.278458
Koudeweg,26,,,9079PA,St.-Jacobiparochie,het Bildt,Friesland,VBO,5.632515,53.281446
Koudeweg,36,,,9079PA,St.-Jacobiparochie,het Bildt,Friesland,VBO,5.632032,53.284111
Koudeweg,40,,,9079PA,St.-Jacobiparochie,het Bildt,Friesland,VBO,5.630213,53.292857
Boonweg,1,,,9079PB,St.-Jacobiparochie,het Bildt,Friesland,VBO,5.601817,53.289351
Boonweg,2,I,,9079PB,St.-Jacobiparochie,het Bildt,Friesland,VBO,5.602771,53.288732
Boonweg,2,,,9079PB,St.-Jacobiparochie,het Bildt,Friesland,VBO,5.599185,53.302824
Boonweg,4,,,9079PB,St.-Jacobiparochie,het Bildt,Friesland,VBO,5.599067,53.303005
Kadal,48,,,9079PC,St.-Jacobiparochie,het Bildt,Friesland,VBO,5.604468,53.286060
Kadal,50,,,9079PC,St.-Jacobiparochie,het Bildt,Friesland,VBO,5.604356,53.286270
Kadal,52,,,9079PC,St.-Jacobiparochie,het Bildt,Friesland,VBO,5.604338,53.286314
Kadal,54,,,9079PC,St.-Jacobiparochie,het Bildt,Friesland,VBO,5.604303,53.286428
Kadal,56,,,9079PC,St.-Jacobiparochie,het Bildt,Friesland,VBO,5.604285,53.286512
Kadal,58,,,9079PC,St.-Jacobiparochie,het Bildt,Friesland,VBO,5.604231,53.286616
Kadal,60,,,9079PC,St.-Jacobiparochie,het Bildt,Friesland,VBO,5.604179,53.286715
Kadal,62,,,9079PC,St.-Jacobiparochie,het Bildt,Friesland,VBO,5.604132,53.286827
Kadal,64,A,,9079PC,St.-Jacobiparochie,het Bildt,Friesland,VBO,5.605214,53.287230
Kadal,64,,,9079PC,St.-Jacobiparochie,het Bildt,Friesland,VBO,5.604059,53.287050
Kadal,66,,,9079PC,St.-Jacobiparochie,het Bildt,Friesland,VBO,5.604225,53.287510
Westerweg,1,,,9079PD,St.-Jacobiparochie,het Bildt,Friesland,VBO,5.596617,53.272042
Westerweg,2,,,9079PD,St.-Jacobiparochie,het Bildt,Friesland,VBO,5.596854,53.272402
Westerweg,4,,,9079PD,St.-Jacobiparochie,het Bildt,Friesland,VBO,5.596114,53.272282
Westerweg,6,,,9079PD,St.-Jacobiparochie,het Bildt,Friesland,VBO,5.595691,53.272251
Westerweg,8,,,9079PD,St.-Jacobiparochie,het Bildt,Friesland,VBO,5.595527,53.272238
Westerweg,9,,,9079PD,St.-Jacobiparochie,het Bildt,Friesland,VBO,5.595109,53.268241
Westerweg,10,,,9079PD,St.-Jacobiparochie,het Bildt,Friesland,VBO,5.595353,53.272224
Westerweg,12,,,9079PD,St.-Jacobiparochie,het Bildt,Friesland,VBO,5.595181,53.272215
Westerweg,14,,,9079PD,St.-Jacobiparochie,het Bildt,Friesland,VBO,5.594663,53.272185
Westerweg,15,,,9079PD,St.-Jacobiparochie,het Bildt,Friesland,VBO,5.584944,53.271146
Westerweg,16,,,9079PD,St.-Jacobiparochie,het Bildt,Friesland,VBO,5.594451,53.272169
Westerweg,17,,,9079PD,St.-Jacobiparochie,het Bildt,Friesland,VBO,5.584635,53.271159
Westerweg,18,,,9079PD,St.-Jacobiparochie,het Bildt,Friesland,VBO,5.578968,53.270996
Westerweg,19,,,9079PD,St.-Jacobiparochie,het Bildt,Friesland,VBO,5.579489,53.270749
Westerweg,20,,,9079PD,St.-Jacobiparochie,het Bildt,Friesland,VBO,5.578832,53.270987
Westerweg,22,,,9079PD,St.-Jacobiparochie,het Bildt,Friesland,VBO,5.576068,53.270939
Westerweg,24,,,9079PD,St.-Jacobiparochie,het Bildt,Friesland,VBO,5.575505,53.270841
Westerweg,26,,,9079PD,St.-Jacobiparochie,het Bildt,Friesland,VBO,5.574921,53.270875
Hovensterweg,1,,,9079PE,St.-Jacobiparochie,het Bildt,Friesland,VBO,5.573782,53.264789
Hovensterweg,2,,,9079PE,St.-Jacobiparochie,het Bildt,Friesland,VBO,5.574738,53.264468
Hovensterweg,6,,,9079PE,St.-Jacobiparochie,het Bildt,Friesland,VBO,5.574276,53.264478
Nieuwebildtdijk,400,,,9079PG,St.-Jacobiparochie,het Bildt,Friesland,VBO,5.631694,53.307859
Nieuwebildtdijk,404,,,9079PG,St.-Jacobiparochie,het Bildt,Friesland,VBO,5.631592,53.307903
Nieuwebildtdijk,408,,,9079PG,St.-Jacobiparochie,het Bildt,Friesland,VBO,5.630092,53.308278
Nieuwebildtdijk,410,,,9079PG,St.-Jacobiparochie,het Bildt,Friesland,VBO,5.629105,53.308593
Nieuwebildtdijk,412,,,9079PG,St.-Jacobiparochie,het Bildt,Friesland,VBO,5.628972,53.308633
Nieuwebildtdijk,414,,,9079PG,St.-Jacobiparochie,het Bildt,Friesland,VBO,5.628856,53.308651
Nieuwebildtdijk,416,,,9079PG,St.-Jacobiparochie,het Bildt,Friesland,VBO,5.628743,53.308695
Nieuwebildtdijk,418,,,9079PG,St.-Jacobiparochie,het Bildt,Friesland,VBO,5.628492,53.308772
Nieuwebildtdijk,420,,,9079PG,St.-Jacobiparochie,het Bildt,Friesland,VBO,5.628370,53.308826
Nieuwebildtdijk,424,,,9079PG,St.-Jacobiparochie,het Bildt,Friesland,VBO,5.627996,53.308899
Nieuwebildtdijk,426,,,9079PG,St.-Jacobiparochie,het Bildt,Friesland,VBO,5.627823,53.308962
Nieuwebildtdijk,428,,,9079PG,St.-Jacobiparochie,het Bildt,Friesland,VBO,5.627543,53.309209
Zeedijk,1,A,,9079PH,St.-Jacobiparochie,het Bildt,Friesland,VBO,5.621360,53.309006
Zeedijk,1,B,,9079PH,St.-Jacobiparochie,het Bildt,Friesland,VBO,5.625928,53.309157
Zeedijk,1,,,9079PH,St.-Jacobiparochie,het Bildt,Friesland,VBO,5.626507,53.308787
Zeedijk,3,,,9079PH,St.-Jacobiparochie,het Bildt,Friesland,VBO,5.621120,53.309041
Zeedijk,5,,,9079PH,St.-Jacobiparochie,het Bildt,Friesland,VBO,5.620990,53.309040
Zeedijk,7,,,9079PH,St.-Jacobiparochie,het Bildt,Friesland,VBO,5.620815,53.309039
Zeedijk,9,A,,9079PH,St.-Jacobiparochie,het Bildt,Friesland,VBO,5.586598,53.299140
Zeedijk,9,,,9079PH,St.-Jacobiparochie,het Bildt,Friesland,VBO,5.619550,53.308958
Zeedijk,11,,,9079PH,St.-Jacobiparochie,het Bildt,Friesland,VBO,5.613920,53.305834
Zeedijk,13,,,9079PH,St.-Jacobiparochie,het Bildt,Friesland,VBO,5.610328,53.306329
Zeedijk,15,,,9079PH,St.-Jacobiparochie,het Bildt,Friesland,VBO,5.599090,53.303646
Zeedijk,21,,,9079PH,Westhoek,het Bildt,Friesland,VBO,5.556699,53.272864
Zondervans-reed,1,,,9079PJ,St.-Jacobiparochie,het Bildt,Friesland,VBO,5.590411,53.270577
Kieuwhoek,1,,,9079PK,St.-Jacobiparochie,het Bildt,Friesland,VBO,5.609039,53.276795
Kieuwhoek,2,,,9079PK,St.-Jacobiparochie,het Bildt,Friesland,VBO,5.610283,53.276397
Kieuwhoek,3,,,9079PK,St.-Jacobiparochie,het Bildt,Friesland,VBO,5.610043,53.277131
Luinsterweg,2,,,9079PW,St.-Jacobiparochie,het Bildt,Friesland,VBO,5.646784,53.251755
Luinsterweg,5,,,9079PX,St.-Jacobiparochie,het Bildt,Friesland,VBO,5.647176,53.253395
Hogedijk,32,A,,9079PZ,St.-Jacobiparochie,het Bildt,Friesland,VBO,5.619983,53.257563
