openbareruimtenaam,huisnummer,huisletter,huisnummertoevoeging,postcode,woonplaatsnaam,gemeentenaam,provincienaam,typeadresseerbaarobject,longitude,latitude
J. Keuningstraat,1,,,9103NA,Dokkum,Dongeradeel,Friesland,VBO,6.013099,53.316810
J. Keuningstraat,2,,,9103NA,Dokkum,Dongeradeel,Friesland,VBO,6.013485,53.316772
J. Keuningstraat,3,,,9103NA,Dokkum,Dongeradeel,Friesland,VBO,6.013060,53.316862
J. Keuningstraat,4,,,9103NA,Dokkum,Dongeradeel,Friesland,VBO,6.013256,53.317015
J. Keuningstraat,5,,,9103NA,Dokkum,Dongeradeel,Friesland,VBO,6.012885,53.316987
J. Keuningstraat,6,,,9103NA,Dokkum,Dongeradeel,Friesland,VBO,6.013197,53.317056
J. Keuningstraat,7,,,9103NA,Dokkum,Dongeradeel,Friesland,VBO,6.012824,53.317034
J. Keuningstraat,8,,,9103NA,Dokkum,Dongeradeel,Friesland,VBO,6.013069,53.317148
J. Keuningstraat,9,,,9103NA,Dokkum,Dongeradeel,Friesland,VBO,6.012629,53.317129
J. Keuningstraat,10,,,9103NA,Dokkum,Dongeradeel,Friesland,VBO,6.013011,53.317189
J. Keuningstraat,11,,,9103NA,Dokkum,Dongeradeel,Friesland,VBO,6.012555,53.317173
J. Keuningstraat,12,,,9103NA,Dokkum,Dongeradeel,Friesland,VBO,6.012870,53.317267
J. Keuningstraat,13,,,9103NA,Dokkum,Dongeradeel,Friesland,VBO,6.012342,53.317257
J. Keuningstraat,14,,,9103NA,Dokkum,Dongeradeel,Friesland,VBO,6.012807,53.317295
J. Keuningstraat,15,,,9103NA,Dokkum,Dongeradeel,Friesland,VBO,6.012241,53.317281
J. Keuningstraat,16,,,9103NA,Dokkum,Dongeradeel,Friesland,VBO,6.012633,53.317364
J. Keuningstraat,17,,,9103NA,Dokkum,Dongeradeel,Friesland,VBO,6.011988,53.317332
J. Keuningstraat,18,,,9103NA,Dokkum,Dongeradeel,Friesland,VBO,6.012567,53.317389
J. Keuningstraat,19,,,9103NA,Dokkum,Dongeradeel,Friesland,VBO,6.011911,53.317352
J. Keuningstraat,20,,,9103NA,Dokkum,Dongeradeel,Friesland,VBO,6.012386,53.317442
J. Keuningstraat,22,,,9103NA,Dokkum,Dongeradeel,Friesland,VBO,6.012303,53.317460
mr. J.P. Miedemastraat,3,,,9103NB,Dokkum,Dongeradeel,Friesland,VBO,6.013729,53.316889
mr. J.P. Miedemastraat,5,,,9103NB,Dokkum,Dongeradeel,Friesland,VBO,6.013851,53.317007
mr. J.P. Miedemastraat,7,,,9103NB,Dokkum,Dongeradeel,Friesland,VBO,6.013949,53.317095
mr. J.P. Miedemastraat,9,,,9103NB,Dokkum,Dongeradeel,Friesland,VBO,6.014193,53.317311
mr. J.P. Miedemastraat,11,,,9103NB,Dokkum,Dongeradeel,Friesland,VBO,6.014334,53.317437
mr. J.P. Miedemastraat,13,,,9103NB,Dokkum,Dongeradeel,Friesland,VBO,6.014592,53.317674
mr. J.P. Miedemastraat,15,,,9103NB,Dokkum,Dongeradeel,Friesland,VBO,6.014728,53.317822
mr. J.P. Miedemastraat,17,,,9103NB,Dokkum,Dongeradeel,Friesland,VBO,6.014817,53.317989
mr. J.P. Miedemastraat,19,,,9103NB,Dokkum,Dongeradeel,Friesland,VBO,6.014818,53.318224
mr. J.P. Miedemastraat,21,,,9103NB,Dokkum,Dongeradeel,Friesland,VBO,6.014801,53.318413
mr. J.P. Miedemastraat,23,,,9103NB,Dokkum,Dongeradeel,Friesland,VBO,6.014802,53.318609
mr. J.P. Miedemastraat,25,,,9103NB,Dokkum,Dongeradeel,Friesland,VBO,6.014483,53.318731
mr. J.P. Miedemastraat,27,,,9103NB,Dokkum,Dongeradeel,Friesland,VBO,6.014274,53.318819
mr. J.P. Miedemastraat,29,,,9103NB,Dokkum,Dongeradeel,Friesland,VBO,6.014075,53.318894
mr. J.P. Miedemastraat,31,,,9103NB,Dokkum,Dongeradeel,Friesland,VBO,6.013884,53.318978
mr. J.P. Miedemastraat,33,,,9103NB,Dokkum,Dongeradeel,Friesland,VBO,6.013695,53.319065
mr. J.P. Miedemastraat,35,,,9103NB,Dokkum,Dongeradeel,Friesland,VBO,6.013517,53.319133
mr. J.P. Miedemastraat,37,,,9103NB,Dokkum,Dongeradeel,Friesland,VBO,6.013316,53.319217
mr. J.P. Miedemastraat,39,,,9103NB,Dokkum,Dongeradeel,Friesland,VBO,6.013120,53.319294
mr. J.P. Miedemastraat,41,,,9103NB,Dokkum,Dongeradeel,Friesland,VBO,6.012874,53.319374
J.G.M. Demesstraat,3,,,9103NC,Dokkum,Dongeradeel,Friesland,VBO,6.013689,53.317327
J.G.M. Demesstraat,4,,,9103NC,Dokkum,Dongeradeel,Friesland,VBO,6.013844,53.317505
J.G.M. Demesstraat,5,,,9103NC,Dokkum,Dongeradeel,Friesland,VBO,6.013577,53.317446
J.G.M. Demesstraat,6,,,9103NC,Dokkum,Dongeradeel,Friesland,VBO,6.013737,53.317614
J.G.M. Demesstraat,7,,,9103NC,Dokkum,Dongeradeel,Friesland,VBO,6.013335,53.317571
J.G.M. Demesstraat,8,,,9103NC,Dokkum,Dongeradeel,Friesland,VBO,6.013569,53.317704
J.G.M. Demesstraat,9,,,9103NC,Dokkum,Dongeradeel,Friesland,VBO,6.013101,53.317638
J.G.M. Demesstraat,10,,,9103NC,Dokkum,Dongeradeel,Friesland,VBO,6.013383,53.317774
J.G.M. Demesstraat,11,,,9103NC,Dokkum,Dongeradeel,Friesland,VBO,6.012940,53.317711
J.G.M. Demesstraat,12,,,9103NC,Dokkum,Dongeradeel,Friesland,VBO,6.013173,53.317844
J.G.M. Demesstraat,13,,,9103NC,Dokkum,Dongeradeel,Friesland,VBO,6.012747,53.317776
J.G.M. Demesstraat,14,,,9103NC,Dokkum,Dongeradeel,Friesland,VBO,6.012985,53.317911
J.G.M. Demesstraat,15,,,9103NC,Dokkum,Dongeradeel,Friesland,VBO,6.012597,53.317852
J.G.M. Demesstraat,16,,,9103NC,Dokkum,Dongeradeel,Friesland,VBO,6.012769,53.317961
J.G.M. Demesstraat,17,,,9103NC,Dokkum,Dongeradeel,Friesland,VBO,6.012324,53.317887
J.G.M. Demesstraat,18,,,9103NC,Dokkum,Dongeradeel,Friesland,VBO,6.012605,53.318025
J.G.M. Demesstraat,20,,,9103NC,Dokkum,Dongeradeel,Friesland,VBO,6.012362,53.318122
D. Huijser van Reenenstraat,3,,,9103ND,Dokkum,Dongeradeel,Friesland,VBO,6.014354,53.318022
D. Huijser van Reenenstraat,5,,,9103ND,Dokkum,Dongeradeel,Friesland,VBO,6.014183,53.318089
D. Huijser van Reenenstraat,7,,,9103ND,Dokkum,Dongeradeel,Friesland,VBO,6.014017,53.318159
D. Huijser van Reenenstraat,9,,,9103ND,Dokkum,Dongeradeel,Friesland,VBO,6.013848,53.318234
D. Huijser van Reenenstraat,11,,,9103ND,Dokkum,Dongeradeel,Friesland,VBO,6.013668,53.318307
D. Huijser van Reenenstraat,13,,,9103ND,Dokkum,Dongeradeel,Friesland,VBO,6.013495,53.318372
D. Huijser van Reenenstraat,15,,,9103ND,Dokkum,Dongeradeel,Friesland,VBO,6.013306,53.318453
D. Huijser van Reenenstraat,17,,,9103ND,Dokkum,Dongeradeel,Friesland,VBO,6.013142,53.318525
D. Huijser van Reenenstraat,19,,,9103ND,Dokkum,Dongeradeel,Friesland,VBO,6.012956,53.318596
D. Huijser van Reenenstraat,21,,,9103ND,Dokkum,Dongeradeel,Friesland,VBO,6.012817,53.318662
D. Huijser van Reenenstraat,23,,,9103ND,Dokkum,Dongeradeel,Friesland,VBO,6.012593,53.318668
D. Huijser van Reenenstraat,25,,,9103ND,Dokkum,Dongeradeel,Friesland,VBO,6.012511,53.318696
D. Huijser van Reenenstraat,27,,,9103ND,Dokkum,Dongeradeel,Friesland,VBO,6.012388,53.318751
D. Huijser van Reenenstraat,29,,,9103ND,Dokkum,Dongeradeel,Friesland,VBO,6.012256,53.318799
D. Huijser van Reenenstraat,31,,,9103ND,Dokkum,Dongeradeel,Friesland,VBO,6.012144,53.318852
D. Huijser van Reenenstraat,33,,,9103ND,Dokkum,Dongeradeel,Friesland,VBO,6.012123,53.318963
D. Huijser van Reenenstraat,35,,,9103ND,Dokkum,Dongeradeel,Friesland,VBO,6.012132,53.319017
D. Huijser van Reenenstraat,37,,,9103ND,Dokkum,Dongeradeel,Friesland,VBO,6.012135,53.319133
D. Huijser van Reenenstraat,39,,,9103ND,Dokkum,Dongeradeel,Friesland,VBO,6.012136,53.319199
D. Huijser van Reenenstraat,41,,,9103ND,Dokkum,Dongeradeel,Friesland,VBO,6.012138,53.319308
D. Huijser van Reenenstraat,43,,,9103ND,Dokkum,Dongeradeel,Friesland,VBO,6.012146,53.319363
D. Huijser van Reenenstraat,4,,,9103NE,Dokkum,Dongeradeel,Friesland,VBO,6.014282,53.318260
D. Huijser van Reenenstraat,6,,,9103NE,Dokkum,Dongeradeel,Friesland,VBO,6.014202,53.318289
D. Huijser van Reenenstraat,8,,,9103NE,Dokkum,Dongeradeel,Friesland,VBO,6.014060,53.318356
D. Huijser van Reenenstraat,10,,,9103NE,Dokkum,Dongeradeel,Friesland,VBO,6.013982,53.318393
D. Huijser van Reenenstraat,12,,,9103NE,Dokkum,Dongeradeel,Friesland,VBO,6.013827,53.318450
D. Huijser van Reenenstraat,14,,,9103NE,Dokkum,Dongeradeel,Friesland,VBO,6.013749,53.318484
D. Huijser van Reenenstraat,16,,,9103NE,Dokkum,Dongeradeel,Friesland,VBO,6.013608,53.318546
D. Huijser van Reenenstraat,18,,,9103NE,Dokkum,Dongeradeel,Friesland,VBO,6.013530,53.318578
D. Huijser van Reenenstraat,20,,,9103NE,Dokkum,Dongeradeel,Friesland,VBO,6.013381,53.318639
D. Huijser van Reenenstraat,22,,,9103NE,Dokkum,Dongeradeel,Friesland,VBO,6.013311,53.318671
D. Huijser van Reenenstraat,24,,,9103NE,Dokkum,Dongeradeel,Friesland,VBO,6.013173,53.318726
D. Huijser van Reenenstraat,26,,,9103NE,Dokkum,Dongeradeel,Friesland,VBO,6.013097,53.318755
D. Huijser van Reenenstraat,28,,,9103NE,Dokkum,Dongeradeel,Friesland,VBO,6.012938,53.318825
D. Huijser van Reenenstraat,30,,,9103NE,Dokkum,Dongeradeel,Friesland,VBO,6.012859,53.318948
D. Huijser van Reenenstraat,32,,,9103NE,Dokkum,Dongeradeel,Friesland,VBO,6.012748,53.318996
D. Huijser van Reenenstraat,34,,,9103NE,Dokkum,Dongeradeel,Friesland,VBO,6.012638,53.319043
D. Huijser van Reenenstraat,36,,,9103NE,Dokkum,Dongeradeel,Friesland,VBO,6.012557,53.319088
D. Huijser van Reenenstraat,38,,,9103NE,Dokkum,Dongeradeel,Friesland,VBO,6.012418,53.319240
D. Huijser van Reenenstraat,40,,,9103NE,Dokkum,Dongeradeel,Friesland,VBO,6.012406,53.319319
D. Huijser van Reenenstraat,42,,,9103NE,Dokkum,Dongeradeel,Friesland,VBO,6.012412,53.319403
mr. J.P. Miedemastraat,6,,,9103NG,Dokkum,Dongeradeel,Friesland,VBO,6.013893,53.316619
mr. J.P. Miedemastraat,8,,,9103NG,Dokkum,Dongeradeel,Friesland,VBO,6.013922,53.316651
mr. J.P. Miedemastraat,10,,,9103NG,Dokkum,Dongeradeel,Friesland,VBO,6.014069,53.316792
mr. J.P. Miedemastraat,12,,,9103NG,Dokkum,Dongeradeel,Friesland,VBO,6.014094,53.316827
mr. J.P. Miedemastraat,14,,,9103NG,Dokkum,Dongeradeel,Friesland,VBO,6.014238,53.316971
mr. J.P. Miedemastraat,16,,,9103NG,Dokkum,Dongeradeel,Friesland,VBO,6.014276,53.317003
mr. J.P. Miedemastraat,20,,,9103NG,Dokkum,Dongeradeel,Friesland,VBO,6.014914,53.317550
mr. J.P. Miedemastraat,22,,,9103NG,Dokkum,Dongeradeel,Friesland,VBO,6.014966,53.317604
mr. J.P. Miedemastraat,24,,,9103NG,Dokkum,Dongeradeel,Friesland,VBO,6.015078,53.317708
mr. J.P. Miedemastraat,26,,,9103NG,Dokkum,Dongeradeel,Friesland,VBO,6.015114,53.317769
mr. J.P. Miedemastraat,28,,,9103NG,Dokkum,Dongeradeel,Friesland,VBO,6.015203,53.317889
mr. J.P. Miedemastraat,30,,,9103NG,Dokkum,Dongeradeel,Friesland,VBO,6.015206,53.317953
mr. J.P. Miedemastraat,32,,,9103NG,Dokkum,Dongeradeel,Friesland,VBO,6.015196,53.318071
mr. J.P. Miedemastraat,34,,,9103NG,Dokkum,Dongeradeel,Friesland,VBO,6.015204,53.318143
mr. J.P. Miedemastraat,36,,,9103NG,Dokkum,Dongeradeel,Friesland,VBO,6.015199,53.318258
mr. J.P. Miedemastraat,38,,,9103NG,Dokkum,Dongeradeel,Friesland,VBO,6.015207,53.318328
mr. J.P. Miedemastraat,40,,,9103NG,Dokkum,Dongeradeel,Friesland,VBO,6.014915,53.318855
mr. J.P. Miedemastraat,42,,,9103NG,Dokkum,Dongeradeel,Friesland,VBO,6.014621,53.318949
mr. J.P. Miedemastraat,44,,,9103NG,Dokkum,Dongeradeel,Friesland,VBO,6.014384,53.319041
mr. J.P. Miedemastraat,46,,,9103NG,Dokkum,Dongeradeel,Friesland,VBO,6.014179,53.319126
mr. J.P. Miedemastraat,48,,,9103NG,Dokkum,Dongeradeel,Friesland,VBO,6.014005,53.319196
mr. J.P. Miedemastraat,50,,,9103NG,Dokkum,Dongeradeel,Friesland,VBO,6.013782,53.319303
mr. J.P. Miedemastraat,52,,,9103NG,Dokkum,Dongeradeel,Friesland,VBO,6.013550,53.319395
mr. J.P. Miedemastraat,54,,,9103NG,Dokkum,Dongeradeel,Friesland,VBO,6.013337,53.319488
mr. J.P. Miedemastraat,56,,,9103NG,Dokkum,Dongeradeel,Friesland,VBO,6.013151,53.319566
mr. J.P. Miedemastraat,58,,,9103NG,Dokkum,Dongeradeel,Friesland,VBO,6.012918,53.319603
mr. J.P. Miedemastraat,60,,,9103NG,Dokkum,Dongeradeel,Friesland,VBO,6.012673,53.319606
mr. J.P. Miedemastraat,62,,,9103NG,Dokkum,Dongeradeel,Friesland,VBO,6.012445,53.319608
mr. J.P. Miedemastraat,64,,,9103NG,Dokkum,Dongeradeel,Friesland,VBO,6.012211,53.319608
mr. J.P. Miedemastraat,66,,,9103NG,Dokkum,Dongeradeel,Friesland,VBO,6.011973,53.319615
I. Jousmastraat,2,,,9103NH,Dokkum,Dongeradeel,Friesland,VBO,6.014566,53.317201
I. Jousmastraat,4,,,9103NH,Dokkum,Dongeradeel,Friesland,VBO,6.014743,53.317126
I. Jousmastraat,6,,,9103NH,Dokkum,Dongeradeel,Friesland,VBO,6.014898,53.317058
I. Jousmastraat,8,,,9103NH,Dokkum,Dongeradeel,Friesland,VBO,6.015076,53.316988
J. Wiemersstraat,1,,,9103NJ,Dokkum,Dongeradeel,Friesland,VBO,6.016004,53.318898
J. Wiemersstraat,2,,,9103NJ,Dokkum,Dongeradeel,Friesland,VBO,6.015258,53.318641
J. Wiemersstraat,3,,,9103NJ,Dokkum,Dongeradeel,Friesland,VBO,6.016262,53.319016
J. Wiemersstraat,4,,,9103NJ,Dokkum,Dongeradeel,Friesland,VBO,6.015528,53.318641
J. Wiemersstraat,5,,,9103NJ,Dokkum,Dongeradeel,Friesland,VBO,6.017151,53.318444
J. Wiemersstraat,6,,,9103NJ,Dokkum,Dongeradeel,Friesland,VBO,6.015739,53.318634
J. Wiemersstraat,7,,,9103NJ,Dokkum,Dongeradeel,Friesland,VBO,6.017116,53.318116
J. Wiemersstraat,8,,,9103NJ,Dokkum,Dongeradeel,Friesland,VBO,6.016496,53.318842
J. Wiemersstraat,9,,,9103NJ,Dokkum,Dongeradeel,Friesland,VBO,6.017022,53.317894
J. Wiemersstraat,10,,,9103NJ,Dokkum,Dongeradeel,Friesland,VBO,6.016701,53.318765
J. Wiemersstraat,11,,,9103NJ,Dokkum,Dongeradeel,Friesland,VBO,6.016988,53.317580
J. Wiemersstraat,12,,,9103NJ,Dokkum,Dongeradeel,Friesland,VBO,6.016897,53.318682
J. Wiemersstraat,13,,,9103NJ,Dokkum,Dongeradeel,Friesland,VBO,6.016761,53.317327
J. Wiemersstraat,14,,,9103NJ,Dokkum,Dongeradeel,Friesland,VBO,6.016774,53.318424
J. Wiemersstraat,15,,,9103NJ,Dokkum,Dongeradeel,Friesland,VBO,6.016559,53.317116
J. Wiemersstraat,16,,,9103NJ,Dokkum,Dongeradeel,Friesland,VBO,6.016754,53.318266
J. Wiemersstraat,17,,,9103NJ,Dokkum,Dongeradeel,Friesland,VBO,6.016168,53.316774
J. Wiemersstraat,18,,,9103NJ,Dokkum,Dongeradeel,Friesland,VBO,6.016744,53.318124
J. Wiemersstraat,19,,,9103NJ,Dokkum,Dongeradeel,Friesland,VBO,6.015916,53.316780
J. Wiemersstraat,20,,,9103NJ,Dokkum,Dongeradeel,Friesland,VBO,6.016730,53.317962
J. Wiemersstraat,21,,,9103NJ,Dokkum,Dongeradeel,Friesland,VBO,6.015658,53.316782
J. Wiemersstraat,22,,,9103NJ,Dokkum,Dongeradeel,Friesland,VBO,6.016712,53.317797
J. Wiemersstraat,23,,,9103NJ,Dokkum,Dongeradeel,Friesland,VBO,6.015390,53.316822
J. Wiemersstraat,24,,,9103NJ,Dokkum,Dongeradeel,Friesland,VBO,6.016693,53.317648
J. Wiemersstraat,26,,,9103NJ,Dokkum,Dongeradeel,Friesland,VBO,6.016539,53.317451
J. Wiemersstraat,28,,,9103NJ,Dokkum,Dongeradeel,Friesland,VBO,6.016396,53.317322
J. Wiemersstraat,30,,,9103NJ,Dokkum,Dongeradeel,Friesland,VBO,6.016269,53.317186
Da. A.M.L. Frevelstraat,1,,,9103NK,Dokkum,Dongeradeel,Friesland,VBO,6.016128,53.318618
Da. A.M.L. Frevelstraat,2,,,9103NK,Dokkum,Dongeradeel,Friesland,VBO,6.015844,53.318367
Da. A.M.L. Frevelstraat,3,,,9103NK,Dokkum,Dongeradeel,Friesland,VBO,6.016130,53.318470
Da. A.M.L. Frevelstraat,4,,,9103NK,Dokkum,Dongeradeel,Friesland,VBO,6.015836,53.318300
Da. A.M.L. Frevelstraat,5,,,9103NK,Dokkum,Dongeradeel,Friesland,VBO,6.016131,53.318317
Da. A.M.L. Frevelstraat,6,,,9103NK,Dokkum,Dongeradeel,Friesland,VBO,6.015834,53.318209
Da. A.M.L. Frevelstraat,7,,,9103NK,Dokkum,Dongeradeel,Friesland,VBO,6.016122,53.318203
Da. A.M.L. Frevelstraat,8,,,9103NK,Dokkum,Dongeradeel,Friesland,VBO,6.015821,53.318143
Da. A.M.L. Frevelstraat,9,,,9103NK,Dokkum,Dongeradeel,Friesland,VBO,6.016123,53.318043
Da. A.M.L. Frevelstraat,10,,,9103NK,Dokkum,Dongeradeel,Friesland,VBO,6.015839,53.318034
Da. A.M.L. Frevelstraat,11,,,9103NK,Dokkum,Dongeradeel,Friesland,VBO,6.016130,53.317895
Da. A.M.L. Frevelstraat,12,,,9103NK,Dokkum,Dongeradeel,Friesland,VBO,6.015822,53.317971
Da. A.M.L. Frevelstraat,13,,,9103NK,Dokkum,Dongeradeel,Friesland,VBO,6.016131,53.317744
Da. A.M.L. Frevelstraat,14,,,9103NK,Dokkum,Dongeradeel,Friesland,VBO,6.015825,53.317870
Da. A.M.L. Frevelstraat,15,,,9103NK,Dokkum,Dongeradeel,Friesland,VBO,6.016044,53.317588
Da. A.M.L. Frevelstraat,16,,,9103NK,Dokkum,Dongeradeel,Friesland,VBO,6.015820,53.317812
Da. A.M.L. Frevelstraat,17,,,9103NK,Dokkum,Dongeradeel,Friesland,VBO,6.015915,53.317454
Da. A.M.L. Frevelstraat,18,,,9103NK,Dokkum,Dongeradeel,Friesland,VBO,6.015777,53.317659
Da. A.M.L. Frevelstraat,19,,,9103NK,Dokkum,Dongeradeel,Friesland,VBO,6.015804,53.317342
Da. A.M.L. Frevelstraat,20,,,9103NK,Dokkum,Dongeradeel,Friesland,VBO,6.015734,53.317613
Da. A.M.L. Frevelstraat,21,,,9103NK,Dokkum,Dongeradeel,Friesland,VBO,6.015068,53.316595
Da. A.M.L. Frevelstraat,22,,,9103NK,Dokkum,Dongeradeel,Friesland,VBO,6.015632,53.317525
Da. A.M.L. Frevelstraat,23,,,9103NK,Dokkum,Dongeradeel,Friesland,VBO,6.014906,53.316432
Da. A.M.L. Frevelstraat,24,,,9103NK,Dokkum,Dongeradeel,Friesland,VBO,6.015583,53.317476
Da. A.M.L. Frevelstraat,26,,,9103NK,Dokkum,Dongeradeel,Friesland,VBO,6.015489,53.317382
Da. A.M.L. Frevelstraat,28,,,9103NK,Dokkum,Dongeradeel,Friesland,VBO,6.015442,53.317329
Da. A.M.L. Frevelstraat,30,,,9103NK,Dokkum,Dongeradeel,Friesland,VBO,6.014840,53.316746
Da. A.M.L. Frevelstraat,32,,,9103NK,Dokkum,Dongeradeel,Friesland,VBO,6.014699,53.316601
Da. A.M.L. Frevelstraat,34,,,9103NK,Dokkum,Dongeradeel,Friesland,VBO,6.014527,53.316437
Koaidobbe,2,,,9103NL,Dokkum,Dongeradeel,Friesland,VBO,6.011557,53.314342
Koaidobbe,4,,,9103NL,Dokkum,Dongeradeel,Friesland,VBO,6.011577,53.314171
Koaidobbe,6,,,9103NL,Dokkum,Dongeradeel,Friesland,VBO,6.011576,53.313987
Koaidobbe,8,,,9103NL,Dokkum,Dongeradeel,Friesland,VBO,6.011582,53.313753
Koaidobbe,10,,,9103NL,Dokkum,Dongeradeel,Friesland,VBO,6.011594,53.313568
Koaidobbe,12,,,9103NL,Dokkum,Dongeradeel,Friesland,VBO,6.011660,53.313405
Koaidobbe,14,,,9103NL,Dokkum,Dongeradeel,Friesland,VBO,6.011331,53.313234
Gen. J.P. Gauthierlaan,2,,,9103NM,Dokkum,Dongeradeel,Friesland,VBO,6.013385,53.316224
Gen. J.P. Gauthierlaan,3,,,9103NM,Dokkum,Dongeradeel,Friesland,VBO,6.013589,53.315815
Gen. J.P. Gauthierlaan,4,,,9103NM,Dokkum,Dongeradeel,Friesland,VBO,6.013395,53.316161
Gen. J.P. Gauthierlaan,5,,,9103NM,Dokkum,Dongeradeel,Friesland,VBO,6.013513,53.315687
Gen. J.P. Gauthierlaan,6,,,9103NM,Dokkum,Dongeradeel,Friesland,VBO,6.013365,53.316017
Gen. J.P. Gauthierlaan,7,,,9103NM,Dokkum,Dongeradeel,Friesland,VBO,6.013424,53.315577
Gen. J.P. Gauthierlaan,8,,,9103NM,Dokkum,Dongeradeel,Friesland,VBO,6.013357,53.315952
Gen. J.P. Gauthierlaan,9,,,9103NM,Dokkum,Dongeradeel,Friesland,VBO,6.013300,53.315461
Gen. J.P. Gauthierlaan,10,,,9103NM,Dokkum,Dongeradeel,Friesland,VBO,6.013289,53.315812
Gen. J.P. Gauthierlaan,11,,,9103NM,Dokkum,Dongeradeel,Friesland,VBO,6.013004,53.315253
Gen. J.P. Gauthierlaan,12,,,9103NM,Dokkum,Dongeradeel,Friesland,VBO,6.013256,53.315754
Gen. J.P. Gauthierlaan,13,,,9103NM,Dokkum,Dongeradeel,Friesland,VBO,6.012835,53.315158
Gen. J.P. Gauthierlaan,14,,,9103NM,Dokkum,Dongeradeel,Friesland,VBO,6.013139,53.315621
Gen. J.P. Gauthierlaan,15,,,9103NM,Dokkum,Dongeradeel,Friesland,VBO,6.012594,53.315056
Gen. J.P. Gauthierlaan,16,,,9103NM,Dokkum,Dongeradeel,Friesland,VBO,6.013087,53.315563
Gen. J.P. Gauthierlaan,17,,,9103NM,Dokkum,Dongeradeel,Friesland,VBO,6.012388,53.314988
Gen. J.P. Gauthierlaan,18,,,9103NM,Dokkum,Dongeradeel,Friesland,VBO,6.012934,53.315441
Gen. J.P. Gauthierlaan,20,,,9103NM,Dokkum,Dongeradeel,Friesland,VBO,6.012865,53.315398
Gen. J.P. Gauthierlaan,22,,,9103NM,Dokkum,Dongeradeel,Friesland,VBO,6.012694,53.315303
Gen. J.P. Gauthierlaan,24,,,9103NM,Dokkum,Dongeradeel,Friesland,VBO,6.012610,53.315253
Gen. J.P. Gauthierlaan,26,,,9103NM,Dokkum,Dongeradeel,Friesland,VBO,6.012402,53.315175
Gen. J.P. Gauthierlaan,28,,,9103NM,Dokkum,Dongeradeel,Friesland,VBO,6.012319,53.315146
J. Droststraat,1,,,9103NN,Dokkum,Dongeradeel,Friesland,VBO,6.015362,53.315844
J. Droststraat,2,,,9103NN,Dokkum,Dongeradeel,Friesland,VBO,6.013742,53.316040
J. Droststraat,3,,,9103NN,Dokkum,Dongeradeel,Friesland,VBO,6.015322,53.315588
J. Droststraat,4,,,9103NN,Dokkum,Dongeradeel,Friesland,VBO,6.013970,53.316015
J. Droststraat,5,,,9103NN,Dokkum,Dongeradeel,Friesland,VBO,6.015164,53.315324
J. Droststraat,6,,,9103NN,Dokkum,Dongeradeel,Friesland,VBO,6.014204,53.315988
J. Droststraat,7,,,9103NN,Dokkum,Dongeradeel,Friesland,VBO,6.015001,53.315144
J. Droststraat,8,,,9103NN,Dokkum,Dongeradeel,Friesland,VBO,6.014547,53.315949
J. Droststraat,9,,,9103NN,Dokkum,Dongeradeel,Friesland,VBO,6.014717,53.314869
J. Droststraat,10,,,9103NN,Dokkum,Dongeradeel,Friesland,VBO,6.014791,53.315939
J. Droststraat,11,,,9103NN,Dokkum,Dongeradeel,Friesland,VBO,6.014465,53.314882
J. Droststraat,12,,,9103NN,Dokkum,Dongeradeel,Friesland,VBO,6.015002,53.315923
J. Droststraat,13,,,9103NN,Dokkum,Dongeradeel,Friesland,VBO,6.014095,53.314898
J. Droststraat,14,,,9103NN,Dokkum,Dongeradeel,Friesland,VBO,6.015059,53.315640
J. Droststraat,15,,,9103NN,Dokkum,Dongeradeel,Friesland,VBO,6.013853,53.314902
J. Droststraat,16,,,9103NN,Dokkum,Dongeradeel,Friesland,VBO,6.014925,53.315441
J. Droststraat,18,,,9103NN,Dokkum,Dongeradeel,Friesland,VBO,6.014732,53.315235
J. Droststraat,20,,,9103NN,Dokkum,Dongeradeel,Friesland,VBO,6.014621,53.315113
Gebr. Woudsmastraat,1,,,9103NP,Dokkum,Dongeradeel,Friesland,VBO,6.014470,53.315680
Gebr. Woudsmastraat,3,,,9103NP,Dokkum,Dongeradeel,Friesland,VBO,6.014344,53.315506
Gebr. Woudsmastraat,4,,,9103NP,Dokkum,Dongeradeel,Friesland,VBO,6.014195,53.315731
Gebr. Woudsmastraat,5,,,9103NP,Dokkum,Dongeradeel,Friesland,VBO,6.014231,53.315373
Gebr. Woudsmastraat,6,,,9103NP,Dokkum,Dongeradeel,Friesland,VBO,6.014093,53.315584
Gebr. Woudsmastraat,7,,,9103NP,Dokkum,Dongeradeel,Friesland,VBO,6.014069,53.315211
Gebr. Woudsmastraat,8,,,9103NP,Dokkum,Dongeradeel,Friesland,VBO,6.013960,53.315428
Gebr. Woudsmastraat,9,,,9103NP,Dokkum,Dongeradeel,Friesland,VBO,6.013533,53.314826
Gebr. Woudsmastraat,10,,,9103NP,Dokkum,Dongeradeel,Friesland,VBO,6.013824,53.315285
Gebr. Woudsmastraat,11,,,9103NP,Dokkum,Dongeradeel,Friesland,VBO,6.013345,53.314722
Gebr. Woudsmastraat,12,,,9103NP,Dokkum,Dongeradeel,Friesland,VBO,6.013439,53.315014
Gebr. Woudsmastraat,13,,,9103NP,Dokkum,Dongeradeel,Friesland,VBO,6.013136,53.314629
Gebr. Woudsmastraat,14,,,9103NP,Dokkum,Dongeradeel,Friesland,VBO,6.013285,53.314931
Gebr. Woudsmastraat,16,,,9103NP,Dokkum,Dongeradeel,Friesland,VBO,6.013127,53.314843
Gebr. Woudsmastraat,18,,,9103NP,Dokkum,Dongeradeel,Friesland,VBO,6.012917,53.314752
Gebr. Woudsmastraat,20,,,9103NP,Dokkum,Dongeradeel,Friesland,VBO,6.012767,53.314694
Gebr. Woudsmastraat,22,,,9103NP,Dokkum,Dongeradeel,Friesland,VBO,6.012605,53.314630
D. Hansmastrjitte,1,,,9103NR,Dokkum,Dongeradeel,Friesland,VBO,6.014317,53.314607
D. Hansmastrjitte,2,,,9103NR,Dokkum,Dongeradeel,Friesland,VBO,6.013921,53.314578
D. Hansmastrjitte,3,,,9103NR,Dokkum,Dongeradeel,Friesland,VBO,6.014090,53.314361
D. Hansmastrjitte,4,,,9103NR,Dokkum,Dongeradeel,Friesland,VBO,6.013756,53.314429
D. Hansmastrjitte,5,,,9103NR,Dokkum,Dongeradeel,Friesland,VBO,6.013741,53.314166
D. Hansmastrjitte,6,,,9103NR,Dokkum,Dongeradeel,Friesland,VBO,6.013512,53.314299
D. Hansmastrjitte,7,,,9103NR,Dokkum,Dongeradeel,Friesland,VBO,6.013384,53.313945
D. Hansmastrjitte,8,,,9103NR,Dokkum,Dongeradeel,Friesland,VBO,6.012918,53.314546
D. Hansmastrjitte,9,,,9103NR,Dokkum,Dongeradeel,Friesland,VBO,6.013308,53.314019
D. Hansmastrjitte,11,,,9103NR,Dokkum,Dongeradeel,Friesland,VBO,6.013259,53.314068
D. Hansmastrjitte,13,,,9103NR,Dokkum,Dongeradeel,Friesland,VBO,6.013158,53.314126
D. Hansmastrjitte,15,,,9103NR,Dokkum,Dongeradeel,Friesland,VBO,6.013098,53.314186
D. Hansmastrjitte,17,,,9103NR,Dokkum,Dongeradeel,Friesland,VBO,6.013306,53.313927
D. Hansmastrjitte,19,,,9103NR,Dokkum,Dongeradeel,Friesland,VBO,6.013234,53.313995
D. Hansmastrjitte,21,,,9103NR,Dokkum,Dongeradeel,Friesland,VBO,6.013174,53.314039
D. Hansmastrjitte,23,,,9103NR,Dokkum,Dongeradeel,Friesland,VBO,6.013020,53.314082
D. Hansmastrjitte,25,,,9103NR,Dokkum,Dongeradeel,Friesland,VBO,6.012938,53.314128
K. van Dijkstrjitte,2,,,9103NS,Dokkum,Dongeradeel,Friesland,VBO,6.015297,53.319308
K. van Dijkstrjitte,4,,,9103NS,Dokkum,Dongeradeel,Friesland,VBO,6.015111,53.319397
K. van Dijkstrjitte,6,,,9103NS,Dokkum,Dongeradeel,Friesland,VBO,6.014862,53.319544
K. van Dijkstrjitte,8,,,9103NS,Dokkum,Dongeradeel,Friesland,VBO,6.014651,53.319657
K. van Dijkstrjitte,10,,,9103NS,Dokkum,Dongeradeel,Friesland,VBO,6.014462,53.319739
K. van Dijkstrjitte,12,,,9103NS,Dokkum,Dongeradeel,Friesland,VBO,6.014236,53.319846
K. van Dijkstrjitte,14,,,9103NS,Dokkum,Dongeradeel,Friesland,VBO,6.014102,53.319917
K. van Dijkstrjitte,16,,,9103NS,Dokkum,Dongeradeel,Friesland,VBO,6.013766,53.320037
K. van Dijkstrjitte,18,,,9103NS,Dokkum,Dongeradeel,Friesland,VBO,6.013576,53.320114
K. van Dijkstrjitte,20,,,9103NS,Dokkum,Dongeradeel,Friesland,VBO,6.013389,53.320187
K. van Dijkstrjitte,22,,,9103NS,Dokkum,Dongeradeel,Friesland,VBO,6.013191,53.320268
K. van Dijkstrjitte,24,,,9103NS,Dokkum,Dongeradeel,Friesland,VBO,6.012916,53.320238
K. van Dijkstrjitte,26,,,9103NS,Dokkum,Dongeradeel,Friesland,VBO,6.012589,53.320136
K. van Dijkstrjitte,28,,,9103NS,Dokkum,Dongeradeel,Friesland,VBO,6.012209,53.320125
Sitwâl,1,,,9103PA,Dokkum,Dongeradeel,Friesland,VBO,6.010468,53.314194
Sitwâl,2,,,9103PA,Dokkum,Dongeradeel,Friesland,VBO,6.010620,53.314106
Sitwâl,3,,,9103PA,Dokkum,Dongeradeel,Friesland,VBO,6.010821,53.314124
Sitwâl,4,,,9103PA,Dokkum,Dongeradeel,Friesland,VBO,6.010895,53.314235
Sitwâl,5,,,9103PA,Dokkum,Dongeradeel,Friesland,VBO,6.010883,53.314385
Sitwâl,6,,,9103PA,Dokkum,Dongeradeel,Friesland,VBO,6.010788,53.314493
Sitwâl,7,,,9103PA,Dokkum,Dongeradeel,Friesland,VBO,6.010599,53.314502
Sitwâl,8,,,9103PA,Dokkum,Dongeradeel,Friesland,VBO,6.010422,53.314419
Rinbank,1,,,9103PB,Dokkum,Dongeradeel,Friesland,VBO,6.009643,53.314621
Rinbank,2,,,9103PB,Dokkum,Dongeradeel,Friesland,VBO,6.009920,53.314812
Rinbank,4,,,9103PB,Dokkum,Dongeradeel,Friesland,VBO,6.009566,53.314827
Rinbank,6,,,9103PB,Dokkum,Dongeradeel,Friesland,VBO,6.009321,53.314836
Leide,1,,,9103PC,Dokkum,Dongeradeel,Friesland,VBO,6.009930,53.313681
Leide,2,,,9103PC,Dokkum,Dongeradeel,Friesland,VBO,6.009685,53.313706
Leide,3,,,9103PC,Dokkum,Dongeradeel,Friesland,VBO,6.009565,53.313571
Leide,4,,,9103PC,Dokkum,Dongeradeel,Friesland,VBO,6.009562,53.313433
Leide,5,,,9103PC,Dokkum,Dongeradeel,Friesland,VBO,6.009646,53.313294
Leide,6,,,9103PC,Dokkum,Dongeradeel,Friesland,VBO,6.009961,53.313359
Leide,7,,,9103PC,Dokkum,Dongeradeel,Friesland,VBO,6.010273,53.313434
Leide,8,,,9103PC,Dokkum,Dongeradeel,Friesland,VBO,6.010515,53.313445
Spegel,1,,,9103PD,Dokkum,Dongeradeel,Friesland,VBO,6.010310,53.312907
Spegel,2,,,9103PD,Dokkum,Dongeradeel,Friesland,VBO,6.009992,53.312927
Spegel,3,,,9103PD,Dokkum,Dongeradeel,Friesland,VBO,6.009754,53.312970
Spegel,4,,,9103PD,Dokkum,Dongeradeel,Friesland,VBO,6.009652,53.312833
Spegel,5,,,9103PD,Dokkum,Dongeradeel,Friesland,VBO,6.009656,53.312696
Spegel,6,,,9103PD,Dokkum,Dongeradeel,Friesland,VBO,6.009675,53.312568
Spegel,7,,,9103PD,Dokkum,Dongeradeel,Friesland,VBO,6.009972,53.312623
Spegel,8,,,9103PD,Dokkum,Dongeradeel,Friesland,VBO,6.010375,53.312691
Kouwe,1,A,,9103PE,Dokkum,Dongeradeel,Friesland,VBO,6.011351,53.314838
Kouwe,1,B,,9103PE,Dokkum,Dongeradeel,Friesland,VBO,6.011031,53.314857
Kouwe,1,,,9103PE,Dokkum,Dongeradeel,Friesland,VBO,6.011465,53.314833
Kouwe,2,A,,9103PE,Dokkum,Dongeradeel,Friesland,VBO,6.011366,53.315018
Kouwe,2,B,,9103PE,Dokkum,Dongeradeel,Friesland,VBO,6.011130,53.315036
Kouwe,2,C,,9103PE,Dokkum,Dongeradeel,Friesland,VBO,6.011020,53.315050
Kouwe,2,,,9103PE,Dokkum,Dongeradeel,Friesland,VBO,6.011472,53.315021
Kouwe,3,,,9103PE,Dokkum,Dongeradeel,Friesland,VBO,6.010922,53.314866
Kouwe,4,,,9103PE,Dokkum,Dongeradeel,Friesland,VBO,6.010798,53.315081
Kouwe,5,,,9103PE,Dokkum,Dongeradeel,Friesland,VBO,6.010632,53.314919
Kouwe,6,,,9103PE,Dokkum,Dongeradeel,Friesland,VBO,6.010686,53.315101
Kouwe,7,,,9103PE,Dokkum,Dongeradeel,Friesland,VBO,6.010530,53.314938
Kouwe,8,,,9103PE,Dokkum,Dongeradeel,Friesland,VBO,6.010275,53.315233
Kouwe,9,,,9103PE,Dokkum,Dongeradeel,Friesland,VBO,6.010139,53.315053
Kouwe,10,,,9103PE,Dokkum,Dongeradeel,Friesland,VBO,6.010172,53.315282
Kouwe,11,,,9103PE,Dokkum,Dongeradeel,Friesland,VBO,6.010050,53.315093
Kouwe,12,,,9103PE,Dokkum,Dongeradeel,Friesland,VBO,6.010016,53.315365
Kouwe,13,,,9103PE,Dokkum,Dongeradeel,Friesland,VBO,6.009879,53.315166
Kouwe,14,,,9103PE,Dokkum,Dongeradeel,Friesland,VBO,6.009934,53.315421
Kouwe,15,,,9103PE,Dokkum,Dongeradeel,Friesland,VBO,6.009819,53.315212
Kouwe,16,,,9103PE,Dokkum,Dongeradeel,Friesland,VBO,6.009817,53.315512
Kouwe,17,,,9103PE,Dokkum,Dongeradeel,Friesland,VBO,6.009679,53.315294
Kouwe,18,,,9103PE,Dokkum,Dongeradeel,Friesland,VBO,6.009739,53.315574
Kouwe,19,,,9103PE,Dokkum,Dongeradeel,Friesland,VBO,6.009613,53.315349
Kouwe,20,,,9103PE,Dokkum,Dongeradeel,Friesland,VBO,6.009481,53.315897
Kouwe,21,,,9103PE,Dokkum,Dongeradeel,Friesland,VBO,6.009531,53.315444
Kouwe,22,,,9103PE,Dokkum,Dongeradeel,Friesland,VBO,6.009452,53.315966
Kouwe,23,,,9103PE,Dokkum,Dongeradeel,Friesland,VBO,6.009488,53.315484
Kouwe,24,,,9103PE,Dokkum,Dongeradeel,Friesland,VBO,6.009424,53.316100
Kouwe,26,,,9103PE,Dokkum,Dongeradeel,Friesland,VBO,6.009411,53.316170
Kouwe,28,,,9103PE,Dokkum,Dongeradeel,Friesland,VBO,6.009410,53.316307
Kouwe,30,,,9103PE,Dokkum,Dongeradeel,Friesland,VBO,6.009424,53.316378
Kouwe,32,,,9103PE,Dokkum,Dongeradeel,Friesland,VBO,6.009477,53.316507
Kouwe,34,,,9103PE,Dokkum,Dongeradeel,Friesland,VBO,6.009506,53.316568
Einekoer,1,,,9103PG,Dokkum,Dongeradeel,Friesland,VBO,6.010342,53.315732
Einekoer,2,,,9103PG,Dokkum,Dongeradeel,Friesland,VBO,6.010613,53.315637
Einekoer,3,,,9103PG,Dokkum,Dongeradeel,Friesland,VBO,6.011035,53.315489
Einekoer,4,,,9103PG,Dokkum,Dongeradeel,Friesland,VBO,6.011399,53.315462
Einekoer,5,,,9103PG,Dokkum,Dongeradeel,Friesland,VBO,6.012013,53.315557
Einekoer,6,,,9103PG,Dokkum,Dongeradeel,Friesland,VBO,6.012255,53.315655
Einekoer,7,,,9103PG,Dokkum,Dongeradeel,Friesland,VBO,6.012399,53.315757
Einekoer,8,,,9103PG,Dokkum,Dongeradeel,Friesland,VBO,6.012534,53.315891
Einekoer,9,,,9103PG,Dokkum,Dongeradeel,Friesland,VBO,6.012632,53.316042
Einekoer,10,,,9103PG,Dokkum,Dongeradeel,Friesland,VBO,6.012646,53.316168
Einekoer,11,,,9103PG,Dokkum,Dongeradeel,Friesland,VBO,6.012469,53.316595
Einekoer,12,,,9103PG,Dokkum,Dongeradeel,Friesland,VBO,6.012285,53.316741
Einekoer,13,,,9103PG,Dokkum,Dongeradeel,Friesland,VBO,6.012091,53.316829
Einekoer,14,,,9103PG,Dokkum,Dongeradeel,Friesland,VBO,6.011758,53.316919
Einekoer,15,,,9103PG,Dokkum,Dongeradeel,Friesland,VBO,6.010205,53.316388
Einekoer,16,,,9103PG,Dokkum,Dongeradeel,Friesland,VBO,6.010174,53.316251
Einekoer,17,,,9103PG,Dokkum,Dongeradeel,Friesland,VBO,6.010187,53.316072
Flecht,1,,,9103PH,Dokkum,Dongeradeel,Friesland,VBO,6.010890,53.313870
Flecht,3,,,9103PH,Dokkum,Dongeradeel,Friesland,VBO,6.010895,53.313716
Flecht,4,,,9103PH,Dokkum,Dongeradeel,Friesland,VBO,6.009956,53.314585
Flecht,5,,,9103PH,Dokkum,Dongeradeel,Friesland,VBO,6.010940,53.313537
Flecht,6,,,9103PH,Dokkum,Dongeradeel,Friesland,VBO,6.009971,53.314359
Flecht,8,,,9103PH,Dokkum,Dongeradeel,Friesland,VBO,6.009958,53.314182
Flecht,10,,,9103PH,Dokkum,Dongeradeel,Friesland,VBO,6.009974,53.313998
Flecht,12,,,9103PH,Dokkum,Dongeradeel,Friesland,VBO,6.010234,53.313805
Flecht,14,,,9103PH,Dokkum,Dongeradeel,Friesland,VBO,6.010511,53.313764
Flecht,16,,,9103PH,Dokkum,Dongeradeel,Friesland,VBO,6.010632,53.313223
Flecht,18,,,9103PH,Dokkum,Dongeradeel,Friesland,VBO,6.010634,53.313040
Flecht,20,,,9103PH,Dokkum,Dongeradeel,Friesland,VBO,6.010735,53.312788
Flecht,22,,,9103PH,Dokkum,Dongeradeel,Friesland,VBO,6.011038,53.312900
drs. S. van Tuinenleane,2,,,9103PJ,Dokkum,Dongeradeel,Friesland,VBO,6.011011,53.316974
drs. S. van Tuinenleane,4,,,9103PJ,Dokkum,Dongeradeel,Friesland,VBO,6.010912,53.317223
drs. S. van Tuinenleane,5,,,9103PJ,Dokkum,Dongeradeel,Friesland,VBO,6.010298,53.318598
drs. S. van Tuinenleane,6,,,9103PJ,Dokkum,Dongeradeel,Friesland,VBO,6.010921,53.317393
drs. S. van Tuinenleane,7,,,9103PJ,Dokkum,Dongeradeel,Friesland,VBO,6.010304,53.318664
drs. S. van Tuinenleane,8,,,9103PJ,Dokkum,Dongeradeel,Friesland,VBO,6.010925,53.317538
drs. S. van Tuinenleane,9,,,9103PJ,Dokkum,Dongeradeel,Friesland,VBO,6.010302,53.318765
drs. S. van Tuinenleane,10,,,9103PJ,Dokkum,Dongeradeel,Friesland,VBO,6.010962,53.317691
drs. S. van Tuinenleane,11,,,9103PJ,Dokkum,Dongeradeel,Friesland,VBO,6.010303,53.318828
drs. S. van Tuinenleane,12,,,9103PJ,Dokkum,Dongeradeel,Friesland,VBO,6.010945,53.317840
drs. S. van Tuinenleane,13,,,9103PJ,Dokkum,Dongeradeel,Friesland,VBO,6.010317,53.318921
drs. S. van Tuinenleane,14,,,9103PJ,Dokkum,Dongeradeel,Friesland,VBO,6.010947,53.317982
drs. S. van Tuinenleane,15,,,9103PJ,Dokkum,Dongeradeel,Friesland,VBO,6.010312,53.318997
drs. S. van Tuinenleane,17,,,9103PJ,Dokkum,Dongeradeel,Friesland,VBO,6.010317,53.319114
drs. S. van Tuinenleane,18,,,9103PJ,Dokkum,Dongeradeel,Friesland,VBO,6.010598,53.318659
drs. S. van Tuinenleane,19,,,9103PJ,Dokkum,Dongeradeel,Friesland,VBO,6.010320,53.319166
drs. S. van Tuinenleane,20,,,9103PJ,Dokkum,Dongeradeel,Friesland,VBO,6.010601,53.318718
drs. S. van Tuinenleane,21,,,9103PJ,Dokkum,Dongeradeel,Friesland,VBO,6.010245,53.319401
drs. S. van Tuinenleane,22,,,9103PJ,Dokkum,Dongeradeel,Friesland,VBO,6.010611,53.318829
drs. S. van Tuinenleane,23,,,9103PJ,Dokkum,Dongeradeel,Friesland,VBO,6.009996,53.319428
drs. S. van Tuinenleane,24,,,9103PJ,Dokkum,Dongeradeel,Friesland,VBO,6.010618,53.318887
drs. S. van Tuinenleane,25,,,9103PJ,Dokkum,Dongeradeel,Friesland,VBO,6.009752,53.319433
drs. S. van Tuinenleane,26,,,9103PJ,Dokkum,Dongeradeel,Friesland,VBO,6.010616,53.318989
drs. S. van Tuinenleane,28,,,9103PJ,Dokkum,Dongeradeel,Friesland,VBO,6.010625,53.319056
drs. S. van Tuinenleane,30,,,9103PJ,Dokkum,Dongeradeel,Friesland,VBO,6.010620,53.319166
drs. S. van Tuinenleane,32,,,9103PJ,Dokkum,Dongeradeel,Friesland,VBO,6.010623,53.319217
drs. S. van Tuinenleane,34,,,9103PJ,Dokkum,Dongeradeel,Friesland,VBO,6.010400,53.319663
P.O. Brouwerstraat,1,,,9103PK,Dokkum,Dongeradeel,Friesland,VBO,6.010521,53.317564
P.O. Brouwerstraat,2,,,9103PK,Dokkum,Dongeradeel,Friesland,VBO,6.010610,53.317734
P.O. Brouwerstraat,3,,,9103PK,Dokkum,Dongeradeel,Friesland,VBO,6.010221,53.317575
P.O. Brouwerstraat,4,,,9103PK,Dokkum,Dongeradeel,Friesland,VBO,6.010363,53.317742
P.O. Brouwerstraat,5,,,9103PK,Dokkum,Dongeradeel,Friesland,VBO,6.009944,53.317568
P.O. Brouwerstraat,6,,,9103PK,Dokkum,Dongeradeel,Friesland,VBO,6.010166,53.317750
P.O. Brouwerstraat,7,,,9103PK,Dokkum,Dongeradeel,Friesland,VBO,6.009682,53.317574
P.O. Brouwerstraat,8,,,9103PK,Dokkum,Dongeradeel,Friesland,VBO,6.009941,53.317754
P.O. Brouwerstraat,9,,,9103PK,Dokkum,Dongeradeel,Friesland,VBO,6.009424,53.317580
P.O. Brouwerstraat,10,,,9103PK,Dokkum,Dongeradeel,Friesland,VBO,6.009703,53.317761
P.O. Brouwerstraat,11,,,9103PK,Dokkum,Dongeradeel,Friesland,VBO,6.009137,53.317589
P.O. Brouwerstraat,12,,,9103PK,Dokkum,Dongeradeel,Friesland,VBO,6.009495,53.317761
P.O. Brouwerstraat,14,,,9103PK,Dokkum,Dongeradeel,Friesland,VBO,6.009293,53.317766
P.O. Brouwerstraat,16,,,9103PK,Dokkum,Dongeradeel,Friesland,VBO,6.009025,53.317768
S. van Stratenplein,1,,,9103PL,Dokkum,Dongeradeel,Friesland,VBO,6.010189,53.318382
S. van Stratenplein,2,,,9103PL,Dokkum,Dongeradeel,Friesland,VBO,6.010059,53.318383
S. van Stratenplein,3,,,9103PL,Dokkum,Dongeradeel,Friesland,VBO,6.009863,53.318386
S. van Stratenplein,4,,,9103PL,Dokkum,Dongeradeel,Friesland,VBO,6.009754,53.318385
S. van Stratenplein,5,,,9103PL,Dokkum,Dongeradeel,Friesland,VBO,6.009684,53.318635
S. van Stratenplein,6,,,9103PL,Dokkum,Dongeradeel,Friesland,VBO,6.009695,53.318755
S. van Stratenplein,7,,,9103PL,Dokkum,Dongeradeel,Friesland,VBO,6.009780,53.319052
S. van Stratenplein,8,,,9103PL,Dokkum,Dongeradeel,Friesland,VBO,6.009536,53.319078
S. van Stratenplein,9,,,9103PL,Dokkum,Dongeradeel,Friesland,VBO,6.009281,53.319034
S. van Stratenplein,10,,,9103PL,Dokkum,Dongeradeel,Friesland,VBO,6.009275,53.318871
S. van Stratenplein,11,,,9103PL,Dokkum,Dongeradeel,Friesland,VBO,6.009349,53.318709
S. van Stratenplein,12,,,9103PL,Dokkum,Dongeradeel,Friesland,VBO,6.009372,53.318532
S. van Stratenplein,13,,,9103PL,Dokkum,Dongeradeel,Friesland,VBO,6.009376,53.318403
S. van Stratenplein,14,,,9103PL,Dokkum,Dongeradeel,Friesland,VBO,6.009404,53.318190
S. van Stratenplein,15,,,9103PL,Dokkum,Dongeradeel,Friesland,VBO,6.009621,53.318185
S. van Stratenplein,16,,,9103PL,Dokkum,Dongeradeel,Friesland,VBO,6.009831,53.318182
S. van Stratenplein,17,,,9103PL,Dokkum,Dongeradeel,Friesland,VBO,6.010065,53.318182
S. van Stratenplein,18,,,9103PL,Dokkum,Dongeradeel,Friesland,VBO,6.010274,53.318160
D.J. Kammingastrjitte,1,,,9103PM,Dokkum,Dongeradeel,Friesland,VBO,6.010652,53.318423
D.J. Kammingastrjitte,2,,,9103PM,Dokkum,Dongeradeel,Friesland,VBO,6.010833,53.318238
D.J. Kammingastrjitte,3,,,9103PM,Dokkum,Dongeradeel,Friesland,VBO,6.010916,53.318416
D.J. Kammingastrjitte,4,,,9103PM,Dokkum,Dongeradeel,Friesland,VBO,6.011052,53.318216
D.J. Kammingastrjitte,5,,,9103PM,Dokkum,Dongeradeel,Friesland,VBO,6.011174,53.318409
D.J. Kammingastrjitte,6,,,9103PM,Dokkum,Dongeradeel,Friesland,VBO,6.011317,53.318226
P.G. Obermanstraat,3,,,9103PN,Dokkum,Dongeradeel,Friesland,VBO,6.011262,53.318654
P.G. Obermanstraat,5,,,9103PN,Dokkum,Dongeradeel,Friesland,VBO,6.011266,53.318800
P.G. Obermanstraat,7,,,9103PN,Dokkum,Dongeradeel,Friesland,VBO,6.011270,53.318920
P.G. Obermanstraat,9,,,9103PN,Dokkum,Dongeradeel,Friesland,VBO,6.011282,53.319055
P.G. Obermanstraat,11,,,9103PN,Dokkum,Dongeradeel,Friesland,VBO,6.011282,53.319174
S.E. Wendelaar Bongastrjitte,1,,,9103PP,Dokkum,Dongeradeel,Friesland,VBO,6.010695,53.319617
S.E. Wendelaar Bongastrjitte,2,,,9103PP,Dokkum,Dongeradeel,Friesland,VBO,6.010709,53.319430
S.E. Wendelaar Bongastrjitte,3,,,9103PP,Dokkum,Dongeradeel,Friesland,VBO,6.010918,53.319620
S.E. Wendelaar Bongastrjitte,4,,,9103PP,Dokkum,Dongeradeel,Friesland,VBO,6.010966,53.319441
S.E. Wendelaar Bongastrjitte,5,,,9103PP,Dokkum,Dongeradeel,Friesland,VBO,6.011126,53.319610
S.E. Wendelaar Bongastrjitte,6,,,9103PP,Dokkum,Dongeradeel,Friesland,VBO,6.011219,53.319441
S.E. Wendelaar Bongastrjitte,7,,,9103PP,Dokkum,Dongeradeel,Friesland,VBO,6.011376,53.319614
Bonifatiuspolder,78,,,9103PR,Dokkum,Dongeradeel,Friesland,VBO,6.009047,53.319420
Bonifatiuspolder,80,,,9103PR,Dokkum,Dongeradeel,Friesland,VBO,6.009275,53.319431
Bonifatiuspolder,82,,,9103PR,Dokkum,Dongeradeel,Friesland,VBO,6.009523,53.319435
drs. S. van Tuinenleane,27,,,9103PS,Dokkum,Dongeradeel,Friesland,VBO,6.009252,53.319661
drs. S. van Tuinenleane,29,,,9103PS,Dokkum,Dongeradeel,Friesland,VBO,6.009251,53.319707
drs. S. van Tuinenleane,31,,,9103PS,Dokkum,Dongeradeel,Friesland,VBO,6.009254,53.319830
drs. S. van Tuinenleane,33,,,9103PS,Dokkum,Dongeradeel,Friesland,VBO,6.009255,53.319875
drs. S. van Tuinenleane,35,,,9103PS,Dokkum,Dongeradeel,Friesland,VBO,6.009264,53.319995
drs. S. van Tuinenleane,36,,,9103PS,Dokkum,Dongeradeel,Friesland,VBO,6.010215,53.319723
drs. S. van Tuinenleane,37,,,9103PS,Dokkum,Dongeradeel,Friesland,VBO,6.009269,53.320046
drs. S. van Tuinenleane,38,,,9103PS,Dokkum,Dongeradeel,Friesland,VBO,6.009963,53.319778
drs. S. van Tuinenleane,39,,,9103PS,Dokkum,Dongeradeel,Friesland,VBO,6.009270,53.320158
drs. S. van Tuinenleane,40,,,9103PS,Dokkum,Dongeradeel,Friesland,VBO,6.009564,53.319924
drs. S. van Tuinenleane,41,,,9103PS,Dokkum,Dongeradeel,Friesland,VBO,6.009266,53.320210
drs. S. van Tuinenleane,42,,,9103PS,Dokkum,Dongeradeel,Friesland,VBO,6.009578,53.320058
drs. S. van Tuinenleane,43,,,9103PS,Dokkum,Dongeradeel,Friesland,VBO,6.009269,53.320324
drs. S. van Tuinenleane,44,,,9103PS,Dokkum,Dongeradeel,Friesland,VBO,6.009566,53.320179
drs. S. van Tuinenleane,45,,,9103PS,Dokkum,Dongeradeel,Friesland,VBO,6.009277,53.320374
drs. S. van Tuinenleane,46,,,9103PS,Dokkum,Dongeradeel,Friesland,VBO,6.009594,53.320448
drs. S. van Tuinenleane,47,,,9103PS,Dokkum,Dongeradeel,Friesland,VBO,6.009423,53.320788
drs. S. van Tuinenleane,48,,,9103PS,Dokkum,Dongeradeel,Friesland,VBO,6.009686,53.320607
drs. S. van Tuinenleane,49,,,9103PS,Dokkum,Dongeradeel,Friesland,VBO,6.009429,53.320844
drs. S. van Tuinenleane,50,,,9103PS,Dokkum,Dongeradeel,Friesland,VBO,6.009770,53.320757
drs. S. van Tuinenleane,51,,,9103PS,Dokkum,Dongeradeel,Friesland,VBO,6.009430,53.320951
drs. S. van Tuinenleane,52,,,9103PS,Dokkum,Dongeradeel,Friesland,VBO,6.009744,53.320993
drs. S. van Tuinenleane,53,,,9103PS,Dokkum,Dongeradeel,Friesland,VBO,6.009431,53.321010
drs. S. van Tuinenleane,54,,,9103PS,Dokkum,Dongeradeel,Friesland,VBO,6.009751,53.321179
drs. S. van Tuinenleane,55,,,9103PS,Dokkum,Dongeradeel,Friesland,VBO,6.009434,53.321115
drs. S. van Tuinenleane,57,,,9103PS,Dokkum,Dongeradeel,Friesland,VBO,6.009446,53.321179
drs. S. van Tuinenleane,59,,,9103PS,Dokkum,Dongeradeel,Friesland,VBO,6.009445,53.321294
drs. S. van Tuinenleane,61,,,9103PS,Dokkum,Dongeradeel,Friesland,VBO,6.009446,53.321344
Ds. J.W.B. Cohenstraat,1,,,9103PT,Dokkum,Dongeradeel,Friesland,VBO,6.010017,53.320345
Ds. J.W.B. Cohenstraat,2,,,9103PT,Dokkum,Dongeradeel,Friesland,VBO,6.010020,53.320128
Ds. J.W.B. Cohenstraat,3,,,9103PT,Dokkum,Dongeradeel,Friesland,VBO,6.010224,53.320277
Ds. J.W.B. Cohenstraat,4,,,9103PT,Dokkum,Dongeradeel,Friesland,VBO,6.010233,53.320077
Ds. J.W.B. Cohenstraat,5,,,9103PT,Dokkum,Dongeradeel,Friesland,VBO,6.010544,53.320302
Ds. J.W.B. Cohenstraat,6,,,9103PT,Dokkum,Dongeradeel,Friesland,VBO,6.010444,53.320046
Ds. J.W.B. Cohenstraat,7,,,9103PT,Dokkum,Dongeradeel,Friesland,VBO,6.010691,53.320534
Ds. J.W.B. Cohenstraat,8,,,9103PT,Dokkum,Dongeradeel,Friesland,VBO,6.010703,53.320066
Ds. J.W.B. Cohenstraat,9,,,9103PT,Dokkum,Dongeradeel,Friesland,VBO,6.010442,53.320613
Ds. J.W.B. Cohenstraat,10,,,9103PT,Dokkum,Dongeradeel,Friesland,VBO,6.010887,53.320266
Ds. J.W.B. Cohenstraat,11,,,9103PT,Dokkum,Dongeradeel,Friesland,VBO,6.010205,53.320706
Ds. J.W.B. Cohenstraat,12,,,9103PT,Dokkum,Dongeradeel,Friesland,VBO,6.011142,53.320363
Ds. J.W.B. Cohenstraat,14,,,9103PT,Dokkum,Dongeradeel,Friesland,VBO,6.011233,53.320454
Ds. J.W.B. Cohenstraat,16,,,9103PT,Dokkum,Dongeradeel,Friesland,VBO,6.011208,53.320546
Ds. J.W.B. Cohenstraat,18,,,9103PT,Dokkum,Dongeradeel,Friesland,VBO,6.010940,53.320666
Ds. J.W.B. Cohenstraat,20,,,9103PT,Dokkum,Dongeradeel,Friesland,VBO,6.010659,53.320740
Ds. J.W.B. Cohenstraat,22,,,9103PT,Dokkum,Dongeradeel,Friesland,VBO,6.010465,53.320822
Ds. J.W.B. Cohenstraat,24,,,9103PT,Dokkum,Dongeradeel,Friesland,VBO,6.010225,53.320932
Beukenlaan,2,,,9103RA,Dokkum,Dongeradeel,Friesland,VBO,6.000775,53.314929
Beukenlaan,4,,,9103RA,Dokkum,Dongeradeel,Friesland,VBO,6.000857,53.314932
Beukenlaan,6,,,9103RA,Dokkum,Dongeradeel,Friesland,VBO,6.000949,53.314936
Beukenlaan,8,,,9103RA,Dokkum,Dongeradeel,Friesland,VBO,6.001148,53.314921
Beukenlaan,10,,,9103RA,Dokkum,Dongeradeel,Friesland,VBO,6.001214,53.314913
Beukenlaan,12,,,9103RA,Dokkum,Dongeradeel,Friesland,VBO,6.001302,53.314905
Beukenlaan,14,,,9103RA,Dokkum,Dongeradeel,Friesland,VBO,6.001474,53.314867
Beukenlaan,16,,,9103RA,Dokkum,Dongeradeel,Friesland,VBO,6.001558,53.314840
Beukenlaan,18,,,9103RA,Dokkum,Dongeradeel,Friesland,VBO,6.001631,53.314823
Beukenlaan,20,,,9103RA,Dokkum,Dongeradeel,Friesland,VBO,6.002040,53.314818
Beukenlaan,22,,,9103RA,Dokkum,Dongeradeel,Friesland,VBO,6.002222,53.314883
Beukenlaan,24,,,9103RA,Dokkum,Dongeradeel,Friesland,VBO,6.002623,53.314868
Beukenlaan,26,,,9103RA,Dokkum,Dongeradeel,Friesland,VBO,6.002697,53.314769
Beukenlaan,28,,,9103RA,Dokkum,Dongeradeel,Friesland,VBO,6.002813,53.314683
Beukenlaan,30,,,9103RA,Dokkum,Dongeradeel,Friesland,VBO,6.002953,53.314618
Beukenlaan,32,,,9103RA,Dokkum,Dongeradeel,Friesland,VBO,6.003041,53.314600
Beukenlaan,34,,,9103RA,Dokkum,Dongeradeel,Friesland,VBO,6.003190,53.314586
Beukenlaan,36,,,9103RA,Dokkum,Dongeradeel,Friesland,VBO,6.003289,53.314586
Beukenlaan,38,,,9103RA,Dokkum,Dongeradeel,Friesland,VBO,6.003423,53.314602
Beukenlaan,40,,,9103RA,Dokkum,Dongeradeel,Friesland,VBO,6.003519,53.314627
Beukenlaan,42,,,9103RA,Dokkum,Dongeradeel,Friesland,VBO,6.003650,53.314687
Beukenlaan,44,,,9103RA,Dokkum,Dongeradeel,Friesland,VBO,6.003762,53.314782
Beukenlaan,46,,,9103RB,Dokkum,Dongeradeel,Friesland,VBO,6.003832,53.314879
Beukenlaan,72,,,9103RB,Dokkum,Dongeradeel,Friesland,VBO,6.005398,53.314919
Beukenlaan,74,,,9103RB,Dokkum,Dongeradeel,Friesland,VBO,6.005425,53.314853
Beukenlaan,76,,,9103RB,Dokkum,Dongeradeel,Friesland,VBO,6.005490,53.314776
Beukenlaan,78,,,9103RB,Dokkum,Dongeradeel,Friesland,VBO,6.005549,53.314733
Beukenlaan,80,,,9103RB,Dokkum,Dongeradeel,Friesland,VBO,6.005685,53.314663
Beukenlaan,82,,,9103RB,Dokkum,Dongeradeel,Friesland,VBO,6.005771,53.314642
Beukenlaan,84,,,9103RB,Dokkum,Dongeradeel,Friesland,VBO,6.005950,53.314613
Beukenlaan,86,,,9103RB,Dokkum,Dongeradeel,Friesland,VBO,6.006043,53.314611
Beukenlaan,88,,,9103RB,Dokkum,Dongeradeel,Friesland,VBO,6.006215,53.314633
Beukenlaan,90,,,9103RB,Dokkum,Dongeradeel,Friesland,VBO,6.006309,53.314657
Beukenlaan,92,,,9103RB,Dokkum,Dongeradeel,Friesland,VBO,6.006470,53.314726
Beukenlaan,94,,,9103RB,Dokkum,Dongeradeel,Friesland,VBO,6.006509,53.314767
Beukenlaan,96,,,9103RB,Dokkum,Dongeradeel,Friesland,VBO,6.006599,53.314863
Beukenlaan,98,,,9103RB,Dokkum,Dongeradeel,Friesland,VBO,6.006615,53.314914
Beukenlaan,100,,,9103RB,Dokkum,Dongeradeel,Friesland,VBO,6.007102,53.314992
Beukenlaan,102,,,9103RB,Dokkum,Dongeradeel,Friesland,VBO,6.007187,53.314969
Beukenlaan,104,,,9103RB,Dokkum,Dongeradeel,Friesland,VBO,6.007271,53.314939
Beukenlaan,106,,,9103RB,Dokkum,Dongeradeel,Friesland,VBO,6.007626,53.315011
Beukenlaan,108,,,9103RB,Dokkum,Dongeradeel,Friesland,VBO,6.007705,53.315031
Beukenlaan,110,,,9103RB,Dokkum,Dongeradeel,Friesland,VBO,6.007863,53.315090
Beukenlaan,112,,,9103RB,Dokkum,Dongeradeel,Friesland,VBO,6.007942,53.315111
Beukenlaan,114,,,9103RB,Dokkum,Dongeradeel,Friesland,VBO,6.008016,53.315130
Beukenlaan,116,,,9103RB,Dokkum,Dongeradeel,Friesland,VBO,6.008190,53.315164
Beukenlaan,118,,,9103RB,Dokkum,Dongeradeel,Friesland,VBO,6.008270,53.315173
Beukenlaan,120,,,9103RB,Dokkum,Dongeradeel,Friesland,VBO,6.008352,53.315190
Beukenlaan,122,,,9103RB,Dokkum,Dongeradeel,Friesland,VBO,6.008558,53.315182
Beukenlaan,124,,,9103RB,Dokkum,Dongeradeel,Friesland,VBO,6.008643,53.315180
Elzenlaan,1,,,9103RC,Dokkum,Dongeradeel,Friesland,VBO,6.000973,53.315424
Elzenlaan,3,,,9103RC,Dokkum,Dongeradeel,Friesland,VBO,6.001130,53.315395
Elzenlaan,5,,,9103RC,Dokkum,Dongeradeel,Friesland,VBO,6.001416,53.315319
Elzenlaan,7,,,9103RC,Dokkum,Dongeradeel,Friesland,VBO,6.001967,53.315291
Elzenlaan,9,,,9103RC,Dokkum,Dongeradeel,Friesland,VBO,6.002055,53.315274
Elzenlaan,11,,,9103RC,Dokkum,Dongeradeel,Friesland,VBO,6.002146,53.315257
Elzenlaan,13,,,9103RC,Dokkum,Dongeradeel,Friesland,VBO,6.002228,53.315242
Elzenlaan,15,,,9103RC,Dokkum,Dongeradeel,Friesland,VBO,6.002602,53.315244
Elzenlaan,17,,,9103RC,Dokkum,Dongeradeel,Friesland,VBO,6.002625,53.315296
Elzenlaan,19,,,9103RC,Dokkum,Dongeradeel,Friesland,VBO,6.002677,53.315376
Elzenlaan,21,,,9103RC,Dokkum,Dongeradeel,Friesland,VBO,6.002735,53.315421
Elzenlaan,23,,,9103RC,Dokkum,Dongeradeel,Friesland,VBO,6.002830,53.315486
Elzenlaan,25,,,9103RC,Dokkum,Dongeradeel,Friesland,VBO,6.002901,53.315513
Elzenlaan,27,,,9103RC,Dokkum,Dongeradeel,Friesland,VBO,6.003040,53.315543
Elzenlaan,29,,,9103RC,Dokkum,Dongeradeel,Friesland,VBO,6.003132,53.315556
Elzenlaan,31,,,9103RC,Dokkum,Dongeradeel,Friesland,VBO,6.003268,53.315559
Elzenlaan,33,,,9103RC,Dokkum,Dongeradeel,Friesland,VBO,6.003349,53.315551
Elzenlaan,35,,,9103RC,Dokkum,Dongeradeel,Friesland,VBO,6.003486,53.315526
Elzenlaan,37,,,9103RC,Dokkum,Dongeradeel,Friesland,VBO,6.003568,53.315497
Elzenlaan,39,,,9103RC,Dokkum,Dongeradeel,Friesland,VBO,6.003679,53.315441
Elzenlaan,41,,,9103RC,Dokkum,Dongeradeel,Friesland,VBO,6.003727,53.315402
Elzenlaan,43,,,9103RC,Dokkum,Dongeradeel,Friesland,VBO,6.003804,53.315322
Elzenlaan,45,,,9103RC,Dokkum,Dongeradeel,Friesland,VBO,6.003829,53.315270
Elzenlaan,55,,,9103RD,Dokkum,Dongeradeel,Friesland,VBO,6.005322,53.315291
Elzenlaan,57,,,9103RD,Dokkum,Dongeradeel,Friesland,VBO,6.005341,53.315330
Elzenlaan,59,,,9103RD,Dokkum,Dongeradeel,Friesland,VBO,6.005406,53.315414
Elzenlaan,61,,,9103RD,Dokkum,Dongeradeel,Friesland,VBO,6.005450,53.315466
Elzenlaan,63,,,9103RD,Dokkum,Dongeradeel,Friesland,VBO,6.005549,53.315521
Elzenlaan,65,,,9103RD,Dokkum,Dongeradeel,Friesland,VBO,6.005628,53.315548
Elzenlaan,67,,,9103RD,Dokkum,Dongeradeel,Friesland,VBO,6.005767,53.315587
Elzenlaan,69,,,9103RD,Dokkum,Dongeradeel,Friesland,VBO,6.005844,53.315600
Elzenlaan,71,,,9103RD,Dokkum,Dongeradeel,Friesland,VBO,6.005990,53.315607
Elzenlaan,73,,,9103RD,Dokkum,Dongeradeel,Friesland,VBO,6.006080,53.315601
Elzenlaan,75,,,9103RD,Dokkum,Dongeradeel,Friesland,VBO,6.006227,53.315577
Elzenlaan,77,,,9103RD,Dokkum,Dongeradeel,Friesland,VBO,6.006297,53.315549
Elzenlaan,79,,,9103RD,Dokkum,Dongeradeel,Friesland,VBO,6.006412,53.315493
Elzenlaan,81,,,9103RD,Dokkum,Dongeradeel,Friesland,VBO,6.006473,53.315454
Elzenlaan,83,,,9103RD,Dokkum,Dongeradeel,Friesland,VBO,6.006551,53.315373
Elzenlaan,85,,,9103RD,Dokkum,Dongeradeel,Friesland,VBO,6.006572,53.315329
Elzenlaan,87,,,9103RD,Dokkum,Dongeradeel,Friesland,VBO,6.006998,53.315371
Elzenlaan,89,,,9103RD,Dokkum,Dongeradeel,Friesland,VBO,6.007060,53.315403
Elzenlaan,91,,,9103RD,Dokkum,Dongeradeel,Friesland,VBO,6.007143,53.315442
Elzenlaan,93,,,9103RD,Dokkum,Dongeradeel,Friesland,VBO,6.007547,53.315507
Elzenlaan,95,,,9103RD,Dokkum,Dongeradeel,Friesland,VBO,6.007631,53.315514
Elzenlaan,97,,,9103RD,Dokkum,Dongeradeel,Friesland,VBO,6.007836,53.315511
Elzenlaan,99,,,9103RD,Dokkum,Dongeradeel,Friesland,VBO,6.007914,53.315523
Elzenlaan,101,,,9103RD,Dokkum,Dongeradeel,Friesland,VBO,6.007990,53.315536
Elzenlaan,103,,,9103RD,Dokkum,Dongeradeel,Friesland,VBO,6.008165,53.315573
Elzenlaan,105,,,9103RD,Dokkum,Dongeradeel,Friesland,VBO,6.008240,53.315589
Elzenlaan,107,,,9103RD,Dokkum,Dongeradeel,Friesland,VBO,6.008323,53.315609
Elzenlaan,109,,,9103RD,Dokkum,Dongeradeel,Friesland,VBO,6.008464,53.315659
Elzenlaan,111,,,9103RD,Dokkum,Dongeradeel,Friesland,VBO,6.008542,53.315678
Haagwinde,2,,,9103RE,Dokkum,Dongeradeel,Friesland,VBO,6.004462,53.313692
Haagwinde,6,,,9103RE,Dokkum,Dongeradeel,Friesland,VBO,6.004456,53.313840
Haagwinde,8,,,9103RE,Dokkum,Dongeradeel,Friesland,VBO,6.004443,53.313893
Haagwinde,10,,,9103RE,Dokkum,Dongeradeel,Friesland,VBO,6.004434,53.313941
Haagwinde,12,,,9103RE,Dokkum,Dongeradeel,Friesland,VBO,6.004427,53.313992
Haagwinde,14,,,9103RE,Dokkum,Dongeradeel,Friesland,VBO,6.004398,53.314484
Haagwinde,16,,,9103RE,Dokkum,Dongeradeel,Friesland,VBO,6.004402,53.314543
Haagwinde,18,,,9103RE,Dokkum,Dongeradeel,Friesland,VBO,6.004397,53.314593
Haagwinde,20,,,9103RE,Dokkum,Dongeradeel,Friesland,VBO,6.004394,53.314640
Haagwinde,22,,,9103RE,Dokkum,Dongeradeel,Friesland,VBO,6.004440,53.314720
Haagwinde,24,,,9103RE,Dokkum,Dongeradeel,Friesland,VBO,6.004432,53.314774
Haagwinde,26,,,9103RE,Dokkum,Dongeradeel,Friesland,VBO,6.004426,53.314825
Haagwinde,28,,,9103RE,Dokkum,Dongeradeel,Friesland,VBO,6.004425,53.314877
Haagwinde,30,,,9103RE,Dokkum,Dongeradeel,Friesland,VBO,6.004424,53.314924
Haagwinde,1,,,9103RG,Dokkum,Dongeradeel,Friesland,VBO,6.004930,53.313633
Haagwinde,3,,,9103RG,Dokkum,Dongeradeel,Friesland,VBO,6.004794,53.313748
Haagwinde,5,,,9103RG,Dokkum,Dongeradeel,Friesland,VBO,6.004807,53.313846
Haagwinde,7,,,9103RG,Dokkum,Dongeradeel,Friesland,VBO,6.004850,53.314487
Haagwinde,9,,,9103RG,Dokkum,Dongeradeel,Friesland,VBO,6.004853,53.314532
Haagwinde,11,,,9103RG,Dokkum,Dongeradeel,Friesland,VBO,6.004845,53.314589
Haagwinde,13,,,9103RG,Dokkum,Dongeradeel,Friesland,VBO,6.004846,53.314626
Haagwinde,15,,,9103RG,Dokkum,Dongeradeel,Friesland,VBO,6.004794,53.314701
Haagwinde,17,,,9103RG,Dokkum,Dongeradeel,Friesland,VBO,6.004788,53.314749
Haagwinde,19,,,9103RG,Dokkum,Dongeradeel,Friesland,VBO,6.004782,53.314803
Haagwinde,21,,,9103RG,Dokkum,Dongeradeel,Friesland,VBO,6.004785,53.314848
Haagwinde,23,,,9103RG,Dokkum,Dongeradeel,Friesland,VBO,6.004784,53.314904
Hazelaar,1,,,9103RH,Dokkum,Dongeradeel,Friesland,VBO,6.002218,53.313618
Hazelaar,2,,,9103RH,Dokkum,Dongeradeel,Friesland,VBO,6.002613,53.313469
Hazelaar,3,,,9103RH,Dokkum,Dongeradeel,Friesland,VBO,6.002528,53.313710
Hazelaar,4,,,9103RH,Dokkum,Dongeradeel,Friesland,VBO,6.002887,53.313500
Hazelaar,6,,,9103RH,Dokkum,Dongeradeel,Friesland,VBO,6.003146,53.313523
Hazelaar,7,,,9103RH,Dokkum,Dongeradeel,Friesland,VBO,6.002955,53.313773
Hazelaar,8,,,9103RH,Dokkum,Dongeradeel,Friesland,VBO,6.003360,53.313616
Hazelaar,9,,,9103RH,Dokkum,Dongeradeel,Friesland,VBO,6.002886,53.313823
Hazelaar,10,,,9103RH,Dokkum,Dongeradeel,Friesland,VBO,6.003420,53.313698
Hazelaar,11,,,9103RH,Dokkum,Dongeradeel,Friesland,VBO,6.002831,53.313874
Hazelaar,12,,,9103RH,Dokkum,Dongeradeel,Friesland,VBO,6.003422,53.313851
Hazelaar,14,,,9103RH,Dokkum,Dongeradeel,Friesland,VBO,6.003451,53.313891
Hazelaar,16,,,9103RH,Dokkum,Dongeradeel,Friesland,VBO,6.003478,53.313937
Hazelaar,18,,,9103RH,Dokkum,Dongeradeel,Friesland,VBO,6.003513,53.313982
Hazelaar,20,,,9103RH,Dokkum,Dongeradeel,Friesland,VBO,6.003542,53.314024
Iepenlaan,1,,,9103RJ,Dokkum,Dongeradeel,Friesland,VBO,6.001951,53.314603
Iepenlaan,3,,,9103RJ,Dokkum,Dongeradeel,Friesland,VBO,6.001934,53.314542
Iepenlaan,5,,,9103RJ,Dokkum,Dongeradeel,Friesland,VBO,6.001929,53.314438
Iepenlaan,7,,,9103RJ,Dokkum,Dongeradeel,Friesland,VBO,6.001962,53.314399
Iepenlaan,9,,,9103RJ,Dokkum,Dongeradeel,Friesland,VBO,6.002009,53.314339
Iepenlaan,11,,,9103RJ,Dokkum,Dongeradeel,Friesland,VBO,6.002018,53.314047
Iepenlaan,13,,,9103RJ,Dokkum,Dongeradeel,Friesland,VBO,6.001930,53.314020
Iepenlaan,15,,,9103RJ,Dokkum,Dongeradeel,Friesland,VBO,6.001855,53.314000
Iepenlaan,17,,,9103RJ,Dokkum,Dongeradeel,Friesland,VBO,6.001671,53.313948
Iepenlaan,19,A,,9103RJ,Dokkum,Dongeradeel,Friesland,VBO,6.001578,53.313851
Iepenlaan,19,,,9103RJ,Dokkum,Dongeradeel,Friesland,VBO,6.001622,53.313904
Iepenlaan,21,,,9103RJ,Dokkum,Dongeradeel,Friesland,VBO,6.001590,53.313656
Iepenlaan,23,,,9103RJ,Dokkum,Dongeradeel,Friesland,VBO,6.001737,53.313457
Iepenlaan,25,,,9103RJ,Dokkum,Dongeradeel,Friesland,VBO,6.002454,53.313150
Iepenlaan,27,,,9103RJ,Dokkum,Dongeradeel,Friesland,VBO,6.002742,53.313129
Iepenlaan,29,,,9103RJ,Dokkum,Dongeradeel,Friesland,VBO,6.003050,53.313149
Iepenlaan,31,,,9103RJ,Dokkum,Dongeradeel,Friesland,VBO,6.003377,53.313206
Iepenlaan,33,,,9103RJ,Dokkum,Dongeradeel,Friesland,VBO,6.003647,53.313279
Iepenlaan,35,,,9103RJ,Dokkum,Dongeradeel,Friesland,VBO,6.003956,53.313369
Iepenlaan,37,,,9103RJ,Dokkum,Dongeradeel,Friesland,VBO,6.004286,53.313459
Iepenlaan,39,,,9103RJ,Dokkum,Dongeradeel,Friesland,VBO,6.005210,53.313606
Iepenlaan,41,A,,9103RJ,Dokkum,Dongeradeel,Friesland,VBO,6.005733,53.313584
Iepenlaan,41,,,9103RJ,Dokkum,Dongeradeel,Friesland,VBO,6.005478,53.313588
Iepenlaan,43,,,9103RJ,Dokkum,Dongeradeel,Friesland,VBO,6.006690,53.313584
Iepenlaan,45,,,9103RJ,Dokkum,Dongeradeel,Friesland,VBO,6.007004,53.313585
Iepenlaan,47,,,9103RJ,Dokkum,Dongeradeel,Friesland,VBO,6.007322,53.313636
Iepenlaan,49,,,9103RJ,Dokkum,Dongeradeel,Friesland,VBO,6.007544,53.313734
Iepenlaan,51,,,9103RJ,Dokkum,Dongeradeel,Friesland,VBO,6.007678,53.313944
Iepenlaan,44,,,9103RK,Dokkum,Dongeradeel,Friesland,VBO,6.008036,53.313793
Iepenlaan,46,,,9103RK,Dokkum,Dongeradeel,Friesland,VBO,6.008057,53.313974
Iepenlaan,48,,,9103RK,Dokkum,Dongeradeel,Friesland,VBO,6.008027,53.314105
Iepenlaan,50,,,9103RK,Dokkum,Dongeradeel,Friesland,VBO,6.007884,53.314236
Iepenlaan,52,,,9103RK,Dokkum,Dongeradeel,Friesland,VBO,6.007858,53.314274
Iepenlaan,54,,,9103RK,Dokkum,Dongeradeel,Friesland,VBO,6.007806,53.314337
Iepenlaan,56,,,9103RK,Dokkum,Dongeradeel,Friesland,VBO,6.007770,53.314379
Iepenlaan,58,,,9103RK,Dokkum,Dongeradeel,Friesland,VBO,6.007728,53.314432
Iepenlaan,60,,,9103RK,Dokkum,Dongeradeel,Friesland,VBO,6.007616,53.314616
Iepenlaan,62,,,9103RK,Dokkum,Dongeradeel,Friesland,VBO,6.007613,53.314662
Iepenlaan,64,,,9103RK,Dokkum,Dongeradeel,Friesland,VBO,6.007606,53.314726
Iepenlaan,66,,,9103RK,Dokkum,Dongeradeel,Friesland,VBO,6.007595,53.314777
Iepenlaan,68,,,9103RK,Dokkum,Dongeradeel,Friesland,VBO,6.007591,53.314818
Iepenlaan,2,,,9103RL,Dokkum,Dongeradeel,Friesland,VBO,6.001579,53.314528
Iepenlaan,6,,,9103RL,Dokkum,Dongeradeel,Friesland,VBO,6.001270,53.314135
Iepenlaan,8,,,9103RL,Dokkum,Dongeradeel,Friesland,VBO,6.001188,53.313858
Iepenlaan,10,,,9103RL,Dokkum,Dongeradeel,Friesland,VBO,6.001223,53.313653
Iepenlaan,12,,,9103RL,Dokkum,Dongeradeel,Friesland,VBO,6.001356,53.313430
Iepenlaan,14,,,9103RL,Dokkum,Dongeradeel,Friesland,VBO,6.002552,53.312901
Iepenlaan,16,,,9103RL,Dokkum,Dongeradeel,Friesland,VBO,6.002869,53.312899
Iepenlaan,18,,,9103RL,Dokkum,Dongeradeel,Friesland,VBO,6.003200,53.312935
Iepenlaan,20,,,9103RL,Dokkum,Dongeradeel,Friesland,VBO,6.003594,53.313003
Iepenlaan,22,,,9103RL,Dokkum,Dongeradeel,Friesland,VBO,6.003912,53.313084
Iepenlaan,24,,,9103RL,Dokkum,Dongeradeel,Friesland,VBO,6.004259,53.313184
Iepenlaan,26,,,9103RL,Dokkum,Dongeradeel,Friesland,VBO,6.004539,53.313251
Iepenlaan,28,,,9103RL,Dokkum,Dongeradeel,Friesland,VBO,6.004948,53.313318
Iepenlaan,30,,,9103RL,Dokkum,Dongeradeel,Friesland,VBO,6.005286,53.313326
Iepenlaan,32,,,9103RL,Dokkum,Dongeradeel,Friesland,VBO,6.005681,53.313334
Iepenlaan,34,,,9103RL,Dokkum,Dongeradeel,Friesland,VBO,6.006834,53.313352
Iepenlaan,36,,,9103RL,Dokkum,Dongeradeel,Friesland,VBO,6.007094,53.313356
Iepenlaan,38,,,9103RL,Dokkum,Dongeradeel,Friesland,VBO,6.007549,53.313414
Iepenlaan,40,,,9103RL,Dokkum,Dongeradeel,Friesland,VBO,6.007824,53.313538
Iepenlaan,42,,,9103RL,Dokkum,Dongeradeel,Friesland,VBO,6.008136,53.313560
De Berken,1,,,9103RM,Dokkum,Dongeradeel,Friesland,VBO,6.007997,53.314694
De Berken,2,,,9103RM,Dokkum,Dongeradeel,Friesland,VBO,6.008134,53.314434
De Berken,3,,,9103RM,Dokkum,Dongeradeel,Friesland,VBO,6.008057,53.314704
De Berken,4,,,9103RM,Dokkum,Dongeradeel,Friesland,VBO,6.008192,53.314446
De Berken,5,,,9103RM,Dokkum,Dongeradeel,Friesland,VBO,6.008173,53.314728
De Berken,6,,,9103RM,Dokkum,Dongeradeel,Friesland,VBO,6.008312,53.314468
De Berken,7,,,9103RM,Dokkum,Dongeradeel,Friesland,VBO,6.008232,53.314738
De Berken,8,,,9103RM,Dokkum,Dongeradeel,Friesland,VBO,6.008366,53.314479
De Berken,9,,,9103RM,Dokkum,Dongeradeel,Friesland,VBO,6.008394,53.314781
De Berken,10,,,9103RM,Dokkum,Dongeradeel,Friesland,VBO,6.008513,53.314526
De Berken,11,,,9103RM,Dokkum,Dongeradeel,Friesland,VBO,6.008457,53.314768
De Berken,12,,,9103RM,Dokkum,Dongeradeel,Friesland,VBO,6.008591,53.314540
De Berken,13,,,9103RM,Dokkum,Dongeradeel,Friesland,VBO,6.008557,53.314753
De Berken,14,,,9103RM,Dokkum,Dongeradeel,Friesland,VBO,6.008664,53.314554
De Berken,15,,,9103RM,Dokkum,Dongeradeel,Friesland,VBO,6.008637,53.314739
Zonnedauw,1,,,9103RN,Dokkum,Dongeradeel,Friesland,VBO,6.000993,53.314386
Zonnedauw,2,,,9103RN,Dokkum,Dongeradeel,Friesland,VBO,6.001224,53.314562
Zonnedauw,3,,,9103RN,Dokkum,Dongeradeel,Friesland,VBO,6.001248,53.314347
Zonnedauw,4,,,9103RN,Dokkum,Dongeradeel,Friesland,VBO,6.000926,53.314639
Jasmijn,1,,,9103RP,Dokkum,Dongeradeel,Friesland,VBO,6.002160,53.315960
Jasmijn,3,,,9103RP,Dokkum,Dongeradeel,Friesland,VBO,6.002356,53.316007
Jasmijn,5,,,9103RP,Dokkum,Dongeradeel,Friesland,VBO,6.002436,53.316019
Jasmijn,7,,,9103RP,Dokkum,Dongeradeel,Friesland,VBO,6.002612,53.316054
Jasmijn,9,,,9103RP,Dokkum,Dongeradeel,Friesland,VBO,6.002694,53.316065
Jasmijn,11,,,9103RP,Dokkum,Dongeradeel,Friesland,VBO,6.002874,53.316114
Jasmijn,13,,,9103RP,Dokkum,Dongeradeel,Friesland,VBO,6.002951,53.316146
Jasmijn,15,,,9103RP,Dokkum,Dongeradeel,Friesland,VBO,6.003239,53.316179
Jasmijn,17,,,9103RP,Dokkum,Dongeradeel,Friesland,VBO,6.003361,53.316115
Jasmijn,19,,,9103RP,Dokkum,Dongeradeel,Friesland,VBO,6.003441,53.316095
Jasmijn,21,,,9103RP,Dokkum,Dongeradeel,Friesland,VBO,6.003631,53.316088
Jasmijn,23,,,9103RP,Dokkum,Dongeradeel,Friesland,VBO,6.003717,53.316089
Jasmijn,2,,,9103RR,Dokkum,Dongeradeel,Friesland,VBO,6.002333,53.315744
Jasmijn,4,,,9103RR,Dokkum,Dongeradeel,Friesland,VBO,6.002383,53.315803
Jasmijn,6,,,9103RR,Dokkum,Dongeradeel,Friesland,VBO,6.002499,53.315779
Jasmijn,8,,,9103RR,Dokkum,Dongeradeel,Friesland,VBO,6.002633,53.315865
Jasmijn,10,,,9103RR,Dokkum,Dongeradeel,Friesland,VBO,6.002704,53.315873
Jasmijn,12,,,9103RR,Dokkum,Dongeradeel,Friesland,VBO,6.002803,53.315865
Jasmijn,14,,,9103RR,Dokkum,Dongeradeel,Friesland,VBO,6.002889,53.315871
Jasmijn,16,,,9103RR,Dokkum,Dongeradeel,Friesland,VBO,6.003154,53.315891
Jasmijn,18,,,9103RR,Dokkum,Dongeradeel,Friesland,VBO,6.003246,53.315895
Jasmijn,20,,,9103RR,Dokkum,Dongeradeel,Friesland,VBO,6.003342,53.315916
Jasmijn,22,,,9103RR,Dokkum,Dongeradeel,Friesland,VBO,6.003429,53.315919
Jasmijn,24,,,9103RR,Dokkum,Dongeradeel,Friesland,VBO,6.003633,53.315925
Jasmijn,26,,,9103RR,Dokkum,Dongeradeel,Friesland,VBO,6.003725,53.315915
Jasmijn,28,,,9103RR,Dokkum,Dongeradeel,Friesland,VBO,6.003852,53.315902
Lisdodde,1,,,9103RS,Dokkum,Dongeradeel,Friesland,VBO,6.003235,53.316827
Lisdodde,2,,,9103RS,Dokkum,Dongeradeel,Friesland,VBO,6.003328,53.316817
Lisdodde,3,,,9103RS,Dokkum,Dongeradeel,Friesland,VBO,6.003396,53.316825
Lisdodde,4,,,9103RS,Dokkum,Dongeradeel,Friesland,VBO,6.003480,53.316819
Lisdodde,5,,,9103RS,Dokkum,Dongeradeel,Friesland,VBO,6.003578,53.316831
Lisdodde,6,,,9103RS,Dokkum,Dongeradeel,Friesland,VBO,6.003650,53.316825
Lisdodde,7,,,9103RS,Dokkum,Dongeradeel,Friesland,VBO,6.003727,53.316818
Lisdodde,8,,,9103RS,Dokkum,Dongeradeel,Friesland,VBO,6.003801,53.316809
Lisdodde,9,,,9103RS,Dokkum,Dongeradeel,Friesland,VBO,6.003884,53.316786
Lisdodde,10,,,9103RS,Dokkum,Dongeradeel,Friesland,VBO,6.003963,53.316777
Lisdodde,11,,,9103RS,Dokkum,Dongeradeel,Friesland,VBO,6.003675,53.316532
Lisdodde,12,,,9103RS,Dokkum,Dongeradeel,Friesland,VBO,6.003602,53.316518
Lisdodde,13,,,9103RS,Dokkum,Dongeradeel,Friesland,VBO,6.003521,53.316503
Lisdodde,14,,,9103RS,Dokkum,Dongeradeel,Friesland,VBO,6.003438,53.316492
Lisdodde,15,,,9103RS,Dokkum,Dongeradeel,Friesland,VBO,6.003335,53.316516
Lisdodde,16,,,9103RS,Dokkum,Dongeradeel,Friesland,VBO,6.003252,53.316499
Lisdodde,17,,,9103RS,Dokkum,Dongeradeel,Friesland,VBO,6.002738,53.316529
Lisdodde,18,,,9103RS,Dokkum,Dongeradeel,Friesland,VBO,6.002568,53.316472
Lisdodde,19,,,9103RS,Dokkum,Dongeradeel,Friesland,VBO,6.002360,53.316418
Lisdodde,20,,,9103RS,Dokkum,Dongeradeel,Friesland,VBO,6.002135,53.316370
Lisdodde,21,,,9103RS,Dokkum,Dongeradeel,Friesland,VBO,6.001997,53.316543
Lisdodde,22,,,9103RS,Dokkum,Dongeradeel,Friesland,VBO,6.002066,53.316668
Lisdodde,23,,,9103RS,Dokkum,Dongeradeel,Friesland,VBO,6.002259,53.316736
Lisdodde,24,,,9103RS,Dokkum,Dongeradeel,Friesland,VBO,6.002454,53.316743
Lisdodde,25,,,9103RS,Dokkum,Dongeradeel,Friesland,VBO,6.002671,53.316734
Lijsterbes,1,,,9103RT,Dokkum,Dongeradeel,Friesland,VBO,6.002312,53.314206
Lijsterbes,3,,,9103RT,Dokkum,Dongeradeel,Friesland,VBO,6.002402,53.314193
Lijsterbes,5,,,9103RT,Dokkum,Dongeradeel,Friesland,VBO,6.002534,53.314182
Lijsterbes,7,,,9103RT,Dokkum,Dongeradeel,Friesland,VBO,6.002629,53.314181
Lijsterbes,9,,,9103RT,Dokkum,Dongeradeel,Friesland,VBO,6.002854,53.314174
Lijsterbes,11,,,9103RT,Dokkum,Dongeradeel,Friesland,VBO,6.002939,53.314173
Lijsterbes,13,,,9103RT,Dokkum,Dongeradeel,Friesland,VBO,6.003066,53.314173
Lijsterbes,15,,,9103RT,Dokkum,Dongeradeel,Friesland,VBO,6.003162,53.314185
Lijsterbes,17,,,9103RT,Dokkum,Dongeradeel,Friesland,VBO,6.003395,53.314201
Lijsterbes,19,,,9103RT,Dokkum,Dongeradeel,Friesland,VBO,6.003480,53.314211
Lijsterbes,21,,,9103RT,Dokkum,Dongeradeel,Friesland,VBO,6.003595,53.314222
Lijsterbes,23,,,9103RT,Dokkum,Dongeradeel,Friesland,VBO,6.003690,53.314235
Lijsterbes,25,,,9103RT,Dokkum,Dongeradeel,Friesland,VBO,6.003861,53.314284
Lijsterbes,27,,,9103RT,Dokkum,Dongeradeel,Friesland,VBO,6.003939,53.314295
Lijsterbes,29,,,9103RT,Dokkum,Dongeradeel,Friesland,VBO,6.004019,53.314307
Lijsterbes,31,,,9103RT,Dokkum,Dongeradeel,Friesland,VBO,6.004107,53.314319
Lijsterbes,33,,,9103RT,Dokkum,Dongeradeel,Friesland,VBO,6.004182,53.314329
Lijsterbes,2,,,9103RV,Dokkum,Dongeradeel,Friesland,VBO,6.002226,53.314033
Lijsterbes,4,,,9103RV,Dokkum,Dongeradeel,Friesland,VBO,6.002316,53.314018
Lijsterbes,6,,,9103RV,Dokkum,Dongeradeel,Friesland,VBO,6.002414,53.314004
Lijsterbes,8,,,9103RV,Dokkum,Dongeradeel,Friesland,VBO,6.002551,53.313988
Lijsterbes,10,,,9103RV,Dokkum,Dongeradeel,Friesland,VBO,6.002650,53.313977
Lijsterbes,12,,,9103RV,Dokkum,Dongeradeel,Friesland,VBO,6.002738,53.313972
Lijsterbes,14,,,9103RV,Dokkum,Dongeradeel,Friesland,VBO,6.003816,53.314078
Lijsterbes,16,,,9103RV,Dokkum,Dongeradeel,Friesland,VBO,6.003898,53.314085
Lijsterbes,18,,,9103RV,Dokkum,Dongeradeel,Friesland,VBO,6.003980,53.314090
Lijsterbes,20,,,9103RV,Dokkum,Dongeradeel,Friesland,VBO,6.004061,53.314094
Lijsterbes,22,,,9103RV,Dokkum,Dongeradeel,Friesland,VBO,6.004144,53.314100
Waterranonkel,1,,,9103RW,Dokkum,Dongeradeel,Friesland,VBO,6.004374,53.315269
Waterranonkel,3,,,9103RW,Dokkum,Dongeradeel,Friesland,VBO,6.004372,53.315316
Waterranonkel,5,A,,9103RW,Dokkum,Dongeradeel,Friesland,VBO,6.004362,53.315422
Waterranonkel,5,,,9103RW,Dokkum,Dongeradeel,Friesland,VBO,6.004367,53.315368
Waterranonkel,7,,,9103RW,Dokkum,Dongeradeel,Friesland,VBO,6.004403,53.315492
Waterranonkel,9,,,9103RW,Dokkum,Dongeradeel,Friesland,VBO,6.004402,53.315540
Waterranonkel,11,A,,9103RW,Dokkum,Dongeradeel,Friesland,VBO,6.004395,53.315649
Waterranonkel,11,,,9103RW,Dokkum,Dongeradeel,Friesland,VBO,6.004397,53.315592
Waterranonkel,13,,,9103RW,Dokkum,Dongeradeel,Friesland,VBO,6.004216,53.315720
Waterranonkel,15,,,9103RW,Dokkum,Dongeradeel,Friesland,VBO,6.004214,53.315771
Waterranonkel,17,A,,9103RW,Dokkum,Dongeradeel,Friesland,VBO,6.004219,53.315879
Waterranonkel,17,,,9103RW,Dokkum,Dongeradeel,Friesland,VBO,6.004219,53.315821
Waterranonkel,19,,,9103RW,Dokkum,Dongeradeel,Friesland,VBO,6.004199,53.316104
Waterranonkel,21,,,9103RW,Dokkum,Dongeradeel,Friesland,VBO,6.004217,53.316158
Waterranonkel,23,,,9103RW,Dokkum,Dongeradeel,Friesland,VBO,6.004198,53.316208
Waterranonkel,25,,,9103RW,Dokkum,Dongeradeel,Friesland,VBO,6.004148,53.316284
Waterranonkel,27,,,9103RW,Dokkum,Dongeradeel,Friesland,VBO,6.004155,53.316371
Waterranonkel,29,,,9103RW,Dokkum,Dongeradeel,Friesland,VBO,6.004133,53.316443
Waterranonkel,31,,,9103RW,Dokkum,Dongeradeel,Friesland,VBO,6.004183,53.316508
Waterranonkel,33,,,9103RW,Dokkum,Dongeradeel,Friesland,VBO,6.004201,53.316582
Waterranonkel,35,,,9103RW,Dokkum,Dongeradeel,Friesland,VBO,6.004176,53.316624
Waterranonkel,37,,,9103RW,Dokkum,Dongeradeel,Friesland,VBO,6.004276,53.316748
Waterranonkel,39,,,9103RW,Dokkum,Dongeradeel,Friesland,VBO,6.004379,53.316750
Waterranonkel,2,,,9103RX,Dokkum,Dongeradeel,Friesland,VBO,6.004746,53.315269
Waterranonkel,4,,,9103RX,Dokkum,Dongeradeel,Friesland,VBO,6.004741,53.315323
Waterranonkel,6,A,,9103RX,Dokkum,Dongeradeel,Friesland,VBO,6.004747,53.315420
Waterranonkel,6,,,9103RX,Dokkum,Dongeradeel,Friesland,VBO,6.004751,53.315371
Waterranonkel,8,,,9103RX,Dokkum,Dongeradeel,Friesland,VBO,6.004716,53.315501
Waterranonkel,10,,,9103RX,Dokkum,Dongeradeel,Friesland,VBO,6.004719,53.315553
Waterranonkel,12,A,,9103RX,Dokkum,Dongeradeel,Friesland,VBO,6.004701,53.315658
Waterranonkel,12,,,9103RX,Dokkum,Dongeradeel,Friesland,VBO,6.004714,53.315603
Waterranonkel,14,,,9103RX,Dokkum,Dongeradeel,Friesland,VBO,6.004884,53.315737
Waterranonkel,16,,,9103RX,Dokkum,Dongeradeel,Friesland,VBO,6.004862,53.315787
Waterranonkel,18,A,,9103RX,Dokkum,Dongeradeel,Friesland,VBO,6.004862,53.315890
Waterranonkel,18,,,9103RX,Dokkum,Dongeradeel,Friesland,VBO,6.004859,53.315832
Waterranonkel,20,,,9103RX,Dokkum,Dongeradeel,Friesland,VBO,6.004848,53.316123
Waterranonkel,22,,,9103RX,Dokkum,Dongeradeel,Friesland,VBO,6.004817,53.316169
Waterranonkel,24,,,9103RX,Dokkum,Dongeradeel,Friesland,VBO,6.004838,53.316222
Waterranonkel,26,,,9103RX,Dokkum,Dongeradeel,Friesland,VBO,6.004874,53.316302
Waterranonkel,28,,,9103RX,Dokkum,Dongeradeel,Friesland,VBO,6.004862,53.316385
Waterranonkel,30,,,9103RX,Dokkum,Dongeradeel,Friesland,VBO,6.004866,53.316454
Waterranonkel,32,,,9103RX,Dokkum,Dongeradeel,Friesland,VBO,6.004813,53.316536
Waterranonkel,34,,,9103RX,Dokkum,Dongeradeel,Friesland,VBO,6.004781,53.316590
Waterranonkel,36,,,9103RX,Dokkum,Dongeradeel,Friesland,VBO,6.004811,53.316641
Waterranonkel,38,,,9103RZ,Dokkum,Dongeradeel,Friesland,VBO,6.004669,53.316762
Waterranonkel,40,,,9103RZ,Dokkum,Dongeradeel,Friesland,VBO,6.004570,53.316756
Wilgenlaan,1,,,9103SB,Dokkum,Dongeradeel,Friesland,VBO,6.001615,53.315483
Wilgenlaan,3,,,9103SB,Dokkum,Dongeradeel,Friesland,VBO,6.001443,53.315671
Wilgenlaan,5,,,9103SB,Dokkum,Dongeradeel,Friesland,VBO,6.001331,53.315740
Wilgenlaan,7,,,9103SB,Dokkum,Dongeradeel,Friesland,VBO,6.001175,53.315871
Wilgenlaan,9,,,9103SB,Dokkum,Dongeradeel,Friesland,VBO,6.001027,53.315942
Wilgenlaan,11,,,9103SB,Dokkum,Dongeradeel,Friesland,VBO,6.000972,53.316074
Wilgenlaan,13,,,9103SB,Dokkum,Dongeradeel,Friesland,VBO,6.000977,53.316206
Wilgenlaan,15,,,9103SB,Dokkum,Dongeradeel,Friesland,VBO,6.000962,53.316466
Wilgenlaan,17,,,9103SB,Dokkum,Dongeradeel,Friesland,VBO,6.001010,53.316629
Wilgenlaan,19,,,9103SB,Dokkum,Dongeradeel,Friesland,VBO,6.001102,53.316769
Wilgenlaan,21,,,9103SB,Dokkum,Dongeradeel,Friesland,VBO,6.001252,53.316933
Wilgenlaan,23,,,9103SB,Dokkum,Dongeradeel,Friesland,VBO,6.001350,53.317049
Wilgenlaan,25,,,9103SB,Dokkum,Dongeradeel,Friesland,VBO,6.001406,53.317220
Wilgenlaan,27,,,9103SB,Dokkum,Dongeradeel,Friesland,VBO,6.005216,53.316915
Wilgenlaan,29,,,9103SB,Dokkum,Dongeradeel,Friesland,VBO,6.005302,53.316900
Wilgenlaan,31,,,9103SB,Dokkum,Dongeradeel,Friesland,VBO,6.005524,53.316869
Wilgenlaan,33,,,9103SB,Dokkum,Dongeradeel,Friesland,VBO,6.005603,53.316861
Wilgenlaan,35,,,9103SB,Dokkum,Dongeradeel,Friesland,VBO,6.005830,53.316850
Wilgenlaan,37,,,9103SB,Dokkum,Dongeradeel,Friesland,VBO,6.005913,53.316850
Wilgenlaan,39,,,9103SB,Dokkum,Dongeradeel,Friesland,VBO,6.006137,53.316857
Wilgenlaan,41,,,9103SB,Dokkum,Dongeradeel,Friesland,VBO,6.006225,53.316864
Wilgenlaan,43,,,9103SB,Dokkum,Dongeradeel,Friesland,VBO,6.006446,53.316886
Wilgenlaan,45,,,9103SB,Dokkum,Dongeradeel,Friesland,VBO,6.006527,53.316902
Wilgenlaan,47,,,9103SB,Dokkum,Dongeradeel,Friesland,VBO,6.006701,53.316925
Wilgenlaan,49,,,9103SB,Dokkum,Dongeradeel,Friesland,VBO,6.006792,53.316932
Wilgenlaan,51,,,9103SB,Dokkum,Dongeradeel,Friesland,VBO,6.007770,53.316414
Wilgenlaan,53,,,9103SB,Dokkum,Dongeradeel,Friesland,VBO,6.007765,53.316359
Wilgenlaan,55,,,9103SB,Dokkum,Dongeradeel,Friesland,VBO,6.007769,53.316308
Wilgenlaan,57,,,9103SB,Dokkum,Dongeradeel,Friesland,VBO,6.007775,53.316242
Wilgenlaan,59,,,9103SB,Dokkum,Dongeradeel,Friesland,VBO,6.007771,53.316128
Wilgenlaan,61,,,9103SB,Dokkum,Dongeradeel,Friesland,VBO,6.007754,53.316076
Wilgenlaan,63,,,9103SB,Dokkum,Dongeradeel,Friesland,VBO,6.007753,53.316022
Wilgenlaan,65,,,9103SB,Dokkum,Dongeradeel,Friesland,VBO,6.007721,53.315964
Wilgenlaan,2,,,9103SC,Dokkum,Dongeradeel,Friesland,VBO,6.002002,53.315449
Wilgenlaan,4,,,9103SC,Dokkum,Dongeradeel,Friesland,VBO,6.002003,53.315511
Wilgenlaan,6,,,9103SC,Dokkum,Dongeradeel,Friesland,VBO,6.002000,53.315568
Wilgenlaan,8,,,9103SC,Dokkum,Dongeradeel,Friesland,VBO,6.002055,53.315679
Wilgenlaan,10,,,9103SC,Dokkum,Dongeradeel,Friesland,VBO,6.002128,53.315727
Wilgenlaan,12,A,,9103SC,Dokkum,Dongeradeel,Friesland,VBO,6.001724,53.315989
Wilgenlaan,12,,,9103SC,Dokkum,Dongeradeel,Friesland,VBO,6.001944,53.315944
Wilgenlaan,14,A,,9103SC,Dokkum,Dongeradeel,Friesland,VBO,6.001401,53.316186
Wilgenlaan,14,,,9103SC,Dokkum,Dongeradeel,Friesland,VBO,6.001527,53.316065
Wilgenlaan,16,,,9103SC,Dokkum,Dongeradeel,Friesland,VBO,6.001339,53.316434
Wilgenlaan,18,,,9103SC,Dokkum,Dongeradeel,Friesland,VBO,6.001367,53.316489
Wilgenlaan,20,,,9103SC,Dokkum,Dongeradeel,Friesland,VBO,6.001394,53.316623
Wilgenlaan,22,,,9103SC,Dokkum,Dongeradeel,Friesland,VBO,6.001406,53.316689
Wilgenlaan,24,,,9103SC,Dokkum,Dongeradeel,Friesland,VBO,6.001481,53.316788
Wilgenlaan,26,,,9103SC,Dokkum,Dongeradeel,Friesland,VBO,6.001552,53.316841
Wilgenlaan,28,,,9103SC,Dokkum,Dongeradeel,Friesland,VBO,6.001696,53.316935
Wilgenlaan,30,,,9103SC,Dokkum,Dongeradeel,Friesland,VBO,6.001760,53.316972
Wilgenlaan,32,,,9103SC,Dokkum,Dongeradeel,Friesland,VBO,6.002005,53.317052
Wilgenlaan,34,,,9103SC,Dokkum,Dongeradeel,Friesland,VBO,6.002109,53.317096
Wilgenlaan,36,,,9103SC,Dokkum,Dongeradeel,Friesland,VBO,6.002348,53.317126
Wilgenlaan,38,,,9103SC,Dokkum,Dongeradeel,Friesland,VBO,6.002443,53.317129
Wilgenlaan,40,,,9103SE,Dokkum,Dongeradeel,Friesland,VBO,6.002734,53.317104
Wilgenlaan,42,,,9103SE,Dokkum,Dongeradeel,Friesland,VBO,6.002808,53.317080
Wilgenlaan,44,,,9103SE,Dokkum,Dongeradeel,Friesland,VBO,6.003221,53.317113
Wilgenlaan,46,,,9103SE,Dokkum,Dongeradeel,Friesland,VBO,6.003293,53.317151
Wilgenlaan,48,,,9103SE,Dokkum,Dongeradeel,Friesland,VBO,6.003704,53.317170
Wilgenlaan,50,,,9103SE,Dokkum,Dongeradeel,Friesland,VBO,6.003911,53.317121
Wilgenlaan,52,,,9103SE,Dokkum,Dongeradeel,Friesland,VBO,6.004217,53.317037
Wilgenlaan,54,,,9103SE,Dokkum,Dongeradeel,Friesland,VBO,6.005286,53.316703
Wilgenlaan,56,,,9103SE,Dokkum,Dongeradeel,Friesland,VBO,6.005384,53.316694
Wilgenlaan,58,,,9103SE,Dokkum,Dongeradeel,Friesland,VBO,6.005481,53.316684
Wilgenlaan,60,,,9103SE,Dokkum,Dongeradeel,Friesland,VBO,6.005640,53.316667
Wilgenlaan,62,,,9103SE,Dokkum,Dongeradeel,Friesland,VBO,6.005731,53.316661
Wilgenlaan,64,,,9103SE,Dokkum,Dongeradeel,Friesland,VBO,6.005826,53.316647
Wilgenlaan,66,,,9103SE,Dokkum,Dongeradeel,Friesland,VBO,6.005936,53.316642
Wilgenlaan,68,,,9103SE,Dokkum,Dongeradeel,Friesland,VBO,6.006108,53.316646
Wilgenlaan,70,,,9103SE,Dokkum,Dongeradeel,Friesland,VBO,6.006198,53.316654
Wilgenlaan,72,,,9103SE,Dokkum,Dongeradeel,Friesland,VBO,6.006286,53.316677
Wilgenlaan,74,,,9103SE,Dokkum,Dongeradeel,Friesland,VBO,6.006388,53.316690
Wilgenlaan,76,,,9103SE,Dokkum,Dongeradeel,Friesland,VBO,6.006563,53.316712
Wilgenlaan,78,,,9103SE,Dokkum,Dongeradeel,Friesland,VBO,6.006651,53.316723
Wilgenlaan,80,,,9103SE,Dokkum,Dongeradeel,Friesland,VBO,6.006743,53.316743
Wilgenlaan,82,,,9103SE,Dokkum,Dongeradeel,Friesland,VBO,6.007078,53.316695
Wilgenlaan,84,,,9103SE,Dokkum,Dongeradeel,Friesland,VBO,6.007163,53.316652
Wilgenlaan,86,,,9103SE,Dokkum,Dongeradeel,Friesland,VBO,6.007232,53.316620
Wilgenlaan,88,,,9103SE,Dokkum,Dongeradeel,Friesland,VBO,6.007334,53.316472
Meidoorn,1,,,9103SG,Dokkum,Dongeradeel,Friesland,VBO,6.005049,53.314329
Meidoorn,3,,,9103SG,Dokkum,Dongeradeel,Friesland,VBO,6.005121,53.314321
Meidoorn,5,A,,9103SG,Dokkum,Dongeradeel,Friesland,VBO,6.005290,53.314311
Meidoorn,5,,,9103SG,Dokkum,Dongeradeel,Friesland,VBO,6.005223,53.314317
Meidoorn,7,,,9103SG,Dokkum,Dongeradeel,Friesland,VBO,6.005524,53.314296
Meidoorn,9,,,9103SG,Dokkum,Dongeradeel,Friesland,VBO,6.005597,53.314293
Meidoorn,11,,,9103SG,Dokkum,Dongeradeel,Friesland,VBO,6.005674,53.314286
Meidoorn,13,,,9103SG,Dokkum,Dongeradeel,Friesland,VBO,6.005926,53.314273
Meidoorn,15,,,9103SG,Dokkum,Dongeradeel,Friesland,VBO,6.005993,53.314272
Meidoorn,17,,,9103SG,Dokkum,Dongeradeel,Friesland,VBO,6.006094,53.314269
Meidoorn,19,,,9103SG,Dokkum,Dongeradeel,Friesland,VBO,6.006179,53.314269
Meidoorn,21,,,9103SG,Dokkum,Dongeradeel,Friesland,VBO,6.006428,53.314277
Meidoorn,23,,,9103SG,Dokkum,Dongeradeel,Friesland,VBO,6.006490,53.314292
Meidoorn,25,,,9103SG,Dokkum,Dongeradeel,Friesland,VBO,6.006583,53.314312
Meidoorn,27,,,9103SG,Dokkum,Dongeradeel,Friesland,VBO,6.006664,53.314329
Meidoorn,29,,,9103SG,Dokkum,Dongeradeel,Friesland,VBO,6.006915,53.314407
Meidoorn,31,,,9103SG,Dokkum,Dongeradeel,Friesland,VBO,6.006964,53.314446
Meidoorn,33,,,9103SG,Dokkum,Dongeradeel,Friesland,VBO,6.007031,53.314489
Meidoorn,35,,,9103SG,Dokkum,Dongeradeel,Friesland,VBO,6.007142,53.314569
Meidoorn,37,,,9103SG,Dokkum,Dongeradeel,Friesland,VBO,6.007194,53.314604
Meidoorn,39,,,9103SG,Dokkum,Dongeradeel,Friesland,VBO,6.007267,53.314659
Meidoorn,2,,,9103SH,Dokkum,Dongeradeel,Friesland,VBO,6.004904,53.314044
Meidoorn,4,,,9103SH,Dokkum,Dongeradeel,Friesland,VBO,6.005231,53.314122
Meidoorn,6,,,9103SH,Dokkum,Dongeradeel,Friesland,VBO,6.005451,53.314080
Meidoorn,8,,,9103SH,Dokkum,Dongeradeel,Friesland,VBO,6.005604,53.314069
Meidoorn,10,,,9103SH,Dokkum,Dongeradeel,Friesland,VBO,6.005780,53.314081
Meidoorn,12,,,9103SH,Dokkum,Dongeradeel,Friesland,VBO,6.005922,53.314065
Meidoorn,14,,,9103SH,Dokkum,Dongeradeel,Friesland,VBO,6.006336,53.314044
Meidoorn,16,,,9103SH,Dokkum,Dongeradeel,Friesland,VBO,6.006414,53.314058
Meidoorn,18,,,9103SH,Dokkum,Dongeradeel,Friesland,VBO,6.006584,53.314100
Meidoorn,20,,,9103SH,Dokkum,Dongeradeel,Friesland,VBO,6.006659,53.314114
Meidoorn,22,,,9103SH,Dokkum,Dongeradeel,Friesland,VBO,6.006837,53.314153
Meidoorn,24,,,9103SH,Dokkum,Dongeradeel,Friesland,VBO,6.006905,53.314163
Meidoorn,26,,,9103SH,Dokkum,Dongeradeel,Friesland,VBO,6.007189,53.314208
Meidoorn,28,,,9103SH,Dokkum,Dongeradeel,Friesland,VBO,6.007255,53.314199
Meidoorn,30,,,9103SH,Dokkum,Dongeradeel,Friesland,VBO,6.007437,53.314179
Meidoorn,32,,,9103SH,Dokkum,Dongeradeel,Friesland,VBO,6.007511,53.314170
Wilgenlaan,90,,,9103SJ,Dokkum,Dongeradeel,Friesland,VBO,6.007347,53.316415
Wilgenlaan,92,,,9103SJ,Dokkum,Dongeradeel,Friesland,VBO,6.007365,53.316360
Wilgenlaan,94,,,9103SJ,Dokkum,Dongeradeel,Friesland,VBO,6.007388,53.316305
Wilgenlaan,96,,,9103SJ,Dokkum,Dongeradeel,Friesland,VBO,6.007379,53.316164
Wilgenlaan,98,,,9103SJ,Dokkum,Dongeradeel,Friesland,VBO,6.007352,53.316109
Wilgenlaan,100,,,9103SJ,Dokkum,Dongeradeel,Friesland,VBO,6.007311,53.316059
Wilgenlaan,102,,,9103SJ,Dokkum,Dongeradeel,Friesland,VBO,6.007182,53.315788
Wilgenlaan,104,,,9103SJ,Dokkum,Dongeradeel,Friesland,VBO,6.007158,53.315728
Wilgenlaan,106,,,9103SJ,Dokkum,Dongeradeel,Friesland,VBO,6.007134,53.315672
Wilgenlaan,108,,,9103SJ,Dokkum,Dongeradeel,Friesland,VBO,6.007115,53.315620
Koningsvaren,2,,,9103SK,Dokkum,Dongeradeel,Friesland,VBO,6.007673,53.316569
Koningsvaren,4,,,9103SK,Dokkum,Dongeradeel,Friesland,VBO,6.007739,53.316613
Koningsvaren,6,,,9103SK,Dokkum,Dongeradeel,Friesland,VBO,6.007788,53.316651
Koningsvaren,8,,,9103SK,Dokkum,Dongeradeel,Friesland,VBO,6.008246,53.316660
Koningsvaren,10,,,9103SK,Dokkum,Dongeradeel,Friesland,VBO,6.008315,53.316628
Koningsvaren,12,,,9103SK,Dokkum,Dongeradeel,Friesland,VBO,6.008369,53.316591
Koningsvaren,14,,,9103SK,Dokkum,Dongeradeel,Friesland,VBO,6.008348,53.316417
Koningsvaren,16,,,9103SK,Dokkum,Dongeradeel,Friesland,VBO,6.008359,53.316362
Koningsvaren,18,,,9103SK,Dokkum,Dongeradeel,Friesland,VBO,6.008358,53.316306
Koningsvaren,20,,,9103SK,Dokkum,Dongeradeel,Friesland,VBO,6.008351,53.316254
Koningsvaren,22,,,9103SK,Dokkum,Dongeradeel,Friesland,VBO,6.008367,53.316147
Koningsvaren,24,,,9103SK,Dokkum,Dongeradeel,Friesland,VBO,6.008380,53.316087
Koningsvaren,26,,,9103SK,Dokkum,Dongeradeel,Friesland,VBO,6.008365,53.316033
Koningsvaren,28,,,9103SK,Dokkum,Dongeradeel,Friesland,VBO,6.008379,53.315981
Weegbree,1,,,9103SL,Dokkum,Dongeradeel,Friesland,VBO,6.005313,53.316220
Weegbree,3,,,9103SL,Dokkum,Dongeradeel,Friesland,VBO,6.005394,53.316224
Weegbree,5,,,9103SL,Dokkum,Dongeradeel,Friesland,VBO,6.005482,53.316223
Weegbree,7,,,9103SL,Dokkum,Dongeradeel,Friesland,VBO,6.005583,53.316227
Weegbree,9,,,9103SL,Dokkum,Dongeradeel,Friesland,VBO,6.005777,53.316240
Weegbree,11,,,9103SL,Dokkum,Dongeradeel,Friesland,VBO,6.005850,53.316240
Weegbree,13,,,9103SL,Dokkum,Dongeradeel,Friesland,VBO,6.005947,53.316246
Weegbree,15,,,9103SL,Dokkum,Dongeradeel,Friesland,VBO,6.006029,53.316249
Weegbree,17,,,9103SL,Dokkum,Dongeradeel,Friesland,VBO,6.006224,53.316246
Weegbree,19,,,9103SL,Dokkum,Dongeradeel,Friesland,VBO,6.006310,53.316236
Weegbree,21,,,9103SL,Dokkum,Dongeradeel,Friesland,VBO,6.006413,53.316228
Weegbree,23,,,9103SL,Dokkum,Dongeradeel,Friesland,VBO,6.006506,53.316220
Weegbree,25,,,9103SL,Dokkum,Dongeradeel,Friesland,VBO,6.006694,53.316197
Weegbree,27,,,9103SL,Dokkum,Dongeradeel,Friesland,VBO,6.006761,53.316179
Weegbree,29,,,9103SL,Dokkum,Dongeradeel,Friesland,VBO,6.006847,53.316161
Weegbree,31,,,9103SL,Dokkum,Dongeradeel,Friesland,VBO,6.006926,53.316138
Weegbree,2,,,9103SM,Dokkum,Dongeradeel,Friesland,VBO,6.005251,53.315962
Weegbree,4,,,9103SM,Dokkum,Dongeradeel,Friesland,VBO,6.005354,53.315969
Weegbree,6,,,9103SM,Dokkum,Dongeradeel,Friesland,VBO,6.005442,53.315974
Weegbree,8,,,9103SM,Dokkum,Dongeradeel,Friesland,VBO,6.005523,53.315979
Weegbree,10,,,9103SM,Dokkum,Dongeradeel,Friesland,VBO,6.005673,53.315999
Weegbree,12,,,9103SM,Dokkum,Dongeradeel,Friesland,VBO,6.005778,53.316006
Weegbree,14,,,9103SM,Dokkum,Dongeradeel,Friesland,VBO,6.005859,53.316025
Weegbree,16,,,9103SM,Dokkum,Dongeradeel,Friesland,VBO,6.005968,53.316036
Weegbree,18,,,9103SM,Dokkum,Dongeradeel,Friesland,VBO,6.006160,53.316038
Weegbree,20,,,9103SM,Dokkum,Dongeradeel,Friesland,VBO,6.006248,53.316025
Weegbree,22,,,9103SM,Dokkum,Dongeradeel,Friesland,VBO,6.006339,53.316017
Weegbree,24,,,9103SM,Dokkum,Dongeradeel,Friesland,VBO,6.006428,53.316011
Weegbree,26,,,9103SM,Dokkum,Dongeradeel,Friesland,VBO,6.006613,53.315977
Weegbree,28,,,9103SM,Dokkum,Dongeradeel,Friesland,VBO,6.006679,53.315962
Weegbree,30,,,9103SM,Dokkum,Dongeradeel,Friesland,VBO,6.006770,53.315942
Weegbree,32,,,9103SM,Dokkum,Dongeradeel,Friesland,VBO,6.006850,53.315921
Tolhuispark,1,,,9103SN,Dokkum,Dongeradeel,Friesland,VBO,5.999404,53.314492
Tolhuispark,2,,,9103SN,Dokkum,Dongeradeel,Friesland,VBO,5.997310,53.314961
Tolhuispark,3,,,9103SN,Dokkum,Dongeradeel,Friesland,VBO,5.997591,53.313612
Tolhuispark,5,,,9103SN,Dokkum,Dongeradeel,Friesland,VBO,5.997123,53.313425
Parklaan,2,,,9103SP,Dokkum,Dongeradeel,Friesland,VBO,5.992611,53.316907
Parklaan,4,,,9103SP,Dokkum,Dongeradeel,Friesland,VBO,5.994167,53.316749
Parklaan,6,A,,9103SP,Dokkum,Dongeradeel,Friesland,VBO,5.995146,53.316022
Parklaan,8,,,9103SP,Dokkum,Dongeradeel,Friesland,VBO,5.995439,53.316363
Parklaan,10,,,9103SP,Dokkum,Dongeradeel,Friesland,VBO,5.996115,53.316450
Parklaan,12,,,9103SP,Dokkum,Dongeradeel,Friesland,VBO,6.000265,53.314946
Fonteinkruid,2,,,9103SR,Dokkum,Dongeradeel,Friesland,VBO,6.002895,53.316761
Fonteinkruid,4,,,9103SR,Dokkum,Dongeradeel,Friesland,VBO,6.002977,53.316520
Parklaan,1,,,9103ST,Dokkum,Dongeradeel,Friesland,VBO,5.992506,53.317675
Parklaan,3,,,9103ST,Dokkum,Dongeradeel,Friesland,VBO,5.993598,53.317792
Parklaan,5,,,9103ST,Dokkum,Dongeradeel,Friesland,VBO,5.993395,53.318305
Parklaan,7,,,9103ST,Dokkum,Dongeradeel,Friesland,VBO,5.999666,53.316719
