openbareruimtenaam,huisnummer,huisletter,huisnummertoevoeging,postcode,woonplaatsnaam,gemeentenaam,provincienaam,typeadresseerbaarobject,longitude,latitude
Wjuk,28,,,9145AB,Ternaard,Dongeradeel,Friesland,VBO,5.959803,53.386724
Hollewei,1,,,9145BC,Ternaard,Dongeradeel,Friesland,VBO,5.942869,53.381158
Hollewei,2,,,9145BC,Ternaard,Dongeradeel,Friesland,VBO,5.941278,53.378198
Hollewei,3,,,9145BC,Ternaard,Dongeradeel,Friesland,VBO,5.946062,53.375109
Hollewei,4,,,9145BC,Ternaard,Dongeradeel,Friesland,VBO,5.941466,53.378076
Hollewei,6,,,9145BC,Ternaard,Dongeradeel,Friesland,VBO,5.944831,53.375658
Hollewei,8,,,9145BC,Ternaard,Dongeradeel,Friesland,VBO,5.945004,53.375640
Hollewei,10,,,9145BC,Ternaard,Dongeradeel,Friesland,VBO,5.939960,53.375899
't Skoar,2,,,9145CD,Ternaard,Dongeradeel,Friesland,VBO,5.964147,53.388277
't Skoar,4,,,9145CD,Ternaard,Dongeradeel,Friesland,VBO,5.967485,53.388771
't Skoar,8,,,9145CD,Ternaard,Dongeradeel,Friesland,VBO,5.969662,53.387908
't Skoar,10,,,9145CD,Ternaard,Dongeradeel,Friesland,VBO,5.967644,53.390484
't Skoar,12,,,9145CD,Ternaard,Dongeradeel,Friesland,VBO,5.967880,53.390601
't Skoar,14,,,9145CD,Ternaard,Dongeradeel,Friesland,VBO,5.970608,53.391317
't Skoar,16,,,9145CD,Ternaard,Dongeradeel,Friesland,VBO,5.971962,53.391748
't Skoar,18,,,9145CD,Ternaard,Dongeradeel,Friesland,VBO,5.972256,53.391571
't Skoar,20,,,9145CD,Ternaard,Dongeradeel,Friesland,VBO,5.972765,53.391699
't Skoar,22,,,9145CD,Ternaard,Dongeradeel,Friesland,VBO,5.973120,53.392052
't Skoar,24,A,,9145CD,Ternaard,Dongeradeel,Friesland,VBO,5.974165,53.392027
't Skoar,24,,,9145CD,Ternaard,Dongeradeel,Friesland,VBO,5.974617,53.391693
't Skoar,26,,,9145CD,Ternaard,Dongeradeel,Friesland,VBO,5.974186,53.392352
't Skoar,28,A,,9145CD,Ternaard,Dongeradeel,Friesland,VBO,5.974608,53.392507
't Skoar,28,,,9145CD,Ternaard,Dongeradeel,Friesland,VBO,5.974324,53.392441
't Skoar,30,,,9145CD,Ternaard,Dongeradeel,Friesland,VBO,5.974941,53.392626
't Skoar,32,,,9145CD,Ternaard,Dongeradeel,Friesland,VBO,5.976017,53.392835
't Skoar,34,,,9145CD,Ternaard,Dongeradeel,Friesland,VBO,5.980149,53.389456
't Skoar,38,,,9145CD,Ternaard,Dongeradeel,Friesland,VBO,5.977664,53.393296
't Skoar,40,,,9145CD,Ternaard,Dongeradeel,Friesland,VBO,5.977984,53.393447
't Skoar,42,,,9145CD,Ternaard,Dongeradeel,Friesland,VBO,5.979508,53.393853
Nesserwei,1,B,,9145CE,Ternaard,Dongeradeel,Friesland,VBO,5.967260,53.383857
Nesserwei,1,,,9145CE,Ternaard,Dongeradeel,Friesland,VBO,5.971883,53.385092
Nesserwei,5,,,9145CE,Ternaard,Dongeradeel,Friesland,VBO,5.973178,53.385143
Nesserwei,9,,,9145CE,Ternaard,Dongeradeel,Friesland,VBO,5.981431,53.385664
Nesserwei,11,,,9145CE,Ternaard,Dongeradeel,Friesland,VBO,5.987483,53.385582
Nesserwei,13,,,9145CE,Ternaard,Dongeradeel,Friesland,VBO,5.991544,53.384702
Nesserwei,15,,,9145CE,Ternaard,Dongeradeel,Friesland,VBO,5.991627,53.384693
Nesserwei,17,,,9145CE,Ternaard,Dongeradeel,Friesland,VBO,5.999847,53.385711
Nesserwei,21,,,9145CE,Ternaard,Dongeradeel,Friesland,VBO,6.000215,53.385872
Nesserwei,2,,K002,9145CG,Ternaard,Dongeradeel,Friesland,VBO,5.968268,53.382252
Nesserwei,2,,K003,9145CG,Ternaard,Dongeradeel,Friesland,VBO,5.968208,53.382244
Nesserwei,2,,K004,9145CG,Ternaard,Dongeradeel,Friesland,VBO,5.968148,53.382235
Nesserwei,2,,K005,9145CG,Ternaard,Dongeradeel,Friesland,VBO,5.968103,53.382226
Nesserwei,2,,K006,9145CG,Ternaard,Dongeradeel,Friesland,VBO,5.968042,53.382218
Nesserwei,2,,K007,9145CG,Ternaard,Dongeradeel,Friesland,VBO,5.967982,53.382209
Nesserwei,2,,K008,9145CG,Ternaard,Dongeradeel,Friesland,VBO,5.967937,53.382200
Nesserwei,2,,K009,9145CG,Ternaard,Dongeradeel,Friesland,VBO,5.967877,53.382191
Nesserwei,2,,K010,9145CG,Ternaard,Dongeradeel,Friesland,VBO,5.967817,53.382192
Nesserwei,2,,K011,9145CG,Ternaard,Dongeradeel,Friesland,VBO,5.967756,53.382183
Nesserwei,2,,K012,9145CG,Ternaard,Dongeradeel,Friesland,VBO,5.967711,53.382174
Nesserwei,2,,K017,9145CG,Ternaard,Dongeradeel,Friesland,VBO,5.968240,53.382405
Nesserwei,2,,K018,9145CG,Ternaard,Dongeradeel,Friesland,VBO,5.968211,53.382477
Nesserwei,2,,K019,9145CG,Ternaard,Dongeradeel,Friesland,VBO,5.968197,53.382522
Nesserwei,2,,K020,9145CG,Ternaard,Dongeradeel,Friesland,VBO,5.968182,53.382549
Nesserwei,2,,K021,9145CG,Ternaard,Dongeradeel,Friesland,VBO,5.968167,53.382576
Nesserwei,2,,K022,9145CG,Ternaard,Dongeradeel,Friesland,VBO,5.968168,53.382603
Nesserwei,2,,K023,9145CG,Ternaard,Dongeradeel,Friesland,VBO,5.968153,53.382630
Nesserwei,2,,K024,9145CG,Ternaard,Dongeradeel,Friesland,VBO,5.968138,53.382648
Nesserwei,2,,K025,9145CG,Ternaard,Dongeradeel,Friesland,VBO,5.968124,53.382675
Nesserwei,2,,K026,9145CG,Ternaard,Dongeradeel,Friesland,VBO,5.968109,53.382720
Nesserwei,2,,K027,9145CG,Ternaard,Dongeradeel,Friesland,VBO,5.968335,53.382782
Nesserwei,2,,K028,9145CG,Ternaard,Dongeradeel,Friesland,VBO,5.968350,53.382755
Nesserwei,2,,K029,9145CG,Ternaard,Dongeradeel,Friesland,VBO,5.968365,53.382719
Nesserwei,2,,K030,9145CG,Ternaard,Dongeradeel,Friesland,VBO,5.968379,53.382683
Nesserwei,2,,K031,9145CG,Ternaard,Dongeradeel,Friesland,VBO,5.968394,53.382638
Nesserwei,2,,K032,9145CG,Ternaard,Dongeradeel,Friesland,VBO,5.968408,53.382611
Nesserwei,2,,K033,9145CG,Ternaard,Dongeradeel,Friesland,VBO,5.968423,53.382584
Nesserwei,2,,K034,9145CG,Ternaard,Dongeradeel,Friesland,VBO,5.968423,53.382557
Nesserwei,2,,K102,9145CG,Ternaard,Dongeradeel,Friesland,VBO,5.968268,53.382261
Nesserwei,2,,K103,9145CG,Ternaard,Dongeradeel,Friesland,VBO,5.968193,53.382262
Nesserwei,2,,K104,9145CG,Ternaard,Dongeradeel,Friesland,VBO,5.968148,53.382262
Nesserwei,2,,K105,9145CG,Ternaard,Dongeradeel,Friesland,VBO,5.968088,53.382253
Nesserwei,2,,K106,9145CG,Ternaard,Dongeradeel,Friesland,VBO,5.968028,53.382245
Nesserwei,2,,K107,9145CG,Ternaard,Dongeradeel,Friesland,VBO,5.967967,53.382236
Nesserwei,2,,K108,9145CG,Ternaard,Dongeradeel,Friesland,VBO,5.967922,53.382227
Nesserwei,2,,K109,9145CG,Ternaard,Dongeradeel,Friesland,VBO,5.967862,53.382218
Nesserwei,2,,K110,9145CG,Ternaard,Dongeradeel,Friesland,VBO,5.967802,53.382201
Nesserwei,2,,K111,9145CG,Ternaard,Dongeradeel,Friesland,VBO,5.967742,53.382210
Nesserwei,2,,K112,9145CG,Ternaard,Dongeradeel,Friesland,VBO,5.967697,53.382210
Nesserwei,2,,K115,9145CG,Ternaard,Dongeradeel,Friesland,VBO,5.968270,53.382396
Nesserwei,2,,K116,9145CG,Ternaard,Dongeradeel,Friesland,VBO,5.968255,53.382423
Nesserwei,2,,K117,9145CG,Ternaard,Dongeradeel,Friesland,VBO,5.968256,53.382468
Nesserwei,2,,K118,9145CG,Ternaard,Dongeradeel,Friesland,VBO,5.968242,53.382504
Nesserwei,2,,K119,9145CG,Ternaard,Dongeradeel,Friesland,VBO,5.968242,53.382522
Nesserwei,2,,K120,9145CG,Ternaard,Dongeradeel,Friesland,VBO,5.968212,53.382549
Nesserwei,2,,K121,9145CG,Ternaard,Dongeradeel,Friesland,VBO,5.968212,53.382576
Nesserwei,2,,K122,9145CG,Ternaard,Dongeradeel,Friesland,VBO,5.968213,53.382603
Nesserwei,2,,K123,9145CG,Ternaard,Dongeradeel,Friesland,VBO,5.968183,53.382630
Nesserwei,2,,K124,9145CG,Ternaard,Dongeradeel,Friesland,VBO,5.968184,53.382657
Nesserwei,2,,K125,9145CG,Ternaard,Dongeradeel,Friesland,VBO,5.968169,53.382684
Nesserwei,2,,K126,9145CG,Ternaard,Dongeradeel,Friesland,VBO,5.968154,53.382729
Nesserwei,2,,K127,9145CG,Ternaard,Dongeradeel,Friesland,VBO,5.968290,53.382774
Nesserwei,2,,K128,9145CG,Ternaard,Dongeradeel,Friesland,VBO,5.968290,53.382747
Nesserwei,2,,K129,9145CG,Ternaard,Dongeradeel,Friesland,VBO,5.968319,53.382710
Nesserwei,2,,K130,9145CG,Ternaard,Dongeradeel,Friesland,VBO,5.968319,53.382675
Nesserwei,2,,K131,9145CG,Ternaard,Dongeradeel,Friesland,VBO,5.968333,53.382630
Nesserwei,2,,K132,9145CG,Ternaard,Dongeradeel,Friesland,VBO,5.968363,53.382602
Nesserwei,2,,K133,9145CG,Ternaard,Dongeradeel,Friesland,VBO,5.968363,53.382575
Nesserwei,2,,K134,9145CG,Ternaard,Dongeradeel,Friesland,VBO,5.968362,53.382540
Nesserwei,2,,K136,9145CG,Ternaard,Dongeradeel,Friesland,VBO,5.968388,53.382198
Nesserwei,2,,K137,9145CG,Ternaard,Dongeradeel,Friesland,VBO,5.968387,53.382171
Nesserwei,2,,K138,9145CG,Ternaard,Dongeradeel,Friesland,VBO,5.968402,53.382144
Nesserwei,2,,K139,9145CG,Ternaard,Dongeradeel,Friesland,VBO,5.968417,53.382126
Nesserwei,2,,K140,9145CG,Ternaard,Dongeradeel,Friesland,VBO,5.968431,53.382099
Nesserwei,2,,K141,9145CG,Ternaard,Dongeradeel,Friesland,VBO,5.968431,53.382072
Nesserwei,2,,K142,9145CG,Ternaard,Dongeradeel,Friesland,VBO,5.968446,53.382054
Nesserwei,2,,K143,9145CG,Ternaard,Dongeradeel,Friesland,VBO,5.968461,53.382036
Nesserwei,2,,K149,9145CG,Ternaard,Dongeradeel,Friesland,VBO,5.968642,53.382080
Nesserwei,2,,K150,9145CG,Ternaard,Dongeradeel,Friesland,VBO,5.968613,53.382161
Nesserwei,2,,,9145CG,Ternaard,Dongeradeel,Friesland,VBO,5.968200,53.382801
Nesserwei,4,,,9145CH,Ternaard,Dongeradeel,Friesland,VBO,5.968594,53.383190
Nesserwei,6,,,9145CH,Ternaard,Dongeradeel,Friesland,VBO,5.968789,53.383210
Nesserwei,8,,,9145CH,Ternaard,Dongeradeel,Friesland,VBO,5.968975,53.383297
Nesserwei,10,,,9145CH,Ternaard,Dongeradeel,Friesland,VBO,5.969158,53.383352
Nesserwei,12,,,9145CH,Ternaard,Dongeradeel,Friesland,VBO,5.969555,53.383437
Nesserwei,16,,,9145CH,Ternaard,Dongeradeel,Friesland,VBO,5.970807,53.383665
Nesserwei,22,,,9145CH,Ternaard,Dongeradeel,Friesland,VBO,5.990282,53.384775
Nesserwei,24,,,9145CH,Ternaard,Dongeradeel,Friesland,VBO,5.997511,53.384294
Nesserwei,26,A,,9145CH,Ternaard,Dongeradeel,Friesland,VBO,6.009220,53.385417
Nesserwei,26,,,9145CH,Ternaard,Dongeradeel,Friesland,VBO,6.009566,53.385424
Langewei,1,,,9145CJ,Ternaard,Dongeradeel,Friesland,VBO,5.984548,53.380183
Seepmawei,1,,,9145CK,Ternaard,Dongeradeel,Friesland,VBO,5.967042,53.377235
Seepmawei,2,,,9145CK,Ternaard,Dongeradeel,Friesland,VBO,5.974066,53.377152
Seepmawei,4,,,9145CK,Ternaard,Dongeradeel,Friesland,VBO,5.980778,53.380448
Hantumerwei,1,A,,9145CL,Ternaard,Dongeradeel,Friesland,VBO,5.965111,53.377712
Hantumerwei,1,B,,9145CL,Ternaard,Dongeradeel,Friesland,VBO,5.965397,53.377729
Hantumerwei,1,,,9145CL,Ternaard,Dongeradeel,Friesland,VBO,5.964381,53.377620
Hantumerwei,2,,,9145CL,Ternaard,Dongeradeel,Friesland,VBO,5.963959,53.377783
Hantumerwei,3,,,9145CL,Ternaard,Dongeradeel,Friesland,VBO,5.964451,53.377382
Hantumerwei,4,,,9145CL,Ternaard,Dongeradeel,Friesland,VBO,5.964063,53.377514
Hantumerwei,5,,,9145CL,Ternaard,Dongeradeel,Friesland,VBO,5.964590,53.377238
Hantumerwei,7,,,9145CL,Ternaard,Dongeradeel,Friesland,VBO,5.964892,53.377039
Hantumerwei,8,,,9145CL,Ternaard,Dongeradeel,Friesland,VBO,5.964082,53.377436
Hantumerwei,9,,,9145CL,Ternaard,Dongeradeel,Friesland,VBO,5.965293,53.376787
Hantumerwei,10,,,9145CL,Ternaard,Dongeradeel,Friesland,VBO,5.962189,53.376613
Hantumerwei,11,,,9145CL,Ternaard,Dongeradeel,Friesland,VBO,5.966005,53.376434
Hantumerwei,15,,,9145CL,Ternaard,Dongeradeel,Friesland,VBO,5.966609,53.374441
Hantumerwei,19,,,9145CL,Ternaard,Dongeradeel,Friesland,VBO,5.967275,53.373262
Hantumerwei,21,,,9145CL,Ternaard,Dongeradeel,Friesland,VBO,5.968211,53.371366
De Streng,2,,,9145PA,Ternaard,Dongeradeel,Friesland,VBO,5.956185,53.382202
De Streng,4,,,9145PA,Ternaard,Dongeradeel,Friesland,VBO,5.955648,53.382461
De Streng,6,,,9145PA,Ternaard,Dongeradeel,Friesland,VBO,5.955310,53.382485
De Streng,8,,,9145PA,Ternaard,Dongeradeel,Friesland,VBO,5.954838,53.382586
Wjuk,1,,,9145RA,Ternaard,Dongeradeel,Friesland,VBO,5.962042,53.382946
Wjuk,3,,,9145RA,Ternaard,Dongeradeel,Friesland,VBO,5.962084,53.383123
Wjuk,5,,,9145RA,Ternaard,Dongeradeel,Friesland,VBO,5.962026,53.383253
Wjuk,7,,,9145RA,Ternaard,Dongeradeel,Friesland,VBO,5.961753,53.383186
Wjuk,9,,,9145RA,Ternaard,Dongeradeel,Friesland,VBO,5.961608,53.383198
Wjuk,13,,,9145RA,Ternaard,Dongeradeel,Friesland,VBO,5.961340,53.383189
Wjuk,15,,,9145RA,Ternaard,Dongeradeel,Friesland,VBO,5.961284,53.383248
Wjuk,17,,,9145RA,Ternaard,Dongeradeel,Friesland,VBO,5.961388,53.383263
Wjuk,19,,,9145RA,Ternaard,Dongeradeel,Friesland,VBO,5.961543,53.383276
Wjuk,21,,,9145RA,Ternaard,Dongeradeel,Friesland,VBO,5.961722,53.383294
Wjuk,23,,,9145RA,Ternaard,Dongeradeel,Friesland,VBO,5.961988,53.383384
Wjuk,25,,,9145RA,Ternaard,Dongeradeel,Friesland,VBO,5.961934,53.383473
Wjuk,27,,,9145RA,Ternaard,Dongeradeel,Friesland,VBO,5.961866,53.383599
Wjuk,29,,,9145RA,Ternaard,Dongeradeel,Friesland,VBO,5.961796,53.383713
Wjuk,31,,,9145RA,Ternaard,Dongeradeel,Friesland,VBO,5.961727,53.383826
Wjuk,33,,,9145RA,Ternaard,Dongeradeel,Friesland,VBO,5.961683,53.383914
Wjuk,37,,,9145RA,Ternaard,Dongeradeel,Friesland,VBO,5.961613,53.384009
Wjuk,39,,,9145RA,Ternaard,Dongeradeel,Friesland,VBO,5.961435,53.384228
Wjuk,41,,,9145RA,Ternaard,Dongeradeel,Friesland,VBO,5.961334,53.384447
Wjuk,2,,,9145RB,Ternaard,Dongeradeel,Friesland,VBO,5.962443,53.383146
Wjuk,4,,,9145RB,Ternaard,Dongeradeel,Friesland,VBO,5.962403,53.383238
Wjuk,6,,,9145RB,Ternaard,Dongeradeel,Friesland,VBO,5.962359,53.383337
Wjuk,8,,,9145RB,Ternaard,Dongeradeel,Friesland,VBO,5.962309,53.383426
Wjuk,10,,,9145RB,Ternaard,Dongeradeel,Friesland,VBO,5.962255,53.383508
Wjuk,12,,,9145RB,Ternaard,Dongeradeel,Friesland,VBO,5.962199,53.383595
Wjuk,14,,,9145RB,Ternaard,Dongeradeel,Friesland,VBO,5.962155,53.383683
Wjuk,16,,,9145RB,Ternaard,Dongeradeel,Friesland,VBO,5.962081,53.383777
Wjuk,18,,,9145RB,Ternaard,Dongeradeel,Friesland,VBO,5.962038,53.383850
Wjuk,22,,,9145RB,Ternaard,Dongeradeel,Friesland,VBO,5.961948,53.383998
Wjuk,24,,,9145RB,Ternaard,Dongeradeel,Friesland,VBO,5.961763,53.384319
Wjuk,26,,,9145RB,Ternaard,Dongeradeel,Friesland,VBO,5.961656,53.384577
Koaiwei,1,,,9145RC,Ternaard,Dongeradeel,Friesland,VBO,5.956567,53.387033
Koaiwei,2,,,9145RC,Ternaard,Dongeradeel,Friesland,VBO,5.951669,53.385796
Koaiwei,3,,,9145RC,Ternaard,Dongeradeel,Friesland,VBO,5.952011,53.385609
De Ald Wei,8,,,9145RD,Ternaard,Dongeradeel,Friesland,VBO,5.965888,53.383067
De Ald Wei,10,,,9145RD,Ternaard,Dongeradeel,Friesland,VBO,5.965984,53.383097
Tsjerkestrjitte,1,,,9145RE,Ternaard,Dongeradeel,Friesland,VBO,5.965491,53.382623
Tsjerkestrjitte,2,A,,9145RE,Ternaard,Dongeradeel,Friesland,VBO,5.964907,53.381937
Tsjerkestrjitte,2,B,,9145RE,Ternaard,Dongeradeel,Friesland,VBO,5.964961,53.381918
Tsjerkestrjitte,2,,,9145RE,Ternaard,Dongeradeel,Friesland,VBO,5.964989,53.381971
Tsjerkestrjitte,3,,,9145RE,Ternaard,Dongeradeel,Friesland,VBO,5.966346,53.382780
Tsjerkestrjitte,4,,,9145RE,Ternaard,Dongeradeel,Friesland,VBO,5.965483,53.382052
Tsjerkestrjitte,5,,,9145RE,Ternaard,Dongeradeel,Friesland,VBO,5.966426,53.382889
Tsjerkestrjitte,6,,,9145RE,Ternaard,Dongeradeel,Friesland,VBO,5.966001,53.382167
Tsjerkestrjitte,7,,,9145RE,Ternaard,Dongeradeel,Friesland,VBO,5.966498,53.383012
Tsjerkestrjitte,8,,,9145RE,Ternaard,Dongeradeel,Friesland,VBO,5.966282,53.382356
Tsjerkestrjitte,9,,,9145RE,Ternaard,Dongeradeel,Friesland,VBO,5.966672,53.382970
Tsjerkestrjitte,10,,,9145RE,Ternaard,Dongeradeel,Friesland,VBO,5.966486,53.382430
Tsjerkestrjitte,11,,,9145RE,Ternaard,Dongeradeel,Friesland,VBO,5.966779,53.383020
Tsjerkestrjitte,13,,,9145RE,Ternaard,Dongeradeel,Friesland,VBO,5.966973,53.383072
Tsjerkestrjitte,14,,,9145RE,Ternaard,Dongeradeel,Friesland,VBO,5.966754,53.382784
Tsjerkestrjitte,15,,,9145RE,Ternaard,Dongeradeel,Friesland,VBO,5.967143,53.383116
Tsjerkestrjitte,16,,,9145RE,Ternaard,Dongeradeel,Friesland,VBO,5.967085,53.382920
De Groedse,1,,,9145RG,Ternaard,Dongeradeel,Friesland,VBO,5.964459,53.382198
De Groedse,3,,,9145RG,Ternaard,Dongeradeel,Friesland,VBO,5.964482,53.382331
De Groedse,5,,,9145RG,Ternaard,Dongeradeel,Friesland,VBO,5.964472,53.382424
De Groedse,7,,,9145RG,Ternaard,Dongeradeel,Friesland,VBO,5.964498,53.382503
De Groedse,9,A,,9145RG,Ternaard,Dongeradeel,Friesland,VBO,5.964649,53.383426
De Groedse,9,B,,9145RG,Ternaard,Dongeradeel,Friesland,VBO,5.965068,53.383558
De Groedse,9,,,9145RG,Ternaard,Dongeradeel,Friesland,VBO,5.964446,53.383381
De Groedse,11,,,9145RG,Ternaard,Dongeradeel,Friesland,VBO,5.964791,53.382582
Oranjebuorren,2,,,9145RH,Ternaard,Dongeradeel,Friesland,VBO,5.964497,53.382630
Oranjebuorren,3,,,9145RH,Ternaard,Dongeradeel,Friesland,VBO,5.963997,53.382593
Oranjebuorren,4,,,9145RH,Ternaard,Dongeradeel,Friesland,VBO,5.964297,53.382665
Oranjebuorren,5,,,9145RH,Ternaard,Dongeradeel,Friesland,VBO,5.963650,53.382565
Oranjebuorren,6,,,9145RH,Ternaard,Dongeradeel,Friesland,VBO,5.964105,53.382751
Oranjebuorren,7,,,9145RH,Ternaard,Dongeradeel,Friesland,VBO,5.963459,53.382521
Oranjebuorren,8,,,9145RH,Ternaard,Dongeradeel,Friesland,VBO,5.963733,53.382765
Oranjebuorren,10,,,9145RH,Ternaard,Dongeradeel,Friesland,VBO,5.963475,53.382801
Fiskbuorsterwei,2,,,9145RJ,Ternaard,Dongeradeel,Friesland,VBO,5.961861,53.382718
Fiskbuorsterwei,4,,,9145RJ,Ternaard,Dongeradeel,Friesland,VBO,5.961554,53.382775
Fiskbuorsterwei,6,,,9145RJ,Ternaard,Dongeradeel,Friesland,VBO,5.961152,53.382780
Fiskbuorsterwei,8,,,9145RJ,Ternaard,Dongeradeel,Friesland,VBO,5.960971,53.382796
Fiskbuorsterwei,10,,,9145RJ,Ternaard,Dongeradeel,Friesland,VBO,5.960766,53.382822
Fiskbuorsterwei,12,,,9145RJ,Ternaard,Dongeradeel,Friesland,VBO,5.960608,53.382840
Fiskbuorsterwei,14,,,9145RJ,Ternaard,Dongeradeel,Friesland,VBO,5.960227,53.382881
Fiskbuorsterwei,16,,,9145RJ,Ternaard,Dongeradeel,Friesland,VBO,5.960052,53.382898
Fiskbuorsterwei,18,,,9145RJ,Ternaard,Dongeradeel,Friesland,VBO,5.959857,53.382918
Fiskbuorsterwei,20,,,9145RJ,Ternaard,Dongeradeel,Friesland,VBO,5.959694,53.382934
Fiskbuorsterwei,22,,,9145RJ,Ternaard,Dongeradeel,Friesland,VBO,5.959463,53.382955
Fiskbuorsterwei,24,A,,9145RJ,Ternaard,Dongeradeel,Friesland,VBO,5.959334,53.383082
Fiskbuorsterwei,26,,,9145RJ,Ternaard,Dongeradeel,Friesland,VBO,5.958886,53.382946
Fiskbuorsterwei,28,,,9145RJ,Ternaard,Dongeradeel,Friesland,VBO,5.958720,53.382947
Fiskbuorsterwei,30,,,9145RJ,Ternaard,Dongeradeel,Friesland,VBO,5.958546,53.382912
Fiskbuorsterwei,32,,,9145RJ,Ternaard,Dongeradeel,Friesland,VBO,5.958387,53.382896
Fiskbuorsterwei,34,,,9145RJ,Ternaard,Dongeradeel,Friesland,VBO,5.958186,53.382862
Holwerterdyk,1,,,9145RK,Ternaard,Dongeradeel,Friesland,VBO,5.962188,53.381764
Holwerterdyk,2,,,9145RK,Ternaard,Dongeradeel,Friesland,VBO,5.961621,53.382287
Holwerterdyk,3,,,9145RK,Ternaard,Dongeradeel,Friesland,VBO,5.962102,53.381766
Holwerterdyk,4,,,9145RK,Ternaard,Dongeradeel,Friesland,VBO,5.961392,53.382257
Holwerterdyk,5,,,9145RK,Ternaard,Dongeradeel,Friesland,VBO,5.961873,53.381828
Holwerterdyk,6,,,9145RK,Ternaard,Dongeradeel,Friesland,VBO,5.960983,53.382397
Holwerterdyk,7,,,9145RK,Ternaard,Dongeradeel,Friesland,VBO,5.961808,53.381829
Holwerterdyk,8,A,,9145RK,Ternaard,Dongeradeel,Friesland,VBO,5.960024,53.382531
Holwerterdyk,8,,,9145RK,Ternaard,Dongeradeel,Friesland,VBO,5.960523,53.382460
Holwerterdyk,9,,,9145RK,Ternaard,Dongeradeel,Friesland,VBO,5.961597,53.381887
Holwerterdyk,10,,,9145RK,Ternaard,Dongeradeel,Friesland,VBO,5.959549,53.382600
Holwerterdyk,11,A,,9145RK,Ternaard,Dongeradeel,Friesland,VBO,5.959955,53.382032
Holwerterdyk,11,B,,9145RK,Ternaard,Dongeradeel,Friesland,VBO,5.961707,53.381583
Holwerterdyk,11,,,9145RK,Ternaard,Dongeradeel,Friesland,VBO,5.961512,53.381889
Holwerterdyk,12,,,9145RK,Ternaard,Dongeradeel,Friesland,VBO,5.958951,53.382607
Holwerterdyk,13,,,9145RK,Ternaard,Dongeradeel,Friesland,VBO,5.941031,53.382034
Holwerterdyk,14,A,,9145RK,Ternaard,Dongeradeel,Friesland,VBO,5.956774,53.382961
Holwerterdyk,14,B,,9145RK,Ternaard,Dongeradeel,Friesland,VBO,5.957442,53.382830
Holwerterdyk,14,C,,9145RK,Ternaard,Dongeradeel,Friesland,VBO,5.957525,53.383481
Holwerterdyk,14,,,9145RK,Ternaard,Dongeradeel,Friesland,VBO,5.956448,53.382937
Holwerterdyk,15,,,9145RK,Ternaard,Dongeradeel,Friesland,VBO,5.937168,53.380905
Holwerterdyk,16,,,9145RK,Ternaard,Dongeradeel,Friesland,VBO,5.955722,53.382803
Holwerterdyk,17,,,9145RK,Ternaard,Dongeradeel,Friesland,VBO,5.936737,53.380930
Holwerterdyk,18,,,9145RK,Ternaard,Dongeradeel,Friesland,VBO,5.952819,53.383822
Holwerterdyk,19,A,,9145RK,Ternaard,Dongeradeel,Friesland,VBO,5.936100,53.379192
Holwerterdyk,19,,,9145RK,Ternaard,Dongeradeel,Friesland,VBO,5.936255,53.379087
Holwerterdyk,20,,,9145RK,Ternaard,Dongeradeel,Friesland,VBO,5.952690,53.383880
Holwerterdyk,21,,,9145RK,Ternaard,Dongeradeel,Friesland,VBO,5.936028,53.380816
Holwerterdyk,22,,,9145RK,Ternaard,Dongeradeel,Friesland,VBO,5.952508,53.383969
Holwerterdyk,23,,,9145RK,Ternaard,Dongeradeel,Friesland,VBO,5.928601,53.378909
Holwerterdyk,24,,,9145RK,Ternaard,Dongeradeel,Friesland,VBO,5.952382,53.384029
Holwerterdyk,25,,,9145RK,Ternaard,Dongeradeel,Friesland,VBO,5.929002,53.378837
Holwerterdyk,26,,,9145RK,Ternaard,Dongeradeel,Friesland,VBO,5.952265,53.384096
Nijbuorren,2,,,9145RL,Ternaard,Dongeradeel,Friesland,VBO,5.962335,53.381523
Nijbuorren,4,,,9145RL,Ternaard,Dongeradeel,Friesland,VBO,5.962174,53.381447
Nijbuorren,8,,,9145RL,Ternaard,Dongeradeel,Friesland,VBO,5.962712,53.381242
Nijbuorren,12,,,9145RL,Ternaard,Dongeradeel,Friesland,VBO,5.962782,53.381165
Nijbuorren,16,,,9145RL,Ternaard,Dongeradeel,Friesland,VBO,5.962824,53.381048
Nijbuorren,20,,,9145RL,Ternaard,Dongeradeel,Friesland,VBO,5.962888,53.380947
Nijbuorren,22,,,9145RL,Ternaard,Dongeradeel,Friesland,VBO,5.962919,53.380864
Nijbuorren,24,,,9145RL,Ternaard,Dongeradeel,Friesland,VBO,5.962951,53.380819
Nijbuorren,28,,,9145RL,Ternaard,Dongeradeel,Friesland,VBO,5.962996,53.380722
Nijbuorren,30,,,9145RL,Ternaard,Dongeradeel,Friesland,VBO,5.963027,53.380657
Nijbuorren,32,,,9145RL,Ternaard,Dongeradeel,Friesland,VBO,5.963051,53.380586
Nijbuorren,34,,,9145RL,Ternaard,Dongeradeel,Friesland,VBO,5.963075,53.380528
Nijbuorren,36,,,9145RL,Ternaard,Dongeradeel,Friesland,VBO,5.963112,53.380476
Nijbuorren,38,,,9145RL,Ternaard,Dongeradeel,Friesland,VBO,5.963128,53.380394
Nijbuorren,40,,,9145RM,Ternaard,Dongeradeel,Friesland,VBO,5.963175,53.380322
Nijbuorren,42,,,9145RM,Ternaard,Dongeradeel,Friesland,VBO,5.963215,53.380254
Nijbuorren,44,,,9145RM,Ternaard,Dongeradeel,Friesland,VBO,5.963248,53.380178
Nijbuorren,46,,,9145RM,Ternaard,Dongeradeel,Friesland,VBO,5.962687,53.380117
Nijbuorren,48,A,,9145RM,Ternaard,Dongeradeel,Friesland,VBO,5.963175,53.380067
Nijbuorren,48,,,9145RM,Ternaard,Dongeradeel,Friesland,VBO,5.963277,53.380108
Nijbuorren,52,,,9145RM,Ternaard,Dongeradeel,Friesland,VBO,5.963353,53.379935
Nijbuorren,56,,,9145RM,Ternaard,Dongeradeel,Friesland,VBO,5.963433,53.379774
Nijbuorren,58,,,9145RM,Ternaard,Dongeradeel,Friesland,VBO,5.962879,53.379672
Nijbuorren,62,,,9145RM,Ternaard,Dongeradeel,Friesland,VBO,5.963501,53.379624
Nijbuorren,66,,,9145RM,Ternaard,Dongeradeel,Friesland,VBO,5.963585,53.379465
Pelmûnewei,1,,,9145RN,Ternaard,Dongeradeel,Friesland,VBO,5.963353,53.379158
Pelmûnewei,3,,,9145RN,Ternaard,Dongeradeel,Friesland,VBO,5.963351,53.379118
Pelmûnewei,5,,,9145RN,Ternaard,Dongeradeel,Friesland,VBO,5.963389,53.378807
Pelmûnewei,7,,,9145RN,Ternaard,Dongeradeel,Friesland,VBO,5.957019,53.378037
Spoarreed,2,,,9145RP,Ternaard,Dongeradeel,Friesland,VBO,5.962778,53.378201
Stasjonswei,1,,,9145RR,Ternaard,Dongeradeel,Friesland,VBO,5.963008,53.381548
Stasjonswei,3,,,9145RR,Ternaard,Dongeradeel,Friesland,VBO,5.963177,53.381490
Stasjonswei,5,A,,9145RR,Ternaard,Dongeradeel,Friesland,VBO,5.963749,53.381412
Stasjonswei,5,,,9145RR,Ternaard,Dongeradeel,Friesland,VBO,5.963538,53.381377
Stasjonswei,7,,,9145RR,Ternaard,Dongeradeel,Friesland,VBO,5.963252,53.381360
Stasjonswei,9,,,9145RR,Ternaard,Dongeradeel,Friesland,VBO,5.963289,53.381240
Stasjonswei,11,,,9145RR,Ternaard,Dongeradeel,Friesland,VBO,5.963334,53.381161
Stasjonswei,13,,,9145RR,Ternaard,Dongeradeel,Friesland,VBO,5.963375,53.381062
Stasjonswei,15,,,9145RR,Ternaard,Dongeradeel,Friesland,VBO,5.963415,53.380979
Stasjonswei,17,,,9145RR,Ternaard,Dongeradeel,Friesland,VBO,5.963591,53.380869
Stasjonswei,19,,,9145RR,Ternaard,Dongeradeel,Friesland,VBO,5.963635,53.380794
Stasjonswei,21,,,9145RR,Ternaard,Dongeradeel,Friesland,VBO,5.963649,53.380730
Stasjonswei,23,,,9145RR,Ternaard,Dongeradeel,Friesland,VBO,5.963669,53.380671
Stasjonswei,25,,,9145RR,Ternaard,Dongeradeel,Friesland,VBO,5.963706,53.380596
Stasjonswei,27,,,9145RR,Ternaard,Dongeradeel,Friesland,VBO,5.963757,53.380439
Stasjonswei,29,,,9145RR,Ternaard,Dongeradeel,Friesland,VBO,5.964040,53.380293
Stasjonswei,31,,,9145RR,Ternaard,Dongeradeel,Friesland,VBO,5.964285,53.380035
Stasjonswei,33,,,9145RR,Ternaard,Dongeradeel,Friesland,VBO,5.964236,53.379741
Stasjonswei,35,,,9145RR,Ternaard,Dongeradeel,Friesland,VBO,5.964309,53.379112
Stasjonswei,37,,,9145RR,Ternaard,Dongeradeel,Friesland,VBO,5.964556,53.378852
Stasjonswei,39,,,9145RR,Ternaard,Dongeradeel,Friesland,VBO,5.964427,53.378740
Stasjonswei,41,,,9145RR,Ternaard,Dongeradeel,Friesland,VBO,5.964469,53.378639
Stasjonswei,43,,,9145RR,Ternaard,Dongeradeel,Friesland,VBO,5.964465,53.378573
Stasjonswei,45,,,9145RR,Ternaard,Dongeradeel,Friesland,VBO,5.964482,53.378483
Stasjonswei,47,A,,9145RR,Ternaard,Dongeradeel,Friesland,VBO,5.965132,53.378134
Stasjonswei,47,,,9145RR,Ternaard,Dongeradeel,Friesland,VBO,5.965296,53.378017
Stasjonswei,2,A,,9145RS,Ternaard,Dongeradeel,Friesland,VBO,5.963503,53.378472
Stasjonswei,2,,,9145RS,Ternaard,Dongeradeel,Friesland,VBO,5.963536,53.378622
Stasjonswei,4,A,,9145RS,Ternaard,Dongeradeel,Friesland,VBO,5.963496,53.378295
Stasjonswei,4,,,9145RS,Ternaard,Dongeradeel,Friesland,VBO,5.963680,53.378218
Gysbert Japiksstrjitte,1,,,9145RT,Ternaard,Dongeradeel,Friesland,VBO,5.965335,53.378708
Gysbert Japiksstrjitte,17,,,9145RT,Ternaard,Dongeradeel,Friesland,VBO,5.965792,53.378995
Gysbert Japiksstrjitte,19,,,9145RT,Ternaard,Dongeradeel,Friesland,VBO,5.965882,53.379011
Gysbert Japiksstrjitte,21,,,9145RT,Ternaard,Dongeradeel,Friesland,VBO,5.965977,53.379026
Gysbert Japiksstrjitte,23,,,9145RT,Ternaard,Dongeradeel,Friesland,VBO,5.966069,53.379039
Gysbert Japiksstrjitte,25,,,9145RT,Ternaard,Dongeradeel,Friesland,VBO,5.966161,53.379052
Gysbert Japiksstrjitte,27,,,9145RT,Ternaard,Dongeradeel,Friesland,VBO,5.966254,53.379063
Gysbert Japiksstrjitte,29,,,9145RT,Ternaard,Dongeradeel,Friesland,VBO,5.966564,53.379083
Gysbert Japiksstrjitte,31,,,9145RT,Ternaard,Dongeradeel,Friesland,VBO,5.966640,53.379094
Gysbert Japiksstrjitte,33,,,9145RT,Ternaard,Dongeradeel,Friesland,VBO,5.966728,53.379108
Gysbert Japiksstrjitte,35,,,9145RT,Ternaard,Dongeradeel,Friesland,VBO,5.966813,53.379122
Gysbert Japiksstrjitte,37,,,9145RT,Ternaard,Dongeradeel,Friesland,VBO,5.966897,53.379138
Gysbert Japiksstrjitte,39,,,9145RT,Ternaard,Dongeradeel,Friesland,VBO,5.966992,53.379152
Gysbert Japiksstrjitte,41,,,9145RV,Ternaard,Dongeradeel,Friesland,VBO,5.967174,53.379180
Gysbert Japiksstrjitte,43,,,9145RV,Ternaard,Dongeradeel,Friesland,VBO,5.967256,53.379191
Gysbert Japiksstrjitte,45,,,9145RV,Ternaard,Dongeradeel,Friesland,VBO,5.967341,53.379205
Gysbert Japiksstrjitte,47,,,9145RV,Ternaard,Dongeradeel,Friesland,VBO,5.967432,53.379219
Gysbert Japiksstrjitte,49,,,9145RV,Ternaard,Dongeradeel,Friesland,VBO,5.967514,53.379233
Gysbert Japiksstrjitte,51,,,9145RV,Ternaard,Dongeradeel,Friesland,VBO,5.967603,53.379244
Gysbert Japiksstrjitte,53,,,9145RV,Ternaard,Dongeradeel,Friesland,VBO,5.967778,53.379296
Gysbert Japiksstrjitte,55,,,9145RV,Ternaard,Dongeradeel,Friesland,VBO,5.967859,53.379307
Gysbert Japiksstrjitte,57,,,9145RV,Ternaard,Dongeradeel,Friesland,VBO,5.967947,53.379320
Gysbert Japiksstrjitte,59,,,9145RV,Ternaard,Dongeradeel,Friesland,VBO,5.968037,53.379333
Gysbert Japiksstrjitte,61,,,9145RV,Ternaard,Dongeradeel,Friesland,VBO,5.968114,53.379346
Gysbert Japiksstrjitte,63,,,9145RV,Ternaard,Dongeradeel,Friesland,VBO,5.968204,53.379357
Gysbert Japiksstrjitte,2,,,9145RW,Ternaard,Dongeradeel,Friesland,VBO,5.965631,53.378452
Gysbert Japiksstrjitte,4,,,9145RW,Ternaard,Dongeradeel,Friesland,VBO,5.965877,53.378536
Gysbert Japiksstrjitte,6,,,9145RW,Ternaard,Dongeradeel,Friesland,VBO,5.966113,53.378626
Gysbert Japiksstrjitte,8,,,9145RW,Ternaard,Dongeradeel,Friesland,VBO,5.966338,53.378701
Gysbert Japiksstrjitte,10,,,9145RW,Ternaard,Dongeradeel,Friesland,VBO,5.967472,53.378605
Gysbert Japiksstrjitte,12,,,9145RW,Ternaard,Dongeradeel,Friesland,VBO,5.966802,53.378761
Gysbert Japiksstrjitte,14,,,9145RW,Ternaard,Dongeradeel,Friesland,VBO,5.966900,53.378779
Gysbert Japiksstrjitte,16,,,9145RW,Ternaard,Dongeradeel,Friesland,VBO,5.966997,53.378794
Gysbert Japiksstrjitte,18,,,9145RW,Ternaard,Dongeradeel,Friesland,VBO,5.967072,53.378803
Gysbert Japiksstrjitte,20,,,9145RW,Ternaard,Dongeradeel,Friesland,VBO,5.967254,53.378872
Gysbert Japiksstrjitte,22,,,9145RW,Ternaard,Dongeradeel,Friesland,VBO,5.967359,53.378890
Gysbert Japiksstrjitte,24,,,9145RW,Ternaard,Dongeradeel,Friesland,VBO,5.967450,53.378903
Gysbert Japiksstrjitte,26,,,9145RW,Ternaard,Dongeradeel,Friesland,VBO,5.967539,53.378914
Gysbert Japiksstrjitte,28,,,9145RW,Ternaard,Dongeradeel,Friesland,VBO,5.967634,53.378928
Gysbert Japiksstrjitte,30,,,9145RW,Ternaard,Dongeradeel,Friesland,VBO,5.967730,53.378944
Gysbert Japiksstrjitte,32,,,9145RW,Ternaard,Dongeradeel,Friesland,VBO,5.967891,53.378964
Gysbert Japiksstrjitte,34,,,9145RW,Ternaard,Dongeradeel,Friesland,VBO,5.967988,53.378978
Gysbert Japiksstrjitte,36,,,9145RW,Ternaard,Dongeradeel,Friesland,VBO,5.968073,53.378990
Gysbert Japiksstrjitte,38,,,9145RW,Ternaard,Dongeradeel,Friesland,VBO,5.968161,53.379004
Gysbert Japiksstrjitte,40,,,9145RW,Ternaard,Dongeradeel,Friesland,VBO,5.968259,53.379021
Gysbert Japiksstrjitte,42,,,9145RW,Ternaard,Dongeradeel,Friesland,VBO,5.968352,53.379032
Worp van Peymastrjitte,1,A,,9145RX,Ternaard,Dongeradeel,Friesland,VBO,5.967083,53.381270
Worp van Peymastrjitte,1,,,9145RX,Ternaard,Dongeradeel,Friesland,VBO,5.967128,53.381297
Worp van Peymastrjitte,3,,,9145RX,Ternaard,Dongeradeel,Friesland,VBO,5.966769,53.381292
Worp van Peymastrjitte,5,,,9145RX,Ternaard,Dongeradeel,Friesland,VBO,5.966552,53.381271
Worp van Peymastrjitte,7,,,9145RX,Ternaard,Dongeradeel,Friesland,VBO,5.966475,53.381260
Worp van Peymastrjitte,9,,,9145RX,Ternaard,Dongeradeel,Friesland,VBO,5.966322,53.381238
Worp van Peymastrjitte,11,,,9145RX,Ternaard,Dongeradeel,Friesland,VBO,5.966132,53.381213
Worp van Peymastrjitte,13,,,9145RX,Ternaard,Dongeradeel,Friesland,VBO,5.965909,53.381181
Worp van Peymastrjitte,15,,,9145RX,Ternaard,Dongeradeel,Friesland,VBO,5.965762,53.381166
Worp van Peymastrjitte,17,,,9145RX,Ternaard,Dongeradeel,Friesland,VBO,5.965633,53.381145
Worp van Peymastrjitte,19,A,,9145RX,Ternaard,Dongeradeel,Friesland,VBO,5.965245,53.381088
Worp van Peymastrjitte,21,,,9145RX,Ternaard,Dongeradeel,Friesland,VBO,5.964919,53.381041
Worp van Peymastrjitte,23,,,9145RX,Ternaard,Dongeradeel,Friesland,VBO,5.964571,53.380942
Worp van Peymastrjitte,25,,,9145RX,Ternaard,Dongeradeel,Friesland,VBO,5.964346,53.380908
Worp van Peymastrjitte,27,,,9145RX,Ternaard,Dongeradeel,Friesland,VBO,5.964160,53.380884
Worp van Peymastrjitte,2,,,9145RZ,Ternaard,Dongeradeel,Friesland,VBO,5.967399,53.381621
Worp van Peymastrjitte,4,,,9145RZ,Ternaard,Dongeradeel,Friesland,VBO,5.967026,53.381545
Worp van Peymastrjitte,6,,,9145RZ,Ternaard,Dongeradeel,Friesland,VBO,5.966279,53.381369
Worp van Peymastrjitte,8,,,9145RZ,Ternaard,Dongeradeel,Friesland,VBO,5.966112,53.381348
Worp van Peymastrjitte,10,A,,9145RZ,Ternaard,Dongeradeel,Friesland,VBO,5.965913,53.381428
Worp van Peymastrjitte,10,,,9145RZ,Ternaard,Dongeradeel,Friesland,VBO,5.965968,53.381328
Worp van Peymastrjitte,12,,,9145RZ,Ternaard,Dongeradeel,Friesland,VBO,5.965816,53.381304
Worp van Peymastrjitte,14,,,9145RZ,Ternaard,Dongeradeel,Friesland,VBO,5.965678,53.381284
Worp van Peymastrjitte,16,,,9145RZ,Ternaard,Dongeradeel,Friesland,VBO,5.965536,53.381262
Worp van Peymastrjitte,18,,,9145RZ,Ternaard,Dongeradeel,Friesland,VBO,5.964789,53.381153
Worp van Peymastrjitte,20,,,9145RZ,Ternaard,Dongeradeel,Friesland,VBO,5.964565,53.381128
Worp van Peymastrjitte,22,,,9145RZ,Ternaard,Dongeradeel,Friesland,VBO,5.964450,53.381108
Worp van Peymastrjitte,24,,,9145RZ,Ternaard,Dongeradeel,Friesland,VBO,5.964357,53.381097
Worp van Peymastrjitte,28,,,9145RZ,Ternaard,Dongeradeel,Friesland,VBO,5.964073,53.381055
Worp van Peymastrjitte,30,,,9145RZ,Ternaard,Dongeradeel,Friesland,VBO,5.963946,53.381037
Halbertsmastrjitte,1,,,9145SB,Ternaard,Dongeradeel,Friesland,VBO,5.966347,53.382049
Halbertsmastrjitte,2,,,9145SB,Ternaard,Dongeradeel,Friesland,VBO,5.966095,53.381973
Halbertsmastrjitte,3,,,9145SB,Ternaard,Dongeradeel,Friesland,VBO,5.966394,53.381923
Halbertsmastrjitte,4,,,9145SB,Ternaard,Dongeradeel,Friesland,VBO,5.966118,53.381928
Halbertsmastrjitte,5,,,9145SB,Ternaard,Dongeradeel,Friesland,VBO,5.966439,53.381824
Halbertsmastrjitte,6,,,9145SB,Ternaard,Dongeradeel,Friesland,VBO,5.966190,53.381748
Halbertsmastrjitte,7,,,9145SB,Ternaard,Dongeradeel,Friesland,VBO,5.966471,53.381727
Halbertsmastrjitte,8,,,9145SB,Ternaard,Dongeradeel,Friesland,VBO,5.966241,53.381649
Halbertsmastrjitte,9,,,9145SB,Ternaard,Dongeradeel,Friesland,VBO,5.966501,53.381668
Halbertsmastrjitte,10,,,9145SB,Ternaard,Dongeradeel,Friesland,VBO,5.966269,53.381572
Halbertsmastrjitte,11,,,9145SB,Ternaard,Dongeradeel,Friesland,VBO,5.966535,53.381572
Halbertsmastrjitte,13,,,9145SB,Ternaard,Dongeradeel,Friesland,VBO,5.966557,53.381529
Halbertsmastrjitte,15,,,9145SB,Ternaard,Dongeradeel,Friesland,VBO,5.966581,53.381437
Ald Reed,2,,,9145SC,Ternaard,Dongeradeel,Friesland,VBO,5.964221,53.381859
Ald Reed,3,,,9145SC,Ternaard,Dongeradeel,Friesland,VBO,5.964256,53.381720
Ald Reed,5,,,9145SC,Ternaard,Dongeradeel,Friesland,VBO,5.963842,53.381674
Ald Reed,7,,,9145SC,Ternaard,Dongeradeel,Friesland,VBO,5.963700,53.381654
Aldbuorren,1,,,9145SE,Ternaard,Dongeradeel,Friesland,VBO,5.964376,53.381990
Aldbuorren,2,,,9145SE,Ternaard,Dongeradeel,Friesland,VBO,5.964239,53.382133
Aldbuorren,3,,,9145SE,Ternaard,Dongeradeel,Friesland,VBO,5.964042,53.381987
Aldbuorren,4,,,9145SE,Ternaard,Dongeradeel,Friesland,VBO,5.964016,53.382116
Aldbuorren,5,,,9145SE,Ternaard,Dongeradeel,Friesland,VBO,5.963908,53.381977
Aldbuorren,6,,,9145SE,Ternaard,Dongeradeel,Friesland,VBO,5.963907,53.382105
Aldbuorren,7,,,9145SE,Ternaard,Dongeradeel,Friesland,VBO,5.963775,53.381960
Aldbuorren,8,,,9145SE,Ternaard,Dongeradeel,Friesland,VBO,5.963795,53.382097
Aldbuorren,9,,,9145SE,Ternaard,Dongeradeel,Friesland,VBO,5.963679,53.381942
Aldbuorren,10,,,9145SE,Ternaard,Dongeradeel,Friesland,VBO,5.963679,53.382085
Aldbuorren,12,,,9145SE,Ternaard,Dongeradeel,Friesland,VBO,5.963549,53.382069
Aldbuorren,13,,,9145SE,Ternaard,Dongeradeel,Friesland,VBO,5.963486,53.381917
Aldbuorren,14,,,9145SE,Ternaard,Dongeradeel,Friesland,VBO,5.962982,53.382169
Aldbuorren,17,,,9145SE,Ternaard,Dongeradeel,Friesland,VBO,5.963262,53.381900
Aldbuorren,19,,,9145SE,Ternaard,Dongeradeel,Friesland,VBO,5.963160,53.381890
Aldbuorren,21,,,9145SE,Ternaard,Dongeradeel,Friesland,VBO,5.962894,53.381837
Aldbuorren,23,,,9145SE,Ternaard,Dongeradeel,Friesland,VBO,5.962855,53.381832
Aldbuorren,25,,,9145SE,Ternaard,Dongeradeel,Friesland,VBO,5.962988,53.381829
Riedhússtrjitte,1,,,9145SG,Ternaard,Dongeradeel,Friesland,VBO,5.964956,53.381738
Riedhússtrjitte,3,,,9145SG,Ternaard,Dongeradeel,Friesland,VBO,5.964995,53.381604
Riedhússtrjitte,5,,,9145SG,Ternaard,Dongeradeel,Friesland,VBO,5.965013,53.381536
Riedhússtrjitte,7,,,9145SG,Ternaard,Dongeradeel,Friesland,VBO,5.965038,53.381462
Riedhússtrjitte,9,,,9145SG,Ternaard,Dongeradeel,Friesland,VBO,5.965065,53.381399
Riedhússtrjitte,11,,,9145SG,Ternaard,Dongeradeel,Friesland,VBO,5.965102,53.381328
Riedhússtrjitte,13,,,9145SG,Ternaard,Dongeradeel,Friesland,VBO,5.965124,53.381235
Riedhússtrjitte,19,,,9145SG,Ternaard,Dongeradeel,Friesland,VBO,5.965280,53.380833
Riedhússtrjitte,21,,,9145SG,Ternaard,Dongeradeel,Friesland,VBO,5.965314,53.380747
Riedhússtrjitte,23,,,9145SG,Ternaard,Dongeradeel,Friesland,VBO,5.965327,53.380697
Riedhússtrjitte,25,,,9145SG,Ternaard,Dongeradeel,Friesland,VBO,5.965343,53.380646
Riedhússtrjitte,27,,,9145SG,Ternaard,Dongeradeel,Friesland,VBO,5.965362,53.380593
Riedhússtrjitte,29,,,9145SG,Ternaard,Dongeradeel,Friesland,VBO,5.965382,53.380540
Riedhússtrjitte,31,,,9145SG,Ternaard,Dongeradeel,Friesland,VBO,5.965404,53.380487
Riedhússtrjitte,33,,,9145SG,Ternaard,Dongeradeel,Friesland,VBO,5.965424,53.380437
Riedhússtrjitte,35,,,9145SG,Ternaard,Dongeradeel,Friesland,VBO,5.965448,53.380379
Riedhússtrjitte,37,,,9145SG,Ternaard,Dongeradeel,Friesland,VBO,5.965850,53.380144
Riedhússtrjitte,2,,,9145SH,Ternaard,Dongeradeel,Friesland,VBO,5.964752,53.381727
Riedhússtrjitte,4,,,9145SH,Ternaard,Dongeradeel,Friesland,VBO,5.964780,53.381666
Riedhússtrjitte,6,,,9145SH,Ternaard,Dongeradeel,Friesland,VBO,5.964805,53.381580
Riedhússtrjitte,8,,,9145SH,Ternaard,Dongeradeel,Friesland,VBO,5.964834,53.381519
Riedhússtrjitte,10,A,,9145SH,Ternaard,Dongeradeel,Friesland,VBO,5.964884,53.381389
Riedhússtrjitte,10,,,9145SH,Ternaard,Dongeradeel,Friesland,VBO,5.964860,53.381439
Riedhússtrjitte,12,,,9145SH,Ternaard,Dongeradeel,Friesland,VBO,5.964947,53.381212
Riedhússtrjitte,14,,,9145SH,Ternaard,Dongeradeel,Friesland,VBO,5.965046,53.380911
Riedhússtrjitte,16,,,9145SH,Ternaard,Dongeradeel,Friesland,VBO,5.965088,53.380809
Riedhússtrjitte,18,,,9145SH,Ternaard,Dongeradeel,Friesland,VBO,5.965132,53.380717
Riedhússtrjitte,20,,,9145SH,Ternaard,Dongeradeel,Friesland,VBO,5.965170,53.380607
Riedhússtrjitte,22,,,9145SH,Ternaard,Dongeradeel,Friesland,VBO,5.965195,53.380552
Riedhússtrjitte,24,,,9145SH,Ternaard,Dongeradeel,Friesland,VBO,5.965201,53.380421
Riedhússtrjitte,28,,,9145SH,Ternaard,Dongeradeel,Friesland,VBO,5.965216,53.380211
Riedhússtrjitte,30,,,9145SH,Ternaard,Dongeradeel,Friesland,VBO,5.965187,53.380164
Riedhússtrjitte,32,,,9145SH,Ternaard,Dongeradeel,Friesland,VBO,5.965197,53.380076
Riedhússtrjitte,34,,,9145SH,Ternaard,Dongeradeel,Friesland,VBO,5.965160,53.380032
Riedhússtrjitte,36,,,9145SH,Ternaard,Dongeradeel,Friesland,VBO,5.965162,53.379914
Riedhússtrjitte,38,,,9145SH,Ternaard,Dongeradeel,Friesland,VBO,5.965138,53.379876
Herweystrjitte,1,,,9145SJ,Ternaard,Dongeradeel,Friesland,VBO,5.964887,53.379559
Herweystrjitte,3,,,9145SJ,Ternaard,Dongeradeel,Friesland,VBO,5.964956,53.379570
Herweystrjitte,5,,,9145SJ,Ternaard,Dongeradeel,Friesland,VBO,5.965108,53.379594
Herweystrjitte,7,,,9145SJ,Ternaard,Dongeradeel,Friesland,VBO,5.965170,53.379599
Herweystrjitte,9,,,9145SJ,Ternaard,Dongeradeel,Friesland,VBO,5.965557,53.379668
Herweystrjitte,11,,,9145SJ,Ternaard,Dongeradeel,Friesland,VBO,5.965626,53.379676
Herweystrjitte,13,,,9145SJ,Ternaard,Dongeradeel,Friesland,VBO,5.965780,53.379698
Herweystrjitte,15,,,9145SJ,Ternaard,Dongeradeel,Friesland,VBO,5.965855,53.379709
Herweystrjitte,17,,,9145SJ,Ternaard,Dongeradeel,Friesland,VBO,5.966035,53.379733
Herweystrjitte,19,,,9145SJ,Ternaard,Dongeradeel,Friesland,VBO,5.966093,53.379743
Herweystrjitte,21,,,9145SJ,Ternaard,Dongeradeel,Friesland,VBO,5.966292,53.379774
Herweystrjitte,23,,,9145SJ,Ternaard,Dongeradeel,Friesland,VBO,5.966359,53.379785
Herweystrjitte,25,,,9145SJ,Ternaard,Dongeradeel,Friesland,VBO,5.966540,53.379836
Herweystrjitte,27,,,9145SJ,Ternaard,Dongeradeel,Friesland,VBO,5.966600,53.379845
Herweystrjitte,29,,,9145SJ,Ternaard,Dongeradeel,Friesland,VBO,5.966799,53.379871
Herweystrjitte,31,,,9145SK,Ternaard,Dongeradeel,Friesland,VBO,5.966864,53.379882
Herweystrjitte,33,,,9145SK,Ternaard,Dongeradeel,Friesland,VBO,5.967053,53.379909
Herweystrjitte,35,,,9145SK,Ternaard,Dongeradeel,Friesland,VBO,5.967121,53.379920
Herweystrjitte,37,,,9145SK,Ternaard,Dongeradeel,Friesland,VBO,5.967314,53.379949
Herweystrjitte,39,,,9145SK,Ternaard,Dongeradeel,Friesland,VBO,5.967404,53.379959
Herweystrjitte,41,,,9145SK,Ternaard,Dongeradeel,Friesland,VBO,5.967593,53.379987
Herweystrjitte,43,,,9145SK,Ternaard,Dongeradeel,Friesland,VBO,5.967674,53.379995
Herweystrjitte,45,,,9145SK,Ternaard,Dongeradeel,Friesland,VBO,5.967866,53.380025
Herweystrjitte,47,,,9145SK,Ternaard,Dongeradeel,Friesland,VBO,5.967949,53.380038
Herweystrjitte,49,,,9145SK,Ternaard,Dongeradeel,Friesland,VBO,5.969058,53.380082
Herweystrjitte,51,,,9145SK,Ternaard,Dongeradeel,Friesland,VBO,5.970444,53.380123
Herweystrjitte,53,,,9145SK,Ternaard,Dongeradeel,Friesland,VBO,5.970666,53.380134
Herweystrjitte,55,,,9145SK,Ternaard,Dongeradeel,Friesland,VBO,5.970883,53.380178
Herweystrjitte,57,,,9145SK,Ternaard,Dongeradeel,Friesland,VBO,5.971116,53.380228
Herweystrjitte,2,,,9145SL,Ternaard,Dongeradeel,Friesland,VBO,5.964891,53.379340
Herweystrjitte,4,,,9145SL,Ternaard,Dongeradeel,Friesland,VBO,5.964974,53.379353
Herweystrjitte,6,,,9145SL,Ternaard,Dongeradeel,Friesland,VBO,5.965142,53.379378
Herweystrjitte,8,,,9145SL,Ternaard,Dongeradeel,Friesland,VBO,5.965250,53.379390
Herweystrjitte,10,,,9145SL,Ternaard,Dongeradeel,Friesland,VBO,5.965655,53.379452
Herweystrjitte,12,,,9145SL,Ternaard,Dongeradeel,Friesland,VBO,5.965755,53.379464
Herweystrjitte,14,,,9145SL,Ternaard,Dongeradeel,Friesland,VBO,5.965921,53.379489
Herweystrjitte,16,,,9145SL,Ternaard,Dongeradeel,Friesland,VBO,5.966029,53.379505
Herweystrjitte,18,,,9145SL,Ternaard,Dongeradeel,Friesland,VBO,5.966374,53.379514
Herweystrjitte,20,,,9145SL,Ternaard,Dongeradeel,Friesland,VBO,5.966443,53.379523
Herweystrjitte,22,,,9145SL,Ternaard,Dongeradeel,Friesland,VBO,5.966631,53.379547
Herweystrjitte,24,,,9145SL,Ternaard,Dongeradeel,Friesland,VBO,5.966705,53.379557
Herweystrjitte,26,,,9145SL,Ternaard,Dongeradeel,Friesland,VBO,5.966877,53.379581
Herweystrjitte,28,,,9145SL,Ternaard,Dongeradeel,Friesland,VBO,5.966958,53.379592
Herweystrjitte,30,,,9145SM,Ternaard,Dongeradeel,Friesland,VBO,5.967137,53.379621
Herweystrjitte,32,,,9145SM,Ternaard,Dongeradeel,Friesland,VBO,5.967212,53.379630
Herweystrjitte,34,,,9145SM,Ternaard,Dongeradeel,Friesland,VBO,5.967396,53.379657
Herweystrjitte,36,,,9145SM,Ternaard,Dongeradeel,Friesland,VBO,5.967467,53.379669
Herweystrjitte,38,,,9145SM,Ternaard,Dongeradeel,Friesland,VBO,5.967656,53.379698
Herweystrjitte,40,,,9145SM,Ternaard,Dongeradeel,Friesland,VBO,5.967722,53.379708
Herweystrjitte,42,,,9145SM,Ternaard,Dongeradeel,Friesland,VBO,5.967903,53.379735
Herweystrjitte,44,,,9145SM,Ternaard,Dongeradeel,Friesland,VBO,5.967982,53.379748
Herweystrjitte,46,,,9145SM,Ternaard,Dongeradeel,Friesland,VBO,5.968467,53.379888
Herweystrjitte,48,,,9145SM,Ternaard,Dongeradeel,Friesland,VBO,5.968770,53.379875
Van Aylvastrjitte,1,,,9145SN,Ternaard,Dongeradeel,Friesland,VBO,5.967902,53.381369
Van Aylvastrjitte,2,,,9145SN,Ternaard,Dongeradeel,Friesland,VBO,5.967170,53.382221
Van Aylvastrjitte,4,,,9145SN,Ternaard,Dongeradeel,Friesland,VBO,5.967192,53.382162
Van Aylvastrjitte,6,,,9145SN,Ternaard,Dongeradeel,Friesland,VBO,5.967246,53.382051
Van Aylvastrjitte,8,,,9145SN,Ternaard,Dongeradeel,Friesland,VBO,5.967273,53.381992
Van Aylvastrjitte,10,,,9145SN,Ternaard,Dongeradeel,Friesland,VBO,5.967307,53.381883
Van Aylvastrjitte,12,,,9145SN,Ternaard,Dongeradeel,Friesland,VBO,5.967360,53.381765
Van Aylvastrjitte,14,,,9145SN,Ternaard,Dongeradeel,Friesland,VBO,5.967487,53.381332
Van Aylvastrjitte,19,,,9145SN,Ternaard,Dongeradeel,Friesland,VBO,5.968593,53.379634
Van Aylvastrjitte,21,,,9145SN,Ternaard,Dongeradeel,Friesland,VBO,5.968644,53.379498
Van Sytzamastrjitte,1,,,9145SP,Ternaard,Dongeradeel,Friesland,VBO,5.968636,53.381339
Van Sytzamastrjitte,2,,,9145SP,Ternaard,Dongeradeel,Friesland,VBO,5.968987,53.381225
Van Sytzamastrjitte,3,,,9145SP,Ternaard,Dongeradeel,Friesland,VBO,5.968962,53.381403
Van Sytzamastrjitte,4,,,9145SP,Ternaard,Dongeradeel,Friesland,VBO,5.969087,53.381237
Van Sytzamastrjitte,5,,,9145SP,Ternaard,Dongeradeel,Friesland,VBO,5.969292,53.381464
Van Sytzamastrjitte,6,,,9145SP,Ternaard,Dongeradeel,Friesland,VBO,5.969186,53.381251
Van Sytzamastrjitte,8,,,9145SP,Ternaard,Dongeradeel,Friesland,VBO,5.969290,53.381269
Slotstrjitte,1,,,9145SR,Ternaard,Dongeradeel,Friesland,VBO,5.969095,53.380957
Slotstrjitte,3,,,9145SR,Ternaard,Dongeradeel,Friesland,VBO,5.969119,53.380893
Slotstrjitte,5,,,9145SR,Ternaard,Dongeradeel,Friesland,VBO,5.969142,53.380832
Slotstrjitte,7,,,9145SR,Ternaard,Dongeradeel,Friesland,VBO,5.969167,53.380771
Slotstrjitte,9,,,9145SR,Ternaard,Dongeradeel,Friesland,VBO,5.969194,53.380703
Slotstrjitte,11,,,9145SR,Ternaard,Dongeradeel,Friesland,VBO,5.969268,53.380479
Slotstrjitte,13,,,9145SR,Ternaard,Dongeradeel,Friesland,VBO,5.969377,53.380497
Slotstrjitte,15,,,9145SR,Ternaard,Dongeradeel,Friesland,VBO,5.969472,53.380509
Slotstrjitte,17,,,9145SR,Ternaard,Dongeradeel,Friesland,VBO,5.969572,53.380524
Van der Haerstrjitte,1,,,9145SV,Ternaard,Dongeradeel,Friesland,VBO,5.969818,53.380578
Van der Haerstrjitte,2,,,9145SV,Ternaard,Dongeradeel,Friesland,VBO,5.970254,53.380438
Van der Haerstrjitte,3,,,9145SV,Ternaard,Dongeradeel,Friesland,VBO,5.969913,53.380593
Van der Haerstrjitte,4,,,9145SV,Ternaard,Dongeradeel,Friesland,VBO,5.970339,53.380451
Van der Haerstrjitte,5,,,9145SV,Ternaard,Dongeradeel,Friesland,VBO,5.969996,53.380605
Van der Haerstrjitte,6,,,9145SV,Ternaard,Dongeradeel,Friesland,VBO,5.970427,53.380488
Van der Haerstrjitte,7,,,9145SV,Ternaard,Dongeradeel,Friesland,VBO,5.970142,53.380626
Van der Haerstrjitte,8,,,9145SV,Ternaard,Dongeradeel,Friesland,VBO,5.970510,53.380500
Van der Haerstrjitte,9,,,9145SV,Ternaard,Dongeradeel,Friesland,VBO,5.970211,53.380637
Van der Haerstrjitte,11,,,9145SV,Ternaard,Dongeradeel,Friesland,VBO,5.970289,53.380652
Van der Haerstrjitte,13,,,9145SV,Ternaard,Dongeradeel,Friesland,VBO,5.970527,53.380683
Van der Haerstrjitte,15,,,9145SV,Ternaard,Dongeradeel,Friesland,VBO,5.970624,53.380698
Van der Haerstrjitte,17,,,9145SV,Ternaard,Dongeradeel,Friesland,VBO,5.970871,53.380735
Van der Haerstrjitte,19,,,9145SV,Ternaard,Dongeradeel,Friesland,VBO,5.970961,53.380751
Fiskbuorren,1,,,9145SW,Ternaard,Dongeradeel,Friesland,VBO,5.949502,53.384547
Fiskbuorren,3,,,9145SW,Ternaard,Dongeradeel,Friesland,VBO,5.949394,53.384178
Fiskbuorren,4,,,9145SW,Ternaard,Dongeradeel,Friesland,VBO,5.948762,53.384506
Fiskbuorren,5,,,9145SW,Ternaard,Dongeradeel,Friesland,VBO,5.949302,53.383922
Fiskbuorren,6,,,9145SW,Ternaard,Dongeradeel,Friesland,VBO,5.948834,53.384247
Fiskbuorren,7,,,9145SW,Ternaard,Dongeradeel,Friesland,VBO,5.949362,53.383811
Fiskbuorren,10,,,9145SW,Ternaard,Dongeradeel,Friesland,VBO,5.948532,53.384202
Fiskbuorren,12,,,9145SW,Ternaard,Dongeradeel,Friesland,VBO,5.948392,53.384202
Fiskbuorren,18,,,9145SW,Ternaard,Dongeradeel,Friesland,VBO,5.948053,53.384158
Fiskbuorren,20,,,9145SW,Ternaard,Dongeradeel,Friesland,VBO,5.947921,53.384090
Fiskbuorren,22,,,9145SW,Ternaard,Dongeradeel,Friesland,VBO,5.947794,53.384079
Fiskbuorren,26,,,9145SW,Ternaard,Dongeradeel,Friesland,VBO,5.947689,53.384045
Fiskbuorren,30,,,9145SW,Ternaard,Dongeradeel,Friesland,VBO,5.947316,53.384246
Fiskbuorren,9,,,9145SX,Ternaard,Dongeradeel,Friesland,VBO,5.948668,53.384147
Fiskbuorren,11,,,9145SX,Ternaard,Dongeradeel,Friesland,VBO,5.946671,53.383846
Fiskbuorren,14,,,9145SX,Ternaard,Dongeradeel,Friesland,VBO,5.948202,53.384160
Fiskbuorren,32,,,9145SX,Ternaard,Dongeradeel,Friesland,VBO,5.947451,53.384195
Fiskbuorren,34,A,,9145SX,Ternaard,Dongeradeel,Friesland,VBO,5.948065,53.384381
Fiskbuorren,34,,,9145SX,Ternaard,Dongeradeel,Friesland,VBO,5.947867,53.384431
Fiskbuorren,36,A,,9145SX,Ternaard,Dongeradeel,Friesland,VBO,5.948280,53.384486
Fiskbuorren,36,,,9145SX,Ternaard,Dongeradeel,Friesland,VBO,5.948147,53.384421
Fiskbuorren,40,,,9145SX,Ternaard,Dongeradeel,Friesland,VBO,5.948341,53.384565
Lytse Wei,1,,,9145SZ,Ternaard,Dongeradeel,Friesland,VBO,5.952999,53.379182
Lytse Wei,2,,,9145SZ,Ternaard,Dongeradeel,Friesland,VBO,5.949581,53.383078
Lytse Wei,4,,,9145SZ,Ternaard,Dongeradeel,Friesland,VBO,5.949810,53.382903
Lytse Wei,5,,,9145SZ,Ternaard,Dongeradeel,Friesland,VBO,5.953691,53.377562
Lytse Wei,6,,,9145SZ,Ternaard,Dongeradeel,Friesland,VBO,5.950069,53.382670
Lytse Wei,8,,,9145SZ,Ternaard,Dongeradeel,Friesland,VBO,5.949820,53.379249
Van Harinxmastrjitte,1,,,9145TA,Ternaard,Dongeradeel,Friesland,VBO,5.971201,53.380494
Van Harinxmastrjitte,2,,,9145TA,Ternaard,Dongeradeel,Friesland,VBO,5.971501,53.380192
Van Harinxmastrjitte,3,,,9145TA,Ternaard,Dongeradeel,Friesland,VBO,5.971183,53.380549
Van Harinxmastrjitte,4,,,9145TA,Ternaard,Dongeradeel,Friesland,VBO,5.971522,53.380336
Van Harinxmastrjitte,5,,,9145TA,Ternaard,Dongeradeel,Friesland,VBO,5.970994,53.381025
Van Harinxmastrjitte,6,,,9145TA,Ternaard,Dongeradeel,Friesland,VBO,5.971524,53.380461
Van Harinxmastrjitte,7,,,9145TA,Ternaard,Dongeradeel,Friesland,VBO,5.970969,53.381071
Van Harinxmastrjitte,8,,,9145TA,Ternaard,Dongeradeel,Friesland,VBO,5.971432,53.380695
Van Harinxmastrjitte,9,,,9145TA,Ternaard,Dongeradeel,Friesland,VBO,5.970312,53.382279
Van Harinxmastrjitte,10,,,9145TA,Ternaard,Dongeradeel,Friesland,VBO,5.971485,53.380701
Van Harinxmastrjitte,11,,,9145TA,Ternaard,Dongeradeel,Friesland,VBO,5.970081,53.383042
Van Harinxmastrjitte,12,,,9145TA,Ternaard,Dongeradeel,Friesland,VBO,5.971675,53.380713
Van Harinxmastrjitte,13,,,9145TA,Ternaard,Dongeradeel,Friesland,VBO,5.969962,53.383152
Van Harinxmastrjitte,14,,,9145TA,Ternaard,Dongeradeel,Friesland,VBO,5.971751,53.380725
Van Harinxmastrjitte,15,,,9145TA,Ternaard,Dongeradeel,Friesland,VBO,5.969851,53.383272
Van Harinxmastrjitte,16,,,9145TA,Ternaard,Dongeradeel,Friesland,VBO,5.971841,53.380739
Van Harinxmastrjitte,18,,,9145TA,Ternaard,Dongeradeel,Friesland,VBO,5.971287,53.380952
Van Harinxmastrjitte,20,,,9145TA,Ternaard,Dongeradeel,Friesland,VBO,5.971281,53.381003
Van Harinxmastrjitte,22,,,9145TA,Ternaard,Dongeradeel,Friesland,VBO,5.971222,53.381144
Van Harinxmastrjitte,24,,,9145TA,Ternaard,Dongeradeel,Friesland,VBO,5.971203,53.381199
Van Harinxmastrjitte,26,,,9145TA,Ternaard,Dongeradeel,Friesland,VBO,5.971145,53.381451
Van Harinxmastrjitte,28,,,9145TA,Ternaard,Dongeradeel,Friesland,VBO,5.971021,53.381619
Van Harinxmastrjitte,30,,,9145TA,Ternaard,Dongeradeel,Friesland,VBO,5.970965,53.381759
Van Harinxmastrjitte,32,,,9145TA,Ternaard,Dongeradeel,Friesland,VBO,5.970892,53.381942
Van Harinxmastrjitte,34,,,9145TA,Ternaard,Dongeradeel,Friesland,VBO,5.970884,53.382266
Van Harinxmastrjitte,36,,,9145TA,Ternaard,Dongeradeel,Friesland,VBO,5.970881,53.382328
Van Harinxmastrjitte,38,,,9145TA,Ternaard,Dongeradeel,Friesland,VBO,5.970778,53.382426
Van Harinxmastrjitte,40,,,9145TA,Ternaard,Dongeradeel,Friesland,VBO,5.970755,53.382680
Van Harinxmastrjitte,46,,,9145TA,Ternaard,Dongeradeel,Friesland,VBO,5.970666,53.382857
Van Harinxmastrjitte,50,,,9145TA,Ternaard,Dongeradeel,Friesland,VBO,5.970527,53.383055
Coert Lambertusstrjitte,1,,,9145TB,Ternaard,Dongeradeel,Friesland,VBO,5.970548,53.381066
Coert Lambertusstrjitte,2,,,9145TB,Ternaard,Dongeradeel,Friesland,VBO,5.970794,53.381298
Coert Lambertusstrjitte,3,,,9145TB,Ternaard,Dongeradeel,Friesland,VBO,5.970457,53.381053
Coert Lambertusstrjitte,4,,,9145TB,Ternaard,Dongeradeel,Friesland,VBO,5.970587,53.381256
Coert Lambertusstrjitte,5,,,9145TB,Ternaard,Dongeradeel,Friesland,VBO,5.970404,53.381031
Coert Lambertusstrjitte,6,,,9145TB,Ternaard,Dongeradeel,Friesland,VBO,5.970368,53.381244
Coert Lambertusstrjitte,7,,,9145TB,Ternaard,Dongeradeel,Friesland,VBO,5.970312,53.381014
Coert Lambertusstrjitte,8,,,9145TB,Ternaard,Dongeradeel,Friesland,VBO,5.969916,53.381201
Coert Lambertusstrjitte,9,,,9145TB,Ternaard,Dongeradeel,Friesland,VBO,5.970081,53.380994
Coert Lambertusstrjitte,10,,,9145TB,Ternaard,Dongeradeel,Friesland,VBO,5.969865,53.381327
Coert Lambertusstrjitte,11,,,9145TB,Ternaard,Dongeradeel,Friesland,VBO,5.969992,53.380981
Coert Lambertusstrjitte,12,,,9145TB,Ternaard,Dongeradeel,Friesland,VBO,5.969805,53.381470
Coert Lambertusstrjitte,13,,,9145TB,Ternaard,Dongeradeel,Friesland,VBO,5.969910,53.380967
Coert Lambertusstrjitte,14,,,9145TB,Ternaard,Dongeradeel,Friesland,VBO,5.969794,53.381603
Coert Lambertusstrjitte,15,,,9145TB,Ternaard,Dongeradeel,Friesland,VBO,5.969827,53.380976
Coert Lambertusstrjitte,16,,,9145TB,Ternaard,Dongeradeel,Friesland,VBO,5.970179,53.381639
Coert Lambertusstrjitte,17,,,9145TB,Ternaard,Dongeradeel,Friesland,VBO,5.969744,53.380963
Coert Lambertusstrjitte,18,,,9145TB,Ternaard,Dongeradeel,Friesland,VBO,5.970411,53.381641
Coert Lambertusstrjitte,19,,,9145TB,Ternaard,Dongeradeel,Friesland,VBO,5.969653,53.380951
Coert Lambertusstrjitte,20,,,9145TB,Ternaard,Dongeradeel,Friesland,VBO,5.970666,53.381647
Coert Lambertusstrjitte,21,,,9145TB,Ternaard,Dongeradeel,Friesland,VBO,5.969825,53.381862
Coert Lambertusstrjitte,23,,,9145TB,Ternaard,Dongeradeel,Friesland,VBO,5.970074,53.381856
Coert Lambertusstrjitte,25,,,9145TB,Ternaard,Dongeradeel,Friesland,VBO,5.970336,53.381858
Coert Lambertusstrjitte,27,,,9145TB,Ternaard,Dongeradeel,Friesland,VBO,5.970566,53.381857
Albertus Nautastrjitte,1,,,9145TC,Ternaard,Dongeradeel,Friesland,VBO,5.970294,53.382640
Albertus Nautastrjitte,2,,,9145TC,Ternaard,Dongeradeel,Friesland,VBO,5.970177,53.382871
Albertus Nautastrjitte,3,,,9145TC,Ternaard,Dongeradeel,Friesland,VBO,5.970187,53.382628
Albertus Nautastrjitte,4,,,9145TC,Ternaard,Dongeradeel,Friesland,VBO,5.969734,53.382807
Albertus Nautastrjitte,5,,,9145TC,Ternaard,Dongeradeel,Friesland,VBO,5.970064,53.382614
Albertus Nautastrjitte,6,,,9145TC,Ternaard,Dongeradeel,Friesland,VBO,5.969391,53.382750
Albertus Nautastrjitte,7,,,9145TC,Ternaard,Dongeradeel,Friesland,VBO,5.969919,53.382593
Albertus Nautastrjitte,9,,,9145TC,Ternaard,Dongeradeel,Friesland,VBO,5.969819,53.382580
Albertus Nautastrjitte,11,,,9145TC,Ternaard,Dongeradeel,Friesland,VBO,5.969664,53.382556
Albertus Nautastrjitte,13,,,9145TC,Ternaard,Dongeradeel,Friesland,VBO,5.969550,53.382536
Albertus Nautastrjitte,15,,,9145TC,Ternaard,Dongeradeel,Friesland,VBO,5.969400,53.382509
Albertus Nautastrjitte,17,,,9145TC,Ternaard,Dongeradeel,Friesland,VBO,5.969429,53.382425
Albertus Nautastrjitte,19,,,9145TC,Ternaard,Dongeradeel,Friesland,VBO,5.969575,53.382449
Albertus Nautastrjitte,21,,,9145TC,Ternaard,Dongeradeel,Friesland,VBO,5.969716,53.382467
Albertus Nautastrjitte,23,,,9145TC,Ternaard,Dongeradeel,Friesland,VBO,5.969855,53.382486
Albertus Nautastrjitte,25,,,9145TC,Ternaard,Dongeradeel,Friesland,VBO,5.969984,53.382503
Albertus Nautastrjitte,27,,,9145TC,Ternaard,Dongeradeel,Friesland,VBO,5.970099,53.382520
Albertus Nautastrjitte,29,,,9145TC,Ternaard,Dongeradeel,Friesland,VBO,5.970203,53.382535
Albertus Nautastrjitte,31,,,9145TC,Ternaard,Dongeradeel,Friesland,VBO,5.970323,53.382555
