openbareruimtenaam,huisnummer,huisletter,huisnummertoevoeging,postcode,woonplaatsnaam,gemeentenaam,provincienaam,typeadresseerbaarobject,longitude,latitude
Kahoolsterlaan,2,,,9172AN,Ferwert,Ferwerderadiel,Friesland,VBO,5.841079,53.352990
Zeedijk,2,,,9172AP,Ferwert,Ferwerderadiel,Friesland,VBO,5.791434,53.340733
Zeedijk,3,,,9172AP,Ferwert,Ferwerderadiel,Friesland,VBO,5.792152,53.341129
Zeedijk,4,,,9172AP,Ferwert,Ferwerderadiel,Friesland,VBO,5.792651,53.341352
Zeedijk,5,,,9172AP,Ferwert,Ferwerderadiel,Friesland,VBO,5.793209,53.341593
Zeedijk,6,,,9172AP,Ferwert,Ferwerderadiel,Friesland,VBO,5.793395,53.341630
Zeedijk,7,,,9172AP,Ferwert,Ferwerderadiel,Friesland,VBO,5.794123,53.341892
Zeedijk,8,A,,9172AP,Ferwert,Ferwerderadiel,Friesland,VBO,5.796683,53.342782
Zeedijk,8,,,9172AP,Ferwert,Ferwerderadiel,Friesland,VBO,5.796117,53.342696
Zeedijk,9,,,9172AP,Ferwert,Ferwerderadiel,Friesland,VBO,5.801710,53.344930
Zeedijk,10,,,9172AP,Ferwert,Ferwerderadiel,Friesland,VBO,5.807426,53.348034
Zeedijk,11,A,,9172AP,Ferwert,Ferwerderadiel,Friesland,VBO,5.808229,53.348444
Zeedijk,12,,,9172AP,Ferwert,Ferwerderadiel,Friesland,VBO,5.808968,53.348904
Zeedijk,13,A,,9172AP,Ferwert,Ferwerderadiel,Friesland,VBO,5.811094,53.349652
Zeedijk,13,,,9172AP,Ferwert,Ferwerderadiel,Friesland,VBO,5.810848,53.349546
Zeedijk,14,,,9172AP,Ferwert,Ferwerderadiel,Friesland,VBO,5.811810,53.350014
Zeedijk,15,A,,9172AP,Ferwert,Ferwerderadiel,Friesland,VBO,5.812659,53.350334
Zeedijk,15,,,9172AP,Ferwert,Ferwerderadiel,Friesland,VBO,5.813005,53.350364
Zeedijk,16,A,,9172AP,Ferwert,Ferwerderadiel,Friesland,VBO,5.814846,53.351247
Zeedijk,16,,,9172AP,Ferwert,Ferwerderadiel,Friesland,VBO,5.814092,53.350744
Zeedijk,16,,,9172AP,Ferwert,Ferwerderadiel,Friesland,VBO,5.816228,53.349776
Zeedijk,17,,,9172AP,Ferwert,Ferwerderadiel,Friesland,VBO,5.815026,53.351387
Zeedijk,18,,,9172AP,Ferwert,Ferwerderadiel,Friesland,VBO,5.815261,53.351247
Zeedijk,20,,,9172AP,Ferwert,Ferwerderadiel,Friesland,VBO,5.818913,53.352811
Zeedijk,22,,,9172AR,Ferwert,Ferwerderadiel,Friesland,VBO,5.819137,53.352938
Zeedijk,23,,,9172AR,Ferwert,Ferwerderadiel,Friesland,VBO,5.819727,53.352535
Zeedijk,25,,,9172AR,Ferwert,Ferwerderadiel,Friesland,VBO,5.824121,53.354393
Zeedijk,26,,,9172AR,Ferwert,Ferwerderadiel,Friesland,VBO,5.828558,53.355094
Zeedijk,28,,,9172AR,Ferwert,Ferwerderadiel,Friesland,VBO,5.832738,53.356685
Zeedijk,30,,,9172AR,Ferwert,Ferwerderadiel,Friesland,VBO,5.834685,53.357142
Reinderslaan,16,,,9172AS,Ferwert,Ferwerderadiel,Friesland,VBO,5.816813,53.344213
Koailoane,3,,,9172AV,Ferwert,Ferwerderadiel,Friesland,VBO,5.821537,53.346698
Koailoane,4,,,9172AV,Ferwert,Ferwerderadiel,Friesland,VBO,5.822724,53.348294
Molenlaan,1,,,9172AW,Ferwert,Ferwerderadiel,Friesland,VBO,5.818097,53.338533
Molenlaan,2,,,9172AW,Ferwert,Ferwerderadiel,Friesland,VBO,5.818471,53.338593
Molenlaan,4,,,9172AW,Ferwert,Ferwerderadiel,Friesland,VBO,5.818380,53.338644
Molenlaan,8,,,9172AW,Ferwert,Ferwerderadiel,Friesland,VBO,5.806362,53.341834
Molenlaan,11,,,9172AW,Ferwert,Ferwerderadiel,Friesland,VBO,5.803395,53.340669
Molenlaan,13,,,9172AW,Ferwert,Ferwerderadiel,Friesland,VBO,5.801954,53.340272
It Kleaster,1,A,,9172GL,Ferwert,Ferwerderadiel,Friesland,VBO,5.834633,53.319274
It Kleaster,1,,,9172GL,Ferwert,Ferwerderadiel,Friesland,VBO,5.834907,53.319537
It Kleaster,3,,,9172GL,Ferwert,Ferwerderadiel,Friesland,VBO,5.835658,53.319024
It Kleaster,5,,,9172GL,Ferwert,Ferwerderadiel,Friesland,VBO,5.845167,53.319933
Kleasterwei,1,,,9172GM,Ferwert,Ferwerderadiel,Friesland,VBO,5.825676,53.335840
Kleasterwei,2,,,9172GM,Ferwert,Ferwerderadiel,Friesland,VBO,5.824788,53.336594
Kleasterwei,3,,,9172GM,Ferwert,Ferwerderadiel,Friesland,VBO,5.825642,53.335612
Kleasterwei,4,,,9172GM,Ferwert,Ferwerderadiel,Friesland,VBO,5.824832,53.336506
Kleasterwei,5,,,9172GM,Ferwert,Ferwerderadiel,Friesland,VBO,5.825572,53.335434
Kleasterwei,6,,,9172GM,Ferwert,Ferwerderadiel,Friesland,VBO,5.824843,53.336430
Kleasterwei,8,,,9172GM,Ferwert,Ferwerderadiel,Friesland,VBO,5.824897,53.336335
Kleasterwei,12,,,9172GM,Ferwert,Ferwerderadiel,Friesland,VBO,5.824936,53.336220
Kleasterwei,14,,,9172GM,Ferwert,Ferwerderadiel,Friesland,VBO,5.825028,53.336116
Kleasterwei,16,A,,9172GM,Ferwert,Ferwerderadiel,Friesland,VBO,5.822454,53.334742
Kleasterwei,16,,,9172GM,Ferwert,Ferwerderadiel,Friesland,VBO,5.825062,53.336051
Kleasterwei,18,,,9172GM,Ferwert,Ferwerderadiel,Friesland,VBO,5.824993,53.335566
Kleasterwei,20,A,,9172GM,Ferwert,Ferwerderadiel,Friesland,VBO,5.824805,53.334766
Kleasterwei,20,B,,9172GM,Ferwert,Ferwerderadiel,Friesland,VBO,5.824752,53.334512
Kleasterwei,20,C,,9172GM,Ferwert,Ferwerderadiel,Friesland,VBO,5.824757,53.334277
Kleasterwei,20,F,,9172GM,Ferwert,Ferwerderadiel,Friesland,VBO,5.824779,53.334034
Kleasterwei,20,G,,9172GM,Ferwert,Ferwerderadiel,Friesland,VBO,5.824724,53.333795
Kleasterwei,20,,,9172GM,Ferwert,Ferwerderadiel,Friesland,VBO,5.824890,53.335018
Kleasterwei,22,,,9172GM,Ferwert,Ferwerderadiel,Friesland,VBO,5.824686,53.333428
Kleasterwei,24,,,9172GM,Ferwert,Ferwerderadiel,Friesland,VBO,5.824594,53.333166
Kleasterwei,28,,,9172GM,Ferwert,Ferwerderadiel,Friesland,VBO,5.824629,53.333041
Kleasterwei,7,,,9172GN,Ferwert,Ferwerderadiel,Friesland,VBO,5.825912,53.335332
Kleasterwei,11,A,,9172GN,Ferwert,Ferwerderadiel,Friesland,VBO,5.825648,53.334939
Kleasterwei,11,,,9172GN,Ferwert,Ferwerderadiel,Friesland,VBO,5.825580,53.335091
Kleasterwei,13,,,9172GN,Ferwert,Ferwerderadiel,Friesland,VBO,5.825517,53.334826
Kleasterwei,15,,,9172GN,Ferwert,Ferwerderadiel,Friesland,VBO,5.825714,53.334402
Kleasterwei,17,,,9172GN,Ferwert,Ferwerderadiel,Friesland,VBO,5.825611,53.334243
Kleasterwei,19,,,9172GN,Ferwert,Ferwerderadiel,Friesland,VBO,5.825772,53.334225
Kleasterwei,21,A,,9172GN,Ferwert,Ferwerderadiel,Friesland,VBO,5.825363,53.333769
Kleasterwei,21,,,9172GN,Ferwert,Ferwerderadiel,Friesland,VBO,5.825395,53.333948
Kleasterwei,23,,,9172GN,Ferwert,Ferwerderadiel,Friesland,VBO,5.825160,53.333388
Kleasterwei,25,,,9172GN,Ferwert,Ferwerderadiel,Friesland,VBO,5.825195,53.333148
Kleasterwei,27,,,9172GN,Ferwert,Ferwerderadiel,Friesland,VBO,5.825058,53.332963
Kleasterwei,29,,,9172GN,Ferwert,Ferwerderadiel,Friesland,VBO,5.825035,53.332745
Kleasterwei,31,,,9172GN,Ferwert,Ferwerderadiel,Friesland,VBO,5.824932,53.332542
Kleasterwei,32,,,9172GN,Ferwert,Ferwerderadiel,Friesland,VBO,5.824583,53.332876
Kleasterwei,33,,,9172GN,Ferwert,Ferwerderadiel,Friesland,VBO,5.825797,53.332305
Kleasterwei,35,,,9172GN,Ferwert,Ferwerderadiel,Friesland,VBO,5.825964,53.332243
Kleasterwei,37,,,9172GN,Ferwert,Ferwerderadiel,Friesland,VBO,5.826439,53.332070
Kleasterwei,38,,,9172GN,Ferwert,Ferwerderadiel,Friesland,VBO,5.824537,53.332714
Kleasterwei,39,,,9172GN,Ferwert,Ferwerderadiel,Friesland,VBO,5.825662,53.330980
Kleasterwei,40,,,9172GN,Ferwert,Ferwerderadiel,Friesland,VBO,5.824315,53.332782
Kleasterwei,41,,,9172GN,Ferwert,Ferwerderadiel,Friesland,VBO,5.826013,53.330678
Kleasterwei,42,,,9172GN,Ferwert,Ferwerderadiel,Friesland,VBO,5.824210,53.332816
Kleasterwei,44,,,9172GN,Ferwert,Ferwerderadiel,Friesland,VBO,5.824114,53.332860
Kleasterwei,48,,,9172GN,Ferwert,Ferwerderadiel,Friesland,VBO,5.823810,53.332976
Hegebeintumerdyk,16,A,,9172GP,Ferwert,Ferwerderadiel,Friesland,VBO,5.830376,53.335220
Hegebeintumerdyk,16,B,,9172GP,Ferwert,Ferwerderadiel,Friesland,VBO,5.828911,53.335134
Hegebeintumerdyk,16,,,9172GP,Ferwert,Ferwerderadiel,Friesland,VBO,5.829212,53.335227
Hegebeintumerdyk,18,C,,9172GP,Ferwert,Ferwerderadiel,Friesland,VBO,5.835512,53.335852
Hegebeintumerdyk,18,,,9172GP,Ferwert,Ferwerderadiel,Friesland,VBO,5.833595,53.336103
Hegebeintumerdyk,20,,,9172GP,Ferwert,Ferwerderadiel,Friesland,VBO,5.839749,53.335550
Hegebeintumerdyk,35,A,,9172GP,Ferwert,Ferwerderadiel,Friesland,VBO,5.830145,53.336436
Hegebeintumerdyk,35,B,,9172GP,Ferwert,Ferwerderadiel,Friesland,VBO,5.828517,53.336413
Hegebeintumerdyk,35,C,,9172GP,Ferwert,Ferwerderadiel,Friesland,VBO,5.830021,53.336737
Hegebeintumerdyk,35,D,,9172GP,Ferwert,Ferwerderadiel,Friesland,VBO,5.829800,53.336701
Hegebeintumerdyk,35,E,,9172GP,Ferwert,Ferwerderadiel,Friesland,VBO,5.830221,53.336733
Hegebeintumerdyk,35,F,,9172GP,Ferwert,Ferwerderadiel,Friesland,VBO,5.830315,53.336904
Hegebeintumerdyk,35,,,9172GP,Ferwert,Ferwerderadiel,Friesland,VBO,5.828407,53.336262
Hegebeintumerdyk,37,A,,9172GP,Ferwert,Ferwerderadiel,Friesland,VBO,5.831190,53.336533
Hegebeintumerdyk,37,,,9172GP,Ferwert,Ferwerderadiel,Friesland,VBO,5.831240,53.336352
Hegebeintumerdyk,39,,,9172GP,Ferwert,Ferwerderadiel,Friesland,VBO,5.832912,53.336379
Hegebeintumerdyk,45,,,9172GP,Ferwert,Ferwerderadiel,Friesland,VBO,5.833007,53.336595
Hegebeintumerdyk,49,A,,9172GP,Ferwert,Ferwerderadiel,Friesland,VBO,5.835967,53.336396
Hegebeintumerdyk,49,,,9172GP,Ferwert,Ferwerderadiel,Friesland,VBO,5.833663,53.336447
Hegebeintumerdyk,51,,,9172GP,Ferwert,Ferwerderadiel,Friesland,VBO,5.840089,53.335908
Mûnewei,1,,,9172GR,Ferwert,Ferwerderadiel,Friesland,VBO,5.834287,53.336540
Mûnewei,2,A,,9172GR,Ferwert,Ferwerderadiel,Friesland,VBO,5.835049,53.336461
Mûnewei,2,,,9172GR,Ferwert,Ferwerderadiel,Friesland,VBO,5.835013,53.336823
Mûnewei,3,,,9172GR,Ferwert,Ferwerderadiel,Friesland,VBO,5.833956,53.336840
Mûnewei,4,A,,9172GR,Ferwert,Ferwerderadiel,Friesland,VBO,5.834172,53.337621
Mûnewei,4,,,9172GR,Ferwert,Ferwerderadiel,Friesland,VBO,5.834436,53.337250
Mûnewei,6,,,9172GR,Ferwert,Ferwerderadiel,Friesland,VBO,5.833923,53.338144
Mûnewei,9,,,9172GR,Ferwert,Ferwerderadiel,Friesland,VBO,5.833125,53.338124
Bongaloane,2,A,,9172GS,Ferwert,Ferwerderadiel,Friesland,VBO,5.835688,53.329448
Bongaloane,2,B,,9172GS,Ferwert,Ferwerderadiel,Friesland,VBO,5.835329,53.329272
Bongaloane,2,,,9172GS,Ferwert,Ferwerderadiel,Friesland,VBO,5.836972,53.329719
Bongaloane,4,,,9172GS,Ferwert,Ferwerderadiel,Friesland,VBO,5.840156,53.328985
Bongaloane,6,,,9172GS,Ferwert,Ferwerderadiel,Friesland,VBO,5.838688,53.330427
De Wjuk,3,,,9172GT,Ferwert,Ferwerderadiel,Friesland,VBO,5.835796,53.337317
De Wjuk,5,,,9172GT,Ferwert,Ferwerderadiel,Friesland,VBO,5.835710,53.337536
De Wjuk,7,,,9172GT,Ferwert,Ferwerderadiel,Friesland,VBO,5.835555,53.337938
De Wjuk,9,,,9172GT,Ferwert,Ferwerderadiel,Friesland,VBO,5.835342,53.338176
De Wjuk,11,,,9172GT,Ferwert,Ferwerderadiel,Friesland,VBO,5.835323,53.338265
De Stelling,1,,,9172GV,Ferwert,Ferwerderadiel,Friesland,VBO,5.836441,53.336386
De Stelling,5,A,,9172GV,Ferwert,Ferwerderadiel,Friesland,VBO,5.835790,53.336880
De Stelling,5,,,9172GV,Ferwert,Ferwerderadiel,Friesland,VBO,5.836244,53.336962
De Kruilier,1,,,9172GW,Ferwert,Ferwerderadiel,Friesland,VBO,5.836824,53.335709
De Kruilier,2,,,9172GW,Ferwert,Ferwerderadiel,Friesland,VBO,5.836306,53.335809
Brouwersstraat,2,,,9172MG,Ferwert,Ferwerderadiel,Friesland,VBO,5.825321,53.338481
De Boppeslach,1,A,,9172MH,Ferwert,Ferwerderadiel,Friesland,VBO,5.821529,53.335713
De Boppeslach,1,,,9172MH,Ferwert,Ferwerderadiel,Friesland,VBO,5.821095,53.335553
De Boppeslach,2,,,9172MH,Ferwert,Ferwerderadiel,Friesland,VBO,5.821026,53.335164
Roulastrjitte,1,,,9172MJ,Ferwert,Ferwerderadiel,Friesland,VBO,5.825868,53.339753
Roulastrjitte,2,,,9172MJ,Ferwert,Ferwerderadiel,Friesland,VBO,5.825978,53.339954
Roulastrjitte,3,,,9172MJ,Ferwert,Ferwerderadiel,Friesland,VBO,5.825790,53.339798
Roulastrjitte,4,,,9172MJ,Ferwert,Ferwerderadiel,Friesland,VBO,5.826043,53.339994
Roulastrjitte,5,,,9172MJ,Ferwert,Ferwerderadiel,Friesland,VBO,5.825712,53.339842
Roulastrjitte,6,,,9172MJ,Ferwert,Ferwerderadiel,Friesland,VBO,5.826108,53.340034
Roulastrjitte,7,,,9172MJ,Ferwert,Ferwerderadiel,Friesland,VBO,5.825633,53.339887
Roulastrjitte,8,,,9172MJ,Ferwert,Ferwerderadiel,Friesland,VBO,5.826173,53.340075
Roulastrjitte,9,,,9172MJ,Ferwert,Ferwerderadiel,Friesland,VBO,5.825555,53.339932
Roulastrjitte,10,,,9172MJ,Ferwert,Ferwerderadiel,Friesland,VBO,5.826276,53.340317
Roulastrjitte,11,,,9172MJ,Ferwert,Ferwerderadiel,Friesland,VBO,5.825477,53.339977
Roulastrjitte,12,,,9172MJ,Ferwert,Ferwerderadiel,Friesland,VBO,5.826192,53.340361
Roulastrjitte,14,,,9172MJ,Ferwert,Ferwerderadiel,Friesland,VBO,5.826109,53.340406
Roulastrjitte,16,,,9172MJ,Ferwert,Ferwerderadiel,Friesland,VBO,5.826026,53.340450
Roulastrjitte,18,,,9172MJ,Ferwert,Ferwerderadiel,Friesland,VBO,5.826016,53.340242
Roulastrjitte,20,,,9172MJ,Ferwert,Ferwerderadiel,Friesland,VBO,5.825945,53.340195
Roulastrjitte,22,,,9172MJ,Ferwert,Ferwerderadiel,Friesland,VBO,5.825874,53.340149
Roulastrjitte,24,,,9172MJ,Ferwert,Ferwerderadiel,Friesland,VBO,5.825804,53.340102
De Kolfbank,1,,,9172MK,Ferwert,Ferwerderadiel,Friesland,VBO,5.825877,53.337949
De Kolfbank,2,,,9172MK,Ferwert,Ferwerderadiel,Friesland,VBO,5.826448,53.337965
De Kolfbank,3,,,9172MK,Ferwert,Ferwerderadiel,Friesland,VBO,5.825933,53.338011
De Kolfbank,4,,,9172MK,Ferwert,Ferwerderadiel,Friesland,VBO,5.826469,53.338030
De Kolfbank,5,,,9172MK,Ferwert,Ferwerderadiel,Friesland,VBO,5.825989,53.338074
De Kolfbank,6,,,9172MK,Ferwert,Ferwerderadiel,Friesland,VBO,5.826491,53.338096
De Kolfbank,7,,,9172MK,Ferwert,Ferwerderadiel,Friesland,VBO,5.826045,53.338137
De Kolfbank,8,,,9172MK,Ferwert,Ferwerderadiel,Friesland,VBO,5.826513,53.338162
De Kolfbank,9,,,9172MK,Ferwert,Ferwerderadiel,Friesland,VBO,5.826101,53.338199
De Kolfbank,10,,,9172MK,Ferwert,Ferwerderadiel,Friesland,VBO,5.826535,53.338228
De Kolfbank,11,,,9172MK,Ferwert,Ferwerderadiel,Friesland,VBO,5.826157,53.338262
Hoofdstraat,1,,,9172ML,Ferwert,Ferwerderadiel,Friesland,VBO,5.823735,53.338151
Hoofdstraat,3,,,9172ML,Ferwert,Ferwerderadiel,Friesland,VBO,5.824486,53.338423
Hoofdstraat,5,,,9172ML,Ferwert,Ferwerderadiel,Friesland,VBO,5.824602,53.338451
Hoofdstraat,9,,,9172ML,Ferwert,Ferwerderadiel,Friesland,VBO,5.824639,53.338539
Hoofdstraat,11,,,9172ML,Ferwert,Ferwerderadiel,Friesland,VBO,5.824766,53.338564
Hoofdstraat,17,,,9172ML,Ferwert,Ferwerderadiel,Friesland,VBO,5.824817,53.338647
Hoofdstraat,23,,,9172ML,Ferwert,Ferwerderadiel,Friesland,VBO,5.825127,53.338860
Hoofdstraat,25,,,9172ML,Ferwert,Ferwerderadiel,Friesland,VBO,5.825215,53.338947
Hoofdstraat,29,,,9172ML,Ferwert,Ferwerderadiel,Friesland,VBO,5.825318,53.339041
Hoofdstraat,31,,,9172MN,Ferwert,Ferwerderadiel,Friesland,VBO,5.825604,53.339280
Hoofdstraat,33,,,9172MN,Ferwert,Ferwerderadiel,Friesland,VBO,5.825755,53.339347
Hoofdstraat,35,,,9172MN,Ferwert,Ferwerderadiel,Friesland,VBO,5.826019,53.339515
Hoofdstraat,41,,,9172MN,Ferwert,Ferwerderadiel,Friesland,VBO,5.826283,53.339765
Hoofdstraat,61,,,9172MN,Ferwert,Ferwerderadiel,Friesland,VBO,5.826508,53.339834
Hoofdstraat,63,,,9172MN,Ferwert,Ferwerderadiel,Friesland,VBO,5.826562,53.339891
Hoofdstraat,2,,,9172MP,Ferwert,Ferwerderadiel,Friesland,VBO,5.824174,53.337910
Hoofdstraat,4,A,,9172MP,Ferwert,Ferwerderadiel,Friesland,VBO,5.824332,53.338057
Hoofdstraat,4,,,9172MP,Ferwert,Ferwerderadiel,Friesland,VBO,5.824230,53.337989
Hoofdstraat,6,,,9172MP,Ferwert,Ferwerderadiel,Friesland,VBO,5.824447,53.338107
Hoofdstraat,8,,,9172MP,Ferwert,Ferwerderadiel,Friesland,VBO,5.824518,53.338144
Hoofdstraat,12,A,,9172MP,Ferwert,Ferwerderadiel,Friesland,VBO,5.824681,53.338199
Hoofdstraat,12,,,9172MP,Ferwert,Ferwerderadiel,Friesland,VBO,5.824602,53.338236
Hoofdstraat,14,,,9172MP,Ferwert,Ferwerderadiel,Friesland,VBO,5.824758,53.338268
Hoofdstraat,16,,,9172MP,Ferwert,Ferwerderadiel,Friesland,VBO,5.824838,53.338335
Hoofdstraat,18,,,9172MP,Ferwert,Ferwerderadiel,Friesland,VBO,5.824921,53.338389
Hoofdstraat,20,,,9172MP,Ferwert,Ferwerderadiel,Friesland,VBO,5.825025,53.338436
Hoofdstraat,22,,,9172MP,Ferwert,Ferwerderadiel,Friesland,VBO,5.825083,53.338502
Hoofdstraat,24,A,,9172MP,Ferwert,Ferwerderadiel,Friesland,VBO,5.825141,53.338595
Hoofdstraat,24,,,9172MP,Ferwert,Ferwerderadiel,Friesland,VBO,5.825116,53.338570
Hoofdstraat,26,,,9172MP,Ferwert,Ferwerderadiel,Friesland,VBO,5.825892,53.339007
Hoofdstraat,28,,,9172MP,Ferwert,Ferwerderadiel,Friesland,VBO,5.825993,53.339071
Hoofdstraat,42,A,,9172MP,Ferwert,Ferwerderadiel,Friesland,VBO,5.825921,53.339220
Hoofdstraat,42,,,9172MP,Ferwert,Ferwerderadiel,Friesland,VBO,5.825936,53.339234
Hoofdstraat,44,,,9172MP,Ferwert,Ferwerderadiel,Friesland,VBO,5.826037,53.339262
Hoofdstraat,46,A,,9172MP,Ferwert,Ferwerderadiel,Friesland,VBO,5.826349,53.339459
Hoofdstraat,46,,,9172MP,Ferwert,Ferwerderadiel,Friesland,VBO,5.826561,53.339597
Hoofdstraat,48,,,9172MP,Ferwert,Ferwerderadiel,Friesland,VBO,5.826756,53.339695
Vrijhof,1,,,9172MR,Ferwert,Ferwerderadiel,Friesland,VBO,5.824054,53.338215
Vrijhof,2,,,9172MR,Ferwert,Ferwerderadiel,Friesland,VBO,5.823988,53.338269
Vrijhof,3,,,9172MR,Ferwert,Ferwerderadiel,Friesland,VBO,5.823903,53.338309
Vrijhof,4,,,9172MR,Ferwert,Ferwerderadiel,Friesland,VBO,5.823864,53.338380
Vrijhof,5,,,9172MR,Ferwert,Ferwerderadiel,Friesland,VBO,5.823850,53.338479
Vrijhof,7,,,9172MR,Ferwert,Ferwerderadiel,Friesland,VBO,5.823870,53.338596
Vrijhof,8,,,9172MR,Ferwert,Ferwerderadiel,Friesland,VBO,5.823991,53.338624
Vrijhof,9,,,9172MR,Ferwert,Ferwerderadiel,Friesland,VBO,5.824066,53.338649
Vrijhof,10,,,9172MR,Ferwert,Ferwerderadiel,Friesland,VBO,5.824285,53.338574
Looxmastraat,15,,,9172MS,Ferwert,Ferwerderadiel,Friesland,VBO,5.826275,53.337720
Looxmastraat,17,,,9172MS,Ferwert,Ferwerderadiel,Friesland,VBO,5.826375,53.337705
Looxmastraat,19,,,9172MS,Ferwert,Ferwerderadiel,Friesland,VBO,5.826485,53.337689
Looxmastraat,21,,,9172MS,Ferwert,Ferwerderadiel,Friesland,VBO,5.826585,53.337675
Looxmastraat,23,,,9172MS,Ferwert,Ferwerderadiel,Friesland,VBO,5.826686,53.337659
Looxmastraat,25,,,9172MS,Ferwert,Ferwerderadiel,Friesland,VBO,5.826796,53.337643
Looxmastraat,27,,,9172MS,Ferwert,Ferwerderadiel,Friesland,VBO,5.826897,53.337628
Looxmastraat,29,,,9172MS,Ferwert,Ferwerderadiel,Friesland,VBO,5.827004,53.337613
Looxmastraat,31,,,9172MS,Ferwert,Ferwerderadiel,Friesland,VBO,5.827111,53.337596
Looxmastraat,33,,,9172MS,Ferwert,Ferwerderadiel,Friesland,VBO,5.827217,53.337580
Achter Brouwers,2,,,9172MT,Ferwert,Ferwerderadiel,Friesland,VBO,5.824892,53.338089
Achter Brouwers,26,,,9172MT,Ferwert,Ferwerderadiel,Friesland,VBO,5.825506,53.338284
Achter Brouwers,28,,,9172MT,Ferwert,Ferwerderadiel,Friesland,VBO,5.825418,53.338335
Achter Brouwers,30,,,9172MT,Ferwert,Ferwerderadiel,Friesland,VBO,5.825494,53.338478
Achter Brouwers,32,,,9172MT,Ferwert,Ferwerderadiel,Friesland,VBO,5.825637,53.338583
Achter Brouwers,34,,,9172MT,Ferwert,Ferwerderadiel,Friesland,VBO,5.825723,53.338673
Havenstraat,1,,,9172MV,Ferwert,Ferwerderadiel,Friesland,VBO,5.825554,53.338982
Havenstraat,3,,,9172MV,Ferwert,Ferwerderadiel,Friesland,VBO,5.826035,53.338780
Havenstraat,5,,,9172MV,Ferwert,Ferwerderadiel,Friesland,VBO,5.826282,53.338711
Havenstraat,15,,,9172MV,Ferwert,Ferwerderadiel,Friesland,VBO,5.826460,53.338664
Havenstraat,17,,,9172MV,Ferwert,Ferwerderadiel,Friesland,VBO,5.826557,53.338632
Havenstraat,19,,,9172MV,Ferwert,Ferwerderadiel,Friesland,VBO,5.826639,53.338586
Havenstraat,21,,,9172MV,Ferwert,Ferwerderadiel,Friesland,VBO,5.826740,53.338570
Havenstraat,25,,,9172MV,Ferwert,Ferwerderadiel,Friesland,VBO,5.826909,53.338532
Havenstraat,27,,,9172MV,Ferwert,Ferwerderadiel,Friesland,VBO,5.828461,53.338800
Havenstraat,29,,,9172MV,Ferwert,Ferwerderadiel,Friesland,VBO,5.828585,53.338814
Havenstraat,10,,,9172MX,Ferwert,Ferwerderadiel,Friesland,VBO,5.826058,53.338559
Havenstraat,12,,,9172MX,Ferwert,Ferwerderadiel,Friesland,VBO,5.826158,53.338541
Havenstraat,14,,,9172MX,Ferwert,Ferwerderadiel,Friesland,VBO,5.826312,53.338516
Havenstraat,22,,,9172MX,Ferwert,Ferwerderadiel,Friesland,VBO,5.826739,53.338409
Havenstraat,26,,,9172MX,Ferwert,Ferwerderadiel,Friesland,VBO,5.826744,53.338163
Havenstraat,34,,,9172MX,Ferwert,Ferwerderadiel,Friesland,VBO,5.826885,53.338391
Havenstraat,36,,,9172MX,Ferwert,Ferwerderadiel,Friesland,VBO,5.826974,53.338384
Havenstraat,38,,,9172MX,Ferwert,Ferwerderadiel,Friesland,VBO,5.827087,53.338378
Havenstraat,40,,,9172MX,Ferwert,Ferwerderadiel,Friesland,VBO,5.827216,53.338385
Havenstraat,52,,,9172MX,Ferwert,Ferwerderadiel,Friesland,VBO,5.827896,53.338416
Havenstraat,54,,,9172MX,Ferwert,Ferwerderadiel,Friesland,VBO,5.827994,53.338442
Havenstraat,56,,,9172MX,Ferwert,Ferwerderadiel,Friesland,VBO,5.828092,53.338467
Havenstraat,58,,,9172MX,Ferwert,Ferwerderadiel,Friesland,VBO,5.828190,53.338492
Havenstraat,60,,,9172MX,Ferwert,Ferwerderadiel,Friesland,VBO,5.828339,53.338521
Havenstraat,62,,,9172MX,Ferwert,Ferwerderadiel,Friesland,VBO,5.828440,53.338537
Havenstraat,64,,,9172MX,Ferwert,Ferwerderadiel,Friesland,VBO,5.828540,53.338552
Havenstraat,66,,,9172MX,Ferwert,Ferwerderadiel,Friesland,VBO,5.828641,53.338567
Nije Buorren,1,,,9172MZ,Ferwert,Ferwerderadiel,Friesland,VBO,5.825746,53.338868
Nije Buorren,2,,,9172MZ,Ferwert,Ferwerderadiel,Friesland,VBO,5.826003,53.338884
Nije Buorren,4,,,9172MZ,Ferwert,Ferwerderadiel,Friesland,VBO,5.826095,53.338950
Nije Buorren,6,,,9172MZ,Ferwert,Ferwerderadiel,Friesland,VBO,5.826196,53.339043
Nije Buorren,11,A,,9172MZ,Ferwert,Ferwerderadiel,Friesland,VBO,5.826054,53.339130
Nije Buorren,11,,,9172MZ,Ferwert,Ferwerderadiel,Friesland,VBO,5.826106,53.339106
Nije Buorren,13,,,9172MZ,Ferwert,Ferwerderadiel,Friesland,VBO,5.826194,53.339174
Nije Buorren,15,,,9172MZ,Ferwert,Ferwerderadiel,Friesland,VBO,5.826263,53.339221
Nije Buorren,16,,,9172MZ,Ferwert,Ferwerderadiel,Friesland,VBO,5.826607,53.339285
Nije Buorren,17,,,9172MZ,Ferwert,Ferwerderadiel,Friesland,VBO,5.826336,53.339291
Nije Buorren,20,,,9172MZ,Ferwert,Ferwerderadiel,Friesland,VBO,5.826782,53.339390
Nije Buorren,22,,,9172MZ,Ferwert,Ferwerderadiel,Friesland,VBO,5.826860,53.339433
Nije Buorren,24,,,9172MZ,Ferwert,Ferwerderadiel,Friesland,VBO,5.826925,53.339467
Nije Buorren,25,,,9172MZ,Ferwert,Ferwerderadiel,Friesland,VBO,5.826773,53.339532
Wide Stege,2,,,9172NA,Ferwert,Ferwerderadiel,Friesland,VBO,5.824906,53.338783
Wide Stege,4,,,9172NA,Ferwert,Ferwerderadiel,Friesland,VBO,5.824517,53.338925
Kerkpad,1,,,9172NB,Ferwert,Ferwerderadiel,Friesland,VBO,5.823952,53.338910
Kerkpad,4,,,9172NB,Ferwert,Ferwerderadiel,Friesland,VBO,5.824484,53.339073
Reinderslaan,2,,,9172NC,Ferwert,Ferwerderadiel,Friesland,VBO,5.825391,53.339385
Reinderslaan,4,,,9172NC,Ferwert,Ferwerderadiel,Friesland,VBO,5.825126,53.339533
Reinderslaan,5,A,,9172NC,Ferwert,Ferwerderadiel,Friesland,VBO,5.824961,53.339117
Reinderslaan,5,B,,9172NC,Ferwert,Ferwerderadiel,Friesland,VBO,5.824918,53.339130
Reinderslaan,5,C,,9172NC,Ferwert,Ferwerderadiel,Friesland,VBO,5.824877,53.339145
Reinderslaan,5,D,,9172NC,Ferwert,Ferwerderadiel,Friesland,VBO,5.824836,53.339162
Reinderslaan,7,,,9172NC,Ferwert,Ferwerderadiel,Friesland,VBO,5.825088,53.339309
Reinderslaan,9,,,9172NC,Ferwert,Ferwerderadiel,Friesland,VBO,5.825014,53.339355
Reinderslaan,10,A,,9172NC,Ferwert,Ferwerderadiel,Friesland,VBO,5.824956,53.339605
Reinderslaan,10,B,,9172NC,Ferwert,Ferwerderadiel,Friesland,VBO,5.824878,53.339650
Reinderslaan,11,,,9172NC,Ferwert,Ferwerderadiel,Friesland,VBO,5.824940,53.339402
Reinderslaan,12,,,9172NC,Ferwert,Ferwerderadiel,Friesland,VBO,5.824229,53.340126
Reinderslaan,13,,,9172NC,Ferwert,Ferwerderadiel,Friesland,VBO,5.824866,53.339448
Reinderslaan,14,,,9172NC,Ferwert,Ferwerderadiel,Friesland,VBO,5.823975,53.340215
Camminghastrjitte,1,,,9172ND,Ferwert,Ferwerderadiel,Friesland,VBO,5.824411,53.339980
Camminghastrjitte,3,,,9172ND,Ferwert,Ferwerderadiel,Friesland,VBO,5.824465,53.340033
Camminghastrjitte,5,,,9172ND,Ferwert,Ferwerderadiel,Friesland,VBO,5.824518,53.340086
Camminghastrjitte,7,,,9172ND,Ferwert,Ferwerderadiel,Friesland,VBO,5.824572,53.340139
Camminghastrjitte,9,,,9172ND,Ferwert,Ferwerderadiel,Friesland,VBO,5.824183,53.340435
Camminghastrjitte,11,,,9172ND,Ferwert,Ferwerderadiel,Friesland,VBO,5.824478,53.340392
Camminghastrjitte,13,,,9172ND,Ferwert,Ferwerderadiel,Friesland,VBO,5.824572,53.340355
Camminghastrjitte,15,,,9172ND,Ferwert,Ferwerderadiel,Friesland,VBO,5.824665,53.340318
Camminghastrjitte,17,,,9172ND,Ferwert,Ferwerderadiel,Friesland,VBO,5.824758,53.340281
Camminghastrjitte,19,,,9172ND,Ferwert,Ferwerderadiel,Friesland,VBO,5.824308,53.340570
Camminghastrjitte,21,,,9172ND,Ferwert,Ferwerderadiel,Friesland,VBO,5.824610,53.340686
Camminghastrjitte,23,,,9172ND,Ferwert,Ferwerderadiel,Friesland,VBO,5.824782,53.340592
Camminghastrjitte,25,,,9172ND,Ferwert,Ferwerderadiel,Friesland,VBO,5.824878,53.340551
Camminghastrjitte,27,,,9172ND,Ferwert,Ferwerderadiel,Friesland,VBO,5.824973,53.340511
Camminghastrjitte,29,,,9172ND,Ferwert,Ferwerderadiel,Friesland,VBO,5.825068,53.340471
Camminghastrjitte,31,,,9172ND,Ferwert,Ferwerderadiel,Friesland,VBO,5.824895,53.340810
Camminghastrjitte,33,,,9172ND,Ferwert,Ferwerderadiel,Friesland,VBO,5.825184,53.340874
Camminghastrjitte,35,,,9172ND,Ferwert,Ferwerderadiel,Friesland,VBO,5.825321,53.340642
Camminghastrjitte,37,,,9172ND,Ferwert,Ferwerderadiel,Friesland,VBO,5.825380,53.340698
Camminghastrjitte,39,,,9172ND,Ferwert,Ferwerderadiel,Friesland,VBO,5.825439,53.340754
Camminghastrjitte,41,,,9172ND,Ferwert,Ferwerderadiel,Friesland,VBO,5.825498,53.340809
Camminghastrjitte,43,,,9172ND,Ferwert,Ferwerderadiel,Friesland,VBO,5.825669,53.340901
Camminghastrjitte,45,,,9172ND,Ferwert,Ferwerderadiel,Friesland,VBO,5.827072,53.340936
Camminghastrjitte,47,,,9172ND,Ferwert,Ferwerderadiel,Friesland,VBO,5.827241,53.340831
Camminghastrjitte,2,,,9172NE,Ferwert,Ferwerderadiel,Friesland,VBO,5.824662,53.339805
Camminghastrjitte,4,,,9172NE,Ferwert,Ferwerderadiel,Friesland,VBO,5.824715,53.339852
Camminghastrjitte,6,,,9172NE,Ferwert,Ferwerderadiel,Friesland,VBO,5.824769,53.339899
Camminghastrjitte,8,,,9172NE,Ferwert,Ferwerderadiel,Friesland,VBO,5.824823,53.339946
Camminghastrjitte,10,,,9172NE,Ferwert,Ferwerderadiel,Friesland,VBO,5.824912,53.340024
Camminghastrjitte,12,,,9172NE,Ferwert,Ferwerderadiel,Friesland,VBO,5.824974,53.340069
Camminghastrjitte,14,,,9172NE,Ferwert,Ferwerderadiel,Friesland,VBO,5.825037,53.340114
Camminghastrjitte,16,,,9172NE,Ferwert,Ferwerderadiel,Friesland,VBO,5.825099,53.340159
Camminghastrjitte,18,,,9172NE,Ferwert,Ferwerderadiel,Friesland,VBO,5.825177,53.340225
Camminghastrjitte,20,,,9172NE,Ferwert,Ferwerderadiel,Friesland,VBO,5.825254,53.340278
Camminghastrjitte,22,,,9172NE,Ferwert,Ferwerderadiel,Friesland,VBO,5.825331,53.340330
Camminghastrjitte,24,,,9172NE,Ferwert,Ferwerderadiel,Friesland,VBO,5.825423,53.340386
Camminghastrjitte,26,,,9172NE,Ferwert,Ferwerderadiel,Friesland,VBO,5.825487,53.340434
Camminghastrjitte,28,,,9172NE,Ferwert,Ferwerderadiel,Friesland,VBO,5.825550,53.340483
Camminghastrjitte,30,,,9172NG,Ferwert,Ferwerderadiel,Friesland,VBO,5.825614,53.340531
Camminghastrjitte,32,,,9172NG,Ferwert,Ferwerderadiel,Friesland,VBO,5.825709,53.340592
Camminghastrjitte,34,,,9172NG,Ferwert,Ferwerderadiel,Friesland,VBO,5.825773,53.340636
Camminghastrjitte,36,,,9172NG,Ferwert,Ferwerderadiel,Friesland,VBO,5.825837,53.340680
Camminghastrjitte,38,,,9172NG,Ferwert,Ferwerderadiel,Friesland,VBO,5.825900,53.340724
Camminghastrjitte,40,,,9172NG,Ferwert,Ferwerderadiel,Friesland,VBO,5.825998,53.340799
Camminghastrjitte,42,,,9172NG,Ferwert,Ferwerderadiel,Friesland,VBO,5.826063,53.340849
Camminghastrjitte,44,,,9172NG,Ferwert,Ferwerderadiel,Friesland,VBO,5.826450,53.340946
Camminghastrjitte,46,,,9172NG,Ferwert,Ferwerderadiel,Friesland,VBO,5.826526,53.340901
Camminghastrjitte,48,,,9172NG,Ferwert,Ferwerderadiel,Friesland,VBO,5.826602,53.340857
Camminghastrjitte,50,,,9172NG,Ferwert,Ferwerderadiel,Friesland,VBO,5.826679,53.340813
Camminghastrjitte,52,,,9172NG,Ferwert,Ferwerderadiel,Friesland,VBO,5.826775,53.340750
Camminghastrjitte,54,,,9172NG,Ferwert,Ferwerderadiel,Friesland,VBO,5.826841,53.340711
Camminghastrjitte,56,,,9172NG,Ferwert,Ferwerderadiel,Friesland,VBO,5.826907,53.340673
Camminghastrjitte,58,,,9172NG,Ferwert,Ferwerderadiel,Friesland,VBO,5.826973,53.340634
Camminghastrjitte,60,,,9172NG,Ferwert,Ferwerderadiel,Friesland,VBO,5.827039,53.340595
Elingawei,1,,,9172NH,Ferwert,Ferwerderadiel,Friesland,VBO,5.826731,53.339986
Elingawei,2,,,9172NH,Ferwert,Ferwerderadiel,Friesland,VBO,5.827243,53.339618
Elingawei,3,,,9172NH,Ferwert,Ferwerderadiel,Friesland,VBO,5.826897,53.340102
Elingawei,4,,,9172NH,Ferwert,Ferwerderadiel,Friesland,VBO,5.827416,53.339703
Elingawei,6,,,9172NH,Ferwert,Ferwerderadiel,Friesland,VBO,5.827492,53.339747
Elingawei,7,,,9172NH,Ferwert,Ferwerderadiel,Friesland,VBO,5.827076,53.340234
Elingawei,8,,,9172NH,Ferwert,Ferwerderadiel,Friesland,VBO,5.827668,53.339823
Elingawei,9,,,9172NH,Ferwert,Ferwerderadiel,Friesland,VBO,5.827230,53.340375
Elingawei,10,,,9172NH,Ferwert,Ferwerderadiel,Friesland,VBO,5.828394,53.340374
Elingawei,11,,,9172NH,Ferwert,Ferwerderadiel,Friesland,VBO,5.827852,53.340553
Elingawei,12,,,9172NH,Ferwert,Ferwerderadiel,Friesland,VBO,5.828515,53.340488
Elingawei,13,,,9172NH,Ferwert,Ferwerderadiel,Friesland,VBO,5.827853,53.340876
Elingawei,14,,,9172NH,Ferwert,Ferwerderadiel,Friesland,VBO,5.828604,53.340533
Elingawei,15,,,9172NH,Ferwert,Ferwerderadiel,Friesland,VBO,5.828566,53.341169
Elingawei,16,,,9172NH,Ferwert,Ferwerderadiel,Friesland,VBO,5.828764,53.340637
Elingawei,20,A,,9172NH,Ferwert,Ferwerderadiel,Friesland,VBO,5.830178,53.341261
Elingawei,20,,,9172NH,Ferwert,Ferwerderadiel,Friesland,VBO,5.829536,53.341193
De Streek,2,,,9172NJ,Ferwert,Ferwerderadiel,Friesland,VBO,5.827273,53.339297
De Streek,4,,,9172NJ,Ferwert,Ferwerderadiel,Friesland,VBO,5.827384,53.338970
De Streek,5,,,9172NJ,Ferwert,Ferwerderadiel,Friesland,VBO,5.827370,53.339448
De Streek,9,,,9172NJ,Ferwert,Ferwerderadiel,Friesland,VBO,5.827522,53.339276
De Streek,11,,,9172NJ,Ferwert,Ferwerderadiel,Friesland,VBO,5.827619,53.339194
De Streek,13,,,9172NJ,Ferwert,Ferwerderadiel,Friesland,VBO,5.827701,53.339127
De Streek,15,,,9172NJ,Ferwert,Ferwerderadiel,Friesland,VBO,5.827754,53.339063
De Streek,17,,,9172NJ,Ferwert,Ferwerderadiel,Friesland,VBO,5.827823,53.338996
De Streek,21,,,9172NJ,Ferwert,Ferwerderadiel,Friesland,VBO,5.827869,53.338934
De Streek,27,,,9172NJ,Ferwert,Ferwerderadiel,Friesland,VBO,5.827918,53.338902
De Streek,29,,,9172NJ,Ferwert,Ferwerderadiel,Friesland,VBO,5.828002,53.338816
De Streek,31,,,9172NJ,Ferwert,Ferwerderadiel,Friesland,VBO,5.828098,53.338733
Johannes Wildeboerstraat,1,,,9172NK,Ferwert,Ferwerderadiel,Friesland,VBO,5.828514,53.339010
Johannes Wildeboerstraat,3,,,9172NK,Ferwert,Ferwerderadiel,Friesland,VBO,5.828465,53.339061
Johannes Wildeboerstraat,5,,,9172NK,Ferwert,Ferwerderadiel,Friesland,VBO,5.828416,53.339111
Johannes Wildeboerstraat,7,,,9172NK,Ferwert,Ferwerderadiel,Friesland,VBO,5.828366,53.339162
Johannes Wildeboerstraat,9,,,9172NK,Ferwert,Ferwerderadiel,Friesland,VBO,5.828297,53.339232
Johannes Wildeboerstraat,11,,,9172NK,Ferwert,Ferwerderadiel,Friesland,VBO,5.828243,53.339284
Johannes Wildeboerstraat,13,,,9172NK,Ferwert,Ferwerderadiel,Friesland,VBO,5.828190,53.339336
Johannes Wildeboerstraat,15,,,9172NK,Ferwert,Ferwerderadiel,Friesland,VBO,5.828136,53.339388
Johannes Wildeboerstraat,17,,,9172NK,Ferwert,Ferwerderadiel,Friesland,VBO,5.828074,53.339450
Johannes Wildeboerstraat,19,,,9172NK,Ferwert,Ferwerderadiel,Friesland,VBO,5.828022,53.339502
Johannes Wildeboerstraat,21,,,9172NK,Ferwert,Ferwerderadiel,Friesland,VBO,5.827970,53.339554
Johannes Wildeboerstraat,23,,,9172NK,Ferwert,Ferwerderadiel,Friesland,VBO,5.827918,53.339606
Johannes Wildeboerstraat,25,,,9172NK,Ferwert,Ferwerderadiel,Friesland,VBO,5.827646,53.339638
Johannes Wildeboerstraat,2,,,9172NL,Ferwert,Ferwerderadiel,Friesland,VBO,5.829106,53.338839
Johannes Wildeboerstraat,4,,,9172NL,Ferwert,Ferwerderadiel,Friesland,VBO,5.829054,53.338891
Johannes Wildeboerstraat,6,,,9172NL,Ferwert,Ferwerderadiel,Friesland,VBO,5.829003,53.338944
Johannes Wildeboerstraat,8,,,9172NL,Ferwert,Ferwerderadiel,Friesland,VBO,5.828952,53.338996
Johannes Wildeboerstraat,10,,,9172NL,Ferwert,Ferwerderadiel,Friesland,VBO,5.828892,53.339063
Johannes Wildeboerstraat,12,,,9172NL,Ferwert,Ferwerderadiel,Friesland,VBO,5.828837,53.339119
Johannes Wildeboerstraat,14,,,9172NL,Ferwert,Ferwerderadiel,Friesland,VBO,5.828781,53.339175
Johannes Wildeboerstraat,16,,,9172NL,Ferwert,Ferwerderadiel,Friesland,VBO,5.828725,53.339231
Johannes Wildeboerstraat,18,,,9172NL,Ferwert,Ferwerderadiel,Friesland,VBO,5.828648,53.339290
Johannes Wildeboerstraat,20,,,9172NL,Ferwert,Ferwerderadiel,Friesland,VBO,5.828590,53.339354
Johannes Wildeboerstraat,22,,,9172NL,Ferwert,Ferwerderadiel,Friesland,VBO,5.828533,53.339419
Johannes Wildeboerstraat,24,,,9172NL,Ferwert,Ferwerderadiel,Friesland,VBO,5.828442,53.339523
Johannes Wildeboerstraat,26,,,9172NL,Ferwert,Ferwerderadiel,Friesland,VBO,5.828394,53.339573
Johannes Wildeboerstraat,28,,,9172NL,Ferwert,Ferwerderadiel,Friesland,VBO,5.828324,53.339692
Meekmastrjitte,1,,,9172NM,Ferwert,Ferwerderadiel,Friesland,VBO,5.829241,53.340876
Meekmastrjitte,2,,,9172NM,Ferwert,Ferwerderadiel,Friesland,VBO,5.829095,53.340556
Meekmastrjitte,3,,,9172NM,Ferwert,Ferwerderadiel,Friesland,VBO,5.829483,53.340713
Meekmastrjitte,4,,,9172NM,Ferwert,Ferwerderadiel,Friesland,VBO,5.829285,53.340481
Meekmastrjitte,5,,,9172NM,Ferwert,Ferwerderadiel,Friesland,VBO,5.829699,53.340607
Meekmastrjitte,7,,,9172NM,Ferwert,Ferwerderadiel,Friesland,VBO,5.829949,53.340470
Meekmastrjitte,8,,,9172NM,Ferwert,Ferwerderadiel,Friesland,VBO,5.829553,53.340336
Meekmastrjitte,9,,,9172NM,Ferwert,Ferwerderadiel,Friesland,VBO,5.830191,53.340371
Meekmastrjitte,10,,,9172NM,Ferwert,Ferwerderadiel,Friesland,VBO,5.829691,53.340247
Meekmastrjitte,11,A,,9172NM,Ferwert,Ferwerderadiel,Friesland,VBO,5.830544,53.340117
Meekmastrjitte,11,,,9172NM,Ferwert,Ferwerderadiel,Friesland,VBO,5.830486,53.340181
Meekmastrjitte,12,,,9172NM,Ferwert,Ferwerderadiel,Friesland,VBO,5.829853,53.340163
Meekmastrjitte,13,A,,9172NM,Ferwert,Ferwerderadiel,Friesland,VBO,5.830714,53.339978
Meekmastrjitte,13,,,9172NM,Ferwert,Ferwerderadiel,Friesland,VBO,5.830656,53.340039
Meekmastrjitte,14,,,9172NM,Ferwert,Ferwerderadiel,Friesland,VBO,5.830334,53.339773
Meekmastrjitte,15,,,9172NM,Ferwert,Ferwerderadiel,Friesland,VBO,5.830815,53.339867
Meekmastrjitte,16,,,9172NM,Ferwert,Ferwerderadiel,Friesland,VBO,5.830393,53.339716
Meekmastrjitte,17,,,9172NM,Ferwert,Ferwerderadiel,Friesland,VBO,5.830871,53.339810
Meekmastrjitte,18,,,9172NM,Ferwert,Ferwerderadiel,Friesland,VBO,5.830490,53.339615
Meekmastrjitte,19,,,9172NM,Ferwert,Ferwerderadiel,Friesland,VBO,5.830989,53.339722
Meekmastrjitte,20,,,9172NM,Ferwert,Ferwerderadiel,Friesland,VBO,5.830546,53.339559
Meekmastrjitte,21,,,9172NM,Ferwert,Ferwerderadiel,Friesland,VBO,5.831044,53.339665
Meekmastrjitte,22,,,9172NM,Ferwert,Ferwerderadiel,Friesland,VBO,5.830645,53.339461
Meekmastrjitte,23,,,9172NM,Ferwert,Ferwerderadiel,Friesland,VBO,5.831135,53.339570
Meekmastrjitte,24,,,9172NM,Ferwert,Ferwerderadiel,Friesland,VBO,5.830702,53.339400
Meekmastrjitte,25,,,9172NM,Ferwert,Ferwerderadiel,Friesland,VBO,5.831191,53.339512
Meekmastrjitte,26,,,9172NM,Ferwert,Ferwerderadiel,Friesland,VBO,5.830796,53.339298
Meekmastrjitte,27,,,9172NM,Ferwert,Ferwerderadiel,Friesland,VBO,5.831259,53.339407
Meekmastrjitte,28,,,9172NM,Ferwert,Ferwerderadiel,Friesland,VBO,5.830851,53.339239
Meekmastrjitte,29,,,9172NM,Ferwert,Ferwerderadiel,Friesland,VBO,5.831315,53.339349
Meekmastrjitte,31,,,9172NM,Ferwert,Ferwerderadiel,Friesland,VBO,5.831650,53.338979
Albadastrjitte,1,,,9172NN,Ferwert,Ferwerderadiel,Friesland,VBO,5.829276,53.339849
Albadastrjitte,2,A,,9172NN,Ferwert,Ferwerderadiel,Friesland,VBO,5.830236,53.339278
Albadastrjitte,2,B,,9172NN,Ferwert,Ferwerderadiel,Friesland,VBO,5.830289,53.339291
Albadastrjitte,2,C,,9172NN,Ferwert,Ferwerderadiel,Friesland,VBO,5.830328,53.339308
Albadastrjitte,2,D,,9172NN,Ferwert,Ferwerderadiel,Friesland,VBO,5.830363,53.339318
Albadastrjitte,2,E,,9172NN,Ferwert,Ferwerderadiel,Friesland,VBO,5.830397,53.339332
Albadastrjitte,2,F,,9172NN,Ferwert,Ferwerderadiel,Friesland,VBO,5.830429,53.339343
Albadastrjitte,2,G,,9172NN,Ferwert,Ferwerderadiel,Friesland,VBO,5.830474,53.339358
Albadastrjitte,2,,,9172NN,Ferwert,Ferwerderadiel,Friesland,VBO,5.829846,53.339827
Albadastrjitte,3,,,9172NN,Ferwert,Ferwerderadiel,Friesland,VBO,5.829343,53.339880
Albadastrjitte,4,,,9172NN,Ferwert,Ferwerderadiel,Friesland,VBO,5.829906,53.339856
Albadastrjitte,5,,,9172NN,Ferwert,Ferwerderadiel,Friesland,VBO,5.829409,53.339911
Albadastrjitte,6,,,9172NN,Ferwert,Ferwerderadiel,Friesland,VBO,5.829965,53.339886
Albadastrjitte,7,,,9172NN,Ferwert,Ferwerderadiel,Friesland,VBO,5.829475,53.339942
Albadastrjitte,8,,,9172NN,Ferwert,Ferwerderadiel,Friesland,VBO,5.830024,53.339916
Albadastrjitte,9,,,9172NN,Ferwert,Ferwerderadiel,Friesland,VBO,5.829542,53.339973
Albadastrjitte,10,,,9172NN,Ferwert,Ferwerderadiel,Friesland,VBO,5.830083,53.339946
Albadastrjitte,12,,,9172NN,Ferwert,Ferwerderadiel,Friesland,VBO,5.830143,53.339975
Gerbrandastrjitte,1,,,9172NP,Ferwert,Ferwerderadiel,Friesland,VBO,5.829557,53.338830
Gerbrandastrjitte,2,,,9172NP,Ferwert,Ferwerderadiel,Friesland,VBO,5.829053,53.338509
Gerbrandastrjitte,3,,,9172NP,Ferwert,Ferwerderadiel,Friesland,VBO,5.829676,53.338867
Gerbrandastrjitte,4,,,9172NP,Ferwert,Ferwerderadiel,Friesland,VBO,5.829157,53.338501
Gerbrandastrjitte,5,,,9172NP,Ferwert,Ferwerderadiel,Friesland,VBO,5.830172,53.338988
Gerbrandastrjitte,6,,,9172NP,Ferwert,Ferwerderadiel,Friesland,VBO,5.829261,53.338494
Gerbrandastrjitte,7,,,9172NP,Ferwert,Ferwerderadiel,Friesland,VBO,5.830285,53.339022
Gerbrandastrjitte,8,,,9172NP,Ferwert,Ferwerderadiel,Friesland,VBO,5.829365,53.338486
Gerbrandastrjitte,9,,,9172NP,Ferwert,Ferwerderadiel,Friesland,VBO,5.830438,53.339072
Gerbrandastrjitte,10,A,,9172NP,Ferwert,Ferwerderadiel,Friesland,VBO,5.829466,53.338444
Gerbrandastrjitte,10,,,9172NP,Ferwert,Ferwerderadiel,Friesland,VBO,5.830010,53.338660
Gerbrandastrjitte,11,,,9172NP,Ferwert,Ferwerderadiel,Friesland,VBO,5.830539,53.339105
Gerbrandastrjitte,12,,,9172NP,Ferwert,Ferwerderadiel,Friesland,VBO,5.830140,53.338700
Gerbrandastrjitte,14,,,9172NP,Ferwert,Ferwerderadiel,Friesland,VBO,5.830269,53.338740
Gerbrandastrjitte,16,,,9172NP,Ferwert,Ferwerderadiel,Friesland,VBO,5.830399,53.338781
Feytsmastrjitte,1,,,9172NR,Ferwert,Ferwerderadiel,Friesland,VBO,5.829492,53.339083
Feytsmastrjitte,3,,,9172NR,Ferwert,Ferwerderadiel,Friesland,VBO,5.829441,53.339136
Feytsmastrjitte,5,,,9172NR,Ferwert,Ferwerderadiel,Friesland,VBO,5.829390,53.339189
Feytsmastrjitte,7,,,9172NR,Ferwert,Ferwerderadiel,Friesland,VBO,5.829339,53.339242
Feytsmastrjitte,9,,,9172NR,Ferwert,Ferwerderadiel,Friesland,VBO,5.829287,53.339294
Feytsmastrjitte,11,,,9172NR,Ferwert,Ferwerderadiel,Friesland,VBO,5.829219,53.339372
Feytsmastrjitte,13,,,9172NR,Ferwert,Ferwerderadiel,Friesland,VBO,5.829167,53.339424
Feytsmastrjitte,15,,,9172NR,Ferwert,Ferwerderadiel,Friesland,VBO,5.829115,53.339476
Feytsmastrjitte,17,,,9172NR,Ferwert,Ferwerderadiel,Friesland,VBO,5.829063,53.339529
Feytsmastrjitte,19,,,9172NR,Ferwert,Ferwerderadiel,Friesland,VBO,5.829011,53.339581
Feytsmastrjitte,21,,,9172NR,Ferwert,Ferwerderadiel,Friesland,VBO,5.828925,53.339686
Feytsmastrjitte,23,,,9172NR,Ferwert,Ferwerderadiel,Friesland,VBO,5.828870,53.339739
Feytsmastrjitte,25,,,9172NR,Ferwert,Ferwerderadiel,Friesland,VBO,5.828815,53.339792
Feytsmastrjitte,27,,,9172NR,Ferwert,Ferwerderadiel,Friesland,VBO,5.828759,53.339844
Feytsmastrjitte,29,,,9172NR,Ferwert,Ferwerderadiel,Friesland,VBO,5.828699,53.339914
Feytsmastrjitte,31,,,9172NR,Ferwert,Ferwerderadiel,Friesland,VBO,5.828638,53.339977
Feytsmastrjitte,33,,,9172NR,Ferwert,Ferwerderadiel,Friesland,VBO,5.828577,53.340040
Feytsmastrjitte,2,,,9172NS,Ferwert,Ferwerderadiel,Friesland,VBO,5.829965,53.339149
Feytsmastrjitte,4,,,9172NS,Ferwert,Ferwerderadiel,Friesland,VBO,5.829913,53.339203
Feytsmastrjitte,6,,,9172NS,Ferwert,Ferwerderadiel,Friesland,VBO,5.829860,53.339257
Feytsmastrjitte,8,,,9172NS,Ferwert,Ferwerderadiel,Friesland,VBO,5.829807,53.339310
Feytsmastrjitte,10,,,9172NS,Ferwert,Ferwerderadiel,Friesland,VBO,5.829754,53.339364
Feytsmastrjitte,12,,,9172NS,Ferwert,Ferwerderadiel,Friesland,VBO,5.829704,53.339445
Feytsmastrjitte,14,,,9172NS,Ferwert,Ferwerderadiel,Friesland,VBO,5.829655,53.339495
Feytsmastrjitte,16,,,9172NS,Ferwert,Ferwerderadiel,Friesland,VBO,5.829607,53.339545
Feytsmastrjitte,18,,,9172NS,Ferwert,Ferwerderadiel,Friesland,VBO,5.829558,53.339595
Feytsmastrjitte,20,,,9172NS,Ferwert,Ferwerderadiel,Friesland,VBO,5.829510,53.339645
Feytsmastrjitte,22,,,9172NS,Ferwert,Ferwerderadiel,Friesland,VBO,5.829117,53.340010
Feytsmastrjitte,24,,,9172NS,Ferwert,Ferwerderadiel,Friesland,VBO,5.829047,53.340052
Feytsmastrjitte,26,,,9172NS,Ferwert,Ferwerderadiel,Friesland,VBO,5.828976,53.340095
Feytsmastrjitte,28,,,9172NS,Ferwert,Ferwerderadiel,Friesland,VBO,5.828906,53.340138
Feytsmastrjitte,30,,,9172NS,Ferwert,Ferwerderadiel,Friesland,VBO,5.828836,53.340181
Prof. Heymansstraat,1,,,9172NT,Ferwert,Ferwerderadiel,Friesland,VBO,5.828294,53.337401
Prof. Heymansstraat,3,,,9172NT,Ferwert,Ferwerderadiel,Friesland,VBO,5.828323,53.337485
Prof. Heymansstraat,5,,,9172NT,Ferwert,Ferwerderadiel,Friesland,VBO,5.828395,53.337574
Prof. Heymansstraat,7,,,9172NT,Ferwert,Ferwerderadiel,Friesland,VBO,5.828416,53.337634
Prof. Heymansstraat,9,,,9172NT,Ferwert,Ferwerderadiel,Friesland,VBO,5.828436,53.337693
Prof. Heymansstraat,11,,,9172NT,Ferwert,Ferwerderadiel,Friesland,VBO,5.828457,53.337753
Prof. Heymansstraat,13,,,9172NT,Ferwert,Ferwerderadiel,Friesland,VBO,5.828469,53.337830
Prof. Heymansstraat,15,,,9172NT,Ferwert,Ferwerderadiel,Friesland,VBO,5.828489,53.337890
Prof. Heymansstraat,17,,,9172NT,Ferwert,Ferwerderadiel,Friesland,VBO,5.828508,53.337951
Prof. Heymansstraat,19,,,9172NT,Ferwert,Ferwerderadiel,Friesland,VBO,5.828528,53.338012
Prof. Heymansstraat,21,,,9172NT,Ferwert,Ferwerderadiel,Friesland,VBO,5.828535,53.338081
Prof. Heymansstraat,23,,,9172NT,Ferwert,Ferwerderadiel,Friesland,VBO,5.828563,53.338170
Prof. Heymansstraat,25,,,9172NT,Ferwert,Ferwerderadiel,Friesland,VBO,5.828602,53.338257
Prof. Heymansstraat,27,,,9172NT,Ferwert,Ferwerderadiel,Friesland,VBO,5.828620,53.338322
Prof. Heymansstraat,2,,,9172NV,Ferwert,Ferwerderadiel,Friesland,VBO,5.828649,53.337201
Prof. Heymansstraat,4,,,9172NV,Ferwert,Ferwerderadiel,Friesland,VBO,5.828763,53.337571
Prof. Heymansstraat,6,,,9172NV,Ferwert,Ferwerderadiel,Friesland,VBO,5.828867,53.337566
Prof. Heymansstraat,8,,,9172NV,Ferwert,Ferwerderadiel,Friesland,VBO,5.828971,53.337561
Prof. Heymansstraat,10,,,9172NV,Ferwert,Ferwerderadiel,Friesland,VBO,5.829075,53.337556
Prof. Heymansstraat,12,,,9172NV,Ferwert,Ferwerderadiel,Friesland,VBO,5.829174,53.337594
Prof. Heymansstraat,14,,,9172NV,Ferwert,Ferwerderadiel,Friesland,VBO,5.829197,53.337664
Prof. Heymansstraat,16,,,9172NV,Ferwert,Ferwerderadiel,Friesland,VBO,5.829129,53.337729
Prof. Heymansstraat,18,,,9172NV,Ferwert,Ferwerderadiel,Friesland,VBO,5.829028,53.337746
Prof. Heymansstraat,20,,,9172NV,Ferwert,Ferwerderadiel,Friesland,VBO,5.828926,53.337763
Prof. Heymansstraat,22,,,9172NV,Ferwert,Ferwerderadiel,Friesland,VBO,5.828825,53.337779
Prof. Heymansstraat,24,,,9172NV,Ferwert,Ferwerderadiel,Friesland,VBO,5.828897,53.338051
Prof. Heymansstraat,26,,,9172NV,Ferwert,Ferwerderadiel,Friesland,VBO,5.828999,53.338045
Prof. Heymansstraat,28,,,9172NV,Ferwert,Ferwerderadiel,Friesland,VBO,5.829100,53.338038
Prof. Heymansstraat,30,,,9172NV,Ferwert,Ferwerderadiel,Friesland,VBO,5.829202,53.338031
Prof. Heymansstraat,32,,,9172NV,Ferwert,Ferwerderadiel,Friesland,VBO,5.829319,53.338067
Prof. Heymansstraat,34,,,9172NV,Ferwert,Ferwerderadiel,Friesland,VBO,5.829336,53.338125
Prof. Heymansstraat,36,,,9172NV,Ferwert,Ferwerderadiel,Friesland,VBO,5.829266,53.338194
Prof. Heymansstraat,38,,,9172NV,Ferwert,Ferwerderadiel,Friesland,VBO,5.829165,53.338210
Prof. Heymansstraat,40,,,9172NV,Ferwert,Ferwerderadiel,Friesland,VBO,5.829063,53.338226
Prof. Heymansstraat,42,,,9172NV,Ferwert,Ferwerderadiel,Friesland,VBO,5.828962,53.338241
Stationsstraat,1,,,9172NW,Ferwert,Ferwerderadiel,Friesland,VBO,5.825276,53.338029
Stationsstraat,3,,,9172NW,Ferwert,Ferwerderadiel,Friesland,VBO,5.825387,53.337991
Stationsstraat,5,,,9172NW,Ferwert,Ferwerderadiel,Friesland,VBO,5.825499,53.337953
Stationsstraat,7,,,9172NW,Ferwert,Ferwerderadiel,Friesland,VBO,5.825563,53.337858
Stationsstraat,9,,,9172NW,Ferwert,Ferwerderadiel,Friesland,VBO,5.825657,53.337827
Stationsstraat,11,,,9172NW,Ferwert,Ferwerderadiel,Friesland,VBO,5.825750,53.337795
Stationsstraat,13,,,9172NW,Ferwert,Ferwerderadiel,Friesland,VBO,5.825843,53.337764
Stationsstraat,15,,,9172NW,Ferwert,Ferwerderadiel,Friesland,VBO,5.825936,53.337733
Stationsstraat,17,,,9172NW,Ferwert,Ferwerderadiel,Friesland,VBO,5.826481,53.337422
Stationsstraat,19,,,9172NW,Ferwert,Ferwerderadiel,Friesland,VBO,5.826608,53.337384
Stationsstraat,21,,,9172NW,Ferwert,Ferwerderadiel,Friesland,VBO,5.826799,53.337367
Stationsstraat,23,,,9172NW,Ferwert,Ferwerderadiel,Friesland,VBO,5.826979,53.337347
Stationsstraat,25,,,9172NW,Ferwert,Ferwerderadiel,Friesland,VBO,5.827150,53.337301
Stationsstraat,27,,,9172NW,Ferwert,Ferwerderadiel,Friesland,VBO,5.827505,53.337268
Stationsstraat,29,,,9172NW,Ferwert,Ferwerderadiel,Friesland,VBO,5.827652,53.337246
Stationsstraat,31,,,9172NW,Ferwert,Ferwerderadiel,Friesland,VBO,5.827778,53.337262
Stationsstraat,33,,,9172NW,Ferwert,Ferwerderadiel,Friesland,VBO,5.827936,53.337221
Stationsstraat,35,,,9172NW,Ferwert,Ferwerderadiel,Friesland,VBO,5.828090,53.337198
Stationsstraat,2,,,9172NX,Ferwert,Ferwerderadiel,Friesland,VBO,5.825216,53.337654
Stationsstraat,8,,,9172NX,Ferwert,Ferwerderadiel,Friesland,VBO,5.825512,53.337616
Stationsstraat,10,,,9172NX,Ferwert,Ferwerderadiel,Friesland,VBO,5.825659,53.337544
Stationsstraat,12,,,9172NX,Ferwert,Ferwerderadiel,Friesland,VBO,5.825739,53.337504
Stationsstraat,14,,,9172NX,Ferwert,Ferwerderadiel,Friesland,VBO,5.825774,53.337442
Stationsstraat,16,,,9172NX,Ferwert,Ferwerderadiel,Friesland,VBO,5.825850,53.337403
Stationsstraat,18,,,9172NX,Ferwert,Ferwerderadiel,Friesland,VBO,5.825949,53.337325
Stationsstraat,20,,,9172NX,Ferwert,Ferwerderadiel,Friesland,VBO,5.826471,53.337254
Stationsstraat,22,,,9172NX,Ferwert,Ferwerderadiel,Friesland,VBO,5.826579,53.337241
Stationsstraat,24,,,9172NX,Ferwert,Ferwerderadiel,Friesland,VBO,5.826714,53.337211
Stationsstraat,26,,,9172NX,Ferwert,Ferwerderadiel,Friesland,VBO,5.826773,53.337183
Stationsstraat,28,,,9172NX,Ferwert,Ferwerderadiel,Friesland,VBO,5.826900,53.337164
Stationsstraat,32,,,9172NX,Ferwert,Ferwerderadiel,Friesland,VBO,5.827476,53.337100
Gasthuisstraat,1,,,9172NZ,Ferwert,Ferwerderadiel,Friesland,VBO,5.827096,53.336802
Gasthuisstraat,2,,,9172NZ,Ferwert,Ferwerderadiel,Friesland,VBO,5.827460,53.336886
Gasthuisstraat,3,A,,9172NZ,Ferwert,Ferwerderadiel,Friesland,VBO,5.827133,53.337107
Gasthuisstraat,3,,,9172NZ,Ferwert,Ferwerderadiel,Friesland,VBO,5.827097,53.336946
Gasthuisstraat,4,,,9172NZ,Ferwert,Ferwerderadiel,Friesland,VBO,5.827605,53.337522
Gasthuisstraat,6,,,9172NZ,Ferwert,Ferwerderadiel,Friesland,VBO,5.827621,53.337583
Gasthuisstraat,7,,,9172NZ,Ferwert,Ferwerderadiel,Friesland,VBO,5.827334,53.337675
Gasthuisstraat,8,,,9172NZ,Ferwert,Ferwerderadiel,Friesland,VBO,5.827637,53.337644
Gasthuisstraat,9,,,9172NZ,Ferwert,Ferwerderadiel,Friesland,VBO,5.827345,53.337734
Gasthuisstraat,10,,,9172NZ,Ferwert,Ferwerderadiel,Friesland,VBO,5.827653,53.337704
Gasthuisstraat,11,,,9172NZ,Ferwert,Ferwerderadiel,Friesland,VBO,5.827356,53.337796
Gasthuisstraat,12,,,9172NZ,Ferwert,Ferwerderadiel,Friesland,VBO,5.827664,53.337805
Gasthuisstraat,13,,,9172NZ,Ferwert,Ferwerderadiel,Friesland,VBO,5.827367,53.337859
Gasthuisstraat,14,,,9172NZ,Ferwert,Ferwerderadiel,Friesland,VBO,5.827679,53.337869
Gasthuisstraat,15,,,9172NZ,Ferwert,Ferwerderadiel,Friesland,VBO,5.827305,53.337945
Gasthuisstraat,16,,,9172NZ,Ferwert,Ferwerderadiel,Friesland,VBO,5.827694,53.337934
Gasthuisstraat,17,,,9172NZ,Ferwert,Ferwerderadiel,Friesland,VBO,5.827320,53.338019
Gasthuisstraat,18,,,9172NZ,Ferwert,Ferwerderadiel,Friesland,VBO,5.827708,53.337998
Gasthuisstraat,19,,,9172NZ,Ferwert,Ferwerderadiel,Friesland,VBO,5.827334,53.338094
Gasthuisstraat,20,,,9172NZ,Ferwert,Ferwerderadiel,Friesland,VBO,5.827734,53.338089
Gasthuisstraat,21,,,9172NZ,Ferwert,Ferwerderadiel,Friesland,VBO,5.827349,53.338168
Gasthuisstraat,22,,,9172NZ,Ferwert,Ferwerderadiel,Friesland,VBO,5.827747,53.338152
Gasthuisstraat,23,,,9172NZ,Ferwert,Ferwerderadiel,Friesland,VBO,5.827443,53.338353
Gasthuisstraat,24,,,9172NZ,Ferwert,Ferwerderadiel,Friesland,VBO,5.827759,53.338214
Gasthuisstraat,26,,,9172NZ,Ferwert,Ferwerderadiel,Friesland,VBO,5.827771,53.338276
Burgemeester Esselinkstraat,1,,,9172PA,Ferwert,Ferwerderadiel,Friesland,VBO,5.826611,53.336581
Burgemeester Esselinkstraat,3,,,9172PA,Ferwert,Ferwerderadiel,Friesland,VBO,5.826749,53.336654
Burgemeester Esselinkstraat,5,,,9172PA,Ferwert,Ferwerderadiel,Friesland,VBO,5.826930,53.336693
Burgemeester Esselinkstraat,7,,,9172PA,Ferwert,Ferwerderadiel,Friesland,VBO,5.827658,53.336908
Burgemeester Esselinkstraat,9,,,9172PA,Ferwert,Ferwerderadiel,Friesland,VBO,5.827777,53.336954
Burgemeester Esselinkstraat,11,,,9172PA,Ferwert,Ferwerderadiel,Friesland,VBO,5.827916,53.336983
Boumaloane,1,,,9172PB,Ferwert,Ferwerderadiel,Friesland,VBO,5.831058,53.343646
Boumaloane,2,,,9172PB,Ferwert,Ferwerderadiel,Friesland,VBO,5.830428,53.344297
Koailoane,1,A,,9172PC,Ferwert,Ferwerderadiel,Friesland,VBO,5.829352,53.341804
Koailoane,1,,,9172PC,Ferwert,Ferwerderadiel,Friesland,VBO,5.829660,53.341919
Koailoane,2,,,9172PC,Ferwert,Ferwerderadiel,Friesland,VBO,5.829839,53.342428
Ljouwerterdyk,1,,,9172PD,Ferwert,Ferwerderadiel,Friesland,VBO,5.835114,53.343912
Ljouwerterdyk,3,,,9172PD,Ferwert,Ferwerderadiel,Friesland,VBO,5.831220,53.341779
Ljouwerterdyk,5,,,9172PD,Ferwert,Ferwerderadiel,Friesland,VBO,5.814553,53.334821
Ljouwerterdyk,7,,,9172PD,Ferwert,Ferwerderadiel,Friesland,VBO,5.813117,53.334330
Ljouwerterdyk,9,,,9172PD,Ferwert,Ferwerderadiel,Friesland,VBO,5.813148,53.333778
Ljouwerterdyk,11,,,9172PD,Ferwert,Ferwerderadiel,Friesland,VBO,5.812296,53.334015
Ljouwerterdyk,13,,,9172PD,Ferwert,Ferwerderadiel,Friesland,VBO,5.808875,53.332275
Ljouwerterdyk,2,,,9172PE,Ferwert,Ferwerderadiel,Friesland,VBO,5.835095,53.345218
Ljouwerterdyk,6,,,9172PE,Ferwert,Ferwerderadiel,Friesland,VBO,5.835696,53.344686
Ljouwerterdyk,14,,,9172PE,Ferwert,Ferwerderadiel,Friesland,VBO,5.826574,53.342349
De Rijp,2,,,9172PG,Ferwert,Ferwerderadiel,Friesland,VBO,5.841512,53.346570
De Rijp,3,,,9172PG,Ferwert,Ferwerderadiel,Friesland,VBO,5.841918,53.347627
De Rijp,4,,,9172PG,Ferwert,Ferwerderadiel,Friesland,VBO,5.844437,53.347874
De Rijp,5,,,9172PG,Ferwert,Ferwerderadiel,Friesland,VBO,5.843061,53.347876
De Rijp,6,,,9172PG,Ferwert,Ferwerderadiel,Friesland,VBO,5.844715,53.347956
De Rijp,7,A,,9172PG,Ferwert,Ferwerderadiel,Friesland,VBO,5.844520,53.348375
De Rijp,7,,,9172PG,Ferwert,Ferwerderadiel,Friesland,VBO,5.844019,53.348270
De Rijp,8,,,9172PG,Ferwert,Ferwerderadiel,Friesland,VBO,5.847241,53.348878
De Rijp,10,,,9172PG,Ferwert,Ferwerderadiel,Friesland,VBO,5.847759,53.349039
De Rijp,12,,,9172PG,Ferwert,Ferwerderadiel,Friesland,VBO,5.847915,53.348738
De Rijp,14,,,9172PG,Ferwert,Ferwerderadiel,Friesland,VBO,5.849225,53.349269
De Rijp,15,,,9172PG,Ferwert,Ferwerderadiel,Friesland,VBO,5.847492,53.349679
De Rijp,17,,,9172PG,Ferwert,Ferwerderadiel,Friesland,VBO,5.847580,53.349715
De Rijp,18,,,9172PG,Ferwert,Ferwerderadiel,Friesland,VBO,5.850667,53.349121
De Rijp,19,,,9172PG,Ferwert,Ferwerderadiel,Friesland,VBO,5.847730,53.349779
Hegebeintumerdyk,1,,,9172PH,Ferwert,Ferwerderadiel,Friesland,VBO,5.824056,53.337837
Hegebeintumerdyk,3,,,9172PH,Ferwert,Ferwerderadiel,Friesland,VBO,5.824128,53.337589
Hegebeintumerdyk,5,,,9172PH,Ferwert,Ferwerderadiel,Friesland,VBO,5.824220,53.337385
Hegebeintumerdyk,7,,,9172PH,Ferwert,Ferwerderadiel,Friesland,VBO,5.824432,53.337192
Hegebeintumerdyk,11,,,9172PH,Ferwert,Ferwerderadiel,Friesland,VBO,5.824752,53.337066
Hegebeintumerdyk,15,,,9172PH,Ferwert,Ferwerderadiel,Friesland,VBO,5.824903,53.337269
Hegebeintumerdyk,17,,,9172PH,Ferwert,Ferwerderadiel,Friesland,VBO,5.825120,53.337384
Hegebeintumerdyk,19,,,9172PH,Ferwert,Ferwerderadiel,Friesland,VBO,5.824940,53.337012
Hegebeintumerdyk,21,,,9172PH,Ferwert,Ferwerderadiel,Friesland,VBO,5.825079,53.336940
Hegebeintumerdyk,23,,,9172PH,Ferwert,Ferwerderadiel,Friesland,VBO,5.825213,53.336881
Hegebeintumerdyk,25,,,9172PH,Ferwert,Ferwerderadiel,Friesland,VBO,5.825346,53.336814
Hegebeintumerdyk,25,,,9172PH,Ferwert,Ferwerderadiel,Friesland,VBO,5.825369,53.336817
Hegebeintumerdyk,27,,,9172PH,Ferwert,Ferwerderadiel,Friesland,VBO,5.825615,53.336719
Hegebeintumerdyk,29,,,9172PH,Ferwert,Ferwerderadiel,Friesland,VBO,5.825854,53.336654
Hegebeintumerdyk,31,,,9172PH,Ferwert,Ferwerderadiel,Friesland,VBO,5.826213,53.336563
Hegebeintumerdyk,33,B,,9172PH,Ferwert,Ferwerderadiel,Friesland,VBO,5.829071,53.336670
Hegebeintumerdyk,33,,,9172PH,Ferwert,Ferwerderadiel,Friesland,VBO,5.826399,53.336567
Hegebeintumerdyk,2,,,9172PJ,Ferwert,Ferwerderadiel,Friesland,VBO,5.823600,53.337707
Hegebeintumerdyk,4,,,9172PJ,Ferwert,Ferwerderadiel,Friesland,VBO,5.823804,53.337382
Hegebeintumerdyk,10,,,9172PJ,Ferwert,Ferwerderadiel,Friesland,VBO,5.823950,53.337097
Hegebeintumerdyk,12,,,9172PJ,Ferwert,Ferwerderadiel,Friesland,VBO,5.824150,53.336973
Hegebeintumerdyk,14,A,,9172PJ,Ferwert,Ferwerderadiel,Friesland,VBO,5.824521,53.336769
Hegebeintumerdyk,14,,,9172PJ,Ferwert,Ferwerderadiel,Friesland,VBO,5.824328,53.336904
Burmaniastraat,1,A,,9172PK,Ferwert,Ferwerderadiel,Friesland,VBO,5.824555,53.337519
Burmaniastraat,1,B,,9172PK,Ferwert,Ferwerderadiel,Friesland,VBO,5.824583,53.337538
Burmaniastraat,1,C,,9172PK,Ferwert,Ferwerderadiel,Friesland,VBO,5.824603,53.337560
Burmaniastraat,1,D,,9172PK,Ferwert,Ferwerderadiel,Friesland,VBO,5.824622,53.337575
Burmaniastraat,1,E,,9172PK,Ferwert,Ferwerderadiel,Friesland,VBO,5.824645,53.337594
Burmaniastraat,1,F,,9172PK,Ferwert,Ferwerderadiel,Friesland,VBO,5.824671,53.337613
Burmaniastraat,1,G,,9172PK,Ferwert,Ferwerderadiel,Friesland,VBO,5.824690,53.337632
Burmaniastraat,1,H,,9172PK,Ferwert,Ferwerderadiel,Friesland,VBO,5.824714,53.337654
Burmaniastraat,1,J,,9172PK,Ferwert,Ferwerderadiel,Friesland,VBO,5.824746,53.337677
Burmaniastraat,1,K,,9172PK,Ferwert,Ferwerderadiel,Friesland,VBO,5.824764,53.337693
Burmaniastraat,1,L,,9172PK,Ferwert,Ferwerderadiel,Friesland,VBO,5.824783,53.337708
Burmaniastraat,3,,,9172PK,Ferwert,Ferwerderadiel,Friesland,VBO,5.824882,53.337789
Burmaniastraat,4,,,9172PK,Ferwert,Ferwerderadiel,Friesland,VBO,5.824696,53.337363
Burmaniastraat,6,,,9172PK,Ferwert,Ferwerderadiel,Friesland,VBO,5.824752,53.337441
Burmaniastraat,10,,,9172PK,Ferwert,Ferwerderadiel,Friesland,VBO,5.824971,53.337597
Burmaniastraat,12,,,9172PK,Ferwert,Ferwerderadiel,Friesland,VBO,5.825035,53.337689
Lytse Buorren,2,,,9172PL,Ferwert,Ferwerderadiel,Friesland,VBO,5.823145,53.338174
Lytse Buorren,4,,,9172PL,Ferwert,Ferwerderadiel,Friesland,VBO,5.823151,53.338452
Lytse Buorren,5,,,9172PL,Ferwert,Ferwerderadiel,Friesland,VBO,5.823137,53.338361
Lytse Buorren,6,,,9172PL,Ferwert,Ferwerderadiel,Friesland,VBO,5.823003,53.338438
Lytse Buorren,7,,,9172PL,Ferwert,Ferwerderadiel,Friesland,VBO,5.822948,53.338350
Lytse Buorren,8,,,9172PL,Ferwert,Ferwerderadiel,Friesland,VBO,5.822680,53.338185
Lytse Buorren,9,,,9172PL,Ferwert,Ferwerderadiel,Friesland,VBO,5.822692,53.338306
Lytse Buorren,10,A,,9172PL,Ferwert,Ferwerderadiel,Friesland,VBO,5.822575,53.338432
Lytse Buorren,10,,,9172PL,Ferwert,Ferwerderadiel,Friesland,VBO,5.822615,53.338367
Lytse Buorren,11,,,9172PL,Ferwert,Ferwerderadiel,Friesland,VBO,5.822242,53.338451
Lytse Buorren,12,,,9172PL,Ferwert,Ferwerderadiel,Friesland,VBO,5.822332,53.338480
Lytse Buorren,13,,,9172PL,Ferwert,Ferwerderadiel,Friesland,VBO,5.822009,53.338307
Lytse Buorren,14,,,9172PL,Ferwert,Ferwerderadiel,Friesland,VBO,5.822379,53.338081
Lytse Buorren,15,,,9172PL,Ferwert,Ferwerderadiel,Friesland,VBO,5.821664,53.338483
Boterhoek,1,,,9172PM,Ferwert,Ferwerderadiel,Friesland,VBO,5.824418,53.339293
Boterhoek,3,,,9172PM,Ferwert,Ferwerderadiel,Friesland,VBO,5.824486,53.339340
Boterhoek,5,,,9172PM,Ferwert,Ferwerderadiel,Friesland,VBO,5.824554,53.339387
Boterhoek,7,,,9172PM,Ferwert,Ferwerderadiel,Friesland,VBO,5.824622,53.339434
Boterhoek,9,,,9172PM,Ferwert,Ferwerderadiel,Friesland,VBO,5.824690,53.339481
Boterhoek,11,,,9172PM,Ferwert,Ferwerderadiel,Friesland,VBO,5.824758,53.339528
Marrumerweg,3,,,9172PN,Ferwert,Ferwerderadiel,Friesland,VBO,5.823164,53.337732
Marrumerweg,5,,,9172PN,Ferwert,Ferwerderadiel,Friesland,VBO,5.822986,53.337727
Marrumerweg,7,,,9172PN,Ferwert,Ferwerderadiel,Friesland,VBO,5.822796,53.337696
Marrumerweg,9,,,9172PN,Ferwert,Ferwerderadiel,Friesland,VBO,5.822538,53.337660
Marrumerweg,11,,,9172PN,Ferwert,Ferwerderadiel,Friesland,VBO,5.822368,53.337637
Marrumerweg,13,,,9172PN,Ferwert,Ferwerderadiel,Friesland,VBO,5.822062,53.337608
Marrumerweg,15,,,9172PN,Ferwert,Ferwerderadiel,Friesland,VBO,5.821788,53.337599
Marrumerweg,17,,,9172PN,Ferwert,Ferwerderadiel,Friesland,VBO,5.821578,53.337570
Marrumerweg,19,,,9172PN,Ferwert,Ferwerderadiel,Friesland,VBO,5.821348,53.337542
Marrumerweg,21,,,9172PN,Ferwert,Ferwerderadiel,Friesland,VBO,5.821006,53.337542
Marrumerweg,23,,,9172PN,Ferwert,Ferwerderadiel,Friesland,VBO,5.820766,53.337502
Marrumerweg,25,,,9172PN,Ferwert,Ferwerderadiel,Friesland,VBO,5.820493,53.337497
Marrumerweg,27,,,9172PN,Ferwert,Ferwerderadiel,Friesland,VBO,5.820318,53.337483
Marrumerweg,29,,,9172PN,Ferwert,Ferwerderadiel,Friesland,VBO,5.820129,53.337405
Marrumerweg,31,,,9172PN,Ferwert,Ferwerderadiel,Friesland,VBO,5.819989,53.337363
Marrumerweg,33,,,9172PN,Ferwert,Ferwerderadiel,Friesland,VBO,5.819849,53.337314
Marrumerweg,35,,,9172PN,Ferwert,Ferwerderadiel,Friesland,VBO,5.819716,53.337262
Marrumerweg,37,,,9172PN,Ferwert,Ferwerderadiel,Friesland,VBO,5.819577,53.337208
Marrumerweg,41,,,9172PN,Ferwert,Ferwerderadiel,Friesland,VBO,5.819304,53.337100
Marrumerweg,43,,,9172PN,Ferwert,Ferwerderadiel,Friesland,VBO,5.819166,53.337047
Marrumerweg,45,,,9172PN,Ferwert,Ferwerderadiel,Friesland,VBO,5.819006,53.336984
Marrumerweg,47,,,9172PN,Ferwert,Ferwerderadiel,Friesland,VBO,5.818922,53.336959
Marrumerweg,49,,,9172PN,Ferwert,Ferwerderadiel,Friesland,VBO,5.818763,53.336894
Marrumerweg,51,A,,9172PN,Ferwert,Ferwerderadiel,Friesland,VBO,5.817911,53.336417
Marrumerweg,51,B,,9172PN,Ferwert,Ferwerderadiel,Friesland,VBO,5.817978,53.336455
Marrumerweg,51,C,,9172PN,Ferwert,Ferwerderadiel,Friesland,VBO,5.818062,53.336502
Marrumerweg,51,D,,9172PN,Ferwert,Ferwerderadiel,Friesland,VBO,5.818133,53.336546
Marrumerweg,51,E,,9172PN,Ferwert,Ferwerderadiel,Friesland,VBO,5.818193,53.336587
Marrumerweg,51,F,,9172PN,Ferwert,Ferwerderadiel,Friesland,VBO,5.818253,53.336632
Marrumerweg,51,G,,9172PN,Ferwert,Ferwerderadiel,Friesland,VBO,5.818015,53.336391
Marrumerweg,51,H,,9172PN,Ferwert,Ferwerderadiel,Friesland,VBO,5.818071,53.336449
Marrumerweg,51,I,,9172PN,Ferwert,Ferwerderadiel,Friesland,VBO,5.818147,53.336488
Marrumerweg,51,J,,9172PN,Ferwert,Ferwerderadiel,Friesland,VBO,5.818216,53.336533
Marrumerweg,51,K,,9172PN,Ferwert,Ferwerderadiel,Friesland,VBO,5.818276,53.336577
Marrumerweg,51,,,9172PN,Ferwert,Ferwerderadiel,Friesland,VBO,5.817982,53.336565
Marrumerweg,53,,,9172PN,Ferwert,Ferwerderadiel,Friesland,VBO,5.817034,53.335802
Marrumerweg,2,A,,9172PP,Ferwert,Ferwerderadiel,Friesland,VBO,5.822144,53.338026
Marrumerweg,2,B,,9172PP,Ferwert,Ferwerderadiel,Friesland,VBO,5.821981,53.338023
Marrumerweg,2,,,9172PP,Ferwert,Ferwerderadiel,Friesland,VBO,5.821720,53.338223
Marrumerweg,4,,,9172PP,Ferwert,Ferwerderadiel,Friesland,VBO,5.821121,53.338037
Marrumerweg,6,,,9172PP,Ferwert,Ferwerderadiel,Friesland,VBO,5.820789,53.337980
Marrumerweg,8,,,9172PP,Ferwert,Ferwerderadiel,Friesland,VBO,5.820399,53.337909
Marrumerweg,10,,,9172PP,Ferwert,Ferwerderadiel,Friesland,VBO,5.820225,53.337925
Marrumerweg,12,,,9172PP,Ferwert,Ferwerderadiel,Friesland,VBO,5.819528,53.337699
Marrumerweg,14,,,9172PP,Ferwert,Ferwerderadiel,Friesland,VBO,5.819150,53.337553
Marrumerweg,16,A,,9172PP,Ferwert,Ferwerderadiel,Friesland,VBO,5.818638,53.337340
Marrumerweg,16,,,9172PP,Ferwert,Ferwerderadiel,Friesland,VBO,5.818904,53.337449
Marrumerweg,18,,,9172PP,Ferwert,Ferwerderadiel,Friesland,VBO,5.818412,53.337223
Marrumerweg,20,,,9172PP,Ferwert,Ferwerderadiel,Friesland,VBO,5.818264,53.337141
Marrumerweg,22,,,9172PP,Ferwert,Ferwerderadiel,Friesland,VBO,5.816871,53.336280
Bethanië,40,,,9172PR,Ferwert,Ferwerderadiel,Friesland,VBO,5.819832,53.336068
Foswerterstrjitte,1,,,9172PR,Ferwert,Ferwerderadiel,Friesland,VBO,5.823538,53.336974
Foswerterstrjitte,3,,,9172PR,Ferwert,Ferwerderadiel,Friesland,VBO,5.823426,53.336923
Foswerterstrjitte,5,,,9172PR,Ferwert,Ferwerderadiel,Friesland,VBO,5.823602,53.336776
Foswerterstrjitte,7,,,9172PR,Ferwert,Ferwerderadiel,Friesland,VBO,5.823156,53.336709
Foswerterstrjitte,9,,,9172PR,Ferwert,Ferwerderadiel,Friesland,VBO,5.822953,53.336786
Foswerterstrjitte,13,,,9172PR,Ferwert,Ferwerderadiel,Friesland,VBO,5.822466,53.336744
Foswerterstrjitte,25,,,9172PR,Ferwert,Ferwerderadiel,Friesland,VBO,5.822200,53.336747
Foswerterstrjitte,27,,,9172PR,Ferwert,Ferwerderadiel,Friesland,VBO,5.821760,53.336725
Foswerterstrjitte,29,,,9172PR,Ferwert,Ferwerderadiel,Friesland,VBO,5.821434,53.336764
Foswerterstrjitte,31,,,9172PR,Ferwert,Ferwerderadiel,Friesland,VBO,5.821031,53.336788
Foswerterstrjitte,33,,,9172PR,Ferwert,Ferwerderadiel,Friesland,VBO,5.820650,53.336754
Foswerterstrjitte,35,,,9172PR,Ferwert,Ferwerderadiel,Friesland,VBO,5.820542,53.336741
Foswerterstrjitte,37,,,9172PR,Ferwert,Ferwerderadiel,Friesland,VBO,5.820341,53.336698
Foswerterstrjitte,39,,,9172PR,Ferwert,Ferwerderadiel,Friesland,VBO,5.820239,53.336671
Foswerterstrjitte,41,,,9172PR,Ferwert,Ferwerderadiel,Friesland,VBO,5.820060,53.336616
Foswerterstrjitte,43,,,9172PR,Ferwert,Ferwerderadiel,Friesland,VBO,5.819966,53.336582
Foswerterstrjitte,45,,,9172PR,Ferwert,Ferwerderadiel,Friesland,VBO,5.819803,53.336514
Foswerterstrjitte,47,,,9172PR,Ferwert,Ferwerderadiel,Friesland,VBO,5.819709,53.336474
Foswerterstrjitte,71,K,10,9172PS,Ferwert,Ferwerderadiel,Friesland,VBO,5.818235,53.335879
Foswerterstrjitte,71,K,106,9172PS,Ferwert,Ferwerderadiel,Friesland,VBO,5.818630,53.336097
Foswerterstrjitte,71,K,107,9172PS,Ferwert,Ferwerderadiel,Friesland,VBO,5.818570,53.336060
Foswerterstrjitte,71,K,108,9172PS,Ferwert,Ferwerderadiel,Friesland,VBO,5.818472,53.336021
Foswerterstrjitte,71,K,109,9172PS,Ferwert,Ferwerderadiel,Friesland,VBO,5.818387,53.335974
Foswerterstrjitte,71,K,11,9172PS,Ferwert,Ferwerderadiel,Friesland,VBO,5.818316,53.335809
Foswerterstrjitte,71,K,110,9172PS,Ferwert,Ferwerderadiel,Friesland,VBO,5.818287,53.335906
Foswerterstrjitte,71,K,111,9172PS,Ferwert,Ferwerderadiel,Friesland,VBO,5.818291,53.335840
Foswerterstrjitte,71,K,112,9172PS,Ferwert,Ferwerderadiel,Friesland,VBO,5.818506,53.335963
Foswerterstrjitte,71,K,113,9172PS,Ferwert,Ferwerderadiel,Friesland,VBO,5.818644,53.335978
Foswerterstrjitte,71,K,114,9172PS,Ferwert,Ferwerderadiel,Friesland,VBO,5.818686,53.336030
Foswerterstrjitte,71,K,115,9172PS,Ferwert,Ferwerderadiel,Friesland,VBO,5.818721,53.336072
Foswerterstrjitte,71,K,116,9172PS,Ferwert,Ferwerderadiel,Friesland,VBO,5.818686,53.336128
Foswerterstrjitte,71,K,117,9172PS,Ferwert,Ferwerderadiel,Friesland,VBO,5.819275,53.335842
Foswerterstrjitte,71,K,118,9172PS,Ferwert,Ferwerderadiel,Friesland,VBO,5.819368,53.335789
Foswerterstrjitte,71,K,119,9172PS,Ferwert,Ferwerderadiel,Friesland,VBO,5.819438,53.335737
Foswerterstrjitte,71,K,12,9172PS,Ferwert,Ferwerderadiel,Friesland,VBO,5.818393,53.335868
Foswerterstrjitte,71,K,120,9172PS,Ferwert,Ferwerderadiel,Friesland,VBO,5.819482,53.335711
Foswerterstrjitte,71,K,121,9172PS,Ferwert,Ferwerderadiel,Friesland,VBO,5.819264,53.335587
Foswerterstrjitte,71,K,122,9172PS,Ferwert,Ferwerderadiel,Friesland,VBO,5.819199,53.335554
Foswerterstrjitte,71,K,123,9172PS,Ferwert,Ferwerderadiel,Friesland,VBO,5.819124,53.335515
Foswerterstrjitte,71,K,124,9172PS,Ferwert,Ferwerderadiel,Friesland,VBO,5.819042,53.335482
Foswerterstrjitte,71,K,125,9172PS,Ferwert,Ferwerderadiel,Friesland,VBO,5.818880,53.335447
Foswerterstrjitte,71,K,126,9172PS,Ferwert,Ferwerderadiel,Friesland,VBO,5.818820,53.335417
Foswerterstrjitte,71,K,127,9172PS,Ferwert,Ferwerderadiel,Friesland,VBO,5.818877,53.335377
Foswerterstrjitte,71,K,128,9172PS,Ferwert,Ferwerderadiel,Friesland,VBO,5.819271,53.335516
Foswerterstrjitte,71,K,129,9172PS,Ferwert,Ferwerderadiel,Friesland,VBO,5.819341,53.335547
Foswerterstrjitte,71,K,13,9172PS,Ferwert,Ferwerderadiel,Friesland,VBO,5.818466,53.335902
Foswerterstrjitte,71,K,130,9172PS,Ferwert,Ferwerderadiel,Friesland,VBO,5.819451,53.335583
Foswerterstrjitte,71,K,131,9172PS,Ferwert,Ferwerderadiel,Friesland,VBO,5.819501,53.335617
Foswerterstrjitte,71,K,132,9172PS,Ferwert,Ferwerderadiel,Friesland,VBO,5.819569,53.335661
Foswerterstrjitte,71,K,133,9172PS,Ferwert,Ferwerderadiel,Friesland,VBO,5.819659,53.335702
Foswerterstrjitte,71,K,134,9172PS,Ferwert,Ferwerderadiel,Friesland,VBO,5.819726,53.335748
Foswerterstrjitte,71,K,135,9172PS,Ferwert,Ferwerderadiel,Friesland,VBO,5.819795,53.335785
Foswerterstrjitte,71,K,136,9172PS,Ferwert,Ferwerderadiel,Friesland,VBO,5.819862,53.335817
Foswerterstrjitte,71,K,14,9172PS,Ferwert,Ferwerderadiel,Friesland,VBO,5.818556,53.335933
Foswerterstrjitte,71,K,17,9172PS,Ferwert,Ferwerderadiel,Friesland,VBO,5.819242,53.335802
Foswerterstrjitte,71,K,18,9172PS,Ferwert,Ferwerderadiel,Friesland,VBO,5.819298,53.335760
Foswerterstrjitte,71,K,19,9172PS,Ferwert,Ferwerderadiel,Friesland,VBO,5.819347,53.335722
Foswerterstrjitte,71,K,20,9172PS,Ferwert,Ferwerderadiel,Friesland,VBO,5.819417,53.335686
Foswerterstrjitte,71,K,206,9172PS,Ferwert,Ferwerderadiel,Friesland,VBO,5.818915,53.336010
Foswerterstrjitte,71,K,207,9172PS,Ferwert,Ferwerderadiel,Friesland,VBO,5.818886,53.336061
Foswerterstrjitte,71,K,208,9172PS,Ferwert,Ferwerderadiel,Friesland,VBO,5.818854,53.336107
Foswerterstrjitte,71,K,209,9172PS,Ferwert,Ferwerderadiel,Friesland,VBO,5.818816,53.336147
Foswerterstrjitte,71,K,21,9172PS,Ferwert,Ferwerderadiel,Friesland,VBO,5.819215,53.335617
Foswerterstrjitte,71,K,210,9172PS,Ferwert,Ferwerderadiel,Friesland,VBO,5.818772,53.336176
Foswerterstrjitte,71,K,211,9172PS,Ferwert,Ferwerderadiel,Friesland,VBO,5.818724,53.336207
Foswerterstrjitte,71,K,212,9172PS,Ferwert,Ferwerderadiel,Friesland,VBO,5.818667,53.336236
Foswerterstrjitte,71,K,213,9172PS,Ferwert,Ferwerderadiel,Friesland,VBO,5.818975,53.336091
Foswerterstrjitte,71,K,214,9172PS,Ferwert,Ferwerderadiel,Friesland,VBO,5.818962,53.336132
Foswerterstrjitte,71,K,215,9172PS,Ferwert,Ferwerderadiel,Friesland,VBO,5.818921,53.336176
Foswerterstrjitte,71,K,216,9172PS,Ferwert,Ferwerderadiel,Friesland,VBO,5.818865,53.336204
Foswerterstrjitte,71,K,217,9172PS,Ferwert,Ferwerderadiel,Friesland,VBO,5.819151,53.335861
Foswerterstrjitte,71,K,218,9172PS,Ferwert,Ferwerderadiel,Friesland,VBO,5.819272,53.335877
Foswerterstrjitte,71,K,219,9172PS,Ferwert,Ferwerderadiel,Friesland,VBO,5.819259,53.335911
Foswerterstrjitte,71,K,22,9172PS,Ferwert,Ferwerderadiel,Friesland,VBO,5.819148,53.335584
Foswerterstrjitte,71,K,220,9172PS,Ferwert,Ferwerderadiel,Friesland,VBO,5.819125,53.335903
Foswerterstrjitte,71,K,221,9172PS,Ferwert,Ferwerderadiel,Friesland,VBO,5.818968,53.335412
Foswerterstrjitte,71,K,222,9172PS,Ferwert,Ferwerderadiel,Friesland,VBO,5.819029,53.335444
Foswerterstrjitte,71,K,223,9172PS,Ferwert,Ferwerderadiel,Friesland,VBO,5.819317,53.335617
Foswerterstrjitte,71,K,224,9172PS,Ferwert,Ferwerderadiel,Friesland,VBO,5.819441,53.335651
Foswerterstrjitte,71,K,225,9172PS,Ferwert,Ferwerderadiel,Friesland,VBO,5.819863,53.335850
Foswerterstrjitte,71,K,226,9172PS,Ferwert,Ferwerderadiel,Friesland,VBO,5.819907,53.335871
Foswerterstrjitte,71,K,227,9172PS,Ferwert,Ferwerderadiel,Friesland,VBO,5.819952,53.335897
Foswerterstrjitte,71,K,228,9172PS,Ferwert,Ferwerderadiel,Friesland,VBO,5.819592,53.335731
Foswerterstrjitte,71,K,229,9172PS,Ferwert,Ferwerderadiel,Friesland,VBO,5.819738,53.335848
Foswerterstrjitte,71,K,23,9172PS,Ferwert,Ferwerderadiel,Friesland,VBO,5.819085,53.335547
Foswerterstrjitte,71,K,24,9172PS,Ferwert,Ferwerderadiel,Friesland,VBO,5.819010,53.335513
Foswerterstrjitte,71,K,25,9172PS,Ferwert,Ferwerderadiel,Friesland,VBO,5.818943,53.335478
Foswerterstrjitte,71,K,26,9172PS,Ferwert,Ferwerderadiel,Friesland,VBO,5.818973,53.335316
Foswerterstrjitte,71,K,27,9172PS,Ferwert,Ferwerderadiel,Friesland,VBO,5.819004,53.335353
Foswerterstrjitte,71,K,28,9172PS,Ferwert,Ferwerderadiel,Friesland,VBO,5.819046,53.335384
Foswerterstrjitte,71,K,29,9172PS,Ferwert,Ferwerderadiel,Friesland,VBO,5.819136,53.335415
Foswerterstrjitte,71,K,30,9172PS,Ferwert,Ferwerderadiel,Friesland,VBO,5.819169,53.335447
Foswerterstrjitte,71,K,31,9172PS,Ferwert,Ferwerderadiel,Friesland,VBO,5.819202,53.335480
Foswerterstrjitte,71,K,317,9172PS,Ferwert,Ferwerderadiel,Friesland,VBO,5.819069,53.335936
Foswerterstrjitte,71,K,318,9172PS,Ferwert,Ferwerderadiel,Friesland,VBO,5.819106,53.335971
Foswerterstrjitte,71,K,319,9172PS,Ferwert,Ferwerderadiel,Friesland,VBO,5.819224,53.335988
Foswerterstrjitte,71,K,320,9172PS,Ferwert,Ferwerderadiel,Friesland,VBO,5.819158,53.336019
Foswerterstrjitte,71,K,6,9172PS,Ferwert,Ferwerderadiel,Friesland,VBO,5.818583,53.336127
Foswerterstrjitte,71,K,7,9172PS,Ferwert,Ferwerderadiel,Friesland,VBO,5.818489,53.336079
Foswerterstrjitte,71,K,8,9172PS,Ferwert,Ferwerderadiel,Friesland,VBO,5.818377,53.336030
Foswerterstrjitte,71,K,9,9172PS,Ferwert,Ferwerderadiel,Friesland,VBO,5.818341,53.335939
Foswerterstrjitte,71,,,9172PS,Ferwert,Ferwerderadiel,Friesland,VBO,5.818902,53.336305
Foswerterstrjitte,73,,,9172PS,Ferwert,Ferwerderadiel,Friesland,VBO,5.818657,53.336368
Foswerterstrjitte,2,,,9172PT,Ferwert,Ferwerderadiel,Friesland,VBO,5.823194,53.337106
Foswerterstrjitte,4,,,9172PT,Ferwert,Ferwerderadiel,Friesland,VBO,5.822970,53.337067
Foswerterstrjitte,6,,,9172PT,Ferwert,Ferwerderadiel,Friesland,VBO,5.822688,53.337036
Foswerterstrjitte,8,,,9172PT,Ferwert,Ferwerderadiel,Friesland,VBO,5.822453,53.337008
Foswerterstrjitte,10,,,9172PT,Ferwert,Ferwerderadiel,Friesland,VBO,5.822167,53.336988
Foswerterstrjitte,12,,,9172PT,Ferwert,Ferwerderadiel,Friesland,VBO,5.821901,53.336983
Foswerterstrjitte,14,,,9172PT,Ferwert,Ferwerderadiel,Friesland,VBO,5.821546,53.336989
Foswerterstrjitte,16,,,9172PT,Ferwert,Ferwerderadiel,Friesland,VBO,5.821178,53.337030
Foswerterstrjitte,18,,,9172PT,Ferwert,Ferwerderadiel,Friesland,VBO,5.820766,53.337115
Foswerterstrjitte,20,,,9172PT,Ferwert,Ferwerderadiel,Friesland,VBO,5.820588,53.337035
Foswerterstrjitte,22,,,9172PT,Ferwert,Ferwerderadiel,Friesland,VBO,5.820360,53.336998
Foswerterstrjitte,24,,,9172PT,Ferwert,Ferwerderadiel,Friesland,VBO,5.820170,53.336917
Foswerterstrjitte,26,,,9172PT,Ferwert,Ferwerderadiel,Friesland,VBO,5.820087,53.336892
Foswerterstrjitte,28,,,9172PT,Ferwert,Ferwerderadiel,Friesland,VBO,5.819897,53.336835
Foswerterstrjitte,30,,,9172PT,Ferwert,Ferwerderadiel,Friesland,VBO,5.819812,53.336809
Foswerterstrjitte,32,,,9172PT,Ferwert,Ferwerderadiel,Friesland,VBO,5.819623,53.336752
Foswerterstrjitte,34,,,9172PT,Ferwert,Ferwerderadiel,Friesland,VBO,5.819537,53.336725
Foswerterstrjitte,36,,,9172PT,Ferwert,Ferwerderadiel,Friesland,VBO,5.819349,53.336668
Foswerterstrjitte,38,,,9172PT,Ferwert,Ferwerderadiel,Friesland,VBO,5.819263,53.336643
Foswerterstrjitte,40,,,9172PT,Ferwert,Ferwerderadiel,Friesland,VBO,5.818985,53.336557
Foswerterstrjitte,42,,,9172PT,Ferwert,Ferwerderadiel,Friesland,VBO,5.818646,53.336780
Foswerterstrjitte,44,,,9172PT,Ferwert,Ferwerderadiel,Friesland,VBO,5.818565,53.336838
Bethanië,17,,,9172PV,Ferwert,Ferwerderadiel,Friesland,VBO,5.820155,53.336086
Bethanië,18,,,9172PV,Ferwert,Ferwerderadiel,Friesland,VBO,5.820243,53.336134
Bethanië,19,,,9172PV,Ferwert,Ferwerderadiel,Friesland,VBO,5.820314,53.336171
Bethanië,20,,,9172PV,Ferwert,Ferwerderadiel,Friesland,VBO,5.820502,53.336225
Bethanië,21,,,9172PV,Ferwert,Ferwerderadiel,Friesland,VBO,5.820598,53.336272
Bethanië,22,,,9172PV,Ferwert,Ferwerderadiel,Friesland,VBO,5.820696,53.336318
Bethanië,23,,,9172PV,Ferwert,Ferwerderadiel,Friesland,VBO,5.820905,53.336138
Bethanië,24,,,9172PV,Ferwert,Ferwerderadiel,Friesland,VBO,5.820983,53.336083
Bethanië,25,,,9172PV,Ferwert,Ferwerderadiel,Friesland,VBO,5.821065,53.336027
Bethanië,26,,,9172PV,Ferwert,Ferwerderadiel,Friesland,VBO,5.821138,53.335971
Bethanië,27,,,9172PV,Ferwert,Ferwerderadiel,Friesland,VBO,5.820903,53.335700
Bethanië,28,,,9172PV,Ferwert,Ferwerderadiel,Friesland,VBO,5.820810,53.335654
Bethanië,29,,,9172PV,Ferwert,Ferwerderadiel,Friesland,VBO,5.820715,53.335605
Bethanië,30,,,9172PV,Ferwert,Ferwerderadiel,Friesland,VBO,5.820328,53.335634
Bethanië,31,,,9172PV,Ferwert,Ferwerderadiel,Friesland,VBO,5.820248,53.335690
Bethanië,32,,,9172PV,Ferwert,Ferwerderadiel,Friesland,VBO,5.820164,53.335753
Bethanië,41,,,9172PW,Ferwert,Ferwerderadiel,Friesland,VBO,5.819675,53.336175
Herjuwsmawei,1,,,9172PX,Ferwert,Ferwerderadiel,Friesland,VBO,5.826779,53.329676
Great Sminia,1,,,9172PZ,Ferwert,Ferwerderadiel,Friesland,VBO,5.830147,53.338439
Great Sminia,3,,,9172PZ,Ferwert,Ferwerderadiel,Friesland,VBO,5.830190,53.338382
Great Sminia,5,,,9172PZ,Ferwert,Ferwerderadiel,Friesland,VBO,5.830232,53.338325
Great Sminia,7,,,9172PZ,Ferwert,Ferwerderadiel,Friesland,VBO,5.830274,53.338268
Great Sminia,9,,,9172PZ,Ferwert,Ferwerderadiel,Friesland,VBO,5.830437,53.338072
Great Sminia,11,,,9172PZ,Ferwert,Ferwerderadiel,Friesland,VBO,5.830533,53.338105
Great Sminia,13,,,9172PZ,Ferwert,Ferwerderadiel,Friesland,VBO,5.830630,53.338137
Great Sminia,15,,,9172PZ,Ferwert,Ferwerderadiel,Friesland,VBO,5.830682,53.338417
Great Sminia,17,,,9172PZ,Ferwert,Ferwerderadiel,Friesland,VBO,5.830640,53.338473
Great Sminia,19,,,9172PZ,Ferwert,Ferwerderadiel,Friesland,VBO,5.830597,53.338529
Great Sminia,21,,,9172PZ,Ferwert,Ferwerderadiel,Friesland,VBO,5.830555,53.338586
Great Sminia,2,,,9172RA,Ferwert,Ferwerderadiel,Friesland,VBO,5.829758,53.338445
Great Sminia,4,,,9172RA,Ferwert,Ferwerderadiel,Friesland,VBO,5.829816,53.338377
Great Sminia,6,,,9172RA,Ferwert,Ferwerderadiel,Friesland,VBO,5.829798,53.338296
Great Sminia,8,,,9172RA,Ferwert,Ferwerderadiel,Friesland,VBO,5.829852,53.338238
Great Sminia,10,,,9172RA,Ferwert,Ferwerderadiel,Friesland,VBO,5.829906,53.338179
Great Sminia,12,,,9172RA,Ferwert,Ferwerderadiel,Friesland,VBO,5.829902,53.338092
Great Sminia,14,,,9172RA,Ferwert,Ferwerderadiel,Friesland,VBO,5.829956,53.338028
Great Sminia,16,,,9172RA,Ferwert,Ferwerderadiel,Friesland,VBO,5.829861,53.337912
Great Sminia,18,,,9172RA,Ferwert,Ferwerderadiel,Friesland,VBO,5.829911,53.337849
Great Sminia,20,,,9172RA,Ferwert,Ferwerderadiel,Friesland,VBO,5.829960,53.337785
Great Sminia,22,,,9172RA,Ferwert,Ferwerderadiel,Friesland,VBO,5.830140,53.337690
Great Sminia,24,,,9172RA,Ferwert,Ferwerderadiel,Friesland,VBO,5.830233,53.337720
Great Sminia,26,,,9172RA,Ferwert,Ferwerderadiel,Friesland,VBO,5.830327,53.337749
Great Sminia,28,,,9172RA,Ferwert,Ferwerderadiel,Friesland,VBO,5.830433,53.337802
Great Sminia,30,,,9172RA,Ferwert,Ferwerderadiel,Friesland,VBO,5.830543,53.337836
Great Sminia,32,,,9172RA,Ferwert,Ferwerderadiel,Friesland,VBO,5.830636,53.337896
Great Sminia,34,,,9172RA,Ferwert,Ferwerderadiel,Friesland,VBO,5.830741,53.337927
Great Sminia,36,,,9172RA,Ferwert,Ferwerderadiel,Friesland,VBO,5.830845,53.337958
Great Sminia,38,,,9172RA,Ferwert,Ferwerderadiel,Friesland,VBO,5.831272,53.338580
De Wynacker,1,,,9172RB,Ferwert,Ferwerderadiel,Friesland,VBO,5.827838,53.335894
De Wynacker,3,,,9172RB,Ferwert,Ferwerderadiel,Friesland,VBO,5.827814,53.335840
De Wynacker,5,,,9172RB,Ferwert,Ferwerderadiel,Friesland,VBO,5.827797,53.335723
De Wynacker,11,,,9172RB,Ferwert,Ferwerderadiel,Friesland,VBO,5.826508,53.335566
De Wynacker,13,,,9172RB,Ferwert,Ferwerderadiel,Friesland,VBO,5.826415,53.335668
De Wynacker,15,,,9172RB,Ferwert,Ferwerderadiel,Friesland,VBO,5.826317,53.335765
De Wynacker,2,,,9172RC,Ferwert,Ferwerderadiel,Friesland,VBO,5.827377,53.336011
De Wynacker,4,,,9172RC,Ferwert,Ferwerderadiel,Friesland,VBO,5.827346,53.335885
De Wynacker,6,,,9172RC,Ferwert,Ferwerderadiel,Friesland,VBO,5.827297,53.335773
De Wynacker,8,,,9172RC,Ferwert,Ferwerderadiel,Friesland,VBO,5.827015,53.335632
De Wynacker,10,A,,9172RC,Ferwert,Ferwerderadiel,Friesland,VBO,5.826712,53.335833
De Wynacker,10,,,9172RC,Ferwert,Ferwerderadiel,Friesland,VBO,5.826767,53.335778
De Wynacker,12,,,9172RC,Ferwert,Ferwerderadiel,Friesland,VBO,5.826967,53.336061
De Wynacker,22,,,9172RC,Ferwert,Ferwerderadiel,Friesland,VBO,5.826646,53.336081
De Wynacker,24,,,9172RC,Ferwert,Ferwerderadiel,Friesland,VBO,5.826421,53.336103
De Wynacker,26,,,9172RC,Ferwert,Ferwerderadiel,Friesland,VBO,5.826206,53.336033
De Wynacker,28,,,9172RC,Ferwert,Ferwerderadiel,Friesland,VBO,5.826024,53.335958
De Broll,1,A,,9172RD,Ferwert,Ferwerderadiel,Friesland,VBO,5.827145,53.335402
De Broll,1,,,9172RD,Ferwert,Ferwerderadiel,Friesland,VBO,5.827507,53.335537
De Broll,3,,,9172RD,Ferwert,Ferwerderadiel,Friesland,VBO,5.827617,53.335417
De Broll,5,,,9172RD,Ferwert,Ferwerderadiel,Friesland,VBO,5.827744,53.335304
De Broll,13,,,9172RD,Ferwert,Ferwerderadiel,Friesland,VBO,5.827940,53.335013
De Broll,15,,,9172RD,Ferwert,Ferwerderadiel,Friesland,VBO,5.827892,53.334899
De Broll,17,,,9172RD,Ferwert,Ferwerderadiel,Friesland,VBO,5.827828,53.334792
De Broll,19,,,9172RD,Ferwert,Ferwerderadiel,Friesland,VBO,5.827767,53.334671
De Broll,21,,,9172RD,Ferwert,Ferwerderadiel,Friesland,VBO,5.827721,53.334548
De Broll,23,,,9172RD,Ferwert,Ferwerderadiel,Friesland,VBO,5.826571,53.334652
De Broll,25,,,9172RD,Ferwert,Ferwerderadiel,Friesland,VBO,5.826218,53.334763
De Broll,29,,,9172RD,Ferwert,Ferwerderadiel,Friesland,VBO,5.825930,53.335056
De Broll,31,,,9172RD,Ferwert,Ferwerderadiel,Friesland,VBO,5.826363,53.335051
De Broll,33,,,9172RD,Ferwert,Ferwerderadiel,Friesland,VBO,5.826387,53.335096
De Broll,35,,,9172RD,Ferwert,Ferwerderadiel,Friesland,VBO,5.826453,53.335263
De Broll,37,,,9172RD,Ferwert,Ferwerderadiel,Friesland,VBO,5.826472,53.335311
De Broll,2,,,9172RE,Ferwert,Ferwerderadiel,Friesland,VBO,5.827340,53.335212
De Broll,4,,,9172RE,Ferwert,Ferwerderadiel,Friesland,VBO,5.827464,53.335090
De Broll,6,,,9172RE,Ferwert,Ferwerderadiel,Friesland,VBO,5.827462,53.334921
De Broll,8,,,9172RE,Ferwert,Ferwerderadiel,Friesland,VBO,5.827415,53.334808
De Broll,10,,,9172RE,Ferwert,Ferwerderadiel,Friesland,VBO,5.827307,53.334687
De Broll,12,,,9172RE,Ferwert,Ferwerderadiel,Friesland,VBO,5.827147,53.334588
De Broll,14,,,9172RE,Ferwert,Ferwerderadiel,Friesland,VBO,5.826825,53.334853
De Broll,16,,,9172RE,Ferwert,Ferwerderadiel,Friesland,VBO,5.826812,53.335042
De Broll,18,,,9172RE,Ferwert,Ferwerderadiel,Friesland,VBO,5.826895,53.335193
De Broll,20,,,9172RE,Ferwert,Ferwerderadiel,Friesland,VBO,5.826914,53.335240
It Suderheech,1,,,9172RG,Ferwert,Ferwerderadiel,Friesland,VBO,5.827714,53.334232
It Suderheech,2,,,9172RG,Ferwert,Ferwerderadiel,Friesland,VBO,5.827213,53.334300
It Suderheech,3,,,9172RG,Ferwert,Ferwerderadiel,Friesland,VBO,5.827670,53.334095
It Suderheech,4,,,9172RG,Ferwert,Ferwerderadiel,Friesland,VBO,5.827075,53.334202
It Suderheech,5,,,9172RG,Ferwert,Ferwerderadiel,Friesland,VBO,5.827651,53.333957
It Suderheech,6,,,9172RG,Ferwert,Ferwerderadiel,Friesland,VBO,5.827047,53.334073
It Suderheech,7,,,9172RG,Ferwert,Ferwerderadiel,Friesland,VBO,5.827519,53.333837
It Suderheech,8,,,9172RG,Ferwert,Ferwerderadiel,Friesland,VBO,5.827029,53.333905
It Suderheech,9,,,9172RG,Ferwert,Ferwerderadiel,Friesland,VBO,5.827433,53.333653
It Suderheech,10,,,9172RG,Ferwert,Ferwerderadiel,Friesland,VBO,5.826832,53.333775
It Suderheech,11,,,9172RG,Ferwert,Ferwerderadiel,Friesland,VBO,5.827682,53.333611
It Suderheech,12,,,9172RG,Ferwert,Ferwerderadiel,Friesland,VBO,5.826447,53.333808
It Suderheech,13,,,9172RG,Ferwert,Ferwerderadiel,Friesland,VBO,5.827689,53.333326
It Suderheech,14,,,9172RG,Ferwert,Ferwerderadiel,Friesland,VBO,5.826189,53.333861
It Suderheech,15,,,9172RG,Ferwert,Ferwerderadiel,Friesland,VBO,5.827366,53.333360
It Suderheech,16,,,9172RG,Ferwert,Ferwerderadiel,Friesland,VBO,5.825928,53.333848
It Suderheech,17,,,9172RG,Ferwert,Ferwerderadiel,Friesland,VBO,5.827142,53.333404
It Suderheech,18,,,9172RG,Ferwert,Ferwerderadiel,Friesland,VBO,5.825727,53.333777
It Suderheech,19,,,9172RG,Ferwert,Ferwerderadiel,Friesland,VBO,5.826910,53.333503
It Suderheech,21,,,9172RG,Ferwert,Ferwerderadiel,Friesland,VBO,5.826701,53.333540
It Suderheech,23,,,9172RG,Ferwert,Ferwerderadiel,Friesland,VBO,5.826458,53.333563
It Suderheech,25,,,9172RG,Ferwert,Ferwerderadiel,Friesland,VBO,5.826194,53.333611
It Suderheech,27,,,9172RG,Ferwert,Ferwerderadiel,Friesland,VBO,5.825899,53.333579
