openbareruimtenaam,huisnummer,huisletter,huisnummertoevoeging,postcode,woonplaatsnaam,gemeentenaam,provincienaam,typeadresseerbaarobject,longitude,latitude
De Middelgeast,1,,,9212PA,Boornbergum,Smallingerland,Friesland,VBO,6.036614,53.085674
De Middelgeast,2,,,9212PA,Boornbergum,Smallingerland,Friesland,VBO,6.037469,53.085808
De Middelgeast,3,,,9212PA,Boornbergum,Smallingerland,Friesland,VBO,6.035056,53.087941
De Middelgeast,5,,,9212PA,Boornbergum,Smallingerland,Friesland,VBO,6.034586,53.088326
De Middelgeast,6,,,9212PA,Boornbergum,Smallingerland,Friesland,VBO,6.035688,53.088829
De Middelgeast,7,,,9212PA,Boornbergum,Smallingerland,Friesland,VBO,6.034060,53.088142
De Middelgeast,8,,,9212PA,Boornbergum,Smallingerland,Friesland,VBO,6.034736,53.090672
Nijewei,1,,,9212PB,Boornbergum,Smallingerland,Friesland,VBO,6.045462,53.083186
Nijewei,3,,,9212PB,Boornbergum,Smallingerland,Friesland,VBO,6.045285,53.083276
Nijewei,4,,,9212PB,Boornbergum,Smallingerland,Friesland,VBO,6.045847,53.083365
Nijewei,6,,,9212PB,Boornbergum,Smallingerland,Friesland,VBO,6.045719,53.083485
Nijewei,7,,,9212PB,Boornbergum,Smallingerland,Friesland,VBO,6.045042,53.083585
Nijewei,8,,,9212PB,Boornbergum,Smallingerland,Friesland,VBO,6.045834,53.083639
Nijewei,9,,,9212PB,Boornbergum,Smallingerland,Friesland,VBO,6.044973,53.083734
Nijewei,10,,,9212PB,Boornbergum,Smallingerland,Friesland,VBO,6.045579,53.083821
Nijewei,11,,,9212PB,Boornbergum,Smallingerland,Friesland,VBO,6.044856,53.083938
Nijewei,12,,,9212PB,Boornbergum,Smallingerland,Friesland,VBO,6.045479,53.083922
Nijewei,13,,,9212PB,Boornbergum,Smallingerland,Friesland,VBO,6.044702,53.084013
Nijewei,14,,,9212PB,Boornbergum,Smallingerland,Friesland,VBO,6.045408,53.084042
Nijewei,15,,,9212PB,Boornbergum,Smallingerland,Friesland,VBO,6.044722,53.084233
Nijewei,16,,,9212PB,Boornbergum,Smallingerland,Friesland,VBO,6.045392,53.084206
Nijewei,17,,,9212PB,Boornbergum,Smallingerland,Friesland,VBO,6.044646,53.084399
Nijewei,18,,,9212PB,Boornbergum,Smallingerland,Friesland,VBO,6.045195,53.084377
Nijewei,19,,,9212PB,Boornbergum,Smallingerland,Friesland,VBO,6.044465,53.084577
Nijewei,20,,,9212PB,Boornbergum,Smallingerland,Friesland,VBO,6.045137,53.084471
Nijewei,21,,,9212PB,Boornbergum,Smallingerland,Friesland,VBO,6.044440,53.084718
Nijewei,22,a,,9212PB,Boornbergum,Smallingerland,Friesland,VBO,6.045049,53.084603
Nijewei,22,,,9212PB,Boornbergum,Smallingerland,Friesland,VBO,6.045377,53.084687
Nijewei,23,,,9212PB,Boornbergum,Smallingerland,Friesland,VBO,6.044422,53.084899
Nijewei,24,,,9212PB,Boornbergum,Smallingerland,Friesland,VBO,6.044927,53.084817
Nijewei,25,,,9212PB,Boornbergum,Smallingerland,Friesland,VBO,6.044213,53.085100
Nijewei,26,,,9212PB,Boornbergum,Smallingerland,Friesland,VBO,6.044915,53.084955
Nijewei,27,,,9212PB,Boornbergum,Smallingerland,Friesland,VBO,6.044209,53.085243
Nijewei,29,,,9212PC,Boornbergum,Smallingerland,Friesland,VBO,6.043975,53.085450
Nijewei,31,,,9212PC,Boornbergum,Smallingerland,Friesland,VBO,6.044035,53.085596
Nijewei,32,,,9212PC,Boornbergum,Smallingerland,Friesland,VBO,6.044713,53.085290
Nijewei,33,,,9212PC,Boornbergum,Smallingerland,Friesland,VBO,6.043872,53.085862
Nijewei,34,,,9212PC,Boornbergum,Smallingerland,Friesland,VBO,6.044650,53.085423
Nijewei,35,,,9212PC,Boornbergum,Smallingerland,Friesland,VBO,6.043811,53.085973
Nijewei,36,,,9212PC,Boornbergum,Smallingerland,Friesland,VBO,6.044508,53.085608
Nijewei,37,,,9212PC,Boornbergum,Smallingerland,Friesland,VBO,6.043610,53.086048
Nijewei,38,,,9212PC,Boornbergum,Smallingerland,Friesland,VBO,6.044413,53.085810
Nijewei,39,,,9212PC,Boornbergum,Smallingerland,Friesland,VBO,6.043675,53.086187
Nijewei,40,,,9212PC,Boornbergum,Smallingerland,Friesland,VBO,6.044421,53.085966
Nijewei,41,,,9212PC,Boornbergum,Smallingerland,Friesland,VBO,6.043470,53.086272
Nijewei,42,,,9212PC,Boornbergum,Smallingerland,Friesland,VBO,6.044347,53.086078
Nijewei,43,,,9212PC,Boornbergum,Smallingerland,Friesland,VBO,6.043566,53.086417
Nijewei,44,,,9212PC,Boornbergum,Smallingerland,Friesland,VBO,6.044278,53.086219
Nijewei,45,,,9212PC,Boornbergum,Smallingerland,Friesland,VBO,6.043430,53.086590
Nijewei,46,,,9212PC,Boornbergum,Smallingerland,Friesland,VBO,6.044258,53.086366
Nijewei,47,,,9212PC,Boornbergum,Smallingerland,Friesland,VBO,6.043378,53.086740
Nijewei,48,,,9212PC,Boornbergum,Smallingerland,Friesland,VBO,6.044107,53.086464
Nijewei,49,,,9212PC,Boornbergum,Smallingerland,Friesland,VBO,6.043167,53.087082
Nijewei,50,,,9212PC,Boornbergum,Smallingerland,Friesland,VBO,6.044027,53.086692
Nijewei,52,,,9212PC,Boornbergum,Smallingerland,Friesland,VBO,6.044052,53.086789
Nijewei,54,,,9212PC,Boornbergum,Smallingerland,Friesland,VBO,6.043928,53.086907
Nijewei,56,,,9212PC,Boornbergum,Smallingerland,Friesland,VBO,6.043848,53.087032
Nijewei,58,,,9212PC,Boornbergum,Smallingerland,Friesland,VBO,6.043837,53.087153
Nijewei,59,,,9212PC,Boornbergum,Smallingerland,Friesland,VBO,6.042836,53.087760
Nijewei,60,,,9212PC,Boornbergum,Smallingerland,Friesland,VBO,6.043735,53.087488
Nijewei,61,,,9212PC,Boornbergum,Smallingerland,Friesland,VBO,6.042771,53.087908
Nijewei,63,a,,9212PC,Boornbergum,Smallingerland,Friesland,VBO,6.042535,53.088213
Nijewei,63,,,9212PC,Boornbergum,Smallingerland,Friesland,VBO,6.042628,53.088047
Nijewei,65,,,9212PC,Boornbergum,Smallingerland,Friesland,VBO,6.042265,53.088333
Nijewei,67,,,9212PC,Boornbergum,Smallingerland,Friesland,VBO,6.042301,53.088672
Nijewei,69,,,9212PC,Boornbergum,Smallingerland,Friesland,VBO,6.042069,53.088966
Nijewei,72,,,9212PC,Boornbergum,Smallingerland,Friesland,VBO,6.043363,53.087958
Nijewei,76,,,9212PC,Boornbergum,Smallingerland,Friesland,VBO,6.043188,53.088301
Nijewei,80,,,9212PC,Boornbergum,Smallingerland,Friesland,VBO,6.042975,53.088617
Jouke Jochemswei,2,,,9212PD,Boornbergum,Smallingerland,Friesland,VBO,6.045367,53.085041
Jouke Jochemswei,3,,,9212PD,Boornbergum,Smallingerland,Friesland,VBO,6.045267,53.085305
Jouke Jochemswei,5,a,,9212PD,Boornbergum,Smallingerland,Friesland,VBO,6.044904,53.086224
Jouke Jochemswei,5,,,9212PD,Boornbergum,Smallingerland,Friesland,VBO,6.045471,53.085393
Jouke Jochemswei,6,,,9212PD,Boornbergum,Smallingerland,Friesland,VBO,6.048407,53.085652
Jouke Jochemswei,7,,,9212PD,Boornbergum,Smallingerland,Friesland,VBO,6.045714,53.085440
Jouke Jochemswei,9,,,9212PD,Boornbergum,Smallingerland,Friesland,VBO,6.045853,53.085464
Jouke Jochemswei,11,,,9212PD,Boornbergum,Smallingerland,Friesland,VBO,6.046011,53.085497
Jouke Jochemswei,13,,,9212PD,Boornbergum,Smallingerland,Friesland,VBO,6.046153,53.085522
Jouke Jochemswei,15,,,9212PD,Boornbergum,Smallingerland,Friesland,VBO,6.046343,53.085529
Jouke Jochemswei,17,,,9212PD,Boornbergum,Smallingerland,Friesland,VBO,6.046452,53.085549
Jouke Jochemswei,19,,,9212PD,Boornbergum,Smallingerland,Friesland,VBO,6.046630,53.085628
Jouke Jochemswei,21,,,9212PD,Boornbergum,Smallingerland,Friesland,VBO,6.046816,53.085663
Jouke Jochemswei,23,,,9212PD,Boornbergum,Smallingerland,Friesland,VBO,6.047019,53.085701
Jouke Jochemswei,25,,,9212PD,Boornbergum,Smallingerland,Friesland,VBO,6.047214,53.085736
Jouke Jochemswei,27,,,9212PD,Boornbergum,Smallingerland,Friesland,VBO,6.047551,53.085831
Jouke Jochemswei,29,,,9212PD,Boornbergum,Smallingerland,Friesland,VBO,6.047632,53.085851
Jouke Jochemswei,31,,,9212PD,Boornbergum,Smallingerland,Friesland,VBO,6.047838,53.085884
Jouke Jochemswei,33,,,9212PD,Boornbergum,Smallingerland,Friesland,VBO,6.047931,53.085907
Jouke Jochemswei,35,,,9212PD,Boornbergum,Smallingerland,Friesland,VBO,6.048152,53.085879
Jouke Jochemswei,37,,,9212PD,Boornbergum,Smallingerland,Friesland,VBO,6.048250,53.085897
Jouke Jochemswei,39,,,9212PD,Boornbergum,Smallingerland,Friesland,VBO,6.048441,53.085935
Jouke Jochemswei,41,,,9212PD,Boornbergum,Smallingerland,Friesland,VBO,6.048545,53.085959
Jouke Jochemswei,43,,,9212PD,Boornbergum,Smallingerland,Friesland,VBO,6.048739,53.085990
Jouke Jochemswei,45,,,9212PD,Boornbergum,Smallingerland,Friesland,VBO,6.048835,53.086013
Bysitterskamp,1,,,9212PE,Boornbergum,Smallingerland,Friesland,VBO,6.049400,53.084493
Bysitterskamp,2,,,9212PE,Boornbergum,Smallingerland,Friesland,VBO,6.049502,53.084233
Bysitterskamp,3,,,9212PE,Boornbergum,Smallingerland,Friesland,VBO,6.049353,53.084580
Bysitterskamp,4,,,9212PE,Boornbergum,Smallingerland,Friesland,VBO,6.049632,53.084254
Bysitterskamp,5,,,9212PE,Boornbergum,Smallingerland,Friesland,VBO,6.049318,53.084643
Bysitterskamp,7,,,9212PE,Boornbergum,Smallingerland,Friesland,VBO,6.049283,53.084724
Bysitterskamp,9,,,9212PE,Boornbergum,Smallingerland,Friesland,VBO,6.049247,53.084799
Bysitterskamp,11,,,9212PE,Boornbergum,Smallingerland,Friesland,VBO,6.049204,53.084875
Bysitterskamp,13,a,,9212PE,Boornbergum,Smallingerland,Friesland,VBO,6.049140,53.085017
Bysitterskamp,13,,,9212PE,Boornbergum,Smallingerland,Friesland,VBO,6.049168,53.084960
Bysitterskamp,15,,,9212PE,Boornbergum,Smallingerland,Friesland,VBO,6.049091,53.085111
Bysitterskamp,17,,,9212PE,Boornbergum,Smallingerland,Friesland,VBO,6.049048,53.085197
Bysitterskamp,19,,,9212PE,Boornbergum,Smallingerland,Friesland,VBO,6.049002,53.085282
Bysitterskamp,21,,,9212PE,Boornbergum,Smallingerland,Friesland,VBO,6.048923,53.085458
Bysitterskamp,23,,,9212PE,Boornbergum,Smallingerland,Friesland,VBO,6.048883,53.085534
Bysitterskamp,25,,,9212PE,Boornbergum,Smallingerland,Friesland,VBO,6.048845,53.085608
Bysitterskamp,29,,,9212PE,Boornbergum,Smallingerland,Friesland,VBO,6.048772,53.085729
Skoalfinne,1,a,,9212PG,Boornbergum,Smallingerland,Friesland,VBO,6.048794,53.083751
Skoalfinne,1,b,,9212PG,Boornbergum,Smallingerland,Friesland,VBO,6.048768,53.083807
Skoalfinne,1,,,9212PG,Boornbergum,Smallingerland,Friesland,VBO,6.048834,53.083594
Skoalfinne,3,,,9212PG,Boornbergum,Smallingerland,Friesland,VBO,6.048722,53.083955
Skoalfinne,5,,,9212PG,Boornbergum,Smallingerland,Friesland,VBO,6.048688,53.084013
Skoalfinne,7,,,9212PG,Boornbergum,Smallingerland,Friesland,VBO,6.048676,53.084068
Skoalfinne,9,,,9212PG,Boornbergum,Smallingerland,Friesland,VBO,6.048635,53.084126
Skoalfinne,11,,,9212PG,Boornbergum,Smallingerland,Friesland,VBO,6.048571,53.084243
Skoalfinne,13,,,9212PG,Boornbergum,Smallingerland,Friesland,VBO,6.048555,53.084289
Skoalfinne,15,,,9212PG,Boornbergum,Smallingerland,Friesland,VBO,6.048524,53.084338
Skoalfinne,17,,,9212PG,Boornbergum,Smallingerland,Friesland,VBO,6.048498,53.084391
Skoalfinne,19,,,9212PG,Boornbergum,Smallingerland,Friesland,VBO,6.048439,53.084505
Skoalfinne,21,,,9212PG,Boornbergum,Smallingerland,Friesland,VBO,6.048399,53.084581
Skoalfinne,23,,,9212PG,Boornbergum,Smallingerland,Friesland,VBO,6.048341,53.084690
Skoalfinne,25,,,9212PG,Boornbergum,Smallingerland,Friesland,VBO,6.048300,53.084767
Skoalfinne,2,,,9212PH,Boornbergum,Smallingerland,Friesland,VBO,6.049195,53.083953
Skoalfinne,4,,,9212PH,Boornbergum,Smallingerland,Friesland,VBO,6.049159,53.084012
Skoalfinne,6,,,9212PH,Boornbergum,Smallingerland,Friesland,VBO,6.049111,53.084129
Skoalfinne,8,,,9212PH,Boornbergum,Smallingerland,Friesland,VBO,6.049077,53.084191
Skoalfinne,10,,,9212PH,Boornbergum,Smallingerland,Friesland,VBO,6.049005,53.084441
Skoalfinne,12,,,9212PH,Boornbergum,Smallingerland,Friesland,VBO,6.048963,53.084497
Skoalfinne,14,,,9212PH,Boornbergum,Smallingerland,Friesland,VBO,6.048910,53.084617
Skoalfinne,16,,,9212PH,Boornbergum,Smallingerland,Friesland,VBO,6.048884,53.084675
Skoalfinne,18,,,9212PH,Boornbergum,Smallingerland,Friesland,VBO,6.048819,53.084802
Skoalfinne,20,,,9212PH,Boornbergum,Smallingerland,Friesland,VBO,6.048794,53.084859
Skoalfinne,22,,,9212PH,Boornbergum,Smallingerland,Friesland,VBO,6.048733,53.084972
Skoalfinne,24,,,9212PH,Boornbergum,Smallingerland,Friesland,VBO,6.048703,53.085030
Skoalfinne,26,,,9212PH,Boornbergum,Smallingerland,Friesland,VBO,6.048642,53.085143
Skoalfinne,28,,,9212PH,Boornbergum,Smallingerland,Friesland,VBO,6.048615,53.085213
Skoalfinne,30,,,9212PH,Boornbergum,Smallingerland,Friesland,VBO,6.048514,53.085378
Skoalfinne,32,,,9212PH,Boornbergum,Smallingerland,Friesland,VBO,6.048479,53.085459
Skoalfinne,34,,,9212PH,Boornbergum,Smallingerland,Friesland,VBO,6.048437,53.085529
't Herntsje,1,,,9212PJ,Boornbergum,Smallingerland,Friesland,VBO,6.047760,53.085416
't Herntsje,2,,,9212PJ,Boornbergum,Smallingerland,Friesland,VBO,6.048159,53.085039
't Herntsje,4,,,9212PJ,Boornbergum,Smallingerland,Friesland,VBO,6.047851,53.084965
't Herntsje,10,,,9212PJ,Boornbergum,Smallingerland,Friesland,VBO,6.047540,53.084918
't Herntsje,12,,,9212PJ,Boornbergum,Smallingerland,Friesland,VBO,6.047286,53.084861
't Herntsje,14,,,9212PJ,Boornbergum,Smallingerland,Friesland,VBO,6.047174,53.084841
't Herntsje,16,,,9212PJ,Boornbergum,Smallingerland,Friesland,VBO,6.047037,53.084814
't Herntsje,18,,,9212PJ,Boornbergum,Smallingerland,Friesland,VBO,6.047035,53.085074
't Herntsje,20,,,9212PJ,Boornbergum,Smallingerland,Friesland,VBO,6.046988,53.085150
't Herntsje,22,,,9212PJ,Boornbergum,Smallingerland,Friesland,VBO,6.046868,53.085324
Westerbuorren,1,a,,9212PK,Boornbergum,Smallingerland,Friesland,VBO,6.045828,53.082324
Westerbuorren,1,b,,9212PK,Boornbergum,Smallingerland,Friesland,VBO,6.045846,53.082277
Westerbuorren,1,,,9212PK,Boornbergum,Smallingerland,Friesland,VBO,6.045819,53.082382
Westerbuorren,3,a,,9212PK,Boornbergum,Smallingerland,Friesland,VBO,6.045409,53.082595
Westerbuorren,3,,,9212PK,Boornbergum,Smallingerland,Friesland,VBO,6.045358,53.082587
Westerbuorren,7,,,9212PK,Boornbergum,Smallingerland,Friesland,VBO,6.045101,53.082408
Westerbuorren,9,a,,9212PK,Boornbergum,Smallingerland,Friesland,VBO,6.044778,53.082352
Westerbuorren,9,,,9212PK,Boornbergum,Smallingerland,Friesland,VBO,6.044821,53.082526
Westerbuorren,11,,,9212PK,Boornbergum,Smallingerland,Friesland,VBO,6.044084,53.082363
Westerbuorren,15,,,9212PK,Boornbergum,Smallingerland,Friesland,VBO,6.043410,53.082174
Westerbuorren,19,,,9212PK,Boornbergum,Smallingerland,Friesland,VBO,6.043554,53.082047
Westerbuorren,21,,,9212PK,Boornbergum,Smallingerland,Friesland,VBO,6.043037,53.082177
Westerbuorren,23,,,9212PK,Boornbergum,Smallingerland,Friesland,VBO,6.042851,53.082142
Westerbuorren,25,,,9212PK,Boornbergum,Smallingerland,Friesland,VBO,6.042733,53.082072
Westerbuorren,27,,,9212PK,Boornbergum,Smallingerland,Friesland,VBO,6.042583,53.082001
Westerbuorren,29,,,9212PK,Boornbergum,Smallingerland,Friesland,VBO,6.042355,53.081992
Westerbuorren,31,,,9212PK,Boornbergum,Smallingerland,Friesland,VBO,6.042168,53.081952
Westerbuorren,33,,,9212PK,Boornbergum,Smallingerland,Friesland,VBO,6.041969,53.081923
Westerbuorren,35,,,9212PK,Boornbergum,Smallingerland,Friesland,VBO,6.041739,53.081875
Westerbuorren,39,,,9212PK,Boornbergum,Smallingerland,Friesland,VBO,6.041154,53.081691
Westerbuorren,41,,,9212PK,Boornbergum,Smallingerland,Friesland,VBO,6.040747,53.081454
Westerbuorren,45,,,9212PK,Boornbergum,Smallingerland,Friesland,VBO,6.040149,53.081509
Westerbuorren,51,,,9212PK,Boornbergum,Smallingerland,Friesland,VBO,6.039267,53.081482
Westerbuorren,55,,,9212PK,Boornbergum,Smallingerland,Friesland,VBO,6.038981,53.081384
Westerbuorren,57,,,9212PK,Boornbergum,Smallingerland,Friesland,VBO,6.038291,53.081314
Westerbuorren,2,,,9212PL,Boornbergum,Smallingerland,Friesland,VBO,6.045523,53.083059
Westerbuorren,4,,,9212PL,Boornbergum,Smallingerland,Friesland,VBO,6.045254,53.083144
Westerbuorren,6,,,9212PL,Boornbergum,Smallingerland,Friesland,VBO,6.045194,53.082893
Westerbuorren,8,,,9212PL,Boornbergum,Smallingerland,Friesland,VBO,6.045010,53.082841
Westerbuorren,10,,,9212PL,Boornbergum,Smallingerland,Friesland,VBO,6.044861,53.082804
Westerbuorren,12,,,9212PL,Boornbergum,Smallingerland,Friesland,VBO,6.044589,53.082832
Westerbuorren,16,,,9212PL,Boornbergum,Smallingerland,Friesland,VBO,6.044169,53.082778
Westerbuorren,18,,,9212PL,Boornbergum,Smallingerland,Friesland,VBO,6.043974,53.082726
Westerbuorren,20,,,9212PL,Boornbergum,Smallingerland,Friesland,VBO,6.043590,53.082732
Westerbuorren,22,,,9212PL,Boornbergum,Smallingerland,Friesland,VBO,6.043366,53.082649
Westerbuorren,24,,,9212PL,Boornbergum,Smallingerland,Friesland,VBO,6.043162,53.082547
Westerbuorren,26,,,9212PL,Boornbergum,Smallingerland,Friesland,VBO,6.042450,53.084436
Westerbuorren,30,,,9212PL,Boornbergum,Smallingerland,Friesland,VBO,6.041576,53.084647
Westerbuorren,32,,,9212PL,Boornbergum,Smallingerland,Friesland,VBO,6.042948,53.082529
Westerbuorren,34,,,9212PL,Boornbergum,Smallingerland,Friesland,VBO,6.042616,53.082419
Westerbuorren,36,,,9212PL,Boornbergum,Smallingerland,Friesland,VBO,6.042294,53.082379
Westerbuorren,38,,,9212PL,Boornbergum,Smallingerland,Friesland,VBO,6.041994,53.082312
Westerbuorren,54,,,9212PL,Boornbergum,Smallingerland,Friesland,VBO,6.039982,53.081992
Westerbuorren,56,a,,9212PL,Boornbergum,Smallingerland,Friesland,VBO,6.039005,53.082088
Westerbuorren,56,,,9212PL,Boornbergum,Smallingerland,Friesland,VBO,6.039462,53.081996
Westerbuorren,66,,,9212PL,Boornbergum,Smallingerland,Friesland,VBO,6.037908,53.081776
Efterom,1,,,9212PM,Boornbergum,Smallingerland,Friesland,VBO,6.046043,53.081800
Efterom,2,,,9212PM,Boornbergum,Smallingerland,Friesland,VBO,6.047134,53.081371
Efterom,3,,,9212PM,Boornbergum,Smallingerland,Friesland,VBO,6.047865,53.080729
Efterom,4,,,9212PM,Boornbergum,Smallingerland,Friesland,VBO,6.045863,53.080945
Efterom,5,,,9212PM,Boornbergum,Smallingerland,Friesland,VBO,6.044786,53.080754
Efterom,6,,,9212PM,Boornbergum,Smallingerland,Friesland,VBO,6.043525,53.081096
Efterom,7,,,9212PM,Boornbergum,Smallingerland,Friesland,VBO,6.043072,53.080319
Efterom,8,,,9212PM,Boornbergum,Smallingerland,Friesland,VBO,6.042506,53.080560
Efterom,9,,,9212PM,Boornbergum,Smallingerland,Friesland,VBO,6.042710,53.080283
Efterom,10,,,9212PM,Boornbergum,Smallingerland,Friesland,VBO,6.042119,53.080456
Efterom,11,,,9212PM,Boornbergum,Smallingerland,Friesland,VBO,6.041828,53.079644
Ds. van Apeldoornwei,1,,,9212PN,Boornbergum,Smallingerland,Friesland,VBO,6.046519,53.082433
Ds. van Apeldoornwei,9,,,9212PN,Boornbergum,Smallingerland,Friesland,VBO,6.046524,53.082296
Ds. van Apeldoornwei,11,,,9212PN,Boornbergum,Smallingerland,Friesland,VBO,6.046527,53.082245
Ds. van Apeldoornwei,13,,,9212PN,Boornbergum,Smallingerland,Friesland,VBO,6.046567,53.082190
Ds. van Apeldoornwei,15,,,9212PN,Boornbergum,Smallingerland,Friesland,VBO,6.046570,53.082090
Ds. van Apeldoornwei,17,,,9212PN,Boornbergum,Smallingerland,Friesland,VBO,6.046585,53.082026
Ds. van Apeldoornwei,19,,,9212PN,Boornbergum,Smallingerland,Friesland,VBO,6.046609,53.081984
Ds. van Apeldoornwei,21,,,9212PN,Boornbergum,Smallingerland,Friesland,VBO,6.046649,53.081927
Suderom,1,,,9212PP,Boornbergum,Smallingerland,Friesland,VBO,6.047028,53.081964
Suderom,3,,,9212PP,Boornbergum,Smallingerland,Friesland,VBO,6.047002,53.082040
Suderom,5,,,9212PP,Boornbergum,Smallingerland,Friesland,VBO,6.046964,53.082108
Suderom,7,,,9212PP,Boornbergum,Smallingerland,Friesland,VBO,6.046976,53.082187
Suderom,9,,,9212PP,Boornbergum,Smallingerland,Friesland,VBO,6.046952,53.082242
Suderom,11,,,9212PP,Boornbergum,Smallingerland,Friesland,VBO,6.046924,53.082304
Suderom,13,,,9212PP,Boornbergum,Smallingerland,Friesland,VBO,6.046888,53.082364
Suderom,15,,,9212PP,Boornbergum,Smallingerland,Friesland,VBO,6.046928,53.082527
Suderom,17,,,9212PP,Boornbergum,Smallingerland,Friesland,VBO,6.047029,53.082547
Suderom,19,,,9212PP,Boornbergum,Smallingerland,Friesland,VBO,6.047244,53.082561
Suderom,21,,,9212PP,Boornbergum,Smallingerland,Friesland,VBO,6.047336,53.082577
Suderom,23,,,9212PP,Boornbergum,Smallingerland,Friesland,VBO,6.047572,53.082604
Suderom,25,,,9212PP,Boornbergum,Smallingerland,Friesland,VBO,6.047770,53.082629
Suderom,41,,,9212PR,Boornbergum,Smallingerland,Friesland,VBO,6.048055,53.082533
Suderom,43,,,9212PR,Boornbergum,Smallingerland,Friesland,VBO,6.048083,53.082476
Suderom,45,,,9212PR,Boornbergum,Smallingerland,Friesland,VBO,6.048124,53.082369
Suderom,47,,,9212PR,Boornbergum,Smallingerland,Friesland,VBO,6.048146,53.082304
Suderom,49,,,9212PR,Boornbergum,Smallingerland,Friesland,VBO,6.048170,53.082198
Suderom,51,,,9212PR,Boornbergum,Smallingerland,Friesland,VBO,6.048198,53.082135
Suderom,53,,,9212PR,Boornbergum,Smallingerland,Friesland,VBO,6.048593,53.082188
Suderom,55,,,9212PR,Boornbergum,Smallingerland,Friesland,VBO,6.048560,53.082267
Suderom,57,,,9212PR,Boornbergum,Smallingerland,Friesland,VBO,6.048518,53.082355
Suderom,59,,,9212PR,Boornbergum,Smallingerland,Friesland,VBO,6.048485,53.082434
Suderom,61,,,9212PR,Boornbergum,Smallingerland,Friesland,VBO,6.048473,53.082521
Suderom,63,,,9212PR,Boornbergum,Smallingerland,Friesland,VBO,6.048442,53.082602
Suderom,65,,,9212PR,Boornbergum,Smallingerland,Friesland,VBO,6.048158,53.082724
Suderom,67,,,9212PR,Boornbergum,Smallingerland,Friesland,VBO,6.048273,53.082737
Suderom,69,a,,9212PR,Boornbergum,Smallingerland,Friesland,VBO,6.048673,53.082791
Suderom,69,,,9212PR,Boornbergum,Smallingerland,Friesland,VBO,6.048576,53.082783
Suderom,71,,,9212PR,Boornbergum,Smallingerland,Friesland,VBO,6.049064,53.082831
Suderom,73,,,9212PR,Boornbergum,Smallingerland,Friesland,VBO,6.049288,53.082874
Suderom,2,,,9212PS,Boornbergum,Smallingerland,Friesland,VBO,6.047671,53.082353
Suderom,4,,,9212PS,Boornbergum,Smallingerland,Friesland,VBO,6.049380,53.081295
Suderom,8,,,9212PS,Boornbergum,Smallingerland,Friesland,VBO,6.048577,53.081914
Suderom,10,,,9212PS,Boornbergum,Smallingerland,Friesland,VBO,6.048702,53.081931
Suderom,12,,,9212PS,Boornbergum,Smallingerland,Friesland,VBO,6.048867,53.081955
Suderom,14,,,9212PS,Boornbergum,Smallingerland,Friesland,VBO,6.048976,53.081971
Suderom,16,,,9212PS,Boornbergum,Smallingerland,Friesland,VBO,6.049242,53.082092
Suderom,18,,,9212PS,Boornbergum,Smallingerland,Friesland,VBO,6.049197,53.082205
Suderom,20,,,9212PS,Boornbergum,Smallingerland,Friesland,VBO,6.049168,53.082270
Suderom,22,,,9212PS,Boornbergum,Smallingerland,Friesland,VBO,6.049128,53.082376
Suderom,24,,,9212PS,Boornbergum,Smallingerland,Friesland,VBO,6.049101,53.082438
Suderom,26,,,9212PS,Boornbergum,Smallingerland,Friesland,VBO,6.049054,53.082542
Suderom,28,,,9212PS,Boornbergum,Smallingerland,Friesland,VBO,6.049029,53.082602
Bûtenom,10,,,9212PT,Boornbergum,Smallingerland,Friesland,VBO,6.049389,53.082680
Bûtenom,12,,,9212PT,Boornbergum,Smallingerland,Friesland,VBO,6.049428,53.082600
Bûtenom,14,,,9212PT,Boornbergum,Smallingerland,Friesland,VBO,6.049500,53.082514
Bûtenom,16,,,9212PT,Boornbergum,Smallingerland,Friesland,VBO,6.049535,53.082436
Bûtenom,18,,,9212PT,Boornbergum,Smallingerland,Friesland,VBO,6.049588,53.082346
Bûtenom,20,,,9212PT,Boornbergum,Smallingerland,Friesland,VBO,6.049616,53.082283
Bûtenom,22,,,9212PT,Boornbergum,Smallingerland,Friesland,VBO,6.049685,53.082159
De Lege Ein,1,,,9212PV,Boornbergum,Smallingerland,Friesland,VBO,6.056023,53.078604
De Lege Ein,2,a,,9212PV,Boornbergum,Smallingerland,Friesland,VBO,6.054319,53.078248
De Lege Ein,2,,,9212PV,Boornbergum,Smallingerland,Friesland,VBO,6.054371,53.078148
De Lege Ein,3,,,9212PV,Boornbergum,Smallingerland,Friesland,VBO,6.057946,53.078583
De Lege Ein,4,,,9212PV,Boornbergum,Smallingerland,Friesland,VBO,6.058832,53.078706
De Lege Ein,5,,,9212PV,Boornbergum,Smallingerland,Friesland,VBO,6.059375,53.078583
De Lege Ein,7,,,9212PV,Boornbergum,Smallingerland,Friesland,VBO,6.057924,53.075142
De Lege Ein,10,,,9212PV,Boornbergum,Smallingerland,Friesland,VBO,6.059423,53.074549
De Lege Ein,11,,,9212PV,Boornbergum,Smallingerland,Friesland,VBO,6.059499,53.074358
De Lege Ein,12,,,9212PV,Boornbergum,Smallingerland,Friesland,VBO,6.059758,53.074159
De Lege Ein,16,,,9212PV,Boornbergum,Smallingerland,Friesland,VBO,6.060325,53.073102
It Mear,2,,,9212PW,Boornbergum,Smallingerland,Friesland,VBO,6.054311,53.072998
Easterbuorren,1,,,9212PX,Boornbergum,Smallingerland,Friesland,VBO,6.045859,53.083165
Easterbuorren,5,,,9212PX,Boornbergum,Smallingerland,Friesland,VBO,6.046179,53.083053
Easterbuorren,7,,,9212PX,Boornbergum,Smallingerland,Friesland,VBO,6.046299,53.083057
Easterbuorren,9,,,9212PX,Boornbergum,Smallingerland,Friesland,VBO,6.046490,53.083080
Easterbuorren,11,,,9212PX,Boornbergum,Smallingerland,Friesland,VBO,6.046618,53.083106
Easterbuorren,13,,,9212PX,Boornbergum,Smallingerland,Friesland,VBO,6.046741,53.083127
Easterbuorren,17,,,9212PX,Boornbergum,Smallingerland,Friesland,VBO,6.046966,53.083193
Easterbuorren,19,,,9212PX,Boornbergum,Smallingerland,Friesland,VBO,6.047242,53.083227
Easterbuorren,23,,,9212PX,Boornbergum,Smallingerland,Friesland,VBO,6.047471,53.083221
Easterbuorren,31,,,9212PX,Boornbergum,Smallingerland,Friesland,VBO,6.048296,53.083370
Easterbuorren,35,,,9212PX,Boornbergum,Smallingerland,Friesland,VBO,6.048882,53.083526
Easterbuorren,6,,,9212PZ,Boornbergum,Smallingerland,Friesland,VBO,6.046205,53.082727
Easterbuorren,8,,,9212PZ,Boornbergum,Smallingerland,Friesland,VBO,6.046438,53.082772
Easterbuorren,10,,,9212PZ,Boornbergum,Smallingerland,Friesland,VBO,6.046636,53.082806
Easterbuorren,12,,,9212PZ,Boornbergum,Smallingerland,Friesland,VBO,6.046807,53.082863
Easterbuorren,14,,,9212PZ,Boornbergum,Smallingerland,Friesland,VBO,6.047043,53.082873
Easterbuorren,16,,,9212PZ,Boornbergum,Smallingerland,Friesland,VBO,6.047170,53.082889
Easterbuorren,18,,,9212PZ,Boornbergum,Smallingerland,Friesland,VBO,6.047405,53.082927
Easterbuorren,20,,,9212PZ,Boornbergum,Smallingerland,Friesland,VBO,6.047661,53.082914
Easterbuorren,24,,,9212PZ,Boornbergum,Smallingerland,Friesland,VBO,6.048092,53.082948
Easterbuorren,26,,,9212PZ,Boornbergum,Smallingerland,Friesland,VBO,6.048391,53.083050
Easterbuorren,28,,,9212PZ,Boornbergum,Smallingerland,Friesland,VBO,6.048578,53.083121
Easterbuorren,30,,,9212PZ,Boornbergum,Smallingerland,Friesland,VBO,6.048795,53.083123
Easterbuorren,32,,,9212PZ,Boornbergum,Smallingerland,Friesland,VBO,6.049040,53.083194
Easterbuorren,34,,,9212PZ,Boornbergum,Smallingerland,Friesland,VBO,6.049241,53.083236
Easterbuorren,37,,,9212RA,Boornbergum,Smallingerland,Friesland,VBO,6.049395,53.083641
Easterbuorren,38,,,9212RA,Boornbergum,Smallingerland,Friesland,VBO,6.049672,53.083277
Easterbuorren,39,,,9212RA,Boornbergum,Smallingerland,Friesland,VBO,6.049495,53.083661
Easterbuorren,40,,,9212RA,Boornbergum,Smallingerland,Friesland,VBO,6.049799,53.083381
Easterbuorren,41,,,9212RA,Boornbergum,Smallingerland,Friesland,VBO,6.049654,53.083709
Easterbuorren,42,,,9212RA,Boornbergum,Smallingerland,Friesland,VBO,6.049928,53.083351
Easterbuorren,43,,,9212RA,Boornbergum,Smallingerland,Friesland,VBO,6.049736,53.083722
Easterbuorren,44,,,9212RA,Boornbergum,Smallingerland,Friesland,VBO,6.050096,53.083490
Easterbuorren,45,,,9212RA,Boornbergum,Smallingerland,Friesland,VBO,6.049906,53.083765
Easterbuorren,46,,,9212RA,Boornbergum,Smallingerland,Friesland,VBO,6.050383,53.083511
Easterbuorren,47,,,9212RA,Boornbergum,Smallingerland,Friesland,VBO,6.049998,53.083790
Easterbuorren,49,,,9212RA,Boornbergum,Smallingerland,Friesland,VBO,6.050278,53.084031
Easterbuorren,50,,,9212RA,Boornbergum,Smallingerland,Friesland,VBO,6.051055,53.083692
Easterbuorren,52,,,9212RA,Boornbergum,Smallingerland,Friesland,VBO,6.051474,53.083515
Easterbuorren,54,,,9212RA,Boornbergum,Smallingerland,Friesland,VBO,6.051687,53.083794
Easterbuorren,56,,,9212RA,Boornbergum,Smallingerland,Friesland,VBO,6.052116,53.083901
Easterbuorren,63,a,,9212RA,Boornbergum,Smallingerland,Friesland,VBO,6.052804,53.084878
Easterbuorren,63,,1,9212RA,Boornbergum,Smallingerland,Friesland,VBO,6.052543,53.084595
Easterbuorren,63,,,9212RA,Boornbergum,Smallingerland,Friesland,VBO,6.052700,53.084455
Easterbuorren,65,,,9212RA,Boornbergum,Smallingerland,Friesland,VBO,6.053419,53.084800
Easterbuorren,69,,,9212RB,Boornbergum,Smallingerland,Friesland,VBO,6.054190,53.084786
Easterbuorren,71,,,9212RB,Boornbergum,Smallingerland,Friesland,VBO,6.054392,53.084862
Easterbuorren,73,,,9212RB,Boornbergum,Smallingerland,Friesland,VBO,6.054637,53.084960
Easterbuorren,78,,,9212RB,Boornbergum,Smallingerland,Friesland,VBO,6.054480,53.084352
Easterbuorren,84,,,9212RB,Boornbergum,Smallingerland,Friesland,VBO,6.055416,53.084552
Easterbuorren,86,,,9212RB,Boornbergum,Smallingerland,Friesland,VBO,6.056084,53.084598
Easterbuorren,88,,,9212RB,Boornbergum,Smallingerland,Friesland,VBO,6.056838,53.084619
Easterbuorren,90,,,9212RB,Boornbergum,Smallingerland,Friesland,VBO,6.057187,53.085035
Easterbuorren,92,,,9212RB,Boornbergum,Smallingerland,Friesland,VBO,6.057466,53.085087
Easterbuorren,94,,,9212RB,Boornbergum,Smallingerland,Friesland,VBO,6.057573,53.085115
Easterbuorren,95,,,9212RB,Boornbergum,Smallingerland,Friesland,VBO,6.057949,53.085640
Easterbuorren,96,,,9212RB,Boornbergum,Smallingerland,Friesland,VBO,6.058097,53.085163
Easterbuorren,97,,,9212RB,Boornbergum,Smallingerland,Friesland,VBO,6.057905,53.085901
Easterbuorren,98,,,9212RB,Boornbergum,Smallingerland,Friesland,VBO,6.058390,53.085296
Easterbuorren,99,,,9212RB,Boornbergum,Smallingerland,Friesland,VBO,6.058359,53.085795
Easterbuorren,101,,,9212RB,Boornbergum,Smallingerland,Friesland,VBO,6.058704,53.085875
Easterbuorren,102,,,9212RB,Boornbergum,Smallingerland,Friesland,VBO,6.058831,53.085413
Easterbuorren,104,,,9212RB,Boornbergum,Smallingerland,Friesland,VBO,6.059749,53.085260
Easterbuorren,106,,,9212RB,Boornbergum,Smallingerland,Friesland,VBO,6.059251,53.085500
Easterbuorren,108,,,9212RB,Boornbergum,Smallingerland,Friesland,VBO,6.059309,53.085592
Wiegersmawei,1,,,9212RC,Boornbergum,Smallingerland,Friesland,VBO,6.043843,53.083481
Wiegersmawei,3,,,9212RC,Boornbergum,Smallingerland,Friesland,VBO,6.043700,53.083507
Wiegersmawei,5,,,9212RC,Boornbergum,Smallingerland,Friesland,VBO,6.043525,53.083473
Wiegersmawei,11,,,9212RC,Boornbergum,Smallingerland,Friesland,VBO,6.043480,53.083223
Wiegersmawei,13,,,9212RC,Boornbergum,Smallingerland,Friesland,VBO,6.043383,53.083207
Wiegersmawei,15,,,9212RC,Boornbergum,Smallingerland,Friesland,VBO,6.043302,53.083167
Wiegersmawei,17,,,9212RC,Boornbergum,Smallingerland,Friesland,VBO,6.043206,53.083152
Wiegersmawei,19,,,9212RC,Boornbergum,Smallingerland,Friesland,VBO,6.042924,53.083112
Wiegersmawei,21,,,9212RC,Boornbergum,Smallingerland,Friesland,VBO,6.042897,53.083169
Wiegersmawei,23,,,9212RC,Boornbergum,Smallingerland,Friesland,VBO,6.042858,53.083222
Wiegersmawei,25,,,9212RC,Boornbergum,Smallingerland,Friesland,VBO,6.042838,53.083273
Wiegersmawei,27,,,9212RC,Boornbergum,Smallingerland,Friesland,VBO,6.042803,53.083321
Wiegersmawei,29,,,9212RC,Boornbergum,Smallingerland,Friesland,VBO,6.043153,53.083438
Wiegersmawei,31,,,9212RC,Boornbergum,Smallingerland,Friesland,VBO,6.043117,53.083497
Wiegersmawei,33,,,9212RC,Boornbergum,Smallingerland,Friesland,VBO,6.043106,53.083545
Wiegersmawei,35,,,9212RC,Boornbergum,Smallingerland,Friesland,VBO,6.043067,53.083604
Wiegersmawei,37,,,9212RC,Boornbergum,Smallingerland,Friesland,VBO,6.042830,53.083509
Wiegersmawei,39,,,9212RC,Boornbergum,Smallingerland,Friesland,VBO,6.042724,53.083496
Wiegersmawei,41,,,9212RC,Boornbergum,Smallingerland,Friesland,VBO,6.042631,53.083471
Wiegersmawei,43,,,9212RD,Boornbergum,Smallingerland,Friesland,VBO,6.042628,53.083704
Wiegersmawei,45,,,9212RD,Boornbergum,Smallingerland,Friesland,VBO,6.042592,53.083753
Wiegersmawei,47,,,9212RD,Boornbergum,Smallingerland,Friesland,VBO,6.042576,53.083802
Wiegersmawei,49,,,9212RD,Boornbergum,Smallingerland,Friesland,VBO,6.042540,53.083874
Wiegersmawei,51,,,9212RD,Boornbergum,Smallingerland,Friesland,VBO,6.042499,53.083917
Wiegersmawei,53,,,9212RD,Boornbergum,Smallingerland,Friesland,VBO,6.042481,53.083968
Wiegersmawei,55,,,9212RD,Boornbergum,Smallingerland,Friesland,VBO,6.042922,53.083767
Wiegersmawei,57,,,9212RD,Boornbergum,Smallingerland,Friesland,VBO,6.042891,53.083807
Wiegersmawei,59,,,9212RD,Boornbergum,Smallingerland,Friesland,VBO,6.042869,53.083861
Wiegersmawei,61,,,9212RD,Boornbergum,Smallingerland,Friesland,VBO,6.042843,53.083928
Wiegersmawei,63,,,9212RD,Boornbergum,Smallingerland,Friesland,VBO,6.042814,53.083975
Wiegersmawei,65,,,9212RD,Boornbergum,Smallingerland,Friesland,VBO,6.042784,53.084027
Wiegersmawei,75,,,9212RD,Boornbergum,Smallingerland,Friesland,VBO,6.042322,53.084141
Wiegersmawei,77,,,9212RD,Boornbergum,Smallingerland,Friesland,VBO,6.042757,53.084239
Wiegersmawei,83,,,9212RD,Boornbergum,Smallingerland,Friesland,VBO,6.043035,53.084440
Wiegersmawei,85,,,9212RD,Boornbergum,Smallingerland,Friesland,VBO,6.043220,53.084479
Wiegersmawei,87,,,9212RD,Boornbergum,Smallingerland,Friesland,VBO,6.043403,53.084495
Wiegersmawei,2,,,9212RE,Boornbergum,Smallingerland,Friesland,VBO,6.043846,53.083809
Wiegersmawei,4,,,9212RE,Boornbergum,Smallingerland,Friesland,VBO,6.043718,53.083783
Wiegersmawei,6,,,9212RE,Boornbergum,Smallingerland,Friesland,VBO,6.043556,53.083757
Wiegersmawei,8,,,9212RE,Boornbergum,Smallingerland,Friesland,VBO,6.043423,53.083725
Wiegersmawei,10,,,9212RE,Boornbergum,Smallingerland,Friesland,VBO,6.043379,53.083959
Wiegersmawei,12,,,9212RE,Boornbergum,Smallingerland,Friesland,VBO,6.043333,53.084034
Wiegersmawei,14,,,9212RE,Boornbergum,Smallingerland,Friesland,VBO,6.043167,53.084197
Wiegersmawei,16,,,9212RE,Boornbergum,Smallingerland,Friesland,VBO,6.043284,53.084221
Wiegersmawei,18,,,9212RE,Boornbergum,Smallingerland,Friesland,VBO,6.043461,53.084253
Wiegersmawei,20,,,9212RE,Boornbergum,Smallingerland,Friesland,VBO,6.043568,53.084276
Bosschawei,1,,,9212RG,Boornbergum,Smallingerland,Friesland,VBO,6.044026,53.082978
Bosschawei,3,,,9212RG,Boornbergum,Smallingerland,Friesland,VBO,6.043995,53.083037
Bosschawei,5,,,9212RG,Boornbergum,Smallingerland,Friesland,VBO,6.043961,53.083158
Bosschawei,7,a,,9212RG,Boornbergum,Smallingerland,Friesland,VBO,6.043895,53.083359
Bosschawei,7,,,9212RG,Boornbergum,Smallingerland,Friesland,VBO,6.043924,53.083299
Bosschawei,9,,,9212RG,Boornbergum,Smallingerland,Friesland,VBO,6.043669,53.084006
Bosschawei,11,,,9212RG,Boornbergum,Smallingerland,Friesland,VBO,6.043623,53.084086
Bosschawei,15,,,9212RG,Boornbergum,Smallingerland,Friesland,VBO,6.043246,53.084721
Bosschawei,17,,,9212RG,Boornbergum,Smallingerland,Friesland,VBO,6.043215,53.084828
Bosschawei,19,,,9212RG,Boornbergum,Smallingerland,Friesland,VBO,6.043156,53.084939
Bosschawei,21,,,9212RG,Boornbergum,Smallingerland,Friesland,VBO,6.043103,53.085040
Bosschawei,23,,,9212RG,Boornbergum,Smallingerland,Friesland,VBO,6.042911,53.085163
Bosschawei,25,,,9212RG,Boornbergum,Smallingerland,Friesland,VBO,6.042815,53.085269
Bosschawei,27,,,9212RG,Boornbergum,Smallingerland,Friesland,VBO,6.042693,53.085463
Bosschawei,29,,,9212RG,Boornbergum,Smallingerland,Friesland,VBO,6.042515,53.085425
Bosschawei,31,,,9212RG,Boornbergum,Smallingerland,Friesland,VBO,6.041749,53.085872
Bosschawei,33,,,9212RG,Boornbergum,Smallingerland,Friesland,VBO,6.041682,53.086018
Bosschawei,35,,,9212RG,Boornbergum,Smallingerland,Friesland,VBO,6.041612,53.086168
Bosschawei,37,,,9212RG,Boornbergum,Smallingerland,Friesland,VBO,6.041545,53.086278
Bosschawei,39,,,9212RG,Boornbergum,Smallingerland,Friesland,VBO,6.041498,53.086375
Bosschawei,41,,,9212RG,Boornbergum,Smallingerland,Friesland,VBO,6.041451,53.086463
Bosschawei,43,,,9212RG,Boornbergum,Smallingerland,Friesland,VBO,6.041399,53.086560
Bosschawei,45,,,9212RG,Boornbergum,Smallingerland,Friesland,VBO,6.041348,53.086650
Bosschawei,47,,,9212RG,Boornbergum,Smallingerland,Friesland,VBO,6.041296,53.086745
Bosschawei,49,,,9212RG,Boornbergum,Smallingerland,Friesland,VBO,6.041247,53.086840
Bosschawei,51,,,9212RG,Boornbergum,Smallingerland,Friesland,VBO,6.041193,53.086927
Bosschawei,53,,,9212RG,Boornbergum,Smallingerland,Friesland,VBO,6.041159,53.087043
Bosschawei,55,,,9212RG,Boornbergum,Smallingerland,Friesland,VBO,6.041007,53.087334
Bosschawei,57,,,9212RG,Boornbergum,Smallingerland,Friesland,VBO,6.040981,53.087381
Bosschawei,59,,,9212RG,Boornbergum,Smallingerland,Friesland,VBO,6.040962,53.087430
Bosschawei,61,,,9212RG,Boornbergum,Smallingerland,Friesland,VBO,6.040940,53.087475
Bosschawei,63,,,9212RG,Boornbergum,Smallingerland,Friesland,VBO,6.040904,53.087528
Bosschawei,65,,,9212RG,Boornbergum,Smallingerland,Friesland,VBO,6.040861,53.087610
Bosschawei,67,,,9212RG,Boornbergum,Smallingerland,Friesland,VBO,6.040822,53.087662
Bosschawei,69,,,9212RG,Boornbergum,Smallingerland,Friesland,VBO,6.040796,53.087706
Bosschawei,71,,,9212RG,Boornbergum,Smallingerland,Friesland,VBO,6.040772,53.087758
Bosschawei,73,,,9212RG,Boornbergum,Smallingerland,Friesland,VBO,6.040742,53.087807
Bosschawei,2,a,,9212RH,Boornbergum,Smallingerland,Friesland,VBO,6.044414,53.083353
Bosschawei,2,b,,9212RH,Boornbergum,Smallingerland,Friesland,VBO,6.044309,53.083598
Bosschawei,2,,,9212RH,Boornbergum,Smallingerland,Friesland,VBO,6.044526,53.083218
Bosschawei,4,,,9212RH,Boornbergum,Smallingerland,Friesland,VBO,6.044271,53.083824
Bosschawei,6,,,9212RH,Boornbergum,Smallingerland,Friesland,VBO,6.044220,53.083877
Bosschawei,8,,,9212RH,Boornbergum,Smallingerland,Friesland,VBO,6.044170,53.083976
Bosschawei,10,,,9212RH,Boornbergum,Smallingerland,Friesland,VBO,6.044139,53.084033
Bosschawei,12,,,9212RH,Boornbergum,Smallingerland,Friesland,VBO,6.044085,53.084142
Bosschawei,14,,,9212RH,Boornbergum,Smallingerland,Friesland,VBO,6.044054,53.084202
Bosschawei,16,,,9212RH,Boornbergum,Smallingerland,Friesland,VBO,6.043972,53.084303
Bosschawei,18,,,9212RH,Boornbergum,Smallingerland,Friesland,VBO,6.043976,53.084377
Bosschawei,20,,,9212RH,Boornbergum,Smallingerland,Friesland,VBO,6.043855,53.084476
Bosschawei,22,,,9212RH,Boornbergum,Smallingerland,Friesland,VBO,6.043849,53.084531
Bosschawei,24,,,9212RH,Boornbergum,Smallingerland,Friesland,VBO,6.043798,53.084642
Bosschawei,26,,,9212RH,Boornbergum,Smallingerland,Friesland,VBO,6.043767,53.084704
Bosschawei,28,,,9212RH,Boornbergum,Smallingerland,Friesland,VBO,6.043698,53.084808
Bosschawei,30,,,9212RH,Boornbergum,Smallingerland,Friesland,VBO,6.043626,53.084941
Bosschawei,32,,,9212RH,Boornbergum,Smallingerland,Friesland,VBO,6.043568,53.085126
Bosschawei,34,,,9212RH,Boornbergum,Smallingerland,Friesland,VBO,6.042498,53.085917
Bosschawei,36,,,9212RH,Boornbergum,Smallingerland,Friesland,VBO,6.042466,53.085976
Bosschawei,38,,,9212RH,Boornbergum,Smallingerland,Friesland,VBO,6.042436,53.086029
Bosschawei,40,,,9212RH,Boornbergum,Smallingerland,Friesland,VBO,6.042409,53.086084
Bosschawei,42,,,9212RH,Boornbergum,Smallingerland,Friesland,VBO,6.042381,53.086136
Bosschawei,44,,,9212RH,Boornbergum,Smallingerland,Friesland,VBO,6.042349,53.086193
Bosschawei,46,,,9212RH,Boornbergum,Smallingerland,Friesland,VBO,6.042317,53.086245
Bosschawei,48,,,9212RH,Boornbergum,Smallingerland,Friesland,VBO,6.042438,53.085905
Bosschawei,50,,1,9212RH,Boornbergum,Smallingerland,Friesland,VBO,6.042189,53.086374
Bosschawei,50,,2,9212RH,Boornbergum,Smallingerland,Friesland,VBO,6.042228,53.086384
Bosschawei,50,,3,9212RH,Boornbergum,Smallingerland,Friesland,VBO,6.042275,53.086393
Bosschawei,50,,4,9212RH,Boornbergum,Smallingerland,Friesland,VBO,6.042319,53.086399
Bosschawei,50,,5,9212RH,Boornbergum,Smallingerland,Friesland,VBO,6.042363,53.086408
Bosschawei,50,,,9212RH,Boornbergum,Smallingerland,Friesland,VBO,6.042411,53.085962
Bosschawei,52,,,9212RH,Boornbergum,Smallingerland,Friesland,VBO,6.042384,53.086017
Bosschawei,54,,,9212RH,Boornbergum,Smallingerland,Friesland,VBO,6.042357,53.086072
Bosschawei,56,,,9212RH,Boornbergum,Smallingerland,Friesland,VBO,6.042330,53.086123
Bosschawei,58,,,9212RH,Boornbergum,Smallingerland,Friesland,VBO,6.042295,53.086181
Bosschawei,60,,,9212RH,Boornbergum,Smallingerland,Friesland,VBO,6.042261,53.086232
Bosschawei,62,,,9212RH,Boornbergum,Smallingerland,Friesland,VBO,6.042325,53.086007
Bosschawei,64,,,9212RH,Boornbergum,Smallingerland,Friesland,VBO,6.042296,53.086059
Bosschawei,66,,,9212RH,Boornbergum,Smallingerland,Friesland,VBO,6.042264,53.086110
Tijmen de Boerwei,1,,,9212RJ,Boornbergum,Smallingerland,Friesland,VBO,6.047298,53.083812
Tijmen de Boerwei,3,,,9212RJ,Boornbergum,Smallingerland,Friesland,VBO,6.047096,53.083781
Tijmen de Boerwei,5,,,9212RJ,Boornbergum,Smallingerland,Friesland,VBO,6.046913,53.083723
Tijmen de Boerwei,7,,,9212RJ,Boornbergum,Smallingerland,Friesland,VBO,6.046598,53.083698
Tijmen de Boerwei,9,,,9212RJ,Boornbergum,Smallingerland,Friesland,VBO,6.046394,53.083780
Tijmen de Boerwei,11,,,9212RJ,Boornbergum,Smallingerland,Friesland,VBO,6.046231,53.083922
Tijmen de Boerwei,12,,,9212RJ,Boornbergum,Smallingerland,Friesland,VBO,6.048010,53.083676
Tijmen de Boerwei,13,,,9212RJ,Boornbergum,Smallingerland,Friesland,VBO,6.046206,53.084047
Tijmen de Boerwei,14,,,9212RJ,Boornbergum,Smallingerland,Friesland,VBO,6.047871,53.084171
Tijmen de Boerwei,15,,,9212RJ,Boornbergum,Smallingerland,Friesland,VBO,6.046124,53.084169
Tijmen de Boerwei,16,,,9212RJ,Boornbergum,Smallingerland,Friesland,VBO,6.047838,53.084227
Tijmen de Boerwei,17,,,9212RJ,Boornbergum,Smallingerland,Friesland,VBO,6.046084,53.084302
Tijmen de Boerwei,18,,,9212RJ,Boornbergum,Smallingerland,Friesland,VBO,6.047812,53.084283
Tijmen de Boerwei,19,,,9212RJ,Boornbergum,Smallingerland,Friesland,VBO,6.045988,53.084414
Tijmen de Boerwei,20,,,9212RJ,Boornbergum,Smallingerland,Friesland,VBO,6.047787,53.084344
Tijmen de Boerwei,21,,,9212RJ,Boornbergum,Smallingerland,Friesland,VBO,6.045942,53.084537
Tijmen de Boerwei,22,,,9212RJ,Boornbergum,Smallingerland,Friesland,VBO,6.047663,53.084499
Tijmen de Boerwei,23,,,9212RJ,Boornbergum,Smallingerland,Friesland,VBO,6.045852,53.084660
Tijmen de Boerwei,24,,,9212RJ,Boornbergum,Smallingerland,Friesland,VBO,6.047574,53.084526
Tijmen de Boerwei,25,,,9212RJ,Boornbergum,Smallingerland,Friesland,VBO,6.045851,53.084779
Tijmen de Boerwei,26,,,9212RJ,Boornbergum,Smallingerland,Friesland,VBO,6.047354,53.084461
Tijmen de Boerwei,27,,,9212RJ,Boornbergum,Smallingerland,Friesland,VBO,6.045787,53.084884
Tijmen de Boerwei,28,,,9212RJ,Boornbergum,Smallingerland,Friesland,VBO,6.047275,53.084446
Tijmen de Boerwei,30,,,9212RJ,Boornbergum,Smallingerland,Friesland,VBO,6.047113,53.084429
Tijmen de Boerwei,32,,,9212RJ,Boornbergum,Smallingerland,Friesland,VBO,6.047009,53.084406
Tijmen de Boerwei,34,,,9212RJ,Boornbergum,Smallingerland,Friesland,VBO,6.046862,53.084363
Tijmen de Boerwei,36,,,9212RJ,Boornbergum,Smallingerland,Friesland,VBO,6.046767,53.084344
Tijmen de Boerwei,38,,,9212RJ,Boornbergum,Smallingerland,Friesland,VBO,6.046618,53.084315
Tijmen de Boerwei,40,,,9212RJ,Boornbergum,Smallingerland,Friesland,VBO,6.046512,53.084294
Tijmen de Boerwei,42,,,9212RJ,Boornbergum,Smallingerland,Friesland,VBO,6.046499,53.084529
Tijmen de Boerwei,44,,,9212RJ,Boornbergum,Smallingerland,Friesland,VBO,6.046465,53.084584
Tijmen de Boerwei,46,,,9212RJ,Boornbergum,Smallingerland,Friesland,VBO,6.046539,53.084728
Tijmen de Boerwei,48,,,9212RJ,Boornbergum,Smallingerland,Friesland,VBO,6.046511,53.084784
Tijmen de Boerwei,50,,,9212RJ,Boornbergum,Smallingerland,Friesland,VBO,6.046479,53.084985
Tijmen de Boerwei,52,,,9212RJ,Boornbergum,Smallingerland,Friesland,VBO,6.046385,53.085120
Tijmen de Boerwei,54,,,9212RJ,Boornbergum,Smallingerland,Friesland,VBO,6.046279,53.085264
Eabekamp,1,,,9212RK,Boornbergum,Smallingerland,Friesland,VBO,6.049783,53.084583
Eabekamp,2,,,9212RK,Boornbergum,Smallingerland,Friesland,VBO,6.050392,53.084637
Eabekamp,3,,,9212RK,Boornbergum,Smallingerland,Friesland,VBO,6.049995,53.084618
Eabekamp,4,,,9212RK,Boornbergum,Smallingerland,Friesland,VBO,6.050390,53.084809
Eabekamp,5,,,9212RK,Boornbergum,Smallingerland,Friesland,VBO,6.049820,53.085020
Eabekamp,6,,,9212RK,Boornbergum,Smallingerland,Friesland,VBO,6.050225,53.084909
Eabekamp,7,,11,9212RK,Boornbergum,Smallingerland,Friesland,VBO,6.049544,53.084970
Eabekamp,8,,,9212RK,Boornbergum,Smallingerland,Friesland,VBO,6.050167,53.085042
Eabekamp,10,,,9212RK,Boornbergum,Smallingerland,Friesland,VBO,6.050124,53.085203
Eabekamp,12,,,9212RK,Boornbergum,Smallingerland,Friesland,VBO,6.050015,53.085281
Eabekamp,13,,,9212RK,Boornbergum,Smallingerland,Friesland,VBO,6.049256,53.085479
Eabekamp,14,,,9212RK,Boornbergum,Smallingerland,Friesland,VBO,6.049944,53.085423
Eabekamp,15,,,9212RK,Boornbergum,Smallingerland,Friesland,VBO,6.049359,53.085498
Eabekamp,16,,,9212RK,Boornbergum,Smallingerland,Friesland,VBO,6.049905,53.085560
Eabekamp,17,,,9212RK,Boornbergum,Smallingerland,Friesland,VBO,6.049455,53.085516
Eabekamp,18,,,9212RK,Boornbergum,Smallingerland,Friesland,VBO,6.049862,53.085684
Eabekamp,19,,,9212RK,Boornbergum,Smallingerland,Friesland,VBO,6.049555,53.085537
Eabekamp,20,,,9212RK,Boornbergum,Smallingerland,Friesland,VBO,6.049777,53.085807
Eabekamp,21,,,9212RK,Boornbergum,Smallingerland,Friesland,VBO,6.049383,53.085803
Eabekamp,22,,,9212RK,Boornbergum,Smallingerland,Friesland,VBO,6.049705,53.085946
Eabekamp,23,,,9212RK,Boornbergum,Smallingerland,Friesland,VBO,6.049148,53.085753
Eabekamp,25,,,9212RK,Boornbergum,Smallingerland,Friesland,VBO,6.049087,53.086085
Eabekamp,27,,,9212RK,Boornbergum,Smallingerland,Friesland,VBO,6.049180,53.086099
Eabekamp,29,,,9212RK,Boornbergum,Smallingerland,Friesland,VBO,6.049511,53.086164
Eabekamp,31,,,9212RK,Boornbergum,Smallingerland,Friesland,VBO,6.049723,53.086210
Bosschawei,68,,,9212RL,Boornbergum,Smallingerland,Friesland,VBO,6.042133,53.086458
Bosschawei,70,,,9212RL,Boornbergum,Smallingerland,Friesland,VBO,6.042023,53.086608
Bosschawei,72,,,9212RL,Boornbergum,Smallingerland,Friesland,VBO,6.041962,53.086764
Bosschawei,74,,,9212RL,Boornbergum,Smallingerland,Friesland,VBO,6.041884,53.086921
Bosschawei,76,a,,9212RL,Boornbergum,Smallingerland,Friesland,VBO,6.041609,53.087359
Bosschawei,76,,,9212RL,Boornbergum,Smallingerland,Friesland,VBO,6.041801,53.087049
Bosschawei,78,,,9212RL,Boornbergum,Smallingerland,Friesland,VBO,6.041586,53.087457
Bosschawei,80,,,9212RL,Boornbergum,Smallingerland,Friesland,VBO,6.041530,53.087554
Bosschawei,82,,,9212RL,Boornbergum,Smallingerland,Friesland,VBO,6.041481,53.087637
Bosschawei,84,,,9212RL,Boornbergum,Smallingerland,Friesland,VBO,6.041432,53.087736
Bosschawei,86,,,9212RL,Boornbergum,Smallingerland,Friesland,VBO,6.041376,53.087824
Bosschawei,88,,,9212RL,Boornbergum,Smallingerland,Friesland,VBO,6.041330,53.087922
Bosschawei,90,,,9212RL,Boornbergum,Smallingerland,Friesland,VBO,6.041278,53.088003
Bosschawei,92,,,9212RL,Boornbergum,Smallingerland,Friesland,VBO,6.041232,53.088104
Bosschawei,94,,,9212RL,Boornbergum,Smallingerland,Friesland,VBO,6.041212,53.088237
Bosschawei,96,,,9212RL,Boornbergum,Smallingerland,Friesland,VBO,6.041065,53.088382
Bosschawei,98,,,9212RL,Boornbergum,Smallingerland,Friesland,VBO,6.041022,53.088536
Bosschawei,100,,,9212RL,Boornbergum,Smallingerland,Friesland,VBO,6.040907,53.088717
Bosschawei,102,,,9212RL,Boornbergum,Smallingerland,Friesland,VBO,6.040842,53.088871
Titelroas,2,,,9212RM,Boornbergum,Smallingerland,Friesland,VBO,6.039391,53.087264
Titelroas,4,,,9212RM,Boornbergum,Smallingerland,Friesland,VBO,6.039286,53.087425
Titelroas,6,,,9212RM,Boornbergum,Smallingerland,Friesland,VBO,6.039180,53.087582
Titelroas,7,,,9212RM,Boornbergum,Smallingerland,Friesland,VBO,6.038534,53.087556
Titelroas,8,,,9212RM,Boornbergum,Smallingerland,Friesland,VBO,6.039094,53.087734
Titelroas,9,,,9212RM,Boornbergum,Smallingerland,Friesland,VBO,6.038432,53.087731
Titelroas,10,,,9212RM,Boornbergum,Smallingerland,Friesland,VBO,6.038991,53.087875
Titelroas,11,,,9212RM,Boornbergum,Smallingerland,Friesland,VBO,6.038361,53.087879
Titelroas,12,,,9212RM,Boornbergum,Smallingerland,Friesland,VBO,6.038936,53.088009
Titelroas,13,,,9212RM,Boornbergum,Smallingerland,Friesland,VBO,6.038243,53.088044
Titelroas,14,,,9212RM,Boornbergum,Smallingerland,Friesland,VBO,6.038865,53.088142
Titelroas,15,,,9212RM,Boornbergum,Smallingerland,Friesland,VBO,6.038190,53.088187
Titelroas,16,,,9212RM,Boornbergum,Smallingerland,Friesland,VBO,6.038820,53.088283
Titelroas,17,,,9212RM,Boornbergum,Smallingerland,Friesland,VBO,6.038075,53.088339
Titelroas,18,,,9212RM,Boornbergum,Smallingerland,Friesland,VBO,6.038727,53.088398
Titelroas,20,,,9212RM,Boornbergum,Smallingerland,Friesland,VBO,6.038630,53.088522
Titelroas,22,,,9212RM,Boornbergum,Smallingerland,Friesland,VBO,6.038587,53.088659
Titelroas,24,,,9212RM,Boornbergum,Smallingerland,Friesland,VBO,6.038498,53.088792
Titelroas,44,,,9212RM,Boornbergum,Smallingerland,Friesland,VBO,6.037611,53.090292
Boerekrookje,1,,,9212RN,Boornbergum,Smallingerland,Friesland,VBO,6.039833,53.087354
Boerekrookje,3,,,9212RN,Boornbergum,Smallingerland,Friesland,VBO,6.039813,53.087410
Boerekrookje,5,,,9212RN,Boornbergum,Smallingerland,Friesland,VBO,6.039725,53.087554
Boerekrookje,7,,,9212RN,Boornbergum,Smallingerland,Friesland,VBO,6.039698,53.087605
Boerekrookje,9,,,9212RN,Boornbergum,Smallingerland,Friesland,VBO,6.039679,53.087653
Boerekrookje,11,,,9212RN,Boornbergum,Smallingerland,Friesland,VBO,6.039648,53.087697
Boerekrookje,13,,,9212RN,Boornbergum,Smallingerland,Friesland,VBO,6.039556,53.087817
Boerekrookje,15,,,9212RN,Boornbergum,Smallingerland,Friesland,VBO,6.039537,53.087857
Boerekrookje,17,,,9212RN,Boornbergum,Smallingerland,Friesland,VBO,6.039510,53.087895
Boerekrookje,19,,,9212RN,Boornbergum,Smallingerland,Friesland,VBO,6.039464,53.088024
Boerekrookje,21,,,9212RN,Boornbergum,Smallingerland,Friesland,VBO,6.039431,53.088087
Boerekrookje,23,,,9212RN,Boornbergum,Smallingerland,Friesland,VBO,6.039326,53.088224
Boerekrookje,25,,,9212RN,Boornbergum,Smallingerland,Friesland,VBO,6.039297,53.088285
Boerekrookje,27,,,9212RN,Boornbergum,Smallingerland,Friesland,VBO,6.039264,53.088344
Boerekrookje,29,,,9212RN,Boornbergum,Smallingerland,Friesland,VBO,6.039233,53.088402
Boerekrookje,31,,,9212RN,Boornbergum,Smallingerland,Friesland,VBO,6.039170,53.088536
Boerekrookje,33,,,9212RN,Boornbergum,Smallingerland,Friesland,VBO,6.039141,53.088583
Boerekrookje,35,,,9212RN,Boornbergum,Smallingerland,Friesland,VBO,6.039118,53.088630
Boerekrookje,37,,,9212RN,Boornbergum,Smallingerland,Friesland,VBO,6.039031,53.088781
Boerekrookje,39,,,9212RN,Boornbergum,Smallingerland,Friesland,VBO,6.038997,53.088843
Boerekrookje,41,,,9212RN,Boornbergum,Smallingerland,Friesland,VBO,6.038820,53.089132
Boerekrookje,43,,,9212RN,Boornbergum,Smallingerland,Friesland,VBO,6.038789,53.089187
Boerekrookje,45,,,9212RN,Boornbergum,Smallingerland,Friesland,VBO,6.038726,53.089293
Boerekrookje,47,,,9212RN,Boornbergum,Smallingerland,Friesland,VBO,6.038693,53.089349
Boerekrookje,49,,,9212RN,Boornbergum,Smallingerland,Friesland,VBO,6.038664,53.089402
Boerekrookje,51,,,9212RN,Boornbergum,Smallingerland,Friesland,VBO,6.038635,53.089452
Boerekrookje,53,,,9212RN,Boornbergum,Smallingerland,Friesland,VBO,6.038602,53.089502
Boerekrookje,55,,,9212RN,Boornbergum,Smallingerland,Friesland,VBO,6.038576,53.089555
Boerekrookje,57,,,9212RN,Boornbergum,Smallingerland,Friesland,VBO,6.038512,53.089658
Boerekrookje,59,,,9212RN,Boornbergum,Smallingerland,Friesland,VBO,6.038485,53.089712
Boerekrookje,61,,,9212RN,Boornbergum,Smallingerland,Friesland,VBO,6.038460,53.089766
Boerekrookje,63,,,9212RN,Boornbergum,Smallingerland,Friesland,VBO,6.038427,53.089817
Boerekrookje,65,,,9212RN,Boornbergum,Smallingerland,Friesland,VBO,6.038397,53.089871
Boerekrookje,67,,,9212RN,Boornbergum,Smallingerland,Friesland,VBO,6.038335,53.089976
Boerekrookje,69,,,9212RN,Boornbergum,Smallingerland,Friesland,VBO,6.038304,53.090028
Boerekrookje,71,,,9212RN,Boornbergum,Smallingerland,Friesland,VBO,6.038250,53.090130
Boerekrookje,73,,,9212RN,Boornbergum,Smallingerland,Friesland,VBO,6.038220,53.090184
Boerekrookje,75,,,9212RN,Boornbergum,Smallingerland,Friesland,VBO,6.038154,53.090299
Boerekrookje,77,,,9212RN,Boornbergum,Smallingerland,Friesland,VBO,6.038131,53.090351
Maarteblomke,1,,,9212RP,Boornbergum,Smallingerland,Friesland,VBO,6.040258,53.086917
Helmblom,1,,,9212RR,Boornbergum,Smallingerland,Friesland,VBO,6.040851,53.089147
Helmblom,3,,,9212RR,Boornbergum,Smallingerland,Friesland,VBO,6.040820,53.089195
Helmblom,5,,,9212RR,Boornbergum,Smallingerland,Friesland,VBO,6.040793,53.089244
Helmblom,7,,,9212RR,Boornbergum,Smallingerland,Friesland,VBO,6.040602,53.089608
Helmblom,9,,,9212RR,Boornbergum,Smallingerland,Friesland,VBO,6.040567,53.089654
Helmblom,11,,,9212RR,Boornbergum,Smallingerland,Friesland,VBO,6.040549,53.089706
Helmblom,13,,,9212RR,Boornbergum,Smallingerland,Friesland,VBO,6.040521,53.089756
Helmblom,15,,,9212RR,Boornbergum,Smallingerland,Friesland,VBO,6.040496,53.089801
Helmblom,17,,,9212RR,Boornbergum,Smallingerland,Friesland,VBO,6.040456,53.089920
Helmblom,19,,,9212RR,Boornbergum,Smallingerland,Friesland,VBO,6.040427,53.089970
Helmblom,21,,,9212RR,Boornbergum,Smallingerland,Friesland,VBO,6.040399,53.090023
Helmblom,23,,,9212RR,Boornbergum,Smallingerland,Friesland,VBO,6.040374,53.090073
Helmblom,25,,,9212RR,Boornbergum,Smallingerland,Friesland,VBO,6.040302,53.090188
Helmblom,27,,,9212RR,Boornbergum,Smallingerland,Friesland,VBO,6.040270,53.090230
Helmblom,29,,,9212RR,Boornbergum,Smallingerland,Friesland,VBO,6.040246,53.090281
Helmblom,31,,,9212RR,Boornbergum,Smallingerland,Friesland,VBO,6.040216,53.090330
Helmblom,33,,,9212RR,Boornbergum,Smallingerland,Friesland,VBO,6.040187,53.090380
Helmblom,35,,,9212RR,Boornbergum,Smallingerland,Friesland,VBO,6.040145,53.090501
Helmblom,37,,,9212RR,Boornbergum,Smallingerland,Friesland,VBO,6.040116,53.090555
Helmblom,39,,,9212RR,Boornbergum,Smallingerland,Friesland,VBO,6.040086,53.090602
Helmblom,41,,,9212RR,Boornbergum,Smallingerland,Friesland,VBO,6.040057,53.090653
Helmblom,2,,,9212RS,Boornbergum,Smallingerland,Friesland,VBO,6.041481,53.089249
Helmblom,4,,,9212RS,Boornbergum,Smallingerland,Friesland,VBO,6.041452,53.089299
Helmblom,6,,,9212RS,Boornbergum,Smallingerland,Friesland,VBO,6.041424,53.089349
Helmblom,8,,,9212RS,Boornbergum,Smallingerland,Friesland,VBO,6.041363,53.089474
Helmblom,10,,,9212RS,Boornbergum,Smallingerland,Friesland,VBO,6.041331,53.089527
Helmblom,12,,,9212RS,Boornbergum,Smallingerland,Friesland,VBO,6.041303,53.089571
Helmblom,14,,,9212RS,Boornbergum,Smallingerland,Friesland,VBO,6.041281,53.089626
Helmblom,16,,,9212RS,Boornbergum,Smallingerland,Friesland,VBO,6.041254,53.089672
Helmblom,18,,,9212RS,Boornbergum,Smallingerland,Friesland,VBO,6.041209,53.089790
Helmblom,20,,,9212RS,Boornbergum,Smallingerland,Friesland,VBO,6.041180,53.089837
Helmblom,22,,,9212RS,Boornbergum,Smallingerland,Friesland,VBO,6.041152,53.089891
Helmblom,24,,,9212RS,Boornbergum,Smallingerland,Friesland,VBO,6.041125,53.089937
Helmblom,26,,,9212RS,Boornbergum,Smallingerland,Friesland,VBO,6.041052,53.090053
Helmblom,28,,,9212RS,Boornbergum,Smallingerland,Friesland,VBO,6.041021,53.090099
Helmblom,30,,,9212RS,Boornbergum,Smallingerland,Friesland,VBO,6.040997,53.090146
Helmblom,32,,,9212RS,Boornbergum,Smallingerland,Friesland,VBO,6.040971,53.090201
Helmblom,34,,,9212RS,Boornbergum,Smallingerland,Friesland,VBO,6.040940,53.090247
Helmblom,36,,,9212RS,Boornbergum,Smallingerland,Friesland,VBO,6.040751,53.090612
Helmblom,38,,,9212RS,Boornbergum,Smallingerland,Friesland,VBO,6.040727,53.090664
Helmblom,40,,,9212RS,Boornbergum,Smallingerland,Friesland,VBO,6.040700,53.090712
Helmblom,42,,,9212RS,Boornbergum,Smallingerland,Friesland,VBO,6.040674,53.090766
Anemoan,8,,,9212RT,Boornbergum,Smallingerland,Friesland,VBO,6.037376,53.093124
Anemoan,12,,,9212RT,Boornbergum,Smallingerland,Friesland,VBO,6.036370,53.092674
Boerestreek,4,,,9212TW,Boornbergum,Smallingerland,Friesland,VBO,6.064299,53.079387
Boerestreek,6,,,9212TW,Boornbergum,Smallingerland,Friesland,VBO,6.064196,53.078833
Krite,1,,,9212VB,Boornbergum,Smallingerland,Friesland,VBO,6.035626,53.080885
Krite,6,,,9212VB,Boornbergum,Smallingerland,Friesland,VBO,6.034691,53.081156
Krite,9,,,9212VB,Boornbergum,Smallingerland,Friesland,VBO,6.033661,53.080486
Krite,10,,,9212VB,Boornbergum,Smallingerland,Friesland,VBO,6.033248,53.081114
Krite,14,,,9212VB,Boornbergum,Smallingerland,Friesland,VBO,6.031794,53.081121
Krite,16,,,9212VB,Boornbergum,Smallingerland,Friesland,VBO,6.031229,53.081117
Krite,17,,,9212VB,Boornbergum,Smallingerland,Friesland,VBO,6.030969,53.080659
Krite,19,,,9212VB,Boornbergum,Smallingerland,Friesland,VBO,6.030327,53.080499
Krite,23,,,9212VB,Boornbergum,Smallingerland,Friesland,VBO,6.028152,53.080589
Krite,25,,,9212VB,Boornbergum,Smallingerland,Friesland,VBO,6.027430,53.080278
Krite,26,,,9212VB,Boornbergum,Smallingerland,Friesland,VBO,6.025840,53.081114
Krite,29,,,9212VB,Boornbergum,Smallingerland,Friesland,VBO,6.025902,53.080615
Krite,30,,,9212VB,Boornbergum,Smallingerland,Friesland,VBO,6.023148,53.082146
Krite,32,,,9212VB,Boornbergum,Smallingerland,Friesland,VBO,6.021818,53.081961
Krite,34,,,9212VB,Boornbergum,Smallingerland,Friesland,VBO,6.020774,53.081837
Krite,36,,,9212VB,Boornbergum,Smallingerland,Friesland,VBO,6.019320,53.081551
Krite,40,,,9212VB,Boornbergum,Smallingerland,Friesland,VBO,6.017167,53.081507
Krite,43,,,9212VB,Boornbergum,Smallingerland,Friesland,VBO,6.020808,53.080854
Krite,50,,,9212VB,Boornbergum,Smallingerland,Friesland,VBO,5.995604,53.084032
Krite,54,,,9212VB,Boornbergum,Smallingerland,Friesland,VBO,5.991067,53.084796
Krite,55,,,9212VB,Boornbergum,Smallingerland,Friesland,VBO,6.011036,53.081101
Krite,57,,,9212VB,Boornbergum,Smallingerland,Friesland,VBO,6.008952,53.081729
Krite,59,,,9212VB,Boornbergum,Smallingerland,Friesland,VBO,6.007641,53.082111
Krite,73,,,9212VB,Boornbergum,Smallingerland,Friesland,VBO,5.994722,53.083644
Skeanewei,11,,,9212VC,Boornbergum,Smallingerland,Friesland,VBO,6.054632,53.091416
Skeanewei,12,,,9212VC,Boornbergum,Smallingerland,Friesland,VBO,6.053197,53.093186
Skeanewei,14,,,9212VC,Boornbergum,Smallingerland,Friesland,VBO,6.053911,53.092492
Skeanewei,15,,,9212VC,Boornbergum,Smallingerland,Friesland,VBO,6.053998,53.091878
Skeanewei,16,,,9212VC,Boornbergum,Smallingerland,Friesland,VBO,6.053119,53.092655
Skeanewei,18,,,9212VC,Boornbergum,Smallingerland,Friesland,VBO,6.052797,53.092767
Skeanewei,21,,,9212VC,Boornbergum,Smallingerland,Friesland,VBO,6.052179,53.092484
Skeanewei,22,,,9212VC,Boornbergum,Smallingerland,Friesland,VBO,6.051926,53.093108
Skeanewei,25,,,9212VC,Boornbergum,Smallingerland,Friesland,VBO,6.050547,53.092692
Skeanewei,26,,,9212VC,Boornbergum,Smallingerland,Friesland,VBO,6.051021,53.093241
Skeanewei,28,,,9212VC,Boornbergum,Smallingerland,Friesland,VBO,6.050550,53.093372
Skeanewei,29,,,9212VC,Boornbergum,Smallingerland,Friesland,VBO,6.049536,53.092975
Skeanewei,30,,,9212VC,Boornbergum,Smallingerland,Friesland,VBO,6.049727,53.093491
Skeanewei,31,,,9212VC,Boornbergum,Smallingerland,Friesland,VBO,6.048067,53.093065
Skeanewei,32,,,9212VC,Boornbergum,Smallingerland,Friesland,VBO,6.049103,53.093597
