openbareruimtenaam,huisnummer,huisletter,huisnummertoevoeging,postcode,woonplaatsnaam,gemeentenaam,provincienaam,typeadresseerbaarobject,longitude,latitude
Miedwei,3,,,9258CA,Jistrum,Tytsjerksteradiel,Friesland,VBO,6.074284,53.204848
Tillepaed,1,,,9258CB,Jistrum,Tytsjerksteradiel,Friesland,VBO,6.069124,53.201292
Tillepaed,3,A,,9258CB,Jistrum,Tytsjerksteradiel,Friesland,VBO,6.069349,53.201454
Tillepaed,3,,,9258CB,Jistrum,Tytsjerksteradiel,Friesland,VBO,6.069846,53.201531
Tillepaed,5,,,9258CB,Jistrum,Tytsjerksteradiel,Friesland,VBO,6.070129,53.201448
Tillepaed,7,A,,9258CB,Jistrum,Tytsjerksteradiel,Friesland,VBO,6.070776,53.201660
Tillepaed,7,,,9258CB,Jistrum,Tytsjerksteradiel,Friesland,VBO,6.071315,53.201666
Tillepaed,9,,,9258CB,Jistrum,Tytsjerksteradiel,Friesland,VBO,6.071641,53.201485
Tillepaed,11,,,9258CB,Jistrum,Tytsjerksteradiel,Friesland,VBO,6.072063,53.201626
Tillepaed,13,,,9258CB,Jistrum,Tytsjerksteradiel,Friesland,VBO,6.075123,53.202112
Tillepaed,15,,,9258CB,Jistrum,Tytsjerksteradiel,Friesland,VBO,6.076053,53.202214
Joost Wiersmaweg,1,A,,9258CC,Jistrum,Tytsjerksteradiel,Friesland,VBO,6.067309,53.201033
Joost Wiersmaweg,1,,,9258CC,Jistrum,Tytsjerksteradiel,Friesland,VBO,6.066770,53.201009
Joost Wiersmaweg,2,A,,9258CC,Jistrum,Tytsjerksteradiel,Friesland,VBO,6.068845,53.201617
Joost Wiersmaweg,2,,,9258CC,Jistrum,Tytsjerksteradiel,Friesland,VBO,6.068885,53.201285
Joost Wiersmaweg,3,,,9258CC,Jistrum,Tytsjerksteradiel,Friesland,VBO,6.068270,53.201234
Joost Wiersmaweg,4,,,9258CC,Jistrum,Tytsjerksteradiel,Friesland,VBO,6.068832,53.201752
Joost Wiersmaweg,5,,,9258CC,Jistrum,Tytsjerksteradiel,Friesland,VBO,6.068197,53.201315
Joost Wiersmaweg,6,,,9258CC,Jistrum,Tytsjerksteradiel,Friesland,VBO,6.069226,53.202073
Joost Wiersmaweg,7,,,9258CC,Jistrum,Tytsjerksteradiel,Friesland,VBO,6.068155,53.201504
Joost Wiersmaweg,8,,,9258CC,Jistrum,Tytsjerksteradiel,Friesland,VBO,6.068918,53.202444
Joost Wiersmaweg,9,,,9258CC,Jistrum,Tytsjerksteradiel,Friesland,VBO,6.068084,53.201756
Joost Wiersmaweg,10,A,,9258CC,Jistrum,Tytsjerksteradiel,Friesland,VBO,6.068999,53.202839
Joost Wiersmaweg,10,B,,9258CC,Jistrum,Tytsjerksteradiel,Friesland,VBO,6.069220,53.204509
Joost Wiersmaweg,10,,,9258CC,Jistrum,Tytsjerksteradiel,Friesland,VBO,6.068951,53.202641
Joost Wiersmaweg,12,,,9258CC,Jistrum,Tytsjerksteradiel,Friesland,VBO,6.068787,53.207432
Joost Wiersmaweg,13,,,9258CC,Jistrum,Tytsjerksteradiel,Friesland,VBO,6.067805,53.202108
Joost Wiersmaweg,17,,,9258CC,Jistrum,Tytsjerksteradiel,Friesland,VBO,6.067371,53.204025
Joost Wiersmaweg,19,,,9258CC,Jistrum,Tytsjerksteradiel,Friesland,VBO,6.067937,53.207607
Joost Wiersmaweg,21,A,1,9258CC,Jistrum,Tytsjerksteradiel,Friesland,VBO,6.067634,53.209146
Joost Wiersmaweg,21,A,,9258CC,Jistrum,Tytsjerksteradiel,Friesland,VBO,6.068049,53.208995
Joost Wiersmaweg,21,B,,9258CC,Jistrum,Tytsjerksteradiel,Friesland,VBO,6.068060,53.210689
Joost Wiersmaweg,21,C,,9258CC,Jistrum,Tytsjerksteradiel,Friesland,VBO,6.068017,53.210833
Joost Wiersmaweg,21,D,,9258CC,Jistrum,Tytsjerksteradiel,Friesland,VBO,6.067929,53.210941
Joost Wiersmaweg,21,E,,9258CC,Jistrum,Tytsjerksteradiel,Friesland,VBO,6.067307,53.211358
Joost Wiersmaweg,21,,,9258CC,Jistrum,Tytsjerksteradiel,Friesland,VBO,6.068056,53.208523
Joost Wiersmaweg,23,,,9258CC,Jistrum,Tytsjerksteradiel,Friesland,VBO,6.066996,53.211575
Joost Wiersmaweg,25,,,9258CC,Jistrum,Tytsjerksteradiel,Friesland,VBO,6.066744,53.211747
Joost Wiersmaweg,14,,,9258CD,Jistrum,Tytsjerksteradiel,Friesland,VBO,6.069119,53.209514
Joost Wiersmaweg,16,A,,9258CD,Jistrum,Tytsjerksteradiel,Friesland,VBO,6.068799,53.210127
Joost Wiersmaweg,16,,,9258CD,Jistrum,Tytsjerksteradiel,Friesland,VBO,6.068930,53.209839
Joost Wiersmaweg,18,,,9258CD,Jistrum,Tytsjerksteradiel,Friesland,VBO,6.068728,53.210334
Joost Wiersmaweg,20,,,9258CD,Jistrum,Tytsjerksteradiel,Friesland,VBO,6.068686,53.210550
Joost Wiersmaweg,22,,,9258CD,Jistrum,Tytsjerksteradiel,Friesland,VBO,6.068870,53.210792
Joost Wiersmaweg,24,,,9258CD,Jistrum,Tytsjerksteradiel,Friesland,VBO,6.068845,53.211133
Joost Wiersmaweg,26,A,,9258CD,Jistrum,Tytsjerksteradiel,Friesland,VBO,6.068265,53.211352
Joost Wiersmaweg,26,B,,9258CD,Jistrum,Tytsjerksteradiel,Friesland,VBO,6.068206,53.211407
Joost Wiersmaweg,26,,,9258CD,Jistrum,Tytsjerksteradiel,Friesland,VBO,6.068309,53.211280
Joost Wiersmaweg,28,,,9258CD,Jistrum,Tytsjerksteradiel,Friesland,VBO,6.068148,53.211524
Joost Wiersmaweg,30,,,9258CD,Jistrum,Tytsjerksteradiel,Friesland,VBO,6.067789,53.211571
Joost Wiersmaweg,32,,,9258CD,Jistrum,Tytsjerksteradiel,Friesland,VBO,6.067807,53.211714
Joost Wiersmaweg,34,,,9258CD,Jistrum,Tytsjerksteradiel,Friesland,VBO,6.067255,53.211843
Joost Wiersmaweg,36,,,9258CD,Jistrum,Tytsjerksteradiel,Friesland,VBO,6.067092,53.211970
Schoolstraat,1,,,9258CE,Jistrum,Tytsjerksteradiel,Friesland,VBO,6.066626,53.211865
Schoolstraat,3,,,9258CE,Jistrum,Tytsjerksteradiel,Friesland,VBO,6.066389,53.212001
Schoolstraat,5,,,9258CE,Jistrum,Tytsjerksteradiel,Friesland,VBO,6.066135,53.212038
Schoolstraat,9,,,9258CE,Jistrum,Tytsjerksteradiel,Friesland,VBO,6.065927,53.212120
Schoolstraat,11,,,9258CE,Jistrum,Tytsjerksteradiel,Friesland,VBO,6.065763,53.212157
Schoolstraat,15,,,9258CE,Jistrum,Tytsjerksteradiel,Friesland,VBO,6.065478,53.212150
Schoolstraat,17,,,9258CE,Jistrum,Tytsjerksteradiel,Friesland,VBO,6.065376,53.212276
Schoolstraat,19,,,9258CE,Jistrum,Tytsjerksteradiel,Friesland,VBO,6.065091,53.212287
Schoolstraat,21,,,9258CE,Jistrum,Tytsjerksteradiel,Friesland,VBO,6.065003,53.212395
Schoolstraat,23,,,9258CE,Jistrum,Tytsjerksteradiel,Friesland,VBO,6.064854,53.212423
Schoolstraat,25,,,9258CE,Jistrum,Tytsjerksteradiel,Friesland,VBO,6.064719,53.212424
Schoolstraat,27,,,9258CE,Jistrum,Tytsjerksteradiel,Friesland,VBO,6.064481,53.212479
Schoolstraat,31,A,,9258CE,Jistrum,Tytsjerksteradiel,Friesland,VBO,6.063704,53.212618
Schoolstraat,31,,,9258CE,Jistrum,Tytsjerksteradiel,Friesland,VBO,6.064017,53.212509
Schoolstraat,33,,,9258CG,Jistrum,Tytsjerksteradiel,Friesland,VBO,6.063378,53.212818
Schoolstraat,35,,,9258CG,Jistrum,Tytsjerksteradiel,Friesland,VBO,6.063230,53.212917
Schoolstraat,37,A,,9258CG,Jistrum,Tytsjerksteradiel,Friesland,VBO,6.063024,53.213125
Schoolstraat,37,,,9258CG,Jistrum,Tytsjerksteradiel,Friesland,VBO,6.063127,53.213017
Schoolstraat,39,,,9258CG,Jistrum,Tytsjerksteradiel,Friesland,VBO,6.062831,53.213216
Schoolstraat,41,,,9258CG,Jistrum,Tytsjerksteradiel,Friesland,VBO,6.062639,53.213442
Schoolstraat,43,,,9258CG,Jistrum,Tytsjerksteradiel,Friesland,VBO,6.062431,53.213533
Schoolstraat,45,A,,9258CG,Jistrum,Tytsjerksteradiel,Friesland,VBO,6.062107,53.213822
Schoolstraat,45,,,9258CG,Jistrum,Tytsjerksteradiel,Friesland,VBO,6.062465,53.213748
Schoolstraat,47,A,,9258CG,Jistrum,Tytsjerksteradiel,Friesland,VBO,6.061960,53.214057
Schoolstraat,47,,,9258CG,Jistrum,Tytsjerksteradiel,Friesland,VBO,6.062230,53.214073
Schoolstraat,53,,,9258CG,Jistrum,Tytsjerksteradiel,Friesland,VBO,6.061739,53.214256
Schoolstraat,55,,,9258CG,Jistrum,Tytsjerksteradiel,Friesland,VBO,6.061456,53.214365
Schoolstraat,57,,,9258CG,Jistrum,Tytsjerksteradiel,Friesland,VBO,6.061086,53.214637
Schoolstraat,59,,,9258CG,Jistrum,Tytsjerksteradiel,Friesland,VBO,6.059182,53.215366
Schoolstraat,2,,,9258CH,Jistrum,Tytsjerksteradiel,Friesland,VBO,6.066917,53.212259
Schoolstraat,4,,,9258CH,Jistrum,Tytsjerksteradiel,Friesland,VBO,6.066787,53.212538
Schoolstraat,8,,,9258CH,Jistrum,Tytsjerksteradiel,Friesland,VBO,6.066349,53.212307
Schoolstraat,10,,,9258CH,Jistrum,Tytsjerksteradiel,Friesland,VBO,6.066050,53.212308
Schoolstraat,12,,,9258CH,Jistrum,Tytsjerksteradiel,Friesland,VBO,6.065946,53.212390
Schoolstraat,16,,,9258CH,Jistrum,Tytsjerksteradiel,Friesland,VBO,6.065723,53.212499
Schoolstraat,20,,,9258CH,Jistrum,Tytsjerksteradiel,Friesland,VBO,6.065484,53.212509
Schoolstraat,22,,,9258CH,Jistrum,Tytsjerksteradiel,Friesland,VBO,6.065290,53.212573
Schoolstraat,24,,,9258CH,Jistrum,Tytsjerksteradiel,Friesland,VBO,6.064979,53.212764
Schoolstraat,26,,,9258CH,Jistrum,Tytsjerksteradiel,Friesland,VBO,6.064635,53.212757
Schoolstraat,28,,,9258CH,Jistrum,Tytsjerksteradiel,Friesland,VBO,6.064411,53.212803
Schoolstraat,30,,,9258CH,Jistrum,Tytsjerksteradiel,Friesland,VBO,6.064142,53.212849
Schoolstraat,32,,,9258CH,Jistrum,Tytsjerksteradiel,Friesland,VBO,6.063878,53.212894
Schoolstraat,36,,,9258CJ,Jistrum,Tytsjerksteradiel,Friesland,VBO,6.063711,53.213049
Schoolstraat,38,,,9258CJ,Jistrum,Tytsjerksteradiel,Friesland,VBO,6.063684,53.213229
Schoolstraat,42,,,9258CJ,Jistrum,Tytsjerksteradiel,Friesland,VBO,6.063431,53.213312
Schoolstraat,44,A,,9258CJ,Jistrum,Tytsjerksteradiel,Friesland,VBO,6.063170,53.213852
Schoolstraat,44,,,9258CJ,Jistrum,Tytsjerksteradiel,Friesland,VBO,6.063479,53.213545
Schoolstraat,46,A,,9258CJ,Jistrum,Tytsjerksteradiel,Friesland,VBO,6.062237,53.214504
Schoolstraat,46,B,,9258CJ,Jistrum,Tytsjerksteradiel,Friesland,VBO,6.062193,53.214559
Schoolstraat,46,,,9258CJ,Jistrum,Tytsjerksteradiel,Friesland,VBO,6.062565,53.214395
Schoolstraat,48,,,9258CJ,Jistrum,Tytsjerksteradiel,Friesland,VBO,6.061940,53.214695
Schoolstraat,50,,,9258CJ,Jistrum,Tytsjerksteradiel,Friesland,VBO,6.061748,53.214804
Schoolstraat,52,,,9258CJ,Jistrum,Tytsjerksteradiel,Friesland,VBO,6.061630,53.214912
Schoolstraat,54,,,9258CJ,Jistrum,Tytsjerksteradiel,Friesland,VBO,6.061274,53.215166
Schoolstraat,56,A,,9258CJ,Jistrum,Tytsjerksteradiel,Friesland,VBO,6.060012,53.215820
Schoolstraat,56,,,9258CJ,Jistrum,Tytsjerksteradiel,Friesland,VBO,6.059787,53.215794
Buurtlaan,1,,,9258CK,Jistrum,Tytsjerksteradiel,Friesland,VBO,6.066590,53.211461
Buurtlaan,2,A,,9258CK,Jistrum,Tytsjerksteradiel,Friesland,VBO,6.065015,53.212155
Buurtlaan,2,,,9258CK,Jistrum,Tytsjerksteradiel,Friesland,VBO,6.065670,53.211969
Buurtlaan,3,,,9258CK,Jistrum,Tytsjerksteradiel,Friesland,VBO,6.066185,53.211400
Buurtlaan,4,,,9258CK,Jistrum,Tytsjerksteradiel,Friesland,VBO,6.064612,53.212263
Buurtlaan,5,,,9258CK,Jistrum,Tytsjerksteradiel,Friesland,VBO,6.065660,53.211331
Buurtlaan,7,,,9258CK,Jistrum,Tytsjerksteradiel,Friesland,VBO,6.065602,53.211439
Buurtlaan,9,,,9258CK,Jistrum,Tytsjerksteradiel,Friesland,VBO,6.065588,53.211484
Buurtlaan,11,,,9258CK,Jistrum,Tytsjerksteradiel,Friesland,VBO,6.065544,53.211583
Buurtlaan,13,,,9258CK,Jistrum,Tytsjerksteradiel,Friesland,VBO,6.065515,53.211628
Buurtlaan,15,,,9258CK,Jistrum,Tytsjerksteradiel,Friesland,VBO,6.065472,53.211719
Buurtlaan,17,,,9258CK,Jistrum,Tytsjerksteradiel,Friesland,VBO,6.065053,53.211748
Buurtlaan,19,,,9258CK,Jistrum,Tytsjerksteradiel,Friesland,VBO,6.064860,53.211830
Buurtlaan,21,A,,9258CK,Jistrum,Tytsjerksteradiel,Friesland,VBO,6.064471,53.211886
Buurtlaan,21,,,9258CK,Jistrum,Tytsjerksteradiel,Friesland,VBO,6.064681,53.211867
Buurtlaan,23,,,9258CK,Jistrum,Tytsjerksteradiel,Friesland,VBO,6.064292,53.211932
Buurtlaan,25,,,9258CK,Jistrum,Tytsjerksteradiel,Friesland,VBO,6.064218,53.211941
Buurtlaan,27,,,9258CK,Jistrum,Tytsjerksteradiel,Friesland,VBO,6.064128,53.211960
Buurtlaan,29,,,9258CK,Jistrum,Tytsjerksteradiel,Friesland,VBO,6.064024,53.211987
Buurtlaan,31,,,9258CK,Jistrum,Tytsjerksteradiel,Friesland,VBO,6.063904,53.212015
Buurtlaan,33,,,9258CK,Jistrum,Tytsjerksteradiel,Friesland,VBO,6.063755,53.212052
Buurtlaan,35,,,9258CK,Jistrum,Tytsjerksteradiel,Friesland,VBO,6.063681,53.212061
Buurtlaan,37,,,9258CK,Jistrum,Tytsjerksteradiel,Friesland,VBO,6.063576,53.212080
Buurtlaan,39,,,9258CK,Jistrum,Tytsjerksteradiel,Friesland,VBO,6.063487,53.212107
Buurtlaan,41,,,9258CK,Jistrum,Tytsjerksteradiel,Friesland,VBO,6.063353,53.212135
Fjildwei,3,,,9258CL,Jistrum,Tytsjerksteradiel,Friesland,VBO,6.063146,53.211399
Fjildwei,4,A,,9258CL,Jistrum,Tytsjerksteradiel,Friesland,VBO,6.065249,53.210902
Fjildwei,5,,,9258CL,Jistrum,Tytsjerksteradiel,Friesland,VBO,6.063175,53.211336
Fjildwei,6,A,,9258CL,Jistrum,Tytsjerksteradiel,Friesland,VBO,6.065291,53.210695
Fjildwei,7,,,9258CL,Jistrum,Tytsjerksteradiel,Friesland,VBO,6.063263,53.211174
Fjildwei,8,A,,9258CL,Jistrum,Tytsjerksteradiel,Friesland,VBO,6.065901,53.210494
Fjildwei,8,B,,9258CL,Jistrum,Tytsjerksteradiel,Friesland,VBO,6.065774,53.209983
Fjildwei,8,,,9258CL,Jistrum,Tytsjerksteradiel,Friesland,VBO,6.065621,53.210738
Fjildwei,10,,,9258CL,Jistrum,Tytsjerksteradiel,Friesland,VBO,6.066164,53.211023
Fjildwei,12,,,9258CL,Jistrum,Tytsjerksteradiel,Friesland,VBO,6.066269,53.211049
Fjildwei,13,,,9258CL,Jistrum,Tytsjerksteradiel,Friesland,VBO,6.063393,53.210886
Fjildwei,14,,,9258CL,Jistrum,Tytsjerksteradiel,Friesland,VBO,6.066539,53.211048
Fjildwei,15,,,9258CL,Jistrum,Tytsjerksteradiel,Friesland,VBO,6.063513,53.210903
Fjildwei,17,,,9258CL,Jistrum,Tytsjerksteradiel,Friesland,VBO,6.063633,53.210929
Fjildwei,19,,,9258CL,Jistrum,Tytsjerksteradiel,Friesland,VBO,6.063738,53.210956
Fjildwei,20,,,9258CL,Jistrum,Tytsjerksteradiel,Friesland,VBO,6.067527,53.211042
Fjildwei,21,,,9258CL,Jistrum,Tytsjerksteradiel,Friesland,VBO,6.063933,53.210963
Fjildwei,22,,,9258CL,Jistrum,Tytsjerksteradiel,Friesland,VBO,6.067692,53.211095
Fjildwei,23,,,9258CL,Jistrum,Tytsjerksteradiel,Friesland,VBO,6.064068,53.210981
Fjildwei,25,,,9258CL,Jistrum,Tytsjerksteradiel,Friesland,VBO,6.064188,53.211007
Fjildwei,27,A,,9258CL,Jistrum,Tytsjerksteradiel,Friesland,VBO,6.066859,53.211396
Fjildwei,27,,,9258CL,Jistrum,Tytsjerksteradiel,Friesland,VBO,6.064308,53.211024
Fjildwei,29,,,9258CL,Jistrum,Tytsjerksteradiel,Friesland,VBO,6.067097,53.211332
Buorrefinnewei,1,,,9258CM,Jistrum,Tytsjerksteradiel,Friesland,VBO,6.063183,53.211803
Buorrefinnewei,2,,,9258CM,Jistrum,Tytsjerksteradiel,Friesland,VBO,6.062782,53.212048
Buorrefinnewei,3,,,9258CM,Jistrum,Tytsjerksteradiel,Friesland,VBO,6.063272,53.211785
Buorrefinnewei,5,,,9258CM,Jistrum,Tytsjerksteradiel,Friesland,VBO,6.063362,53.211766
Buorrefinnewei,6,,,9258CM,Jistrum,Tytsjerksteradiel,Friesland,VBO,6.063537,53.211469
Buorrefinnewei,7,,,9258CM,Jistrum,Tytsjerksteradiel,Friesland,VBO,6.063451,53.211748
Buorrefinnewei,8,,,9258CM,Jistrum,Tytsjerksteradiel,Friesland,VBO,6.063566,53.211406
Buorrefinnewei,9,,,9258CM,Jistrum,Tytsjerksteradiel,Friesland,VBO,6.063556,53.211729
Buorrefinnewei,10,,,9258CM,Jistrum,Tytsjerksteradiel,Friesland,VBO,6.063580,53.211352
Buorrefinnewei,11,,,9258CM,Jistrum,Tytsjerksteradiel,Friesland,VBO,6.063645,53.211711
Buorrefinnewei,12,,,9258CM,Jistrum,Tytsjerksteradiel,Friesland,VBO,6.063609,53.211307
Buorrefinnewei,13,,,9258CM,Jistrum,Tytsjerksteradiel,Friesland,VBO,6.063824,53.211683
Buorrefinnewei,14,,,9258CM,Jistrum,Tytsjerksteradiel,Friesland,VBO,6.063862,53.211189
Buorrefinnewei,15,,,9258CM,Jistrum,Tytsjerksteradiel,Friesland,VBO,6.063929,53.211664
Buorrefinnewei,16,,,9258CM,Jistrum,Tytsjerksteradiel,Friesland,VBO,6.063982,53.211233
Buorrefinnewei,17,,,9258CM,Jistrum,Tytsjerksteradiel,Friesland,VBO,6.064019,53.211655
Buorrefinnewei,18,,,9258CM,Jistrum,Tytsjerksteradiel,Friesland,VBO,6.064042,53.211214
Buorrefinnewei,19,,,9258CM,Jistrum,Tytsjerksteradiel,Friesland,VBO,6.064123,53.211627
Buorrefinnewei,20,,,9258CM,Jistrum,Tytsjerksteradiel,Friesland,VBO,6.064132,53.211232
Buorrefinnewei,21,,,9258CM,Jistrum,Tytsjerksteradiel,Friesland,VBO,6.064318,53.211635
Buorrefinnewei,22,,,9258CM,Jistrum,Tytsjerksteradiel,Friesland,VBO,6.064207,53.211249
Buorrefinnewei,23,,,9258CM,Jistrum,Tytsjerksteradiel,Friesland,VBO,6.064437,53.211617
Buorrefinnewei,24,,,9258CM,Jistrum,Tytsjerksteradiel,Friesland,VBO,6.064536,53.211239
Buorrefinnewei,25,,,9258CM,Jistrum,Tytsjerksteradiel,Friesland,VBO,6.064482,53.211607
Buorrefinnewei,26,,,9258CM,Jistrum,Tytsjerksteradiel,Friesland,VBO,6.064565,53.211176
Buorrefinnewei,27,,,9258CM,Jistrum,Tytsjerksteradiel,Friesland,VBO,6.064586,53.211580
Buorrefinnewei,28,,,9258CM,Jistrum,Tytsjerksteradiel,Friesland,VBO,6.064594,53.211121
Buorrefinnewei,29,,,9258CM,Jistrum,Tytsjerksteradiel,Friesland,VBO,6.064661,53.211570
Buorrefinnewei,31,,,9258CM,Jistrum,Tytsjerksteradiel,Friesland,VBO,6.064765,53.211543
Buorrefinnewei,33,,,9258CM,Jistrum,Tytsjerksteradiel,Friesland,VBO,6.065033,53.211425
Buorrefinnewei,35,,,9258CM,Jistrum,Tytsjerksteradiel,Friesland,VBO,6.065092,53.211370
Buorrefinnewei,37,,,9258CM,Jistrum,Tytsjerksteradiel,Friesland,VBO,6.065091,53.211316
Buorrefinnewei,39,,,9258CM,Jistrum,Tytsjerksteradiel,Friesland,VBO,6.065105,53.211262
Buorrefinnewei,41,,,9258CM,Jistrum,Tytsjerksteradiel,Friesland,VBO,6.065134,53.211208
Rounhôf,2,,,9258CN,Jistrum,Tytsjerksteradiel,Friesland,VBO,6.062812,53.212965
Rounhôf,3,,,9258CN,Jistrum,Tytsjerksteradiel,Friesland,VBO,6.062316,53.212833
Rounhôf,4,,,9258CN,Jistrum,Tytsjerksteradiel,Friesland,VBO,6.062783,53.213019
Rounhôf,5,,,9258CN,Jistrum,Tytsjerksteradiel,Friesland,VBO,6.062288,53.212977
Rounhôf,7,,,9258CN,Jistrum,Tytsjerksteradiel,Friesland,VBO,6.062019,53.213041
Rounhôf,9,,,9258CN,Jistrum,Tytsjerksteradiel,Friesland,VBO,6.061575,53.213322
Rounhôf,11,,,9258CN,Jistrum,Tytsjerksteradiel,Friesland,VBO,6.062354,53.213363
Marwei,1,A,,9258CP,Jistrum,Tytsjerksteradiel,Friesland,VBO,6.063254,53.212522
Marwei,1,,,9258CP,Jistrum,Tytsjerksteradiel,Friesland,VBO,6.063434,53.212557
Marwei,2,,,9258CP,Jistrum,Tytsjerksteradiel,Friesland,VBO,6.062878,53.212720
Marwei,3,,,9258CP,Jistrum,Tytsjerksteradiel,Friesland,VBO,6.063118,53.212433
Marwei,4,,,9258CP,Jistrum,Tytsjerksteradiel,Friesland,VBO,6.062582,53.212616
Marwei,5,,,9258CP,Jistrum,Tytsjerksteradiel,Friesland,VBO,6.062128,53.212295
Marwei,8,,,9258CP,Jistrum,Tytsjerksteradiel,Friesland,VBO,6.062176,53.212537
Marwei,10,,,9258CP,Jistrum,Tytsjerksteradiel,Friesland,VBO,6.060992,53.212445
Marwei,12,,,9258CP,Jistrum,Tytsjerksteradiel,Friesland,VBO,6.060035,53.212513
Marwei,14,,,9258CP,Jistrum,Tytsjerksteradiel,Friesland,VBO,6.058549,53.212216
Marwei,16,,,9258CP,Jistrum,Tytsjerksteradiel,Friesland,VBO,6.050559,53.206608
Marwei,18,A,,9258CP,Jistrum,Tytsjerksteradiel,Friesland,VBO,6.051730,53.206844
Marwei,18,,,9258CP,Jistrum,Tytsjerksteradiel,Friesland,VBO,6.051339,53.206730
Kooiweg,1,,,9258CR,Jistrum,Tytsjerksteradiel,Friesland,VBO,6.058950,53.215889
Kooiweg,2,A,,9258CR,Jistrum,Tytsjerksteradiel,Friesland,VBO,6.059254,53.216184
Kooiweg,2,,,9258CR,Jistrum,Tytsjerksteradiel,Friesland,VBO,6.059416,53.216003
Kooiweg,3,,,9258CR,Jistrum,Tytsjerksteradiel,Friesland,VBO,6.057495,53.217640
Kooiweg,4,,,9258CR,Jistrum,Tytsjerksteradiel,Friesland,VBO,6.058249,53.217977
Heideweg,2,,,9258CS,Jistrum,Tytsjerksteradiel,Friesland,VBO,6.061726,53.217239
Ieswei,1,,,9258CT,Jistrum,Tytsjerksteradiel,Friesland,VBO,6.058352,53.214976
Ieswei,2,,,9258CT,Jistrum,Tytsjerksteradiel,Friesland,VBO,6.058210,53.215444
Ieswei,3,,,9258CT,Jistrum,Tytsjerksteradiel,Friesland,VBO,6.059306,53.214701
Ieswei,4,,,9258CT,Jistrum,Tytsjerksteradiel,Friesland,VBO,6.056490,53.215588
Ieswei,5,,,9258CT,Jistrum,Tytsjerksteradiel,Friesland,VBO,6.059686,53.214123
Ieswei,6,,,9258CT,Jistrum,Tytsjerksteradiel,Friesland,VBO,6.055863,53.215681
Ieswei,7,,,9258CT,Jistrum,Tytsjerksteradiel,Friesland,VBO,6.057704,53.214701
Ieswei,8,,,9258CT,Jistrum,Tytsjerksteradiel,Friesland,VBO,6.053914,53.216438
Ieswei,9,,,9258CT,Jistrum,Tytsjerksteradiel,Friesland,VBO,6.057032,53.214767
Ieswei,10,A,,9258CT,Jistrum,Tytsjerksteradiel,Friesland,VBO,6.051346,53.216893
Ieswei,10,,,9258CT,Jistrum,Tytsjerksteradiel,Friesland,VBO,6.051141,53.217217
Ieswei,12,,,9258CT,Jistrum,Tytsjerksteradiel,Friesland,VBO,6.050306,53.217411
Ieswei,13,,,9258CT,Jistrum,Tytsjerksteradiel,Friesland,VBO,6.054339,53.215843
Ieswei,15,,,9258CT,Jistrum,Tytsjerksteradiel,Friesland,VBO,6.053040,53.216119
Ieswei,19,,,9258CT,Jistrum,Tytsjerksteradiel,Friesland,VBO,6.052796,53.214836
Ieswei,21,A,,9258CT,Jistrum,Tytsjerksteradiel,Friesland,VBO,6.051656,53.216280
Ieswei,21,,,9258CT,Jistrum,Tytsjerksteradiel,Friesland,VBO,6.051484,53.216137
Ieswei,16,,,9258CV,Jistrum,Tytsjerksteradiel,Friesland,VBO,6.049353,53.217784
Ieswei,18,,,9258CV,Jistrum,Tytsjerksteradiel,Friesland,VBO,6.049190,53.217866
Ieswei,20,,,9258CV,Jistrum,Tytsjerksteradiel,Friesland,VBO,6.048921,53.217876
Ieswei,22,,,9258CV,Jistrum,Tytsjerksteradiel,Friesland,VBO,6.048595,53.218103
Ieswei,23,,,9258CV,Jistrum,Tytsjerksteradiel,Friesland,VBO,6.048720,53.217518
Ieswei,24,,,9258CV,Jistrum,Tytsjerksteradiel,Friesland,VBO,6.045921,53.218504
Ieswei,25,,,9258CV,Jistrum,Tytsjerksteradiel,Friesland,VBO,6.047885,53.217684
Ieswei,27,,,9258CV,Jistrum,Tytsjerksteradiel,Friesland,VBO,6.046396,53.217270
Ieswei,29,,,9258CV,Jistrum,Tytsjerksteradiel,Friesland,VBO,6.042228,53.217566
Ieswei,31,,,9258CV,Jistrum,Tytsjerksteradiel,Friesland,VBO,6.045170,53.218319
Ieswei,33,,,9258CV,Jistrum,Tytsjerksteradiel,Friesland,VBO,6.044439,53.219528
Ieswei,35,,,9258CV,Jistrum,Tytsjerksteradiel,Friesland,VBO,6.044158,53.219754
Ieswei,37,,,9258CV,Jistrum,Tytsjerksteradiel,Friesland,VBO,6.041542,53.223946
Achterweg,1,,,9258CW,Jistrum,Tytsjerksteradiel,Friesland,VBO,6.053286,53.218427
Achterweg,2,,,9258CW,Jistrum,Tytsjerksteradiel,Friesland,VBO,6.056816,53.213448
Achterweg,3,,,9258CW,Jistrum,Tytsjerksteradiel,Friesland,VBO,6.053977,53.218630
Achterweg,4,,,9258CW,Jistrum,Tytsjerksteradiel,Friesland,VBO,6.054930,53.214393
Achterweg,6,,,9258CW,Jistrum,Tytsjerksteradiel,Friesland,VBO,6.052154,53.214929
Achterweg,8,,,9258CW,Jistrum,Tytsjerksteradiel,Friesland,VBO,6.051315,53.214862
Achterweg,12,,,9258CW,Jistrum,Tytsjerksteradiel,Friesland,VBO,6.050329,53.215973
Achterweg,18,,,9258CW,Jistrum,Tytsjerksteradiel,Friesland,VBO,6.056553,53.217699
Rijksstraatweg,1,,,9258CX,Jistrum,Tytsjerksteradiel,Friesland,VBO,6.032410,53.224215
Rijksstraatweg,2,,,9258CX,Jistrum,Tytsjerksteradiel,Friesland,VBO,6.032916,53.222852
Rijksstraatweg,3,,,9258CX,Jistrum,Tytsjerksteradiel,Friesland,VBO,6.039830,53.224585
Rijksstraatweg,4,,,9258CX,Jistrum,Tytsjerksteradiel,Friesland,VBO,6.042187,53.224042
Rijksstraatweg,5,,,9258CX,Jistrum,Tytsjerksteradiel,Friesland,VBO,6.040324,53.224618
Rijksstraatweg,6,,,9258CX,Jistrum,Tytsjerksteradiel,Friesland,VBO,6.046369,53.224288
Rijksstraatweg,7,,,9258CX,Jistrum,Tytsjerksteradiel,Friesland,VBO,6.040757,53.224490
Rijksstraatweg,8,,,9258CX,Jistrum,Tytsjerksteradiel,Friesland,VBO,6.048871,53.224436
Rijksstraatweg,11,,,9258CX,Jistrum,Tytsjerksteradiel,Friesland,VBO,6.042287,53.224688
Rijksstraatweg,13,A,,9258CX,Jistrum,Tytsjerksteradiel,Friesland,VBO,6.044444,53.224739
Rijksstraatweg,13,,,9258CX,Jistrum,Tytsjerksteradiel,Friesland,VBO,6.044505,53.224838
Rijksstraatweg,15,,,9258CX,Jistrum,Tytsjerksteradiel,Friesland,VBO,6.046452,53.224863
Rijksstraatweg,17,,,9258CX,Jistrum,Tytsjerksteradiel,Friesland,VBO,6.046555,53.224728
Rijksstraatweg,19,,,9258CX,Jistrum,Tytsjerksteradiel,Friesland,VBO,6.046855,53.224753
Rijksstraatweg,21,,,9258CX,Jistrum,Tytsjerksteradiel,Friesland,VBO,6.047472,53.224974
Hessel Loonstrastrjitte,4,,,9258CZ,Jistrum,Tytsjerksteradiel,Friesland,VBO,6.066439,53.210437
Hessel Loonstrastrjitte,5,,,9258CZ,Jistrum,Tytsjerksteradiel,Friesland,VBO,6.066854,53.211073
Hessel Loonstrastrjitte,7,,,9258CZ,Jistrum,Tytsjerksteradiel,Friesland,VBO,6.066853,53.211028
Hessel Loonstrastrjitte,9,,,9258CZ,Jistrum,Tytsjerksteradiel,Friesland,VBO,6.066897,53.210974
Hessel Loonstrastrjitte,10,,,9258CZ,Jistrum,Tytsjerksteradiel,Friesland,VBO,6.066635,53.210490
Hessel Loonstrastrjitte,11,,,9258CZ,Jistrum,Tytsjerksteradiel,Friesland,VBO,6.066956,53.210919
Hessel Loonstrastrjitte,12,,,9258CZ,Jistrum,Tytsjerksteradiel,Friesland,VBO,6.066725,53.210498
Hessel Loonstrastrjitte,13,,,9258CZ,Jistrum,Tytsjerksteradiel,Friesland,VBO,6.066970,53.210892
Hessel Loonstrastrjitte,14,,,9258CZ,Jistrum,Tytsjerksteradiel,Friesland,VBO,6.066995,53.210542
Hessel Loonstrastrjitte,15,,,9258CZ,Jistrum,Tytsjerksteradiel,Friesland,VBO,6.066416,53.210842
Hessel Loonstrastrjitte,16,,,9258CZ,Jistrum,Tytsjerksteradiel,Friesland,VBO,6.067085,53.210586
Hessel Loonstrastrjitte,18,,,9258CZ,Jistrum,Tytsjerksteradiel,Friesland,VBO,6.067175,53.210604
Hessel Loonstrastrjitte,20,,,9258CZ,Jistrum,Tytsjerksteradiel,Friesland,VBO,6.067265,53.210603
Hessel Loonstrastrjitte,22,,,9258CZ,Jistrum,Tytsjerksteradiel,Friesland,VBO,6.067596,53.210682
Hessel Loonstrastrjitte,24,,,9258CZ,Jistrum,Tytsjerksteradiel,Friesland,VBO,6.067611,53.210718
Hessel Loonstrastrjitte,26,,,9258CZ,Jistrum,Tytsjerksteradiel,Friesland,VBO,6.067567,53.210745
Hessel Loonstrastrjitte,28,,,9258CZ,Jistrum,Tytsjerksteradiel,Friesland,VBO,6.067597,53.210754
Hessel Loonstrastrjitte,30,,,9258CZ,Jistrum,Tytsjerksteradiel,Friesland,VBO,6.067598,53.210808
Hessel Loonstrastrjitte,32,,,9258CZ,Jistrum,Tytsjerksteradiel,Friesland,VBO,6.067569,53.210853
Hessel Loonstrastrjitte,34,,,9258CZ,Jistrum,Tytsjerksteradiel,Friesland,VBO,6.067539,53.210907
De Geasten,1,,,9258GE,Jistrum,Tytsjerksteradiel,Friesland,VBO,6.064106,53.214359
De Geasten,3,,,9258GE,Jistrum,Tytsjerksteradiel,Friesland,VBO,6.064253,53.214215
De Geasten,5,,,9258GE,Jistrum,Tytsjerksteradiel,Friesland,VBO,6.064542,53.214465
De Geasten,7,,,9258GE,Jistrum,Tytsjerksteradiel,Friesland,VBO,6.064913,53.214256
De Geasten,9,,,9258GE,Jistrum,Tytsjerksteradiel,Friesland,VBO,6.065379,53.214397
De Geasten,10,,,9258GE,Jistrum,Tytsjerksteradiel,Friesland,VBO,6.063742,53.214092
De Geasten,11,,,9258GE,Jistrum,Tytsjerksteradiel,Friesland,VBO,6.065664,53.214440
De Geasten,12,,,9258GE,Jistrum,Tytsjerksteradiel,Friesland,VBO,6.063875,53.213965
De Geasten,13,,,9258GE,Jistrum,Tytsjerksteradiel,Friesland,VBO,6.065949,53.214466
De Geasten,14,,,9258GE,Jistrum,Tytsjerksteradiel,Friesland,VBO,6.064397,53.213827
De Geasten,15,,,9258GE,Jistrum,Tytsjerksteradiel,Friesland,VBO,6.065817,53.214673
De Geasten,16,,,9258GE,Jistrum,Tytsjerksteradiel,Friesland,VBO,6.064652,53.213889
De Geasten,17,,,9258GE,Jistrum,Tytsjerksteradiel,Friesland,VBO,6.065788,53.214718
De Geasten,18,,,9258GE,Jistrum,Tytsjerksteradiel,Friesland,VBO,6.064742,53.213906
De Geasten,19,,,9258GE,Jistrum,Tytsjerksteradiel,Friesland,VBO,6.066455,53.214892
De Geasten,20,,,9258GE,Jistrum,Tytsjerksteradiel,Friesland,VBO,6.064923,53.213941
De Geasten,21,,,9258GE,Jistrum,Tytsjerksteradiel,Friesland,VBO,6.066536,53.214770
De Geasten,22,,,9258GE,Jistrum,Tytsjerksteradiel,Friesland,VBO,6.065013,53.213959
De Geasten,23,,,9258GE,Jistrum,Tytsjerksteradiel,Friesland,VBO,6.066582,53.214712
De Geasten,24,,,9258GE,Jistrum,Tytsjerksteradiel,Friesland,VBO,6.065268,53.214002
De Geasten,25,,,9258GE,Jistrum,Tytsjerksteradiel,Friesland,VBO,6.066669,53.214592
De Geasten,26,,,9258GE,Jistrum,Tytsjerksteradiel,Friesland,VBO,6.065628,53.214072
De Geasten,28,,,9258GE,Jistrum,Tytsjerksteradiel,Friesland,VBO,6.065854,53.214125
De Geasten,30,,,9258GE,Jistrum,Tytsjerksteradiel,Friesland,VBO,6.066169,53.214168
Wyldpaed,1,,,9258GL,Jistrum,Tytsjerksteradiel,Friesland,VBO,6.042486,53.225011
De Meren,1,,,9258GM,Jistrum,Tytsjerksteradiel,Friesland,VBO,6.067277,53.212274
De Meren,2,,,9258GM,Jistrum,Tytsjerksteradiel,Friesland,VBO,6.067377,53.212013
De Meren,3,,,9258GM,Jistrum,Tytsjerksteradiel,Friesland,VBO,6.067473,53.212381
De Meren,5,,,9258GM,Jistrum,Tytsjerksteradiel,Friesland,VBO,6.067639,53.212479
De Meren,6,,,9258GM,Jistrum,Tytsjerksteradiel,Friesland,VBO,6.068468,53.212843
De Meren,7,,,9258GM,Jistrum,Tytsjerksteradiel,Friesland,VBO,6.067760,53.212559
De Meren,8,,,9258GM,Jistrum,Tytsjerksteradiel,Friesland,VBO,6.068810,53.213659
De Meren,9,,,9258GM,Jistrum,Tytsjerksteradiel,Friesland,VBO,6.067780,53.212856
De Meren,10,,,9258GM,Jistrum,Tytsjerksteradiel,Friesland,VBO,6.069072,53.214097
De Meren,11,,,9258GM,Jistrum,Tytsjerksteradiel,Friesland,VBO,6.068038,53.213115
De Meren,12,,,9258GM,Jistrum,Tytsjerksteradiel,Friesland,VBO,6.069180,53.215283
De Meren,13,,,9258GM,Jistrum,Tytsjerksteradiel,Friesland,VBO,6.068131,53.213294
De Meren,14,,,9258GM,Jistrum,Tytsjerksteradiel,Friesland,VBO,6.068150,53.217329
De Meren,15,,,9258GM,Jistrum,Tytsjerksteradiel,Friesland,VBO,6.068532,53.214990
De Meren,16,,,9258GM,Jistrum,Tytsjerksteradiel,Friesland,VBO,6.069424,53.218391
De Meren,17,,,9258GM,Jistrum,Tytsjerksteradiel,Friesland,VBO,6.068312,53.215312
De Meren,17,,,9258GM,Jistrum,Tytsjerksteradiel,Friesland,VBO,6.068328,53.215351
De Meren,18,,,9258GM,Jistrum,Tytsjerksteradiel,Friesland,VBO,6.070020,53.219160
De Meren,19,,,9258GM,Jistrum,Tytsjerksteradiel,Friesland,VBO,6.068064,53.215703
De Meren,21,,,9258GM,Jistrum,Tytsjerksteradiel,Friesland,VBO,6.067473,53.216227
De Meren,23,A,,9258GM,Jistrum,Tytsjerksteradiel,Friesland,VBO,6.067174,53.217154
De Meren,23,,,9258GM,Jistrum,Tytsjerksteradiel,Friesland,VBO,6.067049,53.216814
De Meren,25,,,9258GM,Jistrum,Tytsjerksteradiel,Friesland,VBO,6.068736,53.218475
Tillewei,1,A,,9258GN,Jistrum,Tytsjerksteradiel,Friesland,VBO,6.071991,53.212054
Tillewei,1,A,,9258GN,Jistrum,Tytsjerksteradiel,Friesland,VBO,6.072009,53.211834
Tillewei,1,,,9258GN,Jistrum,Tytsjerksteradiel,Friesland,VBO,6.068398,53.212196
Tillewei,2,,,9258GN,Jistrum,Tytsjerksteradiel,Friesland,VBO,6.067617,53.212039
Tillewei,3,,,9258GN,Jistrum,Tytsjerksteradiel,Friesland,VBO,6.072615,53.211948
Tillewei,5,,,9258GN,Jistrum,Tytsjerksteradiel,Friesland,VBO,6.073171,53.212034
Tillewei,6,A,,9258GN,Jistrum,Tytsjerksteradiel,Friesland,VBO,6.068525,53.211710
Tillewei,6,B,,9258GN,Jistrum,Tytsjerksteradiel,Friesland,VBO,6.069065,53.211770
Tillewei,6,C,,9258GN,Jistrum,Tytsjerksteradiel,Friesland,VBO,6.069409,53.211786
Tillewei,6,,,9258GN,Jistrum,Tytsjerksteradiel,Friesland,VBO,6.068004,53.211920
Tillewei,7,A,,9258GN,Jistrum,Tytsjerksteradiel,Friesland,VBO,6.073877,53.212210
Tillewei,7,B,,9258GN,Jistrum,Tytsjerksteradiel,Friesland,VBO,6.074132,53.212271
Tillewei,7,,,9258GN,Jistrum,Tytsjerksteradiel,Friesland,VBO,6.073411,53.212078
Tillewei,8,A,,9258GN,Jistrum,Tytsjerksteradiel,Friesland,VBO,6.070991,53.211463
Tillewei,8,,,9258GN,Jistrum,Tytsjerksteradiel,Friesland,VBO,6.070036,53.211630
Tillewei,9,,,9258GN,Jistrum,Tytsjerksteradiel,Friesland,VBO,6.074582,53.212314
Tillewei,10,,,9258GN,Jistrum,Tytsjerksteradiel,Friesland,VBO,6.072549,53.211517
Tillewei,11,A,,9258GN,Jistrum,Tytsjerksteradiel,Friesland,VBO,6.074955,53.212462
Tillewei,11,,,9258GN,Jistrum,Tytsjerksteradiel,Friesland,VBO,6.075092,53.212410
Tillewei,12,,,9258GN,Jistrum,Tytsjerksteradiel,Friesland,VBO,6.076498,53.212285
Tillewei,13,,,9258GN,Jistrum,Tytsjerksteradiel,Friesland,VBO,6.076158,53.212610
Tillewei,14,,,9258GN,Jistrum,Tytsjerksteradiel,Friesland,VBO,6.076693,53.212356
Tillewei,16,,,9258GN,Jistrum,Tytsjerksteradiel,Friesland,VBO,6.078305,53.212068
Tillewei,15,,,9258GP,Jistrum,Tytsjerksteradiel,Friesland,VBO,6.076984,53.212776
Tillewei,17,A,,9258GP,Jistrum,Tytsjerksteradiel,Friesland,VBO,6.077436,53.212908
Tillewei,17,B,,9258GP,Jistrum,Tytsjerksteradiel,Friesland,VBO,6.077900,53.212951
Tillewei,17,,,9258GP,Jistrum,Tytsjerksteradiel,Friesland,VBO,6.077284,53.212810
Tillewei,18,A,,9258GP,Jistrum,Tytsjerksteradiel,Friesland,VBO,6.077894,53.212528
Tillewei,18,,,9258GP,Jistrum,Tytsjerksteradiel,Friesland,VBO,6.077474,53.212495
Tillewei,19,,,9258GP,Jistrum,Tytsjerksteradiel,Friesland,VBO,6.080054,53.213747
Tillewei,20,,,9258GP,Jistrum,Tytsjerksteradiel,Friesland,VBO,6.078283,53.212627
Tillewei,21,,,9258GP,Jistrum,Tytsjerksteradiel,Friesland,VBO,6.081783,53.214240
Tillewei,22,,,9258GP,Jistrum,Tytsjerksteradiel,Friesland,VBO,6.078765,53.212712
Tillewei,24,,,9258GP,Jistrum,Tytsjerksteradiel,Friesland,VBO,6.079560,53.212815
Tillewei,26,,,9258GP,Jistrum,Tytsjerksteradiel,Friesland,VBO,6.080143,53.212776
Tillewei,28,,,9258GP,Jistrum,Tytsjerksteradiel,Friesland,VBO,6.081059,53.212043
Tillewei,30,,,9258GP,Jistrum,Tytsjerksteradiel,Friesland,VBO,6.081473,53.211735
Tillewei,32,,,9258GP,Jistrum,Tytsjerksteradiel,Friesland,VBO,6.080631,53.211497
Tillewei,34,,,9258GP,Jistrum,Tytsjerksteradiel,Friesland,VBO,6.080046,53.211393
Miedwei,2,,,9258GR,Jistrum,Tytsjerksteradiel,Friesland,VBO,6.071857,53.211350
Miedwei,4,,,9258GR,Jistrum,Tytsjerksteradiel,Friesland,VBO,6.072439,53.211230
Langhof,1,,,9258GS,Jistrum,Tytsjerksteradiel,Friesland,VBO,6.069851,53.211334
Langhof,2,,,9258GS,Jistrum,Tytsjerksteradiel,Friesland,VBO,6.069271,53.211580
Langhof,3,,,9258GS,Jistrum,Tytsjerksteradiel,Friesland,VBO,6.069942,53.211361
Langhof,4,,,9258GS,Jistrum,Tytsjerksteradiel,Friesland,VBO,6.069299,53.211445
Langhof,5,,,9258GS,Jistrum,Tytsjerksteradiel,Friesland,VBO,6.070151,53.211378
Langhof,6,,,9258GS,Jistrum,Tytsjerksteradiel,Friesland,VBO,6.069312,53.211310
Langhof,7,,,9258GS,Jistrum,Tytsjerksteradiel,Friesland,VBO,6.070227,53.211413
Langhof,8,,,9258GS,Jistrum,Tytsjerksteradiel,Friesland,VBO,6.069370,53.211184
Langhof,9,,,9258GS,Jistrum,Tytsjerksteradiel,Friesland,VBO,6.070451,53.211421
Langhof,10,,,9258GS,Jistrum,Tytsjerksteradiel,Friesland,VBO,6.069864,53.210987
Langhof,11,,,9258GS,Jistrum,Tytsjerksteradiel,Friesland,VBO,6.070541,53.211420
Langhof,12,,,9258GS,Jistrum,Tytsjerksteradiel,Friesland,VBO,6.069891,53.211011
Langhof,13,,,9258GS,Jistrum,Tytsjerksteradiel,Friesland,VBO,6.070781,53.211437
Langhof,14,,,9258GS,Jistrum,Tytsjerksteradiel,Friesland,VBO,6.069936,53.211037
Langhof,16,,,9258GS,Jistrum,Tytsjerksteradiel,Friesland,VBO,6.069997,53.211055
Langhof,18,,,9258GS,Jistrum,Tytsjerksteradiel,Friesland,VBO,6.070042,53.211082
Langhof,20,,,9258GS,Jistrum,Tytsjerksteradiel,Friesland,VBO,6.070582,53.211177
Langhof,22,,,9258GS,Jistrum,Tytsjerksteradiel,Friesland,VBO,6.070717,53.211186
Langhof,24,,,9258GS,Jistrum,Tytsjerksteradiel,Friesland,VBO,6.070852,53.211194
Langhof,26,,,9258GS,Jistrum,Tytsjerksteradiel,Friesland,VBO,6.070972,53.211202
Langhof,28,,,9258GS,Jistrum,Tytsjerksteradiel,Friesland,VBO,6.070461,53.211052
Langhof,30,,,9258GS,Jistrum,Tytsjerksteradiel,Friesland,VBO,6.070400,53.211035
Langhof,32,,,9258GS,Jistrum,Tytsjerksteradiel,Friesland,VBO,6.070325,53.211026
Langhof,34,,,9258GS,Jistrum,Tytsjerksteradiel,Friesland,VBO,6.070250,53.211018
Langhof,36,,,9258GS,Jistrum,Tytsjerksteradiel,Friesland,VBO,6.070190,53.211009
Langhof,38,,,9258GS,Jistrum,Tytsjerksteradiel,Friesland,VBO,6.070055,53.210974
Langhof,40,,,9258GS,Jistrum,Tytsjerksteradiel,Friesland,VBO,6.069965,53.210929
Jisteboerewei,9,,,9258GT,Jistrum,Tytsjerksteradiel,Friesland,VBO,6.073200,53.210120
