openbareruimtenaam,huisnummer,huisletter,huisnummertoevoeging,postcode,woonplaatsnaam,gemeentenaam,provincienaam,typeadresseerbaarobject,longitude,latitude
Brink,1,A,,9331AA,Norg,Noordenveld,Drenthe,VBO,6.461174,53.067663
Brink,1,B,,9331AA,Norg,Noordenveld,Drenthe,VBO,6.461263,53.067666
Brink,1,C,,9331AA,Norg,Noordenveld,Drenthe,VBO,6.461324,53.067668
Brink,1,D,,9331AA,Norg,Noordenveld,Drenthe,VBO,6.461384,53.067663
Brink,1,E,,9331AA,Norg,Noordenveld,Drenthe,VBO,6.461479,53.067665
Brink,1,F,,9331AA,Norg,Noordenveld,Drenthe,VBO,6.461178,53.067615
Brink,1,G,,9331AA,Norg,Noordenveld,Drenthe,VBO,6.461265,53.067615
Brink,1,H,,9331AA,Norg,Noordenveld,Drenthe,VBO,6.461347,53.067615
Brink,1,J,,9331AA,Norg,Noordenveld,Drenthe,VBO,6.461434,53.067618
Brink,1,K,,9331AA,Norg,Noordenveld,Drenthe,VBO,6.461533,53.067618
Brink,1,L,,9331AA,Norg,Noordenveld,Drenthe,VBO,6.461176,53.067579
Brink,1,M,,9331AA,Norg,Noordenveld,Drenthe,VBO,6.461262,53.067578
Brink,1,N,,9331AA,Norg,Noordenveld,Drenthe,VBO,6.461344,53.067578
Brink,1,P,,9331AA,Norg,Noordenveld,Drenthe,VBO,6.461433,53.067579
Brink,1,Q,,9331AA,Norg,Noordenveld,Drenthe,VBO,6.461533,53.067579
Brink,1,R,,9331AA,Norg,Noordenveld,Drenthe,VBO,6.461173,53.067543
Brink,1,S,,9331AA,Norg,Noordenveld,Drenthe,VBO,6.461262,53.067544
Brink,1,U,,9331AA,Norg,Noordenveld,Drenthe,VBO,6.461347,53.067548
Brink,1,V,,9331AA,Norg,Noordenveld,Drenthe,VBO,6.461433,53.067551
Brink,1,W,,9331AA,Norg,Noordenveld,Drenthe,VBO,6.461534,53.067549
Brink,1,Y,,9331AA,Norg,Noordenveld,Drenthe,VBO,6.461168,53.067510
Brink,1,,,9331AA,Norg,Noordenveld,Drenthe,VBO,6.461402,53.067199
Brink,2,,,9331AA,Norg,Noordenveld,Drenthe,VBO,6.461271,53.066313
Brink,4,A,,9331AA,Norg,Noordenveld,Drenthe,VBO,6.460809,53.066540
Brink,4,,,9331AA,Norg,Noordenveld,Drenthe,VBO,6.460734,53.066541
Brink,5,A,,9331AA,Norg,Noordenveld,Drenthe,VBO,6.460554,53.066498
Brink,5,,,9331AA,Norg,Noordenveld,Drenthe,VBO,6.460569,53.066480
Brink,6,,,9331AA,Norg,Noordenveld,Drenthe,VBO,6.460300,53.066491
Brink,7,,,9331AA,Norg,Noordenveld,Drenthe,VBO,6.459852,53.066441
Brink,8,A,,9331AA,Norg,Noordenveld,Drenthe,VBO,6.459674,53.066497
Brink,8,B,,9331AA,Norg,Noordenveld,Drenthe,VBO,6.459705,53.066550
Brink,8,C,,9331AA,Norg,Noordenveld,Drenthe,VBO,6.459711,53.066601
Brink,8,D,,9331AA,Norg,Noordenveld,Drenthe,VBO,6.459724,53.066518
Brink,8,E,,9331AA,Norg,Noordenveld,Drenthe,VBO,6.459750,53.066551
Brink,8,,,9331AA,Norg,Noordenveld,Drenthe,VBO,6.459624,53.066399
Brink,9,A,,9331AA,Norg,Noordenveld,Drenthe,VBO,6.459539,53.066471
Brink,9,,,9331AA,Norg,Noordenveld,Drenthe,VBO,6.459464,53.066471
Brink,10,,,9331AB,Norg,Noordenveld,Drenthe,VBO,6.459218,53.066168
Brink,11,,,9331AB,Norg,Noordenveld,Drenthe,VBO,6.459394,53.066050
Brink,12,,,9331AB,Norg,Noordenveld,Drenthe,VBO,6.459393,53.066005
Brink,13,,,9331AB,Norg,Noordenveld,Drenthe,VBO,6.459392,53.065951
Brink,14,A,,9331AB,Norg,Noordenveld,Drenthe,VBO,6.459328,53.065496
Brink,14,,,9331AB,Norg,Noordenveld,Drenthe,VBO,6.459358,53.065448
Brink,16,A,,9331AB,Norg,Noordenveld,Drenthe,VBO,6.460366,53.065862
Brink,16,,,9331AB,Norg,Noordenveld,Drenthe,VBO,6.460337,53.065935
Brink,17,,,9331AB,Norg,Noordenveld,Drenthe,VBO,6.460431,53.065950
Brink,18,A,,9331AB,Norg,Noordenveld,Drenthe,VBO,6.460735,53.065957
Brink,18,,,9331AB,Norg,Noordenveld,Drenthe,VBO,6.460675,53.065957
Brink,19,,,9331AB,Norg,Noordenveld,Drenthe,VBO,6.460825,53.066001
Brink,21,A,,9331AB,Norg,Noordenveld,Drenthe,VBO,6.461557,53.066030
Brink,21,,,9331AB,Norg,Noordenveld,Drenthe,VBO,6.461312,53.066005
Kerkpad,2,,,9331AC,Norg,Noordenveld,Drenthe,VBO,6.460486,53.067352
Kerkpad,4,,,9331AC,Norg,Noordenveld,Drenthe,VBO,6.459533,53.071516
Kerkpad,7,,,9331AC,Norg,Noordenveld,Drenthe,VBO,6.460743,53.066802
Kerkpad,9,,,9331AC,Norg,Noordenveld,Drenthe,VBO,6.460270,53.067066
Kerkpad,10,,,9331AC,Norg,Noordenveld,Drenthe,VBO,6.457781,53.072633
Kerkpad,12,,,9331AC,Norg,Noordenveld,Drenthe,VBO,6.457409,53.073305
Achter de Kerk,1,A,,9331AD,Norg,Noordenveld,Drenthe,VBO,6.461981,53.066607
Achter de Kerk,1,,,9331AD,Norg,Noordenveld,Drenthe,VBO,6.461955,53.066449
Achter de Kerk,3,A,,9331AD,Norg,Noordenveld,Drenthe,VBO,6.462024,53.066224
Achter de Kerk,3,,,9331AD,Norg,Noordenveld,Drenthe,VBO,6.462051,53.066132
Brinkhofweide,2,,,9331AD,Norg,Noordenveld,Drenthe,VBO,6.462596,53.067300
Brinkhofweide,4,,,9331AD,Norg,Noordenveld,Drenthe,VBO,6.462607,53.067222
Brinkhofweide,6,,,9331AD,Norg,Noordenveld,Drenthe,VBO,6.463098,53.067409
Oosteind,9,,,9331AE,Norg,Noordenveld,Drenthe,VBO,6.462310,53.066931
Oosteind,11,A,,9331AE,Norg,Noordenveld,Drenthe,VBO,6.462697,53.066918
Oosteind,11,B,,9331AE,Norg,Noordenveld,Drenthe,VBO,6.462752,53.066973
Oosteind,11,,,9331AE,Norg,Noordenveld,Drenthe,VBO,6.462616,53.066905
Oosteind,13,A,,9331AE,Norg,Noordenveld,Drenthe,VBO,6.463042,53.066978
Oosteind,13,,,9331AE,Norg,Noordenveld,Drenthe,VBO,6.462969,53.067015
Oosteind,15,,,9331AE,Norg,Noordenveld,Drenthe,VBO,6.463223,53.067049
Oosteind,17,,BEDR,9331AE,Norg,Noordenveld,Drenthe,VBO,6.463491,53.066994
Oosteind,17,,,9331AE,Norg,Noordenveld,Drenthe,VBO,6.463427,53.067031
Oosteind,19,,,9331AE,Norg,Noordenveld,Drenthe,VBO,6.463566,53.067037
Oosteind,21,,,9331AE,Norg,Noordenveld,Drenthe,VBO,6.463686,53.067045
Oosteind,23,,,9331AE,Norg,Noordenveld,Drenthe,VBO,6.463791,53.067062
Oosteind,25,,,9331AE,Norg,Noordenveld,Drenthe,VBO,6.463955,53.067087
Oosteind,29,A,,9331AG,Norg,Noordenveld,Drenthe,VBO,6.464778,53.067284
Oosteind,29,,,9331AG,Norg,Noordenveld,Drenthe,VBO,6.464810,53.067239
Oosteind,33,,,9331AG,Norg,Noordenveld,Drenthe,VBO,6.465052,53.067365
Oosteind,35,A,,9331AG,Norg,Noordenveld,Drenthe,VBO,6.465368,53.067478
Oosteind,35,,,9331AG,Norg,Noordenveld,Drenthe,VBO,6.465309,53.067515
Oosteind,37,,,9331AG,Norg,Noordenveld,Drenthe,VBO,6.465782,53.067924
Oosteind,39,,,9331AG,Norg,Noordenveld,Drenthe,VBO,6.466497,53.067882
Oosteind,41,,,9331AG,Norg,Noordenveld,Drenthe,VBO,6.466842,53.067978
Oosteind,43,,,9331AG,Norg,Noordenveld,Drenthe,VBO,6.467009,53.068075
Oosteind,2,,,9331AH,Norg,Noordenveld,Drenthe,VBO,6.462041,53.066626
Oosteind,6,,,9331AH,Norg,Noordenveld,Drenthe,VBO,6.462531,53.066487
Oosteind,8,,,9331AH,Norg,Noordenveld,Drenthe,VBO,6.462523,53.066609
Oosteind,10,A,,9331AH,Norg,Noordenveld,Drenthe,VBO,6.463003,53.066700
Oosteind,10,B,,9331AH,Norg,Noordenveld,Drenthe,VBO,6.463008,53.066565
Oosteind,10,,,9331AH,Norg,Noordenveld,Drenthe,VBO,6.462812,53.066693
Oosteind,12,A,,9331AH,Norg,Noordenveld,Drenthe,VBO,6.463591,53.066722
Oosteind,12,,,9331AH,Norg,Noordenveld,Drenthe,VBO,6.463487,53.066655
Oosteind,14,,,9331AH,Norg,Noordenveld,Drenthe,VBO,6.463563,53.066753
Oosteind,16,B,,9331AH,Norg,Noordenveld,Drenthe,VBO,6.463689,53.066785
Oosteind,16,,,9331AH,Norg,Noordenveld,Drenthe,VBO,6.463768,53.066747
Oosteind,18,,,9331AH,Norg,Noordenveld,Drenthe,VBO,6.464083,53.066825
Oosteind,20,,,9331AH,Norg,Noordenveld,Drenthe,VBO,6.464173,53.066834
Oosteind,22,,,9331AJ,Norg,Noordenveld,Drenthe,VBO,6.464338,53.066868
Oosteind,24,,,9331AJ,Norg,Noordenveld,Drenthe,VBO,6.464413,53.066876
Oosteind,26,,,9331AJ,Norg,Noordenveld,Drenthe,VBO,6.464473,53.066885
Oosteind,28,,,9331AJ,Norg,Noordenveld,Drenthe,VBO,6.464533,53.066893
Oosteind,30,A,,9331AJ,Norg,Noordenveld,Drenthe,VBO,6.466591,53.067468
Oosteind,30,,,9331AJ,Norg,Noordenveld,Drenthe,VBO,6.466395,53.067380
Oosteind,32,,,9331AJ,Norg,Noordenveld,Drenthe,VBO,6.466801,53.067538
Oosteind,34,,,9331AJ,Norg,Noordenveld,Drenthe,VBO,6.466968,53.067626
Oosteind,36,,,9331AJ,Norg,Noordenveld,Drenthe,VBO,6.467313,53.067695
Roeghoornweg,1,,,9331AK,Norg,Noordenveld,Drenthe,VBO,6.465319,53.067621
Oosterstraat,1,,,9331AL,Norg,Noordenveld,Drenthe,VBO,6.464155,53.066726
Oosterstraat,2,A,,9331AL,Norg,Noordenveld,Drenthe,VBO,6.463838,53.066549
Oosterstraat,2,,,9331AL,Norg,Noordenveld,Drenthe,VBO,6.463895,53.066441
Oosterstraat,4,,,9331AL,Norg,Noordenveld,Drenthe,VBO,6.463996,53.066314
Pompstraat,3,,,9331AM,Norg,Noordenveld,Drenthe,VBO,6.460813,53.065498
Pompstraat,5,A,,9331AM,Norg,Noordenveld,Drenthe,VBO,6.461102,53.065575
Pompstraat,5,B,,9331AM,Norg,Noordenveld,Drenthe,VBO,6.461078,53.065556
Pompstraat,5,,,9331AM,Norg,Noordenveld,Drenthe,VBO,6.461098,53.065528
Pompstraat,7,,,9331AM,Norg,Noordenveld,Drenthe,VBO,6.461413,53.065645
Pompstraat,11,,,9331AM,Norg,Noordenveld,Drenthe,VBO,6.462765,53.065992
Pompstraat,13,,,9331AM,Norg,Noordenveld,Drenthe,VBO,6.463065,53.066089
Pompstraat,15,,,9331AM,Norg,Noordenveld,Drenthe,VBO,6.463155,53.066106
Pompstraat,17,,,9331AM,Norg,Noordenveld,Drenthe,VBO,6.463380,53.066149
Pompstraat,19,A,,9331AM,Norg,Noordenveld,Drenthe,VBO,6.463635,53.066200
Pompstraat,19,,,9331AM,Norg,Noordenveld,Drenthe,VBO,6.463545,53.066183
Pompstraat,21,,,9331AM,Norg,Noordenveld,Drenthe,VBO,6.463770,53.066244
Pompstraat,23,,,9331AM,Norg,Noordenveld,Drenthe,VBO,6.463846,53.066261
Pompstraat,35,,,9331AM,Norg,Noordenveld,Drenthe,VBO,6.465365,53.066409
Pompstraat,2,A,,9331AN,Norg,Noordenveld,Drenthe,VBO,6.461152,53.065315
Pompstraat,2,,,9331AN,Norg,Noordenveld,Drenthe,VBO,6.460759,53.065282
Pompstraat,4,,,9331AN,Norg,Noordenveld,Drenthe,VBO,6.461511,53.065384
Pompstraat,6,,,9331AN,Norg,Noordenveld,Drenthe,VBO,6.461964,53.065604
Pompstraat,12,,,9331AN,Norg,Noordenveld,Drenthe,VBO,6.463030,53.065864
Pompstraat,14,A,,9331AN,Norg,Noordenveld,Drenthe,VBO,6.463255,53.065907
Pompstraat,14,,,9331AN,Norg,Noordenveld,Drenthe,VBO,6.463375,53.065933
Pompstraat,16,,,9331AN,Norg,Noordenveld,Drenthe,VBO,6.463585,53.065976
Pompstraat,18,A,,9331AN,Norg,Noordenveld,Drenthe,VBO,6.463889,53.066074
Pompstraat,18,,,9331AN,Norg,Noordenveld,Drenthe,VBO,6.463743,53.066039
Pompstraat,20,A,,9331AN,Norg,Noordenveld,Drenthe,VBO,6.464239,53.065790
Pompstraat,20,,,9331AN,Norg,Noordenveld,Drenthe,VBO,6.464200,53.066105
Pompstraat,22,A,,9331AN,Norg,Noordenveld,Drenthe,VBO,6.465385,53.066237
Pompstraat,22,B,,9331AN,Norg,Noordenveld,Drenthe,VBO,6.465455,53.066137
Pompstraat,22,,,9331AN,Norg,Noordenveld,Drenthe,VBO,6.465202,53.066204
Pompstraat,24,,BEDR,9331AN,Norg,Noordenveld,Drenthe,VBO,6.465538,53.066259
Pompstraat,24,,,9331AN,Norg,Noordenveld,Drenthe,VBO,6.465709,53.066274
Esweg,5,,,9331AP,Norg,Noordenveld,Drenthe,VBO,6.462578,53.063262
Esweg,7,,,9331AP,Norg,Noordenveld,Drenthe,VBO,6.463018,53.063591
Esweg,9,,,9331AP,Norg,Noordenveld,Drenthe,VBO,6.463201,53.063724
Esweg,11,,,9331AP,Norg,Noordenveld,Drenthe,VBO,6.463261,53.063773
Esweg,23,,,9331AP,Norg,Noordenveld,Drenthe,VBO,6.464140,53.064291
Esweg,25,,,9331AP,Norg,Noordenveld,Drenthe,VBO,6.464881,53.065317
Esweg,29,,,9331AP,Norg,Noordenveld,Drenthe,VBO,6.464991,53.065523
Esweg,33,,,9331AP,Norg,Noordenveld,Drenthe,VBO,6.464661,53.066038
Esweg,2,A,,9331AR,Norg,Noordenveld,Drenthe,VBO,6.462740,53.062930
Esweg,2,B,,9331AR,Norg,Noordenveld,Drenthe,VBO,6.462889,53.063020
Esweg,2,C,,9331AR,Norg,Noordenveld,Drenthe,VBO,6.462950,53.063068
Esweg,2,D,,9331AR,Norg,Noordenveld,Drenthe,VBO,6.463087,53.063167
Esweg,2,E,,9331AR,Norg,Noordenveld,Drenthe,VBO,6.463163,53.063226
Esweg,2,,,9331AR,Norg,Noordenveld,Drenthe,VBO,6.462667,53.062879
Esweg,4,A,,9331AR,Norg,Noordenveld,Drenthe,VBO,6.463394,53.063474
Esweg,4,B,,9331AR,Norg,Noordenveld,Drenthe,VBO,6.463458,53.063526
Esweg,4,,,9331AR,Norg,Noordenveld,Drenthe,VBO,6.463343,53.063415
Esweg,6,A,,9331AR,Norg,Noordenveld,Drenthe,VBO,6.463637,53.063679
Esweg,6,B,,9331AR,Norg,Noordenveld,Drenthe,VBO,6.463710,53.063735
Esweg,6,,,9331AR,Norg,Noordenveld,Drenthe,VBO,6.463579,53.063627
Esweg,8,A,,9331AR,Norg,Noordenveld,Drenthe,VBO,6.464050,53.063948
Esweg,8,B,,9331AR,Norg,Noordenveld,Drenthe,VBO,6.464126,53.063995
Esweg,8,C,,9331AR,Norg,Noordenveld,Drenthe,VBO,6.464281,53.064087
Esweg,8,D,,9331AR,Norg,Noordenveld,Drenthe,VBO,6.464357,53.064130
Esweg,8,E,,9331AR,Norg,Noordenveld,Drenthe,VBO,6.464443,53.064173
Esweg,8,,,9331AR,Norg,Noordenveld,Drenthe,VBO,6.463974,53.063902
Esweg,10,,,9331AR,Norg,Noordenveld,Drenthe,VBO,6.464770,53.064447
Esweg,12,,,9331AR,Norg,Noordenveld,Drenthe,VBO,6.465118,53.064614
Esweg,14,,,9331AR,Norg,Noordenveld,Drenthe,VBO,6.465302,53.064837
Esweg,16,A,,9331AR,Norg,Noordenveld,Drenthe,VBO,6.465494,53.065339
Esweg,16,B,,9331AR,Norg,Noordenveld,Drenthe,VBO,6.465306,53.065592
Esweg,16,,,9331AR,Norg,Noordenveld,Drenthe,VBO,6.465476,53.065249
Esweg,18,,,9331AR,Norg,Noordenveld,Drenthe,VBO,6.465061,53.065945
Vreding,2,,,9331AS,Norg,Noordenveld,Drenthe,VBO,6.464710,53.063997
Vreding,4,,,9331AS,Norg,Noordenveld,Drenthe,VBO,6.464781,53.063942
Vreding,6,,,9331AS,Norg,Noordenveld,Drenthe,VBO,6.464903,53.063848
Vreding,8,,,9331AS,Norg,Noordenveld,Drenthe,VBO,6.464971,53.063793
Vreding,10,,,9331AS,Norg,Noordenveld,Drenthe,VBO,6.465048,53.063740
Steeg,1,,,9331AT,Norg,Noordenveld,Drenthe,VBO,6.463540,53.065365
Steeg,2,,,9331AT,Norg,Noordenveld,Drenthe,VBO,6.463579,53.065158
Steeg,4,,,9331AT,Norg,Noordenveld,Drenthe,VBO,6.463862,53.065111
Steeg,6,,,9331AT,Norg,Noordenveld,Drenthe,VBO,6.464128,53.065028
Steeg,8,,,9331AT,Norg,Noordenveld,Drenthe,VBO,6.464364,53.064918
Steeg,10,,,9331AT,Norg,Noordenveld,Drenthe,VBO,6.464626,53.064664
Schoolstraat,1,A,,9331AV,Norg,Noordenveld,Drenthe,VBO,6.461400,53.064209
Schoolstraat,1,,,9331AV,Norg,Noordenveld,Drenthe,VBO,6.461641,53.064583
Schoolstraat,3,,,9331AV,Norg,Noordenveld,Drenthe,VBO,6.462348,53.064846
Schoolstraat,4,,,9331AV,Norg,Noordenveld,Drenthe,VBO,6.463156,53.064938
Schoolstraat,5,,,9331AV,Norg,Noordenveld,Drenthe,VBO,6.462703,53.065091
Schoolstraat,7,,,9331AV,Norg,Noordenveld,Drenthe,VBO,6.462085,53.065452
Schoolpad,2,,,9331AW,Norg,Noordenveld,Drenthe,VBO,6.462223,53.063984
Schoolpad,4,,,9331AW,Norg,Noordenveld,Drenthe,VBO,6.462313,53.064019
Schoolpad,6,,,9331AW,Norg,Noordenveld,Drenthe,VBO,6.462508,53.064072
Schoolpad,8,,,9331AW,Norg,Noordenveld,Drenthe,VBO,6.462583,53.064098
Schoolpad,10,,,9331AW,Norg,Noordenveld,Drenthe,VBO,6.462659,53.064133
Schoolpad,12,,,9331AW,Norg,Noordenveld,Drenthe,VBO,6.462749,53.064159
Schoolpad,14,,,9331AW,Norg,Noordenveld,Drenthe,VBO,6.462871,53.064257
Schoolpad,16,,,9331AW,Norg,Noordenveld,Drenthe,VBO,6.462961,53.064301
Dorpshuisstraat,1,,,9331AX,Norg,Noordenveld,Drenthe,VBO,6.463031,53.064705
Dorpshuisstraat,2,,,9331AX,Norg,Noordenveld,Drenthe,VBO,6.463414,53.063902
Dorpshuisstraat,3,,,9331AX,Norg,Noordenveld,Drenthe,VBO,6.463175,53.064497
Dorpshuisstraat,4,,,9331AX,Norg,Noordenveld,Drenthe,VBO,6.463959,53.063560
Dorpshuisstraat,5,,,9331AX,Norg,Noordenveld,Drenthe,VBO,6.463234,53.064461
Dorpshuisstraat,6,,,9331AX,Norg,Noordenveld,Drenthe,VBO,6.464042,53.063519
Dorpshuisstraat,7,,,9331AX,Norg,Noordenveld,Drenthe,VBO,6.463292,53.064415
Dorpshuisstraat,8,,,9331AX,Norg,Noordenveld,Drenthe,VBO,6.464181,53.063430
Dorpshuisstraat,9,,,9331AX,Norg,Noordenveld,Drenthe,VBO,6.463336,53.064379
Dorpshuisstraat,10,,,9331AX,Norg,Noordenveld,Drenthe,VBO,6.464261,53.063380
Dorpshuisstraat,11,,,9331AX,Norg,Noordenveld,Drenthe,VBO,6.463438,53.064270
Dorpshuisstraat,12,,,9331AX,Norg,Noordenveld,Drenthe,VBO,6.464331,53.063336
Dorpshuisstraat,13,,,9331AX,Norg,Noordenveld,Drenthe,VBO,6.463496,53.064216
Dorpshuisstraat,15,,,9331AX,Norg,Noordenveld,Drenthe,VBO,6.463639,53.064129
Dorpshuisstraat,17,,,9331AX,Norg,Noordenveld,Drenthe,VBO,6.463706,53.064078
Dorpshuisstraat,19,,,9331AX,Norg,Noordenveld,Drenthe,VBO,6.464209,53.063755
Dorpshuisstraat,21,,,9331AX,Norg,Noordenveld,Drenthe,VBO,6.464296,53.063708
Dorpshuisstraat,23,,,9331AX,Norg,Noordenveld,Drenthe,VBO,6.464378,53.063656
Dorpshuisstraat,25,,,9331AX,Norg,Noordenveld,Drenthe,VBO,6.464511,53.063567
Dorpshuisstraat,27,,,9331AX,Norg,Noordenveld,Drenthe,VBO,6.464598,53.063520
Hekakkerstraat,1,,,9331AZ,Norg,Noordenveld,Drenthe,VBO,6.463637,53.063314
Hekakkerstraat,2,,,9331AZ,Norg,Noordenveld,Drenthe,VBO,6.461627,53.064035
Hekakkerstraat,3,,,9331AZ,Norg,Noordenveld,Drenthe,VBO,6.463727,53.063277
Hekakkerstraat,4,,,9331AZ,Norg,Noordenveld,Drenthe,VBO,6.461774,53.063934
Hekakkerstraat,5,,,9331AZ,Norg,Noordenveld,Drenthe,VBO,6.463807,53.063232
Hekakkerstraat,6,,,9331AZ,Norg,Noordenveld,Drenthe,VBO,6.461950,53.063816
Hekakkerstraat,7,,,9331AZ,Norg,Noordenveld,Drenthe,VBO,6.463958,53.063157
Hekakkerstraat,8,,,9331AZ,Norg,Noordenveld,Drenthe,VBO,6.462082,53.063734
Hekakkerstraat,9,,,9331AZ,Norg,Noordenveld,Drenthe,VBO,6.464045,53.063118
Hekakkerstraat,10,,,9331AZ,Norg,Noordenveld,Drenthe,VBO,6.462333,53.063606
Hekakkerstraat,12,,,9331AZ,Norg,Noordenveld,Drenthe,VBO,6.462790,53.063395
Hekakkerstraat,14,,,9331AZ,Norg,Noordenveld,Drenthe,VBO,6.463416,53.063084
Hekakkerstraat,16,,,9331AZ,Norg,Noordenveld,Drenthe,VBO,6.463512,53.063048
Hekakkerstraat,18,,,9331AZ,Norg,Noordenveld,Drenthe,VBO,6.463672,53.062965
Hekakkerstraat,20,,,9331AZ,Norg,Noordenveld,Drenthe,VBO,6.463747,53.062925
Reeweg,1,,,9331BA,Norg,Noordenveld,Drenthe,VBO,6.461008,53.063726
Reeweg,2,,,9331BA,Norg,Noordenveld,Drenthe,VBO,6.460839,53.063520
Reeweg,3,,,9331BA,Norg,Noordenveld,Drenthe,VBO,6.461081,53.063671
Reeweg,4,,,9331BA,Norg,Noordenveld,Drenthe,VBO,6.461190,53.063248
Reeweg,5,,,9331BA,Norg,Noordenveld,Drenthe,VBO,6.461191,53.063591
Reeweg,6,A,,9331BA,Norg,Noordenveld,Drenthe,VBO,6.461424,53.063048
Reeweg,6,,,9331BA,Norg,Noordenveld,Drenthe,VBO,6.461321,53.063130
Reeweg,8,,,9331BA,Norg,Noordenveld,Drenthe,VBO,6.461554,53.062876
Reeweg,9,,,9331BA,Norg,Noordenveld,Drenthe,VBO,6.461404,53.063470
Reeweg,10,,,9331BA,Norg,Noordenveld,Drenthe,VBO,6.461820,53.062775
Reeweg,11,A,,9331BA,Norg,Noordenveld,Drenthe,VBO,6.461889,53.063152
Reeweg,11,,,9331BA,Norg,Noordenveld,Drenthe,VBO,6.461727,53.063234
Reeweg,12,,,9331BA,Norg,Noordenveld,Drenthe,VBO,6.462084,53.062593
Reeweg,13,,,9331BA,Norg,Noordenveld,Drenthe,VBO,6.462036,53.063060
Reeweg,14,,,9331BA,Norg,Noordenveld,Drenthe,VBO,6.462154,53.062421
Reeweg,15,,,9331BA,Norg,Noordenveld,Drenthe,VBO,6.462241,53.062933
Reeweg,16,,,9331BA,Norg,Noordenveld,Drenthe,VBO,6.462255,53.062277
Reeweg,17,,,9331BA,Norg,Noordenveld,Drenthe,VBO,6.462724,53.062524
Disselwand,1,,,9331BB,Norg,Noordenveld,Drenthe,VBO,6.462995,53.062749
Disselwand,3,,,9331BB,Norg,Noordenveld,Drenthe,VBO,6.463113,53.062724
Disselwand,5,,,9331BB,Norg,Noordenveld,Drenthe,VBO,6.463284,53.062672
Disselwand,7,,,9331BB,Norg,Noordenveld,Drenthe,VBO,6.463390,53.062643
Peesterstraat,1,,,9331BC,Norg,Noordenveld,Drenthe,VBO,6.465839,53.067214
Peesterstraat,2,,,9331BC,Norg,Noordenveld,Drenthe,VBO,6.464682,53.066892
Peesterstraat,3,,,9331BC,Norg,Noordenveld,Drenthe,VBO,6.465865,53.067097
Peesterstraat,4,,,9331BC,Norg,Noordenveld,Drenthe,VBO,6.464846,53.066881
Peesterstraat,5,,,9331BC,Norg,Noordenveld,Drenthe,VBO,6.466100,53.066915
Peesterstraat,6,A,,9331BC,Norg,Noordenveld,Drenthe,VBO,6.465718,53.066586
Peesterstraat,6,,,9331BC,Norg,Noordenveld,Drenthe,VBO,6.465128,53.066852
Peesterstraat,7,,,9331BC,Norg,Noordenveld,Drenthe,VBO,6.468272,53.066069
Peesterstraat,8,A,,9331BC,Norg,Noordenveld,Drenthe,VBO,6.466368,53.066293
Peesterstraat,8,B,,9331BC,Norg,Noordenveld,Drenthe,VBO,6.466441,53.066256
Peesterstraat,8,,,9331BC,Norg,Noordenveld,Drenthe,VBO,6.465593,53.066466
Peesterstraat,9,,,9331BC,Norg,Noordenveld,Drenthe,VBO,6.468474,53.065797
Peesterstraat,10,,,9331BC,Norg,Noordenveld,Drenthe,VBO,6.466617,53.066111
Peesterstraat,11,,,9331BC,Norg,Noordenveld,Drenthe,VBO,6.474137,53.063834
Peesterstraat,12,,,9331BC,Norg,Noordenveld,Drenthe,VBO,6.466956,53.065955
Peesterstraat,13,,,9331BC,Norg,Noordenveld,Drenthe,VBO,6.475621,53.063449
Peesterstraat,14,,,9331BC,Norg,Noordenveld,Drenthe,VBO,6.467368,53.065726
Peesterstraat,16,,,9331BC,Norg,Noordenveld,Drenthe,VBO,6.467986,53.065370
Peesterstraat,18,,,9331BC,Norg,Noordenveld,Drenthe,VBO,6.468414,53.065205
Peesterstraat,20,,,9331BC,Norg,Noordenveld,Drenthe,VBO,6.468710,53.065103
Peesterstraat,22,,,9331BC,Norg,Noordenveld,Drenthe,VBO,6.469077,53.064875
Eerste Laan,1,,,9331BD,Norg,Noordenveld,Drenthe,VBO,6.466617,53.066713
Eerste Laan,2,,,9331BD,Norg,Noordenveld,Drenthe,VBO,6.468088,53.066493
Eerste Laan,3,,,9331BD,Norg,Noordenveld,Drenthe,VBO,6.466992,53.066790
Eerste Laan,4,,,9331BD,Norg,Noordenveld,Drenthe,VBO,6.468597,53.066542
Eerste Laan,8,,,9331BD,Norg,Noordenveld,Drenthe,VBO,6.469675,53.066721
Eerste Laan,10,,,9331BD,Norg,Noordenveld,Drenthe,VBO,6.470155,53.066789
Eerste Laan,12,,,9331BD,Norg,Noordenveld,Drenthe,VBO,6.470634,53.066856
Eerste Laan,14,,,9331BD,Norg,Noordenveld,Drenthe,VBO,6.471068,53.066924
Eerste Laan,16,,,9331BD,Norg,Noordenveld,Drenthe,VBO,6.471906,53.067024
Ettenlaan,1,,,9331BE,Norg,Noordenveld,Drenthe,VBO,6.468041,53.066969
Ettenlaan,2,,,9331BE,Norg,Noordenveld,Drenthe,VBO,6.468499,53.067406
Ettenlaan,3,,,9331BE,Norg,Noordenveld,Drenthe,VBO,6.467972,53.067222
Ettenlaan,4,,,9331BE,Norg,Noordenveld,Drenthe,VBO,6.468489,53.067594
Ettenlaan,5,,,9331BE,Norg,Noordenveld,Drenthe,VBO,6.467904,53.067474
Ettenlaan,6,,,9331BE,Norg,Noordenveld,Drenthe,VBO,6.468939,53.067707
Ettenlaan,7,,,9331BE,Norg,Noordenveld,Drenthe,VBO,6.467792,53.067771
Ettenlaan,8,,,9331BE,Norg,Noordenveld,Drenthe,VBO,6.469390,53.067820
Ettenlaan,9,,,9331BE,Norg,Noordenveld,Drenthe,VBO,6.468243,53.067893
Ettenlaan,10,,,9331BE,Norg,Noordenveld,Drenthe,VBO,6.469870,53.067950
Ettenlaan,11,,,9331BE,Norg,Noordenveld,Drenthe,VBO,6.468603,53.068007
Ettenlaan,12,,,9331BE,Norg,Noordenveld,Drenthe,VBO,6.470276,53.068064
Ettenlaan,13,,,9331BE,Norg,Noordenveld,Drenthe,VBO,6.468995,53.068138
Ettenlaan,15,,,9331BE,Norg,Noordenveld,Drenthe,VBO,6.469356,53.068270
Ettenlaan,17,,,9331BE,Norg,Noordenveld,Drenthe,VBO,6.469821,53.068364
Ettenlaan,19,,,9331BE,Norg,Noordenveld,Drenthe,VBO,6.470241,53.068468
Drostenlaan,1,,,9331BG,Norg,Noordenveld,Drenthe,VBO,6.471117,53.068290
Drostenlaan,2,,,9331BG,Norg,Noordenveld,Drenthe,VBO,6.471799,53.067502
Drostenlaan,3,,,9331BG,Norg,Noordenveld,Drenthe,VBO,6.471493,53.068421
Drostenlaan,4,,,9331BG,Norg,Noordenveld,Drenthe,VBO,6.471731,53.067781
Drostenlaan,5,,,9331BG,Norg,Noordenveld,Drenthe,VBO,6.471380,53.068665
Drostenlaan,6,,,9331BG,Norg,Noordenveld,Drenthe,VBO,6.471723,53.068059
Schepenlaan,1,,,9331BH,Norg,Noordenveld,Drenthe,VBO,6.468979,53.067509
Schepenlaan,2,,,9331BH,Norg,Noordenveld,Drenthe,VBO,6.469524,53.067217
Schepenlaan,3,,,9331BH,Norg,Noordenveld,Drenthe,VBO,6.469428,53.067586
Schepenlaan,4,,,9331BH,Norg,Noordenveld,Drenthe,VBO,6.469928,53.067285
Schepenlaan,5,,,9331BH,Norg,Noordenveld,Drenthe,VBO,6.469818,53.067663
Schepenlaan,6,,,9331BH,Norg,Noordenveld,Drenthe,VBO,6.470348,53.067380
Schepenlaan,7,,,9331BH,Norg,Noordenveld,Drenthe,VBO,6.470283,53.067758
Schepenlaan,8,,,9331BH,Norg,Noordenveld,Drenthe,VBO,6.470858,53.067474
Schepenlaan,9,,,9331BH,Norg,Noordenveld,Drenthe,VBO,6.470643,53.067836
Tweede Laan,1,,,9331BJ,Norg,Noordenveld,Drenthe,VBO,6.469917,53.066216
Tweede Laan,3,,,9331BJ,Norg,Noordenveld,Drenthe,VBO,6.470307,53.066311
Tweede Laan,4,,,9331BJ,Norg,Noordenveld,Drenthe,VBO,6.470025,53.065783
Tweede Laan,5,,,9331BJ,Norg,Noordenveld,Drenthe,VBO,6.470726,53.066352
Tweede Laan,6,,,9331BJ,Norg,Noordenveld,Drenthe,VBO,6.470443,53.065788
Tweede Laan,7,,,9331BJ,Norg,Noordenveld,Drenthe,VBO,6.471188,53.066348
Tweede Laan,8,,,9331BJ,Norg,Noordenveld,Drenthe,VBO,6.470906,53.065829
Tweede Laan,10,,,9331BJ,Norg,Noordenveld,Drenthe,VBO,6.471341,53.065906
Volmachtenlaan,3,,,9331BK,Norg,Noordenveld,Drenthe,VBO,6.471922,53.066476
Volmachtenlaan,5,,,9331BK,Norg,Noordenveld,Drenthe,VBO,6.471999,53.065981
Volmachtenlaan,7,,,9331BK,Norg,Noordenveld,Drenthe,VBO,6.472038,53.065720
Volmachtenlaan,9,,,9331BK,Norg,Noordenveld,Drenthe,VBO,6.472045,53.065432
Volmachtenlaan,11,,,9331BK,Norg,Noordenveld,Drenthe,VBO,6.471786,53.065201
Volmachtenlaan,13,,,9331BK,Norg,Noordenveld,Drenthe,VBO,6.471380,53.065061
Volmachtenlaan,15,,,9331BK,Norg,Noordenveld,Drenthe,VBO,6.471018,53.064929
Volmachtenlaan,17,,,9331BK,Norg,Noordenveld,Drenthe,VBO,6.470452,53.064944
Volmachtenlaan,19,,,9331BK,Norg,Noordenveld,Drenthe,VBO,6.470082,53.065082
Volmachtenlaan,21,,,9331BK,Norg,Noordenveld,Drenthe,VBO,6.469728,53.065229
Volmachtenlaan,4,,,9331BL,Norg,Noordenveld,Drenthe,VBO,6.471224,53.066581
Volmachtenlaan,6,,,9331BL,Norg,Noordenveld,Drenthe,VBO,6.471470,53.065698
Volmachtenlaan,8,,,9331BL,Norg,Noordenveld,Drenthe,VBO,6.471405,53.065483
Volmachtenlaan,10,,,9331BL,Norg,Noordenveld,Drenthe,VBO,6.471046,53.065424
Volmachtenlaan,12,,,9331BL,Norg,Noordenveld,Drenthe,VBO,6.470641,53.065355
Volmachtenlaan,14,,,9331BL,Norg,Noordenveld,Drenthe,VBO,6.470299,53.065412
Schultelaan,1,,,9331BM,Norg,Noordenveld,Drenthe,VBO,6.469712,53.066397
Schultelaan,2,,,9331BM,Norg,Noordenveld,Drenthe,VBO,6.469061,53.066592
Schultelaan,3,,,9331BM,Norg,Noordenveld,Drenthe,VBO,6.470020,53.065577
Schultelaan,4,,,9331BM,Norg,Noordenveld,Drenthe,VBO,6.469024,53.066322
Schultelaan,6,,,9331BM,Norg,Noordenveld,Drenthe,VBO,6.469153,53.066097
Schultelaan,8,,,9331BM,Norg,Noordenveld,Drenthe,VBO,6.469251,53.065844
Schultelaan,10,,,9331BM,Norg,Noordenveld,Drenthe,VBO,6.469183,53.065530
Groene Wegje,1,,,9331BN,Norg,Noordenveld,Drenthe,VBO,6.461797,53.062460
Groene Wegje,2,,,9331BN,Norg,Noordenveld,Drenthe,VBO,6.461318,53.062375
Groene Wegje,3,,,9331BN,Norg,Noordenveld,Drenthe,VBO,6.461707,53.062443
Groene Wegje,4,,,9331BN,Norg,Noordenveld,Drenthe,VBO,6.461374,53.062240
Groene Wegje,6,,,9331BN,Norg,Noordenveld,Drenthe,VBO,6.461088,53.062143
Groene Wegje,8,,,9331BN,Norg,Noordenveld,Drenthe,VBO,6.460983,53.062135
Groene Wegje,10,,,9331BN,Norg,Noordenveld,Drenthe,VBO,6.460803,53.062092
Groene Wegje,12,,,9331BN,Norg,Noordenveld,Drenthe,VBO,6.460713,53.062075
Groene Wegje,14,,,9331BN,Norg,Noordenveld,Drenthe,VBO,6.460504,53.062041
Groene Wegje,16,,,9331BN,Norg,Noordenveld,Drenthe,VBO,6.460159,53.061972
Groene Wegje,18,,,9331BN,Norg,Noordenveld,Drenthe,VBO,6.460260,53.061818
Donderseweg,3,B,,9331BZ,Norg,Noordenveld,Drenthe,VBO,6.469999,53.069553
Donderseweg,3,,,9331BZ,Norg,Noordenveld,Drenthe,VBO,6.470321,53.069258
Donderseweg,4,,,9331BZ,Norg,Noordenveld,Drenthe,VBO,6.470437,53.068780
Donderseweg,5,A,,9331BZ,Norg,Noordenveld,Drenthe,VBO,6.485355,53.078468
Donderseweg,5,,,9331BZ,Norg,Noordenveld,Drenthe,VBO,6.470791,53.069827
Donderseweg,6,,,9331BZ,Norg,Noordenveld,Drenthe,VBO,6.470652,53.068854
Donderseweg,8,,,9331BZ,Norg,Noordenveld,Drenthe,VBO,6.471028,53.068870
Donderseweg,10,,,9331BZ,Norg,Noordenveld,Drenthe,VBO,6.470923,53.068848
Westeind,1,,,9331CA,Norg,Noordenveld,Drenthe,VBO,6.458894,53.066324
Westeind,3,,,9331CA,Norg,Noordenveld,Drenthe,VBO,6.457744,53.066900
Westeind,5,A,,9331CA,Norg,Noordenveld,Drenthe,VBO,6.457625,53.066883
Westeind,7,A,,9331CA,Norg,Noordenveld,Drenthe,VBO,6.457206,53.067118
Westeind,7,,,9331CA,Norg,Noordenveld,Drenthe,VBO,6.457241,53.067163
Westeind,13,,,9331CA,Norg,Noordenveld,Drenthe,VBO,6.456815,53.067340
Westeind,2,A,,9331CB,Norg,Noordenveld,Drenthe,VBO,6.459290,53.066521
Westeind,2,,,9331CB,Norg,Noordenveld,Drenthe,VBO,6.459272,53.066545
Westeind,4,,,9331CB,Norg,Noordenveld,Drenthe,VBO,6.459184,53.066582
Westeind,6,,,9331CB,Norg,Noordenveld,Drenthe,VBO,6.459095,53.066628
Westeind,8,,,9331CB,Norg,Noordenveld,Drenthe,VBO,6.458624,53.066865
Westeind,10,A,,9331CB,Norg,Noordenveld,Drenthe,VBO,6.458698,53.067052
Westeind,10,,,9331CB,Norg,Noordenveld,Drenthe,VBO,6.458693,53.066968
Westeind,12,,,9331CB,Norg,Noordenveld,Drenthe,VBO,6.458418,53.066975
Westeind,14,A,,9331CB,Norg,Noordenveld,Drenthe,VBO,6.458131,53.067092
Westeind,14,,,9331CB,Norg,Noordenveld,Drenthe,VBO,6.458240,53.067058
Westeind,16,A,,9331CB,Norg,Noordenveld,Drenthe,VBO,6.457793,53.067236
Westeind,16,C,,9331CB,Norg,Noordenveld,Drenthe,VBO,6.457901,53.067368
Westeind,16,,,9331CB,Norg,Noordenveld,Drenthe,VBO,6.457932,53.067175
Westeind,18,A,,9331CB,Norg,Noordenveld,Drenthe,VBO,6.457724,53.067320
Westeind,18,B,,9331CB,Norg,Noordenveld,Drenthe,VBO,6.457908,53.067393
Westeind,18,C,,9331CB,Norg,Noordenveld,Drenthe,VBO,6.458113,53.067315
Westeind,18,D,,9331CB,Norg,Noordenveld,Drenthe,VBO,6.457971,53.067205
Westeind,18,,,9331CB,Norg,Noordenveld,Drenthe,VBO,6.457829,53.067273
Westeind,20,A,,9331CB,Norg,Noordenveld,Drenthe,VBO,6.457766,53.067353
Westeind,20,B,,9331CB,Norg,Noordenveld,Drenthe,VBO,6.457917,53.067420
Westeind,20,C,,9331CB,Norg,Noordenveld,Drenthe,VBO,6.458150,53.067359
Westeind,20,D,,9331CB,Norg,Noordenveld,Drenthe,VBO,6.458005,53.067258
Westeind,20,,,9331CB,Norg,Noordenveld,Drenthe,VBO,6.457867,53.067306
Westeind,22,,,9331CB,Norg,Noordenveld,Drenthe,VBO,6.457710,53.067716
Westeind,24,,,9331CB,Norg,Noordenveld,Drenthe,VBO,6.457121,53.067643
Westeind,26,A,,9331CB,Norg,Noordenveld,Drenthe,VBO,6.456952,53.067673
Westeind,26,,,9331CB,Norg,Noordenveld,Drenthe,VBO,6.456930,53.067770
Langeloërweg,1,A,,9331CC,Norg,Noordenveld,Drenthe,VBO,6.455846,53.068011
Langeloërweg,1,,,9331CC,Norg,Noordenveld,Drenthe,VBO,6.455998,53.067915
Langeloërweg,3,,,9331CC,Norg,Noordenveld,Drenthe,VBO,6.455705,53.068293
Langeloërweg,5,,,9331CC,Norg,Noordenveld,Drenthe,VBO,6.455604,53.068438
Langeloërweg,7,,,9331CC,Norg,Noordenveld,Drenthe,VBO,6.455503,53.068583
Langeloërweg,9,,,9331CC,Norg,Noordenveld,Drenthe,VBO,6.455373,53.068773
Langeloërweg,11,,,9331CC,Norg,Noordenveld,Drenthe,VBO,6.455258,53.068935
Langeloërweg,13,,,9331CC,Norg,Noordenveld,Drenthe,VBO,6.455083,53.069081
Langeloërweg,2,,,9331CD,Norg,Noordenveld,Drenthe,VBO,6.456579,53.068034
Langeloërweg,4,,,9331CD,Norg,Noordenveld,Drenthe,VBO,6.456522,53.068151
Langeloërweg,6,,,9331CD,Norg,Noordenveld,Drenthe,VBO,6.456465,53.068251
Langeloërweg,8,,,9331CD,Norg,Noordenveld,Drenthe,VBO,6.456364,53.068395
Langeloërweg,10,,,9331CD,Norg,Noordenveld,Drenthe,VBO,6.456335,53.068441
Langeloërweg,12,,,9331CD,Norg,Noordenveld,Drenthe,VBO,6.456340,53.068647
Langeloërweg,14,,,9331CD,Norg,Noordenveld,Drenthe,VBO,6.456106,53.068838
Langeloërweg,16,,,9331CD,Norg,Noordenveld,Drenthe,VBO,6.455871,53.068984
Langeloërweg,18,,,9331CD,Norg,Noordenveld,Drenthe,VBO,6.455799,53.069092
Langeloërweg,20,,,9331CD,Norg,Noordenveld,Drenthe,VBO,6.455599,53.069454
Kampweg,2,,,9331CE,Norg,Noordenveld,Drenthe,VBO,6.459059,53.066969
Kampweg,4,,,9331CE,Norg,Noordenveld,Drenthe,VBO,6.459779,53.067116
Kerkhofsdrift,1,,,9331CG,Norg,Noordenveld,Drenthe,VBO,6.457177,53.068101
Kerkhofsdrift,3,,,9331CG,Norg,Noordenveld,Drenthe,VBO,6.460644,53.068967
Kerkhofsdrift,5,,,9331CG,Norg,Noordenveld,Drenthe,VBO,6.461899,53.068622
Molenstraat,1,,,9331CH,Norg,Noordenveld,Drenthe,VBO,6.457567,53.068196
Molenstraat,2,,,9331CH,Norg,Noordenveld,Drenthe,VBO,6.458194,53.068208
Molenstraat,3,,,9331CH,Norg,Noordenveld,Drenthe,VBO,6.457452,53.068350
Molenstraat,4,,,9331CH,Norg,Noordenveld,Drenthe,VBO,6.458035,53.068407
Molenstraat,5,,,9331CH,Norg,Noordenveld,Drenthe,VBO,6.457322,53.068522
Molenstraat,6,,,9331CH,Norg,Noordenveld,Drenthe,VBO,6.457950,53.068588
Molenstraat,7,,,9331CH,Norg,Noordenveld,Drenthe,VBO,6.457191,53.068667
Molenstraat,8,A,,9331CH,Norg,Noordenveld,Drenthe,VBO,6.457946,53.068896
Molenstraat,8,,,9331CH,Norg,Noordenveld,Drenthe,VBO,6.457757,53.068803
Molenstraat,9,,,9331CH,Norg,Noordenveld,Drenthe,VBO,6.457045,53.068812
Molenstraat,11,,,9331CH,Norg,Noordenveld,Drenthe,VBO,6.456930,53.068974
Molenstraat,13,,,9331CH,Norg,Noordenveld,Drenthe,VBO,6.456798,53.069056
Molenstraat,15,,,9331CH,Norg,Noordenveld,Drenthe,VBO,6.456711,53.069183
Schapendrift,1,,,9331CJ,Norg,Noordenveld,Drenthe,VBO,6.456244,53.069574
Schapendrift,3,A,,9331CJ,Norg,Noordenveld,Drenthe,VBO,6.458146,53.069889
Schapendrift,3,,,9331CJ,Norg,Noordenveld,Drenthe,VBO,6.457712,53.069821
Schapendrift,5,,,9331CJ,Norg,Noordenveld,Drenthe,VBO,6.458672,53.070028
Schapendrift,6,,,9331CJ,Norg,Noordenveld,Drenthe,VBO,6.458102,53.069296
Schapendrift,7,A,,9331CJ,Norg,Noordenveld,Drenthe,VBO,6.461741,53.070372
Schapendrift,7,,,9331CJ,Norg,Noordenveld,Drenthe,VBO,6.461514,53.070326
Dennenlaan,1,,,9331CK,Norg,Noordenveld,Drenthe,VBO,6.456574,53.069661
Dennenlaan,2,,,9331CK,Norg,Noordenveld,Drenthe,VBO,6.457203,53.069763
Dennenlaan,3,,,9331CK,Norg,Noordenveld,Drenthe,VBO,6.456212,53.071326
Dennenlaan,4,,,9331CK,Norg,Noordenveld,Drenthe,VBO,6.457005,53.070798
Dennenlaan,5,,,9331CK,Norg,Noordenveld,Drenthe,VBO,6.456013,53.071733
Dennenlaan,7,,,9331CK,Norg,Noordenveld,Drenthe,VBO,6.455840,53.071968
Dennenlaan,9,,,9331CK,Norg,Noordenveld,Drenthe,VBO,6.455421,53.071900
Dennenlaan,11,,,9331CK,Norg,Noordenveld,Drenthe,VBO,6.454851,53.071788
Dennenlaan,13,,,9331CK,Norg,Noordenveld,Drenthe,VBO,6.454087,53.071669
Sparrenlaan,1,,,9331CL,Norg,Noordenveld,Drenthe,VBO,6.455361,53.070094
Sparrenlaan,2,,,9331CL,Norg,Noordenveld,Drenthe,VBO,6.455591,53.069714
Sparrenlaan,3,,,9331CL,Norg,Noordenveld,Drenthe,VBO,6.455855,53.070161
Sparrenlaan,4,,,9331CL,Norg,Noordenveld,Drenthe,VBO,6.456085,53.069791
Sparrenlaan,5,,,9331CL,Norg,Noordenveld,Drenthe,VBO,6.456366,53.070318
Sparrenlaan,6,,,9331CL,Norg,Noordenveld,Drenthe,VBO,6.456417,53.069959
Sparrenlaan,7,,,9331CL,Norg,Noordenveld,Drenthe,VBO,6.456891,53.070413
Sparrenlaan,8,,,9331CL,Norg,Noordenveld,Drenthe,VBO,6.457033,53.070106
Sparrenlaan,9,,,9331CL,Norg,Noordenveld,Drenthe,VBO,6.457342,53.070543
Sparrenlaan,10,A,,9331CL,Norg,Noordenveld,Drenthe,VBO,6.457348,53.070117
Sparrenlaan,10,,,9331CL,Norg,Noordenveld,Drenthe,VBO,6.457526,53.070164
Sparrenlaan,11,,,9331CL,Norg,Noordenveld,Drenthe,VBO,6.457879,53.070539
Sparrenlaan,12,,,9331CL,Norg,Noordenveld,Drenthe,VBO,6.458094,53.070204
Sparrenlaan,13,,,9331CL,Norg,Noordenveld,Drenthe,VBO,6.458327,53.070553
Sparrenlaan,14,,,9331CL,Norg,Noordenveld,Drenthe,VBO,6.458602,53.070227
Larixlaan,1,,,9331CM,Norg,Noordenveld,Drenthe,VBO,6.454827,53.070809
Larixlaan,2,,,9331CM,Norg,Noordenveld,Drenthe,VBO,6.455056,53.070411
Larixlaan,3,,,9331CM,Norg,Noordenveld,Drenthe,VBO,6.455382,53.070956
Larixlaan,4,,,9331CM,Norg,Noordenveld,Drenthe,VBO,6.455387,53.070543
Larixlaan,5,,,9331CM,Norg,Noordenveld,Drenthe,VBO,6.455802,53.071015
Larixlaan,6,,,9331CM,Norg,Noordenveld,Drenthe,VBO,6.455777,53.070638
Larixlaan,7,,,9331CM,Norg,Noordenveld,Drenthe,VBO,6.456266,53.071101
Larixlaan,8,,,9331CM,Norg,Noordenveld,Drenthe,VBO,6.456242,53.070733
Boslaan,1,,,9331CN,Norg,Noordenveld,Drenthe,VBO,6.456871,53.071401
Boslaan,2,,,9331CN,Norg,Noordenveld,Drenthe,VBO,6.457207,53.071020
Boslaan,3,,,9331CN,Norg,Noordenveld,Drenthe,VBO,6.457261,53.071524
Boslaan,4,,,9331CN,Norg,Noordenveld,Drenthe,VBO,6.457535,53.071126
Boslaan,5,,,9331CN,Norg,Noordenveld,Drenthe,VBO,6.457740,53.071546
Boslaan,6,,,9331CN,Norg,Noordenveld,Drenthe,VBO,6.457940,53.071194
Douglaslaan,1,,,9331CP,Norg,Noordenveld,Drenthe,VBO,6.454350,53.071433
Douglaslaan,2,,,9331CP,Norg,Noordenveld,Drenthe,VBO,6.454623,53.071026
Douglaslaan,3,,,9331CP,Norg,Noordenveld,Drenthe,VBO,6.454994,53.071526
Douglaslaan,4,,,9331CP,Norg,Noordenveld,Drenthe,VBO,6.455029,53.071139
Douglaslaan,5,,,9331CP,Norg,Noordenveld,Drenthe,VBO,6.455488,53.071629
Douglaslaan,6,,,9331CP,Norg,Noordenveld,Drenthe,VBO,6.455554,53.071269
Meent,1,,,9331EA,Norg,Noordenveld,Drenthe,VBO,6.453589,53.070820
Meent,3,,,9331EA,Norg,Noordenveld,Drenthe,VBO,6.453408,53.070767
Meent,5,,,9331EA,Norg,Noordenveld,Drenthe,VBO,6.453078,53.070680
Meent,7,,,9331EA,Norg,Noordenveld,Drenthe,VBO,6.452883,53.070628
Meent,9,,,9331EA,Norg,Noordenveld,Drenthe,VBO,6.452567,53.070541
Meent,11,,,9331EA,Norg,Noordenveld,Drenthe,VBO,6.452357,53.070480
Meent,2,A,,9331EB,Norg,Noordenveld,Drenthe,VBO,6.452238,53.070837
Meent,2,X,RWST,9331EB,Norg,Noordenveld,Drenthe,VBO,6.451915,53.071329
Meent,4,A,,9331EB,Norg,Noordenveld,Drenthe,VBO,6.452232,53.070784
Meent,6,,,9331EB,Norg,Noordenveld,Drenthe,VBO,6.452409,53.070785
Meent,8,,,9331EB,Norg,Noordenveld,Drenthe,VBO,6.452409,53.070803
Meent,10,,,9331EB,Norg,Noordenveld,Drenthe,VBO,6.452410,53.070821
Meent,12,,,9331EB,Norg,Noordenveld,Drenthe,VBO,6.452410,53.070839
Meent,14,,,9331EB,Norg,Noordenveld,Drenthe,VBO,6.452411,53.070857
Meent,16,,,9331EB,Norg,Noordenveld,Drenthe,VBO,6.452411,53.070875
Meent,18,,,9331EB,Norg,Noordenveld,Drenthe,VBO,6.452412,53.070893
Meent,20,,,9331EB,Norg,Noordenveld,Drenthe,VBO,6.452412,53.070911
Meent,22,,,9331EB,Norg,Noordenveld,Drenthe,VBO,6.452412,53.070929
Meent,24,,,9331EB,Norg,Noordenveld,Drenthe,VBO,6.452334,53.070759
Meent,26,,,9331EB,Norg,Noordenveld,Drenthe,VBO,6.452334,53.070777
Meent,28,,,9331EB,Norg,Noordenveld,Drenthe,VBO,6.452335,53.070795
Meent,30,,,9331EB,Norg,Noordenveld,Drenthe,VBO,6.452335,53.070813
Meent,32,,,9331EB,Norg,Noordenveld,Drenthe,VBO,6.452335,53.070831
Meent,34,,,9331EB,Norg,Noordenveld,Drenthe,VBO,6.452336,53.070849
Meent,36,,,9331EB,Norg,Noordenveld,Drenthe,VBO,6.452336,53.070867
Meent,38,,,9331EB,Norg,Noordenveld,Drenthe,VBO,6.452337,53.070885
Meent,40,,,9331EB,Norg,Noordenveld,Drenthe,VBO,6.452337,53.070903
Meent,42,,,9331EC,Norg,Noordenveld,Drenthe,VBO,6.452171,53.070823
Meent,44,,,9331EC,Norg,Noordenveld,Drenthe,VBO,6.452172,53.070850
Meent,46,,,9331EC,Norg,Noordenveld,Drenthe,VBO,6.452172,53.070877
Meent,48,,,9331EC,Norg,Noordenveld,Drenthe,VBO,6.452173,53.070904
Meent,50,,,9331EC,Norg,Noordenveld,Drenthe,VBO,6.452174,53.070922
Meent,52,,,9331EC,Norg,Noordenveld,Drenthe,VBO,6.452174,53.070949
Meent,54,,,9331EC,Norg,Noordenveld,Drenthe,VBO,6.452175,53.070976
Meent,56,,,9331EC,Norg,Noordenveld,Drenthe,VBO,6.452175,53.070994
Meent,58,,,9331EC,Norg,Noordenveld,Drenthe,VBO,6.452176,53.071021
Meent,60,,,9331EC,Norg,Noordenveld,Drenthe,VBO,6.452177,53.071048
Meent,62,,,9331EC,Norg,Noordenveld,Drenthe,VBO,6.452177,53.071066
Meent,64,,,9331EC,Norg,Noordenveld,Drenthe,VBO,6.452178,53.071084
Meent,66,,,9331EC,Norg,Noordenveld,Drenthe,VBO,6.452178,53.071102
Meent,68,,,9331EC,Norg,Noordenveld,Drenthe,VBO,6.452178,53.071120
Meent,70,,,9331EC,Norg,Noordenveld,Drenthe,VBO,6.452179,53.071147
Meent,72,,,9331EC,Norg,Noordenveld,Drenthe,VBO,6.452180,53.071165
Meent,74,,,9331EC,Norg,Noordenveld,Drenthe,VBO,6.452180,53.071183
Meent,76,,,9331EC,Norg,Noordenveld,Drenthe,VBO,6.452181,53.071210
Meent,78,,,9331EC,Norg,Noordenveld,Drenthe,VBO,6.452181,53.071227
Meent,80,,,9331EC,Norg,Noordenveld,Drenthe,VBO,6.452182,53.071245
Meent,82,,,9331ED,Norg,Noordenveld,Drenthe,VBO,6.452027,53.071031
Meent,84,,,9331ED,Norg,Noordenveld,Drenthe,VBO,6.452028,53.071067
Meent,86,,,9331ED,Norg,Noordenveld,Drenthe,VBO,6.452029,53.071094
Meent,88,,,9331ED,Norg,Noordenveld,Drenthe,VBO,6.452029,53.071121
Meent,90,,,9331ED,Norg,Noordenveld,Drenthe,VBO,6.452030,53.071148
Meent,92,,,9331ED,Norg,Noordenveld,Drenthe,VBO,6.452031,53.071175
Meent,94,,,9331ED,Norg,Noordenveld,Drenthe,VBO,6.452031,53.071202
Meent,96,,,9331ED,Norg,Noordenveld,Drenthe,VBO,6.452032,53.071229
Meent,98,,,9331EE,Norg,Noordenveld,Drenthe,VBO,6.451834,53.071060
Meent,100,,,9331EE,Norg,Noordenveld,Drenthe,VBO,6.451834,53.071078
Meent,102,,,9331EE,Norg,Noordenveld,Drenthe,VBO,6.451835,53.071105
Meent,104,,,9331EE,Norg,Noordenveld,Drenthe,VBO,6.451835,53.071123
Meent,106,,,9331EE,Norg,Noordenveld,Drenthe,VBO,6.451684,53.071025
Meent,108,,,9331EE,Norg,Noordenveld,Drenthe,VBO,6.451684,53.071043
Meent,110,,,9331EE,Norg,Noordenveld,Drenthe,VBO,6.451700,53.071070
Meent,112,,,9331EE,Norg,Noordenveld,Drenthe,VBO,6.451715,53.071088
Meent,114,,,9331EG,Norg,Noordenveld,Drenthe,VBO,6.451518,53.070973
Meent,116,,,9331EG,Norg,Noordenveld,Drenthe,VBO,6.451519,53.071000
Meent,118,,,9331EG,Norg,Noordenveld,Drenthe,VBO,6.451535,53.071027
Meent,120,,,9331EG,Norg,Noordenveld,Drenthe,VBO,6.451535,53.071054
Meent,122,,,9331EG,Norg,Noordenveld,Drenthe,VBO,6.451353,53.070938
Meent,124,,,9331EG,Norg,Noordenveld,Drenthe,VBO,6.451354,53.070974
Meent,126,,,9331EG,Norg,Noordenveld,Drenthe,VBO,6.451370,53.071001
Meent,128,,,9331EG,Norg,Noordenveld,Drenthe,VBO,6.451385,53.071019
Meent,130,,,9331EH,Norg,Noordenveld,Drenthe,VBO,6.451263,53.070903
Meent,132,,,9331EH,Norg,Noordenveld,Drenthe,VBO,6.451264,53.070930
Meent,134,,,9331EH,Norg,Noordenveld,Drenthe,VBO,6.451264,53.070957
Meent,136,,,9331EH,Norg,Noordenveld,Drenthe,VBO,6.451265,53.070984
Meent,138,,,9331EH,Norg,Noordenveld,Drenthe,VBO,6.451023,53.070851
Meent,140,,,9331EH,Norg,Noordenveld,Drenthe,VBO,6.451039,53.070878
Meent,142,,,9331EH,Norg,Noordenveld,Drenthe,VBO,6.451054,53.070905
Meent,144,,,9331EH,Norg,Noordenveld,Drenthe,VBO,6.451055,53.070932
Rocht,2,,,9331EJ,Norg,Noordenveld,Drenthe,VBO,6.453118,53.071093
Rocht,4,,,9331EJ,Norg,Noordenveld,Drenthe,VBO,6.452929,53.071311
Rocht,6,,,9331EJ,Norg,Noordenveld,Drenthe,VBO,6.452741,53.071546
Rocht,8,,,9331EJ,Norg,Noordenveld,Drenthe,VBO,6.452582,53.071772
Goorsprake,2,,,9331EK,Norg,Noordenveld,Drenthe,VBO,6.450491,53.071054
Goorsprake,4,,,9331EK,Norg,Noordenveld,Drenthe,VBO,6.450235,53.070984
Goorsprake,6,,,9331EK,Norg,Noordenveld,Drenthe,VBO,6.449965,53.070915
Goorsprake,8,,,9331EK,Norg,Noordenveld,Drenthe,VBO,6.449695,53.070845
Goorsprake,10,,,9331EK,Norg,Noordenveld,Drenthe,VBO,6.449424,53.070758
Goorsprake,12,,,9331EK,Norg,Noordenveld,Drenthe,VBO,6.449184,53.070697
Etstoel,1,,,9331EL,Norg,Noordenveld,Drenthe,VBO,6.450397,53.070264
Etstoel,2,,,9331EL,Norg,Noordenveld,Drenthe,VBO,6.450832,53.070386
Etstoel,3,,,9331EL,Norg,Noordenveld,Drenthe,VBO,6.450295,53.070391
Etstoel,4,,,9331EL,Norg,Noordenveld,Drenthe,VBO,6.450731,53.070512
Etstoel,5,,,9331EL,Norg,Noordenveld,Drenthe,VBO,6.450195,53.070535
Etstoel,6,,,9331EL,Norg,Noordenveld,Drenthe,VBO,6.450615,53.070657
Etstoel,7,,,9331EL,Norg,Noordenveld,Drenthe,VBO,6.450093,53.070662
Etstoel,8,,,9331EL,Norg,Noordenveld,Drenthe,VBO,6.450514,53.070775
Ding,1,,,9331EM,Norg,Noordenveld,Drenthe,VBO,6.449541,53.070029
Ding,2,,,9331EM,Norg,Noordenveld,Drenthe,VBO,6.449961,53.070151
Ding,3,,,9331EM,Norg,Noordenveld,Drenthe,VBO,6.449454,53.070155
Ding,4,,,9331EM,Norg,Noordenveld,Drenthe,VBO,6.449875,53.070277
Ding,5,,,9331EM,Norg,Noordenveld,Drenthe,VBO,6.449353,53.070300
Ding,6,,,9331EM,Norg,Noordenveld,Drenthe,VBO,6.449759,53.070422
Ding,7,,,9331EM,Norg,Noordenveld,Drenthe,VBO,6.449252,53.070427
Ding,8,,,9331EM,Norg,Noordenveld,Drenthe,VBO,6.449687,53.070540
Molenveenweg,1,,,9331EN,Norg,Noordenveld,Drenthe,VBO,6.450920,53.068480
Molenveenweg,2,,,9331EN,Norg,Noordenveld,Drenthe,VBO,6.450882,53.069981
Molenveenweg,3,,,9331EN,Norg,Noordenveld,Drenthe,VBO,6.446043,53.073433
Molenveenweg,6,,,9331EN,Norg,Noordenveld,Drenthe,VBO,6.447990,53.072807
Molenveenweg,8,,,9331EN,Norg,Noordenveld,Drenthe,VBO,6.447662,53.073128
Molenveenweg,10,,,9331EN,Norg,Noordenveld,Drenthe,VBO,6.447240,53.072988
Molenveenweg,14,,,9331EN,Norg,Noordenveld,Drenthe,VBO,6.445188,53.075693
Molenveenweg,16,,,9331EN,Norg,Noordenveld,Drenthe,VBO,6.445015,53.075946
Lotting,1,,,9331EP,Norg,Noordenveld,Drenthe,VBO,6.454531,53.069688
Lotting,3,,,9331EP,Norg,Noordenveld,Drenthe,VBO,6.454429,53.069824
Lotting,5,,,9331EP,Norg,Noordenveld,Drenthe,VBO,6.454257,53.070077
Willekeur,1,,,9331ER,Norg,Noordenveld,Drenthe,VBO,6.454023,53.070267
Willekeur,2,,,9331ER,Norg,Noordenveld,Drenthe,VBO,6.453762,53.070593
Willekeur,3,,,9331ER,Norg,Noordenveld,Drenthe,VBO,6.453559,53.070227
Willekeur,4,,,9331ER,Norg,Noordenveld,Drenthe,VBO,6.453567,53.070541
Willekeur,5,,,9331ER,Norg,Noordenveld,Drenthe,VBO,6.453168,53.070095
Willekeur,6,,,9331ER,Norg,Noordenveld,Drenthe,VBO,6.453251,53.070454
Willekeur,7,,,9331ER,Norg,Noordenveld,Drenthe,VBO,6.452897,53.069999
Willekeur,8,,,9331ER,Norg,Noordenveld,Drenthe,VBO,6.453056,53.070411
Willekeur,10,,,9331ER,Norg,Noordenveld,Drenthe,VBO,6.452725,53.070306
Willekeur,12,,,9331ER,Norg,Noordenveld,Drenthe,VBO,6.452530,53.070254
Waardeel,1,,,9331ES,Norg,Noordenveld,Drenthe,VBO,6.452518,53.069158
Waardeel,2,,,9331ES,Norg,Noordenveld,Drenthe,VBO,6.453055,53.069135
Waardeel,3,,,9331ES,Norg,Noordenveld,Drenthe,VBO,6.452447,53.069302
Waardeel,4,,,9331ES,Norg,Noordenveld,Drenthe,VBO,6.452986,53.069369
Waardeel,5,,,9331ES,Norg,Noordenveld,Drenthe,VBO,6.452497,53.069490
Waardeel,6,,,9331ES,Norg,Noordenveld,Drenthe,VBO,6.453369,53.069797
Waardeel,7,,,9331ES,Norg,Noordenveld,Drenthe,VBO,6.452425,53.069635
Waardeel,8,,,9331ES,Norg,Noordenveld,Drenthe,VBO,6.453775,53.069901
Waardeel,9,,,9331ES,Norg,Noordenveld,Drenthe,VBO,6.452356,53.069842
Waardeel,10,,,9331ES,Norg,Noordenveld,Drenthe,VBO,6.453948,53.069666
Waardeel,12,,,9331ES,Norg,Noordenveld,Drenthe,VBO,6.453987,53.069432
Waardeel,14,,,9331ES,Norg,Noordenveld,Drenthe,VBO,6.453776,53.069344
Waardeel,16,,,9331ES,Norg,Noordenveld,Drenthe,VBO,6.453478,53.069338
Waardeel,18,,,9331ES,Norg,Noordenveld,Drenthe,VBO,6.453346,53.069465
Waardeel,20,,,9331ES,Norg,Noordenveld,Drenthe,VBO,6.452948,53.069666
Waardeel,22,,,9331ES,Norg,Noordenveld,Drenthe,VBO,6.452877,53.069801
Spint,1,,,9331ET,Norg,Noordenveld,Drenthe,VBO,6.454395,53.068413
Spint,2,,,9331ET,Norg,Noordenveld,Drenthe,VBO,6.454901,53.068372
Spint,3,,,9331ET,Norg,Noordenveld,Drenthe,VBO,6.454279,53.068576
Spint,4,,,9331ET,Norg,Noordenveld,Drenthe,VBO,6.454757,53.068571
Spint,6,,,9331ET,Norg,Noordenveld,Drenthe,VBO,6.454627,53.068734
Kerspel,1,,,9331EV,Norg,Noordenveld,Drenthe,VBO,6.451557,53.068914
Kerspel,2,,,9331EV,Norg,Noordenveld,Drenthe,VBO,6.451998,53.069225
Kerspel,3,,,9331EV,Norg,Noordenveld,Drenthe,VBO,6.451502,53.069086
Kerspel,4,,,9331EV,Norg,Noordenveld,Drenthe,VBO,6.451764,53.069434
Kerspel,5,,,9331EV,Norg,Noordenveld,Drenthe,VBO,6.451432,53.069284
Kerspel,6,,,9331EV,Norg,Noordenveld,Drenthe,VBO,6.451664,53.069614
Kerspel,7,,,9331EV,Norg,Noordenveld,Drenthe,VBO,6.451316,53.069402
Kerspel,8,,,9331EV,Norg,Noordenveld,Drenthe,VBO,6.451982,53.069791
Kerspel,9,,,9331EV,Norg,Noordenveld,Drenthe,VBO,6.451013,53.069234
Kerspel,11,,,9331EV,Norg,Noordenveld,Drenthe,VBO,6.450802,53.069146
Kerspel,13,,,9331EV,Norg,Noordenveld,Drenthe,VBO,6.450532,53.069067
Kerspel,15,,,9331EV,Norg,Noordenveld,Drenthe,VBO,6.450430,53.069185
Kerspel,17,,,9331EV,Norg,Noordenveld,Drenthe,VBO,6.450375,53.069356
Kerspel,19,,,9331EV,Norg,Noordenveld,Drenthe,VBO,6.450585,53.069426
Kerspel,21,,,9331EV,Norg,Noordenveld,Drenthe,VBO,6.450901,53.069513
Kerspel,23,,,9331EV,Norg,Noordenveld,Drenthe,VBO,6.451217,53.069645
Marke,1,,,9331EW,Norg,Noordenveld,Drenthe,VBO,6.454864,53.069271
Marke,2,,,9331EW,Norg,Noordenveld,Drenthe,VBO,6.454570,53.069490
Marke,3,,,9331EW,Norg,Noordenveld,Drenthe,VBO,6.453890,53.068507
Marke,4,,,9331EW,Norg,Noordenveld,Drenthe,VBO,6.454227,53.069484
Marke,5,,,9331EW,Norg,Noordenveld,Drenthe,VBO,6.453503,53.068556
Marke,6,A,,9331EW,Norg,Noordenveld,Drenthe,VBO,6.454167,53.069144
Marke,6,,,9331EW,Norg,Noordenveld,Drenthe,VBO,6.454175,53.069197
Marke,7,,,9331EW,Norg,Noordenveld,Drenthe,VBO,6.453190,53.068558
Marke,8,,,9331EW,Norg,Noordenveld,Drenthe,VBO,6.454097,53.069027
Marke,9,,,9331EW,Norg,Noordenveld,Drenthe,VBO,6.452863,53.068615
Marke,10,,,9331EW,Norg,Noordenveld,Drenthe,VBO,6.453709,53.069039
Marke,11,,,9331EW,Norg,Noordenveld,Drenthe,VBO,6.452535,53.068609
Marke,12,,,9331EW,Norg,Noordenveld,Drenthe,VBO,6.453380,53.068997
Marke,13,,,9331EW,Norg,Noordenveld,Drenthe,VBO,6.452236,53.068594
Marke,14,,,9331EW,Norg,Noordenveld,Drenthe,VBO,6.452439,53.068979
Marke,15,,,9331EW,Norg,Noordenveld,Drenthe,VBO,6.451833,53.068606
Marke,16,,,9331EW,Norg,Noordenveld,Drenthe,VBO,6.452051,53.068955
Marke,17,A,,9331EW,Norg,Noordenveld,Drenthe,VBO,6.451572,53.068631
Marke,17,,,9331EW,Norg,Noordenveld,Drenthe,VBO,6.451540,53.068573
Ordel,1,A,,9331EX,Norg,Noordenveld,Drenthe,VBO,6.449243,53.071272
Ordel,1,,,9331EX,Norg,Noordenveld,Drenthe,VBO,6.448959,53.071164
Ordel,2,A,,9331EX,Norg,Noordenveld,Drenthe,VBO,6.451938,53.072223
Ordel,2,,,9331EX,Norg,Noordenveld,Drenthe,VBO,6.452446,53.072295
Ordel,3,A,,9331EX,Norg,Noordenveld,Drenthe,VBO,6.449128,53.071443
Ordel,3,,,9331EX,Norg,Noordenveld,Drenthe,VBO,6.448817,53.071338
Ordel,4,A,,9331EX,Norg,Noordenveld,Drenthe,VBO,6.451719,53.072123
Ordel,4,,,9331EX,Norg,Noordenveld,Drenthe,VBO,6.451751,53.071932
Ordel,5,A,,9331EX,Norg,Noordenveld,Drenthe,VBO,6.449027,53.071615
Ordel,5,,,9331EX,Norg,Noordenveld,Drenthe,VBO,6.448715,53.071517
Ordel,6,A,,9331EX,Norg,Noordenveld,Drenthe,VBO,6.451361,53.071820
Ordel,6,,,9331EX,Norg,Noordenveld,Drenthe,VBO,6.451037,53.072020
Ordel,7,,,9331EX,Norg,Noordenveld,Drenthe,VBO,6.448732,53.071725
Ordel,8,A,,9331EX,Norg,Noordenveld,Drenthe,VBO,6.450120,53.072095
Ordel,8,,,9331EX,Norg,Noordenveld,Drenthe,VBO,6.450294,53.072179
Ordel,10,A,,9331EX,Norg,Noordenveld,Drenthe,VBO,6.450373,53.072019
Ordel,10,,,9331EX,Norg,Noordenveld,Drenthe,VBO,6.450409,53.071980
Ordel,12,A,,9331EX,Norg,Noordenveld,Drenthe,VBO,6.450670,53.071733
Ordel,12,,,9331EX,Norg,Noordenveld,Drenthe,VBO,6.450670,53.071654
Ordel,14,A,,9331EX,Norg,Noordenveld,Drenthe,VBO,6.450185,53.071693
Ordel,14,,,9331EX,Norg,Noordenveld,Drenthe,VBO,6.450309,53.071559
Ordel,16,A,,9331EX,Norg,Noordenveld,Drenthe,VBO,6.450000,53.071575
Ordel,16,,,9331EX,Norg,Noordenveld,Drenthe,VBO,6.449693,53.071384
Ordel,18,A,,9331EX,Norg,Noordenveld,Drenthe,VBO,6.449565,53.071741
Ordel,18,,,9331EX,Norg,Noordenveld,Drenthe,VBO,6.449361,53.071901
Havixhorst,1,,,9331GA,Norg,Noordenveld,Drenthe,VBO,6.443202,53.065834
Havixhorst,3,,,9331GA,Norg,Noordenveld,Drenthe,VBO,6.443272,53.065645
Havixhorst,5,,,9331GA,Norg,Noordenveld,Drenthe,VBO,6.442927,53.065594
Havixhorst,7,,,9331GA,Norg,Noordenveld,Drenthe,VBO,6.442838,53.065586
Havixhorst,9,,,9331GA,Norg,Noordenveld,Drenthe,VBO,6.442508,53.065544
Havixhorst,11,,,9331GA,Norg,Noordenveld,Drenthe,VBO,6.442419,53.065536
Havixhorst,13,,,9331GA,Norg,Noordenveld,Drenthe,VBO,6.442090,53.065502
Havixhorst,15,,,9331GA,Norg,Noordenveld,Drenthe,VBO,6.441975,53.065683
Havixhorst,17,,,9331GA,Norg,Noordenveld,Drenthe,VBO,6.441904,53.065855
Havixhorst,19,,,9331GA,Norg,Noordenveld,Drenthe,VBO,6.441833,53.065981
Eenerstraat,5,A,,9331HA,Norg,Noordenveld,Drenthe,VBO,6.456222,53.067491
Eenerstraat,5,,,9331HA,Norg,Noordenveld,Drenthe,VBO,6.456006,53.067562
Eenerstraat,7,,,9331HA,Norg,Noordenveld,Drenthe,VBO,6.455536,53.067486
Eenerstraat,9,,,9331HA,Norg,Noordenveld,Drenthe,VBO,6.455121,53.067616
Eenerstraat,11,,,9331HA,Norg,Noordenveld,Drenthe,VBO,6.454493,53.067540
Eenerstraat,13,,,9331HA,Norg,Noordenveld,Drenthe,VBO,6.454195,53.067570
Eenerstraat,15,,,9331HA,Norg,Noordenveld,Drenthe,VBO,6.453927,53.067572
Eenerstraat,17,,,9331HA,Norg,Noordenveld,Drenthe,VBO,6.453644,53.067611
Eenerstraat,19,,,9331HA,Norg,Noordenveld,Drenthe,VBO,6.453510,53.067621
Eenerstraat,21,,,9331HA,Norg,Noordenveld,Drenthe,VBO,6.453063,53.067652
Eenerstraat,23,,,9331HA,Norg,Noordenveld,Drenthe,VBO,6.452899,53.067653
Eenerstraat,25,,,9331HB,Norg,Noordenveld,Drenthe,VBO,6.452599,53.067602
Eenerstraat,27,,,9331HB,Norg,Noordenveld,Drenthe,VBO,6.452480,53.067612
Eenerstraat,29,,,9331HB,Norg,Noordenveld,Drenthe,VBO,6.452346,53.067622
Eenerstraat,31,,,9331HB,Norg,Noordenveld,Drenthe,VBO,6.452242,53.067632
Eenerstraat,33,,,9331HB,Norg,Noordenveld,Drenthe,VBO,6.452108,53.067633
Eenerstraat,35,,,9331HB,Norg,Noordenveld,Drenthe,VBO,6.452003,53.067634
Eenerstraat,37,,,9331HB,Norg,Noordenveld,Drenthe,VBO,6.451869,53.067645
Eenerstraat,39,,,9331HB,Norg,Noordenveld,Drenthe,VBO,6.451765,53.067646
Eenerstraat,41,,,9331HB,Norg,Noordenveld,Drenthe,VBO,6.451573,53.067737
Eenerstraat,43,,,9331HB,Norg,Noordenveld,Drenthe,VBO,6.450664,53.067790
Eenerstraat,45,,,9331HB,Norg,Noordenveld,Drenthe,VBO,6.450233,53.067821
Eenerstraat,47,,,9331HB,Norg,Noordenveld,Drenthe,VBO,6.449934,53.067833
Eenerstraat,49,,,9331HB,Norg,Noordenveld,Drenthe,VBO,6.449606,53.067844
Eenerstraat,51,,,9331HB,Norg,Noordenveld,Drenthe,VBO,6.449085,53.067858
Eenerstraat,53,,,9331HB,Norg,Noordenveld,Drenthe,VBO,6.448772,53.067888
Eenerstraat,55,,,9331HB,Norg,Noordenveld,Drenthe,VBO,6.448549,53.067899
Eenerstraat,2,A,,9331HC,Norg,Noordenveld,Drenthe,VBO,6.455458,53.067981
Eenerstraat,2,,,9331HC,Norg,Noordenveld,Drenthe,VBO,6.455054,53.067913
Eenerstraat,4,,,9331HC,Norg,Noordenveld,Drenthe,VBO,6.455025,53.067949
Eenerstraat,6,,,9331HC,Norg,Noordenveld,Drenthe,VBO,6.454652,53.067943
Eenerstraat,8,,,9331HC,Norg,Noordenveld,Drenthe,VBO,6.454443,53.067954
Eenerstraat,10,,,9331HC,Norg,Noordenveld,Drenthe,VBO,6.454160,53.067984
Eenerstraat,12,,,9331HC,Norg,Noordenveld,Drenthe,VBO,6.453892,53.067995
Eenerstraat,14,,,9331HC,Norg,Noordenveld,Drenthe,VBO,6.453698,53.068006
Eenerstraat,16,,,9331HC,Norg,Noordenveld,Drenthe,VBO,6.453519,53.068007
Eenerstraat,18,,,9331HC,Norg,Noordenveld,Drenthe,VBO,6.453326,53.068027
Eenerstraat,22,,,9331HC,Norg,Noordenveld,Drenthe,VBO,6.453147,53.068029
Eenerstraat,24,,,9331HC,Norg,Noordenveld,Drenthe,VBO,6.452968,53.068039
Eenerstraat,28,,,9331HC,Norg,Noordenveld,Drenthe,VBO,6.452626,53.068069
Eenerstraat,26,,,9331HD,Norg,Noordenveld,Drenthe,VBO,6.452790,53.068059
Eenerstraat,30,,,9331HD,Norg,Noordenveld,Drenthe,VBO,6.452372,53.068080
Eenerstraat,32,,,9331HD,Norg,Noordenveld,Drenthe,VBO,6.452089,53.068092
Eenerstraat,44,,,9331HD,Norg,Noordenveld,Drenthe,VBO,6.451702,53.068122
Eenerstraat,46,,,9331HD,Norg,Noordenveld,Drenthe,VBO,6.451493,53.068124
Eenerstraat,48,,,9331HD,Norg,Noordenveld,Drenthe,VBO,6.451151,53.068145
Eenerstraat,50,,,9331HD,Norg,Noordenveld,Drenthe,VBO,6.449382,53.068431
Eenerstraat,52,A,,9331HD,Norg,Noordenveld,Drenthe,VBO,6.447587,53.068739
Eenerstraat,52,,,9331HD,Norg,Noordenveld,Drenthe,VBO,6.447743,53.069110
Eenerstraat,54,,,9331HD,Norg,Noordenveld,Drenthe,VBO,6.448846,53.069385
Eikenlaan,1,,,9331HE,Norg,Noordenveld,Drenthe,VBO,6.455011,53.067365
Eikenlaan,2,,,9331HE,Norg,Noordenveld,Drenthe,VBO,6.454549,53.067387
Eikenlaan,3,A,,9331HE,Norg,Noordenveld,Drenthe,VBO,6.454961,53.067177
Eikenlaan,3,,,9331HE,Norg,Noordenveld,Drenthe,VBO,6.454978,53.067239
Eikenlaan,4,,,9331HE,Norg,Noordenveld,Drenthe,VBO,6.454499,53.067199
Eikenlaan,5,,,9331HE,Norg,Noordenveld,Drenthe,VBO,6.454898,53.067024
Eikenlaan,6,,,9331HE,Norg,Noordenveld,Drenthe,VBO,6.454524,53.066992
Eikenlaan,7,,,9331HE,Norg,Noordenveld,Drenthe,VBO,6.454896,53.066971
Eikenlaan,8,,,9331HE,Norg,Noordenveld,Drenthe,VBO,6.454502,53.066713
Eikenlaan,9,,,9331HE,Norg,Noordenveld,Drenthe,VBO,6.454876,53.066746
Eikenlaan,10,,,9331HE,Norg,Noordenveld,Drenthe,VBO,6.454516,53.066650
Eikenlaan,11,,,9331HE,Norg,Noordenveld,Drenthe,VBO,6.454889,53.066665
Eikenlaan,12,,,9331HE,Norg,Noordenveld,Drenthe,VBO,6.454527,53.066507
Esdoornlaan,1,,,9331HG,Norg,Noordenveld,Drenthe,VBO,6.454204,53.066716
Esdoornlaan,3,,,9331HG,Norg,Noordenveld,Drenthe,VBO,6.453995,53.066718
Esdoornlaan,4,,,9331HG,Norg,Noordenveld,Drenthe,VBO,6.454300,53.066967
Esdoornlaan,5,,,9331HG,Norg,Noordenveld,Drenthe,VBO,6.453801,53.066702
Esdoornlaan,6,,,9331HG,Norg,Noordenveld,Drenthe,VBO,6.454091,53.066978
Esdoornlaan,7,,,9331HG,Norg,Noordenveld,Drenthe,VBO,6.453547,53.066713
Esdoornlaan,8,,,9331HG,Norg,Noordenveld,Drenthe,VBO,6.453867,53.066962
Esdoornlaan,10,,,9331HG,Norg,Noordenveld,Drenthe,VBO,6.453658,53.066964
Lindelaan,1,,,9331HH,Norg,Noordenveld,Drenthe,VBO,6.453401,53.067415
Lindelaan,2,,,9331HH,Norg,Noordenveld,Drenthe,VBO,6.452983,53.067410
Lindelaan,3,,,9331HH,Norg,Noordenveld,Drenthe,VBO,6.453384,53.067362
Lindelaan,4,,,9331HH,Norg,Noordenveld,Drenthe,VBO,6.452951,53.067356
Lindelaan,5,,,9331HH,Norg,Noordenveld,Drenthe,VBO,6.453321,53.067218
Lindelaan,6,,,9331HH,Norg,Noordenveld,Drenthe,VBO,6.452888,53.067204
Lindelaan,7,,,9331HH,Norg,Noordenveld,Drenthe,VBO,6.453257,53.067030
Lindelaan,8,,,9331HH,Norg,Noordenveld,Drenthe,VBO,6.452764,53.067008
Lindelaan,9,,,9331HH,Norg,Noordenveld,Drenthe,VBO,6.453100,53.066717
Lindelaan,10,,,9331HH,Norg,Noordenveld,Drenthe,VBO,6.452685,53.066838
Lindelaan,11,,,9331HH,Norg,Noordenveld,Drenthe,VBO,6.453084,53.066663
Lindelaan,12,,,9331HH,Norg,Noordenveld,Drenthe,VBO,6.452669,53.066793
Lindelaan,13,,,9331HH,Norg,Noordenveld,Drenthe,VBO,6.453036,53.066538
Lindelaan,14,,,9331HH,Norg,Noordenveld,Drenthe,VBO,6.452621,53.066658
Lindelaan,15,,,9331HH,Norg,Noordenveld,Drenthe,VBO,6.453020,53.066493
Lindelaan,16,,,9331HH,Norg,Noordenveld,Drenthe,VBO,6.452605,53.066623
Lindelaan,17,,,9331HH,Norg,Noordenveld,Drenthe,VBO,6.453001,53.066340
Lindelaan,18,,,9331HH,Norg,Noordenveld,Drenthe,VBO,6.452587,53.066479
Lindelaan,20,,,9331HH,Norg,Noordenveld,Drenthe,VBO,6.452571,53.066434
Lindelaan,22,,,9331HH,Norg,Noordenveld,Drenthe,VBO,6.452493,53.066318
Rondweg,2,,,9331HK,Norg,Noordenveld,Drenthe,VBO,6.450840,53.067627
Rondweg,4,,,9331HK,Norg,Noordenveld,Drenthe,VBO,6.450970,53.067482
Rondweg,6,,,9331HK,Norg,Noordenveld,Drenthe,VBO,6.450921,53.067285
Rondweg,8,,,9331HK,Norg,Noordenveld,Drenthe,VBO,6.450931,53.067096
Fabrieksstraat,1,,,9331HL,Norg,Noordenveld,Drenthe,VBO,6.451670,53.066829
Fabrieksstraat,2,,,9331HL,Norg,Noordenveld,Drenthe,VBO,6.451992,53.066565
Fabrieksstraat,3,,,9331HL,Norg,Noordenveld,Drenthe,VBO,6.451687,53.066882
Fabrieksstraat,4,,,9331HL,Norg,Noordenveld,Drenthe,VBO,6.452008,53.066610
Fabrieksstraat,5,,,9331HL,Norg,Noordenveld,Drenthe,VBO,6.451735,53.067035
Fabrieksstraat,6,,,9331HL,Norg,Noordenveld,Drenthe,VBO,6.452040,53.066708
Fabrieksstraat,7,,,9331HL,Norg,Noordenveld,Drenthe,VBO,6.451706,53.067071
Fabrieksstraat,8,,,9331HL,Norg,Noordenveld,Drenthe,VBO,6.452071,53.066753
Fabrieksstraat,9,,,9331HL,Norg,Noordenveld,Drenthe,VBO,6.451662,53.067116
Fabrieksstraat,10,,,9331HL,Norg,Noordenveld,Drenthe,VBO,6.452104,53.066852
Fabrieksstraat,11,,,9331HL,Norg,Noordenveld,Drenthe,VBO,6.451634,53.067152
Fabrieksstraat,12,,,9331HL,Norg,Noordenveld,Drenthe,VBO,6.452135,53.066896
Fabrieksstraat,13,,,9331HL,Norg,Noordenveld,Drenthe,VBO,6.451472,53.067262
Fabrieksstraat,14,,,9331HL,Norg,Noordenveld,Drenthe,VBO,6.452182,53.066995
Fabrieksstraat,15,,,9331HL,Norg,Noordenveld,Drenthe,VBO,6.451428,53.067307
Fabrieksstraat,16,,,9331HL,Norg,Noordenveld,Drenthe,VBO,6.452198,53.067049
Fabrieksstraat,18,,,9331HL,Norg,Noordenveld,Drenthe,VBO,6.452201,53.067183
Fabrieksstraat,20,,,9331HL,Norg,Noordenveld,Drenthe,VBO,6.452172,53.067220
Fabrieksstraat,22,,,9331HL,Norg,Noordenveld,Drenthe,VBO,6.452144,53.067265
Fabrieksstraat,24,,,9331HL,Norg,Noordenveld,Drenthe,VBO,6.452100,53.067301
Fabrieksstraat,26,,,9331HL,Norg,Noordenveld,Drenthe,VBO,6.451923,53.067384
Fabrieksstraat,28,,,9331HL,Norg,Noordenveld,Drenthe,VBO,6.451894,53.067429
Asserstraat,1,A,,9331JA,Norg,Noordenveld,Drenthe,VBO,6.460441,53.065528
Asserstraat,1,B,,9331JA,Norg,Noordenveld,Drenthe,VBO,6.460484,53.065474
Asserstraat,1,C,KRGB,9331JA,Norg,Noordenveld,Drenthe,VBO,6.460485,53.065496
Asserstraat,1,C,,9331JA,Norg,Noordenveld,Drenthe,VBO,6.460543,53.065428
Asserstraat,1,D,,9331JA,Norg,Noordenveld,Drenthe,VBO,6.460686,53.065202
Asserstraat,1,E,,9331JA,Norg,Noordenveld,Drenthe,VBO,6.460524,53.065530
Asserstraat,1,,,9331JA,Norg,Noordenveld,Drenthe,VBO,6.460612,53.065212
Asserstraat,3,,,9331JA,Norg,Noordenveld,Drenthe,VBO,6.460787,53.065049
Asserstraat,5,,,9331JA,Norg,Noordenveld,Drenthe,VBO,6.460858,53.064895
Asserstraat,7,B,,9331JA,Norg,Noordenveld,Drenthe,VBO,6.460904,53.064744
Asserstraat,7,C,,9331JA,Norg,Noordenveld,Drenthe,VBO,6.460927,53.064670
Asserstraat,7,,,9331JA,Norg,Noordenveld,Drenthe,VBO,6.460854,53.064752
Asserstraat,9,,,9331JA,Norg,Noordenveld,Drenthe,VBO,6.460868,53.064697
Asserstraat,11,,,9331JA,Norg,Noordenveld,Drenthe,VBO,6.460922,53.064481
Asserstraat,13,,,9331JA,Norg,Noordenveld,Drenthe,VBO,6.461019,53.064166
Asserstraat,19,,,9331JA,Norg,Noordenveld,Drenthe,VBO,6.460792,53.063458
Asserstraat,21,,,9331JB,Norg,Noordenveld,Drenthe,VBO,6.460729,53.063297
Asserstraat,23,,,9331JB,Norg,Noordenveld,Drenthe,VBO,6.460574,53.063082
Asserstraat,25,A,,9331JB,Norg,Noordenveld,Drenthe,VBO,6.460466,53.062913
Asserstraat,25,,,9331JB,Norg,Noordenveld,Drenthe,VBO,6.460375,53.062887
Asserstraat,27,,,9331JB,Norg,Noordenveld,Drenthe,VBO,6.460177,53.062718
Asserstraat,29,,,9331JB,Norg,Noordenveld,Drenthe,VBO,6.460005,53.062548
Asserstraat,31,,,9331JB,Norg,Noordenveld,Drenthe,VBO,6.459929,53.062324
Asserstraat,33,,,9331JB,Norg,Noordenveld,Drenthe,VBO,6.459713,53.062039
Asserstraat,35,,,9331JB,Norg,Noordenveld,Drenthe,VBO,6.459620,53.061887
Asserstraat,37,,,9331JB,Norg,Noordenveld,Drenthe,VBO,6.459603,53.061815
Asserstraat,39,,,9331JB,Norg,Noordenveld,Drenthe,VBO,6.459450,53.061664
Asserstraat,43,,,9331JB,Norg,Noordenveld,Drenthe,VBO,6.459220,53.061387
Asserstraat,45,A,,9331JB,Norg,Noordenveld,Drenthe,VBO,6.458979,53.060997
Asserstraat,45,,,9331JB,Norg,Noordenveld,Drenthe,VBO,6.458791,53.060960
Asserstraat,47,,,9331JB,Norg,Noordenveld,Drenthe,VBO,6.458412,53.060720
Asserstraat,49,,,9331JB,Norg,Noordenveld,Drenthe,VBO,6.457152,53.059806
Asserstraat,51,,,9331JB,Norg,Noordenveld,Drenthe,VBO,6.456049,53.059223
Asserstraat,53,,,9331JB,Norg,Noordenveld,Drenthe,VBO,6.455609,53.058939
Asserstraat,55,A,,9331JB,Norg,Noordenveld,Drenthe,VBO,6.455500,53.058675
Asserstraat,55,,,9331JB,Norg,Noordenveld,Drenthe,VBO,6.455307,53.058739
Asserstraat,57,,,9331JB,Norg,Noordenveld,Drenthe,VBO,6.455944,53.058379
Asserstraat,2,,,9331JC,Norg,Noordenveld,Drenthe,VBO,6.460046,53.065235
Asserstraat,4,,,9331JC,Norg,Noordenveld,Drenthe,VBO,6.460222,53.065135
Asserstraat,6,,,9331JC,Norg,Noordenveld,Drenthe,VBO,6.460294,53.065017
Asserstraat,8,,,9331JC,Norg,Noordenveld,Drenthe,VBO,6.460314,53.064946
Asserstraat,10,A,,9331JC,Norg,Noordenveld,Drenthe,VBO,6.460135,53.064856
Asserstraat,10,,,9331JC,Norg,Noordenveld,Drenthe,VBO,6.460336,53.064900
Asserstraat,12,,,9331JC,Norg,Noordenveld,Drenthe,VBO,6.460392,53.064783
Asserstraat,14,,,9331JC,Norg,Noordenveld,Drenthe,VBO,6.460418,53.064641
Asserstraat,16,,,9331JC,Norg,Noordenveld,Drenthe,VBO,6.460429,53.064468
Asserstraat,18,A,,9331JC,Norg,Noordenveld,Drenthe,VBO,6.460375,53.064082
Asserstraat,18,,,9331JC,Norg,Noordenveld,Drenthe,VBO,6.460468,53.064234
Asserstraat,20,,,9331JC,Norg,Noordenveld,Drenthe,VBO,6.460371,53.063902
Asserstraat,24,,,9331JC,Norg,Noordenveld,Drenthe,VBO,6.460095,53.063444
Asserstraat,26,,KANT,9331JC,Norg,Noordenveld,Drenthe,VBO,6.460336,53.063462
Asserstraat,26,,,9331JC,Norg,Noordenveld,Drenthe,VBO,6.460327,53.063354
Asserstraat,30,,,9331JD,Norg,Noordenveld,Drenthe,VBO,6.459976,53.063034
Asserstraat,32,,,9331JD,Norg,Noordenveld,Drenthe,VBO,6.459867,53.062837
Asserstraat,34,,,9331JD,Norg,Noordenveld,Drenthe,VBO,6.459745,53.062721
Asserstraat,36,,,9331JD,Norg,Noordenveld,Drenthe,VBO,6.459317,53.062608
Asserstraat,40,,,9331JD,Norg,Noordenveld,Drenthe,VBO,6.459363,53.062374
Asserstraat,42,,,9331JD,Norg,Noordenveld,Drenthe,VBO,6.459299,53.062186
Asserstraat,46,A,,9331JD,Norg,Noordenveld,Drenthe,VBO,6.458303,53.061117
Asserstraat,46,,BEDR,9331JD,Norg,Noordenveld,Drenthe,VBO,6.458654,53.061447
Asserstraat,46,,,9331JD,Norg,Noordenveld,Drenthe,VBO,6.458568,53.061284
Asserstraat,48,,,9331JD,Norg,Noordenveld,Drenthe,VBO,6.456821,53.060312
Asserstraat,50,,,9331JD,Norg,Noordenveld,Drenthe,VBO,6.456761,53.060286
Asserstraat,52,,,9331JD,Norg,Noordenveld,Drenthe,VBO,6.455408,53.059264
Asserstraat,54,,,9331JD,Norg,Noordenveld,Drenthe,VBO,6.455362,53.059193
Heegkampweg,2,,,9331JD,Norg,Noordenveld,Drenthe,VBO,6.459786,53.063800
Brinkstraat,1,A,,9331JE,Norg,Noordenveld,Drenthe,VBO,6.457611,53.065715
Brinkstraat,1,,,9331JE,Norg,Noordenveld,Drenthe,VBO,6.458005,53.065370
Brinkstraat,2,,,9331JE,Norg,Noordenveld,Drenthe,VBO,6.459257,53.065934
Brinkstraat,3,,,9331JE,Norg,Noordenveld,Drenthe,VBO,6.457537,53.065770
Brinkstraat,4,,,9331JE,Norg,Noordenveld,Drenthe,VBO,6.459243,53.065979
Brinkstraat,5,,,9331JE,Norg,Noordenveld,Drenthe,VBO,6.457303,53.065952
Brinkstraat,6,,,9331JE,Norg,Noordenveld,Drenthe,VBO,6.459318,53.065987
Brinkstraat,8,,,9331JE,Norg,Noordenveld,Drenthe,VBO,6.459075,53.065792
Brinkstraat,9,,,9331JE,Norg,Noordenveld,Drenthe,VBO,6.457067,53.066044
Brinkstraat,10,,,9331JE,Norg,Noordenveld,Drenthe,VBO,6.458805,53.065731
Brinkstraat,11,,,9331JE,Norg,Noordenveld,Drenthe,VBO,6.456845,53.066117
Brinkstraat,14,,,9331JE,Norg,Noordenveld,Drenthe,VBO,6.458430,53.065585
Brinkstraat,16,,,9331JE,Norg,Noordenveld,Drenthe,VBO,6.457823,53.065866
Boersma's Pad,1,,,9331JG,Norg,Noordenveld,Drenthe,VBO,6.456618,53.066003
Boersma's Pad,2,A,,9331JG,Norg,Noordenveld,Drenthe,VBO,6.456212,53.065871
Boersma's Pad,2,,,9331JG,Norg,Noordenveld,Drenthe,VBO,6.456185,53.065989
Boersma's Pad,3,,,9331JG,Norg,Noordenveld,Drenthe,VBO,6.456572,53.065940
Boersma's Pad,4,,,9331JG,Norg,Noordenveld,Drenthe,VBO,6.456209,53.065746
Boersma's Pad,5,,,9331JG,Norg,Noordenveld,Drenthe,VBO,6.456522,53.065716
Boersma's Pad,6,A,,9331JG,Norg,Noordenveld,Drenthe,VBO,6.456043,53.065551
Boersma's Pad,6,,,9331JG,Norg,Noordenveld,Drenthe,VBO,6.456243,53.065551
Zandvoort,1,A,,9331JH,Norg,Noordenveld,Drenthe,VBO,6.458631,53.066378
Zandvoort,1,,,9331JH,Norg,Noordenveld,Drenthe,VBO,6.458637,53.066200
Zandvoort,3,,,9331JH,Norg,Noordenveld,Drenthe,VBO,6.457923,53.066288
Zandvoort,5,,,9331JH,Norg,Noordenveld,Drenthe,VBO,6.456159,53.066142
Zandvoort,7,,,9331JH,Norg,Noordenveld,Drenthe,VBO,6.455860,53.066108
Zandvoort,9,,,9331JH,Norg,Noordenveld,Drenthe,VBO,6.455591,53.066102
Zandvoort,11,,,9331JH,Norg,Noordenveld,Drenthe,VBO,6.454706,53.065894
Zandvoort,13,,,9331JH,Norg,Noordenveld,Drenthe,VBO,6.454601,53.065877
Zandvoort,15,,,9331JH,Norg,Noordenveld,Drenthe,VBO,6.454286,53.065790
Zandvoort,17,,,9331JH,Norg,Noordenveld,Drenthe,VBO,6.454091,53.065756
Zandvoort,19,A,,9331JH,Norg,Noordenveld,Drenthe,VBO,6.453996,53.065588
Zandvoort,19,,,9331JH,Norg,Noordenveld,Drenthe,VBO,6.453880,53.065695
Zandvoort,21,,,9331JH,Norg,Noordenveld,Drenthe,VBO,6.453655,53.065634
Zandvoort,23,,,9331JH,Norg,Noordenveld,Drenthe,VBO,6.453384,53.065546
Zandvoort,25,,,9331JH,Norg,Noordenveld,Drenthe,VBO,6.453114,53.065468
Zandvoort,27,,,9331JH,Norg,Noordenveld,Drenthe,VBO,6.452859,53.065407
Zandvoort,29,,,9331JH,Norg,Noordenveld,Drenthe,VBO,6.451523,53.065095
Zandvoort,31,,,9331JH,Norg,Noordenveld,Drenthe,VBO,6.450924,53.064984
Zandvoort,2,A,,9331JJ,Norg,Noordenveld,Drenthe,VBO,6.457137,53.066465
Zandvoort,2,B,,9331JJ,Norg,Noordenveld,Drenthe,VBO,6.457003,53.066493
Zandvoort,2,C,,9331JJ,Norg,Noordenveld,Drenthe,VBO,6.457002,53.066449
Zandvoort,2,D,,9331JJ,Norg,Noordenveld,Drenthe,VBO,6.456912,53.066440
Zandvoort,2,E,,9331JJ,Norg,Noordenveld,Drenthe,VBO,6.456852,53.066423
Zandvoort,2,F,,9331JJ,Norg,Noordenveld,Drenthe,VBO,6.456839,53.066468
Zandvoort,2,G,,9331JJ,Norg,Noordenveld,Drenthe,VBO,6.456691,53.066595
Zandvoort,2,,,9331JJ,Norg,Noordenveld,Drenthe,VBO,6.457575,53.066686
Zandvoort,4,A,,9331JJ,Norg,Noordenveld,Drenthe,VBO,6.456106,53.066421
Zandvoort,4,,,9331JJ,Norg,Noordenveld,Drenthe,VBO,6.456286,53.066437
Zandvoort,6,A,,9331JJ,Norg,Noordenveld,Drenthe,VBO,6.455210,53.066375
Zandvoort,6,,,9331JJ,Norg,Noordenveld,Drenthe,VBO,6.455629,53.066425
Zandvoort,8,,,9331JJ,Norg,Noordenveld,Drenthe,VBO,6.454895,53.066370
Zandvoort,10,A,,9331JJ,Norg,Noordenveld,Drenthe,VBO,6.453754,53.066010
Zandvoort,10,,,9331JJ,Norg,Noordenveld,Drenthe,VBO,6.454308,53.066104
Zandvoort,12,,,9331JJ,Norg,Noordenveld,Drenthe,VBO,6.453364,53.065915
Zandvoort,14,,,9331JJ,Norg,Noordenveld,Drenthe,VBO,6.453062,53.065783
Zandvoort,16,A,,9331JJ,Norg,Noordenveld,Drenthe,VBO,6.452566,53.065800
Zandvoort,16,,,9331JJ,Norg,Noordenveld,Drenthe,VBO,6.452686,53.065678
Zandvoort,18,,,9331JJ,Norg,Noordenveld,Drenthe,VBO,6.452343,53.065681
Zandvoort,20,,,9331JJ,Norg,Noordenveld,Drenthe,VBO,6.451524,53.065427
Zandvoort,22,,,9331JK,Norg,Noordenveld,Drenthe,VBO,6.450993,53.065361
Zandvoort,24,,,9331JK,Norg,Noordenveld,Drenthe,VBO,6.450888,53.065344
Zandvoort,26,,,9331JK,Norg,Noordenveld,Drenthe,VBO,6.450798,53.065327
Zandvoort,28,,,9331JK,Norg,Noordenveld,Drenthe,VBO,6.450723,53.065300
Zandvoort,30,,,9331JK,Norg,Noordenveld,Drenthe,VBO,6.450541,53.065203
Zandvoort,32,,,9331JK,Norg,Noordenveld,Drenthe,VBO,6.450333,53.065214
Zandvoort,34,,,9331JK,Norg,Noordenveld,Drenthe,VBO,6.450243,53.065206
Zandvoort,36,,,9331JK,Norg,Noordenveld,Drenthe,VBO,6.450049,53.065180
Zandvoort,38,,,9331JK,Norg,Noordenveld,Drenthe,VBO,6.449974,53.065163
Klinkenkampweg,1,,,9331JL,Norg,Noordenveld,Drenthe,VBO,6.455127,53.066025
Klinkenkampweg,2,,,9331JL,Norg,Noordenveld,Drenthe,VBO,6.454746,53.065714
Klinkenkampweg,3,,,9331JL,Norg,Noordenveld,Drenthe,VBO,6.455126,53.065971
Klinkenkampweg,4,,,9331JL,Norg,Noordenveld,Drenthe,VBO,6.454760,53.065651
Klinkenkampweg,5,,,9331JL,Norg,Noordenveld,Drenthe,VBO,6.455182,53.065854
Klinkenkampweg,6,,,9331JL,Norg,Noordenveld,Drenthe,VBO,6.454802,53.065543
Klinkenkampweg,7,,,9331JL,Norg,Noordenveld,Drenthe,VBO,6.455196,53.065800
Klinkenkampweg,8,,,9331JL,Norg,Noordenveld,Drenthe,VBO,6.454830,53.065488
Klinkenkampweg,9,,,9331JL,Norg,Noordenveld,Drenthe,VBO,6.455238,53.065682
Klinkenkampweg,10,,,9331JL,Norg,Noordenveld,Drenthe,VBO,6.454857,53.065362
Klinkenkampweg,11,,,9331JL,Norg,Noordenveld,Drenthe,VBO,6.455251,53.065619
Klinkenkampweg,12,,,9331JL,Norg,Noordenveld,Drenthe,VBO,6.454885,53.065308
Klinkenkampweg,14,,,9331JM,Norg,Noordenveld,Drenthe,VBO,6.455043,53.065046
Klinkenkampweg,16,,,9331JM,Norg,Noordenveld,Drenthe,VBO,6.455057,53.064992
Klinkenkampweg,18,,,9331JM,Norg,Noordenveld,Drenthe,VBO,6.455158,53.064883
Klinkenkampweg,20,,,9331JM,Norg,Noordenveld,Drenthe,VBO,6.455187,53.064829
Klinkenkampweg,22,,,9331JM,Norg,Noordenveld,Drenthe,VBO,6.455289,53.064729
Klinkenkampweg,24,,,9331JM,Norg,Noordenveld,Drenthe,VBO,6.455317,53.064675
Klinkenkampweg,26,,,9331JM,Norg,Noordenveld,Drenthe,VBO,6.455476,53.064449
Klinkenkampweg,28,,,9331JM,Norg,Noordenveld,Drenthe,VBO,6.455519,53.064386
Klinkenkampweg,30,,,9331JM,Norg,Noordenveld,Drenthe,VBO,6.455621,53.064268
Klinkenkampweg,32,,,9331JM,Norg,Noordenveld,Drenthe,VBO,6.455679,53.064214
Klinkenkampweg,34,,,9331JM,Norg,Noordenveld,Drenthe,VBO,6.455766,53.064096
Klinkenkampweg,36,,,9331JM,Norg,Noordenveld,Drenthe,VBO,6.455809,53.064033
Klinkenkampweg,38,,,9331JM,Norg,Noordenveld,Drenthe,VBO,6.455880,53.063906
Klinkenkampweg,40,,,9331JM,Norg,Noordenveld,Drenthe,VBO,6.455894,53.063852
Hofstraat,6,,,9331JN,Norg,Noordenveld,Drenthe,VBO,6.455411,53.065438
Hofstraat,8,,,9331JN,Norg,Noordenveld,Drenthe,VBO,6.455306,53.065439
Klimopstraat,1,,,9331JP,Norg,Noordenveld,Drenthe,VBO,6.454921,53.064310
Klimopstraat,2,,,9331JP,Norg,Noordenveld,Drenthe,STA,6.455246,53.063410
Klimopstraat,3,,,9331JP,Norg,Noordenveld,Drenthe,VBO,6.454949,53.064247
Klimopstraat,4,,,9331JP,Norg,Noordenveld,Drenthe,STA,6.455090,53.063339
Klimopstraat,5,,,9331JP,Norg,Noordenveld,Drenthe,VBO,6.455035,53.064094
Klimopstraat,6,,,9331JP,Norg,Noordenveld,Drenthe,STA,6.454886,53.063343
Klimopstraat,7,,,9331JP,Norg,Noordenveld,Drenthe,VBO,6.455080,53.064102
Klimopstraat,8,,,9331JP,Norg,Noordenveld,Drenthe,STA,6.454699,53.063389
Klimopstraat,9,,,9331JP,Norg,Noordenveld,Drenthe,VBO,6.455078,53.064021
Klimopstraat,10,,,9331JP,Norg,Noordenveld,Drenthe,STA,6.454566,53.063467
Klimopstraat,11,,,9331JP,Norg,Noordenveld,Drenthe,VBO,6.455123,53.064030
Klimopstraat,13,,,9331JP,Norg,Noordenveld,Drenthe,VBO,6.455178,53.063841
Klimopstraat,15,,,9331JP,Norg,Noordenveld,Drenthe,VBO,6.455221,53.063786
Bremstraat,2,,,9331JR,Norg,Noordenveld,Drenthe,VBO,6.455002,53.064588
Bremstraat,4,,,9331JR,Norg,Noordenveld,Drenthe,VBO,6.454897,53.064562
Bremstraat,6,,,9331JR,Norg,Noordenveld,Drenthe,VBO,6.454702,53.064519
Bremstraat,8,,,9331JR,Norg,Noordenveld,Drenthe,VBO,6.454597,53.064493
Bremstraat,10,,,9331JR,Norg,Noordenveld,Drenthe,VBO,6.454401,53.064432
Bremstraat,12,,,9331JR,Norg,Noordenveld,Drenthe,VBO,6.454297,53.064415
Bremstraat,14,,,9331JR,Norg,Noordenveld,Drenthe,VBO,6.454087,53.064372
Bremstraat,16,,,9331JR,Norg,Noordenveld,Drenthe,VBO,6.453982,53.064355
Hulststraat,1,,,9331JS,Norg,Noordenveld,Drenthe,VBO,6.454728,53.064968
Hulststraat,2,,,9331JS,Norg,Noordenveld,Drenthe,VBO,6.454584,53.065203
Hulststraat,3,,,9331JS,Norg,Noordenveld,Drenthe,VBO,6.454638,53.064942
Hulststraat,4,,,9331JS,Norg,Noordenveld,Drenthe,VBO,6.454329,53.065142
Hulststraat,5,,,9331JS,Norg,Noordenveld,Drenthe,VBO,6.454473,53.064898
Hulststraat,6,,,9331JS,Norg,Noordenveld,Drenthe,VBO,6.454074,53.065082
Hulststraat,7,,,9331JS,Norg,Noordenveld,Drenthe,VBO,6.454382,53.064863
Hulststraat,8,,,9331JS,Norg,Noordenveld,Drenthe,VBO,6.453834,53.065012
Hulststraat,9,,,9331JS,Norg,Noordenveld,Drenthe,VBO,6.454217,53.064820
Hulststraat,10,,,9331JS,Norg,Noordenveld,Drenthe,VBO,6.453623,53.064951
Hulststraat,11,,,9331JS,Norg,Noordenveld,Drenthe,VBO,6.454127,53.064803
Hulststraat,12,,,9331JS,Norg,Noordenveld,Drenthe,VBO,6.453413,53.064899
Hulststraat,13,,,9331JS,Norg,Noordenveld,Drenthe,VBO,6.453947,53.064759
Hulststraat,14,,,9331JS,Norg,Noordenveld,Drenthe,VBO,6.453174,53.064856
Hulststraat,15,,,9331JS,Norg,Noordenveld,Drenthe,VBO,6.453857,53.064742
Hulststraat,17,,,9331JS,Norg,Noordenveld,Drenthe,VBO,6.453677,53.064690
Hulststraat,19,,,9331JS,Norg,Noordenveld,Drenthe,VBO,6.453421,53.064611
Varenstraat,1,,,9331JT,Norg,Noordenveld,Drenthe,VBO,6.453552,53.064457
Varenstraat,2,,,9331JT,Norg,Noordenveld,Drenthe,VBO,6.453117,53.064371
Varenstraat,3,,,9331JT,Norg,Noordenveld,Drenthe,VBO,6.453638,53.064331
Varenstraat,4,,,9331JT,Norg,Noordenveld,Drenthe,VBO,6.453145,53.064317
Varenstraat,6,,,9331JT,Norg,Noordenveld,Drenthe,VBO,6.453189,53.064263
Varenstraat,8,,,9331JT,Norg,Noordenveld,Drenthe,VBO,6.453217,53.064209
Anemoonstraat,1,,,9331JV,Norg,Noordenveld,Drenthe,VBO,6.452941,53.064517
Anemoonstraat,2,,,9331JV,Norg,Noordenveld,Drenthe,VBO,6.452843,53.064760
Anemoonstraat,3,,,9331JV,Norg,Noordenveld,Drenthe,VBO,6.452852,53.064508
Anemoonstraat,4,,,9331JV,Norg,Noordenveld,Drenthe,VBO,6.452603,53.064726
Anemoonstraat,5,,,9331JV,Norg,Noordenveld,Drenthe,VBO,6.452762,53.064482
Anemoonstraat,6,,,9331JV,Norg,Noordenveld,Drenthe,VBO,6.452394,53.064683
Anemoonstraat,7,,,9331JV,Norg,Noordenveld,Drenthe,VBO,6.452672,53.064465
Anemoonstraat,9,,,9331JV,Norg,Noordenveld,Drenthe,VBO,6.452282,53.064406
Anemoonstraat,11,,,9331JV,Norg,Noordenveld,Drenthe,VBO,6.452311,53.064352
Anemoonstraat,13,,,9331JV,Norg,Noordenveld,Drenthe,VBO,6.452339,53.064288
Anemoonstraat,15,,,9331JV,Norg,Noordenveld,Drenthe,VBO,6.452383,53.064234
Leliestraat,1,,,9331JW,Norg,Noordenveld,Drenthe,VBO,6.452054,53.064821
Leliestraat,2,,,9331JW,Norg,Noordenveld,Drenthe,VBO,6.451559,53.064727
Leliestraat,3,,,9331JW,Norg,Noordenveld,Drenthe,VBO,6.452109,53.064650
Leliestraat,5,,,9331JW,Norg,Noordenveld,Drenthe,VBO,6.452244,53.064056
Leliestraat,6,,,9331JW,Norg,Noordenveld,Drenthe,VBO,6.451657,53.064438
Leliestraat,7,,,9331JW,Norg,Noordenveld,Drenthe,VBO,6.452334,53.064073
Leliestraat,8,,,9331JW,Norg,Noordenveld,Drenthe,VBO,6.451697,53.064276
Leliestraat,9,,,9331JW,Norg,Noordenveld,Drenthe,VBO,6.452468,53.064081
Leliestraat,10,,,9331JW,Norg,Noordenveld,Drenthe,VBO,6.451678,53.064106
Leliestraat,11,,,9331JW,Norg,Noordenveld,Drenthe,VBO,6.452573,53.064098
Leliestraat,12,,,9331JW,Norg,Noordenveld,Drenthe,VBO,6.451763,53.063898
Leliestraat,13,,,9331JW,Norg,Noordenveld,Drenthe,VBO,6.452664,53.064151
Leliestraat,14,,,9331JW,Norg,Noordenveld,Drenthe,VBO,6.452099,53.063634
Leliestraat,15,,,9331JW,Norg,Noordenveld,Drenthe,VBO,6.452784,53.064177
Leliestraat,16,,,9331JW,Norg,Noordenveld,Drenthe,VBO,6.452490,53.063766
Leliestraat,18,,,9331JW,Norg,Noordenveld,Drenthe,VBO,6.453178,53.063832
Margrietstraat,1,,,9331JX,Norg,Noordenveld,Drenthe,VBO,6.452685,53.064995
Margrietstraat,2,,,9331JX,Norg,Noordenveld,Drenthe,VBO,6.452557,53.065275
Margrietstraat,3,,,9331JX,Norg,Noordenveld,Drenthe,VBO,6.452475,53.064970
Margrietstraat,4,,,9331JX,Norg,Noordenveld,Drenthe,VBO,6.452302,53.065223
Margrietstraat,5,,,9331JX,Norg,Noordenveld,Drenthe,VBO,6.452250,53.064927
Margrietstraat,6,,,9331JX,Norg,Noordenveld,Drenthe,VBO,6.452033,53.065172
Grootveenweg,1,,,9331KA,Norg,Noordenveld,Drenthe,VBO,6.453024,53.066071
Grootveenweg,3,,,9331KA,Norg,Noordenveld,Drenthe,VBO,6.452800,53.066064
Grootveenweg,5,,,9331KA,Norg,Noordenveld,Drenthe,VBO,6.452547,53.066066
Grootveenweg,7,,,9331KA,Norg,Noordenveld,Drenthe,VBO,6.452353,53.066059
Grootveenweg,9,,,9331KA,Norg,Noordenveld,Drenthe,VBO,6.452234,53.066069
Grootveenweg,11,,,9331KA,Norg,Noordenveld,Drenthe,VBO,6.451535,53.066192
Grootveenweg,13,,,9331KA,Norg,Noordenveld,Drenthe,VBO,6.451446,53.066184
Grootveenweg,15,,,9331KA,Norg,Noordenveld,Drenthe,VBO,6.451356,53.066166
Grootveenweg,17,,,9331KA,Norg,Noordenveld,Drenthe,VBO,6.451266,53.066140
Grootveenweg,19,,,9331KA,Norg,Noordenveld,Drenthe,VBO,6.451062,53.066340
Grootveenweg,21,,,9331KA,Norg,Noordenveld,Drenthe,VBO,6.450972,53.066323
Grootveenweg,23,,,9331KA,Norg,Noordenveld,Drenthe,VBO,6.450882,53.066305
Grootveenweg,25,,,9331KA,Norg,Noordenveld,Drenthe,VBO,6.450792,53.066288
Grootveenweg,27,,,9331KB,Norg,Noordenveld,Drenthe,VBO,6.450336,53.066562
Grootveenweg,29,,,9331KB,Norg,Noordenveld,Drenthe,VBO,6.450246,53.066536
Grootveenweg,31,,,9331KB,Norg,Noordenveld,Drenthe,VBO,6.450171,53.066518
Grootveenweg,33,,,9331KB,Norg,Noordenveld,Drenthe,VBO,6.450081,53.066501
Grootveenweg,35,,,9331KB,Norg,Noordenveld,Drenthe,VBO,6.449847,53.066701
Grootveenweg,37,,,9331KB,Norg,Noordenveld,Drenthe,VBO,6.449757,53.066684
Grootveenweg,39,,,9331KB,Norg,Noordenveld,Drenthe,VBO,6.449667,53.066676
Grootveenweg,41,,,9331KB,Norg,Noordenveld,Drenthe,VBO,6.449577,53.066649
Grootveenweg,43,,,9331KB,Norg,Noordenveld,Drenthe,VBO,6.448904,53.066557
Grootveenweg,45,,,9331KB,Norg,Noordenveld,Drenthe,VBO,6.448813,53.066530
Grootveenweg,47,,,9331KB,Norg,Noordenveld,Drenthe,VBO,6.448724,53.066522
Grootveenweg,49,,,9331KB,Norg,Noordenveld,Drenthe,VBO,6.448634,53.066505
Grootveenweg,51,,,9331KB,Norg,Noordenveld,Drenthe,VBO,6.447959,53.066358
Grootveenweg,53,,,9331KB,Norg,Noordenveld,Drenthe,VBO,6.447884,53.066341
Grootveenweg,55,,,9331KB,Norg,Noordenveld,Drenthe,VBO,6.447794,53.066324
Grootveenweg,57,A,,9331KB,Norg,Noordenveld,Drenthe,VBO,6.447154,53.065964
Grootveenweg,57,,,9331KB,Norg,Noordenveld,Drenthe,VBO,6.447689,53.066307
Grootveenweg,59,,K001,9331KB,Norg,Noordenveld,Drenthe,VBO,6.446280,53.066149
Grootveenweg,59,,K002,9331KB,Norg,Noordenveld,Drenthe,VBO,6.446448,53.066063
Grootveenweg,59,,K003,9331KB,Norg,Noordenveld,Drenthe,VBO,6.446214,53.066119
Grootveenweg,59,,K004,9331KB,Norg,Noordenveld,Drenthe,VBO,6.446381,53.066031
Grootveenweg,59,,K005,9331KB,Norg,Noordenveld,Drenthe,VBO,6.446155,53.066093
Grootveenweg,59,,K006,9331KB,Norg,Noordenveld,Drenthe,VBO,6.446320,53.066003
Grootveenweg,59,,K007,9331KB,Norg,Noordenveld,Drenthe,VBO,6.446089,53.066063
Grootveenweg,59,,K008,9331KB,Norg,Noordenveld,Drenthe,VBO,6.446259,53.065974
Grootveenweg,59,,K009,9331KB,Norg,Noordenveld,Drenthe,VBO,6.446022,53.066034
Grootveenweg,59,,K010,9331KB,Norg,Noordenveld,Drenthe,VBO,6.446190,53.065947
Grootveenweg,59,,K011,9331KB,Norg,Noordenveld,Drenthe,VBO,6.446845,53.066122
Grootveenweg,59,,K012,9331KB,Norg,Noordenveld,Drenthe,VBO,6.446126,53.065920
Grootveenweg,59,,K013,9331KB,Norg,Noordenveld,Drenthe,VBO,6.446887,53.066087
Grootveenweg,59,,K014,9331KB,Norg,Noordenveld,Drenthe,VBO,6.446685,53.066037
Grootveenweg,59,,K015,9331KB,Norg,Noordenveld,Drenthe,VBO,6.446928,53.066050
Grootveenweg,59,,K016,9331KB,Norg,Noordenveld,Drenthe,VBO,6.446725,53.066000
Grootveenweg,59,,K017,9331KB,Norg,Noordenveld,Drenthe,VBO,6.446973,53.066008
Grootveenweg,59,,K018,9331KB,Norg,Noordenveld,Drenthe,VBO,6.446778,53.065959
Grootveenweg,59,,K019,9331KB,Norg,Noordenveld,Drenthe,VBO,6.447018,53.065967
Grootveenweg,59,,K020,9331KB,Norg,Noordenveld,Drenthe,VBO,6.446815,53.065922
Grootveenweg,59,,K022,9331KB,Norg,Noordenveld,Drenthe,VBO,6.446860,53.065879
Grootveenweg,59,,K101,9331KB,Norg,Noordenveld,Drenthe,VBO,6.446304,53.066127
Grootveenweg,59,,K102,9331KB,Norg,Noordenveld,Drenthe,VBO,6.446282,53.066023
Grootveenweg,59,,K103,9331KB,Norg,Noordenveld,Drenthe,VBO,6.446238,53.066098
Grootveenweg,59,,K104,9331KB,Norg,Noordenveld,Drenthe,VBO,6.446225,53.065998
Grootveenweg,59,,K105,9331KB,Norg,Noordenveld,Drenthe,VBO,6.446179,53.066072
Grootveenweg,59,,K106,9331KB,Norg,Noordenveld,Drenthe,VBO,6.446159,53.065970
Grootveenweg,59,,K107,9331KB,Norg,Noordenveld,Drenthe,VBO,6.446105,53.066045
Grootveenweg,59,,K108,9331KB,Norg,Noordenveld,Drenthe,VBO,6.446091,53.065945
Grootveenweg,59,,K109,9331KB,Norg,Noordenveld,Drenthe,VBO,6.446044,53.066015
Grootveenweg,59,,K110,9331KB,Norg,Noordenveld,Drenthe,VBO,6.446717,53.066049
Grootveenweg,59,,K111,9331KB,Norg,Noordenveld,Drenthe,VBO,6.446805,53.066106
Grootveenweg,59,,K112,9331KB,Norg,Noordenveld,Drenthe,VBO,6.446752,53.066013
Grootveenweg,59,,K113,9331KB,Norg,Noordenveld,Drenthe,VBO,6.446843,53.066071
Grootveenweg,59,,K114,9331KB,Norg,Noordenveld,Drenthe,VBO,6.446812,53.065969
Grootveenweg,59,,K115,9331KB,Norg,Noordenveld,Drenthe,VBO,6.446893,53.066031
Grootveenweg,59,,K116,9331KB,Norg,Noordenveld,Drenthe,VBO,6.446847,53.065939
Grootveenweg,59,,K117,9331KB,Norg,Noordenveld,Drenthe,VBO,6.446934,53.065990
Grootveenweg,59,,K118,9331KB,Norg,Noordenveld,Drenthe,VBO,6.446895,53.065895
Grootveenweg,59,,K119,9331KB,Norg,Noordenveld,Drenthe,VBO,6.446984,53.065957
Grootveenweg,59,,KD01,9331KB,Norg,Noordenveld,Drenthe,VBO,6.446419,53.066082
Grootveenweg,59,,KD02,9331KB,Norg,Noordenveld,Drenthe,VBO,6.446348,53.066052
Grootveenweg,59,,,9331KB,Norg,Noordenveld,Drenthe,VBO,6.446621,53.066190
Grootveenweg,2,,,9331KC,Norg,Noordenveld,Drenthe,VBO,6.454493,53.066354
Grootveenweg,4,,,9331KC,Norg,Noordenveld,Drenthe,VBO,6.454210,53.066357
Grootveenweg,6,,,9331KC,Norg,Noordenveld,Drenthe,VBO,6.453821,53.066306
Grootveenweg,8,,,9331KC,Norg,Noordenveld,Drenthe,VBO,6.453716,53.066307
Grootveenweg,10,,,9331KC,Norg,Noordenveld,Drenthe,VBO,6.453509,53.066354
Grootveenweg,12,,,9331KC,Norg,Noordenveld,Drenthe,VBO,6.453404,53.066355
Grootveenweg,14,G,,9331KC,Norg,Noordenveld,Drenthe,VBO,6.451199,53.066633
Grootveenweg,14,,,9331KC,Norg,Noordenveld,Drenthe,VBO,6.451944,53.066413
Grootveenweg,16,,,9331KC,Norg,Noordenveld,Drenthe,VBO,6.450817,53.066842
Grootveenweg,18,,,9331KC,Norg,Noordenveld,Drenthe,VBO,6.448372,53.066795
Grootveenweg,20,,,9331KC,Norg,Noordenveld,Drenthe,VBO,6.448238,53.066805
Grootveenweg,22,,,9331KC,Norg,Noordenveld,Drenthe,VBO,6.448134,53.066815
Grootveenweg,24,,,9331KC,Norg,Noordenveld,Drenthe,VBO,6.447878,53.066700
Grootveenweg,26,,,9331KC,Norg,Noordenveld,Drenthe,VBO,6.447759,53.066711
Grootveenweg,28,,,9331KC,Norg,Noordenveld,Drenthe,VBO,6.447670,53.066747
Grootveenweg,30,,,9331KC,Norg,Noordenveld,Drenthe,VBO,6.447551,53.066757
Spechtstraat,1,,,9331KD,Norg,Noordenveld,Drenthe,VBO,6.452168,53.065845
Spechtstraat,2,,,9331KD,Norg,Noordenveld,Drenthe,VBO,6.451546,53.066012
Spechtstraat,4,,,9331KD,Norg,Noordenveld,Drenthe,VBO,6.451560,53.065958
Spechtstraat,6,,,9331KD,Norg,Noordenveld,Drenthe,VBO,6.451588,53.065904
Spechtstraat,8,,,9331KD,Norg,Noordenveld,Drenthe,VBO,6.451617,53.065850
Spechtstraat,10,,,9331KD,Norg,Noordenveld,Drenthe,VBO,6.451645,53.065795
Spechtstraat,12,,,9331KD,Norg,Noordenveld,Drenthe,VBO,6.451674,53.065741
Zwaluwstraat,1,,,9331KE,Norg,Noordenveld,Drenthe,VBO,6.450967,53.066134
Zwaluwstraat,3,,,9331KE,Norg,Noordenveld,Drenthe,VBO,6.450981,53.066080
Zwaluwstraat,5,,,9331KE,Norg,Noordenveld,Drenthe,VBO,6.451024,53.066026
Zwaluwstraat,7,,,9331KE,Norg,Noordenveld,Drenthe,VBO,6.451038,53.065980
Zwaluwstraat,9,,,9331KE,Norg,Noordenveld,Drenthe,VBO,6.451066,53.065917
Zwaluwstraat,11,,,9331KE,Norg,Noordenveld,Drenthe,VBO,6.451095,53.065863
Zwaluwstraat,13,,,9331KE,Norg,Noordenveld,Drenthe,VBO,6.451137,53.065666
Zwaluwstraat,15,,,9331KE,Norg,Noordenveld,Drenthe,VBO,6.451236,53.065683
Zwaluwstraat,17,,,9331KE,Norg,Noordenveld,Drenthe,VBO,6.451321,53.065705
Zwaluwstraat,19,,,9331KE,Norg,Noordenveld,Drenthe,VBO,6.451413,53.065722
Zwaluwstraat,2,,,9331KG,Norg,Noordenveld,Drenthe,VBO,6.450316,53.066373
Zwaluwstraat,4,,,9331KG,Norg,Noordenveld,Drenthe,VBO,6.450345,53.066319
Zwaluwstraat,6,,,9331KG,Norg,Noordenveld,Drenthe,VBO,6.450373,53.066265
Zwaluwstraat,8,,,9331KG,Norg,Noordenveld,Drenthe,VBO,6.450402,53.066211
Zwaluwstraat,10,,,9331KG,Norg,Noordenveld,Drenthe,VBO,6.450431,53.066157
Zwaluwstraat,12,,,9331KG,Norg,Noordenveld,Drenthe,VBO,6.450474,53.066102
Zwaluwstraat,14,,,9331KG,Norg,Noordenveld,Drenthe,VBO,6.450664,53.065957
Zwaluwstraat,16,,,9331KG,Norg,Noordenveld,Drenthe,VBO,6.450574,53.065940
Zwaluwstraat,18,,,9331KG,Norg,Noordenveld,Drenthe,VBO,6.450484,53.065922
Zwaluwstraat,20,,,9331KG,Norg,Noordenveld,Drenthe,VBO,6.450409,53.065905
Zwaluwstraat,22,,,9331KG,Norg,Noordenveld,Drenthe,VBO,6.450645,53.065768
Zwaluwstraat,24,,,9331KG,Norg,Noordenveld,Drenthe,VBO,6.450673,53.065714
Zwaluwstraat,26,,,9331KG,Norg,Noordenveld,Drenthe,VBO,6.450702,53.065660
Zwaluwstraat,28,,,9331KG,Norg,Noordenveld,Drenthe,VBO,6.450730,53.065606
Zwaluwstraat,30,,,9331KG,Norg,Noordenveld,Drenthe,VBO,6.450759,53.065561
Zwaluwstraat,32,,,9331KG,Norg,Noordenveld,Drenthe,VBO,6.450788,53.065506
Lijsterstraat,1,,,9331KH,Norg,Noordenveld,Drenthe,VBO,6.449752,53.066486
Lijsterstraat,2,,,9331KH,Norg,Noordenveld,Drenthe,VBO,6.449145,53.066653
Lijsterstraat,3,,,9331KH,Norg,Noordenveld,Drenthe,VBO,6.449781,53.066441
Lijsterstraat,4,,,9331KH,Norg,Noordenveld,Drenthe,VBO,6.449173,53.066599
Lijsterstraat,5,,,9331KH,Norg,Noordenveld,Drenthe,VBO,6.449810,53.066387
Lijsterstraat,6,,,9331KH,Norg,Noordenveld,Drenthe,VBO,6.449202,53.066545
Lijsterstraat,7,,,9331KH,Norg,Noordenveld,Drenthe,VBO,6.449838,53.066333
Lijsterstraat,8,,,9331KH,Norg,Noordenveld,Drenthe,VBO,6.449230,53.066491
Lijsterstraat,9,,,9331KH,Norg,Noordenveld,Drenthe,VBO,6.449867,53.066278
Lijsterstraat,10,,,9331KH,Norg,Noordenveld,Drenthe,VBO,6.449405,53.066336
Lijsterstraat,11,,,9331KH,Norg,Noordenveld,Drenthe,VBO,6.449895,53.066224
Lijsterstraat,12,,,9331KH,Norg,Noordenveld,Drenthe,VBO,6.449316,53.066319
Lijsterstraat,14,,,9331KH,Norg,Noordenveld,Drenthe,VBO,6.449226,53.066302
Lijsterstraat,16,,,9331KH,Norg,Noordenveld,Drenthe,VBO,6.449151,53.066294
Lijsterstraat,18,,,9331KH,Norg,Noordenveld,Drenthe,VBO,6.449623,53.066092
Lijsterstraat,20,,,9331KH,Norg,Noordenveld,Drenthe,VBO,6.449518,53.066075
Lijsterstraat,22,,,9331KH,Norg,Noordenveld,Drenthe,VBO,6.449428,53.066049
Lijsterstraat,24,,,9331KH,Norg,Noordenveld,Drenthe,VBO,6.449353,53.066040
Tortelstraat,1,,,9331KJ,Norg,Noordenveld,Drenthe,VBO,6.448809,53.066342
Tortelstraat,2,,,9331KJ,Norg,Noordenveld,Drenthe,VBO,6.448230,53.066473
Tortelstraat,3,,,9331KJ,Norg,Noordenveld,Drenthe,VBO,6.448837,53.066288
Tortelstraat,4,,,9331KJ,Norg,Noordenveld,Drenthe,VBO,6.448258,53.066410
Tortelstraat,5,,,9331KJ,Norg,Noordenveld,Drenthe,VBO,6.448866,53.066233
Tortelstraat,6,,,9331KJ,Norg,Noordenveld,Drenthe,VBO,6.448287,53.066364
Tortelstraat,7,,,9331KJ,Norg,Noordenveld,Drenthe,VBO,6.448894,53.066179
Tortelstraat,8,,,9331KJ,Norg,Noordenveld,Drenthe,VBO,6.448316,53.066310
Tortelstraat,9,,,9331KJ,Norg,Noordenveld,Drenthe,VBO,6.449026,53.066052
Tortelstraat,10,,,9331KJ,Norg,Noordenveld,Drenthe,VBO,6.448491,53.066138
Tortelstraat,11,,,9331KJ,Norg,Noordenveld,Drenthe,VBO,6.449054,53.065998
Tortelstraat,12,,,9331KJ,Norg,Noordenveld,Drenthe,VBO,6.448401,53.066130
Tortelstraat,13,,,9331KJ,Norg,Noordenveld,Drenthe,VBO,6.449097,53.065944
Tortelstraat,14,,,9331KJ,Norg,Noordenveld,Drenthe,VBO,6.448326,53.066112
Tortelstraat,15,,,9331KJ,Norg,Noordenveld,Drenthe,VBO,6.449111,53.065890
Tortelstraat,16,,,9331KJ,Norg,Noordenveld,Drenthe,VBO,6.448221,53.066095
Kwartelstraat,1,,,9331KK,Norg,Noordenveld,Drenthe,VBO,6.447864,53.066143
Kwartelstraat,3,,,9331KK,Norg,Noordenveld,Drenthe,VBO,6.447893,53.066089
Kwartelstraat,5,,,9331KK,Norg,Noordenveld,Drenthe,VBO,6.447921,53.066044
Kwartelstraat,7,,,9331KK,Norg,Noordenveld,Drenthe,VBO,6.447950,53.065981
Merelhof,1,,,9331KL,Norg,Noordenveld,Drenthe,VBO,6.448369,53.064836
Merelhof,2,,,9331KL,Norg,Noordenveld,Drenthe,VBO,6.448763,53.065057
Merelhof,3,,,9331KL,Norg,Noordenveld,Drenthe,VBO,6.448313,53.064980
Merelhof,4,,,9331KL,Norg,Noordenveld,Drenthe,VBO,6.448661,53.065193
Merelhof,5,,,9331KL,Norg,Noordenveld,Drenthe,VBO,6.448002,53.065091
Merelhof,6,,,9331KL,Norg,Noordenveld,Drenthe,VBO,6.448634,53.065283
Merelhof,7,,,9331KL,Norg,Noordenveld,Drenthe,VBO,6.447764,53.065102
Merelhof,8,,,9331KL,Norg,Noordenveld,Drenthe,VBO,6.448591,53.065382
Merelhof,9,,,9331KL,Norg,Noordenveld,Drenthe,VBO,6.447554,53.065059
Merelhof,10,,,9331KL,Norg,Noordenveld,Drenthe,VBO,6.448549,53.065463
Merelhof,11,,,9331KL,Norg,Noordenveld,Drenthe,VBO,6.447952,53.064876
Merelhof,12,,,9331KL,Norg,Noordenveld,Drenthe,VBO,6.448476,53.065554
Merelhof,13,,,9331KL,Norg,Noordenveld,Drenthe,VBO,6.447905,53.064750
Merelhof,15,,,9331KL,Norg,Noordenveld,Drenthe,VBO,6.447574,53.064645
Merelhof,17,,,9331KL,Norg,Noordenveld,Drenthe,VBO,6.447278,53.064729
Merelhof,19,,,9331KL,Norg,Noordenveld,Drenthe,VBO,6.447133,53.064910
Merelhof,21,A,,9331KL,Norg,Noordenveld,Drenthe,VBO,6.446864,53.064819
Merelhof,21,,,9331KL,Norg,Noordenveld,Drenthe,VBO,6.446983,53.064795
Merelhof,23,,,9331KL,Norg,Noordenveld,Drenthe,VBO,6.446712,53.064797
Merelhof,24,,,9331KL,Norg,Noordenveld,Drenthe,VBO,6.447516,53.065347
Merelhof,26,,,9331KL,Norg,Noordenveld,Drenthe,VBO,6.447292,53.065313
Merelhof,27,,,9331KL,Norg,Noordenveld,Drenthe,VBO,6.447169,53.064541
Merelhof,28,,,9331KL,Norg,Noordenveld,Drenthe,VBO,6.447655,53.065516
Merelhof,29,,,9331KL,Norg,Noordenveld,Drenthe,VBO,6.447091,53.064416
Merelhof,30,,,9331KL,Norg,Noordenveld,Drenthe,VBO,6.447434,53.065626
Merelhof,31,,,9331KL,Norg,Noordenveld,Drenthe,VBO,6.446833,53.064247
Merelhof,32,,,9331KL,Norg,Noordenveld,Drenthe,VBO,6.447180,53.065619
Merelhof,33,,,9331KL,Norg,Noordenveld,Drenthe,VBO,6.446516,53.064097
Merelhof,34,,,9331KL,Norg,Noordenveld,Drenthe,VBO,6.446941,53.065603
Merelhof,35,,,9331KL,Norg,Noordenveld,Drenthe,VBO,6.446416,53.064260
Merelhof,36,,,9331KL,Norg,Noordenveld,Drenthe,VBO,6.446685,53.065507
Merelhof,37,,,9331KL,Norg,Noordenveld,Drenthe,VBO,6.446376,53.064458
Merelhof,38,,,9331KL,Norg,Noordenveld,Drenthe,VBO,6.446478,53.065599
Merelhof,39,,,9331KL,Norg,Noordenveld,Drenthe,VBO,6.446304,53.064576
Merelhof,40,,,9331KL,Norg,Noordenveld,Drenthe,VBO,6.446254,53.065601
Merelhof,41,,,9331KL,Norg,Noordenveld,Drenthe,VBO,6.446234,53.064756
Merelhof,42,,,9331KL,Norg,Noordenveld,Drenthe,VBO,6.446499,53.065230
Merelhof,44,,,9331KL,Norg,Noordenveld,Drenthe,VBO,6.446826,53.065164
Merelhof,46,,,9331KL,Norg,Noordenveld,Drenthe,VBO,6.446554,53.065032
Leeuwerikstraat,1,,,9331KM,Norg,Noordenveld,Drenthe,VBO,6.449181,53.065107
Leeuwerikstraat,3,,,9331KM,Norg,Noordenveld,Drenthe,VBO,6.449139,53.065189
Leeuwerikstraat,5,,,9331KM,Norg,Noordenveld,Drenthe,VBO,6.449081,53.065279
Leeuwerikstraat,7,,,9331KM,Norg,Noordenveld,Drenthe,VBO,6.449054,53.065369
Leeuwerikstraat,9,,,9331KM,Norg,Noordenveld,Drenthe,VBO,6.448996,53.065459
Leeuwerikstraat,11,,,9331KM,Norg,Noordenveld,Drenthe,VBO,6.448953,53.065541
Leeuwerikstraat,13,,,9331KM,Norg,Noordenveld,Drenthe,VBO,6.448911,53.065622
Leeuwerikstraat,15,,,9331KM,Norg,Noordenveld,Drenthe,VBO,6.449390,53.065717
Leeuwerikstraat,17,,,9331KM,Norg,Noordenveld,Drenthe,VBO,6.449480,53.065734
Leeuwerikstraat,19,,,9331KM,Norg,Noordenveld,Drenthe,VBO,6.449660,53.065768
Leeuwerikstraat,21,,,9331KM,Norg,Noordenveld,Drenthe,VBO,6.449750,53.065794
Leeuwerikstraat,23,,,9331KM,Norg,Noordenveld,Drenthe,VBO,6.449915,53.065820
Leeuwerikstraat,25,,,9331KM,Norg,Noordenveld,Drenthe,VBO,6.450005,53.065837
Leeuwerikstraat,2,,,9331KN,Norg,Noordenveld,Drenthe,VBO,6.449674,53.065130
Leeuwerikstraat,4,,,9331KN,Norg,Noordenveld,Drenthe,VBO,6.449661,53.065193
Leeuwerikstraat,6,,,9331KN,Norg,Noordenveld,Drenthe,VBO,6.449604,53.065292
Leeuwerikstraat,8,,,9331KN,Norg,Noordenveld,Drenthe,VBO,6.449561,53.065365
Leeuwerikstraat,10,,,9331KN,Norg,Noordenveld,Drenthe,VBO,6.449758,53.065498
Leeuwerikstraat,12,,,9331KN,Norg,Noordenveld,Drenthe,VBO,6.449863,53.065515
Leeuwerikstraat,14,,,9331KN,Norg,Noordenveld,Drenthe,VBO,6.450028,53.065549
Leeuwerikstraat,16,,,9331KN,Norg,Noordenveld,Drenthe,VBO,6.450133,53.065566
Leeuwerikstraat,18,,,9331KN,Norg,Noordenveld,Drenthe,VBO,6.450282,53.065592
Leeuwerikstraat,20,,,9331KN,Norg,Noordenveld,Drenthe,VBO,6.450372,53.065609
Mezenstraat,1,,,9331KP,Norg,Noordenveld,Drenthe,VBO,6.448761,53.066836
Mezenstraat,3,,,9331KP,Norg,Noordenveld,Drenthe,VBO,6.448733,53.066900
Mezenstraat,5,,,9331KP,Norg,Noordenveld,Drenthe,VBO,6.448690,53.066963
Mezenstraat,7,,,9331KP,Norg,Noordenveld,Drenthe,VBO,6.448676,53.067026
Mezenstraat,9,,,9331KP,Norg,Noordenveld,Drenthe,VBO,6.448349,53.067074
Mezenstraat,11,,,9331KP,Norg,Noordenveld,Drenthe,VBO,6.448333,53.067011
Mezenstraat,13,,,9331KP,Norg,Noordenveld,Drenthe,VBO,6.448331,53.066948
Mezenstraat,15,,,9331KP,Norg,Noordenveld,Drenthe,VBO,6.447492,53.067405
Mezenstraat,17,,,9331KP,Norg,Noordenveld,Drenthe,VBO,6.447388,53.067415
Mezenstraat,19,,,9331KP,Norg,Noordenveld,Drenthe,VBO,6.447269,53.067425
Mezenstraat,21,,,9331KP,Norg,Noordenveld,Drenthe,VBO,6.447196,53.067488
Mezenstraat,23,,,9331KP,Norg,Noordenveld,Drenthe,VBO,6.447077,53.067498
Mezenstraat,25,,,9331KP,Norg,Noordenveld,Drenthe,VBO,6.446958,53.067517
Mezenstraat,27,,,9331KP,Norg,Noordenveld,Drenthe,VBO,6.446535,53.067434
Mezenstraat,29,,,9331KP,Norg,Noordenveld,Drenthe,VBO,6.446568,53.067498
Mezenstraat,31,,,9331KP,Norg,Noordenveld,Drenthe,VBO,6.446588,53.067568
Mezenstraat,2,,,9331KR,Norg,Noordenveld,Drenthe,VBO,6.449048,53.066987
Mezenstraat,4,,,9331KR,Norg,Noordenveld,Drenthe,VBO,6.449153,53.067013
Mezenstraat,6,,,9331KR,Norg,Noordenveld,Drenthe,VBO,6.449258,53.067030
Mezenstraat,8,,,9331KR,Norg,Noordenveld,Drenthe,VBO,6.449572,53.067063
Mezenstraat,10,,,9331KR,Norg,Noordenveld,Drenthe,VBO,6.449529,53.067117
Mezenstraat,12,,,9331KR,Norg,Noordenveld,Drenthe,VBO,6.449472,53.067208
Mezenstraat,14,A,,9331KR,Norg,Noordenveld,Drenthe,VBO,6.449300,53.067515
Mezenstraat,14,,,9331KR,Norg,Noordenveld,Drenthe,VBO,6.449443,53.067271
Mezenstraat,16,,,9331KR,Norg,Noordenveld,Drenthe,VBO,6.448278,53.067227
Mezenstraat,18,,,9331KR,Norg,Noordenveld,Drenthe,VBO,6.448235,53.067290
Mezenstraat,20,,,9331KR,Norg,Noordenveld,Drenthe,VBO,6.448192,53.067354
Mezenstraat,22,,,9331KR,Norg,Noordenveld,Drenthe,VBO,6.448164,53.067417
Mezenstraat,24,,,9331KR,Norg,Noordenveld,Drenthe,VBO,6.447742,53.067250
Mezenstraat,26,,,9331KR,Norg,Noordenveld,Drenthe,VBO,6.447758,53.067313
Mezenstraat,28,,,9331KR,Norg,Noordenveld,Drenthe,VBO,6.447775,53.067375
Mezenstraat,30,,,9331KR,Norg,Noordenveld,Drenthe,VBO,6.447807,53.067456
Mezenstraat,32,,,9331KR,Norg,Noordenveld,Drenthe,VBO,6.448154,53.067615
Mezenstraat,34,,,9331KR,Norg,Noordenveld,Drenthe,VBO,6.448094,53.067615
Mezenstraat,36,,,9331KR,Norg,Noordenveld,Drenthe,VBO,6.448005,53.067625
Mezenstraat,38,,,9331KR,Norg,Noordenveld,Drenthe,VBO,6.447915,53.067635
Mezenstraat,40,,,9331KR,Norg,Noordenveld,Drenthe,VBO,6.447826,53.067645
Mezenstraat,42,,,9331KR,Norg,Noordenveld,Drenthe,VBO,6.447737,53.067654
Mezenstraat,44,,,9331KR,Norg,Noordenveld,Drenthe,VBO,6.447365,53.067712
Mezenstraat,46,,,9331KR,Norg,Noordenveld,Drenthe,VBO,6.447291,53.067721
Mezenstraat,48,,,9331KR,Norg,Noordenveld,Drenthe,VBO,6.447217,53.067731
Mezenstraat,50,,,9331KR,Norg,Noordenveld,Drenthe,VBO,6.447112,53.067741
Mezenstraat,52,,,9331KR,Norg,Noordenveld,Drenthe,VBO,6.447038,53.067750
Mezenstraat,54,,,9331KR,Norg,Noordenveld,Drenthe,VBO,6.446964,53.067760
Mezenstraat,56,,,9331KR,Norg,Noordenveld,Drenthe,VBO,6.446769,53.067717
Mezenstraat,58,,,9331KR,Norg,Noordenveld,Drenthe,VBO,6.446649,53.067727
Mezenstraat,60,,,9331KR,Norg,Noordenveld,Drenthe,VBO,6.446545,53.067737
Mezenstraat,62,,,9331KR,Norg,Noordenveld,Drenthe,VBO,6.446441,53.067747
Mezenstraat,64,,,9331KR,Norg,Noordenveld,Drenthe,VBO,6.446742,53.067843
Mezenstraat,66,,,9331KR,Norg,Noordenveld,Drenthe,VBO,6.446758,53.067906
Mezenstraat,68,,,9331KR,Norg,Noordenveld,Drenthe,VBO,6.446775,53.067977
Batinge,1,,,9331KS,Norg,Noordenveld,Drenthe,VBO,6.445699,53.067277
Batinge,3,,,9331KS,Norg,Noordenveld,Drenthe,VBO,6.445682,53.067223
Batinge,5,,,9331KS,Norg,Noordenveld,Drenthe,VBO,6.445666,53.067160
Batinge,7,,,9331KS,Norg,Noordenveld,Drenthe,VBO,6.445650,53.067107
Batinge,9,,,9331KS,Norg,Noordenveld,Drenthe,VBO,6.445633,53.067053
Batinge,11,,,9331KS,Norg,Noordenveld,Drenthe,VBO,6.445632,53.066990
Batinge,13,,,9331KS,Norg,Noordenveld,Drenthe,VBO,6.445570,53.066910
Batinge,15,,,9331KS,Norg,Noordenveld,Drenthe,VBO,6.445554,53.066856
Batinge,17,,,9331KS,Norg,Noordenveld,Drenthe,VBO,6.445415,53.066650
Batinge,19,,,9331KS,Norg,Noordenveld,Drenthe,VBO,6.445310,53.066651
Batinge,21,,,9331KS,Norg,Noordenveld,Drenthe,VBO,6.445206,53.066670
Batinge,23,,,9331KS,Norg,Noordenveld,Drenthe,VBO,6.445117,53.066680
Batinge,25,,,9331KS,Norg,Noordenveld,Drenthe,VBO,6.444923,53.066673
Batinge,27,,,9331KS,Norg,Noordenveld,Drenthe,VBO,6.444804,53.066683
Batinge,29,,,9331KS,Norg,Noordenveld,Drenthe,VBO,6.444640,53.066675
Batinge,31,,,9331KS,Norg,Noordenveld,Drenthe,VBO,6.444550,53.066685
Batinge,33,,,9331KS,Norg,Noordenveld,Drenthe,VBO,6.444175,53.066598
Batinge,35,,,9331KS,Norg,Noordenveld,Drenthe,VBO,6.444085,53.066581
Batinge,37,,,9331KS,Norg,Noordenveld,Drenthe,VBO,6.443980,53.066555
Batinge,39,,,9331KS,Norg,Noordenveld,Drenthe,VBO,6.443876,53.066547
Batinge,41,,,9331KS,Norg,Noordenveld,Drenthe,VBO,6.444060,53.066752
Batinge,43,,,9331KS,Norg,Noordenveld,Drenthe,VBO,6.444031,53.066806
Batinge,45,,,9331KT,Norg,Noordenveld,Drenthe,VBO,6.443928,53.066879
Batinge,47,,,9331KT,Norg,Noordenveld,Drenthe,VBO,6.443900,53.066933
Batinge,49,,,9331KT,Norg,Noordenveld,Drenthe,VBO,6.443465,53.066847
Batinge,51,,,9331KT,Norg,Noordenveld,Drenthe,VBO,6.443493,53.066784
Batinge,53,,,9331KT,Norg,Noordenveld,Drenthe,VBO,6.443522,53.066739
Batinge,55,,,9331KT,Norg,Noordenveld,Drenthe,VBO,6.443536,53.066676
Batinge,57,,,9331KT,Norg,Noordenveld,Drenthe,VBO,6.443711,53.066549
Batinge,59,,,9331KT,Norg,Noordenveld,Drenthe,VBO,6.443622,53.066531
Batinge,61,,,9331KT,Norg,Noordenveld,Drenthe,VBO,6.443246,53.066427
Batinge,63,,,9331KT,Norg,Noordenveld,Drenthe,VBO,6.443141,53.066410
Batinge,65,,,9331KT,Norg,Noordenveld,Drenthe,VBO,6.443006,53.066357
Batinge,67,,,9331KT,Norg,Noordenveld,Drenthe,VBO,6.442901,53.066331
Batinge,69,,,9331KT,Norg,Noordenveld,Drenthe,VBO,6.442811,53.066314
Batinge,71,,,9331KT,Norg,Noordenveld,Drenthe,VBO,6.442721,53.066297
Batinge,73,,,9331KT,Norg,Noordenveld,Drenthe,VBO,6.443145,53.066572
Batinge,75,,,9331KT,Norg,Noordenveld,Drenthe,VBO,6.443117,53.066626
Batinge,77,,,9331KT,Norg,Noordenveld,Drenthe,VBO,6.443088,53.066680
Batinge,79,,,9331KT,Norg,Noordenveld,Drenthe,VBO,6.443060,53.066734
Batinge,81,,,9331KT,Norg,Noordenveld,Drenthe,VBO,6.442654,53.066603
Batinge,83,,,9331KT,Norg,Noordenveld,Drenthe,VBO,6.442682,53.066558
Batinge,85,,,9331KT,Norg,Noordenveld,Drenthe,VBO,6.442696,53.066504
Batinge,87,,,9331KT,Norg,Noordenveld,Drenthe,VBO,6.442739,53.066449
Batinge,89,,,9331KV,Norg,Noordenveld,Drenthe,VBO,6.442322,53.066480
Batinge,91,,,9331KV,Norg,Noordenveld,Drenthe,VBO,6.442217,53.066463
Batinge,93,,,9331KV,Norg,Noordenveld,Drenthe,VBO,6.442039,53.066491
Batinge,95,,,9331KV,Norg,Noordenveld,Drenthe,VBO,6.441949,53.066474
Batinge,97,,,9331KV,Norg,Noordenveld,Drenthe,VBO,6.441803,53.066592
Batinge,99,,,9331KV,Norg,Noordenveld,Drenthe,VBO,6.441774,53.066647
Batinge,101,,,9331KV,Norg,Noordenveld,Drenthe,VBO,6.441746,53.066710
Batinge,103,,,9331KV,Norg,Noordenveld,Drenthe,VBO,6.441717,53.066755
Batinge,105,,,9331KV,Norg,Noordenveld,Drenthe,VBO,6.441708,53.067007
Batinge,107,,,9331KV,Norg,Noordenveld,Drenthe,VBO,6.441604,53.066990
Batinge,109,,,9331KV,Norg,Noordenveld,Drenthe,VBO,6.441513,53.066963
Batinge,111,,,9331KV,Norg,Noordenveld,Drenthe,VBO,6.441424,53.066946
Batinge,113,,,9331KV,Norg,Noordenveld,Drenthe,VBO,6.442042,53.067228
Batinge,115,,,9331KV,Norg,Noordenveld,Drenthe,VBO,6.442014,53.067283
Batinge,117,,,9331KV,Norg,Noordenveld,Drenthe,VBO,6.441986,53.067373
Batinge,119,,,9331KV,Norg,Noordenveld,Drenthe,VBO,6.441972,53.067418
Batinge,121,,,9331KV,Norg,Noordenveld,Drenthe,VBO,6.441928,53.067463
Batinge,123,,,9331KV,Norg,Noordenveld,Drenthe,VBO,6.441915,53.067517
Batinge,125,,,9331KV,Norg,Noordenveld,Drenthe,VBO,6.441479,53.067377
Batinge,127,,,9331KV,Norg,Noordenveld,Drenthe,VBO,6.441507,53.067323
Batinge,129,,,9331KV,Norg,Noordenveld,Drenthe,VBO,6.441536,53.067269
Batinge,131,,,9331KV,Norg,Noordenveld,Drenthe,VBO,6.441550,53.067224
Batinge,2,,,9331KW,Norg,Noordenveld,Drenthe,VBO,6.445221,53.067263
Batinge,4,,,9331KW,Norg,Noordenveld,Drenthe,VBO,6.445132,53.067273
Batinge,6,,,9331KW,Norg,Noordenveld,Drenthe,VBO,6.445027,53.067283
Batinge,8,,,9331KW,Norg,Noordenveld,Drenthe,VBO,6.444938,53.067293
Batinge,10,,,9331KW,Norg,Noordenveld,Drenthe,VBO,6.444849,53.067302
Batinge,12,,,9331KW,Norg,Noordenveld,Drenthe,VBO,6.444759,53.067303
Batinge,14,,,9331KW,Norg,Noordenveld,Drenthe,VBO,6.445232,53.067092
Batinge,16,,,9331KW,Norg,Noordenveld,Drenthe,VBO,6.445215,53.067039
Batinge,18,,,9331KW,Norg,Noordenveld,Drenthe,VBO,6.445199,53.066985
Batinge,20,,,9331KW,Norg,Noordenveld,Drenthe,VBO,6.445183,53.066922
Batinge,22,,,9331KW,Norg,Noordenveld,Drenthe,VBO,6.444915,53.066969
Batinge,24,,,9331KW,Norg,Noordenveld,Drenthe,VBO,6.444811,53.066979
Batinge,26,,,9331KW,Norg,Noordenveld,Drenthe,VBO,6.444722,53.066989
Batinge,28,,,9331KW,Norg,Noordenveld,Drenthe,VBO,6.444633,53.066999
Batinge,30,,,9331KW,Norg,Noordenveld,Drenthe,VBO,6.444424,53.067010
Batinge,32,,,9331KW,Norg,Noordenveld,Drenthe,VBO,6.444335,53.067019
Batinge,34,,,9331KW,Norg,Noordenveld,Drenthe,VBO,6.444324,53.067181
Batinge,36,,,9331KW,Norg,Noordenveld,Drenthe,VBO,6.444325,53.067235
Batinge,38,,,9331KW,Norg,Noordenveld,Drenthe,VBO,6.444356,53.067298
Batinge,40,,,9331KW,Norg,Noordenveld,Drenthe,VBO,6.444373,53.067352
Batinge,42,,,9331KX,Norg,Noordenveld,Drenthe,VBO,6.444389,53.067414
Batinge,44,,,9331KX,Norg,Noordenveld,Drenthe,VBO,6.444405,53.067468
Batinge,46,,,9331KX,Norg,Noordenveld,Drenthe,VBO,6.443997,53.067229
Batinge,48,,,9331KX,Norg,Noordenveld,Drenthe,VBO,6.443968,53.067292
Batinge,50,,,9331KX,Norg,Noordenveld,Drenthe,VBO,6.443954,53.067337
Batinge,52,,,9331KX,Norg,Noordenveld,Drenthe,VBO,6.443926,53.067391
Batinge,54,,,9331KX,Norg,Noordenveld,Drenthe,VBO,6.443897,53.067446
Batinge,56,,,9331KX,Norg,Noordenveld,Drenthe,VBO,6.443869,53.067500
Batinge,58,,,9331KX,Norg,Noordenveld,Drenthe,VBO,6.443565,53.067269
Batinge,60,,,9331KX,Norg,Noordenveld,Drenthe,VBO,6.443521,53.067323
Batinge,62,,,9331KX,Norg,Noordenveld,Drenthe,VBO,6.443508,53.067377
Batinge,64,,,9331KX,Norg,Noordenveld,Drenthe,VBO,6.443464,53.067431
Batinge,66,,,9331KX,Norg,Noordenveld,Drenthe,VBO,6.443436,53.067486
Batinge,68,,,9331KX,Norg,Noordenveld,Drenthe,VBO,6.443407,53.067540
Batinge,70,,,9331KX,Norg,Noordenveld,Drenthe,VBO,6.443103,53.067300
Batinge,72,,,9331KX,Norg,Noordenveld,Drenthe,VBO,6.443090,53.067354
Batinge,74,,,9331KX,Norg,Noordenveld,Drenthe,VBO,6.443061,53.067408
Batinge,76,,,9331KX,Norg,Noordenveld,Drenthe,VBO,6.443032,53.067462
Batinge,78,,,9331KX,Norg,Noordenveld,Drenthe,VBO,6.443020,53.067543
Batinge,80,,,9331KX,Norg,Noordenveld,Drenthe,VBO,6.442991,53.067597
Batinge,82,,,9331KZ,Norg,Noordenveld,Drenthe,VBO,6.443141,53.067030
Batinge,84,,,9331KZ,Norg,Noordenveld,Drenthe,VBO,6.443036,53.067013
Batinge,86,,,9331KZ,Norg,Noordenveld,Drenthe,VBO,6.442961,53.066996
Batinge,88,,,9331KZ,Norg,Noordenveld,Drenthe,VBO,6.442872,53.066978
Batinge,90,,,9331KZ,Norg,Noordenveld,Drenthe,VBO,6.442720,53.066863
Batinge,92,,,9331KZ,Norg,Noordenveld,Drenthe,VBO,6.442615,53.066855
Batinge,94,,,9331KZ,Norg,Noordenveld,Drenthe,VBO,6.442539,53.066811
Batinge,96,,,9331KZ,Norg,Noordenveld,Drenthe,VBO,6.442464,53.066802
Batinge,98,,,9331KZ,Norg,Noordenveld,Drenthe,VBO,6.442374,53.066776
Batinge,100,,,9331KZ,Norg,Noordenveld,Drenthe,VBO,6.442299,53.066759
Batinge,102,,,9331KZ,Norg,Noordenveld,Drenthe,VBO,6.442232,53.067047
Batinge,104,,,9331KZ,Norg,Noordenveld,Drenthe,VBO,6.442307,53.067064
Batinge,106,,,9331KZ,Norg,Noordenveld,Drenthe,VBO,6.442397,53.067081
Batinge,108,,,9331KZ,Norg,Noordenveld,Drenthe,VBO,6.442487,53.067099
Batinge,110,,,9331KZ,Norg,Noordenveld,Drenthe,VBO,6.442623,53.067205
Batinge,112,,,9331KZ,Norg,Noordenveld,Drenthe,VBO,6.442713,53.067213
Batinge,114,,,9331KZ,Norg,Noordenveld,Drenthe,VBO,6.442583,53.067394
Batinge,116,,,9331KZ,Norg,Noordenveld,Drenthe,VBO,6.442555,53.067449
Batinge,118,,,9331KZ,Norg,Noordenveld,Drenthe,VBO,6.442526,53.067503
Batinge,120,,,9331KZ,Norg,Noordenveld,Drenthe,VBO,6.442424,53.067593
Batinge,122,,,9331KZ,Norg,Noordenveld,Drenthe,VBO,6.442380,53.067639
Nachtegaalstraat,2,,,9331LA,Norg,Noordenveld,Drenthe,VBO,6.446165,53.064999
Nachtegaalstraat,4,,,9331LA,Norg,Noordenveld,Drenthe,VBO,6.446094,53.065144
Nachtegaalstraat,6,,,9331LA,Norg,Noordenveld,Drenthe,VBO,6.446058,53.065265
Nachtegaalstraat,8,,,9331LA,Norg,Noordenveld,Drenthe,VBO,6.445967,53.065432
Nachtegaalstraat,10,,,9331LA,Norg,Noordenveld,Drenthe,VBO,6.445926,53.065594
Nachtegaalstraat,9,,,9331LB,Norg,Noordenveld,Drenthe,VBO,6.445351,53.065851
Nachtegaalstraat,11,,,9331LB,Norg,Noordenveld,Drenthe,VBO,6.445367,53.065905
Nachtegaalstraat,13,,,9331LB,Norg,Noordenveld,Drenthe,VBO,6.445385,53.066022
Nachtegaalstraat,15,,,9331LB,Norg,Noordenveld,Drenthe,VBO,6.445386,53.066067
Zwarte Water,1,,,9331LC,Norg,Noordenveld,Drenthe,VBO,6.445184,53.064532
Zwarte Water,2,,,9331LC,Norg,Noordenveld,Drenthe,VBO,6.445440,53.065248
Zwarte Water,3,,,9331LC,Norg,Noordenveld,Drenthe,VBO,6.445109,53.064505
Zwarte Water,4,,,9331LC,Norg,Noordenveld,Drenthe,VBO,6.445469,53.065194
Zwarte Water,5,,,9331LC,Norg,Noordenveld,Drenthe,VBO,6.443953,53.064210
Zwarte Water,6,,,9331LC,Norg,Noordenveld,Drenthe,VBO,6.445524,53.064996
Zwarte Water,8,,,9331LC,Norg,Noordenveld,Drenthe,VBO,6.445520,53.064937
Zwarte Water,10,,,9331LC,Norg,Noordenveld,Drenthe,VBO,6.445266,53.064836
Zwarte Water,12,,,9331LC,Norg,Noordenveld,Drenthe,VBO,6.445191,53.064810
Zwarte Water,14,,,9331LC,Norg,Noordenveld,Drenthe,VBO,6.444981,53.064758
Zwarte Water,16,,,9331LC,Norg,Noordenveld,Drenthe,VBO,6.444906,53.064732
Zwarte Water,18,,,9331LC,Norg,Noordenveld,Drenthe,VBO,6.444607,53.064716
Clemenswerth,1,,,9331LD,Norg,Noordenveld,Drenthe,VBO,6.445693,53.064608
Clemenswerth,2,,,9331LD,Norg,Noordenveld,Drenthe,VBO,6.445418,53.064323
Clemenswerth,3,,,9331LD,Norg,Noordenveld,Drenthe,VBO,6.445764,53.064446
Clemenswerth,4,,,9331LD,Norg,Noordenveld,Drenthe,VBO,6.445432,53.064278
Clemenswerth,5,,,9331LD,Norg,Noordenveld,Drenthe,VBO,6.445849,53.064274
Clemenswerth,6,,,9331LD,Norg,Noordenveld,Drenthe,VBO,6.445427,53.064107
Clemenswerth,7,,,9331LD,Norg,Noordenveld,Drenthe,VBO,6.445979,53.064093
Clemenswerth,8,,,9331LD,Norg,Noordenveld,Drenthe,VBO,6.445411,53.064053
Clemenswerth,9,,,9331LD,Norg,Noordenveld,Drenthe,VBO,6.445945,53.063905
Clemenswerth,10,,,9331LD,Norg,Noordenveld,Drenthe,VBO,6.445288,53.063902
Clemenswerth,11,,,9331LD,Norg,Noordenveld,Drenthe,VBO,6.445733,53.063772
Clemenswerth,12,,,9331LD,Norg,Noordenveld,Drenthe,VBO,6.445227,53.063857
Clemenswerth,13,,,9331LD,Norg,Noordenveld,Drenthe,VBO,6.445565,53.063648
Clemenswerth,14,,,9331LD,Norg,Noordenveld,Drenthe,VBO,6.444986,53.063751
Clemenswerth,15,,,9331LD,Norg,Noordenveld,Drenthe,VBO,6.445383,53.063523
Clemenswerth,16,,,9331LD,Norg,Noordenveld,Drenthe,VBO,6.444970,53.063698
Clemenswerth,17,,,9331LD,Norg,Noordenveld,Drenthe,VBO,6.445157,53.063426
Clemenswerth,18,,,9331LD,Norg,Noordenveld,Drenthe,VBO,6.444147,53.062986
Clemenswerth,19,,,9331LD,Norg,Noordenveld,Drenthe,VBO,6.444637,53.062883
Clemenswerth,20,,,9331LD,Norg,Noordenveld,Drenthe,VBO,6.444086,53.062942
Clemenswerth,21,,,9331LD,Norg,Noordenveld,Drenthe,VBO,6.444410,53.062768
Clemenswerth,22,,,9331LD,Norg,Noordenveld,Drenthe,VBO,6.443890,53.062836
Clemenswerth,23,,,9331LD,Norg,Noordenveld,Drenthe,VBO,6.444183,53.062635
Clemenswerth,24,,,9331LD,Norg,Noordenveld,Drenthe,VBO,6.443800,53.062809
Clemenswerth,25,,,9331LD,Norg,Noordenveld,Drenthe,VBO,6.443972,53.062520
Clemenswerth,26,,,9331LD,Norg,Noordenveld,Drenthe,VBO,6.443618,53.062694
Clemenswerth,27,,,9331LD,Norg,Noordenveld,Drenthe,VBO,6.443775,53.062396
Clemenswerth,28,,,9331LD,Norg,Noordenveld,Drenthe,VBO,6.443557,53.062659
Clemenswerth,29,,,9331LD,Norg,Noordenveld,Drenthe,VBO,6.443474,53.062291
Clemenswerth,30,,,9331LD,Norg,Noordenveld,Drenthe,VBO,6.443316,53.062571
Clemenswerth,31,,,9331LD,Norg,Noordenveld,Drenthe,VBO,6.443292,53.062176
Clemenswerth,33,,,9331LD,Norg,Noordenveld,Drenthe,VBO,6.443036,53.062097
Clemenswerth,35,,,9331LD,Norg,Noordenveld,Drenthe,VBO,6.442735,53.061983
Dikninge,1,,,9331LE,Norg,Noordenveld,Drenthe,VBO,6.439926,53.067337
Dikninge,3,,,9331LE,Norg,Noordenveld,Drenthe,VBO,6.439913,53.067391
Dikninge,5,,,9331LE,Norg,Noordenveld,Drenthe,VBO,6.439796,53.067518
Dikninge,7,,,9331LE,Norg,Noordenveld,Drenthe,VBO,6.439768,53.067572
Dikninge,9,,,9331LE,Norg,Noordenveld,Drenthe,VBO,6.439606,53.067663
Dikninge,11,,,9331LE,Norg,Noordenveld,Drenthe,VBO,6.439577,53.067717
Dikninge,2,,,9331LG,Norg,Noordenveld,Drenthe,VBO,6.441365,53.067612
Dikninge,4,,,9331LG,Norg,Noordenveld,Drenthe,VBO,6.441275,53.067604
Dikninge,6,,,9331LG,Norg,Noordenveld,Drenthe,VBO,6.441185,53.067577
Dikninge,8,,,9331LG,Norg,Noordenveld,Drenthe,VBO,6.441110,53.067560
Dikninge,10,,,9331LG,Norg,Noordenveld,Drenthe,VBO,6.440869,53.067472
Dikninge,12,,,9331LG,Norg,Noordenveld,Drenthe,VBO,6.440853,53.067419
Dikninge,14,,,9331LG,Norg,Noordenveld,Drenthe,VBO,6.440852,53.067365
Dikninge,16,,,9331LG,Norg,Noordenveld,Drenthe,VBO,6.440851,53.067311
Dikninge,18,,,9331LG,Norg,Noordenveld,Drenthe,VBO,6.440388,53.067324
Dikninge,20,,,9331LG,Norg,Noordenveld,Drenthe,VBO,6.440390,53.067378
Dikninge,22,,,9331LG,Norg,Noordenveld,Drenthe,VBO,6.440391,53.067423
Dikninge,24,,,9331LG,Norg,Noordenveld,Drenthe,VBO,6.440392,53.067477
Dikninge,26,,,9331LG,Norg,Noordenveld,Drenthe,VBO,6.440635,53.067636
Dikninge,28,,,9331LG,Norg,Noordenveld,Drenthe,VBO,6.440636,53.067681
Dikninge,30,,,9331LG,Norg,Noordenveld,Drenthe,VBO,6.440637,53.067735
Dikninge,32,,,9331LH,Norg,Noordenveld,Drenthe,VBO,6.440283,53.067882
Dikninge,34,,,9331LH,Norg,Noordenveld,Drenthe,VBO,6.440193,53.067883
Dikninge,36,,,9331LH,Norg,Noordenveld,Drenthe,VBO,6.440104,53.067892
Dikninge,38,,,9331LH,Norg,Noordenveld,Drenthe,VBO,6.440014,53.067893
Dikninge,40,,,9331LH,Norg,Noordenveld,Drenthe,VBO,6.439821,53.067931
Dikninge,42,,,9331LH,Norg,Noordenveld,Drenthe,VBO,6.439717,53.067932
Dikninge,44,,,9331LH,Norg,Noordenveld,Drenthe,VBO,6.439434,53.067943
Dikninge,46,,,9331LH,Norg,Noordenveld,Drenthe,VBO,6.439329,53.067926
Dikninge,48,,,9331LH,Norg,Noordenveld,Drenthe,VBO,6.439163,53.067865
Dikninge,50,,,9331LH,Norg,Noordenveld,Drenthe,VBO,6.439073,53.067848
Dikninge,52,,,9331LH,Norg,Noordenveld,Drenthe,VBO,6.438998,53.067830
Dikninge,54,,,9331LH,Norg,Noordenveld,Drenthe,VBO,6.438908,53.067804
Vennebroek,2,,,9331LH,Norg,Noordenveld,Drenthe,VBO,6.442869,53.062593
Vennebroek,4,,,9331LH,Norg,Noordenveld,Drenthe,VBO,6.442913,53.062548
Vennebroek,6,,,9331LH,Norg,Noordenveld,Drenthe,VBO,6.442957,53.062502
Vennebroek,8,,,9331LH,Norg,Noordenveld,Drenthe,VBO,6.443000,53.062457
Vennebroek,10,,,9331LH,Norg,Noordenveld,Drenthe,VBO,6.443044,53.062412
Entinge,1,,,9331LJ,Norg,Noordenveld,Drenthe,VBO,6.440277,53.067037
Entinge,3,,,9331LJ,Norg,Noordenveld,Drenthe,VBO,6.440290,53.066974
Entinge,5,,,9331LJ,Norg,Noordenveld,Drenthe,VBO,6.440304,53.066920
Entinge,7,,,9331LJ,Norg,Noordenveld,Drenthe,VBO,6.440303,53.066875
Entinge,9,,,9331LJ,Norg,Noordenveld,Drenthe,VBO,6.440523,53.066729
Entinge,11,,,9331LJ,Norg,Noordenveld,Drenthe,VBO,6.440552,53.066675
Entinge,13,,,9331LJ,Norg,Noordenveld,Drenthe,VBO,6.440668,53.066548
Entinge,15,,,9331LJ,Norg,Noordenveld,Drenthe,VBO,6.440696,53.066494
Entinge,2,,,9331LK,Norg,Noordenveld,Drenthe,VBO,6.439889,53.067050
Entinge,4,,,9331LK,Norg,Noordenveld,Drenthe,VBO,6.439858,53.066987
Entinge,6,,,9331LK,Norg,Noordenveld,Drenthe,VBO,6.439842,53.066933
Entinge,8,,,9331LK,Norg,Noordenveld,Drenthe,VBO,6.439840,53.066879
Entinge,10,,,9331LK,Norg,Noordenveld,Drenthe,VBO,6.439109,53.066868
Entinge,12,,,9331LK,Norg,Noordenveld,Drenthe,VBO,6.439033,53.066823
Entinge,14,,,9331LK,Norg,Noordenveld,Drenthe,VBO,6.438958,53.066797
Entinge,16,,,9331LK,Norg,Noordenveld,Drenthe,VBO,6.438897,53.066753
Entinge,18,,,9331LK,Norg,Noordenveld,Drenthe,VBO,6.438807,53.066727
Entinge,20,,,9331LK,Norg,Noordenveld,Drenthe,VBO,6.438747,53.066682
Entinge,22,,,9331LK,Norg,Noordenveld,Drenthe,VBO,6.439006,53.066311
Entinge,24,,,9331LK,Norg,Noordenveld,Drenthe,VBO,6.439052,53.066347
Entinge,26,,,9331LK,Norg,Noordenveld,Drenthe,VBO,6.439127,53.066391
Entinge,28,,,9331LK,Norg,Noordenveld,Drenthe,VBO,6.439188,53.066445
Entinge,30,,,9331LK,Norg,Noordenveld,Drenthe,VBO,6.439234,53.066480
Entinge,32,,,9331LK,Norg,Noordenveld,Drenthe,VBO,6.439280,53.066525
Entinge,34,,,9331LK,Norg,Noordenveld,Drenthe,VBO,6.439326,53.066578
Entinge,36,,,9331LL,Norg,Noordenveld,Drenthe,VBO,6.439537,53.066666
Entinge,38,,,9331LL,Norg,Noordenveld,Drenthe,VBO,6.439611,53.066657
Entinge,40,,,9331LL,Norg,Noordenveld,Drenthe,VBO,6.439716,53.066656
Entinge,42,,,9331LL,Norg,Noordenveld,Drenthe,VBO,6.439790,53.066655
Entinge,44,,,9331LL,Norg,Noordenveld,Drenthe,VBO,6.439969,53.066662
Entinge,46,,,9331LL,Norg,Noordenveld,Drenthe,VBO,6.440059,53.066662
Entinge,48,,,9331LL,Norg,Noordenveld,Drenthe,VBO,6.440148,53.066661
Entinge,50,,,9331LL,Norg,Noordenveld,Drenthe,VBO,6.440248,53.066444
Entinge,52,,,9331LL,Norg,Noordenveld,Drenthe,VBO,6.440246,53.066390
Entinge,54,,,9331LL,Norg,Noordenveld,Drenthe,VBO,6.439931,53.066321
Entinge,56,,,9331LL,Norg,Noordenveld,Drenthe,VBO,6.439827,53.066313
Entinge,58,,,9331LL,Norg,Noordenveld,Drenthe,VBO,6.439752,53.066296
Entinge,60,,,9331LL,Norg,Noordenveld,Drenthe,VBO,6.439601,53.066234
Entinge,62,,,9331LL,Norg,Noordenveld,Drenthe,VBO,6.439511,53.066226
Entinge,64,,,9331LL,Norg,Noordenveld,Drenthe,VBO,6.439421,53.066209
Laan van Havezathen,1,,,9331LM,Norg,Noordenveld,Drenthe,VBO,6.439112,53.067605
Laan van Havezathen,3,,,9331LM,Norg,Noordenveld,Drenthe,VBO,6.439155,53.067541
Laan van Havezathen,5,,,9331LM,Norg,Noordenveld,Drenthe,VBO,6.439331,53.067396
Laan van Havezathen,7,,,9331LM,Norg,Noordenveld,Drenthe,VBO,6.439390,53.067360
Laan van Havezathen,2,,,9331LN,Norg,Noordenveld,Drenthe,VBO,6.438114,53.068278
Laan van Havezathen,4,,,9331LN,Norg,Noordenveld,Drenthe,VBO,6.438197,53.068017
Laan van Havezathen,6,,,9331LN,Norg,Noordenveld,Drenthe,VBO,6.438326,53.067791
Laan van Havezathen,8,,,9331LN,Norg,Noordenveld,Drenthe,VBO,6.438484,53.067547
Laan van Havezathen,10,,,9331LN,Norg,Noordenveld,Drenthe,VBO,6.438567,53.067295
Laan van Havezathen,12,,,9331LN,Norg,Noordenveld,Drenthe,VBO,6.439081,53.067097
Laan van Havezathen,14,,,9331LN,Norg,Noordenveld,Drenthe,VBO,6.439168,53.067094
Laan van Havezathen,16,,,9331LN,Norg,Noordenveld,Drenthe,VBO,6.439260,53.067093
Laan van Havezathen,18,,,9331LN,Norg,Noordenveld,Drenthe,VBO,6.439378,53.067090
Laan van Havezathen,20,,,9331LN,Norg,Noordenveld,Drenthe,VBO,6.439441,53.067081
Laan van Havezathen,22,,,9331LN,Norg,Noordenveld,Drenthe,VBO,6.439560,53.067074
Laan van Havezathen,24,,,9331LN,Norg,Noordenveld,Drenthe,VBO,6.440694,53.067016
Laan van Havezathen,26,A,,9331LN,Norg,Noordenveld,Drenthe,VBO,6.440800,53.066957
Laan van Havezathen,26,,,9331LN,Norg,Noordenveld,Drenthe,VBO,6.440777,53.067017
Laan van Havezathen,28,,,9331LN,Norg,Noordenveld,Drenthe,VBO,6.440901,53.066915
Laan van Havezathen,30,,,9331LN,Norg,Noordenveld,Drenthe,VBO,6.440989,53.066887
Laan van Havezathen,32,,,9331LN,Norg,Noordenveld,Drenthe,VBO,6.441045,53.066725
Laan van Havezathen,34,,,9331LN,Norg,Noordenveld,Drenthe,VBO,6.441074,53.066671
Laan van Havezathen,36,,,9331LN,Norg,Noordenveld,Drenthe,VBO,6.441117,53.066625
Laan van Havezathen,38,,,9331LN,Norg,Noordenveld,Drenthe,VBO,6.441146,53.066571
Laan van Havezathen,40,,,9331LN,Norg,Noordenveld,Drenthe,VBO,6.441175,53.066526
Laan van Havezathen,42,,,9331LP,Norg,Noordenveld,Drenthe,VBO,6.441763,53.066161
Laan van Havezathen,44,,,9331LP,Norg,Noordenveld,Drenthe,VBO,6.442293,53.065878
Laan van Havezathen,46,,,9331LP,Norg,Noordenveld,Drenthe,VBO,6.442398,53.065895
Laan van Havezathen,48,,,9331LP,Norg,Noordenveld,Drenthe,VBO,6.442681,53.065911
Laan van Havezathen,50,,,9331LP,Norg,Noordenveld,Drenthe,VBO,6.442771,53.065928
Laan van Havezathen,52,,,9331LP,Norg,Noordenveld,Drenthe,VBO,6.443177,53.066041
Laan van Havezathen,60,,,9331LP,Norg,Noordenveld,Drenthe,VBO,6.444511,53.066281
Laan van Havezathen,62,,,9331LP,Norg,Noordenveld,Drenthe,VBO,6.444585,53.066289
Laan van Havezathen,64,,,9331LP,Norg,Noordenveld,Drenthe,VBO,6.444765,53.066315
Laan van Havezathen,66,,,9331LP,Norg,Noordenveld,Drenthe,VBO,6.444840,53.066323
Laan van Havezathen,68,,,9331LP,Norg,Noordenveld,Drenthe,VBO,6.445063,53.066312
Laan van Havezathen,70,,,9331LP,Norg,Noordenveld,Drenthe,VBO,6.445138,53.066302
Laan van Havezathen,72,,,9331LP,Norg,Noordenveld,Drenthe,VBO,6.445316,53.066283
Laan van Havezathen,74,,,9331LP,Norg,Noordenveld,Drenthe,VBO,6.445406,53.066273
Laarwoud,1,,,9331LR,Norg,Noordenveld,Drenthe,VBO,6.444807,53.064364
Laarwoud,2,,,9331LR,Norg,Noordenveld,Drenthe,VBO,6.444234,53.064091
Laarwoud,3,,,9331LR,Norg,Noordenveld,Drenthe,VBO,6.444821,53.064310
Laarwoud,4,,,9331LR,Norg,Noordenveld,Drenthe,VBO,6.443411,53.063406
Laarwoud,5,,,9331LR,Norg,Noordenveld,Drenthe,VBO,6.444845,53.064103
Laarwoud,6,,,9331LR,Norg,Noordenveld,Drenthe,VBO,6.443351,53.063362
Laarwoud,7,,,9331LR,Norg,Noordenveld,Drenthe,VBO,6.444785,53.064068
Laarwoud,8,,,9331LR,Norg,Noordenveld,Drenthe,VBO,6.443154,53.063273
Laarwoud,9,,,9331LR,Norg,Noordenveld,Drenthe,VBO,6.444618,53.063934
Laarwoud,10,,,9331LR,Norg,Noordenveld,Drenthe,VBO,6.443019,53.063212
Laarwoud,11,,,9331LR,Norg,Noordenveld,Drenthe,VBO,6.444557,53.063890
Laarwoud,12,,,9331LR,Norg,Noordenveld,Drenthe,VBO,6.442852,53.063114
Laarwoud,13,,,9331LR,Norg,Noordenveld,Drenthe,VBO,6.443780,53.063232
Laarwoud,14,,,9331LR,Norg,Noordenveld,Drenthe,VBO,6.442762,53.063088
Laarwoud,15,,,9331LR,Norg,Noordenveld,Drenthe,VBO,6.443734,53.063196
Laarwoud,16,,,9331LR,Norg,Noordenveld,Drenthe,VBO,6.442507,53.063010
Laarwoud,17,,,9331LR,Norg,Noordenveld,Drenthe,VBO,6.443553,53.063108
Laarwoud,18,,,9331LR,Norg,Noordenveld,Drenthe,VBO,6.442416,53.062983
Laarwoud,19,,,9331LR,Norg,Noordenveld,Drenthe,VBO,6.443493,53.063073
Laarwoud,20,,,9331LR,Norg,Noordenveld,Drenthe,VBO,6.442161,53.062914
Laarwoud,21,,,9331LR,Norg,Noordenveld,Drenthe,VBO,6.443371,53.062984
Laarwoud,22,,,9331LR,Norg,Noordenveld,Drenthe,VBO,6.441757,53.062845
Laarwoud,23,,,9331LR,Norg,Noordenveld,Drenthe,VBO,6.443266,53.062967
Laarwoud,25,,,9331LR,Norg,Noordenveld,Drenthe,VBO,6.443220,53.062913
Laarwoud,27,,,9331LR,Norg,Noordenveld,Drenthe,VBO,6.443131,53.062905
Laarwoud,29,,,9331LR,Norg,Noordenveld,Drenthe,VBO,6.443084,53.062852
Laarwoud,31,,,9331LR,Norg,Noordenveld,Drenthe,VBO,6.442694,53.062756
Laarwoud,33,,,9331LR,Norg,Noordenveld,Drenthe,VBO,6.442619,53.062739
Laarwoud,35,,,9331LR,Norg,Noordenveld,Drenthe,VBO,6.442439,53.062687
Laarwoud,37,,,9331LR,Norg,Noordenveld,Drenthe,VBO,6.442304,53.062661
Westrup,1,,,9331LS,Norg,Noordenveld,Drenthe,VBO,6.444343,53.063703
Westrup,2,,,9331LS,Norg,Noordenveld,Drenthe,VBO,6.444038,53.063400
Westrup,3,,,9331LS,Norg,Noordenveld,Drenthe,VBO,6.444417,53.063676
Westrup,4,,,9331LS,Norg,Noordenveld,Drenthe,VBO,6.444111,53.063364
Westrup,5,,,9331LS,Norg,Noordenveld,Drenthe,VBO,6.444639,53.063575
Westrup,6,,,9331LS,Norg,Noordenveld,Drenthe,VBO,6.444273,53.063255
Westrup,7,,,9331LS,Norg,Noordenveld,Drenthe,VBO,6.444698,53.063547
Westrup,8,,,9331LS,Norg,Noordenveld,Drenthe,VBO,6.444331,53.063209
de Klencke,2,,,9331LT,Norg,Noordenveld,Drenthe,VBO,6.443659,53.064410
de Klencke,4,,,9331LT,Norg,Noordenveld,Drenthe,VBO,6.443514,53.064573
de Klencke,6,,,9331LT,Norg,Noordenveld,Drenthe,VBO,6.443384,53.064745
de Klencke,8,,,9331LT,Norg,Noordenveld,Drenthe,VBO,6.443239,53.064899
de Klencke,10,,,9331LT,Norg,Noordenveld,Drenthe,VBO,6.443123,53.065053
Vredeveld,1,,,9331LV,Norg,Noordenveld,Drenthe,VBO,6.443577,53.064078
Vredeveld,2,,,9331LV,Norg,Noordenveld,Drenthe,VBO,6.442961,53.063913
Vredeveld,3,,,9331LV,Norg,Noordenveld,Drenthe,VBO,6.443666,53.064051
Vredeveld,4,,,9331LV,Norg,Noordenveld,Drenthe,VBO,6.443020,53.063886
Vredeveld,5,,,9331LV,Norg,Noordenveld,Drenthe,VBO,6.443901,53.063932
Vredeveld,6,,,9331LV,Norg,Noordenveld,Drenthe,VBO,6.443226,53.063767
Vredeveld,7,,,9331LV,Norg,Noordenveld,Drenthe,VBO,6.443990,53.063895
Vredeveld,8,,,9331LV,Norg,Noordenveld,Drenthe,VBO,6.443315,53.063739
Vredeveld,10,,,9331LV,Norg,Noordenveld,Drenthe,VBO,6.443566,53.063647
Vredeveld,12,,,9331LV,Norg,Noordenveld,Drenthe,VBO,6.443625,53.063611
Mensinge,1,,,9331LW,Norg,Noordenveld,Drenthe,VBO,6.442418,53.062453
Mensinge,2,,,9331LW,Norg,Noordenveld,Drenthe,VBO,6.441914,53.062583
Mensinge,3,,,9331LW,Norg,Noordenveld,Drenthe,VBO,6.442447,53.062399
Mensinge,4,,,9331LW,Norg,Noordenveld,Drenthe,VBO,6.442000,53.062430
Mensinge,5,,,9331LW,Norg,Noordenveld,Drenthe,VBO,6.442519,53.062281
Mensinge,6,,,9331LW,Norg,Noordenveld,Drenthe,VBO,6.442028,53.062367
Mensinge,7,,,9331LW,Norg,Noordenveld,Drenthe,VBO,6.442532,53.062227
Mensinge,8,,,9331LW,Norg,Noordenveld,Drenthe,VBO,6.442129,53.062213
Mensinge,10,,,9331LW,Norg,Noordenveld,Drenthe,VBO,6.442158,53.062159
Mensinge,12,,,9331LW,Norg,Noordenveld,Drenthe,VBO,6.442243,53.061996
Mensinge,14,,,9331LW,Norg,Noordenveld,Drenthe,VBO,6.442286,53.061915
Oldengaarde,2,,,9331LX,Norg,Noordenveld,Drenthe,VBO,6.443821,53.066161
Oldengaarde,4,,,9331LX,Norg,Noordenveld,Drenthe,VBO,6.443835,53.066116
Oldengaarde,6,,,9331LX,Norg,Noordenveld,Drenthe,VBO,6.443907,53.065981
Oldengaarde,8,,,9331LX,Norg,Noordenveld,Drenthe,VBO,6.443935,53.065936
Oldengaarde,10,,,9331LX,Norg,Noordenveld,Drenthe,VBO,6.444051,53.065791
Oldengaarde,12,,,9331LX,Norg,Noordenveld,Drenthe,VBO,6.444110,53.065754
Oldengaarde,14,,,9331LX,Norg,Noordenveld,Drenthe,VBO,6.444540,53.065634
Oldengaarde,16,,,9331LX,Norg,Noordenveld,Drenthe,VBO,6.444613,53.065597
Oldengaarde,18,,,9331LX,Norg,Noordenveld,Drenthe,VBO,6.444698,53.065417
Oldengaarde,20,,,9331LX,Norg,Noordenveld,Drenthe,VBO,6.444682,53.065354
Oldengaarde,22,,,9331LX,Norg,Noordenveld,Drenthe,VBO,6.444425,53.065230
Oldengaarde,24,,,9331LX,Norg,Noordenveld,Drenthe,VBO,6.444321,53.065213
Oldengaarde,26,,,9331LX,Norg,Noordenveld,Drenthe,VBO,6.444038,53.065252
Oldengaarde,28,,,9331LX,Norg,Noordenveld,Drenthe,VBO,6.443964,53.065288
Oldengaarde,30,,,9331LX,Norg,Noordenveld,Drenthe,VBO,6.443693,53.065192
Oldengaarde,32,,,9331LX,Norg,Noordenveld,Drenthe,VBO,6.443722,53.065138
Oldengaarde,34,,,9331LX,Norg,Noordenveld,Drenthe,VBO,6.443793,53.064993
Oldengaarde,36,,,9331LX,Norg,Noordenveld,Drenthe,VBO,6.443822,53.064939
Oldengaarde,38,,,9331LX,Norg,Noordenveld,Drenthe,VBO,6.444012,53.064812
Oldengaarde,40,,,9331LX,Norg,Noordenveld,Drenthe,VBO,6.444041,53.064757
Oldengaarde,42,,,9331LX,Norg,Noordenveld,Drenthe,VBO,6.444172,53.064612
Oldengaarde,44,,,9331LX,Norg,Noordenveld,Drenthe,VBO,6.444215,53.064558
Oldengaarde,1,,,9331LZ,Norg,Noordenveld,Drenthe,VBO,6.444166,53.066239
Oldengaarde,3,,,9331LZ,Norg,Noordenveld,Drenthe,VBO,6.444223,53.066131
Oldengaarde,5,,,9331LZ,Norg,Noordenveld,Drenthe,VBO,6.444252,53.066077
Oldengaarde,7,,,9331LZ,Norg,Noordenveld,Drenthe,VBO,6.444427,53.065922
Oldengaarde,9,,,9331LZ,Norg,Noordenveld,Drenthe,VBO,6.444501,53.065904
Oldengaarde,11,,,9331LZ,Norg,Noordenveld,Drenthe,VBO,6.444769,53.065847
Oldengaarde,13,,,9331LZ,Norg,Noordenveld,Drenthe,VBO,6.444858,53.065829
Oldengaarde,15,,,9331LZ,Norg,Noordenveld,Drenthe,VBO,6.445033,53.065692
Oldengaarde,17,,,9331LZ,Norg,Noordenveld,Drenthe,VBO,6.445047,53.065629
Oldengaarde,19,,,9331LZ,Norg,Noordenveld,Drenthe,VBO,6.445118,53.065476
Oldengaarde,21,,,9331LZ,Norg,Noordenveld,Drenthe,VBO,6.445146,53.065422
Oldengaarde,23,,,9331LZ,Norg,Noordenveld,Drenthe,VBO,6.445067,53.065234
Oldengaarde,25,,,9331LZ,Norg,Noordenveld,Drenthe,VBO,6.445006,53.065180
Oldengaarde,27,,,9331LZ,Norg,Noordenveld,Drenthe,VBO,6.444809,53.065065
Oldengaarde,29,,,9331LZ,Norg,Noordenveld,Drenthe,VBO,6.444704,53.065048
Oldengaarde,31,,,9331LZ,Norg,Noordenveld,Drenthe,VBO,6.444389,53.064970
Oldengaarde,33,,,9331LZ,Norg,Noordenveld,Drenthe,VBO,6.444403,53.064916
Oldengaarde,35,,,9331LZ,Norg,Noordenveld,Drenthe,VBO,6.444518,53.064744
Vinkenstraat,2,,,9331MA,Norg,Noordenveld,Drenthe,VBO,6.446830,53.066557
Vinkenstraat,4,,,9331MA,Norg,Noordenveld,Drenthe,VBO,6.446815,53.066575
Vinkenstraat,6,,,9331MA,Norg,Noordenveld,Drenthe,VBO,6.446801,53.066593
Vinkenstraat,8,,,9331MA,Norg,Noordenveld,Drenthe,VBO,6.446786,53.066611
Vinkenstraat,10,,,9331MA,Norg,Noordenveld,Drenthe,VBO,6.446877,53.066655
Vinkenstraat,12,,,9331MA,Norg,Noordenveld,Drenthe,VBO,6.446848,53.066674
Vinkenstraat,14,,,9331MA,Norg,Noordenveld,Drenthe,VBO,6.446833,53.066701
Vinkenstraat,16,,,9331MA,Norg,Noordenveld,Drenthe,VBO,6.446804,53.066719
Vinkenstraat,18,,,9331MA,Norg,Noordenveld,Drenthe,VBO,6.446910,53.066772
Vinkenstraat,20,,,9331MA,Norg,Noordenveld,Drenthe,VBO,6.446880,53.066790
Vinkenstraat,22,,,9331MA,Norg,Noordenveld,Drenthe,VBO,6.446866,53.066808
Vinkenstraat,24,,,9331MA,Norg,Noordenveld,Drenthe,VBO,6.446851,53.066826
Vinkenstraat,26,,,9331MA,Norg,Noordenveld,Drenthe,VBO,6.446720,53.066962
Vinkenstraat,28,,,9331MA,Norg,Noordenveld,Drenthe,VBO,6.446706,53.066980
Vinkenstraat,30,,,9331MA,Norg,Noordenveld,Drenthe,VBO,6.446691,53.066999
Vinkenstraat,32,,,9331MA,Norg,Noordenveld,Drenthe,VBO,6.446677,53.067017
Vinkenstraat,34,,,9331MA,Norg,Noordenveld,Drenthe,VBO,6.446783,53.067070
Vinkenstraat,36,,,9331MA,Norg,Noordenveld,Drenthe,VBO,6.446768,53.067088
Vinkenstraat,38,,,9331MA,Norg,Noordenveld,Drenthe,VBO,6.446769,53.067106
Vinkenstraat,40,,,9331MA,Norg,Noordenveld,Drenthe,VBO,6.446754,53.067124
Vinkenstraat,42,,,9331MA,Norg,Noordenveld,Drenthe,VBO,6.446816,53.067195
Vinkenstraat,44,,,9331MA,Norg,Noordenveld,Drenthe,VBO,6.446801,53.067213
Vinkenstraat,46,,,9331MA,Norg,Noordenveld,Drenthe,VBO,6.446772,53.067232
Vinkenstraat,48,,,9331MA,Norg,Noordenveld,Drenthe,VBO,6.446757,53.067250
Vinkenstraat,50,,,9331MA,Norg,Noordenveld,Drenthe,VBO,6.446743,53.067268
Vinkenstraat,1,,,9331MB,Norg,Noordenveld,Drenthe,VBO,6.446665,53.066514
Vinkenstraat,3,,,9331MB,Norg,Noordenveld,Drenthe,VBO,6.446606,53.066541
Vinkenstraat,5,,,9331MB,Norg,Noordenveld,Drenthe,VBO,6.446562,53.066568
Vinkenstraat,7,,,9331MB,Norg,Noordenveld,Drenthe,VBO,6.446681,53.066585
Vinkenstraat,9,,,9331MB,Norg,Noordenveld,Drenthe,VBO,6.446623,53.066622
Vinkenstraat,11,,,9331MB,Norg,Noordenveld,Drenthe,VBO,6.446578,53.066649
Vinkenstraat,13,,,9331MB,Norg,Noordenveld,Drenthe,VBO,6.446714,53.066702
Vinkenstraat,15,,,9331MB,Norg,Noordenveld,Drenthe,VBO,6.446655,53.066720
Vinkenstraat,17,,,9331MB,Norg,Noordenveld,Drenthe,VBO,6.446611,53.066748
Vinkenstraat,19,,,9331MB,Norg,Noordenveld,Drenthe,VBO,6.446732,53.066809
Vinkenstraat,21,,,9331MB,Norg,Noordenveld,Drenthe,VBO,6.446673,53.066837
Vinkenstraat,23,,,9331MB,Norg,Noordenveld,Drenthe,VBO,6.446614,53.066864
Vinkenstraat,25,,,9331MB,Norg,Noordenveld,Drenthe,VBO,6.446616,53.066954
Vinkenstraat,27,,,9331MB,Norg,Noordenveld,Drenthe,VBO,6.446557,53.066973
Vinkenstraat,29,,,9331MB,Norg,Noordenveld,Drenthe,VBO,6.446497,53.067000
Vinkenstraat,31,,,9331MB,Norg,Noordenveld,Drenthe,VBO,6.446633,53.067035
Vinkenstraat,33,,,9331MB,Norg,Noordenveld,Drenthe,VBO,6.446574,53.067063
Vinkenstraat,35,,,9331MB,Norg,Noordenveld,Drenthe,VBO,6.446515,53.067090
Vinkenstraat,37,,,9331MB,Norg,Noordenveld,Drenthe,VBO,6.446665,53.067125
Vinkenstraat,39,,,9331MB,Norg,Noordenveld,Drenthe,VBO,6.446605,53.067143
Vinkenstraat,41,,,9331MB,Norg,Noordenveld,Drenthe,VBO,6.446546,53.067162
Vinkenstraat,43,,,9331MB,Norg,Noordenveld,Drenthe,VBO,6.446696,53.067196
Vinkenstraat,45,,,9331MB,Norg,Noordenveld,Drenthe,VBO,6.446637,53.067206
Vinkenstraat,47,,,9331MB,Norg,Noordenveld,Drenthe,VBO,6.446592,53.067224
Vinkenstraat,49,,,9331MB,Norg,Noordenveld,Drenthe,VBO,6.446563,53.067251
Bonhagen,2,,,9331TA,Norg,Noordenveld,Drenthe,VBO,6.470616,53.061959
Donderseweg,7,,,9331TB,Norg,Noordenveld,Drenthe,VBO,6.500404,53.082804
Donderseweg,9,,,9331TB,Norg,Noordenveld,Drenthe,VBO,6.502538,53.083350
Donderseweg,12,N,,9331TB,Norg,Noordenveld,Drenthe,VBO,6.484853,53.070928
Donderseweg,12,,,9331TB,Norg,Noordenveld,Drenthe,VBO,6.476953,53.071473
Achtersteweg,4,,,9331TC,Norg,Noordenveld,Drenthe,VBO,6.485353,53.082530
Achtersteweg,5,,,9331TC,Norg,Noordenveld,Drenthe,VBO,6.481560,53.084245
Achtersteweg,6,,,9331TC,Norg,Noordenveld,Drenthe,VBO,6.482071,53.084959
Roderweg,1,A,,9331TD,Norg,Noordenveld,Drenthe,VBO,6.502139,53.084454
Roderweg,1,,,9331TD,Norg,Noordenveld,Drenthe,VBO,6.502378,53.084318
Asserstraat,59,,,9331TE,Norg,Noordenveld,Drenthe,VBO,6.455594,53.057726
Asserstraat,61,,,9331TE,Norg,Noordenveld,Drenthe,VBO,6.455454,53.056262
Bonhagen K,1,,,9331TG,Norg,Noordenveld,Drenthe,VBO,6.472708,53.062083
Bonhagen K,2,,,9331TG,Norg,Noordenveld,Drenthe,VBO,6.472892,53.061805
Bonhagen K,3,,,9331TG,Norg,Noordenveld,Drenthe,VBO,6.472978,53.061578
Bonhagen K,4,,,9331TG,Norg,Noordenveld,Drenthe,VBO,6.473119,53.061392
Bonhagen K,5,,,9331TG,Norg,Noordenveld,Drenthe,VBO,6.473206,53.061144
Bonhagen K,6,,,9331TG,Norg,Noordenveld,Drenthe,VBO,6.473409,53.060918
Bonhagen K,7,,,9331TG,Norg,Noordenveld,Drenthe,VBO,6.473579,53.060539
Bonhagen K,8,,,9331TG,Norg,Noordenveld,Drenthe,VBO,6.473134,53.060633
Bonhagen K,9,,,9331TG,Norg,Noordenveld,Drenthe,VBO,6.472820,53.060618
Bonhagen K,10,,,9331TG,Norg,Noordenveld,Drenthe,VBO,6.472177,53.060551
Bonhagen K,11,,,9331TG,Norg,Noordenveld,Drenthe,VBO,6.471789,53.060546
Bonhagen K,12,,,9331TG,Norg,Noordenveld,Drenthe,VBO,6.471372,53.060559
Bonhagen K,13,,,9331TG,Norg,Noordenveld,Drenthe,VBO,6.472481,53.060791
Bonhagen K,14,,,9331TG,Norg,Noordenveld,Drenthe,VBO,6.472885,53.060842
Bonhagen K,15,,,9331TG,Norg,Noordenveld,Drenthe,VBO,6.472609,53.061132
Bonhagen K,16,,,9331TG,Norg,Noordenveld,Drenthe,VBO,6.472354,53.061080
Bonhagen K,17,,,9331TG,Norg,Noordenveld,Drenthe,VBO,6.472046,53.061290
Bonhagen K,18,,,9331TG,Norg,Noordenveld,Drenthe,VBO,6.471918,53.061515
Bonhagen K,19,,,9331TG,Norg,Noordenveld,Drenthe,VBO,6.471869,53.061938
Bonhagen K,20,,,9331TG,Norg,Noordenveld,Drenthe,VBO,6.472193,53.061996
Bonhagen K,21,,,9331TG,Norg,Noordenveld,Drenthe,VBO,6.471475,53.061662
Bonhagen K,22,,,9331TG,Norg,Noordenveld,Drenthe,VBO,6.471860,53.060995
Bonhagen K,23,,,9331TG,Norg,Noordenveld,Drenthe,VBO,6.470894,53.061758
Bonhagen K,24,,,9331TG,Norg,Noordenveld,Drenthe,VBO,6.470980,53.061587
Bonhagen K,25,,,9331TG,Norg,Noordenveld,Drenthe,VBO,6.471095,53.061424
Bonhagen K,26,,,9331TG,Norg,Noordenveld,Drenthe,VBO,6.471195,53.061243
Bonhagen K,27,,,9331TG,Norg,Noordenveld,Drenthe,VBO,6.471344,53.060994
Langeloërweg,31,,,9331VA,Norg,Noordenveld,Drenthe,VBO,6.451964,53.072721
Langeloërweg,33,,,9331VA,Norg,Noordenveld,Drenthe,VBO,6.451531,53.073336
Langeloërweg,35,,,9331VA,Norg,Noordenveld,Drenthe,VBO,6.450781,53.074376
Langeloërweg,53,,,9331VA,Norg,Noordenveld,Drenthe,VBO,6.449193,53.076556
Langeloërweg,55,A,,9331VA,Norg,Noordenveld,Drenthe,VBO,6.446107,53.076071
Langeloërweg,55,,,9331VA,Norg,Noordenveld,Drenthe,VBO,6.447007,53.076261
Langeloërweg,57,A,,9331VA,Norg,Noordenveld,Drenthe,VBO,6.445437,53.075529
Langeloërweg,57,,,9331VA,Norg,Noordenveld,Drenthe,VBO,6.445815,53.075705
Langeloërweg,59,A,,9331VA,Norg,Noordenveld,Drenthe,VBO,6.445892,53.076424
Langeloërweg,59,B,,9331VA,Norg,Noordenveld,Drenthe,VBO,6.445427,53.076329
Langeloërweg,59,,,9331VA,Norg,Noordenveld,Drenthe,VBO,6.448025,53.076795
Langeloërweg,61,,,9331VA,Norg,Noordenveld,Drenthe,VBO,6.448052,53.077854
Langeloërweg,63,A,,9331VA,Norg,Noordenveld,Drenthe,VBO,6.448082,53.077970
Langeloërweg,63,,,9331VA,Norg,Noordenveld,Drenthe,VBO,6.447927,53.077563
Langeloërweg,65,,,9331VA,Norg,Noordenveld,Drenthe,VBO,6.447551,53.078377
Langeloërweg,67,,,9331VA,Norg,Noordenveld,Drenthe,VBO,6.445555,53.082196
Langeloërweg,30,,,9331VB,Norg,Noordenveld,Drenthe,VBO,6.453575,53.072105
Langeloërweg,32,,,9331VB,Norg,Noordenveld,Drenthe,VBO,6.453003,53.073098
Langeloërweg,34,,,9331VB,Norg,Noordenveld,Drenthe,VBO,6.453376,53.073543
Langeloërweg,36,,,9331VB,Norg,Noordenveld,Drenthe,VBO,6.453110,53.073798
Langeloërweg,38,,,9331VB,Norg,Noordenveld,Drenthe,VBO,6.452895,53.074160
Langeloërweg,40,,,9331VB,Norg,Noordenveld,Drenthe,VBO,6.452479,53.074262
Langeloërweg,42,,,9331VB,Norg,Noordenveld,Drenthe,VBO,6.452292,53.074552
Langeloërweg,44,,,9331VB,Norg,Noordenveld,Drenthe,VBO,6.451812,53.075041
Langeloërweg,48,,,9331VB,Norg,Noordenveld,Drenthe,VBO,6.450135,53.076629
Langeloërweg,50,,,9331VB,Norg,Noordenveld,Drenthe,VBO,6.449877,53.077089
Langeloërweg,52,,,9331VB,Norg,Noordenveld,Drenthe,VBO,6.449618,53.077478
Langeloërweg,54,,,9331VB,Norg,Noordenveld,Drenthe,VBO,6.448302,53.079197
Langeloërweg,56,,,9331VB,Norg,Noordenveld,Drenthe,VBO,6.448451,53.079780
Langeloërweg,58,,,9331VB,Norg,Noordenveld,Drenthe,VBO,6.448169,53.080456
Postmaatseweg,2,,,9331VC,Norg,Noordenveld,Drenthe,VBO,6.450716,53.073568
Postmaatseweg,4,,,9331VC,Norg,Noordenveld,Drenthe,VBO,6.450062,53.073673
Postmaatseweg,6,,SCH,9331VC,Norg,Noordenveld,Drenthe,VBO,6.449424,53.074102
Postmaatseweg,6,,,9331VC,Norg,Noordenveld,Drenthe,VBO,6.448993,53.073880
Postmaatseweg,8,,,9331VC,Norg,Noordenveld,Drenthe,VBO,6.448351,53.073868
Postmaatseweg,10,,,9331VC,Norg,Noordenveld,Drenthe,VBO,6.446586,53.074060
Postmaatseweg,12,,,9331VC,Norg,Noordenveld,Drenthe,VBO,6.445419,53.074172
Postmaatseweg,14,,,9331VC,Norg,Noordenveld,Drenthe,VBO,6.443979,53.074481
Postmaatseweg,16,,,9331VC,Norg,Noordenveld,Drenthe,VBO,6.442343,53.074703
Postmaatseweg,18,,,9331VC,Norg,Noordenveld,Drenthe,VBO,6.441099,53.075301
Eenerstraat,57,,,9331VE,Norg,Noordenveld,Drenthe,VBO,6.448355,53.067909
Eenerstraat,59,,,9331VE,Norg,Noordenveld,Drenthe,VBO,6.447952,53.067904
Eenerstraat,61,,,9331VE,Norg,Noordenveld,Drenthe,VBO,6.447550,53.067953
Eenerstraat,62,,,9331VE,Norg,Noordenveld,Drenthe,VBO,6.418102,53.073764
Eenerstraat,63,,,9331VE,Norg,Noordenveld,Drenthe,VBO,6.447148,53.067965
Eenerstraat,64,,,9331VE,Norg,Noordenveld,Drenthe,VBO,6.417555,53.073957
Eenerstraat,65,A,,9331VE,Norg,Noordenveld,Drenthe,VBO,6.445692,53.067596
Eenerstraat,65,,,9331VE,Norg,Noordenveld,Drenthe,VBO,6.445327,53.067894
Eenerstraat,66,,,9331VE,Norg,Noordenveld,Drenthe,VBO,6.417397,53.073987
Eenerstraat,67,A,,9331VE,Norg,Noordenveld,Drenthe,VBO,6.443735,53.067896
Eenerstraat,67,,,9331VE,Norg,Noordenveld,Drenthe,VBO,6.444657,53.068005
Eenerstraat,69,,,9331VE,Norg,Noordenveld,Drenthe,VBO,6.443644,53.067986
Eenerstraat,71,,,9331VE,Norg,Noordenveld,Drenthe,VBO,6.442303,53.068161
Eenerstraat,73,A,,9331VE,Norg,Noordenveld,Drenthe,VBO,6.441784,53.068136
Eenerstraat,73,,,9331VE,Norg,Noordenveld,Drenthe,VBO,6.441679,53.068247
Eenerstraat,77,,,9331VE,Norg,Noordenveld,Drenthe,VBO,6.440844,53.068290
Eenerstraat,79,,,9331VE,Norg,Noordenveld,Drenthe,VBO,6.440426,53.068258
Eenerstraat,81,,,9331VE,Norg,Noordenveld,Drenthe,VBO,6.439742,53.068336
Eenerstraat,85,,,9331VE,Norg,Noordenveld,Drenthe,VBO,6.438786,53.068317
Molenduinen G,23,,,9331VG,Norg,Noordenveld,Drenthe,VBO,6.439918,53.072558
Postmaatseweg,3,,,9331VK,Norg,Noordenveld,Drenthe,VBO,6.450004,53.073125
Postmaatseweg,5,,,9331VK,Norg,Noordenveld,Drenthe,VBO,6.449584,53.073021
Postmaatseweg,7,,,9331VK,Norg,Noordenveld,Drenthe,VBO,6.449051,53.073205
Postmaatseweg,9,,,9331VK,Norg,Noordenveld,Drenthe,VBO,6.449014,53.072909
Postmaatseweg,11,,,9331VK,Norg,Noordenveld,Drenthe,VBO,6.448511,53.072876
Postmaatseweg,13,,,9331VK,Norg,Noordenveld,Drenthe,VBO,6.448183,53.073078
Postmaatseweg,15,,,9331VK,Norg,Noordenveld,Drenthe,VBO,6.448383,53.073346
Postmaatseweg,17,,,9331VK,Norg,Noordenveld,Drenthe,VBO,6.446881,53.073530
Oosterduinen A,2,,,9331WB,Norg,Noordenveld,Drenthe,VBO,6.471298,53.070139
Oosterduinen A,3,,,9331WB,Norg,Noordenveld,Drenthe,VBO,6.471823,53.070251
Oosterduinen A,4,,,9331WB,Norg,Noordenveld,Drenthe,VBO,6.472485,53.070497
Oosterduinen A,5,,,9331WB,Norg,Noordenveld,Drenthe,VBO,6.470623,53.070142
Oosterduinen A,6,,,9331WB,Norg,Noordenveld,Drenthe,VBO,6.470134,53.070168
Oosterduinen A,7,,,9331WB,Norg,Noordenveld,Drenthe,VBO,6.470827,53.070431
Oosterduinen A,8,,,9331WB,Norg,Noordenveld,Drenthe,VBO,6.471230,53.070418
Oosterduinen A,9,,,9331WB,Norg,Noordenveld,Drenthe,VBO,6.471505,53.070695
Oosterduinen A,10,,,9331WB,Norg,Noordenveld,Drenthe,VBO,6.471747,53.070818
Oosterduinen A,11,,,9331WB,Norg,Noordenveld,Drenthe,VBO,6.472106,53.070842
Oosterduinen A,12,,,9331WB,Norg,Noordenveld,Drenthe,VBO,6.470022,53.070438
Oosterduinen A,13,,,9331WB,Norg,Noordenveld,Drenthe,VBO,6.470309,53.070571
Oosterduinen A,14,,,9331WB,Norg,Noordenveld,Drenthe,VBO,6.470595,53.070676
Oosterduinen A,15,,,9331WB,Norg,Noordenveld,Drenthe,VBO,6.471105,53.070797
Oosterduinen A,16,,,9331WB,Norg,Noordenveld,Drenthe,VBO,6.471482,53.070964
Oosterduinen A,17,,,9331WB,Norg,Noordenveld,Drenthe,VBO,6.470869,53.070907
Oosterduinen A,18,,,9331WB,Norg,Noordenveld,Drenthe,VBO,6.471473,53.071207
Oosterduinen A,19,,,9331WB,Norg,Noordenveld,Drenthe,VBO,6.469772,53.070611
Oosterduinen A,20,,,9331WB,Norg,Noordenveld,Drenthe,VBO,6.470300,53.070840
Oosterduinen A,21,,,9331WB,Norg,Noordenveld,Drenthe,VBO,6.471057,53.071123
Oosterduinen A,22,,,9331WB,Norg,Noordenveld,Drenthe,VBO,6.468452,53.070915
Oosterduinen A,23,,,9331WB,Norg,Noordenveld,Drenthe,VBO,6.471418,53.071396
Oosterduinen A,24,,,9331WB,Norg,Noordenveld,Drenthe,VBO,6.469357,53.070696
Oosterduinen A,25,,,9331WB,Norg,Noordenveld,Drenthe,VBO,6.470713,53.071241
Oosterduinen A,26,,,9331WB,Norg,Noordenveld,Drenthe,VBO,6.469465,53.070848
Oosterduinen A,27,,,9331WB,Norg,Noordenveld,Drenthe,VBO,6.471243,53.071551
Oosterduinen A,28,,,9331WB,Norg,Noordenveld,Drenthe,VBO,6.469544,53.071018
Oosterduinen A,29,,,9331WB,Norg,Noordenveld,Drenthe,VBO,6.469876,53.071159
Oosterduinen A,30,,,9331WB,Norg,Noordenveld,Drenthe,VBO,6.470131,53.071246
Oosterduinen A,31,,,9331WB,Norg,Noordenveld,Drenthe,VBO,6.470811,53.071564
Oosterduinen A,32,,,9331WB,Norg,Noordenveld,Drenthe,VBO,6.469084,53.071130
Oosterduinen A,33,,,9331WB,Norg,Noordenveld,Drenthe,VBO,6.469358,53.071343
Oosterduinen A,34,,,9331WB,Norg,Noordenveld,Drenthe,VBO,6.470394,53.071585
Oosterduinen A,35,,,9331WB,Norg,Noordenveld,Drenthe,VBO,6.470759,53.071861
Oosterduinen A,36,,,9331WB,Norg,Noordenveld,Drenthe,VBO,6.468924,53.071293
Oosterduinen A,37,,,9331WB,Norg,Noordenveld,Drenthe,VBO,6.469482,53.071540
Oosterduinen A,38,,,9331WB,Norg,Noordenveld,Drenthe,VBO,6.469798,53.071645
Oosterduinen A,39,,,9331WB,Norg,Noordenveld,Drenthe,VBO,6.470132,53.071848
Oosterduinen A,40,,,9331WB,Norg,Noordenveld,Drenthe,VBO,6.471513,53.072186
Oosterduinen A,41,,,9331WB,Norg,Noordenveld,Drenthe,VBO,6.469316,53.071759
Oosterduinen A,42,,,9331WB,Norg,Noordenveld,Drenthe,VBO,6.469739,53.071946
Oosterduinen A,43,,,9331WB,Norg,Noordenveld,Drenthe,VBO,6.470241,53.072095
Oosterduinen A,44,,,9331WB,Norg,Noordenveld,Drenthe,VBO,6.470325,53.072263
Oosterduinen A,45,,,9331WB,Norg,Noordenveld,Drenthe,VBO,6.470656,53.072338
Oosterduinen A,46,,,9331WB,Norg,Noordenveld,Drenthe,VBO,6.471033,53.072753
Oosterduinen A,47,,,9331WB,Norg,Noordenveld,Drenthe,VBO,6.468051,53.071571
Oosterduinen A,48,,,9331WB,Norg,Noordenveld,Drenthe,VBO,6.468441,53.071684
Oosterduinen A,49,,,9331WB,Norg,Noordenveld,Drenthe,VBO,6.468730,53.071906
Oosterduinen A,50,,,9331WB,Norg,Noordenveld,Drenthe,VBO,6.469483,53.072178
Oosterduinen A,51,,,9331WB,Norg,Noordenveld,Drenthe,VBO,6.469919,53.072291
Oosterduinen A,52,,,9331WB,Norg,Noordenveld,Drenthe,VBO,6.470162,53.072450
Oosterduinen A,53,,,9331WB,Norg,Noordenveld,Drenthe,VBO,6.470418,53.072583
Oosterduinen A,54,,,9331WB,Norg,Noordenveld,Drenthe,VBO,6.468633,53.072176
Oosterduinen A,55,,,9331WB,Norg,Noordenveld,Drenthe,VBO,6.469282,53.072494
Oosterduinen A,56,,,9331WB,Norg,Noordenveld,Drenthe,VBO,6.469546,53.072650
Oosterduinen A,56,,,9331WB,Norg,Noordenveld,Drenthe,VBO,6.469644,53.072653
Oosterduinen A,57,,,9331WB,Norg,Noordenveld,Drenthe,VBO,6.469930,53.072731
Oosterduinen A,58,,,9331WB,Norg,Noordenveld,Drenthe,VBO,6.470382,53.072933
Oosterduinen A,59,,,9331WB,Norg,Noordenveld,Drenthe,VBO,6.468262,53.072279
Oosterduinen A,60,,,9331WB,Norg,Noordenveld,Drenthe,VBO,6.468894,53.072422
Oosterduinen A,61,,,9331WB,Norg,Noordenveld,Drenthe,VBO,6.468029,53.072487
Oosterduinen A,62,,,9331WB,Norg,Noordenveld,Drenthe,VBO,6.468540,53.072393
Oosterduinen A,63,,,9331WB,Norg,Noordenveld,Drenthe,VBO,6.469155,53.072765
Oosterduinen A,64,,,9331WB,Norg,Noordenveld,Drenthe,VBO,6.469426,53.072888
Oosterduinen A,65,,,9331WB,Norg,Noordenveld,Drenthe,VBO,6.469758,53.073020
Oosterduinen A,66,,,9331WB,Norg,Noordenveld,Drenthe,VBO,6.469999,53.073126
Oosterduinen A,67,,,9331WB,Norg,Noordenveld,Drenthe,VBO,6.470359,53.073176
Oosterduinen A,68,,,9331WB,Norg,Noordenveld,Drenthe,VBO,6.468272,53.072656
Oosterduinen A,69,,,9331WB,Norg,Noordenveld,Drenthe,VBO,6.468443,53.072900
Oosterduinen A,70,,,9331WB,Norg,Noordenveld,Drenthe,VBO,6.468891,53.072956
Oosterduinen A,71,,,9331WB,Norg,Noordenveld,Drenthe,VBO,6.469232,53.073297
Oosterduinen A,72,,,9331WB,Norg,Noordenveld,Drenthe,VBO,6.469706,53.073335
Oosterduinen A,73,,,9331WB,Norg,Noordenveld,Drenthe,VBO,6.469980,53.073539
Oosterduinen B,1,A,,9331WC,Norg,Noordenveld,Drenthe,VBO,6.473724,53.071106
Oosterduinen B,1,,,9331WC,Norg,Noordenveld,Drenthe,VBO,6.473926,53.071445
Oosterduinen B,2,,,9331WC,Norg,Noordenveld,Drenthe,VBO,6.473183,53.071560
Oosterduinen B,3,,,9331WC,Norg,Noordenveld,Drenthe,VBO,6.473662,53.071619
Oosterduinen B,4,,,9331WC,Norg,Noordenveld,Drenthe,VBO,6.473327,53.071945
Oosterduinen B,5,,,9331WC,Norg,Noordenveld,Drenthe,VBO,6.472822,53.072013
Oosterduinen B,6,,,9331WC,Norg,Noordenveld,Drenthe,VBO,6.473063,53.072109
Oosterduinen B,7,,,9331WC,Norg,Noordenveld,Drenthe,VBO,6.472579,53.072225
Oosterduinen B,8,,,9331WC,Norg,Noordenveld,Drenthe,VBO,6.472844,53.072309
Oosterduinen B,9,,,9331WC,Norg,Noordenveld,Drenthe,VBO,6.472578,53.072419
Oosterduinen B,10,,,9331WC,Norg,Noordenveld,Drenthe,VBO,6.472104,53.072549
Oosterduinen B,11,,,9331WC,Norg,Noordenveld,Drenthe,VBO,6.472464,53.072618
Oosterduinen B,12,,,9331WC,Norg,Noordenveld,Drenthe,VBO,6.472483,53.072807
Oosterduinen B,13,,,9331WC,Norg,Noordenveld,Drenthe,VBO,6.471929,53.072713
Oosterduinen B,14,,,9331WC,Norg,Noordenveld,Drenthe,VBO,6.472143,53.072935
Oosterduinen B,15,,,9331WC,Norg,Noordenveld,Drenthe,VBO,6.471565,53.073084
Oosterduinen B,16,,,9331WC,Norg,Noordenveld,Drenthe,VBO,6.474199,53.071587
Oosterduinen B,17,,,9331WC,Norg,Noordenveld,Drenthe,VBO,6.474308,53.071783
Oosterduinen B,18,,,9331WC,Norg,Noordenveld,Drenthe,VBO,6.473966,53.071840
Oosterduinen B,19,,,9331WC,Norg,Noordenveld,Drenthe,VBO,6.474475,53.071899
Oosterduinen B,20,,,9331WC,Norg,Noordenveld,Drenthe,VBO,6.473943,53.072101
Oosterduinen B,21,,,9331WC,Norg,Noordenveld,Drenthe,VBO,6.473560,53.072311
Oosterduinen B,22,,,9331WC,Norg,Noordenveld,Drenthe,VBO,6.473028,53.072514
Oosterduinen B,23,,,9331WC,Norg,Noordenveld,Drenthe,VBO,6.473060,53.072768
Oosterduinen B,24,,,9331WC,Norg,Noordenveld,Drenthe,VBO,6.473447,53.072835
Oosterduinen B,25,,,9331WC,Norg,Noordenveld,Drenthe,VBO,6.472844,53.072893
Oosterduinen B,26,,,9331WC,Norg,Noordenveld,Drenthe,VBO,6.473325,53.073060
Oosterduinen B,27,,,9331WC,Norg,Noordenveld,Drenthe,VBO,6.472506,53.073121
Oosterduinen B,28,,,9331WC,Norg,Noordenveld,Drenthe,VBO,6.473017,53.073251
Oosterduinen B,29,,,9331WC,Norg,Noordenveld,Drenthe,VBO,6.475374,53.072070
Oosterduinen B,30,,,9331WC,Norg,Noordenveld,Drenthe,VBO,6.475603,53.072248
Oosterduinen B,31,,,9331WC,Norg,Noordenveld,Drenthe,VBO,6.475966,53.072433
Oosterduinen B,32,,,9331WC,Norg,Noordenveld,Drenthe,VBO,6.476240,53.072656
Oosterduinen B,33,,,9331WC,Norg,Noordenveld,Drenthe,VBO,6.475247,53.072332
Oosterduinen B,34,,,9331WC,Norg,Noordenveld,Drenthe,VBO,6.475883,53.072704
Oosterduinen B,35,,,9331WC,Norg,Noordenveld,Drenthe,VBO,6.474702,53.072634
Oosterduinen B,36,,,9331WC,Norg,Noordenveld,Drenthe,VBO,6.475119,53.072594
Oosterduinen B,37,,,9331WC,Norg,Noordenveld,Drenthe,VBO,6.475559,53.072895
Oosterduinen B,38,,,9331WC,Norg,Noordenveld,Drenthe,VBO,6.475698,53.073065
Oosterduinen B,39,,,9331WC,Norg,Noordenveld,Drenthe,VBO,6.474694,53.072912
Oosterduinen B,40,,,9331WC,Norg,Noordenveld,Drenthe,VBO,6.474610,53.073111
Oosterduinen B,41,A,,9331WC,Norg,Noordenveld,Drenthe,VBO,6.475247,53.073227
Oosterduinen B,41,,,9331WC,Norg,Noordenveld,Drenthe,VBO,6.475392,53.073269
Oosterduinen B,42,,,9331WC,Norg,Noordenveld,Drenthe,VBO,6.474897,53.073279
Oosterduinen B,43,,,9331WC,Norg,Noordenveld,Drenthe,VBO,6.474285,53.073168
Oosterduinen B,44,,,9331WC,Norg,Noordenveld,Drenthe,VBO,6.474525,53.073300
Oosterduinen B,45,,,9331WC,Norg,Noordenveld,Drenthe,VBO,6.474813,53.073495
Oosterduinen B,46,,,9331WC,Norg,Noordenveld,Drenthe,VBO,6.475114,53.073600
Oosterduinen B,47,,,9331WC,Norg,Noordenveld,Drenthe,VBO,6.474005,53.073377
Oosterduinen B,48,,,9331WC,Norg,Noordenveld,Drenthe,VBO,6.474072,53.073682
Oosterduinen B,49,,,9331WC,Norg,Noordenveld,Drenthe,VBO,6.474433,53.073813
Oosterduinen B,50,,,9331WC,Norg,Noordenveld,Drenthe,VBO,6.474764,53.073891
Oosterduinen B,51,,,9331WC,Norg,Noordenveld,Drenthe,VBO,6.472996,53.073629
Oosterduinen B,52,,,9331WC,Norg,Noordenveld,Drenthe,VBO,6.473510,53.073876
Oosterduinen B,53,,,9331WC,Norg,Noordenveld,Drenthe,VBO,6.473853,53.073873
Oosterduinen B,54,,,9331WC,Norg,Noordenveld,Drenthe,VBO,6.474202,53.074112
Oosterduinen B,55,,,9331WC,Norg,Noordenveld,Drenthe,VBO,6.473048,53.073898
Oosterduinen B,56,,,9331WC,Norg,Noordenveld,Drenthe,VBO,6.473576,53.074136
Oosterduinen B,57,,,9331WC,Norg,Noordenveld,Drenthe,VBO,6.473997,53.074249
Oosterduinen B,58,,,9331WC,Norg,Noordenveld,Drenthe,VBO,6.473158,53.074148
Oosterduinen B,59,,,9331WC,Norg,Noordenveld,Drenthe,VBO,6.473686,53.074341
Oosterduinen B,60,,,9331WC,Norg,Noordenveld,Drenthe,VBO,6.472478,53.074263
Oosterduinen B,61,,,9331WC,Norg,Noordenveld,Drenthe,VBO,6.473164,53.074382
Oosterduinen B,62,,,9331WC,Norg,Noordenveld,Drenthe,VBO,6.473660,53.074503
Oosterduinen B,63,,,9331WC,Norg,Noordenveld,Drenthe,VBO,6.473396,53.074685
Oosterduinen B,64,,,9331WC,Norg,Noordenveld,Drenthe,VBO,6.473635,53.074719
Oosterduinen B,65,,,9331WC,Norg,Noordenveld,Drenthe,VBO,6.473088,53.074904
Oosterduinen B,66,,,9331WC,Norg,Noordenveld,Drenthe,VBO,6.476015,53.073595
Oosterduinen C,1,,,9331WD,Norg,Noordenveld,Drenthe,VBO,6.474425,53.070488
Oosterduinen C,2,,,9331WD,Norg,Noordenveld,Drenthe,VBO,6.474714,53.070719
Oosterduinen C,3,,,9331WD,Norg,Noordenveld,Drenthe,VBO,6.474887,53.070475
Oosterduinen C,4,,,9331WD,Norg,Noordenveld,Drenthe,VBO,6.475117,53.070743
Oosterduinen C,5,,,9331WD,Norg,Noordenveld,Drenthe,VBO,6.475504,53.070676
Oosterduinen C,6,,,9331WD,Norg,Noordenveld,Drenthe,VBO,6.474973,53.070951
Oosterduinen C,7,,,9331WD,Norg,Noordenveld,Drenthe,VBO,6.475243,53.071002
Oosterduinen C,8,,,9331WD,Norg,Noordenveld,Drenthe,VBO,6.475616,53.070972
Oosterduinen C,9,,,9331WD,Norg,Noordenveld,Drenthe,VBO,6.475896,53.070870
Oosterduinen C,10,,,9331WD,Norg,Noordenveld,Drenthe,VBO,6.476247,53.070925
Oosterduinen C,11,,,9331WD,Norg,Noordenveld,Drenthe,VBO,6.476185,53.071065
Oosterduinen C,12,,,9331WD,Norg,Noordenveld,Drenthe,VBO,6.476572,53.071017
Oosterduinen C,13,,,9331WD,Norg,Noordenveld,Drenthe,VBO,6.475547,53.071224
Oosterduinen C,14,,,9331WD,Norg,Noordenveld,Drenthe,VBO,6.475967,53.071503
Oosterduinen C,15,,,9331WD,Norg,Noordenveld,Drenthe,VBO,6.476626,53.071394
Oosterduinen D,2,,,9331WE,Norg,Noordenveld,Drenthe,VBO,6.481335,53.076491
Oosterduinen D,3,,,9331WE,Norg,Noordenveld,Drenthe,VBO,6.481519,53.076678
Oosterduinen D,4,,,9331WE,Norg,Noordenveld,Drenthe,VBO,6.481732,53.076819
Oosterduinen D,5,,,9331WE,Norg,Noordenveld,Drenthe,VBO,6.481988,53.076926
Oosterduinen D,6,,,9331WE,Norg,Noordenveld,Drenthe,VBO,6.482198,53.076987
Oosterduinen D,7,,,9331WE,Norg,Noordenveld,Drenthe,VBO,6.482441,53.077155
Oosterduinen D,8,,,9331WE,Norg,Noordenveld,Drenthe,VBO,6.482727,53.077251
Oosterduinen D,9,,,9331WE,Norg,Noordenveld,Drenthe,VBO,6.483028,53.077357
Oosterduinen D,10,,,9331WE,Norg,Noordenveld,Drenthe,VBO,6.483243,53.077606
Oosterduinen D,11,,,9331WE,Norg,Noordenveld,Drenthe,VBO,6.480634,53.076516
Oosterduinen D,12,,,9331WE,Norg,Noordenveld,Drenthe,VBO,6.479917,53.076477
Oosterduinen D,13,,,9331WE,Norg,Noordenveld,Drenthe,VBO,6.480460,53.076697
Oosterduinen D,14,,,9331WE,Norg,Noordenveld,Drenthe,VBO,6.480806,53.076802
Oosterduinen D,15,,,9331WE,Norg,Noordenveld,Drenthe,VBO,6.481680,53.077162
Oosterduinen D,16,,,9331WE,Norg,Noordenveld,Drenthe,VBO,6.481953,53.077321
Oosterduinen D,17,,,9331WE,Norg,Noordenveld,Drenthe,VBO,6.482300,53.077480
Oosterduinen D,18,,,9331WE,Norg,Noordenveld,Drenthe,VBO,6.482557,53.077613
Oosterduinen D,19,,,9331WE,Norg,Noordenveld,Drenthe,VBO,6.480059,53.076764
Oosterduinen D,20,,,9331WE,Norg,Noordenveld,Drenthe,VBO,6.480677,53.077028
Oosterduinen D,21,,,9331WE,Norg,Noordenveld,Drenthe,VBO,6.481178,53.077356
Oosterduinen D,22,,,9331WE,Norg,Noordenveld,Drenthe,VBO,6.481747,53.077571
Oosterduinen D,23,,,9331WE,Norg,Noordenveld,Drenthe,VBO,6.482386,53.077911
Oosterduinen D,24,,,9331WE,Norg,Noordenveld,Drenthe,VBO,6.483174,53.078407
Oosterduinen D,25,,,9331WE,Norg,Noordenveld,Drenthe,VBO,6.480320,53.077085
Oosterduinen D,26,,,9331WE,Norg,Noordenveld,Drenthe,VBO,6.480592,53.077199
Oosterduinen D,27,,,9331WE,Norg,Noordenveld,Drenthe,VBO,6.481304,53.077615
Oosterduinen D,28,,,9331WE,Norg,Noordenveld,Drenthe,VBO,6.481998,53.077932
Oosterduinen D,29,,,9331WE,Norg,Noordenveld,Drenthe,VBO,6.482272,53.078127
Oosterduinen D,30,,,9331WE,Norg,Noordenveld,Drenthe,VBO,6.479417,53.076787
Oosterduinen D,31,,,9331WE,Norg,Noordenveld,Drenthe,VBO,6.480161,53.077266
Oosterduinen D,32,,,9331WE,Norg,Noordenveld,Drenthe,VBO,6.480599,53.077478
Oosterduinen D,33,,,9331WE,Norg,Noordenveld,Drenthe,VBO,6.481054,53.077788
Oosterduinen D,34,,,9331WE,Norg,Noordenveld,Drenthe,VBO,6.481552,53.077999
Oosterduinen D,35,,,9331WE,Norg,Noordenveld,Drenthe,VBO,6.481962,53.078283
Oosterduinen D,36,,,9331WE,Norg,Noordenveld,Drenthe,VBO,6.479409,53.077048
Oosterduinen D,37,,,9331WE,Norg,Noordenveld,Drenthe,VBO,6.479698,53.077243
Oosterduinen D,38,,,9331WE,Norg,Noordenveld,Drenthe,VBO,6.480181,53.077490
Oosterduinen D,39,,,9331WE,Norg,Noordenveld,Drenthe,VBO,6.480603,53.077773
Oosterduinen D,40,,,9331WE,Norg,Noordenveld,Drenthe,VBO,6.481182,53.078110
Oosterduinen D,41,,,9331WE,Norg,Noordenveld,Drenthe,VBO,6.481892,53.078472
Oosterduinen D,42,,,9331WE,Norg,Noordenveld,Drenthe,VBO,6.478991,53.077034
Oosterduinen D,43,,,9331WE,Norg,Noordenveld,Drenthe,VBO,6.479916,53.077610
Oosterduinen D,44,,,9331WE,Norg,Noordenveld,Drenthe,VBO,6.480234,53.077822
Oosterduinen D,45,,,9331WE,Norg,Noordenveld,Drenthe,VBO,6.480705,53.078131
Oosterduinen D,46,,,9331WE,Norg,Noordenveld,Drenthe,VBO,6.481249,53.078406
Oosterduinen D,47,,,9331WE,Norg,Noordenveld,Drenthe,VBO,6.481658,53.078645
Oosterduinen D,48,,,9331WE,Norg,Noordenveld,Drenthe,VBO,6.478848,53.077288
Oosterduinen D,49,,,9331WE,Norg,Noordenveld,Drenthe,VBO,6.479251,53.077549
Oosterduinen D,50,,,9331WE,Norg,Noordenveld,Drenthe,VBO,6.479590,53.077729
Oosterduinen D,51,,,9331WE,Norg,Noordenveld,Drenthe,VBO,6.479924,53.077924
Oosterduinen D,52,,,9331WE,Norg,Noordenveld,Drenthe,VBO,6.480260,53.078085
Oosterduinen D,53,,,9331WE,Norg,Noordenveld,Drenthe,VBO,6.480470,53.078284
Oosterduinen D,54,,,9331WE,Norg,Noordenveld,Drenthe,VBO,6.480805,53.078572
Oosterduinen D,55,,,9331WE,Norg,Noordenveld,Drenthe,VBO,6.481244,53.078793
Oosterduinen D,56,,,9331WE,Norg,Noordenveld,Drenthe,VBO,6.478614,53.077469
Oosterduinen D,57,,,9331WE,Norg,Noordenveld,Drenthe,VBO,6.479115,53.077824
Oosterduinen D,58,,,9331WE,Norg,Noordenveld,Drenthe,VBO,6.479373,53.078011
Oosterduinen D,59,,,9331WE,Norg,Noordenveld,Drenthe,VBO,6.479722,53.078196
Oosterduinen D,60,,,9331WE,Norg,Noordenveld,Drenthe,VBO,6.480071,53.078453
Oosterduinen D,61,,,9331WE,Norg,Noordenveld,Drenthe,VBO,6.480389,53.078639
Oosterduinen D,62,,,9331WE,Norg,Noordenveld,Drenthe,VBO,6.480830,53.078864
Oosterduinen D,62,,,9331WE,Norg,Noordenveld,Drenthe,VBO,6.481199,53.079066
Oosterduinen D,63,,,9331WE,Norg,Noordenveld,Drenthe,VBO,6.478348,53.077561
Oosterduinen D,64,,,9331WE,Norg,Noordenveld,Drenthe,VBO,6.478835,53.077970
Oosterduinen D,65,,,9331WE,Norg,Noordenveld,Drenthe,VBO,6.479068,53.078300
Oosterduinen D,66,,,9331WE,Norg,Noordenveld,Drenthe,VBO,6.479534,53.078458
Oosterduinen D,67,,,9331WE,Norg,Noordenveld,Drenthe,VBO,6.480003,53.078696
Oosterduinen D,68,,,9331WE,Norg,Noordenveld,Drenthe,VBO,6.480292,53.078936
Oosterduinen D,69,,,9331WE,Norg,Noordenveld,Drenthe,VBO,6.480702,53.079184
Oosterduinen D,70,,,9331WE,Norg,Noordenveld,Drenthe,VBO,6.477920,53.077754
Oosterduinen D,71,,,9331WE,Norg,Noordenveld,Drenthe,VBO,6.478192,53.077886
Oosterduinen D,72,,,9331WE,Norg,Noordenveld,Drenthe,VBO,6.478435,53.078055
Oosterduinen D,73,,,9331WE,Norg,Noordenveld,Drenthe,VBO,6.479345,53.078657
Oosterduinen D,74,,,9331WE,Norg,Noordenveld,Drenthe,VBO,6.479722,53.078825
Oosterduinen D,75,,,9331WE,Norg,Noordenveld,Drenthe,VBO,6.480043,53.079118
Oosterduinen D,76,,,9331WE,Norg,Noordenveld,Drenthe,VBO,6.480500,53.079465
Oosterduinen D,77,,,9331WE,Norg,Noordenveld,Drenthe,VBO,6.477641,53.077936
Oosterduinen D,78,,,9331WE,Norg,Noordenveld,Drenthe,VBO,6.478080,53.078184
Oosterduinen D,79,,,9331WE,Norg,Noordenveld,Drenthe,VBO,6.478279,53.078415
Oosterduinen D,80,,,9331WE,Norg,Noordenveld,Drenthe,VBO,6.478697,53.078421
Oosterduinen D,81,,,9331WE,Norg,Noordenveld,Drenthe,VBO,6.478778,53.078672
Oosterduinen D,82,,,9331WE,Norg,Noordenveld,Drenthe,VBO,6.479065,53.078804
Oosterduinen D,83,,,9331WE,Norg,Noordenveld,Drenthe,VBO,6.479557,53.078981
Oosterduinen D,84,,,9331WE,Norg,Noordenveld,Drenthe,VBO,6.479403,53.079160
Oosterduinen D,85,,,9331WE,Norg,Noordenveld,Drenthe,VBO,6.479872,53.079434
Oosterduinen D,86,,,9331WE,Norg,Noordenveld,Drenthe,VBO,6.480268,53.079736
Oosterduinen D,87,,,9331WE,Norg,Noordenveld,Drenthe,VBO,6.477377,53.078136
Oosterduinen D,88,,,9331WE,Norg,Noordenveld,Drenthe,VBO,6.477712,53.078412
Oosterduinen D,89,,,9331WE,Norg,Noordenveld,Drenthe,VBO,6.477956,53.078607
Oosterduinen D,90,,,9331WE,Norg,Noordenveld,Drenthe,VBO,6.478366,53.078900
Oosterduinen D,91,,,9331WE,Norg,Noordenveld,Drenthe,VBO,6.478685,53.079122
Oosterduinen D,92,,,9331WE,Norg,Noordenveld,Drenthe,VBO,6.478884,53.079327
Oosterduinen D,93,,,9331WE,Norg,Noordenveld,Drenthe,VBO,6.479204,53.079557
Oosterduinen D,94,,,9331WE,Norg,Noordenveld,Drenthe,VBO,6.479522,53.079743
Oosterduinen D,95,,,9331WE,Norg,Noordenveld,Drenthe,VBO,6.479810,53.079920
Oosterduinen D,96,,,9331WE,Norg,Noordenveld,Drenthe,VBO,6.476978,53.078284
Oosterduinen D,97,,,9331WE,Norg,Noordenveld,Drenthe,VBO,6.477371,53.078487
Oosterduinen D,98,,,9331WE,Norg,Noordenveld,Drenthe,VBO,6.477634,53.078844
Oosterduinen D,99,,,9331WE,Norg,Noordenveld,Drenthe,VBO,6.478042,53.079074
Oosterduinen D,100,,,9331WE,Norg,Noordenveld,Drenthe,VBO,6.478588,53.079401
Oosterduinen D,101,,,9331WE,Norg,Noordenveld,Drenthe,VBO,6.478909,53.079713
Oosterduinen D,102,,,9331WE,Norg,Noordenveld,Drenthe,VBO,6.479167,53.079890
Oosterduinen D,103,,,9331WE,Norg,Noordenveld,Drenthe,VBO,6.479518,53.080201
Oosterduinen D,104,,,9331WE,Norg,Noordenveld,Drenthe,VBO,6.476640,53.078511
Oosterduinen D,105,,,9331WE,Norg,Noordenveld,Drenthe,VBO,6.476839,53.078680
Oosterduinen D,106,,,9331WE,Norg,Noordenveld,Drenthe,VBO,6.477007,53.078867
Oosterduinen D,107,,,9331WE,Norg,Noordenveld,Drenthe,VBO,6.477266,53.079072
Oosterduinen D,108,,,9331WE,Norg,Noordenveld,Drenthe,VBO,6.477553,53.079186
Oosterduinen D,109,,,9331WE,Norg,Noordenveld,Drenthe,VBO,6.477782,53.079345
Oosterduinen D,110,,,9331WE,Norg,Noordenveld,Drenthe,VBO,6.478000,53.079509
Oosterduinen D,111,,,9331WE,Norg,Noordenveld,Drenthe,VBO,6.478252,53.079692
Oosterduinen D,112,,,9331WE,Norg,Noordenveld,Drenthe,VBO,6.476390,53.078648
Oosterduinen D,113,,,9331WE,Norg,Noordenveld,Drenthe,VBO,6.476006,53.078796
Oosterduinen D,114,,,9331WE,Norg,Noordenveld,Drenthe,VBO,6.476263,53.078946
Oosterduinen D,115,,,9331WE,Norg,Noordenveld,Drenthe,VBO,6.476461,53.079106
Oosterduinen D,116,,,9331WE,Norg,Noordenveld,Drenthe,VBO,6.476659,53.079257
Oosterduinen D,117,,,9331WE,Norg,Noordenveld,Drenthe,VBO,6.475549,53.079051
Oosterduinen D,118,,,9331WE,Norg,Noordenveld,Drenthe,VBO,6.475838,53.079246
Oosterduinen D,119,,,9331WE,Norg,Noordenveld,Drenthe,VBO,6.476170,53.079414
Oosterduinen D,120,,,9331WE,Norg,Noordenveld,Drenthe,VBO,6.476352,53.079644
Oosterduinen D,121,,,9331WE,Norg,Noordenveld,Drenthe,VBO,6.476718,53.079823
Oosterduinen D,122,,,9331WE,Norg,Noordenveld,Drenthe,VBO,6.477007,53.080036
Oosterduinen D,123,,,9331WE,Norg,Noordenveld,Drenthe,VBO,6.477265,53.080222
Oosterduinen D,124,,,9331WE,Norg,Noordenveld,Drenthe,VBO,6.477525,53.080444
Oosterduinen D,125,,,9331WE,Norg,Noordenveld,Drenthe,VBO,6.477792,53.080637
Oosterduinen D,126,,,9331WE,Norg,Noordenveld,Drenthe,VBO,6.478452,53.079924
Oosterduinen D,127,,,9331WE,Norg,Noordenveld,Drenthe,VBO,6.478786,53.080154
Oosterduinen D,128,,,9331WE,Norg,Noordenveld,Drenthe,VBO,6.479091,53.080403
Oosterduinen D,129,,,9331WE,Norg,Noordenveld,Drenthe,VBO,6.476993,53.079497
Oosterduinen D,130,,,9331WE,Norg,Noordenveld,Drenthe,VBO,6.477282,53.079701
Oosterduinen D,132,,,9331WE,Norg,Noordenveld,Drenthe,VBO,6.477800,53.080118
Oosterduinen D,133,,,9331WE,Norg,Noordenveld,Drenthe,VBO,6.478073,53.080305
Oosterduinen D,134,,,9331WE,Norg,Noordenveld,Drenthe,VBO,6.478392,53.080508
Oosterduinen D,135,,,9331WE,Norg,Noordenveld,Drenthe,VBO,6.478710,53.080694
Oosterduinen E,1,,,9331WG,Norg,Noordenveld,Drenthe,VBO,6.475315,53.076861
Oosterduinen E,2,,,9331WG,Norg,Noordenveld,Drenthe,VBO,6.474964,53.077134
Oosterduinen E,3,,,9331WG,Norg,Noordenveld,Drenthe,VBO,6.474685,53.077289
Oosterduinen E,4,,,9331WG,Norg,Noordenveld,Drenthe,VBO,6.474510,53.077488
Oosterduinen E,5,,,9331WG,Norg,Noordenveld,Drenthe,VBO,6.476002,53.076846
Oosterduinen E,6,,,9331WG,Norg,Noordenveld,Drenthe,VBO,6.475680,53.077100
Oosterduinen E,7,,,9331WG,Norg,Noordenveld,Drenthe,VBO,6.475303,53.077328
Oosterduinen E,8,,,9331WG,Norg,Noordenveld,Drenthe,VBO,6.474931,53.077610
Oosterduinen E,9,,,9331WG,Norg,Noordenveld,Drenthe,VBO,6.474588,53.077745
Oosterduinen E,10,,,9331WG,Norg,Noordenveld,Drenthe,VBO,6.476317,53.076942
Oosterduinen E,11,,,9331WG,Norg,Noordenveld,Drenthe,VBO,6.475965,53.077169
Oosterduinen E,12,,,9331WG,Norg,Noordenveld,Drenthe,VBO,6.476207,53.077320
Oosterduinen E,13,,,9331WG,Norg,Noordenveld,Drenthe,VBO,6.476445,53.077264
Oosterduinen E,14,,,9331WG,Norg,Noordenveld,Drenthe,VBO,6.476880,53.077368
Oosterduinen E,15,,,9331WG,Norg,Noordenveld,Drenthe,VBO,6.475882,53.077422
Oosterduinen E,16,,,9331WG,Norg,Noordenveld,Drenthe,VBO,6.476288,53.077553
Oosterduinen E,17,,,9331WG,Norg,Noordenveld,Drenthe,VBO,6.476249,53.077769
Oosterduinen E,18,,,9331WG,Norg,Noordenveld,Drenthe,VBO,6.475561,53.077721
Oosterduinen E,19,,,9331WG,Norg,Noordenveld,Drenthe,VBO,6.474924,53.077898
Oosterduinen E,20,,,9331WG,Norg,Noordenveld,Drenthe,VBO,6.475282,53.077904
Oosterduinen E,21,,,9331WG,Norg,Noordenveld,Drenthe,VBO,6.475333,53.078137
Oosterduinen F,1,,,9331WH,Norg,Noordenveld,Drenthe,VBO,6.471767,53.077709
Oosterduinen F,2,,,9331WH,Norg,Noordenveld,Drenthe,VBO,6.471165,53.077986
Oosterduinen F,3,,,9331WH,Norg,Noordenveld,Drenthe,VBO,6.470739,53.078241
Oosterduinen F,4,,,9331WH,Norg,Noordenveld,Drenthe,VBO,6.470354,53.078389
Oosterduinen F,5,,,9331WH,Norg,Noordenveld,Drenthe,VBO,6.469809,53.078654
Oosterduinen F,6,,,9331WH,Norg,Noordenveld,Drenthe,VBO,6.469609,53.078997
Oosterduinen F,7,,,9331WH,Norg,Noordenveld,Drenthe,VBO,6.472102,53.077843
Oosterduinen F,8,,,9331WH,Norg,Noordenveld,Drenthe,VBO,6.471838,53.078043
Oosterduinen F,9,,,9331WH,Norg,Noordenveld,Drenthe,VBO,6.471219,53.078345
Oosterduinen F,10,,,9331WH,Norg,Noordenveld,Drenthe,VBO,6.470893,53.078548
Oosterduinen F,11,,,9331WH,Norg,Noordenveld,Drenthe,VBO,6.470350,53.078793
Oosterduinen F,12,,,9331WH,Norg,Noordenveld,Drenthe,VBO,6.470144,53.079166
Oosterduinen F,13,,,9331WH,Norg,Noordenveld,Drenthe,VBO,6.472554,53.078009
Oosterduinen F,14,,,9331WH,Norg,Noordenveld,Drenthe,VBO,6.472127,53.078274
Oosterduinen F,15,,,9331WH,Norg,Noordenveld,Drenthe,VBO,6.471537,53.078549
Oosterduinen F,16,,,9331WH,Norg,Noordenveld,Drenthe,VBO,6.471230,53.078776
Oosterduinen F,17,,,9331WH,Norg,Noordenveld,Drenthe,VBO,6.470814,53.078852
Oosterduinen F,18,,,9331WH,Norg,Noordenveld,Drenthe,VBO,6.470511,53.079286
Oosterduinen F,19,,,9331WH,Norg,Noordenveld,Drenthe,VBO,6.472902,53.078213
Oosterduinen F,20,,,9331WH,Norg,Noordenveld,Drenthe,VBO,6.472445,53.078442
Oosterduinen F,21,,,9331WH,Norg,Noordenveld,Drenthe,VBO,6.472123,53.078687
Oosterduinen F,22,,,9331WH,Norg,Noordenveld,Drenthe,VBO,6.471635,53.078880
Oosterduinen F,23,,,9331WH,Norg,Noordenveld,Drenthe,VBO,6.471018,53.079245
Oosterduinen F,24,,,9331WH,Norg,Noordenveld,Drenthe,VBO,6.470798,53.079400
Oosterduinen F,25,,,9331WH,Norg,Noordenveld,Drenthe,VBO,6.473410,53.078235
Oosterduinen F,26,,,9331WH,Norg,Noordenveld,Drenthe,VBO,6.473204,53.078354
Oosterduinen F,27,,,9331WH,Norg,Noordenveld,Drenthe,VBO,6.472909,53.078509
Oosterduinen F,28,,,9331WH,Norg,Noordenveld,Drenthe,VBO,6.472630,53.078665
Oosterduinen F,29,,,9331WH,Norg,Noordenveld,Drenthe,VBO,6.472335,53.078811
Oosterduinen F,30,,,9331WH,Norg,Noordenveld,Drenthe,VBO,6.472010,53.078940
Oosterduinen F,31,,,9331WH,Norg,Noordenveld,Drenthe,VBO,6.471730,53.079095
Oosterduinen F,32,,,9331WH,Norg,Noordenveld,Drenthe,VBO,6.471469,53.079394
Oosterduinen F,33,,,9331WH,Norg,Noordenveld,Drenthe,VBO,6.473404,53.078586
Oosterduinen F,34,,,9331WH,Norg,Noordenveld,Drenthe,VBO,6.473008,53.078859
Oosterduinen F,35,,,9331WH,Norg,Noordenveld,Drenthe,VBO,6.472568,53.079168
Oosterduinen F,36,,,9331WH,Norg,Noordenveld,Drenthe,VBO,6.472036,53.079389
Oosterduinen F,37,,,9331WH,Norg,Noordenveld,Drenthe,VBO,6.471609,53.079617
Oosterduinen F,38,,,9331WH,Norg,Noordenveld,Drenthe,VBO,6.474020,53.078751
Oosterduinen F,39,,,9331WH,Norg,Noordenveld,Drenthe,VBO,6.473601,53.079044
Oosterduinen F,40,,,9331WH,Norg,Noordenveld,Drenthe,VBO,6.473033,53.079281
Oosterduinen F,41,,,9331WH,Norg,Noordenveld,Drenthe,VBO,6.472484,53.079421
Oosterduinen F,42,,,9331WH,Norg,Noordenveld,Drenthe,VBO,6.472995,53.079542
Oosterduinen F,43,,,9331WH,Norg,Noordenveld,Drenthe,VBO,6.472582,53.079734
Oosterduinen F,44,,,9331WH,Norg,Noordenveld,Drenthe,VBO,6.472132,53.079649
Oosterduinen F,45,,,9331WH,Norg,Noordenveld,Drenthe,VBO,6.471822,53.079786
Oosterduinen Z,1,,,9331WK,Norg,Noordenveld,Drenthe,VBO,6.470936,53.073373
Oosterduinen Z,2,,,9331WK,Norg,Noordenveld,Drenthe,VBO,6.471086,53.073628
Oosterduinen Z,4,,,9331WK,Norg,Noordenveld,Drenthe,VBO,6.470709,53.074045
Oosterduinen Z,5,,,9331WK,Norg,Noordenveld,Drenthe,VBO,6.469854,53.074377
Oosterduinen Z,6,,,9331WK,Norg,Noordenveld,Drenthe,VBO,6.469205,53.074777
Oosterduinen Z,7,,,9331WK,Norg,Noordenveld,Drenthe,VBO,6.469631,53.075106
Oosterduinen Z,8,,,9331WK,Norg,Noordenveld,Drenthe,VBO,6.464824,53.073723
Oosterduinen Z,9,,,9331WK,Norg,Noordenveld,Drenthe,VBO,6.465559,53.074001
Oosterduinen Z,10,,,9331WK,Norg,Noordenveld,Drenthe,VBO,6.466862,53.074542
Oosterduinen Z,11,,,9331WK,Norg,Noordenveld,Drenthe,VBO,6.467836,53.074942
Oosterduinen Z,12,,,9331WK,Norg,Noordenveld,Drenthe,VBO,6.469103,53.075479
Oosterduinen Z,13,,,9331WK,Norg,Noordenveld,Drenthe,VBO,6.468319,53.075619
Oosterduinen Z,14,,,9331WK,Norg,Noordenveld,Drenthe,VBO,6.470055,53.075345
Oosterduinen Z,15,,,9331WK,Norg,Noordenveld,Drenthe,VBO,6.469290,53.075783
Oosterduinen Z,16,,,9331WK,Norg,Noordenveld,Drenthe,VBO,6.472211,53.073851
Oosterduinen Z,17,,,9331WK,Norg,Noordenveld,Drenthe,VBO,6.471712,53.074197
Oosterduinen Z,18,,,9331WK,Norg,Noordenveld,Drenthe,VBO,6.471009,53.075022
Oosterduinen Z,19,,,9331WK,Norg,Noordenveld,Drenthe,VBO,6.470608,53.075385
Oosterduinen Z,20,,,9331WK,Norg,Noordenveld,Drenthe,VBO,6.472020,53.074581
Oosterduinen Z,21,,,9331WK,Norg,Noordenveld,Drenthe,VBO,6.471866,53.074987
Oosterduinen Z,22,,,9331WK,Norg,Noordenveld,Drenthe,VBO,6.471219,53.075361
Oosterduinen Z,23,,,9331WK,Norg,Noordenveld,Drenthe,VBO,6.470782,53.075797
Oosterduinen Z,24,,,9331WK,Norg,Noordenveld,Drenthe,VBO,6.470241,53.076215
Oosterduinen Z,25,,,9331WK,Norg,Noordenveld,Drenthe,VBO,6.472591,53.074720
Oosterduinen Z,26,,,9331WK,Norg,Noordenveld,Drenthe,VBO,6.472114,53.075335
Oosterduinen Z,27,,,9331WK,Norg,Noordenveld,Drenthe,VBO,6.471251,53.076062
Oosterduinen Z,28,,,9331WK,Norg,Noordenveld,Drenthe,VBO,6.470903,53.076442
Oosterduinen Z,29,,,9331WK,Norg,Noordenveld,Drenthe,VBO,6.472672,53.075573
Oosterduinen Z,30,,,9331WK,Norg,Noordenveld,Drenthe,VBO,6.471529,53.076401
Oosterduinen Z,31,,,9331WK,Norg,Noordenveld,Drenthe,VBO,6.471461,53.076698
Oosterduinen Z,32,,,9331WK,Norg,Noordenveld,Drenthe,VBO,6.474150,53.075020
Oosterduinen Z,33,,,9331WK,Norg,Noordenveld,Drenthe,VBO,6.473707,53.075213
Oosterduinen Z,34,,,9331WK,Norg,Noordenveld,Drenthe,VBO,6.472651,53.075923
Oosterduinen Z,35,,,9331WK,Norg,Noordenveld,Drenthe,VBO,6.472086,53.076611
Oosterduinen Z,36,,,9331WK,Norg,Noordenveld,Drenthe,VBO,6.474676,53.074584
Oosterduinen Z,37,,,9331WK,Norg,Noordenveld,Drenthe,VBO,6.474549,53.074846
Oosterduinen Z,38,,,9331WK,Norg,Noordenveld,Drenthe,VBO,6.475000,53.075003
Oosterduinen Z,39,,,9331WK,Norg,Noordenveld,Drenthe,VBO,6.474770,53.075329
Oosterduinen Z,40,,,9331WK,Norg,Noordenveld,Drenthe,VBO,6.474204,53.075379
Oosterduinen Z,41,,,9331WK,Norg,Noordenveld,Drenthe,VBO,6.474464,53.075628
Oosterduinen Z,42,,,9331WK,Norg,Noordenveld,Drenthe,VBO,6.472455,53.077031
Oosterduinen Z,43,,,9331WK,Norg,Noordenveld,Drenthe,VBO,6.475633,53.075035
Oosterduinen Z,44,,,9331WK,Norg,Noordenveld,Drenthe,VBO,6.476635,53.075312
Oosterduinen Z,45,,,9331WK,Norg,Noordenveld,Drenthe,VBO,6.475873,53.075428
Oosterduinen Z,46,,,9331WK,Norg,Noordenveld,Drenthe,VBO,6.476253,53.075585
Oosterduinen Z,47,,,9331WK,Norg,Noordenveld,Drenthe,VBO,6.476705,53.075725
Oosterduinen Z,48,,,9331WK,Norg,Noordenveld,Drenthe,VBO,6.477397,53.075943
Oosterduinen Z,49,,,9331WK,Norg,Noordenveld,Drenthe,VBO,6.475090,53.075605
Oosterduinen Z,50,,,9331WK,Norg,Noordenveld,Drenthe,VBO,6.475158,53.075955
Oosterduinen Z,51,,,9331WK,Norg,Noordenveld,Drenthe,VBO,6.475637,53.076004
Oosterduinen Z,52,,,9331WK,Norg,Noordenveld,Drenthe,VBO,6.476088,53.076135
Oosterduinen Z,53,,,9331WK,Norg,Noordenveld,Drenthe,VBO,6.476502,53.076553
Oosterduinen Z,54,,,9331WK,Norg,Noordenveld,Drenthe,VBO,6.475390,53.076276
Oosterduinen Z,55,,,9331WK,Norg,Noordenveld,Drenthe,VBO,6.475352,53.076519
Oosterduinen Z,56,,,9331WK,Norg,Noordenveld,Drenthe,VBO,6.474092,53.076288
Oosterduinen Z,57,,,9331WK,Norg,Noordenveld,Drenthe,VBO,6.474716,53.076758
Oosterduinen Z,58,,,9331WK,Norg,Noordenveld,Drenthe,VBO,6.474019,53.076944
Oosterduinen Z,59,,,9331WK,Norg,Noordenveld,Drenthe,VBO,6.473394,53.076995
Oosterduinen Z,60,,,9331WK,Norg,Noordenveld,Drenthe,VBO,6.473811,53.077584
Oosterduinen Z,61,,,9331WK,Norg,Noordenveld,Drenthe,VBO,6.473103,53.077312
Oosterduinen Z,62,,,9331WK,Norg,Noordenveld,Drenthe,VBO,6.478752,53.075859
Oosterduinen Z,63,,,9331WK,Norg,Noordenveld,Drenthe,VBO,6.478294,53.076025
Oosterduinen Z,64,,,9331WK,Norg,Noordenveld,Drenthe,VBO,6.478705,53.076327
Oosterduinen Z,65,,,9331WK,Norg,Noordenveld,Drenthe,VBO,6.477827,53.075858
Oosterduinen Z,66,,,9331WK,Norg,Noordenveld,Drenthe,VBO,6.477984,53.076171
Oosterduinen Z,67,,,9331WK,Norg,Noordenveld,Drenthe,VBO,6.478069,53.076584
Oosterduinen Z,68,,,9331WK,Norg,Noordenveld,Drenthe,VBO,6.477200,53.076363
Oosterduinen Z,69,,,9331WK,Norg,Noordenveld,Drenthe,VBO,6.477062,53.076872
Oosterduinen Z,70,,,9331WK,Norg,Noordenveld,Drenthe,VBO,6.477410,53.077084
Oosterduinen Z,71,,,9331WK,Norg,Noordenveld,Drenthe,VBO,6.473404,53.076570
Langeloërduinen G,9,,,9331WL,Norg,Noordenveld,Drenthe,VBO,6.438604,53.079292
Langeloërduinen G,11,,,9331WL,Norg,Noordenveld,Drenthe,VBO,6.469191,53.076477
Langeloërduinen G,12,,,9331WL,Norg,Noordenveld,Drenthe,VBO,6.466950,53.075925
Langeloërduinen G,13,,,9331WL,Norg,Noordenveld,Drenthe,VBO,6.465367,53.075270
Langeloërduinen G,14,,,9331WL,Norg,Noordenveld,Drenthe,VBO,6.453246,53.081804
Langeloërduinen G,15,,,9331WL,Norg,Noordenveld,Drenthe,VBO,6.452932,53.081374
Langeloërduinen G,16,,,9331WL,Norg,Noordenveld,Drenthe,VBO,6.457165,53.080517
Langeloërduinen G,19,,,9331WL,Norg,Noordenveld,Drenthe,VBO,6.435709,53.082075
Langeloërduinen G,20,,,9331WL,Norg,Noordenveld,Drenthe,VBO,6.443222,53.069658
Langeloërduinen G,21,,,9331WL,Norg,Noordenveld,Drenthe,VBO,6.441769,53.069204
Langeloërduinen G,22,,,9331WL,Norg,Noordenveld,Drenthe,VBO,6.440580,53.071277
Langeloërduinen G,24,,,9331WL,Norg,Noordenveld,Drenthe,VBO,6.438801,53.074372
Langeloërduinen G,25,,,9331WL,Norg,Noordenveld,Drenthe,VBO,6.438354,53.075049
Langeloërduinen G,26,,,9331WL,Norg,Noordenveld,Drenthe,VBO,6.438452,53.075589
Langeloërduinen G,27,,,9331WL,Norg,Noordenveld,Drenthe,VBO,6.438179,53.076089
Langeloërduinen L,19,,,9331WN,Norg,Noordenveld,Drenthe,VBO,6.447545,53.074459
Langeloërduinen L,20,,,9331WN,Norg,Noordenveld,Drenthe,VBO,6.447620,53.074485
Langeloërduinen L,21,,,9331WN,Norg,Noordenveld,Drenthe,VBO,6.448540,53.074252
Langeloërduinen L,22,,,9331WN,Norg,Noordenveld,Drenthe,VBO,6.448435,53.074244
Langeloërduinen L,23,,,9331WN,Norg,Noordenveld,Drenthe,VBO,6.449149,53.074750
Langeloërduinen L,24,,,9331WN,Norg,Noordenveld,Drenthe,VBO,6.449088,53.074715
Langeloërduinen L,25,,,9331WN,Norg,Noordenveld,Drenthe,VBO,6.450492,53.074756
Langeloërduinen L,26,,,9331WN,Norg,Noordenveld,Drenthe,VBO,6.449591,53.075243
Langeloërduinen L,27,,,9331WN,Norg,Noordenveld,Drenthe,VBO,6.449535,53.075286
Langeloërduinen L,28,,,9331WN,Norg,Noordenveld,Drenthe,VBO,6.449425,53.075673
Langeloërduinen L,29,,,9331WN,Norg,Noordenveld,Drenthe,VBO,6.448728,53.075221
Langeloërduinen L,30,,,9331WN,Norg,Noordenveld,Drenthe,VBO,6.448652,53.075204
Langeloërduinen L,31,,,9331WN,Norg,Noordenveld,Drenthe,VBO,6.448135,53.074804
Langeloërduinen L,32,,,9331WN,Norg,Noordenveld,Drenthe,VBO,6.448045,53.074787
Langeloërduinen L,33,,,9331WN,Norg,Noordenveld,Drenthe,VBO,6.447003,53.074877
Langeloërduinen L,34,,,9331WN,Norg,Noordenveld,Drenthe,VBO,6.446927,53.074833
Langeloërduinen L,35,,,9331WN,Norg,Noordenveld,Drenthe,VBO,6.446133,53.074678
Langeloërduinen L,36,,,9331WN,Norg,Noordenveld,Drenthe,VBO,6.446057,53.074643
Langeloërduinen L,37,,,9331WN,Norg,Noordenveld,Drenthe,VBO,6.445799,53.075085
Langeloërduinen L,38,,,9331WN,Norg,Noordenveld,Drenthe,VBO,6.445739,53.075050
Langeloërduinen L,39,,,9331WN,Norg,Noordenveld,Drenthe,VBO,6.446729,53.075284
Langeloërduinen L,40,,,9331WN,Norg,Noordenveld,Drenthe,VBO,6.446669,53.075240
Langeloërduinen L,41,,,9331WN,Norg,Noordenveld,Drenthe,VBO,6.448110,53.075595
Langeloërduinen L,42,,,9331WN,Norg,Noordenveld,Drenthe,VBO,6.448184,53.075577
Langeloërduinen L,43,,,9331WN,Norg,Noordenveld,Drenthe,VBO,6.448446,53.075925
Langeloërduinen L,44,,,9331WN,Norg,Noordenveld,Drenthe,VBO,6.448536,53.075942
Langeloërduinen L,45,,,9331WN,Norg,Noordenveld,Drenthe,VBO,6.449167,53.076116
Langeloërduinen L,46,,,9331WN,Norg,Noordenveld,Drenthe,VBO,6.449107,53.076090
Langeloërduinen 1,9,,,9331WP,Norg,Noordenveld,Drenthe,VBO,6.461309,53.074369
Langeloërduinen 1,11,,,9331WP,Norg,Noordenveld,Drenthe,VBO,6.460658,53.074125
Langeloërduinen 1,12,,,9331WP,Norg,Noordenveld,Drenthe,VBO,6.460826,53.073740
Langeloërduinen 1,13,,,9331WP,Norg,Noordenveld,Drenthe,VBO,6.461271,53.073770
Langeloërduinen 1,14,,,9331WP,Norg,Noordenveld,Drenthe,VBO,6.461600,53.073812
Langeloërduinen 1,15,,,9331WP,Norg,Noordenveld,Drenthe,VBO,6.461901,53.073900
Langeloërduinen 1,25,,,9331WP,Norg,Noordenveld,Drenthe,VBO,6.462860,53.072987
Langeloërduinen 2,49,,,9331WR,Norg,Noordenveld,Drenthe,VBO,6.460769,53.074491
Langeloërduinen 2,51,,,9331WR,Norg,Noordenveld,Drenthe,VBO,6.461103,53.074580
Langeloërduinen 2,52,,,9331WR,Norg,Noordenveld,Drenthe,VBO,6.461306,53.074668
Langeloërduinen 2,54,,,9331WR,Norg,Noordenveld,Drenthe,VBO,6.460953,53.074879
Langeloërduinen 2,57,,,9331WR,Norg,Noordenveld,Drenthe,VBO,6.460496,53.075044
Langeloërduinen 2,59,,,9331WR,Norg,Noordenveld,Drenthe,VBO,6.460884,53.075373
Langeloërduinen 2,60,,,9331WR,Norg,Noordenveld,Drenthe,VBO,6.461131,53.075462
Langeloërduinen 2,61,,,9331WR,Norg,Noordenveld,Drenthe,VBO,6.461396,53.075366
Langeloërduinen 2,65,,,9331WR,Norg,Noordenveld,Drenthe,VBO,6.461669,53.075149
Langeloërduinen 2,66,,,9331WR,Norg,Noordenveld,Drenthe,VBO,6.461661,53.074976
Langeloërduinen 2,67,,,9331WR,Norg,Noordenveld,Drenthe,VBO,6.462394,53.074862
Langeloërduinen 3,26,,,9331WS,Norg,Noordenveld,Drenthe,STA,6.463203,53.073319
Langeloërduinen 3,27,,,9331WS,Norg,Noordenveld,Drenthe,VBO,6.463500,53.073409
Langeloërduinen 3,28,,,9331WS,Norg,Noordenveld,Drenthe,VBO,6.462749,53.073320
Langeloërduinen 3,29,,,9331WS,Norg,Noordenveld,Drenthe,VBO,6.463326,53.073608
Langeloërduinen 3,30,,,9331WS,Norg,Noordenveld,Drenthe,VBO,6.462911,53.073560
Langeloërduinen 3,32,,,9331WS,Norg,Noordenveld,Drenthe,VBO,6.463603,53.073938
Langeloërduinen 3,33,,,9331WS,Norg,Noordenveld,Drenthe,VBO,6.463187,53.073996
Langeloërduinen 3,34,,,9331WS,Norg,Noordenveld,Drenthe,VBO,6.462667,53.073796
Langeloërduinen 3,36,,,9331WS,Norg,Noordenveld,Drenthe,VBO,6.462876,53.074097
Langeloërduinen 3,37,,,9331WS,Norg,Noordenveld,Drenthe,VBO,6.463637,53.074118
Langeloërduinen 3,38,,,9331WS,Norg,Noordenveld,Drenthe,VBO,6.463769,53.074547
Langeloërduinen 3,39,,,9331WS,Norg,Noordenveld,Drenthe,VBO,6.463124,53.074272
Langeloërduinen 3,40,,,9331WS,Norg,Noordenveld,Drenthe,VBO,6.462355,53.074156
Langeloërduinen 3,42,,,9331WS,Norg,Noordenveld,Drenthe,VBO,6.462899,53.074412
Langeloërduinen 3,43,,,9331WS,Norg,Noordenveld,Drenthe,VBO,6.463350,53.074552
Langeloërduinen 3,44,,,9331WS,Norg,Noordenveld,Drenthe,VBO,6.463144,53.074661
Langeloërduinen 3,45,,,9331WS,Norg,Noordenveld,Drenthe,VBO,6.462603,53.074513
Langeloërduinen 3,47,,,9331WS,Norg,Noordenveld,Drenthe,VBO,6.462115,53.074697
Langeloërduinen 4,68,,,9331WT,Norg,Noordenveld,Drenthe,VBO,6.462655,53.074800
Langeloërduinen 4,69,,,9331WT,Norg,Noordenveld,Drenthe,VBO,6.463357,53.074839
Langeloërduinen 4,70,,,9331WT,Norg,Noordenveld,Drenthe,VBO,6.463629,53.074998
Langeloërduinen 4,71,,,9331WT,Norg,Noordenveld,Drenthe,VBO,6.462212,53.075162
Langeloërduinen 4,72,,,9331WT,Norg,Noordenveld,Drenthe,VBO,6.462558,53.075134
Langeloërduinen 4,73,,,9331WT,Norg,Noordenveld,Drenthe,VBO,6.462359,53.075455
Langeloërduinen 4,74,,,9331WT,Norg,Noordenveld,Drenthe,VBO,6.462772,53.075321
Langeloërduinen 4,75,,,9331WT,Norg,Noordenveld,Drenthe,VBO,6.462744,53.075531
Langeloërduinen 4,76,,,9331WT,Norg,Noordenveld,Drenthe,VBO,6.462152,53.075605
Langeloërduinen 4,77,,,9331WT,Norg,Noordenveld,Drenthe,VBO,6.463286,53.075457
Langeloërduinen 4,78,,,9331WT,Norg,Noordenveld,Drenthe,VBO,6.463532,53.075287
Langeloërduinen 4,82,,,9331WT,Norg,Noordenveld,Drenthe,VBO,6.463539,53.075573
Langeloërduinen 4,83,,,9331WT,Norg,Noordenveld,Drenthe,VBO,6.463243,53.075676
Langeloërduinen 4,84,,,9331WT,Norg,Noordenveld,Drenthe,VBO,6.463473,53.075907
Langeloërduinen 4,85,,,9331WT,Norg,Noordenveld,Drenthe,VBO,6.463053,53.075821
Langeloërduinen 4,87,,,9331WT,Norg,Noordenveld,Drenthe,VBO,6.463828,53.075787
Langeloërduinen 4,88,,,9331WT,Norg,Noordenveld,Drenthe,VBO,6.462468,53.075719
Langeloërduinen 4,89,,,9331WT,Norg,Noordenveld,Drenthe,VBO,6.462529,53.075894
Langeloërduinen 4,90,,,9331WT,Norg,Noordenveld,Drenthe,VBO,6.462804,53.076030
Langeloërduinen 4,92,,,9331WT,Norg,Noordenveld,Drenthe,VBO,6.463331,53.076196
Langeloërduinen 4,93,,,9331WT,Norg,Noordenveld,Drenthe,VBO,6.462962,53.076379
Langeloërduinen 4,95,,,9331WT,Norg,Noordenveld,Drenthe,VBO,6.462486,53.076437
Langeloërduinen 4,97,,,9331WT,Norg,Noordenveld,Drenthe,VBO,6.462435,53.076168
Langeloërduinen 4,98,,,9331WT,Norg,Noordenveld,Drenthe,VBO,6.462074,53.076321
Langeloërduinen 4,99,,,9331WT,Norg,Noordenveld,Drenthe,VBO,6.462463,53.076698
Langeloërduinen 4,100,,,9331WT,Norg,Noordenveld,Drenthe,VBO,6.462176,53.076566
Langeloërduinen 4,101,,,9331WT,Norg,Noordenveld,Drenthe,VBO,6.461801,53.076480
Langeloërduinen 4,102,,,9331WT,Norg,Noordenveld,Drenthe,VBO,6.461971,53.075891
Langeloërduinen 4,103,,,9331WT,Norg,Noordenveld,Drenthe,VBO,6.461678,53.075753
Langeloërduinen 4,105,A,,9331WT,Norg,Noordenveld,Drenthe,VBO,6.460749,53.075694
Langeloërduinen 4,105,,,9331WT,Norg,Noordenveld,Drenthe,VBO,6.461193,53.075881
Langeloërduinen 4,106,,,9331WT,Norg,Noordenveld,Drenthe,VBO,6.461485,53.075916
Langeloërduinen 4,107,,,9331WT,Norg,Noordenveld,Drenthe,VBO,6.461774,53.076007
Langeloërduinen 4,110,,,9331WT,Norg,Noordenveld,Drenthe,VBO,6.460847,53.076138
Langeloërduinen 4,111,,,9331WT,Norg,Noordenveld,Drenthe,VBO,6.461347,53.076234
Langeloërduinen 4,112,,,9331WT,Norg,Noordenveld,Drenthe,VBO,6.461027,53.076401
Langeloërduinen 4,113,,,9331WT,Norg,Noordenveld,Drenthe,VBO,6.461355,53.076421
Langeloërduinen 5,1,,,9331WV,Norg,Noordenveld,Drenthe,STA,6.458479,53.073009
Langeloërduinen 5,2,,,9331WV,Norg,Noordenveld,Drenthe,STA,6.458679,53.073097
Langeloërduinen 5,3,,,9331WV,Norg,Noordenveld,Drenthe,STA,6.459128,53.073305
Langeloërduinen 5,4,,,9331WV,Norg,Noordenveld,Drenthe,STA,6.458794,53.073429
Langeloërduinen 5,5,,,9331WV,Norg,Noordenveld,Drenthe,STA,6.459233,53.073436
Langeloërduinen 5,6,,,9331WV,Norg,Noordenveld,Drenthe,STA,6.459107,53.073625
Langeloërduinen 5,7,,,9331WV,Norg,Noordenveld,Drenthe,STA,6.459341,53.073677
Langeloërduinen 5,8,,,9331WV,Norg,Noordenveld,Drenthe,STA,6.459678,53.073676
Langeloërduinen 5,9,,,9331WV,Norg,Noordenveld,Drenthe,STA,6.459478,53.073487
Langeloërduinen 5,10,,,9331WV,Norg,Noordenveld,Drenthe,STA,6.459969,53.073431
Langeloërduinen 5,11,,,9331WV,Norg,Noordenveld,Drenthe,STA,6.459817,53.073676
Langeloërduinen 5,12,,,9331WV,Norg,Noordenveld,Drenthe,STA,6.460193,53.073616
Langeloërduinen 5,13,,,9331WV,Norg,Noordenveld,Drenthe,STA,6.460333,53.073514
Langeloërduinen 5,14,,,9331WV,Norg,Noordenveld,Drenthe,STA,6.460383,53.073353
Langeloërduinen 5,15,,,9331WV,Norg,Noordenveld,Drenthe,STA,6.460058,53.073303
Langeloërduinen 5,16,,,9331WV,Norg,Noordenveld,Drenthe,STA,6.460120,53.073180
Langeloërduinen 5,17,,,9331WV,Norg,Noordenveld,Drenthe,STA,6.460563,53.073207
Langeloërduinen 5,18,,,9331WV,Norg,Noordenveld,Drenthe,STA,6.460672,53.072988
Langeloërduinen 5,19,,,9331WV,Norg,Noordenveld,Drenthe,STA,6.460901,53.072847
Langeloërduinen 5,20,,,9331WV,Norg,Noordenveld,Drenthe,STA,6.461079,53.072826
Langeloërduinen 5,21,,,9331WV,Norg,Noordenveld,Drenthe,STA,6.461325,53.072772
Langeloërduinen 5,22,,,9331WV,Norg,Noordenveld,Drenthe,STA,6.460651,53.072691
Langeloërduinen 5,23,,,9331WV,Norg,Noordenveld,Drenthe,STA,6.460433,53.072748
Langeloërduinen 5,24,,,9331WV,Norg,Noordenveld,Drenthe,STA,6.460148,53.072754
Langeloërduinen 5,25,,,9331WV,Norg,Noordenveld,Drenthe,STA,6.460075,53.073021
Langeloërduinen 5,26,,,9331WV,Norg,Noordenveld,Drenthe,STA,6.459857,53.072800
Langeloërduinen 5,27,,,9331WV,Norg,Noordenveld,Drenthe,STA,6.459767,53.073066
Langeloërduinen 5,28,,,9331WV,Norg,Noordenveld,Drenthe,STA,6.459590,53.073162
Langeloërduinen 5,29,,,9331WV,Norg,Noordenveld,Drenthe,STA,6.459403,53.073204
Langeloërduinen 5,30,,,9331WV,Norg,Noordenveld,Drenthe,STA,6.459466,53.072799
Langeloërduinen 5,31,,,9331WV,Norg,Noordenveld,Drenthe,STA,6.459122,53.072786
Langeloërduinen 5,32,,,9331WV,Norg,Noordenveld,Drenthe,STA,6.459182,53.073103
Langeloërduinen 5,33,,,9331WV,Norg,Noordenveld,Drenthe,STA,6.458880,53.072833
Langeloërduinen 5,34,,,9331WV,Norg,Noordenveld,Drenthe,STA,6.458950,53.073039
