openbareruimtenaam,huisnummer,huisletter,huisnummertoevoeging,postcode,woonplaatsnaam,gemeentenaam,provincienaam,typeadresseerbaarobject,longitude,latitude
Hoofdweg,1,A,,9337PA,Westervelde,Noordenveld,Drenthe,VBO,6.445386,53.053818
Hoofdweg,1,,,9337PA,Westervelde,Noordenveld,Drenthe,VBO,6.445575,53.054229
Hoofdweg,2,A,,9337PA,Westervelde,Noordenveld,Drenthe,VBO,6.443653,53.053716
Hoofdweg,2,I,,9337PA,Westervelde,Noordenveld,Drenthe,VBO,6.444970,53.055124
Hoofdweg,2,,,9337PA,Westervelde,Noordenveld,Drenthe,VBO,6.445156,53.054808
Hoofdweg,3,A,,9337PA,Westervelde,Noordenveld,Drenthe,VBO,6.445048,53.053123
Hoofdweg,3,,,9337PA,Westervelde,Noordenveld,Drenthe,VBO,6.444505,53.053187
Hoofdweg,4,,,9337PA,Westervelde,Noordenveld,Drenthe,VBO,6.443054,53.053020
Hoofdweg,5,,,9337PA,Westervelde,Noordenveld,Drenthe,VBO,6.444286,53.052749
Hoofdweg,6,,,9337PA,Westervelde,Noordenveld,Drenthe,VBO,6.442470,53.052891
Hoofdweg,7,,1,9337PA,Westervelde,Noordenveld,Drenthe,VBO,6.443362,53.052632
Hoofdweg,7,,,9337PA,Westervelde,Noordenveld,Drenthe,VBO,6.443404,53.052743
Hoofdweg,8,,,9337PA,Westervelde,Noordenveld,Drenthe,VBO,6.442201,53.052255
Hoofdweg,9,,,9337PA,Westervelde,Noordenveld,Drenthe,VBO,6.442906,53.052456
Hoofdweg,10,A,,9337PA,Westervelde,Noordenveld,Drenthe,VBO,6.441901,53.051593
Hoofdweg,12,,,9337PA,Westervelde,Noordenveld,Drenthe,VBO,6.442459,53.051237
Hoofdweg,13,A,,9337PA,Westervelde,Noordenveld,Drenthe,VBO,6.445130,53.051287
Hoofdweg,13,,,9337PA,Westervelde,Noordenveld,Drenthe,VBO,6.444093,53.050962
Hoofdweg,19,A,,9337PA,Westervelde,Noordenveld,Drenthe,VBO,6.443609,53.049466
Hoofdweg,19,,,9337PA,Westervelde,Noordenveld,Drenthe,VBO,6.445081,53.049893
Hoofdweg,21,,,9337PA,Westervelde,Noordenveld,Drenthe,VBO,6.443205,53.045831
Schoolstraat,1,A,,9337PB,Westervelde,Noordenveld,Drenthe,VBO,6.442198,53.054008
Schoolstraat,1,,,9337PB,Westervelde,Noordenveld,Drenthe,VBO,6.442572,53.054031
Schoolstraat,3,,,9337PB,Westervelde,Noordenveld,Drenthe,VBO,6.441704,53.053931
Schoolstraat,5,A,,9337PB,Westervelde,Noordenveld,Drenthe,VBO,6.440474,53.053645
Schoolstraat,5,B,,9337PB,Westervelde,Noordenveld,Drenthe,VBO,6.440234,53.053576
Schoolstraat,5,C,,9337PB,Westervelde,Noordenveld,Drenthe,VBO,6.439964,53.053515
Schoolstraat,5,,,9337PB,Westervelde,Noordenveld,Drenthe,VBO,6.440952,53.053668
Schoolstraat,7,,,9337PB,Westervelde,Noordenveld,Drenthe,VBO,6.439366,53.053439
Schoolstraat,9,,,9337PB,Westervelde,Noordenveld,Drenthe,VBO,6.433973,53.053109
Schoolstraat,6,,,9337PC,Westervelde,Noordenveld,Drenthe,VBO,6.444663,53.054688
Schoolstraat,8,,,9337PC,Westervelde,Noordenveld,Drenthe,VBO,6.444252,53.055025
Schoolstraat,10,,,9337PC,Westervelde,Noordenveld,Drenthe,VBO,6.444005,53.054684
Schoolstraat,14,,,9337PC,Westervelde,Noordenveld,Drenthe,VBO,6.443139,53.054664
Schoolstraat,16,,,9337PC,Westervelde,Noordenveld,Drenthe,VBO,6.442211,53.054511
Schoolstraat,18,A,,9337PC,Westervelde,Noordenveld,Drenthe,VBO,6.440932,53.054073
Schoolstraat,18,,,9337PC,Westervelde,Noordenveld,Drenthe,VBO,6.440993,53.054108
Schoolstraat,20,,,9337PC,Westervelde,Noordenveld,Drenthe,VBO,6.440828,53.054083
Schoolstraat,22,,,9337PC,Westervelde,Noordenveld,Drenthe,VBO,6.440484,53.054032
Schoolstraat,24,A,,9337PC,Westervelde,Noordenveld,Drenthe,VBO,6.439032,53.053838
Schoolstraat,24,,,9337PC,Westervelde,Noordenveld,Drenthe,VBO,6.439648,53.054012
Schoolstraat,26,,,9337PC,Westervelde,Noordenveld,Drenthe,VBO,6.438492,53.053717
Schoolstraat,28,,,9337PC,Westervelde,Noordenveld,Drenthe,VBO,6.437833,53.053570
Schoolstraat,30,,,9337PC,Westervelde,Noordenveld,Drenthe,VBO,6.436607,53.053446
Schoolstraat,32,,,9337PC,Westervelde,Noordenveld,Drenthe,VBO,6.435144,53.053405
Esweg,1,A,,9337PD,Westervelde,Noordenveld,Drenthe,VBO,6.443054,53.055271
Esweg,1,,,9337PD,Westervelde,Noordenveld,Drenthe,VBO,6.443162,53.055006
Esweg,2,,,9337PD,Westervelde,Noordenveld,Drenthe,VBO,6.443646,53.054642
Esweg,4,,,9337PD,Westervelde,Noordenveld,Drenthe,VBO,6.444227,53.055332
Kampweg,1,,,9337PE,Westervelde,Noordenveld,Drenthe,VBO,6.439639,53.054418
Kampweg,2,,,9337PE,Westervelde,Noordenveld,Drenthe,VBO,6.439657,53.054983
Kampweg,3,,,9337PE,Westervelde,Noordenveld,Drenthe,VBO,6.439554,53.054453
Kampweg,5,,,9337PE,Westervelde,Noordenveld,Drenthe,VBO,6.439631,53.054500
Kampweg,7,,,9337PE,Westervelde,Noordenveld,Drenthe,VBO,6.439511,53.054526
Kampweg,9,,,9337PE,Westervelde,Noordenveld,Drenthe,VBO,6.439620,53.054587
Kampweg,11,,,9337PE,Westervelde,Noordenveld,Drenthe,VBO,6.439563,53.054635
Kampweg,15,,,9337PE,Westervelde,Noordenveld,Drenthe,VBO,6.439127,53.055275
Steeg,1,,,9337PG,Westervelde,Noordenveld,Drenthe,VBO,6.439849,53.053094
Steeg,2,,,9337PG,Westervelde,Noordenveld,Drenthe,VBO,6.441147,53.051603
Steeg,3,,,9337PG,Westervelde,Noordenveld,Drenthe,VBO,6.440025,53.052948
Steeg,5,,,9337PG,Westervelde,Noordenveld,Drenthe,VBO,6.440245,53.052794
Steeg,7,,,9337PG,Westervelde,Noordenveld,Drenthe,VBO,6.440465,53.052639
Steeg,9,,,9337PG,Westervelde,Noordenveld,Drenthe,VBO,6.440670,53.052493
Voorstukken,1,,,9337PH,Westervelde,Noordenveld,Drenthe,VBO,6.441363,53.052155
Voorstukken,2,,,9337PH,Westervelde,Noordenveld,Drenthe,VBO,6.441119,53.052534
Westeind,1,,BEDR,9337TA,Westervelde,Noordenveld,Drenthe,VBO,6.432767,53.053431
Westeind,1,,,9337TA,Westervelde,Noordenveld,Drenthe,VBO,6.433345,53.053474
Westeind,2,,,9337TA,Westervelde,Noordenveld,Drenthe,VBO,6.433619,53.054487
Westeind,3,,,9337TA,Westervelde,Noordenveld,Drenthe,VBO,6.432780,53.054324
Westeind,4,,,9337TA,Westervelde,Noordenveld,Drenthe,VBO,6.432586,53.055584
Westeind,5,,,9337TA,Westervelde,Noordenveld,Drenthe,VBO,6.432010,53.055184
Westeind,6,,,9337TA,Westervelde,Noordenveld,Drenthe,VBO,6.432227,53.056171
Westeind,7,,,9337TA,Westervelde,Noordenveld,Drenthe,VBO,6.431376,53.056116
Westeind,9,,,9337TA,Westervelde,Noordenveld,Drenthe,VBO,6.431217,53.056324
Westeind,11,,,9337TA,Westervelde,Noordenveld,Drenthe,VBO,6.430678,53.056876
Zandvoort,1,,,9337TB,Westervelde,Noordenveld,Drenthe,VBO,6.431101,53.057819
Zandvoort,3,,,9337TB,Westervelde,Noordenveld,Drenthe,VBO,6.432068,53.058221
Zandvoort,5,,,9337TB,Westervelde,Noordenveld,Drenthe,VBO,6.433791,53.059158
Derde Dijk,2,,,9337TC,Westervelde,Noordenveld,Drenthe,VBO,6.428254,53.056810
Olde Hofweg,3,,,9337TD,Westervelde,Noordenveld,Drenthe,VBO,6.430408,53.057436
Olde Hofweg,7,,,9337TD,Westervelde,Noordenveld,Drenthe,VBO,6.430059,53.057808
