openbareruimtenaam,huisnummer,huisletter,huisnummertoevoeging,postcode,woonplaatsnaam,gemeentenaam,provincienaam,typeadresseerbaarobject,longitude,latitude
Oldebertweg,65,,,9356AA,Tolbert,Leek,Groningen,VBO,6.368853,53.173028
Oldebertweg,67,,,9356AA,Tolbert,Leek,Groningen,VBO,6.365200,53.171548
Oldebertweg,69,,,9356AA,Tolbert,Leek,Groningen,VBO,6.365025,53.171525
Oldebertweg,71,,,9356AA,Tolbert,Leek,Groningen,VBO,6.364856,53.171569
Oldebertweg,73,,,9356AA,Tolbert,Leek,Groningen,VBO,6.364692,53.171588
Oldebertweg,75,,,9356AA,Tolbert,Leek,Groningen,VBO,6.364329,53.171577
Oldebertweg,77,b,,9356AA,Tolbert,Leek,Groningen,VBO,6.363167,53.170967
Oldebertweg,77,,I,9356AA,Tolbert,Leek,Groningen,VBO,6.363609,53.171169
Oldebertweg,10,,,9356AB,Tolbert,Leek,Groningen,VBO,6.370741,53.171601
Oldebertweg,12,,,9356AB,Tolbert,Leek,Groningen,VBO,6.370061,53.171580
Oldebertweg,14,,,9356AB,Tolbert,Leek,Groningen,VBO,6.369865,53.171571
Oldebertweg,16,,,9356AB,Tolbert,Leek,Groningen,VBO,6.369581,53.171530
Oldebertweg,18,,,9356AB,Tolbert,Leek,Groningen,VBO,6.369461,53.171513
Oldebertweg,79,,,9356AC,Tolbert,Leek,Groningen,VBO,6.362020,53.170460
Oldebertweg,81,,,9356AC,Tolbert,Leek,Groningen,VBO,6.361930,53.170442
Oldebertweg,83,,,9356AC,Tolbert,Leek,Groningen,VBO,6.361734,53.170408
Oldebertweg,85,,,9356AC,Tolbert,Leek,Groningen,VBO,6.361644,53.170400
Oldebertweg,87,,,9356AC,Tolbert,Leek,Groningen,VBO,6.361464,53.170365
Oldebertweg,89,,,9356AC,Tolbert,Leek,Groningen,VBO,6.361359,53.170348
Oldebertweg,91,,,9356AC,Tolbert,Leek,Groningen,VBO,6.361215,53.170310
Oldebertweg,93,,,9356AC,Tolbert,Leek,Groningen,VBO,6.361104,53.170314
Oldebertweg,95,,,9356AC,Tolbert,Leek,Groningen,VBO,6.360969,53.170289
Oldebertweg,97,,,9356AC,Tolbert,Leek,Groningen,VBO,6.360849,53.170272
Oldebertweg,99,,,9356AC,Tolbert,Leek,Groningen,VBO,6.360699,53.170264
Oldebertweg,101,,,9356AC,Tolbert,Leek,Groningen,VBO,6.360594,53.170238
Oldebertweg,103,,,9356AC,Tolbert,Leek,Groningen,VBO,6.360425,53.170189
Oldebertweg,105,,,9356AC,Tolbert,Leek,Groningen,VBO,6.360189,53.170169
Oldebertweg,107,,,9356AC,Tolbert,Leek,Groningen,VBO,6.359499,53.170085
Oldebertweg,109,,,9356AC,Tolbert,Leek,Groningen,VBO,6.359394,53.170068
Oldebertweg,111,,,9356AC,Tolbert,Leek,Groningen,VBO,6.359184,53.170051
Oldebertweg,113,,,9356AC,Tolbert,Leek,Groningen,VBO,6.359094,53.170052
Oldebertweg,115,,,9356AD,Tolbert,Leek,Groningen,VBO,6.358885,53.170072
Oldebertweg,117,,,9356AD,Tolbert,Leek,Groningen,VBO,6.358796,53.170082
Oldebertweg,119,,,9356AD,Tolbert,Leek,Groningen,VBO,6.358602,53.170119
Oldebertweg,121,,,9356AD,Tolbert,Leek,Groningen,VBO,6.358498,53.170129
Oldebertweg,123,,,9356AD,Tolbert,Leek,Groningen,VBO,6.358289,53.170131
Oldebertweg,125,,,9356AD,Tolbert,Leek,Groningen,VBO,6.358184,53.170149
Oldebertweg,127,,,9356AD,Tolbert,Leek,Groningen,VBO,6.357990,53.170169
Oldebertweg,129,,,9356AD,Tolbert,Leek,Groningen,VBO,6.357886,53.170188
Oldebertweg,131,,,9356AD,Tolbert,Leek,Groningen,VBO,6.357708,53.170234
Oldebertweg,133,,,9356AD,Tolbert,Leek,Groningen,VBO,6.357603,53.170244
Oldebertweg,135,,,9356AD,Tolbert,Leek,Groningen,VBO,6.357409,53.170263
Oldebertweg,137,,,9356AD,Tolbert,Leek,Groningen,VBO,6.357318,53.170248
Oldebertweg,139,,,9356AD,Tolbert,Leek,Groningen,VBO,6.357096,53.170284
Oldebertweg,141,,,9356AD,Tolbert,Leek,Groningen,VBO,6.357006,53.170294
Oldebertweg,143,,,9356AD,Tolbert,Leek,Groningen,VBO,6.356813,53.170290
Oldebertweg,145,,,9356AD,Tolbert,Leek,Groningen,VBO,6.356693,53.170332
Oldebertweg,147,,,9356AD,Tolbert,Leek,Groningen,VBO,6.356454,53.170344
Oldebertweg,149,,,9356AD,Tolbert,Leek,Groningen,VBO,6.356249,53.170533
Oldebertweg,151,,,9356AD,Tolbert,Leek,Groningen,VBO,6.356190,53.170588
Oldebertweg,30,,,9356AE,Tolbert,Leek,Groningen,VBO,6.363567,53.170455
Oldebertweg,58,,,9356AE,Tolbert,Leek,Groningen,VBO,6.359877,53.169596
Oldebertweg,60,,,9356AE,Tolbert,Leek,Groningen,VBO,6.359160,53.169629
Oldebertweg,62,e,,9356AE,Tolbert,Leek,Groningen,VBO,6.357569,53.169629
Oldebertweg,64,,,9356AE,Tolbert,Leek,Groningen,VBO,6.357251,53.169887
Oldebertweg,66,,IJSB,9356AE,Tolbert,Leek,Groningen,VBO,6.355850,53.170201
Oldebertweg,66,,,9356AE,Tolbert,Leek,Groningen,VBO,6.356952,53.169918
Auwemalaan,1,,3,9356AG,Tolbert,Leek,Groningen,VBO,6.364908,53.170437
Auwemalaan,1,,II,9356AG,Tolbert,Leek,Groningen,VBO,6.364766,53.170529
Auwemalaan,1,,IV,9356AG,Tolbert,Leek,Groningen,VBO,6.364815,53.170286
Auwemalaan,1,,V,9356AG,Tolbert,Leek,Groningen,VBO,6.364860,53.170165
Auwemalaan,1,,VI,9356AG,Tolbert,Leek,Groningen,VBO,6.364900,53.170050
Auwemalaan,1,,,9356AG,Tolbert,Leek,Groningen,VBO,6.364634,53.170956
Auwemalaan,17,,,9356AG,Tolbert,Leek,Groningen,VBO,6.364980,53.169909
Meester Boonstraplantsoen,1,,,9356AH,Tolbert,Leek,Groningen,VBO,6.362158,53.171276
Meester Boonstraplantsoen,2,,,9356AH,Tolbert,Leek,Groningen,VBO,6.362662,53.171372
Meester Boonstraplantsoen,3,,,9356AH,Tolbert,Leek,Groningen,VBO,6.362170,53.171150
Meester Boonstraplantsoen,4,,IN,9356AH,Tolbert,Leek,Groningen,VBO,6.363048,53.171220
Meester Boonstraplantsoen,4,,,9356AH,Tolbert,Leek,Groningen,VBO,6.362940,53.171269
Meester Boonstraplantsoen,5,,,9356AH,Tolbert,Leek,Groningen,VBO,6.362197,53.171042
Meester Boonstraplantsoen,7,,,9356AH,Tolbert,Leek,Groningen,VBO,6.362237,53.170799
Meester Boonstraplantsoen,9,,,9356AH,Tolbert,Leek,Groningen,VBO,6.362236,53.170746
Meester Boonstraplantsoen,10,,,9356AH,Tolbert,Leek,Groningen,VBO,6.363088,53.171088
Meester Boonstraplantsoen,11,,,9356AH,Tolbert,Leek,Groningen,VBO,6.362262,53.170602
Adrianus Simmelinkstraat,5,,,9356AJ,Tolbert,Leek,Groningen,VBO,6.361877,53.170981
Adrianus Simmelinkstraat,7,,,9356AJ,Tolbert,Leek,Groningen,VBO,6.361774,53.170972
Adrianus Simmelinkstraat,9,,,9356AJ,Tolbert,Leek,Groningen,VBO,6.361670,53.170963
Adrianus Simmelinkstraat,11,,,9356AJ,Tolbert,Leek,Groningen,VBO,6.361479,53.170947
Adrianus Simmelinkstraat,13,,,9356AJ,Tolbert,Leek,Groningen,VBO,6.361376,53.170938
Adrianus Simmelinkstraat,15,,,9356AJ,Tolbert,Leek,Groningen,VBO,6.361269,53.170930
Adrianus Simmelinkstraat,17,,,9356AJ,Tolbert,Leek,Groningen,VBO,6.361082,53.170915
Adrianus Simmelinkstraat,19,,,9356AJ,Tolbert,Leek,Groningen,VBO,6.360980,53.170906
Adrianus Simmelinkstraat,21,,,9356AJ,Tolbert,Leek,Groningen,VBO,6.360877,53.170897
Adrianus Simmelinkstraat,23,,I,9356AJ,Tolbert,Leek,Groningen,VBO,6.360529,53.170884
Adrianus Simmelinkstraat,23,,,9356AJ,Tolbert,Leek,Groningen,VBO,6.360654,53.170893
Adrianus Simmelinkstraat,25,,I,9356AJ,Tolbert,Leek,Groningen,VBO,6.360329,53.170863
Adrianus Simmelinkstraat,25,,,9356AJ,Tolbert,Leek,Groningen,VBO,6.360436,53.170871
Adrianus Simmelinkstraat,27,,,9356AJ,Tolbert,Leek,Groningen,VBO,6.360171,53.170834
Adrianus Simmelinkstraat,4,,,9356AK,Tolbert,Leek,Groningen,VBO,6.361931,53.170786
Adrianus Simmelinkstraat,6,,,9356AK,Tolbert,Leek,Groningen,VBO,6.361827,53.170777
Adrianus Simmelinkstraat,8,,,9356AK,Tolbert,Leek,Groningen,VBO,6.361726,53.170769
Adrianus Simmelinkstraat,10,,,9356AK,Tolbert,Leek,Groningen,VBO,6.361529,53.170751
Adrianus Simmelinkstraat,12,,,9356AK,Tolbert,Leek,Groningen,VBO,6.361423,53.170742
Adrianus Simmelinkstraat,14,,,9356AK,Tolbert,Leek,Groningen,VBO,6.361322,53.170733
Adrianus Simmelinkstraat,16,,,9356AK,Tolbert,Leek,Groningen,VBO,6.361133,53.170720
Adrianus Simmelinkstraat,18,,,9356AK,Tolbert,Leek,Groningen,VBO,6.361031,53.170711
Adrianus Simmelinkstraat,20,,,9356AK,Tolbert,Leek,Groningen,VBO,6.360928,53.170703
Adrianus Simmelinkstraat,22,,,9356AK,Tolbert,Leek,Groningen,VBO,6.360723,53.170659
Adrianus Simmelinkstraat,24,,,9356AK,Tolbert,Leek,Groningen,VBO,6.360633,53.170642
Adrianus Simmelinkstraat,26,,,9356AK,Tolbert,Leek,Groningen,VBO,6.360453,53.170625
Adrianus Simmelinkstraat,28,,,9356AK,Tolbert,Leek,Groningen,VBO,6.360348,53.170608
Adrianus Simmelinkstraat,30,,,9356AK,Tolbert,Leek,Groningen,VBO,6.360183,53.170582
Adrianus Simmelinkstraat,32,,,9356AK,Tolbert,Leek,Groningen,VBO,6.360078,53.170574
Thomas A. Verdeniusstraat,1,,,9356AL,Tolbert,Leek,Groningen,VBO,6.361146,53.171518
Thomas A. Verdeniusstraat,2,,,9356AL,Tolbert,Leek,Groningen,VBO,6.361854,53.171305
Thomas A. Verdeniusstraat,3,,,9356AL,Tolbert,Leek,Groningen,VBO,6.361071,53.171510
Thomas A. Verdeniusstraat,4,,,9356AL,Tolbert,Leek,Groningen,VBO,6.361761,53.171306
Thomas A. Verdeniusstraat,5,,,9356AL,Tolbert,Leek,Groningen,VBO,6.360862,53.171521
Thomas A. Verdeniusstraat,6,,,9356AL,Tolbert,Leek,Groningen,VBO,6.361670,53.171307
Thomas A. Verdeniusstraat,7,,,9356AL,Tolbert,Leek,Groningen,VBO,6.360772,53.171503
Thomas A. Verdeniusstraat,8,,,9356AL,Tolbert,Leek,Groningen,VBO,6.361577,53.171307
Thomas A. Verdeniusstraat,10,,,9356AL,Tolbert,Leek,Groningen,VBO,6.361486,53.171307
Thomas A. Verdeniusstraat,12,,,9356AL,Tolbert,Leek,Groningen,VBO,6.361393,53.171309
Thomas A. Verdeniusstraat,14,,,9356AL,Tolbert,Leek,Groningen,VBO,6.361092,53.171308
Thomas A. Verdeniusstraat,15,,,9356AL,Tolbert,Leek,Groningen,VBO,6.359916,53.171496
Thomas A. Verdeniusstraat,16,,,9356AL,Tolbert,Leek,Groningen,VBO,6.361189,53.171309
Thomas A. Verdeniusstraat,17,,,9356AL,Tolbert,Leek,Groningen,VBO,6.359892,53.171565
Thomas A. Verdeniusstraat,18,,,9356AL,Tolbert,Leek,Groningen,VBO,6.361005,53.171308
Thomas A. Verdeniusstraat,19,,,9356AL,Tolbert,Leek,Groningen,VBO,6.360013,53.171506
Thomas A. Verdeniusstraat,20,,,9356AL,Tolbert,Leek,Groningen,VBO,6.360904,53.171310
Thomas A. Verdeniusstraat,21,,,9356AL,Tolbert,Leek,Groningen,VBO,6.359990,53.171577
Thomas A. Verdeniusstraat,22,,,9356AL,Tolbert,Leek,Groningen,VBO,6.360822,53.171311
Thomas A. Verdeniusstraat,24,,,9356AL,Tolbert,Leek,Groningen,VBO,6.360725,53.171310
Thomas A. Verdeniusstraat,26,,,9356AL,Tolbert,Leek,Groningen,VBO,6.360258,53.171265
Thomas A. Verdeniusstraat,28,,,9356AL,Tolbert,Leek,Groningen,VBO,6.360168,53.171257
Thomas A. Verdeniusstraat,34,,,9356AL,Tolbert,Leek,Groningen,VBO,6.359861,53.171156
Leuringslaan,1,,,9356AM,Tolbert,Leek,Groningen,VBO,6.359178,53.171768
Dokter Heukelmanstraat,1,,A,9356AN,Tolbert,Leek,Groningen,VBO,6.358679,53.170984
Dokter Heukelmanstraat,1,,B,9356AN,Tolbert,Leek,Groningen,VBO,6.358727,53.170994
Dokter Heukelmanstraat,1,,C,9356AN,Tolbert,Leek,Groningen,VBO,6.358779,53.170999
Dokter Heukelmanstraat,1,,D,9356AN,Tolbert,Leek,Groningen,VBO,6.358826,53.170999
Dokter Heukelmanstraat,1,,E,9356AN,Tolbert,Leek,Groningen,VBO,6.358874,53.171009
Dokter Heukelmanstraat,1,,F,9356AN,Tolbert,Leek,Groningen,VBO,6.358928,53.171013
Dokter Heukelmanstraat,1,,G,9356AN,Tolbert,Leek,Groningen,VBO,6.358973,53.171021
Dokter Heukelmanstraat,1,,H,9356AN,Tolbert,Leek,Groningen,VBO,6.359019,53.171027
Dokter Heukelmanstraat,1,,I,9356AN,Tolbert,Leek,Groningen,VBO,6.359071,53.171039
Dokter Heukelmanstraat,1,,J,9356AN,Tolbert,Leek,Groningen,VBO,6.359119,53.171046
Dokter Heukelmanstraat,1,,K,9356AN,Tolbert,Leek,Groningen,VBO,6.359168,53.171049
Dokter Heukelmanstraat,1,,L,9356AN,Tolbert,Leek,Groningen,VBO,6.359214,53.171054
Dokter Heukelmanstraat,1,,,9356AN,Tolbert,Leek,Groningen,VBO,6.359079,53.170708
Dokter Heukelmanstraat,3,,,9356AN,Tolbert,Leek,Groningen,VBO,6.358989,53.170709
Dokter Heukelmanstraat,5,,,9356AN,Tolbert,Leek,Groningen,VBO,6.358900,53.170701
Dokter Heukelmanstraat,7,,,9356AN,Tolbert,Leek,Groningen,VBO,6.358780,53.170693
Dokter Heukelmanstraat,9,,,9356AN,Tolbert,Leek,Groningen,VBO,6.358438,53.170776
Dokter Heukelmanstraat,11,,,9356AN,Tolbert,Leek,Groningen,VBO,6.358411,53.170938
Dokter Heukelmanstraat,13,,,9356AN,Tolbert,Leek,Groningen,VBO,6.358370,53.171100
Dokter Heukelmanstraat,19,,,9356AN,Tolbert,Leek,Groningen,VBO,6.357625,53.171196
Dokter Heukelmanstraat,21,,,9356AN,Tolbert,Leek,Groningen,VBO,6.357400,53.171171
Dokter Heukelmanstraat,23,,,9356AN,Tolbert,Leek,Groningen,VBO,6.357175,53.171137
Dokter Heukelmanstraat,25,,,9356AN,Tolbert,Leek,Groningen,VBO,6.356934,53.171103
Dokter Heukelmanstraat,2,a,,9356AP,Tolbert,Leek,Groningen,VBO,6.359381,53.170535
Dokter Heukelmanstraat,2,,II,9356AP,Tolbert,Leek,Groningen,VBO,6.359275,53.170522
Dokter Heukelmanstraat,2,,,9356AP,Tolbert,Leek,Groningen,VBO,6.359075,53.170511
Dokter Heukelmanstraat,4,,,9356AP,Tolbert,Leek,Groningen,VBO,6.358985,53.170493
Dokter Heukelmanstraat,6,,,9356AP,Tolbert,Leek,Groningen,VBO,6.358895,53.170485
Dokter Heukelmanstraat,8,,,9356AP,Tolbert,Leek,Groningen,VBO,6.358805,53.170486
Dokter Heukelmanstraat,10,,,9356AP,Tolbert,Leek,Groningen,VBO,6.358626,53.170487
Dokter Heukelmanstraat,12,,,9356AP,Tolbert,Leek,Groningen,VBO,6.358521,53.170488
Dokter Heukelmanstraat,14,,,9356AP,Tolbert,Leek,Groningen,VBO,6.358431,53.170498
Dokter Heukelmanstraat,16,,,9356AP,Tolbert,Leek,Groningen,VBO,6.358357,53.170498
Dokter Heukelmanstraat,18,,,9356AP,Tolbert,Leek,Groningen,VBO,6.358178,53.170518
Dokter Heukelmanstraat,20,,,9356AP,Tolbert,Leek,Groningen,VBO,6.358088,53.170528
Dokter Heukelmanstraat,22,,,9356AP,Tolbert,Leek,Groningen,VBO,6.357969,53.170538
Dokter Heukelmanstraat,24,,,9356AP,Tolbert,Leek,Groningen,VBO,6.357879,53.170556
Dokter Heukelmanstraat,26,,,9356AR,Tolbert,Leek,Groningen,VBO,6.357730,53.170566
Dokter Heukelmanstraat,28,,,9356AR,Tolbert,Leek,Groningen,VBO,6.357641,53.170576
Dokter Heukelmanstraat,30,,,9356AR,Tolbert,Leek,Groningen,VBO,6.357536,53.170586
Dokter Heukelmanstraat,32,,,9356AR,Tolbert,Leek,Groningen,VBO,6.357432,53.170596
Dokter Heukelmanstraat,34,e,,9356AR,Tolbert,Leek,Groningen,VBO,6.356591,53.170537
Dokter Heukelmanstraat,34,,,9356AR,Tolbert,Leek,Groningen,VBO,6.357120,53.170706
Dokter Heukelmanstraat,36,,,9356AR,Tolbert,Leek,Groningen,VBO,6.357091,53.170760
Dokter Heukelmanstraat,38,,,9356AR,Tolbert,Leek,Groningen,VBO,6.357078,53.170814
Dokter Heukelmanstraat,40,,,9356AR,Tolbert,Leek,Groningen,VBO,6.357049,53.170877
Dokter Heukelmanstraat,42,,,9356AR,Tolbert,Leek,Groningen,VBO,6.356719,53.170826
Dokter Heukelmanstraat,44,,,9356AR,Tolbert,Leek,Groningen,VBO,6.356629,53.170809
Dokter Heukelmanstraat,46,,,9356AR,Tolbert,Leek,Groningen,VBO,6.356539,53.170801
Dokter Heukelmanstraat,48,,,9356AR,Tolbert,Leek,Groningen,VBO,6.356434,53.170793
Dokter Heukelmanstraat,50,,,9356AR,Tolbert,Leek,Groningen,VBO,6.356076,53.170739
Feithsweg,1,,,9356AS,Tolbert,Leek,Groningen,VBO,6.356058,53.169367
Feithsweg,3,a,,9356AS,Tolbert,Leek,Groningen,VBO,6.356370,53.168618
Feithsweg,3,b,,9356AS,Tolbert,Leek,Groningen,VBO,6.356385,53.168600
Feithsweg,3,,,9356AS,Tolbert,Leek,Groningen,VBO,6.356142,53.169088
Feithsweg,4,,,9356AS,Tolbert,Leek,Groningen,VBO,6.356872,53.168983
Feithsweg,5,,,9356AS,Tolbert,Leek,Groningen,VBO,6.356470,53.168393
Feithsweg,6,a,,9356AS,Tolbert,Leek,Groningen,VBO,6.357915,53.168745
Feithsweg,6,,,9356AS,Tolbert,Leek,Groningen,VBO,6.356851,53.168789
Feithsweg,7,,,9356AS,Tolbert,Leek,Groningen,VBO,6.356499,53.168330
Feithsweg,9,,,9356AS,Tolbert,Leek,Groningen,VBO,6.356512,53.168276
Feithsweg,10,a,,9356AS,Tolbert,Leek,Groningen,VBO,6.357705,53.167605
Feithsweg,10,,,9356AS,Tolbert,Leek,Groningen,VBO,6.358095,53.167638
Feithsweg,11,,,9356AS,Tolbert,Leek,Groningen,VBO,6.356541,53.168222
Feithsweg,12,,,9356AS,Tolbert,Leek,Groningen,VBO,6.358583,53.167884
Feithsweg,13,,,9356AS,Tolbert,Leek,Groningen,VBO,6.356584,53.168140
Feithsweg,14,,,9356AS,Tolbert,Leek,Groningen,VBO,6.359478,53.167903
Feithsweg,15,,,9356AS,Tolbert,Leek,Groningen,VBO,6.356598,53.168095
Feithsweg,17,,,9356AS,Tolbert,Leek,Groningen,VBO,6.356611,53.168032
Feithsweg,19,,,9356AS,Tolbert,Leek,Groningen,VBO,6.356721,53.167982
Feithsweg,21,,,9356AS,Tolbert,Leek,Groningen,VBO,6.356856,53.167748
Feithsweg,23,,a,9356AS,Tolbert,Leek,Groningen,VBO,6.356684,53.167436
Feithsweg,23,,,9356AS,Tolbert,Leek,Groningen,VBO,6.357094,53.167543
Feithsweg,25,e,,9356AS,Tolbert,Leek,Groningen,VBO,6.356995,53.167142
Feithsweg,25,,,9356AS,Tolbert,Leek,Groningen,VBO,6.357177,53.167237
Feithsweg,27,,,9356AS,Tolbert,Leek,Groningen,VBO,6.359517,53.167551
Hoofdstraat,1,a,,9356AT,Tolbert,Leek,Groningen,VBO,6.352684,53.173636
Hoofdstraat,1,,,9356AT,Tolbert,Leek,Groningen,VBO,6.353607,53.171444
Hoofdstraat,3,,,9356AT,Tolbert,Leek,Groningen,VBO,6.353817,53.171452
Hoofdstraat,5,,,9356AT,Tolbert,Leek,Groningen,VBO,6.353907,53.171469
Hoofdstraat,7,,,9356AT,Tolbert,Leek,Groningen,VBO,6.354117,53.171494
Hoofdstraat,9,,,9356AT,Tolbert,Leek,Groningen,VBO,6.354192,53.171512
Hoofdstraat,11,,,9356AT,Tolbert,Leek,Groningen,VBO,6.354631,53.171751
Hoofdstraat,13,,,9356AT,Tolbert,Leek,Groningen,VBO,6.354974,53.171703
Hoofdstraat,17,,,9356AT,Tolbert,Leek,Groningen,VBO,6.355560,53.171833
Hoofdstraat,19,,,9356AT,Tolbert,Leek,Groningen,VBO,6.355755,53.171876
Hoofdstraat,21,,,9356AT,Tolbert,Leek,Groningen,VBO,6.355980,53.171911
Hoofdstraat,23,a,,9356AT,Tolbert,Leek,Groningen,VBO,6.356349,53.172014
Hoofdstraat,23,,,9356AT,Tolbert,Leek,Groningen,VBO,6.356171,53.171989
Hoofdstraat,25,,,9356AT,Tolbert,Leek,Groningen,VBO,6.356657,53.172067
Hoofdstraat,27,,,9356AT,Tolbert,Leek,Groningen,VBO,6.357335,53.172703
Hoofdstraat,29,,,9356AT,Tolbert,Leek,Groningen,VBO,6.358130,53.172257
Hoofdstraat,31,,,9356AT,Tolbert,Leek,Groningen,VBO,6.358307,53.172287
Hoofdstraat,33,,,9356AT,Tolbert,Leek,Groningen,VBO,6.358517,53.172303
Hoofdstraat,35,b,,9356AT,Tolbert,Leek,Groningen,VBO,6.358788,53.172290
Hoofdstraat,35,,,9356AT,Tolbert,Leek,Groningen,VBO,6.358741,53.172376
Hoofdstraat,37,,,9356AV,Tolbert,Leek,Groningen,VBO,6.358951,53.172318
Hoofdstraat,39,,,9356AV,Tolbert,Leek,Groningen,VBO,6.359236,53.172360
Hoofdstraat,41,,,9356AV,Tolbert,Leek,Groningen,VBO,6.359652,53.172357
Hoofdstraat,43,,,9356AV,Tolbert,Leek,Groningen,VBO,6.359602,53.172456
Hoofdstraat,47,,,9356AV,Tolbert,Leek,Groningen,VBO,6.359805,53.172392
Hoofdstraat,49,,,9356AV,Tolbert,Leek,Groningen,VBO,6.359941,53.172454
Hoofdstraat,51,a,,9356AV,Tolbert,Leek,Groningen,VBO,6.360036,53.172608
Hoofdstraat,51,b,,9356AV,Tolbert,Leek,Groningen,VBO,6.360121,53.172488
Hoofdstraat,51,,,9356AV,Tolbert,Leek,Groningen,VBO,6.360135,53.172468
Hoofdstraat,53,c,,9356AV,Tolbert,Leek,Groningen,VBO,6.360124,53.173953
Hoofdstraat,53,e,,9356AV,Tolbert,Leek,Groningen,VBO,6.360021,53.173208
Hoofdstraat,53,,,9356AV,Tolbert,Leek,Groningen,VBO,6.360330,53.172565
Hoofdstraat,55,,,9356AV,Tolbert,Leek,Groningen,VBO,6.360589,53.172655
Hoofdstraat,57,,,9356AV,Tolbert,Leek,Groningen,VBO,6.360799,53.172716
Hoofdstraat,59,,,9356AV,Tolbert,Leek,Groningen,VBO,6.360995,53.172760
Hoofdstraat,61,,,9356AV,Tolbert,Leek,Groningen,VBO,6.361085,53.172795
Hoofdstraat,63,,,9356AV,Tolbert,Leek,Groningen,VBO,6.361302,53.172900
Hoofdstraat,2,,,9356AW,Tolbert,Leek,Groningen,VBO,6.354633,53.171194
Hoofdstraat,10,,3,9356AW,Tolbert,Leek,Groningen,VBO,6.357131,53.171907
Hoofdstraat,10,,I,9356AW,Tolbert,Leek,Groningen,VBO,6.357048,53.171892
Hoofdstraat,10,,II,9356AW,Tolbert,Leek,Groningen,VBO,6.357085,53.171901
Hoofdstraat,10,,IV,9356AW,Tolbert,Leek,Groningen,VBO,6.357172,53.171914
Hoofdstraat,10,,,9356AW,Tolbert,Leek,Groningen,VBO,6.356982,53.171884
Hoofdstraat,12,,3,9356AW,Tolbert,Leek,Groningen,VBO,6.357371,53.171949
Hoofdstraat,12,,I,9356AW,Tolbert,Leek,Groningen,VBO,6.357308,53.171939
Hoofdstraat,12,,II,9356AW,Tolbert,Leek,Groningen,VBO,6.357345,53.171945
Hoofdstraat,12,,IV,9356AW,Tolbert,Leek,Groningen,VBO,6.357399,53.171954
Hoofdstraat,12,,,9356AW,Tolbert,Leek,Groningen,VBO,6.357222,53.171919
Hoofdstraat,16,,,9356AW,Tolbert,Leek,Groningen,VBO,6.357588,53.172003
Hoofdstraat,18,,3,9356AW,Tolbert,Leek,Groningen,VBO,6.358017,53.172077
Hoofdstraat,18,,I,9356AW,Tolbert,Leek,Groningen,VBO,6.357817,53.172045
Hoofdstraat,18,,II,9356AW,Tolbert,Leek,Groningen,VBO,6.357937,53.172064
Hoofdstraat,18,,,9356AW,Tolbert,Leek,Groningen,VBO,6.357733,53.172031
Hoofdstraat,20,,,9356AW,Tolbert,Leek,Groningen,VBO,6.358198,53.172072
Hoofdstraat,22,,,9356AW,Tolbert,Leek,Groningen,VBO,6.358452,53.172097
Hoofdstraat,24,,,9356AW,Tolbert,Leek,Groningen,VBO,6.358722,53.172140
Hoofdstraat,26,,,9356AW,Tolbert,Leek,Groningen,VBO,6.358827,53.172139
Hoofdstraat,28,,,9356AW,Tolbert,Leek,Groningen,VBO,6.359097,53.172164
Hoofdstraat,32,,,9356AX,Tolbert,Leek,Groningen,VBO,6.359677,53.172211
Hoofdstraat,34,,I,9356AX,Tolbert,Leek,Groningen,VBO,6.359936,53.172259
Hoofdstraat,34,,,9356AX,Tolbert,Leek,Groningen,VBO,6.359831,53.172230
Hoofdstraat,38,,,9356AX,Tolbert,Leek,Groningen,VBO,6.360388,53.172378
Hoofdstraat,40,,,9356AX,Tolbert,Leek,Groningen,VBO,6.360599,53.172439
Hoofdstraat,42,,,9356AX,Tolbert,Leek,Groningen,VBO,6.360666,53.172336
Hoofdstraat,44,,I,9356AX,Tolbert,Leek,Groningen,VBO,6.360831,53.172487
Hoofdstraat,44,,,9356AX,Tolbert,Leek,Groningen,VBO,6.360810,53.172527
Hoofdstraat,46,,,9356AX,Tolbert,Leek,Groningen,VBO,6.361044,53.172610
Hoofdstraat,48,,,9356AX,Tolbert,Leek,Groningen,VBO,6.361526,53.172361
Hoofdstraat,50,,,9356AX,Tolbert,Leek,Groningen,VBO,6.361773,53.172798
Sunckemalaan,1,,,9356AZ,Tolbert,Leek,Groningen,VBO,6.368252,53.157574
Sunckemalaan,3,,,9356AZ,Tolbert,Leek,Groningen,VBO,6.368158,53.157568
Sunckemalaan,5,,,9356AZ,Tolbert,Leek,Groningen,VBO,6.367963,53.157525
Sunckemalaan,7,,,9356AZ,Tolbert,Leek,Groningen,VBO,6.367864,53.157509
Sunckemalaan,9,,,9356AZ,Tolbert,Leek,Groningen,VBO,6.367659,53.157466
Sunckemalaan,11,,,9356AZ,Tolbert,Leek,Groningen,VBO,6.367558,53.157456
Sunckemalaan,13,,,9356AZ,Tolbert,Leek,Groningen,VBO,6.366763,53.157346
Sunckemalaan,15,,,9356AZ,Tolbert,Leek,Groningen,VBO,6.366658,53.157329
Sunckemalaan,17,,,9356AZ,Tolbert,Leek,Groningen,VBO,6.366478,53.157303
Sunckemalaan,19,,,9356AZ,Tolbert,Leek,Groningen,VBO,6.366343,53.157287
Sunckemalaan,21,,,9356AZ,Tolbert,Leek,Groningen,VBO,6.366177,53.157243
Sunckemalaan,23,,,9356AZ,Tolbert,Leek,Groningen,VBO,6.366057,53.157226
Mensumaweg,1,a,,9356BA,Tolbert,Leek,Groningen,VBO,6.362109,53.173748
Mensumaweg,1,b,,9356BA,Tolbert,Leek,Groningen,VBO,6.362067,53.173883
Mensumaweg,1,,,9356BA,Tolbert,Leek,Groningen,VBO,6.362150,53.173568
Mensumaweg,3,,,9356BA,Tolbert,Leek,Groningen,VBO,6.361996,53.174054
Mensumaweg,5,,,9356BA,Tolbert,Leek,Groningen,VBO,6.361924,53.174181
Mensumaweg,7,,,9356BA,Tolbert,Leek,Groningen,VBO,6.361834,53.174329
Mensumaweg,8,,,9356BA,Tolbert,Leek,Groningen,VBO,6.361811,53.174469
Mensumaweg,9,,,9356BA,Tolbert,Leek,Groningen,VBO,6.361754,53.174605
Mensumaweg,10,,,9356BA,Tolbert,Leek,Groningen,VBO,6.361698,53.174749
Mensumaweg,11,,,9356BA,Tolbert,Leek,Groningen,VBO,6.361656,53.174893
Mensumaweg,12,,,9356BA,Tolbert,Leek,Groningen,VBO,6.361584,53.175037
Mensumaweg,13,,,9356BA,Tolbert,Leek,Groningen,VBO,6.361528,53.175173
Mensumaweg,14,,,9356BA,Tolbert,Leek,Groningen,VBO,6.361460,53.175320
Mensumaweg,15,,,9356BA,Tolbert,Leek,Groningen,VBO,6.361390,53.175461
Mensumaweg,16,,,9356BA,Tolbert,Leek,Groningen,VBO,6.361358,53.175614
Mensumaweg,17,,ACHT,9356BA,Tolbert,Leek,Groningen,VBO,6.361380,53.175897
Mensumaweg,17,,,9356BA,Tolbert,Leek,Groningen,VBO,6.361301,53.175749
Mensumaweg,2,B,,9356BB,Tolbert,Leek,Groningen,VBO,6.361732,53.173634
Mensumaweg,2,,,9356BB,Tolbert,Leek,Groningen,VBO,6.361818,53.173436
Mensumaweg,4,A,,9356BB,Tolbert,Leek,Groningen,VBO,6.361633,53.173887
Mensumaweg,4,,,9356BB,Tolbert,Leek,Groningen,VBO,6.361734,53.173751
Mensumaweg,6,A,,9356BB,Tolbert,Leek,Groningen,VBO,6.361521,53.174229
Mensumaweg,6,B,,9356BB,Tolbert,Leek,Groningen,VBO,6.361421,53.174419
Mensumaweg,6,C,,9356BB,Tolbert,Leek,Groningen,VBO,6.361390,53.174605
Mensumaweg,6,,,9356BB,Tolbert,Leek,Groningen,VBO,6.361561,53.174013
Mensumaweg,18,,19,9356BB,Tolbert,Leek,Groningen,VBO,6.360830,53.176059
Mensumaweg,20,,,9356BB,Tolbert,Leek,Groningen,VBO,6.360277,53.177411
Zuiderweg,3,a,,9356BC,Tolbert,Leek,Groningen,VBO,6.362018,53.172580
Zuiderweg,3,,,9356BC,Tolbert,Leek,Groningen,VBO,6.361928,53.172591
Zuiderweg,5,,,9356BC,Tolbert,Leek,Groningen,VBO,6.362291,53.172542
Zuiderweg,9,,,9356BC,Tolbert,Leek,Groningen,VBO,6.362588,53.172441
Zuiderweg,11,,,9356BC,Tolbert,Leek,Groningen,VBO,6.362797,53.172421
Zuiderweg,13,,,9356BC,Tolbert,Leek,Groningen,VBO,6.363005,53.172384
Zuiderweg,15,,,9356BC,Tolbert,Leek,Groningen,VBO,6.363170,53.172353
Zuiderweg,17,,,9356BC,Tolbert,Leek,Groningen,VBO,6.363258,53.172319
Zuiderweg,19,,,9356BC,Tolbert,Leek,Groningen,VBO,6.363421,53.172264
Zuiderweg,21,,,9356BC,Tolbert,Leek,Groningen,VBO,6.363626,53.172073
Zuiderweg,23,,,9356BC,Tolbert,Leek,Groningen,VBO,6.363694,53.171984
Zuiderweg,25,,,9356BC,Tolbert,Leek,Groningen,VBO,6.363667,53.171866
Zuiderweg,27,,,9356BC,Tolbert,Leek,Groningen,VBO,6.363739,53.171767
Zuiderweg,29,,,9356BC,Tolbert,Leek,Groningen,VBO,6.363767,53.171677
Zuiderweg,31,,,9356BC,Tolbert,Leek,Groningen,VBO,6.363809,53.171559
Zuiderweg,2,,,9356BD,Tolbert,Leek,Groningen,VBO,6.362325,53.172704
Zuiderweg,4,,,9356BD,Tolbert,Leek,Groningen,VBO,6.362533,53.172657
Zuiderweg,6,,,9356BD,Tolbert,Leek,Groningen,VBO,6.362682,53.172620
Zuiderweg,8,,,9356BD,Tolbert,Leek,Groningen,VBO,6.362863,53.172584
Zuiderweg,10,,,9356BD,Tolbert,Leek,Groningen,VBO,6.363128,53.172536
Zuiderweg,12,,,9356BD,Tolbert,Leek,Groningen,VBO,6.363338,53.172483
Zuiderweg,14,a,,9356BD,Tolbert,Leek,Groningen,VBO,6.365885,53.172650
Zuiderweg,14,,,9356BD,Tolbert,Leek,Groningen,VBO,6.363561,53.172469
Zuiderweg,16,,,9356BD,Tolbert,Leek,Groningen,VBO,6.364034,53.172259
Zuiderweg,18,,,9356BD,Tolbert,Leek,Groningen,VBO,6.364062,53.172159
Zuiderweg,20,,,9356BD,Tolbert,Leek,Groningen,VBO,6.364105,53.172060
Zuiderweg,22,,,9356BD,Tolbert,Leek,Groningen,VBO,6.364147,53.171943
Zuiderweg,24,,,9356BD,Tolbert,Leek,Groningen,VBO,6.364204,53.171826
Zuiderweg,26,,,9356BD,Tolbert,Leek,Groningen,VBO,6.364232,53.171727
Hoogstraatje,1,,,9356BE,Tolbert,Leek,Groningen,VBO,6.363162,53.172032
Hoogstraatje,2,,,9356BE,Tolbert,Leek,Groningen,VBO,6.362922,53.171998
Hoogstraatje,3,,I,9356BE,Tolbert,Leek,Groningen,VBO,6.362634,53.172137
Hoogstraatje,3,,,9356BE,Tolbert,Leek,Groningen,VBO,6.362757,53.171972
Hoogstraatje,4,,,9356BE,Tolbert,Leek,Groningen,VBO,6.362562,53.171947
Hoogstraatje,5,,I,9356BE,Tolbert,Leek,Groningen,VBO,6.362375,53.172136
Hoogstraatje,5,,II,9356BE,Tolbert,Leek,Groningen,VBO,6.362279,53.172130
Hoogstraatje,5,,,9356BE,Tolbert,Leek,Groningen,VBO,6.362357,53.171926
Hoogstraatje,6,,,9356BE,Tolbert,Leek,Groningen,VBO,6.361946,53.172026
Hoogstraatje,7,,,9356BE,Tolbert,Leek,Groningen,VBO,6.361771,53.172025
Hoogstraatje,8,,,9356BE,Tolbert,Leek,Groningen,VBO,6.361621,53.172018
Hoogstraatje,9,,,9356BE,Tolbert,Leek,Groningen,VBO,6.361516,53.172000
Hoogstraatje,10,,,9356BE,Tolbert,Leek,Groningen,VBO,6.362072,53.172131
Hoogstraatje,11,,,9356BE,Tolbert,Leek,Groningen,VBO,6.362240,53.172255
Hoogstraatje,12,,,9356BE,Tolbert,Leek,Groningen,VBO,6.362211,53.172291
Hoogstraatje,16,,BY1,9356BE,Tolbert,Leek,Groningen,VBO,6.361349,53.171609
Hoogstraatje,16,,BY10,9356BE,Tolbert,Leek,Groningen,VBO,6.361587,53.171733
Hoogstraatje,16,,BY11,9356BE,Tolbert,Leek,Groningen,VBO,6.361627,53.171737
Hoogstraatje,16,,BY2,9356BE,Tolbert,Leek,Groningen,VBO,6.361339,53.171633
Hoogstraatje,16,,BY3,9356BE,Tolbert,Leek,Groningen,VBO,6.361331,53.171659
Hoogstraatje,16,,BY4,9356BE,Tolbert,Leek,Groningen,VBO,6.361323,53.171686
Hoogstraatje,16,,BY5,9356BE,Tolbert,Leek,Groningen,VBO,6.361314,53.171713
Hoogstraatje,16,,BY6,9356BE,Tolbert,Leek,Groningen,VBO,6.361305,53.171742
Hoogstraatje,16,,BY7,9356BE,Tolbert,Leek,Groningen,VBO,6.361460,53.171720
Hoogstraatje,16,,BY8,9356BE,Tolbert,Leek,Groningen,VBO,6.361504,53.171724
Hoogstraatje,16,,BY9,9356BE,Tolbert,Leek,Groningen,VBO,6.361542,53.171728
Hoogstraatje,16,,,9356BE,Tolbert,Leek,Groningen,VBO,6.362053,53.171763
Hoogstraatje,18,,,9356BE,Tolbert,Leek,Groningen,VBO,6.362046,53.171637
Schoollaantje,1,,,9356BG,Tolbert,Leek,Groningen,VBO,6.363963,53.172394
Schoollaantje,2,,,9356BG,Tolbert,Leek,Groningen,VBO,6.363892,53.172556
Schoollaantje,3,,,9356BG,Tolbert,Leek,Groningen,VBO,6.363809,53.172691
Schoollaantje,4,,,9356BG,Tolbert,Leek,Groningen,VBO,6.363749,53.172860
Schoollaantje,6,,,9356BG,Tolbert,Leek,Groningen,VBO,6.363908,53.173266
Schoollaantje,8,,,9356BG,Tolbert,Leek,Groningen,VBO,6.363286,53.172910
Schoollaantje,10,,,9356BG,Tolbert,Leek,Groningen,VBO,6.363259,53.173011
Schoollaantje,12,,,9356BG,Tolbert,Leek,Groningen,VBO,6.363320,53.173091
Schoollaantje,14,,,9356BG,Tolbert,Leek,Groningen,VBO,6.363350,53.173073
Schoollaantje,16,,,9356BG,Tolbert,Leek,Groningen,VBO,6.363260,53.173083
Schoollaantje,18,,,9356BG,Tolbert,Leek,Groningen,VBO,6.363261,53.173092
Schoollaantje,20,,,9356BG,Tolbert,Leek,Groningen,VBO,6.363261,53.173101
Schoollaantje,22,,,9356BG,Tolbert,Leek,Groningen,VBO,6.363261,53.173110
Schoollaantje,24,,,9356BG,Tolbert,Leek,Groningen,VBO,6.363261,53.173119
Schoollaantje,26,,,9356BG,Tolbert,Leek,Groningen,VBO,6.363247,53.173137
Schoollaantje,28,,,9356BG,Tolbert,Leek,Groningen,VBO,6.363232,53.173155
Schoollaantje,30,,,9356BG,Tolbert,Leek,Groningen,VBO,6.363217,53.173164
Schoollaantje,32,,,9356BG,Tolbert,Leek,Groningen,VBO,6.363203,53.173182
Schoollaantje,34,,,9356BG,Tolbert,Leek,Groningen,VBO,6.362964,53.173220
Schoollaantje,36,,,9356BG,Tolbert,Leek,Groningen,VBO,6.362904,53.173202
Dokter Mansholtweg,1,,,9356BH,Tolbert,Leek,Groningen,VBO,6.368483,53.174559
Dokter Mansholtweg,2,,,9356BH,Tolbert,Leek,Groningen,VBO,6.368492,53.174269
Dokter Mansholtweg,3,,,9356BH,Tolbert,Leek,Groningen,VBO,6.368168,53.174507
Dokter Mansholtweg,4,,,9356BH,Tolbert,Leek,Groningen,VBO,6.368207,53.174219
Dokter Mansholtweg,5,,,9356BH,Tolbert,Leek,Groningen,VBO,6.367808,53.174438
Dokter Mansholtweg,6,,,9356BH,Tolbert,Leek,Groningen,VBO,6.367892,53.174177
Dokter Mansholtweg,7,,,9356BH,Tolbert,Leek,Groningen,VBO,6.367538,53.174405
Dokter Mansholtweg,8,,,9356BH,Tolbert,Leek,Groningen,VBO,6.367666,53.174143
Dokter Mansholtweg,9,,,9356BH,Tolbert,Leek,Groningen,VBO,6.367357,53.173678
Dokter Mansholtweg,11,,,9356BH,Tolbert,Leek,Groningen,VBO,6.367350,53.173382
Dokter Mansholtweg,12,,,9356BH,Tolbert,Leek,Groningen,VBO,6.367904,53.173413
Dokter Mansholtweg,13,,,9356BH,Tolbert,Leek,Groningen,VBO,6.367466,53.173323
Dokter Mansholtweg,14,,,9356BH,Tolbert,Leek,Groningen,VBO,6.367930,53.173251
Dokter Mansholtweg,15,,,9356BH,Tolbert,Leek,Groningen,VBO,6.367421,53.173192
Dokter Mansholtweg,16,,,9356BH,Tolbert,Leek,Groningen,VBO,6.368001,53.173080
Dokter Mansholtweg,17,,,9356BH,Tolbert,Leek,Groningen,VBO,6.367515,53.173133
Dokter Mansholtweg,18,,,9356BH,Tolbert,Leek,Groningen,VBO,6.368073,53.172927
Dokter Mansholtweg,19,,,9356BH,Tolbert,Leek,Groningen,VBO,6.367476,53.173012
Dokter Mansholtweg,20,,,9356BH,Tolbert,Leek,Groningen,VBO,6.368128,53.172728
Dokter Mansholtweg,21,,,9356BH,Tolbert,Leek,Groningen,VBO,6.367589,53.172948
Dokter Mansholtweg,22,,,9356BH,Tolbert,Leek,Groningen,VBO,6.368184,53.172575
Dokter Mansholtweg,23,,,9356BH,Tolbert,Leek,Groningen,VBO,6.367546,53.172805
Dokter Mansholtweg,24,,,9356BH,Tolbert,Leek,Groningen,VBO,6.367869,53.172524
Dokter Mansholtweg,26,,,9356BH,Tolbert,Leek,Groningen,VBO,6.367629,53.172499
Dokter Mansholtweg,28,,,9356BH,Tolbert,Leek,Groningen,VBO,6.367698,53.172247
Dokter Mansholtweg,30,,,9356BH,Tolbert,Leek,Groningen,VBO,6.367938,53.172263
Dokter Mansholtweg,32,,,9356BH,Tolbert,Leek,Groningen,VBO,6.368193,53.172296
Dokter Mansholtweg,34,,,9356BH,Tolbert,Leek,Groningen,VBO,6.368358,53.172304
Dokter Mansholtweg,36,,,9356BH,Tolbert,Leek,Groningen,VBO,6.368568,53.172338
Cazemiershof,1,,,9356BJ,Tolbert,Leek,Groningen,VBO,6.356246,53.171064
Cazemiershof,3,,,9356BJ,Tolbert,Leek,Groningen,VBO,6.356320,53.171063
Cazemiershof,5,,,9356BJ,Tolbert,Leek,Groningen,VBO,6.356410,53.171071
Cazemiershof,7,,,9356BJ,Tolbert,Leek,Groningen,VBO,6.356470,53.171080
Cazemiershof,9,,,9356BJ,Tolbert,Leek,Groningen,VBO,6.356545,53.171088
Cazemiershof,11,,,9356BJ,Tolbert,Leek,Groningen,VBO,6.356606,53.171124
Cazemiershof,13,,,9356BJ,Tolbert,Leek,Groningen,VBO,6.356681,53.171132
Cazemiershof,15,,,9356BJ,Tolbert,Leek,Groningen,VBO,6.356317,53.171557
Cazemiershof,17,,,9356BJ,Tolbert,Leek,Groningen,VBO,6.356241,53.171540
Cazemiershof,19,,,9356BJ,Tolbert,Leek,Groningen,VBO,6.356166,53.171532
Cazemiershof,21,,,9356BJ,Tolbert,Leek,Groningen,VBO,6.356091,53.171523
Cazemiershof,23,,,9356BJ,Tolbert,Leek,Groningen,VBO,6.355823,53.171543
Cazemiershof,25,,,9356BJ,Tolbert,Leek,Groningen,VBO,6.355837,53.171498
Cazemiershof,27,,,9356BJ,Tolbert,Leek,Groningen,VBO,6.355851,53.171453
Cazemiershof,29,,,9356BJ,Tolbert,Leek,Groningen,VBO,6.355865,53.171408
Cazemiershof,31,,,9356BJ,Tolbert,Leek,Groningen,VBO,6.355893,53.171363
Cazemiershof,33,,,9356BJ,Tolbert,Leek,Groningen,VBO,6.355907,53.171318
Cazemiershof,35,,,9356BJ,Tolbert,Leek,Groningen,VBO,6.355874,53.171184
Cazemiershof,37,,,9356BJ,Tolbert,Leek,Groningen,VBO,6.355874,53.171157
Cazemiershof,39,,,9356BJ,Tolbert,Leek,Groningen,VBO,6.355888,53.171112
Cazemiershof,41,,,9356BJ,Tolbert,Leek,Groningen,VBO,6.355902,53.171066
Cazemiershof,43,,,9356BJ,Tolbert,Leek,Groningen,VBO,6.355916,53.171021
Cazemiershof,45,,,9356BJ,Tolbert,Leek,Groningen,VBO,6.355945,53.170976
Meester J. Tuintjerstraat,1,,,9356BK,Tolbert,Leek,Groningen,VBO,6.359099,53.171580
Meester J. Tuintjerstraat,2,,,9356BK,Tolbert,Leek,Groningen,VBO,6.359137,53.171265
Meester J. Tuintjerstraat,3,,,9356BK,Tolbert,Leek,Groningen,VBO,6.358994,53.171563
Meester J. Tuintjerstraat,4,,,9356BK,Tolbert,Leek,Groningen,VBO,6.359062,53.171257
Meester J. Tuintjerstraat,5,,,9356BK,Tolbert,Leek,Groningen,VBO,6.358829,53.171537
Meester J. Tuintjerstraat,6,,,9356BK,Tolbert,Leek,Groningen,VBO,6.358971,53.171239
Meester J. Tuintjerstraat,7,,,9356BK,Tolbert,Leek,Groningen,VBO,6.358724,53.171529
Meester J. Tuintjerstraat,8,,,9356BK,Tolbert,Leek,Groningen,VBO,6.358806,53.171214
Meester J. Tuintjerstraat,9,,,9356BK,Tolbert,Leek,Groningen,VBO,6.358559,53.171503
Meester J. Tuintjerstraat,10,,,9356BK,Tolbert,Leek,Groningen,VBO,6.358746,53.171205
Meester J. Tuintjerstraat,11,,,9356BK,Tolbert,Leek,Groningen,VBO,6.358490,53.171443
Meester J. Tuintjerstraat,12,,,9356BK,Tolbert,Leek,Groningen,VBO,6.358671,53.171197
Meester J. Tuintjerstraat,13,,,9356BK,Tolbert,Leek,Groningen,VBO,6.358229,53.171470
Meester J. Tuintjerstraat,14,,,9356BK,Tolbert,Leek,Groningen,VBO,6.357270,53.171415
Meester J. Tuintjerstraat,15,,,9356BK,Tolbert,Leek,Groningen,VBO,6.358140,53.171498
Meester J. Tuintjerstraat,16,,,9356BK,Tolbert,Leek,Groningen,VBO,6.357165,53.171398
Meester J. Tuintjerstraat,17,,,9356BK,Tolbert,Leek,Groningen,VBO,6.357950,53.171522
Meester J. Tuintjerstraat,18,,,9356BK,Tolbert,Leek,Groningen,VBO,6.356865,53.171355
Meester J. Tuintjerstraat,19,,,9356BK,Tolbert,Leek,Groningen,VBO,6.357887,53.171572
Meester J. Tuintjerstraat,20,,,9356BK,Tolbert,Leek,Groningen,VBO,6.356776,53.171356
Meester J. Tuintjerstraat,21,,,9356BK,Tolbert,Leek,Groningen,VBO,6.357725,53.171672
Meester J. Tuintjerstraat,23,,,9356BK,Tolbert,Leek,Groningen,VBO,6.357636,53.171699
Meester J. Tuintjerstraat,25,,,9356BK,Tolbert,Leek,Groningen,VBO,6.357082,53.171668
Meester J. Tuintjerstraat,27,,,9356BK,Tolbert,Leek,Groningen,VBO,6.357073,53.171689
Meester J. Tuintjerstraat,29,,,9356BK,Tolbert,Leek,Groningen,VBO,6.357068,53.171713
Meester J. Tuintjerstraat,31,,,9356BK,Tolbert,Leek,Groningen,VBO,6.357053,53.171731
Meester J. Tuintjerstraat,33,,,9356BK,Tolbert,Leek,Groningen,VBO,6.357024,53.171749
Meester J. Tuintjerstraat,35,,,9356BK,Tolbert,Leek,Groningen,VBO,6.357024,53.171776
Pastorije,2,,,9356BL,Tolbert,Leek,Groningen,VBO,6.361630,53.169070
Pastorije,4,,,9356BL,Tolbert,Leek,Groningen,VBO,6.361601,53.169133
Pastorije,6,,,9356BL,Tolbert,Leek,Groningen,VBO,6.361589,53.169241
Pastorije,8,,,9356BL,Tolbert,Leek,Groningen,VBO,6.361560,53.169304
Pastorije,10,,,9356BL,Tolbert,Leek,Groningen,VBO,6.361518,53.169412
Pastorije,12,,,9356BL,Tolbert,Leek,Groningen,VBO,6.361489,53.169476
Pastorije,14,,,9356BL,Tolbert,Leek,Groningen,VBO,6.361447,53.169584
Pastorije,16,,,9356BL,Tolbert,Leek,Groningen,VBO,6.361433,53.169638
Pastorije,18,,,9356BL,Tolbert,Leek,Groningen,VBO,6.361391,53.169746
Pastorije,20,,,9356BL,Tolbert,Leek,Groningen,VBO,6.361362,53.169800
Pastorije,22,,,9356BL,Tolbert,Leek,Groningen,VBO,6.361415,53.169908
Pastorije,24,,,9356BL,Tolbert,Leek,Groningen,VBO,6.362970,53.170137
Pastorije,26,,,9356BL,Tolbert,Leek,Groningen,VBO,6.363131,53.170001
Pastorije,28,,,9356BL,Tolbert,Leek,Groningen,VBO,6.363352,53.169856
Pastorije,30,,,9356BL,Tolbert,Leek,Groningen,VBO,6.363587,53.169674
Pastorije,32,,,9356BL,Tolbert,Leek,Groningen,VBO,6.364008,53.169779
Pastorije,34,,,9356BL,Tolbert,Leek,Groningen,VBO,6.364019,53.169581
Pastorije,36,,,9356BL,Tolbert,Leek,Groningen,VBO,6.364032,53.169518
Pastorije,38,,,9356BL,Tolbert,Leek,Groningen,VBO,6.364061,53.169464
Pastorije,40,,,9356BL,Tolbert,Leek,Groningen,VBO,6.364075,53.169419
Pastorije,42,,,9356BL,Tolbert,Leek,Groningen,VBO,6.364104,53.169382
Pastorije,44,,,9356BM,Tolbert,Leek,Groningen,VBO,6.364264,53.169192
Pastorije,46,,,9356BM,Tolbert,Leek,Groningen,VBO,6.364189,53.169184
Pastorije,48,,,9356BM,Tolbert,Leek,Groningen,VBO,6.364114,53.169149
Pastorije,50,,,9356BM,Tolbert,Leek,Groningen,VBO,6.364039,53.169140
Pastorije,52,,,9356BM,Tolbert,Leek,Groningen,VBO,6.363963,53.169114
Pastorije,54,,,9356BM,Tolbert,Leek,Groningen,VBO,6.363873,53.169088
Pastorije,1,,,9356BN,Tolbert,Leek,Groningen,VBO,6.361742,53.168764
Pastorije,3,,I,9356BN,Tolbert,Leek,Groningen,VBO,6.362128,53.169120
Pastorije,3,,,9356BN,Tolbert,Leek,Groningen,VBO,6.361832,53.168781
Pastorije,5,,,9356BN,Tolbert,Leek,Groningen,VBO,6.362061,53.169321
Pastorije,7,,,9356BN,Tolbert,Leek,Groningen,VBO,6.362117,53.169488
Pastorije,9,,,9356BN,Tolbert,Leek,Groningen,VBO,6.361957,53.169678
Pastorije,11,,,9356BN,Tolbert,Leek,Groningen,VBO,6.361843,53.169922
Pastorije,13,,,9356BN,Tolbert,Leek,Groningen,VBO,6.362173,53.169964
Pastorije,15,,,9356BN,Tolbert,Leek,Groningen,VBO,6.362347,53.169720
Pastorije,17,,,9356BN,Tolbert,Leek,Groningen,VBO,6.363167,53.169581
Pastorije,19,,,9356BN,Tolbert,Leek,Groningen,VBO,6.363195,53.169525
Pastorije,21,,,9356BN,Tolbert,Leek,Groningen,VBO,6.363239,53.169488
Pastorije,23,,,9356BN,Tolbert,Leek,Groningen,VBO,6.363295,53.169335
Pastorije,25,,,9356BN,Tolbert,Leek,Groningen,VBO,6.363324,53.169272
Pastorije,27,,,9356BN,Tolbert,Leek,Groningen,VBO,6.363338,53.169227
Pastorije,29,,,9356BN,Tolbert,Leek,Groningen,VBO,6.363380,53.169110
Pastorije,31,,,9356BN,Tolbert,Leek,Groningen,VBO,6.363453,53.169037
Pastorije,33,,,9356BN,Tolbert,Leek,Groningen,VBO,6.363467,53.168992
Pastorije,35,,,9356BN,Tolbert,Leek,Groningen,VBO,6.363436,53.168956
Pastorije,37,,,9356BN,Tolbert,Leek,Groningen,VBO,6.363449,53.168849
Pastorije,39,,,9356BN,Tolbert,Leek,Groningen,VBO,6.363492,53.168785
Pastorije,41,,,9356BN,Tolbert,Leek,Groningen,VBO,6.363581,53.168739
Pastorije,43,,,9356BN,Tolbert,Leek,Groningen,VBO,6.363907,53.168584
Pastorije,45,,,9356BN,Tolbert,Leek,Groningen,VBO,6.364057,53.168433
Pastorije,47,,,9356BN,Tolbert,Leek,Groningen,VBO,6.364020,53.168287
Pastorije,49,,,9356BN,Tolbert,Leek,Groningen,VBO,6.364105,53.168097
Pastorije,51,,,9356BN,Tolbert,Leek,Groningen,VBO,6.364262,53.167960
Pastorije,53,,,9356BN,Tolbert,Leek,Groningen,VBO,6.364280,53.167908
Pastorije,55,,,9356BN,Tolbert,Leek,Groningen,VBO,6.364232,53.167746
Pastorije,57,,,9356BN,Tolbert,Leek,Groningen,VBO,6.364288,53.167676
Pastorije,59,,I,9356BN,Tolbert,Leek,Groningen,VBO,6.364416,53.167468
Pastorije,59,,,9356BN,Tolbert,Leek,Groningen,VBO,6.364400,53.167521
Pastorije,61,,,9356BN,Tolbert,Leek,Groningen,VBO,6.363917,53.167368
Pastorije,63,,,9356BN,Tolbert,Leek,Groningen,VBO,6.363595,53.167383
Hofstede,10,,,9356BP,Tolbert,Leek,Groningen,VBO,6.362557,53.169089
Hofstede,12,,,9356BP,Tolbert,Leek,Groningen,VBO,6.362658,53.168909
Hofstede,14,,,9356BP,Tolbert,Leek,Groningen,VBO,6.362500,53.168542
Hofstede,16,,,9356BP,Tolbert,Leek,Groningen,VBO,6.362590,53.168550
Hofstede,18,,,9356BP,Tolbert,Leek,Groningen,VBO,6.362815,53.168566
Hofstede,20,,,9356BP,Tolbert,Leek,Groningen,VBO,6.362905,53.168583
Hofstede,22,,,9356BP,Tolbert,Leek,Groningen,VBO,6.363003,53.168304
Hofstede,24,,,9356BP,Tolbert,Leek,Groningen,VBO,6.362928,53.168296
Hofstede,26,,,9356BP,Tolbert,Leek,Groningen,VBO,6.362718,53.168243
Hofstede,28,,,9356BP,Tolbert,Leek,Groningen,VBO,6.362628,53.168235
Hofstede,30,,,9356BP,Tolbert,Leek,Groningen,VBO,6.363147,53.168060
Hofstede,32,,,9356BP,Tolbert,Leek,Groningen,VBO,6.363042,53.168043
Hofstede,34,,,9356BP,Tolbert,Leek,Groningen,VBO,6.362712,53.167983
Hofstede,36,,,9356BP,Tolbert,Leek,Groningen,VBO,6.362725,53.167929
Hofstede,38,,,9356BP,Tolbert,Leek,Groningen,VBO,6.362769,53.167875
Hofstede,40,,,9356BP,Tolbert,Leek,Groningen,VBO,6.363051,53.167764
Hofstede,42,,,9356BP,Tolbert,Leek,Groningen,VBO,6.363065,53.167719
Hofstede,44,,,9356BP,Tolbert,Leek,Groningen,VBO,6.363093,53.167656
Hofstede,46,,,9356BP,Tolbert,Leek,Groningen,VBO,6.363137,53.167611
Hofstede,1,,,9356BR,Tolbert,Leek,Groningen,VBO,6.362042,53.168797
Hofstede,3,,,9356BR,Tolbert,Leek,Groningen,VBO,6.362132,53.168805
Hofstede,5,,,9356BR,Tolbert,Leek,Groningen,VBO,6.361963,53.168618
Hofstede,7,,,9356BR,Tolbert,Leek,Groningen,VBO,6.361977,53.168555
Hofstede,9,,,9356BR,Tolbert,Leek,Groningen,VBO,6.362113,53.168439
Hofstede,11,,,9356BR,Tolbert,Leek,Groningen,VBO,6.362078,53.168383
Hofstede,13,,,9356BR,Tolbert,Leek,Groningen,VBO,6.362153,53.168343
Hofstede,15,,,9356BR,Tolbert,Leek,Groningen,VBO,6.362120,53.168284
Hofstede,17,,,9356BR,Tolbert,Leek,Groningen,VBO,6.362088,53.168186
Hofstede,19,,,9356BR,Tolbert,Leek,Groningen,VBO,6.362162,53.168140
Hofstede,21,,,9356BR,Tolbert,Leek,Groningen,VBO,6.362191,53.168086
Hofstede,23,,,9356BR,Tolbert,Leek,Groningen,VBO,6.362205,53.168041
Hofstede,25,,,9356BR,Tolbert,Leek,Groningen,VBO,6.362232,53.167924
Hofstede,27,,,9356BR,Tolbert,Leek,Groningen,VBO,6.362261,53.167888
Hofstede,29,,,9356BR,Tolbert,Leek,Groningen,VBO,6.362289,53.167825
Hofstede,31,,,9356BR,Tolbert,Leek,Groningen,VBO,6.362288,53.167780
Hofstede,33,,,9356BR,Tolbert,Leek,Groningen,VBO,6.362316,53.167690
Hofstede,35,,,9356BR,Tolbert,Leek,Groningen,VBO,6.362390,53.167635
Hofstede,37,,,9356BR,Tolbert,Leek,Groningen,VBO,6.362419,53.167590
Hofstede,39,e,,9356BR,Tolbert,Leek,Groningen,VBO,6.362164,53.167387
Hofstede,39,,,9356BR,Tolbert,Leek,Groningen,VBO,6.362466,53.167550
Hofstede,41,,,9356BR,Tolbert,Leek,Groningen,VBO,6.362428,53.167320
Hofstede,43,,,9356BR,Tolbert,Leek,Groningen,VBO,6.362698,53.167372
Hofstede,45,,,9356BR,Tolbert,Leek,Groningen,VBO,6.362766,53.167093
Pastorije,56,,,9356BS,Tolbert,Leek,Groningen,VBO,6.363986,53.168813
Pastorije,58,,,9356BS,Tolbert,Leek,Groningen,VBO,6.364072,53.168821
Pastorije,60,,,9356BS,Tolbert,Leek,Groningen,VBO,6.364268,53.168836
Pastorije,62,,,9356BS,Tolbert,Leek,Groningen,VBO,6.364354,53.168844
Pastorije,64,,,9356BS,Tolbert,Leek,Groningen,VBO,6.364357,53.168636
Pastorije,66,,,9356BS,Tolbert,Leek,Groningen,VBO,6.364376,53.168586
Pastorije,68,,,9356BS,Tolbert,Leek,Groningen,VBO,6.364424,53.168456
Pastorije,70,,,9356BS,Tolbert,Leek,Groningen,VBO,6.364443,53.168404
Pastorije,72,,,9356BS,Tolbert,Leek,Groningen,VBO,6.364478,53.168273
Pastorije,74,,,9356BS,Tolbert,Leek,Groningen,VBO,6.364498,53.168220
Pastorije,76,,,9356BS,Tolbert,Leek,Groningen,VBO,6.364549,53.168093
Pastorije,78,,,9356BS,Tolbert,Leek,Groningen,VBO,6.364566,53.168040
Pastorije,80,,,9356BS,Tolbert,Leek,Groningen,VBO,6.364616,53.167913
Pastorije,82,,,9356BS,Tolbert,Leek,Groningen,VBO,6.364633,53.167860
Pastorije,84,,I,9356BS,Tolbert,Leek,Groningen,VBO,6.364714,53.167680
Pastorije,84,,,9356BS,Tolbert,Leek,Groningen,VBO,6.364693,53.167732
Pastorije,86,,I,9356BS,Tolbert,Leek,Groningen,VBO,6.364785,53.167501
Pastorije,86,,,9356BS,Tolbert,Leek,Groningen,VBO,6.364764,53.167553
Pastorije,88,,,9356BS,Tolbert,Leek,Groningen,VBO,6.364896,53.167354
Pastorije,90,,,9356BS,Tolbert,Leek,Groningen,VBO,6.364891,53.167165
Pastorije,92,,,9356BS,Tolbert,Leek,Groningen,VBO,6.364578,53.167186
Pastorije,94,,,9356BS,Tolbert,Leek,Groningen,VBO,6.364338,53.167152
Pastorije,96,,,9356BS,Tolbert,Leek,Groningen,VBO,6.363889,53.167120
Pastorije,98,,,9356BS,Tolbert,Leek,Groningen,VBO,6.363619,53.167086
Pastorije,100,,,9356BS,Tolbert,Leek,Groningen,VBO,6.363379,53.167079
Appelhof,1,,,9356BT,Tolbert,Leek,Groningen,VBO,6.363905,53.166544
Appelhof,2,,,9356BT,Tolbert,Leek,Groningen,VBO,6.363830,53.166536
Appelhof,3,,,9356BT,Tolbert,Leek,Groningen,VBO,6.363726,53.166546
Appelhof,4,,,9356BT,Tolbert,Leek,Groningen,VBO,6.363651,53.166537
Appelhof,5,,,9356BT,Tolbert,Leek,Groningen,VBO,6.363577,53.166547
Appelhof,6,,,9356BT,Tolbert,Leek,Groningen,VBO,6.363560,53.166493
Appelhof,7,,,9356BT,Tolbert,Leek,Groningen,VBO,6.363442,53.166539
Appelhof,8,,,9356BT,Tolbert,Leek,Groningen,VBO,6.363486,53.166503
Appelhof,9,,,9356BT,Tolbert,Leek,Groningen,VBO,6.363335,53.166441
Appelhof,10,,,9356BT,Tolbert,Leek,Groningen,VBO,6.363394,53.166432
Appelhof,11,,,9356BT,Tolbert,Leek,Groningen,VBO,6.363363,53.166360
Appelhof,12,,,9356BT,Tolbert,Leek,Groningen,VBO,6.363439,53.166395
Appelhof,13,,,9356BT,Tolbert,Leek,Groningen,VBO,6.363467,53.166323
Appelhof,14,,,9356BT,Tolbert,Leek,Groningen,VBO,6.363421,53.166279
Appelhof,15,,,9356BT,Tolbert,Leek,Groningen,VBO,6.363495,53.166233
Appelhof,16,,,9356BT,Tolbert,Leek,Groningen,VBO,6.363434,53.166180
Appelhof,17,,,9356BT,Tolbert,Leek,Groningen,VBO,6.363523,53.166179
Appelhof,18,,,9356BT,Tolbert,Leek,Groningen,VBO,6.363476,53.166090
Appelhof,19,,,9356BT,Tolbert,Leek,Groningen,VBO,6.363522,53.166116
Appelhof,20,,,9356BT,Tolbert,Leek,Groningen,VBO,6.363609,53.166017
Appelhof,21,,,9356BT,Tolbert,Leek,Groningen,VBO,6.363655,53.166070
Appelhof,22,,,9356BT,Tolbert,Leek,Groningen,VBO,6.363774,53.166042
Appelhof,23,,,9356BT,Tolbert,Leek,Groningen,VBO,6.363761,53.166087
Appelhof,24,,,9356BT,Tolbert,Leek,Groningen,VBO,6.363865,53.166059
Appelhof,25,,,9356BT,Tolbert,Leek,Groningen,VBO,6.363940,53.166068
Appelhof,26,,,9356BT,Tolbert,Leek,Groningen,VBO,6.364015,53.166076
Appelhof,27,,,9356BT,Tolbert,Leek,Groningen,VBO,6.364074,53.166076
Trambaan,1,,,9356BV,Tolbert,Leek,Groningen,VBO,6.360628,53.171765
Trambaan,2,,,9356BV,Tolbert,Leek,Groningen,VBO,6.360558,53.171945
Trambaan,3,,,9356BV,Tolbert,Leek,Groningen,VBO,6.360703,53.171773
Trambaan,4,,,9356BV,Tolbert,Leek,Groningen,VBO,6.360618,53.171963
Trambaan,5,,,9356BV,Tolbert,Leek,Groningen,VBO,6.360899,53.171826
Trambaan,6,,,9356BV,Tolbert,Leek,Groningen,VBO,6.360678,53.171980
Trambaan,7,,,9356BV,Tolbert,Leek,Groningen,VBO,6.360989,53.171843
Trambaan,8,,,9356BV,Tolbert,Leek,Groningen,VBO,6.360753,53.171998
Trambaan,9,,,9356BV,Tolbert,Leek,Groningen,VBO,6.361185,53.171895
Trambaan,10,,,9356BV,Tolbert,Leek,Groningen,VBO,6.360813,53.172015
Trambaan,11,,,9356BV,Tolbert,Leek,Groningen,VBO,6.361245,53.171913
Trambaan,12,,,9356BV,Tolbert,Leek,Groningen,VBO,6.360873,53.172024
Het Spoor,1,,,9356BW,Tolbert,Leek,Groningen,VBO,6.360254,53.171741
Het Spoor,2,e,,9356BW,Tolbert,Leek,Groningen,VBO,6.359828,53.171749
Het Spoor,2,,,9356BW,Tolbert,Leek,Groningen,VBO,6.360477,53.172060
Het Spoor,3,,,9356BW,Tolbert,Leek,Groningen,VBO,6.360283,53.171696
Het Spoor,5,,,9356BW,Tolbert,Leek,Groningen,VBO,6.360325,53.171561
Het Spoor,7,,,9356BW,Tolbert,Leek,Groningen,VBO,6.360339,53.171525
Feithspark,1,,I,9356BX,Tolbert,Leek,Groningen,VBO,6.357480,53.166693
Feithspark,1,,,9356BX,Tolbert,Leek,Groningen,VBO,6.357232,53.167021
Feithspark,3,,,9356BX,Tolbert,Leek,Groningen,VBO,6.356637,53.166495
Feithspark,5,,,9356BX,Tolbert,Leek,Groningen,VBO,6.357524,53.166186
Feithspark,7,,I,9356BX,Tolbert,Leek,Groningen,VBO,6.357706,53.165324
Feithspark,7,,,9356BX,Tolbert,Leek,Groningen,VBO,6.357334,53.165573
Feithspark,9,,I,9356BX,Tolbert,Leek,Groningen,VBO,6.357511,53.164996
Feithspark,9,,,9356BX,Tolbert,Leek,Groningen,VBO,6.357161,53.165258
Feithspark,11,b,,9356BX,Tolbert,Leek,Groningen,VBO,6.357278,53.164692
Feithspark,11,,,9356BX,Tolbert,Leek,Groningen,VBO,6.357892,53.164779
Feithspark,13,e,,9356BX,Tolbert,Leek,Groningen,VBO,6.359168,53.165318
Feithspark,13,,,9356BX,Tolbert,Leek,Groningen,VBO,6.358816,53.164986
Feithspark,15,,,9356BX,Tolbert,Leek,Groningen,VBO,6.359598,53.165177
Feithspark,17,,,9356BX,Tolbert,Leek,Groningen,VBO,6.360188,53.165413
Feithspark,19,,,9356BX,Tolbert,Leek,Groningen,VBO,6.360104,53.165749
Feithspark,21,,,9356BX,Tolbert,Leek,Groningen,VBO,6.359839,53.166190
Feithspark,6,,,9356BZ,Tolbert,Leek,Groningen,VBO,6.359186,53.166240
Feithspark,10,,,9356BZ,Tolbert,Leek,Groningen,VBO,6.359360,53.165801
Feithspark,12,e,,9356BZ,Tolbert,Leek,Groningen,VBO,6.358145,53.166370
Feithspark,12,,,9356BZ,Tolbert,Leek,Groningen,VBO,6.358228,53.166526
Feithspark,14,,,9356BZ,Tolbert,Leek,Groningen,VBO,6.358831,53.167382
Beelen,2,,,9356CA,Tolbert,Leek,Groningen,VBO,6.365371,53.165876
Beelen,4,,,9356CA,Tolbert,Leek,Groningen,VBO,6.365414,53.165822
Beelen,6,,,9356CA,Tolbert,Leek,Groningen,VBO,6.365428,53.165768
Beelen,8,,,9356CA,Tolbert,Leek,Groningen,VBO,6.365442,53.165714
Beelen,10,,,9356CA,Tolbert,Leek,Groningen,VBO,6.365544,53.165587
Beelen,12,,,9356CA,Tolbert,Leek,Groningen,VBO,6.365573,53.165542
Beelen,14,,,9356CA,Tolbert,Leek,Groningen,VBO,6.365572,53.165497
Beelen,16,,,9356CA,Tolbert,Leek,Groningen,VBO,6.365600,53.165434
Beelen,18,,,9356CA,Tolbert,Leek,Groningen,VBO,6.365300,53.165374
Beelen,20,,,9356CA,Tolbert,Leek,Groningen,VBO,6.365180,53.165366
Beelen,22,,,9356CA,Tolbert,Leek,Groningen,VBO,6.365090,53.165348
Beelen,24,,,9356CA,Tolbert,Leek,Groningen,VBO,6.365000,53.165340
Beelen,26,,,9356CA,Tolbert,Leek,Groningen,VBO,6.364940,53.165332
Beelen,28,,,9356CB,Tolbert,Leek,Groningen,VBO,6.364623,53.165209
Beelen,30,,,9356CB,Tolbert,Leek,Groningen,VBO,6.364608,53.165257
Beelen,32,,,9356CB,Tolbert,Leek,Groningen,VBO,6.364566,53.165317
Beelen,34,,,9356CB,Tolbert,Leek,Groningen,VBO,6.364568,53.165425
Beelen,36,,,9356CB,Tolbert,Leek,Groningen,VBO,6.364539,53.165479
Beelen,38,,,9356CB,Tolbert,Leek,Groningen,VBO,6.364511,53.165542
Beelen,40,,,9356CB,Tolbert,Leek,Groningen,VBO,6.364500,53.165740
Beelen,42,,,9356CB,Tolbert,Leek,Groningen,VBO,6.364425,53.165731
Beelen,44,,,9356CB,Tolbert,Leek,Groningen,VBO,6.364305,53.165705
Beelen,46,,,9356CB,Tolbert,Leek,Groningen,VBO,6.363045,53.165527
Beelen,48,,,9356CB,Tolbert,Leek,Groningen,VBO,6.362775,53.165484
Beelen,50,,,9356CB,Tolbert,Leek,Groningen,VBO,6.362685,53.165476
Beelen,52,,,9356CB,Tolbert,Leek,Groningen,VBO,6.362415,53.165433
de Eekholt,1,,,9356CC,Tolbert,Leek,Groningen,VBO,6.363450,53.165578
de Eekholt,2,,,9356CC,Tolbert,Leek,Groningen,VBO,6.364005,53.165636
de Eekholt,3,,,9356CC,Tolbert,Leek,Groningen,VBO,6.363434,53.165515
de Eekholt,4,,,9356CC,Tolbert,Leek,Groningen,VBO,6.364019,53.165591
de Eekholt,5,,,9356CC,Tolbert,Leek,Groningen,VBO,6.363462,53.165461
de Eekholt,6,,,9356CC,Tolbert,Leek,Groningen,VBO,6.364091,53.165482
de Eekholt,7,,,9356CC,Tolbert,Leek,Groningen,VBO,6.363476,53.165398
de Eekholt,8,,,9356CC,Tolbert,Leek,Groningen,VBO,6.364120,53.165428
de Eekholt,9,,,9356CC,Tolbert,Leek,Groningen,VBO,6.363576,53.165217
de Eekholt,10,,,9356CC,Tolbert,Leek,Groningen,VBO,6.364077,53.165298
de Eekholt,11,,,9356CC,Tolbert,Leek,Groningen,VBO,6.363471,53.165200
de Eekholt,12,,,9356CC,Tolbert,Leek,Groningen,VBO,6.364190,53.165248
de Eekholt,13,,,9356CC,Tolbert,Leek,Groningen,VBO,6.363366,53.165183
de Eekholt,14,,,9356CC,Tolbert,Leek,Groningen,VBO,6.364203,53.165167
de Eekholt,15,,,9356CC,Tolbert,Leek,Groningen,VBO,6.363291,53.165174
de Eekholt,16,,,9356CC,Tolbert,Leek,Groningen,VBO,6.364191,53.165076
de Eekholt,17,,,9356CC,Tolbert,Leek,Groningen,VBO,6.363270,53.164878
de Eekholt,18,,,9356CC,Tolbert,Leek,Groningen,VBO,6.364400,53.164599
de Eekholt,19,,,9356CC,Tolbert,Leek,Groningen,VBO,6.363390,53.164904
de Eekholt,20,,,9356CC,Tolbert,Leek,Groningen,VBO,6.364368,53.164510
de Eekholt,21,,,9356CC,Tolbert,Leek,Groningen,VBO,6.363495,53.164912
de Eekholt,22,,,9356CC,Tolbert,Leek,Groningen,VBO,6.364412,53.164455
de Eekholt,23,,,9356CC,Tolbert,Leek,Groningen,VBO,6.363585,53.164920
de Eekholt,24,,,9356CC,Tolbert,Leek,Groningen,VBO,6.364468,53.164302
de Eekholt,25,,,9356CC,Tolbert,Leek,Groningen,VBO,6.363715,53.164749
de Eekholt,26,,,9356CC,Tolbert,Leek,Groningen,VBO,6.364497,53.164248
de Eekholt,27,,,9356CC,Tolbert,Leek,Groningen,VBO,6.363714,53.164677
de Eekholt,29,,,9356CC,Tolbert,Leek,Groningen,VBO,6.363728,53.164623
de Eekholt,31,,,9356CC,Tolbert,Leek,Groningen,VBO,6.363680,53.164506
de Eekholt,33,,,9356CC,Tolbert,Leek,Groningen,VBO,6.363709,53.164470
de Eekholt,35,,,9356CC,Tolbert,Leek,Groningen,VBO,6.363737,53.164389
de Eekholt,37,,,9356CC,Tolbert,Leek,Groningen,VBO,6.363766,53.164344
de Eekholt,39,,,9356CC,Tolbert,Leek,Groningen,VBO,6.363344,53.163386
de Eekholt,41,,,9356CC,Tolbert,Leek,Groningen,VBO,6.363258,53.163373
de Eekholt,43,,,9356CC,Tolbert,Leek,Groningen,VBO,6.363094,53.163351
de Eekholt,45,,,9356CC,Tolbert,Leek,Groningen,VBO,6.363012,53.163338
Vijf Akkers,1,,,9356CD,Tolbert,Leek,Groningen,VBO,6.361904,53.165338
Vijf Akkers,3,,,9356CD,Tolbert,Leek,Groningen,VBO,6.361990,53.165167
Vijf Akkers,4,,,9356CD,Tolbert,Leek,Groningen,VBO,6.362455,53.165199
Vijf Akkers,5,,,9356CD,Tolbert,Leek,Groningen,VBO,6.362060,53.164960
Vijf Akkers,6,,,9356CD,Tolbert,Leek,Groningen,VBO,6.362469,53.165163
Vijf Akkers,7,,,9356CD,Tolbert,Leek,Groningen,VBO,6.362130,53.164753
Vijf Akkers,8,,,9356CD,Tolbert,Leek,Groningen,VBO,6.362482,53.165109
Vijf Akkers,10,,,9356CD,Tolbert,Leek,Groningen,VBO,6.362511,53.165037
Vijf Akkers,12,,,9356CD,Tolbert,Leek,Groningen,VBO,6.362797,53.165143
Vijf Akkers,14,,,9356CD,Tolbert,Leek,Groningen,VBO,6.362887,53.165151
Vijf Akkers,16,,,9356CD,Tolbert,Leek,Groningen,VBO,6.362977,53.165159
Vijf Akkers,18,,,9356CD,Tolbert,Leek,Groningen,VBO,6.363097,53.165185
Vijf Akkers,20,,,9356CD,Tolbert,Leek,Groningen,VBO,6.363134,53.164816
Vijf Akkers,22,,,9356CD,Tolbert,Leek,Groningen,VBO,6.363035,53.164813
Vijf Akkers,24,,,9356CD,Tolbert,Leek,Groningen,VBO,6.362947,53.164796
Vijf Akkers,26,,,9356CD,Tolbert,Leek,Groningen,VBO,6.362849,53.164783
Vijf Akkers,28,,,9356CD,Tolbert,Leek,Groningen,VBO,6.363084,53.164619
Vijf Akkers,30,,,9356CD,Tolbert,Leek,Groningen,VBO,6.363113,53.164565
Vijf Akkers,32,,,9356CD,Tolbert,Leek,Groningen,VBO,6.363127,53.164511
Vijf Akkers,34,,,9356CD,Tolbert,Leek,Groningen,VBO,6.363155,53.164448
Vijf Akkers,36,,,9356CD,Tolbert,Leek,Groningen,VBO,6.363256,53.164258
Vijf Akkers,38,,,9356CD,Tolbert,Leek,Groningen,VBO,6.363361,53.164284
Vijf Akkers,40,,,9356CD,Tolbert,Leek,Groningen,VBO,6.363436,53.164293
de Boskamp,1,,,9356CE,Tolbert,Leek,Groningen,VBO,6.364685,53.164651
de Boskamp,2,,,9356CE,Tolbert,Leek,Groningen,VBO,6.364303,53.164933
de Boskamp,3,,,9356CE,Tolbert,Leek,Groningen,VBO,6.364805,53.164668
de Boskamp,4,,,9356CE,Tolbert,Leek,Groningen,VBO,6.364423,53.164968
de Boskamp,5,,,9356CE,Tolbert,Leek,Groningen,VBO,6.365150,53.164710
de Boskamp,6,,,9356CE,Tolbert,Leek,Groningen,VBO,6.364543,53.164993
de Boskamp,7,,,9356CE,Tolbert,Leek,Groningen,VBO,6.365255,53.164727
de Boskamp,8,,,9356CE,Tolbert,Leek,Groningen,VBO,6.364677,53.164965
de Boskamp,9,,,9356CE,Tolbert,Leek,Groningen,VBO,6.365525,53.164770
de Boskamp,10,,,9356CE,Tolbert,Leek,Groningen,VBO,6.365053,53.165052
de Boskamp,11,,,9356CE,Tolbert,Leek,Groningen,VBO,6.365630,53.164778
de Boskamp,12,,,9356CE,Tolbert,Leek,Groningen,VBO,6.365143,53.165060
de Boskamp,13,,,9356CE,Tolbert,Leek,Groningen,VBO,6.365884,53.164776
de Boskamp,14,,,9356CE,Tolbert,Leek,Groningen,VBO,6.365413,53.165094
de Boskamp,15,,,9356CE,Tolbert,Leek,Groningen,VBO,6.365989,53.164793
de Boskamp,16,,,9356CE,Tolbert,Leek,Groningen,VBO,6.365503,53.165111
de Boskamp,18,,,9356CE,Tolbert,Leek,Groningen,VBO,6.365699,53.165182
de Boskamp,20,,,9356CE,Tolbert,Leek,Groningen,VBO,6.365789,53.165199
de Deel,1,,,9356CH,Tolbert,Leek,Groningen,VBO,6.365062,53.164136
de Deel,3,,,9356CH,Tolbert,Leek,Groningen,VBO,6.365091,53.164072
de Deel,5,,,9356CH,Tolbert,Leek,Groningen,VBO,6.365044,53.164001
de Deel,7,,,9356CH,Tolbert,Leek,Groningen,VBO,6.365058,53.163947
de Deel,9,,,9356CH,Tolbert,Leek,Groningen,VBO,6.365057,53.163893
de Deel,11,,,9356CH,Tolbert,Leek,Groningen,VBO,6.365363,53.164214
de Deel,13,,,9356CH,Tolbert,Leek,Groningen,VBO,6.365453,53.164231
de Deel,15,,,9356CH,Tolbert,Leek,Groningen,VBO,6.365542,53.164204
de Deel,17,,,9356CH,Tolbert,Leek,Groningen,VBO,6.365662,53.164221
de Deel,19,,,9356CH,Tolbert,Leek,Groningen,VBO,6.365873,53.164291
de Deel,21,,,9356CH,Tolbert,Leek,Groningen,VBO,6.365962,53.164254
de Deel,23,,,9356CH,Tolbert,Leek,Groningen,VBO,6.365991,53.164191
de Deel,25,,,9356CH,Tolbert,Leek,Groningen,VBO,6.366092,53.164152
de Deel,27,,,9356CH,Tolbert,Leek,Groningen,VBO,6.366166,53.164028
de Deel,29,,,9356CH,Tolbert,Leek,Groningen,VBO,6.366180,53.163974
de Deel,31,,,9356CH,Tolbert,Leek,Groningen,VBO,6.366194,53.163929
de Deel,2,,,9356CJ,Tolbert,Leek,Groningen,VBO,6.364917,53.164325
de Deel,4,,,9356CJ,Tolbert,Leek,Groningen,VBO,6.364873,53.164362
de Deel,6,,,9356CJ,Tolbert,Leek,Groningen,VBO,6.364935,53.164451
de Deel,8,,,9356CJ,Tolbert,Leek,Groningen,VBO,6.364891,53.164496
de Deel,10,,,9356CJ,Tolbert,Leek,Groningen,VBO,6.365352,53.164385
de Deel,12,,,9356CJ,Tolbert,Leek,Groningen,VBO,6.365323,53.164439
de Deel,14,,,9356CJ,Tolbert,Leek,Groningen,VBO,6.365384,53.164492
de Deel,16,,,9356CJ,Tolbert,Leek,Groningen,VBO,6.365326,53.164556
de Deel,18,,,9356CJ,Tolbert,Leek,Groningen,VBO,6.365996,53.164433
de Deel,20,,,9356CJ,Tolbert,Leek,Groningen,VBO,6.366057,53.164469
de Deel,22,,,9356CJ,Tolbert,Leek,Groningen,VBO,6.366103,53.164522
de Baander,1,,,9356CK,Tolbert,Leek,Groningen,VBO,6.364445,53.163934
de Baander,3,,,9356CK,Tolbert,Leek,Groningen,VBO,6.364535,53.163951
de Baander,5,,,9356CK,Tolbert,Leek,Groningen,VBO,6.364640,53.163968
de Baander,7,,,9356CK,Tolbert,Leek,Groningen,VBO,6.364696,53.163797
de Baander,9,,,9356CK,Tolbert,Leek,Groningen,VBO,6.364710,53.163743
de Baander,11,,,9356CK,Tolbert,Leek,Groningen,VBO,6.364723,53.163698
de Baander,13,,,9356CK,Tolbert,Leek,Groningen,VBO,6.364677,53.163626
de Baander,15,,,9356CK,Tolbert,Leek,Groningen,VBO,6.364706,53.163572
de Baander,17,,,9356CK,Tolbert,Leek,Groningen,VBO,6.364733,53.163437
de Baander,19,,,9356CK,Tolbert,Leek,Groningen,VBO,6.364822,53.163419
de Baander,21,,,9356CK,Tolbert,Leek,Groningen,VBO,6.364865,53.163355
de Baander,23,,,9356CK,Tolbert,Leek,Groningen,VBO,6.364992,53.163335
de Baander,25,,,9356CK,Tolbert,Leek,Groningen,VBO,6.365178,53.163308
de Baander,27,,,9356CK,Tolbert,Leek,Groningen,VBO,6.365268,53.163334
de Baander,29,,,9356CK,Tolbert,Leek,Groningen,VBO,6.365315,53.163388
de Baander,31,,,9356CK,Tolbert,Leek,Groningen,VBO,6.365420,53.163405
de Baander,33,,,9356CK,Tolbert,Leek,Groningen,VBO,6.365747,53.163357
de Baander,35,,,9356CK,Tolbert,Leek,Groningen,VBO,6.365838,53.163374
de Baander,37,,,9356CL,Tolbert,Leek,Groningen,VBO,6.365928,53.163428
de Baander,39,,,9356CL,Tolbert,Leek,Groningen,VBO,6.366019,53.163445
de Baander,41,,,9356CL,Tolbert,Leek,Groningen,VBO,6.366257,53.163407
de Baander,43,,,9356CL,Tolbert,Leek,Groningen,VBO,6.366316,53.163379
de Baander,45,,,9356CL,Tolbert,Leek,Groningen,VBO,6.366405,53.163352
de Baander,47,,,9356CL,Tolbert,Leek,Groningen,VBO,6.366515,53.163318
de Baander,49,,,9356CL,Tolbert,Leek,Groningen,VBO,6.366506,53.163180
de Baander,51,,,9356CL,Tolbert,Leek,Groningen,VBO,6.366535,53.163135
de Baander,53,,,9356CL,Tolbert,Leek,Groningen,VBO,6.366474,53.163064
de Baander,55,,,9356CL,Tolbert,Leek,Groningen,VBO,6.366464,53.162991
de Baander,57,,,9356CL,Tolbert,Leek,Groningen,VBO,6.366056,53.163103
de Baander,59,,,9356CL,Tolbert,Leek,Groningen,VBO,6.366077,53.163027
de Baander,61,,,9356CL,Tolbert,Leek,Groningen,VBO,6.366025,53.162962
de Baander,63,,,9356CL,Tolbert,Leek,Groningen,VBO,6.366063,53.162910
de Baander,65,,,9356CL,Tolbert,Leek,Groningen,VBO,6.366109,53.162824
de Baander,67,,,9356CL,Tolbert,Leek,Groningen,VBO,6.366137,53.162743
de Baander,69,,,9356CL,Tolbert,Leek,Groningen,VBO,6.366151,53.162698
de Baander,71,,,9356CL,Tolbert,Leek,Groningen,VBO,6.366165,53.162644
de Baander,73,,,9356CL,Tolbert,Leek,Groningen,VBO,6.366278,53.162454
de Baander,75,,,9356CL,Tolbert,Leek,Groningen,VBO,6.366204,53.162401
de Baander,2,,,9356CM,Tolbert,Leek,Groningen,VBO,6.365141,53.163659
de Baander,4,,,9356CM,Tolbert,Leek,Groningen,VBO,6.365172,53.163703
de Baander,6,e,,9356CM,Tolbert,Leek,Groningen,VBO,6.365315,53.163869
de Baander,6,,,9356CM,Tolbert,Leek,Groningen,VBO,6.365248,53.163748
de Baander,8,,,9356CM,Tolbert,Leek,Groningen,VBO,6.365576,53.163709
de Baander,10,,,9356CM,Tolbert,Leek,Groningen,VBO,6.365666,53.163717
de Baander,12,,,9356CM,Tolbert,Leek,Groningen,VBO,6.365727,53.163780
de Baander,14,,,9356CM,Tolbert,Leek,Groningen,VBO,6.365832,53.163797
de Baander,16,,,9356CM,Tolbert,Leek,Groningen,VBO,6.365892,53.163814
de Baander,18,,,9356CM,Tolbert,Leek,Groningen,VBO,6.366281,53.163802
de Baander,20,,,9356CM,Tolbert,Leek,Groningen,VBO,6.366235,53.163758
de Baander,22,,,9356CM,Tolbert,Leek,Groningen,VBO,6.366189,53.163713
de Baander,24,,,9356CM,Tolbert,Leek,Groningen,VBO,6.366143,53.163668
de Baander,26,,,9356CM,Tolbert,Leek,Groningen,VBO,6.366753,53.162873
de Baander,28,,,9356CM,Tolbert,Leek,Groningen,VBO,6.366693,53.162837
de Baander,30,,,9356CM,Tolbert,Leek,Groningen,VBO,6.366610,53.162780
de Baander,32,,,9356CM,Tolbert,Leek,Groningen,VBO,6.366556,53.162757
de Baander,34,,,9356CM,Tolbert,Leek,Groningen,VBO,6.366670,53.162514
de Baander,36,,,9356CM,Tolbert,Leek,Groningen,VBO,6.366712,53.162361
de Baander,38,,,9356CM,Tolbert,Leek,Groningen,VBO,6.366703,53.162188
de Baander,40,,,9356CM,Tolbert,Leek,Groningen,VBO,6.366764,53.162028
de Baander,42,,,9356CM,Tolbert,Leek,Groningen,VBO,6.366318,53.162121
de Baander,44,,,9356CM,Tolbert,Leek,Groningen,VBO,6.366228,53.162104
De Gol,1,,,9356CN,Tolbert,Leek,Groningen,VBO,6.364511,53.162909
De Gol,2,,,9356CN,Tolbert,Leek,Groningen,VBO,6.364427,53.163161
De Gol,4,,,9356CN,Tolbert,Leek,Groningen,VBO,6.365382,53.163082
De Gol,6,,,9356CN,Tolbert,Leek,Groningen,VBO,6.365411,53.163027
De Gol,8,,,9356CN,Tolbert,Leek,Groningen,VBO,6.365438,53.162910
De Gol,10,,,9356CN,Tolbert,Leek,Groningen,VBO,6.365467,53.162856
De Gol,12,,,9356CN,Tolbert,Leek,Groningen,VBO,6.365510,53.162766
De Gol,14,,,9356CN,Tolbert,Leek,Groningen,VBO,6.365524,53.162712
Het Gebient,1,,,9356CP,Tolbert,Leek,Groningen,VBO,6.363927,53.162878
Het Gebient,2,,,9356CP,Tolbert,Leek,Groningen,VBO,6.364158,53.163154
Het Gebient,3,,,9356CP,Tolbert,Leek,Groningen,VBO,6.363941,53.162833
Het Gebient,4,,,9356CP,Tolbert,Leek,Groningen,VBO,6.364400,53.162722
Het Gebient,5,,,9356CP,Tolbert,Leek,Groningen,VBO,6.363984,53.162716
Het Gebient,6,,,9356CP,Tolbert,Leek,Groningen,VBO,6.364564,53.162603
Het Gebient,7,,,9356CP,Tolbert,Leek,Groningen,VBO,6.364012,53.162643
Het Gebient,8,,,9356CP,Tolbert,Leek,Groningen,VBO,6.364650,53.162423
Het Gebient,9,,,9356CP,Tolbert,Leek,Groningen,VBO,6.364163,53.162521
Het Gebient,10,,,9356CP,Tolbert,Leek,Groningen,VBO,6.365414,53.162497
Het Gebient,11,,,9356CP,Tolbert,Leek,Groningen,VBO,6.364182,53.162474
Het Gebient,12,,,9356CP,Tolbert,Leek,Groningen,VBO,6.365563,53.162469
Het Gebient,13,,,9356CP,Tolbert,Leek,Groningen,VBO,6.364140,53.162346
Het Gebient,14,,,9356CP,Tolbert,Leek,Groningen,VBO,6.365667,53.162432
Het Gebient,15,,,9356CP,Tolbert,Leek,Groningen,VBO,6.364153,53.162292
Het Gebient,16,,,9356CP,Tolbert,Leek,Groningen,VBO,6.365756,53.162414
Het Gebient,17,,,9356CP,Tolbert,Leek,Groningen,VBO,6.364659,53.162180
Het Gebient,19,,,9356CP,Tolbert,Leek,Groningen,VBO,6.365027,53.162269
Het Gebient,21,,,9356CP,Tolbert,Leek,Groningen,VBO,6.365303,53.162229
Het Gebient,23,,,9356CP,Tolbert,Leek,Groningen,VBO,6.365646,53.162163
Vijf Akkers,9,,,9356CR,Tolbert,Leek,Groningen,VBO,6.362269,53.164497
Vijf Akkers,11,,,9356CR,Tolbert,Leek,Groningen,VBO,6.362288,53.164450
Vijf Akkers,13,,,9356CR,Tolbert,Leek,Groningen,VBO,6.362315,53.164347
Vijf Akkers,15,,,9356CR,Tolbert,Leek,Groningen,VBO,6.362336,53.164298
Vijf Akkers,17,,,9356CR,Tolbert,Leek,Groningen,VBO,6.362382,53.164199
Vijf Akkers,19,,,9356CR,Tolbert,Leek,Groningen,VBO,6.362405,53.164150
Vijf Akkers,21,,,9356CR,Tolbert,Leek,Groningen,VBO,6.362437,53.164046
Vijf Akkers,23,,,9356CR,Tolbert,Leek,Groningen,VBO,6.362457,53.164000
Vijf Akkers,25,,,9356CR,Tolbert,Leek,Groningen,VBO,6.362516,53.163869
Vijf Akkers,27,,,9356CR,Tolbert,Leek,Groningen,VBO,6.362538,53.163820
Vijf Akkers,29,,,9356CR,Tolbert,Leek,Groningen,VBO,6.362579,53.163715
Vijf Akkers,31,,,9356CR,Tolbert,Leek,Groningen,VBO,6.362599,53.163669
Vijf Akkers,33,,,9356CR,Tolbert,Leek,Groningen,VBO,6.362635,53.163572
Vijf Akkers,35,,,9356CR,Tolbert,Leek,Groningen,VBO,6.362656,53.163521
Vijf Akkers,37,,,9356CR,Tolbert,Leek,Groningen,VBO,6.362694,53.163421
Vijf Akkers,39,,,9356CR,Tolbert,Leek,Groningen,VBO,6.362720,53.163370
Vijf Akkers,41,,,9356CR,Tolbert,Leek,Groningen,VBO,6.362734,53.164450
Vijf Akkers,43,,,9356CR,Tolbert,Leek,Groningen,VBO,6.362752,53.164404
Vijf Akkers,45,,,9356CR,Tolbert,Leek,Groningen,VBO,6.362822,53.164308
Vijf Akkers,47,,,9356CR,Tolbert,Leek,Groningen,VBO,6.362843,53.164260
Vijf Akkers,49,,,9356CR,Tolbert,Leek,Groningen,VBO,6.362897,53.164160
Vijf Akkers,51,,,9356CR,Tolbert,Leek,Groningen,VBO,6.362918,53.164113
Vijf Akkers,53,,,9356CR,Tolbert,Leek,Groningen,VBO,6.363080,53.163993
Vijf Akkers,55,,,9356CR,Tolbert,Leek,Groningen,VBO,6.363104,53.163945
Vijf Akkers,57,,,9356CR,Tolbert,Leek,Groningen,VBO,6.363140,53.163845
Vijf Akkers,59,,,9356CR,Tolbert,Leek,Groningen,VBO,6.363168,53.163796
Vijf Akkers,61,,,9356CR,Tolbert,Leek,Groningen,VBO,6.363206,53.163693
Vijf Akkers,63,,,9356CR,Tolbert,Leek,Groningen,VBO,6.363226,53.163645
Vijf Akkers,121,,,9356CS,Tolbert,Leek,Groningen,VBO,6.363641,53.163441
Vijf Akkers,123,,,9356CS,Tolbert,Leek,Groningen,VBO,6.363746,53.163456
Vijf Akkers,125,,,9356CS,Tolbert,Leek,Groningen,VBO,6.363839,53.163496
Vijf Akkers,127,,,9356CS,Tolbert,Leek,Groningen,VBO,6.363948,53.163512
Vijf Akkers,129,,,9356CS,Tolbert,Leek,Groningen,VBO,6.364052,53.163527
Vijf Akkers,131,,,9356CS,Tolbert,Leek,Groningen,VBO,6.363920,53.163619
Vijf Akkers,133,,,9356CS,Tolbert,Leek,Groningen,VBO,6.363891,53.163688
Vijf Akkers,135,,,9356CS,Tolbert,Leek,Groningen,VBO,6.363864,53.163759
Vijf Akkers,137,,,9356CS,Tolbert,Leek,Groningen,VBO,6.363835,53.163828
Vijf Akkers,139,,,9356CS,Tolbert,Leek,Groningen,VBO,6.363934,53.163855
Vijf Akkers,141,,,9356CS,Tolbert,Leek,Groningen,VBO,6.363949,53.163820
Vijf Akkers,143,,,9356CS,Tolbert,Leek,Groningen,VBO,6.363961,53.163785
Vijf Akkers,145,,,9356CS,Tolbert,Leek,Groningen,VBO,6.363975,53.163750
Vijf Akkers,147,,,9356CS,Tolbert,Leek,Groningen,VBO,6.363989,53.163716
Vijf Akkers,149,,,9356CS,Tolbert,Leek,Groningen,VBO,6.364002,53.163680
Vijf Akkers,151,,,9356CS,Tolbert,Leek,Groningen,VBO,6.364015,53.163647
Vijf Akkers,153,,,9356CS,Tolbert,Leek,Groningen,VBO,6.364028,53.163612
Vijf Akkers,155,,,9356CS,Tolbert,Leek,Groningen,VBO,6.363931,53.163930
Vijf Akkers,157,,,9356CS,Tolbert,Leek,Groningen,VBO,6.363919,53.163964
Vijf Akkers,159,,,9356CS,Tolbert,Leek,Groningen,VBO,6.363907,53.164000
Vijf Akkers,161,,,9356CS,Tolbert,Leek,Groningen,VBO,6.363892,53.164035
Vijf Akkers,163,,,9356CS,Tolbert,Leek,Groningen,VBO,6.363880,53.164071
Vijf Akkers,165,,,9356CS,Tolbert,Leek,Groningen,VBO,6.363866,53.164105
Vijf Akkers,167,,,9356CS,Tolbert,Leek,Groningen,VBO,6.363410,53.164020
Vijf Akkers,169,,,9356CS,Tolbert,Leek,Groningen,VBO,6.363514,53.164035
Vijf Akkers,171,,,9356CS,Tolbert,Leek,Groningen,VBO,6.363620,53.164050
Vijf Akkers,173,,,9356CS,Tolbert,Leek,Groningen,VBO,6.363776,53.164073
de Swing,2,e,,9356CT,Tolbert,Leek,Groningen,VBO,6.364981,53.161959
de Swing,2,,,9356CT,Tolbert,Leek,Groningen,VBO,6.365279,53.161159
de Swing,4,,,9356CT,Tolbert,Leek,Groningen,VBO,6.365219,53.161151
de Swing,6,,,9356CT,Tolbert,Leek,Groningen,VBO,6.365129,53.161116
de Swing,8,,,9356CT,Tolbert,Leek,Groningen,VBO,6.365099,53.161116
de Swing,10,,,9356CT,Tolbert,Leek,Groningen,VBO,6.365054,53.161125
de Swing,12,,,9356CT,Tolbert,Leek,Groningen,VBO,6.364995,53.161153
de Swing,14,,,9356CT,Tolbert,Leek,Groningen,VBO,6.364966,53.161180
de Swing,16,,,9356CT,Tolbert,Leek,Groningen,VBO,6.364951,53.161207
de Swing,18,,,9356CT,Tolbert,Leek,Groningen,VBO,6.365041,53.161188
de Swing,20,,,9356CT,Tolbert,Leek,Groningen,VBO,6.365115,53.161161
de Swing,22,,,9356CT,Tolbert,Leek,Groningen,VBO,6.365190,53.161169
de Swing,24,,,9356CT,Tolbert,Leek,Groningen,VBO,6.365161,53.161205
de Swing,26,,,9356CT,Tolbert,Leek,Groningen,VBO,6.365116,53.161233
de Swing,28,,,9356CT,Tolbert,Leek,Groningen,VBO,6.365072,53.161251
de Swing,30,,,9356CT,Tolbert,Leek,Groningen,VBO,6.365043,53.161287
de Swing,32,,,9356CT,Tolbert,Leek,Groningen,VBO,6.365013,53.161269
de Swing,34,,,9356CT,Tolbert,Leek,Groningen,VBO,6.364938,53.161261
de Swing,36,,,9356CT,Tolbert,Leek,Groningen,VBO,6.364908,53.161288
de Swing,38,,,9356CT,Tolbert,Leek,Groningen,VBO,6.364968,53.161306
de Swing,40,,,9356CT,Tolbert,Leek,Groningen,VBO,6.365029,53.161323
de Swing,42,,,9356CT,Tolbert,Leek,Groningen,VBO,6.364969,53.161342
de Swing,44,,,9356CT,Tolbert,Leek,Groningen,VBO,6.364924,53.161324
de Swing,46,,,9356CT,Tolbert,Leek,Groningen,VBO,6.364865,53.161342
de Swing,48,,,9356CT,Tolbert,Leek,Groningen,VBO,6.364910,53.161369
de Swing,50,,,9356CT,Tolbert,Leek,Groningen,VBO,6.364985,53.161386
de Swing,52,,,9356CT,Tolbert,Leek,Groningen,VBO,6.364941,53.161396
de Swing,54,,,9356CV,Tolbert,Leek,Groningen,VBO,6.365324,53.161150
de Swing,56,,,9356CV,Tolbert,Leek,Groningen,VBO,6.365309,53.161141
de Swing,58,,,9356CV,Tolbert,Leek,Groningen,VBO,6.365249,53.161133
de Swing,60,,,9356CV,Tolbert,Leek,Groningen,VBO,6.365159,53.161124
de Swing,62,,,9356CV,Tolbert,Leek,Groningen,VBO,6.365114,53.161125
de Swing,64,,,9356CV,Tolbert,Leek,Groningen,VBO,6.365069,53.161134
de Swing,66,,,9356CV,Tolbert,Leek,Groningen,VBO,6.365010,53.161153
de Swing,68,,,9356CV,Tolbert,Leek,Groningen,VBO,6.364950,53.161153
de Swing,70,,,9356CV,Tolbert,Leek,Groningen,VBO,6.364981,53.161180
de Swing,72,,,9356CV,Tolbert,Leek,Groningen,VBO,6.365055,53.161179
de Swing,74,,,9356CV,Tolbert,Leek,Groningen,VBO,6.365130,53.161161
de Swing,76,,,9356CV,Tolbert,Leek,Groningen,VBO,6.365204,53.161160
de Swing,78,,,9356CV,Tolbert,Leek,Groningen,VBO,6.365160,53.161187
de Swing,80,,,9356CV,Tolbert,Leek,Groningen,VBO,6.365116,53.161215
de Swing,82,,,9356CV,Tolbert,Leek,Groningen,VBO,6.365072,53.161251
de Swing,84,,,9356CV,Tolbert,Leek,Groningen,VBO,6.365012,53.161233
de Swing,86,,,9356CV,Tolbert,Leek,Groningen,VBO,6.364967,53.161225
de Swing,88,,,9356CV,Tolbert,Leek,Groningen,VBO,6.364937,53.161252
de Swing,90,,,9356CV,Tolbert,Leek,Groningen,VBO,6.364983,53.161270
de Swing,92,,,9356CV,Tolbert,Leek,Groningen,VBO,6.365028,53.161314
de Swing,94,,,9356CV,Tolbert,Leek,Groningen,VBO,6.364954,53.161306
de Swing,96,,,9356CV,Tolbert,Leek,Groningen,VBO,6.364923,53.161288
de Swing,98,,,9356CV,Tolbert,Leek,Groningen,VBO,6.364894,53.161315
de Swing,100,,,9356CV,Tolbert,Leek,Groningen,VBO,6.364939,53.161333
de Swing,102,,,9356CW,Tolbert,Leek,Groningen,VBO,6.365278,53.161123
de Swing,104,,,9356CW,Tolbert,Leek,Groningen,VBO,6.365189,53.161133
de Swing,106,,,9356CW,Tolbert,Leek,Groningen,VBO,6.365114,53.161116
de Swing,108,,,9356CW,Tolbert,Leek,Groningen,VBO,6.365054,53.161134
de Swing,110,,,9356CW,Tolbert,Leek,Groningen,VBO,6.364980,53.161144
de Swing,112,,,9356CW,Tolbert,Leek,Groningen,VBO,6.365040,53.161170
de Swing,114,,,9356CW,Tolbert,Leek,Groningen,VBO,6.365115,53.161170
de Swing,116,,,9356CW,Tolbert,Leek,Groningen,VBO,6.365131,53.161214
de Swing,118,,,9356CW,Tolbert,Leek,Groningen,VBO,6.365101,53.161233
de Swing,120,,,9356CW,Tolbert,Leek,Groningen,VBO,6.364996,53.161207
de Swing,122,,,9356CW,Tolbert,Leek,Groningen,VBO,6.365012,53.161242
de Swing,124,,,9356CW,Tolbert,Leek,Groningen,VBO,6.365028,53.161278
de Swing,128,,,9356CW,Tolbert,Leek,Groningen,VBO,6.365338,53.161770
de Swing,130,,,9356CW,Tolbert,Leek,Groningen,VBO,6.365443,53.161778
de Swing,132,,,9356CW,Tolbert,Leek,Groningen,VBO,6.365682,53.161794
de Swing,134,,,9356CW,Tolbert,Leek,Groningen,VBO,6.365787,53.161802
de Swing,1,,,9356CX,Tolbert,Leek,Groningen,VBO,6.366282,53.161879
de Swing,3,,,9356CX,Tolbert,Leek,Groningen,VBO,6.366372,53.161738
de Swing,5,,,9356CX,Tolbert,Leek,Groningen,VBO,6.366138,53.161440
de Swing,7,,,9356CX,Tolbert,Leek,Groningen,VBO,6.366183,53.161449
de Swing,9,,,9356CX,Tolbert,Leek,Groningen,VBO,6.366258,53.161457
de Swing,11,,,9356CX,Tolbert,Leek,Groningen,VBO,6.366318,53.161465
de Swing,13,,,9356CX,Tolbert,Leek,Groningen,VBO,6.366378,53.161474
de Swing,15,,,9356CX,Tolbert,Leek,Groningen,VBO,6.366438,53.161491
de Swing,17,,,9356CX,Tolbert,Leek,Groningen,VBO,6.366482,53.161464
de Swing,19,,,9356CX,Tolbert,Leek,Groningen,VBO,6.366422,53.161456
de Swing,21,,,9356CX,Tolbert,Leek,Groningen,VBO,6.366347,53.161447
de Swing,23,,,9356CX,Tolbert,Leek,Groningen,VBO,6.366287,53.161439
de Swing,25,,,9356CX,Tolbert,Leek,Groningen,VBO,6.365683,53.161183
de Swing,27,,,9356CX,Tolbert,Leek,Groningen,VBO,6.365743,53.161183
de Swing,29,,,9356CX,Tolbert,Leek,Groningen,VBO,6.365788,53.161191
de Swing,31,,,9356CX,Tolbert,Leek,Groningen,VBO,6.365848,53.161200
de Swing,33,,,9356CX,Tolbert,Leek,Groningen,VBO,6.365893,53.161208
de Swing,35,,,9356CX,Tolbert,Leek,Groningen,VBO,6.365938,53.161217
de Swing,37,,,9356CX,Tolbert,Leek,Groningen,VBO,6.365983,53.161225
de Swing,39,,,9356CX,Tolbert,Leek,Groningen,VBO,6.365998,53.161207
de Swing,41,,,9356CX,Tolbert,Leek,Groningen,VBO,6.365968,53.161199
de Swing,43,,,9356CX,Tolbert,Leek,Groningen,VBO,6.365923,53.161190
Beelen,3,,,9356CZ,Tolbert,Leek,Groningen,VBO,6.364805,53.166148
Beelen,7,,,9356CZ,Tolbert,Leek,Groningen,VBO,6.362557,53.165756
Waterman,2,,,9356DA,Tolbert,Leek,Groningen,VBO,6.359659,53.160585
Waterman,4,,,9356DA,Tolbert,Leek,Groningen,VBO,6.359632,53.160771
Waterman,6,,,9356DA,Tolbert,Leek,Groningen,VBO,6.359124,53.160724
Waterman,8,,,9356DA,Tolbert,Leek,Groningen,VBO,6.358854,53.160690
Waterman,10,,,9356DA,Tolbert,Leek,Groningen,VBO,6.358457,53.161628
Waterman,12,,,9356DA,Tolbert,Leek,Groningen,VBO,6.358776,53.161567
Waterman,14,,,9356DA,Tolbert,Leek,Groningen,VBO,6.358855,53.161579
Waterman,16,,,9356DA,Tolbert,Leek,Groningen,VBO,6.359010,53.161642
Waterman,18,,,9356DA,Tolbert,Leek,Groningen,VBO,6.359133,53.161615
Waterman,20,,,9356DA,Tolbert,Leek,Groningen,VBO,6.359295,53.161684
Waterman,22,,,9356DA,Tolbert,Leek,Groningen,VBO,6.359385,53.161702
Waterman,1,,,9356DB,Tolbert,Leek,Groningen,VBO,6.359386,53.161055
Waterman,3,,,9356DB,Tolbert,Leek,Groningen,VBO,6.359281,53.161037
Waterman,5,,,9356DB,Tolbert,Leek,Groningen,VBO,6.359026,53.161004
Waterman,7,,,9356DB,Tolbert,Leek,Groningen,VBO,6.358940,53.161193
Waterman,9,,,9356DB,Tolbert,Leek,Groningen,VBO,6.358838,53.161311
Waterman,11,,,9356DB,Tolbert,Leek,Groningen,VBO,6.359154,53.161371
Waterman,13,,,9356DB,Tolbert,Leek,Groningen,VBO,6.359244,53.161379
Waterman,15,,,9356DB,Tolbert,Leek,Groningen,VBO,6.359469,53.161422
Waterman,17,,,9356DB,Tolbert,Leek,Groningen,VBO,6.359544,53.161431
Bolster,2,,,9356DC,Tolbert,Leek,Groningen,VBO,6.360397,53.160775
Bolster,4,,,9356DC,Tolbert,Leek,Groningen,VBO,6.360374,53.160826
Bolster,6,,,9356DC,Tolbert,Leek,Groningen,VBO,6.360235,53.160940
Bolster,8,,,9356DC,Tolbert,Leek,Groningen,VBO,6.360221,53.160976
Bolster,10,,,9356DC,Tolbert,Leek,Groningen,VBO,6.360295,53.161104
Bolster,12,,,9356DC,Tolbert,Leek,Groningen,VBO,6.360141,53.161146
Bolster,14,,,9356DC,Tolbert,Leek,Groningen,VBO,6.360165,53.161256
Bolster,16,,,9356DC,Tolbert,Leek,Groningen,VBO,6.360146,53.161305
Bolster,18,,,9356DC,Tolbert,Leek,Groningen,VBO,6.359963,53.161436
Bolster,20,,,9356DC,Tolbert,Leek,Groningen,VBO,6.359903,53.161464
Bolster,1,,,9356DD,Tolbert,Leek,Groningen,VBO,6.360228,53.160429
Bolster,3,,,9356DD,Tolbert,Leek,Groningen,VBO,6.360344,53.160445
Bolster,5,,,9356DD,Tolbert,Leek,Groningen,VBO,6.360539,53.160470
Bolster,7,,,9356DD,Tolbert,Leek,Groningen,VBO,6.360614,53.160487
Bolster,9,,,9356DD,Tolbert,Leek,Groningen,VBO,6.360915,53.160593
Bolster,11,,,9356DD,Tolbert,Leek,Groningen,VBO,6.360976,53.160628
Bolster,13,,,9356DD,Tolbert,Leek,Groningen,VBO,6.361113,53.160717
Bolster,15,,,9356DD,Tolbert,Leek,Groningen,VBO,6.361158,53.160762
Bolster,17,,,9356DD,Tolbert,Leek,Groningen,VBO,6.361105,53.161041
Bolster,19,,,9356DD,Tolbert,Leek,Groningen,VBO,6.360912,53.161123
Bolster,21,,,9356DD,Tolbert,Leek,Groningen,VBO,6.360735,53.161196
Klink,6,,,9356DE,Tolbert,Leek,Groningen,VBO,6.360973,53.158481
Klink,8,,,9356DE,Tolbert,Leek,Groningen,VBO,6.360823,53.158455
Klink,10,,,9356DE,Tolbert,Leek,Groningen,VBO,6.360538,53.158421
Klink,12,,,9356DE,Tolbert,Leek,Groningen,VBO,6.360237,53.158361
Klink,14,,,9356DE,Tolbert,Leek,Groningen,VBO,6.359792,53.158517
Klink,16,,,9356DE,Tolbert,Leek,Groningen,VBO,6.359717,53.158692
Klink,18,,,9356DE,Tolbert,Leek,Groningen,VBO,6.359502,53.158888
Klink,20,,,9356DE,Tolbert,Leek,Groningen,VBO,6.359506,53.159077
Klink,22,,,9356DE,Tolbert,Leek,Groningen,VBO,6.359450,53.159266
Klink,24,,,9356DE,Tolbert,Leek,Groningen,VBO,6.359289,53.159429
Klink,26,,,9356DE,Tolbert,Leek,Groningen,VBO,6.359192,53.159726
Klink,28,,,9356DE,Tolbert,Leek,Groningen,VBO,6.359462,53.159787
Klink,1,,,9356DG,Tolbert,Leek,Groningen,VBO,6.360590,53.158744
Klink,3,,,9356DG,Tolbert,Leek,Groningen,VBO,6.360529,53.158718
Klink,5,,,9356DG,Tolbert,Leek,Groningen,VBO,6.360275,53.158693
Klink,7,,,9356DG,Tolbert,Leek,Groningen,VBO,6.360214,53.158666
Klink,9,,,9356DG,Tolbert,Leek,Groningen,VBO,6.360084,53.158874
Klink,11,,,9356DG,Tolbert,Leek,Groningen,VBO,6.360026,53.158929
Klink,13,,,9356DG,Tolbert,Leek,Groningen,VBO,6.359999,53.159055
Klink,15,,,9356DG,Tolbert,Leek,Groningen,VBO,6.359955,53.159100
Klink,17,,,9356DG,Tolbert,Leek,Groningen,VBO,6.359740,53.159524
Klink,19,,,9356DG,Tolbert,Leek,Groningen,VBO,6.359800,53.159601
Klink,21,,,9356DG,Tolbert,Leek,Groningen,VBO,6.360130,53.159593
Klink,23,,,9356DG,Tolbert,Leek,Groningen,VBO,6.360220,53.159592
Veenderij,18,e,,9356DH,Tolbert,Leek,Groningen,VBO,6.361839,53.158000
Veenderij,18,,,9356DH,Tolbert,Leek,Groningen,VBO,6.362452,53.157795
Veenderij,20,,,9356DH,Tolbert,Leek,Groningen,VBO,6.362407,53.157777
Veenderij,24,,,9356DH,Tolbert,Leek,Groningen,VBO,6.362421,53.157732
Veenderij,28,,,9356DH,Tolbert,Leek,Groningen,VBO,6.362211,53.157725
Veenderij,30,,,9356DH,Tolbert,Leek,Groningen,VBO,6.362198,53.157779
Veenderij,32,,,9356DH,Tolbert,Leek,Groningen,VBO,6.362154,53.157851
Veenderij,34,,,9356DH,Tolbert,Leek,Groningen,VBO,6.362126,53.157914
Veenderij,36,,,9356DH,Tolbert,Leek,Groningen,VBO,6.362211,53.157716
Veenderij,38,,,9356DH,Tolbert,Leek,Groningen,VBO,6.362212,53.157734
Veenderij,40,,,9356DH,Tolbert,Leek,Groningen,VBO,6.362198,53.157770
Veenderij,42,,,9356DH,Tolbert,Leek,Groningen,VBO,6.362212,53.157770
Veenderij,44,,,9356DH,Tolbert,Leek,Groningen,VBO,6.362155,53.157869
Veenderij,46,,,9356DH,Tolbert,Leek,Groningen,VBO,6.362155,53.157860
Veenderij,48,,,9356DH,Tolbert,Leek,Groningen,VBO,6.362126,53.157923
Veenderij,50,,,9356DH,Tolbert,Leek,Groningen,VBO,6.362126,53.157932
Veenderij,1,,,9356DJ,Tolbert,Leek,Groningen,VBO,6.363195,53.158256
Veenderij,3,,,9356DJ,Tolbert,Leek,Groningen,VBO,6.362670,53.158152
Veenderij,5,,,9356DJ,Tolbert,Leek,Groningen,VBO,6.362656,53.158206
Veenderij,7,,,9356DJ,Tolbert,Leek,Groningen,VBO,6.362628,53.158305
Veenderij,9,,,9356DJ,Tolbert,Leek,Groningen,VBO,6.362570,53.158378
Veenderij,11,,,9356DJ,Tolbert,Leek,Groningen,VBO,6.362543,53.158486
Veenderij,13,,,9356DJ,Tolbert,Leek,Groningen,VBO,6.362500,53.158567
Veenderij,15,,,9356DJ,Tolbert,Leek,Groningen,VBO,6.362158,53.158687
Veenderij,17,,,9356DJ,Tolbert,Leek,Groningen,VBO,6.362084,53.158714
Veenderij,19,,,9356DJ,Tolbert,Leek,Groningen,VBO,6.361951,53.158787
Veenderij,21,,,9356DJ,Tolbert,Leek,Groningen,VBO,6.361833,53.158824
Veenderij,23,,,9356DJ,Tolbert,Leek,Groningen,VBO,6.361654,53.158879
Veenderij,25,,,9356DJ,Tolbert,Leek,Groningen,VBO,6.361548,53.158852
Veenderij,27,,,9356DJ,Tolbert,Leek,Groningen,VBO,6.361193,53.158964
Veenderij,29,,,9356DJ,Tolbert,Leek,Groningen,VBO,6.361164,53.159009
Veenderij,31,,,9356DJ,Tolbert,Leek,Groningen,VBO,6.361076,53.159091
Veenderij,33,,,9356DJ,Tolbert,Leek,Groningen,VBO,6.361063,53.159154
Veenderij,35,,,9356DJ,Tolbert,Leek,Groningen,VBO,6.361005,53.159235
Veenderij,37,,,9356DJ,Tolbert,Leek,Groningen,VBO,6.360976,53.159289
Veenderij,39,,,9356DJ,Tolbert,Leek,Groningen,VBO,6.360948,53.159388
Veenderij,41,,,9356DJ,Tolbert,Leek,Groningen,VBO,6.360934,53.159442
Veenderij,43,,,9356DJ,Tolbert,Leek,Groningen,VBO,6.361026,53.159540
Veenderij,45,,,9356DJ,Tolbert,Leek,Groningen,VBO,6.360983,53.159613
Veenderij,47,,,9356DJ,Tolbert,Leek,Groningen,VBO,6.360811,53.159947
Veenderij,49,,,9356DJ,Tolbert,Leek,Groningen,VBO,6.360736,53.159947
Veenderij,51,,,9356DJ,Tolbert,Leek,Groningen,VBO,6.360542,53.159922
Veenderij,53,,,9356DJ,Tolbert,Leek,Groningen,VBO,6.360437,53.159932
Veenderij,52,,,9356DK,Tolbert,Leek,Groningen,VBO,6.361363,53.158576
Veenderij,54,,,9356DK,Tolbert,Leek,Groningen,VBO,6.361258,53.158559
Veenderij,56,,,9356DK,Tolbert,Leek,Groningen,VBO,6.360504,53.158925
Veenderij,58,,,9356DK,Tolbert,Leek,Groningen,VBO,6.360475,53.158970
Veenderij,60,,,9356DK,Tolbert,Leek,Groningen,VBO,6.360447,53.159051
Veenderij,62,,,9356DK,Tolbert,Leek,Groningen,VBO,6.360419,53.159123
Veenderij,64,,,9356DK,Tolbert,Leek,Groningen,VBO,6.360376,53.159204
Veenderij,66,,,9356DK,Tolbert,Leek,Groningen,VBO,6.360363,53.159285
Veenderij,68,,,9356DK,Tolbert,Leek,Groningen,VBO,6.360320,53.159358
Veenderij,70,,,9356DK,Tolbert,Leek,Groningen,VBO,6.360277,53.159448
Veenderij,72,,,9356DK,Tolbert,Leek,Groningen,VBO,6.359854,53.159954
het Koetshuis,1,,1,9356DL,Tolbert,Leek,Groningen,VBO,6.360606,53.163171
het Koetshuis,1,,10,9356DL,Tolbert,Leek,Groningen,VBO,6.360110,53.163196
het Koetshuis,1,,11,9356DL,Tolbert,Leek,Groningen,VBO,6.360146,53.163105
het Koetshuis,1,,12,9356DL,Tolbert,Leek,Groningen,VBO,6.360231,53.163117
het Koetshuis,1,,13,9356DL,Tolbert,Leek,Groningen,VBO,6.360618,53.163142
het Koetshuis,1,,14,9356DL,Tolbert,Leek,Groningen,VBO,6.360713,53.163156
het Koetshuis,1,,15,9356DL,Tolbert,Leek,Groningen,VBO,6.360653,53.163306
het Koetshuis,1,,16,9356DL,Tolbert,Leek,Groningen,VBO,6.360557,53.163292
het Koetshuis,1,,17,9356DL,Tolbert,Leek,Groningen,VBO,6.360513,53.163400
het Koetshuis,1,,18,9356DL,Tolbert,Leek,Groningen,VBO,6.360347,53.163376
het Koetshuis,1,,19,9356DL,Tolbert,Leek,Groningen,VBO,6.360142,53.163349
het Koetshuis,1,,2,9356DL,Tolbert,Leek,Groningen,VBO,6.360701,53.163185
het Koetshuis,1,,20,9356DL,Tolbert,Leek,Groningen,VBO,6.360161,53.163300
het Koetshuis,1,,21,9356DL,Tolbert,Leek,Groningen,VBO,6.360185,53.163239
het Koetshuis,1,,22,9356DL,Tolbert,Leek,Groningen,VBO,6.360097,53.163227
het Koetshuis,1,,23,9356DL,Tolbert,Leek,Groningen,VBO,6.360158,53.163075
het Koetshuis,1,,24,9356DL,Tolbert,Leek,Groningen,VBO,6.360244,53.163087
het Koetshuis,1,,3,9356DL,Tolbert,Leek,Groningen,VBO,6.360664,53.163276
het Koetshuis,1,,4,9356DL,Tolbert,Leek,Groningen,VBO,6.360569,53.163263
het Koetshuis,1,,5,9356DL,Tolbert,Leek,Groningen,VBO,6.360450,53.163391
het Koetshuis,1,,6,9356DL,Tolbert,Leek,Groningen,VBO,6.360388,53.163382
het Koetshuis,1,,7,9356DL,Tolbert,Leek,Groningen,VBO,6.360185,53.163353
het Koetshuis,1,,8,9356DL,Tolbert,Leek,Groningen,VBO,6.360202,53.163305
het Koetshuis,1,,9,9356DL,Tolbert,Leek,Groningen,VBO,6.360197,53.163209
het Koetshuis,1,,,9356DL,Tolbert,Leek,Groningen,VBO,6.360282,53.163298
De Hooizolder,1,,,9356DN,Tolbert,Leek,Groningen,VBO,6.365693,53.160001
De Hooizolder,3,,,9356DN,Tolbert,Leek,Groningen,VBO,6.365615,53.159990
De Hooizolder,5,,,9356DN,Tolbert,Leek,Groningen,VBO,6.365535,53.159979
De Hooizolder,7,,,9356DN,Tolbert,Leek,Groningen,VBO,6.365454,53.159968
De Hooizolder,9,,,9356DN,Tolbert,Leek,Groningen,VBO,6.365377,53.159957
De Hooizolder,11,,,9356DN,Tolbert,Leek,Groningen,VBO,6.365297,53.159945
De Hooizolder,13,,,9356DN,Tolbert,Leek,Groningen,VBO,6.365217,53.159934
De Hooizolder,15,,,9356DN,Tolbert,Leek,Groningen,VBO,6.365136,53.159923
De Hooizolder,21,a,,9356DN,Tolbert,Leek,Groningen,VBO,6.364727,53.159910
De Hooizolder,21,b,,9356DN,Tolbert,Leek,Groningen,VBO,6.364707,53.159960
De Hooizolder,21,c,,9356DN,Tolbert,Leek,Groningen,VBO,6.364687,53.160009
De Hooizolder,21,d,,9356DN,Tolbert,Leek,Groningen,VBO,6.364668,53.160059
De Hooizolder,21,e,,9356DN,Tolbert,Leek,Groningen,VBO,6.364502,53.159983
De Hooizolder,21,f,,9356DN,Tolbert,Leek,Groningen,VBO,6.364521,53.159933
De Hooizolder,21,,,9356DN,Tolbert,Leek,Groningen,VBO,6.364604,53.159971
De Hooizolder,23,a,,9356DN,Tolbert,Leek,Groningen,VBO,6.364298,53.159920
De Hooizolder,23,b,,9356DN,Tolbert,Leek,Groningen,VBO,6.364215,53.159909
De Hooizolder,23,c,,9356DN,Tolbert,Leek,Groningen,VBO,6.364132,53.159897
De Hooizolder,23,d,,9356DN,Tolbert,Leek,Groningen,VBO,6.364049,53.159885
De Hooizolder,23,e,,9356DN,Tolbert,Leek,Groningen,VBO,6.364259,53.159797
De Hooizolder,23,f,,9356DN,Tolbert,Leek,Groningen,VBO,6.364342,53.159809
De Hooizolder,23,,,9356DN,Tolbert,Leek,Groningen,VBO,6.364195,53.159847
De Hanenbalk,17,a,,9356DP,Tolbert,Leek,Groningen,VBO,6.365374,53.160506
De Hanenbalk,17,b,,9356DP,Tolbert,Leek,Groningen,VBO,6.365331,53.160617
De Hanenbalk,17,c,,9356DP,Tolbert,Leek,Groningen,VBO,6.365233,53.160604
De Hanenbalk,17,d,,9356DP,Tolbert,Leek,Groningen,VBO,6.365135,53.160590
De Hanenbalk,17,e,,9356DP,Tolbert,Leek,Groningen,VBO,6.365036,53.160576
De Hanenbalk,17,,,9356DP,Tolbert,Leek,Groningen,VBO,6.365276,53.160492
De Hanenbalk,19,a,,9356DP,Tolbert,Leek,Groningen,VBO,6.364799,53.160533
De Hanenbalk,19,b,,9356DP,Tolbert,Leek,Groningen,VBO,6.364716,53.160521
De Hanenbalk,19,c,,9356DP,Tolbert,Leek,Groningen,VBO,6.364633,53.160509
De Hanenbalk,19,d,,9356DP,Tolbert,Leek,Groningen,VBO,6.364550,53.160498
De Hanenbalk,19,e,,9356DP,Tolbert,Leek,Groningen,VBO,6.364760,53.160410
De Hanenbalk,19,f,,9356DP,Tolbert,Leek,Groningen,VBO,6.364843,53.160422
De Hanenbalk,19,,,9356DP,Tolbert,Leek,Groningen,VBO,6.364697,53.160460
De Hooizolder,62,a,,9356DR,Tolbert,Leek,Groningen,VBO,6.361724,53.159388
De Hooizolder,62,b,,9356DR,Tolbert,Leek,Groningen,VBO,6.361693,53.159493
De Hooizolder,62,c,,9356DR,Tolbert,Leek,Groningen,VBO,6.361606,53.159509
De Hooizolder,62,d,,9356DR,Tolbert,Leek,Groningen,VBO,6.361541,53.159422
De Hooizolder,62,e,,9356DR,Tolbert,Leek,Groningen,VBO,6.361516,53.159371
De Hooizolder,62,f,,9356DR,Tolbert,Leek,Groningen,VBO,6.361488,53.159320
De Hooizolder,62,g,,9356DR,Tolbert,Leek,Groningen,VBO,6.361884,53.159206
De Hooizolder,62,h,,9356DR,Tolbert,Leek,Groningen,VBO,6.362021,53.159221
De Hooizolder,62,j,,9356DR,Tolbert,Leek,Groningen,VBO,6.362048,53.159272
De Hooizolder,62,k,,9356DR,Tolbert,Leek,Groningen,VBO,6.362078,53.159366
De Hooizolder,62,l,,9356DR,Tolbert,Leek,Groningen,VBO,6.361992,53.159382
De Hooizolder,62,m,,9356DR,Tolbert,Leek,Groningen,VBO,6.361865,53.159307
De Hooizolder,62,n,,9356DR,Tolbert,Leek,Groningen,VBO,6.361658,53.159344
De Hooizolder,62,p,,9356DR,Tolbert,Leek,Groningen,VBO,6.361685,53.159395
De Hooizolder,62,q,,9356DR,Tolbert,Leek,Groningen,VBO,6.361680,53.159469
De Hooizolder,62,r,,9356DR,Tolbert,Leek,Groningen,VBO,6.361594,53.159485
De Hooizolder,62,s,,9356DR,Tolbert,Leek,Groningen,VBO,6.361581,53.159415
De Hooizolder,62,t,,9356DR,Tolbert,Leek,Groningen,VBO,6.361554,53.159364
De Hooizolder,62,u,,9356DR,Tolbert,Leek,Groningen,VBO,6.361896,53.159230
De Hooizolder,62,v,,9356DR,Tolbert,Leek,Groningen,VBO,6.361981,53.159228
De Hooizolder,62,w,,9356DR,Tolbert,Leek,Groningen,VBO,6.362009,53.159280
De Hooizolder,62,x,,9356DR,Tolbert,Leek,Groningen,VBO,6.362066,53.159342
De Hooizolder,62,y,,9356DR,Tolbert,Leek,Groningen,VBO,6.361980,53.159359
De Hooizolder,62,z,,9356DR,Tolbert,Leek,Groningen,VBO,6.361904,53.159299
De Hooizolder,62,,,9356DR,Tolbert,Leek,Groningen,VBO,6.361762,53.159285
Spant,1,a,,9356EA,Tolbert,Leek,Groningen,VBO,6.360922,53.162553
Spant,1,,,9356EA,Tolbert,Leek,Groningen,VBO,6.362489,53.160919
Spant,7,,,9356EA,Tolbert,Leek,Groningen,VBO,6.363837,53.161254
Spant,9,,,9356EA,Tolbert,Leek,Groningen,VBO,6.363931,53.161268
Spant,11,,,9356EA,Tolbert,Leek,Groningen,VBO,6.364185,53.161024
Spant,13,,,9356EA,Tolbert,Leek,Groningen,VBO,6.364305,53.161041
Spant,15,,,9356EA,Tolbert,Leek,Groningen,VBO,6.364380,53.161059
Spant,17,,,9356EA,Tolbert,Leek,Groningen,VBO,6.364557,53.160977
Spant,19,,,9356EA,Tolbert,Leek,Groningen,VBO,6.364586,53.160922
Spant,21,,,9356EA,Tolbert,Leek,Groningen,VBO,6.364616,53.160841
Spant,23,,,9356EA,Tolbert,Leek,Groningen,VBO,6.364852,53.160785
Spant,25,,,9356EA,Tolbert,Leek,Groningen,VBO,6.364927,53.160785
Spant,27,,,9356EA,Tolbert,Leek,Groningen,VBO,6.365077,53.160802
Spant,29,,,9356EA,Tolbert,Leek,Groningen,VBO,6.365847,53.160813
Spant,31,,,9356EA,Tolbert,Leek,Groningen,VBO,6.365865,53.160768
Spant,33,,,9356EA,Tolbert,Leek,Groningen,VBO,6.365899,53.160651
Spant,35,,,9356EA,Tolbert,Leek,Groningen,VBO,6.365925,53.160606
Spant,37,,,9356EA,Tolbert,Leek,Groningen,VBO,6.365971,53.160490
Spant,39,,,9356EA,Tolbert,Leek,Groningen,VBO,6.365994,53.160445
Spant,41,,,9356EA,Tolbert,Leek,Groningen,VBO,6.366040,53.160327
Spant,43,,,9356EA,Tolbert,Leek,Groningen,VBO,6.366060,53.160284
Spant,2,,,9356EB,Tolbert,Leek,Groningen,VBO,6.362564,53.162107
Spant,4,,,9356EB,Tolbert,Leek,Groningen,VBO,6.362519,53.162071
Spant,6,,,9356EB,Tolbert,Leek,Groningen,VBO,6.362443,53.162027
Spant,8,,,9356EB,Tolbert,Leek,Groningen,VBO,6.362397,53.161992
Spant,10,,,9356EB,Tolbert,Leek,Groningen,VBO,6.362497,53.161784
Spant,12,,,9356EB,Tolbert,Leek,Groningen,VBO,6.362527,53.161766
Spant,14,,,9356EB,Tolbert,Leek,Groningen,VBO,6.362556,53.161757
Spant,16,,,9356EB,Tolbert,Leek,Groningen,VBO,6.362571,53.161748
Spant,18,,,9356EB,Tolbert,Leek,Groningen,VBO,6.362601,53.161729
Spant,20,,,9356EB,Tolbert,Leek,Groningen,VBO,6.362630,53.161720
Spant,22,,,9356EB,Tolbert,Leek,Groningen,VBO,6.362645,53.161711
Spant,24,,,9356EB,Tolbert,Leek,Groningen,VBO,6.362660,53.161702
Spant,26,,,9356EB,Tolbert,Leek,Groningen,VBO,6.362675,53.161693
Spant,28,,,9356EB,Tolbert,Leek,Groningen,VBO,6.362704,53.161675
Spant,30,,,9356EB,Tolbert,Leek,Groningen,VBO,6.362597,53.161550
Spant,32,,,9356EB,Tolbert,Leek,Groningen,VBO,6.362656,53.161522
Spant,34,,,9356EB,Tolbert,Leek,Groningen,VBO,6.362744,53.161477
Spant,36,,,9356EB,Tolbert,Leek,Groningen,VBO,6.363328,53.161472
Spant,38,,,9356EB,Tolbert,Leek,Groningen,VBO,6.363417,53.161480
Spant,40,,,9356EB,Tolbert,Leek,Groningen,VBO,6.363583,53.161515
Spant,42,,,9356EB,Tolbert,Leek,Groningen,VBO,6.363657,53.161514
't Oelbred,1,,,9356EC,Tolbert,Leek,Groningen,VBO,6.366403,53.160457
't Oelbred,3,,,9356EC,Tolbert,Leek,Groningen,VBO,6.366485,53.160466
't Oelbred,5,,,9356EC,Tolbert,Leek,Groningen,VBO,6.366567,53.160477
't Oelbred,7,,,9356EC,Tolbert,Leek,Groningen,VBO,6.366651,53.160472
't Oelbred,9,,,9356EC,Tolbert,Leek,Groningen,VBO,6.366730,53.160483
't Oelbred,11,,,9356EC,Tolbert,Leek,Groningen,VBO,6.366808,53.160492
't Oelbred,13,,,9356EC,Tolbert,Leek,Groningen,VBO,6.366890,53.160503
't Oelbred,15,,,9356EC,Tolbert,Leek,Groningen,VBO,6.366939,53.160279
't Oelbred,17,,,9356EC,Tolbert,Leek,Groningen,VBO,6.366954,53.160231
't Oelbred,19,,,9356EC,Tolbert,Leek,Groningen,VBO,6.366973,53.160183
't Oelbred,21,,,9356EC,Tolbert,Leek,Groningen,VBO,6.366987,53.160134
't Oelbred,23,,,9356EC,Tolbert,Leek,Groningen,VBO,6.367002,53.160089
't Oelbred,25,,,9356EC,Tolbert,Leek,Groningen,VBO,6.367021,53.160041
't Oelbred,27,,,9356EC,Tolbert,Leek,Groningen,VBO,6.366499,53.160224
't Oelbred,29,,,9356EC,Tolbert,Leek,Groningen,VBO,6.366468,53.160170
't Oelbred,31,,,9356EC,Tolbert,Leek,Groningen,VBO,6.366422,53.160126
't Oelbred,33,,,9356EC,Tolbert,Leek,Groningen,VBO,6.366361,53.160072
't Oelbred,4,,,9356ED,Tolbert,Leek,Groningen,VBO,6.366966,53.161045
't Oelbred,6,,,9356ED,Tolbert,Leek,Groningen,VBO,6.367234,53.160687
't Oelbred,8,,,9356ED,Tolbert,Leek,Groningen,VBO,6.367253,53.160638
't Oelbred,10,,,9356ED,Tolbert,Leek,Groningen,VBO,6.367269,53.160590
't Oelbred,12,,,9356ED,Tolbert,Leek,Groningen,VBO,6.367287,53.160541
't Oelbred,14,,,9356ED,Tolbert,Leek,Groningen,VBO,6.367345,53.160453
't Oelbred,16,,,9356ED,Tolbert,Leek,Groningen,VBO,6.367361,53.160404
't Oelbred,18,,,9356ED,Tolbert,Leek,Groningen,VBO,6.367377,53.160355
't Oelbred,20,,,9356ED,Tolbert,Leek,Groningen,VBO,6.367393,53.160307
't Oelbred,22,,,9356ED,Tolbert,Leek,Groningen,VBO,6.367416,53.160215
't Oelbred,24,,,9356ED,Tolbert,Leek,Groningen,VBO,6.367433,53.160165
't Oelbred,26,,,9356ED,Tolbert,Leek,Groningen,VBO,6.367450,53.160120
't Oelbred,28,,,9356ED,Tolbert,Leek,Groningen,VBO,6.367466,53.160071
't Oelbred,30,,,9356ED,Tolbert,Leek,Groningen,VBO,6.367482,53.160025
't Oelbred,32,,,9356ED,Tolbert,Leek,Groningen,VBO,6.367498,53.159975
't Oelbred,34,,,9356ED,Tolbert,Leek,Groningen,VBO,6.367448,53.159857
't Oelbred,36,,,9356ED,Tolbert,Leek,Groningen,VBO,6.367357,53.159830
't Oelbred,38,,,9356ED,Tolbert,Leek,Groningen,VBO,6.367267,53.159822
't Oelbred,40,,,9356ED,Tolbert,Leek,Groningen,VBO,6.367148,53.159814
't Oelbred,42,,,9356ED,Tolbert,Leek,Groningen,VBO,6.366923,53.159789
't Oelbred,44,,,9356ED,Tolbert,Leek,Groningen,VBO,6.366833,53.159772
't Oelbred,46,,,9356ED,Tolbert,Leek,Groningen,VBO,6.366728,53.159764
't Oelbred,48,,,9356ED,Tolbert,Leek,Groningen,VBO,6.366623,53.159764
't Oelbred,50,,,9356ED,Tolbert,Leek,Groningen,VBO,6.366382,53.159668
't Oelbred,52,,,9356ED,Tolbert,Leek,Groningen,VBO,6.366353,53.159731
't Oelbred,54,,,9356ED,Tolbert,Leek,Groningen,VBO,6.366340,53.159794
't Oelbred,56,,,9356ED,Tolbert,Leek,Groningen,VBO,6.366326,53.159848
Pastoor Hopperlaan,1,,,9356EE,Tolbert,Leek,Groningen,VBO,6.365163,53.159318
Pastoor Hopperlaan,2,,,9356EE,Tolbert,Leek,Groningen,VBO,6.366604,53.159363
Pastoor Hopperlaan,3,,,9356EE,Tolbert,Leek,Groningen,VBO,6.364878,53.159275
Pastoor Hopperlaan,4,,,9356EE,Tolbert,Leek,Groningen,VBO,6.366477,53.159271
Pastoor Hopperlaan,5,,,9356EE,Tolbert,Leek,Groningen,VBO,6.364396,53.159136
Pastoor Hopperlaan,6,,,9356EE,Tolbert,Leek,Groningen,VBO,6.366373,53.159272
Pastoor Hopperlaan,7,,,9356EE,Tolbert,Leek,Groningen,VBO,6.364497,53.158946
Pastoor Hopperlaan,8,,,9356EE,Tolbert,Leek,Groningen,VBO,6.366268,53.159255
Pastoor Hopperlaan,9,,,9356EE,Tolbert,Leek,Groningen,VBO,6.364567,53.158775
Pastoor Hopperlaan,10,,,9356EE,Tolbert,Leek,Groningen,VBO,6.365981,53.159123
Pastoor Hopperlaan,11,,,9356EE,Tolbert,Leek,Groningen,VBO,6.364638,53.158568
Pastoor Hopperlaan,12,,,9356EE,Tolbert,Leek,Groningen,VBO,6.365919,53.159090
Pastoor Hopperlaan,13,,,9356EE,Tolbert,Leek,Groningen,VBO,6.365091,53.158806
Pastoor Hopperlaan,14,,,9356EE,Tolbert,Leek,Groningen,VBO,6.365826,53.158908
Pastoor Hopperlaan,15,,,9356EE,Tolbert,Leek,Groningen,VBO,6.364992,53.159023
Pastoor Hopperlaan,17,,,9356EE,Tolbert,Leek,Groningen,VBO,6.365231,53.159030
't Emmerrik,1,,,9356EG,Tolbert,Leek,Groningen,VBO,6.367262,53.158465
't Emmerrik,3,,,9356EG,Tolbert,Leek,Groningen,VBO,6.367339,53.158474
't Emmerrik,5,,,9356EG,Tolbert,Leek,Groningen,VBO,6.367418,53.158485
't Emmerrik,7,,,9356EG,Tolbert,Leek,Groningen,VBO,6.367499,53.158495
't Emmerrik,9,,,9356EG,Tolbert,Leek,Groningen,VBO,6.367588,53.158285
't Emmerrik,11,,,9356EG,Tolbert,Leek,Groningen,VBO,6.367606,53.158239
't Emmerrik,13,,,9356EG,Tolbert,Leek,Groningen,VBO,6.367623,53.158192
't Emmerrik,15,,,9356EG,Tolbert,Leek,Groningen,VBO,6.367666,53.158149
't Emmerrik,17,,,9356EG,Tolbert,Leek,Groningen,VBO,6.367683,53.158100
't Emmerrik,19,,,9356EG,Tolbert,Leek,Groningen,VBO,6.367702,53.158053
't Emmerrik,21,,,9356EG,Tolbert,Leek,Groningen,VBO,6.367715,53.158006
't Emmerrik,23,,,9356EG,Tolbert,Leek,Groningen,VBO,6.367369,53.157886
't Emmerrik,25,,,9356EG,Tolbert,Leek,Groningen,VBO,6.367289,53.157874
't Emmerrik,27,,,9356EG,Tolbert,Leek,Groningen,VBO,6.367212,53.157866
't Emmerrik,29,,,9356EG,Tolbert,Leek,Groningen,VBO,6.367132,53.157859
't Emmerrik,2,,,9356EH,Tolbert,Leek,Groningen,VBO,6.367722,53.159261
't Emmerrik,4,,,9356EH,Tolbert,Leek,Groningen,VBO,6.367741,53.159213
't Emmerrik,6,,,9356EH,Tolbert,Leek,Groningen,VBO,6.367754,53.159164
't Emmerrik,8,,,9356EH,Tolbert,Leek,Groningen,VBO,6.367770,53.159118
't Emmerrik,10,,,9356EH,Tolbert,Leek,Groningen,VBO,6.367758,53.159018
't Emmerrik,12,,,9356EH,Tolbert,Leek,Groningen,VBO,6.367777,53.158974
't Emmerrik,14,,,9356EH,Tolbert,Leek,Groningen,VBO,6.367795,53.158925
't Emmerrik,16,,,9356EH,Tolbert,Leek,Groningen,VBO,6.367809,53.158876
't Emmerrik,18,,,9356EH,Tolbert,Leek,Groningen,VBO,6.367883,53.158604
't Emmerrik,20,,,9356EH,Tolbert,Leek,Groningen,VBO,6.367911,53.158532
't Emmerrik,22,,,9356EH,Tolbert,Leek,Groningen,VBO,6.368044,53.158468
't Emmerrik,24,,,9356EH,Tolbert,Leek,Groningen,VBO,6.368057,53.158396
't Emmerrik,26,,,9356EH,Tolbert,Leek,Groningen,VBO,6.368054,53.158234
't Emmerrik,28,,,9356EH,Tolbert,Leek,Groningen,VBO,6.368143,53.158233
't Emmerrik,30,,,9356EH,Tolbert,Leek,Groningen,VBO,6.368218,53.158242
't Emmerrik,32,,,9356EH,Tolbert,Leek,Groningen,VBO,6.368279,53.158259
't Emmerrik,34,,,9356EH,Tolbert,Leek,Groningen,VBO,6.368319,53.158043
't Emmerrik,36,,,9356EH,Tolbert,Leek,Groningen,VBO,6.368259,53.158044
't Emmerrik,38,,,9356EH,Tolbert,Leek,Groningen,VBO,6.368184,53.158035
't Emmerrik,40,,,9356EH,Tolbert,Leek,Groningen,VBO,6.368093,53.158009
't Emmerrik,42,,,9356EH,Tolbert,Leek,Groningen,VBO,6.368333,53.157835
't Emmerrik,44,,,9356EH,Tolbert,Leek,Groningen,VBO,6.368248,53.157820
't Emmerrik,46,,,9356EH,Tolbert,Leek,Groningen,VBO,6.368061,53.157797
't Emmerrik,48,,,9356EH,Tolbert,Leek,Groningen,VBO,6.367972,53.157784
't Emmerrik,50,,,9356EH,Tolbert,Leek,Groningen,VBO,6.367801,53.157739
't Emmerrik,52,,,9356EH,Tolbert,Leek,Groningen,VBO,6.367714,53.157728
't Emmerrik,54,,,9356EH,Tolbert,Leek,Groningen,VBO,6.367537,53.157681
't Emmerrik,56,,,9356EH,Tolbert,Leek,Groningen,VBO,6.367445,53.157671
de Staal,1,,,9356EJ,Tolbert,Leek,Groningen,VBO,6.367033,53.157614
de Staal,3,,,9356EJ,Tolbert,Leek,Groningen,VBO,6.367052,53.157564
de Staal,5,,,9356EJ,Tolbert,Leek,Groningen,VBO,6.367094,53.157520
de Staal,7,,,9356EJ,Tolbert,Leek,Groningen,VBO,6.367111,53.157474
de Staal,9,,,9356EJ,Tolbert,Leek,Groningen,VBO,6.367126,53.157428
de Staal,11,,,9356EJ,Tolbert,Leek,Groningen,VBO,6.367147,53.157381
't Kaarnhuus,2,,,9356EK,Tolbert,Leek,Groningen,VBO,6.365303,53.158299
't Kaarnhuus,4,,,9356EK,Tolbert,Leek,Groningen,VBO,6.365321,53.158248
't Kaarnhuus,6,,,9356EK,Tolbert,Leek,Groningen,VBO,6.365335,53.158202
't Kaarnhuus,8,,,9356EK,Tolbert,Leek,Groningen,VBO,6.365350,53.158156
't Kaarnhuus,10,,,9356EK,Tolbert,Leek,Groningen,VBO,6.365368,53.158106
't Kaarnhuus,12,,,9356EK,Tolbert,Leek,Groningen,VBO,6.365382,53.158058
't Kaarnhuus,14,,,9356EK,Tolbert,Leek,Groningen,VBO,6.365396,53.158012
't Kaarnhuus,16,,,9356EK,Tolbert,Leek,Groningen,VBO,6.365431,53.157912
't Kaarnhuus,18,,,9356EK,Tolbert,Leek,Groningen,VBO,6.365449,53.157864
't Kaarnhuus,20,,,9356EK,Tolbert,Leek,Groningen,VBO,6.365464,53.157818
't Kaarnhuus,22,,,9356EK,Tolbert,Leek,Groningen,VBO,6.365480,53.157769
't Kaarnhuus,24,,,9356EK,Tolbert,Leek,Groningen,VBO,6.365497,53.157723
't Kaarnhuus,26,,,9356EK,Tolbert,Leek,Groningen,VBO,6.365516,53.157675
't Kaarnhuus,28,,,9356EK,Tolbert,Leek,Groningen,VBO,6.365600,53.157476
't Kaarnhuus,30,,,9356EK,Tolbert,Leek,Groningen,VBO,6.365619,53.157430
't Kaarnhuus,32,,,9356EK,Tolbert,Leek,Groningen,VBO,6.365635,53.157383
't Kaarnhuus,34,,,9356EK,Tolbert,Leek,Groningen,VBO,6.365655,53.157334
't Kaarnhuus,36,,,9356EK,Tolbert,Leek,Groningen,VBO,6.365670,53.157292
't Kaarnhuus,38,,,9356EK,Tolbert,Leek,Groningen,VBO,6.365699,53.157238
't Kaarnhuus,40,,,9356EK,Tolbert,Leek,Groningen,VBO,6.365713,53.157193
't Kaarnhuus,42,,,9356EK,Tolbert,Leek,Groningen,VBO,6.365742,53.157148
't Kaarnhuus,44,,,9356EK,Tolbert,Leek,Groningen,VBO,6.365612,53.157454
't Kaarnhuus,46,,,9356EK,Tolbert,Leek,Groningen,VBO,6.365627,53.157417
't Kaarnhuus,48,,,9356EK,Tolbert,Leek,Groningen,VBO,6.365635,53.157367
't Kaarnhuus,50,,,9356EK,Tolbert,Leek,Groningen,VBO,6.365646,53.157330
't Kaarnhuus,52,,,9356EK,Tolbert,Leek,Groningen,VBO,6.366032,53.157541
't Kaarnhuus,54,,,9356EK,Tolbert,Leek,Groningen,VBO,6.366118,53.157552
't Kaarnhuus,1,,,9356EL,Tolbert,Leek,Groningen,VBO,6.364793,53.158189
't Kaarnhuus,3,,,9356EL,Tolbert,Leek,Groningen,VBO,6.364822,53.158135
't Kaarnhuus,5,,,9356EL,Tolbert,Leek,Groningen,VBO,6.364968,53.158004
't Kaarnhuus,7,,,9356EL,Tolbert,Leek,Groningen,VBO,6.364922,53.157936
't Kaarnhuus,9,,,9356EL,Tolbert,Leek,Groningen,VBO,6.364935,53.157828
't Kaarnhuus,11,,,9356EL,Tolbert,Leek,Groningen,VBO,6.364949,53.157774
't Kaarnhuus,13,,,9356EL,Tolbert,Leek,Groningen,VBO,6.365106,53.157596
't Kaarnhuus,15,,,9356EL,Tolbert,Leek,Groningen,VBO,6.365128,53.157540
't Kaarnhuus,17,,,9356EL,Tolbert,Leek,Groningen,VBO,6.365194,53.157421
't Kaarnhuus,19,,,9356EL,Tolbert,Leek,Groningen,VBO,6.365217,53.157368
't Kaarnhuus,21,,,9356EL,Tolbert,Leek,Groningen,VBO,6.365256,53.157248
't Kaarnhuus,23,,,9356EL,Tolbert,Leek,Groningen,VBO,6.365278,53.157194
de Gorn,47,,,9356EM,Tolbert,Leek,Groningen,VBO,6.365985,53.158009
de Gorn,49,,,9356EM,Tolbert,Leek,Groningen,VBO,6.366002,53.157963
de Gorn,51,,,9356EM,Tolbert,Leek,Groningen,VBO,6.366020,53.157916
de Gorn,53,,,9356EM,Tolbert,Leek,Groningen,VBO,6.366037,53.157868
de Gorn,55,,,9356EM,Tolbert,Leek,Groningen,VBO,6.366054,53.157821
de Gorn,57,,,9356EM,Tolbert,Leek,Groningen,VBO,6.366071,53.157771
de Gorn,1,,,9356EN,Tolbert,Leek,Groningen,VBO,6.366925,53.159378
de Gorn,3,,,9356EN,Tolbert,Leek,Groningen,VBO,6.366929,53.159326
de Gorn,5,,,9356EN,Tolbert,Leek,Groningen,VBO,6.366969,53.159285
de Gorn,7,,,9356EN,Tolbert,Leek,Groningen,VBO,6.366988,53.159235
de Gorn,9,,,9356EN,Tolbert,Leek,Groningen,VBO,6.367009,53.159188
de Gorn,11,,,9356EN,Tolbert,Leek,Groningen,VBO,6.367026,53.159141
de Gorn,13,,,9356EN,Tolbert,Leek,Groningen,VBO,6.366713,53.159099
de Gorn,15,,,9356EN,Tolbert,Leek,Groningen,VBO,6.366623,53.159091
de Gorn,17,,,9356EN,Tolbert,Leek,Groningen,VBO,6.366443,53.159065
de Gorn,19,,,9356EN,Tolbert,Leek,Groningen,VBO,6.366353,53.159057
de Gorn,21,,,9356EN,Tolbert,Leek,Groningen,VBO,6.365856,53.158881
de Gorn,23,,I,9356EN,Tolbert,Leek,Groningen,VBO,6.366169,53.158842
de Gorn,23,,,9356EN,Tolbert,Leek,Groningen,VBO,6.366062,53.158870
de Gorn,25,,,9356EN,Tolbert,Leek,Groningen,VBO,6.365780,53.158302
de Gorn,27,,,9356EN,Tolbert,Leek,Groningen,VBO,6.365875,53.158318
de Gorn,29,,,9356EN,Tolbert,Leek,Groningen,VBO,6.365964,53.158330
de Gorn,31,,,9356EN,Tolbert,Leek,Groningen,VBO,6.366124,53.158196
de Gorn,33,,,9356EN,Tolbert,Leek,Groningen,VBO,6.366199,53.158195
de Gorn,35,,,9356EN,Tolbert,Leek,Groningen,VBO,6.366169,53.158214
de Gorn,37,,,9356EN,Tolbert,Leek,Groningen,VBO,6.366274,53.158204
de Gorn,39,,,9356EN,Tolbert,Leek,Groningen,VBO,6.366229,53.158222
de Gorn,41,,,9356EN,Tolbert,Leek,Groningen,VBO,6.366334,53.158212
de Gorn,43,,,9356EN,Tolbert,Leek,Groningen,VBO,6.366304,53.158230
de Gorn,45,,,9356EN,Tolbert,Leek,Groningen,VBO,6.366364,53.158230
de Gorn,2,,,9356EP,Tolbert,Leek,Groningen,VBO,6.367426,53.159470
de Gorn,4,,,9356EP,Tolbert,Leek,Groningen,VBO,6.367442,53.159421
de Gorn,6,,,9356EP,Tolbert,Leek,Groningen,VBO,6.367461,53.159373
de Gorn,8,,,9356EP,Tolbert,Leek,Groningen,VBO,6.367474,53.159326
de Gorn,10,,,9356EP,Tolbert,Leek,Groningen,VBO,6.367424,53.158935
de Gorn,12,,,9356EP,Tolbert,Leek,Groningen,VBO,6.367345,53.158925
de Gorn,14,,,9356EP,Tolbert,Leek,Groningen,VBO,6.367266,53.158917
de Gorn,16,,,9356EP,Tolbert,Leek,Groningen,VBO,6.367195,53.158885
de Gorn,18,,,9356EP,Tolbert,Leek,Groningen,VBO,6.367114,53.158876
de Gorn,20,,,9356EP,Tolbert,Leek,Groningen,VBO,6.367037,53.158867
de Gorn,22,,,9356EP,Tolbert,Leek,Groningen,VBO,6.366957,53.158858
de Gorn,24,,,9356EP,Tolbert,Leek,Groningen,VBO,6.366651,53.158825
de Gorn,26,,,9356EP,Tolbert,Leek,Groningen,VBO,6.366669,53.158777
de Gorn,28,,,9356EP,Tolbert,Leek,Groningen,VBO,6.366683,53.158729
de Gorn,30,,,9356EP,Tolbert,Leek,Groningen,VBO,6.366697,53.158680
de Gorn,32,,,9356EP,Tolbert,Leek,Groningen,VBO,6.367120,53.158420
de Gorn,34,,,9356EP,Tolbert,Leek,Groningen,VBO,6.367037,53.158410
de Gorn,36,,,9356EP,Tolbert,Leek,Groningen,VBO,6.366968,53.158376
de Gorn,38,,,9356EP,Tolbert,Leek,Groningen,VBO,6.366887,53.158367
de Gorn,40,,,9356EP,Tolbert,Leek,Groningen,VBO,6.366808,53.158357
de Gorn,42,,,9356EP,Tolbert,Leek,Groningen,VBO,6.366730,53.158346
de Gorn,44,,,9356EP,Tolbert,Leek,Groningen,VBO,6.366435,53.158026
de Gorn,46,,,9356EP,Tolbert,Leek,Groningen,VBO,6.366446,53.157971
de Gorn,48,,,9356EP,Tolbert,Leek,Groningen,VBO,6.366464,53.157916
de Gorn,50,,,9356EP,Tolbert,Leek,Groningen,VBO,6.366518,53.157866
de Gorn,52,,,9356EP,Tolbert,Leek,Groningen,VBO,6.366534,53.157824
de Gorn,54,,,9356EP,Tolbert,Leek,Groningen,VBO,6.366550,53.157773
de Gorn,56,,,9356EP,Tolbert,Leek,Groningen,VBO,6.366479,53.158032
de Gorn,58,,,9356EP,Tolbert,Leek,Groningen,VBO,6.366496,53.157978
de Gorn,60,,,9356EP,Tolbert,Leek,Groningen,VBO,6.366518,53.157922
Dal,1,,,9356ES,Tolbert,Leek,Groningen,VBO,6.363994,53.158372
Dal,2,,,9356ES,Tolbert,Leek,Groningen,VBO,6.363573,53.158354
Dal,3,,,9356ES,Tolbert,Leek,Groningen,VBO,6.363974,53.158428
Dal,4,,,9356ES,Tolbert,Leek,Groningen,VBO,6.363485,53.158514
Dal,5,,,9356ES,Tolbert,Leek,Groningen,VBO,6.363930,53.158548
Dal,6,,,9356ES,Tolbert,Leek,Groningen,VBO,6.363414,53.158676
Dal,7,,,9356ES,Tolbert,Leek,Groningen,VBO,6.363906,53.158603
Dal,8,,,9356ES,Tolbert,Leek,Groningen,VBO,6.363069,53.158625
Dal,9,,,9356ES,Tolbert,Leek,Groningen,VBO,6.363857,53.158723
Dal,10,,,9356ES,Tolbert,Leek,Groningen,VBO,6.363125,53.158454
Dal,11,,,9356ES,Tolbert,Leek,Groningen,VBO,6.363836,53.158774
Dal,13,,,9356ES,Tolbert,Leek,Groningen,VBO,6.363848,53.159020
Dal,15,,,9356ES,Tolbert,Leek,Groningen,VBO,6.363754,53.159008
Dal,17,,,9356ES,Tolbert,Leek,Groningen,VBO,6.363558,53.158980
Dal,19,,,9356ES,Tolbert,Leek,Groningen,VBO,6.363464,53.158968
Oude Hof,2,,,9356GA,Tolbert,Leek,Groningen,VBO,6.361655,53.163351
Oude Hof,4,,,9356GA,Tolbert,Leek,Groningen,VBO,6.361588,53.163322
Oude Hof,6,,,9356GA,Tolbert,Leek,Groningen,VBO,6.361522,53.163293
Oude Hof,8,,,9356GA,Tolbert,Leek,Groningen,VBO,6.361456,53.163264
Oude Hof,10,,,9356GA,Tolbert,Leek,Groningen,VBO,6.361374,53.163231
Oude Hof,12,,,9356GA,Tolbert,Leek,Groningen,VBO,6.361392,53.163215
Oude Hof,14,,,9356GA,Tolbert,Leek,Groningen,VBO,6.361288,53.163265
Oude Hof,16,,,9356GA,Tolbert,Leek,Groningen,VBO,6.361240,53.163305
Oude Hof,18,,,9356GA,Tolbert,Leek,Groningen,VBO,6.361192,53.163590
Oude Hof,20,,,9356GA,Tolbert,Leek,Groningen,VBO,6.361142,53.163630
Oude Hof,22,,,9356GA,Tolbert,Leek,Groningen,VBO,6.361097,53.163670
Oude Hof,24,,,9356GA,Tolbert,Leek,Groningen,VBO,6.361069,53.163705
Oude Hof,26,,,9356GA,Tolbert,Leek,Groningen,VBO,6.361188,53.163766
Oude Hof,28,,,9356GA,Tolbert,Leek,Groningen,VBO,6.361168,53.163579
Oude Hof,30,,,9356GA,Tolbert,Leek,Groningen,VBO,6.361119,53.163621
Oude Hof,32,,,9356GA,Tolbert,Leek,Groningen,VBO,6.361073,53.163661
Oude Hof,34,,,9356GA,Tolbert,Leek,Groningen,VBO,6.361031,53.163703
Oude Hof,36,,,9356GA,Tolbert,Leek,Groningen,VBO,6.361165,53.163756
Oude Hof,38,,,9356GA,Tolbert,Leek,Groningen,VBO,6.361173,53.163822
Oude Hof,40,,,9356GA,Tolbert,Leek,Groningen,VBO,6.361126,53.163858
Oude Hof,42,,,9356GA,Tolbert,Leek,Groningen,VBO,6.361068,53.163908
Oude Hof,44,,,9356GA,Tolbert,Leek,Groningen,VBO,6.360949,53.164061
Oude Hof,46,,,9356GA,Tolbert,Leek,Groningen,VBO,6.361024,53.164079
Oude Hof,48,,,9356GA,Tolbert,Leek,Groningen,VBO,6.361100,53.164123
Oude Hof,50,,,9356GA,Tolbert,Leek,Groningen,VBO,6.361145,53.164149
Oude Hof,52,,,9356GA,Tolbert,Leek,Groningen,VBO,6.361220,53.164176
Oude Hof,54,,,9356GA,Tolbert,Leek,Groningen,VBO,6.361281,53.164202
Oude Hof,1,,,9356GB,Tolbert,Leek,Groningen,VBO,6.362074,53.163468
Oude Hof,3,,,9356GB,Tolbert,Leek,Groningen,VBO,6.362028,53.163509
Oude Hof,5,,,9356GB,Tolbert,Leek,Groningen,VBO,6.361984,53.163550
Oude Hof,7,,,9356GB,Tolbert,Leek,Groningen,VBO,6.361934,53.163590
Oude Hof,9,,,9356GB,Tolbert,Leek,Groningen,VBO,6.361650,53.163744
Oude Hof,11,,,9356GB,Tolbert,Leek,Groningen,VBO,6.361719,53.163772
Oude Hof,13,,,9356GB,Tolbert,Leek,Groningen,VBO,6.361794,53.163802
Oude Hof,15,,,9356GB,Tolbert,Leek,Groningen,VBO,6.361867,53.163835
Oude Hof,17,,,9356GB,Tolbert,Leek,Groningen,VBO,6.361900,53.163888
Oude Hof,19,,,9356GB,Tolbert,Leek,Groningen,VBO,6.361907,53.163905
Oude Hof,21,,,9356GB,Tolbert,Leek,Groningen,VBO,6.361899,53.163947
Oude Hof,23,,,9356GB,Tolbert,Leek,Groningen,VBO,6.361859,53.163991
Oude Hof,25,,,9356GB,Tolbert,Leek,Groningen,VBO,6.361802,53.164030
Oude Hof,27,,,9356GB,Tolbert,Leek,Groningen,VBO,6.361771,53.164073
Oude Hof,29,,,9356GB,Tolbert,Leek,Groningen,VBO,6.361711,53.164113
Oude Hof,31,,,9356GB,Tolbert,Leek,Groningen,VBO,6.361668,53.164154
Oude Hof,33,,,9356GB,Tolbert,Leek,Groningen,VBO,6.361618,53.164189
Oude Hof,35,,,9356GB,Tolbert,Leek,Groningen,VBO,6.361577,53.164229
Turfring,1,,,9356HA,Tolbert,Leek,Groningen,VBO,6.362929,53.157045
Turfring,3,,,9356HA,Tolbert,Leek,Groningen,VBO,6.362985,53.156892
Turfring,5,,,9356HA,Tolbert,Leek,Groningen,VBO,6.363042,53.156756
Turfring,7,,,9356HA,Tolbert,Leek,Groningen,VBO,6.361485,53.156688
Turfring,9,,,9356HA,Tolbert,Leek,Groningen,VBO,6.361360,53.156903
Turfring,11,,,9356HA,Tolbert,Leek,Groningen,VBO,6.361687,53.157028
Turfring,13,,,9356HA,Tolbert,Leek,Groningen,VBO,6.361942,53.157062
Turfring,15,,,9356HA,Tolbert,Leek,Groningen,VBO,6.362144,53.156880
Turfring,17,,,9356HA,Tolbert,Leek,Groningen,VBO,6.361801,53.156757
Turfring,19,,,9356HA,Tolbert,Leek,Groningen,VBO,6.362606,53.156688
Turfring,21,,,9356HA,Tolbert,Leek,Groningen,VBO,6.362626,53.156859
Turfring,23,,,9356HA,Tolbert,Leek,Groningen,VBO,6.362569,53.157003
Turfring,25,,,9356HA,Tolbert,Leek,Groningen,VBO,6.362451,53.157189
Turfring,27,,,9356HA,Tolbert,Leek,Groningen,VBO,6.362872,53.157198
Turfring,2,,,9356HB,Tolbert,Leek,Groningen,VBO,6.363415,53.157391
Turfring,4,,,9356HB,Tolbert,Leek,Groningen,VBO,6.363444,53.157337
Turfring,6,,,9356HB,Tolbert,Leek,Groningen,VBO,6.363486,53.157229
Turfring,8,,,9356HB,Tolbert,Leek,Groningen,VBO,6.363500,53.157166
Turfring,10,,,9356HB,Tolbert,Leek,Groningen,VBO,6.363512,53.157049
Turfring,12,,,9356HB,Tolbert,Leek,Groningen,VBO,6.363540,53.156986
Turfring,14,,,9356HB,Tolbert,Leek,Groningen,VBO,6.363536,53.156883
Turfring,16,,,9356HB,Tolbert,Leek,Groningen,VBO,6.363560,53.156829
Turfring,18,,,9356HB,Tolbert,Leek,Groningen,VBO,6.363824,53.156319
Turfring,20,,,9356HB,Tolbert,Leek,Groningen,VBO,6.363403,53.156178
Turfring,22,,,9356HB,Tolbert,Leek,Groningen,VBO,6.363191,53.156072
Turfring,24,,,9356HB,Tolbert,Leek,Groningen,VBO,6.362440,53.155917
Turfring,26,,,9356HB,Tolbert,Leek,Groningen,VBO,6.362155,53.155865
Turfring,28,,,9356HB,Tolbert,Leek,Groningen,VBO,6.361363,53.155916
Turfring,30,,,9356HB,Tolbert,Leek,Groningen,VBO,6.361365,53.155970
Turfring,32,,,9356HB,Tolbert,Leek,Groningen,VBO,6.361232,53.156061
Turfring,34,,,9356HB,Tolbert,Leek,Groningen,VBO,6.361189,53.156115
Turfring,36,,,9356HB,Tolbert,Leek,Groningen,VBO,6.361017,53.157141
Turfring,38,,,9356HB,Tolbert,Leek,Groningen,VBO,6.361207,53.157220
Turfring,44,,,9356HB,Tolbert,Leek,Groningen,VBO,6.362221,53.157500
Turfring,46,,,9356HB,Tolbert,Leek,Groningen,VBO,6.362326,53.157517
Turfring,48,,,9356HB,Tolbert,Leek,Groningen,VBO,6.362642,53.157510
Turfring,50,,,9356HB,Tolbert,Leek,Groningen,VBO,6.362701,53.157568
Heihorst,1,,,9356HC,Tolbert,Leek,Groningen,VBO,6.363358,53.157536
Heihorst,3,,,9356HC,Tolbert,Leek,Groningen,VBO,6.363463,53.157553
Heihorst,5,,,9356HC,Tolbert,Leek,Groningen,VBO,6.363694,53.157637
Heihorst,7,,,9356HC,Tolbert,Leek,Groningen,VBO,6.363808,53.157595
Heihorst,9,,,9356HC,Tolbert,Leek,Groningen,VBO,6.363850,53.157451
Heihorst,11,,,9356HC,Tolbert,Leek,Groningen,VBO,6.363864,53.157397
Heihorst,13,,,9356HC,Tolbert,Leek,Groningen,VBO,6.363906,53.157288
Heihorst,15,,,9356HC,Tolbert,Leek,Groningen,VBO,6.363935,53.157243
Heihorst,17,,,9356HC,Tolbert,Leek,Groningen,VBO,6.363977,53.157126
Heihorst,19,,,9356HC,Tolbert,Leek,Groningen,VBO,6.364035,53.157063
Heihorst,21,,,9356HC,Tolbert,Leek,Groningen,VBO,6.364063,53.156973
Heihorst,23,,,9356HC,Tolbert,Leek,Groningen,VBO,6.364062,53.156919
Heihorst,25,,,9356HC,Tolbert,Leek,Groningen,VBO,6.364281,53.156398
Heihorst,27,,,9356HC,Tolbert,Leek,Groningen,VBO,6.364214,53.156351
Heihorst,29,,,9356HC,Tolbert,Leek,Groningen,VBO,6.364285,53.156180
Heihorst,31,,,9356HC,Tolbert,Leek,Groningen,VBO,6.364313,53.156117
Heihorst,33,,,9356HC,Tolbert,Leek,Groningen,VBO,6.363983,53.156057
Heihorst,35,,,9356HC,Tolbert,Leek,Groningen,VBO,6.363908,53.156048
Heihorst,37,,,9356HC,Tolbert,Leek,Groningen,VBO,6.363532,53.155962
Heihorst,39,,,9356HC,Tolbert,Leek,Groningen,VBO,6.363217,53.155910
Heihorst,2,,,9356HD,Tolbert,Leek,Groningen,VBO,6.363231,53.157833
Heihorst,4,,,9356HD,Tolbert,Leek,Groningen,VBO,6.363560,53.157875
Heihorst,6,,,9356HD,Tolbert,Leek,Groningen,VBO,6.363861,53.157945
Heihorst,8,,,9356HD,Tolbert,Leek,Groningen,VBO,6.364325,53.157950
Heihorst,10,,,9356HD,Tolbert,Leek,Groningen,VBO,6.364305,53.157735
Heihorst,12,,,9356HD,Tolbert,Leek,Groningen,VBO,6.364333,53.157680
Heihorst,14,,,9356HD,Tolbert,Leek,Groningen,VBO,6.364376,53.157563
Heihorst,16,,,9356HD,Tolbert,Leek,Groningen,VBO,6.364404,53.157509
Heihorst,18,,,9356HD,Tolbert,Leek,Groningen,VBO,6.364447,53.157392
Heihorst,20,,,9356HD,Tolbert,Leek,Groningen,VBO,6.364475,53.157338
Heihorst,22,,,9356HD,Tolbert,Leek,Groningen,VBO,6.364517,53.157221
Heihorst,24,,,9356HD,Tolbert,Leek,Groningen,VBO,6.364546,53.157166
Heihorst,26,,,9356HD,Tolbert,Leek,Groningen,VBO,6.364588,53.157040
Heihorst,28,,,9356HD,Tolbert,Leek,Groningen,VBO,6.364602,53.156986
Heihorst,30,,,9356HD,Tolbert,Leek,Groningen,VBO,6.364696,53.156536
Heihorst,32,,,9356HD,Tolbert,Leek,Groningen,VBO,6.364710,53.156482
Heihorst,34,,,9356HD,Tolbert,Leek,Groningen,VBO,6.364698,53.156330
Heihorst,36,,,9356HD,Tolbert,Leek,Groningen,VBO,6.364716,53.156283
Heihorst,38,,,9356HD,Tolbert,Leek,Groningen,VBO,6.364766,53.156154
Heihorst,40,,,9356HD,Tolbert,Leek,Groningen,VBO,6.364789,53.156106
Heihorst,42,,,9356HD,Tolbert,Leek,Groningen,VBO,6.365040,53.155886
Heihorst,44,,,9356HD,Tolbert,Leek,Groningen,VBO,6.364951,53.155878
Heihorst,46,,,9356HD,Tolbert,Leek,Groningen,VBO,6.364741,53.155844
Heihorst,48,,,9356HD,Tolbert,Leek,Groningen,VBO,6.364666,53.155835
Heihorst,50,,,9356HD,Tolbert,Leek,Groningen,VBO,6.364455,53.155801
Heihorst,52,,,9356HD,Tolbert,Leek,Groningen,VBO,6.364366,53.155793
Heihorst,54,,,9356HD,Tolbert,Leek,Groningen,VBO,6.364113,53.155804
Heihorst,56,,,9356HD,Tolbert,Leek,Groningen,VBO,6.364034,53.155795
Heihorst,58,,,9356HD,Tolbert,Leek,Groningen,VBO,6.363748,53.155573
Heihorst,60,,,9356HD,Tolbert,Leek,Groningen,VBO,6.363658,53.155556
Heihorst,62,,,9356HD,Tolbert,Leek,Groningen,VBO,6.363485,53.155575
Heihorst,64,,,9356HD,Tolbert,Leek,Groningen,VBO,6.363400,53.155583
Heihorst,66,,,9356HD,Tolbert,Leek,Groningen,VBO,6.363230,53.155554
Heihorst,68,,,9356HD,Tolbert,Leek,Groningen,VBO,6.363148,53.155541
Kruisven,1,,,9356HE,Tolbert,Leek,Groningen,VBO,6.361466,53.155808
Kruisven,2,,,9356HE,Tolbert,Leek,Groningen,VBO,6.362226,53.155694
Kruisven,3,,,9356HE,Tolbert,Leek,Groningen,VBO,6.361495,53.155762
Kruisven,4,,,9356HE,Tolbert,Leek,Groningen,VBO,6.362540,53.155736
Kruisven,5,,,9356HE,Tolbert,Leek,Groningen,VBO,6.361567,53.155654
Kruisven,6,,,9356HE,Tolbert,Leek,Groningen,VBO,6.362669,53.155465
Kruisven,7,,,9356HE,Tolbert,Leek,Groningen,VBO,6.361596,53.155609
Kruisven,8,,,9356HE,Tolbert,Leek,Groningen,VBO,6.362564,53.155448
Kruisven,9,,,9356HE,Tolbert,Leek,Groningen,VBO,6.361220,53.155522
Kruisven,10,,,9356HE,Tolbert,Leek,Groningen,VBO,6.362339,53.155414
Kruisven,11,,,9356HE,Tolbert,Leek,Groningen,VBO,6.361097,53.155546
Kruisven,12,,,9356HE,Tolbert,Leek,Groningen,VBO,6.362243,53.155451
Kruisven,13,,,9356HE,Tolbert,Leek,Groningen,VBO,6.361047,53.155653
Kruisven,14,,,9356HE,Tolbert,Leek,Groningen,VBO,6.361934,53.155354
Kruisven,15,,,9356HE,Tolbert,Leek,Groningen,VBO,6.361016,53.155706
Kruisven,16,,,9356HE,Tolbert,Leek,Groningen,VBO,6.361844,53.155346
Kruisven,17,,,9356HE,Tolbert,Leek,Groningen,VBO,6.360988,53.155838
Kruisven,18,,,9356HE,Tolbert,Leek,Groningen,VBO,6.361631,53.155363
Kruisven,19,,,9356HE,Tolbert,Leek,Groningen,VBO,6.360959,53.155884
Kruisven,20,,,9356HE,Tolbert,Leek,Groningen,VBO,6.361544,53.155304
Kruisven,21,,,9356HE,Tolbert,Leek,Groningen,VBO,6.360872,53.155983
Kruisven,22,,,9356HE,Tolbert,Leek,Groningen,VBO,6.361334,53.155269
Kruisven,23,,,9356HE,Tolbert,Leek,Groningen,VBO,6.360828,53.156037
Kruisven,24,,,9356HE,Tolbert,Leek,Groningen,VBO,6.361244,53.155252
Kruisven,26,,,9356HE,Tolbert,Leek,Groningen,VBO,6.361019,53.155227
Splitting,1,,,9356HG,Tolbert,Leek,Groningen,VBO,6.360836,53.157044
Splitting,2,,,9356HG,Tolbert,Leek,Groningen,VBO,6.360785,53.156766
Splitting,3,,,9356HG,Tolbert,Leek,Groningen,VBO,6.360507,53.157056
Splitting,4,,,9356HG,Tolbert,Leek,Groningen,VBO,6.360470,53.156750
Splitting,5,,,9356HG,Tolbert,Leek,Groningen,VBO,6.360481,53.157235
Splitting,6,,,9356HG,Tolbert,Leek,Groningen,VBO,6.360038,53.157482
Splitting,7,,,9356HG,Tolbert,Leek,Groningen,VBO,6.360605,53.157414
Splitting,8,,,9356HG,Tolbert,Leek,Groningen,VBO,6.360072,53.157652
Splitting,9,,,9356HG,Tolbert,Leek,Groningen,VBO,6.360579,53.157585
Splitting,10,,,9356HG,Tolbert,Leek,Groningen,VBO,6.359986,53.157815
Splitting,11,,,9356HG,Tolbert,Leek,Groningen,VBO,6.360508,53.157783
Splitting,12,,,9356HG,Tolbert,Leek,Groningen,VBO,6.359900,53.158004
Vallaat,1,,,9356HH,Tolbert,Leek,Groningen,VBO,6.361606,53.157379
Vallaat,2,,,9356HH,Tolbert,Leek,Groningen,VBO,6.361112,53.157383
Vallaat,3,,,9356HH,Tolbert,Leek,Groningen,VBO,6.361592,53.157433
Vallaat,4,,,9356HH,Tolbert,Leek,Groningen,VBO,6.361100,53.157518
Vallaat,5,,,9356HH,Tolbert,Leek,Groningen,VBO,6.361550,53.157550
Vallaat,6,,,9356HH,Tolbert,Leek,Groningen,VBO,6.360954,53.157636
Vallaat,7,,,9356HH,Tolbert,Leek,Groningen,VBO,6.361521,53.157595
Vallaat,8,,,9356HH,Tolbert,Leek,Groningen,VBO,6.360973,53.157816
Vallaat,9,,,9356HH,Tolbert,Leek,Groningen,VBO,6.361479,53.157713
Vallaat,10,,,9356HH,Tolbert,Leek,Groningen,VBO,6.360688,53.157791
Vallaat,11,,,9356HH,Tolbert,Leek,Groningen,VBO,6.361463,53.157751
Vallaat,13,,,9356HH,Tolbert,Leek,Groningen,VBO,6.361422,53.157875
Vallaat,15,,,9356HH,Tolbert,Leek,Groningen,VBO,6.361394,53.157929
Vallaat,17,,,9356HH,Tolbert,Leek,Groningen,VBO,6.361520,53.158233
Vallaat,19,,,9356HH,Tolbert,Leek,Groningen,VBO,6.361400,53.158216
Vallaat,21,,,9356HH,Tolbert,Leek,Groningen,VBO,6.361205,53.158191
Vallaat,23,,,9356HH,Tolbert,Leek,Groningen,VBO,6.361142,53.158124
Vallaat,25,,,9356HH,Tolbert,Leek,Groningen,VBO,6.360830,53.158140
Vallaat,27,,,9356HH,Tolbert,Leek,Groningen,VBO,6.360740,53.158123
Vallaat,29,,,9356HH,Tolbert,Leek,Groningen,VBO,6.360545,53.158089
Vallaat,31,,,9356HH,Tolbert,Leek,Groningen,VBO,6.360470,53.158026
Barckemalaan,1,,,9356SB,Tolbert,Leek,Groningen,VBO,6.370300,53.175514
Barckemalaan,3,,,9356SB,Tolbert,Leek,Groningen,VBO,6.370594,53.175572
Barckemalaan,4,,,9356SB,Tolbert,Leek,Groningen,VBO,6.370696,53.175835
Barckemalaan,5,,,9356SB,Tolbert,Leek,Groningen,VBO,6.371017,53.175481
Barckemalaan,6,,,9356SB,Tolbert,Leek,Groningen,VBO,6.370911,53.176075
Barckemalaan,7,,,9356SB,Tolbert,Leek,Groningen,VBO,6.371376,53.175470
Barckemalaan,8,,,9356SB,Tolbert,Leek,Groningen,VBO,6.371016,53.176102
Barckemalaan,9,,,9356SB,Tolbert,Leek,Groningen,VBO,6.371839,53.175430
Barckemalaan,10,,,9356SB,Tolbert,Leek,Groningen,VBO,6.371055,53.175841
Barckemalaan,11,,,9356SB,Tolbert,Leek,Groningen,VBO,6.371743,53.175179
Barckemalaan,13,,,9356SB,Tolbert,Leek,Groningen,VBO,6.371857,53.174935
Barckemalaan,14,,,9356SB,Tolbert,Leek,Groningen,VBO,6.372245,53.175656
Barckemalaan,15,,,9356SB,Tolbert,Leek,Groningen,VBO,6.371928,53.174773
Barckemalaan,16,,,9356SB,Tolbert,Leek,Groningen,VBO,6.372286,53.175354
Barckemalaan,17,,,9356SB,Tolbert,Leek,Groningen,VBO,6.372586,53.174112
Barckemalaan,18,,,9356SB,Tolbert,Leek,Groningen,VBO,6.372249,53.175105
Barckemalaan,19,,,9356SB,Tolbert,Leek,Groningen,VBO,6.372746,53.173922
Barckemalaan,20,,,9356SB,Tolbert,Leek,Groningen,VBO,6.372381,53.174864
Barckemalaan,21,,,9356SB,Tolbert,Leek,Groningen,VBO,6.372861,53.173714
Barckemalaan,23,,,9356SB,Tolbert,Leek,Groningen,VBO,6.372886,53.173471
Barckemalaan,25,,,9356SB,Tolbert,Leek,Groningen,VBO,6.372894,53.173175
Barckemalaan,27,,,9356SB,Tolbert,Leek,Groningen,VBO,6.372804,53.172852
Bousemalaan,2,,,9356SC,Tolbert,Leek,Groningen,VBO,6.370397,53.175199
Bousemalaan,4,,,9356SC,Tolbert,Leek,Groningen,VBO,6.370816,53.175196
Bousemalaan,6,,,9356SC,Tolbert,Leek,Groningen,VBO,6.371205,53.175174
Bousemalaan,8,,,9356SC,Tolbert,Leek,Groningen,VBO,6.371288,53.174913
Bousemalaan,10,,,9356SC,Tolbert,Leek,Groningen,VBO,6.371373,53.174697
Bousemalaan,12,,,9356SC,Tolbert,Leek,Groningen,VBO,6.370118,53.174078
Bousemalaan,14,,,9356SC,Tolbert,Leek,Groningen,VBO,6.370043,53.174070
Bousemalaan,16,,,9356SC,Tolbert,Leek,Groningen,VBO,6.369908,53.174044
Bousemalaan,18,,,9356SC,Tolbert,Leek,Groningen,VBO,6.369788,53.174036
Bousemalaan,20,,,9356SC,Tolbert,Leek,Groningen,VBO,6.369653,53.174019
Bousemalaan,22,,,9356SC,Tolbert,Leek,Groningen,VBO,6.369518,53.174011
Bousemalaan,24,,,9356SC,Tolbert,Leek,Groningen,VBO,6.369277,53.173959
Bousemalaan,26,,,9356SC,Tolbert,Leek,Groningen,VBO,6.369291,53.173887
Bousemalaan,28,,,9356SC,Tolbert,Leek,Groningen,VBO,6.369304,53.173824
Bousemalaan,30,,,9356SC,Tolbert,Leek,Groningen,VBO,6.369360,53.173662
Bousemalaan,32,,,9356SC,Tolbert,Leek,Groningen,VBO,6.369434,53.173589
Bousemalaan,34,,,9356SC,Tolbert,Leek,Groningen,VBO,6.369462,53.173535
Bousemalaan,36,,,9356SC,Tolbert,Leek,Groningen,VBO,6.369643,53.173570
Bousemalaan,38,,,9356SC,Tolbert,Leek,Groningen,VBO,6.369762,53.173542
Bousemalaan,40,,,9356SC,Tolbert,Leek,Groningen,VBO,6.369896,53.173532
Bousemalaan,42,,,9356SC,Tolbert,Leek,Groningen,VBO,6.370015,53.173522
Bousemalaan,44,,,9356SC,Tolbert,Leek,Groningen,VBO,6.370150,53.173530
Bousemalaan,46,,,9356SC,Tolbert,Leek,Groningen,VBO,6.370255,53.173520
Bousemalaan,48,,,9356SC,Tolbert,Leek,Groningen,VBO,6.370375,53.173537
Bousemalaan,50,,,9356SC,Tolbert,Leek,Groningen,VBO,6.371030,53.173406
Bousemalaan,52,,,9356SC,Tolbert,Leek,Groningen,VBO,6.371251,53.173269
Bousemalaan,54,,,9356SC,Tolbert,Leek,Groningen,VBO,6.371397,53.173115
Bousemalaan,56,,,9356SC,Tolbert,Leek,Groningen,VBO,6.371498,53.172961
Bousemalaan,13,,,9356SE,Tolbert,Leek,Groningen,VBO,6.370389,53.174813
Bousemalaan,15,,,9356SE,Tolbert,Leek,Groningen,VBO,6.370749,53.174855
Bousemalaan,17,,,9356SE,Tolbert,Leek,Groningen,VBO,6.370861,53.174539
Bousemalaan,19,,,9356SE,Tolbert,Leek,Groningen,VBO,6.370531,53.174515
Bousemalaan,21,,,9356SE,Tolbert,Leek,Groningen,VBO,6.370021,53.174447
Bousemalaan,23,,,9356SE,Tolbert,Leek,Groningen,VBO,6.369676,53.174369
Bousemalaan,25,,,9356SE,Tolbert,Leek,Groningen,VBO,6.369331,53.174345
Bousemalaan,27,,,9356SE,Tolbert,Leek,Groningen,VBO,6.369001,53.174276
Bousemalaan,29,,,9356SE,Tolbert,Leek,Groningen,VBO,6.368770,53.173534
Elverinklaan,1,,,9356SG,Tolbert,Leek,Groningen,VBO,6.371346,53.173511
Elverinklaan,3,,,9356SG,Tolbert,Leek,Groningen,VBO,6.371588,53.173617
Elverinklaan,5,,,9356SG,Tolbert,Leek,Groningen,VBO,6.372089,53.173954
Iwemalaan,1,,,9356SH,Tolbert,Leek,Groningen,VBO,6.372336,53.172963
Iwemalaan,2,,,9356SH,Tolbert,Leek,Groningen,VBO,6.371812,53.172950
Iwemalaan,3,,,9356SH,Tolbert,Leek,Groningen,VBO,6.372431,53.173187
Iwemalaan,4,,,9356SH,Tolbert,Leek,Groningen,VBO,6.371887,53.173159
Iwemalaan,5,,,9356SH,Tolbert,Leek,Groningen,VBO,6.372376,53.173403
Iwemalaan,6,,,9356SH,Tolbert,Leek,Groningen,VBO,6.371732,53.173373
Iwemalaan,7,,,9356SH,Tolbert,Leek,Groningen,VBO,6.372248,53.173692
Tilolaan,1,,,9356SJ,Tolbert,Leek,Groningen,VBO,6.368664,53.173946
Tilolaan,3,,,9356SJ,Tolbert,Leek,Groningen,VBO,6.368363,53.173877
Tilolaan,5,,,9356SJ,Tolbert,Leek,Groningen,VBO,6.367840,53.173863
Barckemalaan,22,,,9356SK,Tolbert,Leek,Groningen,VBO,6.371975,53.172230
Barckemalaan,24,,,9356SK,Tolbert,Leek,Groningen,VBO,6.372005,53.172220
Barckemalaan,26,,,9356SK,Tolbert,Leek,Groningen,VBO,6.372035,53.172211
Barckemalaan,28,,,9356SK,Tolbert,Leek,Groningen,VBO,6.372064,53.172202
Barckemalaan,30,,,9356SK,Tolbert,Leek,Groningen,VBO,6.372094,53.172202
Barckemalaan,32,,,9356SK,Tolbert,Leek,Groningen,VBO,6.372124,53.172192
Barckemalaan,34,,,9356SK,Tolbert,Leek,Groningen,VBO,6.372154,53.172192
Barckemalaan,36,,,9356SK,Tolbert,Leek,Groningen,VBO,6.372183,53.172183
Barckemalaan,38,,,9356SK,Tolbert,Leek,Groningen,VBO,6.372213,53.172174
Barckemalaan,40,,,9356SK,Tolbert,Leek,Groningen,VBO,6.372258,53.172164
Barckemalaan,42,,,9356SK,Tolbert,Leek,Groningen,VBO,6.371430,53.172584
Barckemalaan,44,,,9356SK,Tolbert,Leek,Groningen,VBO,6.371460,53.172575
Barckemalaan,46,,,9356SK,Tolbert,Leek,Groningen,VBO,6.371489,53.172575
Barckemalaan,48,,,9356SK,Tolbert,Leek,Groningen,VBO,6.371519,53.172566
Barckemalaan,50,,,9356SK,Tolbert,Leek,Groningen,VBO,6.371564,53.172556
Barckemalaan,52,,,9356SK,Tolbert,Leek,Groningen,VBO,6.371594,53.172547
Barckemalaan,54,,,9356SK,Tolbert,Leek,Groningen,VBO,6.371638,53.172538
Barckemalaan,56,,,9356SK,Tolbert,Leek,Groningen,VBO,6.371683,53.172528
Barckemalaan,58,,,9356SK,Tolbert,Leek,Groningen,VBO,6.371713,53.172519
Barckemalaan,60,,,9356SK,Tolbert,Leek,Groningen,VBO,6.371697,53.172501
Hoofdstraat,65,,,9356TA,Tolbert,Leek,Groningen,VBO,6.361583,53.172961
Hoofdstraat,67,a,,9356TA,Tolbert,Leek,Groningen,VBO,6.361476,53.173181
Hoofdstraat,67,b,,9356TA,Tolbert,Leek,Groningen,VBO,6.361059,53.173561
Hoofdstraat,67,,,9356TA,Tolbert,Leek,Groningen,VBO,6.361718,53.173005
Hoofdstraat,69,,,9356TA,Tolbert,Leek,Groningen,VBO,6.361824,53.173049
Hoofdstraat,71,,,9356TA,Tolbert,Leek,Groningen,VBO,6.361937,53.173189
Hoofdstraat,75,,,9356TA,Tolbert,Leek,Groningen,VBO,6.362293,53.173297
Hoofdstraat,77,,,9356TA,Tolbert,Leek,Groningen,VBO,6.362415,53.173395
Hoofdstraat,79,,,9356TA,Tolbert,Leek,Groningen,VBO,6.362791,53.173500
Hoofdstraat,81,a,,9356TA,Tolbert,Leek,Groningen,VBO,6.363647,53.174381
Hoofdstraat,81,,I,9356TA,Tolbert,Leek,Groningen,VBO,6.363558,53.174095
Hoofdstraat,81,,II,9356TA,Tolbert,Leek,Groningen,VBO,6.364241,53.174419
Hoofdstraat,81,,,9356TA,Tolbert,Leek,Groningen,VBO,6.363269,53.174060
Hoofdstraat,83,,,9356TA,Tolbert,Leek,Groningen,VBO,6.367544,53.175487
Hoofdstraat,87,,,9356TA,Tolbert,Leek,Groningen,VBO,6.369715,53.176750
Hoofdstraat,89,,,9356TA,Tolbert,Leek,Groningen,VBO,6.370679,53.176401
Hoofdstraat,91,,,9356TA,Tolbert,Leek,Groningen,VBO,6.371058,53.176613
Hoofdstraat,93,,,9356TA,Tolbert,Leek,Groningen,VBO,6.371519,53.176651
Hoofdstraat,95,,,9356TA,Tolbert,Leek,Groningen,VBO,6.371971,53.176660
Hoofdstraat,97,,I,9356TA,Tolbert,Leek,Groningen,VBO,6.373888,53.177202
Hoofdstraat,97,,,9356TA,Tolbert,Leek,Groningen,VBO,6.372646,53.176645
Hoofdstraat,52,,I,9356TB,Tolbert,Leek,Groningen,VBO,6.362011,53.172968
Hoofdstraat,52,,,9356TB,Tolbert,Leek,Groningen,VBO,6.361926,53.172932
Hoofdstraat,54,,,9356TB,Tolbert,Leek,Groningen,VBO,6.362153,53.173047
Hoofdstraat,56,,,9356TB,Tolbert,Leek,Groningen,VBO,6.362259,53.173118
Hoofdstraat,58,,,9356TB,Tolbert,Leek,Groningen,VBO,6.362409,53.173143
Hoofdstraat,60,,,9356TB,Tolbert,Leek,Groningen,VBO,6.362575,53.173187
Hoofdstraat,66,,,9356TB,Tolbert,Leek,Groningen,VBO,6.364021,53.173652
Hoofdstraat,68,,I,9356TB,Tolbert,Leek,Groningen,VBO,6.366709,53.174519
Hoofdstraat,68,,,9356TB,Tolbert,Leek,Groningen,VBO,6.366222,53.174462
Hoofdstraat,70,,,9356TB,Tolbert,Leek,Groningen,VBO,6.366930,53.174652
Hoofdstraat,72,,I,9356TB,Tolbert,Leek,Groningen,VBO,6.367611,53.175095
Hoofdstraat,72,,,9356TB,Tolbert,Leek,Groningen,VBO,6.367245,53.174892
Hoofdstraat,74,,,9356TB,Tolbert,Leek,Groningen,VBO,6.367880,53.175338
Hoofdstraat,76,a,,9356TB,Tolbert,Leek,Groningen,VBO,6.370621,53.176019
Hoofdstraat,76,,,9356TB,Tolbert,Leek,Groningen,VBO,6.368260,53.175270
Hoofdstraat,78,,,9356TB,Tolbert,Leek,Groningen,VBO,6.371362,53.176189
Hoofdstraat,80,,,9356TB,Tolbert,Leek,Groningen,VBO,6.372196,53.176358
Hoofdstraat,84,,,9356TB,Tolbert,Leek,Groningen,VBO,6.372725,53.176258
Mensumaweg,21,,,9356TC,Tolbert,Leek,Groningen,VBO,6.359912,53.178466
Mensumaweg,22,,,9356TC,Tolbert,Leek,Groningen,VBO,6.356979,53.179090
Mensumaweg,23,,,9356TC,Tolbert,Leek,Groningen,VBO,6.356519,53.183346
Mensumaweg,24,,,9356TC,Tolbert,Leek,Groningen,VBO,6.358852,53.182224
Mensumaweg,25,,,9356TC,Tolbert,Leek,Groningen,VBO,6.358794,53.182581
Mensumaweg,26,,,9356TC,Tolbert,Leek,Groningen,VBO,6.361222,53.185903
Mensumaweg,27,,,9356TC,Tolbert,Leek,Groningen,VBO,6.357531,53.185591
Mensumaweg,28,,,9356TC,Tolbert,Leek,Groningen,VBO,6.357412,53.185863
Mensumaweg,29,,,9356TC,Tolbert,Leek,Groningen,VBO,6.357222,53.186307
Mensumaweg,30,,,9356TC,Tolbert,Leek,Groningen,VBO,6.358531,53.186827
Mensumaweg,31,,,9356TC,Tolbert,Leek,Groningen,VBO,6.354938,53.187501
Mensumaweg,32,,,9356TC,Tolbert,Leek,Groningen,VBO,6.356592,53.189668
Mensumaweg,33,,,9356TD,Tolbert,Leek,Groningen,VBO,6.353460,53.196333
Mensumaweg,34,,,9356TD,Tolbert,Leek,Groningen,VBO,6.353142,53.197015
Mensumaweg,35,,,9356TD,Tolbert,Leek,Groningen,VBO,6.352265,53.196377
Mensumaweg,36,,,9356TD,Tolbert,Leek,Groningen,VBO,6.352047,53.196771
Mensumaweg,37,,,9356TD,Tolbert,Leek,Groningen,VBO,6.350870,53.198934
Mensumaweg,38,,,9356TD,Tolbert,Leek,Groningen,VBO,6.352149,53.199192
Mensumaweg,39,,,9356TD,Tolbert,Leek,Groningen,VBO,6.352037,53.199638
Mensumaweg,40,,,9356TD,Tolbert,Leek,Groningen,VBO,6.349496,53.200987
Mensumaweg,41,a,,9356TD,Tolbert,Leek,Groningen,VBO,6.350183,53.201583
Mensumaweg,41,,,9356TD,Tolbert,Leek,Groningen,VBO,6.350196,53.201738
Mensumaweg,42,,,9356TD,Tolbert,Leek,Groningen,VBO,6.349335,53.201933
Mensumaweg,43,,,9356TD,Tolbert,Leek,Groningen,VBO,6.343222,53.207004
Mensumaweg,9999,,,9356TD,Tolbert,Leek,Groningen,VBO,6.354541,53.194400
't Kret,1,a,,9356TE,Tolbert,Leek,Groningen,VBO,6.350973,53.202622
't Kret,1,,,9356TE,Tolbert,Leek,Groningen,VBO,6.351442,53.203803
't Kret,2,a,,9356TE,Tolbert,Leek,Groningen,VBO,6.355995,53.203945
't Kret,2,,,9356TE,Tolbert,Leek,Groningen,VBO,6.354976,53.204629
't Kret,3,,,9356TE,Tolbert,Leek,Groningen,VBO,6.355814,53.205251
't Kret,4,,,9356TE,Tolbert,Leek,Groningen,VBO,6.360264,53.204792
't Kret,5,,,9356TE,Tolbert,Leek,Groningen,VBO,6.361014,53.204876
't Kret,6,,,9356TE,Tolbert,Leek,Groningen,VBO,6.362149,53.204954
Noorderweg,21,,,9356TG,Tolbert,Leek,Groningen,VBO,6.361993,53.188200
Noorderweg,23,,,9356TG,Tolbert,Leek,Groningen,VBO,6.353585,53.189850
Noorderweg,25,,,9356TG,Tolbert,Leek,Groningen,VBO,6.352177,53.189479
Noorderweg,27,,,9356TG,Tolbert,Leek,Groningen,VBO,6.350371,53.189170
Noorderweg,29,,,9356TG,Tolbert,Leek,Groningen,VBO,6.349087,53.188174
Noorderweg,31,,,9356TG,Tolbert,Leek,Groningen,VBO,6.345971,53.186941
Noorderweg,33,,I,9356TG,Tolbert,Leek,Groningen,VBO,6.344600,53.186689
Noorderweg,33,,,9356TG,Tolbert,Leek,Groningen,VBO,6.345185,53.186044
Noorderweg,10,,,9356TH,Tolbert,Leek,Groningen,VBO,6.368728,53.189400
Noorderweg,12,,,9356TH,Tolbert,Leek,Groningen,VBO,6.365333,53.193727
Noorderweg,14,,,9356TH,Tolbert,Leek,Groningen,VBO,6.362261,53.191603
Noorderweg,16,,,9356TH,Tolbert,Leek,Groningen,VBO,6.363518,53.191799
Noorderweg,18,e,,9356TH,Tolbert,Leek,Groningen,VBO,6.354949,53.190492
Noorderweg,18,,,9356TH,Tolbert,Leek,Groningen,VBO,6.354532,53.190514
Noorderweg,20,,,9356TH,Tolbert,Leek,Groningen,VBO,6.353038,53.190167
Noorderweg,22,A,,9356TH,Tolbert,Leek,Groningen,VBO,6.351547,53.189867
Noorderweg,22,,,9356TH,Tolbert,Leek,Groningen,VBO,6.351977,53.189953
Noorderweg,24,a,,9356TH,Tolbert,Leek,Groningen,VBO,6.350116,53.189740
Noorderweg,24,,,9356TH,Tolbert,Leek,Groningen,VBO,6.350739,53.189831
Noorderweg,26,,,9356TH,Tolbert,Leek,Groningen,VBO,6.348682,53.189327
Noorderweg,28,,,9356TH,Tolbert,Leek,Groningen,VBO,6.347626,53.188360
Noorderweg,32,,,9356TH,Tolbert,Leek,Groningen,VBO,6.346994,53.187493
Noorderweg,34,,,9356TH,Tolbert,Leek,Groningen,VBO,6.346843,53.187449
Noorderweg,36,,I,9356TH,Tolbert,Leek,Groningen,VBO,6.344678,53.189730
Noorderweg,36,,,9356TH,Tolbert,Leek,Groningen,VBO,6.346463,53.187327
Noorderweg,38,,,9356TH,Tolbert,Leek,Groningen,VBO,6.344402,53.187316
Hindrik de Haanweg,1,,,9356TJ,Tolbert,Leek,Groningen,VBO,6.346980,53.178768
Hindrik de Haanweg,2,,,9356TJ,Tolbert,Leek,Groningen,VBO,6.343256,53.181529
Hindrik de Haanweg,3,,,9356TJ,Tolbert,Leek,Groningen,VBO,6.348445,53.178720
Hindrik de Haanweg,4,,,9356TJ,Tolbert,Leek,Groningen,VBO,6.342580,53.181055
Hindrik de Haanweg,5,,,9356TJ,Tolbert,Leek,Groningen,VBO,6.350332,53.180214
Hindrik de Haanweg,6,,,9356TJ,Tolbert,Leek,Groningen,VBO,6.343955,53.182701
Hindrik de Haanweg,7,,,9356TJ,Tolbert,Leek,Groningen,VBO,6.347712,53.181413
Hindrik de Haanweg,11,e,,9356TJ,Tolbert,Leek,Groningen,VBO,6.346461,53.180053
Hindrik de Haanweg,11,,,9356TJ,Tolbert,Leek,Groningen,VBO,6.346568,53.179803
Hindrik de Haanweg,13,A,,9356TJ,Tolbert,Leek,Groningen,VBO,6.346549,53.180732
Hindrik de Haanweg,13,,,9356TJ,Tolbert,Leek,Groningen,VBO,6.346396,53.180785
Hindrik de Haanweg,15,,,9356TJ,Tolbert,Leek,Groningen,VBO,6.346032,53.181381
Hindrik de Haanweg,17,,,9356TJ,Tolbert,Leek,Groningen,VBO,6.345780,53.182224
Hindrik de Haanweg,19,,,9356TJ,Tolbert,Leek,Groningen,VBO,6.344808,53.182553
Schilligepad,1,,,9356TK,Tolbert,Leek,Groningen,VBO,6.348147,53.175895
Schilligepad,2,,,9356TK,Tolbert,Leek,Groningen,VBO,6.347519,53.174773
Schilligepad,3,,,9356TK,Tolbert,Leek,Groningen,VBO,6.348649,53.175937
Schilligepad,4,,,9356TK,Tolbert,Leek,Groningen,VBO,6.346972,53.175377
Schilligepad,5,,,9356TK,Tolbert,Leek,Groningen,VBO,6.349124,53.176315
Schilligepad,6,,,9356TK,Tolbert,Leek,Groningen,VBO,6.345625,53.175081
Schilligepad,7,,,9356TK,Tolbert,Leek,Groningen,VBO,6.345572,53.178594
Schilligepad,8,,,9356TK,Tolbert,Leek,Groningen,VBO,6.344791,53.174333
Schilligepad,9,,,9356TK,Tolbert,Leek,Groningen,VBO,6.344451,53.178292
Schilligepad,10,a,,9356TK,Tolbert,Leek,Groningen,VBO,6.346352,53.176456
Schilligepad,10,,,9356TK,Tolbert,Leek,Groningen,VBO,6.346332,53.176517
Schilligepad,11,,,9356TK,Tolbert,Leek,Groningen,VBO,6.344241,53.177838
Schilligepad,12,,,9356TK,Tolbert,Leek,Groningen,VBO,6.346126,53.177654
Schilligepad,14,,,9356TK,Tolbert,Leek,Groningen,VBO,6.344807,53.177239
Schilligepad,16,,,9356TK,Tolbert,Leek,Groningen,VBO,6.343868,53.177373
Noorderpark,1,,,9356TL,Tolbert,Leek,Groningen,STA,6.346957,53.187196
Noorderpark,2,,,9356TL,Tolbert,Leek,Groningen,VBO,6.347439,53.187296
Noorderpark,3,,,9356TL,Tolbert,Leek,Groningen,STA,6.347017,53.187045
Noorderpark,4,,,9356TL,Tolbert,Leek,Groningen,VBO,6.347467,53.187238
Noorderpark,5,,,9356TL,Tolbert,Leek,Groningen,STA,6.347072,53.186898
Noorderpark,6,,,9356TL,Tolbert,Leek,Groningen,VBO,6.347525,53.187138
Noorderpark,7,,,9356TL,Tolbert,Leek,Groningen,STA,6.347134,53.186758
Noorderpark,8,,,9356TL,Tolbert,Leek,Groningen,VBO,6.347553,53.187066
Noorderpark,9,,,9356TL,Tolbert,Leek,Groningen,VBO,6.347346,53.186502
Noorderpark,10,,,9356TL,Tolbert,Leek,Groningen,VBO,6.347751,53.186561
Noorderpark,11,,,9356TL,Tolbert,Leek,Groningen,VBO,6.347451,53.186519
Noorderpark,12,,,9356TL,Tolbert,Leek,Groningen,VBO,6.347631,53.186544
Traansterweg,11,,,9356TM,Tolbert,Leek,Groningen,VBO,6.368866,53.198028
Traansterweg,13,,,9356TM,Tolbert,Leek,Groningen,VBO,6.363285,53.196832
Traansterweg,15,,,9356TM,Tolbert,Leek,Groningen,VBO,6.368594,53.189937
Bousemalaan,1,a,,9356TN,Tolbert,Leek,Groningen,VBO,6.369476,53.175413
Bousemalaan,1,b,,9356TN,Tolbert,Leek,Groningen,VBO,6.369491,53.175362
Bousemalaan,1,c,,9356TN,Tolbert,Leek,Groningen,VBO,6.369507,53.175315
Bousemalaan,1,d,,9356TN,Tolbert,Leek,Groningen,VBO,6.369663,53.175333
Bousemalaan,1,f,,9356TN,Tolbert,Leek,Groningen,VBO,6.369649,53.175380
Bousemalaan,1,g,,9356TN,Tolbert,Leek,Groningen,VBO,6.369633,53.175427
Bousemalaan,1,h,,9356TN,Tolbert,Leek,Groningen,VBO,6.369552,53.175172
Bousemalaan,1,j,,9356TN,Tolbert,Leek,Groningen,VBO,6.369566,53.175123
Bousemalaan,1,k,,9356TN,Tolbert,Leek,Groningen,VBO,6.369583,53.175076
Bousemalaan,1,m,,9356TN,Tolbert,Leek,Groningen,VBO,6.369738,53.175092
Bousemalaan,1,n,,9356TN,Tolbert,Leek,Groningen,VBO,6.369725,53.175140
Bousemalaan,1,p,,9356TN,Tolbert,Leek,Groningen,VBO,6.369709,53.175190
Bousemalaan,1,q,,9356TN,Tolbert,Leek,Groningen,VBO,6.369593,53.175423
Bousemalaan,1,r,,9356TN,Tolbert,Leek,Groningen,VBO,6.369610,53.175376
Bousemalaan,1,s,,9356TN,Tolbert,Leek,Groningen,VBO,6.369625,53.175329
Bousemalaan,1,t,,9356TN,Tolbert,Leek,Groningen,VBO,6.369639,53.175285
Bousemalaan,1,u,,9356TN,Tolbert,Leek,Groningen,VBO,6.369654,53.175237
Bousemalaan,1,v,,9356TN,Tolbert,Leek,Groningen,VBO,6.369673,53.175185
Bousemalaan,1,w,,9356TN,Tolbert,Leek,Groningen,VBO,6.369688,53.175135
Bousemalaan,1,,,9356TN,Tolbert,Leek,Groningen,VBO,6.369515,53.175536
Bousemalaan,3,a,,9356TN,Tolbert,Leek,Groningen,VBO,6.369076,53.175446
Bousemalaan,3,b,,9356TN,Tolbert,Leek,Groningen,VBO,6.368995,53.175436
Bousemalaan,3,c,,9356TN,Tolbert,Leek,Groningen,VBO,6.369149,53.175472
Bousemalaan,3,d,,9356TN,Tolbert,Leek,Groningen,VBO,6.368987,53.175452
Bousemalaan,3,e,,9356TN,Tolbert,Leek,Groningen,VBO,6.368866,53.174862
Bousemalaan,3,,,9356TN,Tolbert,Leek,Groningen,VBO,6.369154,53.175454
Bousemalaan,5,,,9356TN,Tolbert,Leek,Groningen,VBO,6.369386,53.174774
Bousemalaan,7,,,9356TN,Tolbert,Leek,Groningen,VBO,6.369496,53.174785
Bousemalaan,9,,,9356TN,Tolbert,Leek,Groningen,VBO,6.369812,53.174831
Bousemalaan,11,,,9356TN,Tolbert,Leek,Groningen,VBO,6.369834,53.174767
De Holm,1,,I,9356VA,Tolbert,Leek,Groningen,VBO,6.353268,53.171003
De Holm,1,,,9356VA,Tolbert,Leek,Groningen,VBO,6.353473,53.171052
De Holm,3,a,,9356VA,Tolbert,Leek,Groningen,VBO,6.353293,53.170658
De Holm,3,,,9356VA,Tolbert,Leek,Groningen,VBO,6.352966,53.170953
De Holm,5,,,9356VA,Tolbert,Leek,Groningen,VBO,6.352576,53.170824
De Holm,7,,I,9356VA,Tolbert,Leek,Groningen,VBO,6.351240,53.170488
De Holm,7,,,9356VA,Tolbert,Leek,Groningen,VBO,6.351717,53.170534
De Holm,9,,,9356VA,Tolbert,Leek,Groningen,VBO,6.349405,53.170094
De Holm,11,,,9356VA,Tolbert,Leek,Groningen,VBO,6.347643,53.169717
De Holm,13,e,,9356VA,Tolbert,Leek,Groningen,VBO,6.344831,53.168825
De Holm,13,,,9356VA,Tolbert,Leek,Groningen,VBO,6.345328,53.169180
De Holm,15,,I,9356VA,Tolbert,Leek,Groningen,VBO,6.339629,53.167631
De Holm,15,,,9356VA,Tolbert,Leek,Groningen,VBO,6.344191,53.168995
De Holm,17,,,9356VA,Tolbert,Leek,Groningen,VBO,6.338045,53.166986
De Holm,2,,,9356VB,Tolbert,Leek,Groningen,VBO,6.352885,53.171271
De Holm,4,,,9356VB,Tolbert,Leek,Groningen,VBO,6.352133,53.171070
De Holm,6,,,9356VB,Tolbert,Leek,Groningen,VBO,6.351653,53.171011
De Holm,8,,,9356VB,Tolbert,Leek,Groningen,VBO,6.351160,53.171015
De Holm,10,a,,9356VB,Tolbert,Leek,Groningen,VBO,6.348838,53.171520
De Holm,10,,,9356VB,Tolbert,Leek,Groningen,VBO,6.350596,53.170744
De Holm,12,,I,9356VB,Tolbert,Leek,Groningen,VBO,6.346928,53.170130
De Holm,12,,,9356VB,Tolbert,Leek,Groningen,VBO,6.348035,53.170576
De Holm,14,,,9356VB,Tolbert,Leek,Groningen,VBO,6.345745,53.169797
De Holm,16,,I,9356VB,Tolbert,Leek,Groningen,VBO,6.343444,53.169515
De Holm,16,,,9356VB,Tolbert,Leek,Groningen,VBO,6.344017,53.169583
De Holm,18,,,9356VB,Tolbert,Leek,Groningen,VBO,6.342231,53.169209
De Holm,20,,I,9356VB,Tolbert,Leek,Groningen,VBO,6.341156,53.169108
De Holm,20,,,9356VB,Tolbert,Leek,Groningen,VBO,6.341549,53.169168
De Holm,22,,,9356VB,Tolbert,Leek,Groningen,VBO,6.339955,53.168822
De Holm,24,,,9356VB,Tolbert,Leek,Groningen,VBO,6.336825,53.167229
De Holm,26,a,,9356VB,Tolbert,Leek,Groningen,VBO,6.336217,53.166873
De Holm,26,,,9356VB,Tolbert,Leek,Groningen,VBO,6.336260,53.166823
De Holm,28,,,9356VB,Tolbert,Leek,Groningen,VBO,6.335811,53.166698
De Holm,30,,I,9356VB,Tolbert,Leek,Groningen,VBO,6.334926,53.166429
De Holm,30,,,9356VB,Tolbert,Leek,Groningen,VBO,6.335293,53.166482
De Holm,32,e,,9356VB,Tolbert,Leek,Groningen,VBO,6.334655,53.166147
De Holm,32,,,9356VB,Tolbert,Leek,Groningen,VBO,6.334631,53.166250
De Holm,34,,,9356VB,Tolbert,Leek,Groningen,VBO,6.334312,53.166230
Holmerpad,1,,,9356VC,Tolbert,Leek,Groningen,VBO,6.354291,53.168563
Holmerpad,2,,,9356VC,Tolbert,Leek,Groningen,VBO,6.352819,53.167641
Holmerpad,4,,,9356VC,Tolbert,Leek,Groningen,VBO,6.351794,53.167781
Holmerpad,5,,,9356VC,Tolbert,Leek,Groningen,VBO,6.350347,53.166726
Holmerpad,6,,,9356VC,Tolbert,Leek,Groningen,VBO,6.348207,53.166006
Holmerpad,7,,,9356VC,Tolbert,Leek,Groningen,VBO,6.347235,53.165987
Holmerpad,8,,,9356VC,Tolbert,Leek,Groningen,VBO,6.346965,53.164212
Holmerpad,9,,,9356VC,Tolbert,Leek,Groningen,VBO,6.346084,53.163336
Holmerpad,10,,,9356VC,Tolbert,Leek,Groningen,VBO,6.343731,53.164599
Holmerpad,11,,,9356VC,Tolbert,Leek,Groningen,VBO,6.342586,53.163346
Holmerpad,14,,,9356VC,Tolbert,Leek,Groningen,VBO,6.339127,53.162840
Holmerpad,15,,,9356VC,Tolbert,Leek,Groningen,VBO,6.338573,53.164382
Holmerpad,9999,,,9356VC,Tolbert,Leek,Groningen,VBO,6.341464,53.163168
Tolbertervaart,1,A,,9356VD,Tolbert,Leek,Groningen,VBO,6.354132,53.170297
Tolbertervaart,1,B,,9356VD,Tolbert,Leek,Groningen,VBO,6.354008,53.170374
Tolbertervaart,1,C,,9356VD,Tolbert,Leek,Groningen,VBO,6.354164,53.170241
Tolbertervaart,1,D,,9356VD,Tolbert,Leek,Groningen,VBO,6.354198,53.170141
Tolbertervaart,1,,,9356VD,Tolbert,Leek,Groningen,VBO,6.354203,53.170475
Tolbertervaart,2,B,,9356VD,Tolbert,Leek,Groningen,VBO,6.354889,53.170459
Tolbertervaart,2,,,9356VD,Tolbert,Leek,Groningen,VBO,6.354728,53.170761
Tolbertervaart,3,,,9356VD,Tolbert,Leek,Groningen,VBO,6.354616,53.167742
Tolbertervaart,4,,,9356VD,Tolbert,Leek,Groningen,VBO,6.355131,53.170021
Tolbertervaart,5,,,9356VD,Tolbert,Leek,Groningen,VBO,6.355751,53.166341
Tolbertervaart,6,,,9356VD,Tolbert,Leek,Groningen,VBO,6.356077,53.165512
Tolbertervaart,7,,,9356VD,Tolbert,Leek,Groningen,VBO,6.356752,53.161606
Tolbertervaart,8,,,9356VD,Tolbert,Leek,Groningen,VBO,6.355328,53.169481
Tolbertervaart,9,,,9356VD,Tolbert,Leek,Groningen,VBO,6.359300,53.155241
Tolbertervaart,10,,,9356VD,Tolbert,Leek,Groningen,VBO,6.360108,53.153146
Tolbertervaart,11,,,9356VD,Tolbert,Leek,Groningen,VBO,6.360269,53.152438
Tolbertervaart,9999,,,9356VD,Tolbert,Leek,Groningen,VBO,6.354913,53.170335
De Zandhoogte,1,,,9356VE,Tolbert,Leek,Groningen,VBO,6.354082,53.157215
De Zandhoogte,2,,,9356VE,Tolbert,Leek,Groningen,VBO,6.357555,53.148740
De Zandhoogte,4,,,9356VE,Tolbert,Leek,Groningen,VBO,6.356190,53.152561
De Zandhoogte,6,,,9356VE,Tolbert,Leek,Groningen,VBO,6.354816,53.153938
De Zandhoogte,8,,,9356VE,Tolbert,Leek,Groningen,VBO,6.353528,53.153832
De Zandhoogte,10,A,,9356VE,Tolbert,Leek,Groningen,VBO,6.355133,53.154956
De Zandhoogte,10,,,9356VE,Tolbert,Leek,Groningen,VBO,6.355173,53.155212
De Zandhoogte,12,a,,9356VE,Tolbert,Leek,Groningen,VBO,6.353921,53.156330
De Zandhoogte,12,e,,9356VE,Tolbert,Leek,Groningen,VBO,6.354127,53.156494
De Zandhoogte,12,,,9356VE,Tolbert,Leek,Groningen,VBO,6.354750,53.156356
De Zandhoogte,14,,,9356VE,Tolbert,Leek,Groningen,VBO,6.353731,53.156877
De Zandhoogte,16,,,9356VE,Tolbert,Leek,Groningen,VBO,6.352873,53.159319
De Zandhoogte,18,,,9356VE,Tolbert,Leek,Groningen,VBO,6.352591,53.160067
Leuringslaan,2,,,9356VG,Tolbert,Leek,Groningen,VBO,6.359465,53.172074
Leuringslaan,3,,,9356VG,Tolbert,Leek,Groningen,VBO,6.359406,53.171299
Leuringslaan,4,,,9356VG,Tolbert,Leek,Groningen,VBO,6.359549,53.172086
Leuringslaan,5,,,9356VG,Tolbert,Leek,Groningen,VBO,6.359420,53.171245
Leuringslaan,6,,,9356VG,Tolbert,Leek,Groningen,VBO,6.359488,53.172022
Leuringslaan,7,,,9356VG,Tolbert,Leek,Groningen,VBO,6.359449,53.171191
Leuringslaan,8,,,9356VG,Tolbert,Leek,Groningen,VBO,6.359570,53.172035
Leuringslaan,9,,,9356VG,Tolbert,Leek,Groningen,VBO,6.359461,53.171065
Leuringslaan,10,,,9356VG,Tolbert,Leek,Groningen,VBO,6.359508,53.171893
Leuringslaan,11,,,9356VG,Tolbert,Leek,Groningen,VBO,6.359459,53.170993
Leuringslaan,12,,,9356VG,Tolbert,Leek,Groningen,VBO,6.359593,53.171903
Leuringslaan,13,,,9356VG,Tolbert,Leek,Groningen,VBO,6.359506,53.170945
Leuringslaan,14,,,9356VG,Tolbert,Leek,Groningen,VBO,6.359524,53.171855
Leuringslaan,15,,,9356VG,Tolbert,Leek,Groningen,VBO,6.359502,53.170885
Leuringslaan,17,,,9356VG,Tolbert,Leek,Groningen,VBO,6.359485,53.170813
Leuringslaan,19,,,9356VG,Tolbert,Leek,Groningen,VBO,6.359529,53.170768
Leuringslaan,21,,,9356VG,Tolbert,Leek,Groningen,VBO,6.359628,53.170506
Leuringslaan,23,,,9356VG,Tolbert,Leek,Groningen,VBO,6.359657,53.170461
Leuringslaan,25,,,9356VG,Tolbert,Leek,Groningen,VBO,6.359671,53.170407
Leuringslaan,27,,,9356VG,Tolbert,Leek,Groningen,VBO,6.359714,53.170335
Leuringslaan,29,,,9356VG,Tolbert,Leek,Groningen,VBO,6.359772,53.170262
Leuringslaan,31,a,,9356VG,Tolbert,Leek,Groningen,VBO,6.359896,53.169413
Leuringslaan,31,b,,9356VG,Tolbert,Leek,Groningen,VBO,6.359931,53.169279
Leuringslaan,31,,,9356VG,Tolbert,Leek,Groningen,VBO,6.359784,53.170118
Leuringslaan,33,a,,9356VG,Tolbert,Leek,Groningen,VBO,6.360208,53.168839
Leuringslaan,33,,,9356VG,Tolbert,Leek,Groningen,VBO,6.360175,53.169072
Leuringslaan,37,,,9356VG,Tolbert,Leek,Groningen,VBO,6.360460,53.167615
Leuringslaan,39,,,9356VG,Tolbert,Leek,Groningen,VBO,6.360660,53.167209
Leuringslaan,41,,,9356VG,Tolbert,Leek,Groningen,VBO,6.360907,53.166856
Leuringslaan,43,,,9356VG,Tolbert,Leek,Groningen,VBO,6.361197,53.166468
Leuringslaan,45,,,9356VG,Tolbert,Leek,Groningen,VBO,6.361399,53.166133
de Wissel,1,,,9356VH,Tolbert,Leek,Groningen,VBO,6.356785,53.157298
Carolieweg,4,,,9356VK,Tolbert,Leek,Groningen,VBO,6.355056,53.151959
Leuringslaan,16,,,9356VL,Tolbert,Leek,Groningen,VBO,6.359614,53.171856
Leuringslaan,18,,,9356VL,Tolbert,Leek,Groningen,VBO,6.359549,53.171801
Leuringslaan,20,,,9356VL,Tolbert,Leek,Groningen,VBO,6.359627,53.171813
Leuringslaan,22,,,9356VL,Tolbert,Leek,Groningen,VBO,6.359569,53.171750
Leuringslaan,24,,,9356VL,Tolbert,Leek,Groningen,VBO,6.359644,53.171762
Leuringslaan,26,a,,9356VL,Tolbert,Leek,Groningen,VBO,6.359786,53.171610
Leuringslaan,26,,,9356VL,Tolbert,Leek,Groningen,VBO,6.359686,53.171596
Leuringslaan,28,a,,9356VL,Tolbert,Leek,Groningen,VBO,6.359810,53.171555
Leuringslaan,28,,,9356VL,Tolbert,Leek,Groningen,VBO,6.359704,53.171541
Leuringslaan,30,,,9356VL,Tolbert,Leek,Groningen,VBO,6.359980,53.170854
Leuringslaan,32,,,9356VL,Tolbert,Leek,Groningen,VBO,6.360121,53.170382
Leuringslaan,34,,,9356VL,Tolbert,Leek,Groningen,VBO,6.360127,53.170353
Leuringslaan,36,,,9356VL,Tolbert,Leek,Groningen,VBO,6.360133,53.170330
Leuringslaan,38,,,9356VL,Tolbert,Leek,Groningen,VBO,6.360139,53.170309
Leuringslaan,40,a,,9356VM,Tolbert,Leek,Groningen,VBO,6.360999,53.169757
Leuringslaan,40,,,9356VM,Tolbert,Leek,Groningen,VBO,6.360686,53.169662
Leuringslaan,42,,I,9356VM,Tolbert,Leek,Groningen,VBO,6.361134,53.168659
Leuringslaan,42,,,9356VM,Tolbert,Leek,Groningen,VBO,6.361226,53.169007
Leuringslaan,44,,2,9356VM,Tolbert,Leek,Groningen,VBO,6.361294,53.168326
Leuringslaan,46,,,9356VM,Tolbert,Leek,Groningen,VBO,6.361351,53.168012
Leuringslaan,48,,,9356VM,Tolbert,Leek,Groningen,VBO,6.361480,53.167741
Leuringslaan,52,,,9356VM,Tolbert,Leek,Groningen,VBO,6.361622,53.167408
Leuringslaan,54,,,9356VM,Tolbert,Leek,Groningen,VBO,6.361767,53.167218
Leuringslaan,56,,,9356VM,Tolbert,Leek,Groningen,VBO,6.362392,53.167087
Leuringslaan,60,,,9356VM,Tolbert,Leek,Groningen,VBO,6.362561,53.166618
Leuringslaan,62,,,9356VM,Tolbert,Leek,Groningen,VBO,6.362647,53.166438
Leuringslaan,64,,,9356VM,Tolbert,Leek,Groningen,VBO,6.362687,53.166222
Leuringslaan,66,,,9356VM,Tolbert,Leek,Groningen,VBO,6.362788,53.166059
Leuringslaan,68,,,9356VN,Tolbert,Leek,Groningen,VBO,6.362948,53.165851
