openbareruimtenaam,huisnummer,huisletter,huisnummertoevoeging,postcode,woonplaatsnaam,gemeentenaam,provincienaam,typeadresseerbaarobject,longitude,latitude
Hoofdvaartsweg,71,,,9405AC,Assen,Assen,Drenthe,VBO,6.530025,52.997527
Hoofdvaartsweg,73,,,9405AC,Assen,Assen,Drenthe,VBO,6.529596,52.996516
Hoofdvaartsweg,77,,,9405AC,Assen,Assen,Drenthe,VBO,6.528141,52.997285
Hoofdvaartsweg,79,,,9405AC,Assen,Assen,Drenthe,VBO,6.527636,52.997343
Hoofdvaartsweg,83,,,9405AC,Assen,Assen,Drenthe,VBO,6.527319,52.997176
Hoofdvaartsweg,85,,,9405AC,Assen,Assen,Drenthe,VBO,6.526949,52.997260
Hoofdvaartsweg,91,,,9405AC,Assen,Assen,Drenthe,VBO,6.522151,52.995472
Hoofdvaartsweg,95,,,9405AC,Assen,Assen,Drenthe,VBO,6.522823,52.996697
Hoofdvaartsweg,97,A,,9405AC,Assen,Assen,Drenthe,VBO,6.521683,52.995827
Hoofdvaartsweg,97,,,9405AC,Assen,Assen,Drenthe,VBO,6.521683,52.996402
Witterstraat,41,,,9405AD,Assen,Assen,Drenthe,VBO,6.544344,52.991521
Witterstraat,43,,,9405AD,Assen,Assen,Drenthe,VBO,6.544269,52.991495
Witterstraat,45,,,9405AD,Assen,Assen,Drenthe,VBO,6.544178,52.991460
Witterstraat,47,,,9405AD,Assen,Assen,Drenthe,VBO,6.544103,52.991434
Witterstraat,49,,,9405AD,Assen,Assen,Drenthe,VBO,6.543998,52.991408
Witterstraat,51,,,9405AD,Assen,Assen,Drenthe,VBO,6.543923,52.991381
Witterstraat,53,,,9405AD,Assen,Assen,Drenthe,VBO,6.543848,52.991355
Witterstraat,55,,,9405AD,Assen,Assen,Drenthe,VBO,6.543773,52.991329
Witterstraat,57,,,9405AD,Assen,Assen,Drenthe,VBO,6.543667,52.991294
Witterstraat,61,,,9405AD,Assen,Assen,Drenthe,VBO,6.542990,52.991004
Witterstraat,65,,,9405AD,Assen,Assen,Drenthe,VBO,6.542751,52.990997
Witterstraat,67,,,9405AD,Assen,Assen,Drenthe,VBO,6.542631,52.990953
Witterstraat,69,,,9405AD,Assen,Assen,Drenthe,VBO,6.542571,52.990936
Witterstraat,71,,,9405AD,Assen,Assen,Drenthe,VBO,6.542435,52.990892
Witterstraat,73,,,9405AD,Assen,Assen,Drenthe,VBO,6.542300,52.990822
Witterstraat,75,,,9405AD,Assen,Assen,Drenthe,VBO,6.542135,52.990796
Witterstraat,77,,,9405AD,Assen,Assen,Drenthe,VBO,6.542075,52.990770
Witterstraat,79,,,9405AD,Assen,Assen,Drenthe,VBO,6.541940,52.990726
Witterstraat,81,,,9405AD,Assen,Assen,Drenthe,VBO,6.541804,52.990683
Witterstraat,85,,,9405AE,Assen,Assen,Drenthe,VBO,6.541442,52.990507
Witterstraat,87,,,9405AE,Assen,Assen,Drenthe,VBO,6.541158,52.990455
Witterstraat,89,,,9405AE,Assen,Assen,Drenthe,VBO,6.540872,52.990359
Witterstraat,91,,,9405AE,Assen,Assen,Drenthe,VBO,6.540481,52.990192
Witterstraat,93,,,9405AE,Assen,Assen,Drenthe,VBO,6.540030,52.990035
Witterstraat,95,,,9405AE,Assen,Assen,Drenthe,VBO,6.539550,52.989923
Witterstraat,97,,,9405AE,Assen,Assen,Drenthe,VBO,6.539355,52.989862
Witterstraat,99,,,9405AE,Assen,Assen,Drenthe,VBO,6.539280,52.989835
Witterstraat,101,,,9405AE,Assen,Assen,Drenthe,VBO,6.539100,52.989783
Witterstraat,103,,,9405AE,Assen,Assen,Drenthe,VBO,6.539025,52.989757
Witterstraat,105,,,9405AE,Assen,Assen,Drenthe,VBO,6.538886,52.989579
Witterstraat,107,,,9405AE,Assen,Assen,Drenthe,VBO,6.538780,52.989535
Witterstraat,109,,,9405AE,Assen,Assen,Drenthe,VBO,6.538660,52.989500
Witterstraat,111,,,9405AE,Assen,Assen,Drenthe,VBO,6.538540,52.989456
Witterstraat,113,,,9405AE,Assen,Assen,Drenthe,VBO,6.538405,52.989413
Witterstraat,115,,,9405AE,Assen,Assen,Drenthe,VBO,6.538330,52.989386
Witterstraat,117,,,9405AE,Assen,Assen,Drenthe,VBO,6.538179,52.989325
Witterstraat,119,,,9405AE,Assen,Assen,Drenthe,VBO,6.538104,52.989299
Witterstraat,121,,,9405AE,Assen,Assen,Drenthe,VBO,6.537939,52.989246
Witterstraat,123,,,9405AE,Assen,Assen,Drenthe,VBO,6.537864,52.989220
Witterstraat,125,,,9405AE,Assen,Assen,Drenthe,VBO,6.537699,52.989186
Witterstraat,127,,,9405AE,Assen,Assen,Drenthe,VBO,6.537609,52.989160
Witterstraat,129,,,9405AE,Assen,Assen,Drenthe,VBO,6.537248,52.989046
Witterstraat,131,,,9405AE,Assen,Assen,Drenthe,VBO,6.537292,52.988992
Broeklaan,3,,,9405AL,Assen,Assen,Drenthe,VBO,6.545502,52.988607
Broeklaan,5,,,9405AL,Assen,Assen,Drenthe,VBO,6.545530,52.988517
Broeklaan,7,A,,9405AL,Assen,Assen,Drenthe,VBO,6.545569,52.988319
Broeklaan,7,,,9405AL,Assen,Assen,Drenthe,VBO,6.545542,52.988427
Broeklaan,9,,,9405AL,Assen,Assen,Drenthe,VBO,6.545582,52.988247
Broeklaan,11,,,9405AL,Assen,Assen,Drenthe,VBO,6.545624,52.988139
Broeklaan,13,,,9405AL,Assen,Assen,Drenthe,VBO,6.545636,52.988040
Broeklaan,15,,,9405AL,Assen,Assen,Drenthe,VBO,6.545663,52.987940
Broeklaan,17,,,9405AL,Assen,Assen,Drenthe,VBO,6.545689,52.987805
Broeklaan,2,,,9405AM,Assen,Assen,Drenthe,VBO,6.544409,52.991188
Broeklaan,4,,,9405AM,Assen,Assen,Drenthe,VBO,6.544423,52.991134
Broeklaan,10,,,9405AM,Assen,Assen,Drenthe,VBO,6.544479,52.991007
Broeklaan,12,,,9405AM,Assen,Assen,Drenthe,VBO,6.544492,52.990944
Broeklaan,14,A,,9405AM,Assen,Assen,Drenthe,VBO,6.544145,52.990777
Broeklaan,14,B,,9405AM,Assen,Assen,Drenthe,VBO,6.544158,52.990705
Broeklaan,14,C,,9405AM,Assen,Assen,Drenthe,VBO,6.544186,52.990633
Broeklaan,14,D,,9405AM,Assen,Assen,Drenthe,VBO,6.544500,52.990675
Broeklaan,14,,,9405AM,Assen,Assen,Drenthe,VBO,6.544459,52.990828
Broeklaan,16,A,,9405AM,Assen,Assen,Drenthe,VBO,6.544088,52.990850
Broeklaan,16,B,,9405AM,Assen,Assen,Drenthe,VBO,6.544115,52.990777
Broeklaan,16,C,,9405AM,Assen,Assen,Drenthe,VBO,6.544128,52.990705
Broeklaan,16,D,,9405AM,Assen,Assen,Drenthe,VBO,6.544156,52.990633
Broeklaan,16,E,,9405AM,Assen,Assen,Drenthe,VBO,6.544470,52.990675
Broeklaan,16,,,9405AM,Assen,Assen,Drenthe,VBO,6.544429,52.990819
Broeklaan,18,,,9405AM,Assen,Assen,Drenthe,VBO,6.544572,52.990575
Broeklaan,20,,,9405AM,Assen,Assen,Drenthe,VBO,6.544598,52.990458
Broeklaan,22,A,,9405AM,Assen,Assen,Drenthe,VBO,6.544387,52.990334
Broeklaan,22,,,9405AM,Assen,Assen,Drenthe,VBO,6.544625,52.990341
Broeklaan,24,,,9405AM,Assen,Assen,Drenthe,VBO,6.544653,52.990269
Broeklaan,26,,,9405AM,Assen,Assen,Drenthe,VBO,6.544667,52.990224
Broeklaan,28,,,9405AM,Assen,Assen,Drenthe,VBO,6.544693,52.990098
Broeklaan,30,,,9405AM,Assen,Assen,Drenthe,VBO,6.544707,52.990053
Broeklaan,32,,,9405AN,Assen,Assen,Drenthe,VBO,6.544704,52.989963
Broeklaan,34,,,9405AN,Assen,Assen,Drenthe,VBO,6.544731,52.989855
Broeklaan,36,,,9405AN,Assen,Assen,Drenthe,VBO,6.544730,52.989810
Broeklaan,38,,,9405AN,Assen,Assen,Drenthe,VBO,6.544757,52.989711
Broeklaan,40,,,9405AN,Assen,Assen,Drenthe,VBO,6.544783,52.989576
Broeklaan,42,,,9405AN,Assen,Assen,Drenthe,VBO,6.544797,52.989540
Broeklaan,44,,,9405AN,Assen,Assen,Drenthe,VBO,6.544853,52.989386
Broeklaan,46,,,9405AN,Assen,Assen,Drenthe,VBO,6.544879,52.989251
Broeklaan,48,,,9405AN,Assen,Assen,Drenthe,VBO,6.544893,52.989197
Broeklaan,50,,,9405AN,Assen,Assen,Drenthe,VBO,6.544919,52.989071
Broeklaan,52,,,9405AN,Assen,Assen,Drenthe,VBO,6.544947,52.989017
Broeklaan,54,,,9405AN,Assen,Assen,Drenthe,VBO,6.544974,52.988891
Broeklaan,56,,,9405AN,Assen,Assen,Drenthe,VBO,6.544987,52.988846
Broeklaan,58,,,9405AN,Assen,Assen,Drenthe,VBO,6.544999,52.988729
Broeklaan,60,,,9405AN,Assen,Assen,Drenthe,VBO,6.545012,52.988666
Broeklaan,62,,,9405AN,Assen,Assen,Drenthe,VBO,6.545009,52.988549
Broeklaan,64,,,9405AN,Assen,Assen,Drenthe,VBO,6.545146,52.988107
Broeklaan,66,,,9405AN,Assen,Assen,Drenthe,VBO,6.545216,52.987936
Broeklaan,68,,,9405AN,Assen,Assen,Drenthe,VBO,6.545211,52.987729
Anton van Duinkerkenlaan,1,,,9405AP,Assen,Assen,Drenthe,VBO,6.543657,52.988113
Anton van Duinkerkenlaan,3,,,9405AP,Assen,Assen,Drenthe,VBO,6.543561,52.988410
Anton van Duinkerkenlaan,5,,,9405AP,Assen,Assen,Drenthe,VBO,6.543492,52.988626
Anton van Duinkerkenlaan,7,,,9405AP,Assen,Assen,Drenthe,VBO,6.543454,52.988852
Anton van Duinkerkenlaan,9,,,9405AP,Assen,Assen,Drenthe,VBO,6.543371,52.989104
Anton van Duinkerkenlaan,11,,,9405AP,Assen,Assen,Drenthe,VBO,6.543241,52.989833
Anton van Duinkerkenlaan,13,,,9405AP,Assen,Assen,Drenthe,VBO,6.543214,52.989914
Anton van Duinkerkenlaan,15,,,9405AP,Assen,Assen,Drenthe,VBO,6.543143,52.990068
Anton van Duinkerkenlaan,17,,,9405AP,Assen,Assen,Drenthe,VBO,6.543148,52.990256
Anton van Duinkerkenlaan,19,,,9405AP,Assen,Assen,Drenthe,VBO,6.543108,52.990410
Anton van Duinkerkenlaan,21,,,9405AP,Assen,Assen,Drenthe,VBO,6.543082,52.990572
Anton van Duinkerkenlaan,23,,,9405AP,Assen,Assen,Drenthe,VBO,6.543057,52.990734
Anton van Duinkerkenlaan,2,,,9405AR,Assen,Assen,Drenthe,VBO,6.544021,52.988352
Anton van Duinkerkenlaan,4,,,9405AR,Assen,Assen,Drenthe,VBO,6.544008,52.988424
Anton van Duinkerkenlaan,6,,,9405AR,Assen,Assen,Drenthe,VBO,6.543957,52.988748
Anton van Duinkerkenlaan,8,,,9405AR,Assen,Assen,Drenthe,VBO,6.543930,52.988847
Anton van Duinkerkenlaan,10,,,9405AR,Assen,Assen,Drenthe,VBO,6.543804,52.989136
Anton van Duinkerkenlaan,12,,,9405AR,Assen,Assen,Drenthe,VBO,6.543777,52.989235
Anton van Duinkerkenlaan,14,,,9405AR,Assen,Assen,Drenthe,VBO,6.543739,52.989505
Anton van Duinkerkenlaan,16,,,9405AR,Assen,Assen,Drenthe,VBO,6.543712,52.989595
Anton van Duinkerkenlaan,18,,,9405AR,Assen,Assen,Drenthe,VBO,6.543614,52.989830
Anton van Duinkerkenlaan,20,,,9405AR,Assen,Assen,Drenthe,VBO,6.543586,52.989920
Anton van Duinkerkenlaan,22,,,9405AR,Assen,Assen,Drenthe,VBO,6.543606,52.990117
Anton van Duinkerkenlaan,24,,,9405AR,Assen,Assen,Drenthe,VBO,6.543566,52.990288
Anton van Duinkerkenlaan,26,,,9405AR,Assen,Assen,Drenthe,VBO,6.543526,52.990460
Anton van Duinkerkenlaan,28,,,9405AR,Assen,Assen,Drenthe,VBO,6.543486,52.990622
Anton van Duinkerkenlaan,30,,,9405AR,Assen,Assen,Drenthe,VBO,6.543461,52.990802
Anton van Duinkerkenlaan,32,,,9405AR,Assen,Assen,Drenthe,VBO,6.543524,52.990954
Anton van Duinkerkenlaan,34,,,9405AR,Assen,Assen,Drenthe,VBO,6.543379,52.991099
Boutenslaan,1,,,9405AS,Assen,Assen,Drenthe,VBO,6.544771,52.987985
Boutenslaan,2,,,9405AS,Assen,Assen,Drenthe,VBO,6.544945,52.988361
Boutenslaan,3,,,9405AS,Assen,Assen,Drenthe,VBO,6.544456,52.987889
Boutenslaan,4,,,9405AS,Assen,Assen,Drenthe,VBO,6.544825,52.988326
Boutenslaan,5,,,9405AS,Assen,Assen,Drenthe,VBO,6.544155,52.987784
Boutenslaan,6,,,9405AS,Assen,Assen,Drenthe,VBO,6.544539,52.988239
Boutenslaan,7,,,9405AS,Assen,Assen,Drenthe,VBO,6.543855,52.987688
Boutenslaan,8,,,9405AS,Assen,Assen,Drenthe,VBO,6.544405,52.988222
Boutenslaan,9,,,9405AS,Assen,Assen,Drenthe,VBO,6.543539,52.987593
Boutenslaan,10,,,9405AS,Assen,Assen,Drenthe,VBO,6.543399,52.987926
Boutenslaan,11,,,9405AS,Assen,Assen,Drenthe,VBO,6.543238,52.987479
Henriëtte Roland Holstlaan,1,,,9405AT,Assen,Assen,Drenthe,VBO,6.543243,52.989339
Henriëtte Roland Holstlaan,2,,,9405AT,Assen,Assen,Drenthe,VBO,6.543086,52.989592
Henriëtte Roland Holstlaan,4,,,9405AT,Assen,Assen,Drenthe,VBO,6.542952,52.989575
Henriëtte Roland Holstlaan,6,,,9405AT,Assen,Assen,Drenthe,VBO,6.542652,52.989524
Henriëtte Roland Holstlaan,8,,,9405AT,Assen,Assen,Drenthe,VBO,6.542503,52.989517
Arthur van Schendellaan,1,,,9405AV,Assen,Assen,Drenthe,VBO,6.541956,52.989100
Arthur van Schendellaan,2,,,9405AV,Assen,Assen,Drenthe,VBO,6.543440,52.987216
Arthur van Schendellaan,3,,,9405AV,Assen,Assen,Drenthe,VBO,6.541902,52.989325
Arthur van Schendellaan,4,,,9405AV,Assen,Assen,Drenthe,VBO,6.542967,52.987895
Arthur van Schendellaan,5,,,9405AV,Assen,Assen,Drenthe,VBO,6.541654,52.990055
Arthur van Schendellaan,6,,,9405AV,Assen,Assen,Drenthe,VBO,6.542854,52.988138
Arthur van Schendellaan,7,,,9405AV,Assen,Assen,Drenthe,VBO,6.541644,52.990253
Arthur van Schendellaan,8,,,9405AV,Assen,Assen,Drenthe,VBO,6.542755,52.988355
Arthur van Schendellaan,10,,,9405AV,Assen,Assen,Drenthe,VBO,6.542642,52.988581
Arthur van Schendellaan,12,,,9405AV,Assen,Assen,Drenthe,VBO,6.542588,52.988797
Arthur van Schendellaan,14,,,9405AV,Assen,Assen,Drenthe,VBO,6.542520,52.989022
Arthur van Schendellaan,16,,,9405AV,Assen,Assen,Drenthe,VBO,6.542615,52.989246
Arthur van Schendellaan,18,,,9405AV,Assen,Assen,Drenthe,VBO,6.542346,52.989752
Arthur van Schendellaan,20,,,9405AV,Assen,Assen,Drenthe,VBO,6.542318,52.989842
Arthur van Schendellaan,22,,,9405AV,Assen,Assen,Drenthe,VBO,6.542338,52.990022
Arthur van Schendellaan,24,,,9405AV,Assen,Assen,Drenthe,VBO,6.542325,52.990112
Arthur van Schendellaan,26,,,9405AV,Assen,Assen,Drenthe,VBO,6.542151,52.990275
Arthur van Schendellaan,28,,,9405AV,Assen,Assen,Drenthe,VBO,6.542123,52.990356
Aart van der Leeuwlaan,1,,,9405AW,Assen,Assen,Drenthe,VBO,6.541761,52.989623
Aart van der Leeuwlaan,2,,,9405AW,Assen,Assen,Drenthe,VBO,6.541662,52.989804
Aart van der Leeuwlaan,3,,,9405AW,Assen,Assen,Drenthe,VBO,6.541447,52.989554
Aart van der Leeuwlaan,4,,,9405AW,Assen,Assen,Drenthe,VBO,6.541124,52.989746
Aart van der Leeuwlaan,5,,,9405AW,Assen,Assen,Drenthe,VBO,6.541117,52.989476
Aart van der Leeuwlaan,6,,,9405AW,Assen,Assen,Drenthe,VBO,6.540546,52.989850
Aart van der Leeuwlaan,7,,,9405AW,Assen,Assen,Drenthe,VBO,6.540729,52.989426
Aart van der Leeuwlaan,8,,,9405AW,Assen,Assen,Drenthe,VBO,6.540184,52.989683
Aart van der Leeuwlaan,9,,,9405AW,Assen,Assen,Drenthe,VBO,6.540205,52.989323
Aart van der Leeuwlaan,10,,,9405AW,Assen,Assen,Drenthe,VBO,6.540059,52.989442
Adama van Scheltemalaan,2,,,9405AX,Assen,Assen,Drenthe,VBO,6.541553,52.989050
Adama van Scheltemalaan,4,A,,9405AX,Assen,Assen,Drenthe,VBO,6.540898,52.989092
Adama van Scheltemalaan,4,B,,9405AX,Assen,Assen,Drenthe,VBO,6.540946,52.989190
Adama van Scheltemalaan,4,,,9405AX,Assen,Assen,Drenthe,VBO,6.541238,52.988972
Da Costalaan,1,,,9405BA,Assen,Assen,Drenthe,VBO,6.536753,52.988889
Da Costalaan,3,,,9405BA,Assen,Assen,Drenthe,VBO,6.536897,52.988717
Da Costalaan,5,,,9405BA,Assen,Assen,Drenthe,VBO,6.537042,52.988554
Nicolaas Beetslaan,3,,,9405BB,Assen,Assen,Drenthe,VBO,6.537404,52.988721
Nicolaas Beetslaan,5,,,9405BB,Assen,Assen,Drenthe,VBO,6.537494,52.988747
Nicolaas Beetslaan,7,,,9405BB,Assen,Assen,Drenthe,VBO,6.537929,52.988860
Nicolaas Beetslaan,9,,,9405BB,Assen,Assen,Drenthe,VBO,6.538004,52.988886
Nicolaas Beetslaan,11,,,9405BB,Assen,Assen,Drenthe,VBO,6.538199,52.988947
Nicolaas Beetslaan,13,,,9405BB,Assen,Assen,Drenthe,VBO,6.538289,52.988982
Nicolaas Beetslaan,15,,,9405BB,Assen,Assen,Drenthe,VBO,6.538484,52.989043
Nicolaas Beetslaan,17,,,9405BB,Assen,Assen,Drenthe,VBO,6.538560,52.989070
Nicolaas Beetslaan,19,,,9405BB,Assen,Assen,Drenthe,VBO,6.538755,52.989131
Nicolaas Beetslaan,21,,,9405BB,Assen,Assen,Drenthe,VBO,6.538845,52.989157
Nicolaas Beetslaan,23,,,9405BC,Assen,Assen,Drenthe,VBO,6.539040,52.989227
Nicolaas Beetslaan,25,,,9405BC,Assen,Assen,Drenthe,VBO,6.539116,52.989253
Nicolaas Beetslaan,27,,,9405BC,Assen,Assen,Drenthe,VBO,6.539401,52.989340
Nicolaas Beetslaan,29,,,9405BC,Assen,Assen,Drenthe,VBO,6.539782,52.989103
Nicolaas Beetslaan,31,,,9405BC,Assen,Assen,Drenthe,VBO,6.540375,52.989016
Nicolaas Beetslaan,33,,,9405BC,Assen,Assen,Drenthe,VBO,6.540428,52.988773
Nicolaas Beetslaan,35,,,9405BC,Assen,Assen,Drenthe,VBO,6.541004,52.988579
Nicolaas Beetslaan,37,,,9405BC,Assen,Assen,Drenthe,VBO,6.540982,52.988327
Nicolaas Beetslaan,39,,,9405BC,Assen,Assen,Drenthe,VBO,6.541154,52.988074
Nicolaas Beetslaan,41,,,9405BC,Assen,Assen,Drenthe,VBO,6.541327,52.987839
Nicolaas Beetslaan,41,,,9405BC,Assen,Assen,Drenthe,VBO,6.541376,52.987900
Nicolaas Beetslaan,43,,,9405BC,Assen,Assen,Drenthe,VBO,6.541530,52.987639
Nicolaas Beetslaan,2,,,9405BD,Assen,Assen,Drenthe,VBO,6.539550,52.987083
Nicolaas Beetslaan,4,,,9405BD,Assen,Assen,Drenthe,VBO,6.539243,52.987319
Nicolaas Beetslaan,6,,,9405BD,Assen,Assen,Drenthe,VBO,6.539161,52.987590
Nicolaas Beetslaan,8,,,9405BD,Assen,Assen,Drenthe,VBO,6.538922,52.987583
Nicolaas Beetslaan,10,,,9405BD,Assen,Assen,Drenthe,VBO,6.538397,52.987435
Nicolaas Beetslaan,12,,,9405BD,Assen,Assen,Drenthe,VBO,6.538645,52.987244
Nicolaas Beetslaan,14,,,9405BD,Assen,Assen,Drenthe,VBO,6.539025,52.986953
Nicolaas Beetslaan,16,,,9405BD,Assen,Assen,Drenthe,VBO,6.538516,52.986850
Nicolaas Beetslaan,18,,,9405BD,Assen,Assen,Drenthe,VBO,6.538209,52.987087
Nicolaas Beetslaan,20,,,9405BD,Assen,Assen,Drenthe,VBO,6.537932,52.987305
Nicolaas Beetslaan,22,,,9405BD,Assen,Assen,Drenthe,VBO,6.537615,52.988261
Nicolaas Beetslaan,24,,,9405BD,Assen,Assen,Drenthe,VBO,6.537817,52.988034
Nicolaas Beetslaan,26,,,9405BE,Assen,Assen,Drenthe,VBO,6.537930,52.987781
Nicolaas Beetslaan,28,,,9405BE,Assen,Assen,Drenthe,VBO,6.538605,52.987955
Nicolaas Beetslaan,30,,,9405BE,Assen,Assen,Drenthe,VBO,6.538384,52.988065
Nicolaas Beetslaan,32,,,9405BE,Assen,Assen,Drenthe,VBO,6.538226,52.988264
Nicolaas Beetslaan,34,,,9405BE,Assen,Assen,Drenthe,VBO,6.537978,52.988491
Nicolaas Beetslaan,36,,,9405BE,Assen,Assen,Drenthe,VBO,6.538519,52.988666
Nicolaas Beetslaan,38,,,9405BE,Assen,Assen,Drenthe,VBO,6.538871,52.988473
Nicolaas Beetslaan,40,,,9405BE,Assen,Assen,Drenthe,VBO,6.539045,52.988274
Nicolaas Beetslaan,42,,,9405BE,Assen,Assen,Drenthe,VBO,6.539010,52.988095
Nicolaas Beetslaan,44,,,9405BE,Assen,Assen,Drenthe,VBO,6.539537,52.988287
Nicolaas Beetslaan,46,,,9405BE,Assen,Assen,Drenthe,VBO,6.539409,52.988531
Nicolaas Beetslaan,48,,,9405BE,Assen,Assen,Drenthe,VBO,6.539028,52.988750
Nicolaas Beetslaan,50,,,9405BG,Assen,Assen,Drenthe,VBO,6.539448,52.988863
Nicolaas Beetslaan,52,,,9405BG,Assen,Assen,Drenthe,VBO,6.539830,52.988671
Nicolaas Beetslaan,54,,,9405BG,Assen,Assen,Drenthe,VBO,6.540078,52.988498
Nicolaas Beetslaan,56,,,9405BG,Assen,Assen,Drenthe,VBO,6.540369,52.988225
Nicolaas Beetslaan,58,,,9405BG,Assen,Assen,Drenthe,VBO,6.540675,52.987971
Nicolaas Beetslaan,60,,,9405BG,Assen,Assen,Drenthe,VBO,6.540256,52.987876
Nicolaas Beetslaan,62,,,9405BG,Assen,Assen,Drenthe,VBO,6.539704,52.987845
Nicolaas Beetslaan,64,,,9405BG,Assen,Assen,Drenthe,VBO,6.539552,52.987730
Nicolaas Beetslaan,66,,,9405BG,Assen,Assen,Drenthe,VBO,6.540023,52.987537
Nicolaas Beetslaan,68,,,9405BG,Assen,Assen,Drenthe,VBO,6.540107,52.987338
Nicolaas Beetslaan,70,,,9405BG,Assen,Assen,Drenthe,VBO,6.540412,52.987614
Nicolaas Beetslaan,72,,,9405BG,Assen,Assen,Drenthe,VBO,6.540670,52.987773
Nicolaas Beetslaan,74,,,9405BG,Assen,Assen,Drenthe,VBO,6.540992,52.987554
Westerlaan,2,,,9405BH,Assen,Assen,Drenthe,VBO,6.544908,52.987552
Westerlaan,4,,,9405BH,Assen,Assen,Drenthe,VBO,6.544637,52.987447
Westerlaan,6,,,9405BH,Assen,Assen,Drenthe,VBO,6.544278,52.987352
Westerlaan,8,,,9405BH,Assen,Assen,Drenthe,VBO,6.544007,52.987255
Westerlaan,10,,,9405BH,Assen,Assen,Drenthe,VBO,6.543677,52.987160
Westerbrink,1,,,9405BJ,Assen,Assen,Drenthe,VBO,6.538857,52.985670
Westerbrink,3,A,,9405BJ,Assen,Assen,Drenthe,VBO,6.536666,52.987848
Westerbrink,3,B,,9405BJ,Assen,Assen,Drenthe,VBO,6.536708,52.987862
Westerbrink,3,C,,9405BJ,Assen,Assen,Drenthe,VBO,6.536541,52.988017
Westerbrink,3,,,9405BJ,Assen,Assen,Drenthe,VBO,6.536848,52.987414
Stadsbroek,9,A,,9405BK,Assen,Assen,Drenthe,VBO,6.545689,52.982737
Stadsbroek,11,A,,9405BK,Assen,Assen,Drenthe,VBO,6.545072,52.984190
Stadsbroek,13,,,9405BK,Assen,Assen,Drenthe,VBO,6.542963,52.984381
Stadsbroek,17,,,9405BK,Assen,Assen,Drenthe,VBO,6.542151,52.984119
Lauwers,1,A,,9405BL,Assen,Assen,Drenthe,VBO,6.528457,52.992860
Lauwers,1,,,9405BL,Assen,Assen,Drenthe,VBO,6.528061,52.993089
Lauwers,3,,,9405BL,Assen,Assen,Drenthe,VBO,6.528060,52.991327
Lauwers,4,A,,9405BL,Assen,Assen,Drenthe,VBO,6.529830,52.991804
Lauwers,4,C,,9405BL,Assen,Assen,Drenthe,VBO,6.529903,52.991768
Lauwers,4,,,9405BL,Assen,Assen,Drenthe,VBO,6.530048,52.991623
Lauwers,6,,,9405BL,Assen,Assen,Drenthe,VBO,6.530621,52.991878
Lauwers,9,A,,9405BL,Assen,Assen,Drenthe,VBO,6.529673,52.992775
Lauwers,9,,,9405BL,Assen,Assen,Drenthe,VBO,6.529492,52.992712
Lauwers,10,,,9405BL,Assen,Assen,Drenthe,VBO,6.530310,52.993094
Lauwers,14,A,,9405BL,Assen,Assen,Drenthe,VBO,6.530632,52.993432
Lauwers,14,B,,9405BL,Assen,Assen,Drenthe,VBO,6.530559,52.993505
Lauwers,14,C,,9405BL,Assen,Assen,Drenthe,VBO,6.530560,52.993532
Lauwers,14,,,9405BL,Assen,Assen,Drenthe,VBO,6.530544,52.993478
Lauwers,17,,,9405BL,Assen,Assen,Drenthe,VBO,6.528284,52.991945
Lauwers,18,,,9405BL,Assen,Assen,Drenthe,VBO,6.529618,52.993379
Lauwers,19,,,9405BL,Assen,Assen,Drenthe,VBO,6.528980,52.991795
Lauwers,21,,,9405BL,Assen,Assen,Drenthe,VBO,6.529340,52.991890
Kortbossen,1,,,9405BM,Assen,Assen,Drenthe,VBO,6.543284,52.985843
Kortbossen,3,,,9405BM,Assen,Assen,Drenthe,VBO,6.544479,52.983678
Kortbossen,5,,,9405BM,Assen,Assen,Drenthe,VBO,6.544884,52.983336
Achterpad,1,B,,9405BN,Assen,Assen,Drenthe,VBO,6.545377,52.981652
Achterpad,1,,,9405BN,Assen,Assen,Drenthe,VBO,6.545369,52.981913
Achterpad,3,,,9405BN,Assen,Assen,Drenthe,VBO,6.545291,52.981788
Oude-Hoofdvaartsweg,1,A,,9405CA,Assen,Assen,Drenthe,VBO,6.536153,52.994934
Oude-Hoofdvaartsweg,1,C,,9405CA,Assen,Assen,Drenthe,VBO,6.536114,52.994770
Oude-Hoofdvaartsweg,1,,,9405CA,Assen,Assen,Drenthe,VBO,6.536163,52.994772
Oude-Hoofdvaartsweg,3,,,9405CA,Assen,Assen,Drenthe,VBO,6.535955,52.995359
Oude-Hoofdvaartsweg,5,,,9405CA,Assen,Assen,Drenthe,VBO,6.535704,52.995415
Oude-Hoofdvaartsweg,7,,,9405CA,Assen,Assen,Drenthe,VBO,6.535645,52.995451
Oude-Hoofdvaartsweg,9,,,9405CA,Assen,Assen,Drenthe,VBO,6.535587,52.995488
Oude-Hoofdvaartsweg,11,,,9405CA,Assen,Assen,Drenthe,VBO,6.535380,52.995553
Oude-Hoofdvaartsweg,13,,,9405CA,Assen,Assen,Drenthe,VBO,6.535308,52.995670
Oude-Hoofdvaartsweg,15,,,9405CA,Assen,Assen,Drenthe,VBO,6.535250,52.995707
Oude-Hoofdvaartsweg,17,,,9405CA,Assen,Assen,Drenthe,VBO,6.535103,52.995780
Oude-Hoofdvaartsweg,19,,,9405CA,Assen,Assen,Drenthe,VBO,6.534941,52.995863
Oude-Hoofdvaartsweg,21,,,9405CA,Assen,Assen,Drenthe,VBO,6.534839,52.995962
Oude-Hoofdvaartsweg,23,,,9405CA,Assen,Assen,Drenthe,VBO,6.534679,52.996108
Oude-Hoofdvaartsweg,25,,,9405CA,Assen,Assen,Drenthe,VBO,6.534502,52.996163
Oude-Hoofdvaartsweg,27,,,9405CA,Assen,Assen,Drenthe,VBO,6.534340,52.996237
Oude-Hoofdvaartsweg,29,,,9405CA,Assen,Assen,Drenthe,VBO,6.534223,52.996310
Oude-Hoofdvaartsweg,31,,,9405CA,Assen,Assen,Drenthe,VBO,6.534093,52.996482
Oude-Hoofdvaartsweg,33,,,9405CA,Assen,Assen,Drenthe,VBO,6.533903,52.996600
Oude-Hoofdvaartsweg,35,,,9405CB,Assen,Assen,Drenthe,VBO,6.533609,52.996738
Oude-Hoofdvaartsweg,37,,,9405CB,Assen,Assen,Drenthe,VBO,6.533447,52.996829
Oude-Hoofdvaartsweg,39,,,9405CB,Assen,Assen,Drenthe,VBO,6.533213,52.996976
Oude-Hoofdvaartsweg,41,,,9405CB,Assen,Assen,Drenthe,VBO,6.532918,52.997086
Oude-Hoofdvaartsweg,43,,,9405CB,Assen,Assen,Drenthe,VBO,6.532712,52.997178
Oude-Hoofdvaartsweg,47,,,9405CB,Assen,Assen,Drenthe,VBO,6.532597,52.997359
Balkenweg,1,A,,9405CC,Assen,Assen,Drenthe,VBO,6.524171,52.990699
Balkenweg,1,B,,9405CC,Assen,Assen,Drenthe,VBO,6.523090,52.992651
Balkenweg,1,,,9405CC,Assen,Assen,Drenthe,VBO,6.523271,52.992748
Balkenweg,2,A,,9405CC,Assen,Assen,Drenthe,VBO,6.535773,52.994650
Balkenweg,2,,,9405CC,Assen,Assen,Drenthe,VBO,6.535191,52.994611
Balkenweg,3,A,,9405CC,Assen,Assen,Drenthe,VBO,6.540941,52.990700
Balkenweg,3,B,,9405CC,Assen,Assen,Drenthe,VBO,6.540866,52.990674
Balkenweg,3,D,124,9405CC,Assen,Assen,Drenthe,VBO,6.538012,52.992514
Balkenweg,3,,,9405CC,Assen,Assen,Drenthe,VBO,6.535066,52.993273
Zendmastweg,1,A,,9405CD,Assen,Assen,Drenthe,VBO,6.532906,52.994938
Zendmastweg,1,,,9405CD,Assen,Assen,Drenthe,VBO,6.533750,52.994760
Zendmastweg,3,,,9405CD,Assen,Assen,Drenthe,VBO,6.533691,52.994760
Zendmastweg,5,,,9405CD,Assen,Assen,Drenthe,VBO,6.532515,52.994789
Zendmastweg,7,,,9405CD,Assen,Assen,Drenthe,VBO,6.531962,52.994732
Zendmastweg,9,,,9405CD,Assen,Assen,Drenthe,VBO,6.531952,52.994930
Zendmastweg,11,A,,9405CD,Assen,Assen,Drenthe,VBO,6.531965,52.995179
Zendmastweg,11,B,,9405CD,Assen,Assen,Drenthe,VBO,6.532123,52.995186
Zendmastweg,11,C,,9405CD,Assen,Assen,Drenthe,VBO,6.532264,52.995189
Zendmastweg,11,,,9405CD,Assen,Assen,Drenthe,VBO,6.532133,52.995217
Zendmastweg,15,,,9405CD,Assen,Assen,Drenthe,VBO,6.532784,52.995416
Zendmastweg,19,,,9405CD,Assen,Assen,Drenthe,VBO,6.532170,52.995835
Zendmastweg,4,A,,9405CE,Assen,Assen,Drenthe,VBO,6.534009,52.994973
Zendmastweg,4,,,9405CE,Assen,Assen,Drenthe,VBO,6.534217,52.994971
Zendmastweg,8,A,,9405CE,Assen,Assen,Drenthe,VBO,6.533691,52.995335
Zendmastweg,8,,,9405CE,Assen,Assen,Drenthe,VBO,6.533543,52.995382
Zendmastweg,14,A,,9405CE,Assen,Assen,Drenthe,VBO,6.532826,52.996440
Zendmastweg,14,,,9405CE,Assen,Assen,Drenthe,VBO,6.533016,52.996312
Zendmastweg,18,,,9405CE,Assen,Assen,Drenthe,VBO,6.532139,52.996357
Zendmastweg,20,,,9405CE,Assen,Assen,Drenthe,VBO,6.532022,52.996600
Balkengracht,2,,,9405CG,Assen,Assen,Drenthe,VBO,6.529217,52.994578
Balkengracht,6,,,9405CG,Assen,Assen,Drenthe,VBO,6.528155,52.995532
Balkengracht,8,A,,9405CG,Assen,Assen,Drenthe,VBO,6.528213,52.995652
Balkengracht,8,,,9405CG,Assen,Assen,Drenthe,VBO,6.528128,52.995640
Balkengracht,10,A,,9405CG,Assen,Assen,Drenthe,VBO,6.527991,52.996091
Balkengracht,10,B,,9405CG,Assen,Assen,Drenthe,VBO,6.528068,52.995921
Balkengracht,10,,,9405CG,Assen,Assen,Drenthe,VBO,6.528122,52.995823
Balkengracht,12,A,,9405CG,Assen,Assen,Drenthe,VBO,6.527804,52.996559
Balkengracht,12,B,,9405CG,Assen,Assen,Drenthe,VBO,6.527917,52.996335
Balkengracht,12,,,9405CG,Assen,Assen,Drenthe,VBO,6.527854,52.996321
Balkengracht,3,,,9405CH,Assen,Assen,Drenthe,VBO,6.527655,52.995204
Balkenweg,3,D,10,9405CH,Assen,Assen,Drenthe,VBO,6.541230,52.992603
Balkenweg,3,D,106,9405CH,Assen,Assen,Drenthe,VBO,6.536211,52.989802
Balkenweg,3,D,10A,9405CH,Assen,Assen,Drenthe,VBO,6.540323,52.992665
Balkenweg,3,D,11,9405CH,Assen,Assen,Drenthe,VBO,6.540556,52.993049
Balkenweg,3,D,110,9405CH,Assen,Assen,Drenthe,VBO,6.535936,52.992941
Balkenweg,3,D,111,9405CH,Assen,Assen,Drenthe,VBO,6.536370,52.989630
Balkenweg,3,D,114,9405CH,Assen,Assen,Drenthe,VBO,6.535807,52.990848
Balkenweg,3,D,12,9405CH,Assen,Assen,Drenthe,VBO,6.537368,52.992442
Balkenweg,3,D,123,9405CH,Assen,Assen,Drenthe,VBO,6.538667,52.992555
Balkenweg,3,D,140,9405CH,Assen,Assen,Drenthe,VBO,6.543238,52.992511
Balkenweg,3,D,141,9405CH,Assen,Assen,Drenthe,VBO,6.543576,52.992903
Balkenweg,3,D,142,9405CH,Assen,Assen,Drenthe,VBO,6.544528,52.992867
Balkenweg,3,D,143,9405CH,Assen,Assen,Drenthe,VBO,6.544753,52.992344
Balkenweg,3,D,150,9405CH,Assen,Assen,Drenthe,VBO,6.542216,52.991614
Balkenweg,3,D,151,9405CH,Assen,Assen,Drenthe,VBO,6.541212,52.991390
Balkenweg,3,D,152,9405CH,Assen,Assen,Drenthe,VBO,6.541150,52.991840
Balkenweg,3,D,17,9405CH,Assen,Assen,Drenthe,VBO,6.539980,52.993217
Balkenweg,3,D,18,9405CH,Assen,Assen,Drenthe,VBO,6.539306,52.993089
Balkenweg,3,D,19,9405CH,Assen,Assen,Drenthe,VBO,6.539483,52.992458
Balkenweg,3,D,2,9405CH,Assen,Assen,Drenthe,VBO,6.538327,52.990402
Balkenweg,3,D,20,9405CH,Assen,Assen,Drenthe,VBO,6.535109,52.991511
Balkenweg,3,D,20A,9405CH,Assen,Assen,Drenthe,VBO,6.535251,52.991815
Balkenweg,3,D,20E,9405CH,Assen,Assen,Drenthe,VBO,6.534010,52.992178
Balkenweg,3,D,22,9405CH,Assen,Assen,Drenthe,VBO,6.538212,52.993378
Balkenweg,3,D,24,9405CH,Assen,Assen,Drenthe,VBO,6.536381,52.992299
Balkenweg,3,D,32,9405CH,Assen,Assen,Drenthe,VBO,6.535351,52.992219
Balkenweg,3,D,34,9405CH,Assen,Assen,Drenthe,VBO,6.535664,52.991084
Balkenweg,3,D,35,9405CH,Assen,Assen,Drenthe,VBO,6.536090,52.990298
Balkenweg,3,D,36,9405CH,Assen,Assen,Drenthe,VBO,6.533600,52.991319
Balkenweg,3,D,37,9405CH,Assen,Assen,Drenthe,VBO,6.535242,52.990881
Balkenweg,3,D,39,9405CH,Assen,Assen,Drenthe,VBO,6.533987,52.990749
Balkenweg,3,D,4042,9405CH,Assen,Assen,Drenthe,VBO,6.535468,52.990447
Balkenweg,3,D,4143,9405CH,Assen,Assen,Drenthe,VBO,6.534438,52.990331
Balkenweg,3,D,42B,9405CH,Assen,Assen,Drenthe,VBO,6.535685,52.990185
Balkenweg,3,D,51,9405CH,Assen,Assen,Drenthe,VBO,6.539730,52.990541
Balkenweg,3,D,52,9405CH,Assen,Assen,Drenthe,VBO,6.537802,52.991386
Balkenweg,3,D,53,9405CH,Assen,Assen,Drenthe,VBO,6.540034,52.993567
Balkenweg,3,D,55,9405CH,Assen,Assen,Drenthe,VBO,6.538598,52.991657
Balkenweg,3,D,56,9405CH,Assen,Assen,Drenthe,VBO,6.538612,52.992161
Balkenweg,3,D,57,9405CH,Assen,Assen,Drenthe,VBO,6.537565,52.993716
Balkenweg,3,D,58,9405CH,Assen,Assen,Drenthe,VBO,6.545487,52.992508
Balkenweg,3,D,59,9405CH,Assen,Assen,Drenthe,VBO,6.540229,52.991372
Balkenweg,3,D,5B,9405CH,Assen,Assen,Drenthe,VBO,6.545485,52.992436
Balkenweg,3,D,6,9405CH,Assen,Assen,Drenthe,VBO,6.545404,52.992751
Balkenweg,3,D,60,9405CH,Assen,Assen,Drenthe,VBO,6.537588,52.990058
Balkenweg,3,D,62,9405CH,Assen,Assen,Drenthe,VBO,6.537894,52.993758
Balkenweg,3,D,62A,9405CH,Assen,Assen,Drenthe,VBO,6.538222,52.993764
Balkenweg,3,D,7,9405CH,Assen,Assen,Drenthe,VBO,6.545403,52.993254
Balkenweg,3,D,8,9405CH,Assen,Assen,Drenthe,VBO,6.542898,52.993180
Balkenweg,3,D,80,9405CH,Assen,Assen,Drenthe,VBO,6.536895,52.991458
Balkenweg,3,D,81,9405CH,Assen,Assen,Drenthe,VBO,6.536397,52.991786
Balkenweg,3,D,9,9405CH,Assen,Assen,Drenthe,VBO,6.542316,52.992556
Fivelingostraat,1,,,9405EA,Assen,Assen,Drenthe,VBO,6.531340,52.988645
Fivelingostraat,3,,,9405EA,Assen,Assen,Drenthe,VBO,6.531430,52.988671
Fivelingostraat,5,,,9405EA,Assen,Assen,Drenthe,VBO,6.531505,52.988697
Fivelingostraat,7,,,9405EA,Assen,Assen,Drenthe,VBO,6.531581,52.988723
Fivelingostraat,9,,,9405EA,Assen,Assen,Drenthe,VBO,6.531072,52.988656
Fivelingostraat,11,,,9405EA,Assen,Assen,Drenthe,VBO,6.531029,52.988710
Fivelingostraat,13,,,9405EA,Assen,Assen,Drenthe,VBO,6.530985,52.988747
Fivelingostraat,15,,,9405EA,Assen,Assen,Drenthe,VBO,6.530942,52.988792
Fivelingostraat,17,,,9405EA,Assen,Assen,Drenthe,VBO,6.530899,52.988847
Fivelingostraat,19,,,9405EA,Assen,Assen,Drenthe,VBO,6.530855,52.988892
Fivelingostraat,21,,,9405EA,Assen,Assen,Drenthe,VBO,6.531022,52.988989
Fivelingostraat,23,,,9405EA,Assen,Assen,Drenthe,VBO,6.531112,52.989015
Fivelingostraat,25,,,9405EA,Assen,Assen,Drenthe,VBO,6.531187,52.989041
Fivelingostraat,27,,,9405EA,Assen,Assen,Drenthe,VBO,6.531262,52.989068
Fivelingostraat,29,,,9405EA,Assen,Assen,Drenthe,VBO,6.531339,52.989166
Fivelingostraat,31,,,9405EB,Assen,Assen,Drenthe,VBO,6.531414,52.989192
Fivelingostraat,33,,,9405EB,Assen,Assen,Drenthe,VBO,6.531489,52.989218
Fivelingostraat,35,,,9405EB,Assen,Assen,Drenthe,VBO,6.531565,52.989245
Fivelingostraat,37,,,9405EB,Assen,Assen,Drenthe,VBO,6.531705,52.988920
Fivelingostraat,39,,,9405EB,Assen,Assen,Drenthe,VBO,6.531795,52.988946
Fivelingostraat,41,,,9405EB,Assen,Assen,Drenthe,VBO,6.531855,52.988972
Fivelingostraat,43,,,9405EB,Assen,Assen,Drenthe,VBO,6.531945,52.988998
Fivelingostraat,45,,,9405EB,Assen,Assen,Drenthe,VBO,6.532020,52.989024
Fivelingostraat,47,,,9405EB,Assen,Assen,Drenthe,VBO,6.532096,52.989051
Fivelingostraat,49,,,9405EB,Assen,Assen,Drenthe,VBO,6.532040,52.989213
Fivelingostraat,51,,,9405EB,Assen,Assen,Drenthe,VBO,6.531997,52.989258
Fivelingostraat,53,,,9405EB,Assen,Assen,Drenthe,VBO,6.531953,52.989304
Fivelingostraat,55,,,9405EB,Assen,Assen,Drenthe,VBO,6.531910,52.989349
Fivelingostraat,57,,,9405EB,Assen,Assen,Drenthe,VBO,6.531866,52.989394
Fivelingostraat,59,,,9405EB,Assen,Assen,Drenthe,VBO,6.531823,52.989440
Fivelingostraat,61,,,9405EC,Assen,Assen,Drenthe,VBO,6.531526,52.989461
Fivelingostraat,63,,,9405EC,Assen,Assen,Drenthe,VBO,6.531482,52.989506
Fivelingostraat,65,,,9405EC,Assen,Assen,Drenthe,VBO,6.531439,52.989560
Fivelingostraat,67,,,9405EC,Assen,Assen,Drenthe,VBO,6.531395,52.989606
Fivelingostraat,69,,,9405EC,Assen,Assen,Drenthe,VBO,6.531352,52.989651
Fivelingostraat,71,,,9405EC,Assen,Assen,Drenthe,VBO,6.531308,52.989696
Fivelingostraat,73,,,9405EC,Assen,Assen,Drenthe,VBO,6.531265,52.989742
Fivelingostraat,75,,,9405EC,Assen,Assen,Drenthe,VBO,6.531207,52.989796
Fivelingostraat,77,A,,9405EC,Assen,Assen,Drenthe,VBO,6.530567,52.989811
Fivelingostraat,77,,,9405EC,Assen,Assen,Drenthe,VBO,6.530688,52.989900
Fivelingostraat,79,,,9405EC,Assen,Assen,Drenthe,VBO,6.530630,52.989945
Fivelingostraat,81,,,9405EC,Assen,Assen,Drenthe,VBO,6.530586,52.989991
Fivelingostraat,83,,,9405EC,Assen,Assen,Drenthe,VBO,6.530543,52.990045
Fivelingostraat,85,,,9405EC,Assen,Assen,Drenthe,VBO,6.530500,52.990091
Fivelingostraat,87,,,9405EC,Assen,Assen,Drenthe,VBO,6.530456,52.990136
Fivelingostraat,89,,,9405EC,Assen,Assen,Drenthe,VBO,6.530413,52.990181
Fivelingostraat,91,,,9405EC,Assen,Assen,Drenthe,VBO,6.530369,52.990227
Fivelingostraat,2,,,9405ED,Assen,Assen,Drenthe,VBO,6.531167,52.988278
Fivelingostraat,4,,,9405ED,Assen,Assen,Drenthe,VBO,6.531077,52.988252
Fivelingostraat,6,,,9405ED,Assen,Assen,Drenthe,VBO,6.531002,52.988225
Fivelingostraat,8,,,9405ED,Assen,Assen,Drenthe,VBO,6.530926,52.988199
Fivelingostraat,10,,,9405ED,Assen,Assen,Drenthe,VBO,6.530851,52.988173
Fivelingostraat,12,,,9405ED,Assen,Assen,Drenthe,VBO,6.530776,52.988147
Fivelingostraat,14,,,9405ED,Assen,Assen,Drenthe,VBO,6.530757,52.987994
Fivelingostraat,16,,,9405ED,Assen,Assen,Drenthe,VBO,6.530801,52.987949
Fivelingostraat,18,,,9405ED,Assen,Assen,Drenthe,VBO,6.530844,52.987903
Fivelingostraat,20,,,9405ED,Assen,Assen,Drenthe,VBO,6.530888,52.987858
Fivelingostraat,22,,,9405ED,Assen,Assen,Drenthe,VBO,6.530931,52.987813
Fivelingostraat,24,,,9405ED,Assen,Assen,Drenthe,VBO,6.530975,52.987767
Fivelingostraat,26,,,9405ED,Assen,Assen,Drenthe,VBO,6.531098,52.987937
Fivelingostraat,28,,,9405ED,Assen,Assen,Drenthe,VBO,6.531188,52.987963
Fivelingostraat,30,,,9405EE,Assen,Assen,Drenthe,VBO,6.531263,52.987989
Fivelingostraat,32,,,9405EE,Assen,Assen,Drenthe,VBO,6.531339,52.988015
Fivelingostraat,34,,,9405EE,Assen,Assen,Drenthe,VBO,6.531414,52.988042
Fivelingostraat,36,,,9405EE,Assen,Assen,Drenthe,VBO,6.531504,52.988068
Fivelingostraat,38,,,9405EE,Assen,Assen,Drenthe,VBO,6.531542,52.988391
Fivelingostraat,40,,,9405EE,Assen,Assen,Drenthe,VBO,6.531586,52.988346
Fivelingostraat,42,,,9405EE,Assen,Assen,Drenthe,VBO,6.531629,52.988300
Fivelingostraat,44,,,9405EE,Assen,Assen,Drenthe,VBO,6.531673,52.988255
Fivelingostraat,46,,,9405EE,Assen,Assen,Drenthe,VBO,6.531716,52.988201
Fivelingostraat,48,,,9405EE,Assen,Assen,Drenthe,VBO,6.531759,52.988155
Fivelingostraat,50,,,9405EE,Assen,Assen,Drenthe,VBO,6.531803,52.988110
Fivelingostraat,52,,,9405EE,Assen,Assen,Drenthe,VBO,6.531846,52.988065
Fivelingostraat,54,,,9405EE,Assen,Assen,Drenthe,VBO,6.531815,52.988568
Fivelingostraat,56,,,9405EE,Assen,Assen,Drenthe,VBO,6.531858,52.988523
Fivelingostraat,58,,,9405EE,Assen,Assen,Drenthe,VBO,6.531902,52.988477
Fivelingostraat,60,,,9405EG,Assen,Assen,Drenthe,VBO,6.531945,52.988432
Fivelingostraat,62,,,9405EG,Assen,Assen,Drenthe,VBO,6.531955,52.988252
Fivelingostraat,64,,,9405EG,Assen,Assen,Drenthe,VBO,6.532031,52.988278
Fivelingostraat,66,,,9405EG,Assen,Assen,Drenthe,VBO,6.532121,52.988305
Fivelingostraat,68,,,9405EG,Assen,Assen,Drenthe,VBO,6.532196,52.988331
Fivelingostraat,70,,,9405EG,Assen,Assen,Drenthe,VBO,6.532271,52.988357
Fivelingostraat,72,,,9405EG,Assen,Assen,Drenthe,VBO,6.532346,52.988383
Fivelingostraat,74,,,9405EG,Assen,Assen,Drenthe,VBO,6.532295,52.988707
Fivelingostraat,76,,,9405EG,Assen,Assen,Drenthe,VBO,6.532370,52.988734
Fivelingostraat,78,,,9405EG,Assen,Assen,Drenthe,VBO,6.532445,52.988760
Fivelingostraat,80,,,9405EG,Assen,Assen,Drenthe,VBO,6.532520,52.988786
Fivelingostraat,82,,,9405EG,Assen,Assen,Drenthe,VBO,6.532567,52.988857
Fivelingostraat,84,,,9405EG,Assen,Assen,Drenthe,VBO,6.532642,52.988884
Fivelingostraat,86,,,9405EG,Assen,Assen,Drenthe,VBO,6.532717,52.988910
Fivelingostraat,88,,,9405EG,Assen,Assen,Drenthe,VBO,6.532793,52.988936
Fivelingostraat,90,,,9405EH,Assen,Assen,Drenthe,VBO,6.532529,52.988543
Fivelingostraat,92,,,9405EH,Assen,Assen,Drenthe,VBO,6.532572,52.988498
Fivelingostraat,94,,,9405EH,Assen,Assen,Drenthe,VBO,6.532616,52.988453
Fivelingostraat,96,,,9405EH,Assen,Assen,Drenthe,VBO,6.532659,52.988398
Fivelingostraat,98,,,9405EH,Assen,Assen,Drenthe,VBO,6.532872,52.988558
Fivelingostraat,100,,,9405EH,Assen,Assen,Drenthe,VBO,6.532947,52.988584
Fivelingostraat,102,,,9405EH,Assen,Assen,Drenthe,VBO,6.533022,52.988610
Fivelingostraat,104,,,9405EH,Assen,Assen,Drenthe,VBO,6.533112,52.988637
Fivelingostraat,106,,,9405EH,Assen,Assen,Drenthe,VBO,6.533187,52.988663
Fivelingostraat,108,,,9405EH,Assen,Assen,Drenthe,VBO,6.533278,52.988698
Fivelingostraat,110,,,9405EH,Assen,Assen,Drenthe,VBO,6.533353,52.988724
Fivelingostraat,114,,,9405EJ,Assen,Assen,Drenthe,VBO,6.533193,52.988860
Fivelingostraat,116,,,9405EJ,Assen,Assen,Drenthe,VBO,6.533149,52.988915
Fivelingostraat,118,,,9405EJ,Assen,Assen,Drenthe,VBO,6.533106,52.988960
Fivelingostraat,120,,,9405EJ,Assen,Assen,Drenthe,VBO,6.533062,52.989006
Fivelingostraat,122,,,9405EJ,Assen,Assen,Drenthe,VBO,6.533019,52.989051
Fivelingostraat,124,,,9405EJ,Assen,Assen,Drenthe,VBO,6.532975,52.989096
Fivelingostraat,126,,,9405EJ,Assen,Assen,Drenthe,VBO,6.532876,52.989277
Fivelingostraat,128,,,9405EJ,Assen,Assen,Drenthe,VBO,6.532801,52.989242
Fivelingostraat,130,,,9405EJ,Assen,Assen,Drenthe,VBO,6.532725,52.989215
Fivelingostraat,132,,,9405EJ,Assen,Assen,Drenthe,VBO,6.532650,52.989189
Fivelingostraat,134,,,9405EJ,Assen,Assen,Drenthe,VBO,6.532575,52.989163
Fivelingostraat,136,,,9405EJ,Assen,Assen,Drenthe,VBO,6.532485,52.989137
Fivelingostraat,138,,,9405EJ,Assen,Assen,Drenthe,VBO,6.532761,52.989440
Fivelingostraat,140,,,9405EK,Assen,Assen,Drenthe,VBO,6.532718,52.989485
Fivelingostraat,142,,,9405EK,Assen,Assen,Drenthe,VBO,6.532674,52.989539
Fivelingostraat,144,,,9405EK,Assen,Assen,Drenthe,VBO,6.532631,52.989585
Fivelingostraat,146,,,9405EK,Assen,Assen,Drenthe,VBO,6.532572,52.989630
Fivelingostraat,148,,,9405EK,Assen,Assen,Drenthe,VBO,6.532529,52.989676
Fivelingostraat,150,,,9405EK,Assen,Assen,Drenthe,VBO,6.532329,52.989417
Fivelingostraat,152,,,9405EK,Assen,Assen,Drenthe,VBO,6.532270,52.989462
Fivelingostraat,154,,,9405EK,Assen,Assen,Drenthe,VBO,6.532227,52.989508
Fivelingostraat,156,,,9405EK,Assen,Assen,Drenthe,VBO,6.532183,52.989553
Fivelingostraat,158,,,9405EK,Assen,Assen,Drenthe,VBO,6.532140,52.989608
Fivelingostraat,160,,,9405EK,Assen,Assen,Drenthe,VBO,6.532097,52.989653
Oldambtstraat,1,,,9405EL,Assen,Assen,Drenthe,VBO,6.531227,52.989985
Oldambtstraat,3,,,9405EL,Assen,Assen,Drenthe,VBO,6.531183,52.990039
Oldambtstraat,5,,,9405EL,Assen,Assen,Drenthe,VBO,6.531140,52.990084
Oldambtstraat,7,,,9405EL,Assen,Assen,Drenthe,VBO,6.531096,52.990130
Oldambtstraat,9,,,9405EL,Assen,Assen,Drenthe,VBO,6.530993,52.990158
Oldambtstraat,11,,,9405EL,Assen,Assen,Drenthe,VBO,6.530964,52.990203
Oldambtstraat,13,,,9405EL,Assen,Assen,Drenthe,VBO,6.530906,52.990257
Oldambtstraat,15,,,9405EL,Assen,Assen,Drenthe,VBO,6.530863,52.990303
Oldambtstraat,17,,,9405EL,Assen,Assen,Drenthe,VBO,6.530819,52.990348
Oldambtstraat,19,,,9405EL,Assen,Assen,Drenthe,VBO,6.530776,52.990393
Oldambtstraat,21,,,9405EL,Assen,Assen,Drenthe,VBO,6.530732,52.990439
Oldambtstraat,23,,,9405EL,Assen,Assen,Drenthe,VBO,6.530689,52.990484
Oldambtstraat,25,,,9405EL,Assen,Assen,Drenthe,VBO,6.531089,52.990435
Oldambtstraat,27,,,9405EL,Assen,Assen,Drenthe,VBO,6.531165,52.990471
Oldambtstraat,29,,,9405EL,Assen,Assen,Drenthe,VBO,6.531240,52.990497
Oldambtstraat,31,,,9405EL,Assen,Assen,Drenthe,VBO,6.531315,52.990523
Oldambtstraat,33,,,9405EL,Assen,Assen,Drenthe,VBO,6.531040,52.990813
Oldambtstraat,35,,,9405EL,Assen,Assen,Drenthe,VBO,6.530950,52.990787
Oldambtstraat,37,,,9405EL,Assen,Assen,Drenthe,VBO,6.530875,52.990761
Oldambtstraat,39,,,9405EL,Assen,Assen,Drenthe,VBO,6.530799,52.990735
Oldambtstraat,41,,,9405EL,Assen,Assen,Drenthe,VBO,6.530724,52.990708
Oldambtstraat,43,,,9405EL,Assen,Assen,Drenthe,VBO,6.530649,52.990682
Oldambtstraat,45,,,9405EL,Assen,Assen,Drenthe,VBO,6.530574,52.990656
Oldambtstraat,47,,,9405EL,Assen,Assen,Drenthe,VBO,6.530484,52.990630
Oldambtstraat,2,,,9405EM,Assen,Assen,Drenthe,VBO,6.531697,52.989765
Oldambtstraat,4,,,9405EM,Assen,Assen,Drenthe,VBO,6.531787,52.989791
Oldambtstraat,6,,,9405EM,Assen,Assen,Drenthe,VBO,6.531863,52.989817
Oldambtstraat,8,,,9405EM,Assen,Assen,Drenthe,VBO,6.531938,52.989843
Oldambtstraat,10,,,9405EM,Assen,Assen,Drenthe,VBO,6.532013,52.989869
Oldambtstraat,12,,,9405EM,Assen,Assen,Drenthe,VBO,6.532088,52.989896
Oldambtstraat,14,,,9405EM,Assen,Assen,Drenthe,VBO,6.532178,52.989931
Oldambtstraat,16,,,9405EM,Assen,Assen,Drenthe,VBO,6.532253,52.989957
Oldambtstraat,18,,,9405EM,Assen,Assen,Drenthe,VBO,6.531942,52.990005
Oldambtstraat,20,,,9405EM,Assen,Assen,Drenthe,VBO,6.531898,52.990041
Oldambtstraat,22,,,9405EM,Assen,Assen,Drenthe,VBO,6.531855,52.990087
Oldambtstraat,24,,,9405EM,Assen,Assen,Drenthe,VBO,6.531811,52.990132
Oldambtstraat,26,,,9405EM,Assen,Assen,Drenthe,VBO,6.531471,52.990225
Oldambtstraat,28,,,9405EM,Assen,Assen,Drenthe,VBO,6.531546,52.990251
Oldambtstraat,30,,,9405EM,Assen,Assen,Drenthe,VBO,6.531621,52.990278
Oldambtstraat,32,,,9405EM,Assen,Assen,Drenthe,VBO,6.531711,52.990304
Oldambtstraat,34,,,9405EM,Assen,Assen,Drenthe,VBO,6.531787,52.990330
Oldambtstraat,36,,,9405EM,Assen,Assen,Drenthe,VBO,6.531862,52.990356
Oldambtstraat,38,,,9405EM,Assen,Assen,Drenthe,VBO,6.531745,52.990456
Oldambtstraat,40,,,9405EN,Assen,Assen,Drenthe,VBO,6.531702,52.990510
Oldambtstraat,42,,,9405EN,Assen,Assen,Drenthe,VBO,6.531659,52.990556
Oldambtstraat,44,,,9405EN,Assen,Assen,Drenthe,VBO,6.531615,52.990601
Oldambtstraat,46,,,9405EN,Assen,Assen,Drenthe,VBO,6.531572,52.990646
Oldambtstraat,48,,,9405EN,Assen,Assen,Drenthe,VBO,6.531528,52.990692
Oldambtstraat,50,,,9405EN,Assen,Assen,Drenthe,VBO,6.531485,52.990737
Oldambtstraat,52,,,9405EN,Assen,Assen,Drenthe,VBO,6.531441,52.990783
Oldambtstraat,54,,,9405EN,Assen,Assen,Drenthe,VBO,6.531338,52.990819
Oldambtstraat,56,,,9405EN,Assen,Assen,Drenthe,VBO,6.531294,52.990865
Oldambtstraat,58,,,9405EN,Assen,Assen,Drenthe,VBO,6.531251,52.990910
Oldambtstraat,60,,,9405EN,Assen,Assen,Drenthe,VBO,6.531207,52.990955
Oldambtstraat,62,,,9405EN,Assen,Assen,Drenthe,VBO,6.531164,52.991001
Oldambtstraat,64,,,9405EN,Assen,Assen,Drenthe,VBO,6.531121,52.991055
Oldambtstraat,66,,,9405EN,Assen,Assen,Drenthe,VBO,6.531035,52.991182
Oldambtstraat,68,,,9405EN,Assen,Assen,Drenthe,VBO,6.530959,52.991156
Oldambtstraat,70,,,9405EN,Assen,Assen,Drenthe,VBO,6.530869,52.991129
Oldambtstraat,72,,,9405EN,Assen,Assen,Drenthe,VBO,6.530794,52.991103
Oldambtstraat,74,,,9405EN,Assen,Assen,Drenthe,VBO,6.530719,52.991077
Oldambtstraat,76,,,9405EN,Assen,Assen,Drenthe,VBO,6.530644,52.991051
Oldambtstraat,78,,,9405EN,Assen,Assen,Drenthe,VBO,6.530342,52.990901
Oldambtstraat,80,,,9405EP,Assen,Assen,Drenthe,VBO,6.530299,52.990955
Oldambtstraat,82,,,9405EP,Assen,Assen,Drenthe,VBO,6.530255,52.991001
Oldambtstraat,84,,,9405EP,Assen,Assen,Drenthe,VBO,6.530212,52.991046
Oldambtstraat,86,,,9405EP,Assen,Assen,Drenthe,VBO,6.530017,52.991003
Oldambtstraat,88,,,9405EP,Assen,Assen,Drenthe,VBO,6.529942,52.990977
Oldambtstraat,90,,,9405EP,Assen,Assen,Drenthe,VBO,6.529852,52.990950
Oldambtstraat,92,,,9405EP,Assen,Assen,Drenthe,VBO,6.529777,52.990915
Oldambtstraat,94,,,9405EP,Assen,Assen,Drenthe,VBO,6.529878,52.990806
Oldambtstraat,96,,,9405EP,Assen,Assen,Drenthe,VBO,6.529921,52.990761
Oldambtstraat,98,,,9405EP,Assen,Assen,Drenthe,VBO,6.529965,52.990707
Oldambtstraat,100,,,9405EP,Assen,Assen,Drenthe,VBO,6.530008,52.990661
Oldambtstraat,102,,,9405EP,Assen,Assen,Drenthe,VBO,6.530052,52.990616
Oldambtstraat,104,,,9405EP,Assen,Assen,Drenthe,VBO,6.530095,52.990571
Hunsingostraat,1,,,9405ER,Assen,Assen,Drenthe,VBO,6.530111,52.988351
Hunsingostraat,3,,,9405ER,Assen,Assen,Drenthe,VBO,6.530186,52.988377
Hunsingostraat,5,,,9405ER,Assen,Assen,Drenthe,VBO,6.530262,52.988403
Hunsingostraat,7,,,9405ER,Assen,Assen,Drenthe,VBO,6.530337,52.988429
Hunsingostraat,9,,,9405ER,Assen,Assen,Drenthe,VBO,6.530427,52.988456
Hunsingostraat,11,,,9405ER,Assen,Assen,Drenthe,VBO,6.530502,52.988482
Hunsingostraat,13,,,9405ER,Assen,Assen,Drenthe,VBO,6.530522,52.988661
Hunsingostraat,15,,,9405ER,Assen,Assen,Drenthe,VBO,6.530478,52.988707
Hunsingostraat,17,,,9405ER,Assen,Assen,Drenthe,VBO,6.530435,52.988752
Hunsingostraat,19,,,9405ER,Assen,Assen,Drenthe,VBO,6.530391,52.988797
Hunsingostraat,21,,,9405ER,Assen,Assen,Drenthe,VBO,6.530348,52.988852
Hunsingostraat,23,,,9405ER,Assen,Assen,Drenthe,VBO,6.530304,52.988888
Hunsingostraat,25,,,9405ER,Assen,Assen,Drenthe,VBO,6.530261,52.988942
Hunsingostraat,27,,,9405ER,Assen,Assen,Drenthe,VBO,6.530203,52.988988
Hunsingostraat,29,,,9405ER,Assen,Assen,Drenthe,VBO,6.530056,52.988504
Hunsingostraat,31,,,9405ER,Assen,Assen,Drenthe,VBO,6.530012,52.988549
Hunsingostraat,33,,,9405ER,Assen,Assen,Drenthe,VBO,6.529969,52.988595
Hunsingostraat,35,,,9405ES,Assen,Assen,Drenthe,VBO,6.529925,52.988640
Hunsingostraat,37,,,9405ES,Assen,Assen,Drenthe,VBO,6.529645,52.988751
Hunsingostraat,39,,,9405ES,Assen,Assen,Drenthe,VBO,6.529721,52.988786
Hunsingostraat,41,,,9405ES,Assen,Assen,Drenthe,VBO,6.529796,52.988812
Hunsingostraat,43,,,9405ES,Assen,Assen,Drenthe,VBO,6.529886,52.988838
Hunsingostraat,45,,,9405ES,Assen,Assen,Drenthe,VBO,6.529489,52.989022
Hunsingostraat,47,,,9405ES,Assen,Assen,Drenthe,VBO,6.529564,52.989048
Hunsingostraat,49,,,9405ES,Assen,Assen,Drenthe,VBO,6.529639,52.989074
Hunsingostraat,51,,,9405ES,Assen,Assen,Drenthe,VBO,6.529714,52.989100
Hunsingostraat,53,,,9405ES,Assen,Assen,Drenthe,VBO,6.529789,52.989136
Hunsingostraat,55,,,9405ES,Assen,Assen,Drenthe,VBO,6.529879,52.989162
Hunsingostraat,57,,,9405ES,Assen,Assen,Drenthe,VBO,6.529693,52.989451
Hunsingostraat,59,,,9405ES,Assen,Assen,Drenthe,VBO,6.529618,52.989425
Hunsingostraat,61,,,9405ES,Assen,Assen,Drenthe,VBO,6.529528,52.989390
Hunsingostraat,63,,,9405ES,Assen,Assen,Drenthe,VBO,6.529453,52.989373
Hunsingostraat,65,,,9405ES,Assen,Assen,Drenthe,VBO,6.529300,52.989221
Hunsingostraat,67,,,9405ES,Assen,Assen,Drenthe,VBO,6.529257,52.989267
Hunsingostraat,69,,,9405ES,Assen,Assen,Drenthe,VBO,6.529213,52.989312
Hunsingostraat,71,,,9405ET,Assen,Assen,Drenthe,VBO,6.529170,52.989357
Hunsingostraat,73,,,9405ET,Assen,Assen,Drenthe,VBO,6.529126,52.989403
Hunsingostraat,75,,,9405ET,Assen,Assen,Drenthe,VBO,6.529083,52.989448
Hunsingostraat,77,,,9405ET,Assen,Assen,Drenthe,VBO,6.529039,52.989502
Hunsingostraat,79,,,9405ET,Assen,Assen,Drenthe,VBO,6.528996,52.989548
Hunsingostraat,81,,,9405ET,Assen,Assen,Drenthe,VBO,6.529195,52.989761
Hunsingostraat,83,,,9405ET,Assen,Assen,Drenthe,VBO,6.529120,52.989735
Hunsingostraat,85,,,9405ET,Assen,Assen,Drenthe,VBO,6.529045,52.989709
Hunsingostraat,87,,,9405ET,Assen,Assen,Drenthe,VBO,6.528970,52.989683
Hunsingostraat,89,,,9405ET,Assen,Assen,Drenthe,VBO,6.528880,52.989657
Hunsingostraat,91,,,9405ET,Assen,Assen,Drenthe,VBO,6.528805,52.989630
Hunsingostraat,93,,,9405ET,Assen,Assen,Drenthe,VBO,6.529100,52.990122
Hunsingostraat,95,,,9405ET,Assen,Assen,Drenthe,VBO,6.529025,52.990096
Hunsingostraat,97,,,9405ET,Assen,Assen,Drenthe,VBO,6.528950,52.990069
Hunsingostraat,99,,,9405ET,Assen,Assen,Drenthe,VBO,6.528875,52.990034
Hunsingostraat,101,,,9405EV,Assen,Assen,Drenthe,VBO,6.528785,52.990008
Hunsingostraat,103,,,9405EV,Assen,Assen,Drenthe,VBO,6.528709,52.989982
Hunsingostraat,105,,,9405EV,Assen,Assen,Drenthe,VBO,6.529124,52.990436
Hunsingostraat,107,,,9405EV,Assen,Assen,Drenthe,VBO,6.529048,52.990410
Hunsingostraat,109,,,9405EV,Assen,Assen,Drenthe,VBO,6.528973,52.990384
Hunsingostraat,111,,,9405EV,Assen,Assen,Drenthe,VBO,6.528883,52.990358
Hunsingostraat,113,,,9405EV,Assen,Assen,Drenthe,VBO,6.528808,52.990331
Hunsingostraat,115,,,9405EV,Assen,Assen,Drenthe,VBO,6.528733,52.990305
Hunsingostraat,117,,,9405EV,Assen,Assen,Drenthe,VBO,6.529522,52.990280
Hunsingostraat,119,,,9405EV,Assen,Assen,Drenthe,VBO,6.529478,52.990325
Hunsingostraat,121,,,9405EV,Assen,Assen,Drenthe,VBO,6.529435,52.990370
Hunsingostraat,123,,,9405EV,Assen,Assen,Drenthe,VBO,6.529391,52.990416
Hunsingostraat,125,,,9405EV,Assen,Assen,Drenthe,VBO,6.529348,52.990461
Hunsingostraat,127,,,9405EV,Assen,Assen,Drenthe,VBO,6.529304,52.990515
Hunsingostraat,129,,,9405EV,Assen,Assen,Drenthe,VBO,6.529261,52.990561
Hunsingostraat,131,,,9405EV,Assen,Assen,Drenthe,VBO,6.529217,52.990606
Hunsingostraat,2,,,9405EW,Assen,Assen,Drenthe,VBO,6.531174,52.987415
Hunsingostraat,4,,,9405EW,Assen,Assen,Drenthe,VBO,6.530225,52.989266
Hunsingostraat,6,,,9405EW,Assen,Assen,Drenthe,VBO,6.530181,52.989321
Hunsingostraat,8,,,9405EW,Assen,Assen,Drenthe,VBO,6.530138,52.989366
Hunsingostraat,10,,,9405EW,Assen,Assen,Drenthe,VBO,6.530080,52.989412
Hunsingostraat,12,,,9405EW,Assen,Assen,Drenthe,VBO,6.530036,52.989457
Hunsingostraat,14,,,9405EW,Assen,Assen,Drenthe,VBO,6.529993,52.989502
Hunsingostraat,16,,,9405EW,Assen,Assen,Drenthe,VBO,6.529949,52.989548
Hunsingostraat,18,,,9405EW,Assen,Assen,Drenthe,VBO,6.529906,52.989602
Hunsingostraat,20,,,9405EW,Assen,Assen,Drenthe,VBO,6.530192,52.989725
Hunsingostraat,22,,,9405EW,Assen,Assen,Drenthe,VBO,6.530282,52.989751
Hunsingostraat,24,,,9405EW,Assen,Assen,Drenthe,VBO,6.530357,52.989777
Hunsingostraat,26,,,9405EX,Assen,Assen,Drenthe,VBO,6.530432,52.989804
Hunsingostraat,28,,,9405EX,Assen,Assen,Drenthe,VBO,6.529625,52.989694
Hunsingostraat,30,,,9405EX,Assen,Assen,Drenthe,VBO,6.529582,52.989749
Hunsingostraat,32,,,9405EX,Assen,Assen,Drenthe,VBO,6.529539,52.989794
Hunsingostraat,34,,,9405EX,Assen,Assen,Drenthe,VBO,6.529495,52.989840
Hunsingostraat,36,,,9405EX,Assen,Assen,Drenthe,VBO,6.529452,52.989885
Hunsingostraat,38,,,9405EX,Assen,Assen,Drenthe,VBO,6.529408,52.989930
Hunsingostraat,40,,,9405EX,Assen,Assen,Drenthe,VBO,6.529679,52.990026
Hunsingostraat,42,,,9405EX,Assen,Assen,Drenthe,VBO,6.529769,52.990053
Hunsingostraat,44,,,9405EX,Assen,Assen,Drenthe,VBO,6.529844,52.990079
Hunsingostraat,46,,,9405EX,Assen,Assen,Drenthe,VBO,6.529919,52.990105
Hunsingostraat,48,,,9405EX,Assen,Assen,Drenthe,VBO,6.529994,52.990131
Hunsingostraat,50,,,9405EX,Assen,Assen,Drenthe,VBO,6.530085,52.990166
Westerwoldestraat,1,,,9405GA,Assen,Assen,Drenthe,VBO,6.531486,52.987385
Westerwoldestraat,3,,,9405GA,Assen,Assen,Drenthe,VBO,6.531546,52.987411
Westerwoldestraat,5,,,9405GA,Assen,Assen,Drenthe,VBO,6.531666,52.987455
Westerwoldestraat,7,,,9405GA,Assen,Assen,Drenthe,VBO,6.531742,52.987490
Westerwoldestraat,9,,,9405GA,Assen,Assen,Drenthe,VBO,6.531862,52.987534
Westerwoldestraat,11,,,9405GA,Assen,Assen,Drenthe,VBO,6.531922,52.987561
Westerwoldestraat,13,,,9405GA,Assen,Assen,Drenthe,VBO,6.532223,52.987675
Westerwoldestraat,15,,,9405GA,Assen,Assen,Drenthe,VBO,6.532434,52.987753
Westerwoldestraat,17,,,9405GA,Assen,Assen,Drenthe,VBO,6.532613,52.987779
Westerwoldestraat,19,,,9405GA,Assen,Assen,Drenthe,VBO,6.532738,52.987984
Westerwoldestraat,21,,,9405GA,Assen,Assen,Drenthe,VBO,6.533066,52.988017
Westerwoldestraat,23,,,9405GA,Assen,Assen,Drenthe,VBO,6.533350,52.988041
Westerwoldestraat,25,,,9405GA,Assen,Assen,Drenthe,VBO,6.533470,52.988085
Westerwoldestraat,27,,,9405GA,Assen,Assen,Drenthe,VBO,6.533635,52.988146
Westerwoldestraat,29,,,9405GA,Assen,Assen,Drenthe,VBO,6.533710,52.988164
Westerwoldestraat,31,,,9405GA,Assen,Assen,Drenthe,VBO,6.533846,52.988216
Westerwoldestraat,33,,,9405GA,Assen,Assen,Drenthe,VBO,6.534042,52.988295
Westerwoldestraat,2,,,9405GB,Assen,Assen,Drenthe,VBO,6.531704,52.987185
Westerwoldestraat,4,A,,9405GB,Assen,Assen,Drenthe,VBO,6.532079,52.987298
Westerwoldestraat,4,,,9405GB,Assen,Assen,Drenthe,VBO,6.531764,52.987212
Westerwoldestraat,6,,,9405GB,Assen,Assen,Drenthe,VBO,6.532216,52.987387
Westerwoldestraat,8,A,,9405GB,Assen,Assen,Drenthe,VBO,6.532605,52.987482
Westerwoldestraat,8,,,9405GB,Assen,Assen,Drenthe,VBO,6.532411,52.987457
Westerwoldestraat,10,,,9405GB,Assen,Assen,Drenthe,VBO,6.532742,52.987571
Westerwoldestraat,12,A,,9405GB,Assen,Assen,Drenthe,VBO,6.532966,52.987622
Westerwoldestraat,12,,,9405GB,Assen,Assen,Drenthe,VBO,6.532802,52.987588
Westerwoldestraat,14,,,9405GB,Assen,Assen,Drenthe,VBO,6.533117,52.987693
Westerwoldestraat,16,,,9405GB,Assen,Assen,Drenthe,VBO,6.533328,52.987772
Westerwoldestraat,18,,,9405GB,Assen,Assen,Drenthe,VBO,6.533493,52.987833
Westerwoldestraat,20,,,9405GB,Assen,Assen,Drenthe,VBO,6.533674,52.987894
Westerwoldestraat,22,,,9405GB,Assen,Assen,Drenthe,VBO,6.534033,52.987954
Salland,1,A,,9405GC,Assen,Assen,Drenthe,VBO,6.533964,52.984782
Salland,1,,,9405GC,Assen,Assen,Drenthe,VBO,6.534259,52.984680
Salland,3,,,9405GC,Assen,Assen,Drenthe,VBO,6.534348,52.984670
Salland,5,,,9405GC,Assen,Assen,Drenthe,VBO,6.534437,52.984661
Salland,7,,,9405GC,Assen,Assen,Drenthe,VBO,6.534541,52.984651
Salland,9,,,9405GC,Assen,Assen,Drenthe,VBO,6.534597,52.984524
Salland,11,,,9405GC,Assen,Assen,Drenthe,VBO,6.534566,52.984471
Salland,13,,,9405GC,Assen,Assen,Drenthe,VBO,6.534550,52.984417
Salland,15,,,9405GC,Assen,Assen,Drenthe,VBO,6.534534,52.984363
Salland,19,,,9405GC,Assen,Assen,Drenthe,VBO,6.534294,52.984329
Salland,21,,,9405GC,Assen,Assen,Drenthe,VBO,6.534220,52.984339
Salland,23,,,9405GC,Assen,Assen,Drenthe,VBO,6.534131,52.984349
Salland,25,,,9405GC,Assen,Assen,Drenthe,VBO,6.534027,52.984359
Salland,27,,,9405GC,Assen,Assen,Drenthe,VBO,6.533807,52.984487
Salland,29,,,9405GC,Assen,Assen,Drenthe,VBO,6.533718,52.984497
Salland,31,,,9405GD,Assen,Assen,Drenthe,VBO,6.533629,52.984507
Salland,33,,,9405GD,Assen,Assen,Drenthe,VBO,6.533540,52.984516
Salland,35,,,9405GD,Assen,Assen,Drenthe,VBO,6.533543,52.984651
Salland,37,,,9405GD,Assen,Assen,Drenthe,VBO,6.533560,52.984705
Salland,39,,,9405GD,Assen,Assen,Drenthe,VBO,6.533576,52.984759
Salland,41,,,9405GD,Assen,Assen,Drenthe,VBO,6.533592,52.984813
Salland,43,,,9405GD,Assen,Assen,Drenthe,VBO,6.533298,52.984959
Salland,45,,,9405GD,Assen,Assen,Drenthe,VBO,6.533315,52.985013
Salland,47,,,9405GD,Assen,Assen,Drenthe,VBO,6.533331,52.985067
Salland,49,,,9405GD,Assen,Assen,Drenthe,VBO,6.533362,52.985120
Salland,51,,,9405GD,Assen,Assen,Drenthe,VBO,6.533379,52.985174
Salland,53,,,9405GD,Assen,Assen,Drenthe,VBO,6.533395,52.985228
Salland,55,,,9405GD,Assen,Assen,Drenthe,VBO,6.533487,52.985326
Salland,57,,,9405GD,Assen,Assen,Drenthe,VBO,6.533561,52.985316
Salland,59,,,9405GD,Assen,Assen,Drenthe,VBO,6.533650,52.985306
Salland,61,,,9405GE,Assen,Assen,Drenthe,VBO,6.533739,52.985296
Salland,63,,,9405GE,Assen,Assen,Drenthe,VBO,6.533946,52.985240
Salland,65,,,9405GE,Assen,Assen,Drenthe,VBO,6.533930,52.985187
Salland,67,,,9405GE,Assen,Assen,Drenthe,VBO,6.533914,52.985133
Salland,69,,,9405GE,Assen,Assen,Drenthe,VBO,6.533897,52.985079
Salland,71,,,9405GE,Assen,Assen,Drenthe,VBO,6.533851,52.985026
Salland,73,,,9405GE,Assen,Assen,Drenthe,VBO,6.533835,52.984972
Salland,75,,,9405GE,Assen,Assen,Drenthe,VBO,6.534948,52.984826
Salland,77,,,9405GE,Assen,Assen,Drenthe,VBO,6.535037,52.984817
Salland,79,,,9405GE,Assen,Assen,Drenthe,VBO,6.535126,52.984807
Salland,81,,,9405GE,Assen,Assen,Drenthe,VBO,6.535215,52.984788
Salland,83,,,9405GE,Assen,Assen,Drenthe,VBO,6.535413,52.984948
Salland,85,,,9405GE,Assen,Assen,Drenthe,VBO,6.535429,52.985011
Salland,87,,,9405GE,Assen,Assen,Drenthe,VBO,6.535446,52.985064
Salland,89,,,9405GE,Assen,Assen,Drenthe,VBO,6.535477,52.985118
Salland,91,,,9405GG,Assen,Assen,Drenthe,VBO,6.535377,52.985272
Salland,93,,,9405GG,Assen,Assen,Drenthe,VBO,6.535287,52.985282
Salland,95,,,9405GG,Assen,Assen,Drenthe,VBO,6.535016,52.985167
Salland,97,,,9405GG,Assen,Assen,Drenthe,VBO,6.535000,52.985114
Salland,99,,,9405GG,Assen,Assen,Drenthe,VBO,6.534969,52.985060
Salland,101,,,9405GG,Assen,Assen,Drenthe,VBO,6.534953,52.985006
Salland,103,,,9405GG,Assen,Assen,Drenthe,VBO,6.534729,52.984981
Salland,105,,,9405GG,Assen,Assen,Drenthe,VBO,6.534639,52.984991
Salland,107,,,9405GG,Assen,Assen,Drenthe,VBO,6.534550,52.985001
Salland,109,,,9405GG,Assen,Assen,Drenthe,VBO,6.534461,52.985011
Salland,111,,,9405GG,Assen,Assen,Drenthe,VBO,6.534539,52.985136
Salland,113,,,9405GG,Assen,Assen,Drenthe,VBO,6.534555,52.985190
Salland,115,,,9405GG,Assen,Assen,Drenthe,VBO,6.534483,52.985253
Salland,117,,,9405GG,Assen,Assen,Drenthe,VBO,6.534499,52.985307
Salland,119,,,9405GG,Assen,Assen,Drenthe,VBO,6.534515,52.985361
Salland,121,,,9405GH,Assen,Assen,Drenthe,VBO,6.534532,52.985415
Salland,123,,,9405GH,Assen,Assen,Drenthe,VBO,6.534726,52.985431
Salland,125,,,9405GH,Assen,Assen,Drenthe,VBO,6.534814,52.985412
Salland,127,,,9405GH,Assen,Assen,Drenthe,VBO,6.534888,52.985366
Salland,129,,,9405GH,Assen,Assen,Drenthe,VBO,6.534977,52.985356
Salland,131,,,9405GH,Assen,Assen,Drenthe,VBO,6.535117,52.985598
Salland,133,,,9405GH,Assen,Assen,Drenthe,VBO,6.535206,52.985588
Salland,135,,,9405GH,Assen,Assen,Drenthe,VBO,6.535299,52.985713
Salland,137,,,9405GH,Assen,Assen,Drenthe,VBO,6.535315,52.985767
Salland,139,,,9405GH,Assen,Assen,Drenthe,VBO,6.535331,52.985820
Salland,141,,,9405GH,Assen,Assen,Drenthe,VBO,6.535348,52.985874
Salland,143,,,9405GH,Assen,Assen,Drenthe,VBO,6.535140,52.985912
Salland,145,,,9405GH,Assen,Assen,Drenthe,VBO,6.535036,52.985922
Salland,147,,,9405GH,Assen,Assen,Drenthe,VBO,6.534947,52.985932
Salland,149,,,9405GH,Assen,Assen,Drenthe,VBO,6.534873,52.985942
Salland,151,,,9405GJ,Assen,Assen,Drenthe,VBO,6.534768,52.985916
Salland,153,,,9405GJ,Assen,Assen,Drenthe,VBO,6.534679,52.985925
Salland,155,,,9405GJ,Assen,Assen,Drenthe,VBO,6.534881,52.985690
Salland,157,,,9405GJ,Assen,Assen,Drenthe,VBO,6.534792,52.985700
Salland,159,,,9405GJ,Assen,Assen,Drenthe,VBO,6.534687,52.985674
Salland,161,,,9405GJ,Assen,Assen,Drenthe,VBO,6.534598,52.985693
Salland,163,,,9405GJ,Assen,Assen,Drenthe,VBO,6.534509,52.985693
Salland,165,,,9405GJ,Assen,Assen,Drenthe,VBO,6.534420,52.985712
Salland,167,,,9405GJ,Assen,Assen,Drenthe,VBO,6.534347,52.985776
Salland,169,,,9405GJ,Assen,Assen,Drenthe,VBO,6.534258,52.985786
Salland,171,,,9405GJ,Assen,Assen,Drenthe,VBO,6.534247,52.985912
Salland,173,,,9405GJ,Assen,Assen,Drenthe,VBO,6.534278,52.985974
Salland,175,,,9405GJ,Assen,Assen,Drenthe,VBO,6.534295,52.986028
Salland,177,,,9405GJ,Assen,Assen,Drenthe,VBO,6.534311,52.986082
Salland,179,,,9405GJ,Assen,Assen,Drenthe,VBO,6.534416,52.986117
Salland,181,,,9405GK,Assen,Assen,Drenthe,VBO,6.534432,52.986170
Salland,183,,,9405GK,Assen,Assen,Drenthe,VBO,6.534611,52.986178
Salland,185,,,9405GK,Assen,Assen,Drenthe,VBO,6.534700,52.986168
Salland,187,,,9405GK,Assen,Assen,Drenthe,VBO,6.533503,52.985946
Salland,189,,,9405GK,Assen,Assen,Drenthe,VBO,6.533592,52.985936
Salland,191,,,9405GK,Assen,Assen,Drenthe,VBO,6.533696,52.985926
Salland,193,,,9405GK,Assen,Assen,Drenthe,VBO,6.533785,52.985916
Salland,195,,,9405GK,Assen,Assen,Drenthe,VBO,6.533827,52.985790
Salland,197,,,9405GK,Assen,Assen,Drenthe,VBO,6.533810,52.985736
Salland,199,,,9405GK,Assen,Assen,Drenthe,VBO,6.533794,52.985682
Salland,201,,,9405GK,Assen,Assen,Drenthe,VBO,6.533778,52.985629
Salland,203,,,9405GK,Assen,Assen,Drenthe,VBO,6.533539,52.985604
Salland,205,,,9405GK,Assen,Assen,Drenthe,VBO,6.533450,52.985614
Salland,207,,,9405GK,Assen,Assen,Drenthe,VBO,6.533361,52.985624
Salland,209,,,9405GK,Assen,Assen,Drenthe,VBO,6.533271,52.985633
Salland,211,,,9405GK,Assen,Assen,Drenthe,VBO,6.533182,52.985643
Salland,213,,,9405GL,Assen,Assen,Drenthe,VBO,6.533093,52.985653
Salland,215,,,9405GL,Assen,Assen,Drenthe,VBO,6.532931,52.985727
Salland,217,,,9405GL,Assen,Assen,Drenthe,VBO,6.532948,52.985780
Salland,219,,,9405GL,Assen,Assen,Drenthe,VBO,6.532964,52.985834
Salland,221,,,9405GL,Assen,Assen,Drenthe,VBO,6.532980,52.985888
Salland,223,,,9405GL,Assen,Assen,Drenthe,VBO,6.533219,52.985921
Salland,225,,,9405GL,Assen,Assen,Drenthe,VBO,6.533236,52.985975
Salland,227,,,9405GL,Assen,Assen,Drenthe,VBO,6.533252,52.986029
Salland,229,,,9405GL,Assen,Assen,Drenthe,VBO,6.533268,52.986083
Salland,231,,,9405GL,Assen,Assen,Drenthe,VBO,6.533017,52.986157
Salland,233,,,9405GL,Assen,Assen,Drenthe,VBO,6.532928,52.986167
Salland,235,,,9405GL,Assen,Assen,Drenthe,VBO,6.532675,52.986151
Salland,237,,,9405GL,Assen,Assen,Drenthe,VBO,6.532658,52.986098
Salland,239,,,9405GL,Assen,Assen,Drenthe,VBO,6.532642,52.986044
Salland,241,,,9405GL,Assen,Assen,Drenthe,VBO,6.532626,52.985990
Salland,2,A,,9405GM,Assen,Assen,Drenthe,VBO,6.536087,52.983980
Salland,4,,,9405GM,Assen,Assen,Drenthe,VBO,6.536010,52.984457
Salland,6,,,9405GM,Assen,Assen,Drenthe,VBO,6.535805,52.985160
Salland,8,,,9405GM,Assen,Assen,Drenthe,VBO,6.535895,52.985150
Salland,10,,,9405GM,Assen,Assen,Drenthe,VBO,6.535984,52.985140
Salland,12,,,9405GM,Assen,Assen,Drenthe,VBO,6.536073,52.985121
Salland,14,,,9405GM,Assen,Assen,Drenthe,VBO,6.536146,52.985076
Salland,16,,,9405GM,Assen,Assen,Drenthe,VBO,6.536235,52.985066
Salland,18,,,9405GM,Assen,Assen,Drenthe,VBO,6.536505,52.985162
Salland,20,,,9405GM,Assen,Assen,Drenthe,VBO,6.536522,52.985216
Salland,22,,,9405GM,Assen,Assen,Drenthe,VBO,6.536434,52.985288
Salland,24,,,9405GM,Assen,Assen,Drenthe,VBO,6.536451,52.985342
Salland,26,,,9405GM,Assen,Assen,Drenthe,VBO,6.536394,52.985460
Salland,28,,,9405GM,Assen,Assen,Drenthe,VBO,6.536305,52.985469
Salland,30,,,9405GM,Assen,Assen,Drenthe,VBO,6.536216,52.985479
Salland,32,,,9405GN,Assen,Assen,Drenthe,VBO,6.536142,52.985489
Salland,34,,,9405GN,Assen,Assen,Drenthe,VBO,6.535975,52.985365
Salland,36,,,9405GN,Assen,Assen,Drenthe,VBO,6.535871,52.985375
Salland,38,,,9405GN,Assen,Assen,Drenthe,VBO,6.535650,52.985485
Salland,40,,,9405GN,Assen,Assen,Drenthe,VBO,6.535667,52.985548
Salland,42,,,9405GN,Assen,Assen,Drenthe,VBO,6.535683,52.985592
Salland,44,,,9405GN,Assen,Assen,Drenthe,VBO,6.535699,52.985655
Salland,46,,,9405GN,Assen,Assen,Drenthe,VBO,6.535716,52.985709
Salland,48,,,9405GN,Assen,Assen,Drenthe,VBO,6.535732,52.985763
Salland,50,,,9405GN,Assen,Assen,Drenthe,VBO,6.535870,52.985896
Salland,52,,,9405GN,Assen,Assen,Drenthe,VBO,6.535974,52.985886
Salland,54,,,9405GN,Assen,Assen,Drenthe,VBO,6.536046,52.985822
Salland,56,,,9405GN,Assen,Assen,Drenthe,VBO,6.536121,52.985813
Salland,58,,,9405GN,Assen,Assen,Drenthe,VBO,6.535801,52.986103
Salland,60,,,9405GN,Assen,Assen,Drenthe,VBO,6.535712,52.986113
Salland,62,,,9405GP,Assen,Assen,Drenthe,VBO,6.535622,52.986123
Salland,64,,,9405GP,Assen,Assen,Drenthe,VBO,6.535533,52.986133
Salland,66,,,9405GP,Assen,Assen,Drenthe,VBO,6.535298,52.986234
Salland,68,,,9405GP,Assen,Assen,Drenthe,VBO,6.535314,52.986288
Salland,70,,,9405GP,Assen,Assen,Drenthe,VBO,6.535331,52.986351
Salland,72,,,9405GP,Assen,Assen,Drenthe,VBO,6.535362,52.986404
Salland,74,,,9405GP,Assen,Assen,Drenthe,VBO,6.535408,52.986458
Salland,76,,,9405GP,Assen,Assen,Drenthe,VBO,6.535424,52.986511
Salland,78,,,9405GP,Assen,Assen,Drenthe,VBO,6.535209,52.986828
Salland,80,,,9405GP,Assen,Assen,Drenthe,VBO,6.535193,52.986774
Salland,82,,,9405GP,Assen,Assen,Drenthe,VBO,6.535177,52.986721
Salland,84,,,9405GP,Assen,Assen,Drenthe,VBO,6.535160,52.986667
Salland,86,,,9405GP,Assen,Assen,Drenthe,VBO,6.535055,52.986632
Salland,88,,,9405GP,Assen,Assen,Drenthe,VBO,6.535039,52.986578
Salland,90,,,9405GP,Assen,Assen,Drenthe,VBO,6.535022,52.986524
Salland,92,,,9405GP,Assen,Assen,Drenthe,VBO,6.535006,52.986471
Salland,94,,,9405GP,Assen,Assen,Drenthe,VBO,6.534707,52.986410
Salland,96,,,9405GR,Assen,Assen,Drenthe,VBO,6.534618,52.986420
Salland,98,,,9405GR,Assen,Assen,Drenthe,VBO,6.534529,52.986439
Salland,100,,,9405GR,Assen,Assen,Drenthe,VBO,6.534440,52.986449
Salland,102,,,9405GR,Assen,Assen,Drenthe,VBO,6.534335,52.986432
Salland,104,,,9405GR,Assen,Assen,Drenthe,VBO,6.534246,52.986442
Salland,106,,,9405GR,Assen,Assen,Drenthe,VBO,6.533865,52.986697
Salland,108,,,9405GR,Assen,Assen,Drenthe,VBO,6.533849,52.986643
Salland,110,,,9405GR,Assen,Assen,Drenthe,VBO,6.533833,52.986590
Salland,112,,,9405GR,Assen,Assen,Drenthe,VBO,6.533816,52.986536
Salland,114,,,9405GR,Assen,Assen,Drenthe,VBO,6.533800,52.986491
Salland,116,,,9405GR,Assen,Assen,Drenthe,VBO,6.533784,52.986428
Salland,118,,,9405GR,Assen,Assen,Drenthe,VBO,6.533616,52.986268
Salland,120,,,9405GR,Assen,Assen,Drenthe,VBO,6.533527,52.986287
Salland,122,,,9405GR,Assen,Assen,Drenthe,VBO,6.533453,52.986297
Salland,124,,,9405GR,Assen,Assen,Drenthe,VBO,6.533349,52.986316
Salland,126,,,9405GR,Assen,Assen,Drenthe,VBO,6.533246,52.986371
Salland,128,,,9405GR,Assen,Assen,Drenthe,VBO,6.533157,52.986380
Salland,130,,,9405GS,Assen,Assen,Drenthe,VBO,6.533053,52.986390
Salland,132,,,9405GS,Assen,Assen,Drenthe,VBO,6.532964,52.986400
Salland,134,,,9405GS,Assen,Assen,Drenthe,VBO,6.532875,52.986410
Salland,136,,,9405GS,Assen,Assen,Drenthe,VBO,6.532786,52.986420
Salland,138,,,9405GS,Assen,Assen,Drenthe,VBO,6.532652,52.986412
Salland,140,,,9405GS,Assen,Assen,Drenthe,VBO,6.532563,52.986422
Salland,142,,,9405GS,Assen,Assen,Drenthe,VBO,6.532473,52.986432
Salland,144,,,9405GS,Assen,Assen,Drenthe,VBO,6.532384,52.986442
Salland,146,,,9405GS,Assen,Assen,Drenthe,VBO,6.532374,52.986613
Salland,148,,,9405GS,Assen,Assen,Drenthe,VBO,6.532390,52.986666
Salland,150,,,9405GS,Assen,Assen,Drenthe,VBO,6.532791,52.986609
Salland,152,,,9405GS,Assen,Assen,Drenthe,VBO,6.532807,52.986662
Salland,154,,,9405GS,Assen,Assen,Drenthe,VBO,6.532823,52.986716
Salland,156,,,9405GS,Assen,Assen,Drenthe,VBO,6.532840,52.986770
Salland,158,,,9405GS,Assen,Assen,Drenthe,VBO,6.532752,52.986834
Salland,160,,,9405GS,Assen,Assen,Drenthe,VBO,6.532783,52.986887
Salland,162,,,9405GS,Assen,Assen,Drenthe,VBO,6.532486,52.986926
Salland,164,,,9405GS,Assen,Assen,Drenthe,VBO,6.532246,52.986847
Salland,166,,,9405GS,Assen,Assen,Drenthe,VBO,6.532006,52.986760
Het Bildt,1,,,9405GT,Assen,Assen,Drenthe,VBO,6.531280,52.986211
Het Bildt,3,,,9405GT,Assen,Assen,Drenthe,VBO,6.531388,52.986203
Het Bildt,5,,,9405GT,Assen,Assen,Drenthe,VBO,6.531510,52.986220
Het Bildt,7,,,9405GT,Assen,Assen,Drenthe,VBO,6.531624,52.986211
Het Bildt,9,,,9405GT,Assen,Assen,Drenthe,VBO,6.531750,52.986223
Het Bildt,11,,,9405GT,Assen,Assen,Drenthe,VBO,6.531863,52.986185
Het Bildt,13,,,9405GT,Assen,Assen,Drenthe,VBO,6.531965,52.986173
Het Bildt,15,,,9405GT,Assen,Assen,Drenthe,VBO,6.532225,52.985924
Het Bildt,17,,,9405GT,Assen,Assen,Drenthe,VBO,6.532149,52.985870
Het Bildt,19,,,9405GT,Assen,Assen,Drenthe,VBO,6.532054,52.985818
Het Bildt,21,,,9405GT,Assen,Assen,Drenthe,VBO,6.531999,52.985744
Het Bildt,23,,,9405GT,Assen,Assen,Drenthe,VBO,6.531660,52.985656
Het Bildt,25,,,9405GT,Assen,Assen,Drenthe,VBO,6.531554,52.985668
Het Bildt,27,,,9405GT,Assen,Assen,Drenthe,VBO,6.531461,52.985733
Het Bildt,29,,,9405GT,Assen,Assen,Drenthe,VBO,6.531348,52.985746
Twenthe,1,,,9405GV,Assen,Assen,Drenthe,VBO,6.534248,52.987089
Twenthe,3,,,9405GV,Assen,Assen,Drenthe,VBO,6.534279,52.987143
Twenthe,5,,,9405GV,Assen,Assen,Drenthe,VBO,6.534296,52.987196
Twenthe,7,,,9405GV,Assen,Assen,Drenthe,VBO,6.534312,52.987250
Twenthe,9,,,9405GV,Assen,Assen,Drenthe,VBO,6.534490,52.987248
Twenthe,11,,,9405GV,Assen,Assen,Drenthe,VBO,6.534565,52.987248
Twenthe,13,,,9405GV,Assen,Assen,Drenthe,VBO,6.534669,52.987229
Twenthe,15,,,9405GV,Assen,Assen,Drenthe,VBO,6.534773,52.987219
Twenthe,17,,,9405GV,Assen,Assen,Drenthe,VBO,6.534814,52.987101
Twenthe,19,,,9405GV,Assen,Assen,Drenthe,VBO,6.534798,52.987048
Twenthe,21,,,9405GV,Assen,Assen,Drenthe,VBO,6.534782,52.986994
Twenthe,23,,,9405GV,Assen,Assen,Drenthe,VBO,6.534765,52.986940
Twenthe,25,,,9405GV,Assen,Assen,Drenthe,VBO,6.534749,52.986886
Twenthe,27,,,9405GV,Assen,Assen,Drenthe,VBO,6.534733,52.986833
Twenthe,29,,,9405GV,Assen,Assen,Drenthe,VBO,6.534596,52.986717
Twenthe,31,,,9405GV,Assen,Assen,Drenthe,VBO,6.534507,52.986727
Twenthe,33,,,9405GV,Assen,Assen,Drenthe,VBO,6.534273,52.986909
Twenthe,35,,,9405GV,Assen,Assen,Drenthe,VBO,6.534257,52.986855
Twenthe,37,,,9405GV,Assen,Assen,Drenthe,VBO,6.534240,52.986801
Twenthe,39,,,9405GV,Assen,Assen,Drenthe,VBO,6.534224,52.986748
Twenthe,41,,,9405GV,Assen,Assen,Drenthe,VBO,6.534208,52.986685
Twenthe,43,,,9405GV,Assen,Assen,Drenthe,VBO,6.534191,52.986631
Twenthe,45,,,9405GW,Assen,Assen,Drenthe,VBO,6.533810,52.986850
Twenthe,47,,,9405GW,Assen,Assen,Drenthe,VBO,6.533721,52.986860
Twenthe,49,,,9405GW,Assen,Assen,Drenthe,VBO,6.533632,52.986870
Twenthe,51,,,9405GW,Assen,Assen,Drenthe,VBO,6.533543,52.986880
Twenthe,53,A,,9405GW,Assen,Assen,Drenthe,VBO,6.533414,52.986540
Twenthe,53,,,9405GW,Assen,Assen,Drenthe,VBO,6.533328,52.986648
Twenthe,55,,,9405GW,Assen,Assen,Drenthe,VBO,6.533239,52.986667
Twenthe,57,,,9405GW,Assen,Assen,Drenthe,VBO,6.533228,52.986802
Twenthe,59,,,9405GW,Assen,Assen,Drenthe,VBO,6.533244,52.986856
Twenthe,61,,,9405GW,Assen,Assen,Drenthe,VBO,6.533260,52.986901
Twenthe,63,,,9405GW,Assen,Assen,Drenthe,VBO,6.533277,52.986963
Twenthe,2,,,9405GX,Assen,Assen,Drenthe,VBO,6.534470,52.987599
Twenthe,4,,,9405GX,Assen,Assen,Drenthe,VBO,6.534454,52.987545
Twenthe,6,,,9405GX,Assen,Assen,Drenthe,VBO,6.534109,52.987477
Twenthe,8,,,9405GX,Assen,Assen,Drenthe,VBO,6.534093,52.987423
Twenthe,10,,,9405GX,Assen,Assen,Drenthe,VBO,6.533778,52.987354
Twenthe,12,,,9405GX,Assen,Assen,Drenthe,VBO,6.533762,52.987300
Twenthe,14,,,9405GX,Assen,Assen,Drenthe,VBO,6.533759,52.987192
Twenthe,16,,,9405GX,Assen,Assen,Drenthe,VBO,6.533728,52.987139
Twenthe,18,,,9405GX,Assen,Assen,Drenthe,VBO,6.533415,52.987142
Twenthe,20,,,9405GX,Assen,Assen,Drenthe,VBO,6.533341,52.987152
Twenthe,22,,,9405GX,Assen,Assen,Drenthe,VBO,6.533133,52.987154
Twenthe,24,,,9405GX,Assen,Assen,Drenthe,VBO,6.532952,52.987056
Gaasterland,2,,,9405GZ,Assen,Assen,Drenthe,VBO,6.532461,52.984818
Gaasterland,4,,,9405GZ,Assen,Assen,Drenthe,VBO,6.532545,52.984845
Gaasterland,6,,,9405GZ,Assen,Assen,Drenthe,VBO,6.532628,52.984859
Gaasterland,8,,,9405GZ,Assen,Assen,Drenthe,VBO,6.532727,52.984866
Gaasterland,10,,,9405GZ,Assen,Assen,Drenthe,VBO,6.532802,52.984899
Gaasterland,12,,,9405GZ,Assen,Assen,Drenthe,VBO,6.532718,52.985392
Gaasterland,14,,,9405GZ,Assen,Assen,Drenthe,VBO,6.532640,52.985366
Gaasterland,16,,,9405GZ,Assen,Assen,Drenthe,VBO,6.532546,52.985355
Gaasterland,18,,,9405GZ,Assen,Assen,Drenthe,VBO,6.532455,52.985341
Gaasterland,20,,,9405GZ,Assen,Assen,Drenthe,VBO,6.532376,52.985317
Gaasterland,22,,,9405GZ,Assen,Assen,Drenthe,VBO,6.532045,52.985271
Gaasterland,24,,,9405GZ,Assen,Assen,Drenthe,VBO,6.532091,52.985228
Gaasterland,26,,,9405GZ,Assen,Assen,Drenthe,VBO,6.532110,52.985168
Gaasterland,28,,,9405GZ,Assen,Assen,Drenthe,VBO,6.532126,52.985113
Gaasterland,30,,,9405GZ,Assen,Assen,Drenthe,VBO,6.532144,52.985057
Gaasterland,32,,,9405GZ,Assen,Assen,Drenthe,VBO,6.532184,52.985008
De Wouden,1,,,9405HA,Assen,Assen,Drenthe,VBO,6.529107,52.983570
De Wouden,3,,,9405HA,Assen,Assen,Drenthe,VBO,6.529180,52.983489
De Wouden,5,,,9405HA,Assen,Assen,Drenthe,VBO,6.529253,52.983443
De Wouden,7,,,9405HA,Assen,Assen,Drenthe,VBO,6.529326,52.983406
De Wouden,9,,,9405HA,Assen,Assen,Drenthe,VBO,6.529385,52.983370
De Wouden,11,,,9405HA,Assen,Assen,Drenthe,VBO,6.529458,52.983333
De Wouden,13,,,9405HA,Assen,Assen,Drenthe,VBO,6.529548,52.983341
De Wouden,15,,,9405HA,Assen,Assen,Drenthe,VBO,6.529649,52.983224
De Wouden,17,,,9405HA,Assen,Assen,Drenthe,VBO,6.529514,52.983180
De Wouden,19,,,9405HA,Assen,Assen,Drenthe,VBO,6.529453,52.983145
De Wouden,21,,,9405HA,Assen,Assen,Drenthe,VBO,6.529393,52.983100
De Wouden,23,,,9405HA,Assen,Assen,Drenthe,VBO,6.529332,52.983056
De Wouden,25,,,9405HA,Assen,Assen,Drenthe,VBO,6.529257,52.983021
De Wouden,27,,,9405HA,Assen,Assen,Drenthe,VBO,6.529270,52.982958
De Wouden,29,,,9405HA,Assen,Assen,Drenthe,VBO,6.529093,52.983013
De Wouden,31,,,9405HA,Assen,Assen,Drenthe,VBO,6.529020,52.983086
De Wouden,33,,,9405HB,Assen,Assen,Drenthe,VBO,6.528947,52.983122
De Wouden,35,,,9405HB,Assen,Assen,Drenthe,VBO,6.528888,52.983168
De Wouden,37,,,9405HB,Assen,Assen,Drenthe,VBO,6.528815,52.983205
De Wouden,39,,,9405HB,Assen,Assen,Drenthe,VBO,6.528741,52.983241
De Wouden,41,,,9405HB,Assen,Assen,Drenthe,VBO,6.528652,52.983233
De Wouden,43,,,9405HB,Assen,Assen,Drenthe,VBO,6.528654,52.983314
De Wouden,45,,,9405HB,Assen,Assen,Drenthe,VBO,6.528714,52.983358
De Wouden,47,,,9405HB,Assen,Assen,Drenthe,VBO,6.528701,52.983412
De Wouden,49,,,9405HB,Assen,Assen,Drenthe,VBO,6.528673,52.983467
De Wouden,51,,,9405HB,Assen,Assen,Drenthe,VBO,6.528659,52.983521
De Wouden,53,,,9405HB,Assen,Assen,Drenthe,VBO,6.528646,52.983575
De Wouden,55,,,9405HB,Assen,Assen,Drenthe,VBO,6.528573,52.983656
De Wouden,57,,,9405HB,Assen,Assen,Drenthe,VBO,6.528963,52.983760
De Wouden,59,,,9405HB,Assen,Assen,Drenthe,VBO,6.528891,52.983842
De Wouden,61,,,9405HB,Assen,Assen,Drenthe,VBO,6.528817,52.983879
De Wouden,63,,,9405HB,Assen,Assen,Drenthe,VBO,6.528744,52.983924
De Wouden,65,,,9405HC,Assen,Assen,Drenthe,VBO,6.528671,52.983961
De Wouden,67,,,9405HC,Assen,Assen,Drenthe,VBO,6.528612,52.983997
De Wouden,69,,,9405HC,Assen,Assen,Drenthe,VBO,6.528508,52.983989
De Wouden,71,,,9405HC,Assen,Assen,Drenthe,VBO,6.528555,52.984097
De Wouden,73,,,9405HC,Assen,Assen,Drenthe,VBO,6.528690,52.984140
De Wouden,75,,,9405HC,Assen,Assen,Drenthe,VBO,6.528751,52.984185
De Wouden,77,,,9405HC,Assen,Assen,Drenthe,VBO,6.528812,52.984229
De Wouden,79,,,9405HC,Assen,Assen,Drenthe,VBO,6.528872,52.984265
De Wouden,81,,,9405HC,Assen,Assen,Drenthe,VBO,6.528948,52.984309
De Wouden,83,,,9405HC,Assen,Assen,Drenthe,VBO,6.528935,52.984372
De Wouden,85,,,9405HC,Assen,Assen,Drenthe,VBO,6.529085,52.984424
De Wouden,87,,,9405HC,Assen,Assen,Drenthe,VBO,6.529157,52.984343
De Wouden,89,,,9405HC,Assen,Assen,Drenthe,VBO,6.529231,52.984306
De Wouden,91,,,9405HC,Assen,Assen,Drenthe,VBO,6.529289,52.984261
De Wouden,93,,,9405HC,Assen,Assen,Drenthe,VBO,6.529363,52.984224
De Wouden,95,,,9405HC,Assen,Assen,Drenthe,VBO,6.529436,52.984187
De Wouden,97,,,9405HD,Assen,Assen,Drenthe,VBO,6.529526,52.984195
De Wouden,99,,,9405HD,Assen,Assen,Drenthe,VBO,6.529463,52.984070
De Wouden,101,,,9405HD,Assen,Assen,Drenthe,VBO,6.529402,52.984026
De Wouden,103,,,9405HD,Assen,Assen,Drenthe,VBO,6.529416,52.983972
De Wouden,105,,,9405HD,Assen,Assen,Drenthe,VBO,6.529444,52.983918
De Wouden,107,,,9405HD,Assen,Assen,Drenthe,VBO,6.529457,52.983864
De Wouden,109,,,9405HD,Assen,Assen,Drenthe,VBO,6.529471,52.983809
De Wouden,111,,,9405HD,Assen,Assen,Drenthe,VBO,6.529543,52.983728
De Wouden,113,,,9405HD,Assen,Assen,Drenthe,VBO,6.529718,52.985281
De Wouden,115,,,9405HD,Assen,Assen,Drenthe,VBO,6.529646,52.985363
De Wouden,117,,,9405HD,Assen,Assen,Drenthe,VBO,6.529587,52.985399
De Wouden,119,,,9405HD,Assen,Assen,Drenthe,VBO,6.529514,52.985436
De Wouden,121,,,9405HD,Assen,Assen,Drenthe,VBO,6.529440,52.985481
De Wouden,123,,,9405HD,Assen,Assen,Drenthe,VBO,6.529367,52.985518
De Wouden,125,,,9405HD,Assen,Assen,Drenthe,VBO,6.529277,52.985501
De Wouden,129,,,9405HE,Assen,Assen,Drenthe,VBO,6.529205,52.985582
De Wouden,131,,,9405HE,Assen,Assen,Drenthe,VBO,6.529205,52.985582
De Wouden,133,,,9405HE,Assen,Assen,Drenthe,VBO,6.529178,52.985700
De Wouden,135,,,9405HE,Assen,Assen,Drenthe,VBO,6.529164,52.985754
De Wouden,137,,,9405HE,Assen,Assen,Drenthe,VBO,6.529136,52.985808
De Wouden,139,,,9405HE,Assen,Assen,Drenthe,VBO,6.529079,52.985889
De Wouden,141,,,9405HE,Assen,Assen,Drenthe,VBO,6.529009,52.986070
De Wouden,143,,,9405HE,Assen,Assen,Drenthe,VBO,6.529082,52.986033
De Wouden,145,,,9405HE,Assen,Assen,Drenthe,VBO,6.529172,52.986041
De Wouden,147,,,9405HE,Assen,Assen,Drenthe,VBO,6.529277,52.986058
De Wouden,149,,,9405HE,Assen,Assen,Drenthe,VBO,6.529366,52.986066
De Wouden,151,,,9405HE,Assen,Assen,Drenthe,VBO,6.529456,52.986074
De Wouden,153,,,9405HE,Assen,Assen,Drenthe,VBO,6.529576,52.986118
De Wouden,155,,,9405HE,Assen,Assen,Drenthe,VBO,6.529945,52.985414
De Wouden,157,,,9405HE,Assen,Assen,Drenthe,VBO,6.530080,52.985457
De Wouden,159,,,9405HE,Assen,Assen,Drenthe,VBO,6.530141,52.985502
De Wouden,161,,,9405HG,Assen,Assen,Drenthe,VBO,6.530201,52.985546
De Wouden,163,,,9405HG,Assen,Assen,Drenthe,VBO,6.530277,52.985590
De Wouden,165,,,9405HG,Assen,Assen,Drenthe,VBO,6.530338,52.985626
De Wouden,167,,,9405HG,Assen,Assen,Drenthe,VBO,6.530324,52.985680
De Wouden,169,,,9405HG,Assen,Assen,Drenthe,VBO,6.530149,52.985816
De Wouden,171,,,9405HG,Assen,Assen,Drenthe,VBO,6.530077,52.985898
De Wouden,173,,,9405HG,Assen,Assen,Drenthe,VBO,6.530018,52.985934
De Wouden,175,,,9405HG,Assen,Assen,Drenthe,VBO,6.529945,52.985971
De Wouden,177,,,9405HG,Assen,Assen,Drenthe,VBO,6.529871,52.986007
De Wouden,179,,,9405HG,Assen,Assen,Drenthe,VBO,6.529812,52.986044
De Wouden,181,,,9405HG,Assen,Assen,Drenthe,VBO,6.529723,52.986036
De Wouden,183,,,9405HG,Assen,Assen,Drenthe,VBO,6.529681,52.986153
De Wouden,185,,,9405HG,Assen,Assen,Drenthe,VBO,6.529816,52.986197
De Wouden,187,,,9405HG,Assen,Assen,Drenthe,VBO,6.529877,52.986241
De Wouden,189,,,9405HG,Assen,Assen,Drenthe,VBO,6.529953,52.986276
De Wouden,191,,,9405HG,Assen,Assen,Drenthe,VBO,6.530013,52.986321
De Wouden,193,,,9405HH,Assen,Assen,Drenthe,VBO,6.530074,52.986365
De Wouden,195,,,9405HH,Assen,Assen,Drenthe,VBO,6.530061,52.986419
De Wouden,197,,,9405HH,Assen,Assen,Drenthe,VBO,6.530178,52.986355
De Wouden,199,,,9405HH,Assen,Assen,Drenthe,VBO,6.530250,52.986273
De Wouden,201,,,9405HH,Assen,Assen,Drenthe,VBO,6.530324,52.986237
De Wouden,203,,,9405HH,Assen,Assen,Drenthe,VBO,6.530397,52.986200
De Wouden,205,,,9405HH,Assen,Assen,Drenthe,VBO,6.530471,52.986163
De Wouden,207,,,9405HH,Assen,Assen,Drenthe,VBO,6.530529,52.986118
De Wouden,209,,,9405HH,Assen,Assen,Drenthe,VBO,6.530634,52.986135
De Wouden,211,,,9405HH,Assen,Assen,Drenthe,VBO,6.530602,52.986045
De Wouden,213,,,9405HH,Assen,Assen,Drenthe,VBO,6.530541,52.986001
De Wouden,215,,,9405HH,Assen,Assen,Drenthe,VBO,6.530555,52.985947
De Wouden,217,,,9405HH,Assen,Assen,Drenthe,VBO,6.530568,52.985893
De Wouden,219,,,9405HH,Assen,Assen,Drenthe,VBO,6.530596,52.985830
De Wouden,221,,,9405HH,Assen,Assen,Drenthe,VBO,6.530610,52.985776
De Wouden,223,,,9405HH,Assen,Assen,Drenthe,VBO,6.530682,52.985694
De Wouden,6,,,9405HJ,Assen,Assen,Drenthe,VBO,6.531955,52.984280
De Wouden,8,,,9405HJ,Assen,Assen,Drenthe,VBO,6.531898,52.984352
De Wouden,10,,,9405HJ,Assen,Assen,Drenthe,VBO,6.531869,52.984416
De Wouden,12,,,9405HJ,Assen,Assen,Drenthe,VBO,6.531856,52.984470
De Wouden,14,,,9405HJ,Assen,Assen,Drenthe,VBO,6.531842,52.984524
De Wouden,16,,,9405HJ,Assen,Assen,Drenthe,VBO,6.531829,52.984578
De Wouden,18,,,9405HJ,Assen,Assen,Drenthe,VBO,6.531890,52.984622
De Wouden,20,,,9405HJ,Assen,Assen,Drenthe,VBO,6.531773,52.984704
De Wouden,22,,,9405HJ,Assen,Assen,Drenthe,VBO,6.531638,52.984669
De Wouden,24,,,9405HJ,Assen,Assen,Drenthe,VBO,6.531548,52.984652
De Wouden,26,,,9405HJ,Assen,Assen,Drenthe,VBO,6.531458,52.984644
De Wouden,28,,,9405HJ,Assen,Assen,Drenthe,VBO,6.531369,52.984636
De Wouden,30,,,9405HJ,Assen,Assen,Drenthe,VBO,6.531264,52.984628
De Wouden,32,,,9405HK,Assen,Assen,Drenthe,VBO,6.531206,52.984665
De Wouden,34,,,9405HK,Assen,Assen,Drenthe,VBO,6.531203,52.984539
De Wouden,36,,,9405HK,Assen,Assen,Drenthe,VBO,6.531275,52.984457
De Wouden,38,,,9405HK,Assen,Assen,Drenthe,VBO,6.531288,52.984403
De Wouden,40,,,9405HK,Assen,Assen,Drenthe,VBO,6.531302,52.984349
De Wouden,42,,,9405HK,Assen,Assen,Drenthe,VBO,6.531330,52.984295
De Wouden,44,,,9405HK,Assen,Assen,Drenthe,VBO,6.531343,52.984232
De Wouden,46,,,9405HK,Assen,Assen,Drenthe,VBO,6.531268,52.984197
De Wouden,48,,,9405HK,Assen,Assen,Drenthe,VBO,6.531441,52.983970
De Wouden,50,,,9405HK,Assen,Assen,Drenthe,VBO,6.531513,52.983889
De Wouden,52,,,9405HK,Assen,Assen,Drenthe,VBO,6.531541,52.983835
De Wouden,54,,,9405HK,Assen,Assen,Drenthe,VBO,6.531555,52.983781
De Wouden,56,,,9405HK,Assen,Assen,Drenthe,VBO,6.531568,52.983718
De Wouden,58,,,9405HK,Assen,Assen,Drenthe,VBO,6.531582,52.983663
De Wouden,60,,,9405HK,Assen,Assen,Drenthe,VBO,6.531521,52.983628
De Wouden,62,,,9405HL,Assen,Assen,Drenthe,VBO,6.531444,52.983521
De Wouden,64,,,9405HL,Assen,Assen,Drenthe,VBO,6.531533,52.983529
De Wouden,66,,,9405HL,Assen,Assen,Drenthe,VBO,6.531607,52.983492
De Wouden,68,,,9405HL,Assen,Assen,Drenthe,VBO,6.531680,52.983447
De Wouden,70,,,9405HL,Assen,Assen,Drenthe,VBO,6.531754,52.983410
De Wouden,72,,,9405HL,Assen,Assen,Drenthe,VBO,6.531812,52.983374
De Wouden,74,,,9405HL,Assen,Assen,Drenthe,VBO,6.531885,52.983292
De Wouden,76,,,9405HL,Assen,Assen,Drenthe,VBO,6.532061,52.983219
De Wouden,78,,,9405HL,Assen,Assen,Drenthe,VBO,6.532048,52.983273
De Wouden,80,,,9405HL,Assen,Assen,Drenthe,VBO,6.532109,52.983317
De Wouden,82,,,9405HL,Assen,Assen,Drenthe,VBO,6.532184,52.983361
De Wouden,84,,,9405HL,Assen,Assen,Drenthe,VBO,6.532245,52.983405
De Wouden,86,,,9405HL,Assen,Assen,Drenthe,VBO,6.532305,52.983441
De Wouden,88,,,9405HL,Assen,Assen,Drenthe,VBO,6.532441,52.983484
De Wouden,90,,,9405HL,Assen,Assen,Drenthe,VBO,6.532429,52.983610
De Wouden,92,,,9405HM,Assen,Assen,Drenthe,VBO,6.532339,52.983602
De Wouden,94,,,9405HM,Assen,Assen,Drenthe,VBO,6.532266,52.983639
De Wouden,96,,,9405HM,Assen,Assen,Drenthe,VBO,6.532192,52.983676
De Wouden,98,,,9405HM,Assen,Assen,Drenthe,VBO,6.532134,52.983721
De Wouden,100,,,9405HM,Assen,Assen,Drenthe,VBO,6.532061,52.983758
De Wouden,102,,,9405HM,Assen,Assen,Drenthe,VBO,6.531988,52.983830
De Wouden,104,,,9405HM,Assen,Assen,Drenthe,VBO,6.532008,52.984037
De Wouden,106,,,9405HM,Assen,Assen,Drenthe,VBO,6.532129,52.984081
De Wouden,108,,,9405HM,Assen,Assen,Drenthe,VBO,6.532233,52.984089
De Wouden,110,,,9405HM,Assen,Assen,Drenthe,VBO,6.532323,52.984106
De Wouden,112,,,9405HM,Assen,Assen,Drenthe,VBO,6.532412,52.984114
De Wouden,114,,,9405HM,Assen,Assen,Drenthe,VBO,6.532502,52.984122
De Wouden,116,,,9405HM,Assen,Assen,Drenthe,VBO,6.532576,52.984085
De Wouden,118,,,9405HM,Assen,Assen,Drenthe,VBO,6.530124,52.983713
De Wouden,120,,,9405HM,Assen,Assen,Drenthe,VBO,6.530196,52.983632
De Wouden,122,,,9405HN,Assen,Assen,Drenthe,VBO,6.530209,52.983578
De Wouden,124,,,9405HN,Assen,Assen,Drenthe,VBO,6.530223,52.983524
De Wouden,126,,,9405HN,Assen,Assen,Drenthe,VBO,6.530236,52.983470
De Wouden,128,,,9405HN,Assen,Assen,Drenthe,VBO,6.530250,52.983407
De Wouden,130,,,9405HN,Assen,Assen,Drenthe,VBO,6.530189,52.983371
De Wouden,132,,,9405HN,Assen,Assen,Drenthe,VBO,6.530109,52.983174
De Wouden,134,,,9405HN,Assen,Assen,Drenthe,VBO,6.530245,52.983218
De Wouden,136,,,9405HN,Assen,Assen,Drenthe,VBO,6.530334,52.983226
De Wouden,138,,,9405HN,Assen,Assen,Drenthe,VBO,6.530424,52.983234
De Wouden,140,,,9405HN,Assen,Assen,Drenthe,VBO,6.530513,52.983242
De Wouden,142,,,9405HN,Assen,Assen,Drenthe,VBO,6.530603,52.983250
De Wouden,144,,,9405HN,Assen,Assen,Drenthe,VBO,6.530676,52.983214
De Wouden,146,,,9405HN,Assen,Assen,Drenthe,VBO,6.530825,52.983203
De Wouden,148,,,9405HN,Assen,Assen,Drenthe,VBO,6.530811,52.983257
De Wouden,150,,,9405HN,Assen,Assen,Drenthe,VBO,6.530872,52.983302
De Wouden,152,,,9405HP,Assen,Assen,Drenthe,VBO,6.530933,52.983337
De Wouden,154,,,9405HP,Assen,Assen,Drenthe,VBO,6.531008,52.983381
De Wouden,156,,,9405HP,Assen,Assen,Drenthe,VBO,6.531069,52.983426
De Wouden,158,,,9405HP,Assen,Assen,Drenthe,VBO,6.531204,52.983469
De Wouden,160,,,9405HP,Assen,Assen,Drenthe,VBO,6.531118,52.983596
De Wouden,162,,,9405HP,Assen,Assen,Drenthe,VBO,6.531028,52.983579
De Wouden,164,,,9405HP,Assen,Assen,Drenthe,VBO,6.530955,52.983625
De Wouden,166,,,9405HP,Assen,Assen,Drenthe,VBO,6.530897,52.983661
De Wouden,168,,,9405HP,Assen,Assen,Drenthe,VBO,6.530823,52.983698
De Wouden,170,,,9405HP,Assen,Assen,Drenthe,VBO,6.530750,52.983734
De Wouden,172,,,9405HP,Assen,Assen,Drenthe,VBO,6.530677,52.983816
De Wouden,174,,,9405HP,Assen,Assen,Drenthe,VBO,6.530499,52.983836
De Wouden,176,,,9405HP,Assen,Assen,Drenthe,VBO,6.530395,52.983828
De Wouden,178,,,9405HP,Assen,Assen,Drenthe,VBO,6.530336,52.983864
De Wouden,180,,,9405HP,Assen,Assen,Drenthe,VBO,6.530263,52.983901
De Wouden,182,,,9405HR,Assen,Assen,Drenthe,VBO,6.530189,52.983946
De Wouden,184,,,9405HR,Assen,Assen,Drenthe,VBO,6.530131,52.983983
De Wouden,186,,,9405HR,Assen,Assen,Drenthe,VBO,6.530058,52.984064
De Wouden,188,,,9405HR,Assen,Assen,Drenthe,VBO,6.529697,52.985048
De Wouden,190,,,9405HR,Assen,Assen,Drenthe,VBO,6.529769,52.984966
De Wouden,192,,,9405HR,Assen,Assen,Drenthe,VBO,6.529783,52.984912
De Wouden,194,,,9405HR,Assen,Assen,Drenthe,VBO,6.529796,52.984858
De Wouden,196,,,9405HR,Assen,Assen,Drenthe,VBO,6.529809,52.984795
De Wouden,198,,,9405HR,Assen,Assen,Drenthe,VBO,6.529838,52.984741
De Wouden,200,,,9405HR,Assen,Assen,Drenthe,VBO,6.529762,52.984705
De Wouden,202,,,9405HR,Assen,Assen,Drenthe,VBO,6.529745,52.984616
De Wouden,204,,,9405HR,Assen,Assen,Drenthe,VBO,6.529835,52.984624
De Wouden,206,,,9405HR,Assen,Assen,Drenthe,VBO,6.529908,52.984587
De Wouden,208,,,9405HR,Assen,Assen,Drenthe,VBO,6.529982,52.984551
De Wouden,210,,,9405HR,Assen,Assen,Drenthe,VBO,6.530040,52.984514
De Wouden,212,,,9405HS,Assen,Assen,Drenthe,VBO,6.530114,52.984468
De Wouden,214,A,,9405HS,Assen,Assen,Drenthe,VBO,6.530049,52.984262
De Wouden,214,,,9405HS,Assen,Assen,Drenthe,VBO,6.530186,52.984387
De Wouden,216,,,9405HS,Assen,Assen,Drenthe,VBO,6.530363,52.984322
De Wouden,218,,,9405HS,Assen,Assen,Drenthe,VBO,6.530349,52.984376
De Wouden,220,,,9405HS,Assen,Assen,Drenthe,VBO,6.530410,52.984421
De Wouden,222,,,9405HS,Assen,Assen,Drenthe,VBO,6.530471,52.984456
De Wouden,224,,,9405HS,Assen,Assen,Drenthe,VBO,6.530546,52.984500
De Wouden,226,,,9405HS,Assen,Assen,Drenthe,VBO,6.530607,52.984545
De Wouden,228,,,9405HS,Assen,Assen,Drenthe,VBO,6.530742,52.984588
De Wouden,230,,,9405HS,Assen,Assen,Drenthe,VBO,6.530597,52.984733
De Wouden,232,,,9405HS,Assen,Assen,Drenthe,VBO,6.530507,52.984716
De Wouden,234,,,9405HS,Assen,Assen,Drenthe,VBO,6.530434,52.984762
De Wouden,236,,,9405HS,Assen,Assen,Drenthe,VBO,6.530375,52.984798
De Wouden,238,,,9405HS,Assen,Assen,Drenthe,VBO,6.530302,52.984835
De Wouden,240,,,9405HS,Assen,Assen,Drenthe,VBO,6.530229,52.984881
De Wouden,242,,,9405HS,Assen,Assen,Drenthe,VBO,6.530156,52.984953
De Wouden,244,,,9405HT,Assen,Assen,Drenthe,VBO,6.530868,52.984857
De Wouden,248,,,9405HT,Assen,Assen,Drenthe,VBO,6.530915,52.984946
De Wouden,250,,,9405HT,Assen,Assen,Drenthe,VBO,6.530976,52.984990
De Wouden,252,,,9405HT,Assen,Assen,Drenthe,VBO,6.531037,52.985035
De Wouden,254,,,9405HT,Assen,Assen,Drenthe,VBO,6.531098,52.985079
De Wouden,256,,,9405HT,Assen,Assen,Drenthe,VBO,6.531233,52.985114
De Wouden,258,,,9405HT,Assen,Assen,Drenthe,VBO,6.531324,52.985212
De Wouden,260,,,9405HT,Assen,Assen,Drenthe,VBO,6.531220,52.985195
De Wouden,262,,,9405HT,Assen,Assen,Drenthe,VBO,6.531235,52.985204
De Wouden,264,,,9405HT,Assen,Assen,Drenthe,VBO,6.531265,52.985212
De Wouden,266,,,9405HT,Assen,Assen,Drenthe,VBO,6.531147,52.985240
De Wouden,268,,,9405HT,Assen,Assen,Drenthe,VBO,6.531162,52.985249
De Wouden,270,,,9405HT,Assen,Assen,Drenthe,VBO,6.531192,52.985258
De Wouden,272,,,9405HV,Assen,Assen,Drenthe,VBO,6.531073,52.985277
De Wouden,274,,,9405HV,Assen,Assen,Drenthe,VBO,6.531103,52.985286
De Wouden,276,,,9405HV,Assen,Assen,Drenthe,VBO,6.531133,52.985294
De Wouden,278,,,9405HV,Assen,Assen,Drenthe,VBO,6.531030,52.985322
De Wouden,280,,,9405HV,Assen,Assen,Drenthe,VBO,6.531060,52.985331
De Wouden,284,,,9405HV,Assen,Assen,Drenthe,VBO,6.530941,52.985359
De Wouden,286,,,9405HV,Assen,Assen,Drenthe,VBO,6.530956,52.985368
De Wouden,288,,,9405HV,Assen,Assen,Drenthe,VBO,6.530986,52.985368
De Wouden,290,,,9405HV,Assen,Assen,Drenthe,VBO,6.530869,52.985432
De Wouden,292,,,9405HV,Assen,Assen,Drenthe,VBO,6.530899,52.985440
De Wouden,294,,,9405HV,Assen,Assen,Drenthe,VBO,6.530914,52.985449
De Wouden,296,,,9405HV,Assen,Assen,Drenthe,VBO,6.530749,52.985433
De Wouden,298,,,9405HV,Assen,Assen,Drenthe,VBO,6.530763,52.985379
De Wouden,300,,,9405HV,Assen,Assen,Drenthe,VBO,6.530702,52.985334
De Wouden,302,,,9405HV,Assen,Assen,Drenthe,VBO,6.530642,52.985299
De Wouden,304,,,9405HW,Assen,Assen,Drenthe,VBO,6.530566,52.985255
De Wouden,306,,,9405HW,Assen,Assen,Drenthe,VBO,6.530505,52.985211
De Wouden,308,,,9405HW,Assen,Assen,Drenthe,VBO,6.530370,52.985167
De Wouden,310,,,9405HW,Assen,Assen,Drenthe,VBO,6.530678,52.987249
De Wouden,312,,,9405HW,Assen,Assen,Drenthe,VBO,6.530642,52.987025
De Wouden,314,,,9405HW,Assen,Assen,Drenthe,VBO,6.530432,52.986937
De Wouden,320,,,9405HW,Assen,Assen,Drenthe,VBO,6.530070,52.986760
Witterhoofdweg,1,A,,9405HX,Assen,Assen,Drenthe,VBO,6.529307,52.987481
Witterhoofdweg,1,B,,9405HX,Assen,Assen,Drenthe,VBO,6.529253,52.987193
Witterhoofdweg,1,C,,9405HX,Assen,Assen,Drenthe,VBO,6.529857,52.987392
Witterhoofdweg,1,D,,9405HX,Assen,Assen,Drenthe,VBO,6.529608,52.987336
Witterhoofdweg,1,E,,9405HX,Assen,Assen,Drenthe,VBO,6.529528,52.987431
Witterhoofdweg,1,F,,9405HX,Assen,Assen,Drenthe,VBO,6.529755,52.987803
Witterhoofdweg,1,G,,9405HX,Assen,Assen,Drenthe,VBO,6.529370,52.988266
Witterhoofdweg,1,,,9405HX,Assen,Assen,Drenthe,VBO,6.529198,52.987530
Graafschap,1,,,9405JA,Assen,Assen,Drenthe,VBO,6.531134,52.982499
Graafschap,3,,,9405JA,Assen,Assen,Drenthe,VBO,6.531210,52.982553
Graafschap,5,,,9405JA,Assen,Assen,Drenthe,VBO,6.531286,52.982606
Graafschap,7,,,9405JA,Assen,Assen,Drenthe,VBO,6.531376,52.982641
Graafschap,9,,,9405JA,Assen,Assen,Drenthe,VBO,6.531480,52.982640
Graafschap,11,,,9405JA,Assen,Assen,Drenthe,VBO,6.531659,52.982647
Graafschap,13,,,9405JA,Assen,Assen,Drenthe,VBO,6.531778,52.982655
Graafschap,15,,,9405JA,Assen,Assen,Drenthe,VBO,6.531926,52.982618
Graafschap,17,,,9405JA,Assen,Assen,Drenthe,VBO,6.532046,52.982626
Graafschap,19,,,9405JA,Assen,Assen,Drenthe,VBO,6.532107,52.982679
Graafschap,21,,,9405JA,Assen,Assen,Drenthe,VBO,6.532243,52.982749
Graafschap,23,,,9405JA,Assen,Assen,Drenthe,VBO,6.532391,52.982721
Graafschap,25,,,9405JA,Assen,Assen,Drenthe,VBO,6.532479,52.982675
Graafschap,27,,,9405JA,Assen,Assen,Drenthe,VBO,6.532492,52.982612
Graafschap,29,,,9405JA,Assen,Assen,Drenthe,VBO,6.532475,52.982523
Graafschap,31,,,9405JB,Assen,Assen,Drenthe,VBO,6.532366,52.982335
Graafschap,33,,,9405JB,Assen,Assen,Drenthe,VBO,6.532305,52.982282
Graafschap,35,,,9405JB,Assen,Assen,Drenthe,VBO,6.532229,52.982228
Graafschap,37,,,9405JB,Assen,Assen,Drenthe,VBO,6.532095,52.982239
Graafschap,39,,,9405JB,Assen,Assen,Drenthe,VBO,6.531875,52.982358
Graafschap,41,,,9405JB,Assen,Assen,Drenthe,VBO,6.531756,52.982350
Graafschap,43,,,9405JB,Assen,Assen,Drenthe,VBO,6.531680,52.982297
Graafschap,45,,,9405JB,Assen,Assen,Drenthe,VBO,6.531263,52.982318
Graafschap,47,,,9405JB,Assen,Assen,Drenthe,VBO,6.531276,52.982246
Graafschap,49,,,9405JB,Assen,Assen,Drenthe,VBO,6.531364,52.982201
Graafschap,51,,,9405JB,Assen,Assen,Drenthe,VBO,6.531408,52.982146
Graafschap,53,,,9405JB,Assen,Assen,Drenthe,VBO,6.531436,52.982083
Graafschap,55,,,9405JB,Assen,Assen,Drenthe,VBO,6.531449,52.982011
Graafschap,57,,,9405JB,Assen,Assen,Drenthe,VBO,6.531402,52.981922
Graafschap,59,,,9405JB,Assen,Assen,Drenthe,VBO,6.531415,52.981850
Graafschap,61,,,9405JB,Assen,Assen,Drenthe,VBO,6.531488,52.981813
Graafschap,63,,,9405JC,Assen,Assen,Drenthe,VBO,6.531803,52.981891
Graafschap,65,,,9405JC,Assen,Assen,Drenthe,VBO,6.531908,52.981917
Graafschap,67,,,9405JC,Assen,Assen,Drenthe,VBO,6.531969,52.981970
Graafschap,69,,,9405JC,Assen,Assen,Drenthe,VBO,6.532045,52.982023
Graafschap,71,,,9405JC,Assen,Assen,Drenthe,VBO,6.532164,52.982031
Graafschap,73,,,9405JC,Assen,Assen,Drenthe,VBO,6.532006,52.981673
Graafschap,75,,,9405JC,Assen,Assen,Drenthe,VBO,6.531916,52.981638
Graafschap,77,,,9405JC,Assen,Assen,Drenthe,VBO,6.531869,52.981567
Graafschap,79,,,9405JC,Assen,Assen,Drenthe,VBO,6.531808,52.981495
Graafschap,81,,,9405JC,Assen,Assen,Drenthe,VBO,6.531761,52.981424
Graafschap,83,,,9405JC,Assen,Assen,Drenthe,VBO,6.531657,52.981416
Graafschap,85,,,9405JC,Assen,Assen,Drenthe,VBO,6.531211,52.981474
Graafschap,87,,,9405JC,Assen,Assen,Drenthe,VBO,6.531224,52.981402
Graafschap,89,,,9405JC,Assen,Assen,Drenthe,VBO,6.531238,52.981339
Graafschap,91,,,9405JD,Assen,Assen,Drenthe,VBO,6.531326,52.981293
Graafschap,93,,,9405JD,Assen,Assen,Drenthe,VBO,6.531369,52.981239
Graafschap,95,,,9405JD,Assen,Assen,Drenthe,VBO,6.531457,52.981193
Graafschap,97,,,9405JD,Assen,Assen,Drenthe,VBO,6.531590,52.981156
Graafschap,99,,,9405JD,Assen,Assen,Drenthe,VBO,6.531633,52.981102
Graafschap,101,,,9405JD,Assen,Assen,Drenthe,VBO,6.531524,52.980914
Graafschap,103,,,9405JD,Assen,Assen,Drenthe,VBO,6.531463,52.980843
Graafschap,105,,,9405JD,Assen,Assen,Drenthe,VBO,6.531430,52.980744
Graafschap,107,,,9405JD,Assen,Assen,Drenthe,VBO,6.531384,52.980673
Graafschap,109,,,9405JD,Assen,Assen,Drenthe,VBO,6.531322,52.980601
Graafschap,111,,,9405JD,Assen,Assen,Drenthe,VBO,6.531218,52.980584
Graafschap,113,,,9405JD,Assen,Assen,Drenthe,VBO,6.531098,52.980577
Graafschap,115,,,9405JD,Assen,Assen,Drenthe,VBO,6.531196,52.980324
Graafschap,117,,,9405JD,Assen,Assen,Drenthe,VBO,6.531164,52.980225
Graafschap,119,,,9405JD,Assen,Assen,Drenthe,VBO,6.531103,52.980181
Graafschap,121,,,9405JD,Assen,Assen,Drenthe,VBO,6.530926,52.980237
Graafschap,2,,,9405JE,Assen,Assen,Drenthe,VBO,6.530597,52.982469
Graafschap,4,,,9405JE,Assen,Assen,Drenthe,VBO,6.530685,52.982423
Graafschap,6,,,9405JE,Assen,Assen,Drenthe,VBO,6.530743,52.982368
Graafschap,8,,,9405JE,Assen,Assen,Drenthe,VBO,6.530756,52.982296
Graafschap,10,,,9405JE,Assen,Assen,Drenthe,VBO,6.530800,52.982242
Graafschap,12,,,9405JE,Assen,Assen,Drenthe,VBO,6.530813,52.982170
Graafschap,14,,,9405JE,Assen,Assen,Drenthe,VBO,6.530826,52.982107
Graafschap,16,,,9405JE,Assen,Assen,Drenthe,VBO,6.530884,52.982052
Graafschap,18,,,9405JE,Assen,Assen,Drenthe,VBO,6.530972,52.982007
Graafschap,20,,,9405JE,Assen,Assen,Drenthe,VBO,6.531082,52.981098
Graafschap,22,,,9405JE,Assen,Assen,Drenthe,VBO,6.531006,52.981045
Graafschap,24,,,9405JE,Assen,Assen,Drenthe,VBO,6.530916,52.981019
Graafschap,26,,,9405JE,Assen,Assen,Drenthe,VBO,6.530870,52.980947
Graafschap,28,,,9405JE,Assen,Assen,Drenthe,VBO,6.530750,52.980930
Graafschap,30,,,9405JE,Assen,Assen,Drenthe,VBO,6.530588,52.980968
Graafschap,32,,,9405JG,Assen,Assen,Drenthe,VBO,6.530440,52.981005
Graafschap,34,,,9405JG,Assen,Assen,Drenthe,VBO,6.530335,52.980997
Graafschap,36,,,9405JG,Assen,Assen,Drenthe,VBO,6.530216,52.980989
Graafschap,38,,,9405JG,Assen,Assen,Drenthe,VBO,6.530169,52.980909
Graafschap,40,,,9405JG,Assen,Assen,Drenthe,VBO,6.530359,52.980781
Graafschap,42,,,9405JG,Assen,Assen,Drenthe,VBO,6.530462,52.980735
Graafschap,44,,,9405JG,Assen,Assen,Drenthe,VBO,6.530506,52.980681
Graafschap,46,,,9405JG,Assen,Assen,Drenthe,VBO,6.530594,52.980635
Graafschap,48,,,9405JG,Assen,Assen,Drenthe,VBO,6.530607,52.980572
Graafschap,50,,,9405JG,Assen,Assen,Drenthe,VBO,6.530724,52.980499
Graafschap,52,,,9405JG,Assen,Assen,Drenthe,VBO,6.530737,52.980427
Graafschap,54,,,9405JG,Assen,Assen,Drenthe,VBO,6.530780,52.980373
Betuwe,1,,,9405JH,Assen,Assen,Drenthe,VBO,6.530399,52.982309
Betuwe,3,,,9405JH,Assen,Assen,Drenthe,VBO,6.530295,52.982301
Betuwe,5,,,9405JH,Assen,Assen,Drenthe,VBO,6.530219,52.982248
Betuwe,7,,,9405JH,Assen,Assen,Drenthe,VBO,6.530055,52.982231
Betuwe,9,,,9405JH,Assen,Assen,Drenthe,VBO,6.530008,52.982151
Betuwe,11,,,9405JH,Assen,Assen,Drenthe,VBO,6.529932,52.982098
Betuwe,13,,,9405JH,Assen,Assen,Drenthe,VBO,6.529856,52.982044
Betuwe,15,,,9405JH,Assen,Assen,Drenthe,VBO,6.529781,52.981991
Betuwe,17,,,9405JH,Assen,Assen,Drenthe,VBO,6.530161,52.981718
Betuwe,19,,,9405JH,Assen,Assen,Drenthe,VBO,6.530236,52.981771
Betuwe,21,,,9405JH,Assen,Assen,Drenthe,VBO,6.530297,52.981824
Betuwe,23,,,9405JH,Assen,Assen,Drenthe,VBO,6.530462,52.981850
Betuwe,25,,,9405JH,Assen,Assen,Drenthe,VBO,6.530538,52.981903
Betuwe,27,,,9405JH,Assen,Assen,Drenthe,VBO,6.530584,52.981974
Betuwe,2,,,9405JJ,Assen,Assen,Drenthe,VBO,6.530276,52.982696
Betuwe,4,,,9405JJ,Assen,Assen,Drenthe,VBO,6.530364,52.982660
Betuwe,6,,,9405JJ,Assen,Assen,Drenthe,VBO,6.530377,52.982588
Betuwe,8,,,9405JJ,Assen,Assen,Drenthe,VBO,6.530005,52.982609
Betuwe,10,,,9405JJ,Assen,Assen,Drenthe,VBO,6.529929,52.982556
Betuwe,12,,,9405JJ,Assen,Assen,Drenthe,VBO,6.529825,52.982548
Betuwe,14,,,9405JJ,Assen,Assen,Drenthe,VBO,6.529706,52.982540
Betuwe,16,,,9405JJ,Assen,Assen,Drenthe,VBO,6.529601,52.982523
Betuwe,18,,,9405JJ,Assen,Assen,Drenthe,VBO,6.529428,52.982529
Betuwe,20,,,9405JJ,Assen,Assen,Drenthe,VBO,6.529289,52.982544
Betuwe,22,,,9405JJ,Assen,Assen,Drenthe,VBO,6.529184,52.982536
Betuwe,24,,,9405JJ,Assen,Assen,Drenthe,VBO,6.529108,52.982483
Betuwe,26,,,9405JJ,Assen,Assen,Drenthe,VBO,6.529033,52.982430
Betuwe,28,,,9405JJ,Assen,Assen,Drenthe,VBO,6.529148,52.982285
Betuwe,30,,,9405JJ,Assen,Assen,Drenthe,VBO,6.529236,52.982239
Betuwe,32,,,9405JJ,Assen,Assen,Drenthe,VBO,6.529324,52.982193
Betuwe,34,,,9405JJ,Assen,Assen,Drenthe,VBO,6.529367,52.982139
Betuwe,36,,,9405JJ,Assen,Assen,Drenthe,VBO,6.529350,52.982058
Betuwe,38,,,9405JJ,Assen,Assen,Drenthe,VBO,6.529393,52.981968
Betuwe,40,,,9405JJ,Assen,Assen,Drenthe,VBO,6.529436,52.981914
Betuwe,42,,,9405JJ,Assen,Assen,Drenthe,VBO,6.529449,52.981851
Betuwe,44,,,9405JK,Assen,Assen,Drenthe,VBO,6.529566,52.981769
Betuwe,46,,,9405JK,Assen,Assen,Drenthe,VBO,6.529609,52.981714
Betuwe,48,,,9405JK,Assen,Assen,Drenthe,VBO,6.529698,52.981677
Betuwe,50,,,9405JK,Assen,Assen,Drenthe,VBO,6.529786,52.981632
Betuwe,52,,,9405JK,Assen,Assen,Drenthe,VBO,6.529799,52.981560
Betuwe,54,,,9405JK,Assen,Assen,Drenthe,VBO,6.529872,52.981487
Betuwe,56,,,9405JK,Assen,Assen,Drenthe,VBO,6.529885,52.981415
Betuwe,58,,,9405JK,Assen,Assen,Drenthe,VBO,6.529898,52.981352
Betuwe,60,,,9405JK,Assen,Assen,Drenthe,VBO,6.529956,52.981297
Betuwe,62,,,9405JK,Assen,Assen,Drenthe,VBO,6.530044,52.981252
Betuwe,64,,,9405JK,Assen,Assen,Drenthe,VBO,6.530132,52.981206
Betuwe,66,A,,9405JK,Assen,Assen,Drenthe,VBO,6.530386,52.981212
Betuwe,66,,,9405JK,Assen,Assen,Drenthe,VBO,6.530461,52.981266
Betuwe,68,,,9405JK,Assen,Assen,Drenthe,VBO,6.530566,52.981274
Betuwe,70,,,9405JK,Assen,Assen,Drenthe,VBO,6.530627,52.981345
Betuwe,72,,,9405JK,Assen,Assen,Drenthe,VBO,6.530717,52.981380
Betuwe,74,,,9405JK,Assen,Assen,Drenthe,VBO,6.530793,52.981433
Betuwe,76,,,9405JK,Assen,Assen,Drenthe,VBO,6.530783,52.981604
Betuwe,78,,,9405JK,Assen,Assen,Drenthe,VBO,6.530859,52.981657
Betuwe,80,,,9405JK,Assen,Assen,Drenthe,VBO,6.530935,52.981710
Betuwe,82,,,9405JK,Assen,Assen,Drenthe,VBO,6.531010,52.981764
Betuwe,84,,,9405JK,Assen,Assen,Drenthe,VBO,6.531130,52.981772
Gooiland,7,,,9405KA,Assen,Assen,Drenthe,VBO,6.540107,52.980571
Gooiland,9,,,9405KA,Assen,Assen,Drenthe,VBO,6.541566,52.980009
Gooiland,11,,,9405KA,Assen,Assen,Drenthe,VBO,6.541897,52.980122
Gooiland,13,,,9405KA,Assen,Assen,Drenthe,VBO,6.541961,52.979762
Gooiland,15,,,9405KA,Assen,Assen,Drenthe,VBO,6.542224,52.979562
Gooiland,17,,,9405KA,Assen,Assen,Drenthe,VBO,6.542673,52.979647
Gooiland,19,,,9405KA,Assen,Assen,Drenthe,VBO,6.542515,52.979856
Gooiland,21,,,9405KA,Assen,Assen,Drenthe,VBO,6.541516,52.980387
Gooiland,23,,,9405KA,Assen,Assen,Drenthe,VBO,6.541207,52.980515
Gooiland,25,,,9405KA,Assen,Assen,Drenthe,VBO,6.540853,52.980618
Gooiland,27,,,9405KA,Assen,Assen,Drenthe,VBO,6.540816,52.980375
Gooiland,29,,,9405KA,Assen,Assen,Drenthe,VBO,6.541171,52.980273
Gooiland,2,,,9405KB,Assen,Assen,Drenthe,VBO,6.540889,52.979746
Gooiland,4,,,9405KB,Assen,Assen,Drenthe,VBO,6.540675,52.979541
Gooiland,6,,,9405KB,Assen,Assen,Drenthe,VBO,6.540477,52.979354
Gooiland,8,,,9405KB,Assen,Assen,Drenthe,VBO,6.540694,52.979136
Gooiland,10,,,9405KB,Assen,Assen,Drenthe,VBO,6.540956,52.978900
Gooiland,12,,,9405KB,Assen,Assen,Drenthe,VBO,6.541279,52.978726
Gooiland,14,,,9405KB,Assen,Assen,Drenthe,VBO,6.541565,52.978831
Gooiland,16,,,9405KB,Assen,Assen,Drenthe,VBO,6.541645,52.979046
Gooiland,18,,,9405KB,Assen,Assen,Drenthe,VBO,6.541486,52.979236
Gooiland,20,,,9405KB,Assen,Assen,Drenthe,VBO,6.541209,52.979455
Eemland,1,A,,9405KD,Assen,Assen,Drenthe,VBO,6.536878,52.982921
Eemland,1,B,,9405KD,Assen,Assen,Drenthe,VBO,6.536982,52.982920
Eemland,1,,,9405KD,Assen,Assen,Drenthe,VBO,6.537279,52.982881
Eemland,3,A,,9405KD,Assen,Assen,Drenthe,VBO,6.538400,52.983050
Eemland,3,,,9405KD,Assen,Assen,Drenthe,VBO,6.538415,52.983023
Eemland,5,B,,9405KD,Assen,Assen,Drenthe,VBO,6.537993,52.983395
Eemland,5,F,,9405KD,Assen,Assen,Drenthe,VBO,6.537530,52.983355
Eemland,5,,,9405KD,Assen,Assen,Drenthe,VBO,6.538227,52.983231
Eemland,7,,,9405KD,Assen,Assen,Drenthe,VBO,6.539696,52.981923
Eemland,9,,,9405KD,Assen,Assen,Drenthe,VBO,6.539422,52.981710
Eemland,11,,,9405KD,Assen,Assen,Drenthe,VBO,6.539494,52.981601
Eemland,13,,,9405KD,Assen,Assen,Drenthe,VBO,6.539565,52.981484
Eemland,15,,,9405KD,Assen,Assen,Drenthe,VBO,6.539972,52.981669
Eemland,17,,,9405KD,Assen,Assen,Drenthe,VBO,6.540175,52.981460
Eemland,19,,,9405KD,Assen,Assen,Drenthe,VBO,6.539948,52.981309
Eemland,21,,,9405KD,Assen,Assen,Drenthe,VBO,6.539753,52.981257
Eemland,23,,,9405KD,Assen,Assen,Drenthe,VBO,6.539543,52.981196
Eemland,2,,,9405KE,Assen,Assen,Drenthe,VBO,6.538479,52.982096
Eemland,4,,,9405KE,Assen,Assen,Drenthe,VBO,6.538564,52.981898
Eemland,6,,,9405KE,Assen,Assen,Drenthe,VBO,6.538767,52.982264
Eemland,8,,,9405KE,Assen,Assen,Drenthe,VBO,6.539199,52.982260
Eemland,10,,,9405KE,Assen,Assen,Drenthe,VBO,6.539386,52.982034
Eemland,12,,,9405KE,Assen,Assen,Drenthe,VBO,6.539145,52.981928
Eemland,14,,,9405KE,Assen,Assen,Drenthe,VBO,6.538722,52.981708
Eemland,16,,,9405KE,Assen,Assen,Drenthe,VBO,6.538852,52.981536
Eemland,18,,,9405KE,Assen,Assen,Drenthe,VBO,6.538921,52.981355
Eemland,20,,,9405KE,Assen,Assen,Drenthe,VBO,6.538962,52.981193
Eemland,22,,,9405KE,Assen,Assen,Drenthe,VBO,6.539122,52.981039
De Vallei,1,,,9405KG,Assen,Assen,Drenthe,VBO,6.536327,52.981776
De Vallei,3,,,9405KG,Assen,Assen,Drenthe,VBO,6.536265,52.981704
De Vallei,5,,,9405KG,Assen,Assen,Drenthe,VBO,6.536189,52.981633
De Vallei,7,,,9405KG,Assen,Assen,Drenthe,VBO,6.536142,52.981553
De Vallei,9,,,9405KG,Assen,Assen,Drenthe,VBO,6.536437,52.981460
De Vallei,11,,,9405KG,Assen,Assen,Drenthe,VBO,6.536556,52.981423
De Vallei,13,,,9405KG,Assen,Assen,Drenthe,VBO,6.536596,52.981243
De Vallei,15,,,9405KG,Assen,Assen,Drenthe,VBO,6.536461,52.981217
De Vallei,17,,,9405KG,Assen,Assen,Drenthe,VBO,6.536296,52.981183
De Vallei,19,,,9405KG,Assen,Assen,Drenthe,VBO,6.536234,52.981093
De Vallei,21,,,9405KG,Assen,Assen,Drenthe,VBO,6.536114,52.981059
De Vallei,23,,,9405KG,Assen,Assen,Drenthe,VBO,6.536053,52.980987
De Vallei,25,,,9405KH,Assen,Assen,Drenthe,VBO,6.537171,52.981058
De Vallei,27,,,9405KH,Assen,Assen,Drenthe,VBO,6.537203,52.981129
De Vallei,29,,,9405KH,Assen,Assen,Drenthe,VBO,6.537250,52.981210
De Vallei,31,,,9405KH,Assen,Assen,Drenthe,VBO,6.537370,52.981244
De Vallei,33,,,9405KH,Assen,Assen,Drenthe,VBO,6.537656,52.981358
De Vallei,35,,,9405KH,Assen,Assen,Drenthe,VBO,6.537553,52.981395
De Vallei,37,,,9405KH,Assen,Assen,Drenthe,VBO,6.537480,52.981468
De Vallei,39,,,9405KH,Assen,Assen,Drenthe,VBO,6.537302,52.981479
De Vallei,41,,,9405KH,Assen,Assen,Drenthe,VBO,6.537246,52.981632
De Vallei,43,,,9405KH,Assen,Assen,Drenthe,VBO,6.537308,52.981703
De Vallei,45,,,9405KH,Assen,Assen,Drenthe,VBO,6.536846,52.981717
De Vallei,47,,,9405KH,Assen,Assen,Drenthe,VBO,6.536728,52.981754
De Vallei,49,,,9405KH,Assen,Assen,Drenthe,VBO,6.536671,52.981844
De Vallei,51,,,9405KH,Assen,Assen,Drenthe,VBO,6.536554,52.981917
De Vallei,2,,,9405KJ,Assen,Assen,Drenthe,VBO,6.536459,52.982269
De Vallei,4,,,9405KJ,Assen,Assen,Drenthe,VBO,6.536397,52.982197
De Vallei,6,,,9405KJ,Assen,Assen,Drenthe,VBO,6.536350,52.982108
De Vallei,8,,,9405KJ,Assen,Assen,Drenthe,VBO,6.536230,52.982073
De Vallei,10,,,9405KJ,Assen,Assen,Drenthe,VBO,6.535984,52.982345
De Vallei,12,,,9405KJ,Assen,Assen,Drenthe,VBO,6.535850,52.982319
De Vallei,14,,,9405KJ,Assen,Assen,Drenthe,VBO,6.535773,52.982248
De Vallei,16,,,9405KJ,Assen,Assen,Drenthe,VBO,6.535770,52.982113
De Vallei,18,,,9405KJ,Assen,Assen,Drenthe,VBO,6.535723,52.982033
De Vallei,20,,,9405KJ,Assen,Assen,Drenthe,VBO,6.535676,52.981953
De Vallei,22,,,9405KJ,Assen,Assen,Drenthe,VBO,6.535791,52.981781
De Vallei,24,,,9405KJ,Assen,Assen,Drenthe,VBO,6.535641,52.981746
De Vallei,26,,,9405KJ,Assen,Assen,Drenthe,VBO,6.535521,52.981711
De Vallei,28,,,9405KK,Assen,Assen,Drenthe,VBO,6.535413,52.981560
De Vallei,30,,,9405KK,Assen,Assen,Drenthe,VBO,6.535606,52.981549
De Vallei,32,,,9405KK,Assen,Assen,Drenthe,VBO,6.535709,52.981512
De Vallei,34,,,9405KK,Assen,Assen,Drenthe,VBO,6.535781,52.981421
De Vallei,36,,,9405KK,Assen,Assen,Drenthe,VBO,6.535899,52.981375
De Vallei,38,,,9405KK,Assen,Assen,Drenthe,VBO,6.535957,52.981303
De Vallei,40,,,9405KK,Assen,Assen,Drenthe,VBO,6.535554,52.981289
De Vallei,42,,,9405KK,Assen,Assen,Drenthe,VBO,6.535493,52.981226
De Vallei,44,,,9405KK,Assen,Assen,Drenthe,VBO,6.535432,52.981155
De Vallei,46,,,9405KK,Assen,Assen,Drenthe,VBO,6.535355,52.981057
De Vallei,48,,,9405KK,Assen,Assen,Drenthe,VBO,6.535235,52.981022
De Vallei,50,,,9405KK,Assen,Assen,Drenthe,VBO,6.535188,52.980942
De Vallei,52,,,9405KK,Assen,Assen,Drenthe,VBO,6.535169,52.980780
De Vallei,54,,,9405KK,Assen,Assen,Drenthe,VBO,6.535287,52.980743
De Vallei,56,,,9405KK,Assen,Assen,Drenthe,VBO,6.535571,52.980794
De Vallei,58,,,9405KK,Assen,Assen,Drenthe,VBO,6.535648,52.980865
De Vallei,60,,,9405KK,Assen,Assen,Drenthe,VBO,6.535709,52.980928
De Vallei,62,,,9405KL,Assen,Assen,Drenthe,VBO,6.535912,52.980719
De Vallei,64,,,9405KL,Assen,Assen,Drenthe,VBO,6.535954,52.980638
De Vallei,66,,,9405KL,Assen,Assen,Drenthe,VBO,6.536311,52.980607
De Vallei,68,,,9405KL,Assen,Assen,Drenthe,VBO,6.536357,52.980679
De Vallei,70,,,9405KL,Assen,Assen,Drenthe,VBO,6.536478,52.980723
De Vallei,72,,,9405KL,Assen,Assen,Drenthe,VBO,6.536554,52.980812
De Vallei,74,,,9405KL,Assen,Assen,Drenthe,VBO,6.536675,52.980856
De Vallei,76,,,9405KL,Assen,Assen,Drenthe,VBO,6.537046,52.980816
De Vallei,78,,,9405KL,Assen,Assen,Drenthe,VBO,6.537073,52.980726
De Vallei,80,,,9405KL,Assen,Assen,Drenthe,VBO,6.537357,52.980768
De Vallei,82,,,9405KL,Assen,Assen,Drenthe,VBO,6.537433,52.980830
De Vallei,84,,,9405KL,Assen,Assen,Drenthe,VBO,6.537495,52.980902
De Vallei,86,,,9405KL,Assen,Assen,Drenthe,VBO,6.537781,52.981025
De Vallei,88,,,9405KL,Assen,Assen,Drenthe,VBO,6.537839,52.980952
De Vallei,90,,,9405KM,Assen,Assen,Drenthe,VBO,6.538120,52.980887
De Vallei,92,,,9405KM,Assen,Assen,Drenthe,VBO,6.538240,52.980930
De Vallei,94,,,9405KM,Assen,Assen,Drenthe,VBO,6.538302,52.981011
De Vallei,96,,,9405KM,Assen,Assen,Drenthe,VBO,6.538187,52.981165
De Vallei,98,,,9405KM,Assen,Assen,Drenthe,VBO,6.538054,52.981211
De Vallei,100,,,9405KM,Assen,Assen,Drenthe,VBO,6.537951,52.981248
De Vallei,102,,,9405KM,Assen,Assen,Drenthe,VBO,6.537840,52.981572
De Vallei,104,,,9405KM,Assen,Assen,Drenthe,VBO,6.537975,52.981598
De Vallei,106,,,9405KM,Assen,Assen,Drenthe,VBO,6.537949,52.981751
De Vallei,108,,,9405KM,Assen,Assen,Drenthe,VBO,6.537816,52.981788
De Vallei,110,A,,9405KM,Assen,Assen,Drenthe,VBO,6.537579,52.981826
De Vallei,110,,,9405KM,Assen,Assen,Drenthe,VBO,6.537744,52.981861
De Vallei,112,,,9405KM,Assen,Assen,Drenthe,VBO,6.537702,52.981969
De Vallei,114,,,9405KM,Assen,Assen,Drenthe,VBO,6.537659,52.982050
De Vallei,116,,,9405KM,Assen,Assen,Drenthe,VBO,6.537437,52.982097
De Vallei,118,,,9405KM,Assen,Assen,Drenthe,VBO,6.537375,52.982017
De Vallei,120,,,9405KM,Assen,Assen,Drenthe,VBO,6.537329,52.981937
De Vallei,122,,,9405KM,Assen,Assen,Drenthe,VBO,6.536885,52.982040
De Vallei,124,,,9405KM,Assen,Assen,Drenthe,VBO,6.536931,52.982120
De Vallei,126,,,9405KM,Assen,Assen,Drenthe,VBO,6.536978,52.982201
Kennemerland,1,,,9405LA,Assen,Assen,Drenthe,VBO,6.538795,52.979936
Kennemerland,3,,,9405LA,Assen,Assen,Drenthe,VBO,6.538869,52.979945
Kennemerland,5,,,9405LA,Assen,Assen,Drenthe,VBO,6.539050,52.980033
Kennemerland,7,,,9405LA,Assen,Assen,Drenthe,VBO,6.539140,52.980041
Kennemerland,9,,,9405LA,Assen,Assen,Drenthe,VBO,6.539334,52.980075
Kennemerland,11,,,9405LA,Assen,Assen,Drenthe,VBO,6.539409,52.980083
Kennemerland,13,,,9405LA,Assen,Assen,Drenthe,VBO,6.539765,52.980044
Kennemerland,15,,,9405LA,Assen,Assen,Drenthe,VBO,6.539794,52.979999
Kennemerland,17,,,9405LA,Assen,Assen,Drenthe,VBO,6.539852,52.979953
Kennemerland,19,,,9405LA,Assen,Assen,Drenthe,VBO,6.539866,52.979908
Kennemerland,21,,,9405LA,Assen,Assen,Drenthe,VBO,6.539939,52.979863
Kennemerland,23,,,9405LA,Assen,Assen,Drenthe,VBO,6.539953,52.979817
Kennemerland,25,,,9405LA,Assen,Assen,Drenthe,VBO,6.539827,52.979576
Kennemerland,27,,,9405LA,Assen,Assen,Drenthe,VBO,6.539738,52.979568
Kennemerland,29,,,9405LA,Assen,Assen,Drenthe,VBO,6.539663,52.979560
Kennemerland,31,,,9405LA,Assen,Assen,Drenthe,VBO,6.539588,52.979542
Kennemerland,33,,,9405LA,Assen,Assen,Drenthe,VBO,6.539514,52.979534
Kennemerland,35,,,9405LA,Assen,Assen,Drenthe,VBO,6.539439,52.979526
Kennemerland,37,,,9405LB,Assen,Assen,Drenthe,VBO,6.539235,52.979708
Kennemerland,39,,,9405LB,Assen,Assen,Drenthe,VBO,6.539146,52.979699
Kennemerland,41,,,9405LB,Assen,Assen,Drenthe,VBO,6.539071,52.979691
Kennemerland,43,,,9405LB,Assen,Assen,Drenthe,VBO,6.538996,52.979674
Kennemerland,45,,,9405LB,Assen,Assen,Drenthe,VBO,6.538921,52.979639
Kennemerland,47,,,9405LB,Assen,Assen,Drenthe,VBO,6.538846,52.979630
Kennemerland,49,,,9405LB,Assen,Assen,Drenthe,VBO,6.538771,52.979613
Kennemerland,51,,,9405LB,Assen,Assen,Drenthe,VBO,6.538682,52.979605
Kennemerland,53,,,9405LB,Assen,Assen,Drenthe,VBO,6.538514,52.979472
Kennemerland,55,,,9405LB,Assen,Assen,Drenthe,VBO,6.538501,52.979526
Kennemerland,57,,,9405LB,Assen,Assen,Drenthe,VBO,6.538487,52.979571
Kennemerland,59,,,9405LB,Assen,Assen,Drenthe,VBO,6.538459,52.979616
Kennemerland,61,,,9405LB,Assen,Assen,Drenthe,VBO,6.538445,52.979670
Kennemerland,63,,,9405LB,Assen,Assen,Drenthe,VBO,6.538416,52.979715
Kennemerland,65,,,9405LC,Assen,Assen,Drenthe,VBO,6.537997,52.979054
Kennemerland,67,,,9405LC,Assen,Assen,Drenthe,VBO,6.538057,52.979081
Kennemerland,69,,,9405LC,Assen,Assen,Drenthe,VBO,6.538103,52.979125
Kennemerland,71,,,9405LC,Assen,Assen,Drenthe,VBO,6.538163,52.979152
Kennemerland,73,,,9405LC,Assen,Assen,Drenthe,VBO,6.538238,52.979178
Kennemerland,75,,,9405LC,Assen,Assen,Drenthe,VBO,6.538314,52.979213
Kennemerland,77,,,9405LC,Assen,Assen,Drenthe,VBO,6.538374,52.979240
Kennemerland,79,,,9405LC,Assen,Assen,Drenthe,VBO,6.538458,52.979050
Kennemerland,81,,,9405LC,Assen,Assen,Drenthe,VBO,6.538502,52.979005
Kennemerland,83,,,9405LC,Assen,Assen,Drenthe,VBO,6.538663,52.978913
Kennemerland,85,,,9405LC,Assen,Assen,Drenthe,VBO,6.538707,52.978877
Kennemerland,87,,,9405LD,Assen,Assen,Drenthe,VBO,6.538452,52.978798
Kennemerland,89,,,9405LD,Assen,Assen,Drenthe,VBO,6.538392,52.978772
Kennemerland,91,,,9405LD,Assen,Assen,Drenthe,VBO,6.538270,52.978674
Kennemerland,93,,,9405LD,Assen,Assen,Drenthe,VBO,6.538180,52.978639
Kennemerland,95,,,9405LD,Assen,Assen,Drenthe,VBO,6.538029,52.978578
Kennemerland,97,,,9405LD,Assen,Assen,Drenthe,VBO,6.537939,52.978543
Kennemerland,99,,,9405LD,Assen,Assen,Drenthe,VBO,6.537779,52.978688
Kennemerland,101,,,9405LD,Assen,Assen,Drenthe,VBO,6.537720,52.978725
Kennemerland,103,,,9405LD,Assen,Assen,Drenthe,VBO,6.537677,52.978770
Kennemerland,105,,,9405LD,Assen,Assen,Drenthe,VBO,6.537648,52.978806
Kennemerland,107,,,9405LD,Assen,Assen,Drenthe,VBO,6.537590,52.978852
Kennemerland,109,,,9405LD,Assen,Assen,Drenthe,VBO,6.537546,52.978888
Kennemerland,111,,,9405LE,Assen,Assen,Drenthe,VBO,6.534990,52.978526
Kennemerland,113,,,9405LE,Assen,Assen,Drenthe,VBO,6.535019,52.978472
Kennemerland,115,,,9405LE,Assen,Assen,Drenthe,VBO,6.535032,52.978427
Kennemerland,117,,,9405LE,Assen,Assen,Drenthe,VBO,6.535061,52.978382
Kennemerland,119,,,9405LE,Assen,Assen,Drenthe,VBO,6.535074,52.978328
Kennemerland,121,,,9405LE,Assen,Assen,Drenthe,VBO,6.535088,52.978283
Kennemerland,123,,,9405LE,Assen,Assen,Drenthe,VBO,6.535117,52.978237
Kennemerland,125,,,9405LE,Assen,Assen,Drenthe,VBO,6.535130,52.978192
Kennemerland,127,,,9405LE,Assen,Assen,Drenthe,VBO,6.534966,52.978158
Kennemerland,129,,,9405LE,Assen,Assen,Drenthe,VBO,6.534876,52.978150
Kennemerland,131,,,9405LE,Assen,Assen,Drenthe,VBO,6.534801,52.978133
Kennemerland,133,,,9405LE,Assen,Assen,Drenthe,VBO,6.534727,52.978124
Kennemerland,135,,,9405LE,Assen,Assen,Drenthe,VBO,6.534652,52.978107
Kennemerland,137,,,9405LE,Assen,Assen,Drenthe,VBO,6.534562,52.978099
Kennemerland,139,,,9405LG,Assen,Assen,Drenthe,VBO,6.534378,52.977876
Kennemerland,141,,,9405LG,Assen,Assen,Drenthe,VBO,6.534349,52.977930
Kennemerland,143,,,9405LG,Assen,Assen,Drenthe,VBO,6.534335,52.977975
Kennemerland,145,,,9405LG,Assen,Assen,Drenthe,VBO,6.534322,52.978020
Kennemerland,147,,,9405LG,Assen,Assen,Drenthe,VBO,6.534293,52.978066
Kennemerland,149,,,9405LG,Assen,Assen,Drenthe,VBO,6.534279,52.978111
Kennemerland,151,,,9405LG,Assen,Assen,Drenthe,VBO,6.533908,52.978132
Kennemerland,153,,,9405LG,Assen,Assen,Drenthe,VBO,6.533894,52.978186
Kennemerland,155,,,9405LG,Assen,Assen,Drenthe,VBO,6.533776,52.978214
Kennemerland,157,,,9405LG,Assen,Assen,Drenthe,VBO,6.533763,52.978268
Kennemerland,159,,,9405LG,Assen,Assen,Drenthe,VBO,6.533749,52.978313
Kennemerland,161,,,9405LG,Assen,Assen,Drenthe,VBO,6.533720,52.978359
Kennemerland,163,,,9405LH,Assen,Assen,Drenthe,VBO,6.533488,52.978586
Kennemerland,165,,,9405LH,Assen,Assen,Drenthe,VBO,6.533563,52.978594
Kennemerland,167,,,9405LH,Assen,Assen,Drenthe,VBO,6.533638,52.978611
Kennemerland,169,,,9405LH,Assen,Assen,Drenthe,VBO,6.533712,52.978619
Kennemerland,171,,,9405LH,Assen,Assen,Drenthe,VBO,6.533787,52.978628
Kennemerland,173,,,9405LH,Assen,Assen,Drenthe,VBO,6.533877,52.978645
Kennemerland,175,,,9405LH,Assen,Assen,Drenthe,VBO,6.533952,52.978680
Kennemerland,177,,,9405LH,Assen,Assen,Drenthe,VBO,6.534027,52.978688
Kennemerland,179,,,9405LH,Assen,Assen,Drenthe,VBO,6.534102,52.978705
Kennemerland,181,,,9405LH,Assen,Assen,Drenthe,VBO,6.534176,52.978714
Kennemerland,183,,,9405LH,Assen,Assen,Drenthe,VBO,6.534508,52.978854
Kennemerland,185,,,9405LH,Assen,Assen,Drenthe,VBO,6.534521,52.978809
Kennemerland,187,,,9405LH,Assen,Assen,Drenthe,VBO,6.534550,52.978764
Kennemerland,189,,,9405LH,Assen,Assen,Drenthe,VBO,6.534563,52.978710
Kennemerland,191,,,9405LH,Assen,Assen,Drenthe,VBO,6.534577,52.978665
Kennemerland,193,,,9405LH,Assen,Assen,Drenthe,VBO,6.534606,52.978620
Kennemerland,2,,,9405LJ,Assen,Assen,Drenthe,VBO,6.538202,52.980050
Kennemerland,4,,,9405LJ,Assen,Assen,Drenthe,VBO,6.538173,52.980095
Kennemerland,6,,,9405LJ,Assen,Assen,Drenthe,VBO,6.538505,52.980245
Kennemerland,8,,,9405LJ,Assen,Assen,Drenthe,VBO,6.538491,52.980299
Kennemerland,10,,,9405LJ,Assen,Assen,Drenthe,VBO,6.538314,52.980355
Kennemerland,12,,,9405LJ,Assen,Assen,Drenthe,VBO,6.538225,52.980346
Kennemerland,14,,,9405LJ,Assen,Assen,Drenthe,VBO,6.538135,52.980329
Kennemerland,16,,,9405LJ,Assen,Assen,Drenthe,VBO,6.538045,52.980321
Kennemerland,18,,,9405LJ,Assen,Assen,Drenthe,VBO,6.537925,52.980268
Kennemerland,20,,,9405LJ,Assen,Assen,Drenthe,VBO,6.537835,52.980260
Kennemerland,22,,,9405LJ,Assen,Assen,Drenthe,VBO,6.537745,52.980243
Kennemerland,24,,,9405LJ,Assen,Assen,Drenthe,VBO,6.537656,52.980235
Kennemerland,26,,,9405LJ,Assen,Assen,Drenthe,VBO,6.537566,52.980218
Kennemerland,28,A,,9405LJ,Assen,Assen,Drenthe,VBO,6.537124,52.980375
Kennemerland,28,,,9405LJ,Assen,Assen,Drenthe,VBO,6.537476,52.980201
Kennemerland,30,,,9405LJ,Assen,Assen,Drenthe,VBO,6.537186,52.979934
Kennemerland,32,,,9405LK,Assen,Assen,Drenthe,VBO,6.537173,52.979988
Kennemerland,34,,,9405LK,Assen,Assen,Drenthe,VBO,6.537145,52.980042
Kennemerland,36,,,9405LK,Assen,Assen,Drenthe,VBO,6.537131,52.980096
Kennemerland,38,,,9405LK,Assen,Assen,Drenthe,VBO,6.536969,52.980161
Kennemerland,40,,,9405LK,Assen,Assen,Drenthe,VBO,6.536879,52.980144
Kennemerland,42,,,9405LK,Assen,Assen,Drenthe,VBO,6.536789,52.980127
Kennemerland,44,,,9405LK,Assen,Assen,Drenthe,VBO,6.536700,52.980118
Kennemerland,46,,,9405LK,Assen,Assen,Drenthe,VBO,6.536563,52.980012
Kennemerland,48,,,9405LK,Assen,Assen,Drenthe,VBO,6.536577,52.979958
Kennemerland,50,,,9405LK,Assen,Assen,Drenthe,VBO,6.536605,52.979904
Kennemerland,52,,,9405LK,Assen,Assen,Drenthe,VBO,6.536618,52.979850
Kennemerland,54,,,9405LK,Assen,Assen,Drenthe,VBO,6.536854,52.979766
Kennemerland,56,,,9405LK,Assen,Assen,Drenthe,VBO,6.536883,52.979712
Kennemerland,58,,,9405LK,Assen,Assen,Drenthe,VBO,6.537134,52.979647
Kennemerland,60,,,9405LK,Assen,Assen,Drenthe,VBO,6.537224,52.979664
Kennemerland,62,,,9405LK,Assen,Assen,Drenthe,VBO,6.537432,52.979644
Kennemerland,64,,,9405LL,Assen,Assen,Drenthe,VBO,6.537522,52.979661
Kennemerland,66,,,9405LL,Assen,Assen,Drenthe,VBO,6.537611,52.979669
Kennemerland,68,,,9405LL,Assen,Assen,Drenthe,VBO,6.537716,52.979686
Kennemerland,70,,,9405LL,Assen,Assen,Drenthe,VBO,6.537839,52.979829
Kennemerland,72,,,9405LL,Assen,Assen,Drenthe,VBO,6.537928,52.979837
Kennemerland,74,,,9405LL,Assen,Assen,Drenthe,VBO,6.536907,52.978939
Kennemerland,76,,,9405LL,Assen,Assen,Drenthe,VBO,6.536894,52.978993
Kennemerland,78,,,9405LL,Assen,Assen,Drenthe,VBO,6.536865,52.979047
Kennemerland,80,,,9405LL,Assen,Assen,Drenthe,VBO,6.536837,52.979102
Kennemerland,82,,,9405LL,Assen,Assen,Drenthe,VBO,6.537240,52.979134
Kennemerland,84,,,9405LL,Assen,Assen,Drenthe,VBO,6.537329,52.979151
Kennemerland,86,,,9405LL,Assen,Assen,Drenthe,VBO,6.537422,52.979267
Kennemerland,88,,,9405LL,Assen,Assen,Drenthe,VBO,6.537394,52.979321
Kennemerland,90,,,9405LL,Assen,Assen,Drenthe,VBO,6.537142,52.979368
Kennemerland,92,,,9405LL,Assen,Assen,Drenthe,VBO,6.537052,52.979351
Kennemerland,94,,,9405LL,Assen,Assen,Drenthe,VBO,6.536962,52.979343
Kennemerland,96,,,9405LL,Assen,Assen,Drenthe,VBO,6.536873,52.979326
Kennemerland,98,,,9405LL,Assen,Assen,Drenthe,VBO,6.536783,52.979318
Kennemerland,100,,,9405LL,Assen,Assen,Drenthe,VBO,6.536663,52.979301
Kennemerland,102,,,9405LL,Assen,Assen,Drenthe,VBO,6.536528,52.979239
Kennemerland,104,,,9405LL,Assen,Assen,Drenthe,VBO,6.536423,52.979222
Kennemerland,106,,,9405LL,Assen,Assen,Drenthe,VBO,6.536334,52.979214
Kennemerland,108,,,9405LL,Assen,Assen,Drenthe,VBO,6.536244,52.979197
Kennemerland,110,,,9405LL,Assen,Assen,Drenthe,VBO,6.535954,52.978939
Kennemerland,112,,,9405LM,Assen,Assen,Drenthe,VBO,6.535941,52.978993
Kennemerland,114,,,9405LM,Assen,Assen,Drenthe,VBO,6.535912,52.979048
Kennemerland,116,,,9405LM,Assen,Assen,Drenthe,VBO,6.535884,52.979102
Kennemerland,118,,,9405LM,Assen,Assen,Drenthe,VBO,6.535722,52.979166
Kennemerland,120,,,9405LM,Assen,Assen,Drenthe,VBO,6.535632,52.979149
Kennemerland,122,,,9405LM,Assen,Assen,Drenthe,VBO,6.535557,52.979132
Kennemerland,124,,,9405LM,Assen,Assen,Drenthe,VBO,6.535453,52.979124
Kennemerland,126,,,9405LM,Assen,Assen,Drenthe,VBO,6.535256,52.979009
Kennemerland,128,,,9405LM,Assen,Assen,Drenthe,VBO,6.535284,52.978955
Kennemerland,130,,,9405LM,Assen,Assen,Drenthe,VBO,6.535298,52.978901
Kennemerland,132,,,9405LM,Assen,Assen,Drenthe,VBO,6.535326,52.978846
Kennemerland,134,,,9405LM,Assen,Assen,Drenthe,VBO,6.535517,52.978755
Kennemerland,136,,,9405LM,Assen,Assen,Drenthe,VBO,6.535546,52.978701
Kennemerland,138,,,9405LM,Assen,Assen,Drenthe,VBO,6.535752,52.978627
Kennemerland,140,,,9405LM,Assen,Assen,Drenthe,VBO,6.535842,52.978644
Kennemerland,142,,,9405LM,Assen,Assen,Drenthe,VBO,6.535932,52.978652
Kennemerland,144,,,9405LM,Assen,Assen,Drenthe,VBO,6.536036,52.978669
Kennemerland,146,,,9405LM,Assen,Assen,Drenthe,VBO,6.536187,52.978730
Kennemerland,148,,,9405LM,Assen,Assen,Drenthe,VBO,6.536276,52.978738
Kennemerland,150,,,9405LM,Assen,Assen,Drenthe,VBO,6.536457,52.978809
Kennemerland,152,,,9405LN,Assen,Assen,Drenthe,VBO,6.536546,52.978817
Kennemerland,154,,,9405LN,Assen,Assen,Drenthe,VBO,6.535104,52.979469
Kennemerland,156,,,9405LN,Assen,Assen,Drenthe,VBO,6.535194,52.979486
Kennemerland,158,,,9405LN,Assen,Assen,Drenthe,VBO,6.535299,52.979503
Kennemerland,160,,,9405LN,Assen,Assen,Drenthe,VBO,6.535388,52.979511
Kennemerland,162,,,9405LN,Assen,Assen,Drenthe,VBO,6.535478,52.979528
Kennemerland,164,,,9405LN,Assen,Assen,Drenthe,VBO,6.535568,52.979536
Kennemerland,166,,,9405LN,Assen,Assen,Drenthe,VBO,6.535762,52.979543
Kennemerland,168,A,,9405LN,Assen,Assen,Drenthe,VBO,6.536118,52.979522
Kennemerland,168,,,9405LN,Assen,Assen,Drenthe,VBO,6.535851,52.979560
Kennemerland,170,,,9405LN,Assen,Assen,Drenthe,VBO,6.536048,52.979675
Kennemerland,172,,,9405LN,Assen,Assen,Drenthe,VBO,6.536020,52.979730
Kennemerland,174,,,9405LN,Assen,Assen,Drenthe,VBO,6.535857,52.979794
Kennemerland,176,,,9405LN,Assen,Assen,Drenthe,VBO,6.535768,52.979777
Kennemerland,178,,,9405LN,Assen,Assen,Drenthe,VBO,6.535532,52.979887
Kennemerland,180,,,9405LN,Assen,Assen,Drenthe,VBO,6.535443,52.979870
Kennemerland,182,,,9405LP,Assen,Assen,Drenthe,VBO,6.535353,52.979853
Kennemerland,184,,,9405LP,Assen,Assen,Drenthe,VBO,6.535263,52.979845
Kennemerland,186,,,9405LP,Assen,Assen,Drenthe,VBO,6.535131,52.979900
Kennemerland,188,,,9405LP,Assen,Assen,Drenthe,VBO,6.535041,52.979883
Kennemerland,190,,,9405LP,Assen,Assen,Drenthe,VBO,6.534951,52.979875
Kennemerland,192,,,9405LP,Assen,Assen,Drenthe,VBO,6.534862,52.979857
Kennemerland,194,,,9405LP,Assen,Assen,Drenthe,VBO,6.534772,52.979840
Kennemerland,196,,,9405LP,Assen,Assen,Drenthe,VBO,6.534682,52.979832
Kennemerland,198,,,9405LP,Assen,Assen,Drenthe,VBO,6.534471,52.979726
Kennemerland,200,,,9405LP,Assen,Assen,Drenthe,VBO,6.534484,52.979672
Kennemerland,202,,,9405LP,Assen,Assen,Drenthe,VBO,6.534513,52.979618
Kennemerland,204,,,9405LP,Assen,Assen,Drenthe,VBO,6.534526,52.979564
Kennemerland,206,,,9405LP,Assen,Assen,Drenthe,VBO,6.534643,52.979491
Kennemerland,208,,,9405LP,Assen,Assen,Drenthe,VBO,6.534657,52.979437
Kennemerland,210,,,9405LP,Assen,Assen,Drenthe,VBO,6.534685,52.979383
Kennemerland,212,,,9405LR,Assen,Assen,Drenthe,VBO,6.534698,52.979320
Kennemerland,214,,,9405LR,Assen,Assen,Drenthe,VBO,6.534727,52.979266
Kennemerland,216,,,9405LR,Assen,Assen,Drenthe,VBO,6.534755,52.979211
Kennemerland,218,,,9405LR,Assen,Assen,Drenthe,VBO,6.533592,52.979133
Kennemerland,220,,,9405LR,Assen,Assen,Drenthe,VBO,6.533681,52.979141
Kennemerland,222,,,9405LR,Assen,Assen,Drenthe,VBO,6.533756,52.979149
Kennemerland,224,,,9405LR,Assen,Assen,Drenthe,VBO,6.533831,52.979166
Kennemerland,226,,,9405LR,Assen,Assen,Drenthe,VBO,6.533906,52.979202
Kennemerland,228,,,9405LR,Assen,Assen,Drenthe,VBO,6.533981,52.979219
Kennemerland,230,,,9405LR,Assen,Assen,Drenthe,VBO,6.534056,52.979227
Kennemerland,232,,,9405LR,Assen,Assen,Drenthe,VBO,6.534130,52.979235
Kennemerland,234,,,9405LR,Assen,Assen,Drenthe,VBO,6.533927,52.979435
Kennemerland,236,,,9405LR,Assen,Assen,Drenthe,VBO,6.533914,52.979480
Kennemerland,238,,,9405LR,Assen,Assen,Drenthe,VBO,6.533885,52.979525
Kennemerland,240,,,9405LR,Assen,Assen,Drenthe,VBO,6.533871,52.979570
Kennemerland,242,,,9405LS,Assen,Assen,Drenthe,VBO,6.533813,52.979616
Kennemerland,244,,,9405LS,Assen,Assen,Drenthe,VBO,6.533784,52.979661
Kennemerland,246,,,9405LS,Assen,Assen,Drenthe,VBO,6.533771,52.979706
Kennemerland,248,,,9405LS,Assen,Assen,Drenthe,VBO,6.533757,52.979751
Kennemerland,250,,,9405LS,Assen,Assen,Drenthe,VBO,6.533729,52.979805
Kennemerland,252,,,9405LS,Assen,Assen,Drenthe,VBO,6.533715,52.979851
Kennemerland,254,,,9405LS,Assen,Assen,Drenthe,VBO,6.533561,52.979654
Kennemerland,256,,,9405LS,Assen,Assen,Drenthe,VBO,6.533486,52.979646
Kennemerland,258,,,9405LS,Assen,Assen,Drenthe,VBO,6.533397,52.979638
Kennemerland,260,,,9405LS,Assen,Assen,Drenthe,VBO,6.533322,52.979621
Kennemerland,262,,,9405LS,Assen,Assen,Drenthe,VBO,6.533247,52.979612
Kennemerland,264,,,9405LS,Assen,Assen,Drenthe,VBO,6.533172,52.979604
Kennemerland,266,,,9405LS,Assen,Assen,Drenthe,VBO,6.532854,52.979373
Kennemerland,268,,,9405LS,Assen,Assen,Drenthe,VBO,6.532840,52.979419
Kennemerland,270,,,9405LS,Assen,Assen,Drenthe,VBO,6.532826,52.979464
Kennemerland,272,,,9405LT,Assen,Assen,Drenthe,VBO,6.532798,52.979509
Kennemerland,274,,,9405LT,Assen,Assen,Drenthe,VBO,6.532739,52.979554
Kennemerland,276,,,9405LT,Assen,Assen,Drenthe,VBO,6.532711,52.979600
Kennemerland,278,,,9405LT,Assen,Assen,Drenthe,VBO,6.532697,52.979645
Kennemerland,280,,,9405LT,Assen,Assen,Drenthe,VBO,6.532683,52.979699
Kennemerland,282,,,9405LT,Assen,Assen,Drenthe,VBO,6.532204,52.979568
Kennemerland,284,,,9405LT,Assen,Assen,Drenthe,VBO,6.532217,52.979505
Kennemerland,286,,,9405LT,Assen,Assen,Drenthe,VBO,6.532198,52.979362
Kennemerland,288,,,9405LT,Assen,Assen,Drenthe,VBO,6.532226,52.979299
Kennemerland,290,,,9405LT,Assen,Assen,Drenthe,VBO,6.532357,52.979181
Kennemerland,292,,,9405LT,Assen,Assen,Drenthe,VBO,6.532385,52.979117
Kennemerland,294,,,9405LT,Assen,Assen,Drenthe,VBO,6.532712,52.979087
Kennemerland,296,,,9405LT,Assen,Assen,Drenthe,VBO,6.532817,52.979104
Kennemerland,298,,,9405LT,Assen,Assen,Drenthe,VBO,6.533101,52.979173
Kennemerland,300,,,9405LT,Assen,Assen,Drenthe,VBO,6.533191,52.979190
Schieland,1,,,9405NA,Assen,Assen,Drenthe,VBO,6.539749,52.977177
Schieland,3,,,9405NA,Assen,Assen,Drenthe,VBO,6.539606,52.977385
Schieland,5,,,9405NA,Assen,Assen,Drenthe,VBO,6.539279,52.977424
Schieland,7,,,9405NA,Assen,Assen,Drenthe,VBO,6.539479,52.977674
Schieland,9,,,9405NA,Assen,Assen,Drenthe,VBO,6.539852,52.977715
Schieland,11,,,9405NA,Assen,Assen,Drenthe,VBO,6.540401,52.977611
Schieland,13,,,9405NA,Assen,Assen,Drenthe,VBO,6.539591,52.977970
Schieland,15,,,9405NA,Assen,Assen,Drenthe,VBO,6.538938,52.978030
Schieland,17,,,9405NA,Assen,Assen,Drenthe,VBO,6.538589,52.977791
Schieland,19,,,9405NA,Assen,Assen,Drenthe,VBO,6.538301,52.977614
Schieland,25,,,9405NB,Assen,Assen,Drenthe,VBO,6.536104,52.977868
Schieland,27,,,9405NB,Assen,Assen,Drenthe,VBO,6.536148,52.977832
Schieland,29,,,9405NB,Assen,Assen,Drenthe,VBO,6.536222,52.977804
Schieland,31,,,9405NB,Assen,Assen,Drenthe,VBO,6.536266,52.977768
Schieland,33,,,9405NB,Assen,Assen,Drenthe,VBO,6.536308,52.977678
Schieland,35,,,9405NB,Assen,Assen,Drenthe,VBO,6.536351,52.977632
Schieland,37,,,9405NB,Assen,Assen,Drenthe,VBO,6.536365,52.977578
Schieland,39,,,9405NB,Assen,Assen,Drenthe,VBO,6.536409,52.977542
Schieland,41,,,9405NB,Assen,Assen,Drenthe,VBO,6.536183,52.977454
Schieland,43,,,9405NB,Assen,Assen,Drenthe,VBO,6.536108,52.977428
Schieland,45,,,9405NB,Assen,Assen,Drenthe,VBO,6.536062,52.977375
Schieland,47,,,9405NB,Assen,Assen,Drenthe,VBO,6.536001,52.977348
Schieland,49,,,9405NB,Assen,Assen,Drenthe,VBO,6.535926,52.977322
Schieland,51,,,9405NC,Assen,Assen,Drenthe,VBO,6.535820,52.977242
Schieland,53,,,9405NC,Assen,Assen,Drenthe,VBO,6.535745,52.977216
Schieland,55,,,9405NC,Assen,Assen,Drenthe,VBO,6.535655,52.977217
Schieland,57,,,9405NC,Assen,Assen,Drenthe,VBO,6.535580,52.977181
Schieland,59,,,9405NC,Assen,Assen,Drenthe,VBO,6.535288,52.977382
Schieland,61,,,9405NC,Assen,Assen,Drenthe,VBO,6.535244,52.977427
Schieland,63,,,9405NC,Assen,Assen,Drenthe,VBO,6.535186,52.977473
Schieland,65,,,9405NC,Assen,Assen,Drenthe,VBO,6.535142,52.977509
Schieland,67,,,9405NC,Assen,Assen,Drenthe,VBO,6.535099,52.977555
Schieland,69,,,9405NC,Assen,Assen,Drenthe,VBO,6.534980,52.977556
Schieland,71,,,9405NC,Assen,Assen,Drenthe,VBO,6.534936,52.977592
Schieland,73,,,9405NC,Assen,Assen,Drenthe,VBO,6.534877,52.977638
Schieland,75,,,9405NC,Assen,Assen,Drenthe,VBO,6.534834,52.977683
Schieland,77,,,9405NC,Assen,Assen,Drenthe,VBO,6.534835,52.977737
Schieland,79,,,9405NC,Assen,Assen,Drenthe,VBO,6.534792,52.977773
Schieland,81,,,9405ND,Assen,Assen,Drenthe,VBO,6.535257,52.977912
Schieland,83,,,9405ND,Assen,Assen,Drenthe,VBO,6.535300,52.977867
Schieland,85,,,9405ND,Assen,Assen,Drenthe,VBO,6.535344,52.977831
Schieland,87,,,9405ND,Assen,Assen,Drenthe,VBO,6.535388,52.977794
Schieland,89,,,9405ND,Assen,Assen,Drenthe,VBO,6.535476,52.977767
Schieland,91,,,9405ND,Assen,Assen,Drenthe,VBO,6.535505,52.977721
Schieland,93,,,9405ND,Assen,Assen,Drenthe,VBO,6.535631,52.977981
Schieland,95,,,9405ND,Assen,Assen,Drenthe,VBO,6.535691,52.978007
Schieland,97,,,9405ND,Assen,Assen,Drenthe,VBO,6.535766,52.978033
Schieland,99,,,9405ND,Assen,Assen,Drenthe,VBO,6.535842,52.978060
Schieland,101,,,9405ND,Assen,Assen,Drenthe,VBO,6.535872,52.978104
Schieland,103,,,9405ND,Assen,Assen,Drenthe,VBO,6.535948,52.978140
Schieland,105,,,9405ND,Assen,Assen,Drenthe,VBO,6.536008,52.978166
Schieland,107,,,9405ND,Assen,Assen,Drenthe,VBO,6.536083,52.978192
Schieland,2,,,9405NE,Assen,Assen,Drenthe,VBO,6.541004,52.978459
Schieland,4,,,9405NE,Assen,Assen,Drenthe,VBO,6.540468,52.978473
Schieland,6,,,9405NE,Assen,Assen,Drenthe,VBO,6.540716,52.978291
Schieland,8,,,9405NE,Assen,Assen,Drenthe,VBO,6.540383,52.978088
Schieland,10,,,9405NE,Assen,Assen,Drenthe,VBO,6.540088,52.978172
Schieland,12,,,9405NE,Assen,Assen,Drenthe,VBO,6.539736,52.978382
Schieland,14,,,9405NE,Assen,Assen,Drenthe,VBO,6.539986,52.978820
Schieland,16,,,9405NE,Assen,Assen,Drenthe,VBO,6.539248,52.978512
Schieland,20,,,9405NE,Assen,Assen,Drenthe,VBO,6.536690,52.978043
Schieland,22,,,9405NG,Assen,Assen,Drenthe,VBO,6.536733,52.977988
Schieland,24,,,9405NG,Assen,Assen,Drenthe,VBO,6.536822,52.977960
Schieland,26,,,9405NG,Assen,Assen,Drenthe,VBO,6.536865,52.977924
Schieland,28,,,9405NG,Assen,Assen,Drenthe,VBO,6.537048,52.978084
Schieland,30,,,9405NG,Assen,Assen,Drenthe,VBO,6.537123,52.978110
Schieland,32,,,9405NG,Assen,Assen,Drenthe,VBO,6.537289,52.978172
Schieland,34,,,9405NG,Assen,Assen,Drenthe,VBO,6.537364,52.978207
Schieland,36,,,9405NG,Assen,Assen,Drenthe,VBO,6.537605,52.978294
Schieland,38,,,9405NG,Assen,Assen,Drenthe,VBO,6.537546,52.978340
Schieland,40,A,,9405NG,Assen,Assen,Drenthe,VBO,6.537638,52.978447
Schieland,40,,,9405NG,Assen,Assen,Drenthe,VBO,6.537400,52.978422
Schieland,42,,,9405NG,Assen,Assen,Drenthe,VBO,6.537356,52.978476
Schieland,44,,,9405NH,Assen,Assen,Drenthe,VBO,6.537301,52.978630
Schieland,46,,,9405NH,Assen,Assen,Drenthe,VBO,6.537226,52.978604
Schieland,48,,,9405NH,Assen,Assen,Drenthe,VBO,6.537136,52.978604
Schieland,50,,,9405NH,Assen,Assen,Drenthe,VBO,6.537061,52.978569
Schieland,52,,,9405NH,Assen,Assen,Drenthe,VBO,6.537001,52.978543
Schieland,54,,,9405NH,Assen,Assen,Drenthe,VBO,6.536940,52.978516
Schieland,56,,,9405NH,Assen,Assen,Drenthe,VBO,6.536865,52.978490
Schieland,58,,,9405NH,Assen,Assen,Drenthe,VBO,6.536805,52.978464
Schieland,60,,,9405NH,Assen,Assen,Drenthe,VBO,6.536507,52.978458
Schieland,62,,,9405NH,Assen,Assen,Drenthe,VBO,6.536551,52.978412
Schieland,64,,,9405NH,Assen,Assen,Drenthe,VBO,6.536594,52.978376
Schieland,66,,,9405NH,Assen,Assen,Drenthe,VBO,6.536638,52.978331
Schieland,68,,,9405NH,Assen,Assen,Drenthe,VBO,6.536682,52.978294
Delfland,3,,,9405NJ,Assen,Assen,Drenthe,VBO,6.538578,52.977395
Delfland,5,,,9405NJ,Assen,Assen,Drenthe,VBO,6.538794,52.977097
Delfland,7,,,9405NJ,Assen,Assen,Drenthe,VBO,6.539058,52.976932
Delfland,9,,,9405NJ,Assen,Assen,Drenthe,VBO,6.538919,52.976745
Delfland,11,,,9405NJ,Assen,Assen,Drenthe,VBO,6.538704,52.976522
Delfland,13,,,9405NJ,Assen,Assen,Drenthe,VBO,6.538457,52.976740
Delfland,15,,,9405NJ,Assen,Assen,Drenthe,VBO,6.537985,52.976340
Delfland,17,,,9405NJ,Assen,Assen,Drenthe,VBO,6.538232,52.976113
Delfland,19,,,9405NJ,Assen,Assen,Drenthe,VBO,6.537496,52.976426
Delfland,21,,,9405NJ,Assen,Assen,Drenthe,VBO,6.537143,52.976591
Delfland,23,,,9405NJ,Assen,Assen,Drenthe,VBO,6.536879,52.976756
Delfland,25,,,9405NJ,Assen,Assen,Drenthe,VBO,6.536451,52.976903
Delfland,27,,,9405NJ,Assen,Assen,Drenthe,VBO,6.536740,52.977107
Delfland,2,,,9405NL,Assen,Assen,Drenthe,VBO,6.537820,52.977421
Delfland,4,,,9405NL,Assen,Assen,Drenthe,VBO,6.538127,52.977229
Delfland,6,,,9405NL,Assen,Assen,Drenthe,VBO,6.537853,52.976989
Delfland,8,,,9405NL,Assen,Assen,Drenthe,VBO,6.537415,52.977308
Boskamp,3,,,9405NN,Assen,Assen,Drenthe,VBO,6.544113,52.978375
Boskamp,4,,,9405NN,Assen,Assen,Drenthe,VBO,6.544202,52.978365
Boskamp,5,,,9405NN,Assen,Assen,Drenthe,VBO,6.545179,52.978680
Het Sticht,2,,,9405NP,Assen,Assen,Drenthe,VBO,6.534254,52.983943
Het Sticht,6,,,9405NP,Assen,Assen,Drenthe,VBO,6.534224,52.983926
Het Sticht,8,,,9405NP,Assen,Assen,Drenthe,VBO,6.534177,52.983845
Het Sticht,10,,,9405NP,Assen,Assen,Drenthe,VBO,6.534100,52.983747
Het Sticht,12,,,9405NP,Assen,Assen,Drenthe,VBO,6.534098,52.983657
Het Sticht,14,,,9405NP,Assen,Assen,Drenthe,VBO,6.534067,52.983595
Het Sticht,16,,,9405NP,Assen,Assen,Drenthe,VBO,6.534195,52.983935
Het Sticht,18,,,9405NP,Assen,Assen,Drenthe,VBO,6.534148,52.983855
Het Sticht,20,,,9405NP,Assen,Assen,Drenthe,VBO,6.534086,52.983756
Het Sticht,22,,,9405NP,Assen,Assen,Drenthe,VBO,6.534083,52.983657
Het Sticht,24,,,9405NP,Assen,Assen,Drenthe,VBO,6.534037,52.983595
Het Sticht,26,,,9405NP,Assen,Assen,Drenthe,VBO,6.534180,52.983944
Het Sticht,28,,,9405NP,Assen,Assen,Drenthe,VBO,6.534118,52.983864
Het Sticht,30,A,,9405NP,Assen,Assen,Drenthe,VBO,6.533980,52.983694
Het Sticht,30,C,,9405NP,Assen,Assen,Drenthe,VBO,6.533879,52.983839
Het Sticht,30,D,,9405NP,Assen,Assen,Drenthe,VBO,6.533788,52.983741
Het Sticht,30,,,9405NP,Assen,Assen,Drenthe,VBO,6.534056,52.983757
Het Sticht,32,,,9405NP,Assen,Assen,Drenthe,VBO,6.534176,52.983809
Het Sticht,34,,,9405NP,Assen,Assen,Drenthe,VBO,6.534024,52.983767
Het Sticht,36,,,9405NP,Assen,Assen,Drenthe,VBO,6.534097,52.983630
Het Sticht,40,,,9405NP,Assen,Assen,Drenthe,VBO,6.534001,52.983362
Het Sticht,42,,,9405NP,Assen,Assen,Drenthe,VBO,6.533927,52.983380
Het Sticht,44,,,9405NP,Assen,Assen,Drenthe,VBO,6.533837,52.983372
Het Sticht,46,,,9405NP,Assen,Assen,Drenthe,VBO,6.533763,52.983391
Het Sticht,48,,,9405NP,Assen,Assen,Drenthe,VBO,6.533689,52.983410
Het Sticht,50,,,9405NP,Assen,Assen,Drenthe,VBO,6.533615,52.983428
Het Sticht,52,,,9405NR,Assen,Assen,Drenthe,VBO,6.533511,52.983411
Het Sticht,54,,,9405NR,Assen,Assen,Drenthe,VBO,6.533437,52.983430
Het Sticht,56,,,9405NR,Assen,Assen,Drenthe,VBO,6.533112,52.983541
Het Sticht,58,,,9405NR,Assen,Assen,Drenthe,VBO,6.533143,52.983586
Het Sticht,60,,,9405NR,Assen,Assen,Drenthe,VBO,6.533174,52.983630
Het Sticht,62,,,9405NR,Assen,Assen,Drenthe,VBO,6.533205,52.983675
Het Sticht,64,,,9405NR,Assen,Assen,Drenthe,VBO,6.533177,52.983738
Het Sticht,66,,,9405NR,Assen,Assen,Drenthe,VBO,6.533208,52.983783
Het Sticht,68,,,9405NR,Assen,Assen,Drenthe,VBO,6.533268,52.983818
Het Sticht,70,,,9405NR,Assen,Assen,Drenthe,VBO,6.533299,52.983863
Het Sticht,72,,,9405NR,Assen,Assen,Drenthe,VBO,6.533309,52.983099
Het Sticht,74,,,9405NR,Assen,Assen,Drenthe,VBO,6.533340,52.983143
Het Sticht,76,,,9405NR,Assen,Assen,Drenthe,VBO,6.533371,52.983188
Het Sticht,78,,,9405NR,Assen,Assen,Drenthe,VBO,6.533402,52.983233
Het Sticht,80,,,9405NR,Assen,Assen,Drenthe,VBO,6.533462,52.983268
Het Sticht,82,,,9405NR,Assen,Assen,Drenthe,VBO,6.533493,52.983313
Het Sticht,84,,,9405NR,Assen,Assen,Drenthe,VBO,6.533745,52.983274
Het Sticht,86,,,9405NR,Assen,Assen,Drenthe,VBO,6.533819,52.983256
Het Sticht,88,,,9405NR,Assen,Assen,Drenthe,VBO,6.533893,52.983237
Het Sticht,90,,,9405NR,Assen,Assen,Drenthe,VBO,6.533967,52.983218
Het Sticht,92,,,9405NR,Assen,Assen,Drenthe,VBO,6.534026,52.983182
Het Sticht,94,,,9405NR,Assen,Assen,Drenthe,VBO,6.534022,52.983047
Het Sticht,96,,,9405NR,Assen,Assen,Drenthe,VBO,6.533991,52.983002
Het Sticht,3,,,9405NS,Assen,Assen,Drenthe,VBO,6.534605,52.983670
Het Sticht,5,,,9405NS,Assen,Assen,Drenthe,VBO,6.534402,52.983888
Het Sticht,7,,,9405NS,Assen,Assen,Drenthe,VBO,6.534356,52.983826
Het Sticht,13,,,9405NS,Assen,Assen,Drenthe,VBO,6.534370,52.983790
Het Sticht,15,,,9405NS,Assen,Assen,Drenthe,VBO,6.534416,52.983870
Het Sticht,17,,,9405NS,Assen,Assen,Drenthe,VBO,6.534535,52.983860
Het Sticht,19,,,9405NS,Assen,Assen,Drenthe,VBO,6.534683,52.983822
Het Sticht,21,,,9405NS,Assen,Assen,Drenthe,VBO,6.534891,52.983785
Het Sticht,23,,,9405NS,Assen,Assen,Drenthe,VBO,6.534875,52.983749
Het Sticht,25,,,9405NS,Assen,Assen,Drenthe,VBO,6.534888,52.983686
Het Sticht,27,,,9405NS,Assen,Assen,Drenthe,VBO,6.534857,52.983650
Het Sticht,29,,,9405NS,Assen,Assen,Drenthe,VBO,6.534694,52.983670
Het Sticht,31,,,9405NS,Assen,Assen,Drenthe,VBO,6.534561,52.983698
Het Sticht,33,,,9405NS,Assen,Assen,Drenthe,VBO,6.534551,52.983878
Het Sticht,35,,,9405NS,Assen,Assen,Drenthe,VBO,6.534699,52.983840
Het Sticht,37,,,9405NS,Assen,Assen,Drenthe,VBO,6.534437,52.983519
Het Sticht,39,,,9405NS,Assen,Assen,Drenthe,VBO,6.534496,52.983501
Het Sticht,41,,,9405NS,Assen,Assen,Drenthe,VBO,6.534583,52.983419
Het Sticht,43,,,9405NS,Assen,Assen,Drenthe,VBO,6.534599,52.983437
Het Sticht,45,,,9405NS,Assen,Assen,Drenthe,VBO,6.534657,52.983391
Het Sticht,47,,,9405NS,Assen,Assen,Drenthe,VBO,6.534731,52.983373
Het Sticht,49,,,9405NS,Assen,Assen,Drenthe,VBO,6.534790,52.983363
Het Sticht,51,,,9405NT,Assen,Assen,Drenthe,VBO,6.534879,52.983362
Het Sticht,53,,,9405NT,Assen,Assen,Drenthe,VBO,6.534968,52.983334
Het Sticht,55,,,9405NT,Assen,Assen,Drenthe,VBO,6.535042,52.983316
Het Sticht,57,,,9405NT,Assen,Assen,Drenthe,VBO,6.535131,52.983297
Het Sticht,59,,,9405NT,Assen,Assen,Drenthe,VBO,6.534935,52.983218
Het Sticht,61,,,9405NT,Assen,Assen,Drenthe,VBO,6.534846,52.983237
Het Sticht,63,,,9405NT,Assen,Assen,Drenthe,VBO,6.534757,52.983229
Het Sticht,65,,,9405NT,Assen,Assen,Drenthe,VBO,6.534683,52.983247
Het Sticht,67,,,9405NT,Assen,Assen,Drenthe,VBO,6.534624,52.983284
Het Sticht,69,,,9405NT,Assen,Assen,Drenthe,VBO,6.534550,52.983302
Het Sticht,71,,,9405NT,Assen,Assen,Drenthe,VBO,6.534476,52.983321
Het Sticht,73,,,9405NT,Assen,Assen,Drenthe,VBO,6.534373,52.983340
Het Sticht,75,,,9405NT,Assen,Assen,Drenthe,VBO,6.534388,52.983367
Het Sticht,77,,,9405NT,Assen,Assen,Drenthe,VBO,6.534300,52.983395
Het Sticht,79,,,9405NT,Assen,Assen,Drenthe,VBO,6.534284,52.983359
Het Sticht,81,,,9405NT,Assen,Assen,Drenthe,VBO,6.534240,52.983386
Het Sticht,83,,,9405NT,Assen,Assen,Drenthe,VBO,6.534193,52.983324
Het Sticht,85,,,9405NT,Assen,Assen,Drenthe,VBO,6.534163,52.983279
Het Sticht,87,,,9405NT,Assen,Assen,Drenthe,VBO,6.534265,52.983197
Het Sticht,89,,,9405NT,Assen,Assen,Drenthe,VBO,6.534234,52.983153
Het Sticht,91,,,9405NT,Assen,Assen,Drenthe,VBO,6.534262,52.983090
Het Sticht,93,,,9405NT,Assen,Assen,Drenthe,VBO,6.534246,52.983054
Planetenlaan,1,,,9405PA,Assen,Assen,Drenthe,VBO,6.513398,52.993371
Planetenlaan,3,,,9405PA,Assen,Assen,Drenthe,VBO,6.513502,52.993361
Planetenlaan,5,,,9405PA,Assen,Assen,Drenthe,VBO,6.513739,52.993332
Planetenlaan,7,,,9405PA,Assen,Assen,Drenthe,VBO,6.513828,52.993322
Planetenlaan,9,,,9405PA,Assen,Assen,Drenthe,VBO,6.514051,52.993311
Planetenlaan,11,,,9405PA,Assen,Assen,Drenthe,VBO,6.514141,52.993310
Planetenlaan,13,,,9405PA,Assen,Assen,Drenthe,VBO,6.514364,52.993308
Planetenlaan,15,,,9405PA,Assen,Assen,Drenthe,VBO,6.514454,52.993316
Planetenlaan,17,,,9405PA,Assen,Assen,Drenthe,VBO,6.514722,52.993332
Planetenlaan,19,,,9405PA,Assen,Assen,Drenthe,VBO,6.514812,52.993340
Planetenlaan,21,A,,9405PA,Assen,Assen,Drenthe,VBO,6.515056,52.993571
Planetenlaan,21,,,9405PA,Assen,Assen,Drenthe,VBO,6.515141,52.993391
Planetenlaan,23,,,9405PA,Assen,Assen,Drenthe,VBO,6.515231,52.993408
Planetenlaan,25,,,9405PA,Assen,Assen,Drenthe,VBO,6.515470,52.993460
Planetenlaan,27,,,9405PA,Assen,Assen,Drenthe,VBO,6.515545,52.993477
Planetenlaan,29,,,9405PA,Assen,Assen,Drenthe,VBO,6.515770,52.993547
Planetenlaan,31,,,9405PA,Assen,Assen,Drenthe,VBO,6.515845,52.993573
Planetenlaan,33,,,9405PA,Assen,Assen,Drenthe,VBO,6.516147,52.993696
Planetenlaan,35,,,9405PA,Assen,Assen,Drenthe,VBO,6.516222,52.993722
Planetenlaan,37,,,9405PA,Assen,Assen,Drenthe,VBO,6.516297,52.993766
Planetenlaan,39,,,9405PA,Assen,Assen,Drenthe,VBO,6.516358,52.993802
Planetenlaan,41,,,9405PA,Assen,Assen,Drenthe,VBO,6.516404,52.993846
Planetenlaan,43,,,9405PA,Assen,Assen,Drenthe,VBO,6.516513,52.994025
Planetenlaan,45,,,9405PA,Assen,Assen,Drenthe,VBO,6.516514,52.994079
Planetenlaan,47,,,9405PA,Assen,Assen,Drenthe,VBO,6.516486,52.994133
Planetenlaan,49,,,9405PA,Assen,Assen,Drenthe,VBO,6.516472,52.994187
Planetenlaan,51,,,9405PA,Assen,Assen,Drenthe,VBO,6.516444,52.994241
Planetenlaan,53,,,9405PA,Assen,Assen,Drenthe,VBO,6.516415,52.994287
Planetenlaan,55,,,9405PA,Assen,Assen,Drenthe,VBO,6.516386,52.994332
Planetenlaan,57,,,9405PA,Assen,Assen,Drenthe,VBO,6.516328,52.994377
Planetenlaan,59,,,9405PA,Assen,Assen,Drenthe,VBO,6.516269,52.994414
Planetenlaan,61,,,9405PA,Assen,Assen,Drenthe,VBO,6.516211,52.994450
Planetenlaan,63,,,9405PA,Assen,Assen,Drenthe,VBO,6.516137,52.994487
Planetenlaan,65,,,9405PA,Assen,Assen,Drenthe,VBO,6.516064,52.994515
Planetenlaan,67,,,9405PA,Assen,Assen,Drenthe,VBO,6.515990,52.994533
Planetenlaan,69,,,9405PA,Assen,Assen,Drenthe,VBO,6.515901,52.994552
Planetenlaan,71,,,9405PA,Assen,Assen,Drenthe,VBO,6.515812,52.994562
Planetenlaan,73,,,9405PB,Assen,Assen,Drenthe,VBO,6.515417,52.994287
Planetenlaan,75,,,9405PB,Assen,Assen,Drenthe,VBO,6.515389,52.994332
Planetenlaan,77,,,9405PB,Assen,Assen,Drenthe,VBO,6.515375,52.994377
Planetenlaan,79,,,9405PB,Assen,Assen,Drenthe,VBO,6.515361,52.994431
Planetenlaan,81,,,9405PB,Assen,Assen,Drenthe,VBO,6.515348,52.994476
Planetenlaan,83,,,9405PB,Assen,Assen,Drenthe,VBO,6.515334,52.994521
Planetenlaan,85,,,9405PB,Assen,Assen,Drenthe,VBO,6.515320,52.994575
Planetenlaan,87,,,9405PB,Assen,Assen,Drenthe,VBO,6.514768,52.994536
Planetenlaan,89,,,9405PB,Assen,Assen,Drenthe,VBO,6.514797,52.994491
Planetenlaan,91,,,9405PB,Assen,Assen,Drenthe,VBO,6.514825,52.994445
Planetenlaan,93,,,9405PB,Assen,Assen,Drenthe,VBO,6.514854,52.994400
Planetenlaan,95,,,9405PB,Assen,Assen,Drenthe,VBO,6.514883,52.994355
Planetenlaan,97,,,9405PB,Assen,Assen,Drenthe,VBO,6.514911,52.994301
Planetenlaan,99,,,9405PB,Assen,Assen,Drenthe,VBO,6.514925,52.994265
Planetenlaan,101,,,9405PB,Assen,Assen,Drenthe,VBO,6.514954,52.994219
Planetenlaan,103,,,9405PB,Assen,Assen,Drenthe,VBO,6.514610,52.994178
Planetenlaan,105,,,9405PB,Assen,Assen,Drenthe,VBO,6.514597,52.994232
Planetenlaan,107,,,9405PB,Assen,Assen,Drenthe,VBO,6.514583,52.994277
Planetenlaan,109,,,9405PB,Assen,Assen,Drenthe,VBO,6.514569,52.994331
Planetenlaan,111,,,9405PB,Assen,Assen,Drenthe,VBO,6.514570,52.994376
Planetenlaan,113,,,9405PB,Assen,Assen,Drenthe,VBO,6.514557,52.994421
Planetenlaan,115,,,9405PB,Assen,Assen,Drenthe,VBO,6.514543,52.994475
Planetenlaan,117,,,9405PB,Assen,Assen,Drenthe,VBO,6.514529,52.994520
Planetenlaan,119,,,9405PB,Assen,Assen,Drenthe,VBO,6.513886,52.994391
Planetenlaan,121,,,9405PB,Assen,Assen,Drenthe,VBO,6.513915,52.994355
Planetenlaan,123,,,9405PB,Assen,Assen,Drenthe,VBO,6.513943,52.994310
Planetenlaan,125,,,9405PB,Assen,Assen,Drenthe,VBO,6.513987,52.994264
Planetenlaan,127,,,9405PB,Assen,Assen,Drenthe,VBO,6.514015,52.994219
Planetenlaan,129,,,9405PB,Assen,Assen,Drenthe,VBO,6.514044,52.994174
Planetenlaan,131,,,9405PB,Assen,Assen,Drenthe,VBO,6.514073,52.994129
Planetenlaan,133,,,9405PB,Assen,Assen,Drenthe,VBO,6.514101,52.994084
Planetenlaan,135,,,9405PB,Assen,Assen,Drenthe,VBO,6.513757,52.994015
Planetenlaan,137,,,9405PB,Assen,Assen,Drenthe,VBO,6.513743,52.994060
Planetenlaan,139,,,9405PB,Assen,Assen,Drenthe,VBO,6.513730,52.994114
Planetenlaan,141,,,9405PB,Assen,Assen,Drenthe,VBO,6.513716,52.994159
Planetenlaan,143,,,9405PB,Assen,Assen,Drenthe,VBO,6.513702,52.994213
Planetenlaan,145,,,9405PB,Assen,Assen,Drenthe,VBO,6.513704,52.994258
Planetenlaan,147,,,9405PB,Assen,Assen,Drenthe,VBO,6.513690,52.994303
Planetenlaan,149,,,9405PB,Assen,Assen,Drenthe,VBO,6.513058,52.994058
Planetenlaan,151,,,9405PB,Assen,Assen,Drenthe,VBO,6.513116,52.994021
Planetenlaan,153,,,9405PB,Assen,Assen,Drenthe,VBO,6.513160,52.993985
Planetenlaan,155,,,9405PB,Assen,Assen,Drenthe,VBO,6.513219,52.993948
Planetenlaan,157,,,9405PB,Assen,Assen,Drenthe,VBO,6.512905,52.993897
Planetenlaan,2,,,9405PC,Assen,Assen,Drenthe,VBO,6.512596,52.993487
Planetenlaan,4,,,9405PC,Assen,Assen,Drenthe,VBO,6.512522,52.993514
Planetenlaan,6,,,9405PC,Assen,Assen,Drenthe,VBO,6.512565,52.993424
Planetenlaan,8,,,9405PC,Assen,Assen,Drenthe,VBO,6.512492,52.993506
Planetenlaan,10,,,9405PC,Assen,Assen,Drenthe,VBO,6.512520,52.993416
Planetenlaan,12,,,9405PC,Assen,Assen,Drenthe,VBO,6.512462,52.993497
Planetenlaan,14,,,9405PC,Assen,Assen,Drenthe,VBO,6.512490,52.993416
Planetenlaan,16,,,9405PC,Assen,Assen,Drenthe,VBO,6.512595,52.993451
Planetenlaan,20,,,9405PC,Assen,Assen,Drenthe,VBO,6.512786,52.993332
Planetenlaan,22,,,9405PC,Assen,Assen,Drenthe,VBO,6.512845,52.993296
Planetenlaan,24,,,9405PC,Assen,Assen,Drenthe,VBO,6.513124,52.993158
Planetenlaan,26,,,9405PC,Assen,Assen,Drenthe,VBO,6.513198,52.993149
Planetenlaan,28,,,9405PC,Assen,Assen,Drenthe,VBO,6.513272,52.993139
Planetenlaan,30,,,9405PC,Assen,Assen,Drenthe,VBO,6.513361,52.993120
Planetenlaan,32,,,9405PC,Assen,Assen,Drenthe,VBO,6.513435,52.993110
Planetenlaan,34,,,9405PC,Assen,Assen,Drenthe,VBO,6.513510,52.993101
Planetenlaan,36,,,9405PC,Assen,Assen,Drenthe,VBO,6.513599,52.993091
Planetenlaan,38,,,9405PC,Assen,Assen,Drenthe,VBO,6.513673,52.993081
Planetenlaan,40,,,9405PC,Assen,Assen,Drenthe,VBO,6.513747,52.993080
Planetenlaan,42,,,9405PC,Assen,Assen,Drenthe,VBO,6.513837,52.993071
Planetenlaan,44,,,9405PC,Assen,Assen,Drenthe,VBO,6.513911,52.993061
Planetenlaan,46,,,9405PC,Assen,Assen,Drenthe,VBO,6.514238,52.993058
Planetenlaan,48,,,9405PC,Assen,Assen,Drenthe,VBO,6.514313,52.993057
Planetenlaan,50,,,9405PC,Assen,Assen,Drenthe,VBO,6.514402,52.993056
Planetenlaan,52,,,9405PC,Assen,Assen,Drenthe,VBO,6.514477,52.993056
Planetenlaan,54,,,9405PC,Assen,Assen,Drenthe,VBO,6.514566,52.993064
Planetenlaan,56,,,9405PC,Assen,Assen,Drenthe,VBO,6.514641,52.993072
Planetenlaan,58,,,9405PC,Assen,Assen,Drenthe,VBO,6.514716,52.993080
Planetenlaan,60,,,9405PC,Assen,Assen,Drenthe,VBO,6.514790,52.993080
Planetenlaan,62,,,9405PC,Assen,Assen,Drenthe,VBO,6.514880,52.993088
Planetenlaan,64,,,9405PC,Assen,Assen,Drenthe,VBO,6.515179,52.993130
Planetenlaan,66,,,9405PC,Assen,Assen,Drenthe,VBO,6.515268,52.993147
Planetenlaan,68,,,9405PC,Assen,Assen,Drenthe,VBO,6.515343,52.993164
Planetenlaan,70,,,9405PC,Assen,Assen,Drenthe,VBO,6.515418,52.993173
Planetenlaan,72,,,9405PC,Assen,Assen,Drenthe,VBO,6.515493,52.993190
Planetenlaan,74,,,9405PC,Assen,Assen,Drenthe,VBO,6.515568,52.993207
Planetenlaan,76,,,9405PC,Assen,Assen,Drenthe,VBO,6.515643,52.993224
Planetenlaan,78,,,9405PC,Assen,Assen,Drenthe,VBO,6.515718,52.993251
Planetenlaan,80,,,9405PC,Assen,Assen,Drenthe,VBO,6.515793,52.993268
Planetenlaan,82,,,9405PC,Assen,Assen,Drenthe,VBO,6.515853,52.993285
Planetenlaan,84,,,9405PC,Assen,Assen,Drenthe,VBO,6.515928,52.993312
Planetenlaan,86,,,9405PC,Assen,Assen,Drenthe,VBO,6.516003,52.993338
Planetenlaan,88,,,9405PC,Assen,Assen,Drenthe,VBO,6.516063,52.993364
Planetenlaan,90,,,9405PC,Assen,Assen,Drenthe,VBO,6.516138,52.993381
Planetenlaan,92,,,9405PD,Assen,Assen,Drenthe,VBO,6.516410,52.993514
Planetenlaan,94,,,9405PD,Assen,Assen,Drenthe,VBO,6.516485,52.993549
Planetenlaan,96,,,9405PD,Assen,Assen,Drenthe,VBO,6.516652,52.993646
Planetenlaan,98,,,9405PD,Assen,Assen,Drenthe,VBO,6.516698,52.993691
Planetenlaan,100,,,9405PD,Assen,Assen,Drenthe,VBO,6.516883,52.993941
Planetenlaan,102,,,9405PD,Assen,Assen,Drenthe,VBO,6.516899,52.993994
Planetenlaan,104,,,9405PD,Assen,Assen,Drenthe,VBO,6.516872,52.994111
Planetenlaan,106,,,9405PD,Assen,Assen,Drenthe,VBO,6.516874,52.994165
Planetenlaan,108,,,9405PD,Assen,Assen,Drenthe,VBO,6.516832,52.994283
Planetenlaan,110,,,9405PD,Assen,Assen,Drenthe,VBO,6.516804,52.994337
Planetenlaan,112,,,9405PD,Assen,Assen,Drenthe,VBO,6.516732,52.994445
Planetenlaan,114,,,9405PD,Assen,Assen,Drenthe,VBO,6.516688,52.994482
Planetenlaan,116,,,9405PD,Assen,Assen,Drenthe,VBO,6.516454,52.994637
Planetenlaan,118,,,9405PD,Assen,Assen,Drenthe,VBO,6.516395,52.994673
Planetenlaan,120,,,9405PD,Assen,Assen,Drenthe,VBO,6.516233,52.994729
Planetenlaan,122,,,9405PD,Assen,Assen,Drenthe,VBO,6.516144,52.994747
Planetenlaan,124,,,9405PD,Assen,Assen,Drenthe,VBO,6.515832,52.994795
Planetenlaan,126,,,9405PD,Assen,Assen,Drenthe,VBO,6.515758,52.994805
Planetenlaan,128,,,9405PD,Assen,Assen,Drenthe,VBO,6.515177,52.994810
Planetenlaan,130,,,9405PD,Assen,Assen,Drenthe,VBO,6.515088,52.994811
Planetenlaan,132,,,9405PD,Assen,Assen,Drenthe,VBO,6.514879,52.994804
Planetenlaan,134,,,9405PD,Assen,Assen,Drenthe,VBO,6.514790,52.994796
Planetenlaan,136,,,9405PD,Assen,Assen,Drenthe,VBO,6.514446,52.994754
Planetenlaan,138,,,9405PD,Assen,Assen,Drenthe,VBO,6.514372,52.994746
Planetenlaan,140,,,9405PD,Assen,Assen,Drenthe,VBO,6.514162,52.994712
Planetenlaan,142,,,9405PD,Assen,Assen,Drenthe,VBO,6.514087,52.994695
Planetenlaan,144,,,9405PD,Assen,Assen,Drenthe,VBO,6.513892,52.994652
Planetenlaan,146,,,9405PD,Assen,Assen,Drenthe,VBO,6.513818,52.994635
Planetenlaan,148,,,9405PD,Assen,Assen,Drenthe,VBO,6.513427,52.994512
Planetenlaan,150,,,9405PD,Assen,Assen,Drenthe,VBO,6.513367,52.994486
Planetenlaan,152,,,9405PD,Assen,Assen,Drenthe,VBO,6.513171,52.994416
Planetenlaan,154,,,9405PD,Assen,Assen,Drenthe,VBO,6.513111,52.994381
Planetenlaan,156,,,9405PD,Assen,Assen,Drenthe,VBO,6.512930,52.994301
Planetenlaan,158,,,9405PD,Assen,Assen,Drenthe,VBO,6.512870,52.994266
Planetenlaan,160,,,9405PD,Assen,Assen,Drenthe,VBO,6.512626,52.994071
Planetenlaan,162,,,9405PD,Assen,Assen,Drenthe,VBO,6.512595,52.994026
Planetenlaan,164,,,9405PD,Assen,Assen,Drenthe,VBO,6.512485,52.993793
Planetenlaan,166,,,9405PD,Assen,Assen,Drenthe,VBO,6.512439,52.993749
Planetenlaan,168,,,9405PD,Assen,Assen,Drenthe,VBO,6.512412,52.993839
Planetenlaan,170,,,9405PD,Assen,Assen,Drenthe,VBO,6.512409,52.993740
Planetenlaan,172,,,9405PD,Assen,Assen,Drenthe,VBO,6.512382,52.993830
Planetenlaan,174,,,9405PD,Assen,Assen,Drenthe,VBO,6.512364,52.993741
Planetenlaan,176,,,9405PD,Assen,Assen,Drenthe,VBO,6.512337,52.993822
Planetenlaan,178,,,9405PD,Assen,Assen,Drenthe,VBO,6.512456,52.993830
Plutostraat,1,,,9405PE,Assen,Assen,Drenthe,VBO,6.513205,52.992852
Plutostraat,3,,,9405PE,Assen,Assen,Drenthe,VBO,6.513219,52.992807
Plutostraat,5,,,9405PE,Assen,Assen,Drenthe,VBO,6.513233,52.992762
Plutostraat,7,,,9405PE,Assen,Assen,Drenthe,VBO,6.513246,52.992708
Plutostraat,9,,,9405PE,Assen,Assen,Drenthe,VBO,6.513275,52.992663
Plutostraat,11,,,9405PE,Assen,Assen,Drenthe,VBO,6.513289,52.992617
Plutostraat,13,,,9405PE,Assen,Assen,Drenthe,VBO,6.513330,52.992500
Plutostraat,15,,,9405PE,Assen,Assen,Drenthe,VBO,6.513344,52.992455
Plutostraat,17,,,9405PE,Assen,Assen,Drenthe,VBO,6.513358,52.992410
Plutostraat,19,,,9405PE,Assen,Assen,Drenthe,VBO,6.513371,52.992356
Plutostraat,21,,,9405PE,Assen,Assen,Drenthe,VBO,6.513999,52.992440
Plutostraat,23,,,9405PE,Assen,Assen,Drenthe,VBO,6.513985,52.992485
Plutostraat,25,,,9405PE,Assen,Assen,Drenthe,VBO,6.513972,52.992539
Plutostraat,27,,,9405PE,Assen,Assen,Drenthe,VBO,6.513958,52.992584
Plutostraat,29,,,9405PE,Assen,Assen,Drenthe,VBO,6.513916,52.992692
Plutostraat,31,,,9405PE,Assen,Assen,Drenthe,VBO,6.513902,52.992738
Plutostraat,33,,,9405PE,Assen,Assen,Drenthe,VBO,6.513874,52.992792
Plutostraat,35,,,9405PE,Assen,Assen,Drenthe,VBO,6.513860,52.992837
Plutostraat,2,,,9405PG,Assen,Assen,Drenthe,VBO,6.512720,52.993090
Plutostraat,4,,,9405PG,Assen,Assen,Drenthe,VBO,6.512776,52.992946
Plutostraat,6,,,9405PG,Assen,Assen,Drenthe,VBO,6.512817,52.992820
Plutostraat,8,,,9405PG,Assen,Assen,Drenthe,VBO,6.512859,52.992702
Plutostraat,10,,,9405PG,Assen,Assen,Drenthe,VBO,6.512915,52.992567
Plutostraat,12,,,9405PG,Assen,Assen,Drenthe,VBO,6.512956,52.992423
Plutostraat,14,,,9405PG,Assen,Assen,Drenthe,VBO,6.512998,52.992306
Plutostraat,16,,,9405PG,Assen,Assen,Drenthe,VBO,6.513366,52.992158
Plutostraat,18,,,9405PG,Assen,Assen,Drenthe,VBO,6.513560,52.992184
Plutostraat,20,,,9405PG,Assen,Assen,Drenthe,VBO,6.513784,52.992208
Plutostraat,22,,,9405PG,Assen,Assen,Drenthe,VBO,6.513994,52.992242
Plutostraat,24,,,9405PG,Assen,Assen,Drenthe,VBO,6.514515,52.992228
Plutostraat,26,,,9405PG,Assen,Assen,Drenthe,VBO,6.514473,52.992355
Plutostraat,28,,,9405PG,Assen,Assen,Drenthe,VBO,6.514460,52.992400
Plutostraat,30,,,9405PG,Assen,Assen,Drenthe,VBO,6.514388,52.992526
Plutostraat,32,,,9405PG,Assen,Assen,Drenthe,VBO,6.514360,52.992571
Plutostraat,34,,,9405PG,Assen,Assen,Drenthe,VBO,6.514318,52.992698
Plutostraat,36,,,9405PG,Assen,Assen,Drenthe,VBO,6.514305,52.992752
Marsstraat,1,,,9405PH,Assen,Assen,Drenthe,VBO,6.515293,52.992940
Marsstraat,3,,,9405PH,Assen,Assen,Drenthe,VBO,6.515306,52.992886
Marsstraat,5,,,9405PH,Assen,Assen,Drenthe,VBO,6.515320,52.992841
Marsstraat,7,,,9405PH,Assen,Assen,Drenthe,VBO,6.515349,52.992796
Marsstraat,9,,,9405PH,Assen,Assen,Drenthe,VBO,6.515433,52.992588
Marsstraat,11,,,9405PH,Assen,Assen,Drenthe,VBO,6.515522,52.992596
Marsstraat,13,,,9405PH,Assen,Assen,Drenthe,VBO,6.515732,52.992630
Marsstraat,15,,,9405PH,Assen,Assen,Drenthe,VBO,6.515821,52.992639
Marsstraat,17,,,9405PH,Assen,Assen,Drenthe,VBO,6.515896,52.992647
Marsstraat,19,,,9405PH,Assen,Assen,Drenthe,VBO,6.515971,52.992655
Marsstraat,21,,,9405PH,Assen,Assen,Drenthe,VBO,6.516060,52.992672
Marsstraat,23,,,9405PH,Assen,Assen,Drenthe,VBO,6.516242,52.992769
Marsstraat,25,,,9405PH,Assen,Assen,Drenthe,VBO,6.516273,52.992814
Marsstraat,27,,,9405PH,Assen,Assen,Drenthe,VBO,6.516304,52.992859
Marsstraat,29,,,9405PH,Assen,Assen,Drenthe,VBO,6.516335,52.992903
Marsstraat,31,,,9405PH,Assen,Assen,Drenthe,VBO,6.516365,52.992948
Marsstraat,33,,,9405PH,Assen,Assen,Drenthe,VBO,6.516396,52.992993
Marsstraat,35,,,9405PH,Assen,Assen,Drenthe,VBO,6.516427,52.993037
Marsstraat,37,,,9405PH,Assen,Assen,Drenthe,VBO,6.516458,52.993082
Marsstraat,2,,,9405PJ,Assen,Assen,Drenthe,VBO,6.514918,52.992836
Marsstraat,4,,,9405PJ,Assen,Assen,Drenthe,VBO,6.514931,52.992782
Marsstraat,6,,,9405PJ,Assen,Assen,Drenthe,VBO,6.514973,52.992656
Marsstraat,8,,,9405PJ,Assen,Assen,Drenthe,VBO,6.514986,52.992610
Marsstraat,10,,,9405PJ,Assen,Assen,Drenthe,VBO,6.514998,52.992476
Marsstraat,12,,,9405PJ,Assen,Assen,Drenthe,VBO,6.515026,52.992421
Marsstraat,14,,,9405PJ,Assen,Assen,Drenthe,VBO,6.515068,52.992304
Marsstraat,16,,,9405PJ,Assen,Assen,Drenthe,VBO,6.515562,52.992416
Marsstraat,18,,,9405PJ,Assen,Assen,Drenthe,VBO,6.515772,52.992450
Marsstraat,20,,,9405PJ,Assen,Assen,Drenthe,VBO,6.515996,52.992475
Uranusstraat,1,,,9405PK,Assen,Assen,Drenthe,VBO,6.512290,52.994298
Uranusstraat,2,,,9405PK,Assen,Assen,Drenthe,VBO,6.512505,52.994575
Uranusstraat,3,,,9405PK,Assen,Assen,Drenthe,VBO,6.512203,52.994425
Uranusstraat,4,,,9405PK,Assen,Assen,Drenthe,VBO,6.512595,52.994592
Uranusstraat,5,,,9405PK,Assen,Assen,Drenthe,VBO,6.512148,52.994569
Uranusstraat,6,,,9405PK,Assen,Assen,Drenthe,VBO,6.512670,52.994600
Uranusstraat,7,,,9405PK,Assen,Assen,Drenthe,VBO,6.512106,52.994687
Uranusstraat,8,,,9405PK,Assen,Assen,Drenthe,VBO,6.512744,52.994609
Uranusstraat,9,,,9405PK,Assen,Assen,Drenthe,VBO,6.512050,52.994813
Uranusstraat,10,,,9405PK,Assen,Assen,Drenthe,VBO,6.512819,52.994617
Uranusstraat,11,A,,9405PK,Assen,Assen,Drenthe,VBO,6.511774,52.995085
Uranusstraat,11,,,9405PK,Assen,Assen,Drenthe,VBO,6.512008,52.994948
Uranusstraat,15,,,9405PK,Assen,Assen,Drenthe,VBO,6.512340,52.995080
Uranusstraat,17,,,9405PK,Assen,Assen,Drenthe,VBO,6.512495,52.994764
Uranusstraat,19,,,9405PK,Assen,Assen,Drenthe,VBO,6.512600,52.994772
Uranusstraat,21,,,9405PK,Assen,Assen,Drenthe,VBO,6.512824,52.994806
Uranusstraat,23,,,9405PK,Assen,Assen,Drenthe,VBO,6.512929,52.994823
Uranusstraat,25,,,9405PK,Assen,Assen,Drenthe,VBO,6.513213,52.994856
Uranusstraat,27,,,9405PK,Assen,Assen,Drenthe,VBO,6.513302,52.994873
Uranusstraat,29,A,,9405PK,Assen,Assen,Drenthe,VBO,6.513741,52.994988
Uranusstraat,29,,,9405PK,Assen,Assen,Drenthe,VBO,6.513720,52.994887
Saturnusstraat,1,,,9405PL,Assen,Assen,Drenthe,VBO,6.514348,52.995007
Saturnusstraat,2,,,9405PL,Assen,Assen,Drenthe,VBO,6.514843,52.995128
Saturnusstraat,3,,,9405PL,Assen,Assen,Drenthe,VBO,6.514335,52.995052
Saturnusstraat,4,,,9405PL,Assen,Assen,Drenthe,VBO,6.514918,52.995136
Saturnusstraat,5,,,9405PL,Assen,Assen,Drenthe,VBO,6.514321,52.995097
Saturnusstraat,6,,,9405PL,Assen,Assen,Drenthe,VBO,6.514993,52.995145
Saturnusstraat,7,,,9405PL,Assen,Assen,Drenthe,VBO,6.514308,52.995151
Saturnusstraat,8,,,9405PL,Assen,Assen,Drenthe,VBO,6.515067,52.995153
Saturnusstraat,9,,,9405PL,Assen,Assen,Drenthe,VBO,6.514639,52.995310
Saturnusstraat,11,,,9405PL,Assen,Assen,Drenthe,VBO,6.514714,52.995327
Saturnusstraat,13,,,9405PL,Assen,Assen,Drenthe,VBO,6.514789,52.995335
Saturnusstraat,15,,,9405PL,Assen,Assen,Drenthe,VBO,6.514879,52.995344
Saturnusstraat,17,,,9405PL,Assen,Assen,Drenthe,VBO,6.514953,52.995352
Saturnusstraat,19,,,9405PL,Assen,Assen,Drenthe,VBO,6.515028,52.995360
Saturnusstraat,21,,,9405PL,Assen,Assen,Drenthe,VBO,6.515118,52.995377
Venuskade,1,,,9405PM,Assen,Assen,Drenthe,VBO,6.513147,52.993482
Venuskade,2,,,9405PM,Assen,Assen,Drenthe,VBO,6.513598,52.993648
Venuskade,3,,,9405PM,Assen,Assen,Drenthe,VBO,6.513105,52.993590
Venuskade,4,,,9405PM,Assen,Assen,Drenthe,VBO,6.513688,52.993665
Venuskade,5,,,9405PM,Assen,Assen,Drenthe,VBO,6.513270,52.993615
Venuskade,6,,,9405PM,Assen,Assen,Drenthe,VBO,6.513763,52.993673
Venuskade,8,,,9405PM,Assen,Assen,Drenthe,VBO,6.513838,52.993682
Venuskade,10,,,9405PM,Assen,Assen,Drenthe,VBO,6.513912,52.993690
Venuskade,12,,,9405PM,Assen,Assen,Drenthe,VBO,6.514002,52.993698
Venuskade,14,,,9405PM,Assen,Assen,Drenthe,VBO,6.514077,52.993715
Venuskade,16,,,9405PM,Assen,Assen,Drenthe,VBO,6.514151,52.993724
Venuskade,18,,,9405PM,Assen,Assen,Drenthe,VBO,6.514226,52.993732
Venuskade,20,,,9405PM,Assen,Assen,Drenthe,VBO,6.514316,52.993740
Venuskade,22,,,9405PM,Assen,Assen,Drenthe,VBO,6.514391,52.993757
Venuskade,24,,,9405PM,Assen,Assen,Drenthe,VBO,6.514480,52.993766
Venuskade,26,,,9405PM,Assen,Assen,Drenthe,VBO,6.514555,52.993774
Venuskade,28,,,9405PM,Assen,Assen,Drenthe,VBO,6.514630,52.993782
Venuskade,30,,,9405PM,Assen,Assen,Drenthe,VBO,6.514704,52.993799
Venuskade,32,,,9405PM,Assen,Assen,Drenthe,VBO,6.514899,52.993825
Venuskade,34,,,9405PM,Assen,Assen,Drenthe,VBO,6.514973,52.993833
Venuskade,36,,,9405PM,Assen,Assen,Drenthe,VBO,6.515048,52.993841
Venuskade,38,,,9405PM,Assen,Assen,Drenthe,VBO,6.515138,52.993849
Venuskade,40,,,9405PM,Assen,Assen,Drenthe,VBO,6.515212,52.993858
Venuskade,42,,,9405PM,Assen,Assen,Drenthe,VBO,6.515287,52.993875
Venuskade,44,,,9405PM,Assen,Assen,Drenthe,VBO,6.515377,52.993883
Venuskade,46,,,9405PM,Assen,Assen,Drenthe,VBO,6.515452,52.993891
Venuskade,48,,,9405PM,Assen,Assen,Drenthe,VBO,6.515526,52.993899
Jupiterstraat,1,,,9405PN,Assen,Assen,Drenthe,VBO,6.515855,52.995074
Jupiterstraat,3,,,9405PN,Assen,Assen,Drenthe,VBO,6.515841,52.995128
Jupiterstraat,5,,,9405PN,Assen,Assen,Drenthe,VBO,6.515785,52.995245
Jupiterstraat,7,,,9405PN,Assen,Assen,Drenthe,VBO,6.515771,52.995299
Jupiterstraat,9,,,9405PN,Assen,Assen,Drenthe,VBO,6.515878,52.995406
Jupiterstraat,11,,,9405PN,Assen,Assen,Drenthe,VBO,6.515953,52.995441
Jupiterstraat,13,,,9405PN,Assen,Assen,Drenthe,VBO,6.516133,52.995466
Jupiterstraat,15,,,9405PN,Assen,Assen,Drenthe,VBO,6.516238,52.995483
Jupiterstraat,17,,,9405PN,Assen,Assen,Drenthe,VBO,6.516432,52.995500
Jupiterstraat,19,,,9405PN,Assen,Assen,Drenthe,VBO,6.516521,52.995517
Jupiterstraat,21,,,9405PN,Assen,Assen,Drenthe,VBO,6.516702,52.995569
Jupiterstraat,23,,,9405PN,Assen,Assen,Drenthe,VBO,6.516806,52.995577
Jupiterstraat,25,,,9405PN,Assen,Assen,Drenthe,VBO,6.516985,52.995602
Jupiterstraat,27,,,9405PN,Assen,Assen,Drenthe,VBO,6.517074,52.995574
Jupiterstraat,29,,,9405PN,Assen,Assen,Drenthe,VBO,6.517131,52.995457
Jupiterstraat,31,,,9405PN,Assen,Assen,Drenthe,VBO,6.517144,52.995394
Jupiterstraat,33,,,9405PN,Assen,Assen,Drenthe,VBO,6.517155,52.995259
Jupiterstraat,35,,,9405PN,Assen,Assen,Drenthe,VBO,6.517169,52.995205
Jupiterstraat,37,,,9405PN,Assen,Assen,Drenthe,VBO,6.517210,52.995079
Jupiterstraat,39,,,9405PN,Assen,Assen,Drenthe,VBO,6.517224,52.995025
Jupiterstraat,41,,,9405PN,Assen,Assen,Drenthe,VBO,6.517293,52.994826
Jupiterstraat,43,,,9405PN,Assen,Assen,Drenthe,VBO,6.517232,52.994782
Jupiterstraat,45,,,9405PN,Assen,Assen,Drenthe,VBO,6.517081,52.994703
Jupiterstraat,47,,,9405PN,Assen,Assen,Drenthe,VBO,6.517006,52.994667
Jupiterstraat,2,,,9405PP,Assen,Assen,Drenthe,VBO,6.516240,52.994989
Jupiterstraat,4,,,9405PP,Assen,Assen,Drenthe,VBO,6.516226,52.995043
Jupiterstraat,6,,,9405PP,Assen,Assen,Drenthe,VBO,6.516158,52.995286
Jupiterstraat,8,,,9405PP,Assen,Assen,Drenthe,VBO,6.516248,52.995295
Jupiterstraat,10,,,9405PP,Assen,Assen,Drenthe,VBO,6.516442,52.995320
Jupiterstraat,12,,,9405PP,Assen,Assen,Drenthe,VBO,6.516725,52.995335
Jupiterstraat,14,,,9405PP,Assen,Assen,Drenthe,VBO,6.516814,52.995298
Jupiterstraat,16,,,9405PP,Assen,Assen,Drenthe,VBO,6.516883,52.995118
Jupiterstraat,18,,,9405PP,Assen,Assen,Drenthe,VBO,6.516912,52.995064
Jupiterstraat,20,,,9405PP,Assen,Assen,Drenthe,VBO,6.516862,52.994857
Jupiterstraat,22,,,9405PP,Assen,Assen,Drenthe,VBO,6.516786,52.994813
Transportweg,2,,,9405PR,Assen,Assen,Drenthe,VBO,6.520544,52.994993
Transportweg,4,A,,9405PR,Assen,Assen,Drenthe,VBO,6.520750,52.994308
Transportweg,4,B,,9405PR,Assen,Assen,Drenthe,VBO,6.520841,52.993813
Transportweg,4,,,9405PR,Assen,Assen,Drenthe,VBO,6.520791,52.994173
Transportweg,6,,,9405PR,Assen,Assen,Drenthe,VBO,6.521009,52.993398
Transportweg,8,A,,9405PR,Assen,Assen,Drenthe,VBO,6.519787,52.993365
Transportweg,8,B,,9405PR,Assen,Assen,Drenthe,VBO,6.519748,52.993337
Transportweg,8,,,9405PR,Assen,Assen,Drenthe,VBO,6.519832,52.993355
Transportweg,10,A,,9405PR,Assen,Assen,Drenthe,VBO,6.519308,52.993289
Transportweg,10,B,,9405PR,Assen,Assen,Drenthe,VBO,6.519280,52.993343
Transportweg,10,C,,9405PR,Assen,Assen,Drenthe,VBO,6.519219,52.993271
Transportweg,10,D,,9405PR,Assen,Assen,Drenthe,VBO,6.519187,52.993209
Transportweg,10,E,,9405PR,Assen,Assen,Drenthe,VBO,6.519190,52.993317
Transportweg,10,,,9405PR,Assen,Assen,Drenthe,VBO,6.519296,52.993397
Transportweg,12,,,9405PR,Assen,Assen,Drenthe,VBO,6.518771,52.993222
Transportweg,14,A,,9405PR,Assen,Assen,Drenthe,VBO,6.518248,52.993164
Transportweg,14,,,9405PR,Assen,Assen,Drenthe,VBO,6.518203,52.993164
Zoom,2,A,,9405PS,Assen,Assen,Drenthe,VBO,6.521863,52.992456
Zoom,2,,,9405PS,Assen,Assen,Drenthe,VBO,6.521613,52.992548
Zoom,3,,,9405PS,Assen,Assen,Drenthe,VBO,6.522350,52.992253
Zoom,6,A,,9405PS,Assen,Assen,Drenthe,VBO,6.520890,52.992258
Zoom,6,,,9405PS,Assen,Assen,Drenthe,VBO,6.521128,52.992247
Zoom,8,,,9405PS,Assen,Assen,Drenthe,VBO,6.520715,52.992403
Zoom,10,,,9405PS,Assen,Assen,Drenthe,VBO,6.520192,52.992319
Zoom,14,,,9405PS,Assen,Assen,Drenthe,VBO,6.519626,52.992342
Zoom,18,A,,9405PS,Assen,Assen,Drenthe,VBO,6.519051,52.991961
Zoom,18,B,,9405PS,Assen,Assen,Drenthe,VBO,6.518859,52.992035
Zoom,18,C,,9405PS,Assen,Assen,Drenthe,VBO,6.518948,52.992025
Zoom,18,D,,9405PS,Assen,Assen,Drenthe,VBO,6.518938,52.992214
Zoom,18,E,,9405PS,Assen,Assen,Drenthe,VBO,6.518909,52.992259
Zoom,18,F,,9405PS,Assen,Assen,Drenthe,VBO,6.518930,52.991926
Zoom,18,G,,9405PS,Assen,Assen,Drenthe,VBO,6.518995,52.992123
Zoom,18,,,9405PS,Assen,Assen,Drenthe,VBO,6.518667,52.992117
Zoom,20,A,,9405PS,Assen,Assen,Drenthe,VBO,6.518276,52.991941
Zoom,20,,,9405PS,Assen,Assen,Drenthe,VBO,6.518167,52.991781
Zoom,22,,,9405PS,Assen,Assen,Drenthe,VBO,6.517543,52.991831
Balkendwarsweg,1,A,,9405PT,Assen,Assen,Drenthe,VBO,6.519614,52.995299
Balkendwarsweg,1,,,9405PT,Assen,Assen,Drenthe,VBO,6.519623,52.995640
Balkendwarsweg,3,,,9405PT,Assen,Assen,Drenthe,VBO,6.520577,52.995667
Balkendwarsweg,4,,,9405PT,Assen,Assen,Drenthe,VBO,6.523357,52.995641
Balkendwarsweg,5,,,9405PT,Assen,Assen,Drenthe,VBO,6.520517,52.995659
Geminisingel,1,,,9405RA,Assen,Assen,Drenthe,VBO,6.510384,52.993193
Geminisingel,2,,,9405RA,Assen,Assen,Drenthe,VBO,6.510274,52.993545
Geminisingel,3,,,9405RA,Assen,Assen,Drenthe,VBO,6.510309,52.993176
Geminisingel,4,,,9405RA,Assen,Assen,Drenthe,VBO,6.510184,52.993527
Geminisingel,5,,,9405RA,Assen,Assen,Drenthe,VBO,6.510040,52.993142
Geminisingel,6,,,9405RA,Assen,Assen,Drenthe,VBO,6.509930,52.993494
Geminisingel,7,,,9405RA,Assen,Assen,Drenthe,VBO,6.509951,52.993134
Geminisingel,8,,,9405RA,Assen,Assen,Drenthe,VBO,6.509841,52.993486
Geminisingel,9,,,9405RA,Assen,Assen,Drenthe,VBO,6.509712,52.993100
Geminisingel,10,,,9405RA,Assen,Assen,Drenthe,VBO,6.509602,52.993452
Geminisingel,11,,,9405RA,Assen,Assen,Drenthe,VBO,6.509622,52.993092
Geminisingel,12,,,9405RA,Assen,Assen,Drenthe,VBO,6.509512,52.993444
Geminisingel,13,,,9405RA,Assen,Assen,Drenthe,VBO,6.509398,52.993058
Geminisingel,14,,,9405RA,Assen,Assen,Drenthe,VBO,6.509273,52.993410
Geminisingel,15,,,9405RA,Assen,Assen,Drenthe,VBO,6.509308,52.993050
Geminisingel,16,,,9405RA,Assen,Assen,Drenthe,VBO,6.509183,52.993402
Geminisingel,17,,,9405RA,Assen,Assen,Drenthe,VBO,6.509069,52.993017
Geminisingel,18,,,9405RA,Assen,Assen,Drenthe,VBO,6.508944,52.993368
Geminisingel,19,,,9405RA,Assen,Assen,Drenthe,VBO,6.508979,52.993008
Geminisingel,20,,,9405RA,Assen,Assen,Drenthe,VBO,6.508854,52.993360
Geminisingel,21,,,9405RA,Assen,Assen,Drenthe,VBO,6.508725,52.992975
Geminisingel,22,,,9405RA,Assen,Assen,Drenthe,VBO,6.508600,52.993327
Geminisingel,23,,,9405RA,Assen,Assen,Drenthe,VBO,6.508636,52.992967
Geminisingel,24,,,9405RA,Assen,Assen,Drenthe,VBO,6.508511,52.993309
Aquarius,1,,,9405RB,Assen,Assen,Drenthe,VBO,6.510165,52.993914
Aquarius,3,,,9405RB,Assen,Assen,Drenthe,VBO,6.510075,52.993906
Aquarius,5,,,9405RB,Assen,Assen,Drenthe,VBO,6.509896,52.993881
Aquarius,7,,,9405RB,Assen,Assen,Drenthe,VBO,6.509791,52.993864
Aquarius,9,,,9405RB,Assen,Assen,Drenthe,VBO,6.509597,52.993838
Aquarius,11,,,9405RB,Assen,Assen,Drenthe,VBO,6.509507,52.993830
Aquarius,13,,,9405RB,Assen,Assen,Drenthe,VBO,6.509313,52.993805
Aquarius,15,,,9405RB,Assen,Assen,Drenthe,VBO,6.509223,52.993788
Aquarius,17,,,9405RB,Assen,Assen,Drenthe,VBO,6.509014,52.993763
Aquarius,19,,,9405RB,Assen,Assen,Drenthe,VBO,6.508924,52.993755
Aquarius,21,,,9405RB,Assen,Assen,Drenthe,VBO,6.508715,52.993730
Aquarius,23,,,9405RB,Assen,Assen,Drenthe,VBO,6.508640,52.993713
Aquarius,25,,,9405RB,Assen,Assen,Drenthe,VBO,6.508431,52.993679
Aquarius,27,,,9405RB,Assen,Assen,Drenthe,VBO,6.508341,52.993671
Aquarius,2,,,9405RC,Assen,Assen,Drenthe,VBO,6.510649,52.993622
Aquarius,4,,,9405RC,Assen,Assen,Drenthe,VBO,6.510548,52.993776
Aquarius,6,,,9405RC,Assen,Assen,Drenthe,VBO,6.510493,52.993929
Aquarius,8,,,9405RC,Assen,Assen,Drenthe,VBO,6.511106,52.994022
Aquarius,10,,,9405RC,Assen,Assen,Drenthe,VBO,6.511161,52.993851
Aquarius,12,,,9405RC,Assen,Assen,Drenthe,VBO,6.511217,52.993715
Aquarius,16,,,9405RC,Assen,Assen,Drenthe,VBO,6.510786,52.994897
Aquarius,18,,,9405RC,Assen,Assen,Drenthe,VBO,6.510841,52.994734
Aquarius,20,,,9405RC,Assen,Assen,Drenthe,VBO,6.510407,52.994667
Aquarius,22,,,9405RC,Assen,Assen,Drenthe,VBO,6.510567,52.994494
Aquarius,24,,,9405RC,Assen,Assen,Drenthe,VBO,6.510881,52.994563
Aquarius,26,,,9405RC,Assen,Assen,Drenthe,VBO,6.511022,52.994247
Aquarius,28,,,9405RC,Assen,Assen,Drenthe,VBO,6.510677,52.994143
Aquarius,30,,,9405RC,Assen,Assen,Drenthe,VBO,6.510438,52.994109
Aquarius,32,,,9405RC,Assen,Assen,Drenthe,VBO,6.510199,52.994075
Aquarius,34,,,9405RC,Assen,Assen,Drenthe,VBO,6.510028,52.994392
Aquarius,36,,,9405RC,Assen,Assen,Drenthe,VBO,6.509772,52.994277
Aquarius,38,,,9405RC,Assen,Assen,Drenthe,VBO,6.509870,52.994034
Aquarius,40,,,9405RC,Assen,Assen,Drenthe,VBO,6.509601,52.994000
Aquarius,42,,,9405RC,Assen,Assen,Drenthe,VBO,6.509362,52.993966
Aquarius,44,,,9405RC,Assen,Assen,Drenthe,VBO,6.509294,52.994246
Aquarius,46,,,9405RC,Assen,Assen,Drenthe,VBO,6.508980,52.994186
Aquarius,48,,,9405RC,Assen,Assen,Drenthe,VBO,6.509033,52.993925
Aquarius,50,,,9405RC,Assen,Assen,Drenthe,VBO,6.508809,52.993900
Aquarius,52,,,9405RC,Assen,Assen,Drenthe,VBO,6.508555,52.993866
Aquarius,54,,,9405RC,Assen,Assen,Drenthe,VBO,6.508502,52.994127
Aquarius,56,,,9405RC,Assen,Assen,Drenthe,VBO,6.508098,52.994050
Aquarius,58,,,9405RC,Assen,Assen,Drenthe,VBO,6.508256,52.993824
Aquarius,60,,,9405RC,Assen,Assen,Drenthe,VBO,6.507972,52.993791
Aquarius,62,,,9405RC,Assen,Assen,Drenthe,VBO,6.507762,52.993757
Aquarius,64,,,9405RC,Assen,Assen,Drenthe,VBO,6.507591,52.994037
Aquarius,66,,,9405RC,Assen,Assen,Drenthe,VBO,6.507335,52.993941
Virgo,1,,,9405RD,Assen,Assen,Drenthe,VBO,6.510890,52.993170
Virgo,3,,,9405RD,Assen,Assen,Drenthe,VBO,6.511308,52.993220
Virgo,5,,,9405RD,Assen,Assen,Drenthe,VBO,6.511363,52.993031
Virgo,7,,,9405RD,Assen,Assen,Drenthe,VBO,6.511377,52.992977
Virgo,9,,,9405RD,Assen,Assen,Drenthe,VBO,6.511432,52.992824
Virgo,11,,,9405RD,Assen,Assen,Drenthe,VBO,6.511446,52.992779
Virgo,13,,,9405RD,Assen,Assen,Drenthe,VBO,6.511502,52.992625
Virgo,15,,,9405RD,Assen,Assen,Drenthe,VBO,6.511515,52.992580
Virgo,17,,,9405RD,Assen,Assen,Drenthe,VBO,6.511571,52.992418
Virgo,19,,,9405RD,Assen,Assen,Drenthe,VBO,6.511584,52.992373
Virgo,21,,,9405RD,Assen,Assen,Drenthe,VBO,6.511670,52.992210
Virgo,23,,,9405RD,Assen,Assen,Drenthe,VBO,6.511654,52.992166
Virgo,25,,,9405RD,Assen,Assen,Drenthe,VBO,6.511471,52.992006
Virgo,27,,,9405RD,Assen,Assen,Drenthe,VBO,6.511366,52.991971
Virgo,29,,,9405RD,Assen,Assen,Drenthe,VBO,6.511186,52.991927
Virgo,31,,,9405RD,Assen,Assen,Drenthe,VBO,6.511066,52.991910
Virgo,33,,,9405RD,Assen,Assen,Drenthe,VBO,6.510872,52.991903
Virgo,35,,,9405RD,Assen,Assen,Drenthe,VBO,6.510753,52.991904
Virgo,37,,,9405RD,Assen,Assen,Drenthe,VBO,6.510530,52.991915
Virgo,39,,,9405RD,Assen,Assen,Drenthe,VBO,6.510426,52.991907
Virgo,41,,,9405RD,Assen,Assen,Drenthe,VBO,6.508010,52.991795
Virgo,43,,,9405RD,Assen,Assen,Drenthe,VBO,6.507666,52.991745
Virgo,45,,,9405RD,Assen,Assen,Drenthe,VBO,6.507307,52.991703
Virgo,47,,,9405RD,Assen,Assen,Drenthe,VBO,6.507009,52.991661
Virgo,49,,,9405RD,Assen,Assen,Drenthe,VBO,6.506864,52.991815
Virgo,51,,,9405RD,Assen,Assen,Drenthe,VBO,6.507282,52.991865
Virgo,53,,,9405RD,Assen,Assen,Drenthe,VBO,6.507491,52.991899
Virgo,55,,,9405RD,Assen,Assen,Drenthe,VBO,6.507760,52.991932
Virgo,57,,,9405RD,Assen,Assen,Drenthe,VBO,6.508074,52.991974
Virgo,59,,,9405RD,Assen,Assen,Drenthe,VBO,6.507701,52.992544
Virgo,61,,,9405RD,Assen,Assen,Drenthe,VBO,6.507673,52.992589
Virgo,63,,,9405RD,Assen,Assen,Drenthe,VBO,6.507632,52.992725
Virgo,65,,,9405RD,Assen,Assen,Drenthe,VBO,6.507618,52.992770
Virgo,67,,,9405RD,Assen,Assen,Drenthe,VBO,6.507472,52.992897
Virgo,69,,,9405RD,Assen,Assen,Drenthe,VBO,6.507459,52.992942
Virgo,71,,,9405RD,Assen,Assen,Drenthe,VBO,6.507417,52.993059
Virgo,73,,,9405RD,Assen,Assen,Drenthe,VBO,6.507403,52.993113
Virgo,75,,,9405RD,Assen,Assen,Drenthe,VBO,6.507437,52.993257
Virgo,77,,,9405RD,Assen,Assen,Drenthe,VBO,6.507423,52.993302
Virgo,79,,,9405RD,Assen,Assen,Drenthe,VBO,6.507382,52.993437
Virgo,81,,,9405RD,Assen,Assen,Drenthe,VBO,6.507353,52.993482
Virgo,2,,,9405RE,Assen,Assen,Drenthe,VBO,6.511283,52.992223
Virgo,4,,,9405RE,Assen,Assen,Drenthe,VBO,6.511178,52.992206
Virgo,6,,,9405RE,Assen,Assen,Drenthe,VBO,6.511074,52.992198
Virgo,8,,,9405RE,Assen,Assen,Drenthe,VBO,6.510969,52.992190
Virgo,10,,,9405RE,Assen,Assen,Drenthe,VBO,6.510864,52.992173
Virgo,12,,,9405RE,Assen,Assen,Drenthe,VBO,6.510760,52.992165
Virgo,14,,,9405RE,Assen,Assen,Drenthe,VBO,6.510581,52.992149
Virgo,16,,,9405RE,Assen,Assen,Drenthe,VBO,6.510476,52.992132
Virgo,18,,,9405RE,Assen,Assen,Drenthe,VBO,6.510372,52.992124
Virgo,20,,,9405RE,Assen,Assen,Drenthe,VBO,6.510267,52.992116
Virgo,22,,,9405RE,Assen,Assen,Drenthe,VBO,6.510162,52.992099
Virgo,24,,,9405RE,Assen,Assen,Drenthe,VBO,6.510058,52.992091
Virgo,26,,,9405RE,Assen,Assen,Drenthe,VBO,6.509953,52.992083
Virgo,28,,,9405RE,Assen,Assen,Drenthe,VBO,6.509849,52.992066
Virgo,30,,,9405RE,Assen,Assen,Drenthe,VBO,6.509729,52.992058
Virgo,32,,,9405RE,Assen,Assen,Drenthe,VBO,6.509640,52.992050
Virgo,34,,,9405RE,Assen,Assen,Drenthe,VBO,6.509460,52.992024
Virgo,36,,,9405RE,Assen,Assen,Drenthe,VBO,6.509356,52.992016
Virgo,38,,,9405RE,Assen,Assen,Drenthe,VBO,6.509251,52.991999
Virgo,40,,,9405RE,Assen,Assen,Drenthe,VBO,6.509147,52.991982
Virgo,42,,,9405RE,Assen,Assen,Drenthe,VBO,6.509042,52.991974
Virgo,44,,,9405RE,Assen,Assen,Drenthe,VBO,6.508937,52.991957
Virgo,46,,,9405RE,Assen,Assen,Drenthe,VBO,6.508505,52.991926
Virgo,48,,,9405RE,Assen,Assen,Drenthe,VBO,6.508491,52.991989
Virgo,50,,,9405RE,Assen,Assen,Drenthe,VBO,6.508450,52.992097
Virgo,52,,,9405RE,Assen,Assen,Drenthe,VBO,6.508421,52.992160
Virgo,54,,,9405RE,Assen,Assen,Drenthe,VBO,6.508394,52.992268
Virgo,56,,,9405RE,Assen,Assen,Drenthe,VBO,6.508366,52.992331
Virgo,58,,,9405RE,Assen,Assen,Drenthe,VBO,6.508282,52.992530
Virgo,60,,,9405RE,Assen,Assen,Drenthe,VBO,6.508240,52.992620
Virgo,62,,,9405RE,Assen,Assen,Drenthe,VBO,6.508212,52.992701
Virgo,64,,,9405RE,Assen,Assen,Drenthe,VBO,6.508184,52.992773
Virgo,66,,,9405RE,Assen,Assen,Drenthe,VBO,6.508157,52.992899
Virgo,68,,,9405RE,Assen,Assen,Drenthe,VBO,6.508033,52.993269
Virgo,70,,,9405RE,Assen,Assen,Drenthe,VBO,6.507976,52.993386
Virgo,72,,,9405RE,Assen,Assen,Drenthe,VBO,6.507948,52.993459
Virgo,74,,,9405RE,Assen,Assen,Drenthe,VBO,6.507921,52.993540
Virgo,76,,,9405RE,Assen,Assen,Drenthe,VBO,6.507908,52.993630
Taurus,1,,,9405RG,Assen,Assen,Drenthe,VBO,6.511159,52.992611
Taurus,2,A,,9405RG,Assen,Assen,Drenthe,VBO,6.510588,52.992993
Taurus,2,,,9405RG,Assen,Assen,Drenthe,VBO,6.510553,52.992787
Taurus,3,,,9405RG,Assen,Assen,Drenthe,VBO,6.510995,52.992630
Taurus,4,,,9405RG,Assen,Assen,Drenthe,VBO,6.510448,52.992779
Taurus,5,,,9405RG,Assen,Assen,Drenthe,VBO,6.510845,52.992587
Taurus,6,,,9405RG,Assen,Assen,Drenthe,VBO,6.510224,52.992754
Taurus,7,,,9405RG,Assen,Assen,Drenthe,VBO,6.510682,52.992606
Taurus,8,,,9405RG,Assen,Assen,Drenthe,VBO,6.510104,52.992737
Taurus,9,,,9405RG,Assen,Assen,Drenthe,VBO,6.510531,52.992545
Taurus,10,,,9405RG,Assen,Assen,Drenthe,VBO,6.509865,52.992713
Taurus,11,,,9405RG,Assen,Assen,Drenthe,VBO,6.510368,52.992564
Taurus,12,,,9405RG,Assen,Assen,Drenthe,VBO,6.509776,52.992704
Taurus,13,,,9405RG,Assen,Assen,Drenthe,VBO,6.510218,52.992521
Taurus,14,,,9405RG,Assen,Assen,Drenthe,VBO,6.509537,52.992671
Taurus,15,,,9405RG,Assen,Assen,Drenthe,VBO,6.510070,52.992549
Taurus,16,,,9405RG,Assen,Assen,Drenthe,VBO,6.509432,52.992654
Taurus,17,,,9405RG,Assen,Assen,Drenthe,VBO,6.509904,52.992488
Taurus,18,,,9405RG,Assen,Assen,Drenthe,VBO,6.509193,52.992629
Taurus,19,,,9405RG,Assen,Assen,Drenthe,VBO,6.509756,52.992507
Taurus,20,,,9405RG,Assen,Assen,Drenthe,VBO,6.509103,52.992612
Taurus,21,,,9405RG,Assen,Assen,Drenthe,VBO,6.509605,52.992436
Taurus,22,,,9405RG,Assen,Assen,Drenthe,VBO,6.508849,52.992578
Taurus,23,,,9405RG,Assen,Assen,Drenthe,VBO,6.509457,52.992456
Taurus,24,,,9405RG,Assen,Assen,Drenthe,VBO,6.508760,52.992570
Taurus,25,,,9405RG,Assen,Assen,Drenthe,VBO,6.509292,52.992403
Taurus,27,,,9405RG,Assen,Assen,Drenthe,VBO,6.509143,52.992423
Taurus,29,,,9405RG,Assen,Assen,Drenthe,VBO,6.508993,52.992361
Taurus,31,,,9405RG,Assen,Assen,Drenthe,VBO,6.508829,52.992381
Libra,1,,,9405RH,Assen,Assen,Drenthe,VBO,6.507890,52.992363
Libra,2,,,9405RH,Assen,Assen,Drenthe,VBO,6.507387,52.992484
Libra,3,,,9405RH,Assen,Assen,Drenthe,VBO,6.507636,52.992329
Libra,4,,,9405RH,Assen,Assen,Drenthe,VBO,6.507148,52.992459
Libra,5,,,9405RH,Assen,Assen,Drenthe,VBO,6.507337,52.992287
Libra,6,,,9405RH,Assen,Assen,Drenthe,VBO,6.507058,52.992442
Libra,7,,,9405RH,Assen,Assen,Drenthe,VBO,6.507068,52.992254
Libra,8,,,9405RH,Assen,Assen,Drenthe,VBO,6.506671,52.992419
Libra,9,,,9405RH,Assen,Assen,Drenthe,VBO,6.506800,52.992220
Libra,10,,,9405RH,Assen,Assen,Drenthe,VBO,6.506629,52.992554
Libra,11,,,9405RH,Assen,Assen,Drenthe,VBO,6.506162,52.993511
Libra,12,,,9405RH,Assen,Assen,Drenthe,VBO,6.506633,52.992698
Libra,13,,,9405RH,Assen,Assen,Drenthe,VBO,6.506461,52.993553
Libra,14,,,9405RH,Assen,Assen,Drenthe,VBO,6.506798,52.992723
Libra,15,,,9405RH,Assen,Assen,Drenthe,VBO,6.506745,52.993587
Libra,16,,,9405RH,Assen,Assen,Drenthe,VBO,6.506947,52.992749
Libra,17,,,9405RH,Assen,Assen,Drenthe,VBO,6.507059,52.993629
Libra,18,,,9405RH,Assen,Assen,Drenthe,VBO,6.507111,52.992765
Libra,19,,,9405RH,Assen,Assen,Drenthe,VBO,6.507313,52.993662
Libra,20,,,9405RH,Assen,Assen,Drenthe,VBO,6.507016,52.993117
Libra,22,,,9405RH,Assen,Assen,Drenthe,VBO,6.506837,52.993091
Libra,24,,,9405RH,Assen,Assen,Drenthe,VBO,6.506673,52.993075
Libra,26,,,9405RH,Assen,Assen,Drenthe,VBO,6.506508,52.993050
Libra,28,,,9405RH,Assen,Assen,Drenthe,VBO,6.506393,52.993212
Libra,30,,,9405RH,Assen,Assen,Drenthe,VBO,6.506337,52.993348
Libra,32,,,9405RH,Assen,Assen,Drenthe,VBO,6.506710,52.993362
Libra,34,,,9405RH,Assen,Assen,Drenthe,VBO,6.506874,52.993379
Libra,36,,,9405RH,Assen,Assen,Drenthe,VBO,6.507024,52.993404
Schepersmaat,2,,,9405TA,Assen,Assen,Drenthe,VBO,6.559202,52.975838
Schepersmaat,4,A,,9405TA,Assen,Assen,Drenthe,VBO,6.563345,52.977123
Schepersmaat,4,,,9405TA,Assen,Assen,Drenthe,VBO,6.563346,52.977163
Schepersmaat,6,,,9405TA,Assen,Assen,Drenthe,VBO,6.561719,52.974186
Schepersmaat,8,,,9405TA,Assen,Assen,Drenthe,VBO,6.563320,52.974503
Graswijk,23,,,9405TB,Assen,Assen,Drenthe,VBO,6.554996,52.968887
Graswijk,25,A,,9405TB,Assen,Assen,Drenthe,VBO,6.555442,52.964991
Graswijk,25,,,9405TB,Assen,Assen,Drenthe,VBO,6.554909,52.967306
Graswijk,29,,,9405TC,Assen,Assen,Drenthe,VBO,6.553372,52.959925
Graswijk,31,,,9405TC,Assen,Assen,Drenthe,VBO,6.552550,52.957578
Graswijk,33,,,9405TC,Assen,Assen,Drenthe,VBO,6.552253,52.956476
Graswijk,35,,,9405TC,Assen,Assen,Drenthe,VBO,6.552244,52.956170
Graswijk,37,,,9405TC,Assen,Assen,Drenthe,VBO,6.559297,52.965538
Graswijk,39,,,9405TC,Assen,Assen,Drenthe,VBO,6.560946,52.959869
Graswijk,41,,,9405TC,Assen,Assen,Drenthe,VBO,6.563812,52.957423
Graswijk,45,A,,9405TC,Assen,Assen,Drenthe,VBO,6.552265,52.954723
Graswijk,45,B,,9405TC,Assen,Assen,Drenthe,VBO,6.553797,52.954690
Graswijk,45,C,,9405TC,Assen,Assen,Drenthe,VBO,6.553230,52.954624
Graswijk,45,,,9405TC,Assen,Assen,Drenthe,VBO,6.555702,52.955229
Graswijk,47,,,9405TC,Assen,Assen,Drenthe,VBO,6.551361,52.953743
Graswijk,49,,,9405TC,Assen,Assen,Drenthe,VBO,6.550866,52.952490
Graswijk,2,,,9405TD,Assen,Assen,Drenthe,VBO,6.554781,52.973643
Graswijk,6,,,9405TD,Assen,Assen,Drenthe,VBO,6.554779,52.973005
Graswijk,8,,,9405TD,Assen,Assen,Drenthe,VBO,6.552293,52.971340
Graswijk,10,,,9405TD,Assen,Assen,Drenthe,VBO,6.554344,52.969010
Graswijk,12,,,9405TD,Assen,Assen,Drenthe,VBO,6.554407,52.968560
Graswijk,14,A,,9405TD,Assen,Assen,Drenthe,VBO,6.554320,52.965874
Graswijk,14,,,9405TD,Assen,Assen,Drenthe,VBO,6.553834,52.967173
Graswijk,16,,,9405TD,Assen,Assen,Drenthe,VBO,6.551663,52.965594
Graswijk,18,,,9405TD,Assen,Assen,Drenthe,VBO,6.549996,52.963373
Graswijk,20,A,,9405TD,Assen,Assen,Drenthe,VBO,6.553160,52.961482
Graswijk,20,,,9405TD,Assen,Assen,Drenthe,VBO,6.553214,52.961247
Graswijk,22,,,9405TD,Assen,Assen,Drenthe,VBO,6.553047,52.960584
Graswijk,24,A,,9405TD,Assen,Assen,Drenthe,VBO,6.550904,52.957244
Graswijk,24,,,9405TD,Assen,Assen,Drenthe,VBO,6.552027,52.957484
Graswijk,26,,,9405TD,Assen,Assen,Drenthe,VBO,6.551718,52.956535
Graswijk,30,,,9405TD,Assen,Assen,Drenthe,VBO,6.551025,52.954537
Graswijk,32,,,9405TD,Assen,Assen,Drenthe,VBO,6.550449,52.953006
Anreep,10,A,,9405TE,Assen,Assen,Drenthe,VBO,6.584564,52.976602
De Haar,1,B,,9405TE,Assen,Assen,Drenthe,VBO,6.539635,52.970052
De Haar,1,,,9405TE,Assen,Assen,Drenthe,VBO,6.540424,52.968939
De Haar,9,,,9405TE,Assen,Assen,Drenthe,VBO,6.523498,52.961498
De Haar,11,A,,9405TE,Assen,Assen,Drenthe,VBO,6.534136,52.961908
De Haar,11,,,9405TE,Assen,Assen,Drenthe,VBO,6.533040,52.962701
De Haar,17,,,9405TE,Assen,Assen,Drenthe,VBO,6.534896,52.963587
Mandemaat,1,,,9405TG,Assen,Assen,Drenthe,VBO,6.565561,52.979712
Mandemaat,3,,,9405TG,Assen,Assen,Drenthe,VBO,6.564958,52.978342
Mandemaat,4,,,9405TG,Assen,Assen,Drenthe,VBO,6.564452,52.978922
Mandemaat,5,,,9405TG,Assen,Assen,Drenthe,VBO,6.565190,52.977010
Witterbroek,1,,,9405TH,Assen,Assen,Drenthe,VBO,6.531116,52.973324
Korenmaat,4,A,,9405TJ,Assen,Assen,Drenthe,VBO,6.556382,52.972253
Korenmaat,4,,,9405TJ,Assen,Assen,Drenthe,VBO,6.556382,52.972280
Korenmaat,6,A,,9405TJ,Assen,Assen,Drenthe,VBO,6.556897,52.972041
Korenmaat,6,,,9405TJ,Assen,Assen,Drenthe,VBO,6.556273,52.972074
Korenmaat,8,,,9405TJ,Assen,Assen,Drenthe,VBO,6.558032,52.972191
Korenmaat,10,,,9405TJ,Assen,Assen,Drenthe,VBO,6.559858,52.971976
Korenmaat,12,A,,9405TJ,Assen,Assen,Drenthe,VBO,6.560517,52.971583
Korenmaat,12,B,,9405TJ,Assen,Assen,Drenthe,VBO,6.560588,52.972005
Korenmaat,12,C,,9405TJ,Assen,Assen,Drenthe,VBO,6.560841,52.971993
Korenmaat,12,,,9405TJ,Assen,Assen,Drenthe,VBO,6.560803,52.971679
Korenmaat,16,,,9405TJ,Assen,Assen,Drenthe,VBO,6.561897,52.970841
Diepstroeten,1,,,9405TK,Assen,Assen,Drenthe,VBO,6.556244,52.971023
Diepstroeten,2,,,9405TK,Assen,Assen,Drenthe,VBO,6.557389,52.970391
Diepstroeten,3,,,9405TK,Assen,Assen,Drenthe,VBO,6.556553,52.970876
Korenmaat,1,,,9405TL,Assen,Assen,Drenthe,VBO,6.556600,52.972637
Korenmaat,3,,,9405TL,Assen,Assen,Drenthe,VBO,6.556417,52.973616
Korenmaat,5,,,9405TL,Assen,Assen,Drenthe,VBO,6.557865,52.972598
Korenmaat,7,A,,9405TL,Assen,Assen,Drenthe,VBO,6.559305,52.972467
Korenmaat,7,,,9405TL,Assen,Assen,Drenthe,VBO,6.559439,52.972456
Korenmaat,9,,,9405TL,Assen,Assen,Drenthe,VBO,6.560516,52.972431
Schepersmaat,5,,,9405TM,Assen,Assen,Drenthe,VBO,6.560036,52.973610
Schepersmaat,9,,,9405TM,Assen,Assen,Drenthe,VBO,6.563118,52.972510
Witterhoofdweg,288,A,,9405VA,Assen,Assen,Drenthe,VBO,6.516960,52.981996
Witterhoofdweg,288,,,9405VA,Assen,Assen,Drenthe,VBO,6.517242,52.981958
Witterhoofdweg,290,,,9405VA,Assen,Assen,Drenthe,VBO,6.516883,52.981889
Hoofdvaartsweg,99,A,,9405VC,Assen,Assen,Drenthe,VBO,6.517372,52.995989
Hoofdvaartsweg,99,,,9405VC,Assen,Assen,Drenthe,VBO,6.517967,52.996114
Hoofdvaartsweg,101,A,,9405VC,Assen,Assen,Drenthe,VBO,6.516711,52.995928
Hoofdvaartsweg,101,,,9405VC,Assen,Assen,Drenthe,VBO,6.517069,52.995970
Hoofdvaartsweg,103,A,,9405VC,Assen,Assen,Drenthe,VBO,6.516143,52.995853
Hoofdvaartsweg,103,,,9405VC,Assen,Assen,Drenthe,VBO,6.516397,52.995886
Hoofdvaartsweg,105,A,,9405VC,Assen,Assen,Drenthe,VBO,6.515544,52.995742
Hoofdvaartsweg,105,,,9405VC,Assen,Assen,Drenthe,VBO,6.515874,52.995819
Hoofdvaartsweg,107,A,,9405VC,Assen,Assen,Drenthe,VBO,6.514618,52.995652
Hoofdvaartsweg,107,,,9405VC,Assen,Assen,Drenthe,VBO,6.514917,52.995694
Hoofdvaartsweg,109,A,,9405VC,Assen,Assen,Drenthe,VBO,6.514014,52.995307
Hoofdvaartsweg,109,,,9405VC,Assen,Assen,Drenthe,VBO,6.514201,52.995628
Hoofdvaartsweg,111,,,9405VC,Assen,Assen,Drenthe,VBO,6.513719,52.995444
Hoofdvaartsweg,113,,,9405VC,Assen,Assen,Drenthe,VBO,6.512886,52.995470
Hoofdvaartsweg,115,,,9405VC,Assen,Assen,Drenthe,VBO,6.512362,52.995367
Hoofdvaartsweg,117,A,,9405VC,Assen,Assen,Drenthe,VBO,6.510329,52.995099
Hoofdvaartsweg,117,,,9405VC,Assen,Assen,Drenthe,VBO,6.510658,52.995159
Hoofdvaartsweg,119,,,9405VC,Assen,Assen,Drenthe,VBO,6.509777,52.995041
Hoofdvaartsweg,121,,,9405VC,Assen,Assen,Drenthe,VBO,6.509252,52.994929
Hoofdvaartsweg,123,,,9405VC,Assen,Assen,Drenthe,VBO,6.508835,52.994915
Hoofdvaartsweg,125,A,,9405VC,Assen,Assen,Drenthe,VBO,6.508505,52.994819
Hoofdvaartsweg,127,,,9405VC,Assen,Assen,Drenthe,VBO,6.508282,52.994848
Hoofdvaartsweg,129,,,9405VC,Assen,Assen,Drenthe,VBO,6.507908,52.994789
Hoofdvaartsweg,131,,,9405VC,Assen,Assen,Drenthe,VBO,6.507490,52.994748
Hoofdvaartsweg,133,,,9405VC,Assen,Assen,Drenthe,VBO,6.506959,52.994384
Hoofdvaartsweg,135,,,9405VC,Assen,Assen,Drenthe,VBO,6.506704,52.994297
Hoofdvaartsweg,137,,,9405VC,Assen,Assen,Drenthe,VBO,6.506218,52.994499
Hoofdvaartsweg,139,,,9405VC,Assen,Assen,Drenthe,VBO,6.505813,52.994404
Hoofdvaartsweg,141,,,9405VC,Assen,Assen,Drenthe,VBO,6.503685,52.993894
Hoofdvaartsweg,143,,,9405VC,Assen,Assen,Drenthe,VBO,6.501826,52.993992
Hoofdvaartsweg,145,,,9405VC,Assen,Assen,Drenthe,VBO,6.500698,52.993598
Baggelhuizen,2,A,,9405VD,Assen,Assen,Drenthe,VBO,6.523002,52.983575
Baggelhuizen,2,B,,9405VD,Assen,Assen,Drenthe,VBO,6.523393,52.983715
Baggelhuizen,2,C,,9405VD,Assen,Assen,Drenthe,VBO,6.523799,52.983864
Baggelhuizen,6,,,9405VD,Assen,Assen,Drenthe,VBO,6.523500,52.987821
Baggelhuizen,7,,,9405VD,Assen,Assen,Drenthe,VBO,6.514281,52.985508
Baggelhuizen,8,,,9405VD,Assen,Assen,Drenthe,VBO,6.513183,52.987945
Baggelhuizen,9,,,9405VD,Assen,Assen,Drenthe,VBO,6.514214,52.985806
Baggelhuizen,10,,,9405VD,Assen,Assen,Drenthe,VBO,6.513778,52.989647
Baggelhuizen,12,,,9405VD,Assen,Assen,Drenthe,VBO,6.514267,52.989544
Witterzomer,1,A,,9405VE,Assen,Assen,Drenthe,VBO,6.516421,52.981309
Witterzomer,1,,,9405VE,Assen,Assen,Drenthe,VBO,6.515105,52.981088
Witterzomer,3,A,,9405VE,Assen,Assen,Drenthe,VBO,6.513194,52.980908
Witterzomer,3,,,9405VE,Assen,Assen,Drenthe,VBO,6.513897,52.981019
Witterzomer,5,A,,9405VE,Assen,Assen,Drenthe,VBO,6.509273,52.980703
Witterzomer,7,A,,9405VE,Assen,Assen,Drenthe,VBO,6.505269,52.977298
Witterzomer,7,B,1,9405VE,Assen,Assen,Drenthe,VBO,6.500395,52.978165
Witterzomer,7,B,10,9405VE,Assen,Assen,Drenthe,VBO,6.499180,52.978159
Witterzomer,7,B,2,9405VE,Assen,Assen,Drenthe,VBO,6.500307,52.978208
Witterzomer,7,B,3,9405VE,Assen,Assen,Drenthe,VBO,6.500182,52.978653
Witterzomer,7,B,4,9405VE,Assen,Assen,Drenthe,VBO,6.500069,52.978649
Witterzomer,7,B,5,9405VE,Assen,Assen,Drenthe,VBO,6.499931,52.978060
Witterzomer,7,B,6,9405VE,Assen,Assen,Drenthe,VBO,6.499843,52.978103
Witterzomer,7,B,7,9405VE,Assen,Assen,Drenthe,VBO,6.499760,52.978420
Witterzomer,7,B,8,9405VE,Assen,Assen,Drenthe,VBO,6.499646,52.978415
Witterzomer,7,B,9,9405VE,Assen,Assen,Drenthe,VBO,6.499307,52.978169
Witterzomer,7,,40,9405VE,Assen,Assen,Drenthe,VBO,6.503320,52.979303
Witterzomer,7,,41,9405VE,Assen,Assen,Drenthe,VBO,6.503288,52.979095
Witterzomer,7,,42,9405VE,Assen,Assen,Drenthe,VBO,6.503502,52.979138
Witterzomer,7,,43,9405VE,Assen,Assen,Drenthe,VBO,6.503840,52.979324
Witterzomer,7,,44,9405VE,Assen,Assen,Drenthe,VBO,6.503653,52.979460
Witterzomer,7,,45,9405VE,Assen,Assen,Drenthe,VBO,6.503538,52.979734
Witterzomer,7,,46,9405VE,Assen,Assen,Drenthe,VBO,6.503781,52.979735
Witterzomer,7,,47,9405VE,Assen,Assen,Drenthe,VBO,6.504026,52.979737
Witterzomer,7,,48,9405VE,Assen,Assen,Drenthe,VBO,6.504315,52.979746
Witterzomer,7,,49,9405VE,Assen,Assen,Drenthe,VBO,6.504275,52.979548
Witterzomer,7,,50,9405VE,Assen,Assen,Drenthe,VBO,6.504121,52.979402
Witterzomer,7,,51,9405VE,Assen,Assen,Drenthe,VBO,6.504064,52.979220
Witterzomer,7,,52,9405VE,Assen,Assen,Drenthe,VBO,6.503944,52.978915
Witterzomer,7,,53,9405VE,Assen,Assen,Drenthe,VBO,6.504072,52.978708
Witterzomer,7,,54,9405VE,Assen,Assen,Drenthe,VBO,6.504181,52.978493
Witterzomer,7,,55,9405VE,Assen,Assen,Drenthe,VBO,6.503774,52.978627
Witterzomer,7,,56,9405VE,Assen,Assen,Drenthe,VBO,6.503667,52.978845
Witterzomer,7,,57,9405VE,Assen,Assen,Drenthe,VBO,6.503451,52.978787
Witterzomer,7,,58,9405VE,Assen,Assen,Drenthe,VBO,6.503237,52.978723
Witterzomer,7,,59,9405VE,Assen,Assen,Drenthe,VBO,6.503557,52.978559
Witterzomer,7,,60,9405VE,Assen,Assen,Drenthe,VBO,6.503919,52.978294
Witterzomer,7,,61,9405VE,Assen,Assen,Drenthe,VBO,6.504382,52.978256
Witterzomer,7,,70,9405VE,Assen,Assen,Drenthe,VBO,6.504655,52.978083
Witterzomer,7,,71,9405VE,Assen,Assen,Drenthe,VBO,6.504776,52.977851
Witterzomer,7,,72,9405VE,Assen,Assen,Drenthe,VBO,6.504353,52.977949
Witterzomer,7,,73,9405VE,Assen,Assen,Drenthe,VBO,6.504409,52.977742
Witterzomer,7,,74,9405VE,Assen,Assen,Drenthe,VBO,6.504178,52.977711
Witterzomer,7,,75,9405VE,Assen,Assen,Drenthe,VBO,6.503948,52.977681
Witterzomer,7,,76,9405VE,Assen,Assen,Drenthe,VBO,6.503631,52.977527
Witterzomer,7,,77,9405VE,Assen,Assen,Drenthe,VBO,6.503384,52.977469
Witterzomer,7,,78,9405VE,Assen,Assen,Drenthe,VBO,6.503126,52.977410
Witterzomer,7,,79,9405VE,Assen,Assen,Drenthe,VBO,6.503026,52.977563
Witterzomer,7,,80,9405VE,Assen,Assen,Drenthe,VBO,6.503332,52.977704
Witterzomer,7,,81,9405VE,Assen,Assen,Drenthe,VBO,6.503552,52.977838
Witterzomer,7,,82,9405VE,Assen,Assen,Drenthe,VBO,6.503775,52.977975
Witterzomer,7,,83,9405VE,Assen,Assen,Drenthe,VBO,6.504107,52.978062
Witterzomer,7,,84,9405VE,Assen,Assen,Drenthe,VBO,6.504991,52.978434
Witterzomer,7,,,9405VE,Assen,Assen,Drenthe,VBO,6.505720,52.978606
Witterzomer,2,,,9405VG,Assen,Assen,Drenthe,VBO,6.516479,52.981839
Witterzomer,4,,,9405VG,Assen,Assen,Drenthe,VBO,6.516270,52.981805
Witterzomer,6,,,9405VG,Assen,Assen,Drenthe,VBO,6.516001,52.981772
Witterzomer,8,,,9405VG,Assen,Assen,Drenthe,VBO,6.515718,52.981747
Witterzomer,10,,,9405VG,Assen,Assen,Drenthe,VBO,6.515434,52.981732
Witterzomer,12,,,9405VG,Assen,Assen,Drenthe,VBO,6.515132,52.981573
Witterzomer,14,A,,9405VG,Assen,Assen,Drenthe,VBO,6.510535,52.981733
Witterzomer,14,,,9405VG,Assen,Assen,Drenthe,VBO,6.510445,52.981707
Witterzomer,16,,,9405VG,Assen,Assen,Drenthe,VBO,6.502272,52.980004
Witterzomer,13,,,9405VH,Assen,Assen,Drenthe,VBO,6.487536,52.973158
Witterzomer,18,A,,9405VH,Assen,Assen,Drenthe,VBO,6.498618,52.978627
Witterzomer,18,,,9405VH,Assen,Assen,Drenthe,VBO,6.496421,52.981236
Witterzomer,20,,,9405VH,Assen,Assen,Drenthe,VBO,6.498286,52.978451
Witterzomer,22,,,9405VH,Assen,Assen,Drenthe,VBO,6.497459,52.977542
Witterzomer,24,,,9405VH,Assen,Assen,Drenthe,VBO,6.495975,52.977151
Witterzomer,26,,,9405VH,Assen,Assen,Drenthe,VBO,6.491378,52.976279
Witterzomer,28,,,9405VH,Assen,Assen,Drenthe,VBO,6.488993,52.975993
Witterzomer,36,,,9405VH,Assen,Assen,Drenthe,VBO,6.486545,52.973383
Witterhaar,1,,,9405VJ,Assen,Assen,Drenthe,VBO,6.517143,52.981608
Witterhaar,3,,,9405VJ,Assen,Assen,Drenthe,VBO,6.517165,52.981284
Witterhaar,5,,,9405VJ,Assen,Assen,Drenthe,VBO,6.517193,52.981230
Witterhaar,7,,,9405VJ,Assen,Assen,Drenthe,VBO,6.517265,52.981140
Witterhaar,9,,,9405VJ,Assen,Assen,Drenthe,VBO,6.517511,52.980868
Witterhaar,11,,,9405VJ,Assen,Assen,Drenthe,VBO,6.518245,52.980438
Witterhaar,13,,,9405VJ,Assen,Assen,Drenthe,VBO,6.519292,52.980042
Witterhaar,15,,,9405VJ,Assen,Assen,Drenthe,VBO,6.520330,52.978765
Witterhaar,17,,,9405VJ,Assen,Assen,Drenthe,VBO,6.523426,52.979275
Witterhaar,19,,,9405VJ,Assen,Assen,Drenthe,VBO,6.522811,52.977960
Witterhaar,21,,,9405VJ,Assen,Assen,Drenthe,VBO,6.525889,52.977238
Witterhaar,2,,,9405VK,Assen,Assen,Drenthe,VBO,6.516719,52.981315
Witterhaar,4,A,,9405VK,Assen,Assen,Drenthe,VBO,6.517266,52.980582
Witterhaar,4,,,9405VK,Assen,Assen,Drenthe,VBO,6.516900,52.980819
Witterhaar,6,A,,9405VK,Assen,Assen,Drenthe,VBO,6.517580,52.980076
Witterhaar,6,,,9405VK,Assen,Assen,Drenthe,VBO,6.517338,52.980492
Witterhaar,8,,,9405VK,Assen,Assen,Drenthe,VBO,6.517681,52.979958
Witterhaar,12,A,,9405VK,Assen,Assen,Drenthe,VBO,6.517629,52.978512
Witterhaar,12,,,9405VK,Assen,Assen,Drenthe,VBO,6.518991,52.978796
Witterhaar,14,A,,9405VK,Assen,Assen,Drenthe,VBO,6.519656,52.977432
Witterhaar,14,,,9405VK,Assen,Assen,Drenthe,VBO,6.521559,52.977917
Witterhaar,16,A,,9405VK,Assen,Assen,Drenthe,VBO,6.523174,52.977370
Witterhaar,16,D,2,9405VK,Assen,Assen,Drenthe,VBO,6.522926,52.977248
Witterhaar,16,D,4,9405VK,Assen,Assen,Drenthe,VBO,6.521281,52.976401
Witterhaar,16,D,5,9405VK,Assen,Assen,Drenthe,VBO,6.525154,52.976463
Witterhaar,16,D,6,9405VK,Assen,Assen,Drenthe,VBO,6.525640,52.976252
Witterhaar,16,D,7,9405VK,Assen,Assen,Drenthe,VBO,6.524167,52.976850
Witterhaar,16,D,R1,9405VK,Assen,Assen,Drenthe,VBO,6.524137,52.976841
Witterhaar,16,,,9405VK,Assen,Assen,Drenthe,VBO,6.523492,52.977243
Witterhaar,32,,,9405VK,Assen,Assen,Drenthe,VBO,6.498269,52.974865
Witterweg,45,A,,9405VL,Assen,Assen,Drenthe,VBO,6.485858,52.973299
Witterweg,45,,,9405VL,Assen,Assen,Drenthe,VBO,6.485807,52.973084
Witterweg,47,,,9405VL,Assen,Assen,Drenthe,VBO,6.488241,52.972163
Witterweg,49,,,9405VL,Assen,Assen,Drenthe,VBO,6.492310,52.970607
Witterweg,51,,,9405VL,Assen,Assen,Drenthe,VBO,6.497847,52.969423
Witterweg,54,,,9405VL,Assen,Assen,Drenthe,VBO,6.494809,52.967609
Witterweg,56,,,9405VL,Assen,Assen,Drenthe,VBO,6.498264,52.967137
Witterweg,57,,,9405VL,Assen,Assen,Drenthe,VBO,6.503233,52.967575
