openbareruimtenaam,huisnummer,huisletter,huisnummertoevoeging,postcode,woonplaatsnaam,gemeentenaam,provincienaam,typeadresseerbaarobject,longitude,latitude
Hoofdstraat,1,,,9433PA,Zwiggelte,Midden-Drenthe,Drenthe,VBO,6.587953,52.865126
Hoofdstraat,3,,,9433PA,Zwiggelte,Midden-Drenthe,Drenthe,VBO,6.587017,52.868362
Hoofdstraat,5,,,9433PA,Zwiggelte,Midden-Drenthe,Drenthe,VBO,6.586910,52.868794
Hoofdstraat,7,,,9433PA,Zwiggelte,Midden-Drenthe,Drenthe,VBO,6.587362,52.869572
Hoofdstraat,9,,,9433PA,Zwiggelte,Midden-Drenthe,Drenthe,VBO,6.587339,52.869824
Hoofdstraat,11,A,,9433PA,Zwiggelte,Midden-Drenthe,Drenthe,VBO,6.587152,52.870041
Hoofdstraat,11,,,9433PA,Zwiggelte,Midden-Drenthe,Drenthe,VBO,6.587418,52.869976
Hoofdstraat,13,A,,9433PA,Zwiggelte,Midden-Drenthe,Drenthe,VBO,6.587948,52.870428
Hoofdstraat,13,B,,9433PA,Zwiggelte,Midden-Drenthe,Drenthe,VBO,6.587855,52.870514
Hoofdstraat,13,,,9433PA,Zwiggelte,Midden-Drenthe,Drenthe,VBO,6.588042,52.870334
Hoofdstraat,15,,,9433PA,Zwiggelte,Midden-Drenthe,Drenthe,VBO,6.587742,52.870988
Hoofdstraat,17,,,9433PA,Zwiggelte,Midden-Drenthe,Drenthe,VBO,6.587706,52.871285
Hoofdstraat,19,,,9433PA,Zwiggelte,Midden-Drenthe,Drenthe,VBO,6.587873,52.871939
Hoofdstraat,21,,,9433PA,Zwiggelte,Midden-Drenthe,Drenthe,VBO,6.588048,52.872387
Hoofdstraat,23,T,1,9433PA,Zwiggelte,Midden-Drenthe,Drenthe,VBO,6.587825,52.873511
Hoofdstraat,23,,,9433PA,Zwiggelte,Midden-Drenthe,Drenthe,VBO,6.588209,52.873374
Hoofdstraat,23,,,9433PA,Zwiggelte,Midden-Drenthe,Drenthe,VBO,6.588320,52.873285
Hoofdstraat,27,,,9433PA,Zwiggelte,Midden-Drenthe,Drenthe,VBO,6.588269,52.874488
Hoofdstraat,29,,,9433PA,Zwiggelte,Midden-Drenthe,Drenthe,VBO,6.588482,52.876292
Hoofdstraat,31,,,9433PA,Zwiggelte,Midden-Drenthe,Drenthe,VBO,6.589025,52.877122
Hoofdstraat,33,,,9433PA,Zwiggelte,Midden-Drenthe,Drenthe,VBO,6.590154,52.878190
Hoofdstraat,35,,,9433PA,Zwiggelte,Midden-Drenthe,Drenthe,VBO,6.589608,52.879417
Hoofdstraat,37,,,9433PA,Zwiggelte,Midden-Drenthe,Drenthe,VBO,6.587663,52.883760
Hoofdstraat,39,,,9433PA,Zwiggelte,Midden-Drenthe,Drenthe,VBO,6.586678,52.884686
Hoofdstraat,41,,,9433PA,Zwiggelte,Midden-Drenthe,Drenthe,VBO,6.586158,52.885249
Hoofdstraat,2,,,9433PB,Zwiggelte,Midden-Drenthe,Drenthe,VBO,6.586749,52.864545
Hoofdstraat,4,,,9433PB,Zwiggelte,Midden-Drenthe,Drenthe,VBO,6.586361,52.868874
Hoofdstraat,6,,,9433PB,Zwiggelte,Midden-Drenthe,Drenthe,VBO,6.586349,52.869465
Hoofdstraat,8,,,9433PB,Zwiggelte,Midden-Drenthe,Drenthe,VBO,6.586935,52.870807
Hoofdstraat,10,,,9433PB,Zwiggelte,Midden-Drenthe,Drenthe,VBO,6.587091,52.871075
Hoofdstraat,12,,,9433PB,Zwiggelte,Midden-Drenthe,Drenthe,VBO,6.587045,52.871534
Hoofdstraat,14,,,9433PB,Zwiggelte,Midden-Drenthe,Drenthe,VBO,6.586328,52.872039
Hoofdstraat,18,,,9433PB,Zwiggelte,Midden-Drenthe,Drenthe,VBO,6.586979,52.872407
Hoofdstraat,20,,,9433PB,Zwiggelte,Midden-Drenthe,Drenthe,VBO,6.587261,52.872943
Hoofdstraat,22,,,9433PB,Zwiggelte,Midden-Drenthe,Drenthe,VBO,6.587313,52.873203
Hoofdstraat,24,,,9433PC,Zwiggelte,Midden-Drenthe,Drenthe,VBO,6.587220,52.873591
Hoofdstraat,26,,,9433PC,Zwiggelte,Midden-Drenthe,Drenthe,VBO,6.587450,52.873849
Hoofdstraat,28,A,,9433PC,Zwiggelte,Midden-Drenthe,Drenthe,VBO,6.587445,52.874226
Hoofdstraat,28,,,9433PC,Zwiggelte,Midden-Drenthe,Drenthe,VBO,6.587427,52.874092
Hoofdstraat,30,,,9433PC,Zwiggelte,Midden-Drenthe,Drenthe,VBO,6.587361,52.874389
Hoofdstraat,32,,,9433PC,Zwiggelte,Midden-Drenthe,Drenthe,VBO,6.587218,52.874588
Hoofdstraat,34,,,9433PC,Zwiggelte,Midden-Drenthe,Drenthe,VBO,6.587373,52.874829
Hoofdstraat,36,,,9433PC,Zwiggelte,Midden-Drenthe,Drenthe,VBO,6.587533,52.875259
Hoofdstraat,38,,,9433PC,Zwiggelte,Midden-Drenthe,Drenthe,VBO,6.587582,52.875420
Hoofdstraat,40,,,9433PC,Zwiggelte,Midden-Drenthe,Drenthe,VBO,6.587620,52.875726
Hoofdstraat,42,,,9433PC,Zwiggelte,Midden-Drenthe,Drenthe,VBO,6.588068,52.880655
Hoofdstraat,44,,,9433PC,Zwiggelte,Midden-Drenthe,Drenthe,VBO,6.585503,52.885175
Middenweg,3,,,9433PD,Zwiggelte,Midden-Drenthe,Drenthe,VBO,6.585908,52.871779
Middenweg,4,,,9433PD,Zwiggelte,Midden-Drenthe,Drenthe,VBO,6.584977,52.871429
Zevenhoeksweg,1,,,9433PE,Zwiggelte,Midden-Drenthe,Drenthe,VBO,6.584811,52.870784
Zevenhoeksweg,6,,,9433PE,Zwiggelte,Midden-Drenthe,Drenthe,VBO,6.584247,52.870816
Zevenhoeksweg,10,,,9433PE,Zwiggelte,Midden-Drenthe,Drenthe,VBO,6.584651,52.871441
Zevenhoeksweg,12,,,9433PE,Zwiggelte,Midden-Drenthe,Drenthe,VBO,6.584085,52.871941
Zevenhoeksweg,14,,,9433PE,Zwiggelte,Midden-Drenthe,Drenthe,VBO,6.583491,52.871929
Steeg,1,,,9433PG,Zwiggelte,Midden-Drenthe,Drenthe,VBO,6.586728,52.873524
Steeg,3,,,9433PG,Zwiggelte,Midden-Drenthe,Drenthe,VBO,6.586336,52.873312
Steeg,4,,,9433PG,Zwiggelte,Midden-Drenthe,Drenthe,VBO,6.585857,52.872634
Steeg,5,,,9433PG,Zwiggelte,Midden-Drenthe,Drenthe,VBO,6.585948,52.873235
Steeg,7,,,9433PG,Zwiggelte,Midden-Drenthe,Drenthe,VBO,6.585165,52.872847
Steeg,8,,,9433PG,Zwiggelte,Midden-Drenthe,Drenthe,VBO,6.584957,52.872319
Steeg,9,,,9433PG,Zwiggelte,Midden-Drenthe,Drenthe,VBO,6.584462,52.872702
Steeg,10,,,9433PG,Zwiggelte,Midden-Drenthe,Drenthe,VBO,6.584631,52.872358
Ripkampenweg,1,,,9433PH,Zwiggelte,Midden-Drenthe,Drenthe,VBO,6.583954,52.873129
Ripkampenweg,2,,,9433PH,Zwiggelte,Midden-Drenthe,Drenthe,VBO,6.583552,52.872531
Ripkampenweg,3,,,9433PH,Zwiggelte,Midden-Drenthe,Drenthe,VBO,6.584233,52.873540
Ripkampenweg,5,,,9433PH,Zwiggelte,Midden-Drenthe,Drenthe,VBO,6.584210,52.873774
Ripkampenweg,7,,,9433PH,Zwiggelte,Midden-Drenthe,Drenthe,VBO,6.584124,52.873918
Ripkampenweg,9,,,9433PH,Zwiggelte,Midden-Drenthe,Drenthe,VBO,6.584101,52.874143
Ripkampenweg,11,,,9433PH,Zwiggelte,Midden-Drenthe,Drenthe,VBO,6.584109,52.874440
Ripkampenweg,13,,,9433PH,Zwiggelte,Midden-Drenthe,Drenthe,VBO,6.584072,52.874728
Ripkampenweg,15,,,9433PH,Zwiggelte,Midden-Drenthe,Drenthe,VBO,6.584178,52.875338
Ripkampenweg,17,,,9433PH,Zwiggelte,Midden-Drenthe,Drenthe,VBO,6.584180,52.875410
Ripkampenweg,19,,,9433PH,Zwiggelte,Midden-Drenthe,Drenthe,VBO,6.584186,52.875607
Ripkampenweg,21,,,9433PH,Zwiggelte,Midden-Drenthe,Drenthe,VBO,6.584206,52.875796
Ripkampenweg,23,,,9433PH,Zwiggelte,Midden-Drenthe,Drenthe,VBO,6.584151,52.875985
Ripkampenweg,25,,,9433PH,Zwiggelte,Midden-Drenthe,Drenthe,VBO,6.584127,52.876183
Westeres,1,,,9433PJ,Zwiggelte,Midden-Drenthe,Drenthe,VBO,6.583802,52.870830
Westeres,2,,,9433PJ,Zwiggelte,Midden-Drenthe,Drenthe,VBO,6.584136,52.870000
Westeres,3,,,9433PJ,Zwiggelte,Midden-Drenthe,Drenthe,VBO,6.571266,52.866965
Westeres,5,,,9433PJ,Zwiggelte,Midden-Drenthe,Drenthe,VBO,6.583228,52.872103
Schoolweg,1,,,9433PK,Zwiggelte,Midden-Drenthe,Drenthe,VBO,6.586589,52.874945
Schoolweg,2,,,9433PK,Zwiggelte,Midden-Drenthe,Drenthe,VBO,6.586445,52.874578
Schoolweg,4,,,9433PK,Zwiggelte,Midden-Drenthe,Drenthe,VBO,6.586059,52.874600
Schoolweg,5,,,9433PK,Zwiggelte,Midden-Drenthe,Drenthe,VBO,6.586114,52.874968
Schoolweg,6,,,9433PK,Zwiggelte,Midden-Drenthe,Drenthe,VBO,6.585837,52.874629
Schoolweg,8,,,9433PK,Zwiggelte,Midden-Drenthe,Drenthe,VBO,6.585600,52.874631
Schoolweg,10,,,9433PK,Zwiggelte,Midden-Drenthe,Drenthe,VBO,6.585333,52.874652
Schoolweg,12,,,9433PK,Zwiggelte,Midden-Drenthe,Drenthe,VBO,6.585095,52.874636
Schoolweg,14,,,9433PK,Zwiggelte,Midden-Drenthe,Drenthe,VBO,6.584976,52.874647
Schoolweg,16,,,9433PK,Zwiggelte,Midden-Drenthe,Drenthe,VBO,6.584783,52.874649
Schoolweg,18,,,9433PK,Zwiggelte,Midden-Drenthe,Drenthe,VBO,6.584635,52.874659
Goornweg,1,,,9433PL,Zwiggelte,Midden-Drenthe,Drenthe,VBO,6.580841,52.873897
Schoolweg,3,,,9433PM,Zwiggelte,Midden-Drenthe,Drenthe,VBO,6.586381,52.874974
Schoolweg,7,,,9433PM,Zwiggelte,Midden-Drenthe,Drenthe,VBO,6.585877,52.874997
Schoolweg,9,,,9433PM,Zwiggelte,Midden-Drenthe,Drenthe,VBO,6.585640,52.875008
Schoolweg,11,,,9433PM,Zwiggelte,Midden-Drenthe,Drenthe,VBO,6.585507,52.875028
Schoolweg,13,,,9433PM,Zwiggelte,Midden-Drenthe,Drenthe,VBO,6.585134,52.874987
Schoolweg,15,,,9433PM,Zwiggelte,Midden-Drenthe,Drenthe,VBO,6.585015,52.874988
Schoolweg,17,,,9433PM,Zwiggelte,Midden-Drenthe,Drenthe,VBO,6.584765,52.875053
Schoolweg,19,,,9433PM,Zwiggelte,Midden-Drenthe,Drenthe,VBO,6.584644,52.875001
Schoolweg,21,,,9433PM,Zwiggelte,Midden-Drenthe,Drenthe,VBO,6.584392,52.875021
Schoolweg,23,,,9433PM,Zwiggelte,Midden-Drenthe,Drenthe,VBO,6.584273,52.875022
Essenmaat,2,,,9433PN,Zwiggelte,Midden-Drenthe,Drenthe,VBO,6.575017,52.867718
Olde Gard,17,,,9433PP,Zwiggelte,Midden-Drenthe,Drenthe,VBO,6.585075,52.875490
Olde Gard,19,,,9433PP,Zwiggelte,Midden-Drenthe,Drenthe,VBO,6.585071,52.875436
Olde Gard,21,,,9433PP,Zwiggelte,Midden-Drenthe,Drenthe,VBO,6.585068,52.875328
Olde Gard,23,,,9433PP,Zwiggelte,Midden-Drenthe,Drenthe,VBO,6.585065,52.875275
Schattenberg,1,,,9433TA,Zwiggelte,Midden-Drenthe,Drenthe,VBO,6.603846,52.914809
Schattenberg,2,,,9433TA,Zwiggelte,Midden-Drenthe,Drenthe,VBO,6.602837,52.914813
Schattenberg,4,,,9433TA,Zwiggelte,Midden-Drenthe,Drenthe,VBO,6.603269,52.917442
Klateringerweg,5,,,9433TB,Zwiggelte,Midden-Drenthe,Drenthe,VBO,6.586622,52.877236
Klateringerweg,6,S,1,9433TB,Zwiggelte,Midden-Drenthe,Drenthe,VBO,6.582219,52.877619
Klateringerweg,6,,,9433TB,Zwiggelte,Midden-Drenthe,Drenthe,VBO,6.585128,52.877476
Klateringerweg,7,,,9433TB,Zwiggelte,Midden-Drenthe,Drenthe,VBO,6.586392,52.877535
Klateringerweg,9,,,9433TB,Zwiggelte,Midden-Drenthe,Drenthe,VBO,6.583941,52.878072
Klateringerweg,11,,,9433TB,Zwiggelte,Midden-Drenthe,Drenthe,VBO,6.582394,52.877989
Klateringerweg,13,A,,9433TB,Zwiggelte,Midden-Drenthe,Drenthe,VBO,6.567187,52.877601
Klateringerweg,13,B,,9433TB,Zwiggelte,Midden-Drenthe,Drenthe,VBO,6.567027,52.877908
Klateringerweg,13,,,9433TB,Zwiggelte,Midden-Drenthe,Drenthe,VBO,6.580824,52.878148
Klateringerweg,14,,,9433TB,Zwiggelte,Midden-Drenthe,Drenthe,VBO,6.558919,52.875651
Klateringerweg,15,,,9433TB,Zwiggelte,Midden-Drenthe,Drenthe,VBO,6.556748,52.876104
Klateringerweg,16,T,1,9433TB,Zwiggelte,Midden-Drenthe,Drenthe,VBO,6.560286,52.875969
Klateringerweg,16,,,9433TB,Zwiggelte,Midden-Drenthe,Drenthe,VBO,6.559908,52.875965
Oranjekanaal Z.Z.,1,,,9433TC,Zwiggelte,Midden-Drenthe,Drenthe,VBO,6.560170,52.887359
Oranjekanaal Z.Z.,2,,,9433TC,Zwiggelte,Midden-Drenthe,Drenthe,VBO,6.561781,52.887612
Oranjekanaal Z.Z.,3,A,,9433TC,Zwiggelte,Midden-Drenthe,Drenthe,VBO,6.574804,52.887626
Oranjekanaal Z.Z.,3,T,1,9433TC,Zwiggelte,Midden-Drenthe,Drenthe,VBO,6.574425,52.887977
Oranjekanaal Z.Z.,3,,,9433TC,Zwiggelte,Midden-Drenthe,Drenthe,VBO,6.574144,52.887643
Oranjekanaal N.Z.,1,T,1,9433TD,Zwiggelte,Midden-Drenthe,Drenthe,VBO,6.559088,52.888391
Oranjekanaal N.Z.,1,,,9433TD,Zwiggelte,Midden-Drenthe,Drenthe,VBO,6.561158,52.888733
Oranjekanaal N.Z.,3,,,9433TD,Zwiggelte,Midden-Drenthe,Drenthe,VBO,6.563221,52.888668
Oranjekanaal N.Z.,4,,,9433TD,Zwiggelte,Midden-Drenthe,Drenthe,VBO,6.566039,52.889008
Oranjekanaal N.Z.,5,,,9433TD,Zwiggelte,Midden-Drenthe,Drenthe,VBO,6.566921,52.889197
Oranjekanaal N.Z.,6,,,9433TD,Zwiggelte,Midden-Drenthe,Drenthe,VBO,6.570199,52.888985
Oranjekanaal N.Z.,7,,,9433TD,Zwiggelte,Midden-Drenthe,Drenthe,VBO,6.573708,52.888555
Oranjekanaal N.Z.,8,,,9433TD,Zwiggelte,Midden-Drenthe,Drenthe,VBO,6.575722,52.888283
Oranjekanaal N.Z.,9,T,1,9433TD,Zwiggelte,Midden-Drenthe,Drenthe,VBO,6.577657,52.887985
Oranjekanaal N.Z.,9,,,9433TD,Zwiggelte,Midden-Drenthe,Drenthe,VBO,6.577441,52.888104
Oranjekanaal N.Z.,12,,,9433TD,Zwiggelte,Midden-Drenthe,Drenthe,VBO,6.584924,52.886277
Oranjekanaal N.Z.,15,T,1,9433TD,Zwiggelte,Midden-Drenthe,Drenthe,VBO,6.594004,52.886650
Halerweg,3,,,9433TE,Zwiggelte,Midden-Drenthe,Drenthe,VBO,6.580524,52.890006
Halerweg,5,,,9433TE,Zwiggelte,Midden-Drenthe,Drenthe,VBO,6.577502,52.891456
Halerweg,6,,,9433TE,Zwiggelte,Midden-Drenthe,Drenthe,VBO,6.571350,52.894186
Halerweg,7,A,,9433TE,Zwiggelte,Midden-Drenthe,Drenthe,VBO,6.575545,52.892698
Halerweg,7,,,9433TE,Zwiggelte,Midden-Drenthe,Drenthe,VBO,6.576601,52.892184
Halerweg,8,,,9433TE,Zwiggelte,Midden-Drenthe,Drenthe,VBO,6.566909,52.896486
Halerweg,9,,,9433TE,Zwiggelte,Midden-Drenthe,Drenthe,VBO,6.575358,52.893463
Halerweg,10,,,9433TE,Zwiggelte,Midden-Drenthe,Drenthe,VBO,6.562699,52.899062
Halerweg,11,,,9433TE,Zwiggelte,Midden-Drenthe,Drenthe,VBO,6.574271,52.893393
Halerweg,13,B,,9433TE,Zwiggelte,Midden-Drenthe,Drenthe,VBO,6.570429,52.895301
Halerweg,13,,,9433TE,Zwiggelte,Midden-Drenthe,Drenthe,VBO,6.573231,52.893943
Halerweg,15,,,9433TE,Zwiggelte,Midden-Drenthe,Drenthe,VBO,6.570023,52.895655
Halerweg,17,T,1,9433TE,Zwiggelte,Midden-Drenthe,Drenthe,VBO,6.566114,52.898071
Halerweg,17,,,9433TE,Zwiggelte,Midden-Drenthe,Drenthe,VBO,6.566142,52.897779
Halerweg,19,,,9433TE,Zwiggelte,Midden-Drenthe,Drenthe,VBO,6.563396,52.899421
Oranjekanaal Z.Z.,4,,,9433TG,Zwiggelte,Midden-Drenthe,Drenthe,VBO,6.592306,52.885645
Oranjekanaal Z.Z.,5,,,9433TG,Zwiggelte,Midden-Drenthe,Drenthe,VBO,6.593266,52.885977
Oranjekanaal Z.Z.,6,,,9433TG,Zwiggelte,Midden-Drenthe,Drenthe,VBO,6.594300,52.885769
Oranjekanaal Z.Z.,7,,,9433TG,Zwiggelte,Midden-Drenthe,Drenthe,VBO,6.597905,52.886119
Oranjekanaal Z.Z.,8,,,9433TG,Zwiggelte,Midden-Drenthe,Drenthe,VBO,6.599507,52.885473
Oranjekanaal Z.Z.,9,,,9433TG,Zwiggelte,Midden-Drenthe,Drenthe,VBO,6.604986,52.883746
Oranjekanaal Z.Z.,10,,,9433TG,Zwiggelte,Midden-Drenthe,Drenthe,VBO,6.612353,52.878898
Oranjekanaal N.Z.,13,A,,9433TH,Zwiggelte,Midden-Drenthe,Drenthe,VBO,6.588475,52.886295
Oranjekanaal N.Z.,13,,,9433TH,Zwiggelte,Midden-Drenthe,Drenthe,VBO,6.587140,52.886241
Oranjekanaal N.Z.,14,,,9433TH,Zwiggelte,Midden-Drenthe,Drenthe,VBO,6.591190,52.886672
Oranjekanaal N.Z.,15,,,9433TH,Zwiggelte,Midden-Drenthe,Drenthe,VBO,6.593085,52.886968
Oranjekanaal N.Z.,18,,,9433TH,Zwiggelte,Midden-Drenthe,Drenthe,VBO,6.605205,52.884683
Oranjekanaal N.Z.,19,,,9433TH,Zwiggelte,Midden-Drenthe,Drenthe,VBO,6.606014,52.884383
Oranjekanaal N.Z.,20,,,9433TH,Zwiggelte,Midden-Drenthe,Drenthe,VBO,6.606489,52.883848
Oranjekanaal N.Z.,21,,,9433TH,Zwiggelte,Midden-Drenthe,Drenthe,VBO,6.607941,52.883150
Oranjekanaal N.Z.,22,,,9433TH,Zwiggelte,Midden-Drenthe,Drenthe,VBO,6.609267,52.882246
Oranjekanaal N.Z.,23,,,9433TH,Zwiggelte,Midden-Drenthe,Drenthe,VBO,6.609735,52.881963
Oranjekanaal N.Z.,24,,,9433TH,Zwiggelte,Midden-Drenthe,Drenthe,VBO,6.610861,52.881331
Oranjekanaal N.Z.,26,,,9433TH,Zwiggelte,Midden-Drenthe,Drenthe,VBO,6.614973,52.878036
Oranjekanaal N.Z.,27,,,9433TH,Zwiggelte,Midden-Drenthe,Drenthe,VBO,6.615155,52.877647
Oranjekanaal N.Z.,28,,,9433TH,Zwiggelte,Midden-Drenthe,Drenthe,VBO,6.618226,52.874344
Elperweg,4,,,9433TJ,Zwiggelte,Midden-Drenthe,Drenthe,VBO,6.601155,52.877952
Elperweg,5,,,9433TJ,Zwiggelte,Midden-Drenthe,Drenthe,VBO,6.612595,52.875867
Hemeloor,1,,,9433TK,Zwiggelte,Midden-Drenthe,Drenthe,VBO,6.574310,52.920286
Hemeloor,2,,,9433TK,Zwiggelte,Midden-Drenthe,Drenthe,VBO,6.584438,52.920047
Eekhorsten,1,,,9433TL,Zwiggelte,Midden-Drenthe,Drenthe,VBO,6.583955,52.878566
Het Zwiggelterveld,12,,,9433VA,Zwiggelte,Midden-Drenthe,Drenthe,VBO,6.606409,52.885536
Het Zwiggelterveld,13,,,9433VA,Zwiggelte,Midden-Drenthe,Drenthe,VBO,6.606539,52.885465
Het Zwiggelterveld,14,,,9433VA,Zwiggelte,Midden-Drenthe,Drenthe,VBO,6.606738,52.885431
Het Zwiggelterveld,16,,,9433VA,Zwiggelte,Midden-Drenthe,Drenthe,VBO,6.607079,52.885473
Het Zwiggelterveld,20,,,9433VA,Zwiggelte,Midden-Drenthe,Drenthe,VBO,6.607645,52.885270
Het Zwiggelterveld,22,,,9433VA,Zwiggelte,Midden-Drenthe,Drenthe,VBO,6.607264,52.885693
Het Zwiggelterveld,33,,,9433VA,Zwiggelte,Midden-Drenthe,Drenthe,VBO,6.608463,52.885772
Het Zwiggelterveld,40,,,9433VA,Zwiggelte,Midden-Drenthe,Drenthe,VBO,6.609027,52.886410
Het Zwiggelterveld,41,,,9433VA,Zwiggelte,Midden-Drenthe,Drenthe,VBO,6.609061,52.886562
Het Zwiggelterveld,42,,,9433VA,Zwiggelte,Midden-Drenthe,Drenthe,VBO,6.608916,52.886690
Het Zwiggelterveld,43,,,9433VA,Zwiggelte,Midden-Drenthe,Drenthe,VBO,6.608875,52.886816
Het Zwiggelterveld,44,,,9433VA,Zwiggelte,Midden-Drenthe,Drenthe,VBO,6.609097,52.886769
Het Zwiggelterveld,45,,,9433VA,Zwiggelte,Midden-Drenthe,Drenthe,VBO,6.608943,52.887130
Het Zwiggelterveld,46,,,9433VA,Zwiggelte,Midden-Drenthe,Drenthe,VBO,6.608722,52.887186
Het Zwiggelterveld,47,,,9433VB,Zwiggelte,Midden-Drenthe,Drenthe,VBO,6.608468,52.887117
Het Zwiggelterveld,48,,,9433VB,Zwiggelte,Midden-Drenthe,Drenthe,VBO,6.608216,52.887155
Het Zwiggelterveld,49,,,9433VB,Zwiggelte,Midden-Drenthe,Drenthe,VBO,6.608287,52.887029
Het Zwiggelterveld,50,,,9433VB,Zwiggelte,Midden-Drenthe,Drenthe,VBO,6.608092,52.886959
Het Zwiggelterveld,51,,,9433VB,Zwiggelte,Midden-Drenthe,Drenthe,VBO,6.608088,52.886815
Het Zwiggelterveld,52,,,9433VB,Zwiggelte,Midden-Drenthe,Drenthe,VBO,6.608506,52.886901
Het Zwiggelterveld,53,,,9433VB,Zwiggelte,Midden-Drenthe,Drenthe,VBO,6.608562,52.886765
Het Zwiggelterveld,54,,,9433VB,Zwiggelte,Midden-Drenthe,Drenthe,VBO,6.608355,52.886803
Het Zwiggelterveld,59,,,9433VB,Zwiggelte,Midden-Drenthe,Drenthe,VBO,6.607751,52.886428
Het Zwiggelterveld,67,,,9433VB,Zwiggelte,Midden-Drenthe,Drenthe,VBO,6.607148,52.885852
Het Zwiggelterveld,68,,,9433VB,Zwiggelte,Midden-Drenthe,Drenthe,VBO,6.607091,52.885977
Het Zwiggelterveld,69,,,9433VB,Zwiggelte,Midden-Drenthe,Drenthe,VBO,6.607307,52.885940
Het Zwiggelterveld,70,,,9433VB,Zwiggelte,Midden-Drenthe,Drenthe,VBO,6.607392,52.886129
Het Zwiggelterveld,71,,,9433VB,Zwiggelte,Midden-Drenthe,Drenthe,VBO,6.607593,52.886092
Het Zwiggelterveld,72,,,9433VB,Zwiggelte,Midden-Drenthe,Drenthe,VBO,6.607537,52.886217
Het Zwiggelterveld,73,,,9433VB,Zwiggelte,Midden-Drenthe,Drenthe,VBO,6.607332,52.886355
Het Zwiggelterveld,74,,,9433VB,Zwiggelte,Midden-Drenthe,Drenthe,VBO,6.607468,52.886453
Het Zwiggelterveld,75,,,9433VB,Zwiggelte,Midden-Drenthe,Drenthe,VBO,6.607246,52.886482
Het Zwiggelterveld,76,,,9433VB,Zwiggelte,Midden-Drenthe,Drenthe,VBO,6.607207,52.886653
Het Zwiggelterveld,77,,,9433VB,Zwiggelte,Midden-Drenthe,Drenthe,VBO,6.607089,52.886717
Het Zwiggelterveld,78,,,9433VB,Zwiggelte,Midden-Drenthe,Drenthe,VBO,6.606963,52.886440
Het Zwiggelterveld,79,,,9433VB,Zwiggelte,Midden-Drenthe,Drenthe,VBO,6.606756,52.886469
Het Zwiggelterveld,80,,,9433VB,Zwiggelte,Midden-Drenthe,Drenthe,VBO,6.606922,52.886575
Het Zwiggelterveld,81,,,9433VB,Zwiggelte,Midden-Drenthe,Drenthe,VBO,6.606688,52.886694
Het Zwiggelterveld,82,,,9433VB,Zwiggelte,Midden-Drenthe,Drenthe,VBO,6.606839,52.886792
Het Zwiggelterveld,83,,,9433VB,Zwiggelte,Midden-Drenthe,Drenthe,VBO,6.606602,52.886821
Het Zwiggelterveld,84,,,9433VB,Zwiggelte,Midden-Drenthe,Drenthe,VBO,6.606593,52.887019
Het Zwiggelterveld,85,,,9433VB,Zwiggelte,Midden-Drenthe,Drenthe,VBO,6.606475,52.887065
Het Zwiggelterveld,86,,,9433VB,Zwiggelte,Midden-Drenthe,Drenthe,VBO,6.606333,52.886770
Het Zwiggelterveld,87,,,9433VB,Zwiggelte,Midden-Drenthe,Drenthe,VBO,6.606111,52.886808
Het Zwiggelterveld,88,,,9433VB,Zwiggelte,Midden-Drenthe,Drenthe,VBO,6.606307,52.886905
Het Zwiggelterveld,89,,,9433VB,Zwiggelte,Midden-Drenthe,Drenthe,VBO,6.606044,52.887043
Het Zwiggelterveld,90,,,9433VB,Zwiggelte,Midden-Drenthe,Drenthe,VBO,6.606195,52.887140
Het Zwiggelterveld,91,,,9433VB,Zwiggelte,Midden-Drenthe,Drenthe,VBO,6.605988,52.887169
Het Zwiggelterveld,92,,,9433VC,Zwiggelte,Midden-Drenthe,Drenthe,VBO,6.605689,52.887127
Het Zwiggelterveld,93,,,9433VC,Zwiggelte,Midden-Drenthe,Drenthe,VBO,6.605633,52.887253
Het Zwiggelterveld,94,,,9433VC,Zwiggelte,Midden-Drenthe,Drenthe,VBO,6.605467,52.887156
Het Zwiggelterveld,95,,,9433VC,Zwiggelte,Midden-Drenthe,Drenthe,VBO,6.605388,52.886977
Het Zwiggelterveld,96,,,9433VC,Zwiggelte,Midden-Drenthe,Drenthe,VBO,6.605181,52.887015
Het Zwiggelterveld,97,,,9433VC,Zwiggelte,Midden-Drenthe,Drenthe,VBO,6.605237,52.886880
Het Zwiggelterveld,98,,,9433VC,Zwiggelte,Midden-Drenthe,Drenthe,VBO,6.605471,52.886743
Het Zwiggelterveld,99,,,9433VC,Zwiggelte,Midden-Drenthe,Drenthe,VBO,6.605305,52.886664
Het Zwiggelterveld,100,,,9433VC,Zwiggelte,Midden-Drenthe,Drenthe,VBO,6.605527,52.886625
Het Zwiggelterveld,101,,,9433VC,Zwiggelte,Midden-Drenthe,Drenthe,VBO,6.605626,52.886454
Het Zwiggelterveld,102,,,9433VC,Zwiggelte,Midden-Drenthe,Drenthe,VBO,6.605825,52.886676
Het Zwiggelterveld,103,,,9433VC,Zwiggelte,Midden-Drenthe,Drenthe,VBO,6.606018,52.886647
Het Zwiggelterveld,104,,,9433VC,Zwiggelte,Midden-Drenthe,Drenthe,VBO,6.605851,52.886541
Het Zwiggelterveld,105,,,9433VC,Zwiggelte,Midden-Drenthe,Drenthe,VBO,6.606085,52.886404
Het Zwiggelterveld,106,,,9433VC,Zwiggelte,Midden-Drenthe,Drenthe,VBO,6.605919,52.886316
Het Zwiggelterveld,107,,,9433VC,Zwiggelte,Midden-Drenthe,Drenthe,VBO,6.606141,52.886278
Het Zwiggelterveld,108,,,9433VC,Zwiggelte,Midden-Drenthe,Drenthe,VBO,6.606455,52.886328
Het Zwiggelterveld,109,,,9433VC,Zwiggelte,Midden-Drenthe,Drenthe,VBO,6.606662,52.886299
Het Zwiggelterveld,110,,,9433VC,Zwiggelte,Midden-Drenthe,Drenthe,VBO,6.606496,52.886202
Het Zwiggelterveld,111,,,9433VC,Zwiggelte,Midden-Drenthe,Drenthe,VBO,6.606735,52.886061
Het Zwiggelterveld,112,,,9433VC,Zwiggelte,Midden-Drenthe,Drenthe,VBO,6.606796,52.885933
Het Zwiggelterveld,113,,,9433VC,Zwiggelte,Midden-Drenthe,Drenthe,VBO,6.606583,52.885969
Het Zwiggelterveld,114,,,9433VC,Zwiggelte,Midden-Drenthe,Drenthe,VBO,6.606240,52.886106
Het Zwiggelterveld,115,,,9433VC,Zwiggelte,Midden-Drenthe,Drenthe,VBO,6.605027,52.886801
Het Zwiggelterveld,116,,,9433VC,Zwiggelte,Midden-Drenthe,Drenthe,VBO,6.604958,52.887009
Het Zwiggelterveld,117,,,9433VC,Zwiggelte,Midden-Drenthe,Drenthe,VBO,6.604734,52.886984
Het Zwiggelterveld,118,,,9433VC,Zwiggelte,Midden-Drenthe,Drenthe,VBO,6.604253,52.886764
Het Zwiggelterveld,119,,,9433VC,Zwiggelte,Midden-Drenthe,Drenthe,VBO,6.604204,52.886621
Het Zwiggelterveld,120,,,9433VC,Zwiggelte,Midden-Drenthe,Drenthe,VBO,6.604576,52.886617
Het Zwiggelterveld,121,,,9433VC,Zwiggelte,Midden-Drenthe,Drenthe,VBO,6.604350,52.886512
Het Zwiggelterveld,122,,,9433VC,Zwiggelte,Midden-Drenthe,Drenthe,VBO,6.604466,52.886421
Het Zwiggelterveld,123,,,9433VC,Zwiggelte,Midden-Drenthe,Drenthe,VBO,6.604719,52.886445
Het Zwiggelterveld,124,,,9433VC,Zwiggelte,Midden-Drenthe,Drenthe,VBO,6.604941,52.886416
Het Zwiggelterveld,125,,,9433VC,Zwiggelte,Midden-Drenthe,Drenthe,VBO,6.604790,52.886327
Het Zwiggelterveld,126,,,9433VC,Zwiggelte,Midden-Drenthe,Drenthe,VBO,6.605251,52.886332
Het Zwiggelterveld,127,,,9433VC,Zwiggelte,Midden-Drenthe,Drenthe,VBO,6.605025,52.886208
Het Zwiggelterveld,128,,,9433VC,Zwiggelte,Midden-Drenthe,Drenthe,VBO,6.605156,52.886117
Het Zwiggelterveld,129,,,9433VC,Zwiggelte,Midden-Drenthe,Drenthe,VBO,6.605424,52.886150
Het Zwiggelterveld,130,,,9433VC,Zwiggelte,Midden-Drenthe,Drenthe,VBO,6.605616,52.886112
Het Zwiggelterveld,131,,,9433VC,Zwiggelte,Midden-Drenthe,Drenthe,VBO,6.605449,52.885979
Het Zwiggelterveld,132,,,9433VC,Zwiggelte,Midden-Drenthe,Drenthe,VBO,6.605926,52.886028
Het Zwiggelterveld,133,,,9433VC,Zwiggelte,Midden-Drenthe,Drenthe,VBO,6.605700,52.885905
Het Zwiggelterveld,134,,,9433VC,Zwiggelte,Midden-Drenthe,Drenthe,VBO,6.605876,52.885840
Het Zwiggelterveld,135,,,9433VC,Zwiggelte,Midden-Drenthe,Drenthe,VBO,6.606083,52.885793
Het Zwiggelterveld,136,,,9433VC,Zwiggelte,Midden-Drenthe,Drenthe,VBO,6.606217,52.885819
Het Zwiggelterveld,137,,,9433VC,Zwiggelte,Midden-Drenthe,Drenthe,VBO,6.606201,52.885747
Het Zwiggelterveld,138,,,9433VD,Zwiggelte,Midden-Drenthe,Drenthe,VBO,6.605911,52.885480
Het Zwiggelterveld,139,,,9433VD,Zwiggelte,Midden-Drenthe,Drenthe,VBO,6.605808,52.885535
Het Zwiggelterveld,140,,,9433VD,Zwiggelte,Midden-Drenthe,Drenthe,VBO,6.605482,52.885556
Het Zwiggelterveld,141,,,9433VD,Zwiggelte,Midden-Drenthe,Drenthe,VBO,6.605333,52.885522
Het Zwiggelterveld,142,,,9433VD,Zwiggelte,Midden-Drenthe,Drenthe,VBO,6.605350,52.885603
Het Zwiggelterveld,143,,,9433VD,Zwiggelte,Midden-Drenthe,Drenthe,VBO,6.604643,52.885826
Het Zwiggelterveld,144,,,9433VD,Zwiggelte,Midden-Drenthe,Drenthe,VBO,6.604777,52.885851
Het Zwiggelterveld,145,,,9433VD,Zwiggelte,Midden-Drenthe,Drenthe,VBO,6.604660,52.885906
Het Zwiggelterveld,146,,,9433VD,Zwiggelte,Midden-Drenthe,Drenthe,VBO,6.604531,52.886096
Het Zwiggelterveld,147,,,9433VD,Zwiggelte,Midden-Drenthe,Drenthe,VBO,6.604444,52.886142
Het Zwiggelterveld,148,,,9433VD,Zwiggelte,Midden-Drenthe,Drenthe,VBO,6.604058,52.886164
Het Zwiggelterveld,149,,,9433VD,Zwiggelte,Midden-Drenthe,Drenthe,VBO,6.603968,52.886138
Het Zwiggelterveld,150,,,9433VD,Zwiggelte,Midden-Drenthe,Drenthe,VBO,6.604000,52.886219
Het Zwiggelterveld,151,,,9433VD,Zwiggelte,Midden-Drenthe,Drenthe,VBO,6.603842,52.886400
Het Zwiggelterveld,152,,,9433VD,Zwiggelte,Midden-Drenthe,Drenthe,VBO,6.603739,52.886446
Het Zwiggelterveld,153,,,9433VD,Zwiggelte,Midden-Drenthe,Drenthe,VBO,6.603437,52.886287
Het Zwiggelterveld,154,,,9433VD,Zwiggelte,Midden-Drenthe,Drenthe,VBO,6.603361,52.886225
Het Zwiggelterveld,155,,,9433VD,Zwiggelte,Midden-Drenthe,Drenthe,VBO,6.603650,52.885935
Het Zwiggelterveld,156,,,9433VD,Zwiggelte,Midden-Drenthe,Drenthe,VBO,6.603785,52.885969
Het Zwiggelterveld,157,,,9433VD,Zwiggelte,Midden-Drenthe,Drenthe,VBO,6.603768,52.885879
Het Zwiggelterveld,158,,,9433VD,Zwiggelte,Midden-Drenthe,Drenthe,VBO,6.603896,52.885698
Het Zwiggelterveld,159,,,9433VD,Zwiggelte,Midden-Drenthe,Drenthe,VBO,6.603879,52.885618
Het Zwiggelterveld,160,,,9433VD,Zwiggelte,Midden-Drenthe,Drenthe,VBO,6.603999,52.885652
Het Zwiggelterveld,161,,,9433VD,Zwiggelte,Midden-Drenthe,Drenthe,VBO,6.604325,52.885631
Het Zwiggelterveld,162,,,9433VD,Zwiggelte,Midden-Drenthe,Drenthe,VBO,6.604428,52.885585
Het Zwiggelterveld,163,,,9433VD,Zwiggelte,Midden-Drenthe,Drenthe,VBO,6.604445,52.885666
Het Zwiggelterveld,164,,,9433VD,Zwiggelte,Midden-Drenthe,Drenthe,VBO,6.605135,52.885362
Het Zwiggelterveld,165,,,9433VD,Zwiggelte,Midden-Drenthe,Drenthe,VBO,6.605015,52.885328
Het Zwiggelterveld,166,,,9433VD,Zwiggelte,Midden-Drenthe,Drenthe,VBO,6.605133,52.885281
Het Zwiggelterveld,167,,,9433VD,Zwiggelte,Midden-Drenthe,Drenthe,VBO,6.605261,52.885091
Het Zwiggelterveld,168,,,9433VD,Zwiggelte,Midden-Drenthe,Drenthe,VBO,6.605244,52.885020
Het Zwiggelterveld,169,,,9433VD,Zwiggelte,Midden-Drenthe,Drenthe,VBO,6.605364,52.885045
Het Zwiggelterveld,170,,,9433VD,Zwiggelte,Midden-Drenthe,Drenthe,VBO,6.604674,52.885349
Het Zwiggelterveld,171,,,9433VD,Zwiggelte,Midden-Drenthe,Drenthe,VBO,6.604554,52.885314
Het Zwiggelterveld,172,,,9433VD,Zwiggelte,Midden-Drenthe,Drenthe,VBO,6.604571,52.885386
Het Zwiggelterveld,173,,,9433VD,Zwiggelte,Midden-Drenthe,Drenthe,VBO,6.603279,52.885956
Het Zwiggelterveld,174,,,9433VD,Zwiggelte,Midden-Drenthe,Drenthe,VBO,6.603221,52.886002
Het Zwiggelterveld,175,,,9433VD,Zwiggelte,Midden-Drenthe,Drenthe,VBO,6.603204,52.885921
Het Zwiggelterveld,176,,,9433VD,Zwiggelte,Midden-Drenthe,Drenthe,VBO,6.602992,52.885762
Het Zwiggelterveld,177,,,9433VD,Zwiggelte,Midden-Drenthe,Drenthe,VBO,6.602857,52.885727
Het Zwiggelterveld,178,,,9433VD,Zwiggelte,Midden-Drenthe,Drenthe,VBO,6.602975,52.885690
Het Zwiggelterveld,179,,,9433VD,Zwiggelte,Midden-Drenthe,Drenthe,VBO,6.603103,52.885482
Het Zwiggelterveld,180,,,9433VD,Zwiggelte,Midden-Drenthe,Drenthe,VBO,6.603206,52.885445
Het Zwiggelterveld,181,,,9433VD,Zwiggelte,Midden-Drenthe,Drenthe,VBO,6.603562,52.885423
Het Zwiggelterveld,182,,,9433VD,Zwiggelte,Midden-Drenthe,Drenthe,VBO,6.603665,52.885386
Het Zwiggelterveld,183,,,9433VD,Zwiggelte,Midden-Drenthe,Drenthe,VBO,6.603681,52.885449
