openbareruimtenaam,huisnummer,huisletter,huisnummertoevoeging,postcode,woonplaatsnaam,gemeentenaam,provincienaam,typeadresseerbaarobject,longitude,latitude
Schoolstraat,1,,,9461AA,Gieten,Aa en Hunze,Drenthe,VBO,6.764440,53.005780
Schoolstraat,5,,,9461AA,Gieten,Aa en Hunze,Drenthe,VBO,6.764889,53.005881
Schoolstraat,7,,,9461AA,Gieten,Aa en Hunze,Drenthe,VBO,6.764964,53.005907
Schoolstraat,9,,,9461AA,Gieten,Aa en Hunze,Drenthe,VBO,6.765083,53.005915
Schoolstraat,11,,,9461AA,Gieten,Aa en Hunze,Drenthe,VBO,6.765173,53.005914
Schoolstraat,13,,,9461AA,Gieten,Aa en Hunze,Drenthe,VBO,6.765517,53.005946
Schoolstraat,17,,,9461AA,Gieten,Aa en Hunze,Drenthe,VBO,6.765788,53.006050
Schoolstraat,19,,,9461AA,Gieten,Aa en Hunze,Drenthe,VBO,6.766338,53.005999
Schoolstraat,21,,,9461AA,Gieten,Aa en Hunze,Drenthe,VBO,6.766698,53.006076
Schoolstraat,23,,,9461AA,Gieten,Aa en Hunze,Drenthe,VBO,6.766894,53.006146
Schoolstraat,25,,,9461AA,Gieten,Aa en Hunze,Drenthe,VBO,6.767147,53.006134
Schoolstraat,27,,,9461AA,Gieten,Aa en Hunze,Drenthe,VBO,6.767344,53.006248
Schoolstraat,29,,,9461AA,Gieten,Aa en Hunze,Drenthe,VBO,6.767552,53.006228
Schoolstraat,31,,,9461AA,Gieten,Aa en Hunze,Drenthe,VBO,6.767689,53.006334
Schoolstraat,2,,,9461AB,Gieten,Aa en Hunze,Drenthe,VBO,6.764460,53.005518
Schoolstraat,4,a,,9461AB,Gieten,Aa en Hunze,Drenthe,VBO,6.764763,53.005471
Schoolstraat,4,,,9461AB,Gieten,Aa en Hunze,Drenthe,VBO,6.764727,53.005470
Schoolstraat,6,a,,9461AB,Gieten,Aa en Hunze,Drenthe,VBO,6.765054,53.005475
Schoolstraat,6,,,9461AB,Gieten,Aa en Hunze,Drenthe,VBO,6.764950,53.005471
Schoolstraat,8,,,9461AB,Gieten,Aa en Hunze,Drenthe,VBO,6.765251,53.005571
Schoolstraat,10,,,9461AB,Gieten,Aa en Hunze,Drenthe,VBO,6.765387,53.005615
Schoolstraat,12,a,,9461AB,Gieten,Aa en Hunze,Drenthe,VBO,6.765566,53.005622
Schoolstraat,12,b,,9461AB,Gieten,Aa en Hunze,Drenthe,VBO,6.765580,53.005585
Schoolstraat,12,c,,9461AB,Gieten,Aa en Hunze,Drenthe,VBO,6.765594,53.005558
Schoolstraat,12,,,9461AB,Gieten,Aa en Hunze,Drenthe,VBO,6.765552,53.005649
Schoolstraat,14,,,9461AB,Gieten,Aa en Hunze,Drenthe,VBO,6.765715,53.005638
Schoolstraat,16,,,9461AB,Gieten,Aa en Hunze,Drenthe,VBO,6.765894,53.005645
Schoolstraat,20,a,,9461AB,Gieten,Aa en Hunze,Drenthe,VBO,6.766521,53.005747
Schoolstraat,20,,,9461AB,Gieten,Aa en Hunze,Drenthe,VBO,6.766426,53.005743
Schoolstraat,22,,,9461AB,Gieten,Aa en Hunze,Drenthe,VBO,6.766881,53.005759
Schoolstraat,24,,,9461AB,Gieten,Aa en Hunze,Drenthe,VBO,6.767212,53.005863
Schoolstraat,26,,,9461AB,Gieten,Aa en Hunze,Drenthe,VBO,6.767437,53.005897
Bonnen,1,,,9461AC,Gieten,Aa en Hunze,Drenthe,VBO,6.768420,53.006362
Bonnen,3,,,9461AC,Gieten,Aa en Hunze,Drenthe,VBO,6.768763,53.006367
Bonnen,5,a,,9461AC,Gieten,Aa en Hunze,Drenthe,VBO,6.769450,53.006404
Bonnen,5,,,9461AC,Gieten,Aa en Hunze,Drenthe,VBO,6.769106,53.006372
Bonnen,7,,,9461AC,Gieten,Aa en Hunze,Drenthe,VBO,6.769779,53.006454
Bonnen,9,a,,9461AC,Gieten,Aa en Hunze,Drenthe,VBO,6.770303,53.006520
Bonnen,9,b,,9461AC,Gieten,Aa en Hunze,Drenthe,VBO,6.770542,53.006544
Bonnen,11,,,9461AC,Gieten,Aa en Hunze,Drenthe,VBO,6.771213,53.006581
Bonnen,13,,,9461AC,Gieten,Aa en Hunze,Drenthe,VBO,6.771942,53.006546
Bonnen,15,,,9461AC,Gieten,Aa en Hunze,Drenthe,VBO,6.772210,53.006542
Bonnen,19,,,9461AC,Gieten,Aa en Hunze,Drenthe,VBO,6.772552,53.006511
Bonnen,21,,,9461AC,Gieten,Aa en Hunze,Drenthe,VBO,6.772863,53.006436
Bonnen,23,a,,9461AC,Gieten,Aa en Hunze,Drenthe,VBO,6.773994,53.005479
Bonnen,23,,,9461AC,Gieten,Aa en Hunze,Drenthe,VBO,6.773923,53.005570
Bonnen,25,a,,9461AC,Gieten,Aa en Hunze,Drenthe,VBO,6.774489,53.005114
Bonnen,25,,,9461AC,Gieten,Aa en Hunze,Drenthe,VBO,6.774430,53.005133
Bonnen,29,,,9461AC,Gieten,Aa en Hunze,Drenthe,VBO,6.775076,53.005287
Bonnen,31,,,9461AC,Gieten,Aa en Hunze,Drenthe,VBO,6.775445,53.005184
Bonnen,33,,,9461AC,Gieten,Aa en Hunze,Drenthe,VBO,6.775898,53.004909
Bonnen,35,,,9461AC,Gieten,Aa en Hunze,Drenthe,VBO,6.776134,53.004834
Bonnen,2,a,,9461AD,Gieten,Aa en Hunze,Drenthe,VBO,6.767872,53.005999
Bonnen,2,b,,9461AD,Gieten,Aa en Hunze,Drenthe,VBO,6.768038,53.006051
Bonnen,2,,,9461AD,Gieten,Aa en Hunze,Drenthe,VBO,6.767707,53.005965
Bonnen,4,,,9461AD,Gieten,Aa en Hunze,Drenthe,VBO,6.768298,53.006042
Bonnen,6,,,9461AD,Gieten,Aa en Hunze,Drenthe,VBO,6.768750,53.006122
Bonnen,8,a,,9461AD,Gieten,Aa en Hunze,Drenthe,VBO,6.769307,53.006145
Bonnen,8,,,9461AD,Gieten,Aa en Hunze,Drenthe,VBO,6.769054,53.006130
Bonnen,10,,,9461AD,Gieten,Aa en Hunze,Drenthe,VBO,6.769559,53.006106
Bonnen,12,a,,9461AD,Gieten,Aa en Hunze,Drenthe,VBO,6.769798,53.006103
Bonnen,12,b,,9461AD,Gieten,Aa en Hunze,Drenthe,VBO,6.769872,53.006102
Bonnen,12,c,,9461AD,Gieten,Aa en Hunze,Drenthe,VBO,6.770037,53.006118
Bonnen,12,d,,9461AD,Gieten,Aa en Hunze,Drenthe,VBO,6.770111,53.006117
Bonnen,12,e,,9461AD,Gieten,Aa en Hunze,Drenthe,VBO,6.770290,53.006115
Bonnen,12,f,,9461AD,Gieten,Aa en Hunze,Drenthe,VBO,6.770364,53.006114
Bonnen,14,,,9461AD,Gieten,Aa en Hunze,Drenthe,VBO,6.770544,53.006139
Bonnen,16,,,9461AD,Gieten,Aa en Hunze,Drenthe,VBO,6.770827,53.006154
Bonnen,18,,,9461AD,Gieten,Aa en Hunze,Drenthe,VBO,6.771305,53.006175
Bonnen,20,,,9461AD,Gieten,Aa en Hunze,Drenthe,VBO,6.771588,53.006181
Bonnen,22,,,9461AD,Gieten,Aa en Hunze,Drenthe,VBO,6.771946,53.006177
Bonnen,24,,,9461AD,Gieten,Aa en Hunze,Drenthe,VBO,6.772232,53.006178
Bonnen,26,,,9461AD,Gieten,Aa en Hunze,Drenthe,VBO,6.772452,53.006189
Bonnen,28,,,9461AD,Gieten,Aa en Hunze,Drenthe,VBO,6.772779,53.006149
Bonnen,30,,,9461AD,Gieten,Aa en Hunze,Drenthe,VBO,6.772939,53.006022
Bonnen,32,,,9461AD,Gieten,Aa en Hunze,Drenthe,VBO,6.773079,53.005732
Bonnen,34,,,9461AD,Gieten,Aa en Hunze,Drenthe,VBO,6.773192,53.005551
Bonnen,36,,,9461AD,Gieten,Aa en Hunze,Drenthe,VBO,6.773616,53.005295
de Bonne,1,,,9461AE,Gieten,Aa en Hunze,Drenthe,VBO,6.774654,53.005606
de Bonne,2,,,9461AE,Gieten,Aa en Hunze,Drenthe,VBO,6.776358,53.006352
de Bonne,3,,,9461AE,Gieten,Aa en Hunze,Drenthe,VBO,6.776989,53.005939
Bonnerhoek,2,,,9461AG,Gieten,Aa en Hunze,Drenthe,VBO,6.770850,53.005920
Bonnerhoek,4,,,9461AG,Gieten,Aa en Hunze,Drenthe,VBO,6.770848,53.005857
Bonnerhoek,6,,,9461AG,Gieten,Aa en Hunze,Drenthe,VBO,6.770870,53.005614
Bonnerhoek,8,,,9461AG,Gieten,Aa en Hunze,Drenthe,VBO,6.770557,53.005609
Bonnerhoek,10,,,9461AG,Gieten,Aa en Hunze,Drenthe,VBO,6.770437,53.005601
Bonnerhoek,12,,,9461AG,Gieten,Aa en Hunze,Drenthe,VBO,6.770214,53.005613
Bonnerhoek,14,,,9461AG,Gieten,Aa en Hunze,Drenthe,VBO,6.770110,53.005605
Bonnerhoek,16,,,9461AG,Gieten,Aa en Hunze,Drenthe,VBO,6.769841,53.005599
Bonnerhoek,18,,,9461AG,Gieten,Aa en Hunze,Drenthe,VBO,6.769752,53.005591
Bonnerhoek,20,,,9461AG,Gieten,Aa en Hunze,Drenthe,VBO,6.769363,53.005569
Bonnerhoek,22,,,9461AG,Gieten,Aa en Hunze,Drenthe,VBO,6.769191,53.005760
Bonnerhoek,24,,,9461AG,Gieten,Aa en Hunze,Drenthe,VBO,6.769178,53.005814
Bonnerhoek,26,,,9461AG,Gieten,Aa en Hunze,Drenthe,VBO,6.768803,53.005737
Bonnerhoek,28,a,,9461AG,Gieten,Aa en Hunze,Drenthe,VBO,6.768319,53.005961
Bonnerhoek,28,,,9461AG,Gieten,Aa en Hunze,Drenthe,VBO,6.768713,53.005729
Bonnerhoek,30,,,9461AG,Gieten,Aa en Hunze,Drenthe,VBO,6.768098,53.005601
Bonnerhoek,32,,,9461AG,Gieten,Aa en Hunze,Drenthe,VBO,6.767978,53.005585
Bonnerhoek,34,,,9461AG,Gieten,Aa en Hunze,Drenthe,VBO,6.767859,53.005568
Bonnerhoek,36,,,9461AG,Gieten,Aa en Hunze,Drenthe,VBO,6.767636,53.005580
Bonnerhoek,38,,,9461AG,Gieten,Aa en Hunze,Drenthe,VBO,6.767531,53.005572
Bonnerhoek,40,,,9461AG,Gieten,Aa en Hunze,Drenthe,VBO,6.768099,53.005619
Bonnerhoek,42,,,9461AG,Gieten,Aa en Hunze,Drenthe,VBO,6.767979,53.005603
Bonnerhoek,44,,,9461AG,Gieten,Aa en Hunze,Drenthe,VBO,6.767859,53.005586
Bonnerhoek,46,,,9461AG,Gieten,Aa en Hunze,Drenthe,VBO,6.767636,53.005607
Bonnerhoek,48,,,9461AG,Gieten,Aa en Hunze,Drenthe,VBO,6.767532,53.005599
Bonnerhoek,1,,,9461AH,Gieten,Aa en Hunze,Drenthe,VBO,6.771268,53.005951
Bonnerhoek,3,,,9461AH,Gieten,Aa en Hunze,Drenthe,VBO,6.771281,53.005888
Bonnerhoek,5,,,9461AH,Gieten,Aa en Hunze,Drenthe,VBO,6.771291,53.005753
Bonnerhoek,7,,,9461AH,Gieten,Aa en Hunze,Drenthe,VBO,6.771289,53.005690
Bonnerhoek,9,,,9461AH,Gieten,Aa en Hunze,Drenthe,VBO,6.771332,53.005684
Bonnerhoek,11,,,9461AH,Gieten,Aa en Hunze,Drenthe,VBO,6.768824,53.005476
Bonnerhoek,13,,,9461AH,Gieten,Aa en Hunze,Drenthe,VBO,6.768540,53.005443
Ambachtsstraat,1,,,9461AJ,Gieten,Aa en Hunze,Drenthe,VBO,6.765870,53.006283
Ambachtsstraat,3,,,9461AJ,Gieten,Aa en Hunze,Drenthe,VBO,6.765872,53.006337
Ambachtsstraat,5,,,9461AJ,Gieten,Aa en Hunze,Drenthe,VBO,6.765755,53.006428
Ambachtsstraat,7,,,9461AJ,Gieten,Aa en Hunze,Drenthe,VBO,6.765742,53.006482
Ambachtsstraat,9,,,9461AJ,Gieten,Aa en Hunze,Drenthe,VBO,6.765852,53.006661
Ambachtsstraat,11,,,9461AJ,Gieten,Aa en Hunze,Drenthe,VBO,6.765739,53.006842
Ambachtsstraat,13,,,9461AJ,Gieten,Aa en Hunze,Drenthe,VBO,6.765685,53.007040
Ambachtsstraat,15,,,9461AJ,Gieten,Aa en Hunze,Drenthe,VBO,6.765674,53.007139
Ambachtsstraat,17,,,9461AJ,Gieten,Aa en Hunze,Drenthe,VBO,6.765588,53.007257
Ambachtsstraat,19,,,9461AJ,Gieten,Aa en Hunze,Drenthe,VBO,6.765547,53.007365
Ambachtsstraat,21,,,9461AJ,Gieten,Aa en Hunze,Drenthe,VBO,6.765447,53.007519
Ambachtsstraat,23,,,9461AJ,Gieten,Aa en Hunze,Drenthe,VBO,6.765362,53.007637
Ambachtsstraat,25,,,9461AJ,Gieten,Aa en Hunze,Drenthe,VBO,6.765230,53.007720
Ambachtsstraat,2,b,,9461AK,Gieten,Aa en Hunze,Drenthe,VBO,6.766481,53.006276
Ambachtsstraat,2,c,,9461AK,Gieten,Aa en Hunze,Drenthe,VBO,6.766453,53.006357
Ambachtsstraat,2,,,9461AK,Gieten,Aa en Hunze,Drenthe,VBO,6.766347,53.006305
Ambachtsstraat,6,,,9461AK,Gieten,Aa en Hunze,Drenthe,VBO,6.766354,53.006502
Ambachtsstraat,8,,,9461AK,Gieten,Aa en Hunze,Drenthe,VBO,6.766315,53.006709
Ambachtsstraat,10,a,,9461AK,Gieten,Aa en Hunze,Drenthe,VBO,6.766237,53.007043
Ambachtsstraat,10,b,,9461AK,Gieten,Aa en Hunze,Drenthe,VBO,6.766226,53.007187
Ambachtsstraat,10,,,9461AK,Gieten,Aa en Hunze,Drenthe,VBO,6.766261,53.006881
Ambachtsstraat,12,a,,9461AK,Gieten,Aa en Hunze,Drenthe,VBO,6.766101,53.007467
Ambachtsstraat,12,,,9461AK,Gieten,Aa en Hunze,Drenthe,VBO,6.766126,53.007323
Ambachtsstraat,14,a,,9461AK,Gieten,Aa en Hunze,Drenthe,VBO,6.766002,53.007621
Ambachtsstraat,14,b,,9461AK,Gieten,Aa en Hunze,Drenthe,VBO,6.765901,53.007721
Ambachtsstraat,14,,,9461AK,Gieten,Aa en Hunze,Drenthe,VBO,6.766015,53.007567
Ambachtsstraat,16,,,9461AK,Gieten,Aa en Hunze,Drenthe,VBO,6.765699,53.007939
Ambachtsstraat,18,,,9461AK,Gieten,Aa en Hunze,Drenthe,VBO,6.765585,53.008093
Ambachtsstraat,20,,,9461AK,Gieten,Aa en Hunze,Drenthe,VBO,6.765543,53.008192
Spekstoep,1,a,,9461AL,Gieten,Aa en Hunze,Drenthe,VBO,6.765461,53.008903
Spekstoep,1,,,9461AL,Gieten,Aa en Hunze,Drenthe,VBO,6.765327,53.008896
Spekstoep,3,,,9461AL,Gieten,Aa en Hunze,Drenthe,VBO,6.765674,53.009036
Spekstoep,5,,,9461AL,Gieten,Aa en Hunze,Drenthe,VBO,6.765811,53.009124
Spekstoep,7,,,9461AL,Gieten,Aa en Hunze,Drenthe,VBO,6.765841,53.009141
Spekstoep,9,,,9461AL,Gieten,Aa en Hunze,Drenthe,VBO,6.766068,53.009238
Spekstoep,13,,,9461AL,Gieten,Aa en Hunze,Drenthe,VBO,6.766494,53.009520
Spekstoep,17,,,9461AL,Gieten,Aa en Hunze,Drenthe,VBO,6.766674,53.009572
Spekstoep,19,,,9461AL,Gieten,Aa en Hunze,Drenthe,VBO,6.767133,53.009935
Spekstoep,21,,,9461AL,Gieten,Aa en Hunze,Drenthe,VBO,6.770539,53.012538
Spekstoep,23,a,,9461AL,Gieten,Aa en Hunze,Drenthe,VBO,6.770673,53.015368
Spekstoep,23,,,9461AL,Gieten,Aa en Hunze,Drenthe,VBO,6.770614,53.012573
Spekstoep,25,,,9461AL,Gieten,Aa en Hunze,Drenthe,VBO,6.773701,53.014534
Spekstoep,27,,,9461AL,Gieten,Aa en Hunze,Drenthe,VBO,6.779778,53.018531
Spekstoep,2,,,9461AM,Gieten,Aa en Hunze,Drenthe,VBO,6.765627,53.008479
Spekstoep,4,,,9461AM,Gieten,Aa en Hunze,Drenthe,VBO,6.766008,53.008753
Spekstoep,6,,,9461AM,Gieten,Aa en Hunze,Drenthe,VBO,6.766219,53.008849
Spekstoep,8,,,9461AM,Gieten,Aa en Hunze,Drenthe,VBO,6.766523,53.009026
Spekstoep,12,,,9461AM,Gieten,Aa en Hunze,Drenthe,VBO,6.766978,53.009290
Spekstoep,14,a,,9461AM,Gieten,Aa en Hunze,Drenthe,VBO,6.767687,53.009552
Spekstoep,14,,,9461AM,Gieten,Aa en Hunze,Drenthe,VBO,6.767414,53.009411
Spekstoep,16,,,9461AM,Gieten,Aa en Hunze,Drenthe,VBO,6.769362,53.010683
Spekstoep,18,,,9461AM,Gieten,Aa en Hunze,Drenthe,VBO,6.769788,53.010956
Spekstoep,20,,,9461AM,Gieten,Aa en Hunze,Drenthe,VBO,6.770127,53.011294
Spekstoep,22,,,9461AM,Gieten,Aa en Hunze,Drenthe,VBO,6.770312,53.011507
Spekstoep,24,,,9461AM,Gieten,Aa en Hunze,Drenthe,VBO,6.770601,53.011693
Spekstoep,26,,,9461AM,Gieten,Aa en Hunze,Drenthe,VBO,6.770709,53.011799
Spekstoep,28,,,9461AM,Gieten,Aa en Hunze,Drenthe,VBO,6.770803,53.011933
Spekstoep,30,,,9461AM,Gieten,Aa en Hunze,Drenthe,VBO,6.771031,53.012092
Spekstoep,32,,,9461AM,Gieten,Aa en Hunze,Drenthe,VBO,6.771628,53.012589
Spekstoep,34,,,9461AM,Gieten,Aa en Hunze,Drenthe,VBO,6.772899,53.013203
Spekstoep,36,,,9461AM,Gieten,Aa en Hunze,Drenthe,VBO,6.772972,53.013139
Oude Wildervanksterweg,1,,,9461AN,Gieten,Aa en Hunze,Drenthe,VBO,6.768002,53.009611
Oude Wildervanksterweg,2,,,9461AN,Gieten,Aa en Hunze,Drenthe,VBO,6.768338,53.009721
Oude Wildervanksterweg,4,,,9461AN,Gieten,Aa en Hunze,Drenthe,VBO,6.769902,53.010335
Oude Wildervanksterweg,5,,,9461AN,Gieten,Aa en Hunze,Drenthe,VBO,6.769941,53.010613
Oude Wildervanksterweg,6,,,9461AN,Gieten,Aa en Hunze,Drenthe,VBO,6.770347,53.010734
Oude Wildervanksterweg,7,,,9461AN,Gieten,Aa en Hunze,Drenthe,VBO,6.771045,53.011376
Oude Wildervanksterweg,8,,,9461AN,Gieten,Aa en Hunze,Drenthe,VBO,6.772982,53.011602
Oude Wildervanksterweg,9,a,,9461AN,Gieten,Aa en Hunze,Drenthe,VBO,6.771567,53.012068
Oude Wildervanksterweg,9,,,9461AN,Gieten,Aa en Hunze,Drenthe,VBO,6.771492,53.012069
Voorste Land,1,a,,9461AP,Gieten,Aa en Hunze,Drenthe,VBO,6.768013,53.016989
Voorste Land,1,,,9461AP,Gieten,Aa en Hunze,Drenthe,VBO,6.766530,53.015829
Brink,1,a,,9461AR,Gieten,Aa en Hunze,Drenthe,VBO,6.762823,53.004647
Brink,1,,,9461AR,Gieten,Aa en Hunze,Drenthe,VBO,6.763077,53.004644
Brink,7,,,9461AR,Gieten,Aa en Hunze,Drenthe,VBO,6.763020,53.005669
Brink,9,,,9461AR,Gieten,Aa en Hunze,Drenthe,VBO,6.763033,53.006082
Brink,11,,,9461AR,Gieten,Aa en Hunze,Drenthe,VBO,6.763283,53.006448
Brink,13,a,,9461AR,Gieten,Aa en Hunze,Drenthe,VBO,6.763488,53.006832
Brink,13,,,9461AR,Gieten,Aa en Hunze,Drenthe,VBO,6.763484,53.006697
Brink,15,a,,9461AR,Gieten,Aa en Hunze,Drenthe,VBO,6.763004,53.007146
Brink,15,b,,9461AR,Gieten,Aa en Hunze,Drenthe,VBO,6.762966,53.007260
Brink,15,,,9461AR,Gieten,Aa en Hunze,Drenthe,VBO,6.763198,53.007060
Brink,17,,,9461AR,Gieten,Aa en Hunze,Drenthe,VBO,6.763662,53.007135
Brink,19,a,,9461AR,Gieten,Aa en Hunze,Drenthe,VBO,6.763747,53.007458
Brink,19,,,9461AR,Gieten,Aa en Hunze,Drenthe,VBO,6.763879,53.007394
Brink,21,,,9461AR,Gieten,Aa en Hunze,Drenthe,VBO,6.764121,53.007508
Brink,23,,,9461AR,Gieten,Aa en Hunze,Drenthe,VBO,6.764249,53.007803
Brink,25,,,9461AR,Gieten,Aa en Hunze,Drenthe,VBO,6.764544,53.008159
Brink,2,,,9461AS,Gieten,Aa en Hunze,Drenthe,VBO,6.764090,53.004650
Brink,4,,,9461AS,Gieten,Aa en Hunze,Drenthe,VBO,6.764099,53.004946
Brink,6,,,9461AS,Gieten,Aa en Hunze,Drenthe,VBO,6.763959,53.005227
Brink,8,,,9461AS,Gieten,Aa en Hunze,Drenthe,VBO,6.763997,53.005496
Brink,10,,,9461AS,Gieten,Aa en Hunze,Drenthe,VBO,6.764126,53.005791
Brink,14,,,9461AS,Gieten,Aa en Hunze,Drenthe,VBO,6.764168,53.006177
Brink,16,,,9461AS,Gieten,Aa en Hunze,Drenthe,VBO,6.764179,53.006582
Brink,20,a,,9461AT,Gieten,Aa en Hunze,Drenthe,VBO,6.764117,53.006906
Brink,20,,,9461AT,Gieten,Aa en Hunze,Drenthe,VBO,6.764101,53.006870
Brink,22,,,9461AT,Gieten,Aa en Hunze,Drenthe,VBO,6.764482,53.007153
Brink,24,,,9461AT,Gieten,Aa en Hunze,Drenthe,VBO,6.765117,53.007919
Tellinghof,1,,,9461AV,Gieten,Aa en Hunze,Drenthe,VBO,6.763738,53.008123
Tellinghof,2,,,9461AV,Gieten,Aa en Hunze,Drenthe,VBO,6.763798,53.008131
Tellinghof,3,,,9461AV,Gieten,Aa en Hunze,Drenthe,VBO,6.763873,53.008149
Tellinghof,4,,,9461AV,Gieten,Aa en Hunze,Drenthe,VBO,6.763781,53.008069
Tellinghof,5,,,9461AV,Gieten,Aa en Hunze,Drenthe,VBO,6.763856,53.008086
Tellinghof,6,,,9461AV,Gieten,Aa en Hunze,Drenthe,VBO,6.763931,53.008103
Tellinghof,7,,,9461AV,Gieten,Aa en Hunze,Drenthe,VBO,6.763418,53.007893
Tellinghof,8,,,9461AV,Gieten,Aa en Hunze,Drenthe,VBO,6.763492,53.007901
Tellinghof,9,,,9461AV,Gieten,Aa en Hunze,Drenthe,VBO,6.763567,53.007909
Tellinghof,10,,,9461AV,Gieten,Aa en Hunze,Drenthe,VBO,6.763461,53.007839
Tellinghof,11,,,9461AV,Gieten,Aa en Hunze,Drenthe,VBO,6.763536,53.007856
Tellinghof,12,,,9461AV,Gieten,Aa en Hunze,Drenthe,VBO,6.763596,53.007864
Madenweg,2,,,9461AW,Gieten,Aa en Hunze,Drenthe,VBO,6.803049,53.023417
Wemenweg,1,,,9461AZ,Gieten,Aa en Hunze,Drenthe,VBO,6.766688,53.005285
Wemenweg,2,,,9461AZ,Gieten,Aa en Hunze,Drenthe,VBO,6.766160,53.005561
Wemenweg,3,,,9461AZ,Gieten,Aa en Hunze,Drenthe,VBO,6.766701,53.005240
Wemenweg,4,,,9461AZ,Gieten,Aa en Hunze,Drenthe,VBO,6.766173,53.005498
Wemenweg,5,,,9461AZ,Gieten,Aa en Hunze,Drenthe,VBO,6.766744,53.005186
Wemenweg,6,,,9461AZ,Gieten,Aa en Hunze,Drenthe,VBO,6.766186,53.005444
Wemenweg,7,,,9461AZ,Gieten,Aa en Hunze,Drenthe,VBO,6.766772,53.005131
Wemenweg,8,,,9461AZ,Gieten,Aa en Hunze,Drenthe,VBO,6.765923,53.005617
Wemenweg,9,,,9461AZ,Gieten,Aa en Hunze,Drenthe,VBO,6.766800,53.005077
Wemenweg,10,,,9461AZ,Gieten,Aa en Hunze,Drenthe,VBO,6.766043,53.005625
Wemenweg,11,,,9461AZ,Gieten,Aa en Hunze,Drenthe,VBO,6.766828,53.005005
Wemenweg,12,,,9461AZ,Gieten,Aa en Hunze,Drenthe,VBO,6.766147,53.005633
Wemenweg,13,,,9461AZ,Gieten,Aa en Hunze,Drenthe,VBO,6.766842,53.004528
Wemenweg,14,,,9461AZ,Gieten,Aa en Hunze,Drenthe,VBO,6.766070,53.005553
Wemenweg,15,,,9461AZ,Gieten,Aa en Hunze,Drenthe,VBO,6.766855,53.004465
Wemenweg,16,,,9461AZ,Gieten,Aa en Hunze,Drenthe,VBO,6.766083,53.005490
Wemenweg,17,,,9461AZ,Gieten,Aa en Hunze,Drenthe,VBO,6.766868,53.004402
Wemenweg,18,,,9461AZ,Gieten,Aa en Hunze,Drenthe,VBO,6.766111,53.005436
Wemenweg,19,,,9461AZ,Gieten,Aa en Hunze,Drenthe,VBO,6.766881,53.004339
Wemenweg,20,,,9461AZ,Gieten,Aa en Hunze,Drenthe,VBO,6.766129,53.005684
Wemenweg,22,,,9461AZ,Gieten,Aa en Hunze,Drenthe,VBO,6.766014,53.005661
Eexterweg,1,,,9461BA,Gieten,Aa en Hunze,Drenthe,VBO,6.763366,53.005314
Eexterweg,3,,,9461BA,Gieten,Aa en Hunze,Drenthe,VBO,6.763322,53.005324
Eexterweg,5,,,9461BA,Gieten,Aa en Hunze,Drenthe,VBO,6.763277,53.005324
Eexterweg,7,,,9461BA,Gieten,Aa en Hunze,Drenthe,VBO,6.763247,53.005325
Eexterweg,9,,,9461BA,Gieten,Aa en Hunze,Drenthe,VBO,6.763202,53.005325
Eexterweg,11,,,9461BA,Gieten,Aa en Hunze,Drenthe,VBO,6.763158,53.005326
Eexterweg,13,,,9461BA,Gieten,Aa en Hunze,Drenthe,VBO,6.763128,53.005326
Eexterweg,15,,,9461BA,Gieten,Aa en Hunze,Drenthe,VBO,6.763098,53.005317
Eexterweg,17,,,9461BB,Gieten,Aa en Hunze,Drenthe,VBO,6.763145,53.005389
Eexterweg,19,,,9461BB,Gieten,Aa en Hunze,Drenthe,VBO,6.763010,53.005381
Eexterweg,21,a,,9461BB,Gieten,Aa en Hunze,Drenthe,VBO,6.762634,53.005415
Eexterweg,21,,,9461BB,Gieten,Aa en Hunze,Drenthe,VBO,6.762564,53.005405
Eexterweg,23,,,9461BB,Gieten,Aa en Hunze,Drenthe,VBO,6.761938,53.005385
Eexterweg,25,,,9461BB,Gieten,Aa en Hunze,Drenthe,VBO,6.761671,53.005415
Eexterweg,27,,,9461BB,Gieten,Aa en Hunze,Drenthe,VBO,6.761478,53.005435
Eexterweg,29,,,9461BB,Gieten,Aa en Hunze,Drenthe,VBO,6.761044,53.005377
Eexterweg,31,,,9461BB,Gieten,Aa en Hunze,Drenthe,VBO,6.761147,53.005207
Eexterweg,33,,,9461BB,Gieten,Aa en Hunze,Drenthe,VBO,6.760522,53.005365
Eexterweg,35,,,9461BB,Gieten,Aa en Hunze,Drenthe,VBO,6.758351,53.005983
Eexterweg,37,,,9461BB,Gieten,Aa en Hunze,Drenthe,VBO,6.757954,53.006158
Eexterweg,39,,,9461BB,Gieten,Aa en Hunze,Drenthe,VBO,6.757777,53.006205
Eexterweg,41,,,9461BB,Gieten,Aa en Hunze,Drenthe,VBO,6.757600,53.006252
Eexterweg,43,,,9461BB,Gieten,Aa en Hunze,Drenthe,VBO,6.757378,53.006318
Eexterweg,45,,,9461BB,Gieten,Aa en Hunze,Drenthe,VBO,6.757230,53.006356
Eexterweg,47,,,9461BB,Gieten,Aa en Hunze,Drenthe,VBO,6.756919,53.006395
Eexterweg,49,,,9461BC,Gieten,Aa en Hunze,Drenthe,VBO,6.756772,53.006478
Eexterweg,51,,,9461BC,Gieten,Aa en Hunze,Drenthe,VBO,6.756122,53.006638
Eexterweg,53,,,9461BC,Gieten,Aa en Hunze,Drenthe,VBO,6.755900,53.006685
Eexterweg,55,,,9461BC,Gieten,Aa en Hunze,Drenthe,VBO,6.755574,53.006734
Eexterweg,57,,,9461BC,Gieten,Aa en Hunze,Drenthe,VBO,6.755263,53.006800
Eexterweg,59,,,9461BC,Gieten,Aa en Hunze,Drenthe,VBO,6.754982,53.006876
Eexterweg,61,,,9461BC,Gieten,Aa en Hunze,Drenthe,VBO,6.754671,53.006933
Eexterweg,63,,,9461BC,Gieten,Aa en Hunze,Drenthe,VBO,6.754346,53.007018
Eexterweg,65,,,9461BC,Gieten,Aa en Hunze,Drenthe,VBO,6.754065,53.007093
Eexterweg,67,,,9461BC,Gieten,Aa en Hunze,Drenthe,VBO,6.753770,53.007168
Eexterweg,69,,,9461BC,Gieten,Aa en Hunze,Drenthe,VBO,6.753073,53.007293
Eexterweg,71,,,9461BC,Gieten,Aa en Hunze,Drenthe,VBO,6.752825,53.007448
Eexterweg,73,,,9461BC,Gieten,Aa en Hunze,Drenthe,VBO,6.752516,53.007569
Eexterweg,75,a,,9461BC,Gieten,Aa en Hunze,Drenthe,VBO,6.746078,53.010546
Eexterweg,75,,,9461BC,Gieten,Aa en Hunze,Drenthe,VBO,6.752192,53.007707
Eexterweg,2,a,,9461BD,Gieten,Aa en Hunze,Drenthe,VBO,6.762291,53.006432
Eexterweg,2,,,9461BD,Gieten,Aa en Hunze,Drenthe,VBO,6.761905,53.005772
Eexterweg,4,,,9461BD,Gieten,Aa en Hunze,Drenthe,VBO,6.761591,53.005739
Eexterweg,6,a,,9461BD,Gieten,Aa en Hunze,Drenthe,VBO,6.760925,53.005980
Eexterweg,6,b,,9461BD,Gieten,Aa en Hunze,Drenthe,VBO,6.760916,53.005928
Eexterweg,6,c,,9461BD,Gieten,Aa en Hunze,Drenthe,VBO,6.760908,53.005872
Eexterweg,6,d,,9461BD,Gieten,Aa en Hunze,Drenthe,VBO,6.760901,53.005808
Eexterweg,6,e,,9461BD,Gieten,Aa en Hunze,Drenthe,VBO,6.761021,53.005974
Eexterweg,6,f,,9461BD,Gieten,Aa en Hunze,Drenthe,VBO,6.761012,53.005922
Eexterweg,6,g,,9461BD,Gieten,Aa en Hunze,Drenthe,VBO,6.760997,53.005800
Eexterweg,6,,,9461BD,Gieten,Aa en Hunze,Drenthe,VBO,6.760994,53.005866
Eexterweg,8,a,,9461BD,Gieten,Aa en Hunze,Drenthe,VBO,6.760460,53.005770
Eexterweg,12,,,9461BD,Gieten,Aa en Hunze,Drenthe,VBO,6.760151,53.005882
Eexterweg,14,,,9461BD,Gieten,Aa en Hunze,Drenthe,VBO,6.759407,53.005917
Eexterweg,26,,,9461BE,Gieten,Aa en Hunze,Drenthe,VBO,6.758221,53.006578
Eexterweg,28,a,,9461BE,Gieten,Aa en Hunze,Drenthe,VBO,6.757953,53.006590
Eexterweg,28,,,9461BE,Gieten,Aa en Hunze,Drenthe,VBO,6.758027,53.006580
Eexterweg,30,,,9461BE,Gieten,Aa en Hunze,Drenthe,VBO,6.757688,53.006692
Eexterweg,32,,,9461BE,Gieten,Aa en Hunze,Drenthe,VBO,6.757496,53.006730
Eexterweg,36,,,9461BE,Gieten,Aa en Hunze,Drenthe,VBO,6.757067,53.006852
Eexterweg,40,,,9461BE,Gieten,Aa en Hunze,Drenthe,VBO,6.756536,53.007011
Eexterweg,44,,,9461BE,Gieten,Aa en Hunze,Drenthe,VBO,6.755708,53.007200
Eexterweg,46,,,9461BG,Gieten,Aa en Hunze,Drenthe,VBO,6.755461,53.007418
Eexterweg,48,,,9461BG,Gieten,Aa en Hunze,Drenthe,VBO,6.755150,53.007467
Eexterweg,50,,,9461BG,Gieten,Aa en Hunze,Drenthe,VBO,6.754884,53.007551
Eexterweg,52,,,9461BG,Gieten,Aa en Hunze,Drenthe,VBO,6.754616,53.007554
Eexterweg,54,,,9461BG,Gieten,Aa en Hunze,Drenthe,VBO,6.754305,53.007602
Eexterweg,60,,,9461BG,Gieten,Aa en Hunze,Drenthe,VBO,6.753171,53.008047
Eexterweg,62,,,9461BG,Gieten,Aa en Hunze,Drenthe,VBO,6.753316,53.008386
Eexterweg,64,,,9461BG,Gieten,Aa en Hunze,Drenthe,VBO,6.752786,53.008590
Eexterweg,66,,,9461BG,Gieten,Aa en Hunze,Drenthe,VBO,6.752287,53.008362
Eexterweg,68,,,9461BG,Gieten,Aa en Hunze,Drenthe,VBO,6.750773,53.009202
Spiekersteeg,1,,,9461BH,Gieten,Aa en Hunze,Drenthe,VBO,6.760221,53.004793
Spiekersteeg,2,,,9461BH,Gieten,Aa en Hunze,Drenthe,VBO,6.758746,53.005736
Spiekersteeg,4,,,9461BH,Gieten,Aa en Hunze,Drenthe,VBO,6.758692,53.005467
Spiekersteeg,6,,,9461BH,Gieten,Aa en Hunze,Drenthe,VBO,6.758304,53.004950
Naweg,1,,,9461BJ,Gieten,Aa en Hunze,Drenthe,VBO,6.761052,53.006123
Naweg,3,,,9461BJ,Gieten,Aa en Hunze,Drenthe,VBO,6.761087,53.006284
Naweg,5,,,9461BJ,Gieten,Aa en Hunze,Drenthe,VBO,6.761107,53.006437
Naweg,7,,,9461BJ,Gieten,Aa en Hunze,Drenthe,VBO,6.761236,53.007217
Naweg,9,,,9461BJ,Gieten,Aa en Hunze,Drenthe,VBO,6.761409,53.007494
Naweg,11,,,9461BJ,Gieten,Aa en Hunze,Drenthe,VBO,6.761502,53.007628
Naweg,13,,,9461BJ,Gieten,Aa en Hunze,Drenthe,VBO,6.761549,53.007690
Naweg,15,,,9461BJ,Gieten,Aa en Hunze,Drenthe,VBO,6.761656,53.007797
Naweg,17,,,9461BJ,Gieten,Aa en Hunze,Drenthe,VBO,6.761718,53.007850
Naweg,19,,,9461BJ,Gieten,Aa en Hunze,Drenthe,VBO,6.761840,53.007947
Naweg,21,,,9461BJ,Gieten,Aa en Hunze,Drenthe,VBO,6.761902,53.008009
Naweg,23,,,9461BK,Gieten,Aa en Hunze,Drenthe,VBO,6.762054,53.008107
Naweg,25,,,9461BK,Gieten,Aa en Hunze,Drenthe,VBO,6.762206,53.008204
Naweg,27,,,9461BK,Gieten,Aa en Hunze,Drenthe,VBO,6.762343,53.008310
Naweg,29,,,9461BK,Gieten,Aa en Hunze,Drenthe,VBO,6.762496,53.008416
Naweg,31,,,9461BK,Gieten,Aa en Hunze,Drenthe,VBO,6.762618,53.008514
Naweg,33,,,9461BK,Gieten,Aa en Hunze,Drenthe,VBO,6.762785,53.008619
Naweg,35,,,9461BK,Gieten,Aa en Hunze,Drenthe,VBO,6.762938,53.008735
Naweg,37,,,9461BK,Gieten,Aa en Hunze,Drenthe,VBO,6.763465,53.008926
Naweg,39,,,9461BK,Gieten,Aa en Hunze,Drenthe,VBO,6.763868,53.008948
Naweg,41,,,9461BK,Gieten,Aa en Hunze,Drenthe,VBO,6.764122,53.008973
Naweg,2,,,9461BL,Gieten,Aa en Hunze,Drenthe,VBO,6.761691,53.006062
Naweg,4,,,9461BL,Gieten,Aa en Hunze,Drenthe,VBO,6.761725,53.006196
Naweg,6,,,9461BL,Gieten,Aa en Hunze,Drenthe,VBO,6.761923,53.006796
Naweg,8,,,9461BL,Gieten,Aa en Hunze,Drenthe,VBO,6.761884,53.006985
Naweg,10,a,,9461BL,Gieten,Aa en Hunze,Drenthe,VBO,6.762333,53.007519
Naweg,10,b,,9461BL,Gieten,Aa en Hunze,Drenthe,VBO,6.762296,53.007744
Naweg,10,,,9461BL,Gieten,Aa en Hunze,Drenthe,VBO,6.761890,53.007156
Naweg,12,,,9461BL,Gieten,Aa en Hunze,Drenthe,VBO,6.762434,53.007895
Naweg,14,,,9461BL,Gieten,Aa en Hunze,Drenthe,VBO,6.762558,53.008020
Naweg,16,,,9461BL,Gieten,Aa en Hunze,Drenthe,VBO,6.762725,53.008135
Naweg,18,,,9461BL,Gieten,Aa en Hunze,Drenthe,VBO,6.762906,53.008214
Naweg,20,,,9461BL,Gieten,Aa en Hunze,Drenthe,VBO,6.763015,53.008347
Naweg,22,,,9461BL,Gieten,Aa en Hunze,Drenthe,VBO,6.763167,53.008444
Naweg,24,,,9461BL,Gieten,Aa en Hunze,Drenthe,VBO,6.763319,53.008532
Naweg,26,,,9461BL,Gieten,Aa en Hunze,Drenthe,VBO,6.763929,53.008498
Molenstraat,1,,,9461BM,Gieten,Aa en Hunze,Drenthe,VBO,6.759916,53.007421
Molenstraat,2,,,9461BM,Gieten,Aa en Hunze,Drenthe,VBO,6.760215,53.006959
Molenstraat,3,,,9461BM,Gieten,Aa en Hunze,Drenthe,VBO,6.760034,53.007384
Molenstraat,4,,,9461BM,Gieten,Aa en Hunze,Drenthe,VBO,6.760436,53.006894
Molenstraat,5,,,9461BM,Gieten,Aa en Hunze,Drenthe,VBO,6.760402,53.007236
Molenstraat,6,,,9461BM,Gieten,Aa en Hunze,Drenthe,VBO,6.760672,53.006828
Molenstraat,7,,,9461BM,Gieten,Aa en Hunze,Drenthe,VBO,6.760506,53.007235
Molenstraat,8,,,9461BM,Gieten,Aa en Hunze,Drenthe,VBO,6.760894,53.006763
Molenstraat,9,,,9461BM,Gieten,Aa en Hunze,Drenthe,VBO,6.760774,53.007232
Molenstraat,10,,,9461BM,Gieten,Aa en Hunze,Drenthe,VBO,6.761189,53.006670
Molenstraat,11,,,9461BM,Gieten,Aa en Hunze,Drenthe,VBO,6.760879,53.007239
Molenstraat,13,,,9461BM,Gieten,Aa en Hunze,Drenthe,VBO,6.761132,53.007227
Noord-es,2,,,9461BN,Gieten,Aa en Hunze,Drenthe,VBO,6.762505,53.009171
Noord-es,3,,,9461BN,Gieten,Aa en Hunze,Drenthe,VBO,6.762736,53.009438
Noord-es,4,,,9461BN,Gieten,Aa en Hunze,Drenthe,VBO,6.762606,53.009089
Noord-es,5,,,9461BN,Gieten,Aa en Hunze,Drenthe,VBO,6.762897,53.009328
Noord-es,6,,,9461BN,Gieten,Aa en Hunze,Drenthe,VBO,6.762736,53.008962
Noord-es,7,,,9461BN,Gieten,Aa en Hunze,Drenthe,VBO,6.762984,53.009246
Noord-es,9,,,9461BN,Gieten,Aa en Hunze,Drenthe,VBO,6.763130,53.009146
Noord-es,11,,,9461BN,Gieten,Aa en Hunze,Drenthe,VBO,6.763215,53.009028
Oude Groningerweg,1,,,9461BP,Gieten,Aa en Hunze,Drenthe,VBO,6.764571,53.008563
Oude Groningerweg,2,,,9461BP,Gieten,Aa en Hunze,Drenthe,VBO,6.765100,53.008790
Oude Groningerweg,3,a,,9461BP,Gieten,Aa en Hunze,Drenthe,VBO,6.764543,53.009076
Oude Groningerweg,3,,,9461BP,Gieten,Aa en Hunze,Drenthe,VBO,6.764554,53.008959
Oude Groningerweg,4,,,9461BP,Gieten,Aa en Hunze,Drenthe,VBO,6.765068,53.009195
Oude Groningerweg,5,a,,9461BP,Gieten,Aa en Hunze,Drenthe,VBO,6.764389,53.009401
Oude Groningerweg,5,b,,9461BP,Gieten,Aa en Hunze,Drenthe,VBO,6.764304,53.009537
Oude Groningerweg,5,,,9461BP,Gieten,Aa en Hunze,Drenthe,VBO,6.764549,53.009264
Oude Groningerweg,6,,,9461BP,Gieten,Aa en Hunze,Drenthe,VBO,6.765013,53.009349
Oude Groningerweg,7,,,9461BP,Gieten,Aa en Hunze,Drenthe,VBO,6.764205,53.009691
Oude Groningerweg,8,,,9461BP,Gieten,Aa en Hunze,Drenthe,VBO,6.764988,53.009502
Oude Groningerweg,9,,,9461BP,Gieten,Aa en Hunze,Drenthe,VBO,6.764165,53.009853
Oude Groningerweg,10,,,9461BP,Gieten,Aa en Hunze,Drenthe,VBO,6.764874,53.009656
Oude Groningerweg,11,,,9461BP,Gieten,Aa en Hunze,Drenthe,VBO,6.764067,53.010052
Oude Groningerweg,12,,,9461BP,Gieten,Aa en Hunze,Drenthe,VBO,6.764732,53.009882
Oude Groningerweg,13,,,9461BP,Gieten,Aa en Hunze,Drenthe,VBO,6.763593,53.010596
Oude Groningerweg,14,,,9461BP,Gieten,Aa en Hunze,Drenthe,VBO,6.764740,53.010150
Oude Groningerweg,15,,,9461BP,Gieten,Aa en Hunze,Drenthe,VBO,6.763368,53.011030
Oude Groningerweg,17,,,9461BP,Gieten,Aa en Hunze,Drenthe,VBO,6.761771,53.011416
Oude Groningerweg,18,,,9461BP,Gieten,Aa en Hunze,Drenthe,VBO,6.762439,53.016108
Oude Groningerweg,19,,,9461BP,Gieten,Aa en Hunze,Drenthe,VBO,6.760549,53.012100
Julianalaan,1,,,9461BR,Gieten,Aa en Hunze,Drenthe,VBO,6.758504,53.006566
Julianalaan,3,,,9461BR,Gieten,Aa en Hunze,Drenthe,VBO,6.758807,53.006742
Julianalaan,5,,,9461BR,Gieten,Aa en Hunze,Drenthe,VBO,6.758872,53.006894
Julianalaan,7,,,9461BR,Gieten,Aa en Hunze,Drenthe,VBO,6.758965,53.007019
Julianalaan,9,,,9461BR,Gieten,Aa en Hunze,Drenthe,VBO,6.759029,53.007171
Julianalaan,11,,,9461BR,Gieten,Aa en Hunze,Drenthe,VBO,6.759061,53.007242
Julianalaan,13,,,9461BR,Gieten,Aa en Hunze,Drenthe,VBO,6.759171,53.007421
Julianalaan,15,,,9461BR,Gieten,Aa en Hunze,Drenthe,VBO,6.759281,53.007599
Julianalaan,19,,,9461BR,Gieten,Aa en Hunze,Drenthe,VBO,6.759542,53.007839
Julianalaan,21,,,9461BR,Gieten,Aa en Hunze,Drenthe,VBO,6.759742,53.008052
Julianalaan,25,,,9461BR,Gieten,Aa en Hunze,Drenthe,VBO,6.759867,53.008213
Julianalaan,27,,,9461BR,Gieten,Aa en Hunze,Drenthe,VBO,6.760004,53.008319
Julianalaan,29,,,9461BR,Gieten,Aa en Hunze,Drenthe,VBO,6.760127,53.008443
Julianalaan,31,,,9461BR,Gieten,Aa en Hunze,Drenthe,VBO,6.760294,53.008540
Julianalaan,33,,,9461BS,Gieten,Aa en Hunze,Drenthe,VBO,6.760330,53.008720
Julianalaan,35,,,9461BS,Gieten,Aa en Hunze,Drenthe,VBO,6.760681,53.009003
Julianalaan,37,,,9461BS,Gieten,Aa en Hunze,Drenthe,VBO,6.760834,53.009127
Julianalaan,39,,,9461BS,Gieten,Aa en Hunze,Drenthe,VBO,6.760960,53.009332
Julianalaan,41,,,9461BS,Gieten,Aa en Hunze,Drenthe,VBO,6.761128,53.009447
Julianalaan,47,,,9461BS,Gieten,Aa en Hunze,Drenthe,VBO,6.761489,53.010036
Julianalaan,49,,,9461BS,Gieten,Aa en Hunze,Drenthe,VBO,6.761582,53.009685
Julianalaan,51,,,9461BS,Gieten,Aa en Hunze,Drenthe,VBO,6.762019,53.009824
Julianalaan,53,,,9461BS,Gieten,Aa en Hunze,Drenthe,VBO,6.762261,53.009947
Julianalaan,55,,,9461BS,Gieten,Aa en Hunze,Drenthe,VBO,6.762517,53.010043
Julianalaan,57,,,9461BS,Gieten,Aa en Hunze,Drenthe,VBO,6.762791,53.010228
Julianalaan,59,,,9461BS,Gieten,Aa en Hunze,Drenthe,VBO,6.763272,53.010366
Julianalaan,2,a,,9461BT,Gieten,Aa en Hunze,Drenthe,VBO,6.759413,53.006115
Julianalaan,2,,,9461BT,Gieten,Aa en Hunze,Drenthe,VBO,6.759411,53.006043
Julianalaan,4,,,9461BT,Gieten,Aa en Hunze,Drenthe,VBO,6.759402,53.006232
Julianalaan,6,,,9461BT,Gieten,Aa en Hunze,Drenthe,VBO,6.759434,53.006312
Julianalaan,8,a,,9461BT,Gieten,Aa en Hunze,Drenthe,VBO,6.760527,53.006399
Julianalaan,8,,,9461BT,Gieten,Aa en Hunze,Drenthe,VBO,6.759544,53.006482
Julianalaan,10,,,9461BT,Gieten,Aa en Hunze,Drenthe,VBO,6.759521,53.006716
Julianalaan,12,,,9461BT,Gieten,Aa en Hunze,Drenthe,VBO,6.759539,53.006787
Julianalaan,14,,,9461BT,Gieten,Aa en Hunze,Drenthe,VBO,6.759574,53.006949
Julianalaan,16,,,9461BT,Gieten,Aa en Hunze,Drenthe,VBO,6.759606,53.007029
Julianalaan,18,,,9461BT,Gieten,Aa en Hunze,Drenthe,VBO,6.760210,53.007759
Julianalaan,20,,,9461BT,Gieten,Aa en Hunze,Drenthe,VBO,6.760348,53.007884
Julianalaan,22,,,9461BT,Gieten,Aa en Hunze,Drenthe,VBO,6.760516,53.008025
Julianalaan,24,a,,9461BT,Gieten,Aa en Hunze,Drenthe,VBO,6.760809,53.008319
Julianalaan,24,,,9461BT,Gieten,Aa en Hunze,Drenthe,VBO,6.760671,53.008194
Julianalaan,26,,,9461BT,Gieten,Aa en Hunze,Drenthe,VBO,6.761050,53.008424
Julianalaan,28,,,9461BT,Gieten,Aa en Hunze,Drenthe,VBO,6.761235,53.008610
Julianalaan,30,,,9461BV,Gieten,Aa en Hunze,Drenthe,VBO,6.761493,53.008769
Julianalaan,32,,,9461BV,Gieten,Aa en Hunze,Drenthe,VBO,6.761559,53.008966
Julianalaan,34,,,9461BV,Gieten,Aa en Hunze,Drenthe,VBO,6.761653,53.009109
Julianalaan,36,,,9461BV,Gieten,Aa en Hunze,Drenthe,VBO,6.761776,53.009215
Julianalaan,38,,,9461BV,Gieten,Aa en Hunze,Drenthe,VBO,6.762017,53.009311
Julianalaan,40,,,9461BV,Gieten,Aa en Hunze,Drenthe,VBO,6.762214,53.009399
Julianalaan,42,,,9461BV,Gieten,Aa en Hunze,Drenthe,VBO,6.762549,53.009638
Julianalaan,44,,,9461BV,Gieten,Aa en Hunze,Drenthe,VBO,6.762806,53.009752
Julianalaan,46,,,9461BV,Gieten,Aa en Hunze,Drenthe,VBO,6.763062,53.009839
Julianalaan,48,,,9461BV,Gieten,Aa en Hunze,Drenthe,VBO,6.763243,53.009917
Julianalaan,50,,,9461BV,Gieten,Aa en Hunze,Drenthe,VBO,6.763526,53.009905
Middendorp,1,,,9461BW,Gieten,Aa en Hunze,Drenthe,VBO,6.763197,53.005164
Middendorp,2,,,9461BW,Gieten,Aa en Hunze,Drenthe,VBO,6.762236,53.004914
Middendorp,3,,,9461BW,Gieten,Aa en Hunze,Drenthe,VBO,6.763196,53.005128
Middendorp,4,,,9461BW,Gieten,Aa en Hunze,Drenthe,VBO,6.762014,53.004953
Middendorp,5,,,9461BW,Gieten,Aa en Hunze,Drenthe,VBO,6.763195,53.005101
Middendorp,6,,,9461BW,Gieten,Aa en Hunze,Drenthe,VBO,6.761789,53.004928
Middendorp,7,,,9461BW,Gieten,Aa en Hunze,Drenthe,VBO,6.763194,53.005074
Middendorp,8,,,9461BW,Gieten,Aa en Hunze,Drenthe,VBO,6.761582,53.004975
Middendorp,9,,,9461BW,Gieten,Aa en Hunze,Drenthe,VBO,6.763194,53.005047
Middendorp,11,,,9461BW,Gieten,Aa en Hunze,Drenthe,VBO,6.763115,53.004931
Middendorp,13,,,9461BW,Gieten,Aa en Hunze,Drenthe,VBO,6.763114,53.004895
Middendorp,15,,,9461BW,Gieten,Aa en Hunze,Drenthe,VBO,6.763099,53.004877
Middendorp,17,,,9461BW,Gieten,Aa en Hunze,Drenthe,VBO,6.763098,53.004850
Middendorp,19,,,9461BW,Gieten,Aa en Hunze,Drenthe,VBO,6.763082,53.004814
Middendorp,23,,,9461BW,Gieten,Aa en Hunze,Drenthe,VBO,6.761960,53.004666
Middendorp,25,,,9461BW,Gieten,Aa en Hunze,Drenthe,VBO,6.761663,53.004696
Landspoelen,3,,,9461CA,Gieten,Aa en Hunze,Drenthe,VBO,6.757210,53.008081
Landspoelen,5,,,9461CA,Gieten,Aa en Hunze,Drenthe,VBO,6.757351,53.008295
Landspoelen,7,,,9461CA,Gieten,Aa en Hunze,Drenthe,VBO,6.757460,53.008447
Landspoelen,9,,,9461CA,Gieten,Aa en Hunze,Drenthe,VBO,6.757737,53.008731
Landspoelen,11,,,9461CA,Gieten,Aa en Hunze,Drenthe,VBO,6.757862,53.008892
Landspoelen,13,,,9461CA,Gieten,Aa en Hunze,Drenthe,VBO,6.758000,53.009016
Landspoelen,15,,,9461CA,Gieten,Aa en Hunze,Drenthe,VBO,6.758306,53.009273
Landspoelen,17,,,9461CA,Gieten,Aa en Hunze,Drenthe,VBO,6.758489,53.009397
Landspoelen,19,,,9461CA,Gieten,Aa en Hunze,Drenthe,VBO,6.758731,53.009520
Landspoelen,21,,,9461CA,Gieten,Aa en Hunze,Drenthe,VBO,6.758972,53.009616
Landspoelen,23,,,9461CA,Gieten,Aa en Hunze,Drenthe,VBO,6.759439,53.009772
Landspoelen,25,,,9461CA,Gieten,Aa en Hunze,Drenthe,VBO,6.759665,53.009860
Landspoelen,27,,,9461CA,Gieten,Aa en Hunze,Drenthe,VBO,6.759907,53.009965
Landspoelen,29,,,9461CA,Gieten,Aa en Hunze,Drenthe,VBO,6.760163,53.010061
Landspoelen,2,,,9461CB,Gieten,Aa en Hunze,Drenthe,VBO,6.757135,53.007103
Landspoelen,4,,,9461CB,Gieten,Aa en Hunze,Drenthe,VBO,6.757214,53.007245
Landspoelen,6,,,9461CB,Gieten,Aa en Hunze,Drenthe,VBO,6.757339,53.007442
Landspoelen,8,,,9461CB,Gieten,Aa en Hunze,Drenthe,VBO,6.757508,53.007611
Landspoelen,10,,,9461CB,Gieten,Aa en Hunze,Drenthe,VBO,6.757773,53.007482
Landspoelen,12,,,9461CB,Gieten,Aa en Hunze,Drenthe,VBO,6.758252,53.007557
Landspoelen,14,,,9461CB,Gieten,Aa en Hunze,Drenthe,VBO,6.758392,53.007744
Landspoelen,16,,,9461CB,Gieten,Aa en Hunze,Drenthe,VBO,6.758500,53.007869
Landspoelen,18,,,9461CB,Gieten,Aa en Hunze,Drenthe,VBO,6.759817,53.009471
Landspoelen,20,,,9461CB,Gieten,Aa en Hunze,Drenthe,VBO,6.760043,53.009559
Landspoelen,22,,,9461CB,Gieten,Aa en Hunze,Drenthe,VBO,6.760345,53.009663
Landspoelen,24,,,9461CB,Gieten,Aa en Hunze,Drenthe,VBO,6.760601,53.009777
Stokleggingslaan,17,,,9461CC,Gieten,Aa en Hunze,Drenthe,VBO,6.756485,53.007272
Stokleggingslaan,19,,,9461CC,Gieten,Aa en Hunze,Drenthe,VBO,6.755784,53.007999
Stokleggingslaan,21,,,9461CC,Gieten,Aa en Hunze,Drenthe,VBO,6.755682,53.008023
Stokleggingslaan,23,,,9461CC,Gieten,Aa en Hunze,Drenthe,VBO,6.755437,53.008075
Stokleggingslaan,25,,,9461CC,Gieten,Aa en Hunze,Drenthe,VBO,6.755334,53.008103
Stokleggingslaan,27,,,9461CC,Gieten,Aa en Hunze,Drenthe,VBO,6.755096,53.008132
Stokleggingslaan,29,,,9461CC,Gieten,Aa en Hunze,Drenthe,VBO,6.754993,53.008161
Stokleggingslaan,31,,,9461CC,Gieten,Aa en Hunze,Drenthe,VBO,6.754771,53.008226
Stokleggingslaan,33,,,9461CC,Gieten,Aa en Hunze,Drenthe,VBO,6.754398,53.008194
Stokleggingslaan,2,a,,9461CD,Gieten,Aa en Hunze,Drenthe,VBO,6.756676,53.008150
Stokleggingslaan,2,,,9461CD,Gieten,Aa en Hunze,Drenthe,VBO,6.756780,53.008122
Stokleggingslaan,4,,,9461CD,Gieten,Aa en Hunze,Drenthe,VBO,6.756395,53.008216
Stokleggingslaan,6,,,9461CD,Gieten,Aa en Hunze,Drenthe,VBO,6.756292,53.008245
Stokleggingslaan,8,,,9461CD,Gieten,Aa en Hunze,Drenthe,VBO,6.756071,53.008328
Stokleggingslaan,10,,,9461CD,Gieten,Aa en Hunze,Drenthe,VBO,6.755952,53.008356
Stokleggingslaan,12,,,9461CD,Gieten,Aa en Hunze,Drenthe,VBO,6.755701,53.008422
Stokleggingslaan,14,,,9461CD,Gieten,Aa en Hunze,Drenthe,VBO,6.755628,53.008450
Korte Bree,1,,,9461CE,Gieten,Aa en Hunze,Drenthe,VBO,6.757150,53.008522
Korte Bree,3,,,9461CE,Gieten,Aa en Hunze,Drenthe,VBO,6.757031,53.008551
Korte Bree,5,,,9461CE,Gieten,Aa en Hunze,Drenthe,VBO,6.756780,53.008625
Korte Bree,7,,,9461CE,Gieten,Aa en Hunze,Drenthe,VBO,6.756677,53.008654
Korte Bree,9,,,9461CE,Gieten,Aa en Hunze,Drenthe,VBO,6.756441,53.008728
Korte Bree,11,,,9461CE,Gieten,Aa en Hunze,Drenthe,VBO,6.756308,53.008766
Korte Bree,13,,,9461CE,Gieten,Aa en Hunze,Drenthe,VBO,6.756072,53.008840
Korte Bree,15,,,9461CE,Gieten,Aa en Hunze,Drenthe,VBO,6.755954,53.008869
Korte Bree,2,,,9461CG,Gieten,Aa en Hunze,Drenthe,VBO,6.757428,53.008843
Korte Bree,4,,,9461CG,Gieten,Aa en Hunze,Drenthe,VBO,6.757310,53.008880
Korte Bree,6,,,9461CG,Gieten,Aa en Hunze,Drenthe,VBO,6.757073,53.008937
Korte Bree,8,,,9461CG,Gieten,Aa en Hunze,Drenthe,VBO,6.756971,53.008983
Korte Bree,10,,,9461CG,Gieten,Aa en Hunze,Drenthe,VBO,6.756719,53.009049
Korte Bree,12,,,9461CG,Gieten,Aa en Hunze,Drenthe,VBO,6.756601,53.009086
Korte Bree,14,,,9461CG,Gieten,Aa en Hunze,Drenthe,VBO,6.756365,53.009160
Korte Bree,16,,,9461CG,Gieten,Aa en Hunze,Drenthe,VBO,6.756247,53.009189
Keurnotenlaan,1,,,9461CH,Gieten,Aa en Hunze,Drenthe,VBO,6.757647,53.009182
Keurnotenlaan,2,,,9461CH,Gieten,Aa en Hunze,Drenthe,VBO,6.758073,53.009437
Keurnotenlaan,3,,,9461CH,Gieten,Aa en Hunze,Drenthe,VBO,6.757545,53.009255
Keurnotenlaan,4,,,9461CH,Gieten,Aa en Hunze,Drenthe,VBO,6.758000,53.009501
Keurnotenlaan,5,,,9461CH,Gieten,Aa en Hunze,Drenthe,VBO,6.757252,53.009393
Keurnotenlaan,6,,,9461CH,Gieten,Aa en Hunze,Drenthe,VBO,6.757767,53.009675
Keurnotenlaan,7,,,9461CH,Gieten,Aa en Hunze,Drenthe,VBO,6.757179,53.009457
Keurnotenlaan,8,,,9461CH,Gieten,Aa en Hunze,Drenthe,VBO,6.757679,53.009730
Keurnotenlaan,9,,,9461CH,Gieten,Aa en Hunze,Drenthe,VBO,6.756885,53.009595
Keurnotenlaan,10,,,9461CH,Gieten,Aa en Hunze,Drenthe,VBO,6.757432,53.009903
Keurnotenlaan,11,,,9461CH,Gieten,Aa en Hunze,Drenthe,VBO,6.756768,53.009659
Keurnotenlaan,12,,,9461CH,Gieten,Aa en Hunze,Drenthe,VBO,6.757344,53.009958
Volmachtenlaan,1,,,9461CJ,Gieten,Aa en Hunze,Drenthe,VBO,6.758813,53.009753
Volmachtenlaan,2,,,9461CJ,Gieten,Aa en Hunze,Drenthe,VBO,6.759237,53.009981
Volmachtenlaan,3,,,9461CJ,Gieten,Aa en Hunze,Drenthe,VBO,6.758726,53.009825
Volmachtenlaan,4,,,9461CJ,Gieten,Aa en Hunze,Drenthe,VBO,6.759106,53.010091
Volmachtenlaan,5,,,9461CJ,Gieten,Aa en Hunze,Drenthe,VBO,6.758580,53.009944
Volmachtenlaan,6,,,9461CJ,Gieten,Aa en Hunze,Drenthe,VBO,6.758976,53.010200
Volmachtenlaan,7,,,9461CJ,Gieten,Aa en Hunze,Drenthe,VBO,6.758493,53.010017
Volmachtenlaan,8,,,9461CJ,Gieten,Aa en Hunze,Drenthe,VBO,6.758875,53.010309
Volmachtenlaan,9,,,9461CJ,Gieten,Aa en Hunze,Drenthe,VBO,6.758363,53.010135
Volmachtenlaan,10,,,9461CJ,Gieten,Aa en Hunze,Drenthe,VBO,6.758729,53.010419
Volmachtenlaan,11,,,9461CJ,Gieten,Aa en Hunze,Drenthe,VBO,6.758276,53.010208
Volmachtenlaan,12,,,9461CJ,Gieten,Aa en Hunze,Drenthe,VBO,6.758628,53.010510
Volmachtenlaan,13,,,9461CJ,Gieten,Aa en Hunze,Drenthe,VBO,6.758130,53.010318
Wilkerweg,1,,,9461CK,Gieten,Aa en Hunze,Drenthe,VBO,6.759904,53.010333
Wilkerweg,2,,,9461CK,Gieten,Aa en Hunze,Drenthe,VBO,6.760955,53.010114
Wilkerweg,3,,,9461CK,Gieten,Aa en Hunze,Drenthe,VBO,6.759702,53.010533
Wilkerweg,4,,,9461CK,Gieten,Aa en Hunze,Drenthe,VBO,6.761321,53.010371
Wilkerweg,5,,,9461CK,Gieten,Aa en Hunze,Drenthe,VBO,6.759659,53.010597
Wilkerweg,6,,,9461CK,Gieten,Aa en Hunze,Drenthe,VBO,6.761149,53.010597
Wilkerweg,7,,,9461CK,Gieten,Aa en Hunze,Drenthe,VBO,6.759531,53.010796
Wilkerweg,8,,,9461CK,Gieten,Aa en Hunze,Drenthe,VBO,6.760524,53.010641
Wilkerweg,10,,,9461CK,Gieten,Aa en Hunze,Drenthe,VBO,6.760353,53.010885
Wilkerweg,12,,,9461CK,Gieten,Aa en Hunze,Drenthe,VBO,6.760166,53.011094
Waardeellaan,1,,,9461CL,Gieten,Aa en Hunze,Drenthe,VBO,6.754383,53.009147
Waardeellaan,3,,,9461CL,Gieten,Aa en Hunze,Drenthe,VBO,6.754716,53.009296
Waardeellaan,5,,,9461CL,Gieten,Aa en Hunze,Drenthe,VBO,6.754989,53.009464
Waardeellaan,7,,,9461CL,Gieten,Aa en Hunze,Drenthe,VBO,6.755248,53.009641
Waardeellaan,9,,,9461CL,Gieten,Aa en Hunze,Drenthe,VBO,6.755507,53.009817
Waardeellaan,11,,,9461CL,Gieten,Aa en Hunze,Drenthe,VBO,6.755780,53.009985
Waardeellaan,31,,,9461CM,Gieten,Aa en Hunze,Drenthe,VBO,6.756660,53.010478
Waardeellaan,33,,,9461CM,Gieten,Aa en Hunze,Drenthe,VBO,6.757007,53.010609
Waardeellaan,35,,,9461CM,Gieten,Aa en Hunze,Drenthe,VBO,6.757354,53.010749
Waardeellaan,37,,,9461CM,Gieten,Aa en Hunze,Drenthe,VBO,6.757212,53.010984
Waardeellaan,39,,,9461CM,Gieten,Aa en Hunze,Drenthe,VBO,6.757490,53.011269
Waardeellaan,41,,,9461CM,Gieten,Aa en Hunze,Drenthe,VBO,6.758015,53.011388
Waardeellaan,43,a,,9461CM,Gieten,Aa en Hunze,Drenthe,VBO,6.759084,53.011448
Waardeellaan,43,,,9461CM,Gieten,Aa en Hunze,Drenthe,VBO,6.758653,53.011318
Waardeellaan,45,,,9461CM,Gieten,Aa en Hunze,Drenthe,VBO,6.759465,53.011525
Waardeellaan,2,,,9461CN,Gieten,Aa en Hunze,Drenthe,VBO,6.755287,53.008526
Waardeellaan,4,,,9461CN,Gieten,Aa en Hunze,Drenthe,VBO,6.755382,53.008686
Waardeellaan,6,,,9461CN,Gieten,Aa en Hunze,Drenthe,VBO,6.755444,53.008758
Waardeellaan,8,,,9461CN,Gieten,Aa en Hunze,Drenthe,VBO,6.755597,53.008909
Waardeellaan,10,,,9461CN,Gieten,Aa en Hunze,Drenthe,VBO,6.755629,53.008980
Waardeellaan,12,,,9461CN,Gieten,Aa en Hunze,Drenthe,VBO,6.755937,53.009282
Waardeellaan,14,,,9461CN,Gieten,Aa en Hunze,Drenthe,VBO,6.755998,53.009344
Waardeellaan,16,,,9461CN,Gieten,Aa en Hunze,Drenthe,VBO,6.756168,53.009513
Waardeellaan,18,,,9461CN,Gieten,Aa en Hunze,Drenthe,VBO,6.756244,53.009575
Waardeellaan,20,,,9461CN,Gieten,Aa en Hunze,Drenthe,VBO,6.756428,53.009726
Waardeellaan,22,,,9461CN,Gieten,Aa en Hunze,Drenthe,VBO,6.756504,53.009788
Waardeellaan,24,,,9461CP,Gieten,Aa en Hunze,Drenthe,VBO,6.757112,53.010167
Waardeellaan,26,,,9461CP,Gieten,Aa en Hunze,Drenthe,VBO,6.757354,53.010282
Waardeellaan,28,,,9461CP,Gieten,Aa en Hunze,Drenthe,VBO,6.757686,53.010404
Waardeellaan,30,,,9461CP,Gieten,Aa en Hunze,Drenthe,VBO,6.757913,53.010509
Waardeellaan,36,,,9461CP,Gieten,Aa en Hunze,Drenthe,VBO,6.758440,53.010682
Waardeellaan,38,,,9461CP,Gieten,Aa en Hunze,Drenthe,VBO,6.758891,53.010821
Waardeellaan,42,,,9461CP,Gieten,Aa en Hunze,Drenthe,VBO,6.759298,53.010960
de Zaalsteden,1,,,9461CR,Gieten,Aa en Hunze,Drenthe,VBO,6.753508,53.007863
de Zaalsteden,3,,,9461CR,Gieten,Aa en Hunze,Drenthe,VBO,6.753710,53.008130
de Zaalsteden,5,,,9461CR,Gieten,Aa en Hunze,Drenthe,VBO,6.753853,53.008398
de Zaalsteden,7,,,9461CR,Gieten,Aa en Hunze,Drenthe,VBO,6.753755,53.008615
de Zaalsteden,9,,,9461CR,Gieten,Aa en Hunze,Drenthe,VBO,6.753583,53.008824
de Zaalsteden,11,,,9461CR,Gieten,Aa en Hunze,Drenthe,VBO,6.752764,53.008842
de Zaalsteden,13,,,9461CR,Gieten,Aa en Hunze,Drenthe,VBO,6.752522,53.009186
de Zaalsteden,15,,,9461CR,Gieten,Aa en Hunze,Drenthe,VBO,6.752965,53.009532
de Zaalsteden,17,,,9461CR,Gieten,Aa en Hunze,Drenthe,VBO,6.753333,53.009860
de Zaalsteden,19,,,9461CR,Gieten,Aa en Hunze,Drenthe,VBO,6.753151,53.010249
de Zaalsteden,21,,,9461CS,Gieten,Aa en Hunze,Drenthe,VBO,6.753411,53.010452
de Zaalsteden,23,,,9461CS,Gieten,Aa en Hunze,Drenthe,VBO,6.753930,53.010393
de Zaalsteden,25,,,9461CS,Gieten,Aa en Hunze,Drenthe,VBO,6.754498,53.010449
de Zaalsteden,27,,,9461CS,Gieten,Aa en Hunze,Drenthe,VBO,6.754700,53.010698
de Zaalsteden,29,,,9461CS,Gieten,Aa en Hunze,Drenthe,VBO,6.754946,53.010929
de Zaalsteden,31,,,9461CS,Gieten,Aa en Hunze,Drenthe,VBO,6.755307,53.011060
de Zaalsteden,35,,,9461CS,Gieten,Aa en Hunze,Drenthe,VBO,6.755773,53.011162
de Zaalsteden,37,,,9461CS,Gieten,Aa en Hunze,Drenthe,VBO,6.756250,53.011166
de Zaalsteden,39,,,9461CS,Gieten,Aa en Hunze,Drenthe,VBO,6.756579,53.010740
de Zaalsteden,2,,,9461CT,Gieten,Aa en Hunze,Drenthe,VBO,6.754054,53.007686
de Zaalsteden,4,,,9461CT,Gieten,Aa en Hunze,Drenthe,VBO,6.754179,53.007873
de Zaalsteden,6,,,9461CT,Gieten,Aa en Hunze,Drenthe,VBO,6.754319,53.008042
de Zaalsteden,10,,,9461CT,Gieten,Aa en Hunze,Drenthe,VBO,6.754150,53.009312
de Zaalsteden,12,,,9461CT,Gieten,Aa en Hunze,Drenthe,VBO,6.753857,53.009468
de Zaalsteden,14,,,9461CT,Gieten,Aa en Hunze,Drenthe,VBO,6.754130,53.009635
de Zaalsteden,16,,,9461CT,Gieten,Aa en Hunze,Drenthe,VBO,6.754418,53.009794
de Zaalsteden,18,,,9461CT,Gieten,Aa en Hunze,Drenthe,VBO,6.754692,53.009970
de Zaalsteden,20,,,9461CT,Gieten,Aa en Hunze,Drenthe,VBO,6.754951,53.010138
de Zaalsteden,22,,,9461CT,Gieten,Aa en Hunze,Drenthe,VBO,6.755238,53.010288
de Zaalsteden,24,,,9461CT,Gieten,Aa en Hunze,Drenthe,VBO,6.755620,53.010571
de Zaalsteden,26,,,9461CT,Gieten,Aa en Hunze,Drenthe,VBO,6.755897,53.010388
de Zaalsteden,28,,,9461CT,Gieten,Aa en Hunze,Drenthe,VBO,6.756160,53.010223
Kruusakkers,2,,,9461CV,Gieten,Aa en Hunze,Drenthe,VBO,6.760479,53.009203
Kruusakkers,4,,,9461CV,Gieten,Aa en Hunze,Drenthe,VBO,6.760183,53.009260
Spoorstraat,1,,,9461DA,Gieten,Aa en Hunze,Drenthe,VBO,6.760215,53.001306
Spoorstraat,2,,,9461DA,Gieten,Aa en Hunze,Drenthe,VBO,6.759898,52.999746
Spoorstraat,3,,,9461DA,Gieten,Aa en Hunze,Drenthe,VBO,6.760228,53.001252
Spoorstraat,5,,,9461DA,Gieten,Aa en Hunze,Drenthe,VBO,6.760342,53.001071
Spoorstraat,7,,,9461DA,Gieten,Aa en Hunze,Drenthe,VBO,6.760370,53.001017
Spoorstraat,9,,,9461DA,Gieten,Aa en Hunze,Drenthe,VBO,6.760526,53.000791
Spoorstraat,11,,,9461DA,Gieten,Aa en Hunze,Drenthe,VBO,6.760596,53.000646
Spoorstraat,13,,,9461DA,Gieten,Aa en Hunze,Drenthe,VBO,6.760625,53.000601
Spoorstraat,15,,,9461DA,Gieten,Aa en Hunze,Drenthe,VBO,6.760710,53.000465
Spoorstraat,17,,,9461DA,Gieten,Aa en Hunze,Drenthe,VBO,6.760738,53.000420
Spoorstraat,19,,,9461DA,Gieten,Aa en Hunze,Drenthe,VBO,6.760824,53.000293
Spoorstraat,21,,,9461DA,Gieten,Aa en Hunze,Drenthe,VBO,6.760852,53.000239
Spoorstraat,23,,,9461DA,Gieten,Aa en Hunze,Drenthe,VBO,6.760980,53.000066
Spoorstraat,25,,,9461DA,Gieten,Aa en Hunze,Drenthe,VBO,6.761247,53.000027
Spoorstraat,27,,,9461DA,Gieten,Aa en Hunze,Drenthe,VBO,6.761532,53.000096
Spoorstraat,29,,,9461DA,Gieten,Aa en Hunze,Drenthe,VBO,6.761913,53.000159
Spoorstraat,31,,,9461DA,Gieten,Aa en Hunze,Drenthe,VBO,6.762160,53.000206
Spoorstraat,33,,,9461DA,Gieten,Aa en Hunze,Drenthe,VBO,6.762410,53.000208
Spoorstraat,35,,,9461DA,Gieten,Aa en Hunze,Drenthe,VBO,6.762593,53.000251
de Waag,1,,,9461DB,Gieten,Aa en Hunze,Drenthe,VBO,6.761455,53.000960
de Waag,2,,,9461DB,Gieten,Aa en Hunze,Drenthe,VBO,6.761036,53.000892
de Waag,3,,,9461DB,Gieten,Aa en Hunze,Drenthe,VBO,6.761484,53.000914
de Waag,4,,,9461DB,Gieten,Aa en Hunze,Drenthe,VBO,6.761049,53.000838
de Waag,5,,,9461DB,Gieten,Aa en Hunze,Drenthe,VBO,6.761569,53.000779
de Waag,6,,,9461DB,Gieten,Aa en Hunze,Drenthe,VBO,6.761135,53.000712
de Waag,7,,,9461DB,Gieten,Aa en Hunze,Drenthe,VBO,6.761582,53.000733
de Waag,8,,,9461DB,Gieten,Aa en Hunze,Drenthe,VBO,6.761163,53.000657
de Waag,9,,,9461DB,Gieten,Aa en Hunze,Drenthe,VBO,6.761667,53.000598
de Waag,10,,,9461DB,Gieten,Aa en Hunze,Drenthe,VBO,6.761233,53.000531
de Waag,11,,,9461DB,Gieten,Aa en Hunze,Drenthe,VBO,6.761696,53.000552
de Waag,12,,,9461DB,Gieten,Aa en Hunze,Drenthe,VBO,6.761261,53.000476
de Waag,13,,,9461DB,Gieten,Aa en Hunze,Drenthe,VBO,6.761766,53.000408
de Waag,14,,,9461DB,Gieten,Aa en Hunze,Drenthe,VBO,6.761346,53.000341
de Waag,15,,,9461DB,Gieten,Aa en Hunze,Drenthe,VBO,6.761794,53.000363
de Waag,16,,,9461DB,Gieten,Aa en Hunze,Drenthe,VBO,6.761360,53.000296
de Trog,2,,,9461DC,Gieten,Aa en Hunze,Drenthe,VBO,6.764247,53.001462
de Trog,4,,,9461DC,Gieten,Aa en Hunze,Drenthe,VBO,6.764125,53.001448
de Trog,6,,,9461DC,Gieten,Aa en Hunze,Drenthe,VBO,6.764196,53.001331
de Trog,8,,,9461DC,Gieten,Aa en Hunze,Drenthe,VBO,6.764339,53.001399
de Trog,10,,,9461DC,Gieten,Aa en Hunze,Drenthe,VBO,6.764167,53.001457
de Trog,12,,,9461DC,Gieten,Aa en Hunze,Drenthe,VBO,6.764233,53.001336
de Trog,14,,,9461DC,Gieten,Aa en Hunze,Drenthe,VBO,6.764316,53.001437
de Trog,16,,,9461DC,Gieten,Aa en Hunze,Drenthe,VBO,6.764196,53.001464
de Trog,18,,,9461DC,Gieten,Aa en Hunze,Drenthe,VBO,6.764263,53.001343
de Trog,20,,,9461DC,Gieten,Aa en Hunze,Drenthe,VBO,6.764406,53.001324
de Trog,22,,,9461DC,Gieten,Aa en Hunze,Drenthe,VBO,6.764455,53.001235
de Trog,24,,,9461DC,Gieten,Aa en Hunze,Drenthe,VBO,6.764388,53.001158
de Trog,26,,,9461DC,Gieten,Aa en Hunze,Drenthe,VBO,6.764462,53.001037
de Trog,28,,,9461DC,Gieten,Aa en Hunze,Drenthe,VBO,6.764592,53.001104
de Trog,30,,,9461DC,Gieten,Aa en Hunze,Drenthe,VBO,6.764411,53.001163
de Trog,32,,,9461DC,Gieten,Aa en Hunze,Drenthe,VBO,6.764484,53.001043
de Trog,34,,,9461DC,Gieten,Aa en Hunze,Drenthe,VBO,6.764571,53.001142
de Trog,36,,,9461DC,Gieten,Aa en Hunze,Drenthe,VBO,6.764437,53.001169
de Trog,38,,,9461DC,Gieten,Aa en Hunze,Drenthe,VBO,6.764507,53.001047
de Trog,40,,,9461DC,Gieten,Aa en Hunze,Drenthe,VBO,6.764588,53.001023
de Trog,42,,,9461DC,Gieten,Aa en Hunze,Drenthe,VBO,6.764633,53.000941
de Trog,44,,,9461DC,Gieten,Aa en Hunze,Drenthe,VBO,6.764526,53.000884
de Trog,46,,,9461DC,Gieten,Aa en Hunze,Drenthe,VBO,6.764594,53.000757
de Trog,48,,,9461DC,Gieten,Aa en Hunze,Drenthe,VBO,6.764746,53.000833
de Trog,50,,,9461DC,Gieten,Aa en Hunze,Drenthe,VBO,6.764559,53.000890
de Trog,52,,,9461DC,Gieten,Aa en Hunze,Drenthe,VBO,6.764625,53.000761
de Trog,54,,,9461DC,Gieten,Aa en Hunze,Drenthe,VBO,6.764720,53.000869
de Trog,56,,,9461DC,Gieten,Aa en Hunze,Drenthe,VBO,6.764595,53.000897
de Trog,58,,,9461DC,Gieten,Aa en Hunze,Drenthe,VBO,6.764661,53.000768
de Trog,60,,,9461DC,Gieten,Aa en Hunze,Drenthe,VBO,6.764751,53.000738
de Trog,64,a,,9461DC,Gieten,Aa en Hunze,Drenthe,VBO,6.764790,53.000670
de Trog,64,,,9461DC,Gieten,Aa en Hunze,Drenthe,VBO,6.764770,53.000706
de Trog,66,,,9461DC,Gieten,Aa en Hunze,Drenthe,VBO,6.764814,53.000634
de Trog,68,,,9461DC,Gieten,Aa en Hunze,Drenthe,VBO,6.764694,53.000574
de Trog,70,,,9461DC,Gieten,Aa en Hunze,Drenthe,VBO,6.764767,53.000449
de Trog,72,,,9461DC,Gieten,Aa en Hunze,Drenthe,VBO,6.764917,53.000527
de Trog,74,,,9461DC,Gieten,Aa en Hunze,Drenthe,VBO,6.764724,53.000579
de Trog,76,,,9461DC,Gieten,Aa en Hunze,Drenthe,VBO,6.764795,53.000454
de Trog,78,,,9461DC,Gieten,Aa en Hunze,Drenthe,VBO,6.764893,53.000564
de Trog,80,,,9461DC,Gieten,Aa en Hunze,Drenthe,VBO,6.764761,53.000588
de Trog,82,,,9461DC,Gieten,Aa en Hunze,Drenthe,VBO,6.764820,53.000461
de Trog,84,,,9461DC,Gieten,Aa en Hunze,Drenthe,VBO,6.764904,53.000488
Udemalaan,1,,,9461DD,Gieten,Aa en Hunze,Drenthe,VBO,6.762557,53.001077
Udemalaan,2,,,9461DD,Gieten,Aa en Hunze,Drenthe,VBO,6.762082,53.001061
Udemalaan,3,,,9461DD,Gieten,Aa en Hunze,Drenthe,VBO,6.762619,53.000940
Udemalaan,4,,,9461DD,Gieten,Aa en Hunze,Drenthe,VBO,6.762068,53.000939
Udemalaan,5,,,9461DD,Gieten,Aa en Hunze,Drenthe,VBO,6.762612,53.000752
Udemalaan,6,,,9461DD,Gieten,Aa en Hunze,Drenthe,VBO,6.762099,53.000815
Udemalaan,7,,,9461DD,Gieten,Aa en Hunze,Drenthe,VBO,6.762751,53.000619
Udemalaan,8,,,9461DD,Gieten,Aa en Hunze,Drenthe,VBO,6.762133,53.000705
Udemalaan,9,,,9461DD,Gieten,Aa en Hunze,Drenthe,VBO,6.762946,53.000505
Udemalaan,10,,,9461DD,Gieten,Aa en Hunze,Drenthe,VBO,6.762176,53.000611
Udemalaan,11,,,9461DD,Gieten,Aa en Hunze,Drenthe,VBO,6.763142,53.000376
Udemalaan,12,,,9461DD,Gieten,Aa en Hunze,Drenthe,VBO,6.762280,53.000512
Udemalaan,13,,,9461DD,Gieten,Aa en Hunze,Drenthe,VBO,6.763374,53.000324
Udemalaan,14,,,9461DD,Gieten,Aa en Hunze,Drenthe,VBO,6.762402,53.000396
Hoornstraat,2,,,9461DE,Gieten,Aa en Hunze,Drenthe,VBO,6.760683,53.001076
Hoornstraat,4,,,9461DE,Gieten,Aa en Hunze,Drenthe,VBO,6.760777,53.001090
Hoornstraat,6,,,9461DE,Gieten,Aa en Hunze,Drenthe,VBO,6.760973,53.001124
Hoornstraat,8,,,9461DE,Gieten,Aa en Hunze,Drenthe,VBO,6.761049,53.001128
Hoornstraat,10,,,9461DE,Gieten,Aa en Hunze,Drenthe,VBO,6.761222,53.001186
Hoornstraat,12,,,9461DE,Gieten,Aa en Hunze,Drenthe,VBO,6.761319,53.001189
Hoornstraat,14,,,9461DE,Gieten,Aa en Hunze,Drenthe,VBO,6.761512,53.001215
Hoornstraat,16,,,9461DE,Gieten,Aa en Hunze,Drenthe,VBO,6.761602,53.001225
Hoornstraat,18,,,9461DE,Gieten,Aa en Hunze,Drenthe,VBO,6.761773,53.001275
Hoornstraat,20,,,9461DE,Gieten,Aa en Hunze,Drenthe,VBO,6.761863,53.001279
Hoornstraat,22,,,9461DE,Gieten,Aa en Hunze,Drenthe,VBO,6.762050,53.001314
de Wiemel,2,,,9461DG,Gieten,Aa en Hunze,Drenthe,VBO,6.762927,53.001072
de Wiemel,4,,,9461DG,Gieten,Aa en Hunze,Drenthe,VBO,6.763020,53.001030
de Wiemel,6,,,9461DG,Gieten,Aa en Hunze,Drenthe,VBO,6.763149,53.000938
de Wiemel,8,,,9461DG,Gieten,Aa en Hunze,Drenthe,VBO,6.763197,53.000887
de Wiemel,10,,,9461DG,Gieten,Aa en Hunze,Drenthe,VBO,6.763219,53.000757
de Wiemel,12,,,9461DG,Gieten,Aa en Hunze,Drenthe,VBO,6.763309,53.000696
de Wiemel,14,,,9461DG,Gieten,Aa en Hunze,Drenthe,VBO,6.763456,53.000624
de Wiemel,16,,,9461DG,Gieten,Aa en Hunze,Drenthe,VBO,6.763562,53.000599
de Wiemel,18,,,9461DG,Gieten,Aa en Hunze,Drenthe,VBO,6.763686,53.000503
de Wiemel,20,,,9461DG,Gieten,Aa en Hunze,Drenthe,VBO,6.763760,53.000466
de Wiemel,1,,,9461DH,Gieten,Aa en Hunze,Drenthe,VBO,6.762456,53.001373
de Wiemel,3,,,9461DH,Gieten,Aa en Hunze,Drenthe,VBO,6.762599,53.001379
de Wiemel,5,,,9461DH,Gieten,Aa en Hunze,Drenthe,VBO,6.762781,53.001387
de Wiemel,7,,,9461DH,Gieten,Aa en Hunze,Drenthe,VBO,6.762923,53.001382
de Wiemel,9,,,9461DH,Gieten,Aa en Hunze,Drenthe,VBO,6.763121,53.001350
de Wiemel,11,,,9461DH,Gieten,Aa en Hunze,Drenthe,VBO,6.763252,53.001316
de Wiemel,13,,,9461DH,Gieten,Aa en Hunze,Drenthe,VBO,6.763406,53.001231
de Wiemel,17,,,9461DH,Gieten,Aa en Hunze,Drenthe,VBO,6.763757,53.000874
de Wiemel,19,,,9461DH,Gieten,Aa en Hunze,Drenthe,VBO,6.763843,53.000823
de Wiemel,21,,,9461DH,Gieten,Aa en Hunze,Drenthe,VBO,6.763966,53.000727
de Wiemel,23,,,9461DH,Gieten,Aa en Hunze,Drenthe,VBO,6.764034,53.000682
Haspelakkers,2,,,9461EA,Gieten,Aa en Hunze,Drenthe,VBO,6.755933,53.006325
Woerdakkers,1,,,9461EB,Gieten,Aa en Hunze,Drenthe,VBO,6.757447,53.005194
Woerdakkers,3,,,9461EB,Gieten,Aa en Hunze,Drenthe,VBO,6.756696,53.005454
Woerdakkers,5,,,9461EB,Gieten,Aa en Hunze,Drenthe,VBO,6.756358,53.005611
Woerdakkers,7,,,9461EB,Gieten,Aa en Hunze,Drenthe,VBO,6.756034,53.005740
Woerdakkers,9,,,9461EB,Gieten,Aa en Hunze,Drenthe,VBO,6.755204,53.005866
Woerdakkers,11,,,9461EB,Gieten,Aa en Hunze,Drenthe,VBO,6.754997,53.005932
Woerdakkers,13,,,9461EB,Gieten,Aa en Hunze,Drenthe,VBO,6.754702,53.006025
Woerdakkers,15,,,9461EB,Gieten,Aa en Hunze,Drenthe,VBO,6.754407,53.006118
Woerdakkers,17,,,9461EB,Gieten,Aa en Hunze,Drenthe,VBO,6.754171,53.006202
Woerdakkers,19,,,9461EB,Gieten,Aa en Hunze,Drenthe,VBO,6.753876,53.006286
Woerdakkers,21,,,9461EB,Gieten,Aa en Hunze,Drenthe,VBO,6.753137,53.006492
Woerdakkers,23,,,9461EB,Gieten,Aa en Hunze,Drenthe,VBO,6.752634,53.006597
Woerdakkers,25,,,9461EB,Gieten,Aa en Hunze,Drenthe,VBO,6.752145,53.006665
Woerdakkers,27,,,9461EB,Gieten,Aa en Hunze,Drenthe,VBO,6.752097,53.007043
Woerdakkers,4,,,9461EC,Gieten,Aa en Hunze,Drenthe,VBO,6.758248,53.005553
Woerdakkers,6,,,9461EC,Gieten,Aa en Hunze,Drenthe,VBO,6.757790,53.005657
Woerdakkers,8,,,9461EC,Gieten,Aa en Hunze,Drenthe,VBO,6.757271,53.005766
Woerdakkers,12,,,9461EC,Gieten,Aa en Hunze,Drenthe,VBO,6.757008,53.005900
Woerdakkers,14,,,9461EC,Gieten,Aa en Hunze,Drenthe,VBO,6.756801,53.005974
Woerdakkers,16,,,9461EC,Gieten,Aa en Hunze,Drenthe,VBO,6.756625,53.006048
Woerdakkers,18,,,9461EC,Gieten,Aa en Hunze,Drenthe,VBO,6.756464,53.006131
Woerdakkers,22,,,9461EC,Gieten,Aa en Hunze,Drenthe,VBO,6.755668,53.006427
Woerdakkers,24,,,9461ED,Gieten,Aa en Hunze,Drenthe,VBO,6.755323,53.006350
Woerdakkers,26,,,9461ED,Gieten,Aa en Hunze,Drenthe,VBO,6.755205,53.006379
Woerdakkers,28,,,9461ED,Gieten,Aa en Hunze,Drenthe,VBO,6.754983,53.006435
Woerdakkers,30,,,9461ED,Gieten,Aa en Hunze,Drenthe,VBO,6.754865,53.006472
Woerdakkers,32,,,9461ED,Gieten,Aa en Hunze,Drenthe,VBO,6.754644,53.006547
Woerdakkers,34,,,9461ED,Gieten,Aa en Hunze,Drenthe,VBO,6.754526,53.006575
Woerdakkers,36,,,9461ED,Gieten,Aa en Hunze,Drenthe,VBO,6.754319,53.006631
Woerdakkers,38,,,9461ED,Gieten,Aa en Hunze,Drenthe,VBO,6.754186,53.006660
Woerdakkers,40,,,9461ED,Gieten,Aa en Hunze,Drenthe,VBO,6.753964,53.006707
Woerdakkers,42,,,9461ED,Gieten,Aa en Hunze,Drenthe,VBO,6.753845,53.006736
Woerdakkers,44,,,9461ED,Gieten,Aa en Hunze,Drenthe,VBO,6.753609,53.006801
Woerdakkers,46,,,9461ED,Gieten,Aa en Hunze,Drenthe,VBO,6.753505,53.006821
Woerdakkers,48,,,9461ED,Gieten,Aa en Hunze,Drenthe,VBO,6.752595,53.007244
Wenakkers,2,,,9461EE,Gieten,Aa en Hunze,Drenthe,VBO,6.752948,53.007097
Westerend,1,,,9461EG,Gieten,Aa en Hunze,Drenthe,VBO,6.757070,53.005036
Westerend,3,,,9461EG,Gieten,Aa en Hunze,Drenthe,VBO,6.757075,53.004722
Westerend,5,,,9461EG,Gieten,Aa en Hunze,Drenthe,VBO,6.756488,53.004540
Westerend,2,,,9461EH,Gieten,Aa en Hunze,Drenthe,VBO,6.756419,53.005196
Westerend,4,,,9461EH,Gieten,Aa en Hunze,Drenthe,VBO,6.756085,53.004985
Westerend,6,,,9461EH,Gieten,Aa en Hunze,Drenthe,VBO,6.755680,53.004908
Westerend,8,,,9461EH,Gieten,Aa en Hunze,Drenthe,VBO,6.755522,53.004605
Hofakkers,1,,,9461EJ,Gieten,Aa en Hunze,Drenthe,VBO,6.755730,53.005546
Hofakkers,3,,,9461EJ,Gieten,Aa en Hunze,Drenthe,VBO,6.755619,53.005349
Hofakkers,5,,,9461EJ,Gieten,Aa en Hunze,Drenthe,VBO,6.755557,53.005269
Hofakkers,7,,,9461EJ,Gieten,Aa en Hunze,Drenthe,VBO,6.755390,53.005145
Hofakkers,9,,,9461EJ,Gieten,Aa en Hunze,Drenthe,VBO,6.755343,53.005101
Hofakkers,11,,,9461EJ,Gieten,Aa en Hunze,Drenthe,VBO,6.755189,53.004932
Hofakkers,13,,,9461EJ,Gieten,Aa en Hunze,Drenthe,VBO,6.755143,53.004879
Hofakkers,15,,,9461EJ,Gieten,Aa en Hunze,Drenthe,VBO,6.754945,53.004737
Olde Hof,2,,,9461EL,Gieten,Aa en Hunze,Drenthe,VBO,6.757380,53.004961
Schopperskamp,1,,,9461EM,Gieten,Aa en Hunze,Drenthe,VBO,6.754645,53.005172
Schopperskamp,3,,,9461EM,Gieten,Aa en Hunze,Drenthe,VBO,6.754350,53.005238
Schopperskamp,5,,,9461EM,Gieten,Aa en Hunze,Drenthe,VBO,6.754114,53.005322
Schopperskamp,7,,,9461EM,Gieten,Aa en Hunze,Drenthe,VBO,6.753818,53.005406
Schopperskamp,11,,,9461EM,Gieten,Aa en Hunze,Drenthe,VBO,6.752648,53.005608
Schopperskamp,13,,,9461EM,Gieten,Aa en Hunze,Drenthe,VBO,6.752134,53.005857
Schopperskamp,2,,,9461EN,Gieten,Aa en Hunze,Drenthe,VBO,6.754909,53.005510
Schopperskamp,4,,,9461EN,Gieten,Aa en Hunze,Drenthe,VBO,6.754806,53.005538
Schopperskamp,6,,,9461EN,Gieten,Aa en Hunze,Drenthe,VBO,6.754511,53.005641
Schopperskamp,8,,,9461EN,Gieten,Aa en Hunze,Drenthe,VBO,6.754423,53.005669
Schopperskamp,10,,,9461EN,Gieten,Aa en Hunze,Drenthe,VBO,6.754098,53.005762
Schopperskamp,12,,,9461EN,Gieten,Aa en Hunze,Drenthe,VBO,6.754009,53.005781
Schopperskamp,14,,,9461EN,Gieten,Aa en Hunze,Drenthe,VBO,6.753761,53.005955
Schopperskamp,16,,,9461EN,Gieten,Aa en Hunze,Drenthe,VBO,6.753673,53.005983
Schopperskamp,20,,,9461EN,Gieten,Aa en Hunze,Drenthe,VBO,6.752520,53.006293
Schopperskamp,22,,,9461EN,Gieten,Aa en Hunze,Drenthe,VBO,6.752082,53.006100
de Beukers,1,,,9461EP,Gieten,Aa en Hunze,Drenthe,VBO,6.755444,53.004048
de Beukers,3,,,9461EP,Gieten,Aa en Hunze,Drenthe,VBO,6.755062,53.004196
de Beukers,5,,,9461EP,Gieten,Aa en Hunze,Drenthe,VBO,6.754428,53.004428
de Beukers,7,,,9461EP,Gieten,Aa en Hunze,Drenthe,VBO,6.753926,53.004560
de Beukers,9,,,9461EP,Gieten,Aa en Hunze,Drenthe,VBO,6.753454,53.004709
de Beukers,11,,,9461EP,Gieten,Aa en Hunze,Drenthe,VBO,6.752890,53.004778
de Beukers,13,,,9461EP,Gieten,Aa en Hunze,Drenthe,VBO,6.752273,53.005055
de Beukers,8,,,9461ER,Gieten,Aa en Hunze,Drenthe,VBO,6.754443,53.004896
de Beukers,10,,,9461ER,Gieten,Aa en Hunze,Drenthe,VBO,6.754090,53.005043
de Beukers,12,,,9461ER,Gieten,Aa en Hunze,Drenthe,VBO,6.753987,53.005071
de Beukers,14,,,9461ER,Gieten,Aa en Hunze,Drenthe,VBO,6.753587,53.005148
het Poeltje,1,,,9461ES,Gieten,Aa en Hunze,Drenthe,VBO,6.754891,53.003983
het Poeltje,2,,,9461ES,Gieten,Aa en Hunze,Drenthe,VBO,6.754184,53.004251
het Poeltje,3,,,9461ES,Gieten,Aa en Hunze,Drenthe,VBO,6.754574,53.003834
het Poeltje,4,,,9461ES,Gieten,Aa en Hunze,Drenthe,VBO,6.753705,53.004176
het Poeltje,5,,,9461ES,Gieten,Aa en Hunze,Drenthe,VBO,6.753539,53.003612
het Poeltje,6,,,9461ES,Gieten,Aa en Hunze,Drenthe,VBO,6.753264,53.004343
het Poeltje,7,,,9461ES,Gieten,Aa en Hunze,Drenthe,VBO,6.753149,53.003544
het Poeltje,8,,,9461ES,Gieten,Aa en Hunze,Drenthe,VBO,6.752931,53.004176
het Poeltje,9,,,9461ES,Gieten,Aa en Hunze,Drenthe,VBO,6.752720,53.003621
het Poeltje,10,,,9461ES,Gieten,Aa en Hunze,Drenthe,VBO,6.752484,53.004181
Gietsenakkers,2,,,9461EW,Gieten,Aa en Hunze,Drenthe,VBO,6.753082,53.006160
Asserstraat,1,,,9461GA,Gieten,Aa en Hunze,Drenthe,VBO,6.763234,53.003959
Asserstraat,3,,,9461GA,Gieten,Aa en Hunze,Drenthe,VBO,6.762889,53.003882
Asserstraat,5,,,9461GA,Gieten,Aa en Hunze,Drenthe,VBO,6.762481,53.003725
Asserstraat,7,,,9461GA,Gieten,Aa en Hunze,Drenthe,VBO,6.761763,53.003625
Asserstraat,9,,,9461GA,Gieten,Aa en Hunze,Drenthe,VBO,6.760987,53.003580
Asserstraat,11,a,,9461GA,Gieten,Aa en Hunze,Drenthe,VBO,6.760614,53.003576
Asserstraat,11,,,9461GA,Gieten,Aa en Hunze,Drenthe,VBO,6.760719,53.003583
Asserstraat,13,,,9461GA,Gieten,Aa en Hunze,Drenthe,VBO,6.760272,53.003597
Asserstraat,15,,,9461GA,Gieten,Aa en Hunze,Drenthe,VBO,6.760212,53.003589
Asserstraat,19,,,9461GA,Gieten,Aa en Hunze,Drenthe,VBO,6.759834,53.002937
Asserstraat,21,,,9461GA,Gieten,Aa en Hunze,Drenthe,VBO,6.759766,53.003603
Asserstraat,25,,,9461GA,Gieten,Aa en Hunze,Drenthe,VBO,6.759409,53.003625
Asserstraat,27,,,9461GB,Gieten,Aa en Hunze,Drenthe,VBO,6.758797,53.003587
Asserstraat,29,,,9461GB,Gieten,Aa en Hunze,Drenthe,VBO,6.758590,53.003626
Asserstraat,33,a,,9461GB,Gieten,Aa en Hunze,Drenthe,VBO,6.757590,53.002439
Asserstraat,33,b,,9461GB,Gieten,Aa en Hunze,Drenthe,VBO,6.757126,53.002686
Asserstraat,33,,,9461GB,Gieten,Aa en Hunze,Drenthe,VBO,6.757532,53.001693
Asserstraat,35,a,,9461GB,Gieten,Aa en Hunze,Drenthe,VBO,6.757296,53.002164
Asserstraat,35,,,9461GB,Gieten,Aa en Hunze,Drenthe,VBO,6.757194,53.002144
Asserstraat,39,,,9461GB,Gieten,Aa en Hunze,Drenthe,VBO,6.756917,53.003483
Asserstraat,41,,,9461GB,Gieten,Aa en Hunze,Drenthe,VBO,6.756675,53.003369
Asserstraat,43,,,9461GB,Gieten,Aa en Hunze,Drenthe,VBO,6.756435,53.003327
Asserstraat,45,,,9461GB,Gieten,Aa en Hunze,Drenthe,VBO,6.756120,53.003250
Asserstraat,47,,,9461GB,Gieten,Aa en Hunze,Drenthe,VBO,6.755745,53.003191
Asserstraat,49,,,9461GB,Gieten,Aa en Hunze,Drenthe,VBO,6.755565,53.003148
Asserstraat,51,,,9461GB,Gieten,Aa en Hunze,Drenthe,VBO,6.755385,53.003105
Asserstraat,53,,,9461GB,Gieten,Aa en Hunze,Drenthe,VBO,6.755190,53.003072
Asserstraat,55,,,9461GB,Gieten,Aa en Hunze,Drenthe,VBO,6.754561,53.002944
Asserstraat,61,a,,9461GB,Gieten,Aa en Hunze,Drenthe,VBO,6.753302,53.002071
Asserstraat,61,b,,9461GB,Gieten,Aa en Hunze,Drenthe,VBO,6.753024,53.001937
Asserstraat,61,,,9461GB,Gieten,Aa en Hunze,Drenthe,VBO,6.753327,53.002095
Asserstraat,63,,,9461GB,Gieten,Aa en Hunze,Drenthe,VBO,6.752752,53.001814
Asserstraat,65,,,9461GB,Gieten,Aa en Hunze,Drenthe,VBO,6.752518,53.001466
Asserstraat,2,,,9461GC,Gieten,Aa en Hunze,Drenthe,VBO,6.762769,53.004333
Asserstraat,4,,,9461GC,Gieten,Aa en Hunze,Drenthe,VBO,6.762347,53.004176
Asserstraat,6,,,9461GC,Gieten,Aa en Hunze,Drenthe,VBO,6.762226,53.004132
Asserstraat,8,a,,9461GC,Gieten,Aa en Hunze,Drenthe,VBO,6.761375,53.004070
Asserstraat,8,,,9461GC,Gieten,Aa en Hunze,Drenthe,VBO,6.761867,53.004100
Asserstraat,10,,,9461GC,Gieten,Aa en Hunze,Drenthe,VBO,6.760700,53.003916
Asserstraat,12,,,9461GC,Gieten,Aa en Hunze,Drenthe,VBO,6.758883,53.003937
Asserstraat,14,,,9461GC,Gieten,Aa en Hunze,Drenthe,VBO,6.758274,53.004007
Asserstraat,16,,,9461GC,Gieten,Aa en Hunze,Drenthe,VBO,6.757990,53.003983
Asserstraat,18,,,9461GC,Gieten,Aa en Hunze,Drenthe,VBO,6.757709,53.004058
Asserstraat,20,,,9461GC,Gieten,Aa en Hunze,Drenthe,VBO,6.757646,53.003951
Asserstraat,22,,,9461GC,Gieten,Aa en Hunze,Drenthe,VBO,6.757572,53.003943
Asserstraat,24,,,9461GC,Gieten,Aa en Hunze,Drenthe,VBO,6.757392,53.003927
Asserstraat,26,,,9461GC,Gieten,Aa en Hunze,Drenthe,VBO,6.757273,53.003919
Asserstraat,28,,,9461GD,Gieten,Aa en Hunze,Drenthe,VBO,6.757198,53.003911
Asserstraat,30,,,9461GD,Gieten,Aa en Hunze,Drenthe,VBO,6.757017,53.003842
Asserstraat,32,,,9461GD,Gieten,Aa en Hunze,Drenthe,VBO,6.756823,53.003826
Asserstraat,34,,,9461GD,Gieten,Aa en Hunze,Drenthe,VBO,6.756643,53.003783
Asserstraat,36,,,9461GD,Gieten,Aa en Hunze,Drenthe,VBO,6.756014,53.003682
Asserstraat,38,,,9461GD,Gieten,Aa en Hunze,Drenthe,VBO,6.755788,53.003613
Asserstraat,40,,,9461GD,Gieten,Aa en Hunze,Drenthe,VBO,6.755593,53.003561
Asserstraat,42,,,9461GD,Gieten,Aa en Hunze,Drenthe,VBO,6.755368,53.003519
Asserstraat,44,,,9461GD,Gieten,Aa en Hunze,Drenthe,VBO,6.755098,53.003468
Asserstraat,46,,,9461GD,Gieten,Aa en Hunze,Drenthe,VBO,6.754814,53.003417
Asserstraat,48,,,9461GD,Gieten,Aa en Hunze,Drenthe,VBO,6.754248,53.003433
Asserstraat,50,,,9461GD,Gieten,Aa en Hunze,Drenthe,VBO,6.753613,53.003144
Asserstraat,52,a,,9461GD,Gieten,Aa en Hunze,Drenthe,VBO,6.753410,53.002840
Asserstraat,52,,,9461GD,Gieten,Aa en Hunze,Drenthe,VBO,6.753486,53.002875
Scheperijweg,1,,,9461GE,Gieten,Aa en Hunze,Drenthe,VBO,6.759354,53.003302
Scheperijweg,2,,,9461GE,Gieten,Aa en Hunze,Drenthe,VBO,6.759367,53.003248
Scheperijweg,3,,,9461GE,Gieten,Aa en Hunze,Drenthe,VBO,6.759365,53.003185
Scheperijweg,4,,,9461GE,Gieten,Aa en Hunze,Drenthe,VBO,6.759433,53.002960
Scheperijweg,8,,,9461GE,Gieten,Aa en Hunze,Drenthe,VBO,6.759531,53.002752
Scheperijweg,10,,,9461GE,Gieten,Aa en Hunze,Drenthe,VBO,6.759541,53.002599
Scheperijweg,12,,,9461GE,Gieten,Aa en Hunze,Drenthe,VBO,6.759821,53.002039
Scheperijweg,13,,,9461GE,Gieten,Aa en Hunze,Drenthe,VBO,6.759848,53.001967
Scheperijweg,14,,,9461GE,Gieten,Aa en Hunze,Drenthe,VBO,6.759876,53.001894
Scheperijweg,15,,,9461GE,Gieten,Aa en Hunze,Drenthe,VBO,6.759932,53.001768
Scheperijweg,16,,,9461GE,Gieten,Aa en Hunze,Drenthe,VBO,6.759974,53.001687
Westerstraat,1,,,9461GG,Gieten,Aa en Hunze,Drenthe,VBO,6.761784,53.003355
Westerstraat,3,a,,9461GG,Gieten,Aa en Hunze,Drenthe,VBO,6.761810,53.003238
Westerstraat,3,,,9461GG,Gieten,Aa en Hunze,Drenthe,VBO,6.761857,53.003310
Westerstraat,5,,,9461GG,Gieten,Aa en Hunze,Drenthe,VBO,6.761853,53.003157
Westerstraat,7,,,9461GG,Gieten,Aa en Hunze,Drenthe,VBO,6.761866,53.003112
Westerstraat,9,,,9461GG,Gieten,Aa en Hunze,Drenthe,VBO,6.761879,53.003067
Westerstraat,11,,,9461GG,Gieten,Aa en Hunze,Drenthe,VBO,6.761893,53.003022
Westerstraat,13,,,9461GG,Gieten,Aa en Hunze,Drenthe,VBO,6.761890,53.002941
Westerstraat,15,,,9461GG,Gieten,Aa en Hunze,Drenthe,VBO,6.761904,53.002887
Westerstraat,17,,,9461GG,Gieten,Aa en Hunze,Drenthe,VBO,6.761917,53.002851
Westerstraat,19,,,9461GG,Gieten,Aa en Hunze,Drenthe,VBO,6.761946,53.002805
Westerstraat,21,,,9461GG,Gieten,Aa en Hunze,Drenthe,VBO,6.762260,53.002388
Westerstraat,23,,,9461GG,Gieten,Aa en Hunze,Drenthe,VBO,6.762214,53.002353
Westerstraat,25,,,9461GG,Gieten,Aa en Hunze,Drenthe,VBO,6.762256,53.002254
Westerstraat,27,,,9461GG,Gieten,Aa en Hunze,Drenthe,VBO,6.762284,53.002208
Westerstraat,29,,,9461GG,Gieten,Aa en Hunze,Drenthe,VBO,6.762313,53.002163
Westerstraat,31,,,9461GG,Gieten,Aa en Hunze,Drenthe,VBO,6.762341,53.002127
Westerstraat,33,,,9461GG,Gieten,Aa en Hunze,Drenthe,VBO,6.762370,53.002090
Westerstraat,2,,,9461GH,Gieten,Aa en Hunze,Drenthe,VBO,6.761029,53.003499
Westerstraat,4,,,9461GH,Gieten,Aa en Hunze,Drenthe,VBO,6.761246,53.003308
Westerstraat,6,,,9461GH,Gieten,Aa en Hunze,Drenthe,VBO,6.761274,53.003235
Westerstraat,8,,,9461GH,Gieten,Aa en Hunze,Drenthe,VBO,6.761300,53.003127
Westerstraat,10,,,9461GH,Gieten,Aa en Hunze,Drenthe,VBO,6.761313,53.003055
Westerstraat,12,,,9461GH,Gieten,Aa en Hunze,Drenthe,VBO,6.761369,53.002929
Westerstraat,14,,,9461GH,Gieten,Aa en Hunze,Drenthe,VBO,6.761469,53.002820
Westerstraat,16,,,9461GH,Gieten,Aa en Hunze,Drenthe,VBO,6.761483,53.002784
Westerstraat,18,,,9461GH,Gieten,Aa en Hunze,Drenthe,VBO,6.761497,53.002748
Westerstraat,20,,,9461GH,Gieten,Aa en Hunze,Drenthe,VBO,6.761510,53.002702
Westerstraat,22,,,9461GH,Gieten,Aa en Hunze,Drenthe,VBO,6.761663,53.002350
Westerstraat,24,,,9461GH,Gieten,Aa en Hunze,Drenthe,VBO,6.761692,53.002314
Westerstraat,26,,,9461GH,Gieten,Aa en Hunze,Drenthe,VBO,6.761720,53.002260
Westerstraat,28,,,9461GH,Gieten,Aa en Hunze,Drenthe,VBO,6.761749,53.002223
Westerstraat,30,,,9461GH,Gieten,Aa en Hunze,Drenthe,VBO,6.761848,53.002078
Westerstraat,32,,,9461GH,Gieten,Aa en Hunze,Drenthe,VBO,6.761847,53.002034
Westerstraat,34,,,9461GH,Gieten,Aa en Hunze,Drenthe,VBO,6.761860,53.001988
Westerstraat,36,,,9461GH,Gieten,Aa en Hunze,Drenthe,VBO,6.761784,53.001935
Zuid-es,1,,,9461GJ,Gieten,Aa en Hunze,Drenthe,VBO,6.763659,53.002318
Zuid-es,3,,,9461GJ,Gieten,Aa en Hunze,Drenthe,VBO,6.763464,53.002294
Zuid-es,5,,,9461GJ,Gieten,Aa en Hunze,Drenthe,VBO,6.763241,53.002314
Zuid-es,7,,,9461GJ,Gieten,Aa en Hunze,Drenthe,VBO,6.763033,53.002325
Zuid-es,9,,,9461GJ,Gieten,Aa en Hunze,Drenthe,VBO,6.762825,53.002328
Zuid-es,11,,,9461GJ,Gieten,Aa en Hunze,Drenthe,VBO,6.762617,53.002348
Zuid-es,13,,,9461GJ,Gieten,Aa en Hunze,Drenthe,VBO,6.760405,53.002122
Zuid-es,15,,,9461GJ,Gieten,Aa en Hunze,Drenthe,VBO,6.760285,53.002123
Zuid-es,17,,,9461GJ,Gieten,Aa en Hunze,Drenthe,VBO,6.760166,53.002107
Zuid-es,2,,,9461GK,Gieten,Aa en Hunze,Drenthe,VBO,6.763546,53.002544
Zuid-es,4,,,9461GK,Gieten,Aa en Hunze,Drenthe,VBO,6.763352,53.002529
Zuid-es,6,,,9461GK,Gieten,Aa en Hunze,Drenthe,VBO,6.763174,53.002540
Zuid-es,8,,,9461GK,Gieten,Aa en Hunze,Drenthe,VBO,6.762981,53.002551
Zuid-es,10,a,,9461GK,Gieten,Aa en Hunze,Drenthe,VBO,6.762742,53.002554
Zuid-es,10,,,9461GK,Gieten,Aa en Hunze,Drenthe,VBO,6.762802,53.002553
Zuid-es,12,,,9461GK,Gieten,Aa en Hunze,Drenthe,VBO,6.762594,53.002564
Zuid-es,14,,,9461GK,Gieten,Aa en Hunze,Drenthe,VBO,6.762415,53.002575
Zuid-es,16,,,9461GK,Gieten,Aa en Hunze,Drenthe,VBO,6.762326,53.002585
Zuid-es,18,,,9461GK,Gieten,Aa en Hunze,Drenthe,VBO,6.762193,53.002614
Zuid-es,20,,,9461GK,Gieten,Aa en Hunze,Drenthe,VBO,6.762119,53.002624
Zuid-es,22,,,9461GK,Gieten,Aa en Hunze,Drenthe,VBO,6.762044,53.002615
Zuid-es,24,,,9461GL,Gieten,Aa en Hunze,Drenthe,VBO,6.761180,53.002616
Zuid-es,26,,,9461GL,Gieten,Aa en Hunze,Drenthe,VBO,6.761090,53.002599
Zuid-es,28,,,9461GL,Gieten,Aa en Hunze,Drenthe,VBO,6.761015,53.002591
Zuid-es,30,,,9461GL,Gieten,Aa en Hunze,Drenthe,VBO,6.760925,53.002574
Zuid-es,32,,,9461GL,Gieten,Aa en Hunze,Drenthe,VBO,6.760731,53.002568
Zuid-es,34,,,9461GL,Gieten,Aa en Hunze,Drenthe,VBO,6.760627,53.002551
Zuid-es,36,,,9461GL,Gieten,Aa en Hunze,Drenthe,VBO,6.760537,53.002534
Zuid-es,38,,,9461GL,Gieten,Aa en Hunze,Drenthe,VBO,6.760447,53.002517
Zuid-es,40,,,9461GL,Gieten,Aa en Hunze,Drenthe,VBO,6.760281,53.002465
Zuid-es,42,,,9461GL,Gieten,Aa en Hunze,Drenthe,VBO,6.760191,53.002448
Zuid-es,44,,,9461GL,Gieten,Aa en Hunze,Drenthe,VBO,6.760116,53.002431
Zuid-es,46,,,9461GL,Gieten,Aa en Hunze,Drenthe,VBO,6.760026,53.002414
Zuid-es,48,,,9461GL,Gieten,Aa en Hunze,Drenthe,VBO,6.759833,53.002416
Zuid-es,50,,,9461GL,Gieten,Aa en Hunze,Drenthe,VBO,6.759728,53.002399
Zuid-es,52,,,9461GL,Gieten,Aa en Hunze,Drenthe,VBO,6.759653,53.002382
Korte-weg,1,,,9461GM,Gieten,Aa en Hunze,Drenthe,VBO,6.761124,53.002249
Korte-weg,2,,,9461GM,Gieten,Aa en Hunze,Drenthe,VBO,6.760689,53.002182
Korte-weg,3,,,9461GM,Gieten,Aa en Hunze,Drenthe,VBO,6.761122,53.002195
Korte-weg,4,,,9461GM,Gieten,Aa en Hunze,Drenthe,VBO,6.760718,53.002136
Korte-weg,5,,,9461GM,Gieten,Aa en Hunze,Drenthe,VBO,6.761150,53.002140
Korte-weg,6,,,9461GM,Gieten,Aa en Hunze,Drenthe,VBO,6.760761,53.002073
Korte-weg,7,,,9461GM,Gieten,Aa en Hunze,Drenthe,VBO,6.761219,53.001978
Korte-weg,8,,,9461GM,Gieten,Aa en Hunze,Drenthe,VBO,6.760860,53.001919
Korte-weg,9,,,9461GM,Gieten,Aa en Hunze,Drenthe,VBO,6.761262,53.001914
Korte-weg,10,,,9461GM,Gieten,Aa en Hunze,Drenthe,VBO,6.760873,53.001865
Korte-weg,11,,,9461GM,Gieten,Aa en Hunze,Drenthe,VBO,6.761276,53.001869
Korte-weg,12,,,9461GM,Gieten,Aa en Hunze,Drenthe,VBO,6.760901,53.001811
Heetkamp,1,,,9461GN,Gieten,Aa en Hunze,Drenthe,VBO,6.763565,53.001564
Heetkamp,3,,,9461GN,Gieten,Aa en Hunze,Drenthe,VBO,6.763412,53.001585
Heetkamp,5,,,9461GN,Gieten,Aa en Hunze,Drenthe,VBO,6.763205,53.001595
Heetkamp,6,,,9461GN,Gieten,Aa en Hunze,Drenthe,VBO,6.763527,53.001942
Heetkamp,7,,,9461GN,Gieten,Aa en Hunze,Drenthe,VBO,6.763079,53.001597
Heetkamp,8,,,9461GN,Gieten,Aa en Hunze,Drenthe,VBO,6.763453,53.001952
Heetkamp,9,,,9461GN,Gieten,Aa en Hunze,Drenthe,VBO,6.762915,53.001606
Heetkamp,10,,,9461GN,Gieten,Aa en Hunze,Drenthe,VBO,6.763245,53.001955
Heetkamp,11,,,9461GN,Gieten,Aa en Hunze,Drenthe,VBO,6.762778,53.001622
Heetkamp,12,,,9461GN,Gieten,Aa en Hunze,Drenthe,VBO,6.763171,53.001964
Heetkamp,13,,,9461GN,Gieten,Aa en Hunze,Drenthe,VBO,6.762578,53.001629
Heetkamp,14,,,9461GN,Gieten,Aa en Hunze,Drenthe,VBO,6.762962,53.001976
Heetkamp,15,,,9461GN,Gieten,Aa en Hunze,Drenthe,VBO,6.762428,53.001632
Heetkamp,16,,,9461GN,Gieten,Aa en Hunze,Drenthe,VBO,6.762888,53.001977
Heetkamp,18,,,9461GN,Gieten,Aa en Hunze,Drenthe,VBO,6.762695,53.001988
Heetkamp,19,,,9461GN,Gieten,Aa en Hunze,Drenthe,VBO,6.762026,53.001582
Heetkamp,20,,,9461GN,Gieten,Aa en Hunze,Drenthe,VBO,6.762620,53.001989
Heetkamp,21,,,9461GN,Gieten,Aa en Hunze,Drenthe,VBO,6.761891,53.001557
Heetkamp,22,,,9461GN,Gieten,Aa en Hunze,Drenthe,VBO,6.760557,53.001761
Heetkamp,23,,,9461GN,Gieten,Aa en Hunze,Drenthe,VBO,6.761756,53.001531
Heetkamp,24,,,9461GN,Gieten,Aa en Hunze,Drenthe,VBO,6.760437,53.001744
Heetkamp,25,,,9461GN,Gieten,Aa en Hunze,Drenthe,VBO,6.761622,53.001515
Heetkamp,26,,,9461GN,Gieten,Aa en Hunze,Drenthe,VBO,6.760332,53.001727
Heetkamp,27,,,9461GN,Gieten,Aa en Hunze,Drenthe,VBO,6.761487,53.001498
Heetkamp,29,,,9461GN,Gieten,Aa en Hunze,Drenthe,VBO,6.761338,53.001473
Heetkamp,31,,,9461GN,Gieten,Aa en Hunze,Drenthe,VBO,6.761218,53.001457
Heetkamp,33,,,9461GN,Gieten,Aa en Hunze,Drenthe,VBO,6.761083,53.001440
Heetkamp,35,,,9461GN,Gieten,Aa en Hunze,Drenthe,VBO,6.760933,53.001415
Heetkamp,37,,,9461GN,Gieten,Aa en Hunze,Drenthe,VBO,6.760799,53.001399
Heetkamp,39,,,9461GN,Gieten,Aa en Hunze,Drenthe,VBO,6.760664,53.001382
Heetkamp,41,,,9461GN,Gieten,Aa en Hunze,Drenthe,VBO,6.760544,53.001356
Hanebijtershoek,16,G,1,9461GP,Gieten,Aa en Hunze,Drenthe,VBO,6.765502,53.002704
Hanebijtershoek,16,G,10,9461GP,Gieten,Aa en Hunze,Drenthe,VBO,6.765892,53.002764
Hanebijtershoek,16,G,11,9461GP,Gieten,Aa en Hunze,Drenthe,VBO,6.765935,53.002770
Hanebijtershoek,16,G,12,9461GP,Gieten,Aa en Hunze,Drenthe,VBO,6.765979,53.002777
Hanebijtershoek,16,G,2,9461GP,Gieten,Aa en Hunze,Drenthe,VBO,6.765545,53.002711
Hanebijtershoek,16,G,3,9461GP,Gieten,Aa en Hunze,Drenthe,VBO,6.765589,53.002717
Hanebijtershoek,16,G,4,9461GP,Gieten,Aa en Hunze,Drenthe,VBO,6.765632,53.002724
Hanebijtershoek,16,G,5,9461GP,Gieten,Aa en Hunze,Drenthe,VBO,6.765675,53.002731
Hanebijtershoek,16,G,6,9461GP,Gieten,Aa en Hunze,Drenthe,VBO,6.765719,53.002737
Hanebijtershoek,16,G,7,9461GP,Gieten,Aa en Hunze,Drenthe,VBO,6.765762,53.002744
Hanebijtershoek,16,G,8,9461GP,Gieten,Aa en Hunze,Drenthe,VBO,6.765805,53.002750
Hanebijtershoek,16,G,9,9461GP,Gieten,Aa en Hunze,Drenthe,VBO,6.765848,53.002757
Stationsstraat,3,,,9461GP,Gieten,Aa en Hunze,Drenthe,VBO,6.764014,53.004121
Stationsstraat,5,,,9461GP,Gieten,Aa en Hunze,Drenthe,VBO,6.764055,53.004003
Stationsstraat,7,,,9461GP,Gieten,Aa en Hunze,Drenthe,VBO,6.764080,53.003868
Stationsstraat,9,,,9461GP,Gieten,Aa en Hunze,Drenthe,VBO,6.764107,53.003769
Stationsstraat,11,a,,9461GP,Gieten,Aa en Hunze,Drenthe,VBO,6.764141,53.003436
Stationsstraat,11,b,,9461GP,Gieten,Aa en Hunze,Drenthe,VBO,6.764183,53.003355
Stationsstraat,11,,,9461GP,Gieten,Aa en Hunze,Drenthe,VBO,6.764044,53.003680
Stationsstraat,13,a,,9461GP,Gieten,Aa en Hunze,Drenthe,VBO,6.764165,53.003247
Stationsstraat,13,b,,9461GP,Gieten,Aa en Hunze,Drenthe,VBO,6.764179,53.003220
Stationsstraat,13,c,,9461GP,Gieten,Aa en Hunze,Drenthe,VBO,6.764341,53.003164
Stationsstraat,13,d,,9461GP,Gieten,Aa en Hunze,Drenthe,VBO,6.764281,53.003156
Stationsstraat,13,,,9461GP,Gieten,Aa en Hunze,Drenthe,VBO,6.764151,53.003274
Stationsstraat,15,a,,9461GP,Gieten,Aa en Hunze,Drenthe,VBO,6.764326,53.003062
Stationsstraat,15,b,,9461GP,Gieten,Aa en Hunze,Drenthe,VBO,6.764423,53.003068
Stationsstraat,15,,,9461GP,Gieten,Aa en Hunze,Drenthe,VBO,6.764227,53.003054
Stationsstraat,19,,,9461GP,Gieten,Aa en Hunze,Drenthe,VBO,6.764242,53.002878
Stationsstraat,21,,,9461GP,Gieten,Aa en Hunze,Drenthe,VBO,6.764374,53.002795
Stationsstraat,23,,,9461GP,Gieten,Aa en Hunze,Drenthe,VBO,6.764417,53.002759
Stationsstraat,25,,,9461GP,Gieten,Aa en Hunze,Drenthe,VBO,6.764398,53.002615
Stationsstraat,27,,,9461GP,Gieten,Aa en Hunze,Drenthe,VBO,6.764514,53.002506
Stationsstraat,29,a,,9461GP,Gieten,Aa en Hunze,Drenthe,VBO,6.764659,53.002397
Stationsstraat,29,b,,9461GP,Gieten,Aa en Hunze,Drenthe,VBO,6.764658,53.002370
Stationsstraat,29,c,,9461GP,Gieten,Aa en Hunze,Drenthe,VBO,6.764657,53.002343
Stationsstraat,29,d,,9461GP,Gieten,Aa en Hunze,Drenthe,VBO,6.764657,53.002316
Stationsstraat,29,e,,9461GP,Gieten,Aa en Hunze,Drenthe,VBO,6.764836,53.002332
Stationsstraat,29,f,,9461GP,Gieten,Aa en Hunze,Drenthe,VBO,6.764835,53.002305
Stationsstraat,31,,,9461GR,Gieten,Aa en Hunze,Drenthe,VBO,6.764566,53.002281
Stationsstraat,33,,,9461GR,Gieten,Aa en Hunze,Drenthe,VBO,6.764637,53.002172
Stationsstraat,35,,,9461GR,Gieten,Aa en Hunze,Drenthe,VBO,6.764695,53.002109
Stationsstraat,37,,,9461GR,Gieten,Aa en Hunze,Drenthe,VBO,6.764722,53.002018
Stationsstraat,39,a,,9461GR,Gieten,Aa en Hunze,Drenthe,VBO,6.764830,53.001948
Stationsstraat,39,,,9461GR,Gieten,Aa en Hunze,Drenthe,VBO,6.764764,53.001955
Stationsstraat,43,,,9461GR,Gieten,Aa en Hunze,Drenthe,VBO,6.765215,53.001599
Stationsstraat,45,,,9461GR,Gieten,Aa en Hunze,Drenthe,VBO,6.765286,53.001204
Stationsstraat,51,,,9461GR,Gieten,Aa en Hunze,Drenthe,VBO,6.765419,53.001020
Stationsstraat,55,,,9461GR,Gieten,Aa en Hunze,Drenthe,VBO,6.765525,53.000886
Stationsstraat,57,,,9461GR,Gieten,Aa en Hunze,Drenthe,VBO,6.765211,53.001364
Stationsstraat,59,,,9461GR,Gieten,Aa en Hunze,Drenthe,VBO,6.765265,53.001312
Stationsstraat,61,,,9461GR,Gieten,Aa en Hunze,Drenthe,VBO,6.765323,53.001239
Stationsstraat,63,,,9461GR,Gieten,Aa en Hunze,Drenthe,VBO,6.765370,53.001171
Stationsstraat,65,,,9461GR,Gieten,Aa en Hunze,Drenthe,VBO,6.765424,53.001090
Stationsstraat,67,,,9461GR,Gieten,Aa en Hunze,Drenthe,VBO,6.765471,53.001033
Stationsstraat,69,,,9461GR,Gieten,Aa en Hunze,Drenthe,VBO,6.765519,53.000979
Stationsstraat,71,,,9461GR,Gieten,Aa en Hunze,Drenthe,VBO,6.765575,53.000922
Stationsstraat,73,,,9461GR,Gieten,Aa en Hunze,Drenthe,VBO,6.765610,53.000879
Stationsstraat,75,,,9461GR,Gieten,Aa en Hunze,Drenthe,VBO,6.765640,53.000833
Stationsstraat,77,,,9461GR,Gieten,Aa en Hunze,Drenthe,VBO,6.765268,53.001391
Stationsstraat,79,,,9461GR,Gieten,Aa en Hunze,Drenthe,VBO,6.765328,53.001314
Stationsstraat,81,,,9461GR,Gieten,Aa en Hunze,Drenthe,VBO,6.765382,53.001240
Stationsstraat,83,,,9461GR,Gieten,Aa en Hunze,Drenthe,VBO,6.765429,53.001170
Stationsstraat,85,,,9461GR,Gieten,Aa en Hunze,Drenthe,VBO,6.765479,53.001094
Stationsstraat,87,,,9461GR,Gieten,Aa en Hunze,Drenthe,VBO,6.765529,53.001030
Stationsstraat,89,,,9461GR,Gieten,Aa en Hunze,Drenthe,VBO,6.765571,53.000980
Stationsstraat,91,,,9461GR,Gieten,Aa en Hunze,Drenthe,VBO,6.765624,53.000923
Stationsstraat,93,,,9461GR,Gieten,Aa en Hunze,Drenthe,VBO,6.765656,53.000877
Stationsstraat,95,,,9461GR,Gieten,Aa en Hunze,Drenthe,VBO,6.765685,53.000842
Stationsstraat,97,,,9461GR,Gieten,Aa en Hunze,Drenthe,VBO,6.765358,53.001367
Stationsstraat,99,,,9461GR,Gieten,Aa en Hunze,Drenthe,VBO,6.765415,53.001300
Stationsstraat,101,,,9461GR,Gieten,Aa en Hunze,Drenthe,VBO,6.765471,53.001225
Stationsstraat,103,,,9461GR,Gieten,Aa en Hunze,Drenthe,VBO,6.765527,53.001155
Stationsstraat,105,,,9461GR,Gieten,Aa en Hunze,Drenthe,VBO,6.765571,53.001080
Stationsstraat,107,,,9461GR,Gieten,Aa en Hunze,Drenthe,VBO,6.765626,53.001015
Stationsstraat,109,,,9461GR,Gieten,Aa en Hunze,Drenthe,VBO,6.765690,53.000950
Stationsstraat,111,,,9461GR,Gieten,Aa en Hunze,Drenthe,VBO,6.765744,53.000873
Stationsstraat,113,,,9461GR,Gieten,Aa en Hunze,Drenthe,VBO,6.765689,53.000603
Stationsstraat,115,,,9461GR,Gieten,Aa en Hunze,Drenthe,VBO,6.766051,53.000444
Stationsstraat,117,,,9461GR,Gieten,Aa en Hunze,Drenthe,VBO,6.766615,53.000102
Stationsstraat,119,,,9461GR,Gieten,Aa en Hunze,Drenthe,VBO,6.766648,53.000003
Hanebijtershoek,1,,,9461GS,Gieten,Aa en Hunze,Drenthe,VBO,6.764961,53.002995
Hanebijtershoek,3,,,9461GS,Gieten,Aa en Hunze,Drenthe,VBO,6.765051,53.003012
Hanebijtershoek,5,,,9461GS,Gieten,Aa en Hunze,Drenthe,VBO,6.765141,53.003020
Hanebijtershoek,7,,,9461GS,Gieten,Aa en Hunze,Drenthe,VBO,6.765230,53.003019
Hanebijtershoek,9,,,9461GS,Gieten,Aa en Hunze,Drenthe,VBO,6.765439,53.003017
Hanebijtershoek,11,,,9461GS,Gieten,Aa en Hunze,Drenthe,VBO,6.765513,53.003016
Hanebijtershoek,13,,,9461GS,Gieten,Aa en Hunze,Drenthe,VBO,6.765587,53.003006
Hanebijtershoek,15,,,9461GS,Gieten,Aa en Hunze,Drenthe,VBO,6.765691,53.002978
Hanebijtershoek,17,,,9461GS,Gieten,Aa en Hunze,Drenthe,VBO,6.765960,53.003002
Hanebijtershoek,19,,,9461GS,Gieten,Aa en Hunze,Drenthe,VBO,6.766050,53.003019
Hanebijtershoek,21,,,9461GS,Gieten,Aa en Hunze,Drenthe,VBO,6.766139,53.003036
Hanebijtershoek,23,,,9461GS,Gieten,Aa en Hunze,Drenthe,VBO,6.766229,53.003053
Stationsstraat,2,,,9461GS,Gieten,Aa en Hunze,Drenthe,VBO,6.763449,53.004163
Stationsstraat,4,,,9461GS,Gieten,Aa en Hunze,Drenthe,VBO,6.763471,53.003938
Stationsstraat,6,,,9461GS,Gieten,Aa en Hunze,Drenthe,VBO,6.763528,53.003839
Stationsstraat,8,,,9461GS,Gieten,Aa en Hunze,Drenthe,VBO,6.763569,53.003730
Stationsstraat,10,,,9461GS,Gieten,Aa en Hunze,Drenthe,VBO,6.763538,53.003686
Stationsstraat,12,,,9461GS,Gieten,Aa en Hunze,Drenthe,VBO,6.763610,53.003595
Stationsstraat,14,,,9461GS,Gieten,Aa en Hunze,Drenthe,VBO,6.763612,53.003200
Stationsstraat,18,,,9461GS,Gieten,Aa en Hunze,Drenthe,VBO,6.763821,53.002730
Stationsstraat,20,,,9461GS,Gieten,Aa en Hunze,Drenthe,VBO,6.763891,53.002594
Stationsstraat,22,a,,9461GT,Gieten,Aa en Hunze,Drenthe,VBO,6.764053,53.002386
Stationsstraat,22,,,9461GT,Gieten,Aa en Hunze,Drenthe,VBO,6.763973,53.002369
Stationsstraat,24,a,,9461GT,Gieten,Aa en Hunze,Drenthe,VBO,6.764092,53.002321
Stationsstraat,24,,,9461GT,Gieten,Aa en Hunze,Drenthe,VBO,6.764029,53.002269
Kleine Kamp,3,,,9461GV,Gieten,Aa en Hunze,Drenthe,VBO,6.768685,52.999672
Kleine Kamp,4,,,9461GV,Gieten,Aa en Hunze,Drenthe,VBO,6.769165,52.999792
Kleine Kamp,5,,,9461GV,Gieten,Aa en Hunze,Drenthe,VBO,6.769114,52.999595
Kleine Kamp,6,,,9461GV,Gieten,Aa en Hunze,Drenthe,VBO,6.769352,52.999592
Kleine Kamp,7,,,9461GV,Gieten,Aa en Hunze,Drenthe,VBO,6.769183,52.999424
Kleine Kamp,8,,,9461GV,Gieten,Aa en Hunze,Drenthe,VBO,6.769463,52.999312
Parallelweg,1,a,,9461GW,Gieten,Aa en Hunze,Drenthe,VBO,6.766386,52.999528
Parallelweg,1,,,9461GW,Gieten,Aa en Hunze,Drenthe,VBO,6.766119,52.999567
Parallelweg,2,,,9461GW,Gieten,Aa en Hunze,Drenthe,VBO,6.766044,52.999568
Parallelweg,3,,,9461GW,Gieten,Aa en Hunze,Drenthe,VBO,6.765866,52.999588
Parallelweg,4,,,9461GW,Gieten,Aa en Hunze,Drenthe,VBO,6.765792,52.999597
Parallelweg,5,,,9461GW,Gieten,Aa en Hunze,Drenthe,VBO,6.765570,52.999627
Parallelweg,6,a,,9461GW,Gieten,Aa en Hunze,Drenthe,VBO,6.765287,52.999630
Parallelweg,6,,,9461GW,Gieten,Aa en Hunze,Drenthe,VBO,6.765510,52.999628
Parallelweg,7,,,9461GW,Gieten,Aa en Hunze,Drenthe,VBO,6.765049,52.999642
Parallelweg,8,,,9461GW,Gieten,Aa en Hunze,Drenthe,VBO,6.764855,52.999653
Parallelweg,9,,,9461GW,Gieten,Aa en Hunze,Drenthe,VBO,6.764647,52.999656
Parallelweg,10,,,9461GW,Gieten,Aa en Hunze,Drenthe,VBO,6.764394,52.999659
Bloemakkers,1,,,9461GX,Gieten,Aa en Hunze,Drenthe,VBO,6.764929,52.999140
Bloemakkers,2,,,9461GX,Gieten,Aa en Hunze,Drenthe,VBO,6.763879,52.999395
Bloemakkers,3,,,9461GX,Gieten,Aa en Hunze,Drenthe,VBO,6.765220,52.998921
Bloemakkers,4,,,9461GX,Gieten,Aa en Hunze,Drenthe,VBO,6.764012,52.998414
Bloemakkers,5,,,9461GX,Gieten,Aa en Hunze,Drenthe,VBO,6.765480,52.998666
Bloemakkers,6,,,9461GX,Gieten,Aa en Hunze,Drenthe,VBO,6.766492,52.996758
Bloemakkers,7,,,9461GX,Gieten,Aa en Hunze,Drenthe,VBO,6.765889,52.998692
Bloemakkers,8,,,9461GX,Gieten,Aa en Hunze,Drenthe,VBO,6.766276,52.996527
Bloemakkers,9,a,,9461GX,Gieten,Aa en Hunze,Drenthe,VBO,6.766409,52.997910
Bloemakkers,9,b,,9461GX,Gieten,Aa en Hunze,Drenthe,VBO,6.766434,52.998282
Bloemakkers,9,,,9461GX,Gieten,Aa en Hunze,Drenthe,VBO,6.766121,52.998210
Bloemakkers,10,,,9461GX,Gieten,Aa en Hunze,Drenthe,VBO,6.766020,52.996449
Bloemakkers,11,,,9461GX,Gieten,Aa en Hunze,Drenthe,VBO,6.767336,52.997090
Bloemakkers,12,,,9461GX,Gieten,Aa en Hunze,Drenthe,VBO,6.765463,52.996249
Bloemakkers,13,,,9461GX,Gieten,Aa en Hunze,Drenthe,VBO,6.767678,52.996592
Bloemakkers,14,,,9461GX,Gieten,Aa en Hunze,Drenthe,VBO,6.765177,52.996162
Bloemakkers,15,a,,9461GX,Gieten,Aa en Hunze,Drenthe,VBO,6.767404,52.996406
Bloemakkers,15,,,9461GX,Gieten,Aa en Hunze,Drenthe,VBO,6.767061,52.996392
Bloemakkers,16,,,9461GX,Gieten,Aa en Hunze,Drenthe,VBO,6.764635,52.995998
Bloemakkers,17,,,9461GX,Gieten,Aa en Hunze,Drenthe,VBO,6.766714,52.996253
Bloemakkers,19,a,,9461GX,Gieten,Aa en Hunze,Drenthe,VBO,6.765931,52.996001
Bloemakkers,19,b,,9461GX,Gieten,Aa en Hunze,Drenthe,VBO,6.766259,52.995861
Bloemakkers,19,,,9461GX,Gieten,Aa en Hunze,Drenthe,VBO,6.766429,52.996184
Bloemakkers,21,,,9461GX,Gieten,Aa en Hunze,Drenthe,VBO,6.765254,52.995775
Bloemakkers,23,,,9461GX,Gieten,Aa en Hunze,Drenthe,VBO,6.764963,52.995392
Bloemakkers,25,,,9461GX,Gieten,Aa en Hunze,Drenthe,VBO,6.764004,52.995816
Bloemakkers,27,,,9461GX,Gieten,Aa en Hunze,Drenthe,VBO,6.763531,52.995805
Bloemakkers,32,,,9461GX,Gieten,Aa en Hunze,Drenthe,VBO,6.761386,52.998698
Bloemakkers,34,,,9461GX,Gieten,Aa en Hunze,Drenthe,VBO,6.761666,52.998198
Bloemakkers,35,,,9461GX,Gieten,Aa en Hunze,Drenthe,VBO,6.763260,52.996319
Bloemakkers,37,,,9461GX,Gieten,Aa en Hunze,Drenthe,VBO,6.762799,52.996417
Bloemakkers,39,,,9461GX,Gieten,Aa en Hunze,Drenthe,VBO,6.762660,52.996659
Bloemakkers,41,,,9461GX,Gieten,Aa en Hunze,Drenthe,VBO,6.762228,52.996753
Bloemakkers,45,,,9461GX,Gieten,Aa en Hunze,Drenthe,VBO,6.762331,52.997085
Bloemakkers,53,,,9461GX,Gieten,Aa en Hunze,Drenthe,VBO,6.760233,52.997690
Bloemakkers,55,,,9461GX,Gieten,Aa en Hunze,Drenthe,VBO,6.760491,52.998265
Bloemakkers,57,,,9461GX,Gieten,Aa en Hunze,Drenthe,VBO,6.760372,52.998625
Panderpad,1,a,,9461GZ,Gieten,Aa en Hunze,Drenthe,VBO,6.768380,52.996656
Panderpad,1,,,9461GZ,Gieten,Aa en Hunze,Drenthe,VBO,6.767950,52.997191
Panderpad,2,a,,9461GZ,Gieten,Aa en Hunze,Drenthe,VBO,6.766720,52.997600
Panderpad,2,,,9461GZ,Gieten,Aa en Hunze,Drenthe,VBO,6.767161,52.997514
Gasselterweg,1,a,,9461HA,Gieten,Aa en Hunze,Drenthe,VBO,6.767409,52.999381
Gasselterweg,1,b,,9461HA,Gieten,Aa en Hunze,Drenthe,VBO,6.767598,52.999235
Gasselterweg,1,,,9461HA,Gieten,Aa en Hunze,Drenthe,VBO,6.767264,52.999491
Gasselterweg,3,,,9461HA,Gieten,Aa en Hunze,Drenthe,VBO,6.767699,52.999117
Gasselterweg,5,,,9461HA,Gieten,Aa en Hunze,Drenthe,VBO,6.767933,52.998989
Gasselterweg,7,,,9461HA,Gieten,Aa en Hunze,Drenthe,VBO,6.768031,52.998790
Gasselterweg,9,a,,9461HA,Gieten,Aa en Hunze,Drenthe,VBO,6.768601,52.998442
Gasselterweg,9,,,9461HA,Gieten,Aa en Hunze,Drenthe,VBO,6.768249,52.998625
Gasselterweg,11,,,9461HA,Gieten,Aa en Hunze,Drenthe,VBO,6.768827,52.998062
Gasselterweg,13,,,9461HA,Gieten,Aa en Hunze,Drenthe,VBO,6.769028,52.997808
Gasselterweg,15,,,9461HA,Gieten,Aa en Hunze,Drenthe,VBO,6.769201,52.997644
Gasselterweg,17,a,,9461HA,Gieten,Aa en Hunze,Drenthe,VBO,6.769648,52.997189
Gasselterweg,17,,,9461HA,Gieten,Aa en Hunze,Drenthe,VBO,6.769432,52.997399
Gasselterweg,19,,,9461HA,Gieten,Aa en Hunze,Drenthe,VBO,6.769896,52.996998
Gasselterweg,2,,,9461HB,Gieten,Aa en Hunze,Drenthe,VBO,6.766575,52.999373
Gasselterweg,4,,,9461HB,Gieten,Aa en Hunze,Drenthe,VBO,6.766925,52.999153
Gasselterweg,6,,,9461HB,Gieten,Aa en Hunze,Drenthe,VBO,6.767072,52.999079
Gasselterweg,8,,,9461HB,Gieten,Aa en Hunze,Drenthe,VBO,6.767142,52.998944
Gasselterweg,10,,,9461HB,Gieten,Aa en Hunze,Drenthe,VBO,6.767333,52.998852
Gasselterweg,12,,,9461HB,Gieten,Aa en Hunze,Drenthe,VBO,6.767491,52.998688
Gasselterweg,16,,,9461HB,Gieten,Aa en Hunze,Drenthe,VBO,6.767649,52.998498
Gasselterweg,18,,,9461HB,Gieten,Aa en Hunze,Drenthe,VBO,6.767750,52.998389
Gasselterweg,20,,,9461HB,Gieten,Aa en Hunze,Drenthe,VBO,6.767794,52.998361
Gasselterweg,22,,,9461HB,Gieten,Aa en Hunze,Drenthe,VBO,6.767909,52.998234
Gasselterweg,24,,,9461HB,Gieten,Aa en Hunze,Drenthe,VBO,6.768183,52.997952
Gasselterweg,26,,,9461HC,Gieten,Aa en Hunze,Drenthe,VBO,6.768558,52.997561
Gasselterweg,28,,,9461HC,Gieten,Aa en Hunze,Drenthe,VBO,6.768674,52.997452
Gasselterweg,32,,,9461HC,Gieten,Aa en Hunze,Drenthe,VBO,6.768833,52.997316
Gasselterweg,34,,,9461HC,Gieten,Aa en Hunze,Drenthe,VBO,6.768962,52.997152
Gasselterweg,36,,,9461HC,Gieten,Aa en Hunze,Drenthe,VBO,6.769092,52.997025
Gasselterweg,38,,,9461HC,Gieten,Aa en Hunze,Drenthe,VBO,6.769193,52.996916
Gasselterweg,40,,,9461HC,Gieten,Aa en Hunze,Drenthe,VBO,6.769264,52.996825
Dwarsakkers,2,,,9461HD,Gieten,Aa en Hunze,Drenthe,VBO,6.753110,53.005603
Dwarsakkers,4,,,9461HD,Gieten,Aa en Hunze,Drenthe,VBO,6.752877,53.005300
Hoevenkamp,1,,,9461HE,Gieten,Aa en Hunze,Drenthe,VBO,6.764481,52.995499
Hoevenkamp,2,,,9461HE,Gieten,Aa en Hunze,Drenthe,VBO,6.763023,52.995414
Hoevenkamp,3,,,9461HE,Gieten,Aa en Hunze,Drenthe,VBO,6.764019,52.995349
Hoevenkamp,4,,,9461HE,Gieten,Aa en Hunze,Drenthe,VBO,6.762237,52.995258
Hoevenkamp,5,,,9461HE,Gieten,Aa en Hunze,Drenthe,VBO,6.763326,52.995105
Hoevenkamp,6,,,9461HE,Gieten,Aa en Hunze,Drenthe,VBO,6.762086,52.995056
Hoevenkamp,7,,,9461HE,Gieten,Aa en Hunze,Drenthe,VBO,6.762588,52.994844
Hoevenkamp,8,,,9461HE,Gieten,Aa en Hunze,Drenthe,VBO,6.761632,52.994845
Hoevenkamp,9,,,9461HE,Gieten,Aa en Hunze,Drenthe,VBO,6.762252,52.994722
Hoevenkamp,10,,,9461HE,Gieten,Aa en Hunze,Drenthe,VBO,6.761319,52.994769
Hoevenkamp,13,,,9461HE,Gieten,Aa en Hunze,Drenthe,VBO,6.761781,52.994459
Korenbloem,1,,,9461HG,Gieten,Aa en Hunze,Drenthe,VBO,6.769477,52.996014
Korenbloem,3,,,9461HG,Gieten,Aa en Hunze,Drenthe,VBO,6.769392,52.996159
Korenbloem,5,,,9461HG,Gieten,Aa en Hunze,Drenthe,VBO,6.769248,52.996304
Roggelelie,1,,,9461HH,Gieten,Aa en Hunze,Drenthe,VBO,6.768797,52.995716
Roggelelie,2,,,9461HH,Gieten,Aa en Hunze,Drenthe,VBO,6.769131,52.995901
Roggelelie,3,,,9461HH,Gieten,Aa en Hunze,Drenthe,VBO,6.768637,52.995835
Roggelelie,4,,,9461HH,Gieten,Aa en Hunze,Drenthe,VBO,6.769047,52.996064
Roggelelie,5,,,9461HH,Gieten,Aa en Hunze,Drenthe,VBO,6.768567,52.995962
Roggelelie,6,,,9461HH,Gieten,Aa en Hunze,Drenthe,VBO,6.768902,52.996209
Roggelelie,7,,,9461HH,Gieten,Aa en Hunze,Drenthe,VBO,6.768451,52.996080
Kamille,1,,,9461HJ,Gieten,Aa en Hunze,Drenthe,VBO,6.767866,52.995457
Kamille,2,,,9461HJ,Gieten,Aa en Hunze,Drenthe,VBO,6.768332,52.995605
Kamille,3,,,9461HJ,Gieten,Aa en Hunze,Drenthe,VBO,6.767678,52.995639
Kamille,4,,,9461HJ,Gieten,Aa en Hunze,Drenthe,VBO,6.768232,52.995732
Kamille,5,,,9461HJ,Gieten,Aa en Hunze,Drenthe,VBO,6.767534,52.995803
Kamille,6,,,9461HJ,Gieten,Aa en Hunze,Drenthe,VBO,6.768147,52.995868
Kamille,8,,,9461HJ,Gieten,Aa en Hunze,Drenthe,VBO,6.768046,52.995977
Klaproos,2,,,9461HK,Gieten,Aa en Hunze,Drenthe,VBO,6.767385,52.995328
Klaproos,4,,,9461HK,Gieten,Aa en Hunze,Drenthe,VBO,6.767356,52.995373
Klaproos,6,,,9461HK,Gieten,Aa en Hunze,Drenthe,VBO,6.767270,52.995473
Klaproos,8,,,9461HK,Gieten,Aa en Hunze,Drenthe,VBO,6.767227,52.995528
Klaproos,10,,,9461HK,Gieten,Aa en Hunze,Drenthe,VBO,6.767126,52.995637
Klaproos,12,,,9461HK,Gieten,Aa en Hunze,Drenthe,VBO,6.767083,52.995682
Duurschenlaan,1,,,9461HL,Gieten,Aa en Hunze,Drenthe,VBO,6.769371,52.995503
Duurschenlaan,3,,,9461HL,Gieten,Aa en Hunze,Drenthe,VBO,6.769266,52.995477
Duurschenlaan,5,,,9461HL,Gieten,Aa en Hunze,Drenthe,VBO,6.769101,52.995416
Duurschenlaan,7,,,9461HL,Gieten,Aa en Hunze,Drenthe,VBO,6.769010,52.995381
Duurschenlaan,9,,,9461HL,Gieten,Aa en Hunze,Drenthe,VBO,6.768830,52.995329
Duurschenlaan,11,,,9461HL,Gieten,Aa en Hunze,Drenthe,VBO,6.768740,52.995303
Duurschenlaan,13,,,9461HL,Gieten,Aa en Hunze,Drenthe,VBO,6.768589,52.995242
Duurschenlaan,15,,,9461HL,Gieten,Aa en Hunze,Drenthe,VBO,6.768484,52.995217
Duurschenlaan,17,,,9461HL,Gieten,Aa en Hunze,Drenthe,VBO,6.768229,52.995166
Duurschenlaan,19,,,9461HL,Gieten,Aa en Hunze,Drenthe,VBO,6.768123,52.995122
Duurschenlaan,21,,,9461HL,Gieten,Aa en Hunze,Drenthe,VBO,6.767973,52.995088
Duurschenlaan,23,,,9461HL,Gieten,Aa en Hunze,Drenthe,VBO,6.767808,52.995063
Duurschenlaan,25,,,9461HL,Gieten,Aa en Hunze,Drenthe,VBO,6.767613,52.995011
Duurschenlaan,27,,,9461HL,Gieten,Aa en Hunze,Drenthe,VBO,6.767162,52.994881
Duurschenlaan,29,,,9461HL,Gieten,Aa en Hunze,Drenthe,VBO,6.766996,52.994820
Duurschenlaan,31,,,9461HL,Gieten,Aa en Hunze,Drenthe,VBO,6.766876,52.994786
Duurschenlaan,33,,,9461HL,Gieten,Aa en Hunze,Drenthe,VBO,6.766696,52.994752
Duurschenlaan,35,,,9461HL,Gieten,Aa en Hunze,Drenthe,VBO,6.766591,52.994717
Duurschenlaan,37,,,9461HL,Gieten,Aa en Hunze,Drenthe,VBO,6.766439,52.994638
Hees,1,,,9461HM,Gieten,Aa en Hunze,Drenthe,VBO,6.769845,52.994931
Hees,2,,,9461HM,Gieten,Aa en Hunze,Drenthe,VBO,6.769586,52.995231
Hees,3,,,9461HM,Gieten,Aa en Hunze,Drenthe,VBO,6.769740,52.994914
Hees,4,,,9461HM,Gieten,Aa en Hunze,Drenthe,VBO,6.769496,52.995196
Hees,5,,,9461HM,Gieten,Aa en Hunze,Drenthe,VBO,6.769589,52.994862
Hees,6,,,9461HM,Gieten,Aa en Hunze,Drenthe,VBO,6.769330,52.995144
Hees,7,,,9461HM,Gieten,Aa en Hunze,Drenthe,VBO,6.769485,52.994846
Hees,8,,,9461HM,Gieten,Aa en Hunze,Drenthe,VBO,6.769225,52.995109
Hees,9,,,9461HM,Gieten,Aa en Hunze,Drenthe,VBO,6.769333,52.994766
Hees,10,,,9461HM,Gieten,Aa en Hunze,Drenthe,VBO,6.769030,52.995075
Hees,11,,,9461HM,Gieten,Aa en Hunze,Drenthe,VBO,6.769228,52.994741
Hees,12,,,9461HM,Gieten,Aa en Hunze,Drenthe,VBO,6.768940,52.995050
Hees,13,,,9461HM,Gieten,Aa en Hunze,Drenthe,VBO,6.769049,52.994725
Hees,14,,,9461HM,Gieten,Aa en Hunze,Drenthe,VBO,6.768731,52.995034
Hees,15,,,9461HM,Gieten,Aa en Hunze,Drenthe,VBO,6.768959,52.994699
Hees,16,,,9461HM,Gieten,Aa en Hunze,Drenthe,VBO,6.768641,52.995008
Hees,17,,,9461HM,Gieten,Aa en Hunze,Drenthe,VBO,6.768794,52.994674
Hees,18,,,9461HM,Gieten,Aa en Hunze,Drenthe,VBO,6.768401,52.994948
Hees,19,,,9461HM,Gieten,Aa en Hunze,Drenthe,VBO,6.768704,52.994648
Hees,20,,,9461HM,Gieten,Aa en Hunze,Drenthe,VBO,6.768295,52.994913
Hees,21,,,9461HM,Gieten,Aa en Hunze,Drenthe,VBO,6.768553,52.994578
Hees,22,,,9461HM,Gieten,Aa en Hunze,Drenthe,VBO,6.768173,52.994807
Hees,23,,,9461HM,Gieten,Aa en Hunze,Drenthe,VBO,6.768448,52.994552
Hees,24,,,9461HM,Gieten,Aa en Hunze,Drenthe,VBO,6.768068,52.994781
Hees,25,,,9461HM,Gieten,Aa en Hunze,Drenthe,VBO,6.768297,52.994518
Hees,26,,,9461HM,Gieten,Aa en Hunze,Drenthe,VBO,6.767273,52.994628
Hees,27,,,9461HM,Gieten,Aa en Hunze,Drenthe,VBO,6.768222,52.994501
Hees,28,,,9461HM,Gieten,Aa en Hunze,Drenthe,VBO,6.766987,52.994542
Hees,29,,,9461HM,Gieten,Aa en Hunze,Drenthe,VBO,6.767067,52.994226
Hees,30,,,9461HM,Gieten,Aa en Hunze,Drenthe,VBO,6.766732,52.994464
Hees,31,,,9461HM,Gieten,Aa en Hunze,Drenthe,VBO,6.766811,52.994157
Hoefblad,1,,,9461HN,Gieten,Aa en Hunze,Drenthe,VBO,6.767669,52.994911
Hoefblad,2,,,9461HN,Gieten,Aa en Hunze,Drenthe,VBO,6.767516,52.994284
Hoefblad,3,,,9461HN,Gieten,Aa en Hunze,Drenthe,VBO,6.767726,52.994803
Hoefblad,5,,,9461HN,Gieten,Aa en Hunze,Drenthe,VBO,6.767768,52.994722
Hoefblad,7,,,9461HN,Gieten,Aa en Hunze,Drenthe,VBO,6.767824,52.994631
Hoefblad,9,,,9461HN,Gieten,Aa en Hunze,Drenthe,VBO,6.767953,52.994459
Hoefblad,11,,,9461HN,Gieten,Aa en Hunze,Drenthe,VBO,6.768040,52.994386
Hoefblad,13,,,9461HN,Gieten,Aa en Hunze,Drenthe,VBO,6.768022,52.994287
Hoefblad,15,,,9461HN,Gieten,Aa en Hunze,Drenthe,VBO,6.768050,52.994233
Hoefblad,17,,,9461HN,Gieten,Aa en Hunze,Drenthe,VBO,6.768152,52.994151
Esweg,2,,,9461HP,Gieten,Aa en Hunze,Drenthe,VBO,6.770047,52.994731
Esweg,4,,,9461HP,Gieten,Aa en Hunze,Drenthe,VBO,6.769881,52.994670
Esweg,6,,,9461HP,Gieten,Aa en Hunze,Drenthe,VBO,6.769777,52.994671
Esweg,8,,,9461HP,Gieten,Aa en Hunze,Drenthe,VBO,6.769626,52.994619
Esweg,10,,,9461HP,Gieten,Aa en Hunze,Drenthe,VBO,6.769550,52.994548
Esweg,12,,,9461HP,Gieten,Aa en Hunze,Drenthe,VBO,6.769415,52.994514
Esweg,14,,,9461HP,Gieten,Aa en Hunze,Drenthe,VBO,6.769294,52.994479
Esweg,16,,,9461HP,Gieten,Aa en Hunze,Drenthe,VBO,6.769114,52.994436
Esweg,18,,,9461HP,Gieten,Aa en Hunze,Drenthe,VBO,6.769024,52.994419
Esweg,20,,,9461HP,Gieten,Aa en Hunze,Drenthe,VBO,6.768874,52.994367
Esweg,22,,,9461HP,Gieten,Aa en Hunze,Drenthe,VBO,6.768738,52.994306
Esweg,24,,,9461HP,Gieten,Aa en Hunze,Drenthe,VBO,6.768603,52.994298
Esweg,26,,,9461HP,Gieten,Aa en Hunze,Drenthe,VBO,6.768498,52.994273
Esweg,28,,,9461HP,Gieten,Aa en Hunze,Drenthe,VBO,6.768407,52.994202
Esweg,30,,,9461HP,Gieten,Aa en Hunze,Drenthe,VBO,6.767670,52.993995
Esweg,32,,,9461HP,Gieten,Aa en Hunze,Drenthe,VBO,6.767310,52.993900
Esweg,34,,,9461HP,Gieten,Aa en Hunze,Drenthe,VBO,6.767130,52.993866
Altena,1,,,9461HR,Gieten,Aa en Hunze,Drenthe,VBO,6.769868,52.995668
Altena,3,,,9461HR,Gieten,Aa en Hunze,Drenthe,VBO,6.770027,52.995522
Altena,5,,,9461HR,Gieten,Aa en Hunze,Drenthe,VBO,6.770201,52.995367
Altena,7,,,9461HR,Gieten,Aa en Hunze,Drenthe,VBO,6.770360,52.995204
Altena,9,,,9461HR,Gieten,Aa en Hunze,Drenthe,VBO,6.770459,52.995050
Altena,11,,,9461HR,Gieten,Aa en Hunze,Drenthe,VBO,6.770482,52.994816
Nijkamp,1,,,9461HS,Gieten,Aa en Hunze,Drenthe,VBO,6.762507,52.996049
Nijkamp,3,,,9461HS,Gieten,Aa en Hunze,Drenthe,VBO,6.762193,52.996235
Nijkamp,5,,,9461HS,Gieten,Aa en Hunze,Drenthe,VBO,6.761602,52.996626
Vlintenstraat,1,,,9461HT,Gieten,Aa en Hunze,Drenthe,VBO,6.761852,52.997010
Vlintenstraat,6,,,9461HT,Gieten,Aa en Hunze,Drenthe,VBO,6.760141,52.996566
Vlintenstraat,8,,,9461HT,Gieten,Aa en Hunze,Drenthe,VBO,6.759686,52.996714
Vlintenstraat,10,,,9461HT,Gieten,Aa en Hunze,Drenthe,VBO,6.759817,52.996724
Dreeuwing,2,,,9461HV,Gieten,Aa en Hunze,Drenthe,VBO,6.771774,52.997506
Dreeuwing,4,,,9461HV,Gieten,Aa en Hunze,Drenthe,VBO,6.771746,52.997560
Dreeuwing,6,,,9461HV,Gieten,Aa en Hunze,Drenthe,VBO,6.771601,52.997697
Dreeuwing,8,,,9461HV,Gieten,Aa en Hunze,Drenthe,VBO,6.771543,52.997734
Dreeuwing,10,,,9461HV,Gieten,Aa en Hunze,Drenthe,VBO,6.771367,52.997843
Dreeuwing,12,,,9461HV,Gieten,Aa en Hunze,Drenthe,VBO,6.771309,52.997880
Dreeuwing,14,,,9461HV,Gieten,Aa en Hunze,Drenthe,VBO,6.771133,52.997981
Dreeuwing,16,,,9461HV,Gieten,Aa en Hunze,Drenthe,VBO,6.771075,52.998018
Dreeuwing,18,,,9461HV,Gieten,Aa en Hunze,Drenthe,VBO,6.770768,52.998201
Dreeuwing,20,,,9461HV,Gieten,Aa en Hunze,Drenthe,VBO,6.770443,52.998277
Dreeuwing,22,,,9461HV,Gieten,Aa en Hunze,Drenthe,VBO,6.769964,52.998219
Dreeuwing,24,,,9461HV,Gieten,Aa en Hunze,Drenthe,VBO,6.770046,52.997985
Dreeuwing,26,,,9461HV,Gieten,Aa en Hunze,Drenthe,VBO,6.770203,52.997749
Dreeuwing,28,,,9461HV,Gieten,Aa en Hunze,Drenthe,VBO,6.770480,52.997566
Dreeuwing,30,,,9461HV,Gieten,Aa en Hunze,Drenthe,VBO,6.770789,52.997464
Dreeuwing,32,,,9461HV,Gieten,Aa en Hunze,Drenthe,VBO,6.770879,52.997472
Dreeuwing,34,,,9461HV,Gieten,Aa en Hunze,Drenthe,VBO,6.771119,52.997523
Dreeuwing,36,,,9461HV,Gieten,Aa en Hunze,Drenthe,VBO,6.771194,52.997531
Dreeuwing,38,,,9461HV,Gieten,Aa en Hunze,Drenthe,VBO,6.771481,52.997204
Pallert,1,,,9461HW,Gieten,Aa en Hunze,Drenthe,VBO,6.770821,52.997068
Pallert,3,,,9461HW,Gieten,Aa en Hunze,Drenthe,VBO,6.770896,52.997085
Pallert,5,,,9461HW,Gieten,Aa en Hunze,Drenthe,VBO,6.771106,52.997127
Pallert,7,,,9461HW,Gieten,Aa en Hunze,Drenthe,VBO,6.771196,52.997135
Pallert,9,,,9461HW,Gieten,Aa en Hunze,Drenthe,VBO,6.771391,52.997178
Pallert,13,,,9461HW,Gieten,Aa en Hunze,Drenthe,VBO,6.771916,52.997289
Pallert,15,,,9461HW,Gieten,Aa en Hunze,Drenthe,VBO,6.772006,52.997297
Pallert,17,,,9461HW,Gieten,Aa en Hunze,Drenthe,VBO,6.772560,52.996931
Pallert,19,,,9461HW,Gieten,Aa en Hunze,Drenthe,VBO,6.772719,52.996785
Pallert,21,,,9461HW,Gieten,Aa en Hunze,Drenthe,VBO,6.772861,52.996568
Pallert,23,,,9461HW,Gieten,Aa en Hunze,Drenthe,VBO,6.772960,52.996387
Pallert,25,,,9461HW,Gieten,Aa en Hunze,Drenthe,VBO,6.773071,52.996125
Pallert,27,,,9461HW,Gieten,Aa en Hunze,Drenthe,VBO,6.773444,52.996166
Pallert,29,,,9461HW,Gieten,Aa en Hunze,Drenthe,VBO,6.773648,52.996002
Pallert,31,,,9461HW,Gieten,Aa en Hunze,Drenthe,VBO,6.773225,52.995845
Pallert,2,,,9461HX,Gieten,Aa en Hunze,Drenthe,VBO,6.770806,52.996583
Pallert,4,,,9461HX,Gieten,Aa en Hunze,Drenthe,VBO,6.771619,52.996843
Pallert,6,,,9461HX,Gieten,Aa en Hunze,Drenthe,VBO,6.772023,52.996919
Pallert,8,,,9461HX,Gieten,Aa en Hunze,Drenthe,VBO,6.772066,52.996865
Pallert,10,,,9461HX,Gieten,Aa en Hunze,Drenthe,VBO,6.772166,52.996729
Pallert,12,,,9461HX,Gieten,Aa en Hunze,Drenthe,VBO,6.772209,52.996683
Pallert,14,,,9461HX,Gieten,Aa en Hunze,Drenthe,VBO,6.772339,52.996556
Pallert,16,,,9461HX,Gieten,Aa en Hunze,Drenthe,VBO,6.772382,52.996502
Pallert,18,,,9461HX,Gieten,Aa en Hunze,Drenthe,VBO,6.772452,52.996357
Pallert,20,,,9461HX,Gieten,Aa en Hunze,Drenthe,VBO,6.772480,52.996303
Pallert,22,,,9461HX,Gieten,Aa en Hunze,Drenthe,VBO,6.772565,52.996158
Pallert,24,,,9461HX,Gieten,Aa en Hunze,Drenthe,VBO,6.772593,52.996104
Pallert,26,,,9461HX,Gieten,Aa en Hunze,Drenthe,VBO,6.772663,52.995950
Pallert,28,,,9461HX,Gieten,Aa en Hunze,Drenthe,VBO,6.772691,52.995896
Pallert,30,,,9461HX,Gieten,Aa en Hunze,Drenthe,VBO,6.772761,52.995751
Pallert,32,,,9461HX,Gieten,Aa en Hunze,Drenthe,VBO,6.772788,52.995679
Pallert,34,,,9461HX,Gieten,Aa en Hunze,Drenthe,VBO,6.772887,52.995498
Kolling,2,,,9461HZ,Gieten,Aa en Hunze,Drenthe,VBO,6.771034,52.996724
Kolling,4,,,9461HZ,Gieten,Aa en Hunze,Drenthe,VBO,6.771118,52.996570
Kolling,6,,,9461HZ,Gieten,Aa en Hunze,Drenthe,VBO,6.771446,52.996575
Kolling,8,,,9461HZ,Gieten,Aa en Hunze,Drenthe,VBO,6.771718,52.996680
Boddeveld,1,,10,9461JA,Gieten,Aa en Hunze,Drenthe,VBO,6.765448,53.004973
Boddeveld,1,,102,9461JA,Gieten,Aa en Hunze,Drenthe,VBO,6.765496,53.004849
Boddeveld,1,,104,9461JA,Gieten,Aa en Hunze,Drenthe,VBO,6.765498,53.004883
Boddeveld,1,,106,9461JA,Gieten,Aa en Hunze,Drenthe,VBO,6.765498,53.004913
Boddeveld,1,,108,9461JA,Gieten,Aa en Hunze,Drenthe,VBO,6.765494,53.004944
Boddeveld,1,,110,9461JA,Gieten,Aa en Hunze,Drenthe,VBO,6.765494,53.004972
Boddeveld,1,,112,9461JA,Gieten,Aa en Hunze,Drenthe,VBO,6.765491,53.005003
Boddeveld,1,,114,9461JA,Gieten,Aa en Hunze,Drenthe,VBO,6.765566,53.005073
Boddeveld,1,,116,9461JA,Gieten,Aa en Hunze,Drenthe,VBO,6.765564,53.005104
Boddeveld,1,,118,9461JA,Gieten,Aa en Hunze,Drenthe,VBO,6.765565,53.005137
Boddeveld,1,,12,9461JA,Gieten,Aa en Hunze,Drenthe,VBO,6.765447,53.005001
Boddeveld,1,,120,9461JA,Gieten,Aa en Hunze,Drenthe,VBO,6.765564,53.005169
Boddeveld,1,,122,9461JA,Gieten,Aa en Hunze,Drenthe,VBO,6.765561,53.005200
Boddeveld,1,,124,9461JA,Gieten,Aa en Hunze,Drenthe,VBO,6.765558,53.005236
Boddeveld,1,,126,9461JA,Gieten,Aa en Hunze,Drenthe,VBO,6.765694,53.005274
Boddeveld,1,,128,9461JA,Gieten,Aa en Hunze,Drenthe,VBO,6.765695,53.005238
Boddeveld,1,,130,9461JA,Gieten,Aa en Hunze,Drenthe,VBO,6.765696,53.005204
Boddeveld,1,,132,9461JA,Gieten,Aa en Hunze,Drenthe,VBO,6.765700,53.005170
Boddeveld,1,,134,9461JA,Gieten,Aa en Hunze,Drenthe,VBO,6.765701,53.005137
Boddeveld,1,,136,9461JA,Gieten,Aa en Hunze,Drenthe,VBO,6.765704,53.005105
Boddeveld,1,,138,9461JA,Gieten,Aa en Hunze,Drenthe,VBO,6.765705,53.005075
Boddeveld,1,,14,9461JA,Gieten,Aa en Hunze,Drenthe,VBO,6.765516,53.005073
Boddeveld,1,,140,9461JA,Gieten,Aa en Hunze,Drenthe,VBO,6.765708,53.005044
Boddeveld,1,,142,9461JA,Gieten,Aa en Hunze,Drenthe,VBO,6.765667,53.004975
Boddeveld,1,,144,9461JA,Gieten,Aa en Hunze,Drenthe,VBO,6.765665,53.004950
Boddeveld,1,,146,9461JA,Gieten,Aa en Hunze,Drenthe,VBO,6.765665,53.004917
Boddeveld,1,,16,9461JA,Gieten,Aa en Hunze,Drenthe,VBO,6.765515,53.005105
Boddeveld,1,,18,9461JA,Gieten,Aa en Hunze,Drenthe,VBO,6.765515,53.005136
Boddeveld,1,,2,9461JA,Gieten,Aa en Hunze,Drenthe,VBO,6.765451,53.004847
Boddeveld,1,,20,9461JA,Gieten,Aa en Hunze,Drenthe,VBO,6.765515,53.005168
Boddeveld,1,,202,9461JA,Gieten,Aa en Hunze,Drenthe,VBO,6.765485,53.004762
Boddeveld,1,,204,9461JA,Gieten,Aa en Hunze,Drenthe,VBO,6.765483,53.004804
Boddeveld,1,,206,9461JA,Gieten,Aa en Hunze,Drenthe,VBO,6.765543,53.004849
Boddeveld,1,,208,9461JA,Gieten,Aa en Hunze,Drenthe,VBO,6.765541,53.004882
Boddeveld,1,,210,9461JA,Gieten,Aa en Hunze,Drenthe,VBO,6.765541,53.004912
Boddeveld,1,,212,9461JA,Gieten,Aa en Hunze,Drenthe,VBO,6.765540,53.004942
Boddeveld,1,,214,9461JA,Gieten,Aa en Hunze,Drenthe,VBO,6.765537,53.004972
Boddeveld,1,,216,9461JA,Gieten,Aa en Hunze,Drenthe,VBO,6.765535,53.005003
Boddeveld,1,,218,9461JA,Gieten,Aa en Hunze,Drenthe,VBO,6.765621,53.004976
Boddeveld,1,,22,9461JA,Gieten,Aa en Hunze,Drenthe,VBO,6.765514,53.005201
Boddeveld,1,,220,9461JA,Gieten,Aa en Hunze,Drenthe,VBO,6.765621,53.004950
Boddeveld,1,,222,9461JA,Gieten,Aa en Hunze,Drenthe,VBO,6.765620,53.004916
Boddeveld,1,,224,9461JA,Gieten,Aa en Hunze,Drenthe,VBO,6.765649,53.004887
Boddeveld,1,,24,9461JA,Gieten,Aa en Hunze,Drenthe,VBO,6.765514,53.005237
Boddeveld,1,,26,9461JA,Gieten,Aa en Hunze,Drenthe,VBO,6.765738,53.005273
Boddeveld,1,,28,9461JA,Gieten,Aa en Hunze,Drenthe,VBO,6.765740,53.005238
Boddeveld,1,,30,9461JA,Gieten,Aa en Hunze,Drenthe,VBO,6.765743,53.005204
Boddeveld,1,,32,9461JA,Gieten,Aa en Hunze,Drenthe,VBO,6.765745,53.005170
Boddeveld,1,,34,9461JA,Gieten,Aa en Hunze,Drenthe,VBO,6.765747,53.005137
Boddeveld,1,,36,9461JA,Gieten,Aa en Hunze,Drenthe,VBO,6.765749,53.005106
Boddeveld,1,,38,9461JA,Gieten,Aa en Hunze,Drenthe,VBO,6.765751,53.005075
Boddeveld,1,,4,9461JA,Gieten,Aa en Hunze,Drenthe,VBO,6.765450,53.004885
Boddeveld,1,,40,9461JA,Gieten,Aa en Hunze,Drenthe,VBO,6.765752,53.005043
Boddeveld,1,,42,9461JA,Gieten,Aa en Hunze,Drenthe,VBO,6.765683,53.004930
Boddeveld,1,,6,9461JA,Gieten,Aa en Hunze,Drenthe,VBO,6.765449,53.004914
Boddeveld,1,,8,9461JA,Gieten,Aa en Hunze,Drenthe,VBO,6.765448,53.004944
Boddeveld,1,,,9461JA,Gieten,Aa en Hunze,Drenthe,VBO,6.765668,53.004773
Boddeveld,3,,,9461JA,Gieten,Aa en Hunze,Drenthe,VBO,6.766876,53.004169
Boddeveld,5,,,9461JA,Gieten,Aa en Hunze,Drenthe,VBO,6.766995,53.004176
Boddeveld,7,,,9461JA,Gieten,Aa en Hunze,Drenthe,VBO,6.767100,53.004184
Boddeveld,9,,,9461JA,Gieten,Aa en Hunze,Drenthe,VBO,6.767204,53.004183
Boddeveld,11,,,9461JA,Gieten,Aa en Hunze,Drenthe,VBO,6.767293,53.004191
Boddeveld,13,,,9461JA,Gieten,Aa en Hunze,Drenthe,VBO,6.767383,53.004199
Boddeveld,17,a,,9461JA,Gieten,Aa en Hunze,Drenthe,VBO,6.770219,53.004726
Boddeveld,17,,,9461JA,Gieten,Aa en Hunze,Drenthe,VBO,6.770832,53.004428
Boddeveld,19,,,9461JA,Gieten,Aa en Hunze,Drenthe,VBO,6.773302,53.004795
Boddeveld,2,,,9461JB,Gieten,Aa en Hunze,Drenthe,VBO,6.765583,53.003815
Boddeveld,4,a,,9461JB,Gieten,Aa en Hunze,Drenthe,VBO,6.768608,53.003843
Boddeveld,4,b,,9461JB,Gieten,Aa en Hunze,Drenthe,VBO,6.768653,53.003842
Boddeveld,4,c,,9461JB,Gieten,Aa en Hunze,Drenthe,VBO,6.768698,53.003842
Boddeveld,4,d,,9461JB,Gieten,Aa en Hunze,Drenthe,VBO,6.768742,53.003841
Boddeveld,4,e,,9461JB,Gieten,Aa en Hunze,Drenthe,VBO,6.768787,53.003841
Boddeveld,4,f,,9461JB,Gieten,Aa en Hunze,Drenthe,VBO,6.768817,53.003841
Boddeveld,6,,,9461JB,Gieten,Aa en Hunze,Drenthe,VBO,6.769249,53.003836
Boddeveld,8,,,9461JB,Gieten,Aa en Hunze,Drenthe,VBO,6.769640,53.003957
Boddeveld,10,,,9461JB,Gieten,Aa en Hunze,Drenthe,VBO,6.769745,53.003965
Boddeveld,12,,,9461JB,Gieten,Aa en Hunze,Drenthe,VBO,6.769833,53.003946
Boddeveld,14,,,9461JB,Gieten,Aa en Hunze,Drenthe,VBO,6.770473,53.003911
Boddeveld,16,,,9461JB,Gieten,Aa en Hunze,Drenthe,VBO,6.770785,53.003890
Boddeveld,18,,,9461JB,Gieten,Aa en Hunze,Drenthe,VBO,6.771038,53.003887
Boddeveld,20,,,9461JB,Gieten,Aa en Hunze,Drenthe,VBO,6.771320,53.003857
Boddeveld,22,,,9461JB,Gieten,Aa en Hunze,Drenthe,VBO,6.771575,53.003890
Boddeveld,24,,,9461JB,Gieten,Aa en Hunze,Drenthe,VBO,6.771843,53.003877
Boddeveld,26,,,9461JB,Gieten,Aa en Hunze,Drenthe,VBO,6.772126,53.003901
Boddeveld,28,,,9461JB,Gieten,Aa en Hunze,Drenthe,VBO,6.772454,53.003897
Boddeveld,30,,,9461JB,Gieten,Aa en Hunze,Drenthe,VBO,6.773295,53.004121
Boddeveld,32,,,9461JB,Gieten,Aa en Hunze,Drenthe,VBO,6.773509,53.004290
Boddeveld,34,,,9461JB,Gieten,Aa en Hunze,Drenthe,VBO,6.773664,53.004467
Boddeveld,36,,,9461JB,Gieten,Aa en Hunze,Drenthe,VBO,6.773833,53.004627
Dingspelstraat,1,,,9461JC,Gieten,Aa en Hunze,Drenthe,VBO,6.766918,53.003620
Dingspelstraat,3,,,9461JC,Gieten,Aa en Hunze,Drenthe,VBO,6.766916,53.003566
Dingspelstraat,5,,,9461JC,Gieten,Aa en Hunze,Drenthe,VBO,6.766929,53.003512
Dingspelstraat,7,,,9461JC,Gieten,Aa en Hunze,Drenthe,VBO,6.766942,53.003458
Dingspelstraat,9,,,9461JC,Gieten,Aa en Hunze,Drenthe,VBO,6.766956,53.003404
Dingspelstraat,11,,,9461JC,Gieten,Aa en Hunze,Drenthe,VBO,6.766984,53.003349
Dingspelstraat,13,,,9461JC,Gieten,Aa en Hunze,Drenthe,VBO,6.767092,53.003016
Dingspelstraat,15,,,9461JC,Gieten,Aa en Hunze,Drenthe,VBO,6.767091,53.002971
Dingspelstraat,17,,,9461JC,Gieten,Aa en Hunze,Drenthe,VBO,6.767104,53.002926
Dingspelstraat,19,,,9461JC,Gieten,Aa en Hunze,Drenthe,VBO,6.767117,53.002863
Dingspelstraat,21,,,9461JC,Gieten,Aa en Hunze,Drenthe,VBO,6.767145,53.002799
Dingspelstraat,23,,,9461JC,Gieten,Aa en Hunze,Drenthe,VBO,6.767158,53.002736
Dingspelstraat,25,,,9461JD,Gieten,Aa en Hunze,Drenthe,VBO,6.767441,53.002257
Dingspelstraat,27,,,9461JD,Gieten,Aa en Hunze,Drenthe,VBO,6.767468,53.002193
Dingspelstraat,29,,,9461JD,Gieten,Aa en Hunze,Drenthe,VBO,6.767510,53.002085
Dingspelstraat,31,,,9461JD,Gieten,Aa en Hunze,Drenthe,VBO,6.767537,53.002013
Dingspelstraat,37,,,9461JD,Gieten,Aa en Hunze,Drenthe,VBO,6.767865,53.001533
Dingspelstraat,39,,,9461JD,Gieten,Aa en Hunze,Drenthe,VBO,6.767893,53.001479
Dingspelstraat,41,,,9461JD,Gieten,Aa en Hunze,Drenthe,VBO,6.767921,53.001433
Dingspelstraat,43,,,9461JD,Gieten,Aa en Hunze,Drenthe,VBO,6.767949,53.001379
Dingspelstraat,45,,,9461JD,Gieten,Aa en Hunze,Drenthe,VBO,6.767992,53.001316
Dingspelstraat,2,,,9461JE,Gieten,Aa en Hunze,Drenthe,VBO,6.766417,53.003796
Dingspelstraat,4,,,9461JE,Gieten,Aa en Hunze,Drenthe,VBO,6.766430,53.003733
Dingspelstraat,6,,,9461JE,Gieten,Aa en Hunze,Drenthe,VBO,6.766456,53.003625
Dingspelstraat,8,,,9461JE,Gieten,Aa en Hunze,Drenthe,VBO,6.766469,53.003562
Dingspelstraat,10,,,9461JE,Gieten,Aa en Hunze,Drenthe,VBO,6.766466,53.003454
Dingspelstraat,12,,,9461JE,Gieten,Aa en Hunze,Drenthe,VBO,6.766478,53.003391
Dingspelstraat,14,,,9461JE,Gieten,Aa en Hunze,Drenthe,VBO,6.766505,53.003283
Dingspelstraat,16,,,9461JE,Gieten,Aa en Hunze,Drenthe,VBO,6.766532,53.003211
Dingspelstraat,18,,,9461JE,Gieten,Aa en Hunze,Drenthe,VBO,6.766588,53.003093
Dingspelstraat,20,,,9461JE,Gieten,Aa en Hunze,Drenthe,VBO,6.766616,53.003021
Dingspelstraat,22,,,9461JE,Gieten,Aa en Hunze,Drenthe,VBO,6.766642,53.002913
Dingspelstraat,24,,,9461JE,Gieten,Aa en Hunze,Drenthe,VBO,6.766655,53.002850
Dingspelstraat,30,,,9461JG,Gieten,Aa en Hunze,Drenthe,VBO,6.766797,53.002165
Dingspelstraat,32,,,9461JG,Gieten,Aa en Hunze,Drenthe,VBO,6.766825,53.002102
Dingspelstraat,34,,,9461JG,Gieten,Aa en Hunze,Drenthe,VBO,6.766881,53.002003
Dingspelstraat,36,,,9461JG,Gieten,Aa en Hunze,Drenthe,VBO,6.766924,53.001921
Dingspelstraat,38,,,9461JG,Gieten,Aa en Hunze,Drenthe,VBO,6.767312,53.001503
Dingspelstraat,40,,,9461JG,Gieten,Aa en Hunze,Drenthe,VBO,6.767341,53.001449
Dingspelstraat,42,,,9461JG,Gieten,Aa en Hunze,Drenthe,VBO,6.767368,53.001386
Dingspelstraat,44,,,9461JG,Gieten,Aa en Hunze,Drenthe,VBO,6.767396,53.001323
Hanekampen,1,,,9461JH,Gieten,Aa en Hunze,Drenthe,VBO,6.767127,53.003644
Hanekampen,2,,,9461JH,Gieten,Aa en Hunze,Drenthe,VBO,6.767217,53.003661
Hanekampen,3,,,9461JH,Gieten,Aa en Hunze,Drenthe,VBO,6.767322,53.003669
Hanekampen,4,,,9461JH,Gieten,Aa en Hunze,Drenthe,VBO,6.767411,53.003677
Hanekampen,5,,,9461JH,Gieten,Aa en Hunze,Drenthe,VBO,6.767576,53.003693
Hanekampen,6,,,9461JH,Gieten,Aa en Hunze,Drenthe,VBO,6.767680,53.003701
Hanekampen,7,,,9461JH,Gieten,Aa en Hunze,Drenthe,VBO,6.767755,53.003709
Hanekampen,8,,,9461JH,Gieten,Aa en Hunze,Drenthe,VBO,6.767859,53.003708
Boskampen,1,,,9461JJ,Gieten,Aa en Hunze,Drenthe,VBO,6.767207,53.003356
Boskampen,2,,,9461JJ,Gieten,Aa en Hunze,Drenthe,VBO,6.767317,53.003058
Boskampen,3,,,9461JJ,Gieten,Aa en Hunze,Drenthe,VBO,6.767312,53.003364
Boskampen,4,,,9461JJ,Gieten,Aa en Hunze,Drenthe,VBO,6.767422,53.003084
Boskampen,5,,,9461JJ,Gieten,Aa en Hunze,Drenthe,VBO,6.767402,53.003372
Boskampen,6,,,9461JJ,Gieten,Aa en Hunze,Drenthe,VBO,6.767512,53.003101
Boskampen,7,,,9461JJ,Gieten,Aa en Hunze,Drenthe,VBO,6.767507,53.003397
Boskampen,8,,,9461JJ,Gieten,Aa en Hunze,Drenthe,VBO,6.767616,53.003099
Boskampen,9,,,9461JJ,Gieten,Aa en Hunze,Drenthe,VBO,6.767656,53.003423
Boskampen,10,,,9461JJ,Gieten,Aa en Hunze,Drenthe,VBO,6.767751,53.003125
Boskampen,11,,,9461JJ,Gieten,Aa en Hunze,Drenthe,VBO,6.767746,53.003431
Boskampen,12,,,9461JJ,Gieten,Aa en Hunze,Drenthe,VBO,6.767871,53.003150
Boskampen,13,,,9461JJ,Gieten,Aa en Hunze,Drenthe,VBO,6.767851,53.003447
Boskampen,14,,,9461JJ,Gieten,Aa en Hunze,Drenthe,VBO,6.767946,53.003159
Boskampen,15,,,9461JJ,Gieten,Aa en Hunze,Drenthe,VBO,6.767926,53.003464
Boskampen,16,,,9461JJ,Gieten,Aa en Hunze,Drenthe,VBO,6.768036,53.003167
Eekschillersweg,1,,,9461JK,Gieten,Aa en Hunze,Drenthe,VBO,6.765457,53.002172
Eekschillersweg,3,,,9461JK,Gieten,Aa en Hunze,Drenthe,VBO,6.765474,53.002261
Eekschillersweg,5,,,9461JK,Gieten,Aa en Hunze,Drenthe,VBO,6.765462,53.002342
Eekschillersweg,7,G,1,9461JK,Gieten,Aa en Hunze,Drenthe,VBO,6.765326,53.002573
Eekschillersweg,7,G,2,9461JK,Gieten,Aa en Hunze,Drenthe,VBO,6.765370,53.002579
Eekschillersweg,7,G,3,9461JK,Gieten,Aa en Hunze,Drenthe,VBO,6.765414,53.002587
Eekschillersweg,7,G,4,9461JK,Gieten,Aa en Hunze,Drenthe,VBO,6.765457,53.002594
Eekschillersweg,7,G,5,9461JK,Gieten,Aa en Hunze,Drenthe,VBO,6.765498,53.002600
Eekschillersweg,7,G,6,9461JK,Gieten,Aa en Hunze,Drenthe,VBO,6.765542,53.002605
Eekschillersweg,7,,,9461JK,Gieten,Aa en Hunze,Drenthe,VBO,6.765465,53.002441
Eekschillersweg,9,,,9461JK,Gieten,Aa en Hunze,Drenthe,VBO,6.765707,53.002537
Eekschillersweg,11,,,9461JK,Gieten,Aa en Hunze,Drenthe,VBO,6.765856,53.002563
Eekschillersweg,13,,,9461JK,Gieten,Aa en Hunze,Drenthe,VBO,6.765991,53.002579
Eekschillersweg,15,,,9461JK,Gieten,Aa en Hunze,Drenthe,VBO,6.766126,53.002604
Eekschillersweg,17,,,9461JK,Gieten,Aa en Hunze,Drenthe,VBO,6.766290,53.002611
Eekschillersweg,19,,,9461JK,Gieten,Aa en Hunze,Drenthe,VBO,6.766409,53.002619
Eekschillersweg,21,,,9461JK,Gieten,Aa en Hunze,Drenthe,VBO,6.766589,53.002653
Eekschillersweg,23,,,9461JK,Gieten,Aa en Hunze,Drenthe,VBO,6.766709,53.002670
Eekschillersweg,25,,,9461JK,Gieten,Aa en Hunze,Drenthe,VBO,6.767428,53.002787
Eekschillersweg,27,,,9461JK,Gieten,Aa en Hunze,Drenthe,VBO,6.767547,53.002804
Eekschillersweg,29,,,9461JK,Gieten,Aa en Hunze,Drenthe,VBO,6.767637,53.002821
Eekschillersweg,31,,,9461JK,Gieten,Aa en Hunze,Drenthe,VBO,6.767877,53.002854
Eekschillersweg,33,,,9461JK,Gieten,Aa en Hunze,Drenthe,VBO,6.767982,53.002871
Eekschillersweg,35,,,9461JK,Gieten,Aa en Hunze,Drenthe,VBO,6.768057,53.002888
Eekschillersweg,2,,,9461JL,Gieten,Aa en Hunze,Drenthe,VBO,6.765655,53.001846
Eekschillersweg,4,,,9461JL,Gieten,Aa en Hunze,Drenthe,VBO,6.765790,53.001889
Eekschillersweg,6,,,9461JL,Gieten,Aa en Hunze,Drenthe,VBO,6.765985,53.001932
Eekschillersweg,8,,,9461JL,Gieten,Aa en Hunze,Drenthe,VBO,6.766136,53.001975
Eekschillersweg,10,,,9461JL,Gieten,Aa en Hunze,Drenthe,VBO,6.766230,53.002136
Eekschillersweg,12,,,9461JL,Gieten,Aa en Hunze,Drenthe,VBO,6.766248,53.002235
Eekschillersweg,14,,,9461JL,Gieten,Aa en Hunze,Drenthe,VBO,6.766443,53.002277
Eekschillersweg,16,,,9461JL,Gieten,Aa en Hunze,Drenthe,VBO,6.766549,53.002321
Eekschillersweg,18,,,9461JL,Gieten,Aa en Hunze,Drenthe,VBO,6.766624,53.002338
Eekschillersweg,20,,,9461JL,Gieten,Aa en Hunze,Drenthe,VBO,6.766729,53.002355
Eekschillersweg,22,,,9461JL,Gieten,Aa en Hunze,Drenthe,VBO,6.766818,53.002363
Eekschillersweg,24,,,9461JM,Gieten,Aa en Hunze,Drenthe,VBO,6.767341,53.002411
Eekschillersweg,26,,,9461JM,Gieten,Aa en Hunze,Drenthe,VBO,6.767446,53.002436
Eekschillersweg,28,,,9461JM,Gieten,Aa en Hunze,Drenthe,VBO,6.767551,53.002444
Eekschillersweg,30,,,9461JM,Gieten,Aa en Hunze,Drenthe,VBO,6.767641,53.002461
Eekschillersweg,32,,,9461JM,Gieten,Aa en Hunze,Drenthe,VBO,6.767866,53.002521
Eekschillersweg,34,,,9461JM,Gieten,Aa en Hunze,Drenthe,VBO,6.767956,53.002529
Eekschillersweg,36,,,9461JM,Gieten,Aa en Hunze,Drenthe,VBO,6.768060,53.002537
Eekschillersweg,38,,,9461JM,Gieten,Aa en Hunze,Drenthe,VBO,6.768150,53.002554
Eekschillersweg,40,,,9461JM,Gieten,Aa en Hunze,Drenthe,VBO,6.768240,53.002562
Brummelkamp,1,,,9461JN,Gieten,Aa en Hunze,Drenthe,VBO,6.767000,53.001525
Brummelkamp,2,,,9461JN,Gieten,Aa en Hunze,Drenthe,VBO,6.766608,53.001853
Brummelkamp,3,,,9461JN,Gieten,Aa en Hunze,Drenthe,VBO,6.766911,53.001517
Brummelkamp,4,,,9461JN,Gieten,Aa en Hunze,Drenthe,VBO,6.766518,53.001827
Brummelkamp,5,,,9461JN,Gieten,Aa en Hunze,Drenthe,VBO,6.766821,53.001500
Brummelkamp,6,,,9461JN,Gieten,Aa en Hunze,Drenthe,VBO,6.766277,53.001740
Brummelkamp,7,,,9461JN,Gieten,Aa en Hunze,Drenthe,VBO,6.766731,53.001483
Brummelkamp,8,,,9461JN,Gieten,Aa en Hunze,Drenthe,VBO,6.766172,53.001714
Brummelkamp,9,,,9461JN,Gieten,Aa en Hunze,Drenthe,VBO,6.766501,53.001279
Brummelkamp,10,,,9461JN,Gieten,Aa en Hunze,Drenthe,VBO,6.765884,53.001565
Brummelkamp,11,,,9461JN,Gieten,Aa en Hunze,Drenthe,VBO,6.766543,53.001207
Brummelkamp,12,,,9461JN,Gieten,Aa en Hunze,Drenthe,VBO,6.765927,53.001492
Brummelkamp,13,,,9461JN,Gieten,Aa en Hunze,Drenthe,VBO,6.766572,53.001161
Brummelkamp,14,,,9461JN,Gieten,Aa en Hunze,Drenthe,VBO,6.765968,53.001393
Brummelkamp,15,,,9461JN,Gieten,Aa en Hunze,Drenthe,VBO,6.766585,53.001098
Brummelkamp,16,,,9461JN,Gieten,Aa en Hunze,Drenthe,VBO,6.766010,53.001312
Brummelkamp,18,,,9461JN,Gieten,Aa en Hunze,Drenthe,VBO,6.766067,53.001212
Brummelkamp,20,,,9461JN,Gieten,Aa en Hunze,Drenthe,VBO,6.766094,53.001140
Holtwal,1,,,9461JP,Gieten,Aa en Hunze,Drenthe,VBO,6.767837,53.002063
Holtwal,2,,,9461JP,Gieten,Aa en Hunze,Drenthe,VBO,6.767840,53.001686
Holtwal,3,,,9461JP,Gieten,Aa en Hunze,Drenthe,VBO,6.767957,53.002080
Holtwal,4,,,9461JP,Gieten,Aa en Hunze,Drenthe,VBO,6.767940,53.001715
Holtwal,5,,,9461JP,Gieten,Aa en Hunze,Drenthe,VBO,6.768136,53.002114
Holtwal,6,,,9461JP,Gieten,Aa en Hunze,Drenthe,VBO,6.768029,53.001726
Holtwal,7,,,9461JP,Gieten,Aa en Hunze,Drenthe,VBO,6.768271,53.002130
Holtwal,8,,,9461JP,Gieten,Aa en Hunze,Drenthe,VBO,6.768124,53.001744
Holtwal,9,,,9461JP,Gieten,Aa en Hunze,Drenthe,VBO,6.768421,53.002156
Holtwal,10,,,9461JP,Gieten,Aa en Hunze,Drenthe,VBO,6.768198,53.001759
Holtwal,11,,,9461JP,Gieten,Aa en Hunze,Drenthe,VBO,6.768540,53.002163
Holtwal,12,,,9461JP,Gieten,Aa en Hunze,Drenthe,VBO,6.768285,53.001774
Holtwal,14,,,9461JP,Gieten,Aa en Hunze,Drenthe,VBO,6.768454,53.001796
Holtwal,16,,,9461JP,Gieten,Aa en Hunze,Drenthe,VBO,6.768544,53.001804
Holtwal,18,,,9461JP,Gieten,Aa en Hunze,Drenthe,VBO,6.768649,53.001829
Holtwal,20,,,9461JP,Gieten,Aa en Hunze,Drenthe,VBO,6.768724,53.001846
Holtwal,22,,,9461JP,Gieten,Aa en Hunze,Drenthe,VBO,6.768799,53.001864
Holtwal,24,,,9461JP,Gieten,Aa en Hunze,Drenthe,VBO,6.768874,53.001872
Kerspelstraat,1,a,,9461JR,Gieten,Aa en Hunze,Drenthe,VBO,6.766468,53.000695
Kerspelstraat,1,,,9461JR,Gieten,Aa en Hunze,Drenthe,VBO,6.766378,53.000678
Kerspelstraat,3,a,,9461JR,Gieten,Aa en Hunze,Drenthe,VBO,6.766632,53.000729
Kerspelstraat,3,,,9461JR,Gieten,Aa en Hunze,Drenthe,VBO,6.766558,53.000721
Kerspelstraat,5,,,9461JR,Gieten,Aa en Hunze,Drenthe,VBO,6.766772,53.000889
Kerspelstraat,7,,,9461JR,Gieten,Aa en Hunze,Drenthe,VBO,6.766877,53.000915
Kerspelstraat,9,,,9461JR,Gieten,Aa en Hunze,Drenthe,VBO,6.766967,53.000932
Kerspelstraat,11,,,9461JR,Gieten,Aa en Hunze,Drenthe,VBO,6.767056,53.000940
Kerspelstraat,13,,,9461JR,Gieten,Aa en Hunze,Drenthe,VBO,6.767166,53.001101
Kerspelstraat,15,,,9461JR,Gieten,Aa en Hunze,Drenthe,VBO,6.767255,53.001108
Kerspelstraat,17,,,9461JR,Gieten,Aa en Hunze,Drenthe,VBO,6.767330,53.001126
Kerspelstraat,19,,,9461JR,Gieten,Aa en Hunze,Drenthe,VBO,6.767450,53.001142
Kerspelstraat,21,G,1,9461JS,Gieten,Aa en Hunze,Drenthe,VBO,6.768270,53.001525
Kerspelstraat,21,G,10,9461JS,Gieten,Aa en Hunze,Drenthe,VBO,6.768623,53.001615
Kerspelstraat,21,G,11,9461JS,Gieten,Aa en Hunze,Drenthe,VBO,6.768610,53.001641
Kerspelstraat,21,G,12,9461JS,Gieten,Aa en Hunze,Drenthe,VBO,6.768598,53.001667
Kerspelstraat,21,G,13,9461JS,Gieten,Aa en Hunze,Drenthe,VBO,6.768685,53.001682
Kerspelstraat,21,G,14,9461JS,Gieten,Aa en Hunze,Drenthe,VBO,6.768698,53.001655
Kerspelstraat,21,G,15,9461JS,Gieten,Aa en Hunze,Drenthe,VBO,6.768710,53.001629
Kerspelstraat,21,G,16,9461JS,Gieten,Aa en Hunze,Drenthe,VBO,6.768722,53.001603
Kerspelstraat,21,G,17,9461JS,Gieten,Aa en Hunze,Drenthe,VBO,6.769000,53.001652
Kerspelstraat,21,G,18,9461JS,Gieten,Aa en Hunze,Drenthe,VBO,6.768988,53.001679
Kerspelstraat,21,G,19,9461JS,Gieten,Aa en Hunze,Drenthe,VBO,6.768976,53.001704
Kerspelstraat,21,G,2,9461JS,Gieten,Aa en Hunze,Drenthe,VBO,6.768258,53.001551
Kerspelstraat,21,G,20,9461JS,Gieten,Aa en Hunze,Drenthe,VBO,6.768964,53.001730
Kerspelstraat,21,G,3,9461JS,Gieten,Aa en Hunze,Drenthe,VBO,6.768246,53.001577
Kerspelstraat,21,G,4,9461JS,Gieten,Aa en Hunze,Drenthe,VBO,6.768233,53.001603
Kerspelstraat,21,G,5,9461JS,Gieten,Aa en Hunze,Drenthe,VBO,6.768320,53.001617
Kerspelstraat,21,G,6,9461JS,Gieten,Aa en Hunze,Drenthe,VBO,6.768332,53.001591
Kerspelstraat,21,G,7,9461JS,Gieten,Aa en Hunze,Drenthe,VBO,6.768345,53.001565
Kerspelstraat,21,G,8,9461JS,Gieten,Aa en Hunze,Drenthe,VBO,6.768357,53.001540
Kerspelstraat,21,G,9,9461JS,Gieten,Aa en Hunze,Drenthe,VBO,6.768635,53.001589
Kerspelstraat,21,,,9461JS,Gieten,Aa en Hunze,Drenthe,VBO,6.768277,53.001366
Kerspelstraat,23,,,9461JS,Gieten,Aa en Hunze,Drenthe,VBO,6.768381,53.001383
Kerspelstraat,25,,,9461JS,Gieten,Aa en Hunze,Drenthe,VBO,6.768456,53.001391
Kerspelstraat,27,,,9461JS,Gieten,Aa en Hunze,Drenthe,VBO,6.768546,53.001408
Kerspelstraat,29,,,9461JS,Gieten,Aa en Hunze,Drenthe,VBO,6.768621,53.001425
Kerspelstraat,31,,,9461JS,Gieten,Aa en Hunze,Drenthe,VBO,6.768696,53.001442
Kerspelstraat,33,,,9461JS,Gieten,Aa en Hunze,Drenthe,VBO,6.768876,53.001467
Kerspelstraat,35,,,9461JS,Gieten,Aa en Hunze,Drenthe,VBO,6.768966,53.001484
Kerspelstraat,37,,,9461JS,Gieten,Aa en Hunze,Drenthe,VBO,6.769055,53.001501
Kerspelstraat,39,,,9461JS,Gieten,Aa en Hunze,Drenthe,VBO,6.769145,53.001518
Kerspelstraat,41,,,9461JS,Gieten,Aa en Hunze,Drenthe,VBO,6.769235,53.001526
Kerspelstraat,43,,,9461JS,Gieten,Aa en Hunze,Drenthe,VBO,6.769295,53.001543
Kerspelstraat,45,,,9461JS,Gieten,Aa en Hunze,Drenthe,VBO,6.769657,53.001692
Kerspelstraat,47,,,9461JS,Gieten,Aa en Hunze,Drenthe,VBO,6.769747,53.001709
Kerspelstraat,49,,,9461JS,Gieten,Aa en Hunze,Drenthe,VBO,6.769912,53.001743
Kerspelstraat,51,,,9461JS,Gieten,Aa en Hunze,Drenthe,VBO,6.770032,53.001759
Kerspelstraat,2,,,9461JT,Gieten,Aa en Hunze,Drenthe,VBO,6.766921,53.000438
Kerspelstraat,4,,,9461JT,Gieten,Aa en Hunze,Drenthe,VBO,6.767011,53.000455
Kerspelstraat,6,,,9461JT,Gieten,Aa en Hunze,Drenthe,VBO,6.767101,53.000472
Kerspelstraat,8,,,9461JT,Gieten,Aa en Hunze,Drenthe,VBO,6.767191,53.000489
Kerspelstraat,10,,,9461JT,Gieten,Aa en Hunze,Drenthe,VBO,6.767498,53.000764
Kerspelstraat,12,,,9461JT,Gieten,Aa en Hunze,Drenthe,VBO,6.767602,53.000781
Kerspelstraat,14,,,9461JT,Gieten,Aa en Hunze,Drenthe,VBO,6.767677,53.000798
Kerspelstraat,16,,,9461JT,Gieten,Aa en Hunze,Drenthe,VBO,6.767767,53.000815
Kerspelstraat,18,,,9461JT,Gieten,Aa en Hunze,Drenthe,VBO,6.767828,53.000832
Kerspelstraat,20,,,9461JT,Gieten,Aa en Hunze,Drenthe,VBO,6.767946,53.000813
Kerspelstraat,22,,,9461JT,Gieten,Aa en Hunze,Drenthe,VBO,6.768072,53.001018
Kerspelstraat,24,,,9461JT,Gieten,Aa en Hunze,Drenthe,VBO,6.768141,53.001043
Kerspelstraat,26,a,,9461JT,Gieten,Aa en Hunze,Drenthe,VBO,6.768326,53.001060
Kerspelstraat,26,b,,9461JT,Gieten,Aa en Hunze,Drenthe,VBO,6.768372,53.001087
Kerspelstraat,26,,,9461JT,Gieten,Aa en Hunze,Drenthe,VBO,6.768267,53.001061
Kerspelstraat,28,,,9461JT,Gieten,Aa en Hunze,Drenthe,VBO,6.768944,53.001278
Kerspelstraat,30,,,9461JT,Gieten,Aa en Hunze,Drenthe,VBO,6.769019,53.001286
Kerspelstraat,32,,,9461JT,Gieten,Aa en Hunze,Drenthe,VBO,6.769109,53.001303
Kerspelstraat,34,,,9461JT,Gieten,Aa en Hunze,Drenthe,VBO,6.769184,53.001320
Kerspelstraat,36,,,9461JT,Gieten,Aa en Hunze,Drenthe,VBO,6.769273,53.001328
Kerspelstraat,38,,,9461JT,Gieten,Aa en Hunze,Drenthe,VBO,6.769378,53.001345
Vleerwal,1,,,9461JV,Gieten,Aa en Hunze,Drenthe,VBO,6.767166,53.000157
Vleerwal,2,,,9461JV,Gieten,Aa en Hunze,Drenthe,VBO,6.767308,52.999966
Vleerwal,3,,,9461JV,Gieten,Aa en Hunze,Drenthe,VBO,6.767241,53.000174
Vleerwal,4,,,9461JV,Gieten,Aa en Hunze,Drenthe,VBO,6.767413,52.999983
Vleerwal,5,,,9461JV,Gieten,Aa en Hunze,Drenthe,VBO,6.767345,53.000191
Vleerwal,6,,,9461JV,Gieten,Aa en Hunze,Drenthe,VBO,6.767503,53.000000
Vleerwal,7,,,9461JV,Gieten,Aa en Hunze,Drenthe,VBO,6.767435,53.000208
Vleerwal,8,,,9461JV,Gieten,Aa en Hunze,Drenthe,VBO,6.767608,53.000017
Vleerwal,10,,,9461JV,Gieten,Aa en Hunze,Drenthe,VBO,6.767713,53.000034
Vleerwal,12,,,9461JV,Gieten,Aa en Hunze,Drenthe,VBO,6.767802,53.000033
Elzenwal,1,,,9461JW,Gieten,Aa en Hunze,Drenthe,VBO,6.768244,53.000351
Elzenwal,3,,,9461JW,Gieten,Aa en Hunze,Drenthe,VBO,6.768258,53.000306
Elzenwal,5,,,9461JW,Gieten,Aa en Hunze,Drenthe,VBO,6.768300,53.000243
Elzenwal,7,,,9461JW,Gieten,Aa en Hunze,Drenthe,VBO,6.768359,53.000197
Elzenwal,9,,,9461JW,Gieten,Aa en Hunze,Drenthe,VBO,6.768372,53.000143
Elzenwal,11,,,9461JW,Gieten,Aa en Hunze,Drenthe,VBO,6.768444,53.000079
Elzenwal,13,,,9461JW,Gieten,Aa en Hunze,Drenthe,VBO,6.768544,52.999934
Elzenwal,15,,,9461JW,Gieten,Aa en Hunze,Drenthe,VBO,6.768619,52.999951
Elzenwal,17,,,9461JW,Gieten,Aa en Hunze,Drenthe,VBO,6.768738,52.999959
Elzenwal,19,,,9461JW,Gieten,Aa en Hunze,Drenthe,VBO,6.768813,52.999976
Elzenwal,21,,,9461JW,Gieten,Aa en Hunze,Drenthe,VBO,6.768963,53.000010
Elzenwal,23,,,9461JX,Gieten,Aa en Hunze,Drenthe,VBO,6.769083,53.000027
Elzenwal,25,,,9461JX,Gieten,Aa en Hunze,Drenthe,VBO,6.769158,53.000044
Elzenwal,27,,,9461JX,Gieten,Aa en Hunze,Drenthe,VBO,6.769248,53.000052
Elzenwal,29,,,9461JX,Gieten,Aa en Hunze,Drenthe,VBO,6.769427,53.000068
Elzenwal,31,,,9461JX,Gieten,Aa en Hunze,Drenthe,VBO,6.769532,53.000085
Elzenwal,33,,,9461JX,Gieten,Aa en Hunze,Drenthe,VBO,6.769622,53.000102
Elzenwal,35,,,9461JX,Gieten,Aa en Hunze,Drenthe,VBO,6.769697,53.000119
Elzenwal,37,,,9461JX,Gieten,Aa en Hunze,Drenthe,VBO,6.770568,53.000351
Elzenwal,39,,,9461JX,Gieten,Aa en Hunze,Drenthe,VBO,6.770658,53.000368
Elzenwal,41,,,9461JX,Gieten,Aa en Hunze,Drenthe,VBO,6.770748,53.000376
Elzenwal,43,,,9461JX,Gieten,Aa en Hunze,Drenthe,VBO,6.770853,53.000393
Elzenwal,2,,,9461JZ,Gieten,Aa en Hunze,Drenthe,VBO,6.768065,52.999868
Elzenwal,4,,,9461JZ,Gieten,Aa en Hunze,Drenthe,VBO,6.768108,52.999822
Elzenwal,6,,,9461JZ,Gieten,Aa en Hunze,Drenthe,VBO,6.768181,52.999777
Elzenwal,8,,,9461JZ,Gieten,Aa en Hunze,Drenthe,VBO,6.768240,52.999731
Elzenwal,22,,,9461JZ,Gieten,Aa en Hunze,Drenthe,VBO,6.769420,52.999843
Elzenwal,24,,,9461JZ,Gieten,Aa en Hunze,Drenthe,VBO,6.769510,52.999860
Elzenwal,26,,,9461JZ,Gieten,Aa en Hunze,Drenthe,VBO,6.769600,52.999877
Elzenwal,28,,,9461JZ,Gieten,Aa en Hunze,Drenthe,VBO,6.769675,52.999885
Elzenwal,30,,,9461JZ,Gieten,Aa en Hunze,Drenthe,VBO,6.769854,52.999919
Elzenwal,32,,,9461JZ,Gieten,Aa en Hunze,Drenthe,VBO,6.769944,52.999936
Elzenwal,34,,,9461JZ,Gieten,Aa en Hunze,Drenthe,VBO,6.770034,52.999944
Elzenwal,36,,,9461JZ,Gieten,Aa en Hunze,Drenthe,VBO,6.770109,52.999961
Elzenwal,38,,,9461JZ,Gieten,Aa en Hunze,Drenthe,VBO,6.770289,52.999995
Elzenwal,40,,,9461JZ,Gieten,Aa en Hunze,Drenthe,VBO,6.770378,53.000003
Elzenwal,42,,,9461JZ,Gieten,Aa en Hunze,Drenthe,VBO,6.770468,53.000020
Elzenwal,44,,,9461JZ,Gieten,Aa en Hunze,Drenthe,VBO,6.770543,53.000037
Elzenwal,46,,,9461JZ,Gieten,Aa en Hunze,Drenthe,VBO,6.770723,53.000071
Elzenwal,48,,,9461JZ,Gieten,Aa en Hunze,Drenthe,VBO,6.770813,53.000079
Elzenwal,50,,,9461JZ,Gieten,Aa en Hunze,Drenthe,VBO,6.770888,53.000096
Elzenwal,52,,,9461JZ,Gieten,Aa en Hunze,Drenthe,VBO,6.770978,53.000113
Ekkelwal,1,,,9461KA,Gieten,Aa en Hunze,Drenthe,VBO,6.767683,53.000501
Ekkelwal,3,,,9461KA,Gieten,Aa en Hunze,Drenthe,VBO,6.767758,53.000509
Ekkelwal,5,,,9461KA,Gieten,Aa en Hunze,Drenthe,VBO,6.767848,53.000535
Ekkelwal,7,,,9461KA,Gieten,Aa en Hunze,Drenthe,VBO,6.767953,53.000552
Ekkelwal,9,,,9461KA,Gieten,Aa en Hunze,Drenthe,VBO,6.768043,53.000569
Ekkelwal,11,,,9461KA,Gieten,Aa en Hunze,Drenthe,VBO,6.768147,53.000586
Ekkelwal,13,,,9461KA,Gieten,Aa en Hunze,Drenthe,VBO,6.768297,53.000611
Ekkelwal,15,,,9461KA,Gieten,Aa en Hunze,Drenthe,VBO,6.768387,53.000628
Ekkelwal,17,,,9461KA,Gieten,Aa en Hunze,Drenthe,VBO,6.768492,53.000645
Ekkelwal,19,,,9461KA,Gieten,Aa en Hunze,Drenthe,VBO,6.768567,53.000662
Ekkelwal,21,,,9461KA,Gieten,Aa en Hunze,Drenthe,VBO,6.768939,53.000658
Ekkelwal,23,,,9461KA,Gieten,Aa en Hunze,Drenthe,VBO,6.769029,53.000675
Ekkelwal,25,,,9461KA,Gieten,Aa en Hunze,Drenthe,VBO,6.769119,53.000691
Ekkelwal,27,,,9461KA,Gieten,Aa en Hunze,Drenthe,VBO,6.769194,53.000709
Ekkelwal,29,,,9461KA,Gieten,Aa en Hunze,Drenthe,VBO,6.769299,53.000725
Ekkelwal,31,,,9461KA,Gieten,Aa en Hunze,Drenthe,VBO,6.769404,53.000742
Ekkelwal,2,,,9461KB,Gieten,Aa en Hunze,Drenthe,VBO,6.768706,53.000337
Ekkelwal,4,,,9461KB,Gieten,Aa en Hunze,Drenthe,VBO,6.768812,53.000366
Ekkelwal,6,,,9461KB,Gieten,Aa en Hunze,Drenthe,VBO,6.768921,53.000381
Ekkelwal,10,,,9461KB,Gieten,Aa en Hunze,Drenthe,VBO,6.769020,53.000396
Ekkelwal,12,,,9461KB,Gieten,Aa en Hunze,Drenthe,VBO,6.769140,53.000404
Ekkelwal,14,,,9461KB,Gieten,Aa en Hunze,Drenthe,VBO,6.769335,53.000446
Ekkelwal,16,,,9461KB,Gieten,Aa en Hunze,Drenthe,VBO,6.769440,53.000463
Ekkelwal,18,,,9461KB,Gieten,Aa en Hunze,Drenthe,VBO,6.769544,53.000480
Ekkelwal,20,,,9461KB,Gieten,Aa en Hunze,Drenthe,VBO,6.769615,53.000496
Ekkelwal,22,,,9461KB,Gieten,Aa en Hunze,Drenthe,VBO,6.769739,53.000514
Ekkelwal,24,,,9461KB,Gieten,Aa en Hunze,Drenthe,VBO,6.769799,53.000522
Dobbenwal,1,,,9461KC,Gieten,Aa en Hunze,Drenthe,VBO,6.768763,53.001190
Dobbenwal,2,,,9461KC,Gieten,Aa en Hunze,Drenthe,VBO,6.768468,53.000825
Dobbenwal,3,,,9461KC,Gieten,Aa en Hunze,Drenthe,VBO,6.768746,53.001127
Dobbenwal,4,,,9461KC,Gieten,Aa en Hunze,Drenthe,VBO,6.768454,53.000852
Dobbenwal,5,,,9461KC,Gieten,Aa en Hunze,Drenthe,VBO,6.768773,53.001064
Dobbenwal,6,,,9461KC,Gieten,Aa en Hunze,Drenthe,VBO,6.768440,53.000888
Dobbenwal,7,,,9461KC,Gieten,Aa en Hunze,Drenthe,VBO,6.768802,53.001019
Dobbenwal,8,,,9461KC,Gieten,Aa en Hunze,Drenthe,VBO,6.768426,53.000915
Dobbenwal,9,,,9461KC,Gieten,Aa en Hunze,Drenthe,VBO,6.768815,53.000956
Dobbenwal,10,,,9461KC,Gieten,Aa en Hunze,Drenthe,VBO,6.768412,53.000951
Dobbenwal,11,G,1,9461KC,Gieten,Aa en Hunze,Drenthe,VBO,6.769124,53.000884
Dobbenwal,11,G,10,9461KC,Gieten,Aa en Hunze,Drenthe,VBO,6.769008,53.001131
Dobbenwal,11,G,11,9461KC,Gieten,Aa en Hunze,Drenthe,VBO,6.769219,53.001164
Dobbenwal,11,G,12,9461KC,Gieten,Aa en Hunze,Drenthe,VBO,6.769232,53.001137
Dobbenwal,11,G,13,9461KC,Gieten,Aa en Hunze,Drenthe,VBO,6.769244,53.001111
Dobbenwal,11,G,14,9461KC,Gieten,Aa en Hunze,Drenthe,VBO,6.769256,53.001085
Dobbenwal,11,G,15,9461KC,Gieten,Aa en Hunze,Drenthe,VBO,6.769268,53.001058
Dobbenwal,11,G,16,9461KC,Gieten,Aa en Hunze,Drenthe,VBO,6.769284,53.001020
Dobbenwal,11,G,17,9461KC,Gieten,Aa en Hunze,Drenthe,VBO,6.769297,53.000995
Dobbenwal,11,G,18,9461KC,Gieten,Aa en Hunze,Drenthe,VBO,6.769310,53.000969
Dobbenwal,11,G,19,9461KC,Gieten,Aa en Hunze,Drenthe,VBO,6.769323,53.000944
Dobbenwal,11,G,2,9461KC,Gieten,Aa en Hunze,Drenthe,VBO,6.769112,53.000911
Dobbenwal,11,G,20,9461KC,Gieten,Aa en Hunze,Drenthe,VBO,6.769337,53.000918
Dobbenwal,11,G,3,9461KC,Gieten,Aa en Hunze,Drenthe,VBO,6.769100,53.000937
Dobbenwal,11,G,4,9461KC,Gieten,Aa en Hunze,Drenthe,VBO,6.769087,53.000964
Dobbenwal,11,G,5,9461KC,Gieten,Aa en Hunze,Drenthe,VBO,6.769075,53.000990
Dobbenwal,11,G,6,9461KC,Gieten,Aa en Hunze,Drenthe,VBO,6.769058,53.001025
Dobbenwal,11,G,7,9461KC,Gieten,Aa en Hunze,Drenthe,VBO,6.769046,53.001052
Dobbenwal,11,G,8,9461KC,Gieten,Aa en Hunze,Drenthe,VBO,6.769033,53.001078
Dobbenwal,11,G,9,9461KC,Gieten,Aa en Hunze,Drenthe,VBO,6.769021,53.001104
Dobbenwal,11,,,9461KC,Gieten,Aa en Hunze,Drenthe,VBO,6.768858,53.000901
Dobbenwal,12,,,9461KC,Gieten,Aa en Hunze,Drenthe,VBO,6.768398,53.000978
Dobbenwal,14,,,9461KC,Gieten,Aa en Hunze,Drenthe,VBO,6.768384,53.001006
Markescheiding,1,,,9461KD,Gieten,Aa en Hunze,Drenthe,VBO,6.768264,53.003775
Markescheiding,2,,,9461KD,Gieten,Aa en Hunze,Drenthe,VBO,6.768307,53.003739
Markescheiding,3,,,9461KD,Gieten,Aa en Hunze,Drenthe,VBO,6.768350,53.003675
Markescheiding,4,,,9461KD,Gieten,Aa en Hunze,Drenthe,VBO,6.768363,53.003630
Markescheiding,5,,,9461KD,Gieten,Aa en Hunze,Drenthe,VBO,6.768391,53.003576
Markescheiding,6,,,9461KD,Gieten,Aa en Hunze,Drenthe,VBO,6.768401,53.003423
Markescheiding,7,,,9461KD,Gieten,Aa en Hunze,Drenthe,VBO,6.768415,53.003387
Markescheiding,8,,,9461KD,Gieten,Aa en Hunze,Drenthe,VBO,6.768457,53.003305
Markescheiding,9,,,9461KD,Gieten,Aa en Hunze,Drenthe,VBO,6.768471,53.003269
Markescheiding,10,,,9461KD,Gieten,Aa en Hunze,Drenthe,VBO,6.768514,53.003206
Markescheiding,11,,,9461KD,Gieten,Aa en Hunze,Drenthe,VBO,6.768542,53.003152
Markescheiding,12,,,9461KD,Gieten,Aa en Hunze,Drenthe,VBO,6.768492,53.002991
Markescheiding,13,,,9461KD,Gieten,Aa en Hunze,Drenthe,VBO,6.768520,53.002936
Markescheiding,14,,,9461KD,Gieten,Aa en Hunze,Drenthe,VBO,6.768548,53.002882
Markescheiding,15,,,9461KD,Gieten,Aa en Hunze,Drenthe,VBO,6.768576,53.002837
Markescheiding,16,,,9461KD,Gieten,Aa en Hunze,Drenthe,VBO,6.768604,53.002774
Markescheiding,17,,,9461KD,Gieten,Aa en Hunze,Drenthe,VBO,6.768633,53.002728
Markescheiding,19,,,9461KE,Gieten,Aa en Hunze,Drenthe,VBO,6.769991,53.001409
Markescheiding,21,,,9461KE,Gieten,Aa en Hunze,Drenthe,VBO,6.770019,53.001364
Markescheiding,23,,,9461KE,Gieten,Aa en Hunze,Drenthe,VBO,6.770033,53.001310
Markescheiding,25,,,9461KE,Gieten,Aa en Hunze,Drenthe,VBO,6.770076,53.001256
Markescheiding,27,,,9461KE,Gieten,Aa en Hunze,Drenthe,VBO,6.770103,53.001183
Markescheiding,29,,,9461KE,Gieten,Aa en Hunze,Drenthe,VBO,6.769980,53.001050
Markescheiding,31,,,9461KE,Gieten,Aa en Hunze,Drenthe,VBO,6.770023,53.001005
Markescheiding,33,,,9461KE,Gieten,Aa en Hunze,Drenthe,VBO,6.770036,53.000951
Markescheiding,35,,,9461KE,Gieten,Aa en Hunze,Drenthe,VBO,6.770242,53.000876
Markescheiding,37,,,9461KE,Gieten,Aa en Hunze,Drenthe,VBO,6.770300,53.000822
Markescheiding,39,,,9461KE,Gieten,Aa en Hunze,Drenthe,VBO,6.770313,53.000768
Markescheiding,41,,,9461KE,Gieten,Aa en Hunze,Drenthe,VBO,6.770218,53.000580
Markescheiding,43,,,9461KE,Gieten,Aa en Hunze,Drenthe,VBO,6.770231,53.000517
Markescheiding,45,,,9461KE,Gieten,Aa en Hunze,Drenthe,VBO,6.770259,53.000463
Markescheiding,47,,,9461KE,Gieten,Aa en Hunze,Drenthe,VBO,6.770287,53.000408
Markescheiding,49,,,9461KE,Gieten,Aa en Hunze,Drenthe,VBO,6.770301,53.000363
Markescheiding,20,,,9461KG,Gieten,Aa en Hunze,Drenthe,VBO,6.768489,53.002424
Markescheiding,22,,,9461KG,Gieten,Aa en Hunze,Drenthe,VBO,6.768517,53.002361
Markescheiding,24,,,9461KG,Gieten,Aa en Hunze,Drenthe,VBO,6.768767,53.002268
Markescheiding,26,,,9461KG,Gieten,Aa en Hunze,Drenthe,VBO,6.768795,53.002205
Markescheiding,28,,,9461KG,Gieten,Aa en Hunze,Drenthe,VBO,6.769083,53.001914
Markescheiding,30,,,9461KG,Gieten,Aa en Hunze,Drenthe,VBO,6.769172,53.001877
Markescheiding,32,,,9461KG,Gieten,Aa en Hunze,Drenthe,VBO,6.769200,53.001832
Markescheiding,34,,,9461KG,Gieten,Aa en Hunze,Drenthe,VBO,6.769228,53.001778
Markescheiding,36,,,9461KG,Gieten,Aa en Hunze,Drenthe,VBO,6.769256,53.001723
Markescheiding,38,,,9461KH,Gieten,Aa en Hunze,Drenthe,VBO,6.769507,53.001190
Markescheiding,40,,,9461KH,Gieten,Aa en Hunze,Drenthe,VBO,6.769536,53.001136
Markescheiding,42,,,9461KH,Gieten,Aa en Hunze,Drenthe,VBO,6.769504,53.001073
Markescheiding,44,,,9461KH,Gieten,Aa en Hunze,Drenthe,VBO,6.769591,53.001019
Markescheiding,46,,,9461KH,Gieten,Aa en Hunze,Drenthe,VBO,6.769633,53.000928
Markescheiding,48,,,9461KH,Gieten,Aa en Hunze,Drenthe,VBO,6.769661,53.000874
Markescheiding,50,,,9461KH,Gieten,Aa en Hunze,Drenthe,VBO,6.769689,53.000820
Markescheiding,52,,,9461KH,Gieten,Aa en Hunze,Drenthe,VBO,6.769627,53.000740
Markescheiding,54,,,9461KH,Gieten,Aa en Hunze,Drenthe,VBO,6.769913,53.000359
Markescheiding,56,,,9461KH,Gieten,Aa en Hunze,Drenthe,VBO,6.769926,53.000305
Markescheiding,58,,,9461KH,Gieten,Aa en Hunze,Drenthe,VBO,6.769954,53.000241
Markescheiding,60,,,9461KH,Gieten,Aa en Hunze,Drenthe,VBO,6.769982,53.000196
Wegedoorn,1,,,9461KJ,Gieten,Aa en Hunze,Drenthe,VBO,6.769279,53.002442
Wegedoorn,2,,,9461KJ,Gieten,Aa en Hunze,Drenthe,VBO,6.769433,53.002126
Wegedoorn,3,,,9461KJ,Gieten,Aa en Hunze,Drenthe,VBO,6.769384,53.002450
Wegedoorn,4,,,9461KJ,Gieten,Aa en Hunze,Drenthe,VBO,6.769523,53.002143
Wegedoorn,5,,,9461KJ,Gieten,Aa en Hunze,Drenthe,VBO,6.769474,53.002467
Wegedoorn,6,,,9461KJ,Gieten,Aa en Hunze,Drenthe,VBO,6.769643,53.002159
Wegedoorn,7,,,9461KJ,Gieten,Aa en Hunze,Drenthe,VBO,6.769579,53.002493
Wegedoorn,8,,,9461KJ,Gieten,Aa en Hunze,Drenthe,VBO,6.769718,53.002176
Wegedoorn,9,,,9461KJ,Gieten,Aa en Hunze,Drenthe,VBO,6.769743,53.002518
Wegedoorn,10,,,9461KJ,Gieten,Aa en Hunze,Drenthe,VBO,6.769882,53.002202
Wegedoorn,11,,,9461KJ,Gieten,Aa en Hunze,Drenthe,VBO,6.769848,53.002525
Wegedoorn,12,,,9461KJ,Gieten,Aa en Hunze,Drenthe,VBO,6.769987,53.002227
Wegedoorn,13,,,9461KJ,Gieten,Aa en Hunze,Drenthe,VBO,6.769938,53.002542
Wegedoorn,14,,,9461KJ,Gieten,Aa en Hunze,Drenthe,VBO,6.770077,53.002235
Wegedoorn,15,,,9461KJ,Gieten,Aa en Hunze,Drenthe,VBO,6.770028,53.002559
Wegedoorn,16,,,9461KJ,Gieten,Aa en Hunze,Drenthe,VBO,6.770167,53.002252
Wegedoorn,17,,,9461KJ,Gieten,Aa en Hunze,Drenthe,VBO,6.770118,53.002576
Sleedoorn,1,,,9461KK,Gieten,Aa en Hunze,Drenthe,VBO,6.769991,53.002820
Sleedoorn,3,,,9461KK,Gieten,Aa en Hunze,Drenthe,VBO,6.769872,53.002813
Sleedoorn,5,,,9461KK,Gieten,Aa en Hunze,Drenthe,VBO,6.769782,53.002805
Sleedoorn,7,,,9461KK,Gieten,Aa en Hunze,Drenthe,VBO,6.769707,53.002797
Sleedoorn,9,,,9461KK,Gieten,Aa en Hunze,Drenthe,VBO,6.769617,53.002762
Sleedoorn,11,,,9461KK,Gieten,Aa en Hunze,Drenthe,VBO,6.769422,53.002728
Sleedoorn,13,,,9461KK,Gieten,Aa en Hunze,Drenthe,VBO,6.769347,53.002720
Sleedoorn,15,,,9461KK,Gieten,Aa en Hunze,Drenthe,VBO,6.769258,53.002703
Sleedoorn,17,,,9461KK,Gieten,Aa en Hunze,Drenthe,VBO,6.769123,53.002687
Sleedoorn,2,,,9461KL,Gieten,Aa en Hunze,Drenthe,VBO,6.769747,53.003093
Sleedoorn,4,,,9461KL,Gieten,Aa en Hunze,Drenthe,VBO,6.769657,53.003076
Sleedoorn,6,,,9461KL,Gieten,Aa en Hunze,Drenthe,VBO,6.769567,53.003059
Sleedoorn,8,,,9461KL,Gieten,Aa en Hunze,Drenthe,VBO,6.769447,53.003033
Sleedoorn,10,,,9461KL,Gieten,Aa en Hunze,Drenthe,VBO,6.769342,53.003008
Sleedoorn,12,G,1,9461KL,Gieten,Aa en Hunze,Drenthe,VBO,6.769010,53.002888
Sleedoorn,12,G,2,9461KL,Gieten,Aa en Hunze,Drenthe,VBO,6.768997,53.002914
Sleedoorn,12,G,3,9461KL,Gieten,Aa en Hunze,Drenthe,VBO,6.768984,53.002940
Sleedoorn,12,G,4,9461KL,Gieten,Aa en Hunze,Drenthe,VBO,6.768971,53.002966
Sleedoorn,12,G,5,9461KL,Gieten,Aa en Hunze,Drenthe,VBO,6.768959,53.002992
Sleedoorn,12,,,9461KL,Gieten,Aa en Hunze,Drenthe,VBO,6.769252,53.002991
de Weegbree,1,,,9461KM,Gieten,Aa en Hunze,Drenthe,VBO,6.770687,53.003621
de Weegbree,3,,,9461KM,Gieten,Aa en Hunze,Drenthe,VBO,6.770785,53.003404
de Weegbree,5,,,9461KM,Gieten,Aa en Hunze,Drenthe,VBO,6.770848,53.003053
de Weegbree,7,,,9461KM,Gieten,Aa en Hunze,Drenthe,VBO,6.770876,53.002990
de Weegbree,9,,,9461KM,Gieten,Aa en Hunze,Drenthe,VBO,6.770889,53.002945
de Weegbree,11,,,9461KM,Gieten,Aa en Hunze,Drenthe,VBO,6.770917,53.002882
de Weegbree,13,,,9461KM,Gieten,Aa en Hunze,Drenthe,VBO,6.771017,53.002755
de Weegbree,15,,,9461KM,Gieten,Aa en Hunze,Drenthe,VBO,6.771030,53.002701
de Weegbree,17,,,9461KM,Gieten,Aa en Hunze,Drenthe,VBO,6.771073,53.002637
de Weegbree,21,,,9461KM,Gieten,Aa en Hunze,Drenthe,VBO,6.771178,53.001710
de Weegbree,23,,,9461KM,Gieten,Aa en Hunze,Drenthe,VBO,6.770898,53.001345
de Weegbree,25,,,9461KM,Gieten,Aa en Hunze,Drenthe,VBO,6.770926,53.001300
de Weegbree,27,,,9461KM,Gieten,Aa en Hunze,Drenthe,VBO,6.770955,53.001254
de Weegbree,29,,,9461KM,Gieten,Aa en Hunze,Drenthe,VBO,6.770983,53.001200
de Weegbree,31,,,9461KM,Gieten,Aa en Hunze,Drenthe,VBO,6.771053,53.001065
de Weegbree,33,,,9461KN,Gieten,Aa en Hunze,Drenthe,VBO,6.771066,53.001019
de Weegbree,35,,,9461KN,Gieten,Aa en Hunze,Drenthe,VBO,6.771094,53.000947
de Weegbree,37,,,9461KN,Gieten,Aa en Hunze,Drenthe,VBO,6.771122,53.000893
de Weegbree,39,,,9461KN,Gieten,Aa en Hunze,Drenthe,VBO,6.771363,53.000504
de Weegbree,41,,,9461KN,Gieten,Aa en Hunze,Drenthe,VBO,6.771361,53.000450
de Weegbree,43,,,9461KN,Gieten,Aa en Hunze,Drenthe,VBO,6.771374,53.000405
de Weegbree,45,,,9461KN,Gieten,Aa en Hunze,Drenthe,VBO,6.771388,53.000360
de Weegbree,47,,,9461KN,Gieten,Aa en Hunze,Drenthe,VBO,6.771431,53.000305
de Weegbree,49,,,9461KN,Gieten,Aa en Hunze,Drenthe,VBO,6.771459,53.000242
de Weegbree,51,,,9461KN,Gieten,Aa en Hunze,Drenthe,VBO,6.771500,53.000143
de Weegbree,53,,,9461KN,Gieten,Aa en Hunze,Drenthe,VBO,6.771528,53.000079
de Weegbree,55,,,9461KN,Gieten,Aa en Hunze,Drenthe,VBO,6.771556,53.000025
de Weegbree,57,,,9461KN,Gieten,Aa en Hunze,Drenthe,VBO,6.771584,52.999980
de Weegbree,59,,,9461KN,Gieten,Aa en Hunze,Drenthe,VBO,6.771583,52.999926
de Weegbree,61,,,9461KN,Gieten,Aa en Hunze,Drenthe,VBO,6.771744,52.999861
de Weegbree,63,,,9461KN,Gieten,Aa en Hunze,Drenthe,VBO,6.771772,52.999798
de Weegbree,65,,,9461KN,Gieten,Aa en Hunze,Drenthe,VBO,6.772795,52.999175
de Weegbree,67,,,9461KN,Gieten,Aa en Hunze,Drenthe,VBO,6.772853,52.999129
de Weegbree,79,,,9461KN,Gieten,Aa en Hunze,Drenthe,VBO,6.773138,52.999180
de Weegbree,81,,,9461KN,Gieten,Aa en Hunze,Drenthe,VBO,6.773228,52.999188
de Weegbree,83,,,9461KN,Gieten,Aa en Hunze,Drenthe,VBO,6.773407,52.999213
de Weegbree,85,,,9461KN,Gieten,Aa en Hunze,Drenthe,VBO,6.773497,52.999230
de Weegbree,87,,,9461KN,Gieten,Aa en Hunze,Drenthe,VBO,6.773558,52.999256
de Weegbree,2,,,9461KP,Gieten,Aa en Hunze,Drenthe,VBO,6.769917,53.003756
de Weegbree,4,,,9461KP,Gieten,Aa en Hunze,Drenthe,VBO,6.769930,53.003702
de Weegbree,6,,,9461KP,Gieten,Aa en Hunze,Drenthe,VBO,6.770003,53.003656
de Weegbree,8,,,9461KP,Gieten,Aa en Hunze,Drenthe,VBO,6.770016,53.003602
de Weegbree,10,,,9461KP,Gieten,Aa en Hunze,Drenthe,VBO,6.770014,53.003530
de Weegbree,12,,,9461KP,Gieten,Aa en Hunze,Drenthe,VBO,6.770056,53.003458
de Weegbree,14,,,9461KP,Gieten,Aa en Hunze,Drenthe,VBO,6.770084,53.003403
de Weegbree,16,,,9461KP,Gieten,Aa en Hunze,Drenthe,VBO,6.770097,53.003340
de Weegbree,18,,,9461KP,Gieten,Aa en Hunze,Drenthe,VBO,6.770125,53.003286
de Weegbree,20,,,9461KP,Gieten,Aa en Hunze,Drenthe,VBO,6.770079,53.003224
de Weegbree,22,,,9461KP,Gieten,Aa en Hunze,Drenthe,VBO,6.770092,53.003179
de Weegbree,24,,,9461KP,Gieten,Aa en Hunze,Drenthe,VBO,6.770246,53.002880
de Weegbree,26,,,9461KR,Gieten,Aa en Hunze,Drenthe,VBO,6.770319,53.002835
de Weegbree,28,,,9461KR,Gieten,Aa en Hunze,Drenthe,VBO,6.770348,53.002780
de Weegbree,30,,,9461KR,Gieten,Aa en Hunze,Drenthe,VBO,6.770376,53.002735
de Weegbree,32,,,9461KR,Gieten,Aa en Hunze,Drenthe,VBO,6.770434,53.002680
de Weegbree,34,,,9461KR,Gieten,Aa en Hunze,Drenthe,VBO,6.770447,53.002635
de Weegbree,36,,,9461KR,Gieten,Aa en Hunze,Drenthe,VBO,6.770437,53.002312
de Weegbree,38,,,9461KR,Gieten,Aa en Hunze,Drenthe,VBO,6.770480,53.002249
de Weegbree,40,,,9461KR,Gieten,Aa en Hunze,Drenthe,VBO,6.770326,53.002098
de Weegbree,42,,,9461KR,Gieten,Aa en Hunze,Drenthe,VBO,6.770368,53.002025
de Weegbree,44,,,9461KR,Gieten,Aa en Hunze,Drenthe,VBO,6.770215,53.001901
de Weegbree,46,,,9461KR,Gieten,Aa en Hunze,Drenthe,VBO,6.770243,53.001829
de Weegbree,48,,,9461KR,Gieten,Aa en Hunze,Drenthe,VBO,6.770685,53.000727
de Weegbree,50,,,9461KR,Gieten,Aa en Hunze,Drenthe,VBO,6.770712,53.000664
de Weegbree,52,,,9461KR,Gieten,Aa en Hunze,Drenthe,VBO,6.770726,53.000619
de Weegbree,54,,,9461KR,Gieten,Aa en Hunze,Drenthe,VBO,6.770754,53.000565
de Weegbree,56,,,9461KR,Gieten,Aa en Hunze,Drenthe,VBO,6.771136,52.999922
de Weegbree,58,,,9461KR,Gieten,Aa en Hunze,Drenthe,VBO,6.771163,52.999850
de Weegbree,60,,,9461KR,Gieten,Aa en Hunze,Drenthe,VBO,6.771192,52.999805
de Weegbree,62,,,9461KR,Gieten,Aa en Hunze,Drenthe,VBO,6.771469,52.999622
de Weegbree,64,,,9461KR,Gieten,Aa en Hunze,Drenthe,VBO,6.771527,52.999585
de Weegbree,66,,,9461KR,Gieten,Aa en Hunze,Drenthe,VBO,6.771571,52.999549
de Weegbree,68,,,9461KR,Gieten,Aa en Hunze,Drenthe,VBO,6.771614,52.999512
de Weegbree,70,,,9461KR,Gieten,Aa en Hunze,Drenthe,VBO,6.771673,52.999476
de Weegbree,72,,,9461KR,Gieten,Aa en Hunze,Drenthe,VBO,6.771893,52.999383
de Weegbree,74,,,9461KR,Gieten,Aa en Hunze,Drenthe,VBO,6.771922,52.999338
de Weegbree,76,,,9461KR,Gieten,Aa en Hunze,Drenthe,VBO,6.771994,52.999283
de Weegbree,78,,,9461KR,Gieten,Aa en Hunze,Drenthe,VBO,6.772023,52.999238
de Weegbree,80,,,9461KR,Gieten,Aa en Hunze,Drenthe,VBO,6.772299,52.999028
de Weegbree,82,,,9461KR,Gieten,Aa en Hunze,Drenthe,VBO,6.772312,52.998974
de Weegbree,84,,,9461KR,Gieten,Aa en Hunze,Drenthe,VBO,6.772414,52.998883
de Weegbree,86,,,9461KR,Gieten,Aa en Hunze,Drenthe,VBO,6.772442,52.998838
Liesterkrallen,1,,,9461KS,Gieten,Aa en Hunze,Drenthe,VBO,6.771507,53.002695
Liesterkrallen,2,,,9461KS,Gieten,Aa en Hunze,Drenthe,VBO,6.771315,53.002275
Liesterkrallen,3,,,9461KS,Gieten,Aa en Hunze,Drenthe,VBO,6.771642,53.002711
Liesterkrallen,4,,,9461KS,Gieten,Aa en Hunze,Drenthe,VBO,6.771420,53.002292
Liesterkrallen,5,,,9461KS,Gieten,Aa en Hunze,Drenthe,VBO,6.772016,53.002770
Liesterkrallen,6,,,9461KS,Gieten,Aa en Hunze,Drenthe,VBO,6.771525,53.002317
Liesterkrallen,7,,,9461KS,Gieten,Aa en Hunze,Drenthe,VBO,6.772121,53.002787
Liesterkrallen,8,,,9461KS,Gieten,Aa en Hunze,Drenthe,VBO,6.771614,53.002325
Liesterkrallen,9,,,9461KS,Gieten,Aa en Hunze,Drenthe,VBO,6.772240,53.002803
Liesterkrallen,10,,,9461KS,Gieten,Aa en Hunze,Drenthe,VBO,6.771810,53.002386
Liesterkrallen,11,,,9461KS,Gieten,Aa en Hunze,Drenthe,VBO,6.772724,53.002555
Liesterkrallen,12,,,9461KS,Gieten,Aa en Hunze,Drenthe,VBO,6.771900,53.002403
Liesterkrallen,13,,,9461KS,Gieten,Aa en Hunze,Drenthe,VBO,6.772752,53.002492
Liesterkrallen,14,,,9461KS,Gieten,Aa en Hunze,Drenthe,VBO,6.772004,53.002411
Liesterkrallen,15,,,9461KS,Gieten,Aa en Hunze,Drenthe,VBO,6.772853,53.002401
Liesterkrallen,16,,,9461KS,Gieten,Aa en Hunze,Drenthe,VBO,6.772110,53.002436
Liesterkrallen,17,,,9461KS,Gieten,Aa en Hunze,Drenthe,VBO,6.772881,53.002329
Liesterkrallen,18,,,9461KS,Gieten,Aa en Hunze,Drenthe,VBO,6.772268,53.002264
Liesterkrallen,19,,,9461KS,Gieten,Aa en Hunze,Drenthe,VBO,6.772982,53.002238
Liesterkrallen,20,,,9461KS,Gieten,Aa en Hunze,Drenthe,VBO,6.772296,53.002210
Liesterkrallen,21,,,9461KS,Gieten,Aa en Hunze,Drenthe,VBO,6.773010,53.002165
Liesterkrallen,22,,,9461KS,Gieten,Aa en Hunze,Drenthe,VBO,6.772309,53.002146
Liesterkrallen,23,,,9461KS,Gieten,Aa en Hunze,Drenthe,VBO,6.772970,53.001860
Liesterkrallen,24,,,9461KS,Gieten,Aa en Hunze,Drenthe,VBO,6.772337,53.002092
Liesterkrallen,25,,,9461KS,Gieten,Aa en Hunze,Drenthe,VBO,6.773075,53.001886
Liesterkrallen,26,,,9461KS,Gieten,Aa en Hunze,Drenthe,VBO,6.772273,53.001949
Liesterkrallen,27,,,9461KS,Gieten,Aa en Hunze,Drenthe,VBO,6.773150,53.001894
Liesterkrallen,28,,,9461KS,Gieten,Aa en Hunze,Drenthe,VBO,6.772316,53.001904
Liesterkrallen,29,,,9461KS,Gieten,Aa en Hunze,Drenthe,VBO,6.772994,53.001662
Liesterkrallen,31,,,9461KS,Gieten,Aa en Hunze,Drenthe,VBO,6.773022,53.001608
Liesterkrallen,33,a,,9461KS,Gieten,Aa en Hunze,Drenthe,VBO,6.773105,53.001409
Liesterkrallen,33,,,9461KS,Gieten,Aa en Hunze,Drenthe,VBO,6.773049,53.001545
Liesterkrallen,35,,,9461KS,Gieten,Aa en Hunze,Drenthe,VBO,6.772759,53.001305
Liesterkrallen,37,,,9461KS,Gieten,Aa en Hunze,Drenthe,VBO,6.772639,53.001289
Liesterkrallen,39,,,9461KS,Gieten,Aa en Hunze,Drenthe,VBO,6.772504,53.001263
Liesterkrallen,41,,,9461KS,Gieten,Aa en Hunze,Drenthe,VBO,6.772370,53.001247
Liesterkrallen,43,,,9461KS,Gieten,Aa en Hunze,Drenthe,VBO,6.772220,53.001213
Liesterkrallen,45,,,9461KS,Gieten,Aa en Hunze,Drenthe,VBO,6.772084,53.001160
Liesterkrallen,30,,,9461KT,Gieten,Aa en Hunze,Drenthe,VBO,6.772358,53.001831
Liesterkrallen,32,,,9461KT,Gieten,Aa en Hunze,Drenthe,VBO,6.772357,53.001777
Liesterkrallen,34,,,9461KT,Gieten,Aa en Hunze,Drenthe,VBO,6.772501,53.001623
Liesterkrallen,36,,,9461KT,Gieten,Aa en Hunze,Drenthe,VBO,6.772410,53.001579
Liesterkrallen,38,,,9461KT,Gieten,Aa en Hunze,Drenthe,VBO,6.772305,53.001562
Liesterkrallen,40,,,9461KT,Gieten,Aa en Hunze,Drenthe,VBO,6.772215,53.001536
Liesterkrallen,42,,,9461KT,Gieten,Aa en Hunze,Drenthe,VBO,6.772006,53.001530
Liesterkrallen,44,,,9461KT,Gieten,Aa en Hunze,Drenthe,VBO,6.771901,53.001513
Liesterkrallen,46,,,9461KT,Gieten,Aa en Hunze,Drenthe,VBO,6.771811,53.001496
Liesterkrallen,48,,,9461KT,Gieten,Aa en Hunze,Drenthe,VBO,6.771706,53.001470
Liesterkrallen,50,,,9461KT,Gieten,Aa en Hunze,Drenthe,VBO,6.771678,53.001057
Liesterkrallen,52,,,9461KT,Gieten,Aa en Hunze,Drenthe,VBO,6.771721,53.000994
Liesterkrallen,54,,,9461KT,Gieten,Aa en Hunze,Drenthe,VBO,6.771749,53.000940
Liesterkrallen,56,,,9461KT,Gieten,Aa en Hunze,Drenthe,VBO,6.771762,53.000886
Dambeern,1,,,9461KV,Gieten,Aa en Hunze,Drenthe,VBO,6.771237,53.000757
Dambeern,2,,,9461KV,Gieten,Aa en Hunze,Drenthe,VBO,6.772350,53.000618
Dambeern,3,,,9461KV,Gieten,Aa en Hunze,Drenthe,VBO,6.771327,53.000774
Dambeern,4,,,9461KV,Gieten,Aa en Hunze,Drenthe,VBO,6.772439,53.000626
Dambeern,5,,,9461KV,Gieten,Aa en Hunze,Drenthe,VBO,6.771416,53.000782
Dambeern,6,,,9461KV,Gieten,Aa en Hunze,Drenthe,VBO,6.772529,53.000652
Dambeern,7,,,9461KV,Gieten,Aa en Hunze,Drenthe,VBO,6.771506,53.000799
Dambeern,8,,,9461KV,Gieten,Aa en Hunze,Drenthe,VBO,6.772634,53.000669
Dambeern,9,,,9461KV,Gieten,Aa en Hunze,Drenthe,VBO,6.772210,53.000925
Dambeern,10,,,9461KV,Gieten,Aa en Hunze,Drenthe,VBO,6.772889,53.000711
Dambeern,11,,,9461KV,Gieten,Aa en Hunze,Drenthe,VBO,6.772315,53.000951
Dambeern,12,,,9461KV,Gieten,Aa en Hunze,Drenthe,VBO,6.772994,53.000728
Dambeern,13,,,9461KV,Gieten,Aa en Hunze,Drenthe,VBO,6.772405,53.000968
Dambeern,14,,,9461KV,Gieten,Aa en Hunze,Drenthe,VBO,6.773098,53.000744
Dambeern,15,,,9461KV,Gieten,Aa en Hunze,Drenthe,VBO,6.772495,53.000976
Dambeern,16,,,9461KV,Gieten,Aa en Hunze,Drenthe,VBO,6.773174,53.000761
Dambeern,17,,,9461KV,Gieten,Aa en Hunze,Drenthe,VBO,6.772659,53.000974
Dambeern,19,,,9461KV,Gieten,Aa en Hunze,Drenthe,VBO,6.772779,53.000991
Dambeern,21,,,9461KV,Gieten,Aa en Hunze,Drenthe,VBO,6.772854,53.001008
Dambeern,23,,,9461KV,Gieten,Aa en Hunze,Drenthe,VBO,6.772958,53.001025
Dambeern,25,,,9461KV,Gieten,Aa en Hunze,Drenthe,VBO,6.773140,53.001121
Dambeern,27,,,9461KV,Gieten,Aa en Hunze,Drenthe,VBO,6.773230,53.001147
Dambeern,29,,,9461KV,Gieten,Aa en Hunze,Drenthe,VBO,6.773335,53.001155
Dambeern,31,,,9461KV,Gieten,Aa en Hunze,Drenthe,VBO,6.773440,53.001181
Iebeern,1,,,9461KW,Gieten,Aa en Hunze,Drenthe,VBO,6.772474,53.000302
Iebeern,2,,,9461KW,Gieten,Aa en Hunze,Drenthe,VBO,6.771842,53.000588
Iebeern,3,,,9461KW,Gieten,Aa en Hunze,Drenthe,VBO,6.772564,53.000328
Iebeern,4,,,9461KW,Gieten,Aa en Hunze,Drenthe,VBO,6.771930,53.000542
Iebeern,5,,,9461KW,Gieten,Aa en Hunze,Drenthe,VBO,6.772654,53.000345
Iebeern,6,,,9461KW,Gieten,Aa en Hunze,Drenthe,VBO,6.771958,53.000488
Iebeern,7,,,9461KW,Gieten,Aa en Hunze,Drenthe,VBO,6.772743,53.000353
Iebeern,8,,,9461KW,Gieten,Aa en Hunze,Drenthe,VBO,6.771986,53.000434
Iebeern,9,,,9461KW,Gieten,Aa en Hunze,Drenthe,VBO,6.772833,53.000370
Iebeern,10,,,9461KW,Gieten,Aa en Hunze,Drenthe,VBO,6.771984,53.000371
Iebeern,11,,,9461KW,Gieten,Aa en Hunze,Drenthe,VBO,6.772893,53.000378
Iebeern,12,,,9461KW,Gieten,Aa en Hunze,Drenthe,VBO,6.772055,53.000271
Iebeern,13,,,9461KW,Gieten,Aa en Hunze,Drenthe,VBO,6.773221,53.000383
Iebeern,14,,,9461KW,Gieten,Aa en Hunze,Drenthe,VBO,6.772084,53.000217
Iebeern,15,,,9461KW,Gieten,Aa en Hunze,Drenthe,VBO,6.773249,53.000329
Iebeern,16,,,9461KW,Gieten,Aa en Hunze,Drenthe,VBO,6.772112,53.000163
Iebeern,17,,,9461KW,Gieten,Aa en Hunze,Drenthe,VBO,6.773292,53.000275
Iebeern,18,,,9461KW,Gieten,Aa en Hunze,Drenthe,VBO,6.772140,53.000108
Iebeern,19,,,9461KW,Gieten,Aa en Hunze,Drenthe,VBO,6.773275,53.000221
Iebeern,20,,,9461KW,Gieten,Aa en Hunze,Drenthe,VBO,6.772168,53.000054
Iebeern,22,,,9461KW,Gieten,Aa en Hunze,Drenthe,VBO,6.772436,53.000042
Iebeern,24,,,9461KW,Gieten,Aa en Hunze,Drenthe,VBO,6.772526,53.000068
Iebeern,26,,,9461KW,Gieten,Aa en Hunze,Drenthe,VBO,6.772615,53.000076
Iebeern,28,,,9461KW,Gieten,Aa en Hunze,Drenthe,VBO,6.772705,53.000093
Leiloof,2,,,9461KZ,Gieten,Aa en Hunze,Drenthe,VBO,6.771402,53.003146
Leiloof,4,,,9461KZ,Gieten,Aa en Hunze,Drenthe,VBO,6.771460,53.003082
Leiloof,6,,,9461KZ,Gieten,Aa en Hunze,Drenthe,VBO,6.771501,53.002992
Leiloof,8,,,9461KZ,Gieten,Aa en Hunze,Drenthe,VBO,6.771514,53.002911
Kruizemunt,1,,,9461LA,Gieten,Aa en Hunze,Drenthe,VBO,6.773250,52.999880
Kruizemunt,3,,,9461LA,Gieten,Aa en Hunze,Drenthe,VBO,6.773308,52.999825
Kruizemunt,5,,,9461LA,Gieten,Aa en Hunze,Drenthe,VBO,6.773321,52.999771
Kruizemunt,7,,,9461LA,Gieten,Aa en Hunze,Drenthe,VBO,6.773334,52.999726
Kruizemunt,9,,,9461LA,Gieten,Aa en Hunze,Drenthe,VBO,6.773332,52.999663
Kruizemunt,11,,,9461LA,Gieten,Aa en Hunze,Drenthe,VBO,6.773315,52.999600
Kruizemunt,13,,,9461LA,Gieten,Aa en Hunze,Drenthe,VBO,6.773090,52.999531
Kruizemunt,15,,,9461LA,Gieten,Aa en Hunze,Drenthe,VBO,6.773014,52.999505
Kruizemunt,17,,,9461LA,Gieten,Aa en Hunze,Drenthe,VBO,6.772954,52.999479
Kruizemunt,19,,,9461LA,Gieten,Aa en Hunze,Drenthe,VBO,6.772864,52.999462
Kruizemunt,21,,,9461LA,Gieten,Aa en Hunze,Drenthe,VBO,6.772759,52.999445
Kruizemunt,23,,,9461LA,Gieten,Aa en Hunze,Drenthe,VBO,6.772534,52.999403
Kruizemunt,25,,,9461LA,Gieten,Aa en Hunze,Drenthe,VBO,6.772444,52.999359
Kruizemunt,2,,,9461LB,Gieten,Aa en Hunze,Drenthe,VBO,6.772859,52.999776
Kruizemunt,4,,,9461LB,Gieten,Aa en Hunze,Drenthe,VBO,6.772754,52.999760
Kruizemunt,6,,,9461LB,Gieten,Aa en Hunze,Drenthe,VBO,6.772650,52.999752
Kruizemunt,8,,,9461LB,Gieten,Aa en Hunze,Drenthe,VBO,6.772560,52.999735
Kruizemunt,10,,,9461LB,Gieten,Aa en Hunze,Drenthe,VBO,6.772395,52.999692
Kruizemunt,12,,,9461LB,Gieten,Aa en Hunze,Drenthe,VBO,6.772290,52.999675
Kruizemunt,14,,,9461LB,Gieten,Aa en Hunze,Drenthe,VBO,6.772200,52.999658
Kruizemunt,16,,,9461LB,Gieten,Aa en Hunze,Drenthe,VBO,6.772095,52.999641
Wilgenroos,2,,,9461LC,Gieten,Aa en Hunze,Drenthe,VBO,6.770757,52.999729
Wilgenroos,4,,,9461LC,Gieten,Aa en Hunze,Drenthe,VBO,6.770682,52.999721
Wilgenroos,6,,,9461LC,Gieten,Aa en Hunze,Drenthe,VBO,6.770592,52.999704
Wilgenroos,8,,,9461LC,Gieten,Aa en Hunze,Drenthe,VBO,6.770517,52.999687
Wilgenroos,10,,,9461LC,Gieten,Aa en Hunze,Drenthe,VBO,6.770337,52.999626
Wilgenroos,12,,,9461LC,Gieten,Aa en Hunze,Drenthe,VBO,6.770247,52.999609
Wilgenroos,14,,,9461LC,Gieten,Aa en Hunze,Drenthe,VBO,6.770157,52.999592
Wilgenroos,16,,,9461LC,Gieten,Aa en Hunze,Drenthe,VBO,6.770067,52.999584
Wilgenroos,18,,,9461LC,Gieten,Aa en Hunze,Drenthe,VBO,6.769977,52.999567
Wilgenroos,20,,,9461LC,Gieten,Aa en Hunze,Drenthe,VBO,6.769867,52.999371
Wilgenroos,22,,,9461LC,Gieten,Aa en Hunze,Drenthe,VBO,6.769880,52.999317
Wilgenroos,24,,,9461LC,Gieten,Aa en Hunze,Drenthe,VBO,6.769923,52.999271
Wilgenroos,26,,,9461LC,Gieten,Aa en Hunze,Drenthe,VBO,6.769937,52.999226
Wilgenroos,28,,,9461LC,Gieten,Aa en Hunze,Drenthe,VBO,6.770037,52.999099
Wilgenroos,30,,,9461LC,Gieten,Aa en Hunze,Drenthe,VBO,6.770110,52.999071
Wilgenroos,32,,,9461LC,Gieten,Aa en Hunze,Drenthe,VBO,6.770184,52.999043
Wilgenroos,34,,,9461LC,Gieten,Aa en Hunze,Drenthe,VBO,6.770258,52.999016
Wilgenroos,36,,,9461LC,Gieten,Aa en Hunze,Drenthe,VBO,6.770449,52.998933
Wilgenroos,38,,,9461LC,Gieten,Aa en Hunze,Drenthe,VBO,6.770537,52.998905
Wilgenroos,40,,,9461LC,Gieten,Aa en Hunze,Drenthe,VBO,6.770728,52.998804
Wilgenroos,42,,,9461LC,Gieten,Aa en Hunze,Drenthe,VBO,6.770801,52.998776
Wilgenroos,1,,,9461LD,Gieten,Aa en Hunze,Drenthe,VBO,6.771109,52.999545
Wilgenroos,3,,,9461LD,Gieten,Aa en Hunze,Drenthe,VBO,6.771034,52.999528
Wilgenroos,5,,,9461LD,Gieten,Aa en Hunze,Drenthe,VBO,6.770959,52.999520
Wilgenroos,7,,,9461LD,Gieten,Aa en Hunze,Drenthe,VBO,6.770884,52.999503
Wilgenroos,13,,,9461LD,Gieten,Aa en Hunze,Drenthe,VBO,6.770524,52.999417
Wilgenroos,15,,,9461LD,Gieten,Aa en Hunze,Drenthe,VBO,6.770551,52.999354
Wilgenroos,17,,,9461LD,Gieten,Aa en Hunze,Drenthe,VBO,6.770565,52.999309
Wilgenroos,19,,,9461LD,Gieten,Aa en Hunze,Drenthe,VBO,6.770594,52.999272
Wilgenroos,21,,,9461LD,Gieten,Aa en Hunze,Drenthe,VBO,6.770797,52.999117
Wilgenroos,23,,,9461LD,Gieten,Aa en Hunze,Drenthe,VBO,6.770871,52.999098
Wilgenroos,25,,,9461LD,Gieten,Aa en Hunze,Drenthe,VBO,6.770945,52.999071
Wilgenroos,29,,,9461LD,Gieten,Aa en Hunze,Drenthe,VBO,6.771228,52.999067
Wilgenroos,31,,,9461LD,Gieten,Aa en Hunze,Drenthe,VBO,6.771332,52.999084
Wilgenroos,33,,,9461LD,Gieten,Aa en Hunze,Drenthe,VBO,6.771407,52.999101
Wilgenroos,35,,,9461LD,Gieten,Aa en Hunze,Drenthe,VBO,6.771468,52.999119
Wilgenroos,37,,,9461LD,Gieten,Aa en Hunze,Drenthe,VBO,6.771558,52.999135
Wilgenroos,39,,,9461LD,Gieten,Aa en Hunze,Drenthe,VBO,6.771617,52.999144
Wilgenroos,48,,,9461LE,Gieten,Aa en Hunze,Drenthe,VBO,6.771126,52.998682
Wilgenroos,50,,,9461LE,Gieten,Aa en Hunze,Drenthe,VBO,6.771142,52.998709
Wilgenroos,52,,,9461LE,Gieten,Aa en Hunze,Drenthe,VBO,6.771172,52.998735
Wilgenroos,54,,,9461LE,Gieten,Aa en Hunze,Drenthe,VBO,6.771188,52.998771
Wilgenroos,56,,,9461LE,Gieten,Aa en Hunze,Drenthe,VBO,6.771234,52.998789
Wilgenroos,58,,,9461LE,Gieten,Aa en Hunze,Drenthe,VBO,6.771264,52.998815
Wilgenroos,60,,,9461LE,Gieten,Aa en Hunze,Drenthe,VBO,6.771416,52.998903
Wilgenroos,62,,,9461LE,Gieten,Aa en Hunze,Drenthe,VBO,6.771506,52.998920
Wilgenroos,64,,,9461LE,Gieten,Aa en Hunze,Drenthe,VBO,6.771611,52.998937
Wilgenroos,66,,,9461LE,Gieten,Aa en Hunze,Drenthe,VBO,6.771685,52.998936
Wilgenroos,68,,,9461LE,Gieten,Aa en Hunze,Drenthe,VBO,6.771730,52.998936
Wilgenroos,70,,,9461LE,Gieten,Aa en Hunze,Drenthe,VBO,6.771909,52.998934
Wilgenroos,72,,,9461LE,Gieten,Aa en Hunze,Drenthe,VBO,6.771998,52.998942
Grote Kamp,24,,,9461LG,Gieten,Aa en Hunze,Drenthe,VBO,6.773450,53.001954
Grote Kamp,26,,,9461LG,Gieten,Aa en Hunze,Drenthe,VBO,6.773568,53.001916
Grote Kamp,28,,,9461LG,Gieten,Aa en Hunze,Drenthe,VBO,6.773609,53.001808
Grote Kamp,30,,,9461LG,Gieten,Aa en Hunze,Drenthe,VBO,6.773576,53.001709
Grote Kamp,32,,,9461LG,Gieten,Aa en Hunze,Drenthe,VBO,6.773632,53.001601
Grote Kamp,34,,,9461LG,Gieten,Aa en Hunze,Drenthe,VBO,6.773615,53.001511
Grote Kamp,36,,,9461LG,Gieten,Aa en Hunze,Drenthe,VBO,6.773655,53.001394
Grote Kamp,38,,,9461LG,Gieten,Aa en Hunze,Drenthe,VBO,6.773668,53.001313
Grote Kamp,40,,,9461LG,Gieten,Aa en Hunze,Drenthe,VBO,6.773592,53.000810
Grote Kamp,42,,,9461LG,Gieten,Aa en Hunze,Drenthe,VBO,6.773606,53.000774
Grote Kamp,44,,,9461LG,Gieten,Aa en Hunze,Drenthe,VBO,6.773648,53.000693
Grote Kamp,46,,,9461LG,Gieten,Aa en Hunze,Drenthe,VBO,6.773662,53.000657
Grote Kamp,48,,,9461LG,Gieten,Aa en Hunze,Drenthe,VBO,6.773761,53.000494
Grote Kamp,50,,,9461LG,Gieten,Aa en Hunze,Drenthe,VBO,6.773775,53.000467
Grote Kamp,52,,,9461LG,Gieten,Aa en Hunze,Drenthe,VBO,6.773817,53.000376
Grote Kamp,54,,,9461LG,Gieten,Aa en Hunze,Drenthe,VBO,6.773845,53.000340
Grote Kamp,56,,,9461LG,Gieten,Aa en Hunze,Drenthe,VBO,6.773746,53.000027
Grote Kamp,58,,,9461LG,Gieten,Aa en Hunze,Drenthe,VBO,6.773818,52.999963
Grote Kamp,60,,,9461LG,Gieten,Aa en Hunze,Drenthe,VBO,6.773816,52.999873
Grote Kamp,62,,,9461LG,Gieten,Aa en Hunze,Drenthe,VBO,6.773843,52.999792
Grote Kamp,64,,,9461LG,Gieten,Aa en Hunze,Drenthe,VBO,6.773899,52.999692
Grote Kamp,66,,,9461LG,Gieten,Aa en Hunze,Drenthe,VBO,6.773882,52.999630
Grote Kamp,68,,,9461LG,Gieten,Aa en Hunze,Drenthe,VBO,6.773864,52.999522
Grote Kamp,70,,,9461LG,Gieten,Aa en Hunze,Drenthe,VBO,6.773877,52.999459
Grote Kamp,72,,,9461LG,Gieten,Aa en Hunze,Drenthe,VBO,6.773844,52.999352
Grote Kamp,74,,,9461LG,Gieten,Aa en Hunze,Drenthe,VBO,6.773872,52.999297
Dalkruid,1,,,9461LH,Gieten,Aa en Hunze,Drenthe,VBO,6.773261,52.998837
Dalkruid,2,,,9461LH,Gieten,Aa en Hunze,Drenthe,VBO,6.772957,52.998167
Dalkruid,3,,,9461LH,Gieten,Aa en Hunze,Drenthe,VBO,6.773320,52.998800
Dalkruid,4,,,9461LH,Gieten,Aa en Hunze,Drenthe,VBO,6.772970,52.998112
Dalkruid,5,,,9461LH,Gieten,Aa en Hunze,Drenthe,VBO,6.773316,52.998702
Dalkruid,6,,,9461LH,Gieten,Aa en Hunze,Drenthe,VBO,6.772907,52.997996
Dalkruid,7,,,9461LH,Gieten,Aa en Hunze,Drenthe,VBO,6.773330,52.998657
Dalkruid,8,,,9461LH,Gieten,Aa en Hunze,Drenthe,VBO,6.772920,52.997942
Dalkruid,9,,,9461LH,Gieten,Aa en Hunze,Drenthe,VBO,6.773386,52.998557
Dalkruid,10,,,9461LH,Gieten,Aa en Hunze,Drenthe,VBO,6.772951,52.997529
Dalkruid,11,,,9461LH,Gieten,Aa en Hunze,Drenthe,VBO,6.773400,52.998503
Dalkruid,12,,,9461LH,Gieten,Aa en Hunze,Drenthe,VBO,6.773007,52.997411
Dalkruid,13,,,9461LH,Gieten,Aa en Hunze,Drenthe,VBO,6.773456,52.998403
Dalkruid,14,,,9461LH,Gieten,Aa en Hunze,Drenthe,VBO,6.773655,52.997161
Dalkruid,15,,,9461LH,Gieten,Aa en Hunze,Drenthe,VBO,6.773484,52.998358
Dalkruid,16,,,9461LH,Gieten,Aa en Hunze,Drenthe,VBO,6.773864,52.997194
Dalkruid,17,,,9461LH,Gieten,Aa en Hunze,Drenthe,VBO,6.773495,52.998232
Dalkruid,19,,,9461LH,Gieten,Aa en Hunze,Drenthe,VBO,6.773509,52.998187
Dalkruid,21,,,9461LH,Gieten,Aa en Hunze,Drenthe,VBO,6.773476,52.998098
Dalkruid,23,,,9461LH,Gieten,Aa en Hunze,Drenthe,VBO,6.773459,52.998044
Dalkruid,25,,,9461LH,Gieten,Aa en Hunze,Drenthe,VBO,6.773425,52.997892
Dalkruid,27,,,9461LH,Gieten,Aa en Hunze,Drenthe,VBO,6.773408,52.997838
Dalkruid,29,,,9461LH,Gieten,Aa en Hunze,Drenthe,VBO,6.773434,52.997703
Dalkruid,31,,,9461LH,Gieten,Aa en Hunze,Drenthe,VBO,6.773477,52.997648
Dalkruid,33,,,9461LH,Gieten,Aa en Hunze,Drenthe,VBO,6.773533,52.997549
Dalkruid,35,,,9461LH,Gieten,Aa en Hunze,Drenthe,VBO,6.773546,52.997495
Vogelwikke,1,,,9461LJ,Gieten,Aa en Hunze,Drenthe,VBO,6.774112,52.997012
Vogelwikke,3,,,9461LJ,Gieten,Aa en Hunze,Drenthe,VBO,6.773706,52.996900
Helmkruid,2,,,9461LK,Gieten,Aa en Hunze,Drenthe,VBO,6.772793,52.998627
Helmkruid,4,,,9461LK,Gieten,Aa en Hunze,Drenthe,VBO,6.772732,52.998601
Helmkruid,6,,,9461LK,Gieten,Aa en Hunze,Drenthe,VBO,6.772553,52.998576
Helmkruid,8,,,9461LK,Gieten,Aa en Hunze,Drenthe,VBO,6.772433,52.998568
Helmkruid,10,,,9461LK,Gieten,Aa en Hunze,Drenthe,VBO,6.772193,52.998517
Helmkruid,12,,,9461LK,Gieten,Aa en Hunze,Drenthe,VBO,6.772118,52.998500
Helmkruid,14,,,9461LK,Gieten,Aa en Hunze,Drenthe,VBO,6.772028,52.998483
Helmkruid,16,,,9461LK,Gieten,Aa en Hunze,Drenthe,VBO,6.771848,52.998440
Helmkruid,18,,,9461LK,Gieten,Aa en Hunze,Drenthe,VBO,6.771774,52.998432
Helmkruid,20,,,9461LK,Gieten,Aa en Hunze,Drenthe,VBO,6.771684,52.998415
Helmkruid,22,,,9461LK,Gieten,Aa en Hunze,Drenthe,VBO,6.771534,52.998381
Helmkruid,24,,,9461LK,Gieten,Aa en Hunze,Drenthe,VBO,6.771429,52.998373
Helmkruid,26,,,9461LK,Gieten,Aa en Hunze,Drenthe,VBO,6.771369,52.998356
Helmkruid,1,,,9461LL,Gieten,Aa en Hunze,Drenthe,VBO,6.772907,52.998464
Helmkruid,3,,,9461LL,Gieten,Aa en Hunze,Drenthe,VBO,6.772877,52.998455
Helmkruid,5,,,9461LL,Gieten,Aa en Hunze,Drenthe,VBO,6.772652,52.998413
Helmkruid,7,,,9461LL,Gieten,Aa en Hunze,Drenthe,VBO,6.772562,52.998396
Helmkruid,9,,,9461LL,Gieten,Aa en Hunze,Drenthe,VBO,6.772517,52.998387
Helmkruid,11,,,9461LL,Gieten,Aa en Hunze,Drenthe,VBO,6.772315,52.998313
Helmkruid,13,,,9461LL,Gieten,Aa en Hunze,Drenthe,VBO,6.772225,52.998295
Helmkruid,15,,,9461LL,Gieten,Aa en Hunze,Drenthe,VBO,6.772136,52.998281
Helmkruid,17,,,9461LL,Gieten,Aa en Hunze,Drenthe,VBO,6.771968,52.998252
Helmkruid,19,,,9461LL,Gieten,Aa en Hunze,Drenthe,VBO,6.771874,52.998239
Helmkruid,21,,,9461LL,Gieten,Aa en Hunze,Drenthe,VBO,6.771789,52.998226
Helmkruid,23,,,9461LL,Gieten,Aa en Hunze,Drenthe,VBO,6.771690,52.998212
Grote Kamp,76,,,9461LM,Gieten,Aa en Hunze,Drenthe,VBO,6.773786,52.998948
Grote Kamp,78,,,9461LM,Gieten,Aa en Hunze,Drenthe,VBO,6.773814,52.998894
Grote Kamp,80,,,9461LM,Gieten,Aa en Hunze,Drenthe,VBO,6.773856,52.998812
Grote Kamp,82,,,9461LM,Gieten,Aa en Hunze,Drenthe,VBO,6.773884,52.998758
Grote Kamp,84,,,9461LM,Gieten,Aa en Hunze,Drenthe,VBO,6.773880,52.998632
Grote Kamp,86,,,9461LM,Gieten,Aa en Hunze,Drenthe,VBO,6.773879,52.998578
Grote Kamp,88,,,9461LM,Gieten,Aa en Hunze,Drenthe,VBO,6.773905,52.998461
Grote Kamp,90,,,9461LM,Gieten,Aa en Hunze,Drenthe,VBO,6.773904,52.998425
Grote Kamp,92,,,9461LM,Gieten,Aa en Hunze,Drenthe,VBO,6.773914,52.998299
Grote Kamp,94,,,9461LM,Gieten,Aa en Hunze,Drenthe,VBO,6.773898,52.998255
Grote Kamp,96,,,9461LM,Gieten,Aa en Hunze,Drenthe,VBO,6.773924,52.998146
Grote Kamp,98,,,9461LM,Gieten,Aa en Hunze,Drenthe,VBO,6.773922,52.998074
Grote Kamp,100,,,9461LM,Gieten,Aa en Hunze,Drenthe,VBO,6.773873,52.997931
Grote Kamp,102,,,9461LM,Gieten,Aa en Hunze,Drenthe,VBO,6.773884,52.997805
Grote Kamp,104,,,9461LM,Gieten,Aa en Hunze,Drenthe,VBO,6.773910,52.997688
Grote Kamp,106,,,9461LM,Gieten,Aa en Hunze,Drenthe,VBO,6.773951,52.997571
Grote Kamp,112,,,9461LM,Gieten,Aa en Hunze,Drenthe,VBO,6.774105,52.997255
Grote Kamp,114,,,9461LM,Gieten,Aa en Hunze,Drenthe,VBO,6.773803,52.995730
Grote Kamp,116,,,9461LM,Gieten,Aa en Hunze,Drenthe,VBO,6.773623,52.995687
Grote Kamp,118,,,9461LM,Gieten,Aa en Hunze,Drenthe,VBO,6.773353,52.995637
Pijlkruid,1,,,9461LN,Gieten,Aa en Hunze,Drenthe,VBO,6.772942,52.997690
Pijlkruid,3,,,9461LN,Gieten,Aa en Hunze,Drenthe,VBO,6.772852,52.997673
Pijlkruid,5,,,9461LN,Gieten,Aa en Hunze,Drenthe,VBO,6.772627,52.997631
Pijlkruid,7,,,9461LN,Gieten,Aa en Hunze,Drenthe,VBO,6.772552,52.997623
Pijlkruid,13,,,9461LN,Gieten,Aa en Hunze,Drenthe,VBO,6.772501,52.997853
Pijlkruid,15,,,9461LN,Gieten,Aa en Hunze,Drenthe,VBO,6.772476,52.997903
Pijlkruid,17,,,9461LN,Gieten,Aa en Hunze,Drenthe,VBO,6.772418,52.998009
Pijlkruid,19,,,9461LN,Gieten,Aa en Hunze,Drenthe,VBO,6.772398,52.998059
Speenkruid,1,,,9461LP,Gieten,Aa en Hunze,Drenthe,VBO,6.773355,52.997110
Speenkruid,3,,,9461LP,Gieten,Aa en Hunze,Drenthe,VBO,6.773220,52.997085
Meidoorn,1,,,9461MA,Gieten,Aa en Hunze,Drenthe,VBO,6.771204,53.003489
Meidoorn,3,,,9461MA,Gieten,Aa en Hunze,Drenthe,VBO,6.771324,53.003506
Meidoorn,5,,,9461MA,Gieten,Aa en Hunze,Drenthe,VBO,6.771623,53.003529
Meidoorn,7,,,9461MA,Gieten,Aa en Hunze,Drenthe,VBO,6.771981,53.003561
Meidoorn,9,,,9461MA,Gieten,Aa en Hunze,Drenthe,VBO,6.772266,53.003594
Meidoorn,2,,,9461MB,Gieten,Aa en Hunze,Drenthe,VBO,6.771847,53.003087
Meidoorn,4,,,9461MB,Gieten,Aa en Hunze,Drenthe,VBO,6.771997,53.003112
Meidoorn,6,,,9461MB,Gieten,Aa en Hunze,Drenthe,VBO,6.772208,53.003181
Meidoorn,8,,,9461MB,Gieten,Aa en Hunze,Drenthe,VBO,6.772312,53.003189
Meidoorn,10,,,9461MB,Gieten,Aa en Hunze,Drenthe,VBO,6.772476,53.003187
Meidoorn,12,,,9461MB,Gieten,Aa en Hunze,Drenthe,VBO,6.772656,53.003212
de Veldkamp,1,,,9461PA,Gieten,Aa en Hunze,Drenthe,VBO,6.773506,53.003705
de Veldkamp,3,,,9461PA,Gieten,Aa en Hunze,Drenthe,VBO,6.773625,53.003713
de Veldkamp,5,,,9461PA,Gieten,Aa en Hunze,Drenthe,VBO,6.773602,53.003911
de Veldkamp,9,,,9461PA,Gieten,Aa en Hunze,Drenthe,VBO,6.773742,53.004107
de Veldkamp,11,,,9461PA,Gieten,Aa en Hunze,Drenthe,VBO,6.774011,53.004149
de Veldkamp,15,,,9461PA,Gieten,Aa en Hunze,Drenthe,VBO,6.774093,53.003896
de Veldkamp,17,,,9461PA,Gieten,Aa en Hunze,Drenthe,VBO,6.774105,53.003824
de Veldkamp,19,,,9461PA,Gieten,Aa en Hunze,Drenthe,VBO,6.774101,53.003681
de Veldkamp,23,,,9461PA,Gieten,Aa en Hunze,Drenthe,VBO,6.774080,53.003510
de Veldkamp,25,,,9461PA,Gieten,Aa en Hunze,Drenthe,VBO,6.774108,53.003447
de Veldkamp,29,,,9461PA,Gieten,Aa en Hunze,Drenthe,VBO,6.774089,53.003294
de Veldkamp,31,,,9461PA,Gieten,Aa en Hunze,Drenthe,VBO,6.774158,53.003150
de Veldkamp,33,,,9461PA,Gieten,Aa en Hunze,Drenthe,VBO,6.774156,53.003087
de Veldkamp,35,,,9461PA,Gieten,Aa en Hunze,Drenthe,VBO,6.774148,53.002826
de Veldkamp,37,,,9461PA,Gieten,Aa en Hunze,Drenthe,VBO,6.774058,53.002818
de Veldkamp,39,,,9461PA,Gieten,Aa en Hunze,Drenthe,VBO,6.773790,53.002794
Hagedoorn,1,,,9461PC,Gieten,Aa en Hunze,Drenthe,VBO,6.774017,53.002468
Hagedoorn,3,,,9461PC,Gieten,Aa en Hunze,Drenthe,VBO,6.774317,53.002519
Zandvoort,1,,,9461TA,Gieten,Aa en Hunze,Drenthe,VBO,6.789768,53.022892
Zandvoort,3,,,9461TA,Gieten,Aa en Hunze,Drenthe,VBO,6.790744,53.023582
Zandvoort,5,,,9461TA,Gieten,Aa en Hunze,Drenthe,VBO,6.791738,53.023894
Zandvoort,7,,,9461TA,Gieten,Aa en Hunze,Drenthe,VBO,6.792620,53.024450
Zandvoort,13,,,9461TA,Gieten,Aa en Hunze,Drenthe,VBO,6.796746,53.028023
Zandvoort,15,,,9461TA,Gieten,Aa en Hunze,Drenthe,VBO,6.798186,53.027395
Zandvoort,17,,,9461TA,Gieten,Aa en Hunze,Drenthe,VBO,6.799155,53.027860
Zandvoort,21,,,9461TA,Gieten,Aa en Hunze,Drenthe,VBO,6.800969,53.028629
Zandvoort,23,,,9461TA,Gieten,Aa en Hunze,Drenthe,VBO,6.801394,53.028858
Zandvoort,25,,,9461TA,Gieten,Aa en Hunze,Drenthe,VBO,6.800914,53.029223
Zandvoort,27,,,9461TA,Gieten,Aa en Hunze,Drenthe,VBO,6.798681,53.030678
Zandvoort,29,,,9461TA,Gieten,Aa en Hunze,Drenthe,VBO,6.801769,53.029156
Zandvoort,31,,,9461TA,Gieten,Aa en Hunze,Drenthe,VBO,6.802959,53.029747
Zandvoort,33,,,9461TA,Gieten,Aa en Hunze,Drenthe,VBO,6.803474,53.030020
Zandvoort,35,,,9461TA,Gieten,Aa en Hunze,Drenthe,VBO,6.803616,53.030252
Zandvoort,2,,,9461TB,Gieten,Aa en Hunze,Drenthe,VBO,6.793469,53.023954
Zandvoort,4,,,9461TB,Gieten,Aa en Hunze,Drenthe,VBO,6.798836,53.026749
Zandvoort,6,,,9461TB,Gieten,Aa en Hunze,Drenthe,VBO,6.801295,53.028113
Zandvoort,10,,,9461TB,Gieten,Aa en Hunze,Drenthe,VBO,6.801630,53.028316
Zandvoort,12,,,9461TB,Gieten,Aa en Hunze,Drenthe,VBO,6.801918,53.028465
Zandvoort,14,,,9461TB,Gieten,Aa en Hunze,Drenthe,VBO,6.803217,53.028522
Zandvoort,16,,,9461TB,Gieten,Aa en Hunze,Drenthe,VBO,6.818887,53.036663
Bonnen,37,,,9461TC,Gieten,Aa en Hunze,Drenthe,VBO,6.776474,53.004740
Bonnen,39,,,9461TC,Gieten,Aa en Hunze,Drenthe,VBO,6.777085,53.004760
Bonnen,41,,,9461TC,Gieten,Aa en Hunze,Drenthe,VBO,6.778913,53.004137
Bonnen,43,,,9461TC,Gieten,Aa en Hunze,Drenthe,VBO,6.779556,53.003752
Bonnen,45,,,9461TC,Gieten,Aa en Hunze,Drenthe,VBO,6.779990,53.003360
Bonnen,47,,,9461TC,Gieten,Aa en Hunze,Drenthe,VBO,6.780225,53.003250
Bonnen,49,,,9461TC,Gieten,Aa en Hunze,Drenthe,VBO,6.780385,53.003122
Bonnen,51,,,9461TC,Gieten,Aa en Hunze,Drenthe,VBO,6.780921,53.002658
Bonnen,53,,,9461TC,Gieten,Aa en Hunze,Drenthe,VBO,6.783297,53.001461
Bonnen,55,,,9461TC,Gieten,Aa en Hunze,Drenthe,VBO,6.786788,53.000711
Bonnen,57,a,,9461TC,Gieten,Aa en Hunze,Drenthe,VBO,6.787569,53.000908
Bonnen,57,,,9461TC,Gieten,Aa en Hunze,Drenthe,VBO,6.787043,53.000762
Bonnen,59,,,9461TC,Gieten,Aa en Hunze,Drenthe,VBO,6.788366,53.001115
Bonnen,61,,,9461TC,Gieten,Aa en Hunze,Drenthe,VBO,6.788490,53.000817
Bonnen,63,,,9461TC,Gieten,Aa en Hunze,Drenthe,VBO,6.788930,52.999611
Bonnen,65,,,9461TC,Gieten,Aa en Hunze,Drenthe,VBO,6.789178,52.999056
Bonnen,67,,,9461TC,Gieten,Aa en Hunze,Drenthe,VBO,6.790512,52.999301
Bonnen,69,,,9461TC,Gieten,Aa en Hunze,Drenthe,VBO,6.791042,52.999555
Bonnen,71,,,9461TC,Gieten,Aa en Hunze,Drenthe,VBO,6.791064,52.999339
Bonnen,38,,,9461TD,Gieten,Aa en Hunze,Drenthe,VBO,6.774667,53.004618
Bonnen,40,,,9461TD,Gieten,Aa en Hunze,Drenthe,VBO,6.775145,53.004648
Bonnen,42,,,9461TD,Gieten,Aa en Hunze,Drenthe,VBO,6.780761,53.002291
Bonnen,44,,,9461TD,Gieten,Aa en Hunze,Drenthe,VBO,6.781491,53.001833
Bonnen,46,,,9461TD,Gieten,Aa en Hunze,Drenthe,VBO,6.781695,53.001678
Bonnen,48,,,9461TD,Gieten,Aa en Hunze,Drenthe,VBO,6.782166,53.001511
Bonnen,50,,,9461TD,Gieten,Aa en Hunze,Drenthe,VBO,6.782351,53.001257
Bonnen,54,,,9461TD,Gieten,Aa en Hunze,Drenthe,VBO,6.783358,53.000589
Bonnen,56,,,9461TD,Gieten,Aa en Hunze,Drenthe,VBO,6.783663,53.000361
Bonnen,60,,,9461TD,Gieten,Aa en Hunze,Drenthe,VBO,6.784177,53.000121
Bonnen,62,,,9461TD,Gieten,Aa en Hunze,Drenthe,VBO,6.788886,52.998763
Bonnen,64,,,9461TD,Gieten,Aa en Hunze,Drenthe,VBO,6.789302,52.998740
Bonnerdijk,1,,,9461TE,Gieten,Aa en Hunze,Drenthe,VBO,6.778910,53.004523
Bonnerdijk,2,,,9461TE,Gieten,Aa en Hunze,Drenthe,VBO,6.780360,53.004201
Bonnerdijk,3,,,9461TE,Gieten,Aa en Hunze,Drenthe,VBO,6.779241,53.004618
Bonnerdijk,4,,,9461TE,Gieten,Aa en Hunze,Drenthe,VBO,6.782157,53.004953
Bonnerdijk,5,,,9461TE,Gieten,Aa en Hunze,Drenthe,VBO,6.780605,53.004872
Bonnerdijk,6,,,9461TE,Gieten,Aa en Hunze,Drenthe,VBO,6.782881,53.005232
Bonnerdijk,7,,,9461TE,Gieten,Aa en Hunze,Drenthe,VBO,6.780955,53.005102
Bonnerdijk,8,,,9461TE,Gieten,Aa en Hunze,Drenthe,VBO,6.787360,53.006896
Bonnerdijk,9,,,9461TE,Gieten,Aa en Hunze,Drenthe,VBO,6.782965,53.005995
Veenhof,1,,,9461TG,Gieten,Aa en Hunze,Drenthe,VBO,6.798363,53.000700
Veenhof,2,,,9461TG,Gieten,Aa en Hunze,Drenthe,VBO,6.796435,53.000049
Veenhof,3,,,9461TG,Gieten,Aa en Hunze,Drenthe,VBO,6.808257,53.003944
Veenhof,4,,,9461TG,Gieten,Aa en Hunze,Drenthe,VBO,6.799292,53.000384
Veenhof,5,,,9461TG,Gieten,Aa en Hunze,Drenthe,VBO,6.810061,53.003968
Veenhof,6,,,9461TG,Gieten,Aa en Hunze,Drenthe,VBO,6.809672,53.003029
Veenhof,7,,,9461TG,Gieten,Aa en Hunze,Drenthe,VBO,6.811093,53.004090
Veenhof,8,,,9461TG,Gieten,Aa en Hunze,Drenthe,VBO,6.810245,53.003220
Veenhof,9,,,9461TG,Gieten,Aa en Hunze,Drenthe,VBO,6.809423,53.007238
Achter 't Hout,1,,,9461TH,Gieten,Aa en Hunze,Drenthe,VBO,6.791927,52.998386
Achter 't Hout,3,,,9461TH,Gieten,Aa en Hunze,Drenthe,VBO,6.793027,52.996458
Achter 't Hout,5,,,9461TH,Gieten,Aa en Hunze,Drenthe,VBO,6.793138,52.996214
Achter 't Hout,7,,,9461TH,Gieten,Aa en Hunze,Drenthe,VBO,6.793976,52.995405
Achter 't Hout,9,,,9461TH,Gieten,Aa en Hunze,Drenthe,VBO,6.794036,52.994955
Achter 't Hout,11,a,,9461TH,Gieten,Aa en Hunze,Drenthe,VBO,6.794227,52.994422
Achter 't Hout,11,,,9461TH,Gieten,Aa en Hunze,Drenthe,VBO,6.794295,52.994673
Achter 't Hout,13,,,9461TH,Gieten,Aa en Hunze,Drenthe,VBO,6.794263,52.994134
Achter 't Hout,15,,,9461TH,Gieten,Aa en Hunze,Drenthe,VBO,6.794683,52.993770
Achter 't Hout,17,,,9461TH,Gieten,Aa en Hunze,Drenthe,VBO,6.794853,52.993498
Achter 't Hout,19,,,9461TH,Gieten,Aa en Hunze,Drenthe,VBO,6.795082,52.993217
Achter 't Hout,2,a,,9461TJ,Gieten,Aa en Hunze,Drenthe,VBO,6.790901,52.998434
Achter 't Hout,2,,,9461TJ,Gieten,Aa en Hunze,Drenthe,VBO,6.790802,52.998605
Achter 't Hout,4,a,,9461TJ,Gieten,Aa en Hunze,Drenthe,VBO,6.791188,52.998098
Achter 't Hout,4,,,9461TJ,Gieten,Aa en Hunze,Drenthe,VBO,6.791044,52.998252
Achter 't Hout,6,,,9461TJ,Gieten,Aa en Hunze,Drenthe,VBO,6.791123,52.997919
Achter 't Hout,8,,,9461TJ,Gieten,Aa en Hunze,Drenthe,VBO,6.791372,52.997790
Achter 't Hout,10,,,9461TJ,Gieten,Aa en Hunze,Drenthe,VBO,6.791380,52.997574
Achter 't Hout,12,,,9461TJ,Gieten,Aa en Hunze,Drenthe,VBO,6.791464,52.997411
Achter 't Hout,14,,,9461TJ,Gieten,Aa en Hunze,Drenthe,VBO,6.791801,52.997228
Achter 't Hout,16,,,9461TJ,Gieten,Aa en Hunze,Drenthe,VBO,6.791760,52.996905
Achter 't Hout,20,,,9461TJ,Gieten,Aa en Hunze,Drenthe,VBO,6.791779,52.996572
Achter 't Hout,22,,,9461TJ,Gieten,Aa en Hunze,Drenthe,VBO,6.792510,52.996123
Achter 't Hout,24,,,9461TJ,Gieten,Aa en Hunze,Drenthe,VBO,6.792502,52.995871
Achter 't Hout,26,,,9461TJ,Gieten,Aa en Hunze,Drenthe,VBO,6.792763,52.995653
Achter 't Hout,28,,,9461TJ,Gieten,Aa en Hunze,Drenthe,VBO,6.793149,52.995145
Achter 't Hout,30,,,9461TJ,Gieten,Aa en Hunze,Drenthe,VBO,6.793304,52.994891
Achter 't Hout,32,,,9461TJ,Gieten,Aa en Hunze,Drenthe,VBO,6.793485,52.994503
Achter 't Hout,34,,,9461TJ,Gieten,Aa en Hunze,Drenthe,VBO,6.793591,52.994079
Achter 't Hout,36,a,,9461TJ,Gieten,Aa en Hunze,Drenthe,VBO,6.794365,52.992898
Achter 't Hout,36,,,9461TJ,Gieten,Aa en Hunze,Drenthe,VBO,6.794270,52.992966
Varik,1,,,9461TK,Gieten,Aa en Hunze,Drenthe,VBO,6.778630,52.992025
Varik,3,,,9461TK,Gieten,Aa en Hunze,Drenthe,VBO,6.781551,52.993007
Varik,4,,,9461TK,Gieten,Aa en Hunze,Drenthe,VBO,6.786929,52.995829
Varik,5,,,9461TK,Gieten,Aa en Hunze,Drenthe,VBO,6.787340,52.996085
Varik,6,,,9461TK,Gieten,Aa en Hunze,Drenthe,VBO,6.789644,52.996867
Gasselterweg,21,,,9461TL,Gieten,Aa en Hunze,Drenthe,VBO,6.770557,52.996253
Gasselterweg,23,,,9461TL,Gieten,Aa en Hunze,Drenthe,VBO,6.770727,52.995982
Gasselterweg,25,,,9461TL,Gieten,Aa en Hunze,Drenthe,VBO,6.771328,52.995660
Gasselterweg,27,,,9461TL,Gieten,Aa en Hunze,Drenthe,VBO,6.771395,52.995444
Gasselterweg,29,,,9461TL,Gieten,Aa en Hunze,Drenthe,VBO,6.771582,52.995226
Gasselterweg,33,,,9461TL,Gieten,Aa en Hunze,Drenthe,VBO,6.771856,52.994953
Gasselterweg,35,,,9461TL,Gieten,Aa en Hunze,Drenthe,VBO,6.772543,52.994531
Gasselterweg,37,,,9461TL,Gieten,Aa en Hunze,Drenthe,VBO,6.773121,52.993959
Gasselterweg,39,,,9461TL,Gieten,Aa en Hunze,Drenthe,VBO,6.773338,52.993758
Gasselterweg,41,,,9461TL,Gieten,Aa en Hunze,Drenthe,VBO,6.773534,52.993379
Gasselterweg,43,,,9461TL,Gieten,Aa en Hunze,Drenthe,VBO,6.774292,52.992849
Gasselterweg,47,,,9461TL,Gieten,Aa en Hunze,Drenthe,VBO,6.774558,52.992306
Gasselterweg,49,,,9461TL,Gieten,Aa en Hunze,Drenthe,VBO,6.774968,52.992095
Gasselterweg,51,a,,9461TL,Gieten,Aa en Hunze,Drenthe,VBO,6.775283,52.991696
Gasselterweg,51,,,9461TL,Gieten,Aa en Hunze,Drenthe,VBO,6.775215,52.991955
Gasselterweg,53,,,9461TL,Gieten,Aa en Hunze,Drenthe,VBO,6.775810,52.991420
Gasselterweg,46,,,9461TM,Gieten,Aa en Hunze,Drenthe,VBO,6.772616,52.993272
Gasselterweg,48,,,9461TM,Gieten,Aa en Hunze,Drenthe,VBO,6.773173,52.992799
Gasselterweg,50,,,9461TM,Gieten,Aa en Hunze,Drenthe,VBO,6.773455,52.992759
Gasselterweg,52,,,9461TM,Gieten,Aa en Hunze,Drenthe,VBO,6.773542,52.992686
Gasselterweg,54,,,9461TM,Gieten,Aa en Hunze,Drenthe,VBO,6.773775,52.992513
Gasselterweg,56,,,9461TM,Gieten,Aa en Hunze,Drenthe,VBO,6.773941,52.992125
Gasselterweg,60,,,9461TM,Gieten,Aa en Hunze,Drenthe,VBO,6.775738,52.990558
Gasselterweg,62,,,9461TM,Gieten,Aa en Hunze,Drenthe,VBO,6.776230,52.990121
Gasselterweg,64,,,9461TM,Gieten,Aa en Hunze,Drenthe,VBO,6.776422,52.989588
Grensweg,1,,,9461TN,Gieten,Aa en Hunze,Drenthe,VBO,6.780607,52.990510
Grensweg,2,,,9461TN,Gieten,Aa en Hunze,Drenthe,VBO,6.782569,52.990838
Grensweg,3,,,9461TN,Gieten,Aa en Hunze,Drenthe,VBO,6.783006,52.991013
Grensweg,5,,,9461TN,Gieten,Aa en Hunze,Drenthe,VBO,6.784941,52.991448
Grensweg,7,,,9461TN,Gieten,Aa en Hunze,Drenthe,VBO,6.788714,52.992051
Verlengde Looweg,2,,,9461TP,Gieten,Aa en Hunze,Drenthe,VBO,6.789085,52.992451
Verlengde Looweg,3,,,9461TP,Gieten,Aa en Hunze,Drenthe,VBO,6.788917,52.992804
Verlengde Looweg,4,,,9461TP,Gieten,Aa en Hunze,Drenthe,VBO,6.788749,52.993140
Verlengde Looweg,5,,,9461TP,Gieten,Aa en Hunze,Drenthe,VBO,6.788597,52.993491
Verlengde Looweg,6,,,9461TP,Gieten,Aa en Hunze,Drenthe,VBO,6.788695,52.993768
Verlengde Looweg,7,,,9461TP,Gieten,Aa en Hunze,Drenthe,VBO,6.788168,52.994053
Verlengde Looweg,8,,,9461TP,Gieten,Aa en Hunze,Drenthe,VBO,6.788057,52.994297
Verlengde Looweg,9,,,9461TP,Gieten,Aa en Hunze,Drenthe,VBO,6.787946,52.994550
Verlengde Looweg,10,,,9461TP,Gieten,Aa en Hunze,Drenthe,VBO,6.787805,52.994821
Verlengde Looweg,11,,,9461TP,Gieten,Aa en Hunze,Drenthe,VBO,6.787694,52.995065
Zijtak,4,,,9461TS,Gieten,Aa en Hunze,Drenthe,VBO,6.757806,52.999555
Verlengde Asserstraat,56,,,9461TT,Gieten,Aa en Hunze,Drenthe,VBO,6.745181,53.000759
Verlengde Asserstraat,58,,,9461TT,Gieten,Aa en Hunze,Drenthe,VBO,6.744109,53.000780
Verlengde Asserstraat,60,,,9461TT,Gieten,Aa en Hunze,Drenthe,VBO,6.743588,53.000795
Verlengde Asserstraat,62,a,,9461TT,Gieten,Aa en Hunze,Drenthe,VBO,6.740056,53.000754
Verlengde Asserstraat,62,,,9461TT,Gieten,Aa en Hunze,Drenthe,VBO,6.741993,53.000759
Verlengde Asserstraat,64,,,9461TT,Gieten,Aa en Hunze,Drenthe,VBO,6.737043,53.000627
Verlengde Asserstraat,66,,,9461TT,Gieten,Aa en Hunze,Drenthe,VBO,6.736879,53.000619
Verlengde Asserstraat,68,,,9461TT,Gieten,Aa en Hunze,Drenthe,VBO,6.735691,53.000750
Verlengde Asserstraat,70,,,9461TT,Gieten,Aa en Hunze,Drenthe,VBO,6.734378,53.000693
Verlengde Asserstraat,72,,,9461TT,Gieten,Aa en Hunze,Drenthe,VBO,6.734199,53.000677
Asserstraat,54,,,9461TV,Gieten,Aa en Hunze,Drenthe,VBO,6.752288,53.002215
Verlengde Asserstraat,67,,,9461TV,Gieten,Aa en Hunze,Drenthe,VBO,6.749546,53.000772
Verlengde Asserstraat,69,,,9461TV,Gieten,Aa en Hunze,Drenthe,VBO,6.749041,53.000823
Verlengde Asserstraat,71,,,9461TV,Gieten,Aa en Hunze,Drenthe,VBO,6.748846,53.000762
Verlengde Asserstraat,73,,,9461TV,Gieten,Aa en Hunze,Drenthe,VBO,6.748710,53.000719
Verlengde Asserstraat,75,,,9461TV,Gieten,Aa en Hunze,Drenthe,VBO,6.748530,53.000658
Verlengde Asserstraat,77,,,9461TV,Gieten,Aa en Hunze,Drenthe,VBO,6.748275,53.000607
Verlengde Asserstraat,79,,,9461TV,Gieten,Aa en Hunze,Drenthe,VBO,6.748065,53.000565
Verlengde Asserstraat,81,,,9461TV,Gieten,Aa en Hunze,Drenthe,VBO,6.747630,53.000462
Verlengde Asserstraat,83,a,,9461TV,Gieten,Aa en Hunze,Drenthe,VBO,6.747006,52.999561
Verlengde Asserstraat,83,,,9461TV,Gieten,Aa en Hunze,Drenthe,VBO,6.747325,53.000249
Verlengde Asserstraat,85,,,9461TV,Gieten,Aa en Hunze,Drenthe,VBO,6.745898,53.000347
Staatsbos,1,,,9461TW,Gieten,Aa en Hunze,Drenthe,VBO,6.726395,52.991085
Staatsbos,2,,,9461TW,Gieten,Aa en Hunze,Drenthe,VBO,6.726052,52.990100
Gieterveldweg,6,,,9461TX,Gieten,Aa en Hunze,Drenthe,VBO,6.753460,52.992082
Gieterveldweg,8,,,9461TX,Gieten,Aa en Hunze,Drenthe,VBO,6.762597,52.989470
Gieterveldweg,10,,,9461TX,Gieten,Aa en Hunze,Drenthe,VBO,6.764904,52.987088
Gieterveldweg,12,,,9461TX,Gieten,Aa en Hunze,Drenthe,VBO,6.765621,52.984321
Grote Kamp,1,,,9461TZ,Gieten,Aa en Hunze,Drenthe,VBO,6.773081,53.003926
Grote Kamp,2,,,9461TZ,Gieten,Aa en Hunze,Drenthe,VBO,6.772519,53.003609
Grote Kamp,3,,,9461TZ,Gieten,Aa en Hunze,Drenthe,VBO,6.773105,53.003755
Grote Kamp,4,,,9461TZ,Gieten,Aa en Hunze,Drenthe,VBO,6.772827,53.002985
Grote Kamp,5,,,9461TZ,Gieten,Aa en Hunze,Drenthe,VBO,6.773133,53.003692
Grote Kamp,6,,,9461TZ,Gieten,Aa en Hunze,Drenthe,VBO,6.772855,53.002913
Grote Kamp,7,,,9461TZ,Gieten,Aa en Hunze,Drenthe,VBO,6.773303,53.003420
Grote Kamp,8,,,9461TZ,Gieten,Aa en Hunze,Drenthe,VBO,6.772972,53.002840
Grote Kamp,9,,,9461TZ,Gieten,Aa en Hunze,Drenthe,VBO,6.773345,53.003348
Grote Kamp,10,,,9461TZ,Gieten,Aa en Hunze,Drenthe,VBO,6.772999,53.002768
Grote Kamp,11,,,9461TZ,Gieten,Aa en Hunze,Drenthe,VBO,6.773402,53.003248
Grote Kamp,12,,,9461TZ,Gieten,Aa en Hunze,Drenthe,VBO,6.773086,53.002677
Grote Kamp,13,,,9461TZ,Gieten,Aa en Hunze,Drenthe,VBO,6.773459,53.003185
Grote Kamp,14,,,9461TZ,Gieten,Aa en Hunze,Drenthe,VBO,6.773128,53.002613
Grote Kamp,15,,,9461TZ,Gieten,Aa en Hunze,Drenthe,VBO,6.773575,53.003084
Grote Kamp,16,,,9461TZ,Gieten,Aa en Hunze,Drenthe,VBO,6.773257,53.002459
Grote Kamp,17,,,9461TZ,Gieten,Aa en Hunze,Drenthe,VBO,6.773633,53.003021
Grote Kamp,18,,,9461TZ,Gieten,Aa en Hunze,Drenthe,VBO,6.773316,53.002413
Grote Kamp,19,,,9461TZ,Gieten,Aa en Hunze,Drenthe,VBO,6.774641,52.997248
Grote Kamp,20,,,9461TZ,Gieten,Aa en Hunze,Drenthe,VBO,6.773401,53.002287
Grote Kamp,21,,,9461TZ,Gieten,Aa en Hunze,Drenthe,VBO,6.774612,52.996808
Grote Kamp,22,,,9461TZ,Gieten,Aa en Hunze,Drenthe,VBO,6.773384,53.002224
Oelenboom,1,,,9461VA,Gieten,Aa en Hunze,Drenthe,VBO,6.754785,53.002492
Oelenboom,2,a,,9461VA,Gieten,Aa en Hunze,Drenthe,VBO,6.753229,53.001687
Oelenboom,2,b,,9461VA,Gieten,Aa en Hunze,Drenthe,VBO,6.753901,53.001662
Oelenboom,2,c,,9461VA,Gieten,Aa en Hunze,Drenthe,VBO,6.754029,53.001674
Oelenboom,2,d,,9461VA,Gieten,Aa en Hunze,Drenthe,VBO,6.753266,53.001448
Oelenboom,2,e,,9461VA,Gieten,Aa en Hunze,Drenthe,VBO,6.753504,53.001496
Oelenboom,2,f,,9461VA,Gieten,Aa en Hunze,Drenthe,VBO,6.753238,53.001558
Oelenboom,2,,,9461VA,Gieten,Aa en Hunze,Drenthe,VBO,6.753295,53.001123
Oelenboom,3,,,9461VA,Gieten,Aa en Hunze,Drenthe,VBO,6.754567,53.002207
Oelenboom,4,,,9461VA,Gieten,Aa en Hunze,Drenthe,VBO,6.754530,53.001039
Oelenboom,5,,,9461VA,Gieten,Aa en Hunze,Drenthe,VBO,6.755395,53.001686
Oelenboom,5,,,9461VA,Gieten,Aa en Hunze,Drenthe,VBO,6.755168,53.001894
Oelenboom,6,,,9461VA,Gieten,Aa en Hunze,Drenthe,VBO,6.754437,53.000420
Oelenboom,7,,,9461VA,Gieten,Aa en Hunze,Drenthe,VBO,6.755508,53.000866
Oelenboom,8,a,,9461VA,Gieten,Aa en Hunze,Drenthe,VBO,6.756818,52.999494
Oelenboom,8,b,,9461VA,Gieten,Aa en Hunze,Drenthe,VBO,6.758240,52.999200
Oelenboom,8,,,9461VA,Gieten,Aa en Hunze,Drenthe,VBO,6.754551,53.000284
Oelenboom,9,,,9461VA,Gieten,Aa en Hunze,Drenthe,VBO,6.761674,52.999384
Oelenboom,10,,,9461VA,Gieten,Aa en Hunze,Drenthe,VBO,6.759478,52.998735
Oelenboom,11,,,9461VA,Gieten,Aa en Hunze,Drenthe,VBO,6.762432,52.999349
Oelenboom,12,,,9461VA,Gieten,Aa en Hunze,Drenthe,VBO,6.760242,52.998704
Oelenboom,13,,,9461VA,Gieten,Aa en Hunze,Drenthe,VBO,6.762984,52.999478
Oelenboom,15,,,9461VA,Gieten,Aa en Hunze,Drenthe,VBO,6.763203,52.999690
Vlaskamp,1,,,9461VB,Gieten,Aa en Hunze,Drenthe,VBO,6.761082,52.995275
Vlaskamp,2,a,,9461VB,Gieten,Aa en Hunze,Drenthe,VBO,6.762009,52.995479
Vlaskamp,2,,,9461VB,Gieten,Aa en Hunze,Drenthe,VBO,6.761448,52.995522
Vlaskamp,3,,,9461VB,Gieten,Aa en Hunze,Drenthe,VBO,6.760922,52.995403
Vlaskamp,4,,,9461VB,Gieten,Aa en Hunze,Drenthe,VBO,6.761185,52.995714
Vlaskamp,5,,,9461VB,Gieten,Aa en Hunze,Drenthe,VBO,6.760602,52.995622
Vlaskamp,6,,,9461VB,Gieten,Aa en Hunze,Drenthe,VBO,6.760909,52.995933
Vlaskamp,7,,,9461VB,Gieten,Aa en Hunze,Drenthe,VBO,6.759835,52.995864
Vlaskamp,8,,,9461VB,Gieten,Aa en Hunze,Drenthe,VBO,6.760710,52.996223
Vlaskamp,10,,,9461VB,Gieten,Aa en Hunze,Drenthe,VBO,6.761017,52.996325
Steenkamp,1,,,9461VC,Gieten,Aa en Hunze,Drenthe,VBO,6.760156,52.993776
Steenkamp,3,,,9461VC,Gieten,Aa en Hunze,Drenthe,VBO,6.759621,52.994285
Steenkamp,5,a,,9461VC,Gieten,Aa en Hunze,Drenthe,VBO,6.758827,52.994515
Steenkamp,5,,,9461VC,Gieten,Aa en Hunze,Drenthe,VBO,6.759166,52.994497
Steenkamp,6,,,9461VC,Gieten,Aa en Hunze,Drenthe,VBO,6.759818,52.995055
Steenkamp,7,,,9461VC,Gieten,Aa en Hunze,Drenthe,VBO,6.758766,52.994769
Steenkamp,8,,,9461VC,Gieten,Aa en Hunze,Drenthe,VBO,6.759531,52.995221
Steenkamp,10,,,9461VC,Gieten,Aa en Hunze,Drenthe,VBO,6.759338,52.995593
Steenkamp,11,,,9461VC,Gieten,Aa en Hunze,Drenthe,VBO,6.757789,52.995570
Rondkamp,1,,,9461VE,Gieten,Aa en Hunze,Drenthe,VBO,6.759033,52.996178
Rondkamp,2,,,9461VE,Gieten,Aa en Hunze,Drenthe,VBO,6.759490,52.996899
Rondkamp,7,,,9461VE,Gieten,Aa en Hunze,Drenthe,VBO,6.757585,52.997217
Noordveensedijk,1,,,9461VG,Gieten,Aa en Hunze,Drenthe,VBO,6.784739,53.012135
Sekmeer,3,,,9461VH,Gieten,Aa en Hunze,Drenthe,VBO,6.734375,52.996114
Sekmeer,6,,,9461VH,Gieten,Aa en Hunze,Drenthe,VBO,6.735281,52.994962
