openbareruimtenaam,huisnummer,huisletter,huisnummertoevoeging,postcode,woonplaatsnaam,gemeentenaam,provincienaam,typeadresseerbaarobject,longitude,latitude
Roelf Vegtstraat,1,,,9686MA,Beerta,Oldambt,Groningen,VBO,7.094879,53.172129
Roelf Vegtstraat,3,,,9686MA,Beerta,Oldambt,Groningen,VBO,7.095006,53.172082
Roelf Vegtstraat,5,,,9686MA,Beerta,Oldambt,Groningen,VBO,7.095106,53.172042
Roelf Vegtstraat,7,,,9686MA,Beerta,Oldambt,Groningen,VBO,7.095182,53.171994
Roelf Vegtstraat,9,,,9686MA,Beerta,Oldambt,Groningen,VBO,7.095215,53.171979
Molenstraat,2,,,9686MC,Beerta,Oldambt,Groningen,VBO,7.094973,53.171471
Molenstraat,6,,,9686MC,Beerta,Oldambt,Groningen,VBO,7.095087,53.171730
Molenstraat,8,,,9686MC,Beerta,Oldambt,Groningen,VBO,7.095125,53.171711
Molenstraat,10,,,9686MC,Beerta,Oldambt,Groningen,VBO,7.095213,53.171688
Molenstraat,12,,,9686MC,Beerta,Oldambt,Groningen,VBO,7.095308,53.171637
Molenstraat,14,,,9686MC,Beerta,Oldambt,Groningen,VBO,7.095927,53.172168
Molenstraat,16,,,9686MC,Beerta,Oldambt,Groningen,VBO,7.096008,53.172328
Molenstraat,1,,,9686MD,Beerta,Oldambt,Groningen,VBO,7.094557,53.171585
Molenstraat,3,,,9686MD,Beerta,Oldambt,Groningen,VBO,7.094605,53.171638
Molenstraat,5,,,9686MD,Beerta,Oldambt,Groningen,VBO,7.094729,53.171735
Molenstraat,7,,,9686MD,Beerta,Oldambt,Groningen,VBO,7.094791,53.171788
Molenstraat,9,,,9686MD,Beerta,Oldambt,Groningen,VBO,7.095352,53.171874
Molenstraat,11,,,9686MD,Beerta,Oldambt,Groningen,VBO,7.095383,53.171904
Molenstraat,13,,,9686MD,Beerta,Oldambt,Groningen,VBO,7.095395,53.171942
Molenstraat,15,,,9686MD,Beerta,Oldambt,Groningen,VBO,7.095443,53.172013
Molenstraat,17,,,9686MD,Beerta,Oldambt,Groningen,VBO,7.095535,53.172092
Schoolstraat,1,A,,9686NA,Beerta,Oldambt,Groningen,VBO,7.094711,53.173551
Schoolstraat,1,,,9686NA,Beerta,Oldambt,Groningen,VBO,7.094460,53.173654
Schoolstraat,3,,,9686NA,Beerta,Oldambt,Groningen,VBO,7.094417,53.173681
Schoolstraat,5,,,9686NA,Beerta,Oldambt,Groningen,VBO,7.094210,53.173756
Schoolstraat,7,,,9686NA,Beerta,Oldambt,Groningen,VBO,7.094151,53.173784
Schoolstraat,9,,,9686NA,Beerta,Oldambt,Groningen,VBO,7.092984,53.174154
Schoolstraat,11,,,9686NA,Beerta,Oldambt,Groningen,VBO,7.092735,53.174276
Schoolstraat,23,,,9686NA,Beerta,Oldambt,Groningen,VBO,7.092501,53.174427
Schoolstraat,25,,,9686NA,Beerta,Oldambt,Groningen,VBO,7.092428,53.174455
Schoolstraat,27,,,9686NA,Beerta,Oldambt,Groningen,VBO,7.092236,53.174521
Schoolstraat,29,,,9686NA,Beerta,Oldambt,Groningen,VBO,7.092177,53.174549
Schoolstraat,31,,,9686NB,Beerta,Oldambt,Groningen,VBO,7.091985,53.174614
Schoolstraat,33,,,9686NB,Beerta,Oldambt,Groningen,VBO,7.091911,53.174642
Schoolstraat,35,,,9686NB,Beerta,Oldambt,Groningen,VBO,7.091735,53.174717
Schoolstraat,37,,,9686NB,Beerta,Oldambt,Groningen,VBO,7.091661,53.174745
Schoolstraat,39,,,9686NB,Beerta,Oldambt,Groningen,VBO,7.091484,53.174810
Schoolstraat,41,,,9686NB,Beerta,Oldambt,Groningen,VBO,7.091411,53.174847
Schoolstraat,43,,,9686NB,Beerta,Oldambt,Groningen,VBO,7.091234,53.174922
Schoolstraat,45,,,9686NB,Beerta,Oldambt,Groningen,VBO,7.091146,53.174950
Schoolstraat,47,,,9686NB,Beerta,Oldambt,Groningen,VBO,7.090212,53.175170
Schoolstraat,49,,,9686NB,Beerta,Oldambt,Groningen,VBO,7.090097,53.175288
Schoolstraat,51,,,9686NB,Beerta,Oldambt,Groningen,VBO,7.089996,53.175389
Schoolstraat,53,,,9686NB,Beerta,Oldambt,Groningen,VBO,7.089908,53.175426
Schoolstraat,55,,,9686NB,Beerta,Oldambt,Groningen,VBO,7.089775,53.175464
Schoolstraat,57,,,9686NB,Beerta,Oldambt,Groningen,VBO,7.089671,53.175492
Schoolstraat,59,,,9686NB,Beerta,Oldambt,Groningen,VBO,7.089553,53.175530
Schoolstraat,61,,,9686NB,Beerta,Oldambt,Groningen,VBO,7.089435,53.175558
Schoolstraat,63,,,9686NB,Beerta,Oldambt,Groningen,VBO,7.089286,53.175596
Schoolstraat,65,,,9686NB,Beerta,Oldambt,Groningen,VBO,7.089198,53.175625
Schoolstraat,2,A,,9686NC,Beerta,Oldambt,Groningen,VBO,7.095180,53.173706
Schoolstraat,2,,,9686NC,Beerta,Oldambt,Groningen,VBO,7.094680,53.173920
Schoolstraat,6,,,9686NC,Beerta,Oldambt,Groningen,VBO,7.093089,53.174536
Schoolstraat,8,,,9686NC,Beerta,Oldambt,Groningen,VBO,7.092986,53.174582
Schoolstraat,10,A,,9686NC,Beerta,Oldambt,Groningen,VBO,7.093062,53.174859
Schoolstraat,10,B,,9686NC,Beerta,Oldambt,Groningen,VBO,7.093021,53.174873
Schoolstraat,10,C,,9686NC,Beerta,Oldambt,Groningen,VBO,7.092986,53.174887
Schoolstraat,10,D,,9686NC,Beerta,Oldambt,Groningen,VBO,7.092949,53.174902
Schoolstraat,10,E,,9686NC,Beerta,Oldambt,Groningen,VBO,7.092907,53.174918
Schoolstraat,10,F,,9686NC,Beerta,Oldambt,Groningen,VBO,7.092873,53.174932
Schoolstraat,10,G,,9686NC,Beerta,Oldambt,Groningen,VBO,7.092833,53.174947
Schoolstraat,10,H,,9686NC,Beerta,Oldambt,Groningen,VBO,7.092801,53.174961
Schoolstraat,10,I,,9686NC,Beerta,Oldambt,Groningen,VBO,7.092760,53.174976
Schoolstraat,10,J,,9686NC,Beerta,Oldambt,Groningen,VBO,7.092721,53.174991
Schoolstraat,10,K,,9686NC,Beerta,Oldambt,Groningen,VBO,7.092683,53.175005
Schoolstraat,10,L,,9686NC,Beerta,Oldambt,Groningen,VBO,7.092649,53.175019
Schoolstraat,10,M,,9686NC,Beerta,Oldambt,Groningen,VBO,7.092611,53.175034
Schoolstraat,10,N,,9686NC,Beerta,Oldambt,Groningen,VBO,7.092574,53.175049
Schoolstraat,10,O,,9686NC,Beerta,Oldambt,Groningen,VBO,7.092534,53.175064
Schoolstraat,10,P,,9686NC,Beerta,Oldambt,Groningen,VBO,7.092498,53.175079
Schoolstraat,10,Q,,9686NC,Beerta,Oldambt,Groningen,VBO,7.092457,53.175094
Schoolstraat,10,,,9686NC,Beerta,Oldambt,Groningen,VBO,7.092760,53.174658
Schoolstraat,12,,,9686NC,Beerta,Oldambt,Groningen,VBO,7.092662,53.174704
Schoolstraat,14,,,9686NC,Beerta,Oldambt,Groningen,VBO,7.092573,53.174723
Schoolstraat,16,,,9686NC,Beerta,Oldambt,Groningen,VBO,7.092433,53.174784
Schoolstraat,18,,,9686NC,Beerta,Oldambt,Groningen,VBO,7.092341,53.174817
Schoolstraat,20,A,,9686NC,Beerta,Oldambt,Groningen,VBO,7.092072,53.174928
Schoolstraat,20,B,,9686NC,Beerta,Oldambt,Groningen,VBO,7.091969,53.174965
Schoolstraat,20,,,9686NC,Beerta,Oldambt,Groningen,VBO,7.092248,53.174856
Schoolstraat,22,,,9686ND,Beerta,Oldambt,Groningen,VBO,7.091721,53.175130
Schoolstraat,24,,,9686ND,Beerta,Oldambt,Groningen,VBO,7.091512,53.175142
Schoolstraat,26,,,9686ND,Beerta,Oldambt,Groningen,VBO,7.091439,53.175170
Schoolstraat,28,,,9686ND,Beerta,Oldambt,Groningen,VBO,7.091322,53.175253
Schoolstraat,30,,,9686ND,Beerta,Oldambt,Groningen,VBO,7.091203,53.175264
Schoolstraat,32,,,9686ND,Beerta,Oldambt,Groningen,VBO,7.091085,53.175310
Schoolstraat,34,,,9686ND,Beerta,Oldambt,Groningen,VBO,7.090997,53.175338
Schoolstraat,36,,,9686ND,Beerta,Oldambt,Groningen,VBO,7.090864,53.175394
Schoolstraat,38,,,9686ND,Beerta,Oldambt,Groningen,VBO,7.090791,53.175431
Schoolstraat,40,,,9686ND,Beerta,Oldambt,Groningen,VBO,7.090643,53.175469
Schoolstraat,42,,,9686ND,Beerta,Oldambt,Groningen,VBO,7.090569,53.175506
Schoolstraat,44,,,9686ND,Beerta,Oldambt,Groningen,VBO,7.090422,53.175553
Schoolstraat,46,,,9686ND,Beerta,Oldambt,Groningen,VBO,7.090318,53.175591
Schoolstraat,48,,,9686ND,Beerta,Oldambt,Groningen,VBO,7.090170,53.175629
Schoolstraat,50,,,9686ND,Beerta,Oldambt,Groningen,VBO,7.090052,53.175666
Schoolstraat,52,,,9686ND,Beerta,Oldambt,Groningen,VBO,7.089950,53.175722
Schoolstraat,54,,,9686ND,Beerta,Oldambt,Groningen,VBO,7.089861,53.175759
Schoolstraat,56,,,9686ND,Beerta,Oldambt,Groningen,VBO,7.089729,53.175824
Schoolstraat,58,,,9686ND,Beerta,Oldambt,Groningen,VBO,7.089641,53.175852
Schoolstraat,60,,,9686ND,Beerta,Oldambt,Groningen,VBO,7.089447,53.175864
Schoolstraat,62,,,9686ND,Beerta,Oldambt,Groningen,VBO,7.089373,53.175892
Dwarsstraat,1,A,,9686NE,Beerta,Oldambt,Groningen,VBO,7.092511,53.175443
Dwarsstraat,1,,,9686NE,Beerta,Oldambt,Groningen,VBO,7.092603,53.175477
Dwarsstraat,2,A,,9686NE,Beerta,Oldambt,Groningen,VBO,7.092157,53.175547
Dwarsstraat,2,,,9686NE,Beerta,Oldambt,Groningen,VBO,7.092249,53.175608
Dwarsstraat,3,,,9686NE,Beerta,Oldambt,Groningen,VBO,7.092385,53.175348
Dwarsstraat,4,,,9686NE,Beerta,Oldambt,Groningen,VBO,7.092085,53.175447
Dwarsstraat,5,,,9686NE,Beerta,Oldambt,Groningen,VBO,7.092320,53.175290
Dwarsstraat,6,,,9686NE,Beerta,Oldambt,Groningen,VBO,7.092016,53.175387
Dwarsstraat,7,,,9686NE,Beerta,Oldambt,Groningen,VBO,7.092214,53.175188
Dwarsstraat,8,,,9686NE,Beerta,Oldambt,Groningen,VBO,7.091923,53.175307
Dwarsstraat,9,,,9686NE,Beerta,Oldambt,Groningen,VBO,7.092154,53.175133
Dwarsstraat,10,,,9686NE,Beerta,Oldambt,Groningen,VBO,7.091845,53.175237
F.J.J.Dreweslaan,1,,,9686NG,Beerta,Oldambt,Groningen,VBO,7.090352,53.174907
F.J.J.Dreweslaan,4,T,,9686NG,Beerta,Oldambt,Groningen,VBO,7.089712,53.175049
F.J.J.Dreweslaan,10,,,9686NG,Beerta,Oldambt,Groningen,VBO,7.089708,53.174709
Beatrixstraat,5,,,9686NH,Beerta,Oldambt,Groningen,VBO,7.089340,53.176575
Beatrixstraat,7,,,9686NH,Beerta,Oldambt,Groningen,VBO,7.089293,53.176522
Beatrixstraat,9,,,9686NH,Beerta,Oldambt,Groningen,VBO,7.089229,53.176406
Beatrixstraat,11,,,9686NH,Beerta,Oldambt,Groningen,VBO,7.089182,53.176353
Beatrixstraat,13,,,9686NH,Beerta,Oldambt,Groningen,VBO,7.089234,53.176163
Beatrixstraat,15,,,9686NH,Beerta,Oldambt,Groningen,VBO,7.089187,53.176110
Beatrixstraat,17,,,9686NH,Beerta,Oldambt,Groningen,VBO,7.089141,53.176075
Beatrixstraat,19,,,9686NH,Beerta,Oldambt,Groningen,VBO,7.089064,53.176031
Beatrixstraat,21,,,9686NH,Beerta,Oldambt,Groningen,VBO,7.089047,53.175977
Beatrixstraat,23,,,9686NH,Beerta,Oldambt,Groningen,VBO,7.088799,53.175765
Beatrixstraat,25,,,9686NH,Beerta,Oldambt,Groningen,VBO,7.088767,53.175712
Beatrixstraat,27,,,9686NH,Beerta,Oldambt,Groningen,VBO,7.088705,53.175659
Beatrixstraat,29,,,9686NH,Beerta,Oldambt,Groningen,VBO,7.088660,53.175632
Beatrixstraat,31,,,9686NH,Beerta,Oldambt,Groningen,VBO,7.088566,53.175535
Beatrixstraat,33,,,9686NH,Beerta,Oldambt,Groningen,VBO,7.088526,53.175488
Beatrixstraat,35,,,9686NH,Beerta,Oldambt,Groningen,VBO,7.088473,53.175446
Beatrixstraat,37,,,9686NH,Beerta,Oldambt,Groningen,VBO,7.088426,53.175393
Beatrixstraat,39,,,9686NH,Beerta,Oldambt,Groningen,VBO,7.087573,53.174623
Beatrixstraat,41,,,9686NH,Beerta,Oldambt,Groningen,VBO,7.087527,53.174588
Beatrixstraat,43,,,9686NH,Beerta,Oldambt,Groningen,VBO,7.087435,53.174544
Beatrixstraat,45,,,9686NH,Beerta,Oldambt,Groningen,VBO,7.087374,53.174518
Beatrixstraat,47,,,9686NH,Beerta,Oldambt,Groningen,VBO,7.087297,53.174456
Beatrixstraat,49,,,9686NH,Beerta,Oldambt,Groningen,VBO,7.087251,53.174421
Beatrixstraat,2,,,9686NJ,Beerta,Oldambt,Groningen,VBO,7.089318,53.177160
Beatrixstraat,6,,,9686NJ,Beerta,Oldambt,Groningen,VBO,7.089087,53.176992
Beatrixstraat,8,,,9686NJ,Beerta,Oldambt,Groningen,VBO,7.089040,53.176939
Beatrixstraat,10,,,9686NJ,Beerta,Oldambt,Groningen,VBO,7.088932,53.176851
Beatrixstraat,12,,,9686NJ,Beerta,Oldambt,Groningen,VBO,7.088870,53.176798
Beatrixstraat,14,,,9686NJ,Beerta,Oldambt,Groningen,VBO,7.088820,53.176682
Beatrixstraat,16,,,9686NJ,Beerta,Oldambt,Groningen,VBO,7.088774,53.176628
Beatrixstraat,18,,,9686NJ,Beerta,Oldambt,Groningen,VBO,7.088740,53.176530
Beatrixstraat,20,,,9686NJ,Beerta,Oldambt,Groningen,VBO,7.088692,53.176459
Beatrixstraat,22,,,9686NJ,Beerta,Oldambt,Groningen,VBO,7.088658,53.176351
Beatrixstraat,24,,,9686NJ,Beerta,Oldambt,Groningen,VBO,7.088611,53.176289
Beatrixstraat,26,,,9686NJ,Beerta,Oldambt,Groningen,VBO,7.088562,53.176191
Beatrixstraat,28,,,9686NJ,Beerta,Oldambt,Groningen,VBO,7.088515,53.176129
Beatrixstraat,30,,,9686NK,Beerta,Oldambt,Groningen,VBO,7.088434,53.175977
Beatrixstraat,32,,,9686NK,Beerta,Oldambt,Groningen,VBO,7.088387,53.175933
Beatrixstraat,34,,,9686NK,Beerta,Oldambt,Groningen,VBO,7.088341,53.175888
Beatrixstraat,36,,,9686NK,Beerta,Oldambt,Groningen,VBO,7.088294,53.175844
Beatrixstraat,38,,,9686NK,Beerta,Oldambt,Groningen,VBO,7.088095,53.175730
Beatrixstraat,40,,,9686NK,Beerta,Oldambt,Groningen,VBO,7.088034,53.175695
Beatrixstraat,42,,,9686NK,Beerta,Oldambt,Groningen,VBO,7.087958,53.175660
Beatrixstraat,44,,,9686NK,Beerta,Oldambt,Groningen,VBO,7.087881,53.175616
Beatrixstraat,46,,,9686NK,Beerta,Oldambt,Groningen,VBO,7.087712,53.175493
Beatrixstraat,48,,,9686NK,Beerta,Oldambt,Groningen,VBO,7.087665,53.175440
Beatrixstraat,50,,,9686NK,Beerta,Oldambt,Groningen,VBO,7.087618,53.175395
Beatrixstraat,52,A,,9686NK,Beerta,Oldambt,Groningen,VBO,7.087046,53.175279
Beatrixstraat,52,B,,9686NK,Beerta,Oldambt,Groningen,VBO,7.087013,53.175294
Beatrixstraat,52,C,,9686NK,Beerta,Oldambt,Groningen,VBO,7.086977,53.175307
Beatrixstraat,52,D,,9686NK,Beerta,Oldambt,Groningen,VBO,7.086871,53.175302
Beatrixstraat,52,E,,9686NK,Beerta,Oldambt,Groningen,VBO,7.086847,53.175289
Beatrixstraat,52,F,,9686NK,Beerta,Oldambt,Groningen,VBO,7.086822,53.175269
Beatrixstraat,52,G,,9686NK,Beerta,Oldambt,Groningen,VBO,7.086800,53.175249
Beatrixstraat,52,H,,9686NK,Beerta,Oldambt,Groningen,VBO,7.086778,53.175228
Beatrixstraat,52,I,,9686NK,Beerta,Oldambt,Groningen,VBO,7.086754,53.175209
Beatrixstraat,52,J,,9686NK,Beerta,Oldambt,Groningen,VBO,7.086729,53.175189
Beatrixstraat,52,K,,9686NK,Beerta,Oldambt,Groningen,VBO,7.086702,53.175168
Beatrixstraat,52,L,,9686NK,Beerta,Oldambt,Groningen,VBO,7.086678,53.175147
Beatrixstraat,52,,,9686NK,Beerta,Oldambt,Groningen,VBO,7.087571,53.175351
Beatrixstraat,54,A,,9686NK,Beerta,Oldambt,Groningen,VBO,7.087050,53.175223
Beatrixstraat,54,B,,9686NK,Beerta,Oldambt,Groningen,VBO,7.087030,53.175199
Beatrixstraat,54,C,,9686NK,Beerta,Oldambt,Groningen,VBO,7.087007,53.175177
Beatrixstraat,54,D,,9686NK,Beerta,Oldambt,Groningen,VBO,7.086987,53.175157
Beatrixstraat,54,E,,9686NK,Beerta,Oldambt,Groningen,VBO,7.086964,53.175136
Beatrixstraat,54,F,,9686NK,Beerta,Oldambt,Groningen,VBO,7.086944,53.175114
Beatrixstraat,54,G,,9686NK,Beerta,Oldambt,Groningen,VBO,7.086923,53.175095
Beatrixstraat,54,H,,9686NK,Beerta,Oldambt,Groningen,VBO,7.086903,53.175075
Beatrixstraat,54,,,9686NK,Beerta,Oldambt,Groningen,VBO,7.087594,53.175171
Beatrixstraat,56,,,9686NK,Beerta,Oldambt,Groningen,VBO,7.087548,53.175127
Beatrixstraat,58,,,9686NK,Beerta,Oldambt,Groningen,VBO,7.087471,53.175083
Beatrixstraat,60,,,9686NK,Beerta,Oldambt,Groningen,VBO,7.087425,53.175048
Beatrixstraat,62,,,9686NK,Beerta,Oldambt,Groningen,VBO,7.087299,53.174879
Beatrixstraat,64,,,9686NK,Beerta,Oldambt,Groningen,VBO,7.087225,53.174898
Beatrixstraat,66,,,9686NK,Beerta,Oldambt,Groningen,VBO,7.087166,53.174926
Beatrixstraat,68,,,9686NK,Beerta,Oldambt,Groningen,VBO,7.087092,53.174954
Beatrixstraat,70,,,9686NK,Beerta,Oldambt,Groningen,VBO,7.086780,53.175012
Julianastraat,1,T,,9686NL,Beerta,Oldambt,Groningen,VBO,7.093588,53.172521
Julianastraat,1,,,9686NL,Beerta,Oldambt,Groningen,VBO,7.093345,53.172690
Julianastraat,3,,,9686NL,Beerta,Oldambt,Groningen,VBO,7.092690,53.173130
Julianastraat,7,,,9686NL,Beerta,Oldambt,Groningen,VBO,7.092441,53.173278
Julianastraat,9,,,9686NL,Beerta,Oldambt,Groningen,VBO,7.092206,53.173389
Julianastraat,11,,,9686NL,Beerta,Oldambt,Groningen,VBO,7.092016,53.173500
Julianastraat,13,,,9686NL,Beerta,Oldambt,Groningen,VBO,7.091942,53.173528
Julianastraat,15,,,9686NL,Beerta,Oldambt,Groningen,VBO,7.091664,53.173675
Julianastraat,17,,,9686NL,Beerta,Oldambt,Groningen,VBO,7.091496,53.173579
Julianastraat,19,,,9686NL,Beerta,Oldambt,Groningen,VBO,7.091310,53.173420
Julianastraat,21,,,9686NL,Beerta,Oldambt,Groningen,VBO,7.091065,53.173648
Julianastraat,23,,,9686NL,Beerta,Oldambt,Groningen,VBO,7.090976,53.173685
Julianastraat,25,,,9686NL,Beerta,Oldambt,Groningen,VBO,7.090814,53.173741
Julianastraat,27,,,9686NL,Beerta,Oldambt,Groningen,VBO,7.090725,53.173761
Julianastraat,41,,,9686NM,Beerta,Oldambt,Groningen,VBO,7.089908,53.174284
Julianastraat,43,,,9686NM,Beerta,Oldambt,Groningen,VBO,7.089819,53.174313
Julianastraat,45,,,9686NM,Beerta,Oldambt,Groningen,VBO,7.089761,53.174340
Julianastraat,47,,,9686NM,Beerta,Oldambt,Groningen,VBO,7.089687,53.174368
Julianastraat,49,,,9686NM,Beerta,Oldambt,Groningen,VBO,7.089665,53.174180
Julianastraat,51,,,9686NM,Beerta,Oldambt,Groningen,VBO,7.089618,53.174136
Julianastraat,53,,,9686NM,Beerta,Oldambt,Groningen,VBO,7.089571,53.174083
Julianastraat,55,,,9686NM,Beerta,Oldambt,Groningen,VBO,7.089392,53.174472
Julianastraat,57,,,9686NM,Beerta,Oldambt,Groningen,VBO,7.089345,53.174418
Julianastraat,59,,,9686NM,Beerta,Oldambt,Groningen,VBO,7.089299,53.174383
Julianastraat,61,,,9686NM,Beerta,Oldambt,Groningen,VBO,7.089267,53.174330
Julianastraat,63,,,9686NM,Beerta,Oldambt,Groningen,VBO,7.089235,53.174285
Julianastraat,65,,,9686NM,Beerta,Oldambt,Groningen,VBO,7.089189,53.174250
Julianastraat,67,,,9686NM,Beerta,Oldambt,Groningen,VBO,7.088979,53.174630
Julianastraat,69,,,9686NM,Beerta,Oldambt,Groningen,VBO,7.088947,53.174586
Julianastraat,71,,,9686NM,Beerta,Oldambt,Groningen,VBO,7.088901,53.174541
Julianastraat,73,,,9686NM,Beerta,Oldambt,Groningen,VBO,7.088839,53.174497
Julianastraat,75,,,9686NM,Beerta,Oldambt,Groningen,VBO,7.088792,53.174444
Julianastraat,77,,,9686NM,Beerta,Oldambt,Groningen,VBO,7.088746,53.174400
Julianastraat,79,,,9686NN,Beerta,Oldambt,Groningen,VBO,7.088729,53.174742
Julianastraat,81,,,9686NN,Beerta,Oldambt,Groningen,VBO,7.088670,53.174760
Julianastraat,83,,,9686NN,Beerta,Oldambt,Groningen,VBO,7.088597,53.174797
Julianastraat,85,,,9686NN,Beerta,Oldambt,Groningen,VBO,7.088508,53.174826
Julianastraat,87,,,9686NN,Beerta,Oldambt,Groningen,VBO,7.088495,53.174502
Julianastraat,89,,,9686NN,Beerta,Oldambt,Groningen,VBO,7.088422,53.174539
Julianastraat,91,,,9686NN,Beerta,Oldambt,Groningen,VBO,7.088348,53.174567
Julianastraat,93,,,9686NN,Beerta,Oldambt,Groningen,VBO,7.088275,53.174604
Julianastraat,95,,,9686NN,Beerta,Oldambt,Groningen,VBO,7.088253,53.174916
Julianastraat,97,,,9686NN,Beerta,Oldambt,Groningen,VBO,7.088202,53.174872
Julianastraat,99,,,9686NN,Beerta,Oldambt,Groningen,VBO,7.088167,53.174829
Julianastraat,101,,,9686NN,Beerta,Oldambt,Groningen,VBO,7.088116,53.174775
Julianastraat,103,,,9686NN,Beerta,Oldambt,Groningen,VBO,7.088068,53.174727
Julianastraat,105,,,9686NN,Beerta,Oldambt,Groningen,VBO,7.088026,53.174687
Julianastraat,2,,,9686NP,Beerta,Oldambt,Groningen,VBO,7.094168,53.172678
Julianastraat,4,,,9686NP,Beerta,Oldambt,Groningen,VBO,7.093939,53.172951
Julianastraat,6,,,9686NP,Beerta,Oldambt,Groningen,VBO,7.091705,53.173962
Julianastraat,8,,,9686NP,Beerta,Oldambt,Groningen,VBO,7.091752,53.174007
Julianastraat,10,,,9686NP,Beerta,Oldambt,Groningen,VBO,7.091828,53.174050
Julianastraat,12,,,9686NP,Beerta,Oldambt,Groningen,VBO,7.091860,53.174104
Julianastraat,14,,,9686NP,Beerta,Oldambt,Groningen,VBO,7.091396,53.174075
Julianastraat,16,,,9686NP,Beerta,Oldambt,Groningen,VBO,7.091457,53.174119
Julianastraat,18,,,9686NP,Beerta,Oldambt,Groningen,VBO,7.091504,53.174172
Julianastraat,20,,,9686NP,Beerta,Oldambt,Groningen,VBO,7.091551,53.174216
Julianastraat,22,,,9686NP,Beerta,Oldambt,Groningen,VBO,7.090998,53.174233
Julianastraat,24,,,9686NP,Beerta,Oldambt,Groningen,VBO,7.091044,53.174268
Julianastraat,26,,,9686NP,Beerta,Oldambt,Groningen,VBO,7.091091,53.174322
Julianastraat,28,,,9686NP,Beerta,Oldambt,Groningen,VBO,7.091138,53.174366
Julianastraat,30,,,9686NP,Beerta,Oldambt,Groningen,VBO,7.090688,53.174345
Julianastraat,32,,,9686NP,Beerta,Oldambt,Groningen,VBO,7.090750,53.174389
Julianastraat,34,,,9686NP,Beerta,Oldambt,Groningen,VBO,7.090796,53.174434
Julianastraat,36,,,9686NP,Beerta,Oldambt,Groningen,VBO,7.090843,53.174478
Julianastraat,40,,,9686NR,Beerta,Oldambt,Groningen,VBO,7.089302,53.174828
Julianastraat,42,,,9686NR,Beerta,Oldambt,Groningen,VBO,7.089338,53.174961
Julianastraat,44,,,9686NR,Beerta,Oldambt,Groningen,VBO,7.089426,53.175108
Julianastraat,48,,,9686NR,Beerta,Oldambt,Groningen,VBO,7.088847,53.175156
Julianastraat,50,,,9686NR,Beerta,Oldambt,Groningen,VBO,7.088686,53.175075
Julianastraat,52,,,9686NR,Beerta,Oldambt,Groningen,VBO,7.088340,53.175211
Anne Frankstraat,1,,,9686NS,Beerta,Oldambt,Groningen,VBO,7.093009,53.172883
Anne Frankstraat,2,,,9686NS,Beerta,Oldambt,Groningen,VBO,7.092203,53.172922
Anne Frankstraat,3,,,9686NS,Beerta,Oldambt,Groningen,VBO,7.092701,53.172654
Anne Frankstraat,4,,,9686NS,Beerta,Oldambt,Groningen,VBO,7.091986,53.173105
Anne Frankstraat,5,,,9686NS,Beerta,Oldambt,Groningen,VBO,7.092396,53.172515
Anne Frankstraat,6,,,9686NS,Beerta,Oldambt,Groningen,VBO,7.091633,53.173262
Anne Frankstraat,9,,,9686NS,Beerta,Oldambt,Groningen,VBO,7.092102,53.172636
Anne Frankstraat,11,,,9686NS,Beerta,Oldambt,Groningen,VBO,7.091777,53.172757
Anne Frankstraat,13,,,9686NS,Beerta,Oldambt,Groningen,VBO,7.091514,53.172905
Anne Frankstraat,17,,,9686NS,Beerta,Oldambt,Groningen,VBO,7.091208,53.173107
Anne Frankstraat,19,,,9686NS,Beerta,Oldambt,Groningen,VBO,7.091147,53.173072
Anne Frankstraat,21,,,9686NS,Beerta,Oldambt,Groningen,VBO,7.091115,53.173018
Anne Frankstraat,23,,,9686NS,Beerta,Oldambt,Groningen,VBO,7.091053,53.172983
Anne Frankstraat,25,,,9686NS,Beerta,Oldambt,Groningen,VBO,7.090698,53.173087
Anne Frankstraat,27,,,9686NS,Beerta,Oldambt,Groningen,VBO,7.090624,53.173106
Anne Frankstraat,29,,,9686NS,Beerta,Oldambt,Groningen,VBO,7.090551,53.173134
Anne Frankstraat,31,,,9686NS,Beerta,Oldambt,Groningen,VBO,7.090477,53.173162
Anne Frankstraat,33,,,9686NS,Beerta,Oldambt,Groningen,VBO,7.090233,53.173417
Anne Frankstraat,35,,,9686NS,Beerta,Oldambt,Groningen,VBO,7.090186,53.173373
Anne Frankstraat,37,,,9686NS,Beerta,Oldambt,Groningen,VBO,7.090140,53.173328
Anne Frankstraat,39,,,9686NS,Beerta,Oldambt,Groningen,VBO,7.090138,53.173284
Hannie Schaftstraat,2,,,9686NT,Beerta,Oldambt,Groningen,VBO,7.088146,53.174372
Hannie Schaftstraat,4,,,9686NT,Beerta,Oldambt,Groningen,VBO,7.088070,53.174338
Hannie Schaftstraat,6,,,9686NT,Beerta,Oldambt,Groningen,VBO,7.087979,53.174303
Hannie Schaftstraat,8,,,9686NT,Beerta,Oldambt,Groningen,VBO,7.087723,53.174253
Hannie Schaftstraat,10,,,9686NT,Beerta,Oldambt,Groningen,VBO,7.087634,53.174281
Hannie Schaftstraat,3,,,9686NV,Beerta,Oldambt,Groningen,VBO,7.089802,53.173882
Hannie Schaftstraat,5,,,9686NV,Beerta,Oldambt,Groningen,VBO,7.089726,53.173838
Hannie Schaftstraat,7,,,9686NV,Beerta,Oldambt,Groningen,VBO,7.089665,53.173812
Hannie Schaftstraat,9,A,,9686NV,Beerta,Oldambt,Groningen,VBO,7.089154,53.173747
Hannie Schaftstraat,9,,,9686NV,Beerta,Oldambt,Groningen,VBO,7.089604,53.173776
Hannie Schaftstraat,11,,,9686NV,Beerta,Oldambt,Groningen,VBO,7.089022,53.173830
Hannie Schaftstraat,13,,,9686NV,Beerta,Oldambt,Groningen,VBO,7.088949,53.173858
Hannie Schaftstraat,15,,,9686NV,Beerta,Oldambt,Groningen,VBO,7.088860,53.173877
Hannie Schaftstraat,17,,,9686NV,Beerta,Oldambt,Groningen,VBO,7.088801,53.173905
Hannie Schaftstraat,19,,,9686NV,Beerta,Oldambt,Groningen,VBO,7.088727,53.173933
Hannie Schaftstraat,21,,,9686NV,Beerta,Oldambt,Groningen,VBO,7.088614,53.174105
Hannie Schaftstraat,23,,,9686NV,Beerta,Oldambt,Groningen,VBO,7.088526,53.174142
Hannie Schaftstraat,25,,,9686NV,Beerta,Oldambt,Groningen,VBO,7.088329,53.174082
Hannie Schaftstraat,27,,,9686NV,Beerta,Oldambt,Groningen,VBO,7.088267,53.174029
Hannie Schaftstraat,29,,,9686NV,Beerta,Oldambt,Groningen,VBO,7.088147,53.174004
Beatrixstraat,72,,,9686NZ,Beerta,Oldambt,Groningen,VBO,7.086764,53.174967
Beatrixstraat,74,,,9686NZ,Beerta,Oldambt,Groningen,VBO,7.086672,53.174924
Beatrixstraat,76,,,9686NZ,Beerta,Oldambt,Groningen,VBO,7.086641,53.174888
Beatrixstraat,78,,,9686NZ,Beerta,Oldambt,Groningen,VBO,7.086564,53.174835
Beatrixstraat,80,,,9686NZ,Beerta,Oldambt,Groningen,VBO,7.086487,53.174782
Beatrixstraat,82,,,9686NZ,Beerta,Oldambt,Groningen,VBO,7.086704,53.174600
Beatrixstraat,84,,,9686NZ,Beerta,Oldambt,Groningen,VBO,7.086778,53.174563
Beatrixstraat,86,,,9686NZ,Beerta,Oldambt,Groningen,VBO,7.086836,53.174517
Beatrixstraat,88,,,9686NZ,Beerta,Oldambt,Groningen,VBO,7.086910,53.174498
Hoofdstraat,155,,,9686PA,Beerta,Oldambt,Groningen,VBO,7.090378,53.169119
Hoofdstraat,159,,,9686PA,Beerta,Oldambt,Groningen,VBO,7.090897,53.169759
Hoofdstraat,161,,,9686PA,Beerta,Oldambt,Groningen,VBO,7.091291,53.169888
Hoofdstraat,163,,,9686PA,Beerta,Oldambt,Groningen,VBO,7.091494,53.170110
Hoofdstraat,167,,,9686PA,Beerta,Oldambt,Groningen,VBO,7.091646,53.170170
Hoofdstraat,173,,,9686PA,Beerta,Oldambt,Groningen,VBO,7.091829,53.170258
Hoofdstraat,175,,,9686PA,Beerta,Oldambt,Groningen,VBO,7.091922,53.170346
Hoofdstraat,179,,,9686PA,Beerta,Oldambt,Groningen,VBO,7.091985,53.170444
Hoofdstraat,181,,,9686PB,Beerta,Oldambt,Groningen,VBO,7.092125,53.170559
Hoofdstraat,183,,,9686PB,Beerta,Oldambt,Groningen,VBO,7.092201,53.170594
Hoofdstraat,185,,,9686PB,Beerta,Oldambt,Groningen,VBO,7.092310,53.170718
Hoofdstraat,195,,,9686PB,Beerta,Oldambt,Groningen,VBO,7.092317,53.170889
Hoofdstraat,197,,,9686PB,Beerta,Oldambt,Groningen,VBO,7.092528,53.170922
Hoofdstraat,199,,,9686PB,Beerta,Oldambt,Groningen,VBO,7.092620,53.171352
Hoofdstraat,201,,,9686PB,Beerta,Oldambt,Groningen,VBO,7.093078,53.171588
Hoofdstraat,205,,,9686PB,Beerta,Oldambt,Groningen,VBO,7.093438,53.171628
Hoofdstraat,207,,,9686PB,Beerta,Oldambt,Groningen,VBO,7.093372,53.171845
Hoofdstraat,209,,,9686PB,Beerta,Oldambt,Groningen,VBO,7.093561,53.172085
Hoofdstraat,211,,,9686PB,Beerta,Oldambt,Groningen,VBO,7.094001,53.172240
Hoofdstraat,217,,,9686PC,Beerta,Oldambt,Groningen,VBO,7.094587,53.172690
Hoofdstraat,219,,,9686PC,Beerta,Oldambt,Groningen,VBO,7.094799,53.172750
Hoofdstraat,221,,,9686PC,Beerta,Oldambt,Groningen,VBO,7.094801,53.172822
Hoofdstraat,223,,,9686PC,Beerta,Oldambt,Groningen,VBO,7.094957,53.172963
Hoofdstraat,225,,,9686PC,Beerta,Oldambt,Groningen,VBO,7.095110,53.173051
Hoofdstraat,227,,,9686PC,Beerta,Oldambt,Groningen,VBO,7.095204,53.173167
Hoofdstraat,233,,,9686PC,Beerta,Oldambt,Groningen,VBO,7.095548,53.173557
Hoofdstraat,237,,,9686PC,Beerta,Oldambt,Groningen,VBO,7.095821,53.173634
Hoofdstraat,239,,,9686PC,Beerta,Oldambt,Groningen,VBO,7.095915,53.173750
Hoofdstraat,241,,,9686PC,Beerta,Oldambt,Groningen,VBO,7.095994,53.173847
Hoofdstraat,243,,,9686PC,Beerta,Oldambt,Groningen,VBO,7.096086,53.173909
Hoofdstraat,245,,,9686PC,Beerta,Oldambt,Groningen,VBO,7.096135,53.174025
Hoofdstraat,247,,,9686PC,Beerta,Oldambt,Groningen,VBO,7.096407,53.174084
Hoofdstraat,251,,,9686PC,Beerta,Oldambt,Groningen,VBO,7.096533,53.174244
Hoofdstraat,253,,,9686PC,Beerta,Oldambt,Groningen,VBO,7.096656,53.174332
Hoofdstraat,255,,,9686PC,Beerta,Oldambt,Groningen,VBO,7.096824,53.174420
Hoofdstraat,257,A,,9686PC,Beerta,Oldambt,Groningen,VBO,7.096789,53.175040
Hoofdstraat,257,,,9686PC,Beerta,Oldambt,Groningen,VBO,7.096897,53.174690
Hoofdstraat,259,,,9686PC,Beerta,Oldambt,Groningen,VBO,7.097491,53.175012
Hoofdstraat,261,A,10,9686PC,Beerta,Oldambt,Groningen,VBO,7.097169,53.175585
Hoofdstraat,261,A,101,9686PC,Beerta,Oldambt,Groningen,VBO,7.097722,53.175458
Hoofdstraat,261,A,102,9686PC,Beerta,Oldambt,Groningen,VBO,7.097662,53.175487
Hoofdstraat,261,A,103,9686PC,Beerta,Oldambt,Groningen,VBO,7.097607,53.175514
Hoofdstraat,261,A,104,9686PC,Beerta,Oldambt,Groningen,VBO,7.097555,53.175543
Hoofdstraat,261,A,105,9686PC,Beerta,Oldambt,Groningen,VBO,7.097498,53.175564
Hoofdstraat,261,A,106,9686PC,Beerta,Oldambt,Groningen,VBO,7.097436,53.175584
Hoofdstraat,261,A,107,9686PC,Beerta,Oldambt,Groningen,VBO,7.097369,53.175598
Hoofdstraat,261,A,108,9686PC,Beerta,Oldambt,Groningen,VBO,7.097302,53.175606
Hoofdstraat,261,A,109,9686PC,Beerta,Oldambt,Groningen,VBO,7.097229,53.175607
Hoofdstraat,261,A,11,9686PC,Beerta,Oldambt,Groningen,VBO,7.097105,53.175575
Hoofdstraat,261,A,110,9686PC,Beerta,Oldambt,Groningen,VBO,7.097160,53.175610
Hoofdstraat,261,A,111,9686PC,Beerta,Oldambt,Groningen,VBO,7.097090,53.175599
Hoofdstraat,261,A,124,9686PC,Beerta,Oldambt,Groningen,VBO,7.096901,53.175660
Hoofdstraat,261,A,125,9686PC,Beerta,Oldambt,Groningen,VBO,7.096945,53.175693
Hoofdstraat,261,A,201,9686PC,Beerta,Oldambt,Groningen,VBO,7.097747,53.175487
Hoofdstraat,261,A,202,9686PC,Beerta,Oldambt,Groningen,VBO,7.097683,53.175520
Hoofdstraat,261,A,203,9686PC,Beerta,Oldambt,Groningen,VBO,7.097638,53.175536
Hoofdstraat,261,A,204,9686PC,Beerta,Oldambt,Groningen,VBO,7.097578,53.175565
Hoofdstraat,261,A,205,9686PC,Beerta,Oldambt,Groningen,VBO,7.097527,53.175591
Hoofdstraat,261,A,206,9686PC,Beerta,Oldambt,Groningen,VBO,7.097453,53.175612
Hoofdstraat,261,A,207,9686PC,Beerta,Oldambt,Groningen,VBO,7.097382,53.175621
Hoofdstraat,261,A,208,9686PC,Beerta,Oldambt,Groningen,VBO,7.097309,53.175630
Hoofdstraat,261,A,209,9686PC,Beerta,Oldambt,Groningen,VBO,7.097230,53.175631
Hoofdstraat,261,A,210,9686PC,Beerta,Oldambt,Groningen,VBO,7.097151,53.175632
Hoofdstraat,261,A,211,9686PC,Beerta,Oldambt,Groningen,VBO,7.097077,53.175620
Hoofdstraat,261,A,212,9686PC,Beerta,Oldambt,Groningen,VBO,7.097007,53.175602
Hoofdstraat,261,A,213,9686PC,Beerta,Oldambt,Groningen,VBO,7.096939,53.175577
Hoofdstraat,261,A,214,9686PC,Beerta,Oldambt,Groningen,VBO,7.096888,53.175551
Hoofdstraat,261,A,215,9686PC,Beerta,Oldambt,Groningen,VBO,7.096846,53.175526
Hoofdstraat,261,A,216,9686PC,Beerta,Oldambt,Groningen,VBO,7.096787,53.175485
Hoofdstraat,261,A,217,9686PC,Beerta,Oldambt,Groningen,VBO,7.096748,53.175450
Hoofdstraat,261,A,218,9686PC,Beerta,Oldambt,Groningen,VBO,7.096665,53.175455
Hoofdstraat,261,A,219,9686PC,Beerta,Oldambt,Groningen,VBO,7.096710,53.175486
Hoofdstraat,261,A,220,9686PC,Beerta,Oldambt,Groningen,VBO,7.096753,53.175527
Hoofdstraat,261,A,221,9686PC,Beerta,Oldambt,Groningen,VBO,7.096794,53.175554
Hoofdstraat,261,A,222,9686PC,Beerta,Oldambt,Groningen,VBO,7.096841,53.175592
Hoofdstraat,261,A,223,9686PC,Beerta,Oldambt,Groningen,VBO,7.096887,53.175615
Hoofdstraat,261,A,224,9686PC,Beerta,Oldambt,Groningen,VBO,7.096940,53.175649
Hoofdstraat,261,A,225,9686PC,Beerta,Oldambt,Groningen,VBO,7.096979,53.175681
Hoofdstraat,261,A,226,9686PC,Beerta,Oldambt,Groningen,VBO,7.097021,53.175713
Hoofdstraat,261,A,227,9686PC,Beerta,Oldambt,Groningen,VBO,7.097048,53.175743
Hoofdstraat,261,A,24,9686PC,Beerta,Oldambt,Groningen,VBO,7.096870,53.175674
Hoofdstraat,261,A,25,9686PC,Beerta,Oldambt,Groningen,VBO,7.096914,53.175708
Hoofdstraat,261,A,26,9686PC,Beerta,Oldambt,Groningen,VBO,7.096953,53.175739
Hoofdstraat,261,A,27,9686PC,Beerta,Oldambt,Groningen,VBO,7.097000,53.175774
Hoofdstraat,261,A,4,9686PC,Beerta,Oldambt,Groningen,VBO,7.097536,53.175524
Hoofdstraat,261,A,5,9686PC,Beerta,Oldambt,Groningen,VBO,7.097478,53.175548
Hoofdstraat,261,A,6,9686PC,Beerta,Oldambt,Groningen,VBO,7.097423,53.175560
Hoofdstraat,261,A,7,9686PC,Beerta,Oldambt,Groningen,VBO,7.097360,53.175573
Hoofdstraat,261,A,8,9686PC,Beerta,Oldambt,Groningen,VBO,7.097297,53.175582
Hoofdstraat,261,A,9,9686PC,Beerta,Oldambt,Groningen,VBO,7.097232,53.175584
Hoofdstraat,261,,,9686PC,Beerta,Oldambt,Groningen,VBO,7.097359,53.175714
Hoofdstraat,263,A,,9686PC,Beerta,Oldambt,Groningen,VBO,7.097900,53.175450
Hoofdstraat,263,B,,9686PC,Beerta,Oldambt,Groningen,VBO,7.097863,53.175465
Hoofdstraat,263,,,9686PC,Beerta,Oldambt,Groningen,VBO,7.097938,53.175434
Hoofdstraat,265,A,,9686PD,Beerta,Oldambt,Groningen,VBO,7.097928,53.175507
Hoofdstraat,265,B,,9686PD,Beerta,Oldambt,Groningen,VBO,7.097885,53.175513
Hoofdstraat,265,,,9686PD,Beerta,Oldambt,Groningen,VBO,7.097971,53.175503
Hoofdstraat,267,A,,9686PD,Beerta,Oldambt,Groningen,VBO,7.097936,53.175562
Hoofdstraat,267,B,,9686PD,Beerta,Oldambt,Groningen,VBO,7.097897,53.175558
Hoofdstraat,267,,,9686PD,Beerta,Oldambt,Groningen,VBO,7.097976,53.175568
Hoofdstraat,269,A,,9686PD,Beerta,Oldambt,Groningen,VBO,7.097905,53.175606
Hoofdstraat,269,B,,9686PD,Beerta,Oldambt,Groningen,VBO,7.097866,53.175592
Hoofdstraat,269,,,9686PD,Beerta,Oldambt,Groningen,VBO,7.097943,53.175623
Hoofdstraat,271,A,,9686PD,Beerta,Oldambt,Groningen,VBO,7.097839,53.175647
Hoofdstraat,271,B,,9686PD,Beerta,Oldambt,Groningen,VBO,7.097811,53.175625
Hoofdstraat,271,,,9686PD,Beerta,Oldambt,Groningen,VBO,7.097870,53.175673
Hoofdstraat,273,A,,9686PD,Beerta,Oldambt,Groningen,VBO,7.097751,53.175684
Hoofdstraat,273,B,,9686PD,Beerta,Oldambt,Groningen,VBO,7.097722,53.175660
Hoofdstraat,273,,,9686PD,Beerta,Oldambt,Groningen,VBO,7.097783,53.175709
Hoofdstraat,275,A,,9686PD,Beerta,Oldambt,Groningen,VBO,7.097660,53.175721
Hoofdstraat,275,B,,9686PD,Beerta,Oldambt,Groningen,VBO,7.097630,53.175696
Hoofdstraat,275,,,9686PD,Beerta,Oldambt,Groningen,VBO,7.097689,53.175749
Hoofdstraat,277,A,,9686PD,Beerta,Oldambt,Groningen,VBO,7.097535,53.175778
Hoofdstraat,277,B,,9686PD,Beerta,Oldambt,Groningen,VBO,7.097507,53.175754
Hoofdstraat,277,,,9686PD,Beerta,Oldambt,Groningen,VBO,7.097562,53.175803
Hoofdstraat,281,,,9686PD,Beerta,Oldambt,Groningen,VBO,7.098764,53.176245
Hoofdstraat,283,,,9686PD,Beerta,Oldambt,Groningen,VBO,7.099086,53.176392
Hoofdstraat,285,,,9686PD,Beerta,Oldambt,Groningen,VBO,7.099223,53.176453
Hoofdstraat,287,,,9686PD,Beerta,Oldambt,Groningen,VBO,7.099315,53.176514
Hoofdstraat,291,,,9686PD,Beerta,Oldambt,Groningen,VBO,7.099529,53.176637
Hoofdstraat,293,,,9686PD,Beerta,Oldambt,Groningen,VBO,7.099550,53.176771
Hoofdstraat,295,,,9686PD,Beerta,Oldambt,Groningen,VBO,7.099611,53.176816
Hoofdstraat,299,,,9686PD,Beerta,Oldambt,Groningen,VBO,7.099856,53.176947
Hoofdstraat,301,,,9686PD,Beerta,Oldambt,Groningen,VBO,7.100145,53.177060
Hoofdstraat,303,,,9686PD,Beerta,Oldambt,Groningen,VBO,7.100162,53.177113
Hoofdstraat,305,,,9686PD,Beerta,Oldambt,Groningen,VBO,7.100210,53.177193
Hoofdstraat,307,,,9686PD,Beerta,Oldambt,Groningen,VBO,7.100377,53.177263
Hoofdstraat,44,,,9686PE,Beerta,Oldambt,Groningen,VBO,7.090853,53.169031
Hoofdstraat,46,,,9686PE,Beerta,Oldambt,Groningen,VBO,7.091149,53.169324
Hoofdstraat,48,,,9686PE,Beerta,Oldambt,Groningen,VBO,7.091287,53.169430
Hoofdstraat,50,,,9686PE,Beerta,Oldambt,Groningen,VBO,7.091413,53.169590
Hoofdstraat,52,,,9686PE,Beerta,Oldambt,Groningen,VBO,7.091578,53.169587
Hoofdstraat,54,,,9686PE,Beerta,Oldambt,Groningen,VBO,7.091597,53.169704
Hoofdstraat,56,,,9686PE,Beerta,Oldambt,Groningen,VBO,7.091855,53.169799
Hoofdstraat,58,,,9686PE,Beerta,Oldambt,Groningen,VBO,7.092011,53.169959
Hoofdstraat,42,A,,9686PG,Beerta,Oldambt,Groningen,VBO,7.093717,53.169911
Hoofdstraat,70,,,9686PG,Beerta,Oldambt,Groningen,VBO,7.092123,53.170137
Hoofdstraat,74,,,9686PG,Beerta,Oldambt,Groningen,VBO,7.092417,53.170375
Hoofdstraat,76,,,9686PG,Beerta,Oldambt,Groningen,VBO,7.092479,53.170446
Hoofdstraat,78,,,9686PG,Beerta,Oldambt,Groningen,VBO,7.092707,53.170542
Hoofdstraat,80,,,9686PG,Beerta,Oldambt,Groningen,VBO,7.093010,53.170636
Hoofdstraat,82,,,9686PG,Beerta,Oldambt,Groningen,VBO,7.092956,53.170781
Hoofdstraat,84,,,9686PG,Beerta,Oldambt,Groningen,VBO,7.092976,53.170898
Hoofdstraat,86,,,9686PG,Beerta,Oldambt,Groningen,VBO,7.093037,53.170942
Hoofdstraat,88,,,9686PG,Beerta,Oldambt,Groningen,VBO,7.093431,53.171080
Hoofdstraat,90,,,9686PG,Beerta,Oldambt,Groningen,VBO,7.093513,53.171240
Hoofdstraat,94,,,9686PG,Beerta,Oldambt,Groningen,VBO,7.093653,53.171400
Hoofdstraat,96,,,9686PG,Beerta,Oldambt,Groningen,VBO,7.093761,53.171462
Hoofdstraat,98,,,9686PG,Beerta,Oldambt,Groningen,VBO,7.093995,53.171486
Hoofdstraat,100,,,9686PH,Beerta,Oldambt,Groningen,VBO,7.093887,53.171639
Hoofdstraat,102,,,9686PH,Beerta,Oldambt,Groningen,VBO,7.093949,53.171693
Hoofdstraat,106,,,9686PH,Beerta,Oldambt,Groningen,VBO,7.094467,53.171919
Hoofdstraat,110,,,9686PH,Beerta,Oldambt,Groningen,VBO,7.094427,53.172063
Hoofdstraat,116,,,9686PH,Beerta,Oldambt,Groningen,VBO,7.094676,53.172284
Hoofdstraat,120,,,9686PH,Beerta,Oldambt,Groningen,VBO,7.094817,53.172462
Hoofdstraat,122,,,9686PH,Beerta,Oldambt,Groningen,VBO,7.094963,53.172533
Hoofdstraat,124,,,9686PH,Beerta,Oldambt,Groningen,VBO,7.095008,53.172577
Hoofdstraat,128,,,9686PH,Beerta,Oldambt,Groningen,VBO,7.095099,53.172693
Hoofdstraat,130,,,9686PH,Beerta,Oldambt,Groningen,VBO,7.095263,53.172770
Hoofdstraat,132,,,9686PH,Beerta,Oldambt,Groningen,VBO,7.095579,53.172811
Hoofdstraat,136,,,9686PH,Beerta,Oldambt,Groningen,VBO,7.095465,53.172965
Hoofdstraat,138,A,,9686PH,Beerta,Oldambt,Groningen,VBO,7.095664,53.173079
Hoofdstraat,138,,,9686PH,Beerta,Oldambt,Groningen,VBO,7.095573,53.173035
Hoofdstraat,140,,,9686PH,Beerta,Oldambt,Groningen,VBO,7.095772,53.173167
Hoofdstraat,148,,,9686PJ,Beerta,Oldambt,Groningen,VBO,7.096672,53.173973
Hoofdstraat,150,,,9686PJ,Beerta,Oldambt,Groningen,VBO,7.096871,53.174087
Hoofdstraat,154,,,9686PJ,Beerta,Oldambt,Groningen,VBO,7.097099,53.174182
Hoofdstraat,156,,,9686PJ,Beerta,Oldambt,Groningen,VBO,7.097423,53.174429
Hoofdstraat,158,,,9686PJ,Beerta,Oldambt,Groningen,VBO,7.097639,53.174606
Hoofdstraat,160,,,9686PJ,Beerta,Oldambt,Groningen,VBO,7.097748,53.174721
Hoofdstraat,164,,,9686PJ,Beerta,Oldambt,Groningen,VBO,7.097863,53.174962
Hoofdstraat,166,,,9686PJ,Beerta,Oldambt,Groningen,VBO,7.098121,53.175066
Hoofdstraat,170,,,9686PJ,Beerta,Oldambt,Groningen,VBO,7.098457,53.175250
Hoofdstraat,172,,,9686PJ,Beerta,Oldambt,Groningen,VBO,7.098703,53.175408
Hoofdstraat,174,,,9686PJ,Beerta,Oldambt,Groningen,VBO,7.098863,53.175667
Hoofdstraat,176,,,9686PJ,Beerta,Oldambt,Groningen,VBO,7.098940,53.175729
Hoofdstraat,180,,,9686PJ,Beerta,Oldambt,Groningen,VBO,7.099112,53.175915
Hoofdstraat,182,,,9686PK,Beerta,Oldambt,Groningen,VBO,7.099343,53.176082
Hoofdstraat,184,,,9686PK,Beerta,Oldambt,Groningen,VBO,7.099542,53.176187
Hoofdstraat,194,,,9686PK,Beerta,Oldambt,Groningen,VBO,7.100080,53.176180
Hoofdstraat,196,,,9686PK,Beerta,Oldambt,Groningen,VBO,7.099792,53.176471
Hoofdstraat,198,,,9686PK,Beerta,Oldambt,Groningen,VBO,7.100068,53.176629
Hoofdstraat,200,,,9686PK,Beerta,Oldambt,Groningen,VBO,7.100207,53.176753
Hoofdstraat,202,,,9686PK,Beerta,Oldambt,Groningen,VBO,7.100286,53.176860
Hoofdstraat,204,,,9686PK,Beerta,Oldambt,Groningen,VBO,7.100425,53.176957
Hoofdstraat,210,,,9686PK,Beerta,Oldambt,Groningen,VBO,7.100655,53.177106
Hoofdstraat,212,,,9686PK,Beerta,Oldambt,Groningen,VBO,7.101460,53.177023
Vereniginglaan,1,,,9686PL,Beerta,Oldambt,Groningen,VBO,7.091633,53.170611
Vereniginglaan,2,,,9686PL,Beerta,Oldambt,Groningen,VBO,7.091654,53.170755
Vereniginglaan,3,,,9686PL,Beerta,Oldambt,Groningen,VBO,7.091266,53.170796
Vereniginglaan,4,,,9686PL,Beerta,Oldambt,Groningen,VBO,7.091318,53.170966
Vereniginglaan,5,,,9686PL,Beerta,Oldambt,Groningen,VBO,7.090870,53.170981
Vereniginglaan,6,,,9686PL,Beerta,Oldambt,Groningen,VBO,7.090848,53.171197
Vereniginglaan,7,,,9686PL,Beerta,Oldambt,Groningen,VBO,7.090425,53.171087
Vereniginglaan,8,,,9686PL,Beerta,Oldambt,Groningen,VBO,7.090421,53.171365
Vereniginglaan,9,,,9686PL,Beerta,Oldambt,Groningen,VBO,7.090160,53.171189
Vereniginglaan,10,,,9686PL,Beerta,Oldambt,Groningen,VBO,7.089842,53.171463
Molenlaan,3,,,9686PM,Beerta,Oldambt,Groningen,VBO,7.094759,53.171375
Bovenlandenstraat,2,,,9686PN,Beerta,Oldambt,Groningen,VBO,7.096162,53.172434
Bovenlandenstraat,4,,,9686PN,Beerta,Oldambt,Groningen,VBO,7.096224,53.172478
Bovenlandenstraat,22,,,9686PN,Beerta,Oldambt,Groningen,VBO,7.097196,53.173237
Bovenlandenstraat,24,,,9686PN,Beerta,Oldambt,Groningen,VBO,7.097242,53.173272
Bovenlandenstraat,26,,,9686PN,Beerta,Oldambt,Groningen,VBO,7.097365,53.173342
Bovenlandenstraat,28,,,9686PN,Beerta,Oldambt,Groningen,VBO,7.097426,53.173387
Bovenlandenstraat,30,,,9686PN,Beerta,Oldambt,Groningen,VBO,7.097940,53.173505
Bovenlandenstraat,32,,,9686PN,Beerta,Oldambt,Groningen,VBO,7.097972,53.173559
Bovenlandenstraat,34,,,9686PN,Beerta,Oldambt,Groningen,VBO,7.098081,53.173665
Bovenlandenstraat,36,,,9686PN,Beerta,Oldambt,Groningen,VBO,7.098142,53.173700
Bovenlandenstraat,38,,,9686PN,Beerta,Oldambt,Groningen,VBO,7.098280,53.173797
Bovenlandenstraat,40,,,9686PN,Beerta,Oldambt,Groningen,VBO,7.098357,53.173850
Bovenlandenstraat,42,,,9686PN,Beerta,Oldambt,Groningen,VBO,7.098436,53.173947
Bovenlandenstraat,44,A,,9686PN,Beerta,Oldambt,Groningen,VBO,7.098550,53.174185
Bovenlandenstraat,44,B,,9686PN,Beerta,Oldambt,Groningen,VBO,7.098583,53.174172
Bovenlandenstraat,44,C,,9686PN,Beerta,Oldambt,Groningen,VBO,7.098618,53.174156
Bovenlandenstraat,44,D,,9686PN,Beerta,Oldambt,Groningen,VBO,7.098652,53.174140
Bovenlandenstraat,44,E,,9686PN,Beerta,Oldambt,Groningen,VBO,7.098684,53.174125
Bovenlandenstraat,44,F,,9686PN,Beerta,Oldambt,Groningen,VBO,7.098717,53.174111
Bovenlandenstraat,44,G,,9686PN,Beerta,Oldambt,Groningen,VBO,7.098756,53.174096
Bovenlandenstraat,44,H,,9686PN,Beerta,Oldambt,Groningen,VBO,7.098787,53.174080
Bovenlandenstraat,44,I,,9686PN,Beerta,Oldambt,Groningen,VBO,7.098822,53.174065
Bovenlandenstraat,44,J,,9686PN,Beerta,Oldambt,Groningen,VBO,7.098855,53.174049
Bovenlandenstraat,44,,,9686PN,Beerta,Oldambt,Groningen,VBO,7.098483,53.174001
Bovenlandenstraat,46,,,9686PN,Beerta,Oldambt,Groningen,VBO,7.098691,53.174265
Bovenlandenstraat,48,,,9686PN,Beerta,Oldambt,Groningen,VBO,7.098740,53.174294
Bovenlandenstraat,50,,,9686PN,Beerta,Oldambt,Groningen,VBO,7.098761,53.174233
Bovenlandenstraat,52,,,9686PN,Beerta,Oldambt,Groningen,VBO,7.098800,53.174258
Bovenlandenstraat,54,,,9686PN,Beerta,Oldambt,Groningen,VBO,7.098811,53.174315
Bovenlandenstraat,56,,,9686PN,Beerta,Oldambt,Groningen,VBO,7.098864,53.174348
Bovenlandenstraat,58,,,9686PN,Beerta,Oldambt,Groningen,VBO,7.098885,53.174274
Bovenlandenstraat,60,,,9686PN,Beerta,Oldambt,Groningen,VBO,7.098924,53.174308
Bovenlandenstraat,1,A,,9686PP,Beerta,Oldambt,Groningen,VBO,7.096059,53.172731
Bovenlandenstraat,1,B,,9686PP,Beerta,Oldambt,Groningen,VBO,7.096025,53.172745
Bovenlandenstraat,1,C,,9686PP,Beerta,Oldambt,Groningen,VBO,7.095988,53.172758
Bovenlandenstraat,1,D,,9686PP,Beerta,Oldambt,Groningen,VBO,7.095949,53.172773
Bovenlandenstraat,1,E,,9686PP,Beerta,Oldambt,Groningen,VBO,7.095922,53.172787
Bovenlandenstraat,1,F,,9686PP,Beerta,Oldambt,Groningen,VBO,7.095887,53.172804
Bovenlandenstraat,1,G,,9686PP,Beerta,Oldambt,Groningen,VBO,7.095841,53.172819
Bovenlandenstraat,1,H,,9686PP,Beerta,Oldambt,Groningen,VBO,7.095859,53.172927
Bovenlandenstraat,1,I,,9686PP,Beerta,Oldambt,Groningen,VBO,7.095896,53.172914
Bovenlandenstraat,1,J,,9686PP,Beerta,Oldambt,Groningen,VBO,7.095938,53.172898
Bovenlandenstraat,1,K,,9686PP,Beerta,Oldambt,Groningen,VBO,7.095972,53.172883
Bovenlandenstraat,1,L,,9686PP,Beerta,Oldambt,Groningen,VBO,7.096004,53.172869
Bovenlandenstraat,1,M,,9686PP,Beerta,Oldambt,Groningen,VBO,7.096036,53.172858
Bovenlandenstraat,1,N,,9686PP,Beerta,Oldambt,Groningen,VBO,7.096078,53.172841
Bovenlandenstraat,1,O,,9686PP,Beerta,Oldambt,Groningen,VBO,7.096112,53.172828
Bovenlandenstraat,1,P,,9686PP,Beerta,Oldambt,Groningen,VBO,7.096142,53.172813
Bovenlandenstraat,1,Q,,9686PP,Beerta,Oldambt,Groningen,VBO,7.096183,53.172799
Bovenlandenstraat,5,,,9686PP,Beerta,Oldambt,Groningen,VBO,7.098685,53.174448
Bovenlandenstraat,6,,,9686PP,Beerta,Oldambt,Groningen,VBO,7.096363,53.172584
Bovenlandenstraat,7,,,9686PP,Beerta,Oldambt,Groningen,VBO,7.098745,53.174481
Bovenlandenstraat,8,,,9686PP,Beerta,Oldambt,Groningen,VBO,7.096439,53.172628
Bovenlandenstraat,9,,,9686PP,Beerta,Oldambt,Groningen,VBO,7.098651,53.174475
Bovenlandenstraat,10,,,9686PP,Beerta,Oldambt,Groningen,VBO,7.096532,53.172707
Bovenlandenstraat,11,,,9686PP,Beerta,Oldambt,Groningen,VBO,7.098712,53.174501
Bovenlandenstraat,12,,,9686PP,Beerta,Oldambt,Groningen,VBO,7.096594,53.172751
Bovenlandenstraat,13,,,9686PP,Beerta,Oldambt,Groningen,VBO,7.098817,53.174499
Bovenlandenstraat,14,,,9686PP,Beerta,Oldambt,Groningen,VBO,7.096686,53.172831
Bovenlandenstraat,15,,,9686PP,Beerta,Oldambt,Groningen,VBO,7.098873,53.174527
Bovenlandenstraat,16,,,9686PP,Beerta,Oldambt,Groningen,VBO,7.096748,53.172884
Bovenlandenstraat,17,,,9686PP,Beerta,Oldambt,Groningen,VBO,7.098779,53.174531
Bovenlandenstraat,18,,,9686PP,Beerta,Oldambt,Groningen,VBO,7.097012,53.173114
Bovenlandenstraat,19,,,9686PP,Beerta,Oldambt,Groningen,VBO,7.098834,53.174559
Bovenlandenstraat,20,,,9686PP,Beerta,Oldambt,Groningen,VBO,7.097073,53.173158
de Raaiing,1,,,9686PR,Beerta,Oldambt,Groningen,VBO,7.093976,53.170865
de Raaiing,3,,,9686PR,Beerta,Oldambt,Groningen,VBO,7.094224,53.171086
de Raaiing,5,,,9686PR,Beerta,Oldambt,Groningen,VBO,7.094394,53.171219
Pastorielaan,1,,,9686PS,Beerta,Oldambt,Groningen,VBO,7.098154,53.174383
Dokterlaan,2,,,9686PT,Beerta,Oldambt,Groningen,VBO,7.099049,53.174703
Dokterlaan,5,,,9686PT,Beerta,Oldambt,Groningen,VBO,7.099177,53.174907
Dokterlaan,9,,,9686PT,Beerta,Oldambt,Groningen,VBO,7.099651,53.174793
Koopmanlaan,1,A,,9686PV,Beerta,Oldambt,Groningen,VBO,7.099348,53.175444
Koopmanlaan,1,,,9686PV,Beerta,Oldambt,Groningen,VBO,7.099787,53.175204
Koopmanlaan,3,,,9686PV,Beerta,Oldambt,Groningen,VBO,7.100037,53.175111
Koopmanlaan,6,,,9686PV,Beerta,Oldambt,Groningen,VBO,7.099838,53.174979
Bredelaan,1,,,9686PW,Beerta,Oldambt,Groningen,VBO,7.100062,53.175722
Bredelaan,2,A,,9686PW,Beerta,Oldambt,Groningen,VBO,7.099596,53.175665
Bredelaan,2,,,9686PW,Beerta,Oldambt,Groningen,VBO,7.099787,53.175573
Bredelaan,3,,,9686PW,Beerta,Oldambt,Groningen,VBO,7.100438,53.175770
Bredelaan,4,,,9686PW,Beerta,Oldambt,Groningen,VBO,7.100111,53.175460
Bredelaan,5,,,9686PW,Beerta,Oldambt,Groningen,VBO,7.100499,53.175805
Bredelaan,6,,,9686PW,Beerta,Oldambt,Groningen,VBO,7.101128,53.176201
Bredelaan,7,,,9686PW,Beerta,Oldambt,Groningen,VBO,7.100560,53.175840
Bredelaan,8,,,9686PW,Beerta,Oldambt,Groningen,VBO,7.101347,53.176440
Bredelaan,9,,,9686PW,Beerta,Oldambt,Groningen,VBO,7.100621,53.175875
Bredelaan,11,,,9686PW,Beerta,Oldambt,Groningen,VBO,7.100643,53.176037
Bredelaan,13,,,9686PW,Beerta,Oldambt,Groningen,VBO,7.100569,53.176065
Bredelaan,15,,,9686PW,Beerta,Oldambt,Groningen,VBO,7.100511,53.176120
Bredelaan,17,,,9686PW,Beerta,Oldambt,Groningen,VBO,7.100452,53.176138
Bredelaan,19,,,9686PW,Beerta,Oldambt,Groningen,VBO,7.100686,53.176369
Bredelaan,21,,,9686PW,Beerta,Oldambt,Groningen,VBO,7.100947,53.176554
Bredelaan,23,,,9686PW,Beerta,Oldambt,Groningen,VBO,7.101236,53.176666
Buitenlandenstraat,1,,,9686PZ,Beerta,Oldambt,Groningen,VBO,7.101146,53.172387
Buitenlandenstraat,2,,,9686PZ,Beerta,Oldambt,Groningen,VBO,7.096140,53.173000
Buitenlandenstraat,3,,,9686PZ,Beerta,Oldambt,Groningen,VBO,7.100733,53.172846
Buitenlandenstraat,4,,,9686PZ,Beerta,Oldambt,Groningen,VBO,7.099694,53.172448
Buitenlandenstraat,5,,,9686PZ,Beerta,Oldambt,Groningen,VBO,7.098262,53.173118
Buitenlandenstraat,6,,,9686PZ,Beerta,Oldambt,Groningen,VBO,7.097564,53.172447
Wilhelminaplein,1,,,9686RA,Beerta,Oldambt,Groningen,VBO,7.100440,53.177720
Wilhelminaplein,2,,,9686RA,Beerta,Oldambt,Groningen,VBO,7.101204,53.177359
Wilhelminaplein,3,,,9686RA,Beerta,Oldambt,Groningen,VBO,7.101082,53.178062
Wilhelminaplein,4,,,9686RA,Beerta,Oldambt,Groningen,VBO,7.101431,53.177437
Wilhelminaplein,5,,,9686RA,Beerta,Oldambt,Groningen,VBO,7.101331,53.178319
Wilhelminaplein,6,,,9686RA,Beerta,Oldambt,Groningen,VBO,7.101614,53.177533
Wilhelminaplein,7,,,9686RA,Beerta,Oldambt,Groningen,VBO,7.101770,53.178070
Wilhelminaplein,9,,,9686RA,Beerta,Oldambt,Groningen,VBO,7.101888,53.178032
Kortelaan,1,,,9686RB,Beerta,Oldambt,Groningen,VBO,7.098949,53.177859
Kanaalsterlaan,3,,,9686RC,Beerta,Oldambt,Groningen,VBO,7.098952,53.177157
Kanaalsterlaan,7,,,9686RC,Beerta,Oldambt,Groningen,VBO,7.098641,53.177243
Kanaalsterlaan,11,,,9686RC,Beerta,Oldambt,Groningen,VBO,7.097980,53.177558
Kanaalsterlaan,13,,,9686RC,Beerta,Oldambt,Groningen,VBO,7.097451,53.177790
Kanaalsterlaan,15,,,9686RC,Beerta,Oldambt,Groningen,VBO,7.097127,53.177920
Kanaalsterlaan,2,,,9686RD,Beerta,Oldambt,Groningen,VBO,7.099267,53.177180
Kanaalsterlaan,4,,,9686RD,Beerta,Oldambt,Groningen,VBO,7.099048,53.177318
Kanaalsterlaan,6,,,9686RD,Beerta,Oldambt,Groningen,VBO,7.098713,53.177556
Kanaalsterlaan,8,,,9686RD,Beerta,Oldambt,Groningen,VBO,7.097916,53.177837
Kanaalsterlaan,10,,,9686RD,Beerta,Oldambt,Groningen,VBO,7.097637,53.177949
Kanaalsterlaan,20,,,9686RD,Beerta,Oldambt,Groningen,VBO,7.097108,53.178199
Kanaalsterlaan,24,,,9686RD,Beerta,Oldambt,Groningen,VBO,7.096858,53.178311
Kanaalsterlaan,28,,,9686RD,Beerta,Oldambt,Groningen,VBO,7.096554,53.178558
Kanaalsterlaan,30,A,,9686RD,Beerta,Oldambt,Groningen,VBO,7.096023,53.178754
Kanaalsterlaan,30,,,9686RD,Beerta,Oldambt,Groningen,VBO,7.096211,53.178599
Kanaalsterlaan,32,,,9686RD,Beerta,Oldambt,Groningen,VBO,7.095641,53.178921
Kanaalsterlaan,36,,,9686RD,Beerta,Oldambt,Groningen,VBO,7.094901,53.179139
Raadhuisstraat,1,,,9686RE,Beerta,Oldambt,Groningen,VBO,7.096125,53.176310
Raadhuisstraat,3,,,9686RE,Beerta,Oldambt,Groningen,VBO,7.095987,53.176189
Raadhuisstraat,5,,,9686RE,Beerta,Oldambt,Groningen,VBO,7.095935,53.176145
Raadhuisstraat,7,,,9686RE,Beerta,Oldambt,Groningen,VBO,7.095800,53.176013
Raadhuisstraat,9,,,9686RE,Beerta,Oldambt,Groningen,VBO,7.095458,53.176195
Raadhuisstraat,11,,,9686RE,Beerta,Oldambt,Groningen,VBO,7.095500,53.176247
Raadhuisstraat,13,,,9686RE,Beerta,Oldambt,Groningen,VBO,7.095764,53.176440
Raadhuisstraat,15,,,9686RE,Beerta,Oldambt,Groningen,VBO,7.095688,53.176474
Raadhuisstraat,17,,,9686RE,Beerta,Oldambt,Groningen,VBO,7.095433,53.176588
Raadhuisstraat,19,,,9686RE,Beerta,Oldambt,Groningen,VBO,7.095347,53.176623
Raadhuisstraat,21,,,9686RE,Beerta,Oldambt,Groningen,VBO,7.095098,53.176422
Raadhuisstraat,23,,,9686RE,Beerta,Oldambt,Groningen,VBO,7.095031,53.176376
Raadhuisstraat,49,,,9686RG,Beerta,Oldambt,Groningen,VBO,7.095004,53.176827
Raadhuisstraat,51,,,9686RG,Beerta,Oldambt,Groningen,VBO,7.094943,53.176792
Raadhuisstraat,53,,,9686RG,Beerta,Oldambt,Groningen,VBO,7.094896,53.176739
Raadhuisstraat,55,,,9686RG,Beerta,Oldambt,Groningen,VBO,7.094864,53.176686
Raadhuisstraat,57,,,9686RG,Beerta,Oldambt,Groningen,VBO,7.094741,53.176606
Raadhuisstraat,59,,,9686RG,Beerta,Oldambt,Groningen,VBO,7.094695,53.176562
Raadhuisstraat,61,,,9686RG,Beerta,Oldambt,Groningen,VBO,7.094648,53.176518
Raadhuisstraat,63,,,9686RG,Beerta,Oldambt,Groningen,VBO,7.094601,53.176474
Raadhuisstraat,4,,,9686RH,Beerta,Oldambt,Groningen,VBO,7.097640,53.176134
Raadhuisstraat,6,,,9686RH,Beerta,Oldambt,Groningen,VBO,7.097551,53.176171
Raadhuisstraat,8,,,9686RH,Beerta,Oldambt,Groningen,VBO,7.097359,53.176219
Raadhuisstraat,10,,,9686RH,Beerta,Oldambt,Groningen,VBO,7.097271,53.176256
Raadhuisstraat,12,,,9686RH,Beerta,Oldambt,Groningen,VBO,7.097047,53.176277
Raadhuisstraat,14,,,9686RH,Beerta,Oldambt,Groningen,VBO,7.096973,53.176305
Raadhuisstraat,16,,,9686RH,Beerta,Oldambt,Groningen,VBO,7.096813,53.176424
Raadhuisstraat,18,A,,9686RH,Beerta,Oldambt,Groningen,VBO,7.096501,53.176494
Raadhuisstraat,18,,,9686RH,Beerta,Oldambt,Groningen,VBO,7.096573,53.176467
Raadhuisstraat,20,,,9686RH,Beerta,Oldambt,Groningen,VBO,7.096325,53.176557
Raadhuisstraat,22,,,9686RH,Beerta,Oldambt,Groningen,VBO,7.096135,53.176658
Raadhuisstraat,24,,,9686RH,Beerta,Oldambt,Groningen,VBO,7.096046,53.176687
Raadhuisstraat,26,,,9686RH,Beerta,Oldambt,Groningen,VBO,7.095825,53.176762
Raadhuisstraat,28,,,9686RH,Beerta,Oldambt,Groningen,VBO,7.095677,53.176827
Raadhuisstraat,38,,,9686RJ,Beerta,Oldambt,Groningen,VBO,7.095486,53.176901
Raadhuisstraat,40,,,9686RJ,Beerta,Oldambt,Groningen,VBO,7.095397,53.176930
Raadhuisstraat,42,,,9686RJ,Beerta,Oldambt,Groningen,VBO,7.095265,53.176985
Raadhuisstraat,44,,,9686RJ,Beerta,Oldambt,Groningen,VBO,7.095191,53.177013
Raadhuisstraat,46,,,9686RJ,Beerta,Oldambt,Groningen,VBO,7.095059,53.177078
Raadhuisstraat,48,,,9686RJ,Beerta,Oldambt,Groningen,VBO,7.094985,53.177106
Raadhuisstraat,50,,,9686RJ,Beerta,Oldambt,Groningen,VBO,7.094868,53.177162
Raadhuisstraat,52,,,9686RJ,Beerta,Oldambt,Groningen,VBO,7.094779,53.177190
Raadhuisstraat,54,,,9686RJ,Beerta,Oldambt,Groningen,VBO,7.094662,53.177246
Raadhuisstraat,56,,,9686RJ,Beerta,Oldambt,Groningen,VBO,7.094574,53.177283
Raadhuisstraat,58,,,9686RJ,Beerta,Oldambt,Groningen,VBO,7.094382,53.177366
Raadhuisstraat,60,,,9686RJ,Beerta,Oldambt,Groningen,VBO,7.094265,53.177422
Raadhuisstraat,62,,,9686RJ,Beerta,Oldambt,Groningen,VBO,7.094104,53.177505
Raadhuisstraat,64,,,9686RJ,Beerta,Oldambt,Groningen,VBO,7.093985,53.177543
Raadhuisstraat,66,,,9686RJ,Beerta,Oldambt,Groningen,VBO,7.093794,53.177626
Raadhuisstraat,68,,,9686RJ,Beerta,Oldambt,Groningen,VBO,7.093661,53.177673
Raadhuisstraat,70,,,9686RJ,Beerta,Oldambt,Groningen,VBO,7.093470,53.177757
Raadhuisstraat,72,,,9686RJ,Beerta,Oldambt,Groningen,VBO,7.093353,53.177812
Raadhuisstraat,74,,,9686RK,Beerta,Oldambt,Groningen,VBO,7.092808,53.178045
Raadhuisstraat,76,,,9686RK,Beerta,Oldambt,Groningen,VBO,7.092378,53.178123
Raadhuisstraat,78,,,9686RK,Beerta,Oldambt,Groningen,VBO,7.092440,53.178176
Raadhuisstraat,80,,,9686RK,Beerta,Oldambt,Groningen,VBO,7.092487,53.178238
Raadhuisstraat,82,,,9686RK,Beerta,Oldambt,Groningen,VBO,7.092549,53.178300
Raadhuisstraat,84,,,9686RK,Beerta,Oldambt,Groningen,VBO,7.091995,53.178281
Raadhuisstraat,86,,,9686RK,Beerta,Oldambt,Groningen,VBO,7.092072,53.178343
Raadhuisstraat,88,,,9686RK,Beerta,Oldambt,Groningen,VBO,7.092104,53.178387
Raadhuisstraat,90,,,9686RK,Beerta,Oldambt,Groningen,VBO,7.092196,53.178449
Raadhuisstraat,92,,,9686RK,Beerta,Oldambt,Groningen,VBO,7.091776,53.178419
Raadhuisstraat,94,,,9686RK,Beerta,Oldambt,Groningen,VBO,7.091657,53.178448
Raadhuisstraat,96,,,9686RK,Beerta,Oldambt,Groningen,VBO,7.091539,53.178467
Raadhuisstraat,98,,,9686RK,Beerta,Oldambt,Groningen,VBO,7.091481,53.178522
Raadhuisstraat,100,,,9686RK,Beerta,Oldambt,Groningen,VBO,7.091392,53.178541
Tjammestraat,2,,,9686RM,Beerta,Oldambt,Groningen,VBO,7.094219,53.176641
Tjammestraat,4,,,9686RM,Beerta,Oldambt,Groningen,VBO,7.094250,53.176676
Tjammestraat,6,,,9686RM,Beerta,Oldambt,Groningen,VBO,7.094297,53.176721
Tjammestraat,8,,,9686RM,Beerta,Oldambt,Groningen,VBO,7.094344,53.176765
Tjammestraat,10,,,9686RM,Beerta,Oldambt,Groningen,VBO,7.094437,53.176853
Tjammestraat,12,,,9686RM,Beerta,Oldambt,Groningen,VBO,7.094499,53.176897
Tjammestraat,14,,,9686RM,Beerta,Oldambt,Groningen,VBO,7.094560,53.176950
Tjammestraat,16,,,9686RM,Beerta,Oldambt,Groningen,VBO,7.094607,53.176986
Rozenstraat,1,T,,9686RN,Beerta,Oldambt,Groningen,VBO,7.092108,53.176961
Rozenstraat,2,,,9686RN,Beerta,Oldambt,Groningen,VBO,7.093362,53.176914
Wethouder G.Mulderstraat,1,,,9686RR,Beerta,Oldambt,Groningen,VBO,7.090173,53.177975
Wethouder G.Mulderstraat,3,,,9686RR,Beerta,Oldambt,Groningen,VBO,7.090070,53.178021
Wethouder G.Mulderstraat,5,,,9686RR,Beerta,Oldambt,Groningen,VBO,7.089997,53.178067
Wethouder G.Mulderstraat,7,,,9686RR,Beerta,Oldambt,Groningen,VBO,7.089908,53.178086
Wethouder G.Mulderstraat,9,,,9686RR,Beerta,Oldambt,Groningen,VBO,7.090466,53.178204
Wethouder G.Mulderstraat,11,,,9686RR,Beerta,Oldambt,Groningen,VBO,7.090363,53.178241
Wethouder G.Mulderstraat,13,,,9686RR,Beerta,Oldambt,Groningen,VBO,7.090289,53.178278
Wethouder G.Mulderstraat,15,,,9686RR,Beerta,Oldambt,Groningen,VBO,7.090216,53.178315
Wethouder G.Mulderstraat,17,,,9686RR,Beerta,Oldambt,Groningen,VBO,7.090790,53.178460
Wethouder G.Mulderstraat,19,,,9686RR,Beerta,Oldambt,Groningen,VBO,7.090687,53.178506
Wethouder G.Mulderstraat,21,,,9686RR,Beerta,Oldambt,Groningen,VBO,7.090614,53.178552
Wethouder G.Mulderstraat,23,,,9686RR,Beerta,Oldambt,Groningen,VBO,7.090511,53.178581
Wethouder G.Mulderstraat,25,,,9686RR,Beerta,Oldambt,Groningen,VBO,7.091114,53.178698
Wethouder G.Mulderstraat,27,,,9686RR,Beerta,Oldambt,Groningen,VBO,7.090966,53.178736
Wethouder G.Mulderstraat,29,,,9686RR,Beerta,Oldambt,Groningen,VBO,7.090877,53.178764
Wethouder G.Mulderstraat,31,,,9686RR,Beerta,Oldambt,Groningen,VBO,7.090774,53.178802
Kerkstraat,1,A,,9686RS,Beerta,Oldambt,Groningen,VBO,7.094387,53.176132
Kerkstraat,1,,,9686RS,Beerta,Oldambt,Groningen,VBO,7.096206,53.175822
Kerkstraat,3,,,9686RS,Beerta,Oldambt,Groningen,VBO,7.096253,53.175875
Kerkstraat,5,,,9686RS,Beerta,Oldambt,Groningen,VBO,7.096332,53.175964
Kerkstraat,7,,,9686RS,Beerta,Oldambt,Groningen,VBO,7.096393,53.176008
Kerkstraat,9,,,9686RS,Beerta,Oldambt,Groningen,VBO,7.096501,53.176096
Kerkstraat,11,,,9686RS,Beerta,Oldambt,Groningen,VBO,7.096563,53.176149
Vredesplein,1,A,,9686RT,Beerta,Oldambt,Groningen,VBO,7.096627,53.173218
Vredesplein,1,,,9686RT,Beerta,Oldambt,Groningen,VBO,7.096347,53.173330
Vredesplein,7,,,9686RT,Beerta,Oldambt,Groningen,VBO,7.096711,53.173588
Vredesplein,9,A,,9686RT,Beerta,Oldambt,Groningen,VBO,7.096748,53.173613
Vredesplein,9,,,9686RT,Beerta,Oldambt,Groningen,VBO,7.096772,53.173632
Vredesplein,15,,,9686RT,Beerta,Oldambt,Groningen,VBO,7.096744,53.173522
Vredesplein,17,,,9686RT,Beerta,Oldambt,Groningen,VBO,7.096775,53.173567
Vredesplein,19,,,9686RT,Beerta,Oldambt,Groningen,VBO,7.096837,53.173611
Vredesplein,27,,,9686RT,Beerta,Oldambt,Groningen,VBO,7.097157,53.173768
Vredesplein,29,,,9686RT,Beerta,Oldambt,Groningen,VBO,7.096920,53.173816
Vredesplein,31,,,9686RT,Beerta,Oldambt,Groningen,VBO,7.096847,53.173871
Bouwteheerd,1,,,9686RV,Beerta,Oldambt,Groningen,VBO,7.098061,53.176000
Bouwteheerd,2,,,9686RV,Beerta,Oldambt,Groningen,VBO,7.098073,53.175994
Bouwteheerd,3,,,9686RV,Beerta,Oldambt,Groningen,VBO,7.098086,53.175990
Bouwteheerd,4,,,9686RV,Beerta,Oldambt,Groningen,VBO,7.098101,53.175985
Bouwteheerd,5,,,9686RV,Beerta,Oldambt,Groningen,VBO,7.098114,53.175981
Bouwteheerd,6,,,9686RV,Beerta,Oldambt,Groningen,VBO,7.098130,53.175975
Bouwteheerd,7,,,9686RV,Beerta,Oldambt,Groningen,VBO,7.098146,53.175971
Bouwteheerd,8,,,9686RV,Beerta,Oldambt,Groningen,VBO,7.098162,53.175967
Bouwteheerd,11,,,9686RV,Beerta,Oldambt,Groningen,VBO,7.098026,53.175965
Bouwteheerd,12,,,9686RV,Beerta,Oldambt,Groningen,VBO,7.098035,53.175961
Bouwteheerd,13,,,9686RV,Beerta,Oldambt,Groningen,VBO,7.098045,53.175958
Bouwteheerd,14,,,9686RV,Beerta,Oldambt,Groningen,VBO,7.098057,53.175953
Bouwteheerd,15,,,9686RV,Beerta,Oldambt,Groningen,VBO,7.098072,53.175948
Bouwteheerd,16,,,9686RV,Beerta,Oldambt,Groningen,VBO,7.098089,53.175943
Bouwteheerd,17,,,9686RV,Beerta,Oldambt,Groningen,VBO,7.098105,53.175939
Bouwteheerd,18,,,9686RV,Beerta,Oldambt,Groningen,VBO,7.098120,53.175934
Bouwteheerd,21,,,9686RV,Beerta,Oldambt,Groningen,VBO,7.097999,53.175944
Bouwteheerd,22,,,9686RV,Beerta,Oldambt,Groningen,VBO,7.098008,53.175941
Bouwteheerd,23,,,9686RV,Beerta,Oldambt,Groningen,VBO,7.098017,53.175938
Bouwteheerd,24,,,9686RV,Beerta,Oldambt,Groningen,VBO,7.098032,53.175932
Bouwteheerd,25,,,9686RV,Beerta,Oldambt,Groningen,VBO,7.098049,53.175929
Bouwteheerd,26,,,9686RV,Beerta,Oldambt,Groningen,VBO,7.098060,53.175925
Bouwteheerd,27,,,9686RV,Beerta,Oldambt,Groningen,VBO,7.098072,53.175922
Bouwteheerd,28,,,9686RV,Beerta,Oldambt,Groningen,VBO,7.098082,53.175920
Bouwteheerd,31,,,9686RV,Beerta,Oldambt,Groningen,VBO,7.097988,53.175933
Bouwteheerd,33,,,9686RV,Beerta,Oldambt,Groningen,VBO,7.098003,53.175926
Veenweg,1,A,,9686SB,Beerta,Oldambt,Groningen,VBO,7.096781,53.174474
Veenweg,1,B,,9686SB,Beerta,Oldambt,Groningen,VBO,7.096679,53.174539
Veenweg,1,C,,9686SB,Beerta,Oldambt,Groningen,VBO,7.096399,53.174608
Veenweg,1,,,9686SB,Beerta,Oldambt,Groningen,VBO,7.095865,53.174766
Veenweg,3,,,9686SB,Beerta,Oldambt,Groningen,VBO,7.095570,53.174860
Veenweg,5,,,9686SB,Beerta,Oldambt,Groningen,VBO,7.095513,53.174942
Veenweg,7,,,9686SB,Beerta,Oldambt,Groningen,VBO,7.095351,53.174989
Veenweg,11,,,9686SB,Beerta,Oldambt,Groningen,VBO,7.095177,53.175126
Veenweg,13,,,9686SB,Beerta,Oldambt,Groningen,VBO,7.094926,53.175229
Veenweg,15,,,9686SB,Beerta,Oldambt,Groningen,VBO,7.094734,53.175285
Veenweg,19,,,9686SB,Beerta,Oldambt,Groningen,VBO,7.094484,53.175397
Veenweg,21,,,9686SB,Beerta,Oldambt,Groningen,VBO,7.094382,53.175470
Veenweg,23,,,9686SB,Beerta,Oldambt,Groningen,VBO,7.094205,53.175518
Veenweg,25,,,9686SB,Beerta,Oldambt,Groningen,VBO,7.094058,53.175583
Veenweg,27,,,9686SB,Beerta,Oldambt,Groningen,VBO,7.093911,53.175657
Veenweg,29,,,9686SB,Beerta,Oldambt,Groningen,VBO,7.093823,53.175694
Veenweg,33,,,9686SB,Beerta,Oldambt,Groningen,VBO,7.093647,53.175786
Veenweg,35,,,9686SB,Beerta,Oldambt,Groningen,VBO,7.093485,53.175842
Veenweg,39,,,9686SC,Beerta,Oldambt,Groningen,VBO,7.093307,53.175899
Veenweg,41,,,9686SC,Beerta,Oldambt,Groningen,VBO,7.093087,53.176001
Veenweg,43,,,9686SC,Beerta,Oldambt,Groningen,VBO,7.092940,53.176066
Veenweg,49,,,9686SC,Beerta,Oldambt,Groningen,VBO,7.092646,53.176205
Veenweg,51,,,9686SC,Beerta,Oldambt,Groningen,VBO,7.092440,53.176298
Veenweg,53,,,9686SC,Beerta,Oldambt,Groningen,VBO,7.092186,53.176292
Veenweg,59,,,9686SE,Beerta,Oldambt,Groningen,VBO,7.091701,53.176524
Veenweg,79,,,9686SE,Beerta,Oldambt,Groningen,VBO,7.091513,53.176679
Veenweg,81,,,9686SE,Beerta,Oldambt,Groningen,VBO,7.091245,53.176719
Veenweg,83,,,9686SE,Beerta,Oldambt,Groningen,VBO,7.091084,53.176811
Veenweg,87,,,9686SE,Beerta,Oldambt,Groningen,VBO,7.090805,53.176932
Veenweg,91,,,9686SE,Beerta,Oldambt,Groningen,VBO,7.090553,53.176990
Veenweg,93,,,9686SE,Beerta,Oldambt,Groningen,VBO,7.090423,53.177099
Veenweg,95,,,9686SE,Beerta,Oldambt,Groningen,VBO,7.090270,53.177170
Veenweg,99,,,9686SE,Beerta,Oldambt,Groningen,VBO,7.090036,53.177168
Veenweg,101,,,9686SE,Beerta,Oldambt,Groningen,VBO,7.089892,53.177295
Veenweg,103,,,9686SG,Beerta,Oldambt,Groningen,VBO,7.089509,53.177445
Veenweg,111,,,9686SG,Beerta,Oldambt,Groningen,VBO,7.089259,53.177556
Veenweg,113,,,9686SG,Beerta,Oldambt,Groningen,VBO,7.089005,53.177191
Veenweg,115,,,9686SG,Beerta,Oldambt,Groningen,VBO,7.088725,53.177303
Veenweg,117,,,9686SG,Beerta,Oldambt,Groningen,VBO,7.088804,53.177392
Veenweg,119,,,9686SG,Beerta,Oldambt,Groningen,VBO,7.089067,53.177613
Veenweg,121,,,9686SG,Beerta,Oldambt,Groningen,VBO,7.088890,53.177696
Veenweg,123,,,9686SG,Beerta,Oldambt,Groningen,VBO,7.088697,53.177717
Veenweg,125,,,9686SG,Beerta,Oldambt,Groningen,VBO,7.088447,53.177828
Veenweg,129,A,,9686SG,Beerta,Oldambt,Groningen,VBO,7.087964,53.178105
Veenweg,129,,,9686SG,Beerta,Oldambt,Groningen,VBO,7.088137,53.177949
Veenweg,131,,,9686SG,Beerta,Oldambt,Groningen,VBO,7.087742,53.178162
Veenweg,133,,,9686SG,Beerta,Oldambt,Groningen,VBO,7.087640,53.178226
Veenweg,135,,,9686SG,Beerta,Oldambt,Groningen,VBO,7.087478,53.178291
Veenweg,137,,,9686SG,Beerta,Oldambt,Groningen,VBO,7.087181,53.178359
Veenweg,139,,,9686SG,Beerta,Oldambt,Groningen,VBO,7.087066,53.178468
Veenweg,141,,,9686SH,Beerta,Oldambt,Groningen,VBO,7.086919,53.178533
Veenweg,143,,,9686SH,Beerta,Oldambt,Groningen,VBO,7.086771,53.178589
Veenweg,147,,,9686SH,Beerta,Oldambt,Groningen,VBO,7.086607,53.178600
Veenweg,149,A,,9686SH,Beerta,Oldambt,Groningen,VBO,7.086226,53.178803
Veenweg,149,,,9686SH,Beerta,Oldambt,Groningen,VBO,7.086462,53.178719
Veenweg,151,,,9686SH,Beerta,Oldambt,Groningen,VBO,7.085194,53.179187
Veenweg,153,,,9686SH,Beerta,Oldambt,Groningen,VBO,7.084882,53.179245
Veenweg,155,,,9686SH,Beerta,Oldambt,Groningen,VBO,7.084679,53.179410
Veenweg,157,,,9686SH,Beerta,Oldambt,Groningen,VBO,7.084368,53.179495
Veenweg,159,,,9686SH,Beerta,Oldambt,Groningen,VBO,7.084118,53.179606
Veenweg,161,,,9686SH,Beerta,Oldambt,Groningen,VBO,7.083898,53.179708
Veenweg,163,,,9686SH,Beerta,Oldambt,Groningen,VBO,7.083633,53.179829
Veenweg,165,,,9686SH,Beerta,Oldambt,Groningen,VBO,7.083353,53.179932
Veenweg,167,,,9686SH,Beerta,Oldambt,Groningen,VBO,7.083025,53.179954
Veenweg,169,,,9686SH,Beerta,Oldambt,Groningen,VBO,7.083000,53.180071
Veenweg,171,,,9686SH,Beerta,Oldambt,Groningen,VBO,7.082819,53.180038
Veenweg,2,,,9686SJ,Beerta,Oldambt,Groningen,VBO,7.091869,53.176794
Veenweg,4,,,9686SJ,Beerta,Oldambt,Groningen,VBO,7.091788,53.176819
Veenweg,6,,,9686SJ,Beerta,Oldambt,Groningen,VBO,7.091597,53.176903
Veenweg,8,,,9686SJ,Beerta,Oldambt,Groningen,VBO,7.091493,53.176931
Veenweg,10,,,9686SJ,Beerta,Oldambt,Groningen,VBO,7.091346,53.177005
Veenweg,12,,,9686SJ,Beerta,Oldambt,Groningen,VBO,7.091228,53.177043
Veenweg,14,,,9686SJ,Beerta,Oldambt,Groningen,VBO,7.091051,53.177108
Veenweg,16,,,9686SJ,Beerta,Oldambt,Groningen,VBO,7.090978,53.177154
Veenweg,18,,,9686SJ,Beerta,Oldambt,Groningen,VBO,7.090816,53.177219
Veenweg,20,,,9686SJ,Beerta,Oldambt,Groningen,VBO,7.090714,53.177284
Veenweg,22,,,9686SJ,Beerta,Oldambt,Groningen,VBO,7.090552,53.177349
Veenweg,24,,,9686SJ,Beerta,Oldambt,Groningen,VBO,7.090448,53.177368
Veenweg,26,,,9686SJ,Beerta,Oldambt,Groningen,VBO,7.090271,53.177434
Veenweg,28,,,9686SJ,Beerta,Oldambt,Groningen,VBO,7.090198,53.177471
Veenweg,34,,,9686SK,Beerta,Oldambt,Groningen,VBO,7.089771,53.177648
Veenweg,36,,,9686SK,Beerta,Oldambt,Groningen,VBO,7.089683,53.177694
Veenweg,38,,,9686SK,Beerta,Oldambt,Groningen,VBO,7.089477,53.177769
Veenweg,40,,,9686SK,Beerta,Oldambt,Groningen,VBO,7.089403,53.177797
Veenweg,42,,,9686SK,Beerta,Oldambt,Groningen,VBO,7.089241,53.177862
Veenweg,44,,,9686SK,Beerta,Oldambt,Groningen,VBO,7.089080,53.177945
Veenweg,46,,,9686SK,Beerta,Oldambt,Groningen,VBO,7.088933,53.178019
Veenweg,50,,,9686SK,Beerta,Oldambt,Groningen,VBO,7.088773,53.178129
Veenweg,52,A,,9686SK,Beerta,Oldambt,Groningen,VBO,7.088360,53.178288
Veenweg,52,,,9686SK,Beerta,Oldambt,Groningen,VBO,7.088505,53.178178
Veenweg,54,,,9686SK,Beerta,Oldambt,Groningen,VBO,7.088122,53.178327
Veenweg,56,,,9686SK,Beerta,Oldambt,Groningen,VBO,7.087917,53.178438
Veenweg,58,,,9686SK,Beerta,Oldambt,Groningen,VBO,7.087681,53.178522
Veenweg,60,,,9686SK,Beerta,Oldambt,Groningen,VBO,7.087518,53.178569
Veenweg,62,,,9686SK,Beerta,Oldambt,Groningen,VBO,7.087445,53.178597
Veenweg,64,,,9686SK,Beerta,Oldambt,Groningen,VBO,7.087358,53.178680
Veenweg,66,,,9686SK,Beerta,Oldambt,Groningen,VBO,7.087270,53.178708
Veenweg,68,,,9686SK,Beerta,Oldambt,Groningen,VBO,7.087076,53.178728
Veenweg,70,,,9686SK,Beerta,Oldambt,Groningen,VBO,7.086988,53.178775
Veenweg,72,,,9686SK,Beerta,Oldambt,Groningen,VBO,7.086811,53.178831
Veenweg,74,,,9686SK,Beerta,Oldambt,Groningen,VBO,7.086635,53.178923
Veenweg,78,,,9686SK,Beerta,Oldambt,Groningen,VBO,7.086399,53.179026
Vijverstraat,2,,,9686SL,Beerta,Oldambt,Groningen,VBO,7.091909,53.176467
Torenstraat,1,,,9686SM,Beerta,Oldambt,Groningen,VBO,7.096051,53.174539
Torenstraat,3,,,9686SM,Beerta,Oldambt,Groningen,VBO,7.095960,53.174522
Torenstraat,5,,,9686SM,Beerta,Oldambt,Groningen,VBO,7.095841,53.174515
Torenstraat,7,,,9686SM,Beerta,Oldambt,Groningen,VBO,7.095736,53.174507
Torenstraat,9,,,9686SM,Beerta,Oldambt,Groningen,VBO,7.095660,53.174490
Torenstraat,11,A,,9686SM,Beerta,Oldambt,Groningen,VBO,7.095633,53.174209
Torenstraat,11,B,,9686SM,Beerta,Oldambt,Groningen,VBO,7.095613,53.174193
Torenstraat,11,C,,9686SM,Beerta,Oldambt,Groningen,VBO,7.095539,53.174159
Torenstraat,11,D,,9686SM,Beerta,Oldambt,Groningen,VBO,7.095514,53.174137
Torenstraat,11,E,,9686SM,Beerta,Oldambt,Groningen,VBO,7.095492,53.174116
Torenstraat,11,F,,9686SM,Beerta,Oldambt,Groningen,VBO,7.095360,53.174098
Torenstraat,11,G,,9686SM,Beerta,Oldambt,Groningen,VBO,7.095336,53.174125
Torenstraat,11,H,,9686SM,Beerta,Oldambt,Groningen,VBO,7.095318,53.174148
Torenstraat,11,I,,9686SM,Beerta,Oldambt,Groningen,VBO,7.095302,53.174175
Torenstraat,11,J,,9686SM,Beerta,Oldambt,Groningen,VBO,7.095284,53.174199
Torenstraat,11,K,,9686SM,Beerta,Oldambt,Groningen,VBO,7.095263,53.174224
Torenstraat,11,L,,9686SM,Beerta,Oldambt,Groningen,VBO,7.095245,53.174248
Torenstraat,11,T,,9686SM,Beerta,Oldambt,Groningen,VBO,7.095601,53.174280
Torenstraat,11,,,9686SM,Beerta,Oldambt,Groningen,VBO,7.095540,53.174474
Torenstraat,13,,,9686SM,Beerta,Oldambt,Groningen,VBO,7.095375,53.174458
Torenstraat,15,,,9686SM,Beerta,Oldambt,Groningen,VBO,7.095255,53.174451
Torenstraat,17,,,9686SM,Beerta,Oldambt,Groningen,VBO,7.095164,53.174434
Torenstraat,19,,,9686SM,Beerta,Oldambt,Groningen,VBO,7.095059,53.174427
Torenstraat,21,,,9686SM,Beerta,Oldambt,Groningen,VBO,7.094954,53.174410
Torenstraat,23,,,9686SM,Beerta,Oldambt,Groningen,VBO,7.094864,53.174403
Torenstraat,25,,,9686SM,Beerta,Oldambt,Groningen,VBO,7.094682,53.174351
Torenstraat,27,,,9686SM,Beerta,Oldambt,Groningen,VBO,7.094592,53.174344
Torenstraat,29,,,9686SM,Beerta,Oldambt,Groningen,VBO,7.094502,53.174327
Torenstraat,31,,,9686SM,Beerta,Oldambt,Groningen,VBO,7.094411,53.174301
Torenstraat,33,,,9686SM,Beerta,Oldambt,Groningen,VBO,7.094320,53.174276
Torenstraat,35,,,9686SM,Beerta,Oldambt,Groningen,VBO,7.094215,53.174259
Torenstraat,37,A,,9686SM,Beerta,Oldambt,Groningen,VBO,7.093412,53.173623
Torenstraat,37,B,,9686SM,Beerta,Oldambt,Groningen,VBO,7.093486,53.173595
Torenstraat,37,C,,9686SM,Beerta,Oldambt,Groningen,VBO,7.093559,53.173567
Torenstraat,37,D,,9686SM,Beerta,Oldambt,Groningen,VBO,7.093534,53.173676
Torenstraat,37,E,,9686SM,Beerta,Oldambt,Groningen,VBO,7.093612,53.173773
Torenstraat,37,F,,9686SM,Beerta,Oldambt,Groningen,VBO,7.093660,53.173854
Torenstraat,37,G,,9686SM,Beerta,Oldambt,Groningen,VBO,7.093794,53.173816
Torenstraat,39,,,9686SM,Beerta,Oldambt,Groningen,VBO,7.093236,53.173338
Torenstraat,2,,,9686SN,Beerta,Oldambt,Groningen,VBO,7.095459,53.174709
Torenstraat,4,,,9686SN,Beerta,Oldambt,Groningen,VBO,7.095249,53.174685
Torenstraat,6,,,9686SN,Beerta,Oldambt,Groningen,VBO,7.094919,53.174663
Torenstraat,8,,,9686SN,Beerta,Oldambt,Groningen,VBO,7.094263,53.174717
Torenstraat,10,,,9686SN,Beerta,Oldambt,Groningen,VBO,7.093962,53.174667
Torenstraat,12,,,9686SN,Beerta,Oldambt,Groningen,VBO,7.093704,53.174581
Torenstraat,14,,,9686SN,Beerta,Oldambt,Groningen,VBO,7.093354,53.174424
Torenstraat,16,,,9686SN,Beerta,Oldambt,Groningen,VBO,7.093059,53.174012
Torenstraat,18,,,9686SN,Beerta,Oldambt,Groningen,VBO,7.092371,53.173764
Torenstraat,20,,,9686SN,Beerta,Oldambt,Groningen,VBO,7.092500,53.173725
Parallelweg,1,A,,9686SP,Beerta,Oldambt,Groningen,VBO,7.094092,53.174864
Parallelweg,1,B,,9686SP,Beerta,Oldambt,Groningen,VBO,7.094043,53.174881
Parallelweg,1,C,,9686SP,Beerta,Oldambt,Groningen,VBO,7.093905,53.174962
Parallelweg,1,D,,9686SP,Beerta,Oldambt,Groningen,VBO,7.093856,53.174980
Parallelweg,1,,,9686SP,Beerta,Oldambt,Groningen,VBO,7.093666,53.175062
Parallelweg,3,,,9686SP,Beerta,Oldambt,Groningen,VBO,7.093590,53.175095
Parallelweg,5,,,9686SP,Beerta,Oldambt,Groningen,VBO,7.093398,53.175170
Parallelweg,7,,,9686SP,Beerta,Oldambt,Groningen,VBO,7.093310,53.175216
Parallelweg,9,,,9686SP,Beerta,Oldambt,Groningen,VBO,7.093149,53.175290
Parallelweg,11,,,9686SP,Beerta,Oldambt,Groningen,VBO,7.093053,53.175316
Parallelweg,13,,,9686SP,Beerta,Oldambt,Groningen,VBO,7.092838,53.175384
Parallelweg,15,,,9686SP,Beerta,Oldambt,Groningen,VBO,7.092750,53.175421
Parallelweg,17,,,9686SR,Beerta,Oldambt,Groningen,VBO,7.092043,53.175701
Parallelweg,19,,,9686SR,Beerta,Oldambt,Groningen,VBO,7.091955,53.175738
Parallelweg,21,,,9686SR,Beerta,Oldambt,Groningen,VBO,7.091749,53.175822
Parallelweg,23,,,9686SR,Beerta,Oldambt,Groningen,VBO,7.091706,53.175877
Parallelweg,25,,,9686SR,Beerta,Oldambt,Groningen,VBO,7.091500,53.175960
Parallelweg,27,,,9686SR,Beerta,Oldambt,Groningen,VBO,7.091395,53.175962
Parallelweg,29,,,9686SR,Beerta,Oldambt,Groningen,VBO,7.091217,53.176009
Parallelweg,31,,,9686SR,Beerta,Oldambt,Groningen,VBO,7.091131,53.176083
Parallelweg,33,,,9686SR,Beerta,Oldambt,Groningen,VBO,7.090938,53.176130
Parallelweg,35,,,9686SR,Beerta,Oldambt,Groningen,VBO,7.090805,53.176168
Parallelweg,37,,,9686SR,Beerta,Oldambt,Groningen,VBO,7.090626,53.176198
Parallelweg,39,,,9686SR,Beerta,Oldambt,Groningen,VBO,7.090509,53.176244
Parallelweg,41,,,9686SR,Beerta,Oldambt,Groningen,VBO,7.090330,53.176274
Parallelweg,43,,,9686SR,Beerta,Oldambt,Groningen,VBO,7.090212,53.176311
Parallelweg,45,,,9686SR,Beerta,Oldambt,Groningen,VBO,7.089989,53.176350
Parallelweg,47,,,9686SR,Beerta,Oldambt,Groningen,VBO,7.089886,53.176388
Parallelweg,49,,,9686SR,Beerta,Oldambt,Groningen,VBO,7.089724,53.176444
Parallelweg,51,,,9686SR,Beerta,Oldambt,Groningen,VBO,7.089576,53.176491
Parallelweg,2,,,9686ST,Beerta,Oldambt,Groningen,VBO,7.094730,53.174809
Parallelweg,4,,,9686ST,Beerta,Oldambt,Groningen,VBO,7.094672,53.174846
Parallelweg,8,,,9686ST,Beerta,Oldambt,Groningen,VBO,7.094555,53.174928
Parallelweg,10,A,,9686ST,Beerta,Oldambt,Groningen,VBO,7.094365,53.175030
Parallelweg,10,B,,9686ST,Beerta,Oldambt,Groningen,VBO,7.094291,53.175058
Parallelweg,10,,,9686ST,Beerta,Oldambt,Groningen,VBO,7.094497,53.174965
Parallelweg,12,,,9686ST,Beerta,Oldambt,Groningen,VBO,7.094058,53.175214
Parallelweg,14,A,,9686ST,Beerta,Oldambt,Groningen,VBO,7.093793,53.175326
Parallelweg,14,B,,9686ST,Beerta,Oldambt,Groningen,VBO,7.093705,53.175354
Parallelweg,14,,,9686ST,Beerta,Oldambt,Groningen,VBO,7.093985,53.175251
Parallelweg,16,,,9686ST,Beerta,Oldambt,Groningen,VBO,7.093518,53.175424
Parallelweg,18,A,,9686ST,Beerta,Oldambt,Groningen,VBO,7.093277,53.175522
Parallelweg,18,B,,9686ST,Beerta,Oldambt,Groningen,VBO,7.093145,53.175569
Parallelweg,20,,,9686SV,Beerta,Oldambt,Groningen,VBO,7.092983,53.175634
Parallelweg,22,A,,9686SV,Beerta,Oldambt,Groningen,VBO,7.092747,53.175736
Parallelweg,22,B,,9686SV,Beerta,Oldambt,Groningen,VBO,7.092629,53.175774
Parallelweg,22,,,9686SV,Beerta,Oldambt,Groningen,VBO,7.092909,53.175671
Parallelweg,24,,,9686SV,Beerta,Oldambt,Groningen,VBO,7.092482,53.175830
Parallelweg,26,A,,9686SV,Beerta,Oldambt,Groningen,VBO,7.092232,53.175932
Parallelweg,26,B,,9686SV,Beerta,Oldambt,Groningen,VBO,7.092158,53.175969
Parallelweg,26,,,9686SV,Beerta,Oldambt,Groningen,VBO,7.092394,53.175867
Parallelweg,28,,,9686SV,Beerta,Oldambt,Groningen,VBO,7.091996,53.176025
Parallelweg,30,,,9686SV,Beerta,Oldambt,Groningen,VBO,7.091892,53.176054
Parallelweg,32,,,9686SV,Beerta,Oldambt,Groningen,VBO,7.091364,53.176313
Parallelweg,34,,,9686SV,Beerta,Oldambt,Groningen,VBO,7.091275,53.176341
Parallelweg,36,A,,9686SV,Beerta,Oldambt,Groningen,VBO,7.091007,53.176434
Parallelweg,36,,,9686SV,Beerta,Oldambt,Groningen,VBO,7.091092,53.176405
Parallelweg,38,,,9686SV,Beerta,Oldambt,Groningen,VBO,7.090627,53.176602
Parallelweg,40,,,9686SV,Beerta,Oldambt,Groningen,VBO,7.090451,53.176685
Parallelweg,42,,,9686SV,Beerta,Oldambt,Groningen,VBO,7.090095,53.176875
Parallelweg,46,,,9686SV,Beerta,Oldambt,Groningen,VBO,7.089395,53.176807
Nieuweweg,1,,,9686TX,Beerta,Oldambt,Groningen,VBO,7.131427,53.183053
Nieuweweg,2,A,,9686TX,Beerta,Oldambt,Groningen,VBO,7.122662,53.181470
Nieuweweg,2,,,9686TX,Beerta,Oldambt,Groningen,VBO,7.122123,53.180869
Nieuweweg,3,,,9686TX,Beerta,Oldambt,Groningen,VBO,7.132255,53.183939
Nieuweweg,4,,,9686TX,Beerta,Oldambt,Groningen,VBO,7.124983,53.181295
Nieuweweg,5,,,9686TX,Beerta,Oldambt,Groningen,VBO,7.133718,53.183469
Nieuweweg,8,,,9686TX,Beerta,Oldambt,Groningen,VBO,7.127420,53.181646
Nieuweweg,10,,,9686TX,Beerta,Oldambt,Groningen,VBO,7.129852,53.182213
Nieuweweg,12,,,9686TX,Beerta,Oldambt,Groningen,VBO,7.133865,53.182289
Oudeweg,1,,,9686VA,Beerta,Oldambt,Groningen,VBO,7.101589,53.178405
Oudeweg,3,,,9686VA,Beerta,Oldambt,Groningen,VBO,7.101787,53.178501
Oudeweg,5,,,9686VA,Beerta,Oldambt,Groningen,VBO,7.101908,53.178535
Oudeweg,9,,,9686VA,Beerta,Oldambt,Groningen,VBO,7.101859,53.178806
Oudeweg,11,,,9686VA,Beerta,Oldambt,Groningen,VBO,7.102328,53.179042
Oudeweg,13,,,9686VA,Beerta,Oldambt,Groningen,VBO,7.102280,53.179154
Oudeweg,17,,,9686VA,Beerta,Oldambt,Groningen,VBO,7.102838,53.179726
Oudeweg,19,,,9686VA,Beerta,Oldambt,Groningen,VBO,7.103644,53.180047
Oudeweg,21,,,9686VA,Beerta,Oldambt,Groningen,VBO,7.103836,53.180755
Oudeweg,27,A,,9686VA,Beerta,Oldambt,Groningen,VBO,7.108325,53.182711
Oudeweg,27,,,9686VA,Beerta,Oldambt,Groningen,VBO,7.108665,53.182546
Oudeweg,29,,,9686VA,Beerta,Oldambt,Groningen,VBO,7.109088,53.182639
Oudeweg,31,,,9686VA,Beerta,Oldambt,Groningen,VBO,7.109892,53.183292
Oudeweg,33,A,,9686VA,Beerta,Oldambt,Groningen,VBO,7.110883,53.185031
Oudeweg,33,,,9686VA,Beerta,Oldambt,Groningen,VBO,7.111426,53.183863
Oudeweg,35,T,,9686VA,Beerta,Oldambt,Groningen,VBO,7.113707,53.186784
Oudeweg,35,,,9686VA,Beerta,Oldambt,Groningen,VBO,7.114174,53.186754
Oudeweg,39,,,9686VA,Beerta,Oldambt,Groningen,VBO,7.119428,53.186804
Oudeweg,2,,,9686VB,Beerta,Oldambt,Groningen,VBO,7.101982,53.178139
Oudeweg,4,,,9686VB,Beerta,Oldambt,Groningen,VBO,7.102034,53.178318
Oudeweg,8,,,9686VB,Beerta,Oldambt,Groningen,VBO,7.105814,53.180825
Oudeweg,10,,,9686VB,Beerta,Oldambt,Groningen,VBO,7.108004,53.181728
Beukenlaan,1,T,,9686VC,Beerta,Oldambt,Groningen,VBO,7.101576,53.179554
Beukenlaan,1,,,9686VC,Beerta,Oldambt,Groningen,VBO,7.101414,53.179648
Beukenlaan,3,,,9686VC,Beerta,Oldambt,Groningen,VBO,7.101161,53.179678
Beukenlaan,5,,,9686VC,Beerta,Oldambt,Groningen,VBO,7.101103,53.179797
Beukenlaan,7,,,9686VC,Beerta,Oldambt,Groningen,VBO,7.100986,53.179932
de Akkers,2,,,9686VD,Beerta,Oldambt,Groningen,VBO,7.100618,53.160458
Hoofdstraat,3,,,9686VE,Beerta,Oldambt,Groningen,VBO,7.074083,53.156273
Hoofdstraat,5,,,9686VE,Beerta,Oldambt,Groningen,VBO,7.075027,53.157482
Hoofdstraat,7,T,,9686VE,Beerta,Oldambt,Groningen,VBO,7.076140,53.158277
Hoofdstraat,7,,,9686VE,Beerta,Oldambt,Groningen,VBO,7.076178,53.157843
Hoofdstraat,9,,,9686VE,Beerta,Oldambt,Groningen,VBO,7.076378,53.158361
Hoofdstraat,11,,,9686VE,Beerta,Oldambt,Groningen,VBO,7.077211,53.159015
Hoofdstraat,13,,,9686VE,Beerta,Oldambt,Groningen,VBO,7.078017,53.159363
Hoofdstraat,15,,,9686VE,Beerta,Oldambt,Groningen,VBO,7.078065,53.159830
Hoofdstraat,17,,,9686VE,Beerta,Oldambt,Groningen,VBO,7.078912,53.160087
Hoofdstraat,21,,,9686VE,Beerta,Oldambt,Groningen,VBO,7.079227,53.160487
Hoofdstraat,25,,,9686VE,Beerta,Oldambt,Groningen,VBO,7.079974,53.160845
Hoofdstraat,27,,,9686VE,Beerta,Oldambt,Groningen,VBO,7.080442,53.160964
Hoofdstraat,29,,,9686VE,Beerta,Oldambt,Groningen,VBO,7.080674,53.161168
Hoofdstraat,31,,,9686VE,Beerta,Oldambt,Groningen,VBO,7.080754,53.161292
Hoofdstraat,33,,,9686VE,Beerta,Oldambt,Groningen,VBO,7.081109,53.161584
Hoofdstraat,35,,,9686VE,Beerta,Oldambt,Groningen,VBO,7.081900,53.162310
Hoofdstraat,43,,,9686VE,Beerta,Oldambt,Groningen,VBO,7.082282,53.162502
Hoofdstraat,45,,,9686VE,Beerta,Oldambt,Groningen,VBO,7.082542,53.162669
Hoofdstraat,57,,,9686VG,Beerta,Oldambt,Groningen,VBO,7.082557,53.163055
Hoofdstraat,59,,,9686VG,Beerta,Oldambt,Groningen,VBO,7.083069,53.163068
Hoofdstraat,61,,,9686VG,Beerta,Oldambt,Groningen,VBO,7.083399,53.163245
Hoofdstraat,63,,,9686VG,Beerta,Oldambt,Groningen,VBO,7.083439,53.163411
Hoofdstraat,65,,,9686VG,Beerta,Oldambt,Groningen,VBO,7.083500,53.163456
Hoofdstraat,69,,,9686VG,Beerta,Oldambt,Groningen,VBO,7.083447,53.163618
Hoofdstraat,71,,,9686VG,Beerta,Oldambt,Groningen,VBO,7.083794,53.163712
Hoofdstraat,75,,,9686VG,Beerta,Oldambt,Groningen,VBO,7.084301,53.164037
Hoofdstraat,77,,,9686VG,Beerta,Oldambt,Groningen,VBO,7.084322,53.164208
Hoofdstraat,83,,,9686VG,Beerta,Oldambt,Groningen,VBO,7.084536,53.164322
Hoofdstraat,85,,,9686VG,Beerta,Oldambt,Groningen,VBO,7.084732,53.164355
Hoofdstraat,89,,,9686VG,Beerta,Oldambt,Groningen,VBO,7.084768,53.164516
Hoofdstraat,95,T,,9686VG,Beerta,Oldambt,Groningen,VBO,7.084870,53.165011
Hoofdstraat,97,,,9686VG,Beerta,Oldambt,Groningen,VBO,7.085060,53.165087
Hoofdstraat,99,,,9686VG,Beerta,Oldambt,Groningen,VBO,7.085493,53.165467
Hoofdstraat,101,,,9686VH,Beerta,Oldambt,Groningen,VBO,7.086126,53.165575
Hoofdstraat,105,,,9686VH,Beerta,Oldambt,Groningen,VBO,7.086338,53.165662
Hoofdstraat,107,,,9686VH,Beerta,Oldambt,Groningen,VBO,7.086315,53.165815
Hoofdstraat,115,,,9686VH,Beerta,Oldambt,Groningen,VBO,7.086679,53.165963
Hoofdstraat,117,,,9686VH,Beerta,Oldambt,Groningen,VBO,7.086741,53.166016
Hoofdstraat,119,,,9686VH,Beerta,Oldambt,Groningen,VBO,7.086761,53.166151
Hoofdstraat,121,,,9686VH,Beerta,Oldambt,Groningen,VBO,7.086593,53.166423
Hoofdstraat,127,,,9686VH,Beerta,Oldambt,Groningen,VBO,7.087315,53.166547
Hoofdstraat,131,,,9686VH,Beerta,Oldambt,Groningen,VBO,7.087501,53.166697
Hoofdstraat,135,,,9686VH,Beerta,Oldambt,Groningen,VBO,7.087625,53.166812
Hoofdstraat,137,,,9686VH,Beerta,Oldambt,Groningen,VBO,7.087799,53.167448
Hoofdstraat,141,,,9686VH,Beerta,Oldambt,Groningen,VBO,7.088404,53.167619
Hoofdstraat,143,,,9686VH,Beerta,Oldambt,Groningen,VBO,7.088650,53.167768
Hoofdstraat,145,,,9686VH,Beerta,Oldambt,Groningen,VBO,7.088954,53.167899
Hoofdstraat,147,,,9686VH,Beerta,Oldambt,Groningen,VBO,7.089091,53.167969
Hoofdstraat,151,,,9686VH,Beerta,Oldambt,Groningen,VBO,7.089071,53.168221
Hoofdstraat,153,,,9686VH,Beerta,Oldambt,Groningen,VBO,7.089272,53.168766
Hoofdstraat,2,,,9686VJ,Beerta,Oldambt,Groningen,VBO,7.078727,53.151294
Hoofdstraat,8,,,9686VJ,Beerta,Oldambt,Groningen,VBO,7.088119,53.153778
Hoofdstraat,12,,,9686VJ,Beerta,Oldambt,Groningen,VBO,7.077934,53.158393
Hoofdstraat,16,,,9686VJ,Beerta,Oldambt,Groningen,VBO,7.079518,53.159530
Hoofdstraat,20,,,9686VJ,Beerta,Oldambt,Groningen,VBO,7.081324,53.160592
Hoofdstraat,22,,,9686VJ,Beerta,Oldambt,Groningen,VBO,7.081954,53.161006
Hoofdstraat,24,,,9686VJ,Beerta,Oldambt,Groningen,VBO,7.082661,53.161490
Hoofdstraat,28,,,9686VJ,Beerta,Oldambt,Groningen,VBO,7.083227,53.162111
Hoofdstraat,30,,,9686VJ,Beerta,Oldambt,Groningen,VBO,7.083775,53.162463
Hoofdstraat,32,,,9686VJ,Beerta,Oldambt,Groningen,VBO,7.084562,53.163072
Hoofdstraat,38,A,,9686VJ,Beerta,Oldambt,Groningen,VBO,7.086337,53.164226
Hoofdstraat,38,,,9686VJ,Beerta,Oldambt,Groningen,VBO,7.085919,53.163745
Hoofdstraat,40,,,9686VJ,Beerta,Oldambt,Groningen,VBO,7.089576,53.167404
Smidlaan,3,,,9686VK,Beerta,Oldambt,Groningen,VBO,7.087470,53.168208
Smidlaan,4,,,9686VK,Beerta,Oldambt,Groningen,VBO,7.087933,53.168183
Smidlaan,5,,,9686VK,Beerta,Oldambt,Groningen,VBO,7.086878,53.168369
Bouwtelaan,1,,,9686VN,Beerta,Oldambt,Groningen,VBO,7.085582,53.165826
Bouwtelaan,5,,,9686VN,Beerta,Oldambt,Groningen,VBO,7.084711,53.166108
Bouwtelaan,17,,,9686VN,Beerta,Oldambt,Groningen,VBO,7.083751,53.166418
Bouwtelaan,19,,,9686VN,Beerta,Oldambt,Groningen,VBO,7.083190,53.166597
Bouwtelaan,27,,,9686VN,Beerta,Oldambt,Groningen,VBO,7.082421,53.166832
Bouwtelaan,35,,,9686VN,Beerta,Oldambt,Groningen,VBO,7.080840,53.167313
Bouwtelaan,2,,,9686VP,Beerta,Oldambt,Groningen,VBO,7.086547,53.166019
Bouwtelaan,6,,,9686VP,Beerta,Oldambt,Groningen,VBO,7.085772,53.166084
Bouwtelaan,12,,,9686VP,Beerta,Oldambt,Groningen,VBO,7.085146,53.166137
Bouwtelaan,14,,,9686VP,Beerta,Oldambt,Groningen,VBO,7.084304,53.166401
Bouwtelaan,16,,,9686VP,Beerta,Oldambt,Groningen,VBO,7.083815,53.166534
Bouwtelaan,26,,,9686VP,Beerta,Oldambt,Groningen,VBO,7.083053,53.166931
Bouwtelaan,38,,,9686VP,Beerta,Oldambt,Groningen,VBO,7.082057,53.167089
Bouwtelaan,56,,,9686VP,Beerta,Oldambt,Groningen,VBO,7.081112,53.167390
Bouwtelaan,58,,,9686VP,Beerta,Oldambt,Groningen,VBO,7.080639,53.167522
Bouwtelaan,62,,,9686VP,Beerta,Oldambt,Groningen,VBO,7.080128,53.167844
Ulsda,2,,,9686XW,Beerta,Oldambt,Groningen,VBO,7.134711,53.158424
Ulsda,4,,,9686XW,Beerta,Oldambt,Groningen,VBO,7.135544,53.158322
Ulsda,5,T,,9686XW,Beerta,Oldambt,Groningen,VBO,7.136965,53.161218
Ulsda,5,,,9686XW,Beerta,Oldambt,Groningen,VBO,7.138025,53.159769
Ulsda,6,,,9686XW,Beerta,Oldambt,Groningen,VBO,7.129743,53.152390
Ulsda,7,,,9686XW,Beerta,Oldambt,Groningen,VBO,7.138339,53.159018
Ulsderweg,1,,,9686XX,Beerta,Oldambt,Groningen,VBO,7.103101,53.177682
Ulsderweg,2,A,,9686XX,Beerta,Oldambt,Groningen,VBO,7.112760,53.172295
Ulsderweg,3,,,9686XX,Beerta,Oldambt,Groningen,VBO,7.103513,53.177497
Ulsderweg,5,,,9686XX,Beerta,Oldambt,Groningen,VBO,7.103864,53.177312
Ulsderweg,7,,,9686XX,Beerta,Oldambt,Groningen,VBO,7.104246,53.177136
Ulsderweg,8,,,9686XX,Beerta,Oldambt,Groningen,VBO,7.121252,53.168433
Ulsderweg,9,,,9686XX,Beerta,Oldambt,Groningen,VBO,7.104628,53.176950
Ulsderweg,10,T,,9686XX,Beerta,Oldambt,Groningen,VBO,7.124940,53.166961
Ulsderweg,10,,,9686XX,Beerta,Oldambt,Groningen,VBO,7.123928,53.166723
Ulsderweg,11,,,9686XX,Beerta,Oldambt,Groningen,VBO,7.104995,53.176774
Ulsderweg,13,,,9686XX,Beerta,Oldambt,Groningen,VBO,7.105392,53.176589
Ulsderweg,15,,,9686XX,Beerta,Oldambt,Groningen,VBO,7.105788,53.176395
Ulsderweg,17,,,9686XX,Beerta,Oldambt,Groningen,VBO,7.106200,53.176227
Ulsderweg,19,,,9686XX,Beerta,Oldambt,Groningen,VBO,7.106582,53.176051
Ulsderweg,21,,,9686XX,Beerta,Oldambt,Groningen,VBO,7.106963,53.175865
Ulsderweg,23,,,9686XX,Beerta,Oldambt,Groningen,VBO,7.107329,53.175663
Ulsderweg,25,,,9686XX,Beerta,Oldambt,Groningen,VBO,7.107772,53.175503
Ulsderweg,27,A,,9686XX,Beerta,Oldambt,Groningen,VBO,7.108491,53.175152
Ulsderweg,27,,,9686XX,Beerta,Oldambt,Groningen,VBO,7.108123,53.175310
Ulsderweg,29,,,9686XX,Beerta,Oldambt,Groningen,VBO,7.108783,53.174986
Ulsderweg,31,,,9686XX,Beerta,Oldambt,Groningen,VBO,7.109166,53.174827
Ulsderweg,33,,,9686XX,Beerta,Oldambt,Groningen,VBO,7.109651,53.174614
Ulsderweg,37,,,9686XX,Beerta,Oldambt,Groningen,VBO,7.118993,53.170726
Ulsderweg,41,,,9686XX,Beerta,Oldambt,Groningen,VBO,7.128815,53.166113
