openbareruimtenaam,huisnummer,huisletter,huisnummertoevoeging,postcode,woonplaatsnaam,gemeentenaam,provincienaam,typeadresseerbaarobject,longitude,latitude
Eekebuursterweg,1,A,,9821PA,Oldekerk,Grootegast,Groningen,VBO,6.343109,53.220881
Eekebuursterweg,1,,,9821PA,Oldekerk,Grootegast,Groningen,VBO,6.343967,53.221098
Eekebuursterweg,3,,,9821PA,Oldekerk,Grootegast,Groningen,VBO,6.342762,53.220758
Eekebuursterweg,5,,,9821PA,Oldekerk,Grootegast,Groningen,VBO,6.342415,53.220670
Eekebuursterweg,9,A,,9821PA,Oldekerk,Grootegast,Groningen,VBO,6.341954,53.220791
Eekebuursterweg,9,,,9821PA,Oldekerk,Grootegast,Groningen,VBO,6.341978,53.220530
Eekebuursterweg,11,,,9821PA,Oldekerk,Grootegast,Groningen,VBO,6.341766,53.220433
Eekebuursterweg,13,,,9821PA,Oldekerk,Grootegast,Groningen,VBO,6.341524,53.220327
Eekebuursterweg,15,,,9821PA,Oldekerk,Grootegast,Groningen,VBO,6.341282,53.220221
Eekebuursterweg,17,,,9821PA,Oldekerk,Grootegast,Groningen,VBO,6.341055,53.220106
Eekebuursterweg,19,,,9821PA,Oldekerk,Grootegast,Groningen,VBO,6.340904,53.220044
Eekebuursterweg,21,,,9821PA,Oldekerk,Grootegast,Groningen,VBO,6.340723,53.219956
Eekebuursterweg,25,,,9821PA,Oldekerk,Grootegast,Groningen,VBO,6.340331,53.219842
Eekebuursterweg,27,,,9821PA,Oldekerk,Grootegast,Groningen,VBO,6.339999,53.219728
Eekebuursterweg,29,,,9821PA,Oldekerk,Grootegast,Groningen,VBO,6.339730,53.219757
Eekebuursterweg,31,,,9821PB,Oldekerk,Grootegast,Groningen,VBO,6.339449,53.219912
Eekebuursterweg,33,,,9821PB,Oldekerk,Grootegast,Groningen,VBO,6.339206,53.219904
Eekebuursterweg,35,,,9821PB,Oldekerk,Grootegast,Groningen,VBO,6.338910,53.219899
Eekebuursterweg,39,,,9821PB,Oldekerk,Grootegast,Groningen,VBO,6.338700,53.219900
Eekebuursterweg,41,,,9821PB,Oldekerk,Grootegast,Groningen,VBO,6.338418,53.219992
Eekebuursterweg,43,,,9821PB,Oldekerk,Grootegast,Groningen,VBO,6.338196,53.220102
Eekebuursterweg,49,,,9821PB,Oldekerk,Grootegast,Groningen,VBO,6.337646,53.220286
Eekebuursterweg,51,,,9821PB,Oldekerk,Grootegast,Groningen,VBO,6.337483,53.220368
Eekebuursterweg,53,,,9821PB,Oldekerk,Grootegast,Groningen,VBO,6.337319,53.220423
Eekebuursterweg,55,,,9821PB,Oldekerk,Grootegast,Groningen,VBO,6.337082,53.220515
Eekebuursterweg,57,,,9821PB,Oldekerk,Grootegast,Groningen,VBO,6.336918,53.220561
Eekebuursterweg,59,,,9821PB,Oldekerk,Grootegast,Groningen,VBO,6.336724,53.220608
Eekebuursterweg,61,,,9821PB,Oldekerk,Grootegast,Groningen,VBO,6.336562,53.220690
Eekebuursterweg,63,,,9821PB,Oldekerk,Grootegast,Groningen,VBO,6.336070,53.220811
Eekebuursterweg,67,,,9821PB,Oldekerk,Grootegast,Groningen,VBO,6.335519,53.220932
Eekebuursterweg,69,,,9821PB,Oldekerk,Grootegast,Groningen,VBO,6.334923,53.221080
Eekebuursterweg,71,,,9821PB,Oldekerk,Grootegast,Groningen,VBO,6.334788,53.221054
Eekebuursterweg,2,,,9821PC,Oldekerk,Grootegast,Groningen,VBO,6.344104,53.220522
Eekebuursterweg,4,A,,9821PC,Oldekerk,Grootegast,Groningen,VBO,6.342615,53.220220
Eekebuursterweg,4,,,9821PC,Oldekerk,Grootegast,Groningen,VBO,6.343351,53.220348
Eekebuursterweg,6,,,9821PC,Oldekerk,Grootegast,Groningen,VBO,6.342251,53.220007
Eekebuursterweg,8,,,9821PC,Oldekerk,Grootegast,Groningen,VBO,6.341877,53.220046
Eekebuursterweg,10,,,9821PC,Oldekerk,Grootegast,Groningen,VBO,6.341589,53.219859
Eekebuursterweg,12,,,9821PC,Oldekerk,Grootegast,Groningen,VBO,6.341392,53.219780
Eekebuursterweg,14,,,9821PC,Oldekerk,Grootegast,Groningen,VBO,6.341196,53.219692
Eekebuursterweg,16,,,9821PC,Oldekerk,Grootegast,Groningen,VBO,6.340847,53.219506
Eekebuursterweg,18,,,9821PC,Oldekerk,Grootegast,Groningen,VBO,6.340366,53.219402
Eekebuursterweg,20,,,9821PC,Oldekerk,Grootegast,Groningen,VBO,6.340172,53.219412
Eekebuursterweg,22,,,9821PC,Oldekerk,Grootegast,Groningen,VBO,6.339931,53.219378
Eekebuursterweg,24,,,9821PC,Oldekerk,Grootegast,Groningen,VBO,6.339724,53.219470
Eekebuursterweg,26,,,9821PC,Oldekerk,Grootegast,Groningen,VBO,6.339574,53.219453
Eekebuursterweg,28,,,9821PD,Oldekerk,Grootegast,Groningen,VBO,6.339066,53.219511
Eekebuursterweg,32,,,9821PD,Oldekerk,Grootegast,Groningen,VBO,6.338783,53.219603
Eekebuursterweg,34,,,9821PD,Oldekerk,Grootegast,Groningen,VBO,6.338484,53.219605
Eekebuursterweg,36,,,9821PD,Oldekerk,Grootegast,Groningen,VBO,6.338126,53.219671
Eekebuursterweg,38,,,9821PD,Oldekerk,Grootegast,Groningen,VBO,6.337979,53.219789
Eekebuursterweg,40,,,9821PD,Oldekerk,Grootegast,Groningen,VBO,6.337830,53.219835
Eekebuursterweg,42,,,9821PD,Oldekerk,Grootegast,Groningen,VBO,6.337622,53.219900
Eekebuursterweg,44,,,9821PD,Oldekerk,Grootegast,Groningen,VBO,6.337488,53.219919
Eekebuursterweg,46,,,9821PD,Oldekerk,Grootegast,Groningen,VBO,6.337355,53.219992
Eekebuursterweg,48,,,9821PD,Oldekerk,Grootegast,Groningen,VBO,6.334672,53.220570
Mensumaweg,2,,,9821PE,Oldekerk,Grootegast,Groningen,VBO,6.345179,53.219022
Mensumaweg,4,,,9821PE,Oldekerk,Grootegast,Groningen,VBO,6.344947,53.218700
Molenstraat,1,A,,9821PG,Oldekerk,Grootegast,Groningen,VBO,6.340417,53.218997
Molenstraat,1,B,,9821PG,Oldekerk,Grootegast,Groningen,VBO,6.340558,53.219301
Molenstraat,1,,,9821PG,Oldekerk,Grootegast,Groningen,VBO,6.340390,53.219141
Molenstraat,3,,,9821PG,Oldekerk,Grootegast,Groningen,VBO,6.340444,53.218880
Molenstraat,4,,,9821PG,Oldekerk,Grootegast,Groningen,VBO,6.340842,53.219281
Molenstraat,5,,,9821PG,Oldekerk,Grootegast,Groningen,VBO,6.340410,53.218700
Molenstraat,6,,,9821PG,Oldekerk,Grootegast,Groningen,VBO,6.340914,53.219146
Molenstraat,7,,,9821PG,Oldekerk,Grootegast,Groningen,VBO,6.340305,53.218674
Molenstraat,8,,,9821PG,Oldekerk,Grootegast,Groningen,VBO,6.340927,53.219029
Molenstraat,9,,,9821PG,Oldekerk,Grootegast,Groningen,VBO,6.340200,53.218657
Molenstraat,10,,,9821PG,Oldekerk,Grootegast,Groningen,VBO,6.340909,53.218885
Molenstraat,11,,,9821PG,Oldekerk,Grootegast,Groningen,VBO,6.339975,53.218659
Molenstraat,12,,,9821PG,Oldekerk,Grootegast,Groningen,VBO,6.341184,53.218479
Molenstraat,14,,,9821PG,Oldekerk,Grootegast,Groningen,VBO,6.340510,53.218484
Molenstraat,16,,,9821PG,Oldekerk,Grootegast,Groningen,VBO,6.340405,53.218476
Molenstraat,18,,,9821PG,Oldekerk,Grootegast,Groningen,VBO,6.340255,53.218450
Molenstraat,20,,,9821PG,Oldekerk,Grootegast,Groningen,VBO,6.340105,53.218442
Kuzemerweg,1,,,9821PH,Oldekerk,Grootegast,Groningen,VBO,6.339122,53.219349
Kuzemerweg,2,A,,9821PH,Oldekerk,Grootegast,Groningen,VBO,6.339873,53.219090
Kuzemerweg,2,B,,9821PH,Oldekerk,Grootegast,Groningen,VBO,6.339882,53.219172
Kuzemerweg,2,,,9821PH,Oldekerk,Grootegast,Groningen,VBO,6.339639,53.219021
Kuzemerweg,3,,,9821PH,Oldekerk,Grootegast,Groningen,VBO,6.339119,53.219223
Kuzemerweg,4,,,9821PH,Oldekerk,Grootegast,Groningen,VBO,6.339726,53.218895
Kuzemerweg,6,,,9821PH,Oldekerk,Grootegast,Groningen,VBO,6.339751,53.218688
Kuzemerweg,7,,,9821PH,Oldekerk,Grootegast,Groningen,VBO,6.339145,53.219043
Kuzemerweg,8,,,9821PH,Oldekerk,Grootegast,Groningen,VBO,6.339731,53.218418
Kuzemerweg,9,,,9821PH,Oldekerk,Grootegast,Groningen,VBO,6.339199,53.218773
Kuzemerweg,10,,,9821PH,Oldekerk,Grootegast,Groningen,VBO,6.339772,53.218265
Kuzemerweg,11,,,9821PH,Oldekerk,Grootegast,Groningen,VBO,6.339197,53.218674
Kuzemerweg,13,,,9821PH,Oldekerk,Grootegast,Groningen,VBO,6.339195,53.218557
Kuzemerweg,15,,,9821PH,Oldekerk,Grootegast,Groningen,VBO,6.339161,53.218414
Kuzemerweg,17,,,9821PH,Oldekerk,Grootegast,Groningen,VBO,6.339157,53.218207
Beukenlaan,1,,,9821PJ,Oldekerk,Grootegast,Groningen,VBO,6.338779,53.218740
Beukenlaan,2,,,9821PJ,Oldekerk,Grootegast,Groningen,VBO,6.338714,53.219172
Beukenlaan,3,,,9821PJ,Oldekerk,Grootegast,Groningen,VBO,6.338884,53.218749
Meidoornlaan,1,,,9821PK,Oldekerk,Grootegast,Groningen,VBO,6.337988,53.219528
Meidoornlaan,3,,,9821PK,Oldekerk,Grootegast,Groningen,VBO,6.338031,53.219411
Meidoornlaan,5,,,9821PK,Oldekerk,Grootegast,Groningen,VBO,6.338027,53.219259
Meidoornlaan,7,,,9821PK,Oldekerk,Grootegast,Groningen,VBO,6.337980,53.219133
Meidoornlaan,9,,,9821PK,Oldekerk,Grootegast,Groningen,VBO,6.338051,53.218989
Meidoornlaan,11,,,9821PK,Oldekerk,Grootegast,Groningen,VBO,6.338048,53.218845
Meidoornlaan,13,,,9821PK,Oldekerk,Grootegast,Groningen,VBO,6.338045,53.218692
Meidoornlaan,15,,,9821PK,Oldekerk,Grootegast,Groningen,VBO,6.337715,53.218677
Meidoornlaan,17,,,9821PK,Oldekerk,Grootegast,Groningen,VBO,6.337460,53.218661
Meidoornlaan,19,,,9821PK,Oldekerk,Grootegast,Groningen,VBO,6.337531,53.218499
Meidoornlaan,21,,,9821PK,Oldekerk,Grootegast,Groningen,VBO,6.337573,53.218346
Meidoornlaan,23,,,9821PK,Oldekerk,Grootegast,Groningen,VBO,6.337555,53.218202
Meidoornlaan,2,,,9821PL,Oldekerk,Grootegast,Groningen,VBO,6.338511,53.219488
Meidoornlaan,4,,,9821PL,Oldekerk,Grootegast,Groningen,VBO,6.338509,53.219398
Meidoornlaan,6,,,9821PL,Oldekerk,Grootegast,Groningen,VBO,6.338507,53.219300
Meidoornlaan,8,,,9821PL,Oldekerk,Grootegast,Groningen,VBO,6.338464,53.218716
Meidoornlaan,10,,,9821PL,Oldekerk,Grootegast,Groningen,VBO,6.338478,53.218644
Meidoornlaan,12,,,9821PL,Oldekerk,Grootegast,Groningen,VBO,6.338520,53.218518
Meidoornlaan,14,,,9821PL,Oldekerk,Grootegast,Groningen,VBO,6.338519,53.218464
Meidoornlaan,16,,,9821PL,Oldekerk,Grootegast,Groningen,VBO,6.338503,53.218410
Meidoornlaan,18,A,,9821PL,Oldekerk,Grootegast,Groningen,VBO,6.338438,53.218186
Meidoornlaan,18,B,,9821PL,Oldekerk,Grootegast,Groningen,VBO,6.338528,53.218185
Meidoornlaan,18,C,,9821PL,Oldekerk,Grootegast,Groningen,VBO,6.338483,53.218186
Meidoornlaan,18,D,,9821PL,Oldekerk,Grootegast,Groningen,VBO,6.338573,53.218194
Meidoornlaan,18,E,,9821PL,Oldekerk,Grootegast,Groningen,VBO,6.338678,53.218193
Meidoornlaan,18,F,,9821PL,Oldekerk,Grootegast,Groningen,VBO,6.338618,53.218194
Meidoornlaan,18,,,9821PL,Oldekerk,Grootegast,Groningen,VBO,6.338546,53.218356
Meidoornlaan,20,,,9821PL,Oldekerk,Grootegast,Groningen,VBO,6.338214,53.218242
Meidoornlaan,22,,,9821PL,Oldekerk,Grootegast,Groningen,VBO,6.338125,53.218242
Meidoornlaan,24,,,9821PL,Oldekerk,Grootegast,Groningen,VBO,6.338034,53.218225
Meidoornlaan,26,,,9821PL,Oldekerk,Grootegast,Groningen,VBO,6.337930,53.218244
Langewolderweg,1,,,9821PM,Oldekerk,Grootegast,Groningen,VBO,6.334324,53.221067
Langewolderweg,3,,,9821PM,Oldekerk,Grootegast,Groningen,VBO,6.334114,53.221069
Langewolderweg,5,,,9821PM,Oldekerk,Grootegast,Groningen,VBO,6.332663,53.221134
Langewolderweg,7,,,9821PM,Oldekerk,Grootegast,Groningen,VBO,6.332240,53.221605
Langewolderweg,9,,,9821PM,Oldekerk,Grootegast,Groningen,VBO,6.331061,53.221138
Langewolderweg,11,,,9821PM,Oldekerk,Grootegast,Groningen,VBO,6.330613,53.221177
Langewolderweg,13,,,9821PM,Oldekerk,Grootegast,Groningen,VBO,6.330239,53.221162
Langewolderweg,15,,,9821PM,Oldekerk,Grootegast,Groningen,VBO,6.328908,53.221244
Langewolderweg,17,,,9821PM,Oldekerk,Grootegast,Groningen,VBO,6.328562,53.221184
Langewolderweg,21,,,9821PN,Oldekerk,Grootegast,Groningen,VBO,6.326976,53.221251
Langewolderweg,23,,,9821PN,Oldekerk,Grootegast,Groningen,VBO,6.326444,53.222252
Langewolderweg,25,,,9821PN,Oldekerk,Grootegast,Groningen,VBO,6.325917,53.221403
Langewolderweg,27,,,9821PN,Oldekerk,Grootegast,Groningen,VBO,6.325603,53.221414
Langewolderweg,29,,,9821PN,Oldekerk,Grootegast,Groningen,VBO,6.323641,53.221412
Langewolderweg,31,,,9821PN,Oldekerk,Grootegast,Groningen,VBO,6.324328,53.224767
Langewolderweg,35,,,9821PN,Oldekerk,Grootegast,Groningen,VBO,6.323208,53.221451
Langewolderweg,37,A,,9821PN,Oldekerk,Grootegast,Groningen,VBO,6.320488,53.221688
Langewolderweg,37,,,9821PN,Oldekerk,Grootegast,Groningen,VBO,6.321425,53.221402
Langewolderweg,39,,,9821PN,Oldekerk,Grootegast,Groningen,VBO,6.319809,53.221432
Langewolderweg,41,,,9821PN,Oldekerk,Grootegast,Groningen,VBO,6.319329,53.221427
Langewolderweg,43,,,9821PN,Oldekerk,Grootegast,Groningen,VBO,6.318848,53.221341
Langewolderweg,45,,,9821PN,Oldekerk,Grootegast,Groningen,VBO,6.317921,53.221384
Langewolderweg,47,,,9821PN,Oldekerk,Grootegast,Groningen,VBO,6.317591,53.221333
Langewolderweg,49,,,9821PN,Oldekerk,Grootegast,Groningen,VBO,6.317187,53.221345
Langewolderweg,2,,,9821PP,Oldekerk,Grootegast,Groningen,VBO,6.333746,53.220649
Langewolderweg,4,,,9821PP,Oldekerk,Grootegast,Groningen,VBO,6.333072,53.220646
Langewolderweg,6,,,9821PP,Oldekerk,Grootegast,Groningen,VBO,6.332458,53.220659
Langewolderweg,8,,,9821PP,Oldekerk,Grootegast,Groningen,VBO,6.332010,53.220681
Langewolderweg,10,,,9821PP,Oldekerk,Grootegast,Groningen,VBO,6.331155,53.220634
Langewolderweg,12,,,9821PP,Oldekerk,Grootegast,Groningen,VBO,6.329916,53.220778
Langewolderweg,14,,,9821PP,Oldekerk,Grootegast,Groningen,VBO,6.329465,53.220728
Langewolderweg,16,,,9821PP,Oldekerk,Grootegast,Groningen,VBO,6.328742,53.220491
Langewolderweg,18,,,9821PP,Oldekerk,Grootegast,Groningen,VBO,6.328958,53.220804
Langewolderweg,20,,,9821PP,Oldekerk,Grootegast,Groningen,VBO,6.327820,53.220777
Langewolderweg,22,,,9821PP,Oldekerk,Grootegast,Groningen,VBO,6.328944,53.220867
Langewolderweg,26,,,9821PP,Oldekerk,Grootegast,Groningen,VBO,6.321791,53.221031
Langewolderweg,28,,,9821PP,Oldekerk,Grootegast,Groningen,VBO,6.321251,53.220990
Langewolderweg,30,,,9821PP,Oldekerk,Grootegast,Groningen,VBO,6.320564,53.221031
Langewolderweg,32,,,9821PP,Oldekerk,Grootegast,Groningen,VBO,6.320160,53.221052
Langewolderweg,34,,,9821PP,Oldekerk,Grootegast,Groningen,VBO,6.317959,53.220907
Langewolderweg,36,,,9821PP,Oldekerk,Grootegast,Groningen,VBO,6.317374,53.221020
Langewolderweg,38,,,9821PP,Oldekerk,Grootegast,Groningen,VBO,6.317046,53.221058
Kerkdreef,1,,,9821PR,Oldekerk,Grootegast,Groningen,VBO,6.341478,53.222295
Kerkdreef,3,,,9821PR,Oldekerk,Grootegast,Groningen,VBO,6.341504,53.222124
Kerkdreef,5,,,9821PR,Oldekerk,Grootegast,Groningen,VBO,6.341470,53.221927
Kerkdreef,7,A,,9821PR,Oldekerk,Grootegast,Groningen,VBO,6.341509,53.221684
Kerkdreef,7,B,,9821PR,Oldekerk,Grootegast,Groningen,VBO,6.341450,53.221694
Kerkdreef,7,C,,9821PR,Oldekerk,Grootegast,Groningen,VBO,6.341375,53.221685
Kerkdreef,7,,,9821PR,Oldekerk,Grootegast,Groningen,VBO,6.341615,53.221701
Kerkdreef,9,A,,9821PR,Oldekerk,Grootegast,Groningen,VBO,6.341502,53.221361
Kerkdreef,9,,,9821PR,Oldekerk,Grootegast,Groningen,VBO,6.341504,53.221459
Kerkdreef,11,,,9821PR,Oldekerk,Grootegast,Groningen,VBO,6.341605,53.221261
Kerkdreef,13,,,9821PR,Oldekerk,Grootegast,Groningen,VBO,6.341739,53.221233
Kerkdreef,15,A,,9821PR,Oldekerk,Grootegast,Groningen,VBO,6.342030,53.221249
Kerkdreef,15,B,,9821PR,Oldekerk,Grootegast,Groningen,VBO,6.341986,53.221251
Kerkdreef,15,C,,9821PR,Oldekerk,Grootegast,Groningen,VBO,6.342027,53.221258
Kerkdreef,17,A,,9821PR,Oldekerk,Grootegast,Groningen,VBO,6.342020,53.221217
Kerkdreef,17,B,,9821PR,Oldekerk,Grootegast,Groningen,VBO,6.341988,53.221222
Kerkdreef,17,C,,9821PR,Oldekerk,Grootegast,Groningen,VBO,6.342031,53.221221
Kerkdreef,19,,,9821PR,Oldekerk,Grootegast,Groningen,VBO,6.341914,53.221681
Kerkdreef,21,,,9821PR,Oldekerk,Grootegast,Groningen,VBO,6.342424,53.221722
Kerkdreef,23,,,9821PR,Oldekerk,Grootegast,Groningen,VBO,6.342708,53.221728
Kerkdreef,25,,,9821PR,Oldekerk,Grootegast,Groningen,VBO,6.342583,53.221487
Kerkdreef,27,,,9821PR,Oldekerk,Grootegast,Groningen,VBO,6.342654,53.221334
Kerkdreef,29,,,9821PR,Oldekerk,Grootegast,Groningen,VBO,6.342636,53.221181
Kerkdreef,2,,,9821PS,Oldekerk,Grootegast,Groningen,VBO,6.340697,53.222212
Kerkdreef,4,,,9821PS,Oldekerk,Grootegast,Groningen,VBO,6.340665,53.222165
Kerkdreef,6,,,9821PS,Oldekerk,Grootegast,Groningen,VBO,6.340665,53.222113
Kerkdreef,8,,,9821PS,Oldekerk,Grootegast,Groningen,VBO,6.340648,53.222023
Kerkdreef,10,,,9821PS,Oldekerk,Grootegast,Groningen,VBO,6.340663,53.221987
Kerkdreef,12,,,9821PS,Oldekerk,Grootegast,Groningen,VBO,6.340676,53.221924
Kerkdreef,14,A,,9821PS,Oldekerk,Grootegast,Groningen,VBO,6.340523,53.221773
Kerkdreef,14,,,9821PS,Oldekerk,Grootegast,Groningen,VBO,6.340565,53.221638
Kerkdreef,16,,,9821PS,Oldekerk,Grootegast,Groningen,VBO,6.340670,53.221637
Kerkdreef,18,,,9821PS,Oldekerk,Grootegast,Groningen,VBO,6.340775,53.221645
Kerkdreef,20,,,9821PS,Oldekerk,Grootegast,Groningen,VBO,6.340865,53.221671
Kerkdreef,22,,,9821PS,Oldekerk,Grootegast,Groningen,VBO,6.340955,53.221680
Kerkdreef,24,,,9821PS,Oldekerk,Grootegast,Groningen,VBO,6.340573,53.221323
Kerkdreef,26,,,9821PS,Oldekerk,Grootegast,Groningen,VBO,6.340678,53.221322
Kerkdreef,28,,,9821PS,Oldekerk,Grootegast,Groningen,VBO,6.340767,53.221295
Kerkdreef,30,,,9821PS,Oldekerk,Grootegast,Groningen,VBO,6.340857,53.221294
Kerkdreef,32,,,9821PS,Oldekerk,Grootegast,Groningen,VBO,6.340977,53.221320
Kerkdreef,34,,,9821PS,Oldekerk,Grootegast,Groningen,VBO,6.340687,53.221080
Kerkdreef,36,,,9821PS,Oldekerk,Grootegast,Groningen,VBO,6.340702,53.221044
Kerkdreef,38,,,9821PS,Oldekerk,Grootegast,Groningen,VBO,6.340715,53.220981
Kerkdreef,40,,,9821PS,Oldekerk,Grootegast,Groningen,VBO,6.340713,53.220891
Kerkdreef,42,,,9821PS,Oldekerk,Grootegast,Groningen,VBO,6.340727,53.220846
Kerkdreef,44,,,9821PS,Oldekerk,Grootegast,Groningen,VBO,6.340741,53.220801
Kerkdreef,46,,,9821PS,Oldekerk,Grootegast,Groningen,VBO,6.340689,53.220469
Kerkdreef,48,,,9821PS,Oldekerk,Grootegast,Groningen,VBO,6.340779,53.220477
Kerkdreef,50,,,9821PS,Oldekerk,Grootegast,Groningen,VBO,6.340898,53.220449
Kerkdreef,52,,,9821PS,Oldekerk,Grootegast,Groningen,VBO,6.341003,53.220466
Kerkdreef,54,,,9821PS,Oldekerk,Grootegast,Groningen,VBO,6.341277,53.220662
Kerkdreef,56,,,9821PS,Oldekerk,Grootegast,Groningen,VBO,6.341382,53.220679
Kerkdreef,58,,,9821PS,Oldekerk,Grootegast,Groningen,VBO,6.341517,53.220678
Bennemaheerd,1,,,9821PT,Oldekerk,Grootegast,Groningen,VBO,6.341235,53.222810
Bennemaheerd,3,,,9821PT,Oldekerk,Grootegast,Groningen,VBO,6.341550,53.222825
Bennemaheerd,5,,,9821PT,Oldekerk,Grootegast,Groningen,VBO,6.341639,53.222824
Bennemaheerd,7,,,9821PT,Oldekerk,Grootegast,Groningen,VBO,6.341894,53.222831
Bennemaheerd,9,,,9821PT,Oldekerk,Grootegast,Groningen,VBO,6.341969,53.222831
Bennemaheerd,11,,,9821PT,Oldekerk,Grootegast,Groningen,VBO,6.342538,53.222853
Bennemaheerd,13,,,9821PT,Oldekerk,Grootegast,Groningen,VBO,6.342467,53.223033
Bennemaheerd,15,,,9821PT,Oldekerk,Grootegast,Groningen,VBO,6.342531,53.223213
Bennemaheerd,17,,,9821PT,Oldekerk,Grootegast,Groningen,VBO,6.342171,53.224527
Bennemaheerd,19,,,9821PT,Oldekerk,Grootegast,Groningen,VBO,6.342471,53.224543
Bennemaheerd,21,,,9821PT,Oldekerk,Grootegast,Groningen,VBO,6.342756,53.224577
Bennemaheerd,23,A,,9821PT,Oldekerk,Grootegast,Groningen,VBO,6.343477,53.224679
Bennemaheerd,23,,,9821PT,Oldekerk,Grootegast,Groningen,VBO,6.343101,53.224610
Bennemaheerd,25,,,9821PT,Oldekerk,Grootegast,Groningen,VBO,6.343929,53.224783
Bennemaheerd,27,,,9821PT,Oldekerk,Grootegast,Groningen,VBO,6.343893,53.224532
Bennemaheerd,29,,,9821PT,Oldekerk,Grootegast,Groningen,VBO,6.344022,53.224252
Bennemaheerd,2,,,9821PV,Oldekerk,Grootegast,Groningen,VBO,6.341377,53.222467
Bennemaheerd,4,,,9821PV,Oldekerk,Grootegast,Groningen,VBO,6.341692,53.222482
Bennemaheerd,6,,,9821PV,Oldekerk,Grootegast,Groningen,VBO,6.341947,53.222498
Bennemaheerd,8,,,9821PV,Oldekerk,Grootegast,Groningen,VBO,6.343015,53.222759
Bennemaheerd,10,,,9821PV,Oldekerk,Grootegast,Groningen,VBO,6.342975,53.222915
Bennemaheerd,12,,,9821PV,Oldekerk,Grootegast,Groningen,VBO,6.342971,53.223104
Bennemaheerd,14,,,9821PV,Oldekerk,Grootegast,Groningen,VBO,6.342983,53.223317
Bennemaheerd,16,,,9821PV,Oldekerk,Grootegast,Groningen,VBO,6.342945,53.223623
Bennemaheerd,18,,,9821PV,Oldekerk,Grootegast,Groningen,VBO,6.343087,53.223963
Bennemaheerd,20,,,9821PV,Oldekerk,Grootegast,Groningen,VBO,6.342787,53.223947
Bennemaheerd,22,,,9821PV,Oldekerk,Grootegast,Groningen,VBO,6.342353,53.223960
Bennemaheerd,24,,,9821PV,Oldekerk,Grootegast,Groningen,VBO,6.342354,53.224014
Bennemaheerd,26,,,9821PV,Oldekerk,Grootegast,Groningen,VBO,6.342358,53.224184
Bennemaheerd,28,,,9821PV,Oldekerk,Grootegast,Groningen,VBO,6.342344,53.224238
Bennemaheerd,30,,,9821PV,Oldekerk,Grootegast,Groningen,VBO,6.342990,53.224305
Bennemaheerd,32,,,9821PV,Oldekerk,Grootegast,Groningen,VBO,6.343529,53.224337
Bennemaheerd,34,,,9821PV,Oldekerk,Grootegast,Groningen,VBO,6.343584,53.224085
Meynemaheem,1,,,9821PW,Oldekerk,Grootegast,Groningen,VBO,6.340898,53.222480
Meynemaheem,2,,,9821PW,Oldekerk,Grootegast,Groningen,VBO,6.341145,53.222810
Meynemaheem,3,,,9821PW,Oldekerk,Grootegast,Groningen,VBO,6.340583,53.222473
Meynemaheem,4,,,9821PW,Oldekerk,Grootegast,Groningen,VBO,6.341108,53.223179
Meynemaheem,5,,,9821PW,Oldekerk,Grootegast,Groningen,VBO,6.340665,53.222760
Meynemaheem,6,,,9821PW,Oldekerk,Grootegast,Groningen,VBO,6.341197,53.223142
Meynemaheem,7,,,9821PW,Oldekerk,Grootegast,Groningen,VBO,6.340668,53.222904
Meynemaheem,8,,,9821PW,Oldekerk,Grootegast,Groningen,VBO,6.341482,53.223140
Meynemaheem,9,,,9821PW,Oldekerk,Grootegast,Groningen,VBO,6.340643,53.223129
Meynemaheem,10,,,9821PW,Oldekerk,Grootegast,Groningen,VBO,6.341572,53.223148
Meynemaheem,11,,,9821PW,Oldekerk,Grootegast,Groningen,VBO,6.341054,53.223431
Meynemaheem,12,,,9821PW,Oldekerk,Grootegast,Groningen,VBO,6.341856,53.223155
Meynemaheem,13,,,9821PW,Oldekerk,Grootegast,Groningen,VBO,6.341442,53.223401
Meynemaheem,14,,,9821PW,Oldekerk,Grootegast,Groningen,VBO,6.341946,53.223154
Meynemaheem,15,,,9821PW,Oldekerk,Grootegast,Groningen,VBO,6.341818,53.223452
Meynemaheem,17,,,9821PW,Oldekerk,Grootegast,Groningen,VBO,6.342103,53.223459
Zanster,1,,,9821PX,Oldekerk,Grootegast,Groningen,VBO,6.341966,53.222031
Zanster,2,,,9821PX,Oldekerk,Grootegast,Groningen,VBO,6.342551,53.222071
Zanster,3,,,9821PX,Oldekerk,Grootegast,Groningen,VBO,6.341954,53.222175
Zanster,4,,,9821PX,Oldekerk,Grootegast,Groningen,VBO,6.343002,53.222166
Zanster,5,,,9821PX,Oldekerk,Grootegast,Groningen,VBO,6.342047,53.222282
Zanster,6,,,9821PX,Oldekerk,Grootegast,Groningen,VBO,6.343007,53.222382
Zanster,8,,,9821PX,Oldekerk,Grootegast,Groningen,VBO,6.342995,53.222535
Zanster,10,,,9821PX,Oldekerk,Grootegast,Groningen,VBO,6.342982,53.222580
Kuzemerweg,19,,,9821TA,Oldekerk,Grootegast,Groningen,VBO,6.337855,53.215522
Kuzemerweg,21,,,9821TA,Oldekerk,Grootegast,Groningen,VBO,6.334448,53.214452
Kuzemerweg,23,A,,9821TA,Oldekerk,Grootegast,Groningen,VBO,6.330859,53.214624
Kuzemerweg,23,,,9821TA,Oldekerk,Grootegast,Groningen,VBO,6.331217,53.214559
Kuzemerweg,25,,,9821TA,Oldekerk,Grootegast,Groningen,VBO,6.329523,53.214446
Kuzemerweg,27,,,9821TA,Oldekerk,Grootegast,Groningen,VBO,6.321791,53.213482
Kuzemerweg,29,A,,9821TA,Oldekerk,Grootegast,Groningen,VBO,6.318343,53.213851
Kuzemerweg,29,,,9821TA,Oldekerk,Grootegast,Groningen,VBO,6.318265,53.213716
Kuzemerweg,33,,,9821TA,Oldekerk,Grootegast,Groningen,VBO,6.317712,53.213775
Kuzemerweg,12,A,,9821TB,Oldekerk,Grootegast,Groningen,VBO,6.339772,53.214886
Kuzemerweg,12,,,9821TB,Oldekerk,Grootegast,Groningen,VBO,6.339717,53.215076
Kuzemerweg,14,,,9821TB,Oldekerk,Grootegast,Groningen,VBO,6.336488,53.214625
Kuzemerweg,16,,,9821TB,Oldekerk,Grootegast,Groningen,VBO,6.336683,53.211892
Kuzemerweg,18,A,,9821TB,Oldekerk,Grootegast,Groningen,VBO,6.334536,53.213679
Kuzemerweg,18,,,9821TB,Oldekerk,Grootegast,Groningen,VBO,6.333653,53.213695
Kuzemerweg,20,,,9821TB,Oldekerk,Grootegast,Groningen,VBO,6.333224,53.213914
Kuzemerweg,22,,,9821TB,Oldekerk,Grootegast,Groningen,VBO,6.332105,53.213392
Kuzemerweg,24,,,9821TB,Oldekerk,Grootegast,Groningen,VBO,6.329846,53.212098
Kuzemerweg,26,,,9821TB,Oldekerk,Grootegast,Groningen,VBO,6.327788,53.212447
Kuzemerweg,28,,,9821TB,Oldekerk,Grootegast,Groningen,VBO,6.324704,53.213828
Kuzemerweg,30,,,9821TB,Oldekerk,Grootegast,Groningen,VBO,6.324157,53.213455
Kuzemerweg,32,,,9821TB,Oldekerk,Grootegast,Groningen,VBO,6.323967,53.212953
Kuzemerweg,34,,,9821TB,Oldekerk,Grootegast,Groningen,VBO,6.321837,53.212772
Kuzemerweg,36,,,9821TB,Oldekerk,Grootegast,Groningen,VBO,6.318441,53.213535
Kuzemerweg,38,A,,9821TB,Oldekerk,Grootegast,Groningen,VBO,6.317721,53.213469
Kuzemerweg,38,,,9821TB,Oldekerk,Grootegast,Groningen,VBO,6.317839,53.213396
Munnikeweg,1,,,9821TC,Oldekerk,Grootegast,Groningen,VBO,6.321940,53.207829
Munnikeweg,2,,,9821TC,Oldekerk,Grootegast,Groningen,VBO,6.322319,53.219804
Munnikeweg,3,,,9821TC,Oldekerk,Grootegast,Groningen,VBO,6.323812,53.203052
Munnikeweg,4,,,9821TC,Oldekerk,Grootegast,Groningen,VBO,6.325338,53.207164
Munnikeweg,5,,,9821TC,Oldekerk,Grootegast,Groningen,VBO,6.322483,53.203179
Munnikeweg,6,,,9821TC,Oldekerk,Grootegast,Groningen,VBO,6.324920,53.205813
Kroonsfelderweg,1,,,9821TD,Oldekerk,Grootegast,Groningen,VBO,6.334837,53.221234
Kroonsfelderweg,2,,,9821TD,Oldekerk,Grootegast,Groningen,VBO,6.334230,53.222910
Kroonsfelderweg,3,,,9821TD,Oldekerk,Grootegast,Groningen,VBO,6.334914,53.221350
Kroonsfelderweg,4,,,9821TD,Oldekerk,Grootegast,Groningen,VBO,6.334348,53.224221
Kroonsfelderweg,5,,,9821TD,Oldekerk,Grootegast,Groningen,VBO,6.334961,53.221448
Kroonsfelderweg,7,,,9821TD,Oldekerk,Grootegast,Groningen,VBO,6.334829,53.221575
Kroonsfelderweg,8,,,9821TD,Oldekerk,Grootegast,Groningen,VBO,6.332726,53.224674
Kroonsfelderweg,9,,,9821TD,Oldekerk,Grootegast,Groningen,VBO,6.334726,53.221657
Kroonsfelderweg,10,,,9821TD,Oldekerk,Grootegast,Groningen,VBO,6.334757,53.225125
Kroonsfelderweg,11,,,9821TD,Oldekerk,Grootegast,Groningen,VBO,6.334729,53.221792
Kroonsfelderweg,12,,,9821TD,Oldekerk,Grootegast,Groningen,VBO,6.334818,53.227210
Kroonsfelderweg,13,,,9821TD,Oldekerk,Grootegast,Groningen,VBO,6.334882,53.221952
Kroonsfelderweg,14,,,9821TD,Oldekerk,Grootegast,Groningen,VBO,6.334827,53.228306
Kroonsfelderweg,15,,,9821TD,Oldekerk,Grootegast,Groningen,VBO,6.334810,53.222052
Kroonsfelderweg,16,,,9821TD,Oldekerk,Grootegast,Groningen,VBO,6.334800,53.229789
Kroonsfelderweg,17,,,9821TD,Oldekerk,Grootegast,Groningen,VBO,6.334908,53.223102
Kroonsfelderweg,18,A,,9821TD,Oldekerk,Grootegast,Groningen,VBO,6.334402,53.230088
Kroonsfelderweg,18,,,9821TD,Oldekerk,Grootegast,Groningen,VBO,6.334776,53.230068
Zandumerweg,19,A,,9821TE,Oldekerk,Grootegast,Groningen,VBO,6.343568,53.228111
Zandumerweg,19,,,9821TE,Oldekerk,Grootegast,Groningen,VBO,6.341959,53.227800
Zandumerweg,21,,,9821TE,Oldekerk,Grootegast,Groningen,VBO,6.340350,53.230212
Zandumerweg,23,,,9821TE,Oldekerk,Grootegast,Groningen,VBO,6.339446,53.230651
Zandumerweg,25,,,9821TE,Oldekerk,Grootegast,Groningen,VBO,6.338004,53.230464
Zandumerweg,27,A,,9821TE,Oldekerk,Grootegast,Groningen,VBO,6.337038,53.230627
Zandumerweg,27,,,9821TE,Oldekerk,Grootegast,Groningen,VBO,6.337334,53.230631
Zandumerweg,29,,,9821TE,Oldekerk,Grootegast,Groningen,VBO,6.335448,53.230682
Zandumerweg,31,,,9821TE,Oldekerk,Grootegast,Groningen,VBO,6.334524,53.231579
Zandumerweg,33,,,9821TE,Oldekerk,Grootegast,Groningen,VBO,6.333511,53.231812
Zandumerweg,35,,,9821TE,Oldekerk,Grootegast,Groningen,VBO,6.332250,53.231660
Zandumerweg,37,,,9821TE,Oldekerk,Grootegast,Groningen,VBO,6.330191,53.232710
Zandumerweg,39,,,9821TE,Oldekerk,Grootegast,Groningen,VBO,6.329061,53.235819
Zandumerweg,41,,,9821TG,Oldekerk,Grootegast,Groningen,VBO,6.328545,53.234133
Zandumerweg,43,,,9821TG,Oldekerk,Grootegast,Groningen,VBO,6.326382,53.233854
Zandumerweg,45,A,,9821TG,Oldekerk,Grootegast,Groningen,VBO,6.324114,53.234231
Zandumerweg,45,,,9821TG,Oldekerk,Grootegast,Groningen,VBO,6.324286,53.235946
Zandumerweg,47,,,9821TG,Oldekerk,Grootegast,Groningen,VBO,6.322585,53.234198
Zandumerweg,49,,,9821TG,Oldekerk,Grootegast,Groningen,VBO,6.320419,53.234430
Zandumerweg,51,,,9821TG,Oldekerk,Grootegast,Groningen,VBO,6.319127,53.234953
Zandumerweg,53,,,9821TG,Oldekerk,Grootegast,Groningen,VBO,6.317931,53.235070
Zandumerweg,55,,,9821TG,Oldekerk,Grootegast,Groningen,VBO,6.317678,53.235135
Zandumerweg,57,,,9821TG,Oldekerk,Grootegast,Groningen,VBO,6.317330,53.234976
Zandumerweg,59,,,9821TG,Oldekerk,Grootegast,Groningen,VBO,6.317033,53.235086
Zandumerweg,61,,,9821TG,Oldekerk,Grootegast,Groningen,VBO,6.316212,53.235200
Zandumerweg,63,,,9821TG,Oldekerk,Grootegast,Groningen,VBO,6.315378,53.235449
Zandumerweg,65,,,9821TG,Oldekerk,Grootegast,Groningen,VBO,6.314719,53.235436
Zandumerweg,42,,,9821TH,Oldekerk,Grootegast,Groningen,VBO,6.343640,53.226636
Zandumerweg,44,,,9821TH,Oldekerk,Grootegast,Groningen,VBO,6.342912,53.226867
Zandumerweg,46,,,9821TH,Oldekerk,Grootegast,Groningen,VBO,6.342375,53.226979
Zandumerweg,48,,,9821TH,Oldekerk,Grootegast,Groningen,VBO,6.341911,53.226983
Zandumerweg,50,,,9821TH,Oldekerk,Grootegast,Groningen,VBO,6.341264,53.226862
Zandumerweg,52,,,9821TH,Oldekerk,Grootegast,Groningen,VBO,6.340015,53.227240
Zandumerweg,54,,,9821TH,Oldekerk,Grootegast,Groningen,VBO,6.332057,53.231040
Zandumerweg,56,,,9821TH,Oldekerk,Grootegast,Groningen,VBO,6.331222,53.231210
Zandumerweg,58,,,9821TH,Oldekerk,Grootegast,Groningen,VBO,6.323836,53.232472
Zandumerweg,60,,,9821TH,Oldekerk,Grootegast,Groningen,VBO,6.323036,53.232191
Zandumerweg,62,,,9821TH,Oldekerk,Grootegast,Groningen,VBO,6.321246,53.233903
Zandumerweg,64,,,9821TH,Oldekerk,Grootegast,Groningen,VBO,6.320949,53.234040
Zandumerweg,66,,,9821TH,Oldekerk,Grootegast,Groningen,VBO,6.320560,53.234052
Zandumerweg,68,,,9821TH,Oldekerk,Grootegast,Groningen,VBO,6.320095,53.234002
Zandumerweg,70,,,9821TH,Oldekerk,Grootegast,Groningen,VBO,6.317655,53.234748
Zandumerweg,72,,,9821TH,Oldekerk,Grootegast,Groningen,VBO,6.315947,53.234726
Zandumerweg,74,,,9821TH,Oldekerk,Grootegast,Groningen,VBO,6.315170,53.234831
Hoendiep,1,,,9821TJ,Oldekerk,Grootegast,Groningen,VBO,6.350234,53.249022
Hoendiep,2,,,9821TJ,Oldekerk,Grootegast,Groningen,VBO,6.343520,53.251505
Hoendiep,3,,,9821TJ,Oldekerk,Grootegast,Groningen,VBO,6.342077,53.251441
Hoendiep,4,,,9821TJ,Oldekerk,Grootegast,Groningen,VBO,6.340454,53.251203
Hoendiep,6,,,9821TJ,Oldekerk,Grootegast,Groningen,VBO,6.336878,53.250831
Hoendiep,7,A,,9821TJ,Oldekerk,Grootegast,Groningen,VBO,6.324420,53.249711
Hoendiep,7,B,,9821TJ,Oldekerk,Grootegast,Groningen,VBO,6.323599,53.249188
Hoendiep,7,C,,9821TJ,Oldekerk,Grootegast,Groningen,VBO,6.325833,53.245827
Hoendiep,7,,,9821TJ,Oldekerk,Grootegast,Groningen,VBO,6.327500,53.250119
Hoendiep,8,,,9821TJ,Oldekerk,Grootegast,Groningen,VBO,6.320473,53.249323
Hoendiep,9,,,9821TJ,Oldekerk,Grootegast,Groningen,VBO,6.319780,53.249235
Hoendiep,10,,,9821TJ,Oldekerk,Grootegast,Groningen,VBO,6.319554,53.249192
Hoendiep,11,,,9821TJ,Oldekerk,Grootegast,Groningen,VBO,6.314517,53.248360
Hoendiep,12,,,9821TJ,Oldekerk,Grootegast,Groningen,VBO,6.313568,53.248097
Golden Raand,1,,,9821TK,Oldekerk,Grootegast,Groningen,VBO,6.338260,53.215563
Golden Raand,2,,,9821TK,Oldekerk,Grootegast,Groningen,VBO,6.338922,53.215684
Golden Raand,3,,,9821TK,Oldekerk,Grootegast,Groningen,VBO,6.338414,53.215760
Golden Raand,5,,,9821TK,Oldekerk,Grootegast,Groningen,VBO,6.338285,53.215995
Golden Raand,7,,,9821TK,Oldekerk,Grootegast,Groningen,VBO,6.338334,53.216183
Golden Raand,9,,,9821TK,Oldekerk,Grootegast,Groningen,VBO,6.338338,53.216381
Golden Raand,11,,,9821TK,Oldekerk,Grootegast,Groningen,VBO,6.338372,53.216569
Golden Raand,13,,,9821TK,Oldekerk,Grootegast,Groningen,VBO,6.338407,53.216775
Golden Raand,15,,,9821TK,Oldekerk,Grootegast,Groningen,VBO,6.338186,53.216966
Golden Raand,17,,,9821TK,Oldekerk,Grootegast,Groningen,VBO,6.338190,53.217137
Golden Raand,19,,,9821TK,Oldekerk,Grootegast,Groningen,VBO,6.338210,53.217379
Golden Raand,23,,,9821TK,Oldekerk,Grootegast,Groningen,VBO,6.338214,53.217541
Golden Raand,25,,,9821TK,Oldekerk,Grootegast,Groningen,VBO,6.338155,53.217991
Golden Raand,4,,,9821TL,Oldekerk,Grootegast,Groningen,VBO,6.338957,53.215944
Golden Raand,6,,,9821TL,Oldekerk,Grootegast,Groningen,VBO,6.338947,53.216142
Golden Raand,8,,,9821TL,Oldekerk,Grootegast,Groningen,VBO,6.338951,53.216349
Golden Raand,10,,,9821TL,Oldekerk,Grootegast,Groningen,VBO,6.338911,53.216538
Golden Raand,14,,,9821TL,Oldekerk,Grootegast,Groningen,VBO,6.338903,53.216879
Golden Raand,16,,,9821TL,Oldekerk,Grootegast,Groningen,VBO,6.338922,53.217059
Golden Raand,18,,,9821TL,Oldekerk,Grootegast,Groningen,VBO,6.338791,53.217249
Golden Raand,20,,,9821TL,Oldekerk,Grootegast,Groningen,VBO,6.338869,53.217392
Golden Raand,22,,,9821TL,Oldekerk,Grootegast,Groningen,VBO,6.338723,53.217537
Golden Raand,24,,,9821TL,Oldekerk,Grootegast,Groningen,VBO,6.338877,53.217742
Golden Raand,26,,,9821TL,Oldekerk,Grootegast,Groningen,VBO,6.338868,53.217985
Waterkuzemer,1,,,9821TM,Oldekerk,Grootegast,Groningen,VBO,6.331510,53.219049
Matsloot,2,,,9821TN,Oldekerk,Grootegast,Groningen,VBO,6.339994,53.220842
Matsloot,20,,,9821TN,Oldekerk,Grootegast,Groningen,VBO,6.339983,53.221705
Matsloot,22,,,9821TN,Oldekerk,Grootegast,Groningen,VBO,6.339898,53.221931
Matsloot,24,,,9821TN,Oldekerk,Grootegast,Groningen,VBO,6.339917,53.222110
Matsloot,26,,,9821TN,Oldekerk,Grootegast,Groningen,VBO,6.339890,53.222263
Matsloot,28,,,9821TN,Oldekerk,Grootegast,Groningen,VBO,6.339909,53.222434
Matsloot,30,,,9821TN,Oldekerk,Grootegast,Groningen,VBO,6.339898,53.222631
Matsloot,32,,,9821TN,Oldekerk,Grootegast,Groningen,VBO,6.339901,53.222775
Matsloot,34,,,9821TN,Oldekerk,Grootegast,Groningen,VBO,6.339890,53.222955
Matsloot,36,,,9821TN,Oldekerk,Grootegast,Groningen,VBO,6.339865,53.223144
Oldekerkermeer,2,,,9821TP,Oldekerk,Grootegast,Groningen,VBO,6.336047,53.222482
Oldekerkermeer,4,,,9821TP,Oldekerk,Grootegast,Groningen,VBO,6.336282,53.222455
Oldekerkermeer,6,,,9821TP,Oldekerk,Grootegast,Groningen,VBO,6.336378,53.222458
Oldekerkermeer,8,,,9821TP,Oldekerk,Grootegast,Groningen,VBO,6.336587,53.222460
Oldekerkermeer,10,,,9821TP,Oldekerk,Grootegast,Groningen,VBO,6.336686,53.222464
Oldekerkermeer,12,,,9821TP,Oldekerk,Grootegast,Groningen,VBO,6.336877,53.222467
Oldekerkermeer,14,,,9821TP,Oldekerk,Grootegast,Groningen,VBO,6.336996,53.222471
Oldekerkermeer,16,,,9821TP,Oldekerk,Grootegast,Groningen,VBO,6.337430,53.222741
Oldekerkermeer,18,,,9821TP,Oldekerk,Grootegast,Groningen,VBO,6.338066,53.222752
Oldekerkermeer,20,,,9821TP,Oldekerk,Grootegast,Groningen,VBO,6.338374,53.222769
Oldekerkermeer,22,,,9821TP,Oldekerk,Grootegast,Groningen,VBO,6.338615,53.222739
Oldekerkermeer,24,,,9821TP,Oldekerk,Grootegast,Groningen,VBO,6.339183,53.222772
Oldekerkermeer,26,,,9821TP,Oldekerk,Grootegast,Groningen,VBO,6.339287,53.222771
Kolonelsdiep,1,,,9821TR,Oldekerk,Grootegast,Groningen,VBO,6.338831,53.221406
Kolonelsdiep,2,,,9821TR,Oldekerk,Grootegast,Groningen,VBO,6.339303,53.221450
Kolonelsdiep,3,,,9821TR,Oldekerk,Grootegast,Groningen,VBO,6.338830,53.221451
Kolonelsdiep,4,,,9821TR,Oldekerk,Grootegast,Groningen,VBO,6.339304,53.221504
Kolonelsdiep,5,,,9821TR,Oldekerk,Grootegast,Groningen,VBO,6.338831,53.221501
Kolonelsdiep,6,,,9821TR,Oldekerk,Grootegast,Groningen,VBO,6.339277,53.221621
Kolonelsdiep,7,,,9821TR,Oldekerk,Grootegast,Groningen,VBO,6.338825,53.221619
Kolonelsdiep,8,,,9821TR,Oldekerk,Grootegast,Groningen,VBO,6.339293,53.221675
Kolonelsdiep,9,,,9821TR,Oldekerk,Grootegast,Groningen,VBO,6.338823,53.221664
Kolonelsdiep,10,,,9821TR,Oldekerk,Grootegast,Groningen,VBO,6.339296,53.221783
Kolonelsdiep,11,,,9821TR,Oldekerk,Grootegast,Groningen,VBO,6.338821,53.221713
Kolonelsdiep,12,,,9821TR,Oldekerk,Grootegast,Groningen,VBO,6.339297,53.221827
Kolonelsdiep,13,,,9821TR,Oldekerk,Grootegast,Groningen,VBO,6.338812,53.221762
Kolonelsdiep,14,,,9821TR,Oldekerk,Grootegast,Groningen,VBO,6.339270,53.221962
Kolonelsdiep,15,,,9821TR,Oldekerk,Grootegast,Groningen,VBO,6.338810,53.221881
Kolonelsdiep,16,,,9821TR,Oldekerk,Grootegast,Groningen,VBO,6.339271,53.222007
Kolonelsdiep,17,,,9821TR,Oldekerk,Grootegast,Groningen,VBO,6.338806,53.221927
Kolonelsdiep,18,,,9821TR,Oldekerk,Grootegast,Groningen,VBO,6.339272,53.222061
Kolonelsdiep,19,,,9821TR,Oldekerk,Grootegast,Groningen,VBO,6.338800,53.221972
Kolonelsdiep,20,,,9821TR,Oldekerk,Grootegast,Groningen,VBO,6.339259,53.222151
Kolonelsdiep,21,,,9821TR,Oldekerk,Grootegast,Groningen,VBO,6.338800,53.222025
Kolonelsdiep,22,,,9821TR,Oldekerk,Grootegast,Groningen,VBO,6.339260,53.222205
Kolonelsdiep,23,,,9821TR,Oldekerk,Grootegast,Groningen,VBO,6.338728,53.222116
Kolonelsdiep,24,,,9821TR,Oldekerk,Grootegast,Groningen,VBO,6.339261,53.222259
Kolonelsdiep,25,,,9821TR,Oldekerk,Grootegast,Groningen,VBO,6.338728,53.222169
Kolonelsdiep,26,,,9821TR,Oldekerk,Grootegast,Groningen,VBO,6.339264,53.222367
Kolonelsdiep,27,,,9821TR,Oldekerk,Grootegast,Groningen,VBO,6.338722,53.222213
Kolonelsdiep,28,,,9821TR,Oldekerk,Grootegast,Groningen,VBO,6.339264,53.222403
Kolonelsdiep,29,,,9821TR,Oldekerk,Grootegast,Groningen,VBO,6.338724,53.222265
Kolonelsdiep,30,,,9821TR,Oldekerk,Grootegast,Groningen,VBO,6.339265,53.222448
Kolonelsdiep,31,,,9821TR,Oldekerk,Grootegast,Groningen,VBO,6.338710,53.222358
Kolonelsdiep,32,,,9821TR,Oldekerk,Grootegast,Groningen,VBO,6.339252,53.222511
Kolonelsdiep,33,,,9821TR,Oldekerk,Grootegast,Groningen,VBO,6.338713,53.222413
Kolonelsdiep,35,,,9821TR,Oldekerk,Grootegast,Groningen,VBO,6.338711,53.222464
Kolonelsdiep,37,,,9821TR,Oldekerk,Grootegast,Groningen,VBO,6.338713,53.222506
Ykesloot,1,,,9821TS,Oldekerk,Grootegast,Groningen,VBO,6.337628,53.220586
Ykesloot,3,,,9821TS,Oldekerk,Grootegast,Groningen,VBO,6.337606,53.220779
Ykesloot,4,,,9821TS,Oldekerk,Grootegast,Groningen,VBO,6.338225,53.220565
Ykesloot,5,,,9821TS,Oldekerk,Grootegast,Groningen,VBO,6.337590,53.221399
Ykesloot,6,,,9821TS,Oldekerk,Grootegast,Groningen,VBO,6.339176,53.220436
Ykesloot,7,,,9821TS,Oldekerk,Grootegast,Groningen,VBO,6.337565,53.221469
Ykesloot,9,,,9821TS,Oldekerk,Grootegast,Groningen,VBO,6.337584,53.221562
Ykesloot,11,,,9821TS,Oldekerk,Grootegast,Groningen,VBO,6.337585,53.221625
Ykesloot,13,,,9821TS,Oldekerk,Grootegast,Groningen,VBO,6.337574,53.221778
Ykesloot,15,,,9821TS,Oldekerk,Grootegast,Groningen,VBO,6.337575,53.221832
Ykesloot,17,,,9821TS,Oldekerk,Grootegast,Groningen,VBO,6.337548,53.221976
Ykesloot,19,,,9821TS,Oldekerk,Grootegast,Groningen,VBO,6.337534,53.222039
Ykesloot,21,,,9821TS,Oldekerk,Grootegast,Groningen,VBO,6.337574,53.222220
Ykesloot,23,,,9821TS,Oldekerk,Grootegast,Groningen,VBO,6.337558,53.222278
Ykesloot,25,,,9821TS,Oldekerk,Grootegast,Groningen,VBO,6.337552,53.222423
Ykesloot,27,,,9821TS,Oldekerk,Grootegast,Groningen,VBO,6.337536,53.222485
Katerhals,1,,,9821TT,Oldekerk,Grootegast,Groningen,VBO,6.336084,53.222123
Katerhals,2,,,9821TT,Oldekerk,Grootegast,Groningen,VBO,6.336106,53.221763
Katerhals,3,,,9821TT,Oldekerk,Grootegast,Groningen,VBO,6.336174,53.222113
Katerhals,4,,,9821TT,Oldekerk,Grootegast,Groningen,VBO,6.336196,53.221762
Katerhals,5,,,9821TT,Oldekerk,Grootegast,Groningen,VBO,6.336249,53.222121
Katerhals,6,,,9821TT,Oldekerk,Grootegast,Groningen,VBO,6.336270,53.221753
Katerhals,7,,,9821TT,Oldekerk,Grootegast,Groningen,VBO,6.336338,53.222121
Katerhals,8,,,9821TT,Oldekerk,Grootegast,Groningen,VBO,6.336420,53.221760
Katerhals,9,,,9821TT,Oldekerk,Grootegast,Groningen,VBO,6.336488,53.222128
Katerhals,10,,,9821TT,Oldekerk,Grootegast,Groningen,VBO,6.336510,53.221760
Katerhals,11,,,9821TT,Oldekerk,Grootegast,Groningen,VBO,6.336578,53.222119
Katerhals,12,,,9821TT,Oldekerk,Grootegast,Groningen,VBO,6.336585,53.221768
Katerhals,13,,,9821TT,Oldekerk,Grootegast,Groningen,VBO,6.336653,53.222127
Katerhals,14,,,9821TT,Oldekerk,Grootegast,Groningen,VBO,6.336735,53.221767
Katerhals,15,,,9821TT,Oldekerk,Grootegast,Groningen,VBO,6.336818,53.222135
Katerhals,16,,,9821TT,Oldekerk,Grootegast,Groningen,VBO,6.336840,53.221766
Katerhals,17,,,9821TT,Oldekerk,Grootegast,Groningen,VBO,6.336908,53.222134
Katerhals,18,,,9821TT,Oldekerk,Grootegast,Groningen,VBO,6.336915,53.221765
Katerhals,19,,,9821TT,Oldekerk,Grootegast,Groningen,VBO,6.336983,53.222133
Katerhals,20,,,9821TT,Oldekerk,Grootegast,Groningen,VBO,6.337005,53.221774
Dwarsdiep,1,,,9821TV,Oldekerk,Grootegast,Groningen,VBO,6.336098,53.221432
Dwarsdiep,2,,,9821TV,Oldekerk,Grootegast,Groningen,VBO,6.335522,53.222450
Dwarsdiep,6,,,9821TV,Oldekerk,Grootegast,Groningen,VBO,6.335514,53.222100
Dwarsdiep,10,,,9821TV,Oldekerk,Grootegast,Groningen,VBO,6.335562,53.221749
Dwarsdiep,14,,,9821TV,Oldekerk,Grootegast,Groningen,VBO,6.335559,53.221399
Dwarsdiep,16,,,9821TV,Oldekerk,Grootegast,Groningen,VBO,6.335570,53.221228
Dwarsdiep,17,,,9821TV,Oldekerk,Grootegast,Groningen,VBO,6.338154,53.221157
Dwarsdiep,18,,,9821TV,Oldekerk,Grootegast,Groningen,VBO,6.336265,53.221185
Dwarsdiep,20,,,9821TV,Oldekerk,Grootegast,Groningen,VBO,6.336339,53.221189
Dwarsdiep,22,,,9821TV,Oldekerk,Grootegast,Groningen,VBO,6.336418,53.221191
Dwarsdiep,24,,,9821TV,Oldekerk,Grootegast,Groningen,VBO,6.336491,53.221191
Dwarsdiep,26,,,9821TV,Oldekerk,Grootegast,Groningen,VBO,6.336566,53.221191
Dwarsdiep,28,,,9821TV,Oldekerk,Grootegast,Groningen,VBO,6.336634,53.221195
Dwarsdiep,30,,,9821TV,Oldekerk,Grootegast,Groningen,VBO,6.336952,53.221190
Dwarsdiep,32,,,9821TV,Oldekerk,Grootegast,Groningen,VBO,6.336945,53.221156
Dwarsdiep,34,,,9821TV,Oldekerk,Grootegast,Groningen,VBO,6.336942,53.221114
Dwarsdiep,36,,,9821TV,Oldekerk,Grootegast,Groningen,VBO,6.336951,53.221070
Dwarsdiep,38,,,9821TV,Oldekerk,Grootegast,Groningen,VBO,6.336960,53.221030
