openbareruimtenaam,huisnummer,huisletter,huisnummertoevoeging,postcode,woonplaatsnaam,gemeentenaam,provincienaam,typeadresseerbaarobject,longitude,latitude
Aalsumerweg,1,a,,9883PA,Oldehove,Zuidhorn,Groningen,VBO,6.392085,53.304626
Aalsumerweg,1,b,,9883PA,Oldehove,Zuidhorn,Groningen,VBO,6.391507,53.304697
Aalsumerweg,1,c,,9883PA,Oldehove,Zuidhorn,Groningen,VBO,6.391247,53.304744
Aalsumerweg,1,,,9883PA,Oldehove,Zuidhorn,Groningen,VBO,6.393801,53.304917
Aalsumerweg,2,,,9883PA,Oldehove,Zuidhorn,Groningen,VBO,6.393842,53.305348
Aalsumerweg,4,,,9883PA,Oldehove,Zuidhorn,Groningen,VBO,6.393556,53.305332
Englumerweg,2,,,9883PB,Oldehove,Zuidhorn,Groningen,VBO,6.394858,53.305195
Englumerweg,6,a,,9883PB,Oldehove,Zuidhorn,Groningen,VBO,6.395007,53.305805
Englumerweg,6,,,9883PB,Oldehove,Zuidhorn,Groningen,VBO,6.394820,53.305492
Englumstraat,1,,,9883PC,Oldehove,Zuidhorn,Groningen,VBO,6.395279,53.305237
Englumstraat,3,,,9883PC,Oldehove,Zuidhorn,Groningen,VBO,6.395532,53.305145
Englumstraat,5,a,,9883PC,Oldehove,Zuidhorn,Groningen,VBO,6.396070,53.305077
Englumstraat,5,,,9883PC,Oldehove,Zuidhorn,Groningen,VBO,6.395772,53.305143
Englumstraat,7,,,9883PC,Oldehove,Zuidhorn,Groningen,VBO,6.396519,53.305020
Englumstraat,9,,,9883PC,Oldehove,Zuidhorn,Groningen,VBO,6.396939,53.304998
Englumstraat,11,,,9883PC,Oldehove,Zuidhorn,Groningen,VBO,6.397417,53.304922
Englumstraat,13,,,9883PC,Oldehove,Zuidhorn,Groningen,VBO,6.397611,53.304885
Englumstraat,15,,,9883PC,Oldehove,Zuidhorn,Groningen,VBO,6.397895,53.304855
Englumstraat,17,,,9883PC,Oldehove,Zuidhorn,Groningen,VBO,6.398163,53.304763
Englumstraat,19,,,9883PC,Oldehove,Zuidhorn,Groningen,VBO,6.398462,53.304707
Englumstraat,21,a,,9883PD,Oldehove,Zuidhorn,Groningen,VBO,6.399043,53.304540
Englumstraat,21,b,,9883PD,Oldehove,Zuidhorn,Groningen,VBO,6.399371,53.304448
Englumstraat,21,,,9883PD,Oldehove,Zuidhorn,Groningen,VBO,6.398746,53.304642
Englumstraat,23,,,9883PD,Oldehove,Zuidhorn,Groningen,VBO,6.399609,53.304338
Englumstraat,25,,,9883PD,Oldehove,Zuidhorn,Groningen,VBO,6.399860,53.304201
Englumstraat,27,,,9883PD,Oldehove,Zuidhorn,Groningen,VBO,6.400067,53.304073
Englumstraat,29,,,9883PD,Oldehove,Zuidhorn,Groningen,VBO,6.400350,53.303990
Englumstraat,31,,,9883PD,Oldehove,Zuidhorn,Groningen,VBO,6.400560,53.303961
Englumstraat,33,,,9883PD,Oldehove,Zuidhorn,Groningen,VBO,6.400754,53.303942
Englumstraat,35,,,9883PD,Oldehove,Zuidhorn,Groningen,VBO,6.400964,53.303940
Englumstraat,37,,,9883PD,Oldehove,Zuidhorn,Groningen,VBO,6.401266,53.304000
Englumstraat,41,,,9883PD,Oldehove,Zuidhorn,Groningen,VBO,6.402548,53.303675
Englumstraat,43,,,9883PD,Oldehove,Zuidhorn,Groningen,VBO,6.403867,53.303619
Englumstraat,2,,,9883PE,Oldehove,Zuidhorn,Groningen,VBO,6.395180,53.304851
Englumstraat,4,,,9883PE,Oldehove,Zuidhorn,Groningen,VBO,6.395285,53.304832
Englumstraat,6,,,9883PE,Oldehove,Zuidhorn,Groningen,VBO,6.395626,53.304695
Englumstraat,10,a,,9883PE,Oldehove,Zuidhorn,Groningen,VBO,6.397123,53.304520
Englumstraat,10,,,9883PE,Oldehove,Zuidhorn,Groningen,VBO,6.397151,53.304448
Englumstraat,12,,,9883PE,Oldehove,Zuidhorn,Groningen,VBO,6.397557,53.304499
Englumstraat,14,,,9883PE,Oldehove,Zuidhorn,Groningen,VBO,6.397751,53.304470
Englumstraat,16,,,9883PE,Oldehove,Zuidhorn,Groningen,VBO,6.398035,53.304423
Englumstraat,18,,,9883PE,Oldehove,Zuidhorn,Groningen,VBO,6.398944,53.304146
Englumstraat,20,,,9883PE,Oldehove,Zuidhorn,Groningen,VBO,6.399389,53.303953
Schoolstraat,3,,,9883PG,Oldehove,Zuidhorn,Groningen,VBO,6.393605,53.303570
Schoolstraat,5,,,9883PG,Oldehove,Zuidhorn,Groningen,VBO,6.393468,53.303491
Schoolstraat,7,,,9883PG,Oldehove,Zuidhorn,Groningen,VBO,6.393304,53.303519
Schoolstraat,13,a,,9883PG,Oldehove,Zuidhorn,Groningen,VBO,6.392889,53.303729
Schoolstraat,13,,,9883PG,Oldehove,Zuidhorn,Groningen,VBO,6.392813,53.303685
Schoolstraat,15,,,9883PG,Oldehove,Zuidhorn,Groningen,VBO,6.392807,53.304089
Schoolstraat,17,,,9883PG,Oldehove,Zuidhorn,Groningen,VBO,6.392809,53.304152
Schoolstraat,19,a,,9883PG,Oldehove,Zuidhorn,Groningen,VBO,6.392715,53.304629
Schoolstraat,19,,,9883PG,Oldehove,Zuidhorn,Groningen,VBO,6.392500,53.304415
Schoolstraat,21,,,9883PG,Oldehove,Zuidhorn,Groningen,VBO,6.393227,53.304715
Schoolstraat,4,,,9883PH,Oldehove,Zuidhorn,Groningen,VBO,6.393594,53.303741
Schoolstraat,6,,,9883PH,Oldehove,Zuidhorn,Groningen,VBO,6.393444,53.303734
Schoolstraat,8,,,9883PH,Oldehove,Zuidhorn,Groningen,VBO,6.393279,53.303762
Schoolstraat,10,,,9883PH,Oldehove,Zuidhorn,Groningen,VBO,6.393266,53.303843
Schoolstraat,12,,,9883PH,Oldehove,Zuidhorn,Groningen,VBO,6.393178,53.303925
Schoolstraat,14,,,9883PH,Oldehove,Zuidhorn,Groningen,VBO,6.393270,53.304014
Schoolstraat,16,,,9883PH,Oldehove,Zuidhorn,Groningen,VBO,6.393214,53.304167
Schoolstraat,18,,,9883PH,Oldehove,Zuidhorn,Groningen,VBO,6.393351,53.304274
Schoolstraat,20,,,9883PH,Oldehove,Zuidhorn,Groningen,VBO,6.393413,53.304345
Schoolstraat,22,,,9883PH,Oldehove,Zuidhorn,Groningen,VBO,6.393565,53.304416
Schoolstraat,24,,,9883PH,Oldehove,Zuidhorn,Groningen,VBO,6.393944,53.304601
Schoolstraat,26,,,9883PH,Oldehove,Zuidhorn,Groningen,VBO,6.393736,53.304702
T P Oosterhoffstraat,1,,,9883PJ,Oldehove,Zuidhorn,Groningen,VBO,6.393882,53.303865
T P Oosterhoffstraat,2,,,9883PJ,Oldehove,Zuidhorn,Groningen,VBO,6.394207,53.303655
T P Oosterhoffstraat,3,,,9883PJ,Oldehove,Zuidhorn,Groningen,VBO,6.394460,53.304219
T P Oosterhoffstraat,4,,,9883PJ,Oldehove,Zuidhorn,Groningen,VBO,6.394254,53.303745
T P Oosterhoffstraat,5,,,9883PJ,Oldehove,Zuidhorn,Groningen,VBO,6.394982,53.304071
T P Oosterhoffstraat,6,,,9883PJ,Oldehove,Zuidhorn,Groningen,VBO,6.394315,53.303771
T P Oosterhoffstraat,7,,,9883PJ,Oldehove,Zuidhorn,Groningen,VBO,6.395296,53.304042
T P Oosterhoffstraat,8,,,9883PJ,Oldehove,Zuidhorn,Groningen,VBO,6.394390,53.303762
T P Oosterhoffstraat,9,,,9883PJ,Oldehove,Zuidhorn,Groningen,VBO,6.395612,53.304075
T P Oosterhoffstraat,12,,,9883PJ,Oldehove,Zuidhorn,Groningen,VBO,6.394825,53.303758
T P Oosterhoffstraat,14,,,9883PJ,Oldehove,Zuidhorn,Groningen,VBO,6.395021,53.303819
T P Oosterhoffstraat,16,,,9883PJ,Oldehove,Zuidhorn,Groningen,VBO,6.395333,53.303709
T P Oosterhoffstraat,18,,,9883PJ,Oldehove,Zuidhorn,Groningen,VBO,6.395726,53.303831
Kerkpad,1,t,,9883PK,Oldehove,Zuidhorn,Groningen,VBO,6.393944,53.303954
Kerkpad,2,,,9883PK,Oldehove,Zuidhorn,Groningen,VBO,6.393691,53.304037
Kerkpad,3,,,9883PK,Oldehove,Zuidhorn,Groningen,VBO,6.393846,53.304233
Kerkpad,4,,,9883PK,Oldehove,Zuidhorn,Groningen,VBO,6.393893,53.304332
Kerkpad,5,,,9883PK,Oldehove,Zuidhorn,Groningen,VBO,6.393880,53.304440
Kerkpad,7,,,9883PK,Oldehove,Zuidhorn,Groningen,VBO,6.394091,53.304456
Kerkpad,9,,,9883PK,Oldehove,Zuidhorn,Groningen,VBO,6.394527,53.304524
Kerkpad,10,,,9883PK,Oldehove,Zuidhorn,Groningen,VBO,6.394780,53.304405
Kerkpad,11,,,9883PK,Oldehove,Zuidhorn,Groningen,VBO,6.395258,53.304329
Molenstraat,2,,,9883PL,Oldehove,Zuidhorn,Groningen,VBO,6.396138,53.304106
Molenstraat,3,,,9883PL,Oldehove,Zuidhorn,Groningen,VBO,6.395345,53.304203
Molenstraat,4,,,9883PL,Oldehove,Zuidhorn,Groningen,VBO,6.395854,53.304163
Molenstraat,6,,,9883PL,Oldehove,Zuidhorn,Groningen,VBO,6.395857,53.304270
Molenstraat,8,,,9883PL,Oldehove,Zuidhorn,Groningen,VBO,6.395578,53.304560
Molenstraat,9,,,9883PL,Oldehove,Zuidhorn,Groningen,VBO,6.394336,53.304697
Molenstraat,10,,,9883PL,Oldehove,Zuidhorn,Groningen,VBO,6.395398,53.304553
Molenstraat,11,a,,9883PL,Oldehove,Zuidhorn,Groningen,VBO,6.394267,53.304940
Molenstraat,11,,,9883PL,Oldehove,Zuidhorn,Groningen,VBO,6.394253,53.304967
Molenstraat,12,,,9883PL,Oldehove,Zuidhorn,Groningen,VBO,6.395158,53.304564
Molenstraat,14,,,9883PL,Oldehove,Zuidhorn,Groningen,VBO,6.394891,53.304683
Molenstraat,16,,,9883PL,Oldehove,Zuidhorn,Groningen,VBO,6.394820,53.304845
Pastorijlaan,2,,,9883PM,Oldehove,Zuidhorn,Groningen,VBO,6.396307,53.304303
Pastorijlaan,3,,,9883PM,Oldehove,Zuidhorn,Groningen,VBO,6.396165,53.304627
Pastorijlaan,4,,,9883PM,Oldehove,Zuidhorn,Groningen,VBO,6.396755,53.304209
Pastorijlaan,5,,,9883PM,Oldehove,Zuidhorn,Groningen,VBO,6.396539,53.304588
Schipvaart,3,,,9883PN,Oldehove,Zuidhorn,Groningen,VBO,6.396300,53.303970
Schipvaart,7,,,9883PN,Oldehove,Zuidhorn,Groningen,VBO,6.396631,53.304039
Schipvaart,9,,,9883PN,Oldehove,Zuidhorn,Groningen,VBO,6.396872,53.304082
Schipvaart,11,,,9883PN,Oldehove,Zuidhorn,Groningen,VBO,6.397202,53.304070
Schipvaart,13,,,9883PN,Oldehove,Zuidhorn,Groningen,VBO,6.397502,53.304086
Schipvaart,15,,,9883PN,Oldehove,Zuidhorn,Groningen,VBO,6.397836,53.304236
Schipvaart,17,,,9883PN,Oldehove,Zuidhorn,Groningen,VBO,6.398193,53.304107
Schipvaart,19,,,9883PN,Oldehove,Zuidhorn,Groningen,VBO,6.398404,53.304150
Schipvaart,21,,,9883PN,Oldehove,Zuidhorn,Groningen,VBO,6.398673,53.304121
Schipvaart,2,,,9883PP,Oldehove,Zuidhorn,Groningen,VBO,6.396139,53.303504
Schipvaart,4,,,9883PP,Oldehove,Zuidhorn,Groningen,VBO,6.396422,53.303421
Schipvaart,6,,,9883PP,Oldehove,Zuidhorn,Groningen,VBO,6.396768,53.303490
Schipvaart,8,,,9883PP,Oldehove,Zuidhorn,Groningen,VBO,6.396992,53.303434
Schipvaart,10,,,9883PP,Oldehove,Zuidhorn,Groningen,VBO,6.397453,53.303278
Schipvaart,12,,,9883PP,Oldehove,Zuidhorn,Groningen,VBO,6.397233,53.303468
Schipvaart,14,,,9883PP,Oldehove,Zuidhorn,Groningen,VBO,6.397609,53.303501
Schipvaart,18,,,9883PP,Oldehove,Zuidhorn,Groningen,VBO,6.397834,53.303508
Schipvaart,20,,,9883PP,Oldehove,Zuidhorn,Groningen,VBO,6.398238,53.303460
Schipvaart,22,,,9883PP,Oldehove,Zuidhorn,Groningen,VBO,6.398493,53.303485
Schipvaart,26,,,9883PP,Oldehove,Zuidhorn,Groningen,VBO,6.398944,53.303526
Schipvaart,32,,,9883PP,Oldehove,Zuidhorn,Groningen,VBO,6.399736,53.303393
Schipvaart,34,,,9883PP,Oldehove,Zuidhorn,Groningen,VBO,6.399977,53.303409
Schipvaart,36,,,9883PR,Oldehove,Zuidhorn,Groningen,VBO,6.400233,53.303443
Schipvaart,40,,,9883PR,Oldehove,Zuidhorn,Groningen,VBO,6.400502,53.303405
Schipvaart,42,,,9883PR,Oldehove,Zuidhorn,Groningen,VBO,6.400576,53.303386
Schipvaart,44,,,9883PR,Oldehove,Zuidhorn,Groningen,VBO,6.400740,53.303313
Schipvaart,46,,,9883PR,Oldehove,Zuidhorn,Groningen,VBO,6.400813,53.303267
Schipvaart,50,,,9883PR,Oldehove,Zuidhorn,Groningen,VBO,6.401319,53.303056
Schipvaart,52,,,9883PR,Oldehove,Zuidhorn,Groningen,VBO,6.401424,53.303055
Schipvaart,54,,,9883PR,Oldehove,Zuidhorn,Groningen,VBO,6.401559,53.303054
Schipvaart,56,,,9883PR,Oldehove,Zuidhorn,Groningen,VBO,6.401664,53.303053
Schipvaart,58,,,9883PR,Oldehove,Zuidhorn,Groningen,VBO,6.401874,53.303070
Schipvaart,60,,,9883PR,Oldehove,Zuidhorn,Groningen,VBO,6.402023,53.303041
Wengeweer,1,,,9883PR,Oldehove,Zuidhorn,Groningen,VBO,6.396194,53.302677
Wengeweer,2,,,9883PR,Oldehove,Zuidhorn,Groningen,VBO,6.395524,53.302233
Wengeweer,3,,,9883PR,Oldehove,Zuidhorn,Groningen,VBO,6.396223,53.302614
Wengeweer,4,,,9883PR,Oldehove,Zuidhorn,Groningen,VBO,6.395672,53.301495
Wengeweer,5,,,9883PR,Oldehove,Zuidhorn,Groningen,VBO,6.396221,53.302515
Wengeweer,6,,,9883PR,Oldehove,Zuidhorn,Groningen,VBO,6.396629,53.302000
Wengeweer,7,,,9883PR,Oldehove,Zuidhorn,Groningen,VBO,6.396249,53.302452
Wengeweer,8,,,9883PR,Oldehove,Zuidhorn,Groningen,VBO,6.396703,53.301990
Wengeweer,9,,,9883PR,Oldehove,Zuidhorn,Groningen,VBO,6.396218,53.302389
Wengeweer,10,,,9883PR,Oldehove,Zuidhorn,Groningen,VBO,6.396778,53.301980
Wengeweer,11,,,9883PR,Oldehove,Zuidhorn,Groningen,VBO,6.396329,53.302029
Wengeweer,12,,,9883PR,Oldehove,Zuidhorn,Groningen,VBO,6.396838,53.301980
Wengeweer,13,,,9883PR,Oldehove,Zuidhorn,Groningen,VBO,6.396313,53.301966
Wengeweer,14,,,9883PR,Oldehove,Zuidhorn,Groningen,VBO,6.396913,53.301961
Wengeweer,15,,,9883PR,Oldehove,Zuidhorn,Groningen,VBO,6.396312,53.301921
Wengeweer,17,,,9883PR,Oldehove,Zuidhorn,Groningen,VBO,6.396295,53.301859
Wengeweer,19,,,9883PR,Oldehove,Zuidhorn,Groningen,VBO,6.396263,53.301769
Wengeweer,20,,,9883PR,Oldehove,Zuidhorn,Groningen,VBO,6.396785,53.301657
Wengeweer,21,,,9883PR,Oldehove,Zuidhorn,Groningen,VBO,6.396232,53.301706
Wengeweer,22,,,9883PR,Oldehove,Zuidhorn,Groningen,VBO,6.396753,53.301531
Wengeweer,23,,,9883PR,Oldehove,Zuidhorn,Groningen,VBO,6.396215,53.301653
Wengeweer,24,,,9883PR,Oldehove,Zuidhorn,Groningen,VBO,6.396736,53.301486
Wengeweer,25,,,9883PR,Oldehove,Zuidhorn,Groningen,VBO,6.396260,53.302281
Wengeweer,27,,,9883PR,Oldehove,Zuidhorn,Groningen,VBO,6.396320,53.302263
Wengeweer,29,,,9883PR,Oldehove,Zuidhorn,Groningen,VBO,6.396395,53.302262
Wengeweer,31,,,9883PR,Oldehove,Zuidhorn,Groningen,VBO,6.396559,53.302252
Wengeweer,33,,,9883PR,Oldehove,Zuidhorn,Groningen,VBO,6.396634,53.302242
Wengeweer,35,,,9883PR,Oldehove,Zuidhorn,Groningen,VBO,6.396679,53.302224
Wengeweer,37,,,9883PR,Oldehove,Zuidhorn,Groningen,VBO,6.396844,53.302222
Wengeweer,39,,,9883PR,Oldehove,Zuidhorn,Groningen,VBO,6.396918,53.302204
Wengeweer,41,,,9883PR,Oldehove,Zuidhorn,Groningen,VBO,6.396993,53.302203
Julianastraat,25,,,9883PS,Oldehove,Zuidhorn,Groningen,VBO,6.395688,53.303490
Julianastraat,2,,,9883PT,Oldehove,Zuidhorn,Groningen,VBO,6.394860,53.302724
Julianastraat,4,,,9883PT,Oldehove,Zuidhorn,Groningen,VBO,6.394995,53.302705
Julianastraat,6,,,9883PT,Oldehove,Zuidhorn,Groningen,VBO,6.395204,53.302676
Julianastraat,8,,,9883PT,Oldehove,Zuidhorn,Groningen,VBO,6.395309,53.302676
Julianastraat,10,,,9883PT,Oldehove,Zuidhorn,Groningen,VBO,6.395429,53.302666
Julianastraat,12,,,9883PT,Oldehove,Zuidhorn,Groningen,VBO,6.395697,53.302573
Julianastraat,18,,,9883PT,Oldehove,Zuidhorn,Groningen,VBO,6.396181,53.302767
Julianastraat,20,,,9883PT,Oldehove,Zuidhorn,Groningen,VBO,6.396168,53.302839
Julianastraat,22,,,9883PT,Oldehove,Zuidhorn,Groningen,VBO,6.396125,53.302938
Julianastraat,24,,,9883PT,Oldehove,Zuidhorn,Groningen,VBO,6.396143,53.303028
Julianastraat,26,,,9883PT,Oldehove,Zuidhorn,Groningen,VBO,6.396129,53.303100
Julianastraat,28,,,9883PT,Oldehove,Zuidhorn,Groningen,VBO,6.396116,53.303172
Julianastraat,30,,,9883PT,Oldehove,Zuidhorn,Groningen,VBO,6.396134,53.303289
Julianastraat,32,,,9883PT,Oldehove,Zuidhorn,Groningen,VBO,6.396210,53.303360
Wengeweer,43,,,9883PV,Oldehove,Zuidhorn,Groningen,VBO,6.397336,53.302110
Wengeweer,45,,,9883PV,Oldehove,Zuidhorn,Groningen,VBO,6.397320,53.302066
Wengeweer,47,,,9883PV,Oldehove,Zuidhorn,Groningen,VBO,6.397319,53.302021
Wengeweer,49,,,9883PV,Oldehove,Zuidhorn,Groningen,VBO,6.397288,53.301985
Wengeweer,51,,,9883PV,Oldehove,Zuidhorn,Groningen,VBO,6.397330,53.301850
Wengeweer,53,,,9883PV,Oldehove,Zuidhorn,Groningen,VBO,6.397327,53.301742
Wengeweer,55,,,9883PV,Oldehove,Zuidhorn,Groningen,VBO,6.397310,53.301625
Wengeweer,57,,,9883PV,Oldehove,Zuidhorn,Groningen,VBO,6.397246,53.301482
Wengeweer,59,,,9883PV,Oldehove,Zuidhorn,Groningen,VBO,6.397259,53.301383
Wengeweer,65,,,9883PV,Oldehove,Zuidhorn,Groningen,VBO,6.397283,53.301122
Wengeweer,67,,,9883PV,Oldehove,Zuidhorn,Groningen,VBO,6.397000,53.301197
Wengeweer,69,,,9883PV,Oldehove,Zuidhorn,Groningen,VBO,6.396745,53.301199
Wengeweer,71,,,9883PV,Oldehove,Zuidhorn,Groningen,VBO,6.396670,53.301217
Wengeweer,73,,,9883PV,Oldehove,Zuidhorn,Groningen,VBO,6.396460,53.301228
Wengeweer,75,,,9883PV,Oldehove,Zuidhorn,Groningen,VBO,6.396356,53.301247
Wengeweer,77,,,9883PV,Oldehove,Zuidhorn,Groningen,VBO,6.396117,53.301285
Wengeweer,79,,,9883PV,Oldehove,Zuidhorn,Groningen,VBO,6.396027,53.301304
de Omloop,1,,,9883PW,Oldehove,Zuidhorn,Groningen,VBO,6.396864,53.302465
de Omloop,2,,,9883PW,Oldehove,Zuidhorn,Groningen,VBO,6.397323,53.302209
de Omloop,3,,,9883PW,Oldehove,Zuidhorn,Groningen,VBO,6.396851,53.302519
de Omloop,4,,,9883PW,Oldehove,Zuidhorn,Groningen,VBO,6.397339,53.302254
de Omloop,5,,,9883PW,Oldehove,Zuidhorn,Groningen,VBO,6.396838,53.302627
de Omloop,6,,,9883PW,Oldehove,Zuidhorn,Groningen,VBO,6.397356,53.302299
de Omloop,7,,,9883PW,Oldehove,Zuidhorn,Groningen,VBO,6.396824,53.302681
de Omloop,8,,,9883PW,Oldehove,Zuidhorn,Groningen,VBO,6.397372,53.302344
de Omloop,9,,,9883PW,Oldehove,Zuidhorn,Groningen,VBO,6.396797,53.302789
de Omloop,10,,,9883PW,Oldehove,Zuidhorn,Groningen,VBO,6.397560,53.302693
de Omloop,11,,,9883PW,Oldehove,Zuidhorn,Groningen,VBO,6.396798,53.302852
de Omloop,12,,,9883PW,Oldehove,Zuidhorn,Groningen,VBO,6.398428,53.302613
de Omloop,13,,,9883PW,Oldehove,Zuidhorn,Groningen,VBO,6.396757,53.303005
de Omloop,14,,,9883PW,Oldehove,Zuidhorn,Groningen,VBO,6.398714,53.302638
de Omloop,15,,,9883PW,Oldehove,Zuidhorn,Groningen,VBO,6.396758,53.303059
de Omloop,16,,,9883PW,Oldehove,Zuidhorn,Groningen,VBO,6.398984,53.302645
de Omloop,17,,,9883PW,Oldehove,Zuidhorn,Groningen,VBO,6.397058,53.303029
de Omloop,18,,,9883PW,Oldehove,Zuidhorn,Groningen,VBO,6.399284,53.302669
de Omloop,19,,,9883PW,Oldehove,Zuidhorn,Groningen,VBO,6.397148,53.303038
de Omloop,20,,,9883PW,Oldehove,Zuidhorn,Groningen,VBO,6.399779,53.302665
de Omloop,21,,,9883PW,Oldehove,Zuidhorn,Groningen,VBO,6.397900,53.303148
de Omloop,22,t,,9883PW,Oldehove,Zuidhorn,Groningen,VBO,6.399876,53.302934
de Omloop,22,,,9883PW,Oldehove,Zuidhorn,Groningen,VBO,6.399869,53.302673
de Omloop,23,,,9883PW,Oldehove,Zuidhorn,Groningen,VBO,6.397944,53.303094
de Omloop,24,,,9883PW,Oldehove,Zuidhorn,Groningen,VBO,6.399530,53.302901
de Omloop,25,,,9883PW,Oldehove,Zuidhorn,Groningen,VBO,6.398164,53.302867
de Omloop,26,,,9883PW,Oldehove,Zuidhorn,Groningen,VBO,6.399531,53.302964
de Omloop,27,,,9883PW,Oldehove,Zuidhorn,Groningen,VBO,6.398254,53.302875
de Omloop,28,,,9883PW,Oldehove,Zuidhorn,Groningen,VBO,6.399566,53.303152
de Omloop,29,,,9883PW,Oldehove,Zuidhorn,Groningen,VBO,6.398556,53.302954
de Omloop,31,,,9883PW,Oldehove,Zuidhorn,Groningen,VBO,6.398646,53.302953
de Omloop,33,,,9883PW,Oldehove,Zuidhorn,Groningen,VBO,6.398990,53.302932
de Omloop,35,,,9883PW,Oldehove,Zuidhorn,Groningen,VBO,6.398907,53.303202
de Omloop,37,,,9883PW,Oldehove,Zuidhorn,Groningen,VBO,6.398865,53.303320
Korbeel,1,,,9883PX,Oldehove,Zuidhorn,Groningen,VBO,6.399455,53.302281
Korbeel,2,,,9883PX,Oldehove,Zuidhorn,Groningen,VBO,6.399034,53.302240
Korbeel,3,,,9883PX,Oldehove,Zuidhorn,Groningen,VBO,6.399572,53.302155
Korbeel,4,,,9883PX,Oldehove,Zuidhorn,Groningen,VBO,6.399166,53.302104
Korbeel,5,,,9883PX,Oldehove,Zuidhorn,Groningen,VBO,6.399616,53.302100
Korbeel,6,,,9883PX,Oldehove,Zuidhorn,Groningen,VBO,6.399210,53.302050
Korbeel,7,,,9883PX,Oldehove,Zuidhorn,Groningen,VBO,6.399734,53.302000
Korbeel,8,,,9883PX,Oldehove,Zuidhorn,Groningen,VBO,6.399312,53.301923
Korbeel,9,,,9883PX,Oldehove,Zuidhorn,Groningen,VBO,6.399777,53.301946
Korbeel,10,,,9883PX,Oldehove,Zuidhorn,Groningen,VBO,6.399458,53.301769
Korbeel,11,,,9883PX,Oldehove,Zuidhorn,Groningen,VBO,6.399970,53.301846
Wilhelminastraat,3,,,9883RA,Oldehove,Zuidhorn,Groningen,VBO,6.394233,53.303493
Wilhelminastraat,5,,,9883RA,Oldehove,Zuidhorn,Groningen,VBO,6.394456,53.303375
Wilhelminastraat,7,,,9883RA,Oldehove,Zuidhorn,Groningen,VBO,6.394419,53.303078
Wilhelminastraat,9,,,9883RA,Oldehove,Zuidhorn,Groningen,VBO,6.394370,53.302935
Wilhelminastraat,11,,,9883RA,Oldehove,Zuidhorn,Groningen,VBO,6.394425,53.302728
Wilhelminastraat,13,a,,9883RA,Oldehove,Zuidhorn,Groningen,VBO,6.394377,53.302585
Wilhelminastraat,13,b,,9883RA,Oldehove,Zuidhorn,Groningen,VBO,6.394391,53.302540
Wilhelminastraat,13,c,,9883RA,Oldehove,Zuidhorn,Groningen,VBO,6.394497,53.302584
Wilhelminastraat,13,,,9883RA,Oldehove,Zuidhorn,Groningen,VBO,6.394393,53.302629
Wilhelminastraat,15,,,9883RA,Oldehove,Zuidhorn,Groningen,VBO,6.394374,53.302432
Wilhelminastraat,19,,,9883RA,Oldehove,Zuidhorn,Groningen,VBO,6.394505,53.302287
Wilhelminastraat,21,,,9883RA,Oldehove,Zuidhorn,Groningen,VBO,6.394380,53.302063
Wilhelminastraat,23,,,9883RA,Oldehove,Zuidhorn,Groningen,VBO,6.394449,53.301802
Wilhelminastraat,25,,,9883RA,Oldehove,Zuidhorn,Groningen,VBO,6.394338,53.301552
Wilhelminastraat,27,,,9883RA,Oldehove,Zuidhorn,Groningen,VBO,6.394210,53.301211
Wilhelminastraat,6,,,9883RB,Oldehove,Zuidhorn,Groningen,VBO,6.393808,53.302643
Wilhelminastraat,8,,,9883RB,Oldehove,Zuidhorn,Groningen,VBO,6.393804,53.302473
Wilhelminastraat,10,,,9883RB,Oldehove,Zuidhorn,Groningen,VBO,6.393816,53.302320
Wilhelminastraat,12,,,9883RB,Oldehove,Zuidhorn,Groningen,VBO,6.393843,53.302203
Wilhelminastraat,16,,,9883RB,Oldehove,Zuidhorn,Groningen,VBO,6.393779,53.302014
Wilhelminastraat,18,,,9883RB,Oldehove,Zuidhorn,Groningen,VBO,6.393716,53.301898
Wilhelminastraat,20,,,9883RB,Oldehove,Zuidhorn,Groningen,VBO,6.393577,53.301747
Wilhelminastraat,22,,,9883RB,Oldehove,Zuidhorn,Groningen,VBO,6.393785,53.301646
Wilhelminastraat,24,,,9883RB,Oldehove,Zuidhorn,Groningen,VBO,6.393467,53.301505
Wilhelminastraat,26,,,9883RB,Oldehove,Zuidhorn,Groningen,VBO,6.393687,53.301305
Ol-Hörn,1,,,9883RC,Oldehove,Zuidhorn,Groningen,VBO,6.394759,53.303507
Ol-Hörn,2,,,9883RC,Oldehove,Zuidhorn,Groningen,VBO,6.394535,53.303563
Ol-Hörn,3,,,9883RC,Oldehove,Zuidhorn,Groningen,VBO,6.394652,53.303427
Ol-Hörn,4,,,9883RC,Oldehove,Zuidhorn,Groningen,VBO,6.394664,53.303328
Selwerderlaan,1,,,9883RD,Oldehove,Zuidhorn,Groningen,VBO,6.394648,53.300686
Selwerderlaan,2,,,9883RD,Oldehove,Zuidhorn,Groningen,VBO,6.394195,53.300564
Selwerd,1,,,9883RE,Oldehove,Zuidhorn,Groningen,VBO,6.398109,53.300531
Selwerd,2,,,9883RE,Oldehove,Zuidhorn,Groningen,VBO,6.399964,53.293929
Selwerd,3,,,9883RE,Oldehove,Zuidhorn,Groningen,VBO,6.401044,53.297739
Selwerd,4,,,9883RE,Oldehove,Zuidhorn,Groningen,VBO,6.399521,53.293582
Selwerd,5,t,,9883RE,Oldehove,Zuidhorn,Groningen,VBO,6.400421,53.294869
Selwerd,5,,,9883RE,Oldehove,Zuidhorn,Groningen,VBO,6.400592,53.294499
Niehoofsterweg,1,,,9883RG,Oldehove,Zuidhorn,Groningen,VBO,6.394095,53.300772
Niehoofsterweg,3,,,9883RG,Oldehove,Zuidhorn,Groningen,VBO,6.393913,53.300710
Niehoofsterweg,5,,,9883RG,Oldehove,Zuidhorn,Groningen,VBO,6.393611,53.300614
Niehoofsterweg,7,,,9883RG,Oldehove,Zuidhorn,Groningen,VBO,6.393415,53.300580
Niehoofsterweg,9,,,9883RG,Oldehove,Zuidhorn,Groningen,VBO,6.393264,53.300536
Niehoofsterweg,11,,,9883RG,Oldehove,Zuidhorn,Groningen,VBO,6.393173,53.300501
Niehoofsterweg,13,,,9883RG,Oldehove,Zuidhorn,Groningen,VBO,6.393022,53.300439
Niehoofsterweg,15,,,9883RG,Oldehove,Zuidhorn,Groningen,VBO,6.392931,53.300395
Niehoofsterweg,17,,,9883RG,Oldehove,Zuidhorn,Groningen,VBO,6.392764,53.300334
Niehoofsterweg,19,,,9883RG,Oldehove,Zuidhorn,Groningen,VBO,6.392643,53.300290
Niehoofsterweg,21,,,9883RG,Oldehove,Zuidhorn,Groningen,VBO,6.392492,53.300228
Niehoofsterweg,23,,,9883RG,Oldehove,Zuidhorn,Groningen,VBO,6.392386,53.300184
Niehoofsterweg,25,,,9883RG,Oldehove,Zuidhorn,Groningen,VBO,6.392427,53.300013
Niehoofsterweg,27,a,,9883RG,Oldehove,Zuidhorn,Groningen,VBO,6.391877,53.297672
Niehoofsterweg,27,,,9883RG,Oldehove,Zuidhorn,Groningen,VBO,6.392324,53.298801
Niehoofsterweg,29,,,9883RG,Oldehove,Zuidhorn,Groningen,VBO,6.389325,53.296265
Niehoofsterweg,33,,,9883RG,Oldehove,Zuidhorn,Groningen,VBO,6.386152,53.294602
Niehoofsterweg,35,,,9883RG,Oldehove,Zuidhorn,Groningen,VBO,6.386636,53.290240
Niehoofsterweg,2,,,9883RH,Oldehove,Zuidhorn,Groningen,VBO,6.393517,53.301073
Niehoofsterweg,6,,,9883RH,Oldehove,Zuidhorn,Groningen,VBO,6.393350,53.300994
Niehoofsterweg,8,,,9883RH,Oldehove,Zuidhorn,Groningen,VBO,6.393183,53.300896
Niehoofsterweg,10,,,9883RH,Oldehove,Zuidhorn,Groningen,VBO,6.392956,53.300844
Niehoofsterweg,12,,,9883RH,Oldehove,Zuidhorn,Groningen,VBO,6.392700,53.300774
Niehoofsterweg,14,,,9883RH,Oldehove,Zuidhorn,Groningen,VBO,6.392486,53.300615
Niehoofsterweg,16,,,9883RH,Oldehove,Zuidhorn,Groningen,VBO,6.392245,53.300554
Niehoofsterweg,18,,,9883RH,Oldehove,Zuidhorn,Groningen,VBO,6.392077,53.300456
Niehoofsterweg,22,,,9883RH,Oldehove,Zuidhorn,Groningen,VBO,6.386293,53.299390
Niehoofsterweg,24,,,9883RH,Oldehove,Zuidhorn,Groningen,VBO,6.388586,53.296729
Niehoofsterweg,26,,,9883RH,Oldehove,Zuidhorn,Groningen,VBO,6.388446,53.296533
Niehoofsterweg,28,t,,9883RH,Oldehove,Zuidhorn,Groningen,VBO,6.377343,53.298296
Niehoofsterweg,28,,,9883RH,Oldehove,Zuidhorn,Groningen,VBO,6.376749,53.297924
Niehoofsterweg,40,a,,9883RH,Oldehove,Zuidhorn,Groningen,VBO,6.374022,53.292159
Niehoofsterweg,40,,,9883RH,Oldehove,Zuidhorn,Groningen,VBO,6.370877,53.291673
Kenwerderlaan,1,,,9883RJ,Oldehove,Zuidhorn,Groningen,VBO,6.392200,53.303789
Kenwerderlaan,3,,,9883RJ,Oldehove,Zuidhorn,Groningen,VBO,6.391183,53.303914
Kenwerderlaan,4,,,9883RJ,Oldehove,Zuidhorn,Groningen,VBO,6.392699,53.303973
Kenwerderlaan,5,,,9883RJ,Oldehove,Zuidhorn,Groningen,VBO,6.391078,53.303933
Kenwerderlaan,6,,,9883RJ,Oldehove,Zuidhorn,Groningen,VBO,6.392400,53.303994
Kenwerderlaan,7,,,9883RJ,Oldehove,Zuidhorn,Groningen,VBO,6.390884,53.303953
Kenwerderlaan,8,,,9883RJ,Oldehove,Zuidhorn,Groningen,VBO,6.392310,53.304013
Kenwerderlaan,9,,,9883RJ,Oldehove,Zuidhorn,Groningen,VBO,6.390764,53.303963
Kenwerderlaan,11,,,9883RJ,Oldehove,Zuidhorn,Groningen,VBO,6.389761,53.304043
Kenwerderlaan,13,,,9883RJ,Oldehove,Zuidhorn,Groningen,VBO,6.389656,53.304035
Kenwerderlaan,14,,,9883RJ,Oldehove,Zuidhorn,Groningen,VBO,6.392160,53.304014
Kenwerderlaan,16,,,9883RJ,Oldehove,Zuidhorn,Groningen,VBO,6.392176,53.304050
Kenwerderlaan,17,,,9883RJ,Oldehove,Zuidhorn,Groningen,VBO,6.383515,53.303825
Kenwerderlaan,18,,,9883RJ,Oldehove,Zuidhorn,Groningen,VBO,6.392072,53.304069
Kenwerderlaan,19,,,9883RJ,Oldehove,Zuidhorn,Groningen,VBO,6.384032,53.302806
Kenwerderlaan,20,,,9883RJ,Oldehove,Zuidhorn,Groningen,VBO,6.392056,53.304033
Kenwerderlaan,22,,,9883RJ,Oldehove,Zuidhorn,Groningen,VBO,6.391862,53.304097
Kenwerderlaan,24,a,,9883RJ,Oldehove,Zuidhorn,Groningen,VBO,6.391534,53.304190
Kenwerderlaan,24,,,9883RJ,Oldehove,Zuidhorn,Groningen,VBO,6.391773,53.304116
Kenwerderlaan,26,,,9883RJ,Oldehove,Zuidhorn,Groningen,VBO,6.391236,53.304282
Kenwerderlaan,28,,,9883RJ,Oldehove,Zuidhorn,Groningen,VBO,6.390847,53.304294
Kenwerderlaan,30,,,9883RJ,Oldehove,Zuidhorn,Groningen,VBO,6.390563,53.304342
Kenwerderlaan,32,,,9883RJ,Oldehove,Zuidhorn,Groningen,VBO,6.389873,53.304357
Joh Westrastraat,1,,,9883RK,Oldehove,Zuidhorn,Groningen,VBO,6.392139,53.303727
Joh Westrastraat,3,,,9883RK,Oldehove,Zuidhorn,Groningen,VBO,6.392091,53.303610
Joh Westrastraat,5,,,9883RK,Oldehove,Zuidhorn,Groningen,VBO,6.392089,53.303529
Joh Westrastraat,7,,,9883RK,Oldehove,Zuidhorn,Groningen,VBO,6.392131,53.303412
Joh Westrastraat,9,,,9883RK,Oldehove,Zuidhorn,Groningen,VBO,6.392130,53.303349
Joh Westrastraat,11,,,9883RK,Oldehove,Zuidhorn,Groningen,VBO,6.392157,53.303232
Joh Westrastraat,13,,,9883RK,Oldehove,Zuidhorn,Groningen,VBO,6.392155,53.303160
Joh Westrastraat,15,,,9883RK,Oldehove,Zuidhorn,Groningen,VBO,6.392138,53.303044
Joh Westrastraat,17,a,,9883RK,Oldehove,Zuidhorn,Groningen,VBO,6.392305,53.302512
Joh Westrastraat,17,,,9883RK,Oldehove,Zuidhorn,Groningen,VBO,6.392136,53.302972
Joh Westrastraat,19,,,9883RK,Oldehove,Zuidhorn,Groningen,VBO,6.392318,53.302404
Joh Westrastraat,21,,,9883RK,Oldehove,Zuidhorn,Groningen,VBO,6.392316,53.302332
Joh Westrastraat,23,,,9883RK,Oldehove,Zuidhorn,Groningen,VBO,6.392315,53.302287
Joh Westrastraat,25,,,9883RK,Oldehove,Zuidhorn,Groningen,VBO,6.392344,53.302224
Joh Westrastraat,27,,,9883RK,Oldehove,Zuidhorn,Groningen,VBO,6.392386,53.302125
Joh Westrastraat,29,,,9883RK,Oldehove,Zuidhorn,Groningen,VBO,6.392400,53.302062
Joh Westrastraat,31,,,9883RK,Oldehove,Zuidhorn,Groningen,VBO,6.392414,53.302017
Joh Westrastraat,33,,,9883RK,Oldehove,Zuidhorn,Groningen,VBO,6.392442,53.301963
Joh Westrastraat,35,,,9883RK,Oldehove,Zuidhorn,Groningen,VBO,6.392455,53.301846
Joh Westrastraat,37,,,9883RK,Oldehove,Zuidhorn,Groningen,VBO,6.392468,53.301783
Joh Westrastraat,39,,,9883RK,Oldehove,Zuidhorn,Groningen,VBO,6.392497,53.301729
Joh Westrastraat,41,,,9883RK,Oldehove,Zuidhorn,Groningen,VBO,6.392511,53.301675
Joh Westrastraat,2,,,9883RL,Oldehove,Zuidhorn,Groningen,VBO,6.391690,53.303811
Joh Westrastraat,4,,,9883RL,Oldehove,Zuidhorn,Groningen,VBO,6.391688,53.303685
Joh Westrastraat,6,a,,9883RL,Oldehove,Zuidhorn,Groningen,VBO,6.391713,53.303487
Joh Westrastraat,6,,,9883RL,Oldehove,Zuidhorn,Groningen,VBO,6.391699,53.303550
Joh Westrastraat,8,,,9883RL,Oldehove,Zuidhorn,Groningen,VBO,6.391755,53.303379
Joh Westrastraat,10,,,9883RL,Oldehove,Zuidhorn,Groningen,VBO,6.391754,53.303325
Joh Westrastraat,12,,,9883RL,Oldehove,Zuidhorn,Groningen,VBO,6.391781,53.303208
Joh Westrastraat,14,,,9883RL,Oldehove,Zuidhorn,Groningen,VBO,6.391780,53.303136
Joh Westrastraat,16,,,9883RL,Oldehove,Zuidhorn,Groningen,VBO,6.391777,53.303029
Joh Westrastraat,18,,,9883RL,Oldehove,Zuidhorn,Groningen,VBO,6.391761,53.302966
Joh Westrastraat,20,,,9883RL,Oldehove,Zuidhorn,Groningen,VBO,6.391796,53.302534
Joh Westrastraat,22,,,9883RL,Oldehove,Zuidhorn,Groningen,VBO,6.391885,53.302489
Joh Westrastraat,24,,,9883RL,Oldehove,Zuidhorn,Groningen,VBO,6.391927,53.302362
Joh Westrastraat,26,,,9883RL,Oldehove,Zuidhorn,Groningen,VBO,6.391941,53.302308
Joh Westrastraat,28,,,9883RL,Oldehove,Zuidhorn,Groningen,VBO,6.391982,53.302146
Joh Westrastraat,30,,,9883RL,Oldehove,Zuidhorn,Groningen,VBO,6.391891,53.302129
Joh Westrastraat,32,,,9883RL,Oldehove,Zuidhorn,Groningen,VBO,6.391771,53.302130
Joh Westrastraat,34,,,9883RL,Oldehove,Zuidhorn,Groningen,VBO,6.392036,53.301921
Joh Westrastraat,36,,,9883RL,Oldehove,Zuidhorn,Groningen,VBO,6.392065,53.301858
Joh Westrastraat,38,,,9883RL,Oldehove,Zuidhorn,Groningen,VBO,6.392079,53.301813
Joh Westrastraat,40,,,9883RL,Oldehove,Zuidhorn,Groningen,VBO,6.392108,53.301759
Hofmastraat,1,,,9883RM,Oldehove,Zuidhorn,Groningen,VBO,6.393765,53.302707
Hofmastraat,2,,,9883RM,Oldehove,Zuidhorn,Groningen,VBO,6.392857,53.303011
Hofmastraat,3,,,9883RM,Oldehove,Zuidhorn,Groningen,VBO,6.393403,53.302647
Hofmastraat,4,,,9883RM,Oldehove,Zuidhorn,Groningen,VBO,6.392767,53.303011
Hofmastraat,6,g,1,9883RM,Oldehove,Zuidhorn,Groningen,VBO,6.392391,53.302961
Hofmastraat,6,g,10,9883RM,Oldehove,Zuidhorn,Groningen,VBO,6.392409,53.303122
Hofmastraat,6,g,11,9883RM,Oldehove,Zuidhorn,Groningen,VBO,6.392410,53.303149
Hofmastraat,6,g,12,9883RM,Oldehove,Zuidhorn,Groningen,VBO,6.392411,53.303176
Hofmastraat,6,g,2,9883RM,Oldehove,Zuidhorn,Groningen,VBO,6.392411,53.303203
Hofmastraat,6,g,3,9883RM,Oldehove,Zuidhorn,Groningen,VBO,6.392412,53.303230
Hofmastraat,6,g,4,9883RM,Oldehove,Zuidhorn,Groningen,VBO,6.392413,53.303257
Hofmastraat,6,g,5,9883RM,Oldehove,Zuidhorn,Groningen,VBO,6.392406,53.302987
Hofmastraat,6,g,6,9883RM,Oldehove,Zuidhorn,Groningen,VBO,6.392392,53.303015
Hofmastraat,6,g,7,9883RM,Oldehove,Zuidhorn,Groningen,VBO,6.392408,53.303050
Hofmastraat,6,g,8,9883RM,Oldehove,Zuidhorn,Groningen,VBO,6.392393,53.303077
Hofmastraat,6,g,9,9883RM,Oldehove,Zuidhorn,Groningen,VBO,6.392409,53.303095
Hofmastraat,6,,,9883RM,Oldehove,Zuidhorn,Groningen,VBO,6.392662,53.303012
Hofmastraat,7,,,9883RM,Oldehove,Zuidhorn,Groningen,VBO,6.392895,53.302696
Hofmastraat,8,,,9883RM,Oldehove,Zuidhorn,Groningen,VBO,6.391491,53.302986
Hofmastraat,9,,,9883RM,Oldehove,Zuidhorn,Groningen,VBO,6.392746,53.302742
Hofmastraat,10,,,9883RM,Oldehove,Zuidhorn,Groningen,VBO,6.391371,53.302969
Hofmastraat,11,,,9883RM,Oldehove,Zuidhorn,Groningen,VBO,6.392595,53.302707
Hofmastraat,15,,,9883RM,Oldehove,Zuidhorn,Groningen,VBO,6.392444,53.302682
Hofmastraat,19,,,9883RM,Oldehove,Zuidhorn,Groningen,VBO,6.391815,53.302714
Hofmastraat,21,,,9883RM,Oldehove,Zuidhorn,Groningen,VBO,6.391725,53.302706
Hofmastraat,23,,,9883RM,Oldehove,Zuidhorn,Groningen,VBO,6.391620,53.302698
Hofmastraat,25,,,9883RM,Oldehove,Zuidhorn,Groningen,VBO,6.391469,53.302672
Hofmastraat,27,,,9883RM,Oldehove,Zuidhorn,Groningen,VBO,6.391379,53.302655
Hofmastraat,29,,,9883RM,Oldehove,Zuidhorn,Groningen,VBO,6.391288,53.302646
Hofmastraat,31,,,9883RM,Oldehove,Zuidhorn,Groningen,VBO,6.391183,53.302647
Kazerneweg,1,a,,9883RN,Oldehove,Zuidhorn,Groningen,VBO,6.393309,53.301156
Kazerneweg,1,,,9883RN,Oldehove,Zuidhorn,Groningen,VBO,6.393041,53.301275
Kazerneweg,5,,,9883RN,Oldehove,Zuidhorn,Groningen,VBO,6.392685,53.301440
Kazerneweg,7,,,9883RN,Oldehove,Zuidhorn,Groningen,VBO,6.392625,53.301422
Kazerneweg,9,g,,9883RN,Oldehove,Zuidhorn,Groningen,VBO,6.392582,53.300883
Kazerneweg,9,,,9883RN,Oldehove,Zuidhorn,Groningen,VBO,6.392549,53.301387
Kazerneweg,11,,,9883RN,Oldehove,Zuidhorn,Groningen,VBO,6.391987,53.301104
Kazerneweg,13,,,9883RN,Oldehove,Zuidhorn,Groningen,VBO,6.392093,53.301121
Kazerneweg,15,,,9883RN,Oldehove,Zuidhorn,Groningen,VBO,6.392183,53.301147
Kazerneweg,17,,,9883RN,Oldehove,Zuidhorn,Groningen,VBO,6.392289,53.301182
Kazerneweg,19,,,9883RN,Oldehove,Zuidhorn,Groningen,VBO,6.392365,53.301209
Kazerneweg,21,,,9883RN,Oldehove,Zuidhorn,Groningen,VBO,6.392307,53.301290
Kazerneweg,23,,,9883RN,Oldehove,Zuidhorn,Groningen,VBO,6.392231,53.301246
Kazerneweg,25,,,9883RN,Oldehove,Zuidhorn,Groningen,VBO,6.392125,53.301220
Kazerneweg,27,,,9883RN,Oldehove,Zuidhorn,Groningen,VBO,6.392005,53.301194
Kazerneweg,29,,,9883RN,Oldehove,Zuidhorn,Groningen,VBO,6.391884,53.301159
Kazerneweg,31,,,9883RN,Oldehove,Zuidhorn,Groningen,VBO,6.391746,53.301061
Kazerneweg,33,,,9883RN,Oldehove,Zuidhorn,Groningen,VBO,6.391775,53.300998
Kazerneweg,35,,,9883RN,Oldehove,Zuidhorn,Groningen,VBO,6.391789,53.300944
Kazerneweg,37,,,9883RN,Oldehove,Zuidhorn,Groningen,VBO,6.391847,53.300880
Kazerneweg,39,,,9883RN,Oldehove,Zuidhorn,Groningen,VBO,6.391905,53.300799
Kazerneweg,41,,,9883RN,Oldehove,Zuidhorn,Groningen,VBO,6.391949,53.300754
Kazerneweg,43,,,9883RN,Oldehove,Zuidhorn,Groningen,VBO,6.391993,53.300700
Kazerneweg,45,,,9883RN,Oldehove,Zuidhorn,Groningen,VBO,6.391917,53.300673
Kazerneweg,47,,,9883RN,Oldehove,Zuidhorn,Groningen,VBO,6.391844,53.300728
Kazerneweg,49,,,9883RN,Oldehove,Zuidhorn,Groningen,VBO,6.391770,53.300791
Kazerneweg,51,,,9883RN,Oldehove,Zuidhorn,Groningen,VBO,6.391727,53.300863
Kazerneweg,53,,,9883RN,Oldehove,Zuidhorn,Groningen,VBO,6.391698,53.300927
Kazerneweg,55,,,9883RN,Oldehove,Zuidhorn,Groningen,VBO,6.391670,53.300990
Kazerneweg,57,,,9883RN,Oldehove,Zuidhorn,Groningen,VBO,6.391641,53.301053
Kazerneweg,6,,,9883RP,Oldehove,Zuidhorn,Groningen,VBO,6.392975,53.301662
Kazerneweg,8,,,9883RP,Oldehove,Zuidhorn,Groningen,VBO,6.392885,53.301663
Kazerneweg,10,,,9883RP,Oldehove,Zuidhorn,Groningen,VBO,6.392163,53.301561
Kazerneweg,12,,,9883RP,Oldehove,Zuidhorn,Groningen,VBO,6.392058,53.301553
Kazerneweg,14,,,9883RP,Oldehove,Zuidhorn,Groningen,VBO,6.391968,53.301544
Kazerneweg,16,,,9883RP,Oldehove,Zuidhorn,Groningen,VBO,6.391831,53.301474
Kazerneweg,18,,,9883RP,Oldehove,Zuidhorn,Groningen,VBO,6.391741,53.301456
Kazerneweg,20,,,9883RP,Oldehove,Zuidhorn,Groningen,VBO,6.391651,53.301457
Kazerneweg,22,,,9883RP,Oldehove,Zuidhorn,Groningen,VBO,6.391545,53.301440
Beatrixstraat,1,,,9883RR,Oldehove,Zuidhorn,Groningen,VBO,6.392691,53.303596
Beatrixstraat,2,,,9883RR,Oldehove,Zuidhorn,Groningen,VBO,6.393243,53.303484
Beatrixstraat,3,,,9883RR,Oldehove,Zuidhorn,Groningen,VBO,6.392836,53.303406
Beatrixstraat,5,,,9883RR,Oldehove,Zuidhorn,Groningen,VBO,6.392909,53.303334
Beatrixstraat,7,,,9883RR,Oldehove,Zuidhorn,Groningen,VBO,6.392848,53.303289
Beatrixstraat,9,,,9883RR,Oldehove,Zuidhorn,Groningen,VBO,6.392816,53.303200
Beatrixstraat,11,,,9883RR,Oldehove,Zuidhorn,Groningen,VBO,6.392815,53.303137
Jant Nienhuisstraat,1,,,9883RS,Oldehove,Zuidhorn,Groningen,VBO,6.392533,53.299410
Jant Nienhuisstraat,2,,,9883RS,Oldehove,Zuidhorn,Groningen,VBO,6.392420,53.299699
Jant Nienhuisstraat,3,,,9883RS,Oldehove,Zuidhorn,Groningen,VBO,6.392714,53.299462
Jant Nienhuisstraat,4,,,9883RS,Oldehove,Zuidhorn,Groningen,VBO,6.392677,53.299804
Jant Nienhuisstraat,5,,,9883RS,Oldehove,Zuidhorn,Groningen,VBO,6.392805,53.299498
Jant Nienhuisstraat,6,,,9883RS,Oldehove,Zuidhorn,Groningen,VBO,6.392895,53.299895
Jant Nienhuisstraat,7,,,9883RS,Oldehove,Zuidhorn,Groningen,VBO,6.392986,53.299559
Jant Nienhuisstraat,8,,,9883RS,Oldehove,Zuidhorn,Groningen,VBO,6.393146,53.299953
Jant Nienhuisstraat,9,,,9883RS,Oldehove,Zuidhorn,Groningen,VBO,6.393107,53.299594
Jant Nienhuisstraat,10,,,9883RS,Oldehove,Zuidhorn,Groningen,VBO,6.393313,53.300050
Jant Nienhuisstraat,11,,,9883RS,Oldehove,Zuidhorn,Groningen,VBO,6.393289,53.299655
Jant Nienhuisstraat,12,,,9883RS,Oldehove,Zuidhorn,Groningen,VBO,6.393616,53.300183
Jant Nienhuisstraat,13,,,9883RS,Oldehove,Zuidhorn,Groningen,VBO,6.393379,53.299690
Jant Nienhuisstraat,14,,,9883RS,Oldehove,Zuidhorn,Groningen,VBO,6.394069,53.299011
Jant Nienhuisstraat,15,,,9883RS,Oldehove,Zuidhorn,Groningen,VBO,6.393576,53.299743
Jant Nienhuisstraat,16,,,9883RS,Oldehove,Zuidhorn,Groningen,VBO,6.393826,53.298905
Jant Nienhuisstraat,17,,,9883RS,Oldehove,Zuidhorn,Groningen,VBO,6.393667,53.299778
Jant Nienhuisstraat,18,,,9883RS,Oldehove,Zuidhorn,Groningen,VBO,6.393600,53.298835
Jant Nienhuisstraat,19,,,9883RS,Oldehove,Zuidhorn,Groningen,VBO,6.393865,53.299282
Jant Nienhuisstraat,20,,,9883RS,Oldehove,Zuidhorn,Groningen,VBO,6.393402,53.298747
Jant Nienhuisstraat,21,,,9883RS,Oldehove,Zuidhorn,Groningen,VBO,6.393759,53.299238
Jant Nienhuisstraat,22,,,9883RS,Oldehove,Zuidhorn,Groningen,VBO,6.393191,53.298668
Jant Nienhuisstraat,23,,,9883RS,Oldehove,Zuidhorn,Groningen,VBO,6.393593,53.299194
Jant Nienhuisstraat,24,,,9883RS,Oldehove,Zuidhorn,Groningen,VBO,6.393009,53.298597
Jant Nienhuisstraat,25,,,9883RS,Oldehove,Zuidhorn,Groningen,VBO,6.393502,53.299168
Jant Nienhuisstraat,27,,,9883RS,Oldehove,Zuidhorn,Groningen,VBO,6.393321,53.299098
Jant Nienhuisstraat,29,,,9883RS,Oldehove,Zuidhorn,Groningen,VBO,6.393215,53.299072
Jant Nienhuisstraat,31,,,9883RS,Oldehove,Zuidhorn,Groningen,VBO,6.393034,53.299010
Jant Nienhuisstraat,33,,,9883RS,Oldehove,Zuidhorn,Groningen,VBO,6.392943,53.298984
Buitensingel,1,,,9883SC,Oldehove,Zuidhorn,Groningen,VBO,6.390722,53.304736
Buitensingel,3,,,9883SC,Oldehove,Zuidhorn,Groningen,VBO,6.390704,53.304601
Buitensingel,5,,,9883SC,Oldehove,Zuidhorn,Groningen,VBO,6.390641,53.304476
Buitensingel,9,,,9883SC,Oldehove,Zuidhorn,Groningen,VBO,6.390450,53.304001
Buitensingel,11,,,9883SC,Oldehove,Zuidhorn,Groningen,VBO,6.390463,53.303938
Buitensingel,13,,,9883SC,Oldehove,Zuidhorn,Groningen,VBO,6.390490,53.303812
Buitensingel,15,,,9883SC,Oldehove,Zuidhorn,Groningen,VBO,6.390504,53.303740
Buitensingel,17,,,9883SC,Oldehove,Zuidhorn,Groningen,VBO,6.390591,53.303623
Buitensingel,19,,,9883SC,Oldehove,Zuidhorn,Groningen,VBO,6.390619,53.303551
Buitensingel,21,,,9883SC,Oldehove,Zuidhorn,Groningen,VBO,6.390846,53.303621
Buitensingel,23,,,9883SC,Oldehove,Zuidhorn,Groningen,VBO,6.390966,53.303637
Buitensingel,25,,,9883SC,Oldehove,Zuidhorn,Groningen,VBO,6.391162,53.303681
Buitensingel,27,,,9883SC,Oldehove,Zuidhorn,Groningen,VBO,6.391283,53.303689
Buitensingel,29,,,9883SC,Oldehove,Zuidhorn,Groningen,VBO,6.391498,53.303292
Buitensingel,31,,,9883SC,Oldehove,Zuidhorn,Groningen,VBO,6.391317,53.303248
Buitensingel,33,,,9883SC,Oldehove,Zuidhorn,Groningen,VBO,6.391212,53.303240
Buitensingel,35,,,9883SC,Oldehove,Zuidhorn,Groningen,VBO,6.390929,53.303314
Buitensingel,37,,,9883SC,Oldehove,Zuidhorn,Groningen,VBO,6.390957,53.303251
Buitensingel,39,,,9883SC,Oldehove,Zuidhorn,Groningen,VBO,6.391060,53.303160
Buitensingel,41,,,9883SC,Oldehove,Zuidhorn,Groningen,VBO,6.391074,53.303097
Buitensingel,43,,,9883SC,Oldehove,Zuidhorn,Groningen,VBO,6.391147,53.302998
Buitensingel,45,,,9883SC,Oldehove,Zuidhorn,Groningen,VBO,6.391160,53.302935
Buitensingel,49,,,9883SE,Oldehove,Zuidhorn,Groningen,VBO,6.391254,53.302440
Buitensingel,51,,,9883SE,Oldehove,Zuidhorn,Groningen,VBO,6.391267,53.302386
Buitensingel,53,,,9883SE,Oldehove,Zuidhorn,Groningen,VBO,6.391281,53.302332
Buitensingel,55,,,9883SE,Oldehove,Zuidhorn,Groningen,VBO,6.391310,53.302278
Buitensingel,57,,,9883SE,Oldehove,Zuidhorn,Groningen,VBO,6.391365,53.302080
Buitensingel,59,,,9883SE,Oldehove,Zuidhorn,Groningen,VBO,6.391456,53.302097
Buitensingel,61,,,9883SE,Oldehove,Zuidhorn,Groningen,VBO,6.391561,53.302105
Buitensingel,63,,,9883SE,Oldehove,Zuidhorn,Groningen,VBO,6.391651,53.302113
Buitensingel,65,,,9883SE,Oldehove,Zuidhorn,Groningen,VBO,6.391435,53.301872
Buitensingel,67,,,9883SE,Oldehove,Zuidhorn,Groningen,VBO,6.391449,53.301809
Buitensingel,69,,,9883SE,Oldehove,Zuidhorn,Groningen,VBO,6.391462,53.301746
Buitensingel,71,,,9883SE,Oldehove,Zuidhorn,Groningen,VBO,6.391476,53.301701
Buitensingel,73,t,,9883SE,Oldehove,Zuidhorn,Groningen,VBO,6.391806,53.301699
Buitensingel,73,,,9883SE,Oldehove,Zuidhorn,Groningen,VBO,6.391520,53.301647
Buitensingel,2,,,9883SH,Oldehove,Zuidhorn,Groningen,VBO,6.389991,53.304913
Buitensingel,4,,,9883SH,Oldehove,Zuidhorn,Groningen,VBO,6.390077,53.304723
Buitensingel,6,,,9883SH,Oldehove,Zuidhorn,Groningen,VBO,6.389966,53.304500
Buitensingel,8,,,9883SH,Oldehove,Zuidhorn,Groningen,VBO,6.389818,53.303917
Buitensingel,10,,,9883SH,Oldehove,Zuidhorn,Groningen,VBO,6.389831,53.303854
Buitensingel,12,,,9883SH,Oldehove,Zuidhorn,Groningen,VBO,6.389874,53.303745
Buitensingel,14,,,9883SH,Oldehove,Zuidhorn,Groningen,VBO,6.389887,53.303673
Buitensingel,16,,,9883SH,Oldehove,Zuidhorn,Groningen,VBO,6.389959,53.303556
Buitensingel,18,,,9883SH,Oldehove,Zuidhorn,Groningen,VBO,6.389988,53.303484
Buitensingel,20,,,9883SH,Oldehove,Zuidhorn,Groningen,VBO,6.390104,53.303339
Buitensingel,22,,,9883SH,Oldehove,Zuidhorn,Groningen,VBO,6.389939,53.303323
Buitensingel,24,,,9883SH,Oldehove,Zuidhorn,Groningen,VBO,6.389789,53.303315
Buitensingel,26,,,9883SH,Oldehove,Zuidhorn,Groningen,VBO,6.389887,53.303009
Buitensingel,28,,,9883SH,Oldehove,Zuidhorn,Groningen,VBO,6.390022,53.303034
Buitensingel,30,,,9883SH,Oldehove,Zuidhorn,Groningen,VBO,6.390203,53.303060
Buitensingel,32,,,9883SH,Oldehove,Zuidhorn,Groningen,VBO,6.390338,53.303059
Buitensingel,34,,,9883SH,Oldehove,Zuidhorn,Groningen,VBO,6.390545,53.302913
Buitensingel,36,,,9883SJ,Oldehove,Zuidhorn,Groningen,VBO,6.390349,53.302879
Buitensingel,38,,,9883SJ,Oldehove,Zuidhorn,Groningen,VBO,6.390244,53.302871
Buitensingel,40,,,9883SJ,Oldehove,Zuidhorn,Groningen,VBO,6.390048,53.302845
Buitensingel,42,,,9883SJ,Oldehove,Zuidhorn,Groningen,VBO,6.389943,53.302837
Buitensingel,44,,,9883SJ,Oldehove,Zuidhorn,Groningen,VBO,6.390237,53.302592
Buitensingel,46,,,9883SJ,Oldehove,Zuidhorn,Groningen,VBO,6.390295,53.302502
Buitensingel,48,,,9883SJ,Oldehove,Zuidhorn,Groningen,VBO,6.390308,53.302430
Buitensingel,50,,,9883SJ,Oldehove,Zuidhorn,Groningen,VBO,6.390351,53.302313
Buitensingel,52,,,9883SJ,Oldehove,Zuidhorn,Groningen,VBO,6.390537,53.302590
Buitensingel,54,,,9883SJ,Oldehove,Zuidhorn,Groningen,VBO,6.390657,53.302607
Buitensingel,56,,,9883SJ,Oldehove,Zuidhorn,Groningen,VBO,6.390714,53.302444
Buitensingel,58,,,9883SJ,Oldehove,Zuidhorn,Groningen,VBO,6.390742,53.302363
Buitensingel,60,,,9883SJ,Oldehove,Zuidhorn,Groningen,VBO,6.390769,53.302255
Buitensingel,62,,,9883SJ,Oldehove,Zuidhorn,Groningen,VBO,6.390767,53.302174
Buitensingel,64,,,9883SJ,Oldehove,Zuidhorn,Groningen,VBO,6.390497,53.302141
Buitensingel,66,,,9883SJ,Oldehove,Zuidhorn,Groningen,VBO,6.390376,53.302124
Buitensingel,80,,,9883SK,Oldehove,Zuidhorn,Groningen,VBO,6.390309,53.301801
Buitensingel,82,,,9883SK,Oldehove,Zuidhorn,Groningen,VBO,6.390399,53.301809
Buitensingel,84,,,9883SK,Oldehove,Zuidhorn,Groningen,VBO,6.390459,53.301818
Buitensingel,86,,,9883SK,Oldehove,Zuidhorn,Groningen,VBO,6.390534,53.301826
Buitensingel,88,,,9883SK,Oldehove,Zuidhorn,Groningen,VBO,6.390609,53.301834
Buitensingel,90,,,9883SK,Oldehove,Zuidhorn,Groningen,VBO,6.390956,53.301903
Buitensingel,92,,,9883SK,Oldehove,Zuidhorn,Groningen,VBO,6.390970,53.301849
Buitensingel,94,,,9883SK,Oldehove,Zuidhorn,Groningen,VBO,6.390998,53.301759
Buitensingel,96,,,9883SK,Oldehove,Zuidhorn,Groningen,VBO,6.391011,53.301696
Buitensingel,98,,,9883SK,Oldehove,Zuidhorn,Groningen,VBO,6.391039,53.301606
Buitensingel,100,,,9883SK,Oldehove,Zuidhorn,Groningen,VBO,6.391053,53.301561
Buitensingel,104,g,1,9883SK,Oldehove,Zuidhorn,Groningen,VBO,6.390868,53.301356
Buitensingel,104,g,2,9883SK,Oldehove,Zuidhorn,Groningen,VBO,6.390913,53.301347
Buitensingel,104,g,3,9883SK,Oldehove,Zuidhorn,Groningen,VBO,6.390943,53.301364
Buitensingel,104,g,4,9883SK,Oldehove,Zuidhorn,Groningen,VBO,6.391003,53.301355
Buitensingel,104,g,5,9883SK,Oldehove,Zuidhorn,Groningen,VBO,6.391034,53.301372
Buitensingel,104,g,6,9883SK,Oldehove,Zuidhorn,Groningen,VBO,6.391078,53.301363
Buitensingel,104,,,9883SK,Oldehove,Zuidhorn,Groningen,VBO,6.390693,53.301555
Buitensingel,106,,,9883SK,Oldehove,Zuidhorn,Groningen,VBO,6.390618,53.301547
Buitensingel,108,,,9883SK,Oldehove,Zuidhorn,Groningen,VBO,6.390528,53.301538
Buitensingel,110,,,9883SL,Oldehove,Zuidhorn,Groningen,VBO,6.390453,53.301548
Buitensingel,112,,,9883SL,Oldehove,Zuidhorn,Groningen,VBO,6.390407,53.301521
Buitensingel,114,,,9883SL,Oldehove,Zuidhorn,Groningen,VBO,6.390302,53.301531
Buitensingel,116,,,9883SL,Oldehove,Zuidhorn,Groningen,VBO,6.390642,53.301295
Buitensingel,118,,,9883SL,Oldehove,Zuidhorn,Groningen,VBO,6.390655,53.301232
Buitensingel,120,,,9883SL,Oldehove,Zuidhorn,Groningen,VBO,6.390684,53.301178
Buitensingel,122,,,9883SL,Oldehove,Zuidhorn,Groningen,VBO,6.390697,53.301106
Buitensingel,124,,,9883SL,Oldehove,Zuidhorn,Groningen,VBO,6.391108,53.301327
Buitensingel,126,,,9883SL,Oldehove,Zuidhorn,Groningen,VBO,6.391121,53.301264
Buitensingel,128,,,9883SL,Oldehove,Zuidhorn,Groningen,VBO,6.391135,53.301201
Buitensingel,130,,,9883SL,Oldehove,Zuidhorn,Groningen,VBO,6.391163,53.301147
Buitensingel,132,,,9883SL,Oldehove,Zuidhorn,Groningen,VBO,6.391235,53.300993
Buitensingel,134,,,9883SL,Oldehove,Zuidhorn,Groningen,VBO,6.391129,53.300976
Buitensingel,136,,,9883SL,Oldehove,Zuidhorn,Groningen,VBO,6.391024,53.300968
Buitensingel,138,,,9883SL,Oldehove,Zuidhorn,Groningen,VBO,6.390919,53.300942
Buitensingel,140,,,9883SL,Oldehove,Zuidhorn,Groningen,VBO,6.390813,53.300934
Buitensingel,142,,,9883SL,Oldehove,Zuidhorn,Groningen,VBO,6.390708,53.300926
Buitensingel,144,,,9883SL,Oldehove,Zuidhorn,Groningen,VBO,6.390777,53.300665
Buitensingel,146,,,9883SL,Oldehove,Zuidhorn,Groningen,VBO,6.390882,53.300673
Buitensingel,148,,,9883SL,Oldehove,Zuidhorn,Groningen,VBO,6.390988,53.300690
Buitensingel,150,,,9883SL,Oldehove,Zuidhorn,Groningen,VBO,6.391078,53.300716
Buitensingel,152,,,9883SL,Oldehove,Zuidhorn,Groningen,VBO,6.391169,53.300733
Buitensingel,154,,,9883SL,Oldehove,Zuidhorn,Groningen,VBO,6.391274,53.300732
Buitensingel,156,,,9883SM,Oldehove,Zuidhorn,Groningen,VBO,6.391284,53.300526
Buitensingel,158,,,9883SM,Oldehove,Zuidhorn,Groningen,VBO,6.391387,53.300444
Buitensingel,160,,,9883SM,Oldehove,Zuidhorn,Groningen,VBO,6.391429,53.300327
Buitensingel,162,,,9883SM,Oldehove,Zuidhorn,Groningen,VBO,6.391114,53.300294
Buitensingel,164,,,9883SM,Oldehove,Zuidhorn,Groningen,VBO,6.391023,53.300267
Buitensingel,166,,,9883SM,Oldehove,Zuidhorn,Groningen,VBO,6.390907,53.300439
Buitensingel,168,,,9883SM,Oldehove,Zuidhorn,Groningen,VBO,6.390893,53.300475
Buitensingel,170,,,9883SM,Oldehove,Zuidhorn,Groningen,VBO,6.390851,53.299990
Buitensingel,172,,,9883SM,Oldehove,Zuidhorn,Groningen,VBO,6.390957,53.300007
Buitensingel,174,,,9883SM,Oldehove,Zuidhorn,Groningen,VBO,6.391093,53.300069
Buitensingel,176,,,9883SM,Oldehove,Zuidhorn,Groningen,VBO,6.391169,53.300077
Buitensingel,178,,,9883SM,Oldehove,Zuidhorn,Groningen,VBO,6.391514,53.300101
Buitensingel,180,,,9883SM,Oldehove,Zuidhorn,Groningen,VBO,6.391528,53.300047
Aalsumerweg,3,,,9883TA,Oldehove,Zuidhorn,Groningen,VBO,6.390961,53.304716
Aalsumerweg,5,,,9883TA,Oldehove,Zuidhorn,Groningen,VBO,6.382255,53.309012
Aalsumerweg,6,,,9883TA,Oldehove,Zuidhorn,Groningen,VBO,6.386640,53.306603
Aalsumerweg,7,,,9883TA,Oldehove,Zuidhorn,Groningen,VBO,6.380685,53.309249
Aalsumerweg,8,,,9883TA,Oldehove,Zuidhorn,Groningen,VBO,6.384099,53.311566
Aalsumerweg,9,,,9883TA,Oldehove,Zuidhorn,Groningen,VBO,6.362420,53.301042
Aalsumerweg,10,,,9883TA,Oldehove,Zuidhorn,Groningen,VBO,6.379390,53.309691
Aalsumerweg,11,,,9883TA,Oldehove,Zuidhorn,Groningen,VBO,6.361691,53.300608
Aalsumerweg,14,,,9883TA,Oldehove,Zuidhorn,Groningen,VBO,6.378016,53.309307
Aalsumerweg,16,,,9883TA,Oldehove,Zuidhorn,Groningen,VBO,6.375020,53.310833
Aalsumerweg,22,,,9883TA,Oldehove,Zuidhorn,Groningen,VBO,6.370552,53.307032
Aalsumerweg,24,,,9883TA,Oldehove,Zuidhorn,Groningen,VBO,6.369312,53.307267
Aalsumerweg,26,,,9883TA,Oldehove,Zuidhorn,Groningen,VBO,6.368066,53.305246
Aalsumerweg,30,,,9883TA,Oldehove,Zuidhorn,Groningen,VBO,6.359330,53.301013
Aalsumerweg,32,,,9883TA,Oldehove,Zuidhorn,Groningen,VBO,6.356521,53.300829
Aalsumerweg,34,,,9883TA,Oldehove,Zuidhorn,Groningen,VBO,6.356099,53.305451
Aalsumerweg,36,,,9883TA,Oldehove,Zuidhorn,Groningen,VBO,6.352341,53.300387
Electraweg,1,a,,9883TB,Oldehove,Zuidhorn,Groningen,VBO,6.371384,53.307322
Electraweg,1,,,9883TB,Oldehove,Zuidhorn,Groningen,VBO,6.370621,53.307427
Electraweg,2,,,9883TB,Oldehove,Zuidhorn,Groningen,VBO,6.366233,53.312360
Electraweg,3,,,9883TB,Oldehove,Zuidhorn,Groningen,VBO,6.359303,53.308490
Electraweg,4,,,9883TB,Oldehove,Zuidhorn,Groningen,VBO,6.361524,53.313153
Electraweg,5,,,9883TB,Oldehove,Zuidhorn,Groningen,VBO,6.362919,53.311812
Electraweg,7,,,9883TB,Oldehove,Zuidhorn,Groningen,VBO,6.356852,53.312903
Electraweg,9,,,9883TB,Oldehove,Zuidhorn,Groningen,VBO,6.356751,53.313093
Electraweg,21,,,9883TB,Zuurdijk,De Marne,Groningen,VBO,6.356226,53.314418
Electraweg,22,T,,9883TB,Zuurdijk,De Marne,Groningen,VBO,6.356647,53.314451
Electraweg,23,,,9883TB,Zuurdijk,De Marne,Groningen,VBO,6.356209,53.314328
Electraweg,24,,,9883TB,Zuurdijk,De Marne,Groningen,VBO,6.354183,53.316313
Electraweg,25,,,9883TB,Zuurdijk,De Marne,Groningen,VBO,6.355874,53.314097
Englumerweg,1,a,,9883TC,Oldehove,Zuidhorn,Groningen,VBO,6.393835,53.305725
Englumerweg,1,,,9883TC,Oldehove,Zuidhorn,Groningen,VBO,6.394331,53.308327
Englumerweg,3,,,9883TC,Oldehove,Zuidhorn,Groningen,VBO,6.401852,53.310420
Englumerweg,5,,,9883TC,Oldehove,Zuidhorn,Groningen,VBO,6.402491,53.310783
Englumerweg,7,,,9883TC,Oldehove,Zuidhorn,Groningen,VBO,6.402618,53.311097
Englumerweg,8,,,9883TC,Oldehove,Zuidhorn,Groningen,VBO,6.403148,53.308136
Englumerweg,9,,,9883TC,Oldehove,Zuidhorn,Groningen,VBO,6.404131,53.311614
Englumerweg,10,,,9883TC,Oldehove,Zuidhorn,Groningen,VBO,6.404056,53.307814
Englumerweg,11,,,9883TC,Oldehove,Zuidhorn,Groningen,VBO,6.405440,53.311801
Englumerweg,12,t,,9883TC,Oldehove,Zuidhorn,Groningen,VBO,6.409865,53.311727
Englumerweg,12,,,9883TC,Oldehove,Zuidhorn,Groningen,VBO,6.408978,53.311654
Englumerweg,13,,,9883TC,Oldehove,Zuidhorn,Groningen,VBO,6.412764,53.316914
Englumerweg,14,e,,9883TC,Oldehove,Zuidhorn,Groningen,VBO,6.415660,53.313133
Englumerweg,15,,,9883TC,Oldehove,Zuidhorn,Groningen,VBO,6.414732,53.317643
De Kampen,3,,,9883TD,Oldehove,Zuidhorn,Groningen,VBO,6.381507,53.316269
De Kampen,4,,,9883TD,Oldehove,Zuidhorn,Groningen,VBO,6.389383,53.315539
De Kampen,5,,,9883TD,Oldehove,Zuidhorn,Groningen,VBO,6.397406,53.317242
Boventilsterweg,1,a,,9883TE,Oldehove,Zuidhorn,Groningen,VBO,6.404004,53.303052
Boventilsterweg,1,,,9883TE,Oldehove,Zuidhorn,Groningen,VBO,6.402471,53.302319
Boventilsterweg,2,,,9883TE,Oldehove,Zuidhorn,Groningen,VBO,6.405565,53.302472
Boventilsterweg,3,,,9883TE,Oldehove,Zuidhorn,Groningen,VBO,6.414024,53.303038
Boventilsterweg,5,,,9883TE,Oldehove,Zuidhorn,Groningen,VBO,6.415717,53.302952
Barnwerderweg,1,,,9883TG,Oldehove,Zuidhorn,Groningen,VBO,6.420923,53.302350
Barnwerderweg,2,,,9883TG,Oldehove,Zuidhorn,Groningen,VBO,6.420165,53.303291
Barnwerderweg,3,,,9883TG,Oldehove,Zuidhorn,Groningen,VBO,6.421236,53.297051
Barnwerderweg,5,,,9883TG,Oldehove,Zuidhorn,Groningen,VBO,6.423417,53.295023
Barnwerderweg,6,t,,9883TG,Oldehove,Zuidhorn,Groningen,VBO,6.419293,53.299444
Barnwerderweg,6,,,9883TG,Oldehove,Zuidhorn,Groningen,VBO,6.418774,53.299691
Barnwerderweg,9,,,9883TG,Oldehove,Zuidhorn,Groningen,VBO,6.425568,53.287169
Barnwerderweg,10,a,,9883TG,Oldehove,Zuidhorn,Groningen,VBO,6.420585,53.292853
Barnwerderweg,10,t,,9883TG,Oldehove,Zuidhorn,Groningen,VBO,6.420539,53.292604
Barnwerderweg,10,,,9883TG,Oldehove,Zuidhorn,Groningen,VBO,6.420788,53.292323
Barnwerderweg,12,,,9883TG,Oldehove,Zuidhorn,Groningen,VBO,6.420555,53.290743
Jensemaweg,3,,,9883TH,Oldehove,Zuidhorn,Groningen,VBO,6.416006,53.284250
Jensemaweg,4,,,9883TH,Oldehove,Zuidhorn,Groningen,VBO,6.417295,53.285506
Jensemaweg,5,,,9883TH,Oldehove,Zuidhorn,Groningen,VBO,6.413211,53.282746
Jensemaweg,7,,,9883TH,Oldehove,Zuidhorn,Groningen,VBO,6.412670,53.282059
Jensemaweg,8,,,9883TH,Oldehove,Zuidhorn,Groningen,VBO,6.400075,53.284583
Jensemaweg,9,,,9883TH,Oldehove,Zuidhorn,Groningen,VBO,6.411864,53.281589
Jensemaweg,10,,,9883TH,Oldehove,Zuidhorn,Groningen,VBO,6.401311,53.287430
Jensemaweg,11,a,,9883TH,Oldehove,Zuidhorn,Groningen,VBO,6.412577,53.280038
Jensemaweg,11,t,,9883TH,Oldehove,Zuidhorn,Groningen,VBO,6.410868,53.280699
Jensemaweg,11,,,9883TH,Oldehove,Zuidhorn,Groningen,VBO,6.410904,53.280915
Jensemaweg,13,,,9883TH,Oldehove,Zuidhorn,Groningen,VBO,6.401312,53.282380
Jensemaweg,15,t,,9883TH,Oldehove,Zuidhorn,Groningen,VBO,6.390212,53.282167
Jensemaweg,15,,,9883TH,Oldehove,Zuidhorn,Groningen,VBO,6.399890,53.282473
Noordhornerweg,1,,,9883TJ,Oldehove,Zuidhorn,Groningen,VBO,6.391798,53.292982
Noordhornerweg,2,,,9883TJ,Oldehove,Zuidhorn,Groningen,VBO,6.393069,53.281245
Noordhornerweg,3,,,9883TJ,Oldehove,Zuidhorn,Groningen,VBO,6.388345,53.277469
Noordhornerweg,4,,,9883TJ,Oldehove,Zuidhorn,Groningen,VBO,6.390825,53.278855
Noordhornerweg,5,,,9883TJ,Oldehove,Zuidhorn,Groningen,VBO,6.385973,53.275886
Spanjaardsdijk Noord,2,,,9883TJ,Den Ham,Zuidhorn,Groningen,VBO,6.428786,53.259752
