openbareruimtenaam,huisnummer,huisletter,huisnummertoevoeging,postcode,woonplaatsnaam,gemeentenaam,provincienaam,typeadresseerbaarobject,longitude,latitude
Hoofdstraat,1,,,9921PA,Stedum,Loppersum,Groningen,VBO,6.693919,53.322205
Hoofdstraat,3,,,9921PA,Stedum,Loppersum,Groningen,VBO,6.694268,53.321965
Hoofdstraat,9,,,9921PA,Stedum,Loppersum,Groningen,VBO,6.694595,53.321853
Hoofdstraat,15,,,9921PA,Stedum,Loppersum,Groningen,VBO,6.694713,53.321789
Hoofdstraat,17,,,9921PA,Stedum,Loppersum,Groningen,VBO,6.694937,53.321760
Hoofdstraat,19,,,9921PA,Stedum,Loppersum,Groningen,VBO,6.695033,53.321691
Hoofdstraat,23,,,9921PA,Stedum,Loppersum,Groningen,VBO,6.695218,53.321631
Hoofdstraat,25,,,9921PA,Stedum,Loppersum,Groningen,VBO,6.695383,53.321611
Hoofdstraat,29,,,9921PA,Stedum,Loppersum,Groningen,VBO,6.695606,53.321546
Hoofdstraat,31,,,9921PA,Stedum,Loppersum,Groningen,VBO,6.695770,53.321517
Hoofdstraat,33,,,9921PA,Stedum,Loppersum,Groningen,VBO,6.695993,53.321434
Hoofdstraat,35,,,9921PA,Stedum,Loppersum,Groningen,VBO,6.696202,53.321404
Hoofdstraat,37,,,9921PA,Stedum,Loppersum,Groningen,VBO,6.696381,53.321367
Hoofdstraat,39,,,9921PA,Stedum,Loppersum,Groningen,VBO,6.696514,53.321293
Hoofdstraat,41,,,9921PA,Stedum,Loppersum,Groningen,VBO,6.696603,53.321247
Hoofdstraat,43,,,9921PA,Stedum,Loppersum,Groningen,VBO,6.696737,53.321219
Hoofdstraat,45,,,9921PA,Stedum,Loppersum,Groningen,VBO,6.696884,53.321136
Hoofdstraat,47,,,9921PA,Stedum,Loppersum,Groningen,VBO,6.701366,53.319461
Hoofdstraat,2,,,9921PB,Stedum,Loppersum,Groningen,VBO,6.693627,53.321603
Hoofdstraat,4,,,9921PB,Stedum,Loppersum,Groningen,VBO,6.693857,53.321762
Hoofdstraat,6,,,9921PB,Stedum,Loppersum,Groningen,VBO,6.694097,53.321778
Hoofdstraat,8,,,9921PB,Stedum,Loppersum,Groningen,VBO,6.694261,53.321731
Hoofdstraat,10,,,9921PB,Stedum,Loppersum,Groningen,VBO,6.694516,53.321719
Hoofdstraat,12,,,9921PB,Stedum,Loppersum,Groningen,VBO,6.694752,53.321582
Hoofdstraat,14,,,9921PB,Stedum,Loppersum,Groningen,VBO,6.694931,53.321571
Hoofdstraat,16,,,9921PB,Stedum,Loppersum,Groningen,VBO,6.695198,53.321451
Hoofdstraat,18,,,9921PB,Stedum,Loppersum,Groningen,VBO,6.695286,53.321396
Hoofdstraat,20,,,9921PB,Stedum,Loppersum,Groningen,VBO,6.695373,53.321297
Hoofdstraat,24,,,9921PB,Stedum,Loppersum,Groningen,VBO,6.695762,53.321256
Hoofdstraat,26,,,9921PB,Stedum,Loppersum,Groningen,VBO,6.695960,53.321288
Hoofdstraat,28,,,9921PB,Stedum,Loppersum,Groningen,VBO,6.696242,53.321224
Hoofdstraat,32,,,9921PB,Stedum,Loppersum,Groningen,VBO,6.696434,53.321150
Hoofdstraat,36,,,9921PB,Stedum,Loppersum,Groningen,VBO,6.696597,53.321077
Hoofdstraat,38,,,9921PB,Stedum,Loppersum,Groningen,VBO,6.696834,53.320966
Hoofdstraat,40,,,9921PB,Stedum,Loppersum,Groningen,VBO,6.697052,53.320730
Hoofdstraat,42,,,9921PB,Stedum,Loppersum,Groningen,VBO,6.700516,53.319174
Klokkenpad,1,,,9921PC,Stedum,Loppersum,Groningen,VBO,6.694253,53.322219
Klokkenpad,2,,,9921PC,Stedum,Loppersum,Groningen,VBO,6.694453,53.322228
Klokkenpad,10,,,9921PC,Stedum,Loppersum,Groningen,VBO,6.695231,53.322547
Klokkenpad,12,,,9921PC,Stedum,Loppersum,Groningen,VBO,6.695263,53.322610
Klokkenpad,14,,,9921PC,Stedum,Loppersum,Groningen,VBO,6.695326,53.322690
Klokkenpad,16,,,9921PC,Stedum,Loppersum,Groningen,VBO,6.695388,53.322752
Adriaan Clantstraat,1,,,9921PD,Stedum,Loppersum,Groningen,VBO,6.694646,53.321547
Adriaan Clantstraat,2,,,9921PD,Stedum,Loppersum,Groningen,VBO,6.694422,53.321586
Adriaan Clantstraat,3,,,9921PD,Stedum,Loppersum,Groningen,VBO,6.694552,53.321431
Adriaan Clantstraat,5,,,9921PD,Stedum,Loppersum,Groningen,VBO,6.694384,53.321343
Adriaan Clantstraat,6,,,9921PD,Stedum,Loppersum,Groningen,VBO,6.694102,53.321445
Adriaan Clantstraat,7,,,9921PD,Stedum,Loppersum,Groningen,VBO,6.694186,53.321229
Adriaan Clantstraat,8,,,9921PD,Stedum,Loppersum,Groningen,VBO,6.693842,53.321295
Adriaan Clantstraat,9,,,9921PD,Stedum,Loppersum,Groningen,VBO,6.694033,53.321131
Adriaan Clantstraat,10,,,9921PD,Stedum,Loppersum,Groningen,VBO,6.693764,53.321179
Adriaan Clantstraat,12,,,9921PD,Stedum,Loppersum,Groningen,VBO,6.693658,53.321145
Adriaan Clantstraat,14,,,9921PD,Stedum,Loppersum,Groningen,VBO,6.693567,53.321110
Adriaan Clantstraat,16,,,9921PD,Stedum,Loppersum,Groningen,VBO,6.693490,53.321065
Adriaan Clantstraat,18,,,9921PD,Stedum,Loppersum,Groningen,VBO,6.693429,53.321012
Molenstraat,1,,,9921PE,Stedum,Loppersum,Groningen,VBO,6.695981,53.321047
Molenstraat,3,,,9921PE,Stedum,Loppersum,Groningen,VBO,6.695978,53.320931
Molenstraat,5,,,9921PE,Stedum,Loppersum,Groningen,VBO,6.695782,53.320915
Molenstraat,6,,,9921PE,Stedum,Loppersum,Groningen,VBO,6.695498,53.321025
Molenstraat,8,,,9921PE,Stedum,Loppersum,Groningen,VBO,6.695466,53.320873
Molenstraat,9,,,9921PE,Stedum,Loppersum,Groningen,VBO,6.695727,53.320798
Molenstraat,10,,,9921PE,Stedum,Loppersum,Groningen,VBO,6.695343,53.320785
Molenstraat,11,,,9921PE,Stedum,Loppersum,Groningen,VBO,6.695583,53.320773
Molenstraat,12,,,9921PE,Stedum,Loppersum,Groningen,VBO,6.695190,53.320688
Molenstraat,13,,,9921PE,Stedum,Loppersum,Groningen,VBO,6.695465,53.320708
Molenstraat,14,,,9921PE,Stedum,Loppersum,Groningen,VBO,6.695068,53.320626
Molenstraat,15,,,9921PE,Stedum,Loppersum,Groningen,VBO,6.695334,53.320506
Molenstraat,17,,,9921PE,Stedum,Loppersum,Groningen,VBO,6.695169,53.320481
D. Triezenbergstraat,1,A,,9921PG,Stedum,Loppersum,Groningen,VBO,6.692980,53.321062
D. Triezenbergstraat,1,,,9921PG,Stedum,Loppersum,Groningen,VBO,6.692833,53.321162
D. Triezenbergstraat,3,,,9921PG,Stedum,Loppersum,Groningen,VBO,6.693159,53.321042
D. Triezenbergstraat,5,,,9921PG,Stedum,Loppersum,Groningen,VBO,6.693307,53.320969
D. Triezenbergstraat,6,,,9921PG,Stedum,Loppersum,Groningen,VBO,6.692748,53.320831
D. Triezenbergstraat,7,,,9921PG,Stedum,Loppersum,Groningen,VBO,6.693694,53.320848
D. Triezenbergstraat,8,,,9921PG,Stedum,Loppersum,Groningen,VBO,6.692157,53.320154
D. Triezenbergstraat,9,,,9921PG,Stedum,Loppersum,Groningen,VBO,6.693916,53.320764
D. Triezenbergstraat,11,,,9921PG,Stedum,Loppersum,Groningen,VBO,6.694123,53.320645
D. Triezenbergstraat,12,,,9921PG,Stedum,Loppersum,Groningen,VBO,6.692003,53.320021
D. Triezenbergstraat,16,,,9921PG,Stedum,Loppersum,Groningen,VBO,6.693150,53.320737
D. Triezenbergstraat,20,,,9921PG,Stedum,Loppersum,Groningen,VBO,6.693400,53.320563
D. Triezenbergstraat,22,,,9921PG,Stedum,Loppersum,Groningen,VBO,6.693803,53.320478
D. Triezenbergstraat,24,,,9921PG,Stedum,Loppersum,Groningen,VBO,6.694398,53.320310
D. Triezenbergstraat,26,,,9921PG,Stedum,Loppersum,Groningen,VBO,6.694546,53.320245
D. Triezenbergstraat,28,,,9921PG,Stedum,Loppersum,Groningen,VBO,6.694211,53.319963
D. Triezenbergstraat,30,,,9921PG,Stedum,Loppersum,Groningen,VBO,6.694023,53.319829
D. Triezenbergstraat,32,,,9921PG,Stedum,Loppersum,Groningen,VBO,6.693478,53.319192
Lellensterweg,1,,,9921PH,Stedum,Loppersum,Groningen,VBO,6.695311,53.320323
Lellensterweg,3,,,9921PH,Stedum,Loppersum,Groningen,VBO,6.695447,53.320262
Lellensterweg,7,,,9921PH,Stedum,Loppersum,Groningen,VBO,6.695639,53.320161
Lellensterweg,9,,,9921PH,Stedum,Loppersum,Groningen,VBO,6.695954,53.320140
Lellensterweg,11,,,9921PH,Stedum,Loppersum,Groningen,VBO,6.696161,53.320048
Lellensterweg,13,,,9921PH,Stedum,Loppersum,Groningen,VBO,6.696294,53.319975
Lellensterweg,15,,,9921PH,Stedum,Loppersum,Groningen,VBO,6.696426,53.319892
Lellensterweg,17,,,9921PH,Stedum,Loppersum,Groningen,VBO,6.696528,53.319783
Lellensterweg,19,,,9921PH,Stedum,Loppersum,Groningen,VBO,6.696602,53.319738
Lellensterweg,21,,,9921PH,Stedum,Loppersum,Groningen,VBO,6.696734,53.319655
Lellensterweg,23,,,9921PH,Stedum,Loppersum,Groningen,VBO,6.696793,53.319610
Lellensterweg,25,,,9921PH,Stedum,Loppersum,Groningen,VBO,6.696942,53.319563
Lellensterweg,27,,,9921PH,Stedum,Loppersum,Groningen,VBO,6.696970,53.319500
Lellensterweg,29,,,9921PH,Stedum,Loppersum,Groningen,VBO,6.697146,53.319381
Lellensterweg,2,,,9921PJ,Stedum,Loppersum,Groningen,VBO,6.695492,53.319759
Lellensterweg,6,,,9921PJ,Stedum,Loppersum,Groningen,VBO,6.695880,53.319709
Lellensterweg,8,,,9921PJ,Stedum,Loppersum,Groningen,VBO,6.696072,53.319582
Lellensterweg,12,,,9921PJ,Stedum,Loppersum,Groningen,VBO,6.696174,53.319500
Lellensterweg,14,,,9921PJ,Stedum,Loppersum,Groningen,VBO,6.696363,53.319453
Lellensterweg,16,,,9921PJ,Stedum,Loppersum,Groningen,VBO,6.696420,53.319421
Lellensterweg,18,,,9921PJ,Stedum,Loppersum,Groningen,VBO,6.696439,53.319335
Lellensterweg,20,,,9921PJ,Stedum,Loppersum,Groningen,VBO,6.696603,53.319279
Lellensterweg,22,A,,9921PJ,Stedum,Loppersum,Groningen,VBO,6.696721,53.319224
Lellensterweg,22,,,9921PJ,Stedum,Loppersum,Groningen,VBO,6.696662,53.319243
Bedumerweg,1,,,9921PK,Stedum,Loppersum,Groningen,VBO,6.693087,53.321627
Bedumerweg,3,,,9921PK,Stedum,Loppersum,Groningen,VBO,6.692858,53.321495
Bedumerweg,5,,,9921PK,Stedum,Loppersum,Groningen,VBO,6.692688,53.321326
Bedumerweg,7,,,9921PK,Stedum,Loppersum,Groningen,VBO,6.692445,53.321239
Bedumerweg,11,,,9921PK,Stedum,Loppersum,Groningen,VBO,6.691792,53.320976
Bedumerweg,15,,,9921PK,Stedum,Loppersum,Groningen,VBO,6.691458,53.320872
Bedumerweg,17,,,9921PK,Stedum,Loppersum,Groningen,VBO,6.691337,53.320837
Bedumerweg,19,,,9921PK,Stedum,Loppersum,Groningen,VBO,6.691186,53.320785
Bedumerweg,21,,,9921PK,Stedum,Loppersum,Groningen,VBO,6.691048,53.320715
Bedumerweg,23,,,9921PK,Stedum,Loppersum,Groningen,VBO,6.690985,53.320607
Bedumerweg,25,,,9921PK,Stedum,Loppersum,Groningen,VBO,6.690804,53.320573
Bedumerweg,27,,,9921PK,Stedum,Loppersum,Groningen,VBO,6.690666,53.320485
Bedumerweg,29,,,9921PK,Stedum,Loppersum,Groningen,VBO,6.690461,53.320342
Bedumerweg,31,,,9921PK,Stedum,Loppersum,Groningen,VBO,6.690358,53.320219
Bedumerweg,33,,,9921PK,Stedum,Loppersum,Groningen,VBO,6.690144,53.320086
Bedumerweg,35,,,9921PK,Stedum,Loppersum,Groningen,VBO,6.689825,53.319946
Bedumerweg,4,,,9921PL,Stedum,Loppersum,Groningen,VBO,6.692644,53.321865
Bedumerweg,6,,,9921PL,Stedum,Loppersum,Groningen,VBO,6.692133,53.321844
Bedumerweg,8,,,9921PL,Stedum,Loppersum,Groningen,VBO,6.692590,53.321578
Bedumerweg,10,,,9921PL,Stedum,Loppersum,Groningen,VBO,6.692437,53.321472
Bedumerweg,12,,,9921PL,Stedum,Loppersum,Groningen,VBO,6.692330,53.321402
Bedumerweg,14,,,9921PL,Stedum,Loppersum,Groningen,VBO,6.692162,53.321314
Bedumerweg,18,,,9921PL,Stedum,Loppersum,Groningen,VBO,6.690494,53.321719
Bedumerweg,22,,,9921PL,Stedum,Loppersum,Groningen,VBO,6.691497,53.321141
Bedumerweg,24,,,9921PL,Stedum,Loppersum,Groningen,VBO,6.691072,53.320984
Bedumerweg,30,,,9921PL,Stedum,Loppersum,Groningen,VBO,6.690754,53.320915
Bedumerweg,32,,,9921PM,Stedum,Loppersum,Groningen,VBO,6.690350,53.320956
Bedumerweg,36,,,9921PM,Stedum,Loppersum,Groningen,VBO,6.690361,53.320812
Bedumerweg,38,,,9921PM,Stedum,Loppersum,Groningen,VBO,6.690148,53.320715
Bedumerweg,40,,,9921PM,Stedum,Loppersum,Groningen,VBO,6.690084,53.320590
Bedumerweg,46,,,9921PM,Stedum,Loppersum,Groningen,VBO,6.689533,53.320228
Bedumerweg,48,,,9921PM,Stedum,Loppersum,Groningen,VBO,6.688355,53.319477
Bedumerweg,50,,,9921PM,Stedum,Loppersum,Groningen,VBO,6.687713,53.319115
Bedumerweg,52,,,9921PM,Stedum,Loppersum,Groningen,VBO,6.687043,53.318781
Bedumerweg,54,,,9921PM,Stedum,Loppersum,Groningen,VBO,6.685572,53.317763
Bedumerweg,56,,,9921PM,Stedum,Loppersum,Groningen,VBO,6.685420,53.317693
Bedumerweg,58,,,9921PM,Stedum,Loppersum,Groningen,VBO,6.685374,53.317667
Bedumerweg,60,,,9921PM,Stedum,Loppersum,Groningen,VBO,6.685252,53.317596
Bedumerweg,62,,,9921PM,Stedum,Loppersum,Groningen,VBO,6.685112,53.317454
Synagogegang,1,,,9921PN,Stedum,Loppersum,Groningen,VBO,6.691830,53.321245
Kerkpad,2,,,9921PP,Stedum,Loppersum,Groningen,VBO,6.690012,53.321166
Kerkpad,4,,,9921PP,Stedum,Loppersum,Groningen,VBO,6.689834,53.321249
Ypeylaan,1,,,9921PP,Stedum,Loppersum,Groningen,VBO,6.689249,53.320779
Ypeylaan,3,,,9921PP,Stedum,Loppersum,Groningen,VBO,6.689117,53.320861
Ypeylaan,5,,,9921PP,Stedum,Loppersum,Groningen,VBO,6.688954,53.320935
Ypeylaan,9,,,9921PP,Stedum,Loppersum,Groningen,VBO,6.688762,53.321036
Vlaspad,1,A,,9921PR,Stedum,Loppersum,Groningen,VBO,6.698046,53.322831
Vlaspad,1,,,9921PR,Stedum,Loppersum,Groningen,VBO,6.698338,53.323026
Vlaspad,2,,,9921PR,Stedum,Loppersum,Groningen,VBO,6.698629,53.322865
Vlaspad,3,,,9921PR,Stedum,Loppersum,Groningen,VBO,6.698263,53.323053
Vlaspad,4,,,9921PR,Stedum,Loppersum,Groningen,VBO,6.698694,53.322914
Vlaspad,5,,,9921PR,Stedum,Loppersum,Groningen,VBO,6.698174,53.323090
Vlaspad,6,,,9921PR,Stedum,Loppersum,Groningen,VBO,6.698741,53.322958
Vlaspad,7,,,9921PR,Stedum,Loppersum,Groningen,VBO,6.698115,53.323109
Vlaspad,8,,,9921PR,Stedum,Loppersum,Groningen,VBO,6.698818,53.323029
Vlaspad,9,,,9921PR,Stedum,Loppersum,Groningen,VBO,6.698011,53.323155
Vlaspad,10,,,9921PR,Stedum,Loppersum,Groningen,VBO,6.698924,53.323055
Vlaspad,11,,,9921PR,Stedum,Loppersum,Groningen,VBO,6.698739,53.323390
Vlaspad,12,,,9921PR,Stedum,Loppersum,Groningen,VBO,6.699015,53.323099
Vlaspad,13,,,9921PR,Stedum,Loppersum,Groningen,VBO,6.698664,53.323408
Vlaspad,14,,,9921PR,Stedum,Loppersum,Groningen,VBO,6.699048,53.323180
Vlaspad,15,,,9921PR,Stedum,Loppersum,Groningen,VBO,6.698576,53.323454
Vlaspad,16,,,9921PR,Stedum,Loppersum,Groningen,VBO,6.699110,53.323242
Vlaspad,17,,,9921PR,Stedum,Loppersum,Groningen,VBO,6.698517,53.323482
Vlaspad,18,,,9921PR,Stedum,Loppersum,Groningen,VBO,6.699141,53.323286
Vlaspad,19,,,9921PR,Stedum,Loppersum,Groningen,VBO,6.698397,53.323510
Vlaspad,20,,,9921PR,Stedum,Loppersum,Groningen,VBO,6.699203,53.323349
Kampweg,1,,,9921PS,Stedum,Loppersum,Groningen,VBO,6.692990,53.321889
Kampweg,2,,,9921PS,Stedum,Loppersum,Groningen,VBO,6.694217,53.322747
Kampweg,3,,,9921PS,Stedum,Loppersum,Groningen,VBO,6.692902,53.321970
Kampweg,5,,,9921PS,Stedum,Loppersum,Groningen,VBO,6.692860,53.322061
Kampweg,7,,,9921PS,Stedum,Loppersum,Groningen,VBO,6.692714,53.322197
Kampweg,9,,,9921PS,Stedum,Loppersum,Groningen,VBO,6.692399,53.322210
Kampweg,13,,,9921PS,Stedum,Loppersum,Groningen,VBO,6.692719,53.322341
Kampweg,17,,,9921PS,Stedum,Loppersum,Groningen,VBO,6.692903,53.322501
Kampweg,19,,,9921PS,Stedum,Loppersum,Groningen,VBO,6.692922,53.322617
Kampweg,21,,,9921PS,Stedum,Loppersum,Groningen,VBO,6.692998,53.323156
Stationsweg,1,,,9921PT,Stedum,Loppersum,Groningen,VBO,6.692585,53.323376
Stationsweg,3,,,9921PT,Stedum,Loppersum,Groningen,VBO,6.692036,53.323606
Stationsweg,5,,,9921PT,Stedum,Loppersum,Groningen,VBO,6.690592,53.322975
Stationsweg,11,,,9921PT,Stedum,Loppersum,Groningen,VBO,6.691013,53.324004
Stationsweg,13,,,9921PT,Stedum,Loppersum,Groningen,VBO,6.690717,53.324142
Stationsweg,15,,,9921PT,Stedum,Loppersum,Groningen,VBO,6.690328,53.324182
Stationsweg,17,,,9921PT,Stedum,Loppersum,Groningen,VBO,6.690211,53.324291
Stationsweg,19,,,9921PT,Stedum,Loppersum,Groningen,VBO,6.690032,53.324320
Stationsweg,21,,,9921PT,Stedum,Loppersum,Groningen,VBO,6.689869,53.324385
Stationsweg,23,,,9921PT,Stedum,Loppersum,Groningen,VBO,6.689629,53.324405
Stationsweg,25,,,9921PT,Stedum,Loppersum,Groningen,VBO,6.689497,53.324488
Stationsweg,27,,,9921PT,Stedum,Loppersum,Groningen,VBO,6.689191,53.324302
Stationsweg,29,,,9921PT,Stedum,Loppersum,Groningen,VBO,6.689167,53.324518
Stationsweg,31,,,9921PT,Stedum,Loppersum,Groningen,VBO,6.687913,53.324830
Stationsweg,2,,,9921PV,Stedum,Loppersum,Groningen,VBO,6.693605,53.323347
Stationsweg,4,,,9921PV,Stedum,Loppersum,Groningen,VBO,6.693417,53.323600
Stationsweg,6,,,9921PV,Stedum,Loppersum,Groningen,VBO,6.693014,53.323659
Stationsweg,8,,,9921PV,Stedum,Loppersum,Groningen,VBO,6.692569,53.323861
Stationsweg,10,,,9921PV,Stedum,Loppersum,Groningen,VBO,6.692394,53.324007
Stationsweg,12,,,9921PV,Stedum,Loppersum,Groningen,VBO,6.692111,53.324073
Stationsweg,14,,,9921PV,Stedum,Loppersum,Groningen,VBO,6.691902,53.324138
Stationsweg,16,,,9921PV,Stedum,Loppersum,Groningen,VBO,6.691741,53.324257
Stationsweg,18,,,9921PV,Stedum,Loppersum,Groningen,VBO,6.691458,53.324314
Stationsweg,20,,,9921PV,Stedum,Loppersum,Groningen,VBO,6.691207,53.324400
Stationsweg,24,,,9921PV,Stedum,Loppersum,Groningen,VBO,6.690909,53.324535
Stationsweg,26,,,9921PV,Stedum,Loppersum,Groningen,VBO,6.690625,53.324565
Stationsweg,28,,,9921PV,Stedum,Loppersum,Groningen,VBO,6.690371,53.324613
Stationsweg,30,,,9921PW,Stedum,Loppersum,Groningen,VBO,6.690194,53.324714
Stationsweg,32,,,9921PW,Stedum,Loppersum,Groningen,VBO,6.689896,53.324780
Stationsweg,34,,,9921PW,Stedum,Loppersum,Groningen,VBO,6.689611,53.324783
Stationsweg,36,,,9921PW,Stedum,Loppersum,Groningen,VBO,6.689194,53.324895
Stationsweg,38,,,9921PW,Stedum,Loppersum,Groningen,VBO,6.689089,53.324923
Stationsweg,40,,,9921PW,Stedum,Loppersum,Groningen,VBO,6.688926,53.324970
Stationsweg,42,,,9921PW,Stedum,Loppersum,Groningen,VBO,6.688852,53.324998
Stationsweg,44,,,9921PW,Stedum,Loppersum,Groningen,VBO,6.688692,53.325179
Stationsweg,52,,,9921PW,Stedum,Loppersum,Groningen,VBO,6.688004,53.325268
Stationsweg,54,,,9921PW,Stedum,Loppersum,Groningen,VBO,6.687780,53.325306
Stationsweg,56,,,9921PW,Stedum,Loppersum,Groningen,VBO,6.687544,53.325425
Stationsweg,58,,,9921PW,Stedum,Loppersum,Groningen,VBO,6.687304,53.325437
Stationsweg,60,,,9921PW,Stedum,Loppersum,Groningen,VBO,6.687037,53.325539
Stationsweg,62,,,9921PW,Stedum,Loppersum,Groningen,VBO,6.686877,53.325711
Stationsstraat,2,,,9921PX,Stedum,Loppersum,Groningen,VBO,6.688038,53.325896
Kaakstraat,1,,,9921PZ,Stedum,Loppersum,Groningen,VBO,6.693776,53.321566
Kaakstraat,2,,,9921PZ,Stedum,Loppersum,Groningen,VBO,6.693144,53.321537
Kaakstraat,4,,,9921PZ,Stedum,Loppersum,Groningen,VBO,6.693429,53.321533
Kaakstraat,6,,,9921PZ,Stedum,Loppersum,Groningen,VBO,6.693530,53.321398
Kaakstraat,8,,,9921PZ,Stedum,Loppersum,Groningen,VBO,6.693694,53.321351
Weemweg,25,A,,9921RA,Stedum,Loppersum,Groningen,VBO,6.694630,53.323565
Weemweg,25,B,,9921RA,Stedum,Loppersum,Groningen,VBO,6.694662,53.323584
Weemweg,25,C,,9921RA,Stedum,Loppersum,Groningen,VBO,6.694694,53.323603
Weemweg,25,,,9921RA,Stedum,Loppersum,Groningen,VBO,6.694480,53.323499
Weemweg,27,,,9921RA,Stedum,Loppersum,Groningen,VBO,6.694726,53.323622
Weemweg,29,,,9921RB,Stedum,Loppersum,Groningen,VBO,6.694758,53.323641
Weemweg,31,,,9921RB,Stedum,Loppersum,Groningen,VBO,6.695135,53.323622
Weemweg,33,,,9921RB,Stedum,Loppersum,Groningen,VBO,6.695172,53.323607
Weemweg,35,,,9921RB,Stedum,Loppersum,Groningen,VBO,6.695208,53.323591
Weemweg,37,,,9921RB,Stedum,Loppersum,Groningen,VBO,6.695245,53.323576
Weemweg,39,,,9921RB,Stedum,Loppersum,Groningen,VBO,6.695282,53.323560
Weemweg,41,,,9921RB,Stedum,Loppersum,Groningen,VBO,6.695705,53.323333
Weemweg,43,,,9921RB,Stedum,Loppersum,Groningen,VBO,6.695644,53.323280
Weemweg,45,,,9921RB,Stedum,Loppersum,Groningen,VBO,6.695582,53.323217
Weemweg,47,,,9921RB,Stedum,Loppersum,Groningen,VBO,6.695505,53.323146
Weemweg,49,,,9921RB,Stedum,Loppersum,Groningen,VBO,6.695457,53.323075
Weemweg,51,,,9921RB,Stedum,Loppersum,Groningen,VBO,6.695728,53.322968
Weemweg,53,,,9921RB,Stedum,Loppersum,Groningen,VBO,6.695858,53.322936
Weemweg,55,,,9921RC,Stedum,Loppersum,Groningen,VBO,6.695992,53.322880
Weemweg,57,,,9921RC,Stedum,Loppersum,Groningen,VBO,6.696096,53.322843
Weemweg,59,,,9921RC,Stedum,Loppersum,Groningen,VBO,6.696289,53.322778
Weemweg,61,,,9921RC,Stedum,Loppersum,Groningen,VBO,6.696392,53.322732
Weemweg,63,,,9921RC,Stedum,Loppersum,Groningen,VBO,6.696896,53.322520
Weemweg,65,,,9921RC,Stedum,Loppersum,Groningen,VBO,6.697016,53.322510
Weemweg,67,,,9921RC,Stedum,Loppersum,Groningen,VBO,6.697179,53.322454
Weemweg,69,,,9921RC,Stedum,Loppersum,Groningen,VBO,6.697283,53.322408
Weemweg,71,,,9921RC,Stedum,Loppersum,Groningen,VBO,6.697461,53.322334
Weemweg,73,,,9921RC,Stedum,Loppersum,Groningen,VBO,6.697595,53.322288
Weemweg,75,,,9921RC,Stedum,Loppersum,Groningen,VBO,6.697728,53.322232
Weemweg,77,,,9921RC,Stedum,Loppersum,Groningen,VBO,6.697876,53.322159
Weemweg,2,,,9921RD,Stedum,Loppersum,Groningen,VBO,6.693289,53.323826
Weemweg,4,,,9921RD,Stedum,Loppersum,Groningen,VBO,6.693350,53.323871
Weemweg,6,,,9921RD,Stedum,Loppersum,Groningen,VBO,6.693412,53.323915
Weemweg,8,,,9921RD,Stedum,Loppersum,Groningen,VBO,6.693640,53.324011
Weemweg,10,,,9921RD,Stedum,Loppersum,Groningen,VBO,6.693699,53.323984
Weemweg,12,,,9921RD,Stedum,Loppersum,Groningen,VBO,6.693792,53.323953
Weemweg,14,,,9921RD,Stedum,Loppersum,Groningen,VBO,6.693832,53.323910
Weemweg,16,,,9921RD,Stedum,Loppersum,Groningen,VBO,6.694010,53.323837
Weemweg,18,,,9921RD,Stedum,Loppersum,Groningen,VBO,6.694054,53.323800
Weemweg,20,,,9921RD,Stedum,Loppersum,Groningen,VBO,6.694113,53.323773
Weemweg,22,,,9921RD,Stedum,Loppersum,Groningen,VBO,6.694187,53.323736
Weemweg,24,,,9921RD,Stedum,Loppersum,Groningen,VBO,6.694001,53.323558
Weemweg,26,,,9921RE,Stedum,Loppersum,Groningen,VBO,6.695788,53.322586
Weemweg,28,,,9921RE,Stedum,Loppersum,Groningen,VBO,6.695741,53.322533
Weemweg,30,,,9921RE,Stedum,Loppersum,Groningen,VBO,6.695664,53.322462
Weemweg,32,,,9921RE,Stedum,Loppersum,Groningen,VBO,6.695602,53.322408
Weemweg,36,,,9921RE,Stedum,Loppersum,Groningen,VBO,6.696931,53.322178
Weemweg,38,,,9921RE,Stedum,Loppersum,Groningen,VBO,6.697035,53.322150
Weemweg,40,,,9921RE,Stedum,Loppersum,Groningen,VBO,6.697124,53.322113
Weemweg,42,A,,9921RE,Stedum,Loppersum,Groningen,VBO,6.696788,53.321702
Weemweg,42,,,9921RE,Stedum,Loppersum,Groningen,VBO,6.697318,53.322066
Weemweg,44,,,9921RE,Stedum,Loppersum,Groningen,VBO,6.697540,53.321983
Hilmaarweg,38,,,9921RG,Stedum,Loppersum,Groningen,VBO,6.695762,53.324204
Hilmaarweg,40,,,9921RG,Stedum,Loppersum,Groningen,VBO,6.695821,53.324176
Hilmaarweg,42,,,9921RG,Stedum,Loppersum,Groningen,VBO,6.695940,53.324148
Hilmaarweg,44,,,9921RG,Stedum,Loppersum,Groningen,VBO,6.695999,53.324120
Hilmaarweg,46,,,9921RG,Stedum,Loppersum,Groningen,VBO,6.696074,53.324093
Hilmaarweg,48,,,9921RG,Stedum,Loppersum,Groningen,VBO,6.696355,53.323955
Hilmaarweg,50,,,9921RG,Stedum,Loppersum,Groningen,VBO,6.696667,53.323871
Hilmaarweg,52,,,9921RG,Stedum,Loppersum,Groningen,VBO,6.696761,53.323852
Hilmaarweg,54,,,9921RG,Stedum,Loppersum,Groningen,VBO,6.696875,53.323796
Hilmaarweg,56,,,9921RG,Stedum,Loppersum,Groningen,VBO,6.696935,53.323778
Borgweg,1,,,9921RH,Stedum,Loppersum,Groningen,VBO,6.696577,53.322883
Borgweg,3,,,9921RH,Stedum,Loppersum,Groningen,VBO,6.696695,53.323008
Borgweg,4,,,9921RH,Stedum,Loppersum,Groningen,VBO,6.697123,53.322772
Borgweg,5,,,9921RH,Stedum,Loppersum,Groningen,VBO,6.696814,53.323267
Borgweg,6,,,9921RH,Stedum,Loppersum,Groningen,VBO,6.697180,53.322821
Borgweg,7,,,9921RH,Stedum,Loppersum,Groningen,VBO,6.696907,53.323356
Borgweg,8,,,9921RH,Stedum,Loppersum,Groningen,VBO,6.697668,53.323204
Borgweg,9,,,9921RH,Stedum,Loppersum,Groningen,VBO,6.696984,53.323436
Borgweg,10,,,9921RH,Stedum,Loppersum,Groningen,VBO,6.697714,53.323248
Borgweg,11,,,9921RH,Stedum,Loppersum,Groningen,VBO,6.697062,53.323516
Borgweg,12,,,9921RH,Stedum,Loppersum,Groningen,VBO,6.697790,53.323283
Borgweg,13,,,9921RH,Stedum,Loppersum,Groningen,VBO,6.697125,53.323614
Borgweg,14,,,9921RH,Stedum,Loppersum,Groningen,VBO,6.697851,53.323327
Borgweg,15,,,9921RH,Stedum,Loppersum,Groningen,VBO,6.697201,53.323667
Borgweg,16,,,9921RH,Stedum,Loppersum,Groningen,VBO,6.697898,53.323372
Borgweg,18,,,9921RH,Stedum,Loppersum,Groningen,VBO,6.698007,53.323497
Borgweg,20,,,9921RH,Stedum,Loppersum,Groningen,VBO,6.698053,53.323532
Borgweg,22,,,9921RH,Stedum,Loppersum,Groningen,VBO,6.698114,53.323585
Borgweg,24,,,9921RH,Stedum,Loppersum,Groningen,VBO,6.698162,53.323684
Borgweg,26,,,9921RH,Stedum,Loppersum,Groningen,VBO,6.698194,53.323728
Borgweg,28,,,9921RH,Stedum,Loppersum,Groningen,VBO,6.698255,53.323781
Borgweg,30,,,9921RH,Stedum,Loppersum,Groningen,VBO,6.698347,53.323816
Singel,3,,,9921RJ,Stedum,Loppersum,Groningen,VBO,6.698081,53.322498
Singel,5,,,9921RJ,Stedum,Loppersum,Groningen,VBO,6.697977,53.322526
Singel,7,,,9921RJ,Stedum,Loppersum,Groningen,VBO,6.697829,53.322600
Singel,9,,,9921RJ,Stedum,Loppersum,Groningen,VBO,6.697710,53.322637
Singel,11,,,9921RJ,Stedum,Loppersum,Groningen,VBO,6.697591,53.322665
Singel,13,,,9921RJ,Stedum,Loppersum,Groningen,VBO,6.697457,53.322712
Singel,15,,,9921RJ,Stedum,Loppersum,Groningen,VBO,6.696419,53.323109
Singel,17,,,9921RJ,Stedum,Loppersum,Groningen,VBO,6.696330,53.323137
Singel,19,,,9921RJ,Stedum,Loppersum,Groningen,VBO,6.696270,53.323156
Singel,21,,,9921RJ,Stedum,Loppersum,Groningen,VBO,6.696181,53.323184
Singel,23,,,9921RJ,Stedum,Loppersum,Groningen,VBO,6.696092,53.323212
Singel,25,,,9921RJ,Stedum,Loppersum,Groningen,VBO,6.696003,53.323249
Singel,14,,,9921RK,Stedum,Loppersum,Groningen,VBO,6.697794,53.322933
Singel,16,,,9921RK,Stedum,Loppersum,Groningen,VBO,6.697705,53.322970
Singel,18,,,9921RK,Stedum,Loppersum,Groningen,VBO,6.697646,53.322988
Singel,20,,,9921RK,Stedum,Loppersum,Groningen,VBO,6.697535,53.323015
Singel,22,,,9921RK,Stedum,Loppersum,Groningen,VBO,6.696592,53.323368
Singel,24,,,9921RK,Stedum,Loppersum,Groningen,VBO,6.696482,53.323409
Singel,26,,,9921RL,Stedum,Loppersum,Groningen,VBO,6.696369,53.323451
Singel,28,,,9921RL,Stedum,Loppersum,Groningen,VBO,6.696310,53.323470
Singel,30,,,9921RL,Stedum,Loppersum,Groningen,VBO,6.696191,53.323525
Singel,32,,,9921RL,Stedum,Loppersum,Groningen,VBO,6.696014,53.323599
Singel,34,,,9921RL,Stedum,Loppersum,Groningen,VBO,6.695954,53.323618
Singel,36,,,9921RL,Stedum,Loppersum,Groningen,VBO,6.695910,53.323645
Singel,38,,,9921RL,Stedum,Loppersum,Groningen,VBO,6.695802,53.323670
Singel,40,,,9921RL,Stedum,Loppersum,Groningen,VBO,6.695747,53.323701
Singel,42,,,9921RL,Stedum,Loppersum,Groningen,VBO,6.695527,53.323883
Singel,44,,,9921RL,Stedum,Loppersum,Groningen,VBO,6.695573,53.323927
Singel,46,,,9921RL,Stedum,Loppersum,Groningen,VBO,6.695545,53.323982
Singel,48,,,9921RL,Stedum,Loppersum,Groningen,VBO,6.695606,53.324026
Singel,50,,,9921RL,Stedum,Loppersum,Groningen,VBO,6.695653,53.324070
Lopsterweg,1,,,9921RM,Stedum,Loppersum,Groningen,VBO,6.697265,53.321321
Lopsterweg,5,,,9921RM,Stedum,Loppersum,Groningen,VBO,6.697475,53.321444
Lopsterweg,7,,,9921RM,Stedum,Loppersum,Groningen,VBO,6.697648,53.321577
Lopsterweg,9,,,9921RM,Stedum,Loppersum,Groningen,VBO,6.697741,53.321666
Lopsterweg,11,,,9921RM,Stedum,Loppersum,Groningen,VBO,6.697955,53.321799
Lopsterweg,13,,,9921RM,Stedum,Loppersum,Groningen,VBO,6.698231,53.322002
Lopsterweg,15,,,9921RM,Stedum,Loppersum,Groningen,VBO,6.698416,53.322153
Lopsterweg,17,,,9921RM,Stedum,Loppersum,Groningen,VBO,6.698617,53.322358
Lopsterweg,19,,,9921RM,Stedum,Loppersum,Groningen,VBO,6.698686,53.322626
Lopsterweg,21,,,9921RN,Stedum,Loppersum,Groningen,VBO,6.699108,53.322712
Lopsterweg,23,,,9921RN,Stedum,Loppersum,Groningen,VBO,6.699216,53.322800
Lopsterweg,25,,,9921RN,Stedum,Loppersum,Groningen,VBO,6.699309,53.322889
Lopsterweg,27,,,9921RN,Stedum,Loppersum,Groningen,VBO,6.699401,53.322969
Lopsterweg,29,,,9921RN,Stedum,Loppersum,Groningen,VBO,6.699539,53.323039
Lopsterweg,31,,,9921RN,Stedum,Loppersum,Groningen,VBO,6.699812,53.323153
Lopsterweg,33,,,9921RN,Stedum,Loppersum,Groningen,VBO,6.699953,53.323323
Lopsterweg,37,,,9921RN,Stedum,Loppersum,Groningen,VBO,6.700375,53.323408
Lopsterweg,39,,,9921RN,Stedum,Loppersum,Groningen,VBO,6.700453,53.323506
Lopsterweg,43,,,9921RN,Stedum,Loppersum,Groningen,VBO,6.702643,53.324603
Lopsterweg,2,,,9921RP,Stedum,Loppersum,Groningen,VBO,6.698804,53.322086
Lopsterweg,4,A,,9921RP,Stedum,Loppersum,Groningen,VBO,6.699618,53.322697
Lopsterweg,4,,,9921RP,Stedum,Loppersum,Groningen,VBO,6.699494,53.322573
Lopsterweg,6,,,9921RP,Stedum,Loppersum,Groningen,VBO,6.701655,53.323547
Lopsterweg,8,,,9921RP,Stedum,Loppersum,Groningen,VBO,6.701853,53.323643
Lopsterweg,10,,,9921RP,Stedum,Loppersum,Groningen,VBO,6.702036,53.323731
Lopsterweg,12,,,9921RP,Stedum,Loppersum,Groningen,VBO,6.702159,53.323811
Lopsterweg,14,,,9921RP,Stedum,Loppersum,Groningen,VBO,6.702311,53.323872
Lopsterweg,16,,,9921RP,Stedum,Loppersum,Groningen,VBO,6.702448,53.323960
Sien Jensemahörn,1,,,9921RR,Stedum,Loppersum,Groningen,VBO,6.699610,53.323398
Sien Jensemahörn,2,,,9921RR,Stedum,Loppersum,Groningen,VBO,6.699857,53.323620
Sien Jensemahörn,3,,,9921RR,Stedum,Loppersum,Groningen,VBO,6.699521,53.323435
Sien Jensemahörn,4,,,9921RR,Stedum,Loppersum,Groningen,VBO,6.699604,53.323722
Sien Jensemahörn,5,,,9921RR,Stedum,Loppersum,Groningen,VBO,6.699431,53.323463
Sien Jensemahörn,6,,,9921RR,Stedum,Loppersum,Groningen,VBO,6.699367,53.323805
Sien Jensemahörn,7,,,9921RR,Stedum,Loppersum,Groningen,VBO,6.699312,53.323491
Sien Jensemahörn,8,,,9921RR,Stedum,Loppersum,Groningen,VBO,6.699115,53.323907
Sien Jensemahörn,9,,,9921RR,Stedum,Loppersum,Groningen,VBO,6.699223,53.323510
Sien Jensemahörn,10,,,9921RR,Stedum,Loppersum,Groningen,VBO,6.698817,53.323991
Sien Jensemahörn,11,,,9921RR,Stedum,Loppersum,Groningen,VBO,6.698986,53.323621
Sien Jensemahörn,13,,,9921RR,Stedum,Loppersum,Groningen,VBO,6.698882,53.323649
Sien Jensemahörn,15,,,9921RR,Stedum,Loppersum,Groningen,VBO,6.698808,53.323676
Sien Jensemahörn,17,,,9921RR,Stedum,Loppersum,Groningen,VBO,6.698703,53.323696
Sien Jensemahörn,19,,,9921RR,Stedum,Loppersum,Groningen,VBO,6.698584,53.323733
Sien Jensemahörn,20,,,9921RR,Stedum,Loppersum,Groningen,VBO,6.698564,53.324058
Borgweg,17,,,9921RS,Stedum,Loppersum,Groningen,VBO,6.697494,53.323924
Borgweg,19,,,9921RS,Stedum,Loppersum,Groningen,VBO,6.697527,53.323996
Borgweg,21,,,9921RS,Stedum,Loppersum,Groningen,VBO,6.697603,53.324040
Borgweg,23,,,9921RS,Stedum,Loppersum,Groningen,VBO,6.697649,53.324085
Borgweg,25,,,9921RS,Stedum,Loppersum,Groningen,VBO,6.697727,53.324156
Borgweg,27,,,9921RS,Stedum,Loppersum,Groningen,VBO,6.697773,53.324191
Borgweg,29,,,9921RS,Stedum,Loppersum,Groningen,VBO,6.697941,53.324315
Borgweg,31,,,9921RS,Stedum,Loppersum,Groningen,VBO,6.697988,53.324368
Hilmaarweg,1,A,,9921RT,Stedum,Loppersum,Groningen,VBO,6.697318,53.324043
Hilmaarweg,1,B,,9921RT,Stedum,Loppersum,Groningen,VBO,6.697199,53.324089
Hilmaarweg,3,,,9921RT,Stedum,Loppersum,Groningen,VBO,6.696604,53.324267
Hilmaarweg,5,,,9921RT,Stedum,Loppersum,Groningen,VBO,6.696310,53.324358
Hilmaarweg,7,,,9921RT,Stedum,Loppersum,Groningen,VBO,6.696219,53.324394
Hilmaarweg,9,,,9921RT,Stedum,Loppersum,Groningen,VBO,6.696058,53.324459
Hilmaarweg,11,,,9921RT,Stedum,Loppersum,Groningen,VBO,6.695971,53.324496
Borglanden,1,,,9921RV,Stedum,Loppersum,Groningen,VBO,6.696883,53.324542
Borglanden,2,,,9921RV,Stedum,Loppersum,Groningen,VBO,6.696979,53.324236
Borglanden,3,,,9921RV,Stedum,Loppersum,Groningen,VBO,6.696602,53.324646
Borglanden,4,,,9921RV,Stedum,Loppersum,Groningen,VBO,6.697118,53.324387
Borglanden,5,,,9921RV,Stedum,Loppersum,Groningen,VBO,6.696263,53.324747
Borglanden,6,,,9921RV,Stedum,Loppersum,Groningen,VBO,6.697242,53.324511
Borglanden,7,,,9921RV,Stedum,Loppersum,Groningen,VBO,6.695893,53.324941
Borglanden,8,,,9921RV,Stedum,Loppersum,Groningen,VBO,6.697396,53.324635
Borglanden,9,,,9921RV,Stedum,Loppersum,Groningen,VBO,6.695854,53.324895
Borglanden,11,,,9921RV,Stedum,Loppersum,Groningen,VBO,6.695710,53.324768
Borglanden,13,,,9921RV,Stedum,Loppersum,Groningen,VBO,6.695668,53.324718
Borglanden,14,,,9921RV,Stedum,Loppersum,Groningen,VBO,6.696499,53.324927
Dorpsterlanden,2,,,9921RW,Stedum,Loppersum,Groningen,VBO,6.694971,53.323955
Dorpsterlanden,4,,,9921RW,Stedum,Loppersum,Groningen,VBO,6.695026,53.324010
Dorpsterlanden,6,,,9921RW,Stedum,Loppersum,Groningen,VBO,6.695275,53.324252
Dorpsterlanden,8,,,9921RW,Stedum,Loppersum,Groningen,VBO,6.695341,53.324313
Dorpsterlanden,10,,,9921RW,Stedum,Loppersum,Groningen,VBO,6.695402,53.324369
Dorpsterlanden,12,,,9921RW,Stedum,Loppersum,Groningen,VBO,6.695463,53.324432
Bedumerweg,37,,,9921TA,Stedum,Loppersum,Groningen,VBO,6.684594,53.314215
Bedumerweg,39,,,9921TA,Stedum,Loppersum,Groningen,VBO,6.681470,53.315112
Bedumerweg,41,,,9921TA,Stedum,Loppersum,Groningen,VBO,6.679015,53.316306
Bedumerweg,43,,,9921TA,Stedum,Loppersum,Groningen,VBO,6.677089,53.317136
Bedumerweg,45,,,9921TA,Stedum,Loppersum,Groningen,VBO,6.675572,53.317080
Bedumerweg,47,,,9921TA,Stedum,Loppersum,Groningen,VBO,6.675156,53.317741
Lellensterweg,24,,,9921TB,Stedum,Loppersum,Groningen,VBO,6.696623,53.316475
Lellensterweg,26,,,9921TB,Stedum,Loppersum,Groningen,VBO,6.696239,53.316201
Lellensterweg,28,,,9921TB,Stedum,Loppersum,Groningen,VBO,6.696025,53.316059
Lellensterweg,30,,,9921TB,Stedum,Loppersum,Groningen,VBO,6.695841,53.315954
Lellensterweg,32,,,9921TB,Stedum,Loppersum,Groningen,VBO,6.695612,53.315812
Lellensterweg,36,,,9921TB,Stedum,Loppersum,Groningen,VBO,6.690105,53.313832
Lellensterweg,38,,,9921TB,Stedum,Loppersum,Groningen,VBO,6.691930,53.312150
Lellensterweg,40,,,9921TB,Stedum,Loppersum,Groningen,VBO,6.696396,53.310978
Lellensterweg,42,A,,9921TB,Stedum,Loppersum,Groningen,VBO,6.698867,53.309352
Lellensterweg,42,,,9921TB,Stedum,Loppersum,Groningen,VBO,6.697966,53.309829
Lellensterweg,44,,,9921TB,Stedum,Loppersum,Groningen,VBO,6.697933,53.307268
Lellensterweg,46,,,9921TB,Stedum,Loppersum,Groningen,VBO,6.691599,53.302206
Groot Hemerterweg,2,,,9921TC,Stedum,Loppersum,Groningen,VBO,6.714963,53.316067
Lopsterweg,18,,,9921TE,Stedum,Loppersum,Groningen,VBO,6.707051,53.326740
Lopsterweg,20,,,9921TE,Stedum,Loppersum,Groningen,VBO,6.707858,53.327603
Lopsterweg,22,,,9921TE,Stedum,Loppersum,Groningen,VBO,6.708002,53.327021
Delleweg,1,,,9921TG,Stedum,Loppersum,Groningen,VBO,6.725066,53.314736
Delleweg,2,,,9921TG,Stedum,Loppersum,Groningen,VBO,6.704206,53.330878
Delleweg,3,,,9921TG,Stedum,Loppersum,Groningen,VBO,6.726380,53.312603
Delleweg,4,,,9921TG,Stedum,Loppersum,Groningen,VBO,6.704814,53.330656
Delleweg,5,,,9921TG,Stedum,Loppersum,Groningen,VBO,6.691023,53.332271
Delleweg,6,,,9921TG,Stedum,Loppersum,Groningen,VBO,6.689172,53.333109
Delleweg,8,,,9921TG,Stedum,Loppersum,Groningen,VBO,6.682794,53.334679
Delleweg,9,,,9921TG,Stedum,Loppersum,Groningen,VBO,6.687887,53.331838
Delleweg,11,A,,9921TG,Stedum,Loppersum,Groningen,VBO,6.686380,53.331516
Delleweg,13,,,9921TG,Stedum,Loppersum,Groningen,VBO,6.681000,53.333431
Delleweg,15,,,9921TG,Stedum,Loppersum,Groningen,VBO,6.680522,53.333517
Weersterweg,1,,,9921TH,Stedum,Loppersum,Groningen,VBO,6.683423,53.326943
Weersterweg,2,,,9921TH,Stedum,Loppersum,Groningen,VBO,6.686393,53.326579
Weersterweg,3,,,9921TH,Stedum,Loppersum,Groningen,VBO,6.687857,53.328351
Weersterweg,4,,,9921TH,Stedum,Loppersum,Groningen,VBO,6.686472,53.326731
Weersterweg,6,,,9921TH,Stedum,Loppersum,Groningen,VBO,6.686701,53.326836
Weersterweg,8,,,9921TH,Stedum,Loppersum,Groningen,VBO,6.686959,53.326950
Weersterweg,10,,,9921TH,Stedum,Loppersum,Groningen,VBO,6.687142,53.327047
Weersterweg,12,,,9921TH,Stedum,Loppersum,Groningen,VBO,6.687208,53.327226
Weersterweg,14,,,9921TH,Stedum,Loppersum,Groningen,VBO,6.690983,53.329953
Crangeweersterweg,1,,,9921TJ,Stedum,Loppersum,Groningen,VBO,6.665466,53.314331
Crangeweersterweg,2,,,9921TJ,Stedum,Loppersum,Groningen,VBO,6.669875,53.320817
Crangeweersterweg,4,,,9921TJ,Stedum,Loppersum,Groningen,VBO,6.665038,53.319125
Crangeweersterweg,6,,,9921TJ,Stedum,Loppersum,Groningen,VBO,6.657321,53.311713
