openbareruimtenaam,huisnummer,huisletter,huisnummertoevoeging,postcode,woonplaatsnaam,gemeentenaam,provincienaam,typeadresseerbaarobject,longitude,latitude
Hoofdweg,1,,,9939PA,Tjuchem,Slochteren,Groningen,VBO,6.849004,53.277431
Hoofdweg,3,,,9939PA,Tjuchem,Slochteren,Groningen,VBO,6.849442,53.277315
Hoofdweg,5,,,9939PA,Tjuchem,Slochteren,Groningen,VBO,6.850290,53.277268
Hoofdweg,7,,,9939PA,Tjuchem,Slochteren,Groningen,VBO,6.851567,53.277373
Hoofdweg,11,,,9939PA,Tjuchem,Slochteren,Groningen,VBO,6.853253,53.275788
Hoofdweg,13,,TRAF,9939PA,Tjuchem,Slochteren,Groningen,VBO,6.857195,53.278383
Hoofdweg,13,,,9939PA,Tjuchem,Slochteren,Groningen,VBO,6.857417,53.278034
Hoofdweg,17,,,9939PA,Tjuchem,Slochteren,Groningen,VBO,6.861452,53.279325
Hoofdweg,19,,,9939PA,Tjuchem,Slochteren,Groningen,VBO,6.864070,53.279493
Hoofdweg,21,,,9939PA,Tjuchem,Slochteren,Groningen,VBO,6.871757,53.279823
Hoofdweg,23,,,9939PA,Tjuchem,Slochteren,Groningen,VBO,6.873016,53.277342
Hoofdweg,25,,,9939PA,Tjuchem,Slochteren,Groningen,VBO,6.876786,53.279699
Hoofdweg,27,,,9939PA,Tjuchem,Slochteren,Groningen,VBO,6.876970,53.279742
Hoofdweg,29,,,9939PB,Tjuchem,Slochteren,Groningen,VBO,6.877520,53.279886
Hoofdweg,31,,,9939PB,Tjuchem,Slochteren,Groningen,VBO,6.877762,53.280001
Hoofdweg,33,,,9939PB,Tjuchem,Slochteren,Groningen,VBO,6.878209,53.279827
Hoofdweg,35,,,9939PB,Tjuchem,Slochteren,Groningen,VBO,6.878072,53.280157
Hoofdweg,37,,,9939PB,Tjuchem,Slochteren,Groningen,VBO,6.878236,53.280164
Hoofdweg,39,,,9939PB,Tjuchem,Slochteren,Groningen,VBO,6.878398,53.280300
Hoofdweg,41,,,9939PB,Tjuchem,Slochteren,Groningen,VBO,6.878773,53.280453
Hoofdweg,43,,,9939PB,Tjuchem,Slochteren,Groningen,VBO,6.879050,53.280516
Hoofdweg,45,,,9939PB,Tjuchem,Slochteren,Groningen,VBO,6.879289,53.280560
Hoofdweg,47,,,9939PB,Tjuchem,Slochteren,Groningen,VBO,6.879481,53.280590
Hoofdweg,49,,,9939PB,Tjuchem,Slochteren,Groningen,VBO,6.879671,53.280575
Hoofdweg,51,,,9939PB,Tjuchem,Slochteren,Groningen,VBO,6.879857,53.279778
Hoofdweg,55,,,9939PC,Tjuchem,Slochteren,Groningen,VBO,6.879868,53.280653
Hoofdweg,57,A,,9939PC,Tjuchem,Slochteren,Groningen,VBO,6.880344,53.280651
Hoofdweg,57,B,,9939PC,Tjuchem,Slochteren,Groningen,VBO,6.881160,53.279956
Hoofdweg,57,,,9939PC,Tjuchem,Slochteren,Groningen,VBO,6.880074,53.280684
Hoofdweg,59,,,9939PC,Tjuchem,Slochteren,Groningen,VBO,6.880933,53.280402
Hoofdweg,63,,,9939PC,Tjuchem,Slochteren,Groningen,VBO,6.881352,53.280281
Hoofdweg,65,A,,9939PC,Tjuchem,Slochteren,Groningen,VBO,6.881313,53.278918
Hoofdweg,65,,,9939PC,Tjuchem,Slochteren,Groningen,VBO,6.881361,53.280174
Hoofdweg,67,,,9939PC,Tjuchem,Slochteren,Groningen,VBO,6.882950,53.279534
Hoofdweg,69,,,9939PC,Tjuchem,Slochteren,Groningen,VBO,6.883603,53.279675
Hoofdweg,71,,,9939PC,Tjuchem,Slochteren,Groningen,VBO,6.883919,53.279703
Hoofdweg,73,A,,9939PC,Tjuchem,Slochteren,Groningen,VBO,6.884487,53.279805
Hoofdweg,73,,,9939PC,Tjuchem,Slochteren,Groningen,VBO,6.884220,53.279755
Hoofdweg,75,,,9939PC,Tjuchem,Slochteren,Groningen,VBO,6.885234,53.279496
Hoofdweg,77,,,9939PC,Tjuchem,Slochteren,Groningen,VBO,6.884786,53.279856
Hoofdweg,79,,,9939PC,Tjuchem,Slochteren,Groningen,VBO,6.884867,53.279866
Hoofdweg,81,,,9939PC,Tjuchem,Slochteren,Groningen,VBO,6.885030,53.279903
Hoofdweg,83,,,9939PC,Tjuchem,Slochteren,Groningen,VBO,6.885107,53.279912
Hoofdweg,85,,GEMA,9939PC,Tjuchem,Slochteren,Groningen,VBO,6.886555,53.280241
Hoofdweg,85,,,9939PC,Tjuchem,Slochteren,Groningen,VBO,6.885483,53.279919
Hoofdweg,2,,,9939PD,Tjuchem,Slochteren,Groningen,VBO,6.844051,53.278055
Hoofdweg,6,,,9939PD,Tjuchem,Slochteren,Groningen,VBO,6.849610,53.277649
Hoofdweg,8,,,9939PD,Tjuchem,Slochteren,Groningen,VBO,6.850689,53.277657
Hoofdweg,10,,,9939PD,Tjuchem,Slochteren,Groningen,VBO,6.851592,53.277705
Hoofdweg,12,,,9939PD,Tjuchem,Slochteren,Groningen,VBO,6.853059,53.277667
Hoofdweg,14,,,9939PD,Tjuchem,Slochteren,Groningen,VBO,6.854778,53.277914
Hoofdweg,16,,TRAF,9939PD,Tjuchem,Slochteren,Groningen,VBO,6.904854,53.270225
Hoofdweg,16,,,9939PD,Tjuchem,Slochteren,Groningen,VBO,6.859412,53.279449
Hoofdweg,18,,,9939PD,Tjuchem,Slochteren,Groningen,VBO,6.860026,53.279551
Hoofdweg,20,,,9939PD,Tjuchem,Slochteren,Groningen,VBO,6.860674,53.279562
Hoofdweg,22,,TRAF,9939PD,Tjuchem,Slochteren,Groningen,VBO,6.864394,53.282344
Hoofdweg,22,,,9939PD,Tjuchem,Slochteren,Groningen,VBO,6.862100,53.280696
Hoofdweg,24,,,9939PD,Tjuchem,Slochteren,Groningen,VBO,6.866516,53.280053
Hoofdweg,26,,,9939PD,Tjuchem,Slochteren,Groningen,VBO,6.868863,53.280140
Hoofdweg,28,,,9939PD,Tjuchem,Slochteren,Groningen,VBO,6.875507,53.280021
Hoofdweg,30,,TRAF,9939PD,Tjuchem,Slochteren,Groningen,VBO,6.877805,53.280287
Hoofdweg,30,,,9939PD,Tjuchem,Slochteren,Groningen,VBO,6.876862,53.280401
Hoofdweg,32,,,9939PE,Tjuchem,Slochteren,Groningen,VBO,6.878130,53.280594
Hoofdweg,34,A,,9939PE,Tjuchem,Slochteren,Groningen,VBO,6.878672,53.280685
Hoofdweg,34,B,,9939PE,Tjuchem,Slochteren,Groningen,VBO,6.878886,53.280721
Hoofdweg,34,C,,9939PE,Tjuchem,Slochteren,Groningen,VBO,6.879063,53.280750
Hoofdweg,34,D,,9939PE,Tjuchem,Slochteren,Groningen,VBO,6.879284,53.280787
Hoofdweg,34,E,,9939PE,Tjuchem,Slochteren,Groningen,VBO,6.879508,53.280824
Hoofdweg,34,,,9939PE,Tjuchem,Slochteren,Groningen,VBO,6.878302,53.280623
Hoofdweg,36,,,9939PE,Tjuchem,Slochteren,Groningen,VBO,6.879965,53.281015
Hoofdweg,38,,,9939PE,Tjuchem,Slochteren,Groningen,VBO,6.880725,53.281025
Hoofdweg,40,,,9939PE,Tjuchem,Slochteren,Groningen,VBO,6.881118,53.280953
Hoofdweg,42,,,9939PE,Tjuchem,Slochteren,Groningen,VBO,6.881303,53.280894
Hoofdweg,44,,,9939PE,Tjuchem,Slochteren,Groningen,VBO,6.881457,53.280802
Hoofdweg,46,,,9939PE,Tjuchem,Slochteren,Groningen,VBO,6.881959,53.280606
Koopmanslaan,1,,,9939PG,Tjuchem,Slochteren,Groningen,VBO,6.877172,53.279452
Koopmanslaan,2,,,9939PG,Tjuchem,Slochteren,Groningen,VBO,6.877576,53.279483
Koopmanslaan,3,,,9939PG,Tjuchem,Slochteren,Groningen,VBO,6.877229,53.279342
Koopmanslaan,4,,,9939PG,Tjuchem,Slochteren,Groningen,VBO,6.877627,53.279381
Koopmanslaan,5,,,9939PG,Tjuchem,Slochteren,Groningen,VBO,6.877308,53.279216
Koopmanslaan,6,,,9939PG,Tjuchem,Slochteren,Groningen,VBO,6.877679,53.279278
Koopmanslaan,7,,,9939PG,Tjuchem,Slochteren,Groningen,VBO,6.877365,53.279105
Koopmanslaan,8,,,9939PG,Tjuchem,Slochteren,Groningen,VBO,6.877731,53.279174
Koopmanslaan,9,,,9939PG,Tjuchem,Slochteren,Groningen,VBO,6.877405,53.278974
Koopmanslaan,10,,,9939PG,Tjuchem,Slochteren,Groningen,VBO,6.877957,53.279060
Koopmanslaan,11,,,9939PG,Tjuchem,Slochteren,Groningen,VBO,6.877463,53.278864
Koopmanslaan,12,,,9939PG,Tjuchem,Slochteren,Groningen,VBO,6.878311,53.279225
Koopmanslaan,13,,,9939PG,Tjuchem,Slochteren,Groningen,VBO,6.877447,53.278683
Koopmanslaan,14,,,9939PG,Tjuchem,Slochteren,Groningen,VBO,6.878471,53.279253
Koopmanslaan,15,,,9939PG,Tjuchem,Slochteren,Groningen,VBO,6.877284,53.278620
Koopmanslaan,16,,,9939PG,Tjuchem,Slochteren,Groningen,VBO,6.878576,53.279373
Koopmanslaan,18,,,9939PG,Tjuchem,Slochteren,Groningen,VBO,6.878679,53.279388
Koopmanslaan,20,,,9939PG,Tjuchem,Slochteren,Groningen,VBO,6.878810,53.279508
Koopmanslaan,22,,,9939PG,Tjuchem,Slochteren,Groningen,VBO,6.878910,53.279525
Oude Heemweg,1,,,9939PH,Tjuchem,Slochteren,Groningen,VBO,6.879546,53.290949
Kooilaan,1,,,9939TA,Tjuchem,Slochteren,Groningen,VBO,6.874652,53.277491
Kooilaan,2,,,9939TA,Tjuchem,Slochteren,Groningen,VBO,6.875601,53.269516
Kooilaan,3,,,9939TA,Tjuchem,Slochteren,Groningen,VBO,6.874451,53.274659
Kooilaan,5,,,9939TA,Tjuchem,Slochteren,Groningen,VBO,6.874841,53.274027
Afwateringskanaal,2,,,9939TB,Tjuchem,Slochteren,Groningen,VBO,6.877247,53.277655
Afwateringskanaal,4,,,9939TB,Tjuchem,Slochteren,Groningen,VBO,6.873734,53.276749
Afwateringskanaal,6,,,9939TB,Tjuchem,Slochteren,Groningen,VBO,6.868252,53.274729
Afwateringskanaal,8,,,9939TB,Tjuchem,Slochteren,Groningen,VBO,6.866286,53.274671
Afwateringskanaal,10,,,9939TB,Tjuchem,Slochteren,Groningen,VBO,6.864525,53.274854
Afwateringskanaal,12,,,9939TB,Tjuchem,Slochteren,Groningen,VBO,6.863126,53.274845
Afwateringskanaal,16,,,9939TB,Tjuchem,Slochteren,Groningen,VBO,6.857627,53.273929
Afwateringskanaal,18,,,9939TB,Tjuchem,Slochteren,Groningen,VBO,6.855667,53.273534
Weereweg,1,,,9939TC,Tjuchem,Slochteren,Groningen,VBO,6.886227,53.279541
Weereweg,5,,,9939TC,Tjuchem,Slochteren,Groningen,VBO,6.887028,53.279224
Weereweg,11,,,9939TC,Tjuchem,Slochteren,Groningen,VBO,6.890825,53.279065
Weereweg,13,,,9939TC,Tjuchem,Slochteren,Groningen,VBO,6.893267,53.279176
Weereweg,15,,,9939TC,Tjuchem,Slochteren,Groningen,VBO,6.893636,53.279185
Weereweg,17,,TRAF,9939TC,Tjuchem,Slochteren,Groningen,VBO,6.894470,53.279225
Weereweg,17,,,9939TC,Tjuchem,Slochteren,Groningen,VBO,6.894250,53.279202
Weereweg,19,,,9939TC,Tjuchem,Slochteren,Groningen,VBO,6.895947,53.279103
Weereweg,21,,,9939TC,Tjuchem,Slochteren,Groningen,VBO,6.898256,53.279075
Weereweg,23,,,9939TC,Tjuchem,Slochteren,Groningen,VBO,6.900570,53.278929
Weereweg,25,A,,9939TC,Tjuchem,Slochteren,Groningen,VBO,6.903868,53.278995
Weereweg,25,,,9939TC,Tjuchem,Slochteren,Groningen,VBO,6.901973,53.278853
Weereweg,27,,,9939TC,Tjuchem,Slochteren,Groningen,VBO,6.905227,53.279069
Wilderhofsterweg,1,,,9939TD,Tjuchem,Slochteren,Groningen,VBO,6.904826,53.274575
Wilderhofsterweg,2,,,9939TD,Tjuchem,Slochteren,Groningen,VBO,6.906055,53.276090
Wilderhofsterweg,3,,,9939TD,Tjuchem,Slochteren,Groningen,VBO,6.904750,53.274226
Wilderhofsterweg,4,,,9939TD,Tjuchem,Slochteren,Groningen,VBO,6.905370,53.275782
Wilderhofsterweg,5,,,9939TD,Tjuchem,Slochteren,Groningen,VBO,6.904422,53.271494
Wilderhofsterweg,6,,,9939TD,Tjuchem,Slochteren,Groningen,VBO,6.905409,53.275021
Wilderhofsterweg,7,,,9939TD,Tjuchem,Slochteren,Groningen,VBO,6.904323,53.270652
Wilderhofsterweg,8,,,9939TD,Tjuchem,Slochteren,Groningen,VBO,6.906983,53.273807
Wilderhofsterweg,9,,,9939TD,Tjuchem,Slochteren,Groningen,VBO,6.904720,53.267810
Wilderhofsterweg,10,,,9939TD,Tjuchem,Slochteren,Groningen,VBO,6.905108,53.273618
Wilderhofsterweg,11,,,9939TD,Tjuchem,Slochteren,Groningen,VBO,6.907497,53.267688
Wilderhofsterweg,12,,,9939TD,Tjuchem,Slochteren,Groningen,VBO,6.904920,53.272294
Wilderhofsterweg,13,,,9939TD,Tjuchem,Slochteren,Groningen,VBO,6.908185,53.268075
Wilderhofsterweg,14,,,9939TD,Tjuchem,Slochteren,Groningen,VBO,6.904929,53.272064
Wilderhofsterweg,15,,,9939TD,Tjuchem,Slochteren,Groningen,VBO,6.908078,53.268492
Wilderhofsterweg,16,,,9939TD,Tjuchem,Slochteren,Groningen,VBO,6.905022,53.270758
Wilderhofsterweg,18,,,9939TD,Tjuchem,Slochteren,Groningen,VBO,6.904663,53.270078
Wilderhofsterweg,20,,,9939TD,Tjuchem,Slochteren,Groningen,VBO,6.904475,53.268132
