openbareruimtenaam,huisnummer,huisletter,huisnummertoevoeging,postcode,woonplaatsnaam,gemeentenaam,provincienaam,typeadresseerbaarobject,longitude,latitude
Hamrikkerweg,15,,,9943PA,Nieuw Scheemda,Oldambt,Groningen,VBO,6.941694,53.208148
Hamrikkerweg,17,,,9943PA,Nieuw Scheemda,Oldambt,Groningen,VBO,6.941985,53.209178
Hamrikkerweg,19,,,9943PA,Nieuw Scheemda,Oldambt,Groningen,VBO,6.941991,53.209348
Hamrikkerweg,25,,,9943PA,Nieuw Scheemda,Oldambt,Groningen,VBO,6.942198,53.209678
Hamrikkerweg,27,,,9943PA,Nieuw Scheemda,Oldambt,Groningen,VBO,6.942557,53.210087
Hamrikkerweg,29,,,9943PA,Nieuw Scheemda,Oldambt,Groningen,VBO,6.942583,53.210815
Hamrikkerweg,31,,,9943PA,Nieuw Scheemda,Oldambt,Groningen,VBO,6.942029,53.211658
Hamrikkerweg,33,,,9943PA,Nieuw Scheemda,Oldambt,Groningen,VBO,6.942147,53.212007
Hamrikkerweg,37,,,9943PA,Nieuw Scheemda,Oldambt,Groningen,VBO,6.942198,53.212195
Hamrikkerweg,39,,,9943PA,Nieuw Scheemda,Oldambt,Groningen,VBO,6.942278,53.212328
Hamrikkerweg,41,,,9943PA,Nieuw Scheemda,Oldambt,Groningen,VBO,6.942327,53.212436
Hamrikkerweg,53,,,9943PA,Nieuw Scheemda,Oldambt,Groningen,VBO,6.942390,53.215850
Hamrikkerweg,55,A,,9943PA,Nieuw Scheemda,Oldambt,Groningen,VBO,6.942550,53.216383
Hamrikkerweg,55,B,,9943PA,Nieuw Scheemda,Oldambt,Groningen,VBO,6.941686,53.216272
Hamrikkerweg,55,,,9943PA,Nieuw Scheemda,Oldambt,Groningen,VBO,6.942190,53.216131
Hamrikkerweg,57,,,9943PA,Nieuw Scheemda,Oldambt,Groningen,VBO,6.939799,53.217905
Hamrikkerweg,59,,,9943PA,Nieuw Scheemda,Oldambt,Groningen,VBO,6.939515,53.217936
Hamrikkerweg,36,,,9943PB,Nieuw Scheemda,Oldambt,Groningen,VBO,6.941421,53.208879
Hamrikkerweg,38,,,9943PB,Nieuw Scheemda,Oldambt,Groningen,VBO,6.941486,53.209040
Hamrikkerweg,40,,,9943PB,Nieuw Scheemda,Oldambt,Groningen,VBO,6.941564,53.209129
Hamrikkerweg,42,,,9943PB,Nieuw Scheemda,Oldambt,Groningen,VBO,6.941610,53.209302
Hamrikkerweg,46,,,9943PB,Nieuw Scheemda,Oldambt,Groningen,VBO,6.941673,53.209649
Hamrikkerweg,48,,,9943PB,Nieuw Scheemda,Oldambt,Groningen,VBO,6.941705,53.209721
Hamrikkerweg,52,,,9943PB,Nieuw Scheemda,Oldambt,Groningen,VBO,6.941696,53.209882
Hamrikkerweg,54,A,,9943PB,Nieuw Scheemda,Oldambt,Groningen,VBO,6.941604,53.210098
Hamrikkerweg,54,,,9943PB,Nieuw Scheemda,Oldambt,Groningen,VBO,6.941432,53.210042
Hamrikkerweg,56,,,9943PB,Nieuw Scheemda,Oldambt,Groningen,VBO,6.941695,53.210269
Hamrikkerweg,58,,,9943PB,Nieuw Scheemda,Oldambt,Groningen,VBO,6.941733,53.210484
Hamrikkerweg,60,,,9943PB,Nieuw Scheemda,Oldambt,Groningen,VBO,6.941783,53.210636
Hamrikkerweg,62,,,9943PB,Nieuw Scheemda,Oldambt,Groningen,VBO,6.941759,53.210789
Hamrikkerweg,66,,,9943PC,Nieuw Scheemda,Oldambt,Groningen,VBO,6.941777,53.210879
Hamrikkerweg,70,,,9943PC,Nieuw Scheemda,Oldambt,Groningen,VBO,6.941827,53.211022
Hamrikkerweg,74,,,9943PC,Nieuw Scheemda,Oldambt,Groningen,VBO,6.941801,53.211148
Hamrikkerweg,76,,,9943PC,Nieuw Scheemda,Oldambt,Groningen,VBO,6.941790,53.211238
Hamrikkerweg,80,,,9943PC,Nieuw Scheemda,Oldambt,Groningen,VBO,6.941887,53.212289
Hamrikkerweg,82,,,9943PC,Nieuw Scheemda,Oldambt,Groningen,VBO,6.941938,53.212441
Hamrikkerweg,84,,,9943PC,Nieuw Scheemda,Oldambt,Groningen,VBO,6.942077,53.212556
Hamrikkerweg,88,,,9943PC,Nieuw Scheemda,Oldambt,Groningen,VBO,6.941965,53.213600
Hamrikkerweg,90,,,9943PC,Nieuw Scheemda,Oldambt,Groningen,VBO,6.941952,53.213672
Hamrikkerweg,94,,,9943PC,Nieuw Scheemda,Oldambt,Groningen,VBO,6.941945,53.213887
Hamrikkerweg,96,A,,9943PC,Nieuw Scheemda,Oldambt,Groningen,VBO,6.941636,53.214053
Hamrikkerweg,98,,,9943PC,Nieuw Scheemda,Oldambt,Groningen,VBO,6.941261,53.214468
Hamrikkerweg,100,,,9943PD,Nieuw Scheemda,Oldambt,Groningen,VBO,6.941709,53.215131
Hamrikkerweg,104,,,9943PD,Nieuw Scheemda,Oldambt,Groningen,VBO,6.941865,53.215475
Hamrikkerweg,106,,,9943PD,Nieuw Scheemda,Oldambt,Groningen,VBO,6.941715,53.215738
Hamrikkerweg,108,,,9943PD,Nieuw Scheemda,Oldambt,Groningen,VBO,6.941585,53.215851
Hamrikkerweg,110,,,9943PD,Nieuw Scheemda,Oldambt,Groningen,VBO,6.941452,53.216015
Hamrikkerweg,114,,,9943PD,Nieuw Scheemda,Oldambt,Groningen,VBO,6.941085,53.216061
Hamrikkerweg,116,,,9943PD,Nieuw Scheemda,Oldambt,Groningen,VBO,6.940944,53.216435
Hamrikkerweg,118,A,,9943PD,Nieuw Scheemda,Oldambt,Groningen,VBO,6.940358,53.216802
Hamrikkerweg,118,,,9943PD,Nieuw Scheemda,Oldambt,Groningen,VBO,6.940621,53.216628
Hamrikkerweg,120,,,9943PD,Nieuw Scheemda,Oldambt,Groningen,VBO,6.940099,53.217102
Hamrikkerweg,122,,,9943PD,Nieuw Scheemda,Oldambt,Groningen,VBO,6.939804,53.217231
Hamrikkerweg,124,,,9943PD,Nieuw Scheemda,Oldambt,Groningen,VBO,6.939648,53.217458
Hamrikkerweg,126,,,9943PD,Nieuw Scheemda,Oldambt,Groningen,VBO,6.939340,53.217651
Hamrikkerweg,128,,,9943PD,Nieuw Scheemda,Oldambt,Groningen,VBO,6.939121,53.217788
Hamrikkerweg,130,,,9943PD,Nieuw Scheemda,Oldambt,Groningen,VBO,6.938387,53.217789
Hamrikkerweg,132,,,9943PD,Nieuw Scheemda,Oldambt,Groningen,VBO,6.937401,53.219105
Kerkwijk,1,,,9943PE,Nieuw Scheemda,Oldambt,Groningen,VBO,6.942373,53.209559
Kerkwijk,3,A,,9943PE,Nieuw Scheemda,Oldambt,Groningen,VBO,6.942469,53.209288
Kerkwijk,3,,,9943PE,Nieuw Scheemda,Oldambt,Groningen,VBO,6.942507,53.209539
Kerkwijk,5,,,9943PE,Nieuw Scheemda,Oldambt,Groningen,VBO,6.942665,53.209358
Kerkwijk,7,,,9943PE,Nieuw Scheemda,Oldambt,Groningen,VBO,6.943729,53.209188
Kerkwijk,9,,,9943PE,Nieuw Scheemda,Oldambt,Groningen,VBO,6.943810,53.209325
Kerkwijk,11,,,9943PE,Nieuw Scheemda,Oldambt,Groningen,VBO,6.944354,53.209282
Kerkwijk,13,,,9943PE,Nieuw Scheemda,Oldambt,Groningen,VBO,6.944636,53.209224
Kerkwijk,15,,,9943PE,Nieuw Scheemda,Oldambt,Groningen,VBO,6.944841,53.209078
Kerkwijk,17,,,9943PE,Nieuw Scheemda,Oldambt,Groningen,VBO,6.945067,53.209129
Kerkwijk,39,,,9943PG,Nieuw Scheemda,Oldambt,Groningen,VBO,6.945500,53.209096
Kerkwijk,41,,,9943PG,Nieuw Scheemda,Oldambt,Groningen,VBO,6.945858,53.209047
Kerkwijk,43,A,,9943PG,Nieuw Scheemda,Oldambt,Groningen,VBO,6.946008,53.208304
Kerkwijk,43,,,9943PG,Nieuw Scheemda,Oldambt,Groningen,VBO,6.946200,53.209006
Kerkwijk,45,A,,9943PG,Nieuw Scheemda,Oldambt,Groningen,VBO,6.945956,53.208030
Kerkwijk,45,,,9943PG,Nieuw Scheemda,Oldambt,Groningen,VBO,6.946312,53.207935
Kerkwijk,47,,,9943PG,Nieuw Scheemda,Oldambt,Groningen,VBO,6.946405,53.208455
Kerkwijk,49,,,9943PG,Nieuw Scheemda,Oldambt,Groningen,VBO,6.946557,53.208939
Kerkwijk,51,,,9943PG,Nieuw Scheemda,Oldambt,Groningen,VBO,6.946884,53.208871
Kerkwijk,53,A,,9943PG,Nieuw Scheemda,Oldambt,Groningen,VBO,6.946573,53.207816
Kerkwijk,53,,,9943PG,Nieuw Scheemda,Oldambt,Groningen,VBO,6.946689,53.208164
Kerkwijk,55,A,,9943PG,Nieuw Scheemda,Oldambt,Groningen,VBO,6.947020,53.207578
Kerkwijk,55,,,9943PG,Nieuw Scheemda,Oldambt,Groningen,VBO,6.947066,53.208114
Kerkwijk,57,,,9943PG,Nieuw Scheemda,Oldambt,Groningen,VBO,6.947228,53.208867
Kerkwijk,59,,,9943PG,Nieuw Scheemda,Oldambt,Groningen,VBO,6.947597,53.208852
Kerkwijk,2,,,9943PH,Nieuw Scheemda,Oldambt,Groningen,VBO,6.943753,53.209631
Kerkwijk,6,,,9943PH,Nieuw Scheemda,Oldambt,Groningen,VBO,6.944318,53.209516
Kerkwijk,8,,,9943PH,Nieuw Scheemda,Oldambt,Groningen,VBO,6.944407,53.209506
Kerkwijk,10,,,9943PH,Nieuw Scheemda,Oldambt,Groningen,VBO,6.944646,53.209494
Kerkwijk,12,,,9943PH,Nieuw Scheemda,Oldambt,Groningen,VBO,6.945241,53.209378
Kerkwijk,14,,,9943PH,Nieuw Scheemda,Oldambt,Groningen,VBO,6.945331,53.209395
Kerkwijk,16,,,9943PH,Nieuw Scheemda,Oldambt,Groningen,VBO,6.945406,53.209385
Kerkwijk,18,,,9943PH,Nieuw Scheemda,Oldambt,Groningen,VBO,6.945525,53.209365
Kerkwijk,20,,,9943PH,Nieuw Scheemda,Oldambt,Groningen,VBO,6.945599,53.209356
Kerkwijk,22,A,,9943PH,Nieuw Scheemda,Oldambt,Groningen,VBO,6.945912,53.209307
Kerkwijk,22,B,,9943PH,Nieuw Scheemda,Oldambt,Groningen,VBO,6.946001,53.209296
Kerkwijk,22,C,,9943PH,Nieuw Scheemda,Oldambt,Groningen,VBO,6.946105,53.209277
Kerkwijk,22,D,,9943PH,Nieuw Scheemda,Oldambt,Groningen,VBO,6.946194,53.209231
Kerkwijk,22,,,9943PH,Nieuw Scheemda,Oldambt,Groningen,VBO,6.945778,53.209326
Kerkwijk,24,,,9943PJ,Nieuw Scheemda,Oldambt,Groningen,VBO,6.946432,53.209210
Kerkwijk,26,,,9943PJ,Nieuw Scheemda,Oldambt,Groningen,VBO,6.946507,53.209209
Kerkwijk,28,,,9943PJ,Nieuw Scheemda,Oldambt,Groningen,VBO,6.946701,53.209188
Kerkwijk,30,,,9943PJ,Nieuw Scheemda,Oldambt,Groningen,VBO,6.946805,53.209178
Kerkwijk,32,,,9943PJ,Nieuw Scheemda,Oldambt,Groningen,VBO,6.946954,53.209149
Kerkwijk,34,,,9943PJ,Nieuw Scheemda,Oldambt,Groningen,VBO,6.947074,53.209148
Kerkwijk,36,,,9943PJ,Nieuw Scheemda,Oldambt,Groningen,VBO,6.947421,53.209137
Kerkwijk,38,,,9943PJ,Nieuw Scheemda,Oldambt,Groningen,VBO,6.947661,53.209123
Zijldieppad,2,,,9943PK,Nieuw Scheemda,Oldambt,Groningen,VBO,6.947685,53.208241
Zijldieppad,4,A,,9943PK,Nieuw Scheemda,Oldambt,Groningen,VBO,6.947728,53.209375
Zijldieppad,4,,,9943PK,Nieuw Scheemda,Oldambt,Groningen,VBO,6.947699,53.208627
Zijldieppad,6,,,9943PK,Nieuw Scheemda,Oldambt,Groningen,VBO,6.948087,53.210507
Karspellaan,1,,,9943PL,Nieuw Scheemda,Oldambt,Groningen,VBO,6.943010,53.209371
Karspellaan,2,,,9943PL,Nieuw Scheemda,Oldambt,Groningen,VBO,6.943438,53.209213
Karspellaan,3,,,9943PL,Nieuw Scheemda,Oldambt,Groningen,VBO,6.942978,53.209318
Karspellaan,4,,,9943PL,Nieuw Scheemda,Oldambt,Groningen,VBO,6.943422,53.209159
Karspellaan,5,,,9943PL,Nieuw Scheemda,Oldambt,Groningen,VBO,6.942931,53.209264
Karspellaan,6,,,9943PL,Nieuw Scheemda,Oldambt,Groningen,VBO,6.943390,53.209106
Karspellaan,7,,,9943PL,Nieuw Scheemda,Oldambt,Groningen,VBO,6.942929,53.209210
Karspellaan,8,,,9943PL,Nieuw Scheemda,Oldambt,Groningen,VBO,6.943358,53.209052
Karspellaan,9,,,9943PL,Nieuw Scheemda,Oldambt,Groningen,VBO,6.942912,53.209148
Karspellaan,10,,,9943PL,Nieuw Scheemda,Oldambt,Groningen,VBO,6.943341,53.208998
Karspellaan,11,,,9943PL,Nieuw Scheemda,Oldambt,Groningen,VBO,6.942892,53.208995
Karspellaan,12,,,9943PL,Nieuw Scheemda,Oldambt,Groningen,VBO,6.943278,53.208900
Karspellaan,14,,,9943PL,Nieuw Scheemda,Oldambt,Groningen,VBO,6.943276,53.208855
Karspellaan,16,,,9943PL,Nieuw Scheemda,Oldambt,Groningen,VBO,6.943259,53.208802
Karspellaan,18,,,9943PL,Nieuw Scheemda,Oldambt,Groningen,VBO,6.943197,53.208749
Karspellaan,20,,,9943PL,Nieuw Scheemda,Oldambt,Groningen,VBO,6.943180,53.208686
Oude Diepje,2,,,9943PM,Nieuw Scheemda,Oldambt,Groningen,VBO,6.939104,53.218166
Oude Diepje,4,,,9943PM,Nieuw Scheemda,Oldambt,Groningen,VBO,6.939592,53.218393
Oude Diepje,6,,,9943PM,Nieuw Scheemda,Oldambt,Groningen,VBO,6.939713,53.218446
Oude Diepje,8,,,9943PM,Nieuw Scheemda,Oldambt,Groningen,VBO,6.940005,53.218640
Oude Diepje,10,,,9943PM,Nieuw Scheemda,Oldambt,Groningen,VBO,6.940323,53.218752
Oude Diepje,12,,,9943PM,Nieuw Scheemda,Oldambt,Groningen,VBO,6.940613,53.218910
Oude Diepje,14,,,9943PM,Nieuw Scheemda,Oldambt,Groningen,VBO,6.940735,53.218963
Oude Diepje,16,,,9943PM,Nieuw Scheemda,Oldambt,Groningen,VBO,6.940872,53.219033
Oude Diepje,18,,,9943PM,Nieuw Scheemda,Oldambt,Groningen,VBO,6.941009,53.219094
Oude Diepje,20,,,9943PM,Nieuw Scheemda,Oldambt,Groningen,VBO,6.941571,53.219422
Katerslaan,1,,,9943PN,Nieuw Scheemda,Oldambt,Groningen,VBO,6.945096,53.208688
Katerslaan,2,,,9943PN,Nieuw Scheemda,Oldambt,Groningen,VBO,6.945381,53.208693
Katerslaan,3,,,9943PN,Nieuw Scheemda,Oldambt,Groningen,VBO,6.945029,53.208473
Katerslaan,4,,,9943PN,Nieuw Scheemda,Oldambt,Groningen,VBO,6.945296,53.208416
Katerslaan,5,,,9943PN,Nieuw Scheemda,Oldambt,Groningen,VBO,6.944995,53.208384
Katerslaan,6,,,9943PN,Nieuw Scheemda,Oldambt,Groningen,VBO,6.945149,53.208076
Katerslaan,7,,,9943PN,Nieuw Scheemda,Oldambt,Groningen,VBO,6.944902,53.208286
Katerslaan,9,,,9943PN,Nieuw Scheemda,Oldambt,Groningen,VBO,6.944899,53.208214
Katerslaan,11,,,9943PN,Nieuw Scheemda,Oldambt,Groningen,VBO,6.944830,53.207955
Hamrikkerweg,1,,,9943TA,Nieuw Scheemda,Oldambt,Groningen,VBO,6.927399,53.195930
Hamrikkerweg,3,,,9943TA,Nieuw Scheemda,Oldambt,Groningen,VBO,6.927350,53.197394
Hamrikkerweg,5,,,9943TA,Nieuw Scheemda,Oldambt,Groningen,VBO,6.928810,53.198635
Hamrikkerweg,7,A,,9943TA,Nieuw Scheemda,Oldambt,Groningen,VBO,6.929195,53.198813
Hamrikkerweg,7,,,9943TA,Nieuw Scheemda,Oldambt,Groningen,VBO,6.929704,53.198956
Hamrikkerweg,9,,,9943TA,Nieuw Scheemda,Oldambt,Groningen,VBO,6.938171,53.204009
Hamrikkerweg,11,,,9943TA,Nieuw Scheemda,Oldambt,Groningen,VBO,6.938786,53.204708
Hamrikkerweg,13,,,9943TA,Nieuw Scheemda,Oldambt,Groningen,VBO,6.941754,53.207320
Hamrikkerweg,2,,,9943TB,Nieuw Scheemda,Oldambt,Groningen,VBO,6.925220,53.194752
Hamrikkerweg,4,,,9943TB,Nieuw Scheemda,Oldambt,Groningen,VBO,6.925387,53.194959
Hamrikkerweg,14,,,9943TB,Nieuw Scheemda,Oldambt,Groningen,VBO,6.932079,53.201334
Hamrikkerweg,18,,,9943TB,Nieuw Scheemda,Oldambt,Groningen,VBO,6.921317,53.207160
Hamrikkerweg,24,,,9943TB,Nieuw Scheemda,Oldambt,Groningen,VBO,6.934004,53.201992
Hamrikkerweg,26,,,9943TB,Nieuw Scheemda,Oldambt,Groningen,VBO,6.934278,53.202142
Hamrikkerweg,28,,,9943TB,Nieuw Scheemda,Oldambt,Groningen,VBO,6.934339,53.202168
Hamrikkerweg,30,,,9943TB,Nieuw Scheemda,Oldambt,Groningen,VBO,6.934735,53.203187
Hamrikkerweg,32,,,9943TB,Nieuw Scheemda,Oldambt,Groningen,VBO,6.936917,53.203941
Hamrikkerweg,34,,,9943TB,Nieuw Scheemda,Oldambt,Groningen,VBO,6.939393,53.206636
Boneschans,1,,,9943TC,Nieuw Scheemda,Oldambt,Groningen,VBO,6.939726,53.204624
Boneschans,3,,,9943TC,Nieuw Scheemda,Oldambt,Groningen,VBO,6.940327,53.204688
Boneschans,7,,,9943TC,Nieuw Scheemda,Oldambt,Groningen,VBO,6.940440,53.204093
Boneschans,9,,,9943TC,Nieuw Scheemda,Oldambt,Groningen,VBO,6.940168,53.204025
Hamrikkerweg,86,,,9943TC,Nieuw Scheemda,Oldambt,Groningen,VBO,6.939701,53.212676
Rechtewalsterweg,2,,,9943TD,Nieuw Scheemda,Oldambt,Groningen,VBO,6.937349,53.219267
Rechtewalsterweg,3,,,9943TD,Nieuw Scheemda,Oldambt,Groningen,VBO,6.930462,53.216658
Rechtewalsterweg,4,,,9943TD,Nieuw Scheemda,Oldambt,Groningen,VBO,6.937067,53.218965
Rechtewalsterweg,6,,,9943TD,Nieuw Scheemda,Oldambt,Groningen,VBO,6.934539,53.217803
Rechtewalsterweg,8,,,9943TD,Nieuw Scheemda,Oldambt,Groningen,VBO,6.933817,53.217273
Zwaagweg,1,,,9943TE,Nieuw Scheemda,Oldambt,Groningen,VBO,6.922149,53.238236
Zwaagweg,2,A,,9943TE,Nieuw Scheemda,Oldambt,Groningen,VBO,6.934226,53.223135
Pastorieweg,2,,,9943TG,Nieuw Scheemda,Oldambt,Groningen,VBO,6.949344,53.198933
Pastorieweg,4,A,,9943TG,Nieuw Scheemda,Oldambt,Groningen,VBO,6.949099,53.199588
Pastorieweg,4,,,9943TG,Nieuw Scheemda,Oldambt,Groningen,VBO,6.949116,53.199801
Pastorieweg,6,,,9943TG,Nieuw Scheemda,Oldambt,Groningen,VBO,6.948206,53.204010
Pastorieweg,8,,,9943TG,Nieuw Scheemda,Oldambt,Groningen,VBO,6.948956,53.211109
Pastorieweg,10,,,9943TG,Nieuw Scheemda,Oldambt,Groningen,VBO,6.950064,53.214851
Pastorieweg,12,A,,9943TG,Nieuw Scheemda,Oldambt,Groningen,VBO,6.953081,53.220813
Pastorieweg,12,,,9943TG,Nieuw Scheemda,Oldambt,Groningen,VBO,6.951298,53.217496
Pastorieweg,14,,,9943TG,Nieuw Scheemda,Oldambt,Groningen,VBO,6.954221,53.222122
Pastorieweg,16,,,9943TG,Nieuw Scheemda,Oldambt,Groningen,VBO,6.955045,53.224009
De Dellen,1,,,9943TH,Nieuw Scheemda,Oldambt,Groningen,VBO,6.931105,53.235550
