openbareruimtenaam,huisnummer,huisletter,huisnummertoevoeging,postcode,woonplaatsnaam,gemeentenaam,provincienaam,typeadresseerbaarobject,longitude,latitude
Hoofdstraat,1,,,9944AA,Nieuwolda,Oldambt,Groningen,VBO,6.968649,53.243223
Hoofdstraat,3,,,9944AA,Nieuwolda,Oldambt,Groningen,VBO,6.969030,53.243388
Hoofdstraat,5,,,9944AA,Nieuwolda,Oldambt,Groningen,VBO,6.969211,53.243481
Hoofdstraat,7,,,9944AA,Nieuwolda,Oldambt,Groningen,VBO,6.969456,53.243571
Hoofdstraat,9,,,9944AA,Nieuwolda,Oldambt,Groningen,VBO,6.969395,53.244327
Hoofdstraat,11,,,9944AA,Nieuwolda,Oldambt,Groningen,VBO,6.972172,53.244488
Hoofdstraat,15,,,9944AA,Nieuwolda,Oldambt,Groningen,VBO,6.972743,53.244535
Hoofdstraat,17,,,9944AA,Nieuwolda,Oldambt,Groningen,VBO,6.972946,53.244581
Hoofdstraat,19,,,9944AA,Nieuwolda,Oldambt,Groningen,VBO,6.973262,53.244806
Hoofdstraat,21,,,9944AA,Nieuwolda,Oldambt,Groningen,VBO,6.973602,53.244676
Hoofdstraat,23,,,9944AA,Nieuwolda,Oldambt,Groningen,VBO,6.973872,53.244690
Hoofdstraat,25,,,9944AA,Nieuwolda,Oldambt,Groningen,VBO,6.974173,53.244731
Hoofdstraat,27,,,9944AA,Nieuwolda,Oldambt,Groningen,VBO,6.974489,53.244754
Hoofdstraat,29,,,9944AB,Nieuwolda,Oldambt,Groningen,VBO,6.974897,53.244866
Hoofdstraat,31,,,9944AB,Nieuwolda,Oldambt,Groningen,VBO,6.975167,53.244871
Hoofdstraat,35,,,9944AB,Nieuwolda,Oldambt,Groningen,VBO,6.975288,53.244887
Hoofdstraat,37,,,9944AB,Nieuwolda,Oldambt,Groningen,VBO,6.975483,53.244903
Hoofdstraat,41,,,9944AB,Nieuwolda,Oldambt,Groningen,VBO,6.975702,53.244936
Hoofdstraat,43,,,9944AB,Nieuwolda,Oldambt,Groningen,VBO,6.975948,53.244933
Hoofdstraat,45,,,9944AB,Nieuwolda,Oldambt,Groningen,VBO,6.975721,53.245277
Hoofdstraat,51,,,9944AB,Nieuwolda,Oldambt,Groningen,VBO,6.977834,53.245167
Hoofdstraat,53,,,9944AB,Nieuwolda,Oldambt,Groningen,VBO,6.978145,53.245199
Hoofdstraat,57,,,9944AB,Nieuwolda,Oldambt,Groningen,VBO,6.978212,53.245379
Hoofdstraat,59,,,9944AB,Nieuwolda,Oldambt,Groningen,VBO,6.978434,53.245295
Hoofdstraat,63,,,9944AC,Nieuwolda,Oldambt,Groningen,VBO,6.978544,53.245437
Hoofdstraat,65,,,9944AC,Nieuwolda,Oldambt,Groningen,VBO,6.978888,53.245430
Hoofdstraat,67,A,,9944AC,Nieuwolda,Oldambt,Groningen,VBO,6.978501,53.246511
Hoofdstraat,69,,,9944AC,Nieuwolda,Oldambt,Groningen,VBO,6.979258,53.245698
Hoofdstraat,71,,,9944AC,Nieuwolda,Oldambt,Groningen,VBO,6.979091,53.246059
Hoofdstraat,73,,,9944AC,Nieuwolda,Oldambt,Groningen,VBO,6.979487,53.245811
Hoofdstraat,75,,,9944AC,Nieuwolda,Oldambt,Groningen,VBO,6.979495,53.246440
Hoofdstraat,77,,,9944AC,Nieuwolda,Oldambt,Groningen,VBO,6.979686,53.245935
Hoofdstraat,91,,,9944AC,Nieuwolda,Oldambt,Groningen,VBO,6.980559,53.246453
Hoofdstraat,93,,,9944AC,Nieuwolda,Oldambt,Groningen,VBO,6.980668,53.246551
Hoofdstraat,95,,,9944AC,Nieuwolda,Oldambt,Groningen,VBO,6.980745,53.246622
Hoofdstraat,97,,,9944AC,Nieuwolda,Oldambt,Groningen,VBO,6.980915,53.246763
Hoofdstraat,99,,,9944AC,Nieuwolda,Oldambt,Groningen,VBO,6.981054,53.246869
Hoofdstraat,101,,,9944AD,Nieuwolda,Oldambt,Groningen,VBO,6.981211,53.247065
Hoofdstraat,105,,,9944AD,Nieuwolda,Oldambt,Groningen,VBO,6.981529,53.247159
Hoofdstraat,107,,,9944AD,Nieuwolda,Oldambt,Groningen,VBO,6.981932,53.247267
Hoofdstraat,109,,,9944AD,Nieuwolda,Oldambt,Groningen,VBO,6.982229,53.247378
Hoofdstraat,111,,,9944AD,Nieuwolda,Oldambt,Groningen,VBO,6.982786,53.247391
Hoofdstraat,113,,,9944AD,Nieuwolda,Oldambt,Groningen,VBO,6.982997,53.247544
Hoofdstraat,115,,,9944AD,Nieuwolda,Oldambt,Groningen,VBO,6.983426,53.247808
Hoofdstraat,117,,,9944AD,Nieuwolda,Oldambt,Groningen,VBO,6.984090,53.247539
Hoofdstraat,119,,,9944AD,Nieuwolda,Oldambt,Groningen,VBO,6.984736,53.247575
Hoofdstraat,121,,,9944AD,Nieuwolda,Oldambt,Groningen,VBO,6.984784,53.248048
Hoofdstraat,2,,,9944AE,Nieuwolda,Oldambt,Groningen,VBO,6.969441,53.243167
Hoofdstraat,4,,,9944AE,Nieuwolda,Oldambt,Groningen,VBO,6.969961,53.243448
Hoofdstraat,6,,,9944AE,Nieuwolda,Oldambt,Groningen,VBO,6.971246,53.244033
Hoofdstraat,10,,,9944AE,Nieuwolda,Oldambt,Groningen,VBO,6.971378,53.244103
Hoofdstraat,12,,,9944AE,Nieuwolda,Oldambt,Groningen,VBO,6.971602,53.244064
Hoofdstraat,16,,,9944AE,Nieuwolda,Oldambt,Groningen,VBO,6.971737,53.244090
Hoofdstraat,20,,,9944AE,Nieuwolda,Oldambt,Groningen,VBO,6.971904,53.244141
Hoofdstraat,22,,,9944AE,Nieuwolda,Oldambt,Groningen,VBO,6.972025,53.244158
Hoofdstraat,24,,,9944AE,Nieuwolda,Oldambt,Groningen,VBO,6.972115,53.244183
Hoofdstraat,26,,,9944AE,Nieuwolda,Oldambt,Groningen,VBO,6.972372,53.244234
Hoofdstraat,28,,,9944AE,Nieuwolda,Oldambt,Groningen,VBO,6.972685,53.244331
Hoofdstraat,30,,,9944AE,Nieuwolda,Oldambt,Groningen,VBO,6.972851,53.244365
Hoofdstraat,32,,,9944AG,Nieuwolda,Oldambt,Groningen,VBO,6.973202,53.244394
Hoofdstraat,34,,,9944AG,Nieuwolda,Oldambt,Groningen,VBO,6.973369,53.244445
Hoofdstraat,36,,,9944AG,Nieuwolda,Oldambt,Groningen,VBO,6.973459,53.244453
Hoofdstraat,38,,,9944AG,Nieuwolda,Oldambt,Groningen,VBO,6.973624,53.244460
Hoofdstraat,40,,,9944AG,Nieuwolda,Oldambt,Groningen,VBO,6.973880,53.244493
Hoofdstraat,42,,,9944AG,Nieuwolda,Oldambt,Groningen,VBO,6.974136,53.244534
Hoofdstraat,44,A,,9944AG,Nieuwolda,Oldambt,Groningen,VBO,6.974962,53.244586
Hoofdstraat,44,,,9944AG,Nieuwolda,Oldambt,Groningen,VBO,6.974512,53.244574
Hoofdstraat,46,,,9944AG,Nieuwolda,Oldambt,Groningen,VBO,6.975400,53.244679
Hoofdstraat,48,A,,9944AG,Nieuwolda,Oldambt,Groningen,VBO,6.975640,53.244703
Hoofdstraat,48,,,9944AG,Nieuwolda,Oldambt,Groningen,VBO,6.975520,53.244696
Hoofdstraat,58,,,9944AG,Nieuwolda,Oldambt,Groningen,VBO,6.976246,53.244692
Hoofdstraat,60,A,,9944AG,Nieuwolda,Oldambt,Groningen,VBO,6.976934,53.244689
Hoofdstraat,60,,,9944AG,Nieuwolda,Oldambt,Groningen,VBO,6.976638,53.244741
Hoofdstraat,62,,,9944AH,Nieuwolda,Oldambt,Groningen,VBO,6.978697,53.244977
Hoofdstraat,70,,,9944AH,Nieuwolda,Oldambt,Groningen,VBO,6.979476,53.245524
Hoofdstraat,74,,,9944AH,Nieuwolda,Oldambt,Groningen,VBO,6.980011,53.245795
Hoofdstraat,76,,,9944AH,Nieuwolda,Oldambt,Groningen,VBO,6.980151,53.245946
Hoofdstraat,80,,,9944AH,Nieuwolda,Oldambt,Groningen,VBO,6.980506,53.242985
Hoofdstraat,84,,,9944AH,Nieuwolda,Oldambt,Groningen,VBO,6.980472,53.246131
Hoofdstraat,86,,,9944AH,Nieuwolda,Oldambt,Groningen,VBO,6.980672,53.246254
Hoofdstraat,88,,,9944AH,Nieuwolda,Oldambt,Groningen,VBO,6.980868,53.246305
Hoofdstraat,90,,,9944AH,Nieuwolda,Oldambt,Groningen,VBO,6.981052,53.246411
Hoofdstraat,92,A,,9944AH,Nieuwolda,Oldambt,Groningen,VBO,6.981239,53.246606
Hoofdstraat,92,,,9944AH,Nieuwolda,Oldambt,Groningen,VBO,6.981177,53.246554
Hoofdstraat,94,,,9944AH,Nieuwolda,Oldambt,Groningen,VBO,6.981391,53.246649
Hoofdstraat,96,,,9944AH,Nieuwolda,Oldambt,Groningen,VBO,6.981544,53.246755
Hoofdstraat,98,,,9944AJ,Nieuwolda,Oldambt,Groningen,VBO,6.981760,53.246914
Hoofdstraat,100,,,9944AJ,Nieuwolda,Oldambt,Groningen,VBO,6.981896,53.246948
Hoofdstraat,102,,,9944AJ,Nieuwolda,Oldambt,Groningen,VBO,6.982092,53.246981
Hoofdstraat,104,,,9944AJ,Nieuwolda,Oldambt,Groningen,VBO,6.982197,53.246980
Hoofdstraat,106,,,9944AJ,Nieuwolda,Oldambt,Groningen,VBO,6.982424,53.247040
Hoofdstraat,108,,,9944AJ,Nieuwolda,Oldambt,Groningen,VBO,6.982529,53.247056
Hoofdstraat,110,,,9944AJ,Nieuwolda,Oldambt,Groningen,VBO,6.982786,53.247098
Hoofdstraat,114,,,9944AJ,Nieuwolda,Oldambt,Groningen,VBO,6.983057,53.247139
Hoofdstraat,116,,,9944AJ,Nieuwolda,Oldambt,Groningen,VBO,6.983343,53.247189
Hoofdstraat,118,,,9944AJ,Nieuwolda,Oldambt,Groningen,VBO,6.983642,53.247176
Hoofdstraat,120,A,,9944AJ,Nieuwolda,Oldambt,Groningen,VBO,6.984112,53.246833
Hoofdstraat,120,,,9944AJ,Nieuwolda,Oldambt,Groningen,VBO,6.984075,53.247134
Hoofdstraat,122,,,9944AJ,Nieuwolda,Oldambt,Groningen,VBO,6.984629,53.247118
Hoofdstraat,124,,,9944AJ,Nieuwolda,Oldambt,Groningen,VBO,6.984719,53.247108
Burgemeester Waalkensstraat,9,,,9944AK,Nieuwolda,Oldambt,Groningen,VBO,6.971599,53.243166
Burgemeester Waalkensstraat,11,,,9944AK,Nieuwolda,Oldambt,Groningen,VBO,6.971830,53.242929
Burgemeester Waalkensstraat,13,A,,9944AK,Nieuwolda,Oldambt,Groningen,VBO,6.971749,53.242777
Burgemeester Waalkensstraat,13,,,9944AK,Nieuwolda,Oldambt,Groningen,VBO,6.971751,53.242822
Burgemeester Waalkensstraat,15,A,,9944AK,Nieuwolda,Oldambt,Groningen,VBO,6.971833,53.242605
Burgemeester Waalkensstraat,15,,,9944AK,Nieuwolda,Oldambt,Groningen,VBO,6.971790,53.242651
Burgemeester Waalkensstraat,17,A,,9944AK,Nieuwolda,Oldambt,Groningen,VBO,6.971886,53.242425
Burgemeester Waalkensstraat,17,,,9944AK,Nieuwolda,Oldambt,Groningen,VBO,6.971858,53.242479
Burgemeester Waalkensstraat,19,A,,9944AK,Nieuwolda,Oldambt,Groningen,VBO,6.971895,53.242263
Burgemeester Waalkensstraat,19,,,9944AK,Nieuwolda,Oldambt,Groningen,VBO,6.971973,53.242334
Burgemeester Waalkensstraat,21,A,,9944AK,Nieuwolda,Oldambt,Groningen,VBO,6.972023,53.242073
Burgemeester Waalkensstraat,21,,,9944AK,Nieuwolda,Oldambt,Groningen,VBO,6.971950,53.242137
Burgemeester Waalkensstraat,23,A,,9944AK,Nieuwolda,Oldambt,Groningen,VBO,6.972106,53.241892
Burgemeester Waalkensstraat,23,,,9944AK,Nieuwolda,Oldambt,Groningen,VBO,6.972004,53.241965
Burgemeester Waalkensstraat,25,,,9944AK,Nieuwolda,Oldambt,Groningen,VBO,6.972087,53.241709
Burgemeester Waalkensstraat,27,,,9944AK,Nieuwolda,Oldambt,Groningen,VBO,6.972115,53.241646
Burgemeester Waalkensstraat,29,,,9944AK,Nieuwolda,Oldambt,Groningen,VBO,6.972257,53.241479
Burgemeester Waalkensstraat,31,,,9944AK,Nieuwolda,Oldambt,Groningen,VBO,6.972270,53.241416
Burgemeester Waalkensstraat,33,,,9944AK,Nieuwolda,Oldambt,Groningen,VBO,6.972272,53.241232
Burgemeester Waalkensstraat,35,,,9944AK,Nieuwolda,Oldambt,Groningen,VBO,6.972300,53.241168
Burgemeester Waalkensstraat,2,,,9944AL,Nieuwolda,Oldambt,Groningen,VBO,6.971109,53.243298
Burgemeester Waalkensstraat,4,,,9944AL,Nieuwolda,Oldambt,Groningen,VBO,6.971122,53.243244
Burgemeester Waalkensstraat,6,,,9944AL,Nieuwolda,Oldambt,Groningen,VBO,6.971150,53.243181
Burgemeester Waalkensstraat,8,,,9944AL,Nieuwolda,Oldambt,Groningen,VBO,6.971163,53.243127
Burgemeester Waalkensstraat,10,,,9944AL,Nieuwolda,Oldambt,Groningen,VBO,6.971161,53.243073
Burgemeester Waalkensstraat,12,,,9944AL,Nieuwolda,Oldambt,Groningen,VBO,6.971218,53.243009
Burgemeester Waalkensstraat,14,,,9944AL,Nieuwolda,Oldambt,Groningen,VBO,6.971290,53.242606
Burgemeester Waalkensstraat,16,,,9944AL,Nieuwolda,Oldambt,Groningen,VBO,6.971380,53.242513
Burgemeester Waalkensstraat,18,,,9944AL,Nieuwolda,Oldambt,Groningen,VBO,6.971377,53.242441
Burgemeester Waalkensstraat,20,,,9944AL,Nieuwolda,Oldambt,Groningen,VBO,6.971406,53.242395
Burgemeester Waalkensstraat,22,,,9944AL,Nieuwolda,Oldambt,Groningen,VBO,6.971419,53.242341
Burgemeester Waalkensstraat,24,,,9944AL,Nieuwolda,Oldambt,Groningen,VBO,6.971462,53.242287
Burgemeester Waalkensstraat,26,,,9944AL,Nieuwolda,Oldambt,Groningen,VBO,6.971513,53.242061
Burgemeester Waalkensstraat,28,,,9944AL,Nieuwolda,Oldambt,Groningen,VBO,6.971556,53.242007
Burgemeester Waalkensstraat,30,,,9944AL,Nieuwolda,Oldambt,Groningen,VBO,6.971569,53.241953
Burgemeester Waalkensstraat,32,,,9944AL,Nieuwolda,Oldambt,Groningen,VBO,6.971566,53.241872
Burgemeester Waalkensstraat,34,,,9944AL,Nieuwolda,Oldambt,Groningen,VBO,6.971625,53.241835
Burgemeester Waalkensstraat,36,,,9944AL,Nieuwolda,Oldambt,Groningen,VBO,6.971637,53.241772
Burgemeester Waalkensstraat,38,,,9944AL,Nieuwolda,Oldambt,Groningen,VBO,6.971779,53.241537
Burgemeester Waalkensstraat,40,,,9944AL,Nieuwolda,Oldambt,Groningen,VBO,6.971791,53.241465
Burgemeester Waalkensstraat,42,,,9944AL,Nieuwolda,Oldambt,Groningen,VBO,6.971828,53.241248
Burgemeester Waalkensstraat,44,,,9944AL,Nieuwolda,Oldambt,Groningen,VBO,6.971766,53.241186
Kleigraversstraat,1,,,9944AM,Nieuwolda,Oldambt,Groningen,VBO,6.971066,53.242535
Kleigraversstraat,2,,,9944AM,Nieuwolda,Oldambt,Groningen,VBO,6.971241,53.242820
Kleigraversstraat,3,,,9944AM,Nieuwolda,Oldambt,Groningen,VBO,6.970947,53.242545
Kleigraversstraat,4,,,9944AM,Nieuwolda,Oldambt,Groningen,VBO,6.971166,53.242812
Kleigraversstraat,6,,,9944AM,Nieuwolda,Oldambt,Groningen,VBO,6.971076,53.242795
Kleigraversstraat,8,,,9944AM,Nieuwolda,Oldambt,Groningen,VBO,6.970985,53.242778
Kleigraversstraat,10,,,9944AM,Nieuwolda,Oldambt,Groningen,VBO,6.970880,53.242762
P.G. Cremerstraat,1,,,9944AN,Nieuwolda,Oldambt,Groningen,VBO,6.971436,53.243617
P.G. Cremerstraat,3,,,9944AN,Nieuwolda,Oldambt,Groningen,VBO,6.971632,53.243660
P.G. Cremerstraat,4,,,9944AN,Nieuwolda,Oldambt,Groningen,VBO,6.971666,53.243372
P.G. Cremerstraat,6,,,9944AN,Nieuwolda,Oldambt,Groningen,VBO,6.971909,53.243446
P.G. Cremerstraat,10,,,9944AN,Nieuwolda,Oldambt,Groningen,VBO,6.972168,53.243572
P.G. Cremerstraat,11,,,9944AN,Nieuwolda,Oldambt,Groningen,VBO,6.971800,53.243756
P.G. Cremerstraat,13,,,9944AN,Nieuwolda,Oldambt,Groningen,VBO,6.972012,53.243816
P.G. Cremerstraat,14,,,9944AN,Nieuwolda,Oldambt,Groningen,VBO,6.973232,53.243814
P.G. Cremerstraat,19,,,9944AN,Nieuwolda,Oldambt,Groningen,VBO,6.972283,53.243858
Schoolstraat,1,,,9944AP,Nieuwolda,Oldambt,Groningen,VBO,6.975821,53.244737
Meidoornstraat,1,,,9944AR,Nieuwolda,Oldambt,Groningen,VBO,6.974949,53.244245
Meidoornstraat,2,,,9944AR,Nieuwolda,Oldambt,Groningen,VBO,6.974025,53.244002
Meidoornstraat,4,,,9944AR,Nieuwolda,Oldambt,Groningen,VBO,6.974130,53.244001
Meidoornstraat,5,,,9944AR,Nieuwolda,Oldambt,Groningen,VBO,6.975356,53.244293
Meidoornstraat,6,,,9944AR,Nieuwolda,Oldambt,Groningen,VBO,6.974301,53.244007
Meidoornstraat,8,,,9944AR,Nieuwolda,Oldambt,Groningen,VBO,6.974391,53.244005
Meidoornstraat,9,,,9944AR,Nieuwolda,Oldambt,Groningen,VBO,6.975687,53.244334
Meidoornstraat,10,,,9944AR,Nieuwolda,Oldambt,Groningen,VBO,6.974555,53.244003
Meidoornstraat,11,,,9944AR,Nieuwolda,Oldambt,Groningen,VBO,6.975777,53.244351
Meidoornstraat,12,,,9944AR,Nieuwolda,Oldambt,Groningen,VBO,6.974626,53.244006
Meidoornstraat,13,,,9944AR,Nieuwolda,Oldambt,Groningen,VBO,6.976727,53.244500
Meidoornstraat,14,,,9944AR,Nieuwolda,Oldambt,Groningen,VBO,6.975240,53.243989
Meidoornstraat,16,,,9944AR,Nieuwolda,Oldambt,Groningen,VBO,6.975407,53.244050
Meidoornstraat,18,,,9944AR,Nieuwolda,Oldambt,Groningen,VBO,6.975526,53.244048
Meidoornstraat,20,,,9944AR,Nieuwolda,Oldambt,Groningen,VBO,6.976356,53.243795
Prunuslaan,5,,,9944AS,Nieuwolda,Oldambt,Groningen,VBO,6.975165,53.243833
Prunuslaan,7,A,,9944AS,Nieuwolda,Oldambt,Groningen,VBO,6.975182,53.243640
Prunuslaan,7,,,9944AS,Nieuwolda,Oldambt,Groningen,VBO,6.975155,53.243721
Prunuslaan,9,,,9944AS,Nieuwolda,Oldambt,Groningen,VBO,6.975193,53.243550
Prunuslaan,11,,,9944AS,Nieuwolda,Oldambt,Groningen,VBO,6.975221,53.243477
Prunuslaan,13,,,9944AS,Nieuwolda,Oldambt,Groningen,VBO,6.975317,53.243242
Prunuslaan,15,,,9944AS,Nieuwolda,Oldambt,Groningen,VBO,6.975314,53.243162
Prunuslaan,17,,,9944AS,Nieuwolda,Oldambt,Groningen,VBO,6.975355,53.243062
Prunuslaan,19,,,9944AS,Nieuwolda,Oldambt,Groningen,VBO,6.975383,53.242990
Prunuslaan,21,,,9944AS,Nieuwolda,Oldambt,Groningen,VBO,6.975381,53.242945
Prunuslaan,23,,,9944AS,Nieuwolda,Oldambt,Groningen,VBO,6.975449,53.242746
Prunuslaan,25,,,9944AS,Nieuwolda,Oldambt,Groningen,VBO,6.975462,53.242701
Prunuslaan,27,,,9944AS,Nieuwolda,Oldambt,Groningen,VBO,6.975488,53.242602
Prunuslaan,29,,,9944AS,Nieuwolda,Oldambt,Groningen,VBO,6.975516,53.242548
Prunuslaan,31,,,9944AS,Nieuwolda,Oldambt,Groningen,VBO,6.975543,53.242467
Prunuslaan,33,,,9944AS,Nieuwolda,Oldambt,Groningen,VBO,6.975556,53.242412
Prunuslaan,35,,,9944AS,Nieuwolda,Oldambt,Groningen,VBO,6.975608,53.242187
Prunuslaan,37,,,9944AS,Nieuwolda,Oldambt,Groningen,VBO,6.975621,53.242133
Prunuslaan,39,,,9944AS,Nieuwolda,Oldambt,Groningen,VBO,6.975648,53.242052
Prunuslaan,41,,,9944AS,Nieuwolda,Oldambt,Groningen,VBO,6.975675,53.241989
Prunuslaan,43,,,9944AS,Nieuwolda,Oldambt,Groningen,VBO,6.975820,53.241834
Prunuslaan,2,,,9944AT,Nieuwolda,Oldambt,Groningen,VBO,6.974752,53.243771
Prunuslaan,4,,,9944AT,Nieuwolda,Oldambt,Groningen,VBO,6.974791,53.243600
Prunuslaan,6,,,9944AT,Nieuwolda,Oldambt,Groningen,VBO,6.974819,53.243555
Prunuslaan,8,,,9944AT,Nieuwolda,Oldambt,Groningen,VBO,6.974830,53.243447
Prunuslaan,10,,,9944AT,Nieuwolda,Oldambt,Groningen,VBO,6.974843,53.243392
Prunuslaan,12,,,9944AT,Nieuwolda,Oldambt,Groningen,VBO,6.974884,53.243293
Prunuslaan,14,,,9944AT,Nieuwolda,Oldambt,Groningen,VBO,6.974897,53.243230
Prunuslaan,16,,,9944AT,Nieuwolda,Oldambt,Groningen,VBO,6.974924,53.243149
Prunuslaan,18,,,9944AT,Nieuwolda,Oldambt,Groningen,VBO,6.974952,53.243094
Prunuslaan,20,,,9944AT,Nieuwolda,Oldambt,Groningen,VBO,6.974978,53.242986
Prunuslaan,22,,,9944AT,Nieuwolda,Oldambt,Groningen,VBO,6.974991,53.242932
Prunuslaan,24,,,9944AT,Nieuwolda,Oldambt,Groningen,VBO,6.975141,53.242517
Prunuslaan,26,,,9944AT,Nieuwolda,Oldambt,Groningen,VBO,6.975153,53.242454
Prunuslaan,28,,,9944AT,Nieuwolda,Oldambt,Groningen,VBO,6.975151,53.242400
Prunuslaan,30,,,9944AT,Nieuwolda,Oldambt,Groningen,VBO,6.975194,53.242345
Prunuslaan,32,,,9944AT,Nieuwolda,Oldambt,Groningen,VBO,6.975235,53.242237
Prunuslaan,34,,,9944AT,Nieuwolda,Oldambt,Groningen,VBO,6.975248,53.242174
Prunuslaan,36,,,9944AT,Nieuwolda,Oldambt,Groningen,VBO,6.975246,53.242120
Prunuslaan,38,,,9944AT,Nieuwolda,Oldambt,Groningen,VBO,6.975274,53.242075
Prunuslaan,40,,,9944AT,Nieuwolda,Oldambt,Groningen,VBO,6.975390,53.241570
Prunuslaan,42,,,9944AT,Nieuwolda,Oldambt,Groningen,VBO,6.975144,53.241384
Prunuslaan,44,,,9944AT,Nieuwolda,Oldambt,Groningen,VBO,6.974617,53.241319
Rozenstraat,2,,,9944AV,Nieuwolda,Oldambt,Groningen,VBO,6.975638,53.243813
Rozenstraat,4,,,9944AV,Nieuwolda,Oldambt,Groningen,VBO,6.975665,53.243750
Wilgenstraat,1,,,9944AW,Nieuwolda,Oldambt,Groningen,VBO,6.975551,53.243491
Wilgenstraat,2,,,9944AW,Nieuwolda,Oldambt,Groningen,VBO,6.975714,53.243325
Wilgenstraat,3,,,9944AW,Nieuwolda,Oldambt,Groningen,VBO,6.975671,53.243507
Wilgenstraat,4,,,9944AW,Nieuwolda,Oldambt,Groningen,VBO,6.975834,53.243332
Wilgenstraat,6,,,9944AW,Nieuwolda,Oldambt,Groningen,VBO,6.975985,53.243357
Wilgenstraat,8,,,9944AW,Nieuwolda,Oldambt,Groningen,VBO,6.976106,53.243374
Wilgenstraat,10,,,9944AW,Nieuwolda,Oldambt,Groningen,VBO,6.976256,53.243390
Wilgenstraat,12,,,9944AW,Nieuwolda,Oldambt,Groningen,VBO,6.976376,53.243388
Wilgenstraat,14,,,9944AW,Nieuwolda,Oldambt,Groningen,VBO,6.976557,53.243422
Wilgenstraat,16,,,9944AW,Nieuwolda,Oldambt,Groningen,VBO,6.976662,53.243429
Menterwoldeweg,1,,,9944AX,Nieuwolda,Oldambt,Groningen,VBO,6.975085,53.242678
Menterwoldeweg,3,,,9944AX,Nieuwolda,Oldambt,Groningen,VBO,6.975010,53.242670
Menterwoldeweg,5,,,9944AX,Nieuwolda,Oldambt,Groningen,VBO,6.974920,53.242662
Menterwoldeweg,7,,,9944AX,Nieuwolda,Oldambt,Groningen,VBO,6.974830,53.242663
Menterwoldeweg,9,,,9944AX,Nieuwolda,Oldambt,Groningen,VBO,6.974677,53.242526
Menterwoldeweg,11,,,9944AX,Nieuwolda,Oldambt,Groningen,VBO,6.974587,53.242510
Menterwoldeweg,13,,,9944AX,Nieuwolda,Oldambt,Groningen,VBO,6.974497,53.242502
Menterwoldeweg,15,,,9944AX,Nieuwolda,Oldambt,Groningen,VBO,6.974406,53.242485
Menterwoldeweg,17,,,9944AX,Nieuwolda,Oldambt,Groningen,VBO,6.974268,53.242313
Menterwoldeweg,19,,,9944AX,Nieuwolda,Oldambt,Groningen,VBO,6.974193,53.242305
Menterwoldeweg,21,,,9944AX,Nieuwolda,Oldambt,Groningen,VBO,6.974087,53.242297
Menterwoldeweg,23,,,9944AX,Nieuwolda,Oldambt,Groningen,VBO,6.974012,53.242280
Woelkamp,1,,,9944AZ,Nieuwolda,Oldambt,Groningen,VBO,6.971414,53.240984
Woelkamp,2,,,9944AZ,Nieuwolda,Oldambt,Groningen,VBO,6.971146,53.241024
Woelkamp,3,,,9944AZ,Nieuwolda,Oldambt,Groningen,VBO,6.970519,53.241095
Elzenstraat,1,,,9944BA,Nieuwolda,Oldambt,Groningen,VBO,6.976601,53.242318
Elzenstraat,2,,,9944BA,Nieuwolda,Oldambt,Groningen,VBO,6.977089,53.242949
Elzenstraat,3,,,9944BA,Nieuwolda,Oldambt,Groningen,VBO,6.976299,53.242250
Elzenstraat,4,,,9944BA,Nieuwolda,Oldambt,Groningen,VBO,6.977087,53.242895
Elzenstraat,5,,,9944BA,Nieuwolda,Oldambt,Groningen,VBO,6.976014,53.242245
Elzenstraat,6,,,9944BA,Nieuwolda,Oldambt,Groningen,VBO,6.977068,53.242788
Elzenstraat,8,,,9944BA,Nieuwolda,Oldambt,Groningen,VBO,6.977051,53.242734
Elzenstraat,10,,,9944BA,Nieuwolda,Oldambt,Groningen,VBO,6.977047,53.242626
Elzenstraat,12,,,9944BA,Nieuwolda,Oldambt,Groningen,VBO,6.977030,53.242573
Elzenstraat,14,,,9944BA,Nieuwolda,Oldambt,Groningen,VBO,6.976669,53.242524
Elzenstraat,16,,,9944BA,Nieuwolda,Oldambt,Groningen,VBO,6.976564,53.242516
Elzenstraat,18,,,9944BA,Nieuwolda,Oldambt,Groningen,VBO,6.976489,53.242508
Elzenstraat,20,,,9944BA,Nieuwolda,Oldambt,Groningen,VBO,6.976383,53.242500
Elzenstraat,22,,,9944BA,Nieuwolda,Oldambt,Groningen,VBO,6.976201,53.242481
Elzenstraat,24,,,9944BA,Nieuwolda,Oldambt,Groningen,VBO,6.976110,53.242474
Elzenstraat,26,,,9944BA,Nieuwolda,Oldambt,Groningen,VBO,6.976026,53.242463
Elzenstraat,28,,,9944BA,Nieuwolda,Oldambt,Groningen,VBO,6.975920,53.242453
Esdoornstraat,2,,,9944BB,Nieuwolda,Oldambt,Groningen,VBO,6.977018,53.243472
Esdoornstraat,4,,,9944BB,Nieuwolda,Oldambt,Groningen,VBO,6.977031,53.243417
Esdoornstraat,6,,,9944BB,Nieuwolda,Oldambt,Groningen,VBO,6.977044,53.243363
Esdoornstraat,8,,,9944BB,Nieuwolda,Oldambt,Groningen,VBO,6.977070,53.243255
Esdoornstraat,10,,,9944BB,Nieuwolda,Oldambt,Groningen,VBO,6.977068,53.243192
Esdoornstraat,12,,,9944BB,Nieuwolda,Oldambt,Groningen,VBO,6.977066,53.243138
Lijsterbesstraat,1,,,9944BC,Nieuwolda,Oldambt,Groningen,VBO,6.975697,53.242977
Lijsterbesstraat,2,,,9944BC,Nieuwolda,Oldambt,Groningen,VBO,6.975764,53.242785
Lijsterbesstraat,3,,,9944BC,Nieuwolda,Oldambt,Groningen,VBO,6.975787,53.242985
Lijsterbesstraat,4,,,9944BC,Nieuwolda,Oldambt,Groningen,VBO,6.975854,53.242793
Lijsterbesstraat,5,,,9944BC,Nieuwolda,Oldambt,Groningen,VBO,6.975988,53.243008
Lijsterbesstraat,6,,,9944BC,Nieuwolda,Oldambt,Groningen,VBO,6.976019,53.242809
Lijsterbesstraat,7,,,9944BC,Nieuwolda,Oldambt,Groningen,VBO,6.976109,53.243016
Lijsterbesstraat,8,,,9944BC,Nieuwolda,Oldambt,Groningen,VBO,6.976124,53.242816
Lijsterbesstraat,9,,,9944BC,Nieuwolda,Oldambt,Groningen,VBO,6.976259,53.243041
Lijsterbesstraat,10,,,9944BC,Nieuwolda,Oldambt,Groningen,VBO,6.976245,53.242851
Lijsterbesstraat,11,,,9944BC,Nieuwolda,Oldambt,Groningen,VBO,6.976395,53.243057
Lijsterbesstraat,12,,,9944BC,Nieuwolda,Oldambt,Groningen,VBO,6.976365,53.242849
Lijsterbesstraat,13,,,9944BC,Nieuwolda,Oldambt,Groningen,VBO,6.976524,53.243065
Lijsterbesstraat,14,,,9944BC,Nieuwolda,Oldambt,Groningen,VBO,6.976501,53.242874
Lijsterbesstraat,15,,,9944BC,Nieuwolda,Oldambt,Groningen,VBO,6.976614,53.243072
Lijsterbesstraat,16,,,9944BC,Nieuwolda,Oldambt,Groningen,VBO,6.976606,53.242891
Lijsterbesstraat,17,,,9944BC,Nieuwolda,Oldambt,Groningen,VBO,6.976720,53.243089
Lijsterbesstraat,18,,,9944BC,Nieuwolda,Oldambt,Groningen,VBO,6.976727,53.242898
Lijsterbesstraat,20,,,9944BC,Nieuwolda,Oldambt,Groningen,VBO,6.976832,53.242915
Kerksingel,1,,,9944BD,Nieuwolda,Oldambt,Groningen,VBO,6.972703,53.243189
Kerksingel,2,,,9944BD,Nieuwolda,Oldambt,Groningen,VBO,6.972732,53.243126
Kerksingel,3,,,9944BD,Nieuwolda,Oldambt,Groningen,VBO,6.972766,53.242996
Kerksingel,4,,,9944BD,Nieuwolda,Oldambt,Groningen,VBO,6.972778,53.242939
Kerksingel,5,,,9944BD,Nieuwolda,Oldambt,Groningen,VBO,6.972829,53.242808
Kerksingel,6,,,9944BD,Nieuwolda,Oldambt,Groningen,VBO,6.972842,53.242760
Kerksingel,7,,,9944BD,Nieuwolda,Oldambt,Groningen,VBO,6.972903,53.242620
Kerksingel,8,,,9944BD,Nieuwolda,Oldambt,Groningen,VBO,6.972925,53.242573
Kerksingel,9,,,9944BD,Nieuwolda,Oldambt,Groningen,VBO,6.972966,53.242447
Kerksingel,10,,,9944BD,Nieuwolda,Oldambt,Groningen,VBO,6.972978,53.242384
Kerksingel,12,,,9944BD,Nieuwolda,Oldambt,Groningen,VBO,6.973541,53.242173
Buitensingel,1,,,9944BE,Nieuwolda,Oldambt,Groningen,VBO,6.972364,53.240964
Buitensingel,2,,,9944BE,Nieuwolda,Oldambt,Groningen,VBO,6.972454,53.240972
Buitensingel,3,,,9944BE,Nieuwolda,Oldambt,Groningen,VBO,6.972808,53.240948
Buitensingel,4,,,9944BE,Nieuwolda,Oldambt,Groningen,VBO,6.972928,53.240957
Buitensingel,5,,,9944BE,Nieuwolda,Oldambt,Groningen,VBO,6.973374,53.240985
Buitensingel,6,,,9944BE,Nieuwolda,Oldambt,Groningen,VBO,6.973475,53.240997
Buitensingel,7,,,9944BE,Nieuwolda,Oldambt,Groningen,VBO,6.973801,53.241060
Buitensingel,8,,,9944BE,Nieuwolda,Oldambt,Groningen,VBO,6.973909,53.241071
Troppelhuizen,1,,,9944BH,Nieuwolda,Oldambt,Groningen,VBO,6.979246,53.245365
Troppelhuizen,2,,,9944BH,Nieuwolda,Oldambt,Groningen,VBO,6.979243,53.245284
Troppelhuizen,3,,,9944BH,Nieuwolda,Oldambt,Groningen,VBO,6.979330,53.245220
Troppelhuizen,4,,,9944BH,Nieuwolda,Oldambt,Groningen,VBO,6.979541,53.245262
Troppelhuizen,5,,,9944BH,Nieuwolda,Oldambt,Groningen,VBO,6.979599,53.245199
Troppelhuizen,6,,,9944BH,Nieuwolda,Oldambt,Groningen,VBO,6.979611,53.245127
Troppelhuizen,7,,,9944BH,Nieuwolda,Oldambt,Groningen,VBO,6.979685,53.245081
Troppelhuizen,8,,,9944BH,Nieuwolda,Oldambt,Groningen,VBO,6.979292,53.244996
Troppelhuizen,9,,,9944BH,Nieuwolda,Oldambt,Groningen,VBO,6.979305,53.244933
Troppelhuizen,10,,,9944BH,Nieuwolda,Oldambt,Groningen,VBO,6.979258,53.244880
Troppelhuizen,11,,,9944BH,Nieuwolda,Oldambt,Groningen,VBO,6.979769,53.244945
Troppelhuizen,12,,,9944BH,Nieuwolda,Oldambt,Groningen,VBO,6.979828,53.244899
Troppelhuizen,13,,,9944BH,Nieuwolda,Oldambt,Groningen,VBO,6.979886,53.244845
Troppelhuizen,14,,,9944BH,Nieuwolda,Oldambt,Groningen,VBO,6.979944,53.244808
Troppelhuizen,15,,,9944BH,Nieuwolda,Oldambt,Groningen,VBO,6.980107,53.245165
Troppelhuizen,16,,,9944BH,Nieuwolda,Oldambt,Groningen,VBO,6.980165,53.245110
Troppelhuizen,17,,,9944BH,Nieuwolda,Oldambt,Groningen,VBO,6.980208,53.245065
Troppelhuizen,18,,,9944BH,Nieuwolda,Oldambt,Groningen,VBO,6.980222,53.245020
Troppelhuizen,19,,,9944BH,Nieuwolda,Oldambt,Groningen,VBO,6.980295,53.244965
Troppelhuizen,20,,,9944BH,Nieuwolda,Oldambt,Groningen,VBO,6.980338,53.244919
Troppelhuizen,21,,,9944BH,Nieuwolda,Oldambt,Groningen,VBO,6.979405,53.244402
Kerkelaan,2,,,9944BJ,Nieuwolda,Oldambt,Groningen,VBO,6.984839,53.246711
Kerkelaan,3,,,9944BJ,Nieuwolda,Oldambt,Groningen,VBO,6.990503,53.244703
Kerkelaan,4,,,9944BJ,Nieuwolda,Oldambt,Groningen,VBO,6.982139,53.243395
Kerkelaan,7,,,9944BJ,Nieuwolda,Oldambt,Groningen,VBO,6.984570,53.221455
Oomkenslaan,1,A,,9944BK,Nieuwolda,Oldambt,Groningen,VBO,6.974259,53.245845
Oomkenslaan,1,,,9944BK,Nieuwolda,Oldambt,Groningen,VBO,6.974341,53.245619
Oomkenslaan,2,,,9944BK,Nieuwolda,Oldambt,Groningen,VBO,6.973829,53.245967
Oomkenslaan,4,,,9944BK,Nieuwolda,Oldambt,Groningen,VBO,6.974000,53.245740
Oomkenslaan,5,,,9944BK,Nieuwolda,Oldambt,Groningen,VBO,6.974538,53.245275
Oomkenslaan,6,A,,9944BK,Nieuwolda,Oldambt,Groningen,VBO,6.974169,53.245441
Oomkenslaan,8,,,9944BK,Nieuwolda,Oldambt,Groningen,VBO,6.974499,53.245033
Molenkade,1,,,9944BL,Nieuwolda,Oldambt,Groningen,VBO,6.976323,53.245292
Molenkade,2,,,9944BL,Nieuwolda,Oldambt,Groningen,VBO,6.976440,53.245313
Molenkade,3,,,9944BL,Nieuwolda,Oldambt,Groningen,VBO,6.976517,53.245415
Molenkade,4,,,9944BL,Nieuwolda,Oldambt,Groningen,VBO,6.976483,53.245479
Molenkade,5,,,9944BL,Nieuwolda,Oldambt,Groningen,VBO,6.976323,53.245745
Molenkade,6,,,9944BL,Nieuwolda,Oldambt,Groningen,VBO,6.976295,53.245791
Molenkade,7,,,9944BL,Nieuwolda,Oldambt,Groningen,VBO,6.976267,53.245845
Molenkade,8,,,9944BL,Nieuwolda,Oldambt,Groningen,VBO,6.976253,53.245890
Molenkade,9,,,9944BL,Nieuwolda,Oldambt,Groningen,VBO,6.976082,53.246108
Molenkade,10,,,9944BL,Nieuwolda,Oldambt,Groningen,VBO,6.975941,53.246362
Molenkade,11,,,9944BL,Nieuwolda,Oldambt,Groningen,VBO,6.975769,53.246580
Molenkade,14,,,9944BL,Nieuwolda,Oldambt,Groningen,VBO,6.975638,53.246671
Molenkade,15,,,9944BL,Nieuwolda,Oldambt,Groningen,VBO,6.975599,53.246834
Molenkade,16,,,9944BL,Nieuwolda,Oldambt,Groningen,VBO,6.975484,53.246979
Molenhorn,10,,,9944BM,Nieuwolda,Oldambt,Groningen,VBO,6.975970,53.245699
Molenhorn,12,,,9944BM,Nieuwolda,Oldambt,Groningen,VBO,6.975888,53.245682
Molenhorn,14,,,9944BM,Nieuwolda,Oldambt,Groningen,VBO,6.975813,53.245674
Molenhorn,16,,,9944BM,Nieuwolda,Oldambt,Groningen,VBO,6.975688,53.245988
Molenhorn,18,,,9944BM,Nieuwolda,Oldambt,Groningen,VBO,6.975513,53.246134
Molenhorn,20,,,9944BM,Nieuwolda,Oldambt,Groningen,VBO,6.975486,53.246197
Molenhorn,22,,,9944BM,Nieuwolda,Oldambt,Groningen,VBO,6.975452,53.246428
B.K. Bosmaplein,2,,,9944BN,Nieuwolda,Oldambt,Groningen,VBO,6.977338,53.245238
B.K. Bosmaplein,3,,,9944BN,Nieuwolda,Oldambt,Groningen,VBO,6.977656,53.244928
B.K. Bosmaplein,5,,,9944BN,Nieuwolda,Oldambt,Groningen,VBO,6.977881,53.244934
De Streep,1,A,,9944BP,Nieuwolda,Oldambt,Groningen,VBO,6.977600,53.244623
De Streep,1,B,,9944BP,Nieuwolda,Oldambt,Groningen,VBO,6.977600,53.244623
De Streep,1,C,,9944BP,Nieuwolda,Oldambt,Groningen,VBO,6.977600,53.244623
De Streep,1,D,,9944BP,Nieuwolda,Oldambt,Groningen,VBO,6.977600,53.244623
De Streep,1,E,,9944BP,Nieuwolda,Oldambt,Groningen,VBO,6.977600,53.244623
De Streep,1,F,,9944BP,Nieuwolda,Oldambt,Groningen,VBO,6.977600,53.244623
De Streep,1,G,,9944BP,Nieuwolda,Oldambt,Groningen,VBO,6.977600,53.244623
De Streep,1,,,9944BP,Nieuwolda,Oldambt,Groningen,VBO,6.977600,53.244623
De Streep,2,A,,9944BP,Nieuwolda,Oldambt,Groningen,VBO,6.977600,53.244623
De Streep,2,B,,9944BP,Nieuwolda,Oldambt,Groningen,VBO,6.977600,53.244623
De Streep,2,C,,9944BP,Nieuwolda,Oldambt,Groningen,VBO,6.977600,53.244623
De Streep,2,D,,9944BP,Nieuwolda,Oldambt,Groningen,VBO,6.977600,53.244623
De Streep,2,E,,9944BP,Nieuwolda,Oldambt,Groningen,VBO,6.977600,53.244623
De Streep,2,F,,9944BP,Nieuwolda,Oldambt,Groningen,VBO,6.977600,53.244623
De Streep,2,,,9944BP,Nieuwolda,Oldambt,Groningen,VBO,6.977600,53.244623
De Streep,3,,,9944BP,Nieuwolda,Oldambt,Groningen,VBO,6.977615,53.244201
De Streep,4,,,9944BP,Nieuwolda,Oldambt,Groningen,VBO,6.977642,53.244119
De Streep,5,,,9944BP,Nieuwolda,Oldambt,Groningen,VBO,6.977655,53.244065
De Streep,6,,,9944BP,Nieuwolda,Oldambt,Groningen,VBO,6.977653,53.244020
De Streep,9,,,9944BP,Nieuwolda,Oldambt,Groningen,VBO,6.977663,53.243885
De Streep,11,,,9944BP,Nieuwolda,Oldambt,Groningen,VBO,6.977746,53.243705
De Streep,14,,,9944BP,Nieuwolda,Oldambt,Groningen,VBO,6.977780,53.243417
De Streep,16,,,9944BP,Nieuwolda,Oldambt,Groningen,VBO,6.977834,53.243236
De Streep,18,,,9944BP,Nieuwolda,Oldambt,Groningen,VBO,6.977980,53.242956
De Streep,19,,,9944BP,Nieuwolda,Oldambt,Groningen,VBO,6.978301,53.242783
Dok,1,A,,9944BR,Nieuwolda,Oldambt,Groningen,VBO,6.975674,53.248073
Dok,1,,,9944BR,Nieuwolda,Oldambt,Groningen,VBO,6.975067,53.249474
Dok,2,A,,9944BR,Nieuwolda,Oldambt,Groningen,VBO,6.976119,53.247528
Dok,2,B,,9944BR,Nieuwolda,Oldambt,Groningen,VBO,6.976215,53.247302
Dok,2,,,9944BR,Nieuwolda,Oldambt,Groningen,VBO,6.976021,53.247709
Dok,3,,,9944BR,Nieuwolda,Oldambt,Groningen,VBO,6.976398,53.247061
Dok,4,,,9944BR,Nieuwolda,Oldambt,Groningen,VBO,6.976361,53.246755
Dok,5,,,9944BR,Nieuwolda,Oldambt,Groningen,VBO,6.976401,53.246652
Dok,6,,,9944BR,Nieuwolda,Oldambt,Groningen,VBO,6.976465,53.246530
Dok,7,,,9944BR,Nieuwolda,Oldambt,Groningen,VBO,6.976502,53.246454
Dok,8,,,9944BR,Nieuwolda,Oldambt,Groningen,VBO,6.976791,53.246486
Dok,9,,,9944BR,Nieuwolda,Oldambt,Groningen,VBO,6.976905,53.246509
Dok,10,,,9944BR,Nieuwolda,Oldambt,Groningen,VBO,6.977036,53.246525
Dok,11,,,9944BR,Nieuwolda,Oldambt,Groningen,VBO,6.976581,53.246245
Dok,12,,,9944BR,Nieuwolda,Oldambt,Groningen,VBO,6.976687,53.246262
Dok,13,,,9944BR,Nieuwolda,Oldambt,Groningen,VBO,6.976837,53.246287
Dok,14,,,9944BR,Nieuwolda,Oldambt,Groningen,VBO,6.977196,53.246255
Dok,15,,,9944BR,Nieuwolda,Oldambt,Groningen,VBO,6.977361,53.245867
Dok,16,,,9944BR,Nieuwolda,Oldambt,Groningen,VBO,6.977507,53.245757
Hamrikkerstraat,1,,,9944BS,Nieuwolda,Oldambt,Groningen,VBO,6.980112,53.246815
Hamrikkerstraat,2,,,9944BS,Nieuwolda,Oldambt,Groningen,VBO,6.979772,53.246780
Hamrikkerstraat,3,,,9944BS,Nieuwolda,Oldambt,Groningen,VBO,6.980193,53.246627
Hamrikkerstraat,4,,,9944BS,Nieuwolda,Oldambt,Groningen,VBO,6.979806,53.246717
Hamrikkerstraat,6,,,9944BS,Nieuwolda,Oldambt,Groningen,VBO,6.979911,53.246528
Hamrikkerstraat,8,,,9944BS,Nieuwolda,Oldambt,Groningen,VBO,6.979949,53.246474
Hamrikkerstraat,20,,,9944BS,Nieuwolda,Oldambt,Groningen,VBO,6.980042,53.246235
Noorderlaan,5,,,9944BT,Nieuwolda,Oldambt,Groningen,VBO,6.981845,53.250031
Noorderlaan,9,,,9944BT,Nieuwolda,Oldambt,Groningen,VBO,6.982018,53.249685
Noorderlaan,13,,,9944BT,Nieuwolda,Oldambt,Groningen,VBO,6.982014,53.249319
Noorderlaan,15,,,9944BT,Nieuwolda,Oldambt,Groningen,VBO,6.982097,53.249138
Noorderlaan,16,A,,9944BT,Nieuwolda,Oldambt,Groningen,VBO,6.979792,53.247852
Noorderlaan,16,,,9944BT,Nieuwolda,Oldambt,Groningen,VBO,6.980245,53.248497
Noorderlaan,18,,,9944BT,Nieuwolda,Oldambt,Groningen,VBO,6.982128,53.247969
Noorderlaan,19,,,9944BT,Nieuwolda,Oldambt,Groningen,VBO,6.982238,53.248893
Noorderlaan,20,,,9944BT,Nieuwolda,Oldambt,Groningen,VBO,6.982135,53.247839
Noorderlaan,22,,,9944BT,Nieuwolda,Oldambt,Groningen,VBO,6.982116,53.247723
Noorderlaan,23,,,9944BT,Nieuwolda,Oldambt,Groningen,VBO,6.982231,53.248714
Noorderlaan,24,,,9944BT,Nieuwolda,Oldambt,Groningen,VBO,6.982279,53.247581
Noorderlaan,25,,,9944BT,Nieuwolda,Oldambt,Groningen,VBO,6.982303,53.248515
Noorderlaan,27,A,,9944BT,Nieuwolda,Oldambt,Groningen,VBO,6.982490,53.248310
Noorderlaan,27,B,,9944BT,Nieuwolda,Oldambt,Groningen,VBO,6.982507,53.248250
Noorderlaan,27,,,9944BT,Nieuwolda,Oldambt,Groningen,VBO,6.982331,53.248452
Noorderlaan,29,B,,9944BT,Nieuwolda,Oldambt,Groningen,VBO,6.982663,53.247889
Noorderlaan,29,C,,9944BT,Nieuwolda,Oldambt,Groningen,VBO,6.982663,53.247827
Noorderlaan,29,,,9944BT,Nieuwolda,Oldambt,Groningen,VBO,6.982577,53.248063
Noorderlaan,31,,,9944BT,Nieuwolda,Oldambt,Groningen,VBO,6.982596,53.247692
Hoofdweg Oost,1,,,9944BV,Nieuwolda,Oldambt,Groningen,VBO,6.985518,53.247663
Hoofdweg Oost,3,,,9944BV,Nieuwolda,Oldambt,Groningen,VBO,6.987446,53.248321
Hoofdweg Oost,5,A,,9944BV,Nieuwolda,Oldambt,Groningen,VBO,6.988406,53.248353
Hoofdweg Oost,5,,,9944BV,Nieuwolda,Oldambt,Groningen,VBO,6.988016,53.248358
Hoofdweg Oost,7,,,9944BV,Nieuwolda,Oldambt,Groningen,VBO,6.989230,53.248351
Hoofdweg Oost,9,,,9944BV,Nieuwolda,Oldambt,Groningen,VBO,6.992627,53.248234
Hoofdweg Oost,15,A,,9944BV,Nieuwolda,Oldambt,Groningen,VBO,6.996635,53.248185
Hoofdweg Oost,17,A,,9944BV,Nieuwolda,Oldambt,Groningen,VBO,6.998000,53.248467
Hoofdweg Oost,17,B,,9944BV,Nieuwolda,Oldambt,Groningen,VBO,6.998118,53.248439
Hoofdweg Oost,17,,,9944BV,Nieuwolda,Oldambt,Groningen,VBO,6.996641,53.249816
Hoofdweg Oost,19,,,9944BV,Nieuwolda,Oldambt,Groningen,VBO,6.999503,53.248195
Hoofdweg Oost,21,,,9944BV,Nieuwolda,Oldambt,Groningen,VBO,6.999981,53.248162
Hoofdweg Oost,25,,,9944BV,Nieuwolda,Oldambt,Groningen,VBO,7.000640,53.248162
Hoofdweg Oost,27,,,9944BV,Nieuwolda,Oldambt,Groningen,VBO,7.000806,53.248178
Hoofdweg Oost,29,,,9944BV,Nieuwolda,Oldambt,Groningen,VBO,7.001046,53.248184
Hoofdweg Oost,31,,,9944BV,Nieuwolda,Oldambt,Groningen,VBO,7.001360,53.248179
Hoofdweg Oost,35,,,9944BV,Nieuwolda,Oldambt,Groningen,VBO,7.001675,53.248193
Hoofdweg Oost,39,,,9944BW,Nieuwolda,Oldambt,Groningen,VBO,7.002065,53.248206
Hoofdweg Oost,41,,,9944BW,Nieuwolda,Oldambt,Groningen,VBO,7.002230,53.248195
Hoofdweg Oost,43,,,9944BW,Nieuwolda,Oldambt,Groningen,VBO,7.002454,53.248174
Hoofdweg Oost,47,,,9944BW,Nieuwolda,Oldambt,Groningen,VBO,7.002620,53.248207
Hoofdweg Oost,53,,,9944BW,Nieuwolda,Oldambt,Groningen,VBO,7.004276,53.248428
Hoofdweg Oost,55,,,9944BW,Nieuwolda,Oldambt,Groningen,VBO,7.005723,53.248255
Hoofdweg Oost,57,,,9944BW,Nieuwolda,Oldambt,Groningen,VBO,7.006291,53.248212
Hoofdweg Oost,59,,,9944BW,Nieuwolda,Oldambt,Groningen,VBO,7.006575,53.248208
Hoofdweg Oost,61,,,9944BW,Nieuwolda,Oldambt,Groningen,VBO,7.007178,53.248290
Hoofdweg Oost,63,,,9944BW,Nieuwolda,Oldambt,Groningen,VBO,7.007645,53.248364
Hoofdweg Oost,65,,,9944BW,Nieuwolda,Oldambt,Groningen,VBO,7.008328,53.248580
Hoofdweg Oost,67,,,9944BW,Nieuwolda,Oldambt,Groningen,VBO,7.013936,53.249502
Hoofdweg Oost,69,,,9944BW,Nieuwolda,Oldambt,Groningen,VBO,7.014775,53.249895
Hoofdweg Oost,71,,,9944BW,Nieuwolda,Oldambt,Groningen,VBO,7.014898,53.249974
Hoofdweg Oost,75,,,9944BW,Nieuwolda,Oldambt,Groningen,VBO,7.015281,53.250193
Hoofdweg Oost,77,A,,9944BW,Nieuwolda,Oldambt,Groningen,VBO,7.019723,53.251769
Hoofdweg Oost,77,,,9944BW,Nieuwolda,Oldambt,Groningen,VBO,7.019605,53.251564
Hoofdweg Oost,6,,,9944BX,Nieuwolda,Oldambt,Groningen,VBO,6.992164,53.243563
Hoofdweg Oost,10,,,9944BX,Nieuwolda,Oldambt,Groningen,VBO,6.997101,53.247679
Hoofdweg Oost,12,A,,9944BX,Nieuwolda,Oldambt,Groningen,VBO,6.999180,53.247975
Hoofdweg Oost,12,,,9944BX,Nieuwolda,Oldambt,Groningen,VBO,6.999064,53.248075
Hoofdweg Oost,14,,,9944BX,Nieuwolda,Oldambt,Groningen,VBO,7.000149,53.247432
Hoofdweg Oost,20,,,9944BX,Nieuwolda,Oldambt,Groningen,VBO,7.006213,53.247737
Hoofdweg Oost,22,A,,9944BX,Nieuwolda,Oldambt,Groningen,VBO,7.008823,53.247769
Hoofdweg Oost,22,,,9944BX,Nieuwolda,Oldambt,Groningen,VBO,7.008618,53.247929
Hoofdweg Oost,24,,,9944BX,Nieuwolda,Oldambt,Groningen,VBO,7.009962,53.248612
Hoofdweg Oost,26,,,9944BX,Nieuwolda,Oldambt,Groningen,VBO,7.012774,53.246084
Hoofdweg Oost,28,,,9944BX,Nieuwolda,Oldambt,Groningen,VBO,7.012545,53.248774
Hoofdweg Oost,30,,,9944BX,Nieuwolda,Oldambt,Groningen,VBO,7.016698,53.250021
Hoofdweg Oost,32,,,9944BX,Nieuwolda,Oldambt,Groningen,VBO,7.017475,53.249221
Hoofdweg Oost,34,,,9944BX,Nieuwolda,Oldambt,Groningen,VBO,7.020026,53.251309
Oosterschoolstraat,1,,,9944CA,Nieuwolda,Oldambt,Groningen,VBO,6.998442,53.248668
Oosterschoolstraat,2,,,9944CA,Nieuwolda,Oldambt,Groningen,VBO,6.998855,53.248492
Oosterschoolstraat,3,,,9944CA,Nieuwolda,Oldambt,Groningen,VBO,6.998473,53.248704
Oosterschoolstraat,4,,,9944CA,Nieuwolda,Oldambt,Groningen,VBO,6.998875,53.248644
Oosterschoolstraat,5,,,9944CA,Nieuwolda,Oldambt,Groningen,VBO,6.998581,53.248783
Oosterschoolstraat,6,,,9944CA,Nieuwolda,Oldambt,Groningen,VBO,6.998908,53.248707
Oosterschoolstraat,7,,,9944CA,Nieuwolda,Oldambt,Groningen,VBO,6.998613,53.248836
Oosterschoolstraat,8,,,9944CA,Nieuwolda,Oldambt,Groningen,VBO,6.999031,53.248812
Oosterschoolstraat,10,,,9944CA,Nieuwolda,Oldambt,Groningen,VBO,6.999077,53.248866
De Kamp,2,,,9944CB,Nieuwolda,Oldambt,Groningen,VBO,7.001753,53.251086
De Kamp,3,,,9944CB,Nieuwolda,Oldambt,Groningen,VBO,7.001898,53.250949
De Kamp,4,,,9944CB,Nieuwolda,Oldambt,Groningen,VBO,7.002119,53.250847
De Kamp,5,,,9944CB,Nieuwolda,Oldambt,Groningen,VBO,7.002310,53.250728
De Kamp,6,,,9944CB,Nieuwolda,Oldambt,Groningen,VBO,7.000949,53.250405
De Kamp,8,,,9944CB,Nieuwolda,Oldambt,Groningen,VBO,7.001556,53.250208
De Kamp,9,,,9944CB,Nieuwolda,Oldambt,Groningen,VBO,7.001912,53.250122
De Kamp,10,,,9944CB,Nieuwolda,Oldambt,Groningen,VBO,7.001504,53.249633
De Kamp,12,,,9944CB,Nieuwolda,Oldambt,Groningen,VBO,7.001041,53.249667
De Kamp,13,,,9944CB,Nieuwolda,Oldambt,Groningen,VBO,7.000829,53.249607
De Kamp,15,,,9944CB,Nieuwolda,Oldambt,Groningen,VBO,7.000378,53.249577
De Kamp,17,,,9944CB,Nieuwolda,Oldambt,Groningen,VBO,7.000203,53.249282
De Kamp,18,A,,9944CB,Nieuwolda,Oldambt,Groningen,VBO,7.000268,53.249039
De Kamp,18,B,,9944CB,Nieuwolda,Oldambt,Groningen,VBO,7.000230,53.248824
De Kamp,18,,,9944CB,Nieuwolda,Oldambt,Groningen,VBO,7.000256,53.249111
De Kamp,19,,,9944CB,Nieuwolda,Oldambt,Groningen,VBO,7.000812,53.249157
De Kamp,20,,,9944CB,Nieuwolda,Oldambt,Groningen,VBO,7.000878,53.248914
De Kamp,21,,,9944CB,Nieuwolda,Oldambt,Groningen,VBO,7.000798,53.248762
De Kamp,22,,,9944CB,Nieuwolda,Oldambt,Groningen,VBO,6.999721,53.248435
De Kamp,23,,,9944CB,Nieuwolda,Oldambt,Groningen,VBO,7.000084,53.248520
De Kamp,24,,,9944CB,Nieuwolda,Oldambt,Groningen,VBO,7.000820,53.248555
De Kamp,26,A,,9944CB,Nieuwolda,Oldambt,Groningen,VBO,7.001486,53.248724
De Kamp,26,,,9944CB,Nieuwolda,Oldambt,Groningen,VBO,7.001500,53.248674
De Kamp,26,,,9944CB,Nieuwolda,Oldambt,Groningen,VBO,7.001286,53.248552
De Kamp,27,A,,9944CB,Nieuwolda,Oldambt,Groningen,VBO,7.001434,53.248933
De Kamp,27,,,9944CB,Nieuwolda,Oldambt,Groningen,VBO,7.001449,53.248885
De Kamp,28,A,,9944CB,Nieuwolda,Oldambt,Groningen,VBO,7.001410,53.249143
De Kamp,28,,,9944CB,Nieuwolda,Oldambt,Groningen,VBO,7.001423,53.249098
De Kamp,29,,,9944CB,Nieuwolda,Oldambt,Groningen,VBO,7.001242,53.249293
De Kamp,30,,,9944CB,Nieuwolda,Oldambt,Groningen,VBO,7.002705,53.248871
De Kamp,32,,,9944CB,Nieuwolda,Oldambt,Groningen,VBO,7.002341,53.248768
De Kamp,33,,,9944CB,Nieuwolda,Oldambt,Groningen,VBO,7.001919,53.248693
Langeweg,1,,,9944CC,Nieuwolda,Oldambt,Groningen,VBO,7.014032,53.248853
Langeweg,2,,,9944CC,Nieuwolda,Oldambt,Groningen,VBO,7.014822,53.249089
Langeweg,3,,,9944CC,Nieuwolda,Oldambt,Groningen,VBO,7.014930,53.248041
Langeweg,4,,,9944CC,Nieuwolda,Oldambt,Groningen,VBO,7.014711,53.247792
Langeweg,5,,,9944CC,Nieuwolda,Oldambt,Groningen,VBO,7.014604,53.247749
Kastanjelaan,5,,,9944DA,Nieuwolda,Oldambt,Groningen,VBO,6.973524,53.241462
Kastanjelaan,7,,,9944DA,Nieuwolda,Oldambt,Groningen,VBO,6.973785,53.241487
Kastanjelaan,9,,,9944DA,Nieuwolda,Oldambt,Groningen,VBO,6.974163,53.241704
Kastanjelaan,10,,,9944DA,Nieuwolda,Oldambt,Groningen,VBO,6.974030,53.241952
Kastanjelaan,12,,,9944DA,Nieuwolda,Oldambt,Groningen,VBO,6.974166,53.241968
Kastanjelaan,13,,,9944DA,Nieuwolda,Oldambt,Groningen,VBO,6.974915,53.241806
Kastanjelaan,14,,,9944DA,Nieuwolda,Oldambt,Groningen,VBO,6.974395,53.241994
Kastanjelaan,16,,,9944DA,Nieuwolda,Oldambt,Groningen,VBO,6.974530,53.242011
Kastanjelaan,18,,,9944DA,Nieuwolda,Oldambt,Groningen,VBO,6.974761,53.242038
Kastanjelaan,20,,,9944DA,Nieuwolda,Oldambt,Groningen,VBO,6.974895,53.242054
Lindelaan,1,,,9944DB,Nieuwolda,Oldambt,Groningen,VBO,6.972801,53.242162
Lindelaan,3,,,9944DB,Nieuwolda,Oldambt,Groningen,VBO,6.972747,53.242109
Lindelaan,5,,,9944DB,Nieuwolda,Oldambt,Groningen,VBO,6.972669,53.241813
Lindelaan,7,,,9944DB,Nieuwolda,Oldambt,Groningen,VBO,6.972694,53.241755
Lindelaan,13,,,9944DB,Nieuwolda,Oldambt,Groningen,VBO,6.972871,53.241220
Hoofdweg West,15,,,9944EA,Nieuwolda,Oldambt,Groningen,VBO,6.953725,53.226622
Hoofdweg West,17,A,,9944EA,Nieuwolda,Oldambt,Groningen,VBO,6.958057,53.227699
Hoofdweg West,17,,,9944EA,Nieuwolda,Oldambt,Groningen,VBO,6.956061,53.228281
Hoofdweg West,19,,,9944EA,Nieuwolda,Oldambt,Groningen,VBO,6.959566,53.228289
Hoofdweg West,21,,,9944EA,Nieuwolda,Oldambt,Groningen,VBO,6.959372,53.229549
Hoofdweg West,23,,,9944EA,Nieuwolda,Oldambt,Groningen,VBO,6.960997,53.229321
Hoofdweg West,25,,,9944EA,Nieuwolda,Oldambt,Groningen,VBO,6.961221,53.230206
Hoofdweg West,27,,,9944EA,Nieuwolda,Oldambt,Groningen,VBO,6.961739,53.230786
Hoofdweg West,29,,,9944EA,Nieuwolda,Oldambt,Groningen,VBO,6.962758,53.231635
Hoofdweg West,31,,,9944EA,Nieuwolda,Oldambt,Groningen,VBO,6.962907,53.232010
Hoofdweg West,33,,,9944EA,Nieuwolda,Oldambt,Groningen,VBO,6.964044,53.234862
Hoofdweg West,35,A,,9944EA,Nieuwolda,Oldambt,Groningen,VBO,6.962598,53.236312
Hoofdweg West,35,,,9944EA,Nieuwolda,Oldambt,Groningen,VBO,6.963479,53.235778
Hoofdweg West,37,,,9944EA,Nieuwolda,Oldambt,Groningen,VBO,6.964224,53.236909
Hoofdweg West,39,A,,9944EA,Nieuwolda,Oldambt,Groningen,VBO,6.964044,53.237316
Hoofdweg West,39,,,9944EA,Nieuwolda,Oldambt,Groningen,VBO,6.964216,53.237107
Hoofdweg West,41,,,9944EA,Nieuwolda,Oldambt,Groningen,VBO,6.963931,53.237488
Hoofdweg West,43,,,9944EA,Nieuwolda,Oldambt,Groningen,VBO,6.963885,53.237884
Hoofdweg West,45,,,9944EA,Nieuwolda,Oldambt,Groningen,VBO,6.963749,53.238254
Hoofdweg West,49,,,9944EA,Nieuwolda,Oldambt,Groningen,VBO,6.963857,53.238756
Hoofdweg West,51,,,9944EA,Nieuwolda,Oldambt,Groningen,VBO,6.964139,53.239094
Hoofdweg West,53,,,9944EA,Nieuwolda,Oldambt,Groningen,VBO,6.964406,53.239423
Hoofdweg West,55,,,9944EA,Nieuwolda,Oldambt,Groningen,VBO,6.964521,53.239709
Hoofdweg West,57,,,9944EA,Nieuwolda,Oldambt,Groningen,VBO,6.964816,53.239984
Hoofdweg West,59,,,9944EA,Nieuwolda,Oldambt,Groningen,VBO,6.965805,53.240816
Hoofdweg West,61,,,9944EA,Nieuwolda,Oldambt,Groningen,VBO,6.966297,53.241169
Hoofdweg West,63,,,9944EA,Nieuwolda,Oldambt,Groningen,VBO,6.966649,53.242350
Hoofdweg West,4,,,9944EB,Nieuwolda,Oldambt,Groningen,VBO,6.955830,53.224345
Hoofdweg West,6,,,9944EB,Nieuwolda,Oldambt,Groningen,VBO,6.955891,53.225227
Hoofdweg West,8,A,,9944EB,Nieuwolda,Oldambt,Groningen,VBO,6.959186,53.226487
Hoofdweg West,8,B,,9944EB,Nieuwolda,Oldambt,Groningen,VBO,6.959746,53.226642
Hoofdweg West,8,,,9944EB,Nieuwolda,Oldambt,Groningen,VBO,6.960279,53.225047
Hoofdweg West,10,A,,9944EB,Nieuwolda,Oldambt,Groningen,VBO,6.961898,53.229534
Hoofdweg West,10,B,,9944EB,Nieuwolda,Oldambt,Groningen,VBO,6.961858,53.228978
Hoofdweg West,10,,,9944EB,Nieuwolda,Oldambt,Groningen,VBO,6.962054,53.228759
Hoofdweg West,12,,,9944EB,Nieuwolda,Oldambt,Groningen,VBO,6.963229,53.230973
Hoofdweg West,14,,,9944EB,Nieuwolda,Oldambt,Groningen,VBO,6.963334,53.230998
Hoofdweg West,20,,,9944EB,Nieuwolda,Oldambt,Groningen,VBO,6.963362,53.232589
Hoofdweg West,22,,,9944EB,Nieuwolda,Oldambt,Groningen,VBO,6.964356,53.234364
Hoofdweg West,26,,,9944EB,Nieuwolda,Oldambt,Groningen,VBO,6.965234,53.235719
Hoofdweg West,28,,,9944EB,Nieuwolda,Oldambt,Groningen,VBO,6.964602,53.236590
Hoofdweg West,32,,,9944EB,Nieuwolda,Oldambt,Groningen,VBO,6.964642,53.236859
Hoofdweg West,34,,,9944EB,Nieuwolda,Oldambt,Groningen,VBO,6.964540,53.236950
Hoofdweg West,36,,,9944EB,Nieuwolda,Oldambt,Groningen,VBO,6.964484,53.237049
Hoofdweg West,40,,,9944EB,Nieuwolda,Oldambt,Groningen,VBO,6.964496,53.237373
Hoofdweg West,42,,,9944EB,Nieuwolda,Oldambt,Groningen,VBO,6.964492,53.237696
Hoofdweg West,58,,,9944EB,Nieuwolda,Oldambt,Groningen,VBO,6.964204,53.238015
Hoofdweg West,64,,,9944EB,Nieuwolda,Oldambt,Groningen,VBO,6.964401,53.238470
Hoofdweg West,66,A,,9944EB,Nieuwolda,Oldambt,Groningen,VBO,6.964519,53.238846
Hoofdweg West,66,,,9944EB,Nieuwolda,Oldambt,Groningen,VBO,6.964503,53.238802
Hoofdweg West,68,,,9944EB,Nieuwolda,Oldambt,Groningen,VBO,6.964629,53.238971
Hoofdweg West,70,,,9944EB,Nieuwolda,Oldambt,Groningen,VBO,6.964739,53.239122
Hoofdweg West,72,,,9944EB,Nieuwolda,Oldambt,Groningen,VBO,6.965175,53.239566
Hoofdweg West,74,,,9944EB,Nieuwolda,Oldambt,Groningen,VBO,6.965381,53.239878
Hoofdweg West,76,,,9944EB,Nieuwolda,Oldambt,Groningen,VBO,6.965679,53.240251
Hoofdweg West,80,,,9944EB,Nieuwolda,Oldambt,Groningen,VBO,6.967107,53.241185
Hoofdweg West,82,,,9944EB,Nieuwolda,Oldambt,Groningen,VBO,6.967156,53.241292
Hoofdweg West,84,,,9944EB,Nieuwolda,Oldambt,Groningen,VBO,6.968148,53.240165
Hoofdweg West,88,,,9944EB,Nieuwolda,Oldambt,Groningen,VBO,6.967978,53.242486
Zijldieppad,3,,,9944ED,Nieuwolda,Oldambt,Groningen,VBO,6.965248,53.237480
Westerse Leegteweg,1,,,9944EE,Nieuwolda,Oldambt,Groningen,VBO,6.960996,53.237888
Oud-Nieuwlandseweg,2,,,9944EG,Nieuwolda,Oldambt,Groningen,VBO,6.966785,53.240338
Wagenborgerweg,3,,,9944GA,Nieuwolda,Oldambt,Groningen,VBO,6.963899,53.247707
Wagenborgerweg,5,,,9944GA,Nieuwolda,Oldambt,Groningen,VBO,6.964000,53.247589
Wagenborgerweg,7,,,9944GA,Nieuwolda,Oldambt,Groningen,VBO,6.964219,53.247433
Wagenborgerweg,9,,,9944GA,Nieuwolda,Oldambt,Groningen,VBO,6.964480,53.247205
Wagenborgerweg,11,,,9944GA,Nieuwolda,Oldambt,Groningen,VBO,6.964768,53.246886
Wagenborgerweg,13,,,9944GA,Nieuwolda,Oldambt,Groningen,VBO,6.964898,53.246759
Wagenborgerweg,15,,,9944GA,Nieuwolda,Oldambt,Groningen,VBO,6.965129,53.246513
Wagenborgerweg,17,,,9944GA,Nieuwolda,Oldambt,Groningen,VBO,6.965272,53.246332
Wagenborgerweg,19,,,9944GA,Nieuwolda,Oldambt,Groningen,VBO,6.965487,53.246059
Wagenborgerweg,21,,,9944GA,Nieuwolda,Oldambt,Groningen,VBO,6.965777,53.245786
Wagenborgerweg,23,,,9944GA,Nieuwolda,Oldambt,Groningen,VBO,6.965963,53.245541
Wagenborgerweg,25,,,9944GA,Nieuwolda,Oldambt,Groningen,VBO,6.966108,53.245413
Wagenborgerweg,27,,,9944GA,Nieuwolda,Oldambt,Groningen,VBO,6.966396,53.245113
Wagenborgerweg,29,,,9944GB,Nieuwolda,Oldambt,Groningen,VBO,6.966465,53.244950
Wagenborgerweg,31,,,9944GB,Nieuwolda,Oldambt,Groningen,VBO,6.966685,53.244812
Wagenborgerweg,33,,,9944GB,Nieuwolda,Oldambt,Groningen,VBO,6.966784,53.244658
Wagenborgerweg,35,,,9944GB,Nieuwolda,Oldambt,Groningen,VBO,6.966856,53.244576
Wagenborgerweg,39,,,9944GB,Nieuwolda,Oldambt,Groningen,VBO,6.967161,53.244312
Wagenborgerweg,41,,,9944GB,Nieuwolda,Oldambt,Groningen,VBO,6.967391,53.244048
Wagenborgerweg,43,,,9944GB,Nieuwolda,Oldambt,Groningen,VBO,6.967475,53.243894
Wagenborgerweg,45,,,9944GB,Nieuwolda,Oldambt,Groningen,VBO,6.967621,53.243775
Wagenborgerweg,47,,,9944GB,Nieuwolda,Oldambt,Groningen,VBO,6.967795,53.243611
Wagenborgerweg,49,,,9944GB,Nieuwolda,Oldambt,Groningen,VBO,6.967879,53.243466
Wagenborgerweg,51,,,9944GB,Nieuwolda,Oldambt,Groningen,VBO,6.968156,53.243256
Wagenborgerweg,2,,,9944GC,Nieuwolda,Oldambt,Groningen,VBO,6.962260,53.248780
Wagenborgerweg,4,,,9944GC,Nieuwolda,Oldambt,Groningen,VBO,6.962596,53.248542
Wagenborgerweg,6,,,9944GC,Nieuwolda,Oldambt,Groningen,VBO,6.962798,53.248341
Wagenborgerweg,8,,,9944GC,Nieuwolda,Oldambt,Groningen,VBO,6.962985,53.248123
Wagenborgerweg,10,,,9944GC,Nieuwolda,Oldambt,Groningen,VBO,6.963102,53.248023
Wagenborgerweg,12,,,9944GC,Nieuwolda,Oldambt,Groningen,VBO,6.963318,53.247804
Wagenborgerweg,14,A,,9944GC,Nieuwolda,Oldambt,Groningen,VBO,6.963504,53.247550
Wagenborgerweg,14,B,,9944GC,Nieuwolda,Oldambt,Groningen,VBO,6.963621,53.247468
Wagenborgerweg,14,C,,9944GC,Nieuwolda,Oldambt,Groningen,VBO,6.963706,53.247341
Wagenborgerweg,14,D,,9944GC,Nieuwolda,Oldambt,Groningen,VBO,6.963791,53.247205
Wagenborgerweg,14,,,9944GC,Nieuwolda,Oldambt,Groningen,VBO,6.963418,53.247668
Wagenborgerweg,16,,,9944GC,Nieuwolda,Oldambt,Groningen,VBO,6.964139,53.246886
Wagenborgerweg,18,,,9944GC,Nieuwolda,Oldambt,Groningen,VBO,6.965030,53.245841
Wagenborgerweg,20,,,9944GC,Nieuwolda,Oldambt,Groningen,VBO,6.965187,53.245641
Wagenborgerweg,22,,,9944GC,Nieuwolda,Oldambt,Groningen,VBO,6.965404,53.245422
Wagenborgerweg,24,,,9944GC,Nieuwolda,Oldambt,Groningen,VBO,6.965503,53.245277
Wagenborgerweg,26,,,9944GC,Nieuwolda,Oldambt,Groningen,VBO,6.965723,53.245139
Wagenborgerweg,28,,,9944GC,Nieuwolda,Oldambt,Groningen,VBO,6.965867,53.244976
Wagenborgerweg,30,,,9944GD,Nieuwolda,Oldambt,Groningen,VBO,6.966054,53.244776
Wagenborgerweg,32,A,,9944GD,Nieuwolda,Oldambt,Groningen,VBO,6.966025,53.244240
Wagenborgerweg,32,,,9944GD,Nieuwolda,Oldambt,Groningen,VBO,6.966196,53.244558
Wagenborgerweg,34,,,9944GD,Nieuwolda,Oldambt,Groningen,VBO,6.966430,53.244393
Wagenborgerweg,36,,,9944GD,Nieuwolda,Oldambt,Groningen,VBO,6.966545,53.244266
Wagenborgerweg,38,,,9944GD,Nieuwolda,Oldambt,Groningen,VBO,6.966632,53.244175
Wagenborgerweg,40,,,9944GD,Nieuwolda,Oldambt,Groningen,VBO,6.966732,53.244057
Wagenborgerweg,42,,,9944GD,Nieuwolda,Oldambt,Groningen,VBO,6.966862,53.243920
Wagenborgerweg,44,,,9944GD,Nieuwolda,Oldambt,Groningen,VBO,6.966977,53.243793
Wagenborgerweg,46,,,9944GD,Nieuwolda,Oldambt,Groningen,VBO,6.967122,53.243647
Wagenborgerweg,48,,,9944GD,Nieuwolda,Oldambt,Groningen,VBO,6.967268,53.243537
Wagenborgerweg,50,,,9944GD,Nieuwolda,Oldambt,Groningen,VBO,6.967337,53.243375
Wagenborgerweg,52,,,9944GD,Nieuwolda,Oldambt,Groningen,VBO,6.967570,53.243201
Wagenborgerweg,54,,,9944GD,Nieuwolda,Oldambt,Groningen,VBO,6.967698,53.243028
Binnen AE,2,,,9944TA,Nieuwolda,Oldambt,Groningen,VBO,7.024590,53.253850
Binnen AE,3,,,9944TA,Nieuwolda,Oldambt,Groningen,VBO,7.026825,53.254305
Binnen AE,5,A,,9944TA,Nieuwolda,Oldambt,Groningen,VBO,7.028968,53.254706
Binnen AE,5,,,9944TA,Nieuwolda,Oldambt,Groningen,VBO,7.028757,53.254900
Binnen AE,6,A,,9944TA,Nieuwolda,Oldambt,Groningen,VBO,7.030839,53.255504
Binnen AE,6,,,9944TA,Nieuwolda,Oldambt,Groningen,VBO,7.030696,53.255618
Provincialeweg,1,A,,9944TB,Nieuwolda,Oldambt,Groningen,VBO,7.042486,53.258077
Provincialeweg,5,,,9944TB,Nieuwolda,Oldambt,Groningen,VBO,7.048554,53.253762
Provincialeweg,6,A,,9944TB,Nieuwolda,Oldambt,Groningen,VBO,7.056030,53.247956
Provincialeweg,6,,,9944TB,Nieuwolda,Oldambt,Groningen,VBO,7.056669,53.247522
Provincialeweg,7,,,9944TB,Nieuwolda,Oldambt,Groningen,VBO,7.053745,53.245891
Provincialeweg,8,,,9944TB,Nieuwolda,Oldambt,Groningen,VBO,7.053526,53.245669
Provincialeweg,9,,,9944TB,Nieuwolda,Oldambt,Groningen,VBO,7.054421,53.245549
Provincialeweg,10,,,9944TB,Nieuwolda,Oldambt,Groningen,VBO,7.052233,53.244916
Provincialeweg,12,A,,9944TB,Nieuwolda,Oldambt,Groningen,VBO,7.059982,53.236075
Provincialeweg,12,,,9944TB,Nieuwolda,Oldambt,Groningen,VBO,7.059253,53.236191
Provincialeweg,14,A,,9944TB,Nieuwolda,Oldambt,Groningen,VBO,7.060567,53.233550
Provincialeweg,14,,,9944TB,Nieuwolda,Oldambt,Groningen,VBO,7.060779,53.232923
Provincialeweg,15,A,,9944TB,Nieuwolda,Oldambt,Groningen,VBO,7.061987,53.230735
Provincialeweg,15,,,9944TB,Nieuwolda,Oldambt,Groningen,VBO,7.062542,53.229764
Provincialeweg,16,A,,9944TB,Nieuwolda,Oldambt,Groningen,VBO,7.059715,53.228660
Provincialeweg,16,,,9944TB,Nieuwolda,Oldambt,Groningen,VBO,7.058313,53.228419
Provincialeweg,17,,,9944TB,Nieuwolda,Oldambt,Groningen,VBO,7.055129,53.227957
Provincialeweg,20,,,9944TB,Nieuwolda,Oldambt,Groningen,VBO,7.053482,53.227821
Polderdwarsweg,1,A,,9944TD,Nieuwolda,Oldambt,Groningen,VBO,7.030360,53.234965
Polderdwarsweg,1,,,9944TD,Nieuwolda,Oldambt,Groningen,VBO,7.029723,53.235150
Polderdwarsweg,2,,,9944TD,Nieuwolda,Oldambt,Groningen,VBO,7.034484,53.237044
Polderdwarsweg,3,A,,9944TD,Nieuwolda,Oldambt,Groningen,VBO,7.035725,53.237913
Polderdwarsweg,3,,,9944TD,Nieuwolda,Oldambt,Groningen,VBO,7.036007,53.237697
Polderdwarsweg,4,,,9944TD,Nieuwolda,Oldambt,Groningen,VBO,7.037353,53.238442
Polderdwarsweg,6,,,9944TD,Nieuwolda,Oldambt,Groningen,VBO,7.040923,53.239741
Polderdwarsweg,9,,,9944TD,Nieuwolda,Oldambt,Groningen,VBO,7.051487,53.244844
Kopaf,1,A,,9944VA,Nieuwolda,Oldambt,Groningen,VBO,6.957601,53.257101
Kopaf,1,,,9944VA,Nieuwolda,Oldambt,Groningen,VBO,6.957160,53.256863
Kopaf,2,,,9944VA,Nieuwolda,Oldambt,Groningen,VBO,6.957642,53.254053
Kopaf,3,,,9944VA,Nieuwolda,Oldambt,Groningen,VBO,6.957410,53.253858
Kopaf,4,,,9944VA,Nieuwolda,Oldambt,Groningen,VBO,6.957310,53.253572
Kopaf,5,,,9944VA,Nieuwolda,Oldambt,Groningen,VBO,6.957871,53.257465
Scheve Klap,1,,,9944VB,Nieuwolda,Oldambt,Groningen,VBO,6.970746,53.260351
Scheve Klap,2,,,9944VB,Nieuwolda,Oldambt,Groningen,VBO,6.968202,53.259639
Scheve Klap,3,,,9944VB,Nieuwolda,Oldambt,Groningen,VBO,6.968033,53.259737
De Dellen,2,,,9944VC,Nieuwolda,Oldambt,Groningen,VBO,6.933626,53.235366
Heemweg,14,,,9944VD,Nieuwolda,Oldambt,Groningen,VBO,7.011125,53.263752
Nieuwlandseweg,1,,,9944ZZ,Nieuwolda,Oldambt,Groningen,VBO,7.005306,53.238701
