openbareruimtenaam,huisnummer,huisletter,huisnummertoevoeging,postcode,woonplaatsnaam,gemeentenaam,provincienaam,typeadresseerbaarobject,longitude,latitude
Hoofdstraat,7,,,9968AA,Pieterburen,De Marne,Groningen,VBO,6.444757,53.401292
Hoofdstraat,11,,,9968AA,Pieterburen,De Marne,Groningen,VBO,6.444982,53.401290
Hoofdstraat,13,,,9968AA,Pieterburen,De Marne,Groningen,VBO,6.445222,53.401252
Hoofdstraat,15,,,9968AA,Pieterburen,De Marne,Groningen,VBO,6.445523,53.401250
Hoofdstraat,17,,,9968AA,Pieterburen,De Marne,Groningen,VBO,6.445747,53.401221
Hoofdstraat,19,,,9968AA,Pieterburen,De Marne,Groningen,VBO,6.445912,53.401183
Hoofdstraat,21,,,9968AA,Pieterburen,De Marne,Groningen,VBO,6.446016,53.401137
Hoofdstraat,23,,,9968AA,Pieterburen,De Marne,Groningen,VBO,6.446226,53.401118
Hoofdstraat,25,,,9968AA,Pieterburen,De Marne,Groningen,VBO,6.446480,53.401070
Hoofdstraat,27,,,9968AA,Pieterburen,De Marne,Groningen,VBO,6.446675,53.401042
Hoofdstraat,47,,,9968AB,Pieterburen,De Marne,Groningen,VBO,6.447663,53.400853
Hoofdstraat,51,,,9968AB,Pieterburen,De Marne,Groningen,VBO,6.448101,53.400939
Hoofdstraat,53,,,9968AB,Pieterburen,De Marne,Groningen,VBO,6.448339,53.400847
Hoofdstraat,59,,,9968AB,Pieterburen,De Marne,Groningen,VBO,6.448520,53.400855
Hoofdstraat,61,,,9968AB,Pieterburen,De Marne,Groningen,VBO,6.448759,53.400790
Hoofdstraat,63,,,9968AB,Pieterburen,De Marne,Groningen,VBO,6.448954,53.400788
Hoofdstraat,65,,,9968AB,Pieterburen,De Marne,Groningen,VBO,6.449477,53.400640
Hoofdstraat,69,,,9968AB,Pieterburen,De Marne,Groningen,VBO,6.449943,53.400627
Hoofdstraat,73,,,9968AB,Pieterburen,De Marne,Groningen,VBO,6.450319,53.400659
Hoofdstraat,77,,,9968AB,Pieterburen,De Marne,Groningen,VBO,6.450738,53.400566
Hoofdstraat,79,,,9968AB,Pieterburen,De Marne,Groningen,VBO,6.451067,53.400509
Hoofdstraat,81,,,9968AB,Pieterburen,De Marne,Groningen,VBO,6.451367,53.400461
Hoofdstraat,83,,,9968AB,Pieterburen,De Marne,Groningen,VBO,6.451741,53.400386
Hoofdstraat,85,,,9968AB,Pieterburen,De Marne,Groningen,VBO,6.452009,53.400303
Hoofdstraat,87,,,9968AB,Pieterburen,De Marne,Groningen,VBO,6.452519,53.400253
Hoofdstraat,91,,,9968AB,Pieterburen,De Marne,Groningen,VBO,6.452729,53.400207
Hoofdstraat,93,,,9968AB,Pieterburen,De Marne,Groningen,VBO,6.453090,53.400230
Hoofdstraat,101,,,9968AC,Pieterburen,De Marne,Groningen,VBO,6.453815,53.400241
Hoofdstraat,103,,,9968AC,Pieterburen,De Marne,Groningen,VBO,6.454352,53.400201
Hoofdstraat,105,T,,9968AC,Pieterburen,De Marne,Groningen,VBO,6.454805,53.400260
Hoofdstraat,105,,,9968AC,Pieterburen,De Marne,Groningen,VBO,6.454815,53.400080
Hoofdstraat,107,,,9968AC,Pieterburen,De Marne,Groningen,VBO,6.455026,53.400078
Hoofdstraat,133,,,9968AC,Pieterburen,De Marne,Groningen,VBO,6.458589,53.400056
Hoofdstraat,137,,,9968AC,Pieterburen,De Marne,Groningen,VBO,6.459069,53.400024
Hoofdstraat,139,,,9968AC,Pieterburen,De Marne,Groningen,VBO,6.459190,53.400041
Hoofdstraat,145,,,9968AC,Pieterburen,De Marne,Groningen,VBO,6.459400,53.400030
Hoofdstraat,151,,,9968AC,Pieterburen,De Marne,Groningen,VBO,6.459899,53.400143
Hoofdstraat,155,,,9968AD,Pieterburen,De Marne,Groningen,VBO,6.460125,53.400177
Hoofdstraat,157,,,9968AD,Pieterburen,De Marne,Groningen,VBO,6.460745,53.400306
Hoofdstraat,159,,,9968AD,Pieterburen,De Marne,Groningen,VBO,6.460906,53.400134
Hoofdstraat,161,,,9968AD,Pieterburen,De Marne,Groningen,VBO,6.461280,53.400077
Hoofdstraat,169,,,9968AD,Pieterburen,De Marne,Groningen,VBO,6.462056,53.399836
Hoofdstraat,171,,,9968AD,Pieterburen,De Marne,Groningen,VBO,6.462278,53.399699
Hoofdstraat,173,,,9968AD,Pieterburen,De Marne,Groningen,VBO,6.462562,53.399634
Hoofdstraat,175,,,9968AD,Pieterburen,De Marne,Groningen,VBO,6.463086,53.399548
Hoofdstraat,2,,,9968AE,Pieterburen,De Marne,Groningen,VBO,6.444866,53.400842
Hoofdstraat,4,,,9968AE,Pieterburen,De Marne,Groningen,VBO,6.445380,53.400972
Hoofdstraat,8,,,9968AE,Pieterburen,De Marne,Groningen,VBO,6.445739,53.400879
Hoofdstraat,10,,,9968AE,Pieterburen,De Marne,Groningen,VBO,6.446145,53.400867
Hoofdstraat,12,,,9968AE,Pieterburen,De Marne,Groningen,VBO,6.446413,53.400766
Hoofdstraat,24,,,9968AE,Pieterburen,De Marne,Groningen,VBO,6.446698,53.400763
Hoofdstraat,26,,,9968AE,Pieterburen,De Marne,Groningen,VBO,6.446953,53.400743
Hoofdstraat,30,,,9968AE,Pieterburen,De Marne,Groningen,VBO,6.447178,53.400714
Hoofdstraat,32,,,9968AE,Pieterburen,De Marne,Groningen,VBO,6.447403,53.400667
Hoofdstraat,38,,,9968AE,Pieterburen,De Marne,Groningen,VBO,6.447762,53.400619
Hoofdstraat,40,,,9968AE,Pieterburen,De Marne,Groningen,VBO,6.448091,53.400535
Hoofdstraat,44,,,9968AE,Pieterburen,De Marne,Groningen,VBO,6.448423,53.400586
Hoofdstraat,46,,,9968AE,Pieterburen,De Marne,Groningen,VBO,6.448524,53.400414
Hoofdstraat,48,,,9968AE,Pieterburen,De Marne,Groningen,VBO,6.448961,53.400447
Hoofdstraat,50,,,9968AE,Pieterburen,De Marne,Groningen,VBO,6.448368,53.398951
Hoofdstraat,56,,,9968AG,Pieterburen,De Marne,Groningen,VBO,6.449425,53.400362
Hoofdstraat,58,,,9968AG,Pieterburen,De Marne,Groningen,VBO,6.449801,53.400376
Hoofdstraat,60,,,9968AG,Pieterburen,De Marne,Groningen,VBO,6.449906,53.400366
Hoofdstraat,62,,,9968AG,Pieterburen,De Marne,Groningen,VBO,6.450235,53.400300
Hoofdstraat,64,,,9968AG,Pieterburen,De Marne,Groningen,VBO,6.449981,53.399764
Hoofdstraat,74,,,9968AG,Pieterburen,De Marne,Groningen,VBO,6.451032,53.399709
Hoofdstraat,76,A,,9968AG,Pieterburen,De Marne,Groningen,VBO,6.452351,53.399518
Hoofdstraat,76,,,9968AG,Pieterburen,De Marne,Groningen,VBO,6.451957,53.400016
Hoofdstraat,78,,,9968AG,Pieterburen,De Marne,Groningen,VBO,6.452303,53.400013
Hoofdstraat,80,,,9968AG,Pieterburen,De Marne,Groningen,VBO,6.452574,53.400019
Hoofdstraat,82,A,,9968AG,Pieterburen,De Marne,Groningen,VBO,6.452970,53.399620
Hoofdstraat,82,,,9968AG,Pieterburen,De Marne,Groningen,VBO,6.453068,53.399943
Hoofdstraat,84,,,9968AG,Pieterburen,De Marne,Groningen,VBO,6.453486,53.399831
Hoofdstraat,86,,,9968AG,Pieterburen,De Marne,Groningen,VBO,6.453636,53.399812
Hoofdstraat,88,,,9968AG,Pieterburen,De Marne,Groningen,VBO,6.454041,53.399782
Hoofdstraat,90,,,9968AG,Pieterburen,De Marne,Groningen,VBO,6.454070,53.399718
Hoofdstraat,92,,,9968AG,Pieterburen,De Marne,Groningen,VBO,6.454483,53.399721
Hoofdstraat,94,A,,9968AG,Pieterburen,De Marne,Groningen,VBO,6.454963,53.398767
Hoofdstraat,96,,,9968AG,Pieterburen,De Marne,Groningen,VBO,6.454881,53.399675
Hoofdstraat,98,,,9968AG,Pieterburen,De Marne,Groningen,VBO,6.455059,53.399602
Hoofdstraat,100,,,9968AG,Pieterburen,De Marne,Groningen,VBO,6.455281,53.399620
Hoofdstraat,102,,,9968AH,Pieterburen,De Marne,Groningen,VBO,6.455472,53.399284
Hoofdstraat,104,,,9968AH,Pieterburen,De Marne,Groningen,VBO,6.455660,53.399588
Hoofdstraat,108,,,9968AH,Pieterburen,De Marne,Groningen,VBO,6.455850,53.399343
Hoofdstraat,110,,,9968AH,Pieterburen,De Marne,Groningen,VBO,6.456030,53.399351
Hoofdstraat,112,,,9968AH,Pieterburen,De Marne,Groningen,VBO,6.456290,53.399528
Hoofdstraat,114,,,9968AH,Pieterburen,De Marne,Groningen,VBO,6.456483,53.399418
Hoofdstraat,116,,,9968AH,Pieterburen,De Marne,Groningen,VBO,6.456681,53.399516
Hoofdstraat,118,,,9968AH,Pieterburen,De Marne,Groningen,VBO,6.456921,53.399522
Hoofdstraat,120,,,9968AH,Pieterburen,De Marne,Groningen,VBO,6.457100,53.399449
Hoofdstraat,122,,,9968AH,Pieterburen,De Marne,Groningen,VBO,6.457312,53.399519
Hoofdstraat,126,,,9968AH,Pieterburen,De Marne,Groningen,VBO,6.457763,53.399497
Hoofdstraat,128,A,,9968AH,Pieterburen,De Marne,Groningen,VBO,6.458291,53.398989
Hoofdstraat,128,,,9968AH,Pieterburen,De Marne,Groningen,VBO,6.458263,53.399672
Hoofdstraat,130,,,9968AH,Pieterburen,De Marne,Groningen,VBO,6.458461,53.399751
Hoofdstraat,132,,,9968AH,Pieterburen,De Marne,Groningen,VBO,6.458686,53.399758
Hoofdstraat,134,,,9968AH,Pieterburen,De Marne,Groningen,VBO,6.458802,53.399560
Hoofdstraat,136,A,,9968AH,Pieterburen,De Marne,Groningen,VBO,6.459113,53.398775
Hoofdstraat,136,B,,9968AH,Pieterburen,De Marne,Groningen,VBO,6.459585,53.399013
Hoofdstraat,136,,,9968AH,Pieterburen,De Marne,Groningen,VBO,6.458630,53.398690
Hoofdstraat,138,A,,9968AH,Pieterburen,De Marne,Groningen,VBO,6.459172,53.399323
Hoofdstraat,138,,,9968AH,Pieterburen,De Marne,Groningen,VBO,6.459761,53.399425
Hoofdstraat,140,,,9968AH,Pieterburen,De Marne,Groningen,VBO,6.459450,53.399644
Hoofdstraat,142,,,9968AH,Pieterburen,De Marne,Groningen,VBO,6.459694,53.399767
Hoofdstraat,144,,,9968AH,Pieterburen,De Marne,Groningen,VBO,6.459874,53.399766
Hoofdstraat,150,,,9968AH,Pieterburen,De Marne,Groningen,VBO,6.460624,53.399669
Hoofdstraat,160,,,9968AJ,Pieterburen,De Marne,Groningen,VBO,6.461090,53.399683
Hoofdstraat,162,,,9968AJ,Pieterburen,De Marne,Groningen,VBO,6.461496,53.399688
Hoofdstraat,166,,,9968AJ,Pieterburen,De Marne,Groningen,VBO,6.461795,53.399596
Hoofdstraat,170,,,9968AJ,Pieterburen,De Marne,Groningen,VBO,6.461958,53.399504
Hoofdstraat,172,,,9968AJ,Pieterburen,De Marne,Groningen,VBO,6.462197,53.399448
Hoofdstraat,174,,,9968AJ,Pieterburen,De Marne,Groningen,VBO,6.462405,53.399375
Frederiksoordweg,1,,,9968AK,Pieterburen,De Marne,Groningen,VBO,6.454252,53.400409
Frederiksoordweg,3,,,9968AK,Pieterburen,De Marne,Groningen,VBO,6.454316,53.400543
Frederiksoordweg,7,,,9968AK,Pieterburen,De Marne,Groningen,VBO,6.454411,53.400731
Frederiksoordweg,9,,,9968AK,Pieterburen,De Marne,Groningen,VBO,6.454474,53.400874
Frederiksoordweg,11,,,9968AK,Pieterburen,De Marne,Groningen,VBO,6.454633,53.401214
Frederiksoordweg,15,,,9968AK,Pieterburen,De Marne,Groningen,VBO,6.454746,53.401510
Frederiksoordweg,19,,,9968AK,Pieterburen,De Marne,Groningen,VBO,6.454985,53.402065
Frederiksoordweg,21,,,9968AK,Pieterburen,De Marne,Groningen,VBO,6.454627,53.402185
Frederiksoordweg,23,,,9968AK,Pieterburen,De Marne,Groningen,VBO,6.454343,53.402232
Frederiksoordweg,25,,,9968AK,Pieterburen,De Marne,Groningen,VBO,6.454103,53.402261
Frederiksoordweg,27,,,9968AK,Pieterburen,De Marne,Groningen,VBO,6.453819,53.402318
Frederiksoordweg,29,,,9968AK,Pieterburen,De Marne,Groningen,VBO,6.453427,53.402285
Frederiksoordweg,2,A,,9968AL,Pieterburen,De Marne,Groningen,VBO,6.453545,53.400388
Frederiksoordweg,2,,,9968AL,Pieterburen,De Marne,Groningen,VBO,6.453936,53.400394
Frederiksoordweg,8,,,9968AL,Pieterburen,De Marne,Groningen,VBO,6.453999,53.400519
Frederiksoordweg,10,,,9968AL,Pieterburen,De Marne,Groningen,VBO,6.454031,53.400599
Frederiksoordweg,12,,,9968AL,Pieterburen,De Marne,Groningen,VBO,6.454033,53.400680
Frederiksoordweg,14,,,9968AL,Pieterburen,De Marne,Groningen,VBO,6.454049,53.400716
Frederiksoordweg,16,,,9968AL,Pieterburen,De Marne,Groningen,VBO,6.454127,53.400805
Frederiksoordweg,18,,,9968AL,Pieterburen,De Marne,Groningen,VBO,6.454208,53.401047
Frederiksoordweg,20,,,9968AL,Pieterburen,De Marne,Groningen,VBO,6.454118,53.401057
Frederiksoordweg,22,,,9968AL,Pieterburen,De Marne,Groningen,VBO,6.454013,53.401067
Frederiksoordweg,24,,,9968AL,Pieterburen,De Marne,Groningen,VBO,6.453908,53.401086
Frederiksoordweg,26,A,,9968AL,Pieterburen,De Marne,Groningen,VBO,6.453609,53.401151
Frederiksoordweg,26,B,,9968AL,Pieterburen,De Marne,Groningen,VBO,6.453549,53.401161
Frederiksoordweg,26,C,,9968AL,Pieterburen,De Marne,Groningen,VBO,6.453459,53.401180
Frederiksoordweg,26,D,,9968AL,Pieterburen,De Marne,Groningen,VBO,6.453317,53.401486
Frederiksoordweg,26,E,,9968AL,Pieterburen,De Marne,Groningen,VBO,6.452856,53.401697
Frederiksoordweg,26,,,9968AL,Pieterburen,De Marne,Groningen,VBO,6.453714,53.401141
Frederiksoordweg,28,,,9968AL,Pieterburen,De Marne,Groningen,VBO,6.454094,53.401291
Frederiksoordweg,30,,,9968AL,Pieterburen,De Marne,Groningen,VBO,6.454126,53.401362
Frederiksoordweg,32,,,9968AL,Pieterburen,De Marne,Groningen,VBO,6.454340,53.401522
Frederiksoordweg,34,,,9968AL,Pieterburen,De Marne,Groningen,VBO,6.454219,53.401487
Frederiksoordweg,36,,,9968AL,Pieterburen,De Marne,Groningen,VBO,6.454421,53.401737
Frederiksoordweg,38,,,9968AL,Pieterburen,De Marne,Groningen,VBO,6.454315,53.401711
Frederiksoordweg,40,,,9968AL,Pieterburen,De Marne,Groningen,VBO,6.454516,53.401943
Frederiksoordweg,42,,,9968AL,Pieterburen,De Marne,Groningen,VBO,6.454395,53.401917
Frederiksoordweg,44,,,9968AL,Pieterburen,De Marne,Groningen,VBO,6.454112,53.402027
Frederiksoordweg,46,,,9968AL,Pieterburen,De Marne,Groningen,VBO,6.453843,53.402093
Frederiksoordweg,48,,,9968AL,Pieterburen,De Marne,Groningen,VBO,6.453762,53.401869
Frederiksoordweg,50,,,9968AL,Pieterburen,De Marne,Groningen,VBO,6.453804,53.401716
Frederiksoordweg,52,,,9968AL,Pieterburen,De Marne,Groningen,VBO,6.453964,53.401534
Wilgepad,3,,,9968AM,Pieterburen,De Marne,Groningen,VBO,6.455128,53.401183
Wilgepad,5,,,9968AM,Pieterburen,De Marne,Groningen,VBO,6.455254,53.401406
Wilgepad,7,,,9968AM,Pieterburen,De Marne,Groningen,VBO,6.455304,53.401594
Wilgepad,9,,,9968AM,Pieterburen,De Marne,Groningen,VBO,6.455461,53.401872
Wilgepad,11,,,9968AM,Pieterburen,De Marne,Groningen,VBO,6.455480,53.402033
Wierhuisterweg,1,T,,9968AN,Pieterburen,De Marne,Groningen,VBO,6.444281,53.401494
Wierhuisterweg,1,,,9968AN,Pieterburen,De Marne,Groningen,VBO,6.444172,53.401351
Wierhuisterweg,5,,,9968AN,Pieterburen,De Marne,Groningen,VBO,6.443933,53.401425
Wierhuisterweg,9,,,9968AN,Pieterburen,De Marne,Groningen,VBO,6.443694,53.401472
Wierhuisterweg,11,,,9968AN,Pieterburen,De Marne,Groningen,VBO,6.443367,53.401619
Wierhuisterweg,13,,,9968AN,Pieterburen,De Marne,Groningen,VBO,6.443142,53.401666
Wierhuisterweg,15,,,9968AN,Pieterburen,De Marne,Groningen,VBO,6.442918,53.401722
Wierhuisterweg,17,,,9968AN,Pieterburen,De Marne,Groningen,VBO,6.442693,53.401751
Wierhuisterweg,19,,,9968AN,Pieterburen,De Marne,Groningen,VBO,6.442498,53.401779
Wierhuisterweg,21,,,9968AN,Pieterburen,De Marne,Groningen,VBO,6.442304,53.401835
Wierhuisterweg,23,,,9968AN,Pieterburen,De Marne,Groningen,VBO,6.442187,53.401944
Wierhuisterweg,25,,,9968AN,Pieterburen,De Marne,Groningen,VBO,6.442006,53.401945
Wierhuisterweg,27,,,9968AN,Pieterburen,De Marne,Groningen,VBO,6.441784,53.402091
Wierhuisterweg,29,,,9968AN,Pieterburen,De Marne,Groningen,VBO,6.441470,53.402139
Wierhuisterweg,31,,,9968AN,Pieterburen,De Marne,Groningen,VBO,6.441155,53.402186
Wierhuisterweg,33,,,9968AN,Pieterburen,De Marne,Groningen,VBO,6.440855,53.402225
Wierhuisterweg,35,,,9968AN,Pieterburen,De Marne,Groningen,VBO,6.440586,53.402263
Wierhuisterweg,37,,,9968AN,Pieterburen,De Marne,Groningen,VBO,6.445569,53.405580
Wierhuisterweg,43,,,9968AN,Pieterburen,De Marne,Groningen,VBO,6.441464,53.405571
Wierhuisterweg,49,,,9968AN,Pieterburen,De Marne,Groningen,VBO,6.434695,53.403016
Wierhuisterweg,51,,,9968AP,Pieterburen,De Marne,Groningen,VBO,6.434336,53.403091
Wierhuisterweg,57,,,9968AP,Pieterburen,De Marne,Groningen,VBO,6.430950,53.402967
Wierhuisterweg,63,,,9968AP,Pieterburen,De Marne,Groningen,VBO,6.428525,53.403411
Wierhuisterweg,67,,,9968AP,Pieterburen,De Marne,Groningen,VBO,6.422865,53.403154
Wierhuisterweg,4,,,9968AR,Pieterburen,De Marne,Groningen,VBO,6.435007,53.400398
Wierhuisterweg,6,,,9968AR,Pieterburen,De Marne,Groningen,VBO,6.430955,53.402572
Wierhuisterweg,8,,,9968AR,Pieterburen,De Marne,Groningen,VBO,6.430428,53.402532
Wierhuisterweg,10,,,9968AR,Pieterburen,De Marne,Groningen,VBO,6.429765,53.400623
Wierhuisterweg,12,,,9968AR,Pieterburen,De Marne,Groningen,VBO,6.426232,53.403089
Wierhuisterweg,16,,,9968AR,Pieterburen,De Marne,Groningen,VBO,6.425844,53.402625
Wierhuisterweg,20,,,9968AR,Pieterburen,De Marne,Groningen,VBO,6.426005,53.402435
Wierhuisterweg,22,,,9968AR,Pieterburen,De Marne,Groningen,VBO,6.425886,53.401852
Wierhuisterweg,24,,,9968AR,Pieterburen,De Marne,Groningen,VBO,6.425616,53.401261
Wierhuisterweg,26,,,9968AR,Pieterburen,De Marne,Groningen,VBO,6.425890,53.400756
Oudezeedijk,3,,,9968TA,Pieterburen,De Marne,Groningen,VBO,6.440325,53.413102
Oudezeedijk,7,,,9968TA,Pieterburen,De Marne,Groningen,VBO,6.462239,53.415577
Oudezeedijk,2,,,9968TB,Pieterburen,De Marne,Groningen,VBO,6.427019,53.408896
Oudezeedijk,4,,,9968TB,Pieterburen,De Marne,Groningen,VBO,6.443755,53.413135
Oudedijk,1,,,9968TC,Pieterburen,De Marne,Groningen,VBO,6.469855,53.405616
Oudedijk,2,,,9968TC,Pieterburen,De Marne,Groningen,VBO,6.463741,53.405886
Oudedijk,5,,,9968TC,Pieterburen,De Marne,Groningen,VBO,6.463120,53.405685
Oudedijk,7,,,9968TC,Pieterburen,De Marne,Groningen,VBO,6.462970,53.405705
Oudedijk,9,,,9968TC,Pieterburen,De Marne,Groningen,VBO,6.462671,53.405770
Oudedijk,11,,,9968TC,Pieterburen,De Marne,Groningen,VBO,6.462118,53.405901
Oudedijk,13,T,,9968TC,Pieterburen,De Marne,Groningen,VBO,6.461187,53.405963
Oudedijk,13,,,9968TC,Pieterburen,De Marne,Groningen,VBO,6.460385,53.405782
Oudedijk,15,,,9968TC,Pieterburen,De Marne,Groningen,VBO,6.458918,53.406037
Oudedijk,19,,,9968TC,Pieterburen,De Marne,Groningen,VBO,6.455769,53.406371
Wiebenerweg,1,,,9968TD,Pieterburen,De Marne,Groningen,VBO,6.443791,53.399935
Wiebenerweg,7,,,9968TD,Pieterburen,De Marne,Groningen,VBO,6.442215,53.395752
Luit,1,,,9968TE,Pieterburen,De Marne,Groningen,VBO,6.423909,53.380986
Broeksterkleiweg,1,,,9968TG,Pieterburen,De Marne,Groningen,VBO,6.420768,53.387231
Broeksterkleiweg,2,,,9968TG,Pieterburen,De Marne,Groningen,VBO,6.425449,53.393095
Broeksterkleiweg,3,T,,9968TG,Pieterburen,De Marne,Groningen,VBO,6.422518,53.381241
Broeksterkleiweg,3,,,9968TG,Pieterburen,De Marne,Groningen,VBO,6.422678,53.381033
Broeksterkleiweg,4,,,9968TG,Pieterburen,De Marne,Groningen,VBO,6.425416,53.392960
Broeksterweg,5,,,9968TH,Pieterburen,De Marne,Groningen,VBO,6.425345,53.393770
Broeksterweg,15,,,9968TH,Pieterburen,De Marne,Groningen,VBO,6.422103,53.394606
Broeksterweg,4,T,,9968TJ,Pieterburen,De Marne,Groningen,VBO,6.425753,53.393245
Broeksterweg,4,,,9968TJ,Pieterburen,De Marne,Groningen,VBO,6.425529,53.393292
Broeksterweg,6,,,9968TJ,Pieterburen,De Marne,Groningen,VBO,6.425322,53.393437
Broeksterweg,16,,,9968TJ,Pieterburen,De Marne,Groningen,VBO,6.424427,53.393715
Broeksterweg,18,,,9968TJ,Pieterburen,De Marne,Groningen,VBO,6.424082,53.393771
Broeksterweg,22,,,9968TJ,Pieterburen,De Marne,Groningen,VBO,6.423708,53.393829
Broeksterweg,24,a,,9968TJ,Pieterburen,De Marne,Groningen,VBO,6.422804,53.393312
Broeksterweg,24,,,9968TJ,Pieterburen,De Marne,Groningen,VBO,6.422988,53.393916
Broeksterweg,32,,,9968TJ,Pieterburen,De Marne,Groningen,VBO,6.421692,53.394385
Broeksterweg,34,,,9968TJ,Pieterburen,De Marne,Groningen,VBO,6.421438,53.394477
Broeksterweg,36,,,9968TJ,Pieterburen,De Marne,Groningen,VBO,6.421155,53.394551
Broeksterweg,40,,,9968TJ,Pieterburen,De Marne,Groningen,VBO,6.420810,53.394599
Broeksterweg,42,,,9968TJ,Pieterburen,De Marne,Groningen,VBO,6.420467,53.394710
Broeksterweg,44,,,9968TJ,Pieterburen,De Marne,Groningen,VBO,6.420362,53.394738
Broeksterweg,46,,,9968TJ,Pieterburen,De Marne,Groningen,VBO,6.419988,53.394804
Broeksterweg,48,,,9968TJ,Pieterburen,De Marne,Groningen,VBO,6.419779,53.394842
Broeksterweg,50,,,9968TJ,Pieterburen,De Marne,Groningen,VBO,6.419583,53.394852
Broeksterweg,52,,,9968TJ,Pieterburen,De Marne,Groningen,VBO,6.419508,53.394862
Oosterweg,19,,,9968TK,Pieterburen,De Marne,Groningen,VBO,6.460082,53.398452
Oosterweg,21,T,,9968TK,Pieterburen,De Marne,Groningen,VBO,6.460757,53.399587
Oosterweg,21,,,9968TK,Pieterburen,De Marne,Groningen,VBO,6.460694,53.399489
Oudedijksterweg,2,,,9968TL,Pieterburen,De Marne,Groningen,VBO,6.427119,53.393170
Oudedijksterweg,6,,,9968TL,Pieterburen,De Marne,Groningen,VBO,6.428628,53.392780
Oudedijksterweg,8,,,9968TL,Pieterburen,De Marne,Groningen,VBO,6.431681,53.392214
Oudedijksterweg,3,A,,9968TM,Pieterburen,De Marne,Groningen,VBO,6.429685,53.391676
Oudedijksterweg,3,,,9968TM,Pieterburen,De Marne,Groningen,VBO,6.429503,53.391649
Oudedijksterweg,5,,,9968TM,Pieterburen,De Marne,Groningen,VBO,6.433048,53.391573
Oudedijksterweg,7,,,9968TM,Pieterburen,De Marne,Groningen,VBO,6.434486,53.390743
Oudedijksterweg,9,,,9968TM,Pieterburen,De Marne,Groningen,VBO,6.434568,53.389781
Oudedijksterweg,11,,,9968TM,Pieterburen,De Marne,Groningen,VBO,6.434659,53.381801
Martenspad,1,,,9968TN,Pieterburen,De Marne,Groningen,STA,6.459275,53.398523
