openbareruimtenaam,huisnummer,huisletter,huisnummertoevoeging,postcode,woonplaatsnaam,gemeentenaam,provincienaam,typeadresseerbaarobject,longitude,latitude
Noorderstraat,1,a,,9989AA,Warffum,Eemsmond,Groningen,VBO,6.561938,53.393275
Noorderstraat,1,,,9989AA,Warffum,Eemsmond,Groningen,VBO,6.561771,53.393256
Noorderstraat,3,,,9989AA,Warffum,Eemsmond,Groningen,VBO,6.561467,53.393219
Noorderstraat,4,,,9989AA,Warffum,Eemsmond,Groningen,VBO,6.560996,53.393574
Noorderstraat,5,,,9989AA,Warffum,Eemsmond,Groningen,VBO,6.561031,53.393214
Noorderstraat,8,,,9989AA,Warffum,Eemsmond,Groningen,VBO,6.561218,53.393455
Noorderstraat,9,,,9989AA,Warffum,Eemsmond,Groningen,VBO,6.559678,53.393201
Noorderstraat,10,,,9989AA,Warffum,Eemsmond,Groningen,VBO,6.560828,53.393468
Noorderstraat,11,,,9989AA,Warffum,Eemsmond,Groningen,VBO,6.559150,53.393134
Noorderstraat,12,,,9989AA,Warffum,Eemsmond,Groningen,VBO,6.560511,53.393426
Noorderstraat,13,,,9989AA,Warffum,Eemsmond,Groningen,VBO,6.558770,53.392976
Noorderstraat,14,,,9989AA,Warffum,Eemsmond,Groningen,VBO,6.560225,53.393429
Noorderstraat,15,,,9989AA,Warffum,Eemsmond,Groningen,VBO,6.558299,53.392801
Noorderstraat,16,,,9989AA,Warffum,Eemsmond,Groningen,VBO,6.559892,53.393550
Noorderstraat,17,,,9989AA,Warffum,Eemsmond,Groningen,VBO,6.558059,53.392821
Noorderstraat,18,a,,9989AA,Warffum,Eemsmond,Groningen,VBO,6.559553,53.393529
Noorderstraat,18,,,9989AA,Warffum,Eemsmond,Groningen,VBO,6.559624,53.393417
Noorderstraat,20,,,9989AA,Warffum,Eemsmond,Groningen,VBO,6.559201,53.393550
Noorderstraat,22,,,9989AA,Warffum,Eemsmond,Groningen,VBO,6.558679,53.393498
Noorderstraat,24,,,9989AA,Warffum,Eemsmond,Groningen,VBO,6.557779,53.393039
Oosterstraat,1,,,9989AB,Warffum,Eemsmond,Groningen,VBO,6.563316,53.391000
Oosterstraat,7,,,9989AB,Warffum,Eemsmond,Groningen,VBO,6.563542,53.391033
Oosterstraat,9,,,9989AB,Warffum,Eemsmond,Groningen,VBO,6.563725,53.391103
Oosterstraat,11,,,9989AB,Warffum,Eemsmond,Groningen,VBO,6.563861,53.391138
Oosterstraat,15,,,9989AB,Warffum,Eemsmond,Groningen,VBO,6.564061,53.391307
Oosterstraat,19,,,9989AB,Warffum,Eemsmond,Groningen,VBO,6.563915,53.391461
Oosterstraat,21,,,9989AB,Warffum,Eemsmond,Groningen,VBO,6.563858,53.391587
Oosterstraat,23,,,9989AB,Warffum,Eemsmond,Groningen,VBO,6.563754,53.391642
Oosterstraat,25,,,9989AB,Warffum,Eemsmond,Groningen,VBO,6.563728,53.391709
Oosterstraat,27,,,9989AB,Warffum,Eemsmond,Groningen,VBO,6.563677,53.391768
Oosterstraat,29,,,9989AB,Warffum,Eemsmond,Groningen,VBO,6.563381,53.391777
Oosterstraat,35,,,9989AB,Warffum,Eemsmond,Groningen,VBO,6.563314,53.392042
Oosterstraat,37,,,9989AB,Warffum,Eemsmond,Groningen,VBO,6.562913,53.392226
Oosterstraat,39,,,9989AB,Warffum,Eemsmond,Groningen,VBO,6.562683,53.392605
Oosterstraat,41,,,9989AB,Warffum,Eemsmond,Groningen,VBO,6.562504,53.392634
Oosterstraat,43,,,9989AB,Warffum,Eemsmond,Groningen,VBO,6.562269,53.392843
Oosterstraat,47,,,9989AB,Warffum,Eemsmond,Groningen,VBO,6.562168,53.393006
Oosterstraat,51,a,,9989AC,Warffum,Eemsmond,Groningen,VBO,6.561418,53.393597
Oosterstraat,53,,,9989AC,Warffum,Eemsmond,Groningen,VBO,6.561391,53.393723
Oosterstraat,55,,,9989AC,Warffum,Eemsmond,Groningen,VBO,6.561184,53.393851
Oosterstraat,57,,,9989AC,Warffum,Eemsmond,Groningen,VBO,6.561006,53.393925
Oosterstraat,59,,,9989AC,Warffum,Eemsmond,Groningen,VBO,6.560633,53.394054
Oosterstraat,61,,,9989AC,Warffum,Eemsmond,Groningen,VBO,6.560472,53.394217
Oosterstraat,63,,,9989AC,Warffum,Eemsmond,Groningen,VBO,6.560295,53.394345
Oosterstraat,65,a,,9989AC,Warffum,Eemsmond,Groningen,VBO,6.560017,53.394608
Oosterstraat,65,b,,9989AC,Warffum,Eemsmond,Groningen,VBO,6.559885,53.394726
Oosterstraat,65,c,,9989AC,Warffum,Eemsmond,Groningen,VBO,6.559723,53.394845
Oosterstraat,65,,,9989AC,Warffum,Eemsmond,Groningen,VBO,6.560148,53.394463
Oosterstraat,67,,,9989AC,Warffum,Eemsmond,Groningen,VBO,6.559305,53.394975
Oosterstraat,69,,,9989AC,Warffum,Eemsmond,Groningen,VBO,6.559297,53.395235
Oosterstraat,71,,,9989AC,Warffum,Eemsmond,Groningen,VBO,6.558925,53.395356
Oosterstraat,2,a,,9989AD,Warffum,Eemsmond,Groningen,VBO,6.563852,53.390833
Oosterstraat,2,,,9989AD,Warffum,Eemsmond,Groningen,VBO,6.563654,53.390736
Oosterstraat,4,,,9989AD,Warffum,Eemsmond,Groningen,VBO,6.564033,53.390858
Oosterstraat,6,,,9989AD,Warffum,Eemsmond,Groningen,VBO,6.564228,53.390838
Oosterstraat,8,,,9989AD,Warffum,Eemsmond,Groningen,VBO,6.564187,53.390978
Oosterstraat,10,a,,9989AD,Warffum,Eemsmond,Groningen,VBO,6.564608,53.391544
Oosterstraat,10,b,,9989AD,Warffum,Eemsmond,Groningen,VBO,6.565758,53.391811
Oosterstraat,10,,,9989AD,Warffum,Eemsmond,Groningen,VBO,6.566981,53.391458
Oosterstraat,12,,,9989AD,Warffum,Eemsmond,Groningen,VBO,6.563367,53.392329
Oosterstraat,14,,,9989AD,Warffum,Eemsmond,Groningen,VBO,6.563176,53.392484
Oosterstraat,16,,,9989AD,Warffum,Eemsmond,Groningen,VBO,6.563708,53.392685
Oosterstraat,20,,,9989AD,Warffum,Eemsmond,Groningen,VBO,6.564148,53.392852
Oosterstraat,22,,,9989AD,Warffum,Eemsmond,Groningen,VBO,6.563044,53.392620
Oosterstraat,24,,,9989AD,Warffum,Eemsmond,Groningen,VBO,6.562958,53.392764
Oosterstraat,26,,,9989AD,Warffum,Eemsmond,Groningen,VBO,6.562915,53.392846
Oosterstraat,28,,,9989AD,Warffum,Eemsmond,Groningen,VBO,6.562677,53.392929
Oosterstraat,30,,,9989AD,Warffum,Eemsmond,Groningen,VBO,6.562529,53.393020
Oosterstraat,32,,,9989AD,Warffum,Eemsmond,Groningen,VBO,6.562532,53.393119
Oosterstraat,34,,,9989AD,Warffum,Eemsmond,Groningen,VBO,6.562250,53.393265
Oosterstraat,36,,,9989AD,Warffum,Eemsmond,Groningen,VBO,6.562060,53.393447
Oosterstraat,38,,,9989AD,Warffum,Eemsmond,Groningen,VBO,6.561912,53.393547
Oosterstraat,40,,,9989AD,Warffum,Eemsmond,Groningen,VBO,6.561794,53.393611
Oosterstraat,42,,,9989AD,Warffum,Eemsmond,Groningen,VBO,6.561738,53.393765
Oosterstraat,44,,,9989AD,Warffum,Eemsmond,Groningen,VBO,6.561651,53.393882
Oosterstraat,48,,,9989AD,Warffum,Eemsmond,Groningen,VBO,6.561475,53.394064
Oosterstraat,50,a,,9989AE,Warffum,Eemsmond,Groningen,VBO,6.561177,53.394157
Oosterstraat,50,,,9989AE,Warffum,Eemsmond,Groningen,VBO,6.561221,53.394120
Oosterstraat,52,,,9989AE,Warffum,Eemsmond,Groningen,VBO,6.560945,53.394446
Oosterstraat,54,,,9989AE,Warffum,Eemsmond,Groningen,VBO,6.560548,53.394774
Oosterstraat,56,a,,9989AE,Warffum,Eemsmond,Groningen,VBO,6.560372,53.395177
Oosterstraat,56,b,,9989AE,Warffum,Eemsmond,Groningen,VBO,6.560346,53.395099
Oosterstraat,56,c,,9989AE,Warffum,Eemsmond,Groningen,VBO,6.560301,53.395100
Oosterstraat,56,d,,9989AE,Warffum,Eemsmond,Groningen,VBO,6.560301,53.395118
Oosterstraat,56,e,,9989AE,Warffum,Eemsmond,Groningen,VBO,6.560388,53.395194
Oosterstraat,56,f,,9989AE,Warffum,Eemsmond,Groningen,VBO,6.560302,53.395136
Oosterstraat,56,g,,9989AE,Warffum,Eemsmond,Groningen,VBO,6.560373,53.395204
Oosterstraat,56,h,,9989AE,Warffum,Eemsmond,Groningen,VBO,6.560346,53.395090
Oosterstraat,56,k,,9989AE,Warffum,Eemsmond,Groningen,VBO,6.560285,53.395082
Oosterstraat,56,l,,9989AE,Warffum,Eemsmond,Groningen,VBO,6.560345,53.395072
Oosterstraat,56,m,,9989AE,Warffum,Eemsmond,Groningen,VBO,6.560271,53.395109
Oosterstraat,56,n,,9989AE,Warffum,Eemsmond,Groningen,VBO,6.560478,53.395212
Oosterstraat,56,o,,9989AE,Warffum,Eemsmond,Groningen,VBO,6.560361,53.395099
Oosterstraat,58,,,9989AE,Warffum,Eemsmond,Groningen,VBO,6.559519,53.395646
Schoolstraat,1,a,,9989AG,Warffum,Eemsmond,Groningen,VBO,6.561619,53.392175
Schoolstraat,1,,,9989AG,Warffum,Eemsmond,Groningen,VBO,6.561877,53.392254
Schoolstraat,2,,,9989AG,Warffum,Eemsmond,Groningen,VBO,6.561842,53.392083
Schoolstraat,3,,,9989AG,Warffum,Eemsmond,Groningen,VBO,6.562119,53.392323
Schoolstraat,4,,,9989AG,Warffum,Eemsmond,Groningen,VBO,6.562205,53.392161
Schoolstraat,5,,,9989AG,Warffum,Eemsmond,Groningen,VBO,6.562302,53.392393
Schoolstraat,6,,,9989AG,Warffum,Eemsmond,Groningen,VBO,6.562569,53.392265
Schoolstraat,8,,,9989AG,Warffum,Eemsmond,Groningen,VBO,6.562885,53.392289
Schoolstraat,11,,,9989AG,Warffum,Eemsmond,Groningen,VBO,6.562651,53.392507
Oosterkerkpad,1,,,9989AH,Warffum,Eemsmond,Groningen,VBO,6.562905,53.391372
Oosterkerkpad,3,,,9989AH,Warffum,Eemsmond,Groningen,VBO,6.562779,53.391706
Oosterkerkpad,4,,,9989AH,Warffum,Eemsmond,Groningen,VBO,6.563056,53.391397
Oosterkerkpad,5,,,9989AH,Warffum,Eemsmond,Groningen,VBO,6.563163,53.391701
Oosterkerkpad,6,,,9989AH,Warffum,Eemsmond,Groningen,VBO,6.563209,53.391547
Oosterkerkpad,7,a,,9989AH,Warffum,Eemsmond,Groningen,VBO,6.563366,53.391394
Oosterkerkpad,9,,,9989AH,Warffum,Eemsmond,Groningen,VBO,6.563508,53.391420
Zijlsterpad,2,,,9989AJ,Warffum,Eemsmond,Groningen,VBO,6.563309,53.392932
Zijlsterpad,4,,,9989AJ,Warffum,Eemsmond,Groningen,VBO,6.563672,53.393027
Zijlsterpad,5,,,9989AJ,Warffum,Eemsmond,Groningen,VBO,6.563854,53.393106
Touwslagersgang,1,,,9989AK,Warffum,Eemsmond,Groningen,VBO,6.563087,53.393078
Touwslagersgang,4,,,9989AK,Warffum,Eemsmond,Groningen,VBO,6.563751,53.393179
Noorderkerkpad,1,,,9989AL,Warffum,Eemsmond,Groningen,VBO,6.560648,53.392374
Noorderkerkpad,5,,,9989AL,Warffum,Eemsmond,Groningen,VBO,6.560361,53.392689
Noorderkerkpad,7,,,9989AL,Warffum,Eemsmond,Groningen,VBO,6.560266,53.392754
Noorderkerkpad,9,,,9989AL,Warffum,Eemsmond,Groningen,VBO,6.560076,53.392918
Noorderkerkpad,11,,,9989AL,Warffum,Eemsmond,Groningen,VBO,6.559993,53.393006
Noorderkerkpad,13,,,9989AL,Warffum,Eemsmond,Groningen,VBO,6.559901,53.393109
Noorderkerkpad,15,,,9989AL,Warffum,Eemsmond,Groningen,VBO,6.559828,53.393190
Hoofdstraat,1,a,,9989AM,Warffum,Eemsmond,Groningen,VBO,6.560637,53.393092
Hoofdstraat,1,,,9989AM,Warffum,Eemsmond,Groningen,VBO,6.560520,53.393201
Hoofdstraat,3,,,9989AM,Warffum,Eemsmond,Groningen,VBO,6.560755,53.392992
Hoofdstraat,5,,,9989AM,Warffum,Eemsmond,Groningen,VBO,6.560916,53.392829
Hoofdstraat,7,,,9989AM,Warffum,Eemsmond,Groningen,VBO,6.561048,53.392729
Hoofdstraat,9,,,9989AM,Warffum,Eemsmond,Groningen,VBO,6.561166,53.392629
Hoofdstraat,11,,,9989AM,Warffum,Eemsmond,Groningen,VBO,6.561299,53.392547
Hoofdstraat,13,,,9989AM,Warffum,Eemsmond,Groningen,VBO,6.561357,53.392483
Hoofdstraat,15,,,9989AM,Warffum,Eemsmond,Groningen,VBO,6.561445,53.392384
Hoofdstraat,17,a,,9989AM,Warffum,Eemsmond,Groningen,VBO,6.561867,53.391894
Hoofdstraat,17,,,9989AM,Warffum,Eemsmond,Groningen,VBO,6.561779,53.391985
Hoofdstraat,19,,,9989AM,Warffum,Eemsmond,Groningen,VBO,6.561999,53.391776
Hoofdstraat,21,,,9989AM,Warffum,Eemsmond,Groningen,VBO,6.562131,53.391658
Hoofdstraat,23,,,9989AM,Warffum,Eemsmond,Groningen,VBO,6.562293,53.391531
Hoofdstraat,25,,,9989AM,Warffum,Eemsmond,Groningen,VBO,6.562602,53.391267
Hoofdstraat,27,,,9989AM,Warffum,Eemsmond,Groningen,VBO,6.562813,53.391145
Hoofdstraat,29,,,9989AM,Warffum,Eemsmond,Groningen,VBO,6.562805,53.390996
Hoofdstraat,31,,,9989AM,Warffum,Eemsmond,Groningen,VBO,6.562967,53.390877
Hoofdstraat,2,,,9989AN,Warffum,Eemsmond,Groningen,VBO,6.560188,53.393169
Hoofdstraat,4,,,9989AN,Warffum,Eemsmond,Groningen,VBO,6.560244,53.393024
Hoofdstraat,6,,,9989AN,Warffum,Eemsmond,Groningen,VBO,6.560468,53.392950
Hoofdstraat,8,a,,9989AN,Warffum,Eemsmond,Groningen,VBO,6.560602,53.392795
Hoofdstraat,8,,,9989AN,Warffum,Eemsmond,Groningen,VBO,6.560572,53.392913
Hoofdstraat,10,,,9989AN,Warffum,Eemsmond,Groningen,VBO,6.560579,53.392617
Hoofdstraat,12,,,9989AN,Warffum,Eemsmond,Groningen,VBO,6.560821,53.392659
Hoofdstraat,16,,,9989AN,Warffum,Eemsmond,Groningen,VBO,6.560921,53.392470
Hoofdstraat,18,,,9989AN,Warffum,Eemsmond,Groningen,VBO,6.561284,53.392107
Hoofdstraat,20,,,9989AN,Warffum,Eemsmond,Groningen,VBO,6.561491,53.391898
Hoofdstraat,22,,,9989AN,Warffum,Eemsmond,Groningen,VBO,6.561728,53.391761
Hoofdstraat,24,,,9989AN,Warffum,Eemsmond,Groningen,VBO,6.561815,53.391643
Hoofdstraat,26,,,9989AN,Warffum,Eemsmond,Groningen,VBO,6.561813,53.391562
Hoofdstraat,28,,,9989AN,Warffum,Eemsmond,Groningen,VBO,6.561961,53.391480
Hoofdstraat,30,,,9989AN,Warffum,Eemsmond,Groningen,VBO,6.562212,53.391316
Hoofdstraat,32,a,,9989AN,Warffum,Eemsmond,Groningen,VBO,6.562167,53.391190
Hoofdstraat,32,,,9989AN,Warffum,Eemsmond,Groningen,VBO,6.562236,53.391100
Hoofdstraat,34,a,,9989AN,Warffum,Eemsmond,Groningen,VBO,6.562548,53.390944
Hoofdstraat,34,,,9989AN,Warffum,Eemsmond,Groningen,VBO,6.562414,53.390990
Hoofdstraat,36,,,9989AN,Warffum,Eemsmond,Groningen,VBO,6.562634,53.390791
Hoofdstraat,38,,,9989AN,Warffum,Eemsmond,Groningen,VBO,6.562857,53.390699
Zuiderkerkpad,3,,,9989AP,Warffum,Eemsmond,Groningen,VBO,6.562322,53.390928
Zuiderkerkpad,7,,,9989AP,Warffum,Eemsmond,Groningen,VBO,6.561805,53.391257
Zuiderkerkpad,10,,,9989AP,Warffum,Eemsmond,Groningen,VBO,6.561458,53.391782
Smeltenspad,1,,,9989AR,Warffum,Eemsmond,Groningen,VBO,6.557314,53.393603
Smeltenspad,2,,,9989AR,Warffum,Eemsmond,Groningen,VBO,6.557277,53.393641
Smeltenspad,3,,,9989AR,Warffum,Eemsmond,Groningen,VBO,6.557167,53.393735
Smeltenspad,4,,,9989AR,Warffum,Eemsmond,Groningen,VBO,6.557111,53.393794
Smeltenspad,5,,,9989AR,Warffum,Eemsmond,Groningen,VBO,6.557147,53.393975
Smeltenspad,6,,,9989AR,Warffum,Eemsmond,Groningen,VBO,6.557193,53.393999
Smeltenspad,8,b,,9989AR,Warffum,Eemsmond,Groningen,VBO,6.556884,53.394042
Smeltenspad,8,,,9989AR,Warffum,Eemsmond,Groningen,VBO,6.556955,53.394225
Smeltenspad,10,,,9989AR,Warffum,Eemsmond,Groningen,VBO,6.556334,53.394608
A.G. Bellstraat,3,,,9989AS,Warffum,Eemsmond,Groningen,VBO,6.555116,53.391843
A.G. Bellstraat,9,,,9989AS,Warffum,Eemsmond,Groningen,VBO,6.556179,53.391680
A.G. Bellstraat,11,,,9989AS,Warffum,Eemsmond,Groningen,VBO,6.556420,53.391705
A.G. Bellstraat,13,,,9989AS,Warffum,Eemsmond,Groningen,VBO,6.556540,53.391704
A.G. Bellstraat,15,,,9989AS,Warffum,Eemsmond,Groningen,VBO,6.556781,53.391719
A.G. Bellstraat,17,,,9989AS,Warffum,Eemsmond,Groningen,VBO,6.556872,53.391727
A.G. Bellstraat,19,,,9989AS,Warffum,Eemsmond,Groningen,VBO,6.557097,53.391725
A.G. Bellstraat,21,,,9989AS,Warffum,Eemsmond,Groningen,VBO,6.557218,53.391742
A.G. Bellstraat,23,,,9989AS,Warffum,Eemsmond,Groningen,VBO,6.557399,53.391767
A.G. Bellstraat,25,,,9989AS,Warffum,Eemsmond,Groningen,VBO,6.557549,53.391748
A.G. Bellstraat,27,,,9989AS,Warffum,Eemsmond,Groningen,VBO,6.558256,53.391768
A.G. Bellstraat,2,,,9989AT,Warffum,Eemsmond,Groningen,VBO,6.553828,53.391345
A.G. Bellstraat,4,,,9989AT,Warffum,Eemsmond,Groningen,VBO,6.555296,53.391266
A.G. Bellstraat,6,,,9989AT,Warffum,Eemsmond,Groningen,VBO,6.555537,53.391300
A.G. Bellstraat,8,,,9989AT,Warffum,Eemsmond,Groningen,VBO,6.555959,53.391332
A.G. Bellstraat,10,,,9989AT,Warffum,Eemsmond,Groningen,VBO,6.556411,53.391363
A.G. Bellstraat,12,,,9989AT,Warffum,Eemsmond,Groningen,VBO,6.556953,53.391385
A.G. Bellstraat,14,,,9989AT,Warffum,Eemsmond,Groningen,VBO,6.558301,53.391210
A.G. Bellstraat,16,,,9989AT,Warffum,Eemsmond,Groningen,VBO,6.558714,53.390910
A.G. Bellstraat,24,,,9989AT,Warffum,Eemsmond,Groningen,VBO,6.559058,53.390313
A.G. Bellstraat,26,,,9989AT,Warffum,Eemsmond,Groningen,VBO,6.559101,53.390250
A.G. Bellstraat,28,,,9989AT,Warffum,Eemsmond,Groningen,VBO,6.559160,53.390195
A.G. Bellstraat,30,,,9989AT,Warffum,Eemsmond,Groningen,VBO,6.559203,53.390132
A.G. Bellstraat,32,,,9989AT,Warffum,Eemsmond,Groningen,VBO,6.559276,53.390042
A.G. Bellstraat,34,,,9989AT,Warffum,Eemsmond,Groningen,VBO,6.559335,53.389978
A.G. Bellstraat,36,,,9989AT,Warffum,Eemsmond,Groningen,VBO,6.559363,53.389924
A.G. Bellstraat,38,,,9989AT,Warffum,Eemsmond,Groningen,VBO,6.559436,53.389851
A.G. Bellstraat,40,,,9989AT,Warffum,Eemsmond,Groningen,VBO,6.559538,53.389733
A.G. Bellstraat,42,,,9989AT,Warffum,Eemsmond,Groningen,VBO,6.559567,53.389670
A.G. Bellstraat,44,,,9989AT,Warffum,Eemsmond,Groningen,VBO,6.559611,53.389625
A.G. Bellstraat,46,,,9989AT,Warffum,Eemsmond,Groningen,VBO,6.559639,53.389580
A.G. Bellstraat,48,,,9989AT,Warffum,Eemsmond,Groningen,VBO,6.559650,53.389436
A.G. Bellstraat,50,,,9989AV,Warffum,Eemsmond,Groningen,VBO,6.559725,53.389399
A.G. Bellstraat,52,,,9989AV,Warffum,Eemsmond,Groningen,VBO,6.559693,53.389337
A.G. Bellstraat,54,,,9989AV,Warffum,Eemsmond,Groningen,VBO,6.559674,53.389202
A.G. Bellstraat,56,,,9989AV,Warffum,Eemsmond,Groningen,VBO,6.559718,53.389157
A.G. Bellstraat,58,,,9989AV,Warffum,Eemsmond,Groningen,VBO,6.559762,53.389102
Helmer Molemastraat,1,,,9989AW,Warffum,Eemsmond,Groningen,VBO,6.557541,53.391451
Helmer Molemastraat,3,,,9989AW,Warffum,Eemsmond,Groningen,VBO,6.557554,53.391388
Helmer Molemastraat,5,,,9989AW,Warffum,Eemsmond,Groningen,VBO,6.557552,53.391316
Helmer Molemastraat,7,,,9989AW,Warffum,Eemsmond,Groningen,VBO,6.557566,53.391262
Helmer Molemastraat,9,,,9989AW,Warffum,Eemsmond,Groningen,VBO,6.557605,53.391046
Helmer Molemastraat,11,,,9989AW,Warffum,Eemsmond,Groningen,VBO,6.557678,53.390974
Helmer Molemastraat,13,,,9989AW,Warffum,Eemsmond,Groningen,VBO,6.557722,53.390919
Helmer Molemastraat,15,,,9989AW,Warffum,Eemsmond,Groningen,VBO,6.557704,53.390812
Helmer Molemastraat,17,,,9989AW,Warffum,Eemsmond,Groningen,VBO,6.557748,53.390766
Helmer Molemastraat,19,,,9989AW,Warffum,Eemsmond,Groningen,VBO,6.557791,53.390712
Helmer Molemastraat,21,,,9989AW,Warffum,Eemsmond,Groningen,VBO,6.557835,53.390658
Helmer Molemastraat,23,,,9989AW,Warffum,Eemsmond,Groningen,VBO,6.557878,53.390603
Helmer Molemastraat,25,,,9989AW,Warffum,Eemsmond,Groningen,VBO,6.557937,53.390540
Helmer Molemastraat,31,,,9989AW,Warffum,Eemsmond,Groningen,VBO,6.558375,53.390068
Helmer Molemastraat,33,,,9989AW,Warffum,Eemsmond,Groningen,VBO,6.558449,53.390023
Helmer Molemastraat,35,,,9989AW,Warffum,Eemsmond,Groningen,VBO,6.558508,53.389977
Helmer Molemastraat,37,,,9989AW,Warffum,Eemsmond,Groningen,VBO,6.558582,53.389932
Helmer Molemastraat,39,,,9989AW,Warffum,Eemsmond,Groningen,VBO,6.558656,53.389886
Helmer Molemastraat,41,,,9989AW,Warffum,Eemsmond,Groningen,VBO,6.558730,53.389840
Helmer Molemastraat,43,,,9989AW,Warffum,Eemsmond,Groningen,VBO,6.558804,53.389804
Helmer Molemastraat,45,,,9989AW,Warffum,Eemsmond,Groningen,VBO,6.558906,53.389713
Helmer Molemastraat,47,,,9989AW,Warffum,Eemsmond,Groningen,VBO,6.558935,53.389658
Helmer Molemastraat,49,,,9989AW,Warffum,Eemsmond,Groningen,VBO,6.558994,53.389604
Helmer Molemastraat,2,,,9989AX,Warffum,Eemsmond,Groningen,VBO,6.557006,53.391124
Helmer Molemastraat,4,,,9989AX,Warffum,Eemsmond,Groningen,VBO,6.557058,53.390818
Helmer Molemastraat,6,,,9989AX,Warffum,Eemsmond,Groningen,VBO,6.557102,53.390791
Helmer Molemastraat,8,,,9989AX,Warffum,Eemsmond,Groningen,VBO,6.557146,53.390745
Helmer Molemastraat,10,,,9989AX,Warffum,Eemsmond,Groningen,VBO,6.557190,53.390718
Helmer Molemastraat,12,,,9989AX,Warffum,Eemsmond,Groningen,VBO,6.557217,53.390619
Helmer Molemastraat,14,,,9989AX,Warffum,Eemsmond,Groningen,VBO,6.557247,53.390591
Helmer Molemastraat,16,a,,9989AX,Warffum,Eemsmond,Groningen,VBO,6.556989,53.390545
Helmer Molemastraat,16,b,,9989AX,Warffum,Eemsmond,Groningen,VBO,6.556973,53.390508
Helmer Molemastraat,16,c,,9989AX,Warffum,Eemsmond,Groningen,VBO,6.557043,53.390500
Helmer Molemastraat,16,d,,9989AX,Warffum,Eemsmond,Groningen,VBO,6.557023,53.390460
Helmer Molemastraat,16,e,,9989AX,Warffum,Eemsmond,Groningen,VBO,6.557094,53.390456
Helmer Molemastraat,16,,,9989AX,Warffum,Eemsmond,Groningen,VBO,6.557276,53.390546
Helmer Molemastraat,18,,,9989AX,Warffum,Eemsmond,Groningen,VBO,6.557333,53.390447
Helmer Molemastraat,20,,,9989AX,Warffum,Eemsmond,Groningen,VBO,6.557392,53.390410
Helmer Molemastraat,22,,,9989AX,Warffum,Eemsmond,Groningen,VBO,6.557406,53.390374
Helmer Molemastraat,24,,,9989AX,Warffum,Eemsmond,Groningen,VBO,6.557480,53.390320
Helmer Molemastraat,26,,,9989AX,Warffum,Eemsmond,Groningen,VBO,6.557509,53.390274
Helmer Molemastraat,28,,,9989AX,Warffum,Eemsmond,Groningen,VBO,6.557508,53.390230
Helmer Molemastraat,51,,,9989AX,Warffum,Eemsmond,Groningen,VBO,6.559037,53.389550
Helmer Molemastraat,53,,,9989AX,Warffum,Eemsmond,Groningen,VBO,6.559081,53.389486
Helmer Molemastraat,55,,,9989AX,Warffum,Eemsmond,Groningen,VBO,6.559124,53.389423
Helmer Molemastraat,57,,,9989AX,Warffum,Eemsmond,Groningen,VBO,6.559181,53.389324
Helmer Molemastraat,59,,,9989AX,Warffum,Eemsmond,Groningen,VBO,6.559195,53.389270
Helmer Molemastraat,61,,,9989AX,Warffum,Eemsmond,Groningen,VBO,6.559208,53.389207
Helmer Molemastraat,63,,,9989AX,Warffum,Eemsmond,Groningen,VBO,6.559222,53.389152
Helmer Molemastraat,65,,,9989AX,Warffum,Eemsmond,Groningen,VBO,6.559235,53.389089
Helmer Molemastraat,67,,,9989AX,Warffum,Eemsmond,Groningen,VBO,6.559248,53.389017
Helmer Molemastraat,30,,,9989AZ,Warffum,Eemsmond,Groningen,VBO,6.557904,53.389893
Helmer Molemastraat,32,,,9989AZ,Warffum,Eemsmond,Groningen,VBO,6.558008,53.389856
Helmer Molemastraat,34,,,9989AZ,Warffum,Eemsmond,Groningen,VBO,6.558067,53.389811
Helmer Molemastraat,36,,,9989AZ,Warffum,Eemsmond,Groningen,VBO,6.558141,53.389756
Helmer Molemastraat,38,,,9989AZ,Warffum,Eemsmond,Groningen,VBO,6.558185,53.389702
Helmer Molemastraat,40,,,9989AZ,Warffum,Eemsmond,Groningen,VBO,6.558420,53.389502
Helmer Molemastraat,42,,,9989AZ,Warffum,Eemsmond,Groningen,VBO,6.558479,53.389456
Helmer Molemastraat,44,,,9989AZ,Warffum,Eemsmond,Groningen,VBO,6.558568,53.389410
Helmer Molemastraat,46,,,9989AZ,Warffum,Eemsmond,Groningen,VBO,6.558655,53.389311
Helmer Molemastraat,48,,,9989AZ,Warffum,Eemsmond,Groningen,VBO,6.558699,53.389265
Helmer Molemastraat,50,a,,9989AZ,Warffum,Eemsmond,Groningen,VBO,6.558500,53.389097
Helmer Molemastraat,50,,,9989AZ,Warffum,Eemsmond,Groningen,VBO,6.558727,53.389202
Helmer Molemastraat,52,,,9989AZ,Warffum,Eemsmond,Groningen,VBO,6.558859,53.389066
Helmer Molemastraat,54,,,9989AZ,Warffum,Eemsmond,Groningen,VBO,6.558857,53.388994
Helmer Molemastraat,56,,,9989AZ,Warffum,Eemsmond,Groningen,VBO,6.558809,53.388905
Abraham Luingestraat,1,,,9989BA,Warffum,Eemsmond,Groningen,VBO,6.559943,53.388606
Abraham Luingestraat,2,,,9989BA,Warffum,Eemsmond,Groningen,VBO,6.559890,53.388858
Abraham Luingestraat,3,,,9989BA,Warffum,Eemsmond,Groningen,VBO,6.559853,53.388607
Abraham Luingestraat,4,,,9989BA,Warffum,Eemsmond,Groningen,VBO,6.559770,53.388860
Abraham Luingestraat,5,,,9989BA,Warffum,Eemsmond,Groningen,VBO,6.559748,53.388590
Abraham Luingestraat,6,,,9989BA,Warffum,Eemsmond,Groningen,VBO,6.559694,53.388842
Abraham Luingestraat,7,,,9989BA,Warffum,Eemsmond,Groningen,VBO,6.559552,53.388574
Abraham Luingestraat,8,,,9989BA,Warffum,Eemsmond,Groningen,VBO,6.559514,53.388826
Abraham Luingestraat,9,,,9989BA,Warffum,Eemsmond,Groningen,VBO,6.559446,53.388566
Abraham Luingestraat,10,,,9989BA,Warffum,Eemsmond,Groningen,VBO,6.559408,53.388827
Abraham Luingestraat,11,,,9989BA,Warffum,Eemsmond,Groningen,VBO,6.559356,53.388567
Abraham Luingestraat,12,,,9989BA,Warffum,Eemsmond,Groningen,VBO,6.559318,53.388819
de Laan,1,,,9989BB,Warffum,Eemsmond,Groningen,VBO,6.558711,53.390254
de Laan,2,a,,9989BB,Warffum,Eemsmond,Groningen,VBO,6.558113,53.390376
de Laan,3,,,9989BB,Warffum,Eemsmond,Groningen,VBO,6.558589,53.390210
de Laan,4,,,9989BB,Warffum,Eemsmond,Groningen,VBO,6.557639,53.390102
de Laan,6,,,9989BB,Warffum,Eemsmond,Groningen,VBO,6.557593,53.390058
de Laan,8,,,9989BB,Warffum,Eemsmond,Groningen,VBO,6.557517,53.390041
de Laan,10,,,9989BB,Warffum,Eemsmond,Groningen,VBO,6.557457,53.390014
de Laan,12,,,9989BB,Warffum,Eemsmond,Groningen,VBO,6.557335,53.389953
de Laan,14,,,9989BB,Warffum,Eemsmond,Groningen,VBO,6.557244,53.389936
de Laan,16,,,9989BB,Warffum,Eemsmond,Groningen,VBO,6.557168,53.389918
de Laan,18,,,9989BB,Warffum,Eemsmond,Groningen,VBO,6.557107,53.389874
de Laan,19,a,,9989BB,Warffum,Eemsmond,Groningen,VBO,6.555950,53.389328
de Laan,19,,,9989BB,Warffum,Eemsmond,Groningen,VBO,6.556147,53.389380
de Laan,20,,,9989BB,Warffum,Eemsmond,Groningen,VBO,6.556757,53.389716
de Laan,21,,,9989BB,Warffum,Eemsmond,Groningen,VBO,6.555828,53.389266
de Laan,22,,,9989BB,Warffum,Eemsmond,Groningen,VBO,6.556681,53.389680
de Laan,23,,,9989BB,Warffum,Eemsmond,Groningen,VBO,6.555707,53.389232
de Laan,24,,,9989BB,Warffum,Eemsmond,Groningen,VBO,6.556575,53.389672
de Laan,25,,,9989BB,Warffum,Eemsmond,Groningen,VBO,6.555511,53.389207
de Laan,26,,,9989BB,Warffum,Eemsmond,Groningen,VBO,6.556499,53.389637
de Laan,27,,,9989BB,Warffum,Eemsmond,Groningen,VBO,6.555434,53.389162
de Laan,28,,,9989BB,Warffum,Eemsmond,Groningen,VBO,6.555151,53.389264
de Laan,29,,,9989BB,Warffum,Eemsmond,Groningen,VBO,6.555313,53.389110
de Laan,30,,,9989BB,Warffum,Eemsmond,Groningen,VBO,6.555061,53.389247
de Laan,31,,,9989BB,Warffum,Eemsmond,Groningen,VBO,6.555221,53.389075
de Laan,32,,,9989BB,Warffum,Eemsmond,Groningen,VBO,6.555000,53.389220
de Laan,33,,,9989BB,Warffum,Eemsmond,Groningen,VBO,6.555099,53.389013
de Laan,34,,,9989BB,Warffum,Eemsmond,Groningen,VBO,6.554938,53.389167
de Laan,35,,,9989BB,Warffum,Eemsmond,Groningen,VBO,6.555008,53.388978
de Laan,37,,,9989BB,Warffum,Eemsmond,Groningen,VBO,6.554931,53.388898
de Laan,39,,,9989BB,Warffum,Eemsmond,Groningen,VBO,6.554749,53.388846
Groot-Hofstraat,1,,,9989BC,Warffum,Eemsmond,Groningen,VBO,6.559538,53.390830
Groot-Hofstraat,2,,,9989BC,Warffum,Eemsmond,Groningen,VBO,6.560077,53.390178
Groot-Hofstraat,3,,,9989BC,Warffum,Eemsmond,Groningen,VBO,6.559565,53.390704
Groot-Hofstraat,4,,,9989BC,Warffum,Eemsmond,Groningen,VBO,6.560439,53.390237
Groot-Hofstraat,5,,,9989BC,Warffum,Eemsmond,Groningen,VBO,6.559593,53.390641
Groot-Hofstraat,6,,,9989BC,Warffum,Eemsmond,Groningen,VBO,6.560683,53.390369
Groot-Hofstraat,8,,,9989BC,Warffum,Eemsmond,Groningen,VBO,6.560820,53.390449
Groot-Hofstraat,10,,,9989BC,Warffum,Eemsmond,Groningen,VBO,6.560972,53.390510
Groot-Hofstraat,12,,,9989BC,Warffum,Eemsmond,Groningen,VBO,6.561154,53.390562
Groot-Hofstraat,13,,,9989BC,Warffum,Eemsmond,Groningen,VBO,6.559754,53.390477
Groot-Hofstraat,14,,,9989BC,Warffum,Eemsmond,Groningen,VBO,6.561321,53.390615
Groot-Hofstraat,16,,,9989BC,Warffum,Eemsmond,Groningen,VBO,6.561517,53.390649
Groot-Hofstraat,17,,,9989BC,Warffum,Eemsmond,Groningen,VBO,6.559840,53.390333
Groot-Hofstraat,18,,,9989BC,Warffum,Eemsmond,Groningen,VBO,6.561700,53.390719
Groot-Hofstraat,19,,,9989BC,Warffum,Eemsmond,Groningen,VBO,6.560235,53.390464
Groot-Hofstraat,21,,,9989BC,Warffum,Eemsmond,Groningen,VBO,6.560493,53.390551
Groot-Hofstraat,23,,,9989BC,Warffum,Eemsmond,Groningen,VBO,6.560704,53.390576
Groot-Hofstraat,25,,,9989BC,Warffum,Eemsmond,Groningen,VBO,6.560855,53.390628
Groot-Hofstraat,27,,,9989BC,Warffum,Eemsmond,Groningen,VBO,6.560992,53.390690
Groot-Hofstraat,29,,,9989BC,Warffum,Eemsmond,Groningen,VBO,6.561128,53.390715
Groot-Hofstraat,31,,,9989BC,Warffum,Eemsmond,Groningen,VBO,6.561265,53.390759
Torenweg,1,,,9989BD,Warffum,Eemsmond,Groningen,VBO,6.559689,53.393057
Torenweg,3,,,9989BD,Warffum,Eemsmond,Groningen,VBO,6.559792,53.392957
Torenweg,7,,,9989BD,Warffum,Eemsmond,Groningen,VBO,6.559895,53.392875
Torenweg,9,,,9989BD,Warffum,Eemsmond,Groningen,VBO,6.560232,53.392575
Torenweg,11,,,9989BD,Warffum,Eemsmond,Groningen,VBO,6.560349,53.392448
Torenweg,13,a,,9989BD,Warffum,Eemsmond,Groningen,VBO,6.561096,53.391731
Torenweg,13,,,9989BD,Warffum,Eemsmond,Groningen,VBO,6.560496,53.392321
Torenweg,17,,,9989BD,Warffum,Eemsmond,Groningen,VBO,6.561256,53.391541
Torenweg,19,,,9989BD,Warffum,Eemsmond,Groningen,VBO,6.561359,53.391450
Torenweg,21,,,9989BD,Warffum,Eemsmond,Groningen,VBO,6.561462,53.391359
Torenweg,23,a,,9989BD,Warffum,Eemsmond,Groningen,VBO,6.561922,53.391139
Torenweg,23,,,9989BD,Warffum,Eemsmond,Groningen,VBO,6.561623,53.391205
Torenweg,25,,,9989BD,Warffum,Eemsmond,Groningen,VBO,6.561813,53.391005
Torenweg,27,,,9989BD,Warffum,Eemsmond,Groningen,VBO,6.561932,53.390977
Torenweg,29,,,9989BD,Warffum,Eemsmond,Groningen,VBO,6.561973,53.390824
Torenweg,31,,,9989BD,Warffum,Eemsmond,Groningen,VBO,6.562228,53.390813
Torenweg,33,,,9989BD,Warffum,Eemsmond,Groningen,VBO,6.562164,53.390660
Torenweg,37,,,9989BD,Warffum,Eemsmond,Groningen,VBO,6.562297,53.390569
Torenweg,39,,,9989BD,Warffum,Eemsmond,Groningen,VBO,6.562490,53.390469
Torenweg,4,,,9989BE,Warffum,Eemsmond,Groningen,VBO,6.559449,53.392979
Torenweg,6,,,9989BE,Warffum,Eemsmond,Groningen,VBO,6.559503,53.392852
Torenweg,8,,,9989BE,Warffum,Eemsmond,Groningen,VBO,6.559726,53.392760
Torenweg,10,,,9989BE,Warffum,Eemsmond,Groningen,VBO,6.559799,53.392687
Torenweg,16,,,9989BE,Warffum,Eemsmond,Groningen,VBO,6.560004,53.392470
Torenweg,18,,,9989BE,Warffum,Eemsmond,Groningen,VBO,6.560047,53.392406
Torenweg,20,,,9989BE,Warffum,Eemsmond,Groningen,VBO,6.560225,53.392324
Torenweg,22,,,9989BE,Warffum,Eemsmond,Groningen,VBO,6.560252,53.392198
Torenweg,24,,,9989BE,Warffum,Eemsmond,Groningen,VBO,6.560355,53.392107
Torenweg,28,,,9989BE,Warffum,Eemsmond,Groningen,VBO,6.560750,53.391708
Torenweg,30,,,9989BE,Warffum,Eemsmond,Groningen,VBO,6.561261,53.391172
Torenweg,32,,,9989BE,Warffum,Eemsmond,Groningen,VBO,6.561364,53.391091
Torenweg,34,,,9989BE,Warffum,Eemsmond,Groningen,VBO,6.561466,53.390973
Torenweg,36,,,9989BE,Warffum,Eemsmond,Groningen,VBO,6.561525,53.390918
Torenweg,38,,,9989BE,Warffum,Eemsmond,Groningen,VBO,6.561583,53.390864
Torenweg,40,,,9989BE,Warffum,Eemsmond,Groningen,VBO,6.561892,53.390591
Torenweg,42,,,9989BE,Warffum,Eemsmond,Groningen,VBO,6.562054,53.390473
Torenweg,44,,,9989BE,Warffum,Eemsmond,Groningen,VBO,6.561806,53.390206
B.H. Broekemastraat,1,,,9989BG,Warffum,Eemsmond,Groningen,VBO,6.556370,53.389863
B.H. Broekemastraat,2,,,9989BG,Warffum,Eemsmond,Groningen,VBO,6.556915,53.389984
B.H. Broekemastraat,3,,,9989BG,Warffum,Eemsmond,Groningen,VBO,6.556296,53.389909
B.H. Broekemastraat,4,,,9989BG,Warffum,Eemsmond,Groningen,VBO,6.556886,53.390038
B.H. Broekemastraat,5,,,9989BG,Warffum,Eemsmond,Groningen,VBO,6.556252,53.389954
B.H. Broekemastraat,6,,,9989BG,Warffum,Eemsmond,Groningen,VBO,6.556857,53.390092
B.H. Broekemastraat,7,,,9989BG,Warffum,Eemsmond,Groningen,VBO,6.556196,53.390089
B.H. Broekemastraat,8,,,9989BG,Warffum,Eemsmond,Groningen,VBO,6.556769,53.390147
B.H. Broekemastraat,9,,,9989BG,Warffum,Eemsmond,Groningen,VBO,6.556272,53.390116
B.H. Broekemastraat,10,,,9989BG,Warffum,Eemsmond,Groningen,VBO,6.556697,53.390282
B.H. Broekemastraat,11,,,9989BG,Warffum,Eemsmond,Groningen,VBO,6.556363,53.390151
B.H. Broekemastraat,12,,,9989BG,Warffum,Eemsmond,Groningen,VBO,6.556773,53.390309
B.H. Broekemastraat,13,,,9989BG,Warffum,Eemsmond,Groningen,VBO,6.556220,53.390404
B.H. Broekemastraat,14,a,,9989BG,Warffum,Eemsmond,Groningen,VBO,6.557151,53.390347
B.H. Broekemastraat,14,b,,9989BG,Warffum,Eemsmond,Groningen,VBO,6.557141,53.390309
B.H. Broekemastraat,14,c,,9989BG,Warffum,Eemsmond,Groningen,VBO,6.557198,53.390301
B.H. Broekemastraat,14,d,,9989BG,Warffum,Eemsmond,Groningen,VBO,6.557191,53.390264
B.H. Broekemastraat,14,e,,9989BG,Warffum,Eemsmond,Groningen,VBO,6.557247,53.390259
B.H. Broekemastraat,14,f,,9989BG,Warffum,Eemsmond,Groningen,VBO,6.557238,53.390220
B.H. Broekemastraat,14,g,,9989BG,Warffum,Eemsmond,Groningen,VBO,6.557300,53.390215
B.H. Broekemastraat,14,h,,9989BG,Warffum,Eemsmond,Groningen,VBO,6.557287,53.390178
B.H. Broekemastraat,14,i,,9989BG,Warffum,Eemsmond,Groningen,VBO,6.557348,53.390174
B.H. Broekemastraat,14,j,,9989BG,Warffum,Eemsmond,Groningen,VBO,6.557338,53.390136
B.H. Broekemastraat,14,k,,9989BG,Warffum,Eemsmond,Groningen,VBO,6.557180,53.390071
B.H. Broekemastraat,14,l,,9989BG,Warffum,Eemsmond,Groningen,VBO,6.557158,53.390097
B.H. Broekemastraat,14,m,,9989BG,Warffum,Eemsmond,Groningen,VBO,6.557136,53.390115
B.H. Broekemastraat,14,n,,9989BG,Warffum,Eemsmond,Groningen,VBO,6.557111,53.390138
B.H. Broekemastraat,14,o,,9989BG,Warffum,Eemsmond,Groningen,VBO,6.557089,53.390158
B.H. Broekemastraat,14,p,,9989BG,Warffum,Eemsmond,Groningen,VBO,6.557053,53.390180
B.H. Broekemastraat,14,q,,9989BG,Warffum,Eemsmond,Groningen,VBO,6.556986,53.390252
B.H. Broekemastraat,14,r,,9989BG,Warffum,Eemsmond,Groningen,VBO,6.557010,53.390227
B.H. Broekemastraat,14,s,,9989BG,Warffum,Eemsmond,Groningen,VBO,6.557038,53.390202
B.H. Broekemastraat,14,,,9989BG,Warffum,Eemsmond,Groningen,VBO,6.556864,53.390335
B.H. Broekemastraat,15,,,9989BG,Warffum,Eemsmond,Groningen,VBO,6.556191,53.390449
B.H. Broekemastraat,16,,,9989BG,Warffum,Eemsmond,Groningen,VBO,6.556809,53.390533
B.H. Broekemastraat,17,,,9989BG,Warffum,Eemsmond,Groningen,VBO,6.556192,53.390503
B.H. Broekemastraat,18,,,9989BG,Warffum,Eemsmond,Groningen,VBO,6.556735,53.390578
B.H. Broekemastraat,19,,,9989BG,Warffum,Eemsmond,Groningen,VBO,6.556118,53.390558
B.H. Broekemastraat,20,,,9989BG,Warffum,Eemsmond,Groningen,VBO,6.556692,53.390633
B.H. Broekemastraat,21,,,9989BG,Warffum,Eemsmond,Groningen,VBO,6.556060,53.390612
B.H. Broekemastraat,22,,,9989BG,Warffum,Eemsmond,Groningen,VBO,6.556633,53.390669
Wibrand Geertsstraat,1,,,9989BH,Warffum,Eemsmond,Groningen,VBO,6.556437,53.391201
Wibrand Geertsstraat,2,,,9989BH,Warffum,Eemsmond,Groningen,VBO,6.555984,53.391125
Wibrand Geertsstraat,3,,,9989BH,Warffum,Eemsmond,Groningen,VBO,6.556491,53.390994
Wibrand Geertsstraat,4,,,9989BH,Warffum,Eemsmond,Groningen,VBO,6.556098,53.390917
Kerkstraat,1,,,9989BJ,Warffum,Eemsmond,Groningen,VBO,6.560591,53.391952
Kerkstraat,4,,,9989BJ,Warffum,Eemsmond,Groningen,VBO,6.560412,53.392016
Kerkstraat,5,,,9989BJ,Warffum,Eemsmond,Groningen,VBO,6.560646,53.391856
Kerkstraat,6,,,9989BJ,Warffum,Eemsmond,Groningen,VBO,6.560291,53.391964
Kerkstraat,7,,,9989BJ,Warffum,Eemsmond,Groningen,VBO,6.560684,53.391808
Kerkstraat,9,,,9989BJ,Warffum,Eemsmond,Groningen,VBO,6.560312,53.391839
Kalverstraat,1,,,9989BK,Warffum,Eemsmond,Groningen,VBO,6.560510,53.391189
Kalverstraat,2,a,,9989BK,Warffum,Eemsmond,Groningen,VBO,6.560293,53.391203
Kalverstraat,2,b,,9989BK,Warffum,Eemsmond,Groningen,VBO,6.560225,53.391184
Kalverstraat,3,,,9989BK,Warffum,Eemsmond,Groningen,VBO,6.560078,53.391319
Kalverstraat,5,,,9989BK,Warffum,Eemsmond,Groningen,VBO,6.559950,53.391041
Kalverstraat,6,,,9989BK,Warffum,Eemsmond,Groningen,VBO,6.559896,53.391276
Kalverstraat,7,,,9989BK,Warffum,Eemsmond,Groningen,VBO,6.559722,53.390972
Kalverstraat,10,a,,9989BK,Warffum,Eemsmond,Groningen,VBO,6.559533,53.391180
Kalverstraat,10,,,9989BK,Warffum,Eemsmond,Groningen,VBO,6.559714,53.391205
Pastorieweg,1,,,9989BL,Warffum,Eemsmond,Groningen,VBO,6.559040,53.392973
Pastorieweg,3,,,9989BL,Warffum,Eemsmond,Groningen,VBO,6.559143,53.392891
Pastorieweg,5,,,9989BL,Warffum,Eemsmond,Groningen,VBO,6.559241,53.392769
Pastorieweg,9,,,9989BL,Warffum,Eemsmond,Groningen,VBO,6.559317,53.392656
Pastorieweg,11,,,9989BL,Warffum,Eemsmond,Groningen,VBO,6.559405,53.392574
Pastorieweg,13,,,9989BL,Warffum,Eemsmond,Groningen,VBO,6.559508,53.392483
Pastorieweg,15,,,9989BL,Warffum,Eemsmond,Groningen,VBO,6.559611,53.392384
Pastorieweg,17,,,9989BL,Warffum,Eemsmond,Groningen,VBO,6.559728,53.392275
Pastorieweg,19,,,9989BL,Warffum,Eemsmond,Groningen,VBO,6.559861,53.392192
Pastorieweg,21,,,9989BL,Warffum,Eemsmond,Groningen,VBO,6.559964,53.392111
Pastorieweg,27,,,9989BL,Warffum,Eemsmond,Groningen,VBO,6.560624,53.391502
Pastorieweg,29,,,9989BL,Warffum,Eemsmond,Groningen,VBO,6.560802,53.391437
Pastorieweg,4,,,9989BM,Warffum,Eemsmond,Groningen,VBO,6.558872,53.392858
Pastorieweg,6,,,9989BM,Warffum,Eemsmond,Groningen,VBO,6.558900,53.392804
Pastorieweg,8,,,9989BM,Warffum,Eemsmond,Groningen,VBO,6.559003,53.392704
Pastorieweg,10,,,9989BM,Warffum,Eemsmond,Groningen,VBO,6.559104,53.392559
Pastorieweg,14,,,9989BM,Warffum,Eemsmond,Groningen,VBO,6.559237,53.392477
Pastorieweg,16,,,9989BM,Warffum,Eemsmond,Groningen,VBO,6.559325,53.392386
Pastorieweg,18,,,9989BM,Warffum,Eemsmond,Groningen,VBO,6.559413,53.392305
Pastorieweg,20,,,9989BM,Warffum,Eemsmond,Groningen,VBO,6.558908,53.391959
Pastorieweg,22,,,9989BM,Warffum,Eemsmond,Groningen,VBO,6.559559,53.392159
Pastorieweg,24,,,9989BM,Warffum,Eemsmond,Groningen,VBO,6.559894,53.391770
Pastorieweg,26,,,9989BM,Warffum,Eemsmond,Groningen,VBO,6.560366,53.391424
Pastorieweg,28,,,9989BM,Warffum,Eemsmond,Groningen,VBO,6.560662,53.391268
Pastorieweg,30,,,9989BM,Warffum,Eemsmond,Groningen,VBO,6.560797,53.391240
Pastorieweg,32,,,9989BM,Warffum,Eemsmond,Groningen,VBO,6.560887,53.391230
Pastorieweg,34,,,9989BM,Warffum,Eemsmond,Groningen,VBO,6.561037,53.391237
Havenstraat,1,,,9989BN,Warffum,Eemsmond,Groningen,VBO,6.562896,53.390500
Havenstraat,2,a,,9989BN,Warffum,Eemsmond,Groningen,VBO,6.562239,53.390144
Havenstraat,4,,,9989BN,Warffum,Eemsmond,Groningen,VBO,6.561977,53.389853
Havenstraat,5,,,9989BN,Warffum,Eemsmond,Groningen,VBO,6.561791,53.389676
Havenstraat,6,,,9989BN,Warffum,Eemsmond,Groningen,VBO,6.561712,53.389506
Havenstraat,7,a,,9989BN,Warffum,Eemsmond,Groningen,VBO,6.561380,53.389297
Havenstraat,7,,,9989BN,Warffum,Eemsmond,Groningen,VBO,6.561528,53.389382
Havenstraat,9,,,9989BN,Warffum,Eemsmond,Groningen,VBO,6.561010,53.389126
Havenstraat,10,,,9989BN,Warffum,Eemsmond,Groningen,VBO,6.560768,53.389075
Havenstraat,11,,,9989BN,Warffum,Eemsmond,Groningen,VBO,6.560585,53.389035
Havenstraat,12,,,9989BN,Warffum,Eemsmond,Groningen,VBO,6.560435,53.389006
Spoorstraat,1,a,,9989BP,Warffum,Eemsmond,Groningen,VBO,6.564438,53.389147
Spoorstraat,1,,,9989BP,Warffum,Eemsmond,Groningen,VBO,6.564576,53.389262
Spoorstraat,3,,,9989BP,Warffum,Eemsmond,Groningen,VBO,6.564392,53.389111
Spoorstraat,5,,,9989BP,Warffum,Eemsmond,Groningen,VBO,6.564315,53.389067
Spoorstraat,7,,,9989BP,Warffum,Eemsmond,Groningen,VBO,6.564239,53.389032
Spoorstraat,9,,,9989BP,Warffum,Eemsmond,Groningen,VBO,6.564056,53.388944
Spoorstraat,11,,,9989BP,Warffum,Eemsmond,Groningen,VBO,6.563889,53.388864
Spoorstraat,13,,,9989BP,Warffum,Eemsmond,Groningen,VBO,6.563813,53.388829
Spoorstraat,15,,,9989BP,Warffum,Eemsmond,Groningen,VBO,6.563645,53.388759
Spoorstraat,17,,,9989BP,Warffum,Eemsmond,Groningen,VBO,6.563569,53.388724
Spoorstraat,19,,,9989BP,Warffum,Eemsmond,Groningen,VBO,6.563402,53.388644
Spoorstraat,21,,,9989BP,Warffum,Eemsmond,Groningen,VBO,6.563326,53.388618
Spoorstraat,23,,,9989BP,Warffum,Eemsmond,Groningen,VBO,6.563250,53.388583
Spoorstraat,25,,,9989BP,Warffum,Eemsmond,Groningen,VBO,6.563189,53.388557
Spoorstraat,27,,,9989BP,Warffum,Eemsmond,Groningen,VBO,6.563098,53.388540
Spoorstraat,29,,,9989BP,Warffum,Eemsmond,Groningen,VBO,6.563022,53.388513
Spoorstraat,31,,,9989BP,Warffum,Eemsmond,Groningen,VBO,6.562840,53.388443
Spoorstraat,33,,,9989BP,Warffum,Eemsmond,Groningen,VBO,6.562764,53.388417
Spoorstraat,35,,,9989BP,Warffum,Eemsmond,Groningen,VBO,6.562688,53.388391
Spoorstraat,37,,,9989BP,Warffum,Eemsmond,Groningen,VBO,6.562665,53.388625
Spoorstraat,39,,,9989BP,Warffum,Eemsmond,Groningen,VBO,6.562621,53.388670
Spoorstraat,41,,,9989BP,Warffum,Eemsmond,Groningen,VBO,6.562592,53.388724
Spoorstraat,2,,,9989BR,Warffum,Eemsmond,Groningen,VBO,6.564491,53.389443
Spoorstraat,4,,,9989BR,Warffum,Eemsmond,Groningen,VBO,6.564261,53.389301
Spoorstraat,6,,,9989BR,Warffum,Eemsmond,Groningen,VBO,6.564094,53.389222
Spoorstraat,8,,,9989BR,Warffum,Eemsmond,Groningen,VBO,6.563911,53.389116
Spoorstraat,10,,,9989BR,Warffum,Eemsmond,Groningen,VBO,6.563667,53.389001
Spoorstraat,12,,,9989BR,Warffum,Eemsmond,Groningen,VBO,6.563591,53.388966
Spoorstraat,14,,,9989BR,Warffum,Eemsmond,Groningen,VBO,6.563378,53.388887
Spoorstraat,16,,,9989BR,Warffum,Eemsmond,Groningen,VBO,6.563317,53.388861
Spoorstraat,18,,,9989BR,Warffum,Eemsmond,Groningen,VBO,6.563090,53.388800
Spoorstraat,20,,,9989BR,Warffum,Eemsmond,Groningen,VBO,6.563000,53.388783
Cronjéstraat,1,a,,9989BS,Warffum,Eemsmond,Groningen,VBO,6.563878,53.389565
Cronjéstraat,1,,,9989BS,Warffum,Eemsmond,Groningen,VBO,6.564002,53.389726
Cronjéstraat,2,,,9989BS,Warffum,Eemsmond,Groningen,VBO,6.563620,53.389469
Cronjéstraat,3,,,9989BS,Warffum,Eemsmond,Groningen,VBO,6.563468,53.389426
Cronjéstraat,4,,,9989BS,Warffum,Eemsmond,Groningen,VBO,6.563240,53.389338
Cronjéstraat,5,,,9989BS,Warffum,Eemsmond,Groningen,VBO,6.563027,53.389250
Cronjéstraat,6,,,9989BS,Warffum,Eemsmond,Groningen,VBO,6.562739,53.389163
Stationsweg,1,,,9989BT,Warffum,Eemsmond,Groningen,VBO,6.563442,53.390684
Stationsweg,2,,,9989BT,Warffum,Eemsmond,Groningen,VBO,6.564121,53.389662
Stationsweg,4,,,9989BT,Warffum,Eemsmond,Groningen,VBO,6.564299,53.389588
Stationsweg,5,,,9989BT,Warffum,Eemsmond,Groningen,VBO,6.563661,53.390439
Stationsweg,6,,,9989BT,Warffum,Eemsmond,Groningen,VBO,6.565044,53.389338
Stationsweg,8,,,9989BT,Warffum,Eemsmond,Groningen,VBO,6.564991,53.389581
Stationsweg,9,,,9989BT,Warffum,Eemsmond,Groningen,VBO,6.564196,53.390191
Stationsweg,10,,,9989BT,Warffum,Eemsmond,Groningen,VBO,6.566816,53.390317
Stationsweg,11,,,9989BT,Warffum,Eemsmond,Groningen,VBO,6.565018,53.390039
Stationsweg,13,,,9989BT,Warffum,Eemsmond,Groningen,VBO,6.565231,53.390136
Stationsweg,15,,,9989BT,Warffum,Eemsmond,Groningen,VBO,6.565627,53.390303
Weth. G. Reindersstraat,1,,,9989BV,Warffum,Eemsmond,Groningen,VBO,6.559170,53.396638
Weth. G. Reindersstraat,2,,,9989BV,Warffum,Eemsmond,Groningen,VBO,6.559310,53.396799
Weth. G. Reindersstraat,3,,,9989BV,Warffum,Eemsmond,Groningen,VBO,6.559356,53.396843
Weth. G. Reindersstraat,4,,,9989BV,Warffum,Eemsmond,Groningen,VBO,6.559420,53.396968
Weth. G. Reindersstraat,5,,,9989BV,Warffum,Eemsmond,Groningen,VBO,6.559452,53.397031
Weth. G. Reindersstraat,6,a,,9989BV,Warffum,Eemsmond,Groningen,VBO,6.559509,53.397576
Weth. G. Reindersstraat,6,,,9989BV,Warffum,Eemsmond,Groningen,VBO,6.559507,53.397539
Weth. G. Reindersstraat,7,a,,9989BV,Warffum,Eemsmond,Groningen,VBO,6.559612,53.397937
Weth. G. Reindersstraat,7,,,9989BV,Warffum,Eemsmond,Groningen,VBO,6.559516,53.397642
Weth. G. Reindersstraat,8,,,9989BV,Warffum,Eemsmond,Groningen,VBO,6.559400,53.396232
Weth. G. Reindersstraat,9,,,9989BV,Warffum,Eemsmond,Groningen,VBO,6.559402,53.396321
Weth. G. Reindersstraat,10,,,9989BV,Warffum,Eemsmond,Groningen,VBO,6.559545,53.396608
Weth. G. Reindersstraat,11,,,9989BV,Warffum,Eemsmond,Groningen,VBO,6.559607,53.396679
Weth. G. Reindersstraat,12,,,9989BV,Warffum,Eemsmond,Groningen,VBO,6.559686,53.396795
Weth. G. Reindersstraat,13,,,9989BV,Warffum,Eemsmond,Groningen,VBO,6.559718,53.396867
Weth. G. Reindersstraat,14,,,9989BV,Warffum,Eemsmond,Groningen,VBO,6.559781,53.396974
Weth. G. Reindersstraat,15,,,9989BV,Warffum,Eemsmond,Groningen,VBO,6.559828,53.397045
Weth. G. Reindersstraat,16,,,9989BV,Warffum,Eemsmond,Groningen,VBO,6.559861,53.397162
Weth. G. Reindersstraat,17,,,9989BV,Warffum,Eemsmond,Groningen,VBO,6.560042,53.397726
Burg. J. Arkemastraat,1,,,9989BW,Warffum,Eemsmond,Groningen,VBO,6.558287,53.397366
Burg. J. Arkemastraat,3,,,9989BW,Warffum,Eemsmond,Groningen,VBO,6.558560,53.397403
Burg. J. Arkemastraat,5,,,9989BW,Warffum,Eemsmond,Groningen,VBO,6.558839,53.397446
Burg. J. Arkemastraat,7,,,9989BW,Warffum,Eemsmond,Groningen,VBO,6.559099,53.397472
Burg. J. Arkemastraat,9,,,9989BW,Warffum,Eemsmond,Groningen,VBO,6.558413,53.397194
Burg. J. Arkemastraat,11,,,9989BW,Warffum,Eemsmond,Groningen,VBO,6.558744,53.397224
Burg. J. Arkemastraat,13,,,9989BW,Warffum,Eemsmond,Groningen,VBO,6.559056,53.397239
Burg. J. Arkemastraat,15,,,9989BW,Warffum,Eemsmond,Groningen,VBO,6.559399,53.397222
Burg. J. Arkemastraat,19,,,9989BW,Warffum,Eemsmond,Groningen,VBO,6.560109,53.397447
Burg. J. Arkemastraat,21,,,9989BW,Warffum,Eemsmond,Groningen,VBO,6.560215,53.397455
Burg. J. Arkemastraat,23,,,9989BW,Warffum,Eemsmond,Groningen,VBO,6.560306,53.397472
Burg. J. Arkemastraat,25,,,9989BW,Warffum,Eemsmond,Groningen,VBO,6.560486,53.397479
Burg. J. Arkemastraat,27,,,9989BW,Warffum,Eemsmond,Groningen,VBO,6.560577,53.397487
Burg. J. Arkemastraat,29,,,9989BW,Warffum,Eemsmond,Groningen,VBO,6.560667,53.397486
Burg. J. Arkemastraat,31,,,9989BW,Warffum,Eemsmond,Groningen,VBO,6.560878,53.397502
Burg. J. Arkemastraat,33,,,9989BW,Warffum,Eemsmond,Groningen,VBO,6.560983,53.397519
Burg. J. Arkemastraat,35,,,9989BW,Warffum,Eemsmond,Groningen,VBO,6.561104,53.397518
Burg. J. Arkemastraat,37,,,9989BW,Warffum,Eemsmond,Groningen,VBO,6.561269,53.397534
Burg. J. Arkemastraat,39,,,9989BW,Warffum,Eemsmond,Groningen,VBO,6.561360,53.397542
Burg. J. Arkemastraat,41,,,9989BW,Warffum,Eemsmond,Groningen,VBO,6.561465,53.397550
Burg. J. Arkemastraat,2,,,9989BX,Warffum,Eemsmond,Groningen,VBO,6.558379,53.397380
Burg. J. Arkemastraat,4,,,9989BX,Warffum,Eemsmond,Groningen,VBO,6.558654,53.397415
Burg. J. Arkemastraat,6,,,9989BX,Warffum,Eemsmond,Groningen,VBO,6.558937,53.397458
Burg. J. Arkemastraat,8,,,9989BX,Warffum,Eemsmond,Groningen,VBO,6.559212,53.397482
Burg. J. Arkemastraat,10,,,9989BX,Warffum,Eemsmond,Groningen,VBO,6.558510,53.397208
Burg. J. Arkemastraat,12,,,9989BX,Warffum,Eemsmond,Groningen,VBO,6.558841,53.397234
Burg. J. Arkemastraat,14,,,9989BX,Warffum,Eemsmond,Groningen,VBO,6.559154,53.397242
Burg. J. Arkemastraat,16,,,9989BX,Warffum,Eemsmond,Groningen,VBO,6.559497,53.397210
Burg. J. Arkemastraat,20,,,9989BX,Warffum,Eemsmond,Groningen,VBO,6.559893,53.397242
Burg. J. Arkemastraat,22,,,9989BX,Warffum,Eemsmond,Groningen,VBO,6.560209,53.397221
Burg. J. Arkemastraat,24,,,9989BX,Warffum,Eemsmond,Groningen,VBO,6.560299,53.397229
Burg. J. Arkemastraat,26,,,9989BX,Warffum,Eemsmond,Groningen,VBO,6.560389,53.397237
Burg. J. Arkemastraat,28,,,9989BX,Warffum,Eemsmond,Groningen,VBO,6.560570,53.397254
Burg. J. Arkemastraat,30,,,9989BX,Warffum,Eemsmond,Groningen,VBO,6.560676,53.397262
Burg. J. Arkemastraat,32,,,9989BX,Warffum,Eemsmond,Groningen,VBO,6.560766,53.397270
Burg. J. Arkemastraat,34,,,9989BX,Warffum,Eemsmond,Groningen,VBO,6.560932,53.397277
Burg. J. Arkemastraat,36,,,9989BX,Warffum,Eemsmond,Groningen,VBO,6.561037,53.397285
Burg. J. Arkemastraat,38,,,9989BX,Warffum,Eemsmond,Groningen,VBO,6.561143,53.397293
Burg. J. Arkemastraat,40,,,9989BX,Warffum,Eemsmond,Groningen,VBO,6.561339,53.397300
Burg. J. Arkemastraat,42,,,9989BX,Warffum,Eemsmond,Groningen,VBO,6.561429,53.397308
De Pollen,1,,,9989BZ,Warffum,Eemsmond,Groningen,VBO,6.562315,53.389032
De Pollen,2,,,9989BZ,Warffum,Eemsmond,Groningen,VBO,6.561875,53.388336
De Pollen,3,,,9989BZ,Warffum,Eemsmond,Groningen,VBO,6.561852,53.388845
De Pollen,4,,,9989BZ,Warffum,Eemsmond,Groningen,VBO,6.561721,53.388185
De Pollen,6,,,9989BZ,Warffum,Eemsmond,Groningen,VBO,6.561552,53.388060
De Pollen,7,,,9989BZ,Warffum,Eemsmond,Groningen,VBO,6.561509,53.388672
De Pollen,8,,,9989BZ,Warffum,Eemsmond,Groningen,VBO,6.561368,53.387945
De Pollen,9,,,9989BZ,Warffum,Eemsmond,Groningen,VBO,6.561234,53.388522
De Pollen,10,,,9989BZ,Warffum,Eemsmond,Groningen,VBO,6.561141,53.387876
De Pollen,11,,,9989BZ,Warffum,Eemsmond,Groningen,VBO,6.561004,53.388344
De Pollen,12,,,9989BZ,Warffum,Eemsmond,Groningen,VBO,6.560942,53.387725
De Pollen,13,,,9989BZ,Warffum,Eemsmond,Groningen,VBO,6.560864,53.388184
De Pollen,14,,,9989BZ,Warffum,Eemsmond,Groningen,VBO,6.561053,53.387391
De Pollen,15,,,9989BZ,Warffum,Eemsmond,Groningen,VBO,6.562049,53.388640
De Pollen,16,,,9989BZ,Warffum,Eemsmond,Groningen,VBO,6.561045,53.387113
De Pollen,17,,,9989BZ,Warffum,Eemsmond,Groningen,VBO,6.562180,53.388477
De Pollen,18,,,9989BZ,Warffum,Eemsmond,Groningen,VBO,6.561100,53.386906
De Pollen,21,,,9989BZ,Warffum,Eemsmond,Groningen,VBO,6.562429,53.388241
De Pollen,23,,,9989BZ,Warffum,Eemsmond,Groningen,VBO,6.562472,53.388186
De Pollen,25,,,9989BZ,Warffum,Eemsmond,Groningen,VBO,6.562619,53.388041
De Pollen,27,,,9989BZ,Warffum,Eemsmond,Groningen,VBO,6.562050,53.388068
De Pollen,31,,,9989BZ,Warffum,Eemsmond,Groningen,VBO,6.561848,53.387887
De Pollen,37,,,9989BZ,Warffum,Eemsmond,Groningen,VBO,6.561527,53.387701
De Pollen,39,,,9989BZ,Warffum,Eemsmond,Groningen,VBO,6.561387,53.387541
De Pollen,41,,,9989BZ,Warffum,Eemsmond,Groningen,VBO,6.561467,53.387163
De Pollen,45,,,9989BZ,Warffum,Eemsmond,Groningen,VBO,6.561787,53.387366
De Pollen,51,,,9989BZ,Warffum,Eemsmond,Groningen,VBO,6.562126,53.387624
De Pollen,53,,,9989BZ,Warffum,Eemsmond,Groningen,VBO,6.562312,53.387810
Prof. Dr. M. W. Beyerinckstraat,1,,,9989CA,Warffum,Eemsmond,Groningen,VBO,6.558764,53.396624
Prof. Dr. M. W. Beyerinckstraat,2,,,9989CA,Warffum,Eemsmond,Groningen,VBO,6.558869,53.396623
Prof. Dr. M. W. Beyerinckstraat,3,,,9989CA,Warffum,Eemsmond,Groningen,VBO,6.559966,53.396586
Prof. Dr. M. W. Beyerinckstraat,5,,,9989CA,Warffum,Eemsmond,Groningen,VBO,6.560041,53.396594
Prof. Dr. M. W. Beyerinckstraat,7,,,9989CA,Warffum,Eemsmond,Groningen,VBO,6.560282,53.396618
Prof. Dr. M. W. Beyerinckstraat,9,,,9989CA,Warffum,Eemsmond,Groningen,VBO,6.560373,53.396635
Prof. Dr. M. W. Beyerinckstraat,11,,,9989CA,Warffum,Eemsmond,Groningen,VBO,6.560570,53.396678
Prof. Dr. M. W. Beyerinckstraat,13,,,9989CA,Warffum,Eemsmond,Groningen,VBO,6.560676,53.396704
Prof. Dr. M. W. Beyerinckstraat,15,,,9989CA,Warffum,Eemsmond,Groningen,VBO,6.560827,53.396748
Prof. Dr. M. W. Beyerinckstraat,17,,,9989CA,Warffum,Eemsmond,Groningen,VBO,6.560918,53.396774
Prof. Dr. M. W. Beyerinckstraat,19,,,9989CA,Warffum,Eemsmond,Groningen,VBO,6.561069,53.396808
Prof. Dr. M. W. Beyerinckstraat,21,,,9989CA,Warffum,Eemsmond,Groningen,VBO,6.561175,53.396843
Prof. Dr. M. W. Beyerinckstraat,23,,,9989CA,Warffum,Eemsmond,Groningen,VBO,6.561327,53.396878
Prof. Dr. M. W. Beyerinckstraat,25,,,9989CA,Warffum,Eemsmond,Groningen,VBO,6.561433,53.396913
Prof. Dr. M. W. Beyerinckstraat,27,,,9989CA,Warffum,Eemsmond,Groningen,VBO,6.561615,53.396965
Prof. Dr. M. W. Beyerinckstraat,29,,,9989CA,Warffum,Eemsmond,Groningen,VBO,6.561691,53.396991
Prof. Dr. M. W. Beyerinckstraat,31,,,9989CA,Warffum,Eemsmond,Groningen,VBO,6.561782,53.397017
Prof. Dr. M. W. Beyerinckstraat,4,,,9989CB,Warffum,Eemsmond,Groningen,VBO,6.559598,53.396365
Prof. Dr. M. W. Beyerinckstraat,6,,,9989CB,Warffum,Eemsmond,Groningen,VBO,6.559870,53.396371
Prof. Dr. M. W. Beyerinckstraat,8,,,9989CB,Warffum,Eemsmond,Groningen,VBO,6.559960,53.396370
Prof. Dr. M. W. Beyerinckstraat,18,,,9989CB,Warffum,Eemsmond,Groningen,VBO,6.560685,53.396489
Prof. Dr. M. W. Beyerinckstraat,20,,,9989CB,Warffum,Eemsmond,Groningen,VBO,6.560776,53.396515
Prof. Dr. M. W. Beyerinckstraat,22,,,9989CB,Warffum,Eemsmond,Groningen,VBO,6.560957,53.396549
Prof. Dr. M. W. Beyerinckstraat,24,,,9989CB,Warffum,Eemsmond,Groningen,VBO,6.561078,53.396566
Prof. Dr. M. W. Beyerinckstraat,26,,,9989CB,Warffum,Eemsmond,Groningen,VBO,6.561200,53.396627
Prof. Dr. M. W. Beyerinckstraat,28,,,9989CB,Warffum,Eemsmond,Groningen,VBO,6.561290,53.396645
Prof. Dr. M. W. Beyerinckstraat,30,,,9989CB,Warffum,Eemsmond,Groningen,VBO,6.561443,53.396715
Prof. Dr. M. W. Beyerinckstraat,32,,,9989CB,Warffum,Eemsmond,Groningen,VBO,6.561533,53.396732
Prof. Dr. M. W. Beyerinckstraat,34,,,9989CB,Warffum,Eemsmond,Groningen,VBO,6.561609,53.396767
Prof. Dr. M. W. Beyerinckstraat,36,,,9989CB,Warffum,Eemsmond,Groningen,VBO,6.561700,53.396784
Dr. R. Rijkensstraat,1,a,,9989CD,Warffum,Eemsmond,Groningen,VBO,6.562455,53.396632
Dr. R. Rijkensstraat,1,,,9989CD,Warffum,Eemsmond,Groningen,VBO,6.562503,53.396462
Dr. R. Rijkensstraat,2,a,1,9989CD,Warffum,Eemsmond,Groningen,VBO,6.562862,53.396719
Dr. R. Rijkensstraat,2,a,2,9989CD,Warffum,Eemsmond,Groningen,VBO,6.562843,53.396736
Dr. R. Rijkensstraat,2,a,3,9989CD,Warffum,Eemsmond,Groningen,VBO,6.562822,53.396761
Dr. R. Rijkensstraat,2,a,4,9989CD,Warffum,Eemsmond,Groningen,VBO,6.562792,53.396785
Dr. R. Rijkensstraat,2,a,5,9989CD,Warffum,Eemsmond,Groningen,VBO,6.562756,53.396799
Dr. R. Rijkensstraat,2,,,9989CD,Warffum,Eemsmond,Groningen,VBO,6.562696,53.396936
Dr. R. Rijkensstraat,3,,,9989CD,Warffum,Eemsmond,Groningen,VBO,6.562298,53.396662
Dr. R. Rijkensstraat,4,,,9989CD,Warffum,Eemsmond,Groningen,VBO,6.562502,53.396956
Dr. R. Rijkensstraat,5,,,9989CD,Warffum,Eemsmond,Groningen,VBO,6.562254,53.396707
Dr. R. Rijkensstraat,6,,,9989CD,Warffum,Eemsmond,Groningen,VBO,6.562412,53.396993
Dr. R. Rijkensstraat,7,,,9989CD,Warffum,Eemsmond,Groningen,VBO,6.562196,53.396761
Dr. R. Rijkensstraat,8,,,9989CD,Warffum,Eemsmond,Groningen,VBO,6.562311,53.397075
Dr. R. Rijkensstraat,9,,,9989CD,Warffum,Eemsmond,Groningen,VBO,6.562046,53.396799
Dr. R. Rijkensstraat,10,,,9989CD,Warffum,Eemsmond,Groningen,VBO,6.562244,53.397120
Dr. R. Rijkensstraat,11,,,9989CD,Warffum,Eemsmond,Groningen,VBO,6.561988,53.396853
Dr. R. Rijkensstraat,12,,,9989CD,Warffum,Eemsmond,Groningen,VBO,6.562176,53.397157
Dr. R. Rijkensstraat,14,,,9989CD,Warffum,Eemsmond,Groningen,VBO,6.562058,53.397239
Dr. R. Rijkensstraat,16,,,9989CD,Warffum,Eemsmond,Groningen,VBO,6.561999,53.397285
Dr. R. Rijkensstraat,18,,,9989CD,Warffum,Eemsmond,Groningen,VBO,6.561940,53.397330
Dr. R. Rijkensstraat,20,,,9989CD,Warffum,Eemsmond,Groningen,VBO,6.561807,53.397412
Dr. R. Rijkensstraat,22,,,9989CD,Warffum,Eemsmond,Groningen,VBO,6.561764,53.397458
Dr. R. Rijkensstraat,24,,,9989CD,Warffum,Eemsmond,Groningen,VBO,6.561690,53.397503
Schaapweg,1,,,9989CE,Warffum,Eemsmond,Groningen,VBO,6.558448,53.396043
Schaapweg,2,,,9989CE,Warffum,Eemsmond,Groningen,VBO,6.558391,53.396179
Schaapweg,3,,,9989CE,Warffum,Eemsmond,Groningen,VBO,6.558274,53.396287
Schaapweg,4,,,9989CE,Warffum,Eemsmond,Groningen,VBO,6.558231,53.396369
Schaapweg,5,,,9989CE,Warffum,Eemsmond,Groningen,VBO,6.558085,53.396550
Schaapweg,6,,,9989CE,Warffum,Eemsmond,Groningen,VBO,6.557998,53.396632
Schaapweg,7,,,9989CE,Warffum,Eemsmond,Groningen,VBO,6.557955,53.396722
Schaapweg,8,,,9989CE,Warffum,Eemsmond,Groningen,VBO,6.557852,53.396813
Schaapweg,9,,,9989CE,Warffum,Eemsmond,Groningen,VBO,6.557794,53.396894
Schaapweg,10,,,9989CE,Warffum,Eemsmond,Groningen,VBO,6.557691,53.396985
Schaapweg,11,a,,9989CE,Warffum,Eemsmond,Groningen,VBO,6.557275,53.396992
Schaapweg,11,,,9989CE,Warffum,Eemsmond,Groningen,VBO,6.557619,53.397076
Schaapweg,12,,,9989CE,Warffum,Eemsmond,Groningen,VBO,6.557531,53.397166
Schaapweg,13,,,9989CE,Warffum,Eemsmond,Groningen,VBO,6.556843,53.397308
Schaapweg,14,,,9989CE,Warffum,Eemsmond,Groningen,VBO,6.556698,53.397469
Schaapweg,16,,,9989CE,Warffum,Eemsmond,Groningen,VBO,6.557678,53.397614
Schaapweg,17,,,9989CE,Warffum,Eemsmond,Groningen,VBO,6.557711,53.397512
Schaapweg,18,,,9989CE,Warffum,Eemsmond,Groningen,VBO,6.557973,53.397387
Schaapweg,19,,,9989CE,Warffum,Eemsmond,Groningen,VBO,6.558115,53.397089
Schaapweg,20,,,9989CE,Warffum,Eemsmond,Groningen,VBO,6.558127,53.396963
Schaapweg,21,,,9989CE,Warffum,Eemsmond,Groningen,VBO,6.558170,53.396909
Schaapweg,22,,,9989CE,Warffum,Eemsmond,Groningen,VBO,6.558272,53.396791
Schaapweg,23,,,9989CE,Warffum,Eemsmond,Groningen,VBO,6.558316,53.396727
Schaapweg,24,,,9989CE,Warffum,Eemsmond,Groningen,VBO,6.558434,53.396636
De Woldering,3,,,9989CG,Warffum,Eemsmond,Groningen,VBO,6.555248,53.388447
Heffezand,8,,,9989CH,Warffum,Eemsmond,Groningen,VBO,6.554148,53.388180
Zuiderweide,1,,,9989CJ,Warffum,Eemsmond,Groningen,VBO,6.555115,53.389597
Zuiderweide,2,,,9989CJ,Warffum,Eemsmond,Groningen,VBO,6.555655,53.389556
Zuiderweide,3,,,9989CJ,Warffum,Eemsmond,Groningen,VBO,6.555041,53.389624
Zuiderweide,4,,,9989CJ,Warffum,Eemsmond,Groningen,VBO,6.555611,53.389601
Zuiderweide,5,,,9989CJ,Warffum,Eemsmond,Groningen,VBO,6.554982,53.389679
Zuiderweide,6,,,9989CJ,Warffum,Eemsmond,Groningen,VBO,6.555598,53.389673
Zuiderweide,7,,,9989CJ,Warffum,Eemsmond,Groningen,VBO,6.554968,53.389724
Zuiderweide,8,,,9989CJ,Warffum,Eemsmond,Groningen,VBO,6.555467,53.389800
Zuiderweide,9,,,9989CJ,Warffum,Eemsmond,Groningen,VBO,6.555159,53.390082
Zuiderweide,10,,,9989CJ,Warffum,Eemsmond,Groningen,VBO,6.555558,53.389844
Zuiderweide,11,,,9989CJ,Warffum,Eemsmond,Groningen,VBO,6.555100,53.390127
Zuiderweide,12,,,9989CJ,Warffum,Eemsmond,Groningen,VBO,6.555725,53.389896
Zuiderweide,13,,,9989CJ,Warffum,Eemsmond,Groningen,VBO,6.555056,53.390172
Zuiderweide,14,,,9989CJ,Warffum,Eemsmond,Groningen,VBO,6.555701,53.390112
Zuiderweide,15,,,9989CJ,Warffum,Eemsmond,Groningen,VBO,6.555006,53.390002
Zuiderweide,16,,,9989CJ,Warffum,Eemsmond,Groningen,VBO,6.555626,53.390149
Zuiderweide,17,,,9989CJ,Warffum,Eemsmond,Groningen,VBO,6.554915,53.389958
Zuiderweide,19,,,9989CJ,Warffum,Eemsmond,Groningen,VBO,6.554824,53.389923
Zuiderweide,21,,,9989CJ,Warffum,Eemsmond,Groningen,VBO,6.554732,53.389870
Zuiderweide,23,,,9989CJ,Warffum,Eemsmond,Groningen,VBO,6.554626,53.389826
Zuiderweide,25,,,9989CJ,Warffum,Eemsmond,Groningen,VBO,6.554534,53.389782
Zuiderweide,27,,,9989CJ,Warffum,Eemsmond,Groningen,VBO,6.554458,53.389756
Zuiderweide,29,,,9989CJ,Warffum,Eemsmond,Groningen,VBO,6.554411,53.389684
Zuiderweide,31,,,9989CJ,Warffum,Eemsmond,Groningen,VBO,6.554367,53.389730
Zuiderweide,33,,,9989CJ,Warffum,Eemsmond,Groningen,VBO,6.554308,53.389775
Borkum,6,,,9989CK,Warffum,Eemsmond,Groningen,VBO,6.554894,53.387569
Simonszand,7,,,9989CL,Warffum,Eemsmond,Groningen,VBO,6.555722,53.386901
Bekemalaan,53,,,9989CM,Warffum,Eemsmond,Groningen,VBO,6.550853,53.391113
Bekemalaan,55,,,9989CM,Warffum,Eemsmond,Groningen,VBO,6.550727,53.391348
Bekemalaan,57,,,9989CM,Warffum,Eemsmond,Groningen,VBO,6.550867,53.391389
Bekemalaan,59,,,9989CM,Warffum,Eemsmond,Groningen,VBO,6.550974,53.391393
Bekemalaan,61,,,9989CM,Warffum,Eemsmond,Groningen,VBO,6.551091,53.391382
Bekemalaan,63,,,9989CM,Warffum,Eemsmond,Groningen,VBO,6.551178,53.391362
Bekemalaan,65,,,9989CM,Warffum,Eemsmond,Groningen,VBO,6.551338,53.391290
Bekemalaan,67,,,9989CM,Warffum,Eemsmond,Groningen,VBO,6.551333,53.391241
Bekemalaan,69,,,9989CM,Warffum,Eemsmond,Groningen,VBO,6.551309,53.391201
Bekemalaan,71,,,9989CM,Warffum,Eemsmond,Groningen,VBO,6.551244,53.391162
Bekemalaan,73,,,9989CM,Warffum,Eemsmond,Groningen,VBO,6.551164,53.391143
Bekemalaan,75,,,9989CM,Warffum,Eemsmond,Groningen,VBO,6.551078,53.391123
Bekemalaan,77,,,9989CM,Warffum,Eemsmond,Groningen,VBO,6.550993,53.391134
Bekemalaan,79,,,9989CM,Warffum,Eemsmond,Groningen,VBO,6.550936,53.391161
Bekemalaan,81,,,9989CM,Warffum,Eemsmond,Groningen,VBO,6.550763,53.391313
Bekemalaan,83,,,9989CM,Warffum,Eemsmond,Groningen,VBO,6.550884,53.391330
Bekemalaan,85,,,9989CM,Warffum,Eemsmond,Groningen,VBO,6.550988,53.391344
Bekemalaan,87,,,9989CM,Warffum,Eemsmond,Groningen,VBO,6.551084,53.391332
Bekemalaan,89,,,9989CM,Warffum,Eemsmond,Groningen,VBO,6.551150,53.391310
Bekemalaan,2,,,9989CN,Warffum,Eemsmond,Groningen,VBO,6.554606,53.389099
Bekemalaan,3,,,9989CN,Warffum,Eemsmond,Groningen,VBO,6.553782,53.389223
Bekemalaan,4,,,9989CN,Warffum,Eemsmond,Groningen,VBO,6.554399,53.389217
Bekemalaan,5,,,9989CN,Warffum,Eemsmond,Groningen,VBO,6.553503,53.389469
Bekemalaan,6,,,9989CN,Warffum,Eemsmond,Groningen,VBO,6.554312,53.389362
Bekemalaan,8,,,9989CN,Warffum,Eemsmond,Groningen,VBO,6.554151,53.389525
Bekemalaan,10,,,9989CN,Warffum,Eemsmond,Groningen,VBO,6.554003,53.389608
Bekemalaan,11,,,9989CN,Warffum,Eemsmond,Groningen,VBO,6.553268,53.389669
Bekemalaan,13,,,9989CN,Warffum,Eemsmond,Groningen,VBO,6.552997,53.389644
Bekemalaan,15,,,9989CN,Warffum,Eemsmond,Groningen,VBO,6.552906,53.389591
Bekemalaan,16,,,9989CN,Warffum,Eemsmond,Groningen,VBO,6.553723,53.389808
Bekemalaan,17,,,9989CN,Warffum,Eemsmond,Groningen,VBO,6.552766,53.389440
Bekemalaan,18,,,9989CN,Warffum,Eemsmond,Groningen,VBO,6.553606,53.389926
Bekemalaan,19,,,9989CN,Warffum,Eemsmond,Groningen,VBO,6.552569,53.389379
Bekemalaan,23,,,9989CN,Warffum,Eemsmond,Groningen,VBO,6.552141,53.389680
Bekemalaan,24,,,9989CN,Warffum,Eemsmond,Groningen,VBO,6.553250,53.390082
Bekemalaan,25,,,9989CN,Warffum,Eemsmond,Groningen,VBO,6.551935,53.389816
Bekemalaan,26,,,9989CN,Warffum,Eemsmond,Groningen,VBO,6.553128,53.390029
Bekemalaan,27,,,9989CN,Warffum,Eemsmond,Groningen,VBO,6.551833,53.389961
Bekemalaan,28,,,9989CN,Warffum,Eemsmond,Groningen,VBO,6.552946,53.389968
Bekemalaan,29,,,9989CN,Warffum,Eemsmond,Groningen,VBO,6.551808,53.390150
Bekemalaan,30,,,9989CN,Warffum,Eemsmond,Groningen,VBO,6.552747,53.389844
Bekemalaan,31,,,9989CN,Warffum,Eemsmond,Groningen,VBO,6.551918,53.390311
Bekemalaan,32,,,9989CN,Warffum,Eemsmond,Groningen,VBO,6.552287,53.390073
Bekemalaan,33,,,9989CN,Warffum,Eemsmond,Groningen,VBO,6.552244,53.390712
Bekemalaan,35,,,9989CN,Warffum,Eemsmond,Groningen,VBO,6.552202,53.390811
Bekemalaan,36,,,9989CN,Warffum,Eemsmond,Groningen,VBO,6.552413,53.390279
Bekemalaan,37,,,9989CN,Warffum,Eemsmond,Groningen,VBO,6.551935,53.390931
Bekemalaan,38,,,9989CN,Warffum,Eemsmond,Groningen,VBO,6.552581,53.390358
Bekemalaan,39,,,9989CN,Warffum,Eemsmond,Groningen,VBO,6.551435,53.391311
Bekemalaan,40,,,9989CN,Warffum,Eemsmond,Groningen,VBO,6.552689,53.390474
Bekemalaan,41,,,9989CN,Warffum,Eemsmond,Groningen,VBO,6.551439,53.391239
Bekemalaan,42,,,9989CN,Warffum,Eemsmond,Groningen,VBO,6.552576,53.391014
Bekemalaan,43,,,9989CN,Warffum,Eemsmond,Groningen,VBO,6.551396,53.391164
Bekemalaan,45,,,9989CN,Warffum,Eemsmond,Groningen,VBO,6.551312,53.391108
Bekemalaan,47,,,9989CN,Warffum,Eemsmond,Groningen,VBO,6.551207,53.391071
Bekemalaan,49,,,9989CN,Warffum,Eemsmond,Groningen,VBO,6.551073,53.391062
Bekemalaan,51,,,9989CN,Warffum,Eemsmond,Groningen,VBO,6.550956,53.391075
Rottumeroog,1,,,9989CP,Warffum,Eemsmond,Groningen,VBO,6.554296,53.388778
Rottumeroog,2,,,9989CP,Warffum,Eemsmond,Groningen,VBO,6.554077,53.389014
Rottumeroog,3,,,9989CP,Warffum,Eemsmond,Groningen,VBO,6.554114,53.388708
Rottumeroog,4,,,9989CP,Warffum,Eemsmond,Groningen,VBO,6.553910,53.388944
Rottumeroog,5,,,9989CP,Warffum,Eemsmond,Groningen,VBO,6.554023,53.388664
Rottumeroog,6,a,,9989CP,Warffum,Eemsmond,Groningen,VBO,6.553667,53.388829
Rottumeroog,6,,,9989CP,Warffum,Eemsmond,Groningen,VBO,6.553834,53.388908
Rottumeroog,7,,,9989CP,Warffum,Eemsmond,Groningen,VBO,6.553859,53.388573
Rottumeroog,8,,,9989CP,Warffum,Eemsmond,Groningen,VBO,6.553454,53.388741
Rottumeroog,9,,,9989CP,Warffum,Eemsmond,Groningen,VBO,6.553703,53.388505
Rottumerplaat,2,,,9989CR,Warffum,Eemsmond,Groningen,VBO,6.553335,53.389344
Rottumerplaat,4,,,9989CR,Warffum,Eemsmond,Groningen,VBO,6.553091,53.389230
Rottumerplaat,5,,,9989CR,Warffum,Eemsmond,Groningen,VBO,6.553479,53.389136
Rottumerplaat,7,,,9989CR,Warffum,Eemsmond,Groningen,VBO,6.553295,53.389003
Boschplaat,1,,,9989CS,Warffum,Eemsmond,Groningen,VBO,6.553538,53.390169
Boschplaat,2,,,9989CS,Warffum,Eemsmond,Groningen,VBO,6.553924,53.390022
Boschplaat,3,,,9989CS,Warffum,Eemsmond,Groningen,VBO,6.553493,53.390206
Boschplaat,5,,,9989CS,Warffum,Eemsmond,Groningen,VBO,6.553405,53.390287
Boschplaat,7,,,9989CS,Warffum,Eemsmond,Groningen,VBO,6.553347,53.390333
Boschplaat,9,,,9989CS,Warffum,Eemsmond,Groningen,VBO,6.553153,53.390407
Boschplaat,11,,,9989CS,Warffum,Eemsmond,Groningen,VBO,6.553033,53.390408
Korenzand,1,,,9989CT,Warffum,Eemsmond,Groningen,VBO,6.551662,53.390843
Korenzand,3,,,9989CT,Warffum,Eemsmond,Groningen,VBO,6.551450,53.390782
Korenzand,5,,,9989CT,Warffum,Eemsmond,Groningen,VBO,6.551075,53.390831
Korenzand,7,,,9989CT,Warffum,Eemsmond,Groningen,VBO,6.550835,53.390833
Korenzand,9,,,9989CT,Warffum,Eemsmond,Groningen,VBO,6.550401,53.390918
Korenzand,11,,,9989CT,Warffum,Eemsmond,Groningen,VBO,6.550238,53.391010
Voogd van Dijkstraat,2,,,9989CW,Warffum,Eemsmond,Groningen,VBO,6.555494,53.388714
Westerhoffstraat,2,,,9989CZ,Warffum,Eemsmond,Groningen,VBO,6.557037,53.389443
Westerhoffstraat,4,,,9989CZ,Warffum,Eemsmond,Groningen,VBO,6.557092,53.389394
Westerhoffstraat,6,,,9989CZ,Warffum,Eemsmond,Groningen,VBO,6.557200,53.389293
Westerhoffstraat,8,,,9989CZ,Warffum,Eemsmond,Groningen,VBO,6.557261,53.389244
Westerhoffstraat,10,,,9989CZ,Warffum,Eemsmond,Groningen,VBO,6.557379,53.389149
Westerhoffstraat,12,,,9989CZ,Warffum,Eemsmond,Groningen,VBO,6.557437,53.389094
Westerhoffstraat,14,,,9989CZ,Warffum,Eemsmond,Groningen,VBO,6.557555,53.388996
Westerhoffstraat,16,,,9989CZ,Warffum,Eemsmond,Groningen,VBO,6.557609,53.388948
Lamèrisstraat,1,a,,9989EA,Warffum,Eemsmond,Groningen,VBO,6.557712,53.392399
Lamèrisstraat,1,,,9989EA,Warffum,Eemsmond,Groningen,VBO,6.557785,53.392132
Lamèrisstraat,3,,,9989EA,Warffum,Eemsmond,Groningen,VBO,6.557841,53.391987
Lamèrisstraat,5,,,9989EA,Warffum,Eemsmond,Groningen,VBO,6.557956,53.391807
Westervalge,1,,,9989EB,Warffum,Eemsmond,Groningen,VBO,6.557516,53.392630
Westervalge,2,a,,9989EB,Warffum,Eemsmond,Groningen,VBO,6.554934,53.393162
Westervalge,2,,,9989EB,Warffum,Eemsmond,Groningen,VBO,6.555929,53.392995
Westervalge,3,,,9989EB,Warffum,Eemsmond,Groningen,VBO,6.557160,53.392381
Westervalge,4,,,9989EB,Warffum,Eemsmond,Groningen,VBO,6.556665,53.392960
Westervalge,5,a,,9989EB,Warffum,Eemsmond,Groningen,VBO,6.553390,53.391843
Westervalge,5,,,9989EB,Warffum,Eemsmond,Groningen,VBO,6.556643,53.392143
Westervalge,6,,,9989EB,Warffum,Eemsmond,Groningen,VBO,6.556539,53.392755
Westervalge,7,,,9989EB,Warffum,Eemsmond,Groningen,VBO,6.553104,53.391926
Westervalge,8,,,9989EB,Warffum,Eemsmond,Groningen,VBO,6.556357,53.392703
Westervalge,9,,,9989EB,Warffum,Eemsmond,Groningen,VBO,6.552999,53.391918
Westervalge,10,,,9989EB,Warffum,Eemsmond,Groningen,VBO,6.556161,53.392660
Westervalge,11,,,9989EB,Warffum,Eemsmond,Groningen,VBO,6.552863,53.391901
Westervalge,12,,,9989EB,Warffum,Eemsmond,Groningen,VBO,6.555529,53.392657
Westervalge,13,,,9989EB,Warffum,Eemsmond,Groningen,VBO,6.552773,53.391893
Westervalge,14,,,9989EB,Warffum,Eemsmond,Groningen,VBO,6.554851,53.392583
Westervalge,15,,,9989EB,Warffum,Eemsmond,Groningen,VBO,6.552652,53.391876
Westervalge,16,,,9989EB,Warffum,Eemsmond,Groningen,VBO,6.554335,53.392399
Westervalge,17,,,9989EB,Warffum,Eemsmond,Groningen,VBO,6.552531,53.391868
Westervalge,18,,,9989EB,Warffum,Eemsmond,Groningen,VBO,6.553707,53.392522
Westervalge,19,,,9989EB,Warffum,Eemsmond,Groningen,VBO,6.552350,53.391816
Westervalge,20,,,9989EB,Warffum,Eemsmond,Groningen,VBO,6.553850,53.392269
Westervalge,21,,,9989EB,Warffum,Eemsmond,Groningen,VBO,6.552288,53.391781
Westervalge,22,,,9989EB,Warffum,Eemsmond,Groningen,VBO,6.553563,53.392200
Westervalge,23,,,9989EB,Warffum,Eemsmond,Groningen,VBO,6.552167,53.391746
Westervalge,24,,,9989EB,Warffum,Eemsmond,Groningen,VBO,6.553336,53.392166
Westervalge,25,,,9989EB,Warffum,Eemsmond,Groningen,VBO,6.552091,53.391702
Westervalge,27,,,9989EB,Warffum,Eemsmond,Groningen,VBO,6.551999,53.391649
Westervalge,26,,,9989EC,Warffum,Eemsmond,Groningen,VBO,6.553020,53.392151
Westervalge,28,,,9989EC,Warffum,Eemsmond,Groningen,VBO,6.552734,53.392118
Westervalge,29,,,9989EC,Warffum,Eemsmond,Groningen,VBO,6.551893,53.391605
Westervalge,30,,,9989EC,Warffum,Eemsmond,Groningen,VBO,6.552613,53.392119
Westervalge,32,,,9989EC,Warffum,Eemsmond,Groningen,VBO,6.552220,53.392033
Westervalge,34,,,9989EC,Warffum,Eemsmond,Groningen,VBO,6.552113,53.391980
Westervalge,36,,,9989EC,Warffum,Eemsmond,Groningen,VBO,6.551992,53.391927
Westervalge,38,,,9989EC,Warffum,Eemsmond,Groningen,VBO,6.551916,53.391892
Westervalge,39,a,,9989EC,Warffum,Eemsmond,Groningen,VBO,6.549780,53.392090
Westervalge,39,,,9989EC,Warffum,Eemsmond,Groningen,VBO,6.549953,53.392145
Westervalge,40,,,9989EC,Warffum,Eemsmond,Groningen,VBO,6.551764,53.391858
Westervalge,41,,,9989EC,Warffum,Eemsmond,Groningen,VBO,6.549791,53.392245
Westervalge,42,,,9989EC,Warffum,Eemsmond,Groningen,VBO,6.551688,53.391814
Westervalge,43,,,9989EC,Warffum,Eemsmond,Groningen,VBO,6.549672,53.392300
Westervalge,44,,,9989EC,Warffum,Eemsmond,Groningen,VBO,6.551449,53.391879
Westervalge,45,a,,9989EC,Warffum,Eemsmond,Groningen,VBO,6.549441,53.392095
Westervalge,45,b,,9989EC,Warffum,Eemsmond,Groningen,VBO,6.548948,53.392208
Westervalge,45,c,,9989EC,Warffum,Eemsmond,Groningen,VBO,6.548644,53.392104
Westervalge,45,,,9989EC,Warffum,Eemsmond,Groningen,VBO,6.549478,53.392374
Westervalge,46,,,9989EC,Warffum,Eemsmond,Groningen,VBO,6.551390,53.391915
Westervalge,47,,,9989EC,Warffum,Eemsmond,Groningen,VBO,6.545466,53.392997
Westervalge,48,,,9989EC,Warffum,Eemsmond,Groningen,VBO,6.550409,53.392311
Westervalge,49,,,9989EC,Warffum,Eemsmond,Groningen,VBO,6.545335,53.393151
Westervalge,50,,,9989EC,Warffum,Eemsmond,Groningen,VBO,6.550186,53.392421
Westervalge,51,,,9989ED,Warffum,Eemsmond,Groningen,VBO,6.545065,53.393162
Westervalge,52,,,9989ED,Warffum,Eemsmond,Groningen,VBO,6.550009,53.392540
Westervalge,53,,,9989ED,Warffum,Eemsmond,Groningen,VBO,6.544692,53.393265
Westervalge,54,,,9989ED,Warffum,Eemsmond,Groningen,VBO,6.549861,53.392631
Westervalge,56,,,9989ED,Warffum,Eemsmond,Groningen,VBO,6.549455,53.392608
Westervalge,58,,,9989ED,Warffum,Eemsmond,Groningen,VBO,6.549304,53.392582
Westervalge,60,,,9989ED,Warffum,Eemsmond,Groningen,VBO,6.549077,53.392522
Westervalge,62,,,9989ED,Warffum,Eemsmond,Groningen,VBO,6.548849,53.392461
Westervalge,64,,,9989ED,Warffum,Eemsmond,Groningen,VBO,6.548576,53.392365
Westervalge,66,,,9989ED,Warffum,Eemsmond,Groningen,VBO,6.548364,53.392304
Westervalge,68,,,9989ED,Warffum,Eemsmond,Groningen,VBO,6.548183,53.392270
Westervalge,70,,,9989ED,Warffum,Eemsmond,Groningen,VBO,6.548077,53.392235
Westervalge,72,,,9989ED,Warffum,Eemsmond,Groningen,VBO,6.547881,53.392237
Westervalge,74,a,,9989ED,Warffum,Eemsmond,Groningen,VBO,6.546310,53.405453
Westervalge,74,,,9989ED,Warffum,Eemsmond,Groningen,VBO,6.545449,53.394030
Westervalge,76,,,9989EE,Warffum,Eemsmond,Groningen,VBO,6.541162,53.395033
Westervalge,78,,,9989EE,Warffum,Eemsmond,Groningen,VBO,6.536555,53.394241
Westervalge,82,a,,9989EE,Warffum,Eemsmond,Groningen,VBO,6.526657,53.394859
Westervalge,82,,,9989EE,Warffum,Eemsmond,Groningen,VBO,6.526010,53.394548
Westervalge,84,a,,9989EE,Warffum,Eemsmond,Groningen,VBO,6.520833,53.394885
Westervalge,84,,,9989EE,Warffum,Eemsmond,Groningen,VBO,6.521130,53.394747
Juffer Marthastraat,1,,,9989EG,Warffum,Eemsmond,Groningen,VBO,6.560761,53.395994
Juffer Marthastraat,2,,,9989EG,Warffum,Eemsmond,Groningen,VBO,6.560443,53.395898
Juffer Marthastraat,3,,,9989EG,Warffum,Eemsmond,Groningen,VBO,6.560188,53.395918
Juffer Marthastraat,4,,,9989EG,Warffum,Eemsmond,Groningen,VBO,6.560023,53.395920
Juffer Marthastraat,5,,,9989EG,Warffum,Eemsmond,Groningen,VBO,6.559842,53.395913
Juffer Marthastraat,6,,,9989EG,Warffum,Eemsmond,Groningen,VBO,6.559752,53.395923
Juffer Marthastraat,7,,,9989EG,Warffum,Eemsmond,Groningen,VBO,6.559573,53.395951
Juffer Marthastraat,8,,,9989EG,Warffum,Eemsmond,Groningen,VBO,6.559317,53.395963
Juffer Marthastraat,9,a,,9989EG,Warffum,Eemsmond,Groningen,VBO,6.558230,53.395246
Juffer Marthastraat,9,,,9989EG,Warffum,Eemsmond,Groningen,VBO,6.558023,53.395904
Juffer Marthastraat,10,,,9989EG,Warffum,Eemsmond,Groningen,VBO,6.557810,53.395807
Juffer Marthastraat,11,,,9989EG,Warffum,Eemsmond,Groningen,VBO,6.557642,53.395719
Juffer Marthastraat,12,,,9989EG,Warffum,Eemsmond,Groningen,VBO,6.557536,53.395684
Juffer Marthastraat,13,,,9989EG,Warffum,Eemsmond,Groningen,VBO,6.557328,53.395618
Juffer Marthastraat,14,,,9989EG,Warffum,Eemsmond,Groningen,VBO,6.557080,53.395508
Juffer Marthastraat,16,,,9989EG,Warffum,Eemsmond,Groningen,VBO,6.556823,53.395457
Juffer Marthastraat,17,,,9989EG,Warffum,Eemsmond,Groningen,VBO,6.556625,53.395351
Juffer Marthastraat,18,,,9989EG,Warffum,Eemsmond,Groningen,VBO,6.556457,53.395263
Juffer Marthastraat,19,,,9989EG,Warffum,Eemsmond,Groningen,VBO,6.556350,53.395219
Juffer Marthastraat,21,,,9989EG,Warffum,Eemsmond,Groningen,VBO,6.556031,53.395078
Juffer Marthastraat,23,,,9989EG,Warffum,Eemsmond,Groningen,VBO,6.555833,53.394999
Juffer Marthastraat,24,a,,9989EG,Warffum,Eemsmond,Groningen,VBO,6.555680,53.394354
Juffer Marthastraat,24,,,9989EG,Warffum,Eemsmond,Groningen,VBO,6.555423,53.394833
Juffer Marthastraat,25,,,9989EH,Warffum,Eemsmond,Groningen,VBO,6.555040,53.394594
Juffer Marthastraat,26,a,,9989EH,Warffum,Eemsmond,Groningen,VBO,6.554836,53.394497
Juffer Marthastraat,26,b,,9989EH,Warffum,Eemsmond,Groningen,VBO,6.554758,53.394459
Juffer Marthastraat,26,,,9989EH,Warffum,Eemsmond,Groningen,VBO,6.554978,53.394563
Juffer Marthastraat,27,,,9989EH,Warffum,Eemsmond,Groningen,VBO,6.554403,53.394357
Juffer Marthastraat,28,a,,9989EH,Warffum,Eemsmond,Groningen,VBO,6.553913,53.394047
Juffer Marthastraat,28,b,,9989EH,Warffum,Eemsmond,Groningen,VBO,6.553837,53.394003
Juffer Marthastraat,28,,,9989EH,Warffum,Eemsmond,Groningen,VBO,6.554082,53.394163
Juffer Marthastraat,29,a,,9989EH,Warffum,Eemsmond,Groningen,VBO,6.553471,53.393809
Juffer Marthastraat,29,b,,9989EH,Warffum,Eemsmond,Groningen,VBO,6.553395,53.393783
Juffer Marthastraat,29,,,9989EH,Warffum,Eemsmond,Groningen,VBO,6.553669,53.393924
Juffer Marthastraat,30,,,9989EH,Warffum,Eemsmond,Groningen,VBO,6.553014,53.393607
Juffer Marthastraat,31,,,9989EH,Warffum,Eemsmond,Groningen,VBO,6.552923,53.393563
Juffer Marthastraat,32,a,,9989EH,Warffum,Eemsmond,Groningen,VBO,6.553446,53.392884
Juffer Marthastraat,32,b,,9989EH,Warffum,Eemsmond,Groningen,VBO,6.553235,53.392877
Juffer Marthastraat,32,c,,9989EH,Warffum,Eemsmond,Groningen,VBO,6.552994,53.392861
Juffer Marthastraat,32,d,,9989EH,Warffum,Eemsmond,Groningen,VBO,6.552800,53.392917
Juffer Marthastraat,32,e,,9989EH,Warffum,Eemsmond,Groningen,VBO,6.552637,53.392991
Juffer Marthastraat,32,,,9989EH,Warffum,Eemsmond,Groningen,VBO,6.552771,53.393483
Juffer Marthastraat,33,,,9989EH,Warffum,Eemsmond,Groningen,VBO,6.552543,53.393405
Juffer Marthastraat,34,,,9989EH,Warffum,Eemsmond,Groningen,VBO,6.552405,53.393307
Juffer Marthastraat,35,,,9989EH,Warffum,Eemsmond,Groningen,VBO,6.552359,53.393281
Juffer Marthastraat,36,,,9989EH,Warffum,Eemsmond,Groningen,VBO,6.552178,53.393238
Juffer Marthastraat,37,,,9989EH,Warffum,Eemsmond,Groningen,VBO,6.552024,53.393122
Juffer Marthastraat,38,,,9989EH,Warffum,Eemsmond,Groningen,VBO,6.551826,53.393025
Juffer Marthastraat,39,,,9989EH,Warffum,Eemsmond,Groningen,VBO,6.551597,53.392893
Juffer Marthastraat,40,,,9989EH,Warffum,Eemsmond,Groningen,VBO,6.552344,53.392733
Juffer Marthastraat,41,,,9989EH,Warffum,Eemsmond,Groningen,VBO,6.551170,53.392681
Juffer Marthastraat,42,,,9989EH,Warffum,Eemsmond,Groningen,VBO,6.551387,53.392347
Juffer Marthastraat,43,,,9989EH,Warffum,Eemsmond,Groningen,VBO,6.550710,53.392344
Juffer Marthastraat,44,,,9989EH,Warffum,Eemsmond,Groningen,VBO,6.551295,53.392303
Juffer Marthastraat,45,,,9989EH,Warffum,Eemsmond,Groningen,VBO,6.550160,53.391990
Juffer Marthastraat,46,,,9989EH,Warffum,Eemsmond,Groningen,VBO,6.551156,53.392142
Juffer Marthastraat,48,,,9989EH,Warffum,Eemsmond,Groningen,VBO,6.550771,53.391813
Juffer Marthastraat,49,,,9989EH,Warffum,Eemsmond,Groningen,VBO,6.549793,53.391796
Juffer Marthastraat,50,,,9989EH,Warffum,Eemsmond,Groningen,VBO,6.550376,53.387803
Juffer Marthastraat,51,,,9989EH,Warffum,Eemsmond,Groningen,VBO,6.549596,53.391717
Juffer Marthastraat,53,,,9989EH,Warffum,Eemsmond,Groningen,VBO,6.549458,53.391628
Juffer Marthastraat,55,,,9989EH,Warffum,Eemsmond,Groningen,VBO,6.549306,53.391567
Juffer Marthastraat,57,,,9989EH,Warffum,Eemsmond,Groningen,VBO,6.548423,53.391144
Juffer Marthastraat,59,,,9989EH,Warffum,Eemsmond,Groningen,VBO,6.547814,53.390853
Oostervalge,1,,,9989EJ,Warffum,Eemsmond,Groningen,VBO,6.559798,53.395383
Oostervalge,2,,,9989EJ,Warffum,Eemsmond,Groningen,VBO,6.560011,53.395480
Oostervalge,3,,,9989EJ,Warffum,Eemsmond,Groningen,VBO,6.560164,53.395586
Oostervalge,5,,,9989EJ,Warffum,Eemsmond,Groningen,VBO,6.561061,53.395955
Oostervalge,6,,,9989EJ,Warffum,Eemsmond,Groningen,VBO,6.561227,53.395980
Oostervalge,7,,,9989EJ,Warffum,Eemsmond,Groningen,VBO,6.561394,53.396050
Oostervalge,8,,,9989EJ,Warffum,Eemsmond,Groningen,VBO,6.561547,53.396121
Oostervalge,9,,,9989EJ,Warffum,Eemsmond,Groningen,VBO,6.561714,53.396191
Oostervalge,10,,,9989EJ,Warffum,Eemsmond,Groningen,VBO,6.561925,53.396225
Oostervalge,11,,,9989EJ,Warffum,Eemsmond,Groningen,VBO,6.562093,53.396295
Oostervalge,12,,,9989EJ,Warffum,Eemsmond,Groningen,VBO,6.562229,53.396348
Oostervalge,13,,,9989EJ,Warffum,Eemsmond,Groningen,VBO,6.562427,53.396436
Oostervalge,14,,,9989EJ,Warffum,Eemsmond,Groningen,VBO,6.562952,53.396613
Oostervalge,16,,,9989EJ,Warffum,Eemsmond,Groningen,VBO,6.563111,53.396690
Oostervalge,17,,,9989EJ,Warffum,Eemsmond,Groningen,VBO,6.563354,53.396786
Oostervalge,18,,,9989EJ,Warffum,Eemsmond,Groningen,VBO,6.563536,53.396865
Oostervalge,19,,,9989EJ,Warffum,Eemsmond,Groningen,VBO,6.563587,53.397080
Oostervalge,21,,,9989EJ,Warffum,Eemsmond,Groningen,VBO,6.563949,53.397113
Oostervalge,22,,,9989EJ,Warffum,Eemsmond,Groningen,VBO,6.564270,53.397289
Oostervalge,24,,,9989EJ,Warffum,Eemsmond,Groningen,VBO,6.564744,53.397581
Oostervalge,25,,,9989EJ,Warffum,Eemsmond,Groningen,VBO,6.564932,53.397858
Oostervalge,29,,,9989EK,Warffum,Eemsmond,Groningen,VBO,6.565475,53.397934
Oostervalge,30,,,9989EK,Warffum,Eemsmond,Groningen,VBO,6.565582,53.397995
Oostervalge,31,,,9989EK,Warffum,Eemsmond,Groningen,VBO,6.565877,53.398900
Oostervalge,32,,,9989EK,Warffum,Eemsmond,Groningen,VBO,6.567364,53.399371
Oostervalge,36,a,,9989EK,Warffum,Eemsmond,Groningen,VBO,6.571008,53.399578
Oostervalge,36,b,,9989EK,Warffum,Eemsmond,Groningen,VBO,6.571814,53.399612
Oostervalge,36,,,9989EK,Warffum,Eemsmond,Groningen,VBO,6.569616,53.399277
Oostervalge,37,,,9989EK,Warffum,Eemsmond,Groningen,VBO,6.574293,53.398763
Oostervalge,38,,,9989EK,Warffum,Eemsmond,Groningen,VBO,6.571249,53.399054
Oostervalge,40,,,9989EK,Warffum,Eemsmond,Groningen,VBO,6.566445,53.398221
Oostervalge,41,,,9989EK,Warffum,Eemsmond,Groningen,VBO,6.566018,53.398009
Oostervalge,42,,,9989EK,Warffum,Eemsmond,Groningen,VBO,6.564506,53.397125
Oostervalge,44,a,,9989EK,Warffum,Eemsmond,Groningen,VBO,6.563649,53.396569
Oostervalge,44,,,9989EK,Warffum,Eemsmond,Groningen,VBO,6.563773,53.396710
Oostervalge,45,,,9989EK,Warffum,Eemsmond,Groningen,VBO,6.563330,53.396472
Oostervalge,46,,,9989EK,Warffum,Eemsmond,Groningen,VBO,6.563025,53.396322
Oostervalge,48,,,9989EK,Warffum,Eemsmond,Groningen,VBO,6.562874,53.396279
Oostervalge,49,a,,9989EL,Warffum,Eemsmond,Groningen,VBO,6.562518,53.395917
Oostervalge,49,,,9989EL,Warffum,Eemsmond,Groningen,VBO,6.562409,53.396033
Oostervalge,50,,,9989EL,Warffum,Eemsmond,Groningen,VBO,6.561884,53.395803
Oostervalge,51,,,9989EL,Warffum,Eemsmond,Groningen,VBO,6.561513,53.395438
Oostervalge,52,a,,9989EL,Warffum,Eemsmond,Groningen,VBO,6.561223,53.394744
Oostervalge,52,,,9989EL,Warffum,Eemsmond,Groningen,VBO,6.560985,53.395371
Oostervalge,53,,,9989EL,Warffum,Eemsmond,Groningen,VBO,6.561606,53.394267
Oudendijk,1,,,9989EM,Warffum,Eemsmond,Groningen,VBO,6.562300,53.398396
Oudendijk,2,,,9989EM,Warffum,Eemsmond,Groningen,VBO,6.557118,53.400774
Oudendijk,3,,,9989EM,Warffum,Eemsmond,Groningen,VBO,6.561877,53.398301
Oudendijk,5,,,9989EM,Warffum,Eemsmond,Groningen,VBO,6.561499,53.398224
Oudendijk,9,,,9989EM,Warffum,Eemsmond,Groningen,VBO,6.559097,53.397932
Oudendijk,11,,,9989EM,Warffum,Eemsmond,Groningen,VBO,6.558920,53.397926
Oudendijk,13,,,9989EM,Warffum,Eemsmond,Groningen,VBO,6.558662,53.397856
Oudendijk,15,,,9989EM,Warffum,Eemsmond,Groningen,VBO,6.558375,53.397805
Oudendijk,17,,,9989EM,Warffum,Eemsmond,Groningen,VBO,6.558148,53.397744
Oudendijk,19,,,9989EM,Warffum,Eemsmond,Groningen,VBO,6.557967,53.397737
Oudendijk,21,,,9989EM,Warffum,Eemsmond,Groningen,VBO,6.556391,53.397258
Oudendijk,23,,,9989EM,Warffum,Eemsmond,Groningen,VBO,6.556170,53.397413
Oudendijk,25,,,9989EM,Warffum,Eemsmond,Groningen,VBO,6.556038,53.396994
Oudendijk,27,,,9989EN,Warffum,Eemsmond,Groningen,VBO,6.556074,53.397198
Oudendijk,29,,,9989EN,Warffum,Eemsmond,Groningen,VBO,6.555232,53.397207
Oudendijk,31,,,9989EN,Warffum,Eemsmond,Groningen,VBO,6.554582,53.397069
Oudendijk,33,,,9989EN,Warffum,Eemsmond,Groningen,VBO,6.554977,53.396679
Oudendijk,35,,,9989EN,Warffum,Eemsmond,Groningen,VBO,6.554677,53.396691
Oudendijk,37,,,9989EN,Warffum,Eemsmond,Groningen,VBO,6.554575,53.396827
Oudendijk,39,,,9989EN,Warffum,Eemsmond,Groningen,VBO,6.554174,53.397010
Oudendijk,41,,,9989EN,Warffum,Eemsmond,Groningen,VBO,6.554038,53.396427
Oudendijk,43,,,9989EN,Warffum,Eemsmond,Groningen,VBO,6.553836,53.396735
Oudendijk,45,,,9989EN,Warffum,Eemsmond,Groningen,VBO,6.553734,53.396871
Oudendijk,47,,,9989EN,Warffum,Eemsmond,Groningen,VBO,6.553664,53.397051
Oudendijk,49,,,9989EN,Warffum,Eemsmond,Groningen,VBO,6.553543,53.397034
Oudendijk,51,,,9989EP,Warffum,Eemsmond,Groningen,VBO,6.553420,53.396937
Oudendijk,53,,,9989EP,Warffum,Eemsmond,Groningen,VBO,6.553105,53.396949
Oudendijk,55,,,9989EP,Warffum,Eemsmond,Groningen,VBO,6.553029,53.396931
Oudendijk,57,,,9989EP,Warffum,Eemsmond,Groningen,VBO,6.552892,53.396861
Oudendijk,59,,,9989EP,Warffum,Eemsmond,Groningen,VBO,6.552720,53.396629
Helpman,1,,,9989ES,Warffum,Eemsmond,Groningen,VBO,6.553183,53.395933
Helpman,2,,,9989ES,Warffum,Eemsmond,Groningen,VBO,6.553268,53.395752
Helpman,3,,,9989ES,Warffum,Eemsmond,Groningen,VBO,6.553503,53.395561
Helpman,4,,,9989ES,Warffum,Eemsmond,Groningen,VBO,6.553633,53.395353
Helpman,5,,,9989ES,Warffum,Eemsmond,Groningen,VBO,6.553792,53.395118
Helpman,6,,,9989ES,Warffum,Eemsmond,Groningen,VBO,6.553968,53.394972
Helpman,7,,,9989ES,Warffum,Eemsmond,Groningen,VBO,6.554099,53.394809
Helpman,8,,,9989ES,Warffum,Eemsmond,Groningen,VBO,6.554229,53.394584
Helpman,9,,,9989ES,Warffum,Eemsmond,Groningen,VBO,6.553802,53.394381
Helpman,10,,,9989ES,Warffum,Eemsmond,Groningen,VBO,6.553657,53.394580
Helpman,11,,,9989ES,Warffum,Eemsmond,Groningen,VBO,6.553468,53.394807
Helpman,12,,,9989ES,Warffum,Eemsmond,Groningen,VBO,6.550866,53.394221
Helpman,13,,,9989ES,Warffum,Eemsmond,Groningen,VBO,6.550997,53.394076
Helpman,14,,,9989ES,Warffum,Eemsmond,Groningen,VBO,6.551052,53.393877
Helpman,18,,,9989ES,Warffum,Eemsmond,Groningen,VBO,6.551465,53.393011
Helpman,19,,,9989ES,Warffum,Eemsmond,Groningen,VBO,6.551130,53.392852
Helpman,20,,,9989ES,Warffum,Eemsmond,Groningen,VBO,6.550866,53.393089
Helpman,21,,,9989ES,Warffum,Eemsmond,Groningen,VBO,6.550839,53.393215
Helpman,22,,,9989ET,Warffum,Eemsmond,Groningen,VBO,6.550780,53.393251
Helpman,24,,,9989ET,Warffum,Eemsmond,Groningen,VBO,6.549147,53.393474
Helpman,30,,,9989ET,Warffum,Eemsmond,Groningen,VBO,6.550647,53.394447
Helpman,31,,,9989ET,Warffum,Eemsmond,Groningen,VBO,6.551146,53.394568
Helpman,32,,,9989ET,Warffum,Eemsmond,Groningen,VBO,6.551555,53.394663
Helpman,33,,,9989ET,Warffum,Eemsmond,Groningen,VBO,6.551857,53.394714
Helpman,34,,,9989ET,Warffum,Eemsmond,Groningen,VBO,6.552175,53.394792
Helpman,35,,,9989ET,Warffum,Eemsmond,Groningen,VBO,6.552885,53.394938
Helpman,36,,,9989ET,Warffum,Eemsmond,Groningen,VBO,6.553324,53.395033
Helpman,37,,,9989ET,Warffum,Eemsmond,Groningen,VBO,6.552696,53.395722
Helpman,38,,,9989ET,Warffum,Eemsmond,Groningen,VBO,6.552551,53.395921
Redger van Bolhuisstraat,1,,,9989EV,Warffum,Eemsmond,Groningen,VBO,6.550610,53.392534
Redger van Bolhuisstraat,2,,,9989EV,Warffum,Eemsmond,Groningen,VBO,6.550956,53.392522
Redger van Bolhuisstraat,4,,,9989EV,Warffum,Eemsmond,Groningen,VBO,6.550855,53.392684
Redger van Bolhuisstraat,5,,,9989EV,Warffum,Eemsmond,Groningen,VBO,6.550433,53.392652
Redger van Bolhuisstraat,6,,,9989EV,Warffum,Eemsmond,Groningen,VBO,6.550721,53.392739
Redger van Bolhuisstraat,7,,,9989EV,Warffum,Eemsmond,Groningen,VBO,6.550301,53.392788
Redger van Bolhuisstraat,8,,,9989EV,Warffum,Eemsmond,Groningen,VBO,6.550707,53.392785
Redger van Bolhuisstraat,9,,,9989EV,Warffum,Eemsmond,Groningen,VBO,6.550257,53.392825
Redger van Bolhuisstraat,10,,,9989EV,Warffum,Eemsmond,Groningen,VBO,6.550604,53.392892
Redger van Bolhuisstraat,11,a,,9989EV,Warffum,Eemsmond,Groningen,VBO,6.549964,53.393020
Redger van Bolhuisstraat,11,,,9989EV,Warffum,Eemsmond,Groningen,VBO,6.550170,53.392951
Redger van Bolhuisstraat,12,,,9989EV,Warffum,Eemsmond,Groningen,VBO,6.550561,53.392937
Redger van Bolhuisstraat,14,,,9989EV,Warffum,Eemsmond,Groningen,VBO,6.550438,53.393075
Redger van Bolhuisstraat,16,,,9989EV,Warffum,Eemsmond,Groningen,VBO,6.550401,53.393113
Katershorn,1,,,9989EW,Warffum,Eemsmond,Groningen,VBO,6.555655,53.397274
Katershorn,2,,,9989EW,Warffum,Eemsmond,Groningen,VBO,6.555474,53.397249
Katershorn,4,,,9989EW,Warffum,Eemsmond,Groningen,VBO,6.555850,53.396715
Katershorn,6,,,9989EW,Warffum,Eemsmond,Groningen,VBO,6.555938,53.396643
Katershorn,7,,,9989EW,Warffum,Eemsmond,Groningen,VBO,6.556295,53.396504
Katershorn,8,,,9989EW,Warffum,Eemsmond,Groningen,VBO,6.556184,53.396281
Katershorn,9,,,9989EW,Warffum,Eemsmond,Groningen,VBO,6.556395,53.396297
Katershorn,11,,,9989EW,Warffum,Eemsmond,Groningen,VBO,6.556526,53.396161
Katershorn,13,,,9989EW,Warffum,Eemsmond,Groningen,VBO,6.556627,53.396007
Breedster Oudendijk,1,,,9989EZ,Warffum,Eemsmond,Groningen,VBO,6.540646,53.395804
Breedster Oudendijk,2,,,9989EZ,Warffum,Eemsmond,Groningen,VBO,6.539481,53.395714
Breedster Oudendijk,3,,,9989EZ,Warffum,Eemsmond,Groningen,VBO,6.537200,53.395296
Breedster Oudendijk,5,,,9989EZ,Warffum,Eemsmond,Groningen,VBO,6.532507,53.395206
Breedster Oudendijk,6,,,9989EZ,Warffum,Eemsmond,Groningen,VBO,6.532366,53.395548
De Valge,2,,,9989GA,Warffum,Eemsmond,Groningen,VBO,6.552449,53.392148
De Valge,4,,,9989GA,Warffum,Eemsmond,Groningen,VBO,6.552356,53.392178
De Valge,6,,,9989GA,Warffum,Eemsmond,Groningen,VBO,6.552196,53.392249
De Valge,8,,,9989GA,Warffum,Eemsmond,Groningen,VBO,6.552135,53.392290
De Valge,10,,,9989GA,Warffum,Eemsmond,Groningen,VBO,6.551974,53.392395
De Valge,12,,,9989GA,Warffum,Eemsmond,Groningen,VBO,6.551856,53.392468
De Valge,14,,,9989GA,Warffum,Eemsmond,Groningen,VBO,6.551798,53.392549
De Valge,1,,,9989GB,Warffum,Eemsmond,Groningen,VBO,6.551954,53.392188
De Valge,3,,,9989GB,Warffum,Eemsmond,Groningen,VBO,6.551851,53.392270
De Valge,5,,,9989GB,Warffum,Eemsmond,Groningen,VBO,6.551792,53.392307
De Valge,7,,,9989GB,Warffum,Eemsmond,Groningen,VBO,6.551673,53.392371
Breede,1,a,,9989TA,Warffum,Eemsmond,Groningen,VBO,6.542374,53.388013
Breede,1,b,,9989TA,Warffum,Eemsmond,Groningen,VBO,6.541158,53.385822
Breede,1,c,,9989TA,Warffum,Eemsmond,Groningen,VBO,6.540914,53.386611
Breede,1,,,9989TA,Warffum,Eemsmond,Groningen,VBO,6.540092,53.386543
Breede,2,,,9989TA,Warffum,Eemsmond,Groningen,VBO,6.542067,53.383963
Breede,3,a,,9989TA,Warffum,Eemsmond,Groningen,VBO,6.541584,53.383781
Breede,3,,,9989TA,Warffum,Eemsmond,Groningen,VBO,6.541855,53.383902
Breede,4,a,,9989TA,Warffum,Eemsmond,Groningen,VBO,6.539553,53.385490
Breede,4,,,9989TA,Warffum,Eemsmond,Groningen,VBO,6.538519,53.385605
Breede,5,,,9989TA,Warffum,Eemsmond,Groningen,VBO,6.540712,53.385009
Breede,6,,,9989TA,Warffum,Eemsmond,Groningen,VBO,6.537631,53.386674
Breede,7,,,9989TA,Warffum,Eemsmond,Groningen,VBO,6.537262,53.386363
Breede,8,,,9989TA,Warffum,Eemsmond,Groningen,VBO,6.536973,53.386249
Breede,9,,,9989TA,Warffum,Eemsmond,Groningen,VBO,6.536820,53.386134
Breede,10,,,9989TA,Warffum,Eemsmond,Groningen,VBO,6.536485,53.385984
Breede,11,,,9989TA,Warffum,Eemsmond,Groningen,VBO,6.536211,53.385843
Breede,12,,,9989TA,Warffum,Eemsmond,Groningen,VBO,6.536013,53.385764
Breede,13,,,9989TA,Warffum,Eemsmond,Groningen,VBO,6.536840,53.385765
Breede,14,,,9989TA,Warffum,Eemsmond,Groningen,VBO,6.537028,53.385409
Breede,16,,,9989TA,Warffum,Eemsmond,Groningen,VBO,6.536928,53.385126
Breede,17,,,9989TA,Warffum,Eemsmond,Groningen,VBO,6.536418,53.385469
Breede,20,a,,9989TA,Warffum,Eemsmond,Groningen,VBO,6.533882,53.384541
Breede,20,,,9989TA,Warffum,Eemsmond,Groningen,VBO,6.535272,53.383884
Breede,21,,,9989TA,Warffum,Eemsmond,Groningen,VBO,6.531900,53.383701
Breede,22,,,9989TA,Warffum,Eemsmond,Groningen,VBO,6.528466,53.383985
Breede,23,,,9989TA,Warffum,Eemsmond,Groningen,VBO,6.527100,53.385077
Kloosterweg,1,,,9989TB,Warffum,Eemsmond,Groningen,VBO,6.566201,53.386586
Kloosterweg,2,,,9989TB,Warffum,Eemsmond,Groningen,VBO,6.570204,53.384013
Kloosterweg,4,,,9989TB,Warffum,Eemsmond,Groningen,VBO,6.567297,53.384886
Kloosterweg,5,,,9989TB,Warffum,Eemsmond,Groningen,VBO,6.566933,53.384764
Kloosterweg,6,,,9989TB,Warffum,Eemsmond,Groningen,VBO,6.569711,53.380307
Kloosterweg,7,,,9989TB,Warffum,Eemsmond,Groningen,VBO,6.575234,53.376398
Kloosterweg,8,,,9989TB,Warffum,Eemsmond,Groningen,VBO,6.571109,53.375396
Kloosterweg,9,,,9989TB,Warffum,Eemsmond,Groningen,VBO,6.573162,53.368106
Kloosterdwarsweg,1,,,9989TC,Warffum,Eemsmond,Groningen,VBO,6.578551,53.367387
Kloosterdwarsweg,2,,,9989TC,Warffum,Eemsmond,Groningen,VBO,6.583384,53.372084
Noordpolderweg,1,,,9989TD,Warffum,Eemsmond,Groningen,VBO,6.560183,53.400151
Noordpolderweg,2,,,9989TD,Warffum,Eemsmond,Groningen,VBO,6.560223,53.400510
Noordpolderweg,3,,,9989TD,Warffum,Eemsmond,Groningen,VBO,6.560158,53.400897
Noordpolder,1,,,9989TE,Warffum,Eemsmond,Groningen,VBO,6.549593,53.406633
Noordpolder,2,,,9989TE,Warffum,Eemsmond,Groningen,VBO,6.552874,53.407115
Noordpolder,3,a,,9989TE,Warffum,Eemsmond,Groningen,VBO,6.554151,53.407079
Noordpolder,3,,,9989TE,Warffum,Eemsmond,Groningen,VBO,6.554693,53.407206
Noordpolder,4,a,,9989TE,Warffum,Eemsmond,Groningen,VBO,6.549501,53.414344
Noordpolder,4,,,9989TE,Warffum,Eemsmond,Groningen,VBO,6.550690,53.413811
Noordpolder,5,,,9989TE,Warffum,Eemsmond,Groningen,VBO,6.549973,53.417341
Noordpolder,6,a,,9989TE,Warffum,Eemsmond,Groningen,VBO,6.556552,53.416304
Noordpolder,6,,,9989TE,Warffum,Eemsmond,Groningen,VBO,6.556172,53.416283
Noordpolder,7,,,9989TE,Warffum,Eemsmond,Groningen,VBO,6.561458,53.408280
Noordpolder,9,,,9989TE,Warffum,Eemsmond,Groningen,VBO,6.563804,53.417647
Noordpolder,10,,,9989TE,Warffum,Eemsmond,Groningen,VBO,6.566328,53.417612
Onderdendamsterweg,1,a,,9989TG,Warffum,Eemsmond,Groningen,VBO,6.559822,53.387699
Onderdendamsterweg,1,,,9989TG,Warffum,Eemsmond,Groningen,VBO,6.560126,53.387041
Onderdendamsterweg,2,a,,9989TG,Warffum,Eemsmond,Groningen,VBO,6.561370,53.379967
Onderdendamsterweg,2,,,9989TG,Warffum,Eemsmond,Groningen,VBO,6.560534,53.384889
Onderdendamsterweg,3,,,9989TG,Warffum,Eemsmond,Groningen,VBO,6.561635,53.379541
Onderdendamsterweg,4,a,,9989TG,Warffum,Eemsmond,Groningen,VBO,6.564269,53.375104
Onderdendamsterweg,4,,,9989TG,Warffum,Eemsmond,Groningen,VBO,6.564572,53.374858
Onderdendamsterweg,5,,,9989TG,Warffum,Eemsmond,Groningen,VBO,6.568529,53.372842
Onderdendamsterweg,6,a,,9989TG,Warffum,Eemsmond,Groningen,VBO,6.572231,53.371060
Onderdendamsterweg,6,,,9989TG,Warffum,Eemsmond,Groningen,VBO,6.571885,53.371946
Onderdendamsterweg,7,a,,9989TG,Warffum,Eemsmond,Groningen,VBO,6.569159,53.372727
Onderdendamsterweg,7,,,9989TG,Warffum,Eemsmond,Groningen,VBO,6.569201,53.372631
Onderdendamsterweg,8,,,9989TG,Warffum,Eemsmond,Groningen,VBO,6.567762,53.361303
Onderdendamsterweg,9,,,9989TG,Warffum,Eemsmond,Groningen,VBO,6.566950,53.359082
Onderdendamsterweg,10,,,9989TG,Warffum,Eemsmond,Groningen,VBO,6.569844,53.358892
Onderdendamsterweg,11,,,9989TG,Warffum,Eemsmond,Groningen,VBO,6.572488,53.360440
Onderdendamsterweg,12,,,9989TG,Warffum,Eemsmond,Groningen,VBO,6.569453,53.357808
Onderdendamsterweg,13,a,,9989TG,Warffum,Eemsmond,Groningen,VBO,6.571075,53.355072
Onderdendamsterweg,13,,,9989TG,Warffum,Eemsmond,Groningen,VBO,6.575198,53.355317
Onderdendamsterweg,14,,,9989TG,Warffum,Eemsmond,Groningen,VBO,6.581008,53.351988
Onderdendamsterweg,15,,,9989TG,Warffum,Eemsmond,Groningen,VBO,6.577113,53.347078
Onderdendamsterweg,16,,,9989TG,Warffum,Eemsmond,Groningen,VBO,6.583470,53.344229
Onderdendamsterweg,17,,,9989TG,Warffum,Eemsmond,Groningen,VBO,6.583035,53.344664
Oude Weersterweg,3,,,9989TH,Warffum,Eemsmond,Groningen,VBO,6.558369,53.368862
Oude Weersterweg,4,,,9989TH,Warffum,Eemsmond,Groningen,VBO,6.567093,53.369792
Molenweg,2,a,,9989TJ,Warffum,Eemsmond,Groningen,VBO,6.552979,53.360508
Molenweg,2,,,9989TJ,Warffum,Eemsmond,Groningen,VBO,6.553221,53.359052
Hammelandsterweg,5,,,9989TK,Warffum,Eemsmond,Groningen,VBO,6.552837,53.378180
